reflector_ip,ip_version,offset,description,country_code,region,sub_region,country_name,sub_division_1,sub_division_2,city
167.235.173.117,4,7,akkushop.de,DE,Europe,Western Europe,Germany,Rheinland-Pfalz,,Zweibrücken
167.235.173.13,4,-15,allround-pc.com,DE,Europe,Western Europe,Germany,Rheinland-Pfalz,,Zweibrücken
167.235.173.186,4,19,ars24.com,DE,Europe,Western Europe,Germany,Rheinland-Pfalz,,Zweibrücken
167.235.208.197,4,6,arzum.com.tr,DE,Europe,Western Europe,Germany,Rheinland-Pfalz,,Zweibrücken
167.235.210.201,4,22,beobuild.rs,DE,Europe,Western Europe,Germany,Rheinland-Pfalz,,Zweibrücken
167.235.173.223,4,92,bioland.de,DE,Europe,Western Europe,Germany,Rheinland-Pfalz,,Zweibrücken
167.235.210.246,4,6,detinjarije.com,DE,Europe,Western Europe,Germany,Rheinland-Pfalz,,Zweibrücken
167.235.209.212,4,7,euregio.eu,DE,Europe,Western Europe,Germany,Rheinland-Pfalz,,Zweibrücken
167.235.173.245,4,5,forum-fairer-handel.de,DE,Europe,Western Europe,Germany,Rheinland-Pfalz,,Zweibrücken
167.235.173.83,4,8,freixenet-onlineshop.de,DE,Europe,Western Europe,Germany,Rheinland-Pfalz,,Zweibrücken
167.235.173.78,4,7,hd.digital,DE,Europe,Western Europe,Germany,Rheinland-Pfalz,,Zweibrücken
167.235.173.127,4,36,hostit.pl,DE,Europe,Western Europe,Germany,Rheinland-Pfalz,,Zweibrücken
167.235.173.246,4,4,kab.de,DE,Europe,Western Europe,Germany,Rheinland-Pfalz,,Zweibrücken
167.235.173.215,4,5,korrosionsschutz-depot.de,DE,Europe,Western Europe,Germany,Rheinland-Pfalz,,Zweibrücken
167.235.173.8,4,85,metallhandwerk.de,DE,Europe,Western Europe,Germany,Rheinland-Pfalz,,Zweibrücken
167.235.208.231,4,41,phpbb.nl,DE,Europe,Western Europe,Germany,Rheinland-Pfalz,,Zweibrücken
167.235.173.247,4,6,r-raymon-bikes.com,DE,Europe,Western Europe,Germany,Rheinland-Pfalz,,Zweibrücken
167.235.173.102,4,54,sendemail.ch,DE,Europe,Western Europe,Germany,Rheinland-Pfalz,,Zweibrücken
167.235.173.180,4,15,tiermedizinportal.de,DE,Europe,Western Europe,Germany,Rheinland-Pfalz,,Zweibrücken
167.235.173.99,4,3,vitos.de,DE,Europe,Western Europe,Germany,Rheinland-Pfalz,,Zweibrücken
167.235.208.169,4,20,weltderphysik.de,DE,Europe,Western Europe,Germany,Rheinland-Pfalz,,Zweibrücken
167.235.173.219,4,15,zookrefeld.de,DE,Europe,Western Europe,Germany,Rheinland-Pfalz,,Zweibrücken
