reflector_ip,ip_version,offset,description,country_code,region,sub_region,country_name,sub_division_1,sub_division_2,city
93.185.99.102,4,4,4kids.cz,CZ,Europe,Eastern Europe,Czechia,South Moravian,Město Brno,Brno
81.31.43.172,4,5,anniebabymonitor.com,CZ,Europe,Eastern Europe,Czechia,South Moravian,Město Brno,Brno
77.240.188.13,4,238,apartmany-obora.cz,CZ,Europe,Eastern Europe,Czechia,South Moravian,Město Brno,Brno
93.185.99.151,4,18,blue-style.cz,CZ,Europe,Eastern Europe,Czechia,South Moravian,Město Brno,Brno
93.185.104.29,4,-361,bmw7er-club.cz,CZ,Europe,Eastern Europe,Czechia,South Moravian,Město Brno,Brno
147.251.96.60,4,27,brna.cz,CZ,Europe,Eastern Europe,Czechia,South Moravian,Město Brno,Brno
88.103.205.136,4,-13,brno-airport.cz,CZ,Europe,Eastern Europe,Czechia,South Moravian,Město Brno,Brno
147.251.6.92,4,1307,ceskyhudebnislovnik.cz,CZ,Europe,Eastern Europe,Czechia,South Moravian,Město Brno,Brno
195.178.88.140,4,7,cjournal.cz,CZ,Europe,Eastern Europe,Czechia,South Moravian,Město Brno,Brno
147.231.201.166,4,3,czechglobe.cz,CZ,Europe,Eastern Europe,Czechia,South Moravian,Město Brno,Brno
91.217.97.130,4,168,DNS Server: 130.97.kmnet.cz,CZ,Europe,Eastern Europe,Czechia,South Moravian,Město Brno,Brno
81.19.12.225,4,15,DNS Server: 81.19.12.225.static.router.wosa.cz,CZ,Europe,Eastern Europe,Czechia,South Moravian,Město Brno,Brno
90.183.151.106,4,45,DNS Server: 90-183-151-106.rcq.o2.cz,CZ,Europe,Eastern Europe,Czechia,South Moravian,Město Brno,Brno
90.183.159.90,4,24,DNS Server: 90-183-159-90.rcq.o2.cz,CZ,Europe,Eastern Europe,Czechia,South Moravian,Město Brno,Brno
81.19.3.115,4,12,DNS Server: apc-jakubske.faster.cz,CZ,Europe,Eastern Europe,Czechia,South Moravian,Město Brno,Brno
81.19.2.244,4,26,DNS Server: bursa.faster.cz,CZ,Europe,Eastern Europe,Czechia,South Moravian,Město Brno,Brno
81.19.4.184,4,99,DNS Server: intranet.jota.cz,CZ,Europe,Eastern Europe,Czechia,South Moravian,Město Brno,Brno
81.19.9.3,4,357,DNS Server: remote.kelocnet.cz,CZ,Europe,Eastern Europe,Czechia,South Moravian,Město Brno,Brno
81.19.1.86,4,389,DNS Server: thermis.faster.cz,CZ,Europe,Eastern Europe,Czechia,South Moravian,Město Brno,Brno
81.19.13.81,4,428,DNS Server: zsk-cust4041.cust.wosa.cz,CZ,Europe,Eastern Europe,Czechia,South Moravian,Město Brno,Brno
81.19.8.3,4,8,edda.cz,CZ,Europe,Eastern Europe,Czechia,South Moravian,Město Brno,Brno
81.31.37.22,4,26,eshop-rychle.cz,CZ,Europe,Eastern Europe,Czechia,South Moravian,Město Brno,Brno
93.185.103.249,4,3,hcf-m.cz,CZ,Europe,Eastern Europe,Czechia,South Moravian,Město Brno,Brno
195.178.70.3,4,41,isibrno.cz,CZ,Europe,Eastern Europe,Czechia,South Moravian,Město Brno,Brno
93.185.97.196,4,5,iure.org,CZ,Europe,Eastern Europe,Czechia,South Moravian,Město Brno,Brno
193.165.247.194,4,8,karvina.cz,CZ,Europe,Eastern Europe,Czechia,South Moravian,Město Brno,Brno
93.185.96.4,4,6,kdpcr.cz,CZ,Europe,Eastern Europe,Czechia,South Moravian,Město Brno,Brno
185.137.124.216,4,15840,lipka.cz,CZ,Europe,Eastern Europe,Czechia,South Moravian,Město Brno,Brno
93.185.111.100,4,2,malostranska-beseda.cz,CZ,Europe,Eastern Europe,Czechia,South Moravian,Město Brno,Brno
93.185.104.30,4,-297,miapedia.cz,CZ,Europe,Eastern Europe,Czechia,South Moravian,Město Brno,Brno
77.240.185.83,4,5,muzikus.cz,CZ,Europe,Eastern Europe,Czechia,South Moravian,Město Brno,Brno
95.173.68.250,4,22,mza.cz,CZ,Europe,Eastern Europe,Czechia,South Moravian,Město Brno,Brno
93.185.97.211,4,4,nitter.cz,CZ,Europe,Eastern Europe,Czechia,South Moravian,Město Brno,Brno
195.113.221.211,4,0,nmnm.cz,CZ,Europe,Eastern Europe,Czechia,South Moravian,Město Brno,Brno
93.185.111.101,4,11,ocun.com,CZ,Europe,Eastern Europe,Czechia,South Moravian,Město Brno,Brno
147.229.3.61,4,308,Ookla Speedtest Server 64446: speedtest.net.vutbr.cz,CZ,Europe,Eastern Europe,Czechia,South Moravian,Město Brno,Brno
93.185.104.24,4,-255,optiktereza.cz,CZ,Europe,Eastern Europe,Czechia,South Moravian,Město Brno,Brno
95.82.174.30,4,39881,paseka.cz,CZ,Europe,Eastern Europe,Czechia,South Moravian,Město Brno,Brno
81.31.35.130,4,11,perumaca.cz,CZ,Europe,Eastern Europe,Czechia,South Moravian,Město Brno,Brno
93.185.104.4,4,-91,pipni.cz,CZ,Europe,Eastern Europe,Czechia,South Moravian,Město Brno,Brno
176.74.143.220,4,13,prelepky.cz,CZ,Europe,Eastern Europe,Czechia,South Moravian,Město Brno,Brno
147.229.144.125,4,54,radioeng.cz,CZ,Europe,Eastern Europe,Czechia,South Moravian,Město Brno,Brno
93.185.104.26,4,-158,rajveteranu.cz,CZ,Europe,Eastern Europe,Czechia,South Moravian,Město Brno,Brno
77.240.188.210,4,24,redutajazzclub.cz,CZ,Europe,Eastern Europe,Czechia,South Moravian,Město Brno,Brno
77.240.191.56,4,3482,rmm.cz,CZ,Europe,Eastern Europe,Czechia,South Moravian,Město Brno,Brno
81.31.33.166,4,6,seotip.sk,CZ,Europe,Eastern Europe,Czechia,South Moravian,Město Brno,Brno
93.185.101.33,4,4,shm.cz,CZ,Europe,Eastern Europe,Czechia,South Moravian,Město Brno,Brno
81.31.46.138,4,40,skauting.cz,CZ,Europe,Eastern Europe,Czechia,South Moravian,Město Brno,Brno
77.240.183.195,4,32,sketchengine.co.uk,CZ,Europe,Eastern Europe,Czechia,South Moravian,Město Brno,Brno
93.185.104.23,4,-211,sportovnivozy.cz,CZ,Europe,Eastern Europe,Czechia,South Moravian,Město Brno,Brno
93.185.104.14,4,-136,stylove.com,CZ,Europe,Eastern Europe,Czechia,South Moravian,Město Brno,Brno
147.251.49.72,4,3,theses.cz,CZ,Europe,Eastern Europe,Czechia,South Moravian,Město Brno,Brno
81.31.32.18,4,1,titulky.com,CZ,Europe,Eastern Europe,Czechia,South Moravian,Město Brno,Brno
185.66.36.39,4,5,toner-paradise.cz,CZ,Europe,Eastern Europe,Czechia,South Moravian,Město Brno,Brno
93.185.99.154,4,5,travelportal.cz,CZ,Europe,Eastern Europe,Czechia,South Moravian,Město Brno,Brno
185.66.36.178,4,19,travnice.cz,CZ,Europe,Eastern Europe,Czechia,South Moravian,Město Brno,Brno
93.185.101.40,4,15,trikralovasbirka.cz,CZ,Europe,Eastern Europe,Czechia,South Moravian,Město Brno,Brno
147.251.6.91,4,35,universitas.cz,CZ,Europe,Eastern Europe,Czechia,South Moravian,Město Brno,Brno
195.178.88.109,4,7,utb.cz,CZ,Europe,Eastern Europe,Czechia,South Moravian,Město Brno,Brno
77.240.187.186,4,27,uur.cz,CZ,Europe,Eastern Europe,Czechia,South Moravian,Město Brno,Brno
185.66.36.138,4,5,vinovnik.cz,CZ,Europe,Eastern Europe,Czechia,South Moravian,Město Brno,Brno
93.185.111.98,4,3,vmd-drogerie.cz,CZ,Europe,Eastern Europe,Czechia,South Moravian,Město Brno,Brno
93.185.104.27,4,-199,vodaprozivot.eu,CZ,Europe,Eastern Europe,Czechia,South Moravian,Město Brno,Brno
77.240.188.212,4,10,webylon.info,CZ,Europe,Eastern Europe,Czechia,South Moravian,Město Brno,Brno
93.185.97.202,4,3,witter.cz,CZ,Europe,Eastern Europe,Czechia,South Moravian,Město Brno,Brno
93.185.104.28,4,-208,zamendo.com,CZ,Europe,Eastern Europe,Czechia,South Moravian,Město Brno,Brno
