reflector_ip,ip_version,offset,description,country_code,region,sub_region,country_name,sub_division_1,sub_division_2,city
162.43.99.111,4,-12,7-7maruka.com,JP,Asia,Eastern Asia,Japan,Tokyo,,Sekibara
162.43.103.134,4,70,adachi-museum.or.jp,JP,Asia,Eastern Asia,Japan,Tokyo,,Sekibara
162.43.104.13,4,-3,aino.ac.jp,JP,Asia,Eastern Asia,Japan,Tokyo,,Sekibara
162.43.101.45,4,1,akakagemaru.info,JP,Asia,Eastern Asia,Japan,Tokyo,,Sekibara
162.43.104.48,4,11,anomalous-images.com,JP,Asia,Eastern Asia,Japan,Tokyo,,Sekibara
162.43.96.24,4,6,anti-block24.biz,JP,Asia,Eastern Asia,Japan,Tokyo,,Sekibara
162.43.105.41,4,90,arclight.co.jp,JP,Asia,Eastern Asia,Japan,Tokyo,,Sekibara
162.43.104.92,4,32,armor-nail.com,JP,Asia,Eastern Asia,Japan,Tokyo,,Sekibara
162.43.104.67,4,-10,atsoho.com,JP,Asia,Eastern Asia,Japan,Tokyo,,Sekibara
162.43.107.32,4,7,av-kantoku.com,JP,Asia,Eastern Asia,Japan,Tokyo,,Sekibara
162.43.101.110,4,-10,awaji-resort.com,JP,Asia,Eastern Asia,Japan,Tokyo,,Sekibara
162.43.107.77,4,12,berry-bouquet.com,JP,Asia,Eastern Asia,Japan,Tokyo,,Sekibara
162.43.104.15,4,0,bus.or.jp,JP,Asia,Eastern Asia,Japan,Tokyo,,Sekibara
162.43.101.184,4,-10,byodoin.or.jp,JP,Asia,Eastern Asia,Japan,Tokyo,,Sekibara
162.43.107.11,4,-5,carnaval.co.jp,JP,Asia,Eastern Asia,Japan,Tokyo,,Sekibara
162.43.104.95,4,-3,charamil.com,JP,Asia,Eastern Asia,Japan,Tokyo,,Sekibara
162.43.101.120,4,-7,cinemadailyus.com,JP,Asia,Eastern Asia,Japan,Tokyo,,Sekibara
162.43.104.156,4,3,circu.co.jp,JP,Asia,Eastern Asia,Japan,Tokyo,,Sekibara
162.43.101.26,4,-8,clover-higashiku.jp,JP,Asia,Eastern Asia,Japan,Tokyo,,Sekibara
162.43.104.119,4,2,commitments.co.jp,JP,Asia,Eastern Asia,Japan,Tokyo,,Sekibara
162.43.103.137,4,157,costcotuu.com,JP,Asia,Eastern Asia,Japan,Tokyo,,Sekibara
162.43.101.11,4,13,crete.co.jp,JP,Asia,Eastern Asia,Japan,Tokyo,,Sekibara
162.43.105.10,4,-13,dadway.com,JP,Asia,Eastern Asia,Japan,Tokyo,,Sekibara
162.43.105.48,4,90,datasystem.co.jp,JP,Asia,Eastern Asia,Japan,Tokyo,,Sekibara
162.43.104.76,4,8,diatec.co.jp,JP,Asia,Eastern Asia,Japan,Tokyo,,Sekibara
162.43.104.181,4,1,e-oki.net,JP,Asia,Eastern Asia,Japan,Tokyo,,Sekibara
162.43.101.65,4,2,eden-electronics.com,JP,Asia,Eastern Asia,Japan,Tokyo,,Sekibara
162.43.101.196,4,18,elleseine.co.jp,JP,Asia,Eastern Asia,Japan,Tokyo,,Sekibara
162.43.101.137,4,15,ferry.co.jp,JP,Asia,Eastern Asia,Japan,Tokyo,,Sekibara
162.43.104.71,4,5,fewiki.jp,JP,Asia,Eastern Asia,Japan,Tokyo,,Sekibara
162.43.104.179,4,-10,flv-player.net,JP,Asia,Eastern Asia,Japan,Tokyo,,Sekibara
162.43.101.178,4,2,fo-society.jp,JP,Asia,Eastern Asia,Japan,Tokyo,,Sekibara
162.43.105.15,4,-12,fooddiversity.today,JP,Asia,Eastern Asia,Japan,Tokyo,,Sekibara
162.43.104.36,4,-4,fostex.jp,JP,Asia,Eastern Asia,Japan,Tokyo,,Sekibara
162.43.104.2,4,30,freelife-shisan.com,JP,Asia,Eastern Asia,Japan,Tokyo,,Sekibara
162.43.104.116,4,-1,fujita-group.co.jp,JP,Asia,Eastern Asia,Japan,Tokyo,,Sekibara
162.43.101.106,4,5,fx-trade.co.jp,JP,Asia,Eastern Asia,Japan,Tokyo,,Sekibara
162.43.101.180,4,1,gakkou.net,JP,Asia,Eastern Asia,Japan,Tokyo,,Sekibara
162.43.107.17,4,-7,garumax.com,JP,Asia,Eastern Asia,Japan,Tokyo,,Sekibara
162.43.105.31,4,-18,gec.jp,JP,Asia,Eastern Asia,Japan,Tokyo,,Sekibara
162.43.104.133,4,17,green.or.jp,JP,Asia,Eastern Asia,Japan,Tokyo,,Sekibara
162.43.101.128,4,-11,h-concept.jp,JP,Asia,Eastern Asia,Japan,Tokyo,,Sekibara
162.43.105.24,4,22,hanamakionsen.co.jp,JP,Asia,Eastern Asia,Japan,Tokyo,,Sekibara
162.43.101.13,4,7,hankyu-com.co.jp,JP,Asia,Eastern Asia,Japan,Tokyo,,Sekibara
162.43.105.38,4,-3,harborland.co.jp,JP,Asia,Eastern Asia,Japan,Tokyo,,Sekibara
162.43.104.134,4,-3,harumi-triton.jp,JP,Asia,Eastern Asia,Japan,Tokyo,,Sekibara
162.43.105.34,4,-11,hasedera.jp,JP,Asia,Eastern Asia,Japan,Tokyo,,Sekibara
162.43.104.82,4,-1,hikakusitefx.com,JP,Asia,Eastern Asia,Japan,Tokyo,,Sekibara
162.43.101.198,4,-1,hitosuzumi.jp,JP,Asia,Eastern Asia,Japan,Tokyo,,Sekibara
162.43.101.81,4,-12,hokkaidowine.com,JP,Asia,Eastern Asia,Japan,Tokyo,,Sekibara
162.43.105.42,4,0,iaae-jp.com,JP,Asia,Eastern Asia,Japan,Tokyo,,Sekibara
162.43.101.183,4,22,imamiya-ebisu.jp,JP,Asia,Eastern Asia,Japan,Tokyo,,Sekibara
162.43.107.98,4,4,imayotsukasa.co.jp,JP,Asia,Eastern Asia,Japan,Tokyo,,Sekibara
162.43.101.69,4,2,itv6.jp,JP,Asia,Eastern Asia,Japan,Tokyo,,Sekibara
162.43.101.138,4,14,izetta.jp,JP,Asia,Eastern Asia,Japan,Tokyo,,Sekibara
162.43.105.53,4,-12,izu-oshima.or.jp,JP,Asia,Eastern Asia,Japan,Tokyo,,Sekibara
162.43.105.231,4,-15,j-muse.or.jp,JP,Asia,Eastern Asia,Japan,Tokyo,,Sekibara
162.43.101.159,4,5,jice.org,JP,Asia,Eastern Asia,Japan,Tokyo,,Sekibara
162.43.101.49,4,-16,jin-din-rou.net,JP,Asia,Eastern Asia,Japan,Tokyo,,Sekibara
162.43.104.184,4,-9,joy-one.com,JP,Asia,Eastern Asia,Japan,Tokyo,,Sekibara
162.43.105.27,4,-16,jsge.or.jp,JP,Asia,Eastern Asia,Japan,Tokyo,,Sekibara
162.43.105.49,4,0,jske.org,JP,Asia,Eastern Asia,Japan,Tokyo,,Sekibara
162.43.105.23,4,-15,jtb.or.jp,JP,Asia,Eastern Asia,Japan,Tokyo,,Sekibara
162.43.105.64,4,1,jtccm.or.jp,JP,Asia,Eastern Asia,Japan,Tokyo,,Sekibara
162.43.101.79,4,-11,kaikaro.jp,JP,Asia,Eastern Asia,Japan,Tokyo,,Sekibara
162.43.105.71,4,-15,kaiseigakuen.jp,JP,Asia,Eastern Asia,Japan,Tokyo,,Sekibara
162.43.104.50,4,-2,kanagawa-jinja.or.jp,JP,Asia,Eastern Asia,Japan,Tokyo,,Sekibara
162.43.101.158,4,1,kanko-sakai.com,JP,Asia,Eastern Asia,Japan,Tokyo,,Sekibara
162.43.105.65,4,-18,kantenpp.co.jp,JP,Asia,Eastern Asia,Japan,Tokyo,,Sekibara
162.43.104.18,4,5,kazuyasu.net,JP,Asia,Eastern Asia,Japan,Tokyo,,Sekibara
162.43.101.31,4,-1,keian.co.jp,JP,Asia,Eastern Asia,Japan,Tokyo,,Sekibara
162.43.105.20,4,-15,kiroro.co.jp,JP,Asia,Eastern Asia,Japan,Tokyo,,Sekibara
162.43.96.26,4,4,kk-tokyo.net,JP,Asia,Eastern Asia,Japan,Tokyo,,Sekibara
162.43.107.80,4,3,kobe-ijinkan.net,JP,Asia,Eastern Asia,Japan,Tokyo,,Sekibara
162.43.105.110,4,42,kobe-luminarie.jp,JP,Asia,Eastern Asia,Japan,Tokyo,,Sekibara
162.43.104.158,4,6,kokoii.net,JP,Asia,Eastern Asia,Japan,Tokyo,,Sekibara
162.43.105.73,4,1,kpac.or.jp,JP,Asia,Eastern Asia,Japan,Tokyo,,Sekibara
162.43.105.103,4,-12,lalanet.gr.jp,JP,Asia,Eastern Asia,Japan,Tokyo,,Sekibara
162.43.104.195,4,-10,lefront.jp,JP,Asia,Eastern Asia,Japan,Tokyo,,Sekibara
162.43.104.53,4,2,life2oh-en.com,JP,Asia,Eastern Asia,Japan,Tokyo,,Sekibara
162.43.101.189,4,29,live-science.com,JP,Asia,Eastern Asia,Japan,Tokyo,,Sekibara
162.43.105.6,4,42,live2d.com,JP,Asia,Eastern Asia,Japan,Tokyo,,Sekibara
162.43.101.152,4,2,luft.co.jp,JP,Asia,Eastern Asia,Japan,Tokyo,,Sekibara
162.43.107.49,4,10,marketing-design-2020.com,JP,Asia,Eastern Asia,Japan,Tokyo,,Sekibara
162.43.101.9,4,14,marukoma.co.jp,JP,Asia,Eastern Asia,Japan,Tokyo,,Sekibara
162.43.105.35,4,-1,meirishurui.com,JP,Asia,Eastern Asia,Japan,Tokyo,,Sekibara
162.43.103.251,4,509,metsa-hanno.com,JP,Asia,Eastern Asia,Japan,Tokyo,,Sekibara
162.43.107.115,4,14,mexicanmailorderbrides.com,JP,Asia,Eastern Asia,Japan,Tokyo,,Sekibara
162.43.107.91,4,-3,minori.ph,JP,Asia,Eastern Asia,Japan,Tokyo,,Sekibara
162.43.101.4,4,7,minoura.jp,JP,Asia,Eastern Asia,Japan,Tokyo,,Sekibara
162.43.104.91,4,-12,mishimataisha.or.jp,JP,Asia,Eastern Asia,Japan,Tokyo,,Sekibara
162.43.101.60,4,-2,miura-seikotsuin.com,JP,Asia,Eastern Asia,Japan,Tokyo,,Sekibara
162.43.105.77,4,-14,miyakou.co.jp,JP,Asia,Eastern Asia,Japan,Tokyo,,Sekibara
162.43.96.3,4,-12,miyearnzzlabo.com,JP,Asia,Eastern Asia,Japan,Tokyo,,Sekibara
162.43.105.102,4,0,my-spa.jp,JP,Asia,Eastern Asia,Japan,Tokyo,,Sekibara
162.43.101.111,4,-1,nagano-np.co.jp,JP,Asia,Eastern Asia,Japan,Tokyo,,Sekibara
162.43.101.66,4,3,naka-ichi.com,JP,Asia,Eastern Asia,Japan,Tokyo,,Sekibara
162.43.104.35,4,-7,namura.cc,JP,Asia,Eastern Asia,Japan,Tokyo,,Sekibara
162.43.101.2,4,-1,newtokyo.co.jp,JP,Asia,Eastern Asia,Japan,Tokyo,,Sekibara
162.43.101.41,4,15,nias.ac.jp,JP,Asia,Eastern Asia,Japan,Tokyo,,Sekibara
162.43.105.51,4,4,niigataseiki.co.jp,JP,Asia,Eastern Asia,Japan,Tokyo,,Sekibara
162.43.103.208,4,51616,niikei.jp,JP,Asia,Eastern Asia,Japan,Tokyo,,Sekibara
162.43.96.5,4,-10,nissui-pharm.co.jp,JP,Asia,Eastern Asia,Japan,Tokyo,,Sekibara
162.43.103.104,4,-183,nojima.co.jp,JP,Asia,Eastern Asia,Japan,Tokyo,,Sekibara
162.43.101.71,4,0,okayamasaiseikai.or.jp,JP,Asia,Eastern Asia,Japan,Tokyo,,Sekibara
162.43.101.70,4,3,one8-p.com,JP,Asia,Eastern Asia,Japan,Tokyo,,Sekibara
162.43.105.70,4,2,otera-oyatsu.club,JP,Asia,Eastern Asia,Japan,Tokyo,,Sekibara
162.43.105.58,4,-17,otherworldsarepossible.org,JP,Asia,Eastern Asia,Japan,Tokyo,,Sekibara
162.43.101.77,4,1,owakudani.com,JP,Asia,Eastern Asia,Japan,Tokyo,,Sekibara
162.43.107.28,4,10,petitmall.jp,JP,Asia,Eastern Asia,Japan,Tokyo,,Sekibara
162.43.105.57,4,15,platz-hobby.com,JP,Asia,Eastern Asia,Japan,Tokyo,,Sekibara
162.43.105.54,4,4,play2020.jp,JP,Asia,Eastern Asia,Japan,Tokyo,,Sekibara
162.43.101.194,4,31,plenumlove.com,JP,Asia,Eastern Asia,Japan,Tokyo,,Sekibara
162.43.101.16,4,-10,porter-bonheur999.com,JP,Asia,Eastern Asia,Japan,Tokyo,,Sekibara
162.43.105.45,4,-1,qqzaidan.jp,JP,Asia,Eastern Asia,Japan,Tokyo,,Sekibara
162.43.107.18,4,16,qv500.com,JP,Asia,Eastern Asia,Japan,Tokyo,,Sekibara
162.43.101.108,4,80,rakugo-kyokai.jp,JP,Asia,Eastern Asia,Japan,Tokyo,,Sekibara
162.43.105.80,4,-9,re-rental.com,JP,Asia,Eastern Asia,Japan,Tokyo,,Sekibara
162.43.105.94,4,30,recyclemart.jp,JP,Asia,Eastern Asia,Japan,Tokyo,,Sekibara
162.43.104.30,4,14,replants-rent.jp,JP,Asia,Eastern Asia,Japan,Tokyo,,Sekibara
162.43.105.44,4,4,rikuro.co.jp,JP,Asia,Eastern Asia,Japan,Tokyo,,Sekibara
162.43.105.101,4,-1,riskmonster.co.jp,JP,Asia,Eastern Asia,Japan,Tokyo,,Sekibara
162.43.107.81,4,8,riv-sol.com,JP,Asia,Eastern Asia,Japan,Tokyo,,Sekibara
162.43.104.166,4,23,rokurinsha.com,JP,Asia,Eastern Asia,Japan,Tokyo,,Sekibara
162.43.104.200,4,22,rose-dance-school.com,JP,Asia,Eastern Asia,Japan,Tokyo,,Sekibara
162.43.105.95,4,6,rusutsu.com,JP,Asia,Eastern Asia,Japan,Tokyo,,Sekibara
162.43.105.28,4,-9,ryubo.jp,JP,Asia,Eastern Asia,Japan,Tokyo,,Sekibara
162.43.105.8,4,-2,sagafan.jp,JP,Asia,Eastern Asia,Japan,Tokyo,,Sekibara
162.43.104.121,4,6,sainokawara.com,JP,Asia,Eastern Asia,Japan,Tokyo,,Sekibara
162.43.105.26,4,8,santomyuze.com,JP,Asia,Eastern Asia,Japan,Tokyo,,Sekibara
162.43.105.32,4,-2,satake-japan.co.jp,JP,Asia,Eastern Asia,Japan,Tokyo,,Sekibara
162.43.107.48,4,36,sawanoi-sake.com,JP,Asia,Eastern Asia,Japan,Tokyo,,Sekibara
162.43.107.93,4,14,sbpnet.jp,JP,Asia,Eastern Asia,Japan,Tokyo,,Sekibara
162.43.107.103,4,-17,searchdave.com,JP,Asia,Eastern Asia,Japan,Tokyo,,Sekibara
162.43.105.52,4,-12,setagaya.co.jp,JP,Asia,Eastern Asia,Japan,Tokyo,,Sekibara
162.43.105.68,4,0,shimanami-cycle.or.jp,JP,Asia,Eastern Asia,Japan,Tokyo,,Sekibara
162.43.103.214,4,517,shirohato.com,JP,Asia,Eastern Asia,Japan,Tokyo,,Sekibara
162.43.105.29,4,-6,shueisha-games.com,JP,Asia,Eastern Asia,Japan,Tokyo,,Sekibara
162.43.104.80,4,2,sister.co.jp,JP,Asia,Eastern Asia,Japan,Tokyo,,Sekibara
162.43.103.105,4,-191,smahospital.jp,JP,Asia,Eastern Asia,Japan,Tokyo,,Sekibara
162.43.105.69,4,23,smartpit.jp,JP,Asia,Eastern Asia,Japan,Tokyo,,Sekibara
162.43.107.21,4,-14,so-net.or.jp,JP,Asia,Eastern Asia,Japan,Tokyo,,Sekibara
162.43.104.42,4,-15,socialmediaexperience.jp,JP,Asia,Eastern Asia,Japan,Tokyo,,Sekibara
162.43.105.9,4,4,sogo-unicom.co.jp,JP,Asia,Eastern Asia,Japan,Tokyo,,Sekibara
162.43.104.171,4,-1,sousaku-murasaki.com,JP,Asia,Eastern Asia,Japan,Tokyo,,Sekibara
162.43.104.194,4,-3,st-okuda.com,JP,Asia,Eastern Asia,Japan,Tokyo,,Sekibara
162.43.105.46,4,-3,stemcell.co.jp,JP,Asia,Eastern Asia,Japan,Tokyo,,Sekibara
162.43.96.30,4,14,stinger3.com,JP,Asia,Eastern Asia,Japan,Tokyo,,Sekibara
162.43.104.190,4,1,suehirotax.jp,JP,Asia,Eastern Asia,Japan,Tokyo,,Sekibara
162.43.107.41,4,26,sugai-dinos.jp,JP,Asia,Eastern Asia,Japan,Tokyo,,Sekibara
162.43.105.100,4,3,sugakico.co.jp,JP,Asia,Eastern Asia,Japan,Tokyo,,Sekibara
162.43.105.67,4,-2,taikangame.com,JP,Asia,Eastern Asia,Japan,Tokyo,,Sekibara
162.43.107.27,4,-1,taiken-nyuten.net,JP,Asia,Eastern Asia,Japan,Tokyo,,Sekibara
162.43.105.7,4,-2,taiyo-tomato.com,JP,Asia,Eastern Asia,Japan,Tokyo,,Sekibara
162.43.103.141,4,70,taiyokogyo.co.jp,JP,Asia,Eastern Asia,Japan,Tokyo,,Sekibara
162.43.103.43,4,27,tajima.com,JP,Asia,Eastern Asia,Japan,Tokyo,,Sekibara
162.43.102.47,4,-13,takahashishoten.co.jp,JP,Asia,Eastern Asia,Japan,Tokyo,,Sekibara
162.43.96.25,4,1,tamco-inc.co.jp,JP,Asia,Eastern Asia,Japan,Tokyo,,Sekibara
162.43.105.25,4,-13,tca.or.jp,JP,Asia,Eastern Asia,Japan,Tokyo,,Sekibara
162.43.105.104,4,-5,tenshodo.co.jp,JP,Asia,Eastern Asia,Japan,Tokyo,,Sekibara
162.43.103.70,4,-166,thespa.co.jp,JP,Asia,Eastern Asia,Japan,Tokyo,,Sekibara
162.43.101.181,4,-11,thinktheearth.net,JP,Asia,Eastern Asia,Japan,Tokyo,,Sekibara
162.43.103.128,4,63,thisisgallery.com,JP,Asia,Eastern Asia,Japan,Tokyo,,Sekibara
162.43.105.85,4,10,tobutoptours.co.jp,JP,Asia,Eastern Asia,Japan,Tokyo,,Sekibara
162.43.101.40,4,-16,tochigi-braves.jp,JP,Asia,Eastern Asia,Japan,Tokyo,,Sekibara
162.43.104.29,4,-13,tokusengai.com,JP,Asia,Eastern Asia,Japan,Tokyo,,Sekibara
162.43.102.53,4,-1,tokyomidtown-mc.jp,JP,Asia,Eastern Asia,Japan,Tokyo,,Sekibara
162.43.105.14,4,2,tomsracing.co.jp,JP,Asia,Eastern Asia,Japan,Tokyo,,Sekibara
162.43.101.122,4,-9,towelmuseum.com,JP,Asia,Eastern Asia,Japan,Tokyo,,Sekibara
162.43.101.167,4,2,town-echizen.jp,JP,Asia,Eastern Asia,Japan,Tokyo,,Sekibara
162.43.105.21,4,-7,tpam.or.jp,JP,Asia,Eastern Asia,Japan,Tokyo,,Sekibara
162.43.104.159,4,4,uniflame.co.jp,JP,Asia,Eastern Asia,Japan,Tokyo,,Sekibara
162.43.104.157,4,-15,united-athle.jp,JP,Asia,Eastern Asia,Japan,Tokyo,,Sekibara
162.43.107.99,4,44,vincentboelaarts.com,JP,Asia,Eastern Asia,Japan,Tokyo,,Sekibara
162.43.96.35,4,-9,vintagepowderpuff.com,JP,Asia,Eastern Asia,Japan,Tokyo,,Sekibara
162.43.101.151,4,0,vocaltec.com,JP,Asia,Eastern Asia,Japan,Tokyo,,Sekibara
162.43.104.93,4,-1,vod-site.org,JP,Asia,Eastern Asia,Japan,Tokyo,,Sekibara
162.43.96.4,4,-3,wakayamashimpo.co.jp,JP,Asia,Eastern Asia,Japan,Tokyo,,Sekibara
162.43.105.11,4,32,wildbunchfest.jp,JP,Asia,Eastern Asia,Japan,Tokyo,,Sekibara
162.43.105.96,4,2,wirelesswire.jp,JP,Asia,Eastern Asia,Japan,Tokyo,,Sekibara
162.43.104.32,4,-10,xjp.co.jp,JP,Asia,Eastern Asia,Japan,Tokyo,,Sekibara
162.43.101.150,4,0,yakukan.jp,JP,Asia,Eastern Asia,Japan,Tokyo,,Sekibara
162.43.96.23,4,2,yamaha-living.co.jp,JP,Asia,Eastern Asia,Japan,Tokyo,,Sekibara
162.43.101.48,4,-2,yma-web.jp,JP,Asia,Eastern Asia,Japan,Tokyo,,Sekibara
162.43.104.108,4,2,yodohanabi.com,JP,Asia,Eastern Asia,Japan,Tokyo,,Sekibara
162.43.101.76,4,1,yoga-gene.com,JP,Asia,Eastern Asia,Japan,Tokyo,,Sekibara
162.43.105.105,4,1,yscc1986.net,JP,Asia,Eastern Asia,Japan,Tokyo,,Sekibara
162.43.104.154,4,1,ytv.co.jp,JP,Asia,Eastern Asia,Japan,Tokyo,,Sekibara
162.43.105.5,4,-15,yubari-resort.com,JP,Asia,Eastern Asia,Japan,Tokyo,,Sekibara
162.43.105.75,4,-19,yumebi.com,JP,Asia,Eastern Asia,Japan,Tokyo,,Sekibara
162.43.101.80,4,-11,yurukuyaru.com,JP,Asia,Eastern Asia,Japan,Tokyo,,Sekibara
