reflector_ip,ip_version,offset,description,country_code,region,sub_region,country_name,sub_division_1,sub_division_2,city
137.220.242.251,4,8,003828.com,JP,Asia,Eastern Asia,Japan,Tokyo,,Tokyo
109.107.137.230,4,-3,11sgz.com,JP,Asia,Eastern Asia,Japan,Tokyo,,Tokyo
172.104.118.254,4,2468,168cash.com.tw,JP,Asia,Eastern Asia,Japan,Tokyo,,Tokyo
160.16.103.86,4,8,1net.jp,JP,Asia,Eastern Asia,Japan,Tokyo,,Tokyo
160.16.80.156,4,3,1web.jp,JP,Asia,Eastern Asia,Japan,Tokyo,,Tokyo
160.16.232.51,4,3,2chmap.com,JP,Asia,Eastern Asia,Japan,Tokyo,,Tokyo
111.109.69.77,4,6,3751chat.com,JP,Asia,Eastern Asia,Japan,Tokyo,,Tokyo
172.104.77.205,4,6,38.org.tw,JP,Asia,Eastern Asia,Japan,Tokyo,,Tokyo
172.105.231.11,4,7,52nlp.cn,JP,Asia,Eastern Asia,Japan,Tokyo,,Tokyo
38.6.146.53,4,-7,58641.cc,JP,Asia,Eastern Asia,Japan,Tokyo,,Tokyo
137.220.242.137,4,9,5e4k.com,JP,Asia,Eastern Asia,Japan,Tokyo,,Tokyo
160.16.200.203,4,4,81dojo.com,JP,Asia,Eastern Asia,Japan,Tokyo,,Tokyo
160.16.100.89,4,1,89dream.jp,JP,Asia,Eastern Asia,Japan,Tokyo,,Tokyo
47.245.58.66,4,6,8n8n.work,JP,Asia,Eastern Asia,Japan,Tokyo,,Tokyo
160.16.88.161,4,3,9mm.jp,JP,Asia,Eastern Asia,Japan,Tokyo,,Tokyo
35.200.48.197,4,7,ab12345.cc,JP,Asia,Eastern Asia,Japan,Tokyo,,Tokyo
160.16.234.241,4,7,access-ticket.com,JP,Asia,Eastern Asia,Japan,Tokyo,,Tokyo
160.16.76.144,4,23,adam.ne.jp,JP,Asia,Eastern Asia,Japan,Tokyo,,Tokyo
160.16.207.90,4,4,advack.net,JP,Asia,Eastern Asia,Japan,Tokyo,,Tokyo
140.227.120.158,4,8,ailove.net,JP,Asia,Eastern Asia,Japan,Tokyo,,Tokyo
210.224.191.45,4,110,aitendo.com,JP,Asia,Eastern Asia,Japan,Tokyo,,Tokyo
160.16.142.140,4,3,akikawabokuen.com,JP,Asia,Eastern Asia,Japan,Tokyo,,Tokyo
161.202.124.224,4,4,alcine-terran.com,JP,Asia,Eastern Asia,Japan,Tokyo,,Tokyo
109.123.230.211,4,2,allcinema.net,JP,Asia,Eastern Asia,Japan,Tokyo,,Tokyo
13.112.134.96,4,8,alt.ai,JP,Asia,Eastern Asia,Japan,Tokyo,,Tokyo
3.115.161.219,4,8,alt.ai,JP,Asia,Eastern Asia,Japan,Tokyo,,Tokyo
160.16.4.59,4,7,altech-ads.com,JP,Asia,Eastern Asia,Japan,Tokyo,,Tokyo
34.84.232.131,4,4,americanmeat.jp,JP,Asia,Eastern Asia,Japan,Tokyo,,Tokyo
160.16.125.228,4,5,anddev.org,JP,Asia,Eastern Asia,Japan,Tokyo,,Tokyo
153.121.46.216,4,22,aochd.jp,JP,Asia,Eastern Asia,Japan,Tokyo,,Tokyo
160.16.145.219,4,5,apage.jp,JP,Asia,Eastern Asia,Japan,Tokyo,,Tokyo
18.177.191.193,4,4,apex106.com,JP,Asia,Eastern Asia,Japan,Tokyo,,Tokyo
172.105.192.79,4,16,aqicn.org,JP,Asia,Eastern Asia,Japan,Tokyo,,Tokyo
160.16.87.125,4,9,aquaplus.jp,JP,Asia,Eastern Asia,Japan,Tokyo,,Tokyo
140.227.151.83,4,59,arax.co.jp,JP,Asia,Eastern Asia,Japan,Tokyo,,Tokyo
160.16.119.98,4,118,archlinux.jp,JP,Asia,Eastern Asia,Japan,Tokyo,,Tokyo
113.33.236.86,4,37,arigatojapan.co.jp,JP,Asia,Eastern Asia,Japan,Tokyo,,Tokyo
13.112.39.88,4,3,artemperor.tw,JP,Asia,Eastern Asia,Japan,Tokyo,,Tokyo
160.16.208.21,4,4,as-estelle.co.jp,JP,Asia,Eastern Asia,Japan,Tokyo,,Tokyo
54.249.79.30,4,4,asai-kota.com,JP,Asia,Eastern Asia,Japan,Tokyo,,Tokyo
160.16.234.248,4,11,asiajin.com,JP,Asia,Eastern Asia,Japan,Tokyo,,Tokyo
160.16.153.136,4,3,asianbeat.com,JP,Asia,Eastern Asia,Japan,Tokyo,,Tokyo
160.16.95.102,4,-1,asobo-saga.jp,JP,Asia,Eastern Asia,Japan,Tokyo,,Tokyo
23.10.5.114,4,8,aspentech.com,JP,Asia,Eastern Asia,Japan,Tokyo,,Tokyo
153.121.54.165,4,5,aspservice.jp,JP,Asia,Eastern Asia,Japan,Tokyo,,Tokyo
54.95.238.222,4,3,astro-p.co.jp,JP,Asia,Eastern Asia,Japan,Tokyo,,Tokyo
139.162.98.19,4,9,astronomy-imaging-camera.com,JP,Asia,Eastern Asia,Japan,Tokyo,,Tokyo
160.16.104.193,4,7,asutamuland.jp,JP,Asia,Eastern Asia,Japan,Tokyo,,Tokyo
35.200.16.199,4,3,ateam-japan.com,JP,Asia,Eastern Asia,Japan,Tokyo,,Tokyo
160.16.214.172,4,3,atoa-kobe.jp,JP,Asia,Eastern Asia,Japan,Tokyo,,Tokyo
160.16.207.101,4,33,audioleaf.com,JP,Asia,Eastern Asia,Japan,Tokyo,,Tokyo
160.16.97.248,4,24,avene.co.jp,JP,Asia,Eastern Asia,Japan,Tokyo,,Tokyo
52.194.135.183,4,6,awasete.com,JP,Asia,Eastern Asia,Japan,Tokyo,,Tokyo
141.98.197.116,4,-7,axiu.me,JP,Asia,Eastern Asia,Japan,Tokyo,,Tokyo
153.121.60.158,4,16,b8ta.jp,JP,Asia,Eastern Asia,Japan,Tokyo,,Tokyo
47.74.12.231,4,8,baghug77.com,JP,Asia,Eastern Asia,Japan,Tokyo,,Tokyo
160.16.200.75,4,5,bagu-s.co.jp,JP,Asia,Eastern Asia,Japan,Tokyo,,Tokyo
54.178.141.31,4,3,bbt.co.jp,JP,Asia,Eastern Asia,Japan,Tokyo,,Tokyo
160.16.240.172,4,10,bci.co.jp,JP,Asia,Eastern Asia,Japan,Tokyo,,Tokyo
210.224.191.11,4,247,beards.jp,JP,Asia,Eastern Asia,Japan,Tokyo,,Tokyo
160.16.218.89,4,4,beats21.com,JP,Asia,Eastern Asia,Japan,Tokyo,,Tokyo
140.227.150.68,4,20,best-shingaku.net,JP,Asia,Eastern Asia,Japan,Tokyo,,Tokyo
118.193.26.90,4,71069,bestqp.com,JP,Asia,Eastern Asia,Japan,Tokyo,,Tokyo
52.193.235.146,4,6,betcle.com,JP,Asia,Eastern Asia,Japan,Tokyo,,Tokyo
54.92.20.206,4,2,betcle.com,JP,Asia,Eastern Asia,Japan,Tokyo,,Tokyo
52.199.126.54,4,5,betcle.com,JP,Asia,Eastern Asia,Japan,Tokyo,,Tokyo
202.238.241.151,4,-2,bicsim.com,JP,Asia,Eastern Asia,Japan,Tokyo,,Tokyo
52.69.69.105,4,1,bitori.jp,JP,Asia,Eastern Asia,Japan,Tokyo,,Tokyo
18.182.247.236,4,9,bitori.jp,JP,Asia,Eastern Asia,Japan,Tokyo,,Tokyo
160.16.70.173,4,8,biwako.ne.jp,JP,Asia,Eastern Asia,Japan,Tokyo,,Tokyo
52.196.133.93,4,12,bonx.co,JP,Asia,Eastern Asia,Japan,Tokyo,,Tokyo
54.150.32.45,4,0,bonx.co,JP,Asia,Eastern Asia,Japan,Tokyo,,Tokyo
18.176.92.104,4,4,bonx.co,JP,Asia,Eastern Asia,Japan,Tokyo,,Tokyo
112.137.191.106,4,38,books-sanseido.co.jp,JP,Asia,Eastern Asia,Japan,Tokyo,,Tokyo
45.159.48.10,4,-1,boxmoe.com,JP,Asia,Eastern Asia,Japan,Tokyo,,Tokyo
34.85.121.137,4,4,bridgestone-firestone.com,JP,Asia,Eastern Asia,Japan,Tokyo,,Tokyo
23.27.52.90,4,0,btcloopholepro.com,JP,Asia,Eastern Asia,Japan,Tokyo,,Tokyo
172.104.80.23,4,4,btcoinz.com,JP,Asia,Eastern Asia,Japan,Tokyo,,Tokyo
35.194.118.93,4,4,bunkodo.co.jp,JP,Asia,Eastern Asia,Japan,Tokyo,,Tokyo
160.16.146.135,4,15,buttobi.net,JP,Asia,Eastern Asia,Japan,Tokyo,,Tokyo
13.115.242.175,4,1,cake.jp,JP,Asia,Eastern Asia,Japan,Tokyo,,Tokyo
18.182.114.181,4,16,cake.jp,JP,Asia,Eastern Asia,Japan,Tokyo,,Tokyo
160.16.145.170,4,9,californiakurumi.jp,JP,Asia,Eastern Asia,Japan,Tokyo,,Tokyo
18.180.35.227,4,8,callcenter-japan.com,JP,Asia,Eastern Asia,Japan,Tokyo,,Tokyo
160.16.117.230,4,0,cambridgeanalytica.org,JP,Asia,Eastern Asia,Japan,Tokyo,,Tokyo
43.163.226.98,4,15,car388.com,JP,Asia,Eastern Asia,Japan,Tokyo,,Tokyo
160.16.232.115,4,7,cattuongwesternpearls.com,JP,Asia,Eastern Asia,Japan,Tokyo,,Tokyo
18.176.208.28,4,5,cbiz.co.jp,JP,Asia,Eastern Asia,Japan,Tokyo,,Tokyo
18.182.207.107,4,7,cbiz.co.jp,JP,Asia,Eastern Asia,Japan,Tokyo,,Tokyo
139.162.97.212,4,771,ccpa.org.tw,JP,Asia,Eastern Asia,Japan,Tokyo,,Tokyo
160.16.79.23,4,7,ceron.jp,JP,Asia,Eastern Asia,Japan,Tokyo,,Tokyo
160.16.121.64,4,11,chasen.org,JP,Asia,Eastern Asia,Japan,Tokyo,,Tokyo
139.162.81.145,4,28,chatv9.com,JP,Asia,Eastern Asia,Japan,Tokyo,,Tokyo
43.230.160.241,4,1,christian-nicole.de,JP,Asia,Eastern Asia,Japan,Tokyo,,Tokyo
160.16.70.91,4,3,chukei-news.co.jp,JP,Asia,Eastern Asia,Japan,Tokyo,,Tokyo
18.182.137.104,4,5,ci-en.net,JP,Asia,Eastern Asia,Japan,Tokyo,,Tokyo
13.115.197.107,4,4,ci-en.net,JP,Asia,Eastern Asia,Japan,Tokyo,,Tokyo
139.162.96.13,4,106213,civillasers.com,JP,Asia,Eastern Asia,Japan,Tokyo,,Tokyo
160.16.234.200,4,55,cku.ac.jp,JP,Asia,Eastern Asia,Japan,Tokyo,,Tokyo
13.112.199.5,4,4,cleansui.com,JP,Asia,Eastern Asia,Japan,Tokyo,,Tokyo
139.162.100.136,4,13,cloud-torus.com,JP,Asia,Eastern Asia,Japan,Tokyo,,Tokyo
139.162.95.112,4,2,cloudbric.com,JP,Asia,Eastern Asia,Japan,Tokyo,,Tokyo
160.16.148.183,4,4,coconino.jp,JP,Asia,Eastern Asia,Japan,Tokyo,,Tokyo
54.150.112.188,4,2,coinchoice.net,JP,Asia,Eastern Asia,Japan,Tokyo,,Tokyo
54.150.2.165,4,3,coinchoice.net,JP,Asia,Eastern Asia,Japan,Tokyo,,Tokyo
54.168.23.115,4,4,coinchoice.net,JP,Asia,Eastern Asia,Japan,Tokyo,,Tokyo
160.16.82.10,4,4,comic1.jp,JP,Asia,Eastern Asia,Japan,Tokyo,,Tokyo
210.224.191.40,4,258,contact.co.jp,JP,Asia,Eastern Asia,Japan,Tokyo,,Tokyo
139.162.81.132,4,4,coolloud.org.tw,JP,Asia,Eastern Asia,Japan,Tokyo,,Tokyo
153.121.34.205,4,4,corobuzz.com,JP,Asia,Eastern Asia,Japan,Tokyo,,Tokyo
160.16.226.46,4,1,cosmos.ne.jp,JP,Asia,Eastern Asia,Japan,Tokyo,,Tokyo
114.160.88.123,4,36,couplesns.com,JP,Asia,Eastern Asia,Japan,Tokyo,,Tokyo
38.6.149.50,4,-14,cqhangzhen.cn,JP,Asia,Eastern Asia,Japan,Tokyo,,Tokyo
57.180.148.72,4,4,craudia.com,JP,Asia,Eastern Asia,Japan,Tokyo,,Tokyo
54.150.26.137,4,7,craudia.com,JP,Asia,Eastern Asia,Japan,Tokyo,,Tokyo
35.189.146.32,4,9,creatures.co.jp,JP,Asia,Eastern Asia,Japan,Tokyo,,Tokyo
133.18.208.226,4,-43391,creaz-webstudio.com,JP,Asia,Eastern Asia,Japan,Tokyo,,Tokyo
35.189.158.166,4,11,cross-m.co.jp,JP,Asia,Eastern Asia,Japan,Tokyo,,Tokyo
104.198.85.96,4,3,crosscoop.com,JP,Asia,Eastern Asia,Japan,Tokyo,,Tokyo
202.143.72.163,4,8,csdinc.co.jp,JP,Asia,Eastern Asia,Japan,Tokyo,,Tokyo
172.104.90.66,4,6,ctfa.com.tw,JP,Asia,Eastern Asia,Japan,Tokyo,,Tokyo
54.249.33.172,4,7,ctv.co.jp,JP,Asia,Eastern Asia,Japan,Tokyo,,Tokyo
160.16.149.7,4,-3,cube-soft.jp,JP,Asia,Eastern Asia,Japan,Tokyo,,Tokyo
139.162.67.176,4,43,cupc1.net,JP,Asia,Eastern Asia,Japan,Tokyo,,Tokyo
103.250.73.162,4,1,d-will.jp,JP,Asia,Eastern Asia,Japan,Tokyo,,Tokyo
160.16.236.75,4,0,daibiru.co.jp,JP,Asia,Eastern Asia,Japan,Tokyo,,Tokyo
139.162.89.23,4,8,daidometal.com,JP,Asia,Eastern Asia,Japan,Tokyo,,Tokyo
139.162.94.30,4,6,daikodenshi.jp,JP,Asia,Eastern Asia,Japan,Tokyo,,Tokyo
172.104.113.103,4,886,dailyindependentnig.com,JP,Asia,Eastern Asia,Japan,Tokyo,,Tokyo
137.220.242.236,4,45,danyuanbiaoxian.com,JP,Asia,Eastern Asia,Japan,Tokyo,,Tokyo
34.146.221.10,4,3,data-max.co.jp,JP,Asia,Eastern Asia,Japan,Tokyo,,Tokyo
35.213.50.104,4,22,datagrid.co.jp,JP,Asia,Eastern Asia,Japan,Tokyo,,Tokyo
160.16.240.239,4,8,dbsj.org,JP,Asia,Eastern Asia,Japan,Tokyo,,Tokyo
139.162.88.7,4,10,deen.co.jp,JP,Asia,Eastern Asia,Japan,Tokyo,,Tokyo
8.216.91.154,4,6,descente.com,JP,Asia,Eastern Asia,Japan,Tokyo,,Tokyo
160.16.70.109,4,60,digitalcast.jp,JP,Asia,Eastern Asia,Japan,Tokyo,,Tokyo
122.219.47.10,4,22,digitalstage.net,JP,Asia,Eastern Asia,Japan,Tokyo,,Tokyo
35.200.29.181,4,6,digjapan.travel,JP,Asia,Eastern Asia,Japan,Tokyo,,Tokyo
139.162.95.99,4,42,disp.cc,JP,Asia,Eastern Asia,Japan,Tokyo,,Tokyo
35.213.111.208,4,-1,diyfactory.jp,JP,Asia,Eastern Asia,Japan,Tokyo,,Tokyo
172.105.215.228,4,45,DNS Server: 172-105-215-228.ip.linodeusercontent.com,JP,Asia,Eastern Asia,Japan,Tokyo,,Tokyo
210.238.242.24,4,-53341812,DNS Server: aa2016020073D2EEF218.userreverse.dion.ne.jp,JP,Asia,Eastern Asia,Japan,Tokyo,,Tokyo
3.112.221.125,4,19,DNS Server: ec2-3-112-221-125.ap-northeast-1.compute.amazonaws.com,JP,Asia,Eastern Asia,Japan,Tokyo,,Tokyo
39.110.201.118,4,-2146568300,DNS Server: fs276ec976.tkyc202.ap.nuro.jp,JP,Asia,Eastern Asia,Japan,Tokyo,,Tokyo
118.238.203.252,4,-2151551074,DNS Server: fs76eecbfc.tkyc008.ap.nuro.jp,JP,Asia,Eastern Asia,Japan,Tokyo,,Tokyo
61.206.115.16,4,-3,DNS Server: inet.qox.jp,JP,Asia,Eastern Asia,Japan,Tokyo,,Tokyo
155.133.16.182,4,11,DNS Server: ip-155.133.16.182.net.tralnet.pl,JP,Asia,Eastern Asia,Japan,Tokyo,,Tokyo
219.59.9.214,4,99,DNS Server: softbank219059009214.bbtec.net,JP,Asia,Eastern Asia,Japan,Tokyo,,Tokyo
13.115.68.131,4,20,dogo.or.jp,JP,Asia,Eastern Asia,Japan,Tokyo,,Tokyo
54.238.60.168,4,34,doit.im,JP,Asia,Eastern Asia,Japan,Tokyo,,Tokyo
160.16.144.123,4,5,dokochina.com,JP,Asia,Eastern Asia,Japan,Tokyo,,Tokyo
54.238.25.185,4,5,doraemon-3d.com,JP,Asia,Eastern Asia,Japan,Tokyo,,Tokyo
119.75.238.8,4,-1,dreams-support.com,JP,Asia,Eastern Asia,Japan,Tokyo,,Tokyo
160.16.81.86,4,37,driver-haken.com,JP,Asia,Eastern Asia,Japan,Tokyo,,Tokyo
160.16.198.123,4,6,e-ccs.co.jp,JP,Asia,Eastern Asia,Japan,Tokyo,,Tokyo
202.144.234.133,4,-1,e-harima.com,JP,Asia,Eastern Asia,Japan,Tokyo,,Tokyo
160.16.207.169,4,7,e-naniwaya.co.jp,JP,Asia,Eastern Asia,Japan,Tokyo,,Tokyo
160.16.117.72,4,1,ea21.jp,JP,Asia,Eastern Asia,Japan,Tokyo,,Tokyo
172.104.95.48,4,37,effecthub.com,JP,Asia,Eastern Asia,Japan,Tokyo,,Tokyo
203.114.37.12,4,3,eisys.co.jp,JP,Asia,Eastern Asia,Japan,Tokyo,,Tokyo
109.123.230.127,4,-4,enn.tw,JP,Asia,Eastern Asia,Japan,Tokyo,,Tokyo
139.162.84.250,4,-2,equinox-e.com,JP,Asia,Eastern Asia,Japan,Tokyo,,Tokyo
34.84.94.44,4,2,erfolgsgruender.com,JP,Asia,Eastern Asia,Japan,Tokyo,,Tokyo
104.198.87.58,4,24,est-tatsujin.jp,JP,Asia,Eastern Asia,Japan,Tokyo,,Tokyo
160.16.200.11,4,7,evastore2.jp,JP,Asia,Eastern Asia,Japan,Tokyo,,Tokyo
35.243.107.14,4,4,everevo.com,JP,Asia,Eastern Asia,Japan,Tokyo,,Tokyo
172.105.238.78,4,592838,ewsos.com,JP,Asia,Eastern Asia,Japan,Tokyo,,Tokyo
35.194.115.174,4,44,exelco.com,JP,Asia,Eastern Asia,Japan,Tokyo,,Tokyo
220.146.104.216,4,60,exout.net,JP,Asia,Eastern Asia,Japan,Tokyo,,Tokyo
160.16.66.49,4,7,eyescream.jp,JP,Asia,Eastern Asia,Japan,Tokyo,,Tokyo
122.50.111.135,4,8,fancs.com,JP,Asia,Eastern Asia,Japan,Tokyo,,Tokyo
35.75.80.51,4,3,fanmoni.com,JP,Asia,Eastern Asia,Japan,Tokyo,,Tokyo
52.199.127.38,4,5,fanmoni.com,JP,Asia,Eastern Asia,Japan,Tokyo,,Tokyo
160.16.199.227,4,9,farazdena.com,JP,Asia,Eastern Asia,Japan,Tokyo,,Tokyo
160.16.204.63,4,6,fben.jp,JP,Asia,Eastern Asia,Japan,Tokyo,,Tokyo
160.16.82.200,4,22,fcimabari.com,JP,Asia,Eastern Asia,Japan,Tokyo,,Tokyo
54.64.23.6,4,-2528080,feedmeter.net,JP,Asia,Eastern Asia,Japan,Tokyo,,Tokyo
38.6.150.103,4,-9,fhieud.com,JP,Asia,Eastern Asia,Japan,Tokyo,,Tokyo
35.187.214.155,4,22,find-model.jp,JP,Asia,Eastern Asia,Japan,Tokyo,,Tokyo
35.200.104.68,4,5,focal.co.jp,JP,Asia,Eastern Asia,Japan,Tokyo,,Tokyo
160.16.231.180,4,6,footballista.jp,JP,Asia,Eastern Asia,Japan,Tokyo,,Tokyo
153.121.52.139,4,0,for-good.net,JP,Asia,Eastern Asia,Japan,Tokyo,,Tokyo
160.16.230.152,4,42,fortee.jp,JP,Asia,Eastern Asia,Japan,Tokyo,,Tokyo
52.194.157.78,4,3,freenewmexican.com,JP,Asia,Eastern Asia,Japan,Tokyo,,Tokyo
160.16.92.126,4,-1,fudohsan.jp,JP,Asia,Eastern Asia,Japan,Tokyo,,Tokyo
160.16.104.11,4,3,fujisafari.co.jp,JP,Asia,Eastern Asia,Japan,Tokyo,,Tokyo
160.16.91.117,4,4,fujiya-kk.com,JP,Asia,Eastern Asia,Japan,Tokyo,,Tokyo
139.162.74.25,4,0,fun100-ilanbnb.com,JP,Asia,Eastern Asia,Japan,Tokyo,,Tokyo
172.105.237.221,4,6,fws.tw,JP,Asia,Eastern Asia,Japan,Tokyo,,Tokyo
150.31.214.106,4,6,gakken-mall.jp,JP,Asia,Eastern Asia,Japan,Tokyo,,Tokyo
160.16.147.188,4,7,gakuto.co.jp,JP,Asia,Eastern Asia,Japan,Tokyo,,Tokyo
160.16.98.58,4,4,gamekouryaku.com,JP,Asia,Eastern Asia,Japan,Tokyo,,Tokyo
18.178.174.59,4,4,gateauxkingdom.com,JP,Asia,Eastern Asia,Japan,Tokyo,,Tokyo
122.219.46.90,4,5,geekly.co.jp,JP,Asia,Eastern Asia,Japan,Tokyo,,Tokyo
160.16.239.173,4,2,geigeki.jp,JP,Asia,Eastern Asia,Japan,Tokyo,,Tokyo
139.162.111.112,4,19,geil.com.tw,JP,Asia,Eastern Asia,Japan,Tokyo,,Tokyo
160.16.57.209,4,1,gekkan-kyoto.net,JP,Asia,Eastern Asia,Japan,Tokyo,,Tokyo
52.68.225.180,4,2,gentosha.jp,JP,Asia,Eastern Asia,Japan,Tokyo,,Tokyo
57.181.108.46,4,7,gentosha.jp,JP,Asia,Eastern Asia,Japan,Tokyo,,Tokyo
57.181.153.128,4,7,gentosha.jp,JP,Asia,Eastern Asia,Japan,Tokyo,,Tokyo
160.16.141.217,4,2,gibson.jp,JP,Asia,Eastern Asia,Japan,Tokyo,,Tokyo
160.16.198.104,4,-1,girlsnews.tv,JP,Asia,Eastern Asia,Japan,Tokyo,,Tokyo
160.16.132.193,4,6,gofukuoka.jp,JP,Asia,Eastern Asia,Japan,Tokyo,,Tokyo
160.16.217.63,4,8,gorilla.clinic,JP,Asia,Eastern Asia,Japan,Tokyo,,Tokyo
172.104.66.113,4,10,gramvaani.org,JP,Asia,Eastern Asia,Japan,Tokyo,,Tokyo
54.250.72.180,4,9,grasshopper.co.jp,JP,Asia,Eastern Asia,Japan,Tokyo,,Tokyo
91.199.209.53,4,16,growthman.cn,JP,Asia,Eastern Asia,Japan,Tokyo,,Tokyo
160.16.59.48,4,-2,gsxxmj.com,JP,Asia,Eastern Asia,Japan,Tokyo,,Tokyo
139.162.102.70,4,4,gtwang.org,JP,Asia,Eastern Asia,Japan,Tokyo,,Tokyo
172.104.119.223,4,1,guthriejensen.com,JP,Asia,Eastern Asia,Japan,Tokyo,,Tokyo
160.16.196.197,4,3,gyokkodo.co.jp,JP,Asia,Eastern Asia,Japan,Tokyo,,Tokyo
137.220.242.233,4,6,gzystdz.com,JP,Asia,Eastern Asia,Japan,Tokyo,,Tokyo
122.219.44.226,4,0,hachidori-denryoku.jp,JP,Asia,Eastern Asia,Japan,Tokyo,,Tokyo
172.104.115.189,4,3,hairmake-earth.com,JP,Asia,Eastern Asia,Japan,Tokyo,,Tokyo
137.220.242.237,4,6,haixiletoys.com,JP,Asia,Eastern Asia,Japan,Tokyo,,Tokyo
220.109.215.18,4,-2,hakatath.ed.jp,JP,Asia,Eastern Asia,Japan,Tokyo,,Tokyo
202.238.233.174,4,7,hankyu-travel.com,JP,Asia,Eastern Asia,Japan,Tokyo,,Tokyo
202.238.233.175,4,-3,hankyu-travel.com,JP,Asia,Eastern Asia,Japan,Tokyo,,Tokyo
54.92.21.4,4,-2,hario.com,JP,Asia,Eastern Asia,Japan,Tokyo,,Tokyo
54.199.9.239,4,17,hario.com,JP,Asia,Eastern Asia,Japan,Tokyo,,Tokyo
160.16.228.123,4,2,harumi-flag.tokyo,JP,Asia,Eastern Asia,Japan,Tokyo,,Tokyo
52.193.19.22,4,9,hatena.com,JP,Asia,Eastern Asia,Japan,Tokyo,,Tokyo
57.181.71.153,4,22,hatena.com,JP,Asia,Eastern Asia,Japan,Tokyo,,Tokyo
52.194.121.180,4,13,haveagood.holiday,JP,Asia,Eastern Asia,Japan,Tokyo,,Tokyo
57.180.200.50,4,7,haveagood.holiday,JP,Asia,Eastern Asia,Japan,Tokyo,,Tokyo
160.16.216.28,4,1,hbhuidian.com,JP,Asia,Eastern Asia,Japan,Tokyo,,Tokyo
202.238.242.222,4,0,hc-kohnan.com,JP,Asia,Eastern Asia,Japan,Tokyo,,Tokyo
35.243.81.13,4,3,heart-bread.com,JP,Asia,Eastern Asia,Japan,Tokyo,,Tokyo
160.16.50.169,4,8,heno2.com,JP,Asia,Eastern Asia,Japan,Tokyo,,Tokyo
160.16.238.47,4,4,heros-web.com,JP,Asia,Eastern Asia,Japan,Tokyo,,Tokyo
202.238.245.175,4,3,hikkoshi-sakai.co.jp,JP,Asia,Eastern Asia,Japan,Tokyo,,Tokyo
202.238.233.172,4,3,himaraya.co.jp,JP,Asia,Eastern Asia,Japan,Tokyo,,Tokyo
202.238.233.173,4,6,himaraya.co.jp,JP,Asia,Eastern Asia,Japan,Tokyo,,Tokyo
160.16.233.249,4,13,hipjpn.co.jp,JP,Asia,Eastern Asia,Japan,Tokyo,,Tokyo
54.238.47.86,4,5,hitou.or.jp,JP,Asia,Eastern Asia,Japan,Tokyo,,Tokyo
150.31.214.122,4,11,hk-event.jp,JP,Asia,Eastern Asia,Japan,Tokyo,,Tokyo
172.105.226.182,4,757057,hkba.org,JP,Asia,Eastern Asia,Japan,Tokyo,,Tokyo
160.16.85.88,4,2,hobbyshow.co.jp,JP,Asia,Eastern Asia,Japan,Tokyo,,Tokyo
54.65.38.240,4,-1,hokepon.com,JP,Asia,Eastern Asia,Japan,Tokyo,,Tokyo
54.178.47.202,4,18,holla.world,JP,Asia,Eastern Asia,Japan,Tokyo,,Tokyo
54.199.236.192,4,12,holla.world,JP,Asia,Eastern Asia,Japan,Tokyo,,Tokyo
13.114.158.166,4,6,home-tv.co.jp,JP,Asia,Eastern Asia,Japan,Tokyo,,Tokyo
54.168.122.185,4,4,honmagolf.co.jp,JP,Asia,Eastern Asia,Japan,Tokyo,,Tokyo
160.16.225.212,4,6,honmaru-radio.com,JP,Asia,Eastern Asia,Japan,Tokyo,,Tokyo
139.162.83.111,4,805,hoshi.ac.jp,JP,Asia,Eastern Asia,Japan,Tokyo,,Tokyo
172.104.82.84,4,30,hospice.org.tw,JP,Asia,Eastern Asia,Japan,Tokyo,,Tokyo
172.105.230.124,4,7,hotline.org.tw,JP,Asia,Eastern Asia,Japan,Tokyo,,Tokyo
52.69.55.235,4,4,houmon-care-recruit.jp,JP,Asia,Eastern Asia,Japan,Tokyo,,Tokyo
124.35.138.180,4,-2,htmllint.net,JP,Asia,Eastern Asia,Japan,Tokyo,,Tokyo
172.105.227.187,4,1066,hualientour.com.tw,JP,Asia,Eastern Asia,Japan,Tokyo,,Tokyo
172.104.67.108,4,-12416,huzheng.org,JP,Asia,Eastern Asia,Japan,Tokyo,,Tokyo
160.16.241.135,4,5,hyogo-ip.or.jp,JP,Asia,Eastern Asia,Japan,Tokyo,,Tokyo
38.6.148.119,4,-3,hzhqycyy.com,JP,Asia,Eastern Asia,Japan,Tokyo,,Tokyo
35.76.76.179,4,6,i2i.jp,JP,Asia,Eastern Asia,Japan,Tokyo,,Tokyo
52.199.238.82,4,0,i2i.jp,JP,Asia,Eastern Asia,Japan,Tokyo,,Tokyo
139.162.87.29,4,323490,iacsit.org,JP,Asia,Eastern Asia,Japan,Tokyo,,Tokyo
211.5.243.98,4,4,ichibata.co.jp,JP,Asia,Eastern Asia,Japan,Tokyo,,Tokyo
54.238.127.242,4,71,ichikoh.com,JP,Asia,Eastern Asia,Japan,Tokyo,,Tokyo
160.16.148.250,4,32,idea-in.com,JP,Asia,Eastern Asia,Japan,Tokyo,,Tokyo
139.162.80.40,4,18,ihower.tw,JP,Asia,Eastern Asia,Japan,Tokyo,,Tokyo
160.16.127.188,4,10,ikz.jp,JP,Asia,Eastern Asia,Japan,Tokyo,,Tokyo
139.162.114.31,4,26,ilikekillnerds.com,JP,Asia,Eastern Asia,Japan,Tokyo,,Tokyo
54.248.216.10,4,6,innervision.co.jp,JP,Asia,Eastern Asia,Japan,Tokyo,,Tokyo
52.194.91.215,4,51,instantramen-museum.jp,JP,Asia,Eastern Asia,Japan,Tokyo,,Tokyo
3.115.74.100,4,2,instantramen-museum.jp,JP,Asia,Eastern Asia,Japan,Tokyo,,Tokyo
38.6.146.88,4,-8,intaxiads.com,JP,Asia,Eastern Asia,Japan,Tokyo,,Tokyo
153.121.47.145,4,0,interaction-ipsj.org,JP,Asia,Eastern Asia,Japan,Tokyo,,Tokyo
172.105.215.140,4,20,ioxapp.com,JP,Asia,Eastern Asia,Japan,Tokyo,,Tokyo
160.16.142.73,4,2,ipforce.jp,JP,Asia,Eastern Asia,Japan,Tokyo,,Tokyo
54.250.127.5,4,20,iq-servers.com,JP,Asia,Eastern Asia,Japan,Tokyo,,Tokyo
18.176.82.165,4,8,iq-servers.com,JP,Asia,Eastern Asia,Japan,Tokyo,,Tokyo
160.16.205.199,4,5,irobot-jp.com,JP,Asia,Eastern Asia,Japan,Tokyo,,Tokyo
160.16.113.42,4,5,irwebmeeting.com,JP,Asia,Eastern Asia,Japan,Tokyo,,Tokyo
13.113.58.61,4,12,isao.net,JP,Asia,Eastern Asia,Japan,Tokyo,,Tokyo
139.162.99.84,4,2480,ishiyamadera.or.jp,JP,Asia,Eastern Asia,Japan,Tokyo,,Tokyo
160.16.211.122,4,3,isij.or.jp,JP,Asia,Eastern Asia,Japan,Tokyo,,Tokyo
202.238.242.46,4,-2,isms.jp,JP,Asia,Eastern Asia,Japan,Tokyo,,Tokyo
202.238.229.55,4,44,itreview.jp,JP,Asia,Eastern Asia,Japan,Tokyo,,Tokyo
54.238.150.48,4,13,itszai.jp,JP,Asia,Eastern Asia,Japan,Tokyo,,Tokyo
52.192.98.13,4,8,itszai.jp,JP,Asia,Eastern Asia,Japan,Tokyo,,Tokyo
54.250.212.135,4,15,itszai.jp,JP,Asia,Eastern Asia,Japan,Tokyo,,Tokyo
122.219.47.4,4,10,iwj.co.jp,JP,Asia,Eastern Asia,Japan,Tokyo,,Tokyo
150.31.244.37,4,6,j-ba.or.jp,JP,Asia,Eastern Asia,Japan,Tokyo,,Tokyo
163.44.20.240,4,-4,j-lyric.net,JP,Asia,Eastern Asia,Japan,Tokyo,,Tokyo
163.44.20.53,4,5,jacr.info,JP,Asia,Eastern Asia,Japan,Tokyo,,Tokyo
150.31.244.144,4,5,jaf.or.jp,JP,Asia,Eastern Asia,Japan,Tokyo,,Tokyo
150.31.244.146,4,16,jaf.or.jp,JP,Asia,Eastern Asia,Japan,Tokyo,,Tokyo
172.105.214.65,4,6,jalt-publications.org,JP,Asia,Eastern Asia,Japan,Tokyo,,Tokyo
139.162.105.223,4,9,japanesestreets.com,JP,Asia,Eastern Asia,Japan,Tokyo,,Tokyo
57.181.53.113,4,22,japanslht.or.jp,JP,Asia,Eastern Asia,Japan,Tokyo,,Tokyo
35.72.130.23,4,-1,japanslht.or.jp,JP,Asia,Eastern Asia,Japan,Tokyo,,Tokyo
153.121.50.225,4,5,jaro.or.jp,JP,Asia,Eastern Asia,Japan,Tokyo,,Tokyo
160.16.133.134,4,22,jasa.or.jp,JP,Asia,Eastern Asia,Japan,Tokyo,,Tokyo
160.16.91.9,4,8,jazzdisco.org,JP,Asia,Eastern Asia,Japan,Tokyo,,Tokyo
160.16.212.177,4,5,jcf.or.jp,JP,Asia,Eastern Asia,Japan,Tokyo,,Tokyo
160.16.237.124,4,3,jcv-jp.org,JP,Asia,Eastern Asia,Japan,Tokyo,,Tokyo
91.193.7.253,4,9,jerseyswholesalevip.us,JP,Asia,Eastern Asia,Japan,Tokyo,,Tokyo
13.112.154.123,4,8567,jewsnotzionists.org,JP,Asia,Eastern Asia,Japan,Tokyo,,Tokyo
153.121.40.92,4,1,jges.net,JP,Asia,Eastern Asia,Japan,Tokyo,,Tokyo
160.16.218.26,4,12,jiia.or.jp,JP,Asia,Eastern Asia,Japan,Tokyo,,Tokyo
137.220.242.235,4,6,jingqiong-sh.com,JP,Asia,Eastern Asia,Japan,Tokyo,,Tokyo
160.16.90.57,4,-2,jjazz.net,JP,Asia,Eastern Asia,Japan,Tokyo,,Tokyo
202.143.72.162,4,-1,jmdb.ne.jp,JP,Asia,Eastern Asia,Japan,Tokyo,,Tokyo
160.16.108.184,4,0,jojo-portal.com,JP,Asia,Eastern Asia,Japan,Tokyo,,Tokyo
160.16.109.228,4,3,jojo-portal.com,JP,Asia,Eastern Asia,Japan,Tokyo,,Tokyo
160.16.66.218,4,9,joyfulhonda.com,JP,Asia,Eastern Asia,Japan,Tokyo,,Tokyo
160.16.57.171,4,6,jsass.or.jp,JP,Asia,Eastern Asia,Japan,Tokyo,,Tokyo
175.41.244.158,4,5,jsdt.or.jp,JP,Asia,Eastern Asia,Japan,Tokyo,,Tokyo
153.121.41.205,4,0,jsme.or.jp,JP,Asia,Eastern Asia,Japan,Tokyo,,Tokyo
160.16.211.90,4,1,jsum.or.jp,JP,Asia,Eastern Asia,Japan,Tokyo,,Tokyo
160.16.67.144,4,3,jti.or.jp,JP,Asia,Eastern Asia,Japan,Tokyo,,Tokyo
160.16.212.245,4,4,jump-net.com,JP,Asia,Eastern Asia,Japan,Tokyo,,Tokyo
38.6.146.104,4,-2,k570.com,JP,Asia,Eastern Asia,Japan,Tokyo,,Tokyo
35.200.99.134,4,3,kanaloco.jp,JP,Asia,Eastern Asia,Japan,Tokyo,,Tokyo
160.16.101.119,4,6,kankou-kurashiki.jp,JP,Asia,Eastern Asia,Japan,Tokyo,,Tokyo
54.64.137.146,4,3,kankou-matsue.jp,JP,Asia,Eastern Asia,Japan,Tokyo,,Tokyo
54.248.170.119,4,0,kanou.com,JP,Asia,Eastern Asia,Japan,Tokyo,,Tokyo
172.105.220.80,4,697737,kanpocom.com,JP,Asia,Eastern Asia,Japan,Tokyo,,Tokyo
153.121.55.244,4,3,kanzaki.com,JP,Asia,Eastern Asia,Japan,Tokyo,,Tokyo
153.121.56.192,4,8,karada39.com,JP,Asia,Eastern Asia,Japan,Tokyo,,Tokyo
160.16.77.59,4,23,karatsu-kankou.jp,JP,Asia,Eastern Asia,Japan,Tokyo,,Tokyo
160.16.90.207,4,5,kasaoka-kankou.jp,JP,Asia,Eastern Asia,Japan,Tokyo,,Tokyo
139.162.88.178,4,16,kawakamian.com,JP,Asia,Eastern Asia,Japan,Tokyo,,Tokyo
150.31.214.86,4,11,kewpie.com,JP,Asia,Eastern Asia,Japan,Tokyo,,Tokyo
172.105.194.221,4,1924,kikusui.co.jp,JP,Asia,Eastern Asia,Japan,Tokyo,,Tokyo
35.221.119.183,4,19,kirinoikeuchi.co.jp,JP,Asia,Eastern Asia,Japan,Tokyo,,Tokyo
18.181.114.133,4,10,kitutuki.co.jp,JP,Asia,Eastern Asia,Japan,Tokyo,,Tokyo
52.192.29.211,4,7,km-group.co.jp,JP,Asia,Eastern Asia,Japan,Tokyo,,Tokyo
160.16.55.219,4,2,kobe-spokyo.jp,JP,Asia,Eastern Asia,Japan,Tokyo,,Tokyo
203.138.185.229,4,3,kochi-bunkazaidan.or.jp,JP,Asia,Eastern Asia,Japan,Tokyo,,Tokyo
160.16.220.73,4,7,kochi-tabi.jp,JP,Asia,Eastern Asia,Japan,Tokyo,,Tokyo
160.16.69.188,4,35,kochi-tabi.jp,JP,Asia,Eastern Asia,Japan,Tokyo,,Tokyo
160.16.120.90,4,3,kogetsu.com,JP,Asia,Eastern Asia,Japan,Tokyo,,Tokyo
151.101.110.225,4,6,kojimaproductions.jp,JP,Asia,Eastern Asia,Japan,Tokyo,,Tokyo
140.227.151.196,4,42,konaka.com,JP,Asia,Eastern Asia,Japan,Tokyo,,Tokyo
117.102.179.167,4,1,kotoba.ne.jp,JP,Asia,Eastern Asia,Japan,Tokyo,,Tokyo
160.16.121.50,4,2,kowaisite.com,JP,Asia,Eastern Asia,Japan,Tokyo,,Tokyo
172.104.112.214,4,20,kro.kr,JP,Asia,Eastern Asia,Japan,Tokyo,,Tokyo
153.121.53.51,4,10,kumamoto-guide.jp,JP,Asia,Eastern Asia,Japan,Tokyo,,Tokyo
175.41.248.99,4,16,kumamoto-ymca.or.jp,JP,Asia,Eastern Asia,Japan,Tokyo,,Tokyo
160.16.152.201,4,3,kumanago.jp,JP,Asia,Eastern Asia,Japan,Tokyo,,Tokyo
35.200.10.231,4,8,kuretake-inn.com,JP,Asia,Eastern Asia,Japan,Tokyo,,Tokyo
160.16.96.233,4,0,kurobas.com,JP,Asia,Eastern Asia,Japan,Tokyo,,Tokyo
160.16.134.245,4,10,kyokanko.or.jp,JP,Asia,Eastern Asia,Japan,Tokyo,,Tokyo
160.16.217.98,4,5,kyokutan.jp,JP,Asia,Eastern Asia,Japan,Tokyo,,Tokyo
182.236.89.62,4,78,kyoshakyo.or.jp,JP,Asia,Eastern Asia,Japan,Tokyo,,Tokyo
35.200.113.1,4,3,kyotango.gr.jp,JP,Asia,Eastern Asia,Japan,Tokyo,,Tokyo
160.16.220.80,4,83865,kzsoft.to,JP,Asia,Eastern Asia,Japan,Tokyo,,Tokyo
60.32.89.196,4,99,leftkick.com,JP,Asia,Eastern Asia,Japan,Tokyo,,Tokyo
172.104.108.30,4,29,leica.org.cn,JP,Asia,Eastern Asia,Japan,Tokyo,,Tokyo
122.219.45.146,4,0,lfc-compost.jp,JP,Asia,Eastern Asia,Japan,Tokyo,,Tokyo
160.16.143.12,4,5,libraryfair.jp,JP,Asia,Eastern Asia,Japan,Tokyo,,Tokyo
160.16.211.42,4,-4,links.co.jp,JP,Asia,Eastern Asia,Japan,Tokyo,,Tokyo
139.162.113.238,4,6,linuxtoy.org,JP,Asia,Eastern Asia,Japan,Tokyo,,Tokyo
18.182.74.195,4,1,lixil.co.jp,JP,Asia,Eastern Asia,Japan,Tokyo,,Tokyo
116.80.43.127,4,1,losangelesstrings.com,JP,Asia,Eastern Asia,Japan,Tokyo,,Tokyo
54.199.205.53,4,6,loveinq.com,JP,Asia,Eastern Asia,Japan,Tokyo,,Tokyo
160.16.205.44,4,-1,lrmfirearms.com,JP,Asia,Eastern Asia,Japan,Tokyo,,Tokyo
34.146.184.66,4,21,lucy.ne.jp,JP,Asia,Eastern Asia,Japan,Tokyo,,Tokyo
114.160.74.109,4,36,lupo.jp,JP,Asia,Eastern Asia,Japan,Tokyo,,Tokyo
160.16.206.219,4,5,maailmantango.net,JP,Asia,Eastern Asia,Japan,Tokyo,,Tokyo
202.238.241.88,4,-4,machico.mu,JP,Asia,Eastern Asia,Japan,Tokyo,,Tokyo
113.43.138.162,4,10,magichour.co.jp,JP,Asia,Eastern Asia,Japan,Tokyo,,Tokyo
14.0.44.246,4,0,mamaworks.jp,JP,Asia,Eastern Asia,Japan,Tokyo,,Tokyo
14.0.44.247,4,7,mamaworks.jp,JP,Asia,Eastern Asia,Japan,Tokyo,,Tokyo
14.0.42.22,4,20,mamaworks.jp,JP,Asia,Eastern Asia,Japan,Tokyo,,Tokyo
160.16.75.212,4,0,mamewaza.com,JP,Asia,Eastern Asia,Japan,Tokyo,,Tokyo
3.115.155.102,4,6,mammut.jp,JP,Asia,Eastern Asia,Japan,Tokyo,,Tokyo
34.146.173.72,4,21,mandarake.co.jp,JP,Asia,Eastern Asia,Japan,Tokyo,,Tokyo
160.16.234.33,4,2,manyosen.co.jp,JP,Asia,Eastern Asia,Japan,Tokyo,,Tokyo
139.162.75.103,4,58,markplace.net,JP,Asia,Eastern Asia,Japan,Tokyo,,Tokyo
139.162.94.110,4,2,marv.jp,JP,Asia,Eastern Asia,Japan,Tokyo,,Tokyo
160.16.125.49,4,16,matomeantena.com,JP,Asia,Eastern Asia,Japan,Tokyo,,Tokyo
172.104.93.97,4,10,mckinseychina.com,JP,Asia,Eastern Asia,Japan,Tokyo,,Tokyo
160.16.135.25,4,47,mediamarker.net,JP,Asia,Eastern Asia,Japan,Tokyo,,Tokyo
160.16.237.251,4,18,megalodon.jp,JP,Asia,Eastern Asia,Japan,Tokyo,,Tokyo
103.201.131.129,4,98194,meiyingge8.com,JP,Asia,Eastern Asia,Japan,Tokyo,,Tokyo
172.105.217.212,4,18,mens-rinx.jp,JP,Asia,Eastern Asia,Japan,Tokyo,,Tokyo
160.16.200.204,4,-3,mgpharmmg.com,JP,Asia,Eastern Asia,Japan,Tokyo,,Tokyo
3.113.85.247,4,19,microfocus.co.jp,JP,Asia,Eastern Asia,Japan,Tokyo,,Tokyo
160.16.206.217,4,7,midland-sq-cinema.jp,JP,Asia,Eastern Asia,Japan,Tokyo,,Tokyo
153.121.34.24,4,25,mightyno9.com,JP,Asia,Eastern Asia,Japan,Tokyo,,Tokyo
176.97.70.161,4,7,mightytips.ph,JP,Asia,Eastern Asia,Japan,Tokyo,,Tokyo
52.197.9.208,4,12,mildom.com,JP,Asia,Eastern Asia,Japan,Tokyo,,Tokyo
54.199.25.194,4,13,mildom.com,JP,Asia,Eastern Asia,Japan,Tokyo,,Tokyo
13.114.72.61,4,0,mildom.com,JP,Asia,Eastern Asia,Japan,Tokyo,,Tokyo
160.16.65.45,4,2,minato-yamaguchi.co.jp,JP,Asia,Eastern Asia,Japan,Tokyo,,Tokyo
52.199.100.50,4,10,minkou.jp,JP,Asia,Eastern Asia,Japan,Tokyo,,Tokyo
160.16.217.52,4,6,minnaga.com,JP,Asia,Eastern Asia,Japan,Tokyo,,Tokyo
139.162.81.166,4,2067,mirai-works.co.jp,JP,Asia,Eastern Asia,Japan,Tokyo,,Tokyo
160.16.74.154,4,85,miruc.co,JP,Asia,Eastern Asia,Japan,Tokyo,,Tokyo
3.115.114.37,4,3,misty.ne.jp,JP,Asia,Eastern Asia,Japan,Tokyo,,Tokyo
160.16.95.218,4,2,mixb.net,JP,Asia,Eastern Asia,Japan,Tokyo,,Tokyo
172.104.114.215,4,203,mixh.jp,JP,Asia,Eastern Asia,Japan,Tokyo,,Tokyo
176.34.30.111,4,7,mixi.jp,JP,Asia,Eastern Asia,Japan,Tokyo,,Tokyo
3.114.215.9,4,5,mixi.jp,JP,Asia,Eastern Asia,Japan,Tokyo,,Tokyo
35.213.92.72,4,-2,moe-web.jp,JP,Asia,Eastern Asia,Japan,Tokyo,,Tokyo
160.16.151.73,4,18,monomagazine.com,JP,Asia,Eastern Asia,Japan,Tokyo,,Tokyo
160.16.239.91,4,0,more-trees.org,JP,Asia,Eastern Asia,Japan,Tokyo,,Tokyo
34.146.25.187,4,3,morejob.co.jp,JP,Asia,Eastern Asia,Japan,Tokyo,,Tokyo
160.16.50.137,4,26,morozo.org,JP,Asia,Eastern Asia,Japan,Tokyo,,Tokyo
160.16.205.8,4,0,motivationproperties.com,JP,Asia,Eastern Asia,Japan,Tokyo,,Tokyo
219.117.195.78,4,275,mountaintrad.co.jp,JP,Asia,Eastern Asia,Japan,Tokyo,,Tokyo
34.85.10.55,4,6,mozillazine.jp,JP,Asia,Eastern Asia,Japan,Tokyo,,Tokyo
54.65.34.10,4,5,mp7.jp,JP,Asia,Eastern Asia,Japan,Tokyo,,Tokyo
18.177.177.106,4,34,mumia.org,JP,Asia,Eastern Asia,Japan,Tokyo,,Tokyo
54.248.253.138,4,2,murasaki.co.jp,JP,Asia,Eastern Asia,Japan,Tokyo,,Tokyo
160.16.113.157,4,2,muro-kanko.com,JP,Asia,Eastern Asia,Japan,Tokyo,,Tokyo
160.16.82.153,4,0,muse-tokai.jp,JP,Asia,Eastern Asia,Japan,Tokyo,,Tokyo
160.16.51.42,4,4,musen-lan.com,JP,Asia,Eastern Asia,Japan,Tokyo,,Tokyo
160.16.98.24,4,7,music-ici.com,JP,Asia,Eastern Asia,Japan,Tokyo,,Tokyo
203.138.176.94,4,17,myoji-yurai.net,JP,Asia,Eastern Asia,Japan,Tokyo,,Tokyo
54.238.193.30,4,7,nacos.com,JP,Asia,Eastern Asia,Japan,Tokyo,,Tokyo
172.105.195.13,4,35,nagoyaaqua.jp,JP,Asia,Eastern Asia,Japan,Tokyo,,Tokyo
34.85.123.209,4,5,nakanojo-kanko.jp,JP,Asia,Eastern Asia,Japan,Tokyo,,Tokyo
160.16.126.229,4,6,nas-club.co.jp,JP,Asia,Eastern Asia,Japan,Tokyo,,Tokyo
160.16.124.209,4,12,nekoatsume.com,JP,Asia,Eastern Asia,Japan,Tokyo,,Tokyo
35.200.1.54,4,2,nekoshoku.jp,JP,Asia,Eastern Asia,Japan,Tokyo,,Tokyo
54.199.101.220,4,-2,neteasegamer.com,JP,Asia,Eastern Asia,Japan,Tokyo,,Tokyo
160.16.143.174,4,7,newsoftwarezone.org,JP,Asia,Eastern Asia,Japan,Tokyo,,Tokyo
103.29.70.202,4,36,newsonjapan.com,JP,Asia,Eastern Asia,Japan,Tokyo,,Tokyo
104.198.114.149,4,1,next-level.biz,JP,Asia,Eastern Asia,Japan,Tokyo,,Tokyo
160.16.59.241,4,6,nichido-garo.co.jp,JP,Asia,Eastern Asia,Japan,Tokyo,,Tokyo
18.177.175.230,4,20,nidek.co.jp,JP,Asia,Eastern Asia,Japan,Tokyo,,Tokyo
57.180.206.210,4,3,nidek.co.jp,JP,Asia,Eastern Asia,Japan,Tokyo,,Tokyo
160.16.70.82,4,6,nihondaikyo.or.jp,JP,Asia,Eastern Asia,Japan,Tokyo,,Tokyo
133.237.69.34,4,2,nikki.ne.jp,JP,Asia,Eastern Asia,Japan,Tokyo,,Tokyo
160.16.120.58,4,17,nikufes.jp,JP,Asia,Eastern Asia,Japan,Tokyo,,Tokyo
160.16.219.197,4,6,nittaku.com,JP,Asia,Eastern Asia,Japan,Tokyo,,Tokyo
160.16.223.234,4,3,no3.co.jp,JP,Asia,Eastern Asia,Japan,Tokyo,,Tokyo
160.16.105.29,4,5,novelgame.jp,JP,Asia,Eastern Asia,Japan,Tokyo,,Tokyo
139.162.94.189,4,0,nun.nu,JP,Asia,Eastern Asia,Japan,Tokyo,,Tokyo
160.16.214.16,4,2,o-cha.net,JP,Asia,Eastern Asia,Japan,Tokyo,,Tokyo
160.16.78.15,4,27,officee.jp,JP,Asia,Eastern Asia,Japan,Tokyo,,Tokyo
160.16.80.207,4,0,oita-airport.jp,JP,Asia,Eastern Asia,Japan,Tokyo,,Tokyo
35.73.146.213,4,2,oizumi.co.jp,JP,Asia,Eastern Asia,Japan,Tokyo,,Tokyo
113.43.138.139,4,337,okinawa-labo.com,JP,Asia,Eastern Asia,Japan,Tokyo,,Tokyo
160.16.126.85,4,8,ongakunotomo.co.jp,JP,Asia,Eastern Asia,Japan,Tokyo,,Tokyo
160.16.94.143,4,6,onionworld.jp,JP,Asia,Eastern Asia,Japan,Tokyo,,Tokyo
160.16.216.129,4,-4,onizuka.co.jp,JP,Asia,Eastern Asia,Japan,Tokyo,,Tokyo
160.16.63.201,4,5,opark.jp,JP,Asia,Eastern Asia,Japan,Tokyo,,Tokyo
139.162.127.191,4,2,openbook.org.tw,JP,Asia,Eastern Asia,Japan,Tokyo,,Tokyo
35.79.191.182,4,129,openpne.jp,JP,Asia,Eastern Asia,Japan,Tokyo,,Tokyo
3.114.4.43,4,9,orange.tw,JP,Asia,Eastern Asia,Japan,Tokyo,,Tokyo
23.50.118.187,4,0,orico.co.jp,JP,Asia,Eastern Asia,Japan,Tokyo,,Tokyo
23.50.118.170,4,10,orico.co.jp,JP,Asia,Eastern Asia,Japan,Tokyo,,Tokyo
160.16.198.87,4,11,origamikaikan.co.jp,JP,Asia,Eastern Asia,Japan,Tokyo,,Tokyo
110.232.197.109,4,-4,orix-carshare.com,JP,Asia,Eastern Asia,Japan,Tokyo,,Tokyo
122.219.42.170,4,9,osakaymca.or.jp,JP,Asia,Eastern Asia,Japan,Tokyo,,Tokyo
137.220.242.159,4,7,otrmatters.com,JP,Asia,Eastern Asia,Japan,Tokyo,,Tokyo
153.121.60.96,4,0,pachinavi.jp,JP,Asia,Eastern Asia,Japan,Tokyo,,Tokyo
52.68.134.19,4,6,pagamo.org,JP,Asia,Eastern Asia,Japan,Tokyo,,Tokyo
13.231.9.241,4,10,pagamo.org,JP,Asia,Eastern Asia,Japan,Tokyo,,Tokyo
54.150.135.90,4,3,pagamo.org,JP,Asia,Eastern Asia,Japan,Tokyo,,Tokyo
52.195.253.194,4,6,paiza.io,JP,Asia,Eastern Asia,Japan,Tokyo,,Tokyo
3.115.25.189,4,1,paiza.io,JP,Asia,Eastern Asia,Japan,Tokyo,,Tokyo
18.176.186.249,4,12,panaracer.com,JP,Asia,Eastern Asia,Japan,Tokyo,,Tokyo
160.16.84.56,4,-13,panrolling.com,JP,Asia,Eastern Asia,Japan,Tokyo,,Tokyo
202.238.245.124,4,10,pasona.co.jp,JP,Asia,Eastern Asia,Japan,Tokyo,,Tokyo
34.146.247.216,4,46,pastel-pudding.com,JP,Asia,Eastern Asia,Japan,Tokyo,,Tokyo
172.104.124.226,4,72,pastewall.com,JP,Asia,Eastern Asia,Japan,Tokyo,,Tokyo
153.121.54.221,4,74,pauline.or.jp,JP,Asia,Eastern Asia,Japan,Tokyo,,Tokyo
38.6.149.47,4,-14,pc3w.com,JP,Asia,Eastern Asia,Japan,Tokyo,,Tokyo
160.16.226.104,4,5,pencil.co.jp,JP,Asia,Eastern Asia,Japan,Tokyo,,Tokyo
54.65.60.170,4,35,peoplenews.tw,JP,Asia,Eastern Asia,Japan,Tokyo,,Tokyo
175.41.215.171,4,3,peoplenews.tw,JP,Asia,Eastern Asia,Japan,Tokyo,,Tokyo
34.84.59.195,4,35,permittivity.jp,JP,Asia,Eastern Asia,Japan,Tokyo,,Tokyo
202.238.229.132,4,-10,petline.co.jp,JP,Asia,Eastern Asia,Japan,Tokyo,,Tokyo
160.16.122.20,4,4,photozou.jp,JP,Asia,Eastern Asia,Japan,Tokyo,,Tokyo
172.104.112.84,4,3,phphub.org,JP,Asia,Eastern Asia,Japan,Tokyo,,Tokyo
151.101.111.10,4,25,pictet.co.jp,JP,Asia,Eastern Asia,Japan,Tokyo,,Tokyo
160.16.143.135,4,52,pigoo.jp,JP,Asia,Eastern Asia,Japan,Tokyo,,Tokyo
160.16.54.137,4,11,playaudiomessage.com,JP,Asia,Eastern Asia,Japan,Tokyo,,Tokyo
172.104.94.112,4,14,playdadnme.com,JP,Asia,Eastern Asia,Japan,Tokyo,,Tokyo
34.146.46.134,4,32,poten.jp,JP,Asia,Eastern Asia,Japan,Tokyo,,Tokyo
160.16.132.164,4,6,ppc-master.jp,JP,Asia,Eastern Asia,Japan,Tokyo,,Tokyo
13.113.183.245,4,2,ppona.com,JP,Asia,Eastern Asia,Japan,Tokyo,,Tokyo
180.148.168.215,4,29,preaf.jp,JP,Asia,Eastern Asia,Japan,Tokyo,,Tokyo
139.162.96.186,4,59,primax.com.tw,JP,Asia,Eastern Asia,Japan,Tokyo,,Tokyo
172.105.214.93,4,963726,princehotels.com,JP,Asia,Eastern Asia,Japan,Tokyo,,Tokyo
160.16.113.61,4,33,production-ig.co.jp,JP,Asia,Eastern Asia,Japan,Tokyo,,Tokyo
172.104.82.74,4,19,prozacflx.com,JP,Asia,Eastern Asia,Japan,Tokyo,,Tokyo
52.69.114.239,4,31,ptix.at,JP,Asia,Eastern Asia,Japan,Tokyo,,Tokyo
3.114.82.101,4,48,ptix.at,JP,Asia,Eastern Asia,Japan,Tokyo,,Tokyo
35.75.46.1,4,6,ptix.at,JP,Asia,Eastern Asia,Japan,Tokyo,,Tokyo
103.250.73.179,4,20,pure-c.jp,JP,Asia,Eastern Asia,Japan,Tokyo,,Tokyo
160.16.74.130,4,0,push7.jp,JP,Asia,Eastern Asia,Japan,Tokyo,,Tokyo
172.105.224.201,4,6,pyeongtaekroom.net,JP,Asia,Eastern Asia,Japan,Tokyo,,Tokyo
160.16.199.129,4,10,python.jp,JP,Asia,Eastern Asia,Japan,Tokyo,,Tokyo
38.6.39.194,4,-8,qe01.cn,JP,Asia,Eastern Asia,Japan,Tokyo,,Tokyo
38.6.39.234,4,-11,qjszjk.com,JP,Asia,Eastern Asia,Japan,Tokyo,,Tokyo
185.135.79.6,4,4,queen-casino.com,JP,Asia,Eastern Asia,Japan,Tokyo,,Tokyo
185.135.79.13,4,9,queen-casino.com,JP,Asia,Eastern Asia,Japan,Tokyo,,Tokyo
153.121.50.8,4,13,racms.jp,JP,Asia,Eastern Asia,Japan,Tokyo,,Tokyo
139.162.111.169,4,58,rainyjames.com,JP,Asia,Eastern Asia,Japan,Tokyo,,Tokyo
23.221.141.35,4,-2,rakuten-sec.co.jp,JP,Asia,Eastern Asia,Japan,Tokyo,,Tokyo
133.237.105.41,4,48,rakuten.com.tw,JP,Asia,Eastern Asia,Japan,Tokyo,,Tokyo
133.237.105.40,4,50,rakuten.tw,JP,Asia,Eastern Asia,Japan,Tokyo,,Tokyo
160.16.237.214,4,44,rally-japan.jp,JP,Asia,Eastern Asia,Japan,Tokyo,,Tokyo
160.16.218.210,4,40,rb-tawada.com,JP,Asia,Eastern Asia,Japan,Tokyo,,Tokyo
139.162.108.225,4,30,reeoo.com,JP,Asia,Eastern Asia,Japan,Tokyo,,Tokyo
160.16.141.55,4,81,reitaisai.com,JP,Asia,Eastern Asia,Japan,Tokyo,,Tokyo
160.16.140.27,4,100,research-er.jp,JP,Asia,Eastern Asia,Japan,Tokyo,,Tokyo
160.16.117.218,4,24,rf12.jp,JP,Asia,Eastern Asia,Japan,Tokyo,,Tokyo
202.143.72.170,4,6,rimarts.co.jp,JP,Asia,Eastern Asia,Japan,Tokyo,,Tokyo
153.121.55.89,4,1,ryoutan.co.jp,JP,Asia,Eastern Asia,Japan,Tokyo,,Tokyo
13.112.201.17,4,18,safie.link,JP,Asia,Eastern Asia,Japan,Tokyo,,Tokyo
52.192.96.72,4,22,safie.link,JP,Asia,Eastern Asia,Japan,Tokyo,,Tokyo
160.16.2.225,4,13140,sagamiharashi-machimidori.or.jp,JP,Asia,Eastern Asia,Japan,Tokyo,,Tokyo
202.238.241.57,4,10,sagamiya-kk.co.jp,JP,Asia,Eastern Asia,Japan,Tokyo,,Tokyo
160.16.122.225,4,4,saiteichingin.info,JP,Asia,Eastern Asia,Japan,Tokyo,,Tokyo
119.75.238.2,4,11,saitou-kk.co.jp,JP,Asia,Eastern Asia,Japan,Tokyo,,Tokyo
160.16.144.67,4,6,sakai-bunshin.com,JP,Asia,Eastern Asia,Japan,Tokyo,,Tokyo
160.16.104.27,4,10,sakai-ipc.jp,JP,Asia,Eastern Asia,Japan,Tokyo,,Tokyo
18.177.254.181,4,5,sakaseru.jp,JP,Asia,Eastern Asia,Japan,Tokyo,,Tokyo
54.65.49.32,4,28,sakaseru.jp,JP,Asia,Eastern Asia,Japan,Tokyo,,Tokyo
160.16.50.204,4,2,sakigake-otome.com,JP,Asia,Eastern Asia,Japan,Tokyo,,Tokyo
160.16.64.193,4,3,saku-parada.jp,JP,Asia,Eastern Asia,Japan,Tokyo,,Tokyo
153.121.32.11,4,17,sangirail.co.jp,JP,Asia,Eastern Asia,Japan,Tokyo,,Tokyo
54.178.204.212,4,573,savap.org.pk,JP,Asia,Eastern Asia,Japan,Tokyo,,Tokyo
139.162.90.175,4,3,saydigi.com,JP,Asia,Eastern Asia,Japan,Tokyo,,Tokyo
160.16.228.227,4,44,schoolicons.com,JP,Asia,Eastern Asia,Japan,Tokyo,,Tokyo
172.104.74.119,4,11,scpolicec.com,JP,Asia,Eastern Asia,Japan,Tokyo,,Tokyo
137.220.202.68,4,2,seacms.net,JP,Asia,Eastern Asia,Japan,Tokyo,,Tokyo
140.227.151.28,4,5,seaguar.ne.jp,JP,Asia,Eastern Asia,Japan,Tokyo,,Tokyo
160.16.229.246,4,39,sekai-kabuka.com,JP,Asia,Eastern Asia,Japan,Tokyo,,Tokyo
172.105.196.169,4,7,sendmoreinfo.com,JP,Asia,Eastern Asia,Japan,Tokyo,,Tokyo
160.16.90.197,4,0,seopack.jp,JP,Asia,Eastern Asia,Japan,Tokyo,,Tokyo
160.16.201.103,4,5,setabun.or.jp,JP,Asia,Eastern Asia,Japan,Tokyo,,Tokyo
160.16.70.135,4,23,setouchi-artfest.jp,JP,Asia,Eastern Asia,Japan,Tokyo,,Tokyo
160.16.218.175,4,5,shachomeikan.jp,JP,Asia,Eastern Asia,Japan,Tokyo,,Tokyo
137.220.242.238,4,5,sheeud.com,JP,Asia,Eastern Asia,Japan,Tokyo,,Tokyo
160.16.214.63,4,-1,shhezhan.com,JP,Asia,Eastern Asia,Japan,Tokyo,,Tokyo
160.16.105.234,4,6,shibuya-univ.net,JP,Asia,Eastern Asia,Japan,Tokyo,,Tokyo
160.16.111.103,4,5,shikoku-aquarium.jp,JP,Asia,Eastern Asia,Japan,Tokyo,,Tokyo
160.16.105.222,4,0,shippo.co.jp,JP,Asia,Eastern Asia,Japan,Tokyo,,Tokyo
160.16.57.82,4,2,shiruporuto.jp,JP,Asia,Eastern Asia,Japan,Tokyo,,Tokyo
160.16.149.151,4,0,shkoupu.com,JP,Asia,Eastern Asia,Japan,Tokyo,,Tokyo
172.104.99.221,4,52481,shsunchem.com,JP,Asia,Eastern Asia,Japan,Tokyo,,Tokyo
54.65.251.182,4,6,shun-gate.com,JP,Asia,Eastern Asia,Japan,Tokyo,,Tokyo
35.72.157.242,4,8,shun-gate.com,JP,Asia,Eastern Asia,Japan,Tokyo,,Tokyo
52.196.183.200,4,21,sikaku.gr.jp,JP,Asia,Eastern Asia,Japan,Tokyo,,Tokyo
160.16.207.12,4,20,sildenafilprof.com,JP,Asia,Eastern Asia,Japan,Tokyo,,Tokyo
35.73.134.255,4,34,siliconstudio.co.jp,JP,Asia,Eastern Asia,Japan,Tokyo,,Tokyo
35.189.143.82,4,8,silveregg.co.jp,JP,Asia,Eastern Asia,Japan,Tokyo,,Tokyo
52.197.17.58,4,4,siminplaza.co.jp,JP,Asia,Eastern Asia,Japan,Tokyo,,Tokyo
172.105.204.74,4,172,sinpapa.jp,JP,Asia,Eastern Asia,Japan,Tokyo,,Tokyo
160.16.144.164,4,-4,siruzou.jp,JP,Asia,Eastern Asia,Japan,Tokyo,,Tokyo
160.16.141.21,4,2,sitescouter.net,JP,Asia,Eastern Asia,Japan,Tokyo,,Tokyo
52.68.133.164,4,7,smappon.jp,JP,Asia,Eastern Asia,Japan,Tokyo,,Tokyo
160.16.209.204,4,8,softel.co.jp,JP,Asia,Eastern Asia,Japan,Tokyo,,Tokyo
160.16.106.188,4,32,sonilab.org,JP,Asia,Eastern Asia,Japan,Tokyo,,Tokyo
54.178.210.101,4,16,sonycsl.co.jp,JP,Asia,Eastern Asia,Japan,Tokyo,,Tokyo
43.163.197.158,4,28,sooua.com,JP,Asia,Eastern Asia,Japan,Tokyo,,Tokyo
140.227.150.93,4,-1,soran.net,JP,Asia,Eastern Asia,Japan,Tokyo,,Tokyo
139.162.75.177,4,1809,sotokoto-online.jp,JP,Asia,Eastern Asia,Japan,Tokyo,,Tokyo
139.162.121.86,4,3,sow.org.tw,JP,Asia,Eastern Asia,Japan,Tokyo,,Tokyo
140.227.123.83,4,3,sozai-hp.com,JP,Asia,Eastern Asia,Japan,Tokyo,,Tokyo
160.16.69.196,4,-1,sportsanzen.org,JP,Asia,Eastern Asia,Japan,Tokyo,,Tokyo
38.6.39.207,4,-9,sportsveg.com,JP,Asia,Eastern Asia,Japan,Tokyo,,Tokyo
54.250.40.137,4,19,srad.jp,JP,Asia,Eastern Asia,Japan,Tokyo,,Tokyo
52.68.104.196,4,1,srad.jp,JP,Asia,Eastern Asia,Japan,Tokyo,,Tokyo
160.16.199.39,4,7,ssaj.or.jp,JP,Asia,Eastern Asia,Japan,Tokyo,,Tokyo
220.109.218.121,4,21,strawberry-linux.com,JP,Asia,Eastern Asia,Japan,Tokyo,,Tokyo
160.16.238.243,4,4,studiotiny.com,JP,Asia,Eastern Asia,Japan,Tokyo,,Tokyo
54.65.254.0,4,3,suisankai.or.jp,JP,Asia,Eastern Asia,Japan,Tokyo,,Tokyo
3.114.92.130,4,10,suisankai.or.jp,JP,Asia,Eastern Asia,Japan,Tokyo,,Tokyo
35.78.13.191,4,3,sunmedia.co.jp,JP,Asia,Eastern Asia,Japan,Tokyo,,Tokyo
139.162.95.28,4,1,supr.link,JP,Asia,Eastern Asia,Japan,Tokyo,,Tokyo
160.16.66.15,4,3,surala.jp,JP,Asia,Eastern Asia,Japan,Tokyo,,Tokyo
160.16.136.125,4,8,tamacom.com,JP,Asia,Eastern Asia,Japan,Tokyo,,Tokyo
150.31.244.4,4,8,tamiya.com,JP,Asia,Eastern Asia,Japan,Tokyo,,Tokyo
202.238.233.136,4,2,tamiyashop.jp,JP,Asia,Eastern Asia,Japan,Tokyo,,Tokyo
35.75.195.79,4,1,tapbit.com,JP,Asia,Eastern Asia,Japan,Tokyo,,Tokyo
57.180.233.44,4,8,tcmit.org,JP,Asia,Eastern Asia,Japan,Tokyo,,Tokyo
18.177.234.107,4,5,tcmit.org,JP,Asia,Eastern Asia,Japan,Tokyo,,Tokyo
160.16.137.42,4,4,tdb-di.com,JP,Asia,Eastern Asia,Japan,Tokyo,,Tokyo
3.114.147.13,4,34,techbang.com,JP,Asia,Eastern Asia,Japan,Tokyo,,Tokyo
176.34.50.19,4,53,techbang.com,JP,Asia,Eastern Asia,Japan,Tokyo,,Tokyo
153.121.61.230,4,26,teikyo-hospital.jp,JP,Asia,Eastern Asia,Japan,Tokyo,,Tokyo
160.16.144.30,4,5,tenhou.net,JP,Asia,Eastern Asia,Japan,Tokyo,,Tokyo
160.16.203.27,4,45,tenipuri.jp,JP,Asia,Eastern Asia,Japan,Tokyo,,Tokyo
172.104.110.181,4,-2,tfc-taiwan.org.tw,JP,Asia,Eastern Asia,Japan,Tokyo,,Tokyo
35.213.7.85,4,17,tgn.co.jp,JP,Asia,Eastern Asia,Japan,Tokyo,,Tokyo
160.16.223.55,4,3,thailandtravel.or.jp,JP,Asia,Eastern Asia,Japan,Tokyo,,Tokyo
172.104.68.55,4,5,thbattle.net,JP,Asia,Eastern Asia,Japan,Tokyo,,Tokyo
160.16.149.90,4,5,the-bars.com,JP,Asia,Eastern Asia,Japan,Tokyo,,Tokyo
202.238.229.71,4,-13,the-board.jp,JP,Asia,Eastern Asia,Japan,Tokyo,,Tokyo
172.105.223.98,4,8,thealliance.org.tw,JP,Asia,Eastern Asia,Japan,Tokyo,,Tokyo
139.162.116.195,4,2,thinkingtaiwan.com,JP,Asia,Eastern Asia,Japan,Tokyo,,Tokyo
172.104.117.187,4,4,tianmu.org.tw,JP,Asia,Eastern Asia,Japan,Tokyo,,Tokyo
139.162.74.157,4,12,tidf.org.tw,JP,Asia,Eastern Asia,Japan,Tokyo,,Tokyo
35.187.209.191,4,2,time-j.net,JP,Asia,Eastern Asia,Japan,Tokyo,,Tokyo
52.192.205.149,4,-403143,tipga.com,JP,Asia,Eastern Asia,Japan,Tokyo,,Tokyo
18.180.219.234,4,-1,tizanidinehcl4mg.com,JP,Asia,Eastern Asia,Japan,Tokyo,,Tokyo
160.16.126.23,4,6,tobezoo.com,JP,Asia,Eastern Asia,Japan,Tokyo,,Tokyo
202.238.233.7,4,1,tobutoptours.jp,JP,Asia,Eastern Asia,Japan,Tokyo,,Tokyo
111.89.179.112,4,4,toda-racing.co.jp,JP,Asia,Eastern Asia,Japan,Tokyo,,Tokyo
160.16.235.160,4,10,toda.org,JP,Asia,Eastern Asia,Japan,Tokyo,,Tokyo
160.16.95.190,4,14,toeich.jp,JP,Asia,Eastern Asia,Japan,Tokyo,,Tokyo
160.16.216.171,4,43,toikinzan.com,JP,Asia,Eastern Asia,Japan,Tokyo,,Tokyo
160.16.76.184,4,4,tokushima-hosp.jp,JP,Asia,Eastern Asia,Japan,Tokyo,,Tokyo
34.85.57.115,4,2,tokushukai.or.jp,JP,Asia,Eastern Asia,Japan,Tokyo,,Tokyo
160.16.131.232,4,1,tokyo-jc.or.jp,JP,Asia,Eastern Asia,Japan,Tokyo,,Tokyo
160.16.241.182,4,2,tokyoshigaku.com,JP,Asia,Eastern Asia,Japan,Tokyo,,Tokyo
160.16.52.53,4,2,tokyotower.co.jp,JP,Asia,Eastern Asia,Japan,Tokyo,,Tokyo
160.16.227.175,4,0,tokyowanferry.com,JP,Asia,Eastern Asia,Japan,Tokyo,,Tokyo
172.105.235.119,4,-3,toleague.top,JP,Asia,Eastern Asia,Japan,Tokyo,,Tokyo
23.192.46.43,4,1,tomfordfashion.com,JP,Asia,Eastern Asia,Japan,Tokyo,,Tokyo
23.192.45.227,4,1,tomfordfashion.com,JP,Asia,Eastern Asia,Japan,Tokyo,,Tokyo
160.16.120.13,4,3,top-league.jp,JP,Asia,Eastern Asia,Japan,Tokyo,,Tokyo
172.104.102.72,4,2,torchsoft.com,JP,Asia,Eastern Asia,Japan,Tokyo,,Tokyo
54.64.174.14,4,6,torezista.com,JP,Asia,Eastern Asia,Japan,Tokyo,,Tokyo
202.238.233.84,4,13,tower.jp,JP,Asia,Eastern Asia,Japan,Tokyo,,Tokyo
202.238.233.87,4,-10,tower.jp,JP,Asia,Eastern Asia,Japan,Tokyo,,Tokyo
13.114.180.96,4,46,towershibuya.jp,JP,Asia,Eastern Asia,Japan,Tokyo,,Tokyo
52.198.165.253,4,32,towershibuya.jp,JP,Asia,Eastern Asia,Japan,Tokyo,,Tokyo
52.198.180.25,4,-2,toyamashi-kankoukyoukai.jp,JP,Asia,Eastern Asia,Japan,Tokyo,,Tokyo
153.121.33.144,4,3,toypark.in,JP,Asia,Eastern Asia,Japan,Tokyo,,Tokyo
153.246.133.48,4,14,tradersshop.com,JP,Asia,Eastern Asia,Japan,Tokyo,,Tokyo
183.180.26.19,4,-10,transformsite.com,JP,Asia,Eastern Asia,Japan,Tokyo,,Tokyo
139.162.83.160,4,17945,truewetsuits.jp,JP,Asia,Eastern Asia,Japan,Tokyo,,Tokyo
140.227.40.252,4,7,tsugami.co.jp,JP,Asia,Eastern Asia,Japan,Tokyo,,Tokyo
54.249.177.237,4,-10,ttnet.net,JP,Asia,Eastern Asia,Japan,Tokyo,,Tokyo
34.84.177.7,4,12,tunewear.com,JP,Asia,Eastern Asia,Japan,Tokyo,,Tokyo
35.77.255.203,4,7,tv-osaka.co.jp,JP,Asia,Eastern Asia,Japan,Tokyo,,Tokyo
160.16.70.198,4,3,tvu.co.jp,JP,Asia,Eastern Asia,Japan,Tokyo,,Tokyo
160.16.51.160,4,21,twipla.jp,JP,Asia,Eastern Asia,Japan,Tokyo,,Tokyo
172.104.82.254,4,10,twonecap.com,JP,Asia,Eastern Asia,Japan,Tokyo,,Tokyo
150.31.244.160,4,4,u-aizu.ac.jp,JP,Asia,Eastern Asia,Japan,Tokyo,,Tokyo
54.65.213.191,4,2,uchicomi.com,JP,Asia,Eastern Asia,Japan,Tokyo,,Tokyo
160.16.132.51,4,3,ufret.jp,JP,Asia,Eastern Asia,Japan,Tokyo,,Tokyo
160.16.65.217,4,-3,ufret.jp,JP,Asia,Eastern Asia,Japan,Tokyo,,Tokyo
160.16.113.35,4,0,ufret.jp,JP,Asia,Eastern Asia,Japan,Tokyo,,Tokyo
160.16.131.8,4,3,ufret.jp,JP,Asia,Eastern Asia,Japan,Tokyo,,Tokyo
160.16.124.241,4,10,ufret.jp,JP,Asia,Eastern Asia,Japan,Tokyo,,Tokyo
160.16.98.223,4,6,ufret.jp,JP,Asia,Eastern Asia,Japan,Tokyo,,Tokyo
160.16.202.9,4,7,ufret.jp,JP,Asia,Eastern Asia,Japan,Tokyo,,Tokyo
160.16.57.160,4,4,uic.to,JP,Asia,Eastern Asia,Japan,Tokyo,,Tokyo
113.43.138.147,4,8,umikajiterrace.com,JP,Asia,Eastern Asia,Japan,Tokyo,,Tokyo
160.16.203.165,4,0,unbalance.co.jp,JP,Asia,Eastern Asia,Japan,Tokyo,,Tokyo
160.16.141.7,4,4,ungcjn.org,JP,Asia,Eastern Asia,Japan,Tokyo,,Tokyo
160.16.120.201,4,2,unimas.net,JP,Asia,Eastern Asia,Japan,Tokyo,,Tokyo
8.222.80.164,4,8,unisound.com,JP,Asia,Eastern Asia,Japan,Tokyo,,Tokyo
160.16.72.126,4,28,uonet.jp,JP,Asia,Eastern Asia,Japan,Tokyo,,Tokyo
160.16.236.67,4,3,utawarerumono.jp,JP,Asia,Eastern Asia,Japan,Tokyo,,Tokyo
160.16.240.11,4,3,uxmilk.jp,JP,Asia,Eastern Asia,Japan,Tokyo,,Tokyo
134.122.221.217,4,0,v81773.com,JP,Asia,Eastern Asia,Japan,Tokyo,,Tokyo
35.72.97.254,4,1,valu.is,JP,Asia,Eastern Asia,Japan,Tokyo,,Tokyo
54.168.2.32,4,9,valu.is,JP,Asia,Eastern Asia,Japan,Tokyo,,Tokyo
140.227.17.42,4,20,varivas.co.jp,JP,Asia,Eastern Asia,Japan,Tokyo,,Tokyo
180.214.37.165,4,16,vector.co.jp,JP,Asia,Eastern Asia,Japan,Tokyo,,Tokyo
150.31.244.14,4,-11,vics.or.jp,JP,Asia,Eastern Asia,Japan,Tokyo,,Tokyo
54.248.126.242,4,22,vietnam-briefing.com,JP,Asia,Eastern Asia,Japan,Tokyo,,Tokyo
172.104.88.117,4,-1,vinix55.com,JP,Asia,Eastern Asia,Japan,Tokyo,,Tokyo
139.162.103.172,4,-1,virtualdataplace.net,JP,Asia,Eastern Asia,Japan,Tokyo,,Tokyo
34.84.153.52,4,3,visitkinosaki.com,JP,Asia,Eastern Asia,Japan,Tokyo,,Tokyo
52.194.89.7,4,25,vitrixmt.com,JP,Asia,Eastern Asia,Japan,Tokyo,,Tokyo
18.179.244.66,4,0,vivivi.biz,JP,Asia,Eastern Asia,Japan,Tokyo,,Tokyo
113.43.215.242,4,6,vs-group.jp,JP,Asia,Eastern Asia,Japan,Tokyo,,Tokyo
103.29.71.8,4,8,vtaiwan.tw,JP,Asia,Eastern Asia,Japan,Tokyo,,Tokyo
160.16.86.244,4,10,w-health.jp,JP,Asia,Eastern Asia,Japan,Tokyo,,Tokyo
160.16.146.34,4,24,w0w.co.jp,JP,Asia,Eastern Asia,Japan,Tokyo,,Tokyo
160.16.203.160,4,19,wafu.ne.jp,JP,Asia,Eastern Asia,Japan,Tokyo,,Tokyo
35.74.2.120,4,18,wahei.co.jp,JP,Asia,Eastern Asia,Japan,Tokyo,,Tokyo
202.238.245.7,4,33,wakudoki.ne.jp,JP,Asia,Eastern Asia,Japan,Tokyo,,Tokyo
139.162.71.178,4,5,waqi.info,JP,Asia,Eastern Asia,Japan,Tokyo,,Tokyo
103.27.132.106,4,0,warham.org.uk,JP,Asia,Eastern Asia,Japan,Tokyo,,Tokyo
202.238.229.6,4,2,watabe-wedding.co.jp,JP,Asia,Eastern Asia,Japan,Tokyo,,Tokyo
160.16.84.250,4,6,wdic.org,JP,Asia,Eastern Asia,Japan,Tokyo,,Tokyo
54.238.237.106,4,2,we-are-imv.com,JP,Asia,Eastern Asia,Japan,Tokyo,,Tokyo
54.199.82.170,4,-1,we-are-imv.com,JP,Asia,Eastern Asia,Japan,Tokyo,,Tokyo
160.16.240.36,4,8,weekly-jitsuwa.jp,JP,Asia,Eastern Asia,Japan,Tokyo,,Tokyo
137.220.242.234,4,-15,weijiecanyin.com,JP,Asia,Eastern Asia,Japan,Tokyo,,Tokyo
153.121.43.200,4,5,welcome-kurume.com,JP,Asia,Eastern Asia,Japan,Tokyo,,Tokyo
160.16.64.71,4,-1,welcomekyushu.com,JP,Asia,Eastern Asia,Japan,Tokyo,,Tokyo
160.16.86.189,4,42,wikihouse.com,JP,Asia,Eastern Asia,Japan,Tokyo,,Tokyo
139.162.74.231,4,18,witnesstorture.org,JP,Asia,Eastern Asia,Japan,Tokyo,,Tokyo
183.177.132.156,4,6,wjp.am,JP,Asia,Eastern Asia,Japan,Tokyo,,Tokyo
47.245.30.103,4,5,woopie.jp,JP,Asia,Eastern Asia,Japan,Tokyo,,Tokyo
122.219.45.231,4,18,wss-hair.com,JP,Asia,Eastern Asia,Japan,Tokyo,,Tokyo
122.219.45.132,4,2,wss-hair.com,JP,Asia,Eastern Asia,Japan,Tokyo,,Tokyo
160.16.80.120,4,2,wtv-zone.com,JP,Asia,Eastern Asia,Japan,Tokyo,,Tokyo
38.177.37.237,4,-7,wxjzs.cn,JP,Asia,Eastern Asia,Japan,Tokyo,,Tokyo
137.220.234.40,4,-1,wxqbbxg.com,JP,Asia,Eastern Asia,Japan,Tokyo,,Tokyo
134.122.221.212,4,14,x58399.com,JP,Asia,Eastern Asia,Japan,Tokyo,,Tokyo
134.122.221.205,4,1,x96993.com,JP,Asia,Eastern Asia,Japan,Tokyo,,Tokyo
13.115.88.75,4,6,xdxx.com,JP,Asia,Eastern Asia,Japan,Tokyo,,Tokyo
160.16.198.202,4,7,xfastest.com,JP,Asia,Eastern Asia,Japan,Tokyo,,Tokyo
172.104.121.138,4,1,xin7.com,JP,Asia,Eastern Asia,Japan,Tokyo,,Tokyo
18.179.185.84,4,88,xn--lck0a5auxk.jp,JP,Asia,Eastern Asia,Japan,Tokyo,,Tokyo
139.162.90.4,4,27,xn--qn1bw5whpb4x1ac0f.kr,JP,Asia,Eastern Asia,Japan,Tokyo,,Tokyo
160.16.204.117,4,8,xtr.jp,JP,Asia,Eastern Asia,Japan,Tokyo,,Tokyo
47.74.14.242,4,-6,xuesong365.com,JP,Asia,Eastern Asia,Japan,Tokyo,,Tokyo
13.231.189.246,4,3,xx1555.com,JP,Asia,Eastern Asia,Japan,Tokyo,,Tokyo
43.206.222.92,4,22,xx1555.com,JP,Asia,Eastern Asia,Japan,Tokyo,,Tokyo
52.197.124.43,4,4,xx1555.com,JP,Asia,Eastern Asia,Japan,Tokyo,,Tokyo
35.77.229.73,4,3,xx1555.com,JP,Asia,Eastern Asia,Japan,Tokyo,,Tokyo
139.162.69.218,4,0,yamaken.org,JP,Asia,Eastern Asia,Japan,Tokyo,,Tokyo
160.16.232.56,4,3,yaokami.jp,JP,Asia,Eastern Asia,Japan,Tokyo,,Tokyo
160.16.199.201,4,3,yetigame.jp,JP,Asia,Eastern Asia,Japan,Tokyo,,Tokyo
139.162.73.75,4,0,yo54.com,JP,Asia,Eastern Asia,Japan,Tokyo,,Tokyo
54.250.50.252,4,16,youbride.jp,JP,Asia,Eastern Asia,Japan,Tokyo,,Tokyo
52.196.146.176,4,6,youbride.jp,JP,Asia,Eastern Asia,Japan,Tokyo,,Tokyo
160.16.77.29,4,4,yubitoma.or.jp,JP,Asia,Eastern Asia,Japan,Tokyo,,Tokyo
18.177.190.106,4,0,yumenotane.jp,JP,Asia,Eastern Asia,Japan,Tokyo,,Tokyo
54.92.4.166,4,0,yumenotane.jp,JP,Asia,Eastern Asia,Japan,Tokyo,,Tokyo
176.32.86.205,4,3,yyc.co.jp,JP,Asia,Eastern Asia,Japan,Tokyo,,Tokyo
35.76.34.37,4,4,yyc.co.jp,JP,Asia,Eastern Asia,Japan,Tokyo,,Tokyo
160.16.72.100,4,15,zao-cheese.or.jp,JP,Asia,Eastern Asia,Japan,Tokyo,,Tokyo
46.51.239.141,4,24,zao-machi.com,JP,Asia,Eastern Asia,Japan,Tokyo,,Tokyo
57.181.225.57,4,3,zao-machi.com,JP,Asia,Eastern Asia,Japan,Tokyo,,Tokyo
160.16.243.76,4,32,zelvia.co.jp,JP,Asia,Eastern Asia,Japan,Tokyo,,Tokyo
139.162.111.152,4,6,zenoven.com,JP,Asia,Eastern Asia,Japan,Tokyo,,Tokyo
160.16.113.241,4,3,zvigariageneric.com,JP,Asia,Eastern Asia,Japan,Tokyo,,Tokyo
137.220.128.42,4,7,zyjyxmc.cn,JP,Asia,Eastern Asia,Japan,Tokyo,,Tokyo
159.28.220.139,4,12,zyuken.net,JP,Asia,Eastern Asia,Japan,Tokyo,,Tokyo
160.16.68.48,4,0,zzdesa.com,JP,Asia,Eastern Asia,Japan,Tokyo,,Tokyo
