reflector_ip,ip_version,offset,description,country_code,region,sub_region,country_name,sub_division_1,sub_division_2,city
162.43.116.119,4,0,10gsgoat.com,JP,Asia,Eastern Asia,Japan,Tokyo,,Jingūmae
162.43.120.28,4,-3,31op.com,JP,Asia,Eastern Asia,Japan,Tokyo,,Jingūmae
162.43.117.138,4,-1,3dnchu.com,JP,Asia,Eastern Asia,Japan,Tokyo,,Jingūmae
162.43.117.100,4,0,835.jp,JP,Asia,Eastern Asia,Japan,Tokyo,,Jingūmae
162.43.122.147,4,4,aburaenohibi.com,JP,Asia,Eastern Asia,Japan,Tokyo,,Jingūmae
162.43.118.104,4,-16,adjustbook.com,JP,Asia,Eastern Asia,Japan,Tokyo,,Jingūmae
162.43.122.44,4,-14,aero.or.jp,JP,Asia,Eastern Asia,Japan,Tokyo,,Jingūmae
162.43.116.72,4,0,agekke.co.jp,JP,Asia,Eastern Asia,Japan,Tokyo,,Jingūmae
162.43.117.118,4,5,agqr.jp,JP,Asia,Eastern Asia,Japan,Tokyo,,Jingūmae
162.43.116.40,4,-5,ai-novel.com,JP,Asia,Eastern Asia,Japan,Tokyo,,Jingūmae
162.43.122.193,4,-10,aiboku.com,JP,Asia,Eastern Asia,Japan,Tokyo,,Jingūmae
162.43.117.126,4,-11,aircraft-charter-world.com,JP,Asia,Eastern Asia,Japan,Tokyo,,Jingūmae
162.43.122.48,4,11,aisokuho.com,JP,Asia,Eastern Asia,Japan,Tokyo,,Jingūmae
162.43.121.81,4,25,akakura.gr.jp,JP,Asia,Eastern Asia,Japan,Tokyo,,Jingūmae
162.43.118.77,4,-12,akarenga-park.com,JP,Asia,Eastern Asia,Japan,Tokyo,,Jingūmae
162.43.120.99,4,-13,akayakengyou.com,JP,Asia,Eastern Asia,Japan,Tokyo,,Jingūmae
162.43.120.180,4,1,anabuki.ne.jp,JP,Asia,Eastern Asia,Japan,Tokyo,,Jingūmae
162.43.120.113,4,-9,anco-lab.com,JP,Asia,Eastern Asia,Japan,Tokyo,,Jingūmae
162.43.122.58,4,28,animeanime.biz,JP,Asia,Eastern Asia,Japan,Tokyo,,Jingūmae
162.43.120.105,4,-11,arabica.coffee,JP,Asia,Eastern Asia,Japan,Tokyo,,Jingūmae
162.43.116.33,4,8,artjunkie.net,JP,Asia,Eastern Asia,Japan,Tokyo,,Jingūmae
162.43.118.131,4,-1,ashada.jp,JP,Asia,Eastern Asia,Japan,Tokyo,,Jingūmae
162.43.121.104,4,26,aspm.jp,JP,Asia,Eastern Asia,Japan,Tokyo,,Jingūmae
162.43.118.64,4,-10,atchall.com,JP,Asia,Eastern Asia,Japan,Tokyo,,Jingūmae
162.43.120.89,4,0,athliss-himeji.com,JP,Asia,Eastern Asia,Japan,Tokyo,,Jingūmae
162.43.120.10,4,-14,atomicmonkey.jp,JP,Asia,Eastern Asia,Japan,Tokyo,,Jingūmae
162.43.121.12,4,42,autism.or.jp,JP,Asia,Eastern Asia,Japan,Tokyo,,Jingūmae
162.43.118.121,4,17,aviutl.info,JP,Asia,Eastern Asia,Japan,Tokyo,,Jingūmae
162.43.116.60,4,0,back2nature.jp,JP,Asia,Eastern Asia,Japan,Tokyo,,Jingūmae
162.43.117.62,4,4,bb-building.net,JP,Asia,Eastern Asia,Japan,Tokyo,,Jingūmae
162.43.121.196,4,16,bbs-net.com,JP,Asia,Eastern Asia,Japan,Tokyo,,Jingūmae
162.43.117.115,4,-4,bitsend.jp,JP,Asia,Eastern Asia,Japan,Tokyo,,Jingūmae
162.43.120.151,4,2,bosai-kokutai.jp,JP,Asia,Eastern Asia,Japan,Tokyo,,Jingūmae
162.43.118.146,4,3,brazilianbrides.org,JP,Asia,Eastern Asia,Japan,Tokyo,,Jingūmae
162.43.122.171,4,22,bunkaplaza.or.jp,JP,Asia,Eastern Asia,Japan,Tokyo,,Jingūmae
162.43.122.113,4,-14,buymodafinilonline10.com,JP,Asia,Eastern Asia,Japan,Tokyo,,Jingūmae
162.43.119.66,4,1,cccmh.co.jp,JP,Asia,Eastern Asia,Japan,Tokyo,,Jingūmae
162.43.116.97,4,-9,celebrity1.net,JP,Asia,Eastern Asia,Japan,Tokyo,,Jingūmae
162.43.118.19,4,1,chigasaki-kankou.org,JP,Asia,Eastern Asia,Japan,Tokyo,,Jingūmae
162.43.116.5,4,-12,chigusa-web.com,JP,Asia,Eastern Asia,Japan,Tokyo,,Jingūmae
162.43.117.141,4,90,cjc.or.jp,JP,Asia,Eastern Asia,Japan,Tokyo,,Jingūmae
162.43.121.130,4,-1,convum.co.jp,JP,Asia,Eastern Asia,Japan,Tokyo,,Jingūmae
162.43.123.12,4,0,cornestech.co.jp,JP,Asia,Eastern Asia,Japan,Tokyo,,Jingūmae
162.43.118.102,4,11,crossfaith.jp,JP,Asia,Eastern Asia,Japan,Tokyo,,Jingūmae
162.43.120.94,4,2,d-change.net,JP,Asia,Eastern Asia,Japan,Tokyo,,Jingūmae
162.43.117.60,4,-4,d-ic.com,JP,Asia,Eastern Asia,Japan,Tokyo,,Jingūmae
162.43.118.83,4,-13,ddc.co.jp,JP,Asia,Eastern Asia,Japan,Tokyo,,Jingūmae
162.43.116.20,4,-15,denki-b.co.jp,JP,Asia,Eastern Asia,Japan,Tokyo,,Jingūmae
162.43.120.170,4,-12,e-mot.co.jp,JP,Asia,Eastern Asia,Japan,Tokyo,,Jingūmae
162.43.118.51,4,29,eiwa-shutter.com,JP,Asia,Eastern Asia,Japan,Tokyo,,Jingūmae
162.43.120.115,4,4,elsberry-realty.com,JP,Asia,Eastern Asia,Japan,Tokyo,,Jingūmae
162.43.122.196,4,-14,enkouji.jp,JP,Asia,Eastern Asia,Japan,Tokyo,,Jingūmae
162.43.120.60,4,-11,enough-full.com,JP,Asia,Eastern Asia,Japan,Tokyo,,Jingūmae
162.43.117.81,4,-10,espguitars.co.jp,JP,Asia,Eastern Asia,Japan,Tokyo,,Jingūmae
162.43.121.185,4,35,etic.or.jp,JP,Asia,Eastern Asia,Japan,Tokyo,,Jingūmae
162.43.121.176,4,-12,eurobasket2013.org,JP,Asia,Eastern Asia,Japan,Tokyo,,Jingūmae
162.43.118.155,4,2,fabex.jp,JP,Asia,Eastern Asia,Japan,Tokyo,,Jingūmae
162.43.112.249,4,61,firebird.jp,JP,Asia,Eastern Asia,Japan,Tokyo,,Jingūmae
162.43.120.188,4,-13,fks-ab.co.jp,JP,Asia,Eastern Asia,Japan,Tokyo,,Jingūmae
162.43.120.123,4,-1,florence.or.jp,JP,Asia,Eastern Asia,Japan,Tokyo,,Jingūmae
162.43.116.91,4,1,flower-park.jp,JP,Asia,Eastern Asia,Japan,Tokyo,,Jingūmae
162.43.119.84,4,-11,flowerpark.or.jp,JP,Asia,Eastern Asia,Japan,Tokyo,,Jingūmae
162.43.118.46,4,14,foodstyle.jp,JP,Asia,Eastern Asia,Japan,Tokyo,,Jingūmae
162.43.120.68,4,-14,fortune-bbs.com,JP,Asia,Eastern Asia,Japan,Tokyo,,Jingūmae
162.43.122.177,4,-1,freecellclassic.com,JP,Asia,Eastern Asia,Japan,Tokyo,,Jingūmae
162.43.120.193,4,-11,fukuoka-keizai.co.jp,JP,Asia,Eastern Asia,Japan,Tokyo,,Jingūmae
162.43.120.69,4,-9,fukushishimbun.co.jp,JP,Asia,Eastern Asia,Japan,Tokyo,,Jingūmae
162.43.121.53,4,1,fumotoppara.net,JP,Asia,Eastern Asia,Japan,Tokyo,,Jingūmae
162.43.112.106,4,-10,gamestalk.net,JP,Asia,Eastern Asia,Japan,Tokyo,,Jingūmae
162.43.122.101,4,-2,generika-test.com,JP,Asia,Eastern Asia,Japan,Tokyo,,Jingūmae
162.43.118.14,4,0,genius-kye.com,JP,Asia,Eastern Asia,Japan,Tokyo,,Jingūmae
162.43.117.89,4,1,geoquake.jp,JP,Asia,Eastern Asia,Japan,Tokyo,,Jingūmae
162.43.122.37,4,31,gincli.jp,JP,Asia,Eastern Asia,Japan,Tokyo,,Jingūmae
162.43.122.3,4,21,ginza-cruise.co.jp,JP,Asia,Eastern Asia,Japan,Tokyo,,Jingūmae
162.43.112.18,4,2,gkgk.info,JP,Asia,Eastern Asia,Japan,Tokyo,,Jingūmae
162.43.112.172,4,-15,globalsciencebooks.info,JP,Asia,Eastern Asia,Japan,Tokyo,,Jingūmae
162.43.116.85,4,8,gongendo.jp,JP,Asia,Eastern Asia,Japan,Tokyo,,Jingūmae
162.43.116.39,4,-13,gracix.com,JP,Asia,Eastern Asia,Japan,Tokyo,,Jingūmae
162.43.123.3,4,32,grohe.co.jp,JP,Asia,Eastern Asia,Japan,Tokyo,,Jingūmae
162.43.117.35,4,-14,hagiso.com,JP,Asia,Eastern Asia,Japan,Tokyo,,Jingūmae
162.43.121.158,4,-14,hakodate.travel,JP,Asia,Eastern Asia,Japan,Tokyo,,Jingūmae
162.43.117.40,4,-18,hakubavalley.com,JP,Asia,Eastern Asia,Japan,Tokyo,,Jingūmae
162.43.119.67,4,-15,hamadasyuzou.co.jp,JP,Asia,Eastern Asia,Japan,Tokyo,,Jingūmae
162.43.117.57,4,-1,hanameiro.net,JP,Asia,Eastern Asia,Japan,Tokyo,,Jingūmae
162.43.120.196,4,0,harikyu.or.jp,JP,Asia,Eastern Asia,Japan,Tokyo,,Jingūmae
162.43.123.4,4,1,hida-kankou.jp,JP,Asia,Eastern Asia,Japan,Tokyo,,Jingūmae
162.43.121.115,4,-1,hiroyatsukamoto.com,JP,Asia,Eastern Asia,Japan,Tokyo,,Jingūmae
162.43.120.26,4,-1,hitoxu.com,JP,Asia,Eastern Asia,Japan,Tokyo,,Jingūmae
162.43.120.159,4,3,hokuryu.info,JP,Asia,Eastern Asia,Japan,Tokyo,,Jingūmae
162.43.116.106,4,43,honokuni.or.jp,JP,Asia,Eastern Asia,Japan,Tokyo,,Jingūmae
162.43.116.161,4,2,hoshien.or.jp,JP,Asia,Eastern Asia,Japan,Tokyo,,Jingūmae
162.43.122.20,4,-14,housemystar.jp,JP,Asia,Eastern Asia,Japan,Tokyo,,Jingūmae
162.43.122.123,4,5,ics-expo.jp,JP,Asia,Eastern Asia,Japan,Tokyo,,Jingūmae
162.43.120.162,4,2,ielamo.com,JP,Asia,Eastern Asia,Japan,Tokyo,,Jingūmae
162.43.116.136,4,-3,iflaonline.org,JP,Asia,Eastern Asia,Japan,Tokyo,,Jingūmae
162.43.120.35,4,-17,ihj.global,JP,Asia,Eastern Asia,Japan,Tokyo,,Jingūmae
162.43.120.117,4,-13,ikinaristeak.com,JP,Asia,Eastern Asia,Japan,Tokyo,,Jingūmae
162.43.120.110,4,-15,imabari-shimanami.jp,JP,Asia,Eastern Asia,Japan,Tokyo,,Jingūmae
162.43.122.181,4,18,impul.co.jp,JP,Asia,Eastern Asia,Japan,Tokyo,,Jingūmae
162.43.118.41,4,17,incrementp.co.jp,JP,Asia,Eastern Asia,Japan,Tokyo,,Jingūmae
162.43.123.79,4,-1,internethotline.jp,JP,Asia,Eastern Asia,Japan,Tokyo,,Jingūmae
162.43.117.55,4,51,iros2022.org,JP,Asia,Eastern Asia,Japan,Tokyo,,Jingūmae
162.43.116.148,4,-10,ivtvdriver.org,JP,Asia,Eastern Asia,Japan,Tokyo,,Jingūmae
162.43.117.44,4,9,iwakifc.com,JP,Asia,Eastern Asia,Japan,Tokyo,,Jingūmae
162.43.123.96,4,-12,iwatetabi.jp,JP,Asia,Eastern Asia,Japan,Tokyo,,Jingūmae
162.43.123.28,4,-6,jaaww.or.jp,JP,Asia,Eastern Asia,Japan,Tokyo,,Jingūmae
162.43.116.116,4,7,japanplatform.org,JP,Asia,Eastern Asia,Japan,Tokyo,,Jingūmae
162.43.118.87,4,-10,jawic.or.jp,JP,Asia,Eastern Asia,Japan,Tokyo,,Jingūmae
162.43.121.148,4,-14,jbpi.or.jp,JP,Asia,Eastern Asia,Japan,Tokyo,,Jingūmae
162.43.116.107,4,4,jewel-cafe.jp,JP,Asia,Eastern Asia,Japan,Tokyo,,Jingūmae
162.43.122.43,4,1,jfshm.org,JP,Asia,Eastern Asia,Japan,Tokyo,,Jingūmae
162.43.122.14,4,-13,jia.or.jp,JP,Asia,Eastern Asia,Japan,Tokyo,,Jingūmae
162.43.117.76,4,-12,jinai.jp,JP,Asia,Eastern Asia,Japan,Tokyo,,Jingūmae
162.43.120.32,4,1,johnhancockcenterchicago.com,JP,Asia,Eastern Asia,Japan,Tokyo,,Jingūmae
162.43.117.133,4,-11,join-nurse.com,JP,Asia,Eastern Asia,Japan,Tokyo,,Jingūmae
162.43.116.21,4,3,joytokey.net,JP,Asia,Eastern Asia,Japan,Tokyo,,Jingūmae
162.43.116.42,4,12,jpbpa.net,JP,Asia,Eastern Asia,Japan,Tokyo,,Jingūmae
162.43.120.128,4,-15,jva-net.or.jp,JP,Asia,Eastern Asia,Japan,Tokyo,,Jingūmae
162.43.120.30,4,2,k-society.com,JP,Asia,Eastern Asia,Japan,Tokyo,,Jingūmae
162.43.117.79,4,2,kaike-onsen.com,JP,Asia,Eastern Asia,Japan,Tokyo,,Jingūmae
162.43.116.143,4,-10,kajino-philippines-study.com,JP,Asia,Eastern Asia,Japan,Tokyo,,Jingūmae
162.43.117.134,4,-12,kajitsunyc.com,JP,Asia,Eastern Asia,Japan,Tokyo,,Jingūmae
162.43.119.73,4,1,kanazawa-u.ac.jp,JP,Asia,Eastern Asia,Japan,Tokyo,,Jingūmae
162.43.119.75,4,-9,kanteikyoku.jp,JP,Asia,Eastern Asia,Japan,Tokyo,,Jingūmae
162.43.116.34,4,-3,karatedo.co.jp,JP,Asia,Eastern Asia,Japan,Tokyo,,Jingūmae
162.43.118.110,4,1,katayamaminibasketball.club,JP,Asia,Eastern Asia,Japan,Tokyo,,Jingūmae
162.43.117.125,4,-14,keijinkai.com,JP,Asia,Eastern Asia,Japan,Tokyo,,Jingūmae
162.43.120.120,4,-15,kfm789.co.jp,JP,Asia,Eastern Asia,Japan,Tokyo,,Jingūmae
162.43.121.11,4,-13,kirarashika.com,JP,Asia,Eastern Asia,Japan,Tokyo,,Jingūmae
162.43.116.24,4,-5,kmj-ab.co.jp,JP,Asia,Eastern Asia,Japan,Tokyo,,Jingūmae
162.43.117.142,4,2,kobaken.info,JP,Asia,Eastern Asia,Japan,Tokyo,,Jingūmae
162.43.120.101,4,25,kobe-journal.com,JP,Asia,Eastern Asia,Japan,Tokyo,,Jingūmae
162.43.117.46,4,-2,kobe-sizennoie.com,JP,Asia,Eastern Asia,Japan,Tokyo,,Jingūmae
162.43.122.120,4,3,kokukagaku.jp,JP,Asia,Eastern Asia,Japan,Tokyo,,Jingūmae
162.43.117.143,4,20,kokura-castle.jp,JP,Asia,Eastern Asia,Japan,Tokyo,,Jingūmae
162.43.121.180,4,1,komyoji.com,JP,Asia,Eastern Asia,Japan,Tokyo,,Jingūmae
162.43.116.115,4,-13,konishi.co.jp,JP,Asia,Eastern Asia,Japan,Tokyo,,Jingūmae
162.43.117.87,4,14,konpira.or.jp,JP,Asia,Eastern Asia,Japan,Tokyo,,Jingūmae
162.43.118.100,4,66,koremama.com,JP,Asia,Eastern Asia,Japan,Tokyo,,Jingūmae
162.43.118.82,4,1,kotono8.com,JP,Asia,Eastern Asia,Japan,Tokyo,,Jingūmae
162.43.123.16,4,9,kyoshin.co.jp,JP,Asia,Eastern Asia,Japan,Tokyo,,Jingūmae
162.43.117.149,4,2,kyotofusioneering.com,JP,Asia,Eastern Asia,Japan,Tokyo,,Jingūmae
162.43.117.101,4,-11,kyotographie.jp,JP,Asia,Eastern Asia,Japan,Tokyo,,Jingūmae
162.43.120.102,4,-7,lani.co.jp,JP,Asia,Eastern Asia,Japan,Tokyo,,Jingūmae
162.43.122.72,4,-12,laputa-jp.com,JP,Asia,Eastern Asia,Japan,Tokyo,,Jingūmae
162.43.120.241,4,-13,lrm.jp,JP,Asia,Eastern Asia,Japan,Tokyo,,Jingūmae
162.43.120.4,4,-16,ltd-regalo.co.jp,JP,Asia,Eastern Asia,Japan,Tokyo,,Jingūmae
162.43.123.73,4,-1,m3career.com,JP,Asia,Eastern Asia,Japan,Tokyo,,Jingūmae
162.43.120.85,4,-1,maglog.jp,JP,Asia,Eastern Asia,Japan,Tokyo,,Jingūmae
162.43.121.76,4,-12,manabino-mori.jp,JP,Asia,Eastern Asia,Japan,Tokyo,,Jingūmae
162.43.122.2,4,22,maruei.ne.jp,JP,Asia,Eastern Asia,Japan,Tokyo,,Jingūmae
162.43.122.75,4,-11,matsumoto-airport.co.jp,JP,Asia,Eastern Asia,Japan,Tokyo,,Jingūmae
162.43.120.131,4,-15,matsumoto-castle.jp,JP,Asia,Eastern Asia,Japan,Tokyo,,Jingūmae
162.43.121.18,4,43,medicalherb.or.jp,JP,Asia,Eastern Asia,Japan,Tokyo,,Jingūmae
162.43.116.61,4,27,meetsfan.jp,JP,Asia,Eastern Asia,Japan,Tokyo,,Jingūmae
162.43.117.88,4,-5,meiro.company,JP,Asia,Eastern Asia,Japan,Tokyo,,Jingūmae
162.43.116.153,4,-15,miapharmer.com,JP,Asia,Eastern Asia,Japan,Tokyo,,Jingūmae
162.43.117.104,4,36,miharukoma.com,JP,Asia,Eastern Asia,Japan,Tokyo,,Jingūmae
162.43.118.94,4,-12,mikuchanarena.jp,JP,Asia,Eastern Asia,Japan,Tokyo,,Jingūmae
162.43.112.248,4,56,minibird.jp,JP,Asia,Eastern Asia,Japan,Tokyo,,Jingūmae
162.43.118.103,4,19,mirairo.co.jp,JP,Asia,Eastern Asia,Japan,Tokyo,,Jingūmae
162.43.122.126,4,-13,mirokunosato.com,JP,Asia,Eastern Asia,Japan,Tokyo,,Jingūmae
162.43.117.4,4,6,mitsuoka-motor.com,JP,Asia,Eastern Asia,Japan,Tokyo,,Jingūmae
162.43.122.198,4,0,modezero.jp,JP,Asia,Eastern Asia,Japan,Tokyo,,Jingūmae
162.43.120.37,4,2,moji-waku.com,JP,Asia,Eastern Asia,Japan,Tokyo,,Jingūmae
162.43.120.11,4,1,mongee-hinase.com,JP,Asia,Eastern Asia,Japan,Tokyo,,Jingūmae
162.43.122.80,4,33,mouriya.co.jp,JP,Asia,Eastern Asia,Japan,Tokyo,,Jingūmae
162.43.122.36,4,1,multimadrid.com,JP,Asia,Eastern Asia,Japan,Tokyo,,Jingūmae
162.43.122.129,4,-1,murin-an.jp,JP,Asia,Eastern Asia,Japan,Tokyo,,Jingūmae
162.43.118.43,4,1,musashinoparks.com,JP,Asia,Eastern Asia,Japan,Tokyo,,Jingūmae
162.43.120.31,4,1,music-navigation.com,JP,Asia,Eastern Asia,Japan,Tokyo,,Jingūmae
162.43.119.74,4,-18,myfc.co.jp,JP,Asia,Eastern Asia,Japan,Tokyo,,Jingūmae
162.43.116.78,4,34,myindex.jp,JP,Asia,Eastern Asia,Japan,Tokyo,,Jingūmae
162.43.120.174,4,15,mymeet-up.com,JP,Asia,Eastern Asia,Japan,Tokyo,,Jingūmae
162.43.117.12,4,7,nakanojo-biennale.com,JP,Asia,Eastern Asia,Japan,Tokyo,,Jingūmae
162.43.122.148,4,-1,nankishirahama.jp,JP,Asia,Eastern Asia,Japan,Tokyo,,Jingūmae
162.43.119.77,4,-4,naramed-u.ac.jp,JP,Asia,Eastern Asia,Japan,Tokyo,,Jingūmae
162.43.120.195,4,-9,nendeb.jp,JP,Asia,Eastern Asia,Japan,Tokyo,,Jingūmae
162.43.112.7,4,-9,net4u.org,JP,Asia,Eastern Asia,Japan,Tokyo,,Jingūmae
162.43.121.179,4,4,ngo-jvc.net,JP,Asia,Eastern Asia,Japan,Tokyo,,Jingūmae
162.43.117.110,4,2,nichepcgamer.com,JP,Asia,Eastern Asia,Japan,Tokyo,,Jingūmae
162.43.120.199,4,-2,nikoli.co.jp,JP,Asia,Eastern Asia,Japan,Tokyo,,Jingūmae
162.43.116.83,4,-12,nyumon.net,JP,Asia,Eastern Asia,Japan,Tokyo,,Jingūmae
162.43.121.68,4,-15,ogawa-tosen.com,JP,Asia,Eastern Asia,Japan,Tokyo,,Jingūmae
162.43.116.156,4,0,oisca.org,JP,Asia,Eastern Asia,Japan,Tokyo,,Jingūmae
162.43.120.9,4,-15,okinawa-americanvillage.com,JP,Asia,Eastern Asia,Japan,Tokyo,,Jingūmae
162.43.117.109,4,1,oncopathologie.com,JP,Asia,Eastern Asia,Japan,Tokyo,,Jingūmae
162.43.116.28,4,2,onsen-navi.net,JP,Asia,Eastern Asia,Japan,Tokyo,,Jingūmae
162.43.122.94,4,-5,onsen-ouen.jp,JP,Asia,Eastern Asia,Japan,Tokyo,,Jingūmae
162.43.121.55,4,-18,open-cage.com,JP,Asia,Eastern Asia,Japan,Tokyo,,Jingūmae
162.43.118.159,4,0,orient-thai.com,JP,Asia,Eastern Asia,Japan,Tokyo,,Jingūmae
162.43.117.75,4,-2,osakavol.org,JP,Asia,Eastern Asia,Japan,Tokyo,,Jingūmae
162.43.117.123,4,-16,osanbashi.jp,JP,Asia,Eastern Asia,Japan,Tokyo,,Jingūmae
162.43.120.140,4,10,osu-kannon.jp,JP,Asia,Eastern Asia,Japan,Tokyo,,Jingūmae
162.43.118.120,4,7,otokoyama.com,JP,Asia,Eastern Asia,Japan,Tokyo,,Jingūmae
162.43.121.157,4,-1,p-mart.net,JP,Asia,Eastern Asia,Japan,Tokyo,,Jingūmae
162.43.118.58,4,21,pandastudio.tv,JP,Asia,Eastern Asia,Japan,Tokyo,,Jingūmae
162.43.121.198,4,-5,pandora-2.com,JP,Asia,Eastern Asia,Japan,Tokyo,,Jingūmae
162.43.117.103,4,-4,paymentsjapan.or.jp,JP,Asia,Eastern Asia,Japan,Tokyo,,Jingūmae
162.43.118.23,4,10,pc-karuma.net,JP,Asia,Eastern Asia,Japan,Tokyo,,Jingūmae
162.43.118.13,4,33,perfume-global.com,JP,Asia,Eastern Asia,Japan,Tokyo,,Jingūmae
162.43.112.5,4,4,peritune.com,JP,Asia,Eastern Asia,Japan,Tokyo,,Jingūmae
162.43.121.65,4,19,photosku.com,JP,Asia,Eastern Asia,Japan,Tokyo,,Jingūmae
162.43.120.44,4,0,pivotjp.com,JP,Asia,Eastern Asia,Japan,Tokyo,,Jingūmae
162.43.120.134,4,-5,pompadour.co.jp,JP,Asia,Eastern Asia,Japan,Tokyo,,Jingūmae
162.43.116.11,4,5,pu-kumamoto.ac.jp,JP,Asia,Eastern Asia,Japan,Tokyo,,Jingūmae
162.43.116.58,4,36,publicdomainq.net,JP,Asia,Eastern Asia,Japan,Tokyo,,Jingūmae
162.43.121.67,4,8,pylint.org,JP,Asia,Eastern Asia,Japan,Tokyo,,Jingūmae
162.43.122.157,4,53,rakuspa.com,JP,Asia,Eastern Asia,Japan,Tokyo,,Jingūmae
162.43.113.26,4,1,receno.com,JP,Asia,Eastern Asia,Japan,Tokyo,,Jingūmae
162.43.122.162,4,7,redlobster.jp,JP,Asia,Eastern Asia,Japan,Tokyo,,Jingūmae
162.43.117.68,4,-6,rehome-kaitoriup.com,JP,Asia,Eastern Asia,Japan,Tokyo,,Jingūmae
162.43.112.156,4,-15,rentracks.co.jp,JP,Asia,Eastern Asia,Japan,Tokyo,,Jingūmae
162.43.117.41,4,13,rescuex.jp,JP,Asia,Eastern Asia,Japan,Tokyo,,Jingūmae
162.43.121.146,4,-1,revcomm.co.jp,JP,Asia,Eastern Asia,Japan,Tokyo,,Jingūmae
162.43.118.6,4,13,rfm.co.jp,JP,Asia,Eastern Asia,Japan,Tokyo,,Jingūmae
162.43.118.10,4,8,rijo-castle.jp,JP,Asia,Eastern Asia,Japan,Tokyo,,Jingūmae
162.43.119.70,4,-18,robuchon.jp,JP,Asia,Eastern Asia,Japan,Tokyo,,Jingūmae
162.43.117.102,4,15,rough-and-road.co.jp,JP,Asia,Eastern Asia,Japan,Tokyo,,Jingūmae
162.43.120.33,4,13,runatown.com,JP,Asia,Eastern Asia,Japan,Tokyo,,Jingūmae
162.43.121.95,4,0,ryugyoku.com,JP,Asia,Eastern Asia,Japan,Tokyo,,Jingūmae
162.43.122.68,4,-9,safecanadianpharm.com,JP,Asia,Eastern Asia,Japan,Tokyo,,Jingūmae
162.43.120.97,4,14,saitama-best.com,JP,Asia,Eastern Asia,Japan,Tokyo,,Jingūmae
162.43.121.72,4,2,sake-ch-ishii.com,JP,Asia,Eastern Asia,Japan,Tokyo,,Jingūmae
162.43.122.201,4,0,sankei-biz.net,JP,Asia,Eastern Asia,Japan,Tokyo,,Jingūmae
162.43.120.109,4,1,school-voice.net,JP,Asia,Eastern Asia,Japan,Tokyo,,Jingūmae
162.43.118.4,4,6,seaside-station.com,JP,Asia,Eastern Asia,Japan,Tokyo,,Jingūmae
162.43.122.83,4,-10,sekikanko.jp,JP,Asia,Eastern Asia,Japan,Tokyo,,Jingūmae
162.43.121.137,4,1,sense8.jp,JP,Asia,Eastern Asia,Japan,Tokyo,,Jingūmae
162.43.116.27,4,-12,shinpoo.jp,JP,Asia,Eastern Asia,Japan,Tokyo,,Jingūmae
162.43.121.125,4,-15,shinya-yakudati.com,JP,Asia,Eastern Asia,Japan,Tokyo,,Jingūmae
162.43.121.135,4,-19,shirakawa315.com,JP,Asia,Eastern Asia,Japan,Tokyo,,Jingūmae
162.43.120.178,4,-10,shiretoko.or.jp,JP,Asia,Eastern Asia,Japan,Tokyo,,Jingūmae
162.43.122.54,4,-1,shizutetsu.co.jp,JP,Asia,Eastern Asia,Japan,Tokyo,,Jingūmae
162.43.119.68,4,-19,shosen.co.jp,JP,Asia,Eastern Asia,Japan,Tokyo,,Jingūmae
162.43.118.29,4,-1,siobara.or.jp,JP,Asia,Eastern Asia,Japan,Tokyo,,Jingūmae
162.43.117.7,4,-12,sk-solutions.org,JP,Asia,Eastern Asia,Japan,Tokyo,,Jingūmae
162.43.120.79,4,7,smart-zerobox-maruken.com,JP,Asia,Eastern Asia,Japan,Tokyo,,Jingūmae
162.43.118.66,4,15,soho-biyori.com,JP,Asia,Eastern Asia,Japan,Tokyo,,Jingūmae
162.43.120.56,4,7,sompo-japan-new-off.com,JP,Asia,Eastern Asia,Japan,Tokyo,,Jingūmae
162.43.121.14,4,37,sotec.co.jp,JP,Asia,Eastern Asia,Japan,Tokyo,,Jingūmae
162.43.121.136,4,-8,sotozen.com,JP,Asia,Eastern Asia,Japan,Tokyo,,Jingūmae
162.43.121.33,4,-8,southasianmedia.net,JP,Asia,Eastern Asia,Japan,Tokyo,,Jingūmae
162.43.120.25,4,6,sprocket.bz,JP,Asia,Eastern Asia,Japan,Tokyo,,Jingūmae
162.43.112.245,4,64,star-domain.jp,JP,Asia,Eastern Asia,Japan,Tokyo,,Jingūmae
162.43.112.240,4,99,star.ne.jp,JP,Asia,Eastern Asia,Japan,Tokyo,,Jingūmae
162.43.116.142,4,8,stellartheater.jp,JP,Asia,Eastern Asia,Japan,Tokyo,,Jingūmae
162.43.120.200,4,-1,stocker.jp,JP,Asia,Eastern Asia,Japan,Tokyo,,Jingūmae
162.43.122.170,4,30,stroke-sci.com,JP,Asia,Eastern Asia,Japan,Tokyo,,Jingūmae
162.43.120.185,4,33,sukliving.com,JP,Asia,Eastern Asia,Japan,Tokyo,,Jingūmae
162.43.117.91,4,-6,sumahodigest.com,JP,Asia,Eastern Asia,Japan,Tokyo,,Jingūmae
162.43.116.160,4,4,suzukikenichi.com,JP,Asia,Eastern Asia,Japan,Tokyo,,Jingūmae
162.43.117.106,4,4,t-joy.net,JP,Asia,Eastern Asia,Japan,Tokyo,,Jingūmae
162.43.120.98,4,2,t-salon-de-jun.com,JP,Asia,Eastern Asia,Japan,Tokyo,,Jingūmae
162.43.113.13,4,16,tabetainjya.com,JP,Asia,Eastern Asia,Japan,Tokyo,,Jingūmae
162.43.120.121,4,-2,tabi-mag.jp,JP,Asia,Eastern Asia,Japan,Tokyo,,Jingūmae
162.43.116.146,4,-12,tabi-mile.com,JP,Asia,Eastern Asia,Japan,Tokyo,,Jingūmae
162.43.122.52,4,3,takaoka.or.jp,JP,Asia,Eastern Asia,Japan,Tokyo,,Jingūmae
162.43.121.117,4,2,takasugi-k.com,JP,Asia,Eastern Asia,Japan,Tokyo,,Jingūmae
162.43.122.179,4,-2,takumasato.com,JP,Asia,Eastern Asia,Japan,Tokyo,,Jingūmae
39.110.250.2,4,110860,tamahime.com,JP,Asia,Eastern Asia,Japan,Tokyo,,Jingūmae
162.43.116.138,4,1,tanakaryusaku.jp,JP,Asia,Eastern Asia,Japan,Tokyo,,Jingūmae
162.43.116.159,4,20,techno-2019.com,JP,Asia,Eastern Asia,Japan,Tokyo,,Jingūmae
162.43.112.16,4,3,temilin.com,JP,Asia,Eastern Asia,Japan,Tokyo,,Jingūmae
162.43.121.54,4,1,tenpakubashi-cl.com,JP,Asia,Eastern Asia,Japan,Tokyo,,Jingūmae
162.43.121.156,4,84,terra-r.jp,JP,Asia,Eastern Asia,Japan,Tokyo,,Jingūmae
162.43.120.187,4,2,thejemreport.com,JP,Asia,Eastern Asia,Japan,Tokyo,,Jingūmae
162.43.120.22,4,-17,thermae-yu.jp,JP,Asia,Eastern Asia,Japan,Tokyo,,Jingūmae
162.43.118.114,4,-13,thesence.biz,JP,Asia,Eastern Asia,Japan,Tokyo,,Jingūmae
162.43.116.133,4,-13,tlg.co.jp,JP,Asia,Eastern Asia,Japan,Tokyo,,Jingūmae
162.43.118.137,4,-1,todaiji.or.jp,JP,Asia,Eastern Asia,Japan,Tokyo,,Jingūmae
162.43.123.9,4,-1,tokinosumika.com,JP,Asia,Eastern Asia,Japan,Tokyo,,Jingūmae
162.43.122.191,4,-14,tokyo-shoten.or.jp,JP,Asia,Eastern Asia,Japan,Tokyo,,Jingūmae
162.43.118.9,4,-2,tokyogirlsupdate.com,JP,Asia,Eastern Asia,Japan,Tokyo,,Jingūmae
162.43.122.199,4,-14,tokyonominoichi.com,JP,Asia,Eastern Asia,Japan,Tokyo,,Jingūmae
162.43.117.77,4,-1,toritemi.com,JP,Asia,Eastern Asia,Japan,Tokyo,,Jingūmae
162.43.122.56,4,-7,towafood-net.co.jp,JP,Asia,Eastern Asia,Japan,Tokyo,,Jingūmae
162.43.120.111,4,-16,towakomyu.com,JP,Asia,Eastern Asia,Japan,Tokyo,,Jingūmae
162.43.118.75,4,16,towerhall.jp,JP,Asia,Eastern Asia,Japan,Tokyo,,Jingūmae
162.43.120.13,4,-12,tsukanko.jp,JP,Asia,Eastern Asia,Japan,Tokyo,,Jingūmae
162.43.121.194,4,4,tune-up.co.jp,JP,Asia,Eastern Asia,Japan,Tokyo,,Jingūmae
162.43.116.25,4,2,tvstation.jp,JP,Asia,Eastern Asia,Japan,Tokyo,,Jingūmae
162.43.122.124,4,-15,uas-japan.org,JP,Asia,Eastern Asia,Japan,Tokyo,,Jingūmae
162.43.116.65,4,0,urashinjuku.com,JP,Asia,Eastern Asia,Japan,Tokyo,,Jingūmae
162.43.116.139,4,-15,urban.or.jp,JP,Asia,Eastern Asia,Japan,Tokyo,,Jingūmae
162.43.116.51,4,-8,utsunomiya-cvb.org,JP,Asia,Eastern Asia,Japan,Tokyo,,Jingūmae
162.43.120.64,4,-1,uzunokuni.com,JP,Asia,Eastern Asia,Japan,Tokyo,,Jingūmae
162.43.116.144,4,-12,uzuz.jp,JP,Asia,Eastern Asia,Japan,Tokyo,,Jingūmae
162.43.118.33,4,76,venturetimes.jp,JP,Asia,Eastern Asia,Japan,Tokyo,,Jingūmae
162.43.117.34,4,-11,vis-a-vis.co.jp,JP,Asia,Eastern Asia,Japan,Tokyo,,Jingūmae
162.43.120.146,4,5,visitakita.com,JP,Asia,Eastern Asia,Japan,Tokyo,,Jingūmae
162.43.118.116,4,-12,vissmon-lens.com,JP,Asia,Eastern Asia,Japan,Tokyo,,Jingūmae
162.43.117.48,4,4,w3g.jp,JP,Asia,Eastern Asia,Japan,Tokyo,,Jingūmae
162.43.120.130,4,-7,wakayamasposhin.or.jp,JP,Asia,Eastern Asia,Japan,Tokyo,,Jingūmae
162.43.122.160,4,2,wattention.com,JP,Asia,Eastern Asia,Japan,Tokyo,,Jingūmae
162.43.112.247,4,73,webcrow.jp,JP,Asia,Eastern Asia,Japan,Tokyo,,Jingūmae
162.43.118.91,4,-12,webdesignclip.com,JP,Asia,Eastern Asia,Japan,Tokyo,,Jingūmae
162.43.116.129,4,5,wegoted.com,JP,Asia,Eastern Asia,Japan,Tokyo,,Jingūmae
162.43.118.44,4,26,wildbeach.jp,JP,Asia,Eastern Asia,Japan,Tokyo,,Jingūmae
162.43.116.154,4,-18,withncm.com,JP,Asia,Eastern Asia,Japan,Tokyo,,Jingūmae
162.43.123.2,4,7,wp-cocoon.com,JP,Asia,Eastern Asia,Japan,Tokyo,,Jingūmae
162.43.117.90,4,4,wp-emanon.jp,JP,Asia,Eastern Asia,Japan,Tokyo,,Jingūmae
162.43.116.102,4,-7,wp-fun.com,JP,Asia,Eastern Asia,Japan,Tokyo,,Jingūmae
162.43.112.100,4,46,wpblog.jp,JP,Asia,Eastern Asia,Japan,Tokyo,,Jingūmae
162.43.116.104,4,4,writemyessayzt.com,JP,Asia,Eastern Asia,Japan,Tokyo,,Jingūmae
162.43.122.85,4,-2,wws-channel.com,JP,Asia,Eastern Asia,Japan,Tokyo,,Jingūmae
162.43.112.117,4,0,x-wrt.org,JP,Asia,Eastern Asia,Japan,Tokyo,,Jingūmae
162.43.122.158,4,-15,yaesu-book.co.jp,JP,Asia,Eastern Asia,Japan,Tokyo,,Jingūmae
162.43.117.65,4,-15,yamada-shomei.co.jp,JP,Asia,Eastern Asia,Japan,Tokyo,,Jingūmae
162.43.118.60,4,-11,yamaya.com,JP,Asia,Eastern Asia,Japan,Tokyo,,Jingūmae
162.43.120.157,4,2,yamori.jp,JP,Asia,Eastern Asia,Japan,Tokyo,,Jingūmae
162.43.122.4,4,3,yasugi-kankou.com,JP,Asia,Eastern Asia,Japan,Tokyo,,Jingūmae
162.43.119.81,4,-1,yayoikusamamuseum.jp,JP,Asia,Eastern Asia,Japan,Tokyo,,Jingūmae
162.43.120.59,4,-5,ycialisy.com,JP,Asia,Eastern Asia,Japan,Tokyo,,Jingūmae
162.43.116.132,4,-13,yosensha.co.jp,JP,Asia,Eastern Asia,Japan,Tokyo,,Jingūmae
162.43.118.115,4,2,yoshinoya-dc.com,JP,Asia,Eastern Asia,Japan,Tokyo,,Jingūmae
162.43.117.94,4,-6,yosiakatsuki.net,JP,Asia,Eastern Asia,Japan,Tokyo,,Jingūmae
162.43.122.146,4,-13,yowayowacamera.com,JP,Asia,Eastern Asia,Japan,Tokyo,,Jingūmae
162.43.120.127,4,-16,yucl.net,JP,Asia,Eastern Asia,Japan,Tokyo,,Jingūmae
162.43.117.2,4,-13,yuinchi.jp,JP,Asia,Eastern Asia,Japan,Tokyo,,Jingūmae
162.43.117.15,4,1,yutokatagami.com,JP,Asia,Eastern Asia,Japan,Tokyo,,Jingūmae
162.43.118.95,4,-4,zensanpairen.or.jp,JP,Asia,Eastern Asia,Japan,Tokyo,,Jingūmae
162.43.121.62,4,-12,zensho.or.jp,JP,Asia,Eastern Asia,Japan,Tokyo,,Jingūmae
162.43.121.111,4,2,zounohana.com,JP,Asia,Eastern Asia,Japan,Tokyo,,Jingūmae
162.43.112.6,4,-12,zuba-tto.com,JP,Asia,Eastern Asia,Japan,Tokyo,,Jingūmae
