reflector_ip,ip_version,offset,description,country_code,region,sub_region,country_name,sub_division_1,sub_division_2,city
47.101.65.195,4,2,021tianmei.com,CN,Asia,Eastern Asia,China,Shanghai,,Shanghai
47.100.32.139,4,27,236z.com,CN,Asia,Eastern Asia,China,Shanghai,,Shanghai
47.103.35.234,4,26,2mould.com,CN,Asia,Eastern Asia,China,Shanghai,,Shanghai
47.103.104.122,4,14,51hejia.com,CN,Asia,Eastern Asia,China,Shanghai,,Shanghai
139.196.24.88,4,2445407,51yip.com,CN,Asia,Eastern Asia,China,Shanghai,,Shanghai
106.14.31.152,4,41,87858388.com,CN,Asia,Eastern Asia,China,Shanghai,,Shanghai
47.116.165.111,4,28,9553.com,CN,Asia,Eastern Asia,China,Shanghai,,Shanghai
139.224.52.29,4,30,97866.com,CN,Asia,Eastern Asia,China,Shanghai,,Shanghai
47.103.67.244,4,45,99danji.com,CN,Asia,Eastern Asia,China,Shanghai,,Shanghai
47.103.126.136,4,1451,9k.com,CN,Asia,Eastern Asia,China,Shanghai,,Shanghai
101.132.168.235,4,16,aniu.tv,CN,Asia,Eastern Asia,China,Shanghai,,Shanghai
47.100.198.38,4,27,aocmonitor.com.cn,CN,Asia,Eastern Asia,China,Shanghai,,Shanghai
101.133.172.151,4,11,aotian.com,CN,Asia,Eastern Asia,China,Shanghai,,Shanghai
139.224.237.145,4,29,apex-dce.com,CN,Asia,Eastern Asia,China,Shanghai,,Shanghai
47.116.124.183,4,38,apwer.com,CN,Asia,Eastern Asia,China,Shanghai,,Shanghai
139.196.142.1,4,15,asl.com.cn,CN,Asia,Eastern Asia,China,Shanghai,,Shanghai
106.14.64.8,4,26,atelierif.com,CN,Asia,Eastern Asia,China,Shanghai,,Shanghai
152.136.158.39,4,39,atool.online,CN,Asia,Eastern Asia,China,Shanghai,,Shanghai
139.196.56.210,4,67,auto-testing.net,CN,Asia,Eastern Asia,China,Shanghai,,Shanghai
60.204.150.70,4,33,bandaoapp.com,CN,Asia,Eastern Asia,China,Shanghai,,Shanghai
47.100.27.242,4,36,bandog.cn,CN,Asia,Eastern Asia,China,Shanghai,,Shanghai
106.14.148.81,4,35,bbunion.com,CN,Asia,Eastern Asia,China,Shanghai,,Shanghai
47.100.29.86,4,25,bd4two.site,CN,Asia,Eastern Asia,China,Shanghai,,Shanghai
49.234.23.207,4,33,bddpower.com,CN,Asia,Eastern Asia,China,Shanghai,,Shanghai
47.100.6.122,4,21,betasoft.com.cn,CN,Asia,Eastern Asia,China,Shanghai,,Shanghai
47.100.164.89,4,36,bh4jbv.site,CN,Asia,Eastern Asia,China,Shanghai,,Shanghai
47.100.194.40,4,16,bianzhirensheng.com,CN,Asia,Eastern Asia,China,Shanghai,,Shanghai
123.60.48.100,4,15,billfish.cn,CN,Asia,Eastern Asia,China,Shanghai,,Shanghai
101.132.67.55,4,14,biobw.org,CN,Asia,Eastern Asia,China,Shanghai,,Shanghai
81.68.109.226,4,15,bjlyw.com,CN,Asia,Eastern Asia,China,Shanghai,,Shanghai
47.103.66.254,4,41,boooming.com,CN,Asia,Eastern Asia,China,Shanghai,,Shanghai
47.100.55.96,4,28,btbat.com,CN,Asia,Eastern Asia,China,Shanghai,,Shanghai
58.33.3.210,4,17,bwave.cc,CN,Asia,Eastern Asia,China,Shanghai,,Shanghai
47.103.135.172,4,14,bxbio.com,CN,Asia,Eastern Asia,China,Shanghai,,Shanghai
49.234.235.151,4,19,bysb.net,CN,Asia,Eastern Asia,China,Shanghai,,Shanghai
42.56.77.10,4,20,c8.cn,CN,Asia,Eastern Asia,China,Shanghai,,Shanghai
101.89.76.221,4,-185608,cartoonwin.com,CN,Asia,Eastern Asia,China,Shanghai,,Shanghai
47.100.50.137,4,15,catalogspring.com,CN,Asia,Eastern Asia,China,Shanghai,,Shanghai
139.224.214.32,4,33,ccc444.com,CN,Asia,Eastern Asia,China,Shanghai,,Shanghai
49.234.154.105,4,33,ccmn.cn,CN,Asia,Eastern Asia,China,Shanghai,,Shanghai
114.80.156.188,4,25,changlchx.com,CN,Asia,Eastern Asia,China,Shanghai,,Shanghai
49.234.151.89,4,24,chanzhi.org,CN,Asia,Eastern Asia,China,Shanghai,,Shanghai
47.116.142.209,4,14,chatexcel.com,CN,Asia,Eastern Asia,China,Shanghai,,Shanghai
49.234.235.100,4,28,chawanghei.com,CN,Asia,Eastern Asia,China,Shanghai,,Shanghai
106.14.92.53,4,14,chetubao.com,CN,Asia,Eastern Asia,China,Shanghai,,Shanghai
218.78.133.196,4,25,chinagayles.com,CN,Asia,Eastern Asia,China,Shanghai,,Shanghai
139.196.19.31,4,28,chinaodoo.net,CN,Asia,Eastern Asia,China,Shanghai,,Shanghai
139.196.115.185,4,13,chinapharm.com.cn,CN,Asia,Eastern Asia,China,Shanghai,,Shanghai
47.103.148.12,4,24,chowtaiseng.com,CN,Asia,Eastern Asia,China,Shanghai,,Shanghai
139.224.102.251,4,766298,cippe.net,CN,Asia,Eastern Asia,China,Shanghai,,Shanghai
139.196.184.175,4,10,cloverbiopharma.com,CN,Asia,Eastern Asia,China,Shanghai,,Shanghai
47.100.254.201,4,15,cnfund.cn,CN,Asia,Eastern Asia,China,Shanghai,,Shanghai
47.103.73.140,4,26,cnfund.cn,CN,Asia,Eastern Asia,China,Shanghai,,Shanghai
139.196.188.210,4,16,cnzhengmu.com,CN,Asia,Eastern Asia,China,Shanghai,,Shanghai
139.196.155.78,4,22,comefilm.com,CN,Asia,Eastern Asia,China,Shanghai,,Shanghai
123.60.127.70,4,40,comnews.cn,CN,Asia,Eastern Asia,China,Shanghai,,Shanghai
123.60.127.25,4,28,comnews.cn,CN,Asia,Eastern Asia,China,Shanghai,,Shanghai
101.132.35.195,4,55,corvin.cn,CN,Asia,Eastern Asia,China,Shanghai,,Shanghai
47.102.101.78,4,25,csfpia.com,CN,Asia,Eastern Asia,China,Shanghai,,Shanghai
47.103.123.7,4,8,czqixidi.com,CN,Asia,Eastern Asia,China,Shanghai,,Shanghai
49.234.82.239,4,9,czrcw.com,CN,Asia,Eastern Asia,China,Shanghai,,Shanghai
139.196.207.49,4,14,dazhe5.cn,CN,Asia,Eastern Asia,China,Shanghai,,Shanghai
139.196.104.20,4,14,ddplat.com,CN,Asia,Eastern Asia,China,Shanghai,,Shanghai
47.101.180.91,4,24,deartree.com,CN,Asia,Eastern Asia,China,Shanghai,,Shanghai
101.132.131.5,4,21,dehsm.com,CN,Asia,Eastern Asia,China,Shanghai,,Shanghai
47.101.215.43,4,13,digiwin.com,CN,Asia,Eastern Asia,China,Shanghai,,Shanghai
139.196.14.63,4,16,donggugyl.com,CN,Asia,Eastern Asia,China,Shanghai,,Shanghai
47.100.32.159,4,15,doudou1314.com,CN,Asia,Eastern Asia,China,Shanghai,,Shanghai
106.15.40.208,4,84,dragonest.com,CN,Asia,Eastern Asia,China,Shanghai,,Shanghai
113.219.195.100,4,24,dubbing.tech,CN,Asia,Eastern Asia,China,Shanghai,,Shanghai
106.15.10.141,4,27,duososo.com,CN,Asia,Eastern Asia,China,Shanghai,,Shanghai
123.60.127.42,4,49,dzmyy.com.cn,CN,Asia,Eastern Asia,China,Shanghai,,Shanghai
123.60.127.43,4,27,dzmyy.com.cn,CN,Asia,Eastern Asia,China,Shanghai,,Shanghai
118.122.16.16,4,-143786,dzxw.net,CN,Asia,Eastern Asia,China,Shanghai,,Shanghai
101.132.250.162,4,24,e2esoft.cn,CN,Asia,Eastern Asia,China,Shanghai,,Shanghai
47.103.128.52,4,36,easyhey.com,CN,Asia,Eastern Asia,China,Shanghai,,Shanghai
47.100.119.103,4,27,ecvinternational.com,CN,Asia,Eastern Asia,China,Shanghai,,Shanghai
47.116.182.3,4,32,ee17.com,CN,Asia,Eastern Asia,China,Shanghai,,Shanghai
106.15.248.209,4,96,emisoft.cn,CN,Asia,Eastern Asia,China,Shanghai,,Shanghai
47.103.10.118,4,32,engii.org,CN,Asia,Eastern Asia,China,Shanghai,,Shanghai
106.14.18.122,4,353,eolink.com,CN,Asia,Eastern Asia,China,Shanghai,,Shanghai
139.196.174.236,4,22,epaperinsight.com,CN,Asia,Eastern Asia,China,Shanghai,,Shanghai
47.116.75.139,4,15,eplanp8.com,CN,Asia,Eastern Asia,China,Shanghai,,Shanghai
47.103.17.106,4,25,ewain.cn,CN,Asia,Eastern Asia,China,Shanghai,,Shanghai
47.100.89.149,4,26,eyow.com.cn,CN,Asia,Eastern Asia,China,Shanghai,,Shanghai
114.80.163.168,4,29396948,fangyou.com,CN,Asia,Eastern Asia,China,Shanghai,,Shanghai
101.132.75.196,4,13,foreignercn.com,CN,Asia,Eastern Asia,China,Shanghai,,Shanghai
139.196.57.213,4,33,fronius.cn,CN,Asia,Eastern Asia,China,Shanghai,,Shanghai
47.100.185.202,4,25,game2.cn,CN,Asia,Eastern Asia,China,Shanghai,,Shanghai
106.14.15.24,4,16,ganso.com.cn,CN,Asia,Eastern Asia,China,Shanghai,,Shanghai
47.116.217.97,4,25,gap.cn,CN,Asia,Eastern Asia,China,Shanghai,,Shanghai
47.101.135.135,4,28,genban.org,CN,Asia,Eastern Asia,China,Shanghai,,Shanghai
81.68.120.187,4,13,get233.com,CN,Asia,Eastern Asia,China,Shanghai,,Shanghai
47.101.187.40,4,26,getquicker.net,CN,Asia,Eastern Asia,China,Shanghai,,Shanghai
47.103.110.78,4,16,glrocky.cn,CN,Asia,Eastern Asia,China,Shanghai,,Shanghai
47.100.223.141,4,17,gmvplus.com,CN,Asia,Eastern Asia,China,Shanghai,,Shanghai
139.224.226.107,4,15,goodwe.com,CN,Asia,Eastern Asia,China,Shanghai,,Shanghai
139.196.172.101,4,28,goomay.com,CN,Asia,Eastern Asia,China,Shanghai,,Shanghai
101.132.223.141,4,19,gudicg.com,CN,Asia,Eastern Asia,China,Shanghai,,Shanghai
152.136.199.253,4,42,h-ui.net,CN,Asia,Eastern Asia,China,Shanghai,,Shanghai
47.100.199.108,4,26,haoshang123.com,CN,Asia,Eastern Asia,China,Shanghai,,Shanghai
8.153.36.192,4,30,hbcsbc.cn,CN,Asia,Eastern Asia,China,Shanghai,,Shanghai
119.96.236.222,4,26,hbksw.com,CN,Asia,Eastern Asia,China,Shanghai,,Shanghai
47.100.107.22,4,47,hengnai.com,CN,Asia,Eastern Asia,China,Shanghai,,Shanghai
47.100.111.158,4,25,henried.com,CN,Asia,Eastern Asia,China,Shanghai,,Shanghai
49.234.179.170,4,30,her.cx,CN,Asia,Eastern Asia,China,Shanghai,,Shanghai
47.101.167.53,4,13,hgvalve.com,CN,Asia,Eastern Asia,China,Shanghai,,Shanghai
218.7.110.15,4,-27194663,hljys.cn,CN,Asia,Eastern Asia,China,Shanghai,,Shanghai
139.196.36.216,4,47,hobovar.cn,CN,Asia,Eastern Asia,China,Shanghai,,Shanghai
47.103.216.138,4,13,hollischuang.com,CN,Asia,Eastern Asia,China,Shanghai,,Shanghai
106.14.207.79,4,41,hr.com.cn,CN,Asia,Eastern Asia,China,Shanghai,,Shanghai
114.80.208.156,4,32,hxuan.com.cn,CN,Asia,Eastern Asia,China,Shanghai,,Shanghai
47.102.217.73,4,14,i-mabbiopharma.com,CN,Asia,Eastern Asia,China,Shanghai,,Shanghai
47.101.158.184,4,15,inovance.cn,CN,Asia,Eastern Asia,China,Shanghai,,Shanghai
47.102.107.168,4,14,inovance.com,CN,Asia,Eastern Asia,China,Shanghai,,Shanghai
47.103.136.80,4,21,itlao5.com,CN,Asia,Eastern Asia,China,Shanghai,,Shanghai
113.219.239.6,4,30,jfcdns.com,CN,Asia,Eastern Asia,China,Shanghai,,Shanghai
222.71.250.150,4,20,jiaji.com,CN,Asia,Eastern Asia,China,Shanghai,,Shanghai
47.100.131.61,4,4,kdslife.com,CN,Asia,Eastern Asia,China,Shanghai,,Shanghai
114.80.166.21,4,-128,keede.com,CN,Asia,Eastern Asia,China,Shanghai,,Shanghai
47.103.199.36,4,61,labbrand.com,CN,Asia,Eastern Asia,China,Shanghai,,Shanghai
47.102.43.237,4,27,lanhongedu.com,CN,Asia,Eastern Asia,China,Shanghai,,Shanghai
60.204.215.181,4,201394,layabox.com,CN,Asia,Eastern Asia,China,Shanghai,,Shanghai
101.132.159.119,4,15,ldmnq.com,CN,Asia,Eastern Asia,China,Shanghai,,Shanghai
101.132.169.39,4,32,learnblockchain.cn,CN,Asia,Eastern Asia,China,Shanghai,,Shanghai
47.101.223.61,4,14,lecake.com,CN,Asia,Eastern Asia,China,Shanghai,,Shanghai
47.102.140.63,4,19,lianlianpay.com,CN,Asia,Eastern Asia,China,Shanghai,,Shanghai
47.116.30.156,4,27,libinhao.cn,CN,Asia,Eastern Asia,China,Shanghai,,Shanghai
139.224.195.226,4,13,linovel.net,CN,Asia,Eastern Asia,China,Shanghai,,Shanghai
139.196.214.31,4,14,littleradar.com,CN,Asia,Eastern Asia,China,Shanghai,,Shanghai
47.100.56.16,4,11,lubansoft.com,CN,Asia,Eastern Asia,China,Shanghai,,Shanghai
106.14.226.109,4,36,lvziku.cn,CN,Asia,Eastern Asia,China,Shanghai,,Shanghai
101.132.68.178,4,14,lygyouyuan.com,CN,Asia,Eastern Asia,China,Shanghai,,Shanghai
106.15.62.213,4,24,magiconch.com,CN,Asia,Eastern Asia,China,Shanghai,,Shanghai
106.15.139.221,4,34,makinggreen.com.cn,CN,Asia,Eastern Asia,China,Shanghai,,Shanghai
47.100.46.104,4,19,mamsh.org,CN,Asia,Eastern Asia,China,Shanghai,,Shanghai
139.196.136.25,4,29,mapleleaf.cn,CN,Asia,Eastern Asia,China,Shanghai,,Shanghai
47.100.165.48,4,18,maxthon.cn,CN,Asia,Eastern Asia,China,Shanghai,,Shanghai
139.224.207.67,4,28,mcake1893.com,CN,Asia,Eastern Asia,China,Shanghai,,Shanghai
152.136.223.245,4,34,mdnice.com,CN,Asia,Eastern Asia,China,Shanghai,,Shanghai
139.224.30.158,4,58,mefj.com.cn,CN,Asia,Eastern Asia,China,Shanghai,,Shanghai
47.116.65.223,4,19,megacoatings.com,CN,Asia,Eastern Asia,China,Shanghai,,Shanghai
139.196.231.24,4,30,meikeyou.com,CN,Asia,Eastern Asia,China,Shanghai,,Shanghai
106.14.157.35,4,16,micyjz.com,CN,Asia,Eastern Asia,China,Shanghai,,Shanghai
152.136.173.87,4,58,mmasclub.cn,CN,Asia,Eastern Asia,China,Shanghai,,Shanghai
47.100.78.38,4,15,moage.cn,CN,Asia,Eastern Asia,China,Shanghai,,Shanghai
47.100.69.183,4,24,mybeiou.cn,CN,Asia,Eastern Asia,China,Shanghai,,Shanghai
47.100.167.123,4,-43,naipan.com,CN,Asia,Eastern Asia,China,Shanghai,,Shanghai
139.224.134.65,4,51,narkii.com,CN,Asia,Eastern Asia,China,Shanghai,,Shanghai
47.101.178.102,4,34,ntcars.cn,CN,Asia,Eastern Asia,China,Shanghai,,Shanghai
47.100.26.193,4,39,offshore-china.cn,CN,Asia,Eastern Asia,China,Shanghai,,Shanghai
60.204.241.7,4,39,on118.com,CN,Asia,Eastern Asia,China,Shanghai,,Shanghai
139.224.196.166,4,74,one-long.com,CN,Asia,Eastern Asia,China,Shanghai,,Shanghai
139.196.17.135,4,33,open-open.com,CN,Asia,Eastern Asia,China,Shanghai,,Shanghai
47.101.204.149,4,47,ozarkgear.com.cn,CN,Asia,Eastern Asia,China,Shanghai,,Shanghai
47.116.112.78,4,14,pacicanedu.com,CN,Asia,Eastern Asia,China,Shanghai,,Shanghai
47.102.158.126,4,70,ponytest.com,CN,Asia,Eastern Asia,China,Shanghai,,Shanghai
114.80.215.230,4,55,primb.com,CN,Asia,Eastern Asia,China,Shanghai,,Shanghai
101.133.234.150,4,92,programfan.com,CN,Asia,Eastern Asia,China,Shanghai,,Shanghai
222.71.43.36,4,33,proximavc.com,CN,Asia,Eastern Asia,China,Shanghai,,Shanghai
106.14.169.102,4,142,puxiang.com,CN,Asia,Eastern Asia,China,Shanghai,,Shanghai
101.132.113.170,4,22,pzhkj.cn,CN,Asia,Eastern Asia,China,Shanghai,,Shanghai
106.14.202.61,4,25,qadoor.com,CN,Asia,Eastern Asia,China,Shanghai,,Shanghai
152.136.107.110,4,36,qianyix.com,CN,Asia,Eastern Asia,China,Shanghai,,Shanghai
47.103.220.102,4,35,qimingvc.com,CN,Asia,Eastern Asia,China,Shanghai,,Shanghai
123.60.127.34,4,16,qingting.fm,CN,Asia,Eastern Asia,China,Shanghai,,Shanghai
123.60.127.90,4,43,qingting.fm,CN,Asia,Eastern Asia,China,Shanghai,,Shanghai
139.196.158.102,4,24,qishunbao.com,CN,Asia,Eastern Asia,China,Shanghai,,Shanghai
47.102.184.154,4,13,qiyitianbao.com,CN,Asia,Eastern Asia,China,Shanghai,,Shanghai
123.60.127.73,4,30,qtfm.cn,CN,Asia,Eastern Asia,China,Shanghai,,Shanghai
123.60.127.18,4,16,qtfm.cn,CN,Asia,Eastern Asia,China,Shanghai,,Shanghai
139.196.178.247,4,48,quanfensi.com,CN,Asia,Eastern Asia,China,Shanghai,,Shanghai
47.102.205.233,4,44,qzzjzs.com,CN,Asia,Eastern Asia,China,Shanghai,,Shanghai
49.234.104.24,4,26,rdcvw.com,CN,Asia,Eastern Asia,China,Shanghai,,Shanghai
47.103.33.63,4,74,renesola.com,CN,Asia,Eastern Asia,China,Shanghai,,Shanghai
47.100.214.216,4,46,rigol.com,CN,Asia,Eastern Asia,China,Shanghai,,Shanghai
139.196.148.83,4,81,runhemei.com,CN,Asia,Eastern Asia,China,Shanghai,,Shanghai
114.80.32.171,4,30,runningcheese.com,CN,Asia,Eastern Asia,China,Shanghai,,Shanghai
47.101.70.145,4,26,secec.com,CN,Asia,Eastern Asia,China,Shanghai,,Shanghai
139.224.132.221,4,23,sg-expo.cn,CN,Asia,Eastern Asia,China,Shanghai,,Shanghai
47.100.211.178,4,29,sh-fit.com,CN,Asia,Eastern Asia,China,Shanghai,,Shanghai
47.116.197.9,4,13,shanghai-sports.com,CN,Asia,Eastern Asia,China,Shanghai,,Shanghai
47.100.83.239,4,16,shedunews.com,CN,Asia,Eastern Asia,China,Shanghai,,Shanghai
47.103.73.15,4,14,shenhuafc.com.cn,CN,Asia,Eastern Asia,China,Shanghai,,Shanghai
47.116.65.160,4,26,shgemeg.com.cn,CN,Asia,Eastern Asia,China,Shanghai,,Shanghai
106.14.194.222,4,21,shichangbu.com,CN,Asia,Eastern Asia,China,Shanghai,,Shanghai
47.100.74.70,4,24,shjtgdhm.com,CN,Asia,Eastern Asia,China,Shanghai,,Shanghai
202.120.224.16,4,6,shmu.edu.cn,CN,Asia,Eastern Asia,China,Shanghai,,Shanghai
47.103.47.30,4,49,shuidi.cn,CN,Asia,Eastern Asia,China,Shanghai,,Shanghai
106.15.206.166,4,14,sialchina.cn,CN,Asia,Eastern Asia,China,Shanghai,,Shanghai
114.80.208.229,4,21,simplot.com.cn,CN,Asia,Eastern Asia,China,Shanghai,,Shanghai
61.152.219.6,4,3938,sj.net.cn,CN,Asia,Eastern Asia,China,Shanghai,,Shanghai
139.224.68.52,4,38,sjq.cn,CN,Asia,Eastern Asia,China,Shanghai,,Shanghai
47.116.8.125,4,30,sjwyx.com,CN,Asia,Eastern Asia,China,Shanghai,,Shanghai
47.100.74.124,4,30,smhdcn.com,CN,Asia,Eastern Asia,China,Shanghai,,Shanghai
101.132.223.39,4,26,starxz.com,CN,Asia,Eastern Asia,China,Shanghai,,Shanghai
113.219.195.227,4,27,superweb999.com,CN,Asia,Eastern Asia,China,Shanghai,,Shanghai
106.14.162.172,4,26,swoole.com,CN,Asia,Eastern Asia,China,Shanghai,,Shanghai
125.64.8.16,4,22,swuee.net,CN,Asia,Eastern Asia,China,Shanghai,,Shanghai
47.103.37.4,4,33,syds.org,CN,Asia,Eastern Asia,China,Shanghai,,Shanghai
47.101.215.234,4,16,syiptv.com,CN,Asia,Eastern Asia,China,Shanghai,,Shanghai
47.100.73.244,4,13,sytechglobal.com,CN,Asia,Eastern Asia,China,Shanghai,,Shanghai
101.132.133.235,4,26,szkowa.com,CN,Asia,Eastern Asia,China,Shanghai,,Shanghai
139.196.151.3,4,28,talk99.cn,CN,Asia,Eastern Asia,China,Shanghai,,Shanghai
101.133.161.126,4,34,taokeshow.com,CN,Asia,Eastern Asia,China,Shanghai,,Shanghai
106.15.197.232,4,47,team-lab.cn,CN,Asia,Eastern Asia,China,Shanghai,,Shanghai
114.80.178.70,4,64,tebon.com.cn,CN,Asia,Eastern Asia,China,Shanghai,,Shanghai
47.102.132.127,4,75,telink-semi.cn,CN,Asia,Eastern Asia,China,Shanghai,,Shanghai
42.56.77.2,4,-12,tkgame.com,CN,Asia,Eastern Asia,China,Shanghai,,Shanghai
47.101.189.133,4,21,tomy.cn,CN,Asia,Eastern Asia,China,Shanghai,,Shanghai
47.101.221.144,4,27,toodaylab.com,CN,Asia,Eastern Asia,China,Shanghai,,Shanghai
47.101.153.115,4,38,touying.show,CN,Asia,Eastern Asia,China,Shanghai,,Shanghai
139.196.111.158,4,25,transportlogistic-china.com,CN,Asia,Eastern Asia,China,Shanghai,,Shanghai
106.14.216.136,4,31,treo8.com,CN,Asia,Eastern Asia,China,Shanghai,,Shanghai
47.103.42.25,4,29,trustutn.org,CN,Asia,Eastern Asia,China,Shanghai,,Shanghai
47.100.21.63,4,14,tubechina.net,CN,Asia,Eastern Asia,China,Shanghai,,Shanghai
101.132.96.57,4,14,tudoubaogao.com,CN,Asia,Eastern Asia,China,Shanghai,,Shanghai
139.196.115.151,4,42,tukuppt.com,CN,Asia,Eastern Asia,China,Shanghai,,Shanghai
106.15.186.16,4,19,typoraio.cn,CN,Asia,Eastern Asia,China,Shanghai,,Shanghai
47.103.21.206,4,14,tzgpvc.com,CN,Asia,Eastern Asia,China,Shanghai,,Shanghai
47.101.49.58,4,14,u69cn.com,CN,Asia,Eastern Asia,China,Shanghai,,Shanghai
106.14.152.25,4,26,upupoo.com,CN,Asia,Eastern Asia,China,Shanghai,,Shanghai
59.36.22.17,4,24,valueonline.cn,CN,Asia,Eastern Asia,China,Shanghai,,Shanghai
47.103.100.54,4,40,verym.com,CN,Asia,Eastern Asia,China,Shanghai,,Shanghai
47.100.249.11,4,13,vulbox.com,CN,Asia,Eastern Asia,China,Shanghai,,Shanghai
47.102.131.52,4,43,ween-semi.com,CN,Asia,Eastern Asia,China,Shanghai,,Shanghai
47.116.12.42,4,38,weisay.com,CN,Asia,Eastern Asia,China,Shanghai,,Shanghai
106.15.32.179,4,17,wenhou.site,CN,Asia,Eastern Asia,China,Shanghai,,Shanghai
114.80.154.45,4,317861,wind.com.cn,CN,Asia,Eastern Asia,China,Shanghai,,Shanghai
101.89.87.46,4,-9140,winekee.com,CN,Asia,Eastern Asia,China,Shanghai,,Shanghai
47.101.220.4,4,32,wochacha.com,CN,Asia,Eastern Asia,China,Shanghai,,Shanghai
47.102.223.39,4,34,wolai.com,CN,Asia,Eastern Asia,China,Shanghai,,Shanghai
47.116.52.51,4,24,wopus.org,CN,Asia,Eastern Asia,China,Shanghai,,Shanghai
8.153.14.72,4,16,world-of-photonics-china.com.cn,CN,Asia,Eastern Asia,China,Shanghai,,Shanghai
123.60.127.20,4,35,worldaic.com.cn,CN,Asia,Eastern Asia,China,Shanghai,,Shanghai
123.60.127.39,4,15,worldaic.com.cn,CN,Asia,Eastern Asia,China,Shanghai,,Shanghai
47.103.197.5,4,15,wxceia.com,CN,Asia,Eastern Asia,China,Shanghai,,Shanghai
139.196.21.188,4,18,wxjdhj.com,CN,Asia,Eastern Asia,China,Shanghai,,Shanghai
101.132.184.71,4,13,xfzc.com,CN,Asia,Eastern Asia,China,Shanghai,,Shanghai
47.101.32.59,4,24,xiangdang.net,CN,Asia,Eastern Asia,China,Shanghai,,Shanghai
47.100.236.139,4,16,xiaopinyun.com,CN,Asia,Eastern Asia,China,Shanghai,,Shanghai
114.80.245.189,4,-346861,xiaot.com,CN,Asia,Eastern Asia,China,Shanghai,,Shanghai
106.225.219.155,4,21,xinhua.gov.cn,CN,Asia,Eastern Asia,China,Shanghai,,Shanghai
106.225.219.150,4,-8,xinhua.gov.cn,CN,Asia,Eastern Asia,China,Shanghai,,Shanghai
47.101.180.186,4,17,xinmke.cn,CN,Asia,Eastern Asia,China,Shanghai,,Shanghai
47.100.19.114,4,15,xinyou100.com,CN,Asia,Eastern Asia,China,Shanghai,,Shanghai
101.132.235.165,4,54,xnwhxs.cn,CN,Asia,Eastern Asia,China,Shanghai,,Shanghai
49.234.216.63,4,15,ybjlfc.com,CN,Asia,Eastern Asia,China,Shanghai,,Shanghai
49.234.126.173,4,21,yeelight.com,CN,Asia,Eastern Asia,China,Shanghai,,Shanghai
139.196.145.144,4,25,yododo.com,CN,Asia,Eastern Asia,China,Shanghai,,Shanghai
47.101.148.189,4,29,youxi297.com,CN,Asia,Eastern Asia,China,Shanghai,,Shanghai
101.132.251.208,4,28,yovisun.com,CN,Asia,Eastern Asia,China,Shanghai,,Shanghai
106.15.41.158,4,26,yoyou.com,CN,Asia,Eastern Asia,China,Shanghai,,Shanghai
139.224.42.74,4,16,ythouse.com,CN,Asia,Eastern Asia,China,Shanghai,,Shanghai
47.103.2.115,4,26,ytjob.com,CN,Asia,Eastern Asia,China,Shanghai,,Shanghai
47.116.79.239,4,27,yu.ink,CN,Asia,Eastern Asia,China,Shanghai,,Shanghai
47.102.46.29,4,23,yumingmaimai.com,CN,Asia,Eastern Asia,China,Shanghai,,Shanghai
139.196.174.50,4,1951,yunshenjia.com,CN,Asia,Eastern Asia,China,Shanghai,,Shanghai
47.103.142.134,4,14,yunxiuke.com,CN,Asia,Eastern Asia,China,Shanghai,,Shanghai
47.103.213.124,4,14,yxhsm.net,CN,Asia,Eastern Asia,China,Shanghai,,Shanghai
47.101.167.134,4,26,yxsfpt.com,CN,Asia,Eastern Asia,China,Shanghai,,Shanghai
139.196.183.105,4,25,yzhengli.com,CN,Asia,Eastern Asia,China,Shanghai,,Shanghai
106.15.67.193,4,14,yzxhh.com,CN,Asia,Eastern Asia,China,Shanghai,,Shanghai
106.14.169.119,4,27,zego.im,CN,Asia,Eastern Asia,China,Shanghai,,Shanghai
114.80.211.78,4,114,zeixihuan.com,CN,Asia,Eastern Asia,China,Shanghai,,Shanghai
47.101.153.179,4,13,zfcchina.com,CN,Asia,Eastern Asia,China,Shanghai,,Shanghai
47.103.97.35,4,26,zglzp.com,CN,Asia,Eastern Asia,China,Shanghai,,Shanghai
152.136.177.85,4,36,zhaotaici.cn,CN,Asia,Eastern Asia,China,Shanghai,,Shanghai
218.78.213.222,4,24,zhetao.com,CN,Asia,Eastern Asia,China,Shanghai,,Shanghai
123.60.127.92,4,35,zhong5.cn,CN,Asia,Eastern Asia,China,Shanghai,,Shanghai
123.60.127.76,4,9,zhong5.cn,CN,Asia,Eastern Asia,China,Shanghai,,Shanghai
139.224.53.76,4,30,zhudingwendao.com,CN,Asia,Eastern Asia,China,Shanghai,,Shanghai
101.132.126.126,4,27,zhxg.com,CN,Asia,Eastern Asia,China,Shanghai,,Shanghai
1.71.141.123,4,48,zhyww.cn,CN,Asia,Eastern Asia,China,Shanghai,,Shanghai
47.100.25.155,4,14,zizhupark.com,CN,Asia,Eastern Asia,China,Shanghai,,Shanghai
47.123.7.86,4,39,zjgdjjx.com,CN,Asia,Eastern Asia,China,Shanghai,,Shanghai
114.80.208.103,4,19,zjjiajiao.net,CN,Asia,Eastern Asia,China,Shanghai,,Shanghai
47.101.170.111,4,26,zoneben.com,CN,Asia,Eastern Asia,China,Shanghai,,Shanghai
106.15.32.2,4,100,zuoshi.com,CN,Asia,Eastern Asia,China,Shanghai,,Shanghai
139.224.56.160,4,13,zxjsh.com,CN,Asia,Eastern Asia,China,Shanghai,,Shanghai
47.116.120.25,4,24,zysgp.net,CN,Asia,Eastern Asia,China,Shanghai,,Shanghai
