reflector_ip,ip_version,offset,description,country_code,region,sub_region,country_name,sub_division_1,sub_division_2,city
8.213.196.57,4,6,58cam.com,TH,Asia,South-eastern Asia,Thailand,Bangkok,,Bangkok
150.95.30.27,4,8,aceinspiration.com,TH,Asia,South-eastern Asia,Thailand,Bangkok,,Bangkok
122.155.17.252,4,-14,bangkokshuho.com,TH,Asia,South-eastern Asia,Thailand,Bangkok,,Bangkok
203.154.208.249,4,4,banmuang.co.th,TH,Asia,South-eastern Asia,Thailand,Bangkok,,Bangkok
122.155.187.95,4,45,batterythai.com,TH,Asia,South-eastern Asia,Thailand,Bangkok,,Bangkok
122.155.18.17,4,15,baucon.co.th,TH,Asia,South-eastern Asia,Thailand,Bangkok,,Bangkok
8.213.198.87,4,45,bazaarvietnam.vn,TH,Asia,South-eastern Asia,Thailand,Bangkok,,Bangkok
61.7.234.197,4,-66,bcnlp.ac.th,TH,Asia,South-eastern Asia,Thailand,Bangkok,,Bangkok
61.47.6.203,4,-3,bopp-obec.info,TH,Asia,South-eastern Asia,Thailand,Bangkok,,Bangkok
122.155.5.151,4,20,boxingstadiumpatong.com,TH,Asia,South-eastern Asia,Thailand,Bangkok,,Bangkok
163.44.198.72,4,55,bunsitadecoration.com,TH,Asia,South-eastern Asia,Thailand,Bangkok,,Bangkok
122.155.165.27,4,-8,cffthailand.com,TH,Asia,South-eastern Asia,Thailand,Bangkok,,Bangkok
163.44.198.58,4,12,cottonwool-hairclinic.com,TH,Asia,South-eastern Asia,Thailand,Bangkok,,Bangkok
203.172.117.183,4,9,crru.ac.th,TH,Asia,South-eastern Asia,Thailand,Bangkok,,Bangkok
43.229.149.69,4,3,divanaspa.com,TH,Asia,South-eastern Asia,Thailand,Bangkok,,Bangkok
122.155.11.212,4,-3,dltv.ac.th,TH,Asia,South-eastern Asia,Thailand,Bangkok,,Bangkok
122.155.11.211,4,-8,dltv.ac.th,TH,Asia,South-eastern Asia,Thailand,Bangkok,,Bangkok
171.103.141.86,4,12086,DNS Server: 171-103-141-86.static.asianet.co.th,TH,Asia,South-eastern Asia,Thailand,Bangkok,,Bangkok
171.103.176.162,4,29,DNS Server: 171-103-176-162.static.asianet.co.th,TH,Asia,South-eastern Asia,Thailand,Bangkok,,Bangkok
171.103.59.46,4,143,DNS Server: 171-103-59-46.static.asianet.co.th,TH,Asia,South-eastern Asia,Thailand,Bangkok,,Bangkok
203.150.172.192,4,-2142196712,DNS Server: 192.172.150.203.sta.inet.co.th,TH,Asia,South-eastern Asia,Thailand,Bangkok,,Bangkok
203.144.139.244,4,92720,DNS Server: 203-144-139-244.static.asianet.co.th,TH,Asia,South-eastern Asia,Thailand,Bangkok,,Bangkok
203.150.37.10,4,8,DNS Server: 203-150-37-10.inter.net.th,TH,Asia,South-eastern Asia,Thailand,Bangkok,,Bangkok
203.150.37.11,4,11,DNS Server: 203-150-37-11.inter.net.th,TH,Asia,South-eastern Asia,Thailand,Bangkok,,Bangkok
203.154.177.8,4,51,DNS Server: 203-154-177-8.inter.net.th,TH,Asia,South-eastern Asia,Thailand,Bangkok,,Bangkok
203.154.62.1,4,61,DNS Server: 203-154-62-1.northern.inet.co.th,TH,Asia,South-eastern Asia,Thailand,Bangkok,,Bangkok
203.150.167.27,4,-2143871890,DNS Server: 27.167.150.203.sta.inet.co.th,TH,Asia,South-eastern Asia,Thailand,Bangkok,,Bangkok
58.82.152.44,4,-3440992808,DNS Server: 44.152.82.58.static-corp.jastel.co.th,TH,Asia,South-eastern Asia,Thailand,Bangkok,,Bangkok
171.100.22.20,4,50,DNS Server: cm-171-100-22-20.revip10.asianet.co.th,TH,Asia,South-eastern Asia,Thailand,Bangkok,,Bangkok
171.100.49.203,4,-699144287,DNS Server: cm-171-100-49-203.revip10.asianet.co.th,TH,Asia,South-eastern Asia,Thailand,Bangkok,,Bangkok
171.100.49.75,4,-492605226,DNS Server: cm-171-100-49-75.revip10.asianet.co.th,TH,Asia,South-eastern Asia,Thailand,Bangkok,,Bangkok
171.100.50.105,4,-731022928,DNS Server: cm-171-100-50-105.revip10.asianet.co.th,TH,Asia,South-eastern Asia,Thailand,Bangkok,,Bangkok
171.100.50.129,4,-102101995,DNS Server: cm-171-100-50-129.revip10.asianet.co.th,TH,Asia,South-eastern Asia,Thailand,Bangkok,,Bangkok
171.100.50.247,4,-1689673435,DNS Server: cm-171-100-50-247.revip10.asianet.co.th,TH,Asia,South-eastern Asia,Thailand,Bangkok,,Bangkok
171.100.61.38,4,-33976,DNS Server: cm-171-100-61-38.revip10.asianet.co.th,TH,Asia,South-eastern Asia,Thailand,Bangkok,,Bangkok
110.164.193.206,4,3147376,DNS Server: mx-ll-110-164-193-206.static.3bb.co.th,TH,Asia,South-eastern Asia,Thailand,Bangkok,,Bangkok
110.164.71.170,4,-2749,DNS Server: mx-ll-110-164-71-170.static.3bb.co.th,TH,Asia,South-eastern Asia,Thailand,Bangkok,,Bangkok
110.164.198.50,4,196,DNS Server: mx-ll-110.164.198-50.static.3bb.co.th,TH,Asia,South-eastern Asia,Thailand,Bangkok,,Bangkok
183.88.236.194,4,194,DNS Server: mx-ll-183.88.236-194.dynamic.3bb.in.th,TH,Asia,South-eastern Asia,Thailand,Bangkok,,Bangkok
101.51.190.231,4,11710685,DNS Server: node-11pj.pool-101-51.dynamic.totinternet.net,TH,Asia,South-eastern Asia,Thailand,Bangkok,,Bangkok
125.26.5.140,4,59,DNS Server: node-13g.pool-125-26.dynamic.totinternet.net,TH,Asia,South-eastern Asia,Thailand,Bangkok,,Bangkok
125.26.5.156,4,-252,DNS Server: node-13w.pool-125-26.dynamic.totinternet.net,TH,Asia,South-eastern Asia,Thailand,Bangkok,,Bangkok
118.172.229.143,4,61,DNS Server: node-19cf.pool-118-172.dynamic.totinternet.net,TH,Asia,South-eastern Asia,Thailand,Bangkok,,Bangkok
1.10.141.43,4,3447,DNS Server: node-2ln.pool-1-10.dynamic.totinternet.net,TH,Asia,South-eastern Asia,Thailand,Bangkok,,Bangkok
1.10.141.115,4,661,DNS Server: node-2nn.pool-1-10.dynamic.totinternet.net,TH,Asia,South-eastern Asia,Thailand,Bangkok,,Bangkok
1.10.141.222,4,54,DNS Server: node-2qm.pool-1-10.dynamic.totinternet.net,TH,Asia,South-eastern Asia,Thailand,Bangkok,,Bangkok
1.10.142.15,4,85,DNS Server: node-2rz.pool-1-10.dynamic.totinternet.net,TH,Asia,South-eastern Asia,Thailand,Bangkok,,Bangkok
1.10.142.83,4,112,DNS Server: node-2tv.pool-1-10.dynamic.totinternet.net,TH,Asia,South-eastern Asia,Thailand,Bangkok,,Bangkok
1.10.143.146,4,-2095,DNS Server: node-32q.pool-1-10.dynamic.totinternet.net,TH,Asia,South-eastern Asia,Thailand,Bangkok,,Bangkok
1.10.143.164,4,73,DNS Server: node-338.pool-1-10.dynamic.totinternet.net,TH,Asia,South-eastern Asia,Thailand,Bangkok,,Bangkok
1.10.144.231,4,60,DNS Server: node-3c7.pool-1-10.dynamic.totinternet.net,TH,Asia,South-eastern Asia,Thailand,Bangkok,,Bangkok
1.10.144.244,4,35,DNS Server: node-3ck.pool-1-10.dynamic.totinternet.net,TH,Asia,South-eastern Asia,Thailand,Bangkok,,Bangkok
182.52.17.99,4,481,DNS Server: node-3fn.pool-182-52.dynamic.totinternet.net,TH,Asia,South-eastern Asia,Thailand,Bangkok,,Bangkok
1.4.148.253,4,3793884,DNS Server: node-459.pool-1-4.dynamic.totinternet.net,TH,Asia,South-eastern Asia,Thailand,Bangkok,,Bangkok
1.10.150.30,4,30022547,DNS Server: node-4da.pool-1-10.dynamic.totinternet.net,TH,Asia,South-eastern Asia,Thailand,Bangkok,,Bangkok
1.10.150.226,4,1208,DNS Server: node-4iq.pool-1-10.dynamic.totinternet.net,TH,Asia,South-eastern Asia,Thailand,Bangkok,,Bangkok
1.4.157.31,4,7552,DNS Server: node-5r3.pool-1-4.dynamic.totinternet.net,TH,Asia,South-eastern Asia,Thailand,Bangkok,,Bangkok
1.4.157.95,4,350,DNS Server: node-5sv.pool-1-4.dynamic.totinternet.net,TH,Asia,South-eastern Asia,Thailand,Bangkok,,Bangkok
1.4.158.8,4,-25721022,DNS Server: node-5xk.pool-1-4.dynamic.totinternet.net,TH,Asia,South-eastern Asia,Thailand,Bangkok,,Bangkok
1.4.158.21,4,21243774,DNS Server: node-5xx.pool-1-4.dynamic.totinternet.net,TH,Asia,South-eastern Asia,Thailand,Bangkok,,Bangkok
1.4.158.22,4,50,DNS Server: node-5xy.pool-1-4.dynamic.totinternet.net,TH,Asia,South-eastern Asia,Thailand,Bangkok,,Bangkok
1.4.159.22,4,99,DNS Server: node-652.pool-1-4.dynamic.totinternet.net,TH,Asia,South-eastern Asia,Thailand,Bangkok,,Bangkok
1.4.159.182,4,67,DNS Server: node-69i.pool-1-4.dynamic.totinternet.net,TH,Asia,South-eastern Asia,Thailand,Bangkok,,Bangkok
1.4.168.191,4,85,DNS Server: node-81r.pool-1-4.dynamic.totinternet.net,TH,Asia,South-eastern Asia,Thailand,Bangkok,,Bangkok
1.4.170.60,4,-44396741,DNS Server: node-8cc.pool-1-4.dynamic.totinternet.net,TH,Asia,South-eastern Asia,Thailand,Bangkok,,Bangkok
1.4.170.171,4,1238,DNS Server: node-8ff.pool-1-4.dynamic.totinternet.net,TH,Asia,South-eastern Asia,Thailand,Bangkok,,Bangkok
118.172.43.13,4,51,DNS Server: node-8i5.pool-118-172.dynamic.totinternet.net,TH,Asia,South-eastern Asia,Thailand,Bangkok,,Bangkok
1.1.176.44,4,94,DNS Server: node-9ik.pool-1-1.dynamic.totinternet.net,TH,Asia,South-eastern Asia,Thailand,Bangkok,,Bangkok
1.1.176.152,4,110,DNS Server: node-9lk.pool-1-1.dynamic.totinternet.net,TH,Asia,South-eastern Asia,Thailand,Bangkok,,Bangkok
1.1.176.176,4,28474,DNS Server: node-9m8.pool-1-1.dynamic.totinternet.net,TH,Asia,South-eastern Asia,Thailand,Bangkok,,Bangkok
1.1.178.47,4,98,DNS Server: node-9wv.pool-1-1.dynamic.totinternet.net,TH,Asia,South-eastern Asia,Thailand,Bangkok,,Bangkok
1.10.178.70,4,-7899392,DNS Server: node-9xi.pool-1-10.dynamic.totinternet.net,TH,Asia,South-eastern Asia,Thailand,Bangkok,,Bangkok
1.1.178.221,4,38,DNS Server: node-a1p.pool-1-1.dynamic.totinternet.net,TH,Asia,South-eastern Asia,Thailand,Bangkok,,Bangkok
1.1.178.251,4,2420,DNS Server: node-a2j.pool-1-1.dynamic.totinternet.net,TH,Asia,South-eastern Asia,Thailand,Bangkok,,Bangkok
1.2.179.105,4,89,DNS Server: node-a5l.pool-1-2.dynamic.totinternet.net,TH,Asia,South-eastern Asia,Thailand,Bangkok,,Bangkok
1.2.180.81,4,719,DNS Server: node-ac1.pool-1-2.dynamic.totinternet.net,TH,Asia,South-eastern Asia,Thailand,Bangkok,,Bangkok
125.25.54.85,4,84591,DNS Server: node-aqd.pool-125-25.dynamic.totinternet.net,TH,Asia,South-eastern Asia,Thailand,Bangkok,,Bangkok
1.10.182.129,4,5953,DNS Server: node-arl.pool-1-10.dynamic.totinternet.net,TH,Asia,South-eastern Asia,Thailand,Bangkok,,Bangkok
1.10.182.214,4,356340,DNS Server: node-aty.pool-1-10.dynamic.totinternet.net,TH,Asia,South-eastern Asia,Thailand,Bangkok,,Bangkok
1.10.183.33,4,73141,DNS Server: node-aw1.pool-1-10.dynamic.totinternet.net,TH,Asia,South-eastern Asia,Thailand,Bangkok,,Bangkok
1.10.183.83,4,10004040,DNS Server: node-axf.pool-1-10.dynamic.totinternet.net,TH,Asia,South-eastern Asia,Thailand,Bangkok,,Bangkok
1.10.183.95,4,3937159,DNS Server: node-axr.pool-1-10.dynamic.totinternet.net,TH,Asia,South-eastern Asia,Thailand,Bangkok,,Bangkok
1.10.184.241,4,609,DNS Server: node-b8x.pool-1-10.dynamic.totinternet.net,TH,Asia,South-eastern Asia,Thailand,Bangkok,,Bangkok
1.2.185.224,4,-14386860,DNS Server: node-bfk.pool-1-2.dynamic.totinternet.net,TH,Asia,South-eastern Asia,Thailand,Bangkok,,Bangkok
1.2.185.251,4,-14386420,DNS Server: node-bgb.pool-1-2.dynamic.totinternet.net,TH,Asia,South-eastern Asia,Thailand,Bangkok,,Bangkok
1.10.190.156,4,-118,DNS Server: node-cd8.pool-1-10.dynamic.totinternet.net,TH,Asia,South-eastern Asia,Thailand,Bangkok,,Bangkok
1.10.194.25,4,16861,DNS Server: node-d21.pool-1-10.dynamic.totinternet.net,TH,Asia,South-eastern Asia,Thailand,Bangkok,,Bangkok
1.4.194.52,4,-188,DNS Server: node-d2s.pool-1-4.dynamic.totinternet.net,TH,Asia,South-eastern Asia,Thailand,Bangkok,,Bangkok
1.4.194.133,4,-5537,DNS Server: node-d51.pool-1-4.dynamic.totinternet.net,TH,Asia,South-eastern Asia,Thailand,Bangkok,,Bangkok
1.4.194.136,4,87,DNS Server: node-d54.pool-1-4.dynamic.totinternet.net,TH,Asia,South-eastern Asia,Thailand,Bangkok,,Bangkok
1.4.194.161,4,2560,DNS Server: node-d5t.pool-1-4.dynamic.totinternet.net,TH,Asia,South-eastern Asia,Thailand,Bangkok,,Bangkok
1.4.194.244,4,140,DNS Server: node-d84.pool-1-4.dynamic.totinternet.net,TH,Asia,South-eastern Asia,Thailand,Bangkok,,Bangkok
1.4.195.10,4,4045,DNS Server: node-d8q.pool-1-4.dynamic.totinternet.net,TH,Asia,South-eastern Asia,Thailand,Bangkok,,Bangkok
1.4.195.25,4,4893,DNS Server: node-d95.pool-1-4.dynamic.totinternet.net,TH,Asia,South-eastern Asia,Thailand,Bangkok,,Bangkok
1.4.195.40,4,5545,DNS Server: node-d9k.pool-1-4.dynamic.totinternet.net,TH,Asia,South-eastern Asia,Thailand,Bangkok,,Bangkok
1.4.195.110,4,995,DNS Server: node-dbi.pool-1-4.dynamic.totinternet.net,TH,Asia,South-eastern Asia,Thailand,Bangkok,,Bangkok
1.4.195.114,4,5224,DNS Server: node-dbm.pool-1-4.dynamic.totinternet.net,TH,Asia,South-eastern Asia,Thailand,Bangkok,,Bangkok
1.4.195.131,4,57391,DNS Server: node-dc3.pool-1-4.dynamic.totinternet.net,TH,Asia,South-eastern Asia,Thailand,Bangkok,,Bangkok
1.4.195.196,4,557,DNS Server: node-ddw.pool-1-4.dynamic.totinternet.net,TH,Asia,South-eastern Asia,Thailand,Bangkok,,Bangkok
1.4.195.227,4,-2388,DNS Server: node-der.pool-1-4.dynamic.totinternet.net,TH,Asia,South-eastern Asia,Thailand,Bangkok,,Bangkok
182.52.68.14,4,65,DNS Server: node-dfy.pool-182-52.dynamic.totinternet.net,TH,Asia,South-eastern Asia,Thailand,Bangkok,,Bangkok
1.4.198.16,4,7491681,DNS Server: node-du8.pool-1-4.dynamic.totinternet.net,TH,Asia,South-eastern Asia,Thailand,Bangkok,,Bangkok
1.4.198.54,4,93,DNS Server: node-dva.pool-1-4.dynamic.totinternet.net,TH,Asia,South-eastern Asia,Thailand,Bangkok,,Bangkok
1.4.198.88,4,56,DNS Server: node-dw8.pool-1-4.dynamic.totinternet.net,TH,Asia,South-eastern Asia,Thailand,Bangkok,,Bangkok
1.4.198.146,4,448,DNS Server: node-dxu.pool-1-4.dynamic.totinternet.net,TH,Asia,South-eastern Asia,Thailand,Bangkok,,Bangkok
1.4.198.197,4,227,DNS Server: node-dz9.pool-1-4.dynamic.totinternet.net,TH,Asia,South-eastern Asia,Thailand,Bangkok,,Bangkok
1.4.198.218,4,225,DNS Server: node-dzu.pool-1-4.dynamic.totinternet.net,TH,Asia,South-eastern Asia,Thailand,Bangkok,,Bangkok
1.4.198.246,4,114,DNS Server: node-e0m.pool-1-4.dynamic.totinternet.net,TH,Asia,South-eastern Asia,Thailand,Bangkok,,Bangkok
1.4.198.253,4,-41713179,DNS Server: node-e0t.pool-1-4.dynamic.totinternet.net,TH,Asia,South-eastern Asia,Thailand,Bangkok,,Bangkok
1.4.200.57,4,27342137,DNS Server: node-e9l.pool-1-4.dynamic.totinternet.net,TH,Asia,South-eastern Asia,Thailand,Bangkok,,Bangkok
1.4.201.239,4,-52446478,DNS Server: node-elr.pool-1-4.dynamic.totinternet.net,TH,Asia,South-eastern Asia,Thailand,Bangkok,,Bangkok
1.4.203.26,4,189,DNS Server: node-eu2.pool-1-4.dynamic.totinternet.net,TH,Asia,South-eastern Asia,Thailand,Bangkok,,Bangkok
1.4.205.232,4,16453,DNS Server: node-fe0.pool-1-4.dynamic.totinternet.net,TH,Asia,South-eastern Asia,Thailand,Bangkok,,Bangkok
1.4.207.249,4,30578,DNS Server: node-fsp.pool-1-4.dynamic.totinternet.net,TH,Asia,South-eastern Asia,Thailand,Bangkok,,Bangkok
1.2.208.214,4,13625194,DNS Server: node-fyu.pool-1-2.dynamic.totinternet.net,TH,Asia,South-eastern Asia,Thailand,Bangkok,,Bangkok
1.2.209.22,4,-25199975,DNS Server: node-g0m.pool-1-2.dynamic.totinternet.net,TH,Asia,South-eastern Asia,Thailand,Bangkok,,Bangkok
1.2.209.183,4,-10,DNS Server: node-g53.pool-1-2.dynamic.totinternet.net,TH,Asia,South-eastern Asia,Thailand,Bangkok,,Bangkok
1.2.210.157,4,34947,DNS Server: node-gbh.pool-1-2.dynamic.totinternet.net,TH,Asia,South-eastern Asia,Thailand,Bangkok,,Bangkok
1.4.212.35,4,9377,DNS Server: node-gmb.pool-1-4.dynamic.totinternet.net,TH,Asia,South-eastern Asia,Thailand,Bangkok,,Bangkok
1.4.212.62,4,45,DNS Server: node-gn2.pool-1-4.dynamic.totinternet.net,TH,Asia,South-eastern Asia,Thailand,Bangkok,,Bangkok
1.4.212.160,4,32654,DNS Server: node-gps.pool-1-4.dynamic.totinternet.net,TH,Asia,South-eastern Asia,Thailand,Bangkok,,Bangkok
1.2.213.50,4,45,DNS Server: node-gtu.pool-1-2.dynamic.totinternet.net,TH,Asia,South-eastern Asia,Thailand,Bangkok,,Bangkok
1.4.214.151,4,-13958,DNS Server: node-h3r.pool-1-4.dynamic.totinternet.net,TH,Asia,South-eastern Asia,Thailand,Bangkok,,Bangkok
1.4.214.162,4,11323,DNS Server: node-h42.pool-1-4.dynamic.totinternet.net,TH,Asia,South-eastern Asia,Thailand,Bangkok,,Bangkok
1.2.214.196,4,-24972218,DNS Server: node-h50.pool-1-2.dynamic.totinternet.net,TH,Asia,South-eastern Asia,Thailand,Bangkok,,Bangkok
1.4.215.56,4,15882,DNS Server: node-h88.pool-1-4.dynamic.totinternet.net,TH,Asia,South-eastern Asia,Thailand,Bangkok,,Bangkok
1.2.215.95,4,32618,DNS Server: node-h9b.pool-1-2.dynamic.totinternet.net,TH,Asia,South-eastern Asia,Thailand,Bangkok,,Bangkok
1.2.216.32,4,5,DNS Server: node-heo.pool-1-2.dynamic.totinternet.net,TH,Asia,South-eastern Asia,Thailand,Bangkok,,Bangkok
1.2.216.44,4,65,DNS Server: node-hf0.pool-1-2.dynamic.totinternet.net,TH,Asia,South-eastern Asia,Thailand,Bangkok,,Bangkok
1.2.216.152,4,-31362855,DNS Server: node-hi0.pool-1-2.dynamic.totinternet.net,TH,Asia,South-eastern Asia,Thailand,Bangkok,,Bangkok
1.2.216.217,4,178,DNS Server: node-hjt.pool-1-2.dynamic.totinternet.net,TH,Asia,South-eastern Asia,Thailand,Bangkok,,Bangkok
1.2.218.31,4,25196,DNS Server: node-hsv.pool-1-2.dynamic.totinternet.net,TH,Asia,South-eastern Asia,Thailand,Bangkok,,Bangkok
1.2.219.121,4,-1422,DNS Server: node-i2h.pool-1-2.dynamic.totinternet.net,TH,Asia,South-eastern Asia,Thailand,Bangkok,,Bangkok
1.2.220.133,4,66,DNS Server: node-i9x.pool-1-2.dynamic.totinternet.net,TH,Asia,South-eastern Asia,Thailand,Bangkok,,Bangkok
1.2.220.196,4,68,DNS Server: node-ibo.pool-1-2.dynamic.totinternet.net,TH,Asia,South-eastern Asia,Thailand,Bangkok,,Bangkok
1.2.221.166,4,58,DNS Server: node-ihy.pool-1-2.dynamic.totinternet.net,TH,Asia,South-eastern Asia,Thailand,Bangkok,,Bangkok
1.2.222.59,4,352,DNS Server: node-im3.pool-1-2.dynamic.totinternet.net,TH,Asia,South-eastern Asia,Thailand,Bangkok,,Bangkok
1.2.223.18,4,5607,DNS Server: node-is2.pool-1-2.dynamic.totinternet.net,TH,Asia,South-eastern Asia,Thailand,Bangkok,,Bangkok
182.52.98.137,4,110006,DNS Server: node-jgp.pool-182-52.dynamic.totinternet.net,TH,Asia,South-eastern Asia,Thailand,Bangkok,,Bangkok
182.52.99.47,4,39,DNS Server: node-jlb.pool-182-52.dynamic.totinternet.net,TH,Asia,South-eastern Asia,Thailand,Bangkok,,Bangkok
182.52.104.2,4,227,DNS Server: node-kjm.pool-182-52.dynamic.totinternet.net,TH,Asia,South-eastern Asia,Thailand,Bangkok,,Bangkok
182.52.104.55,4,8364,DNS Server: node-kl3.pool-182-52.dynamic.totinternet.net,TH,Asia,South-eastern Asia,Thailand,Bangkok,,Bangkok
180.180.121.137,4,7528,DNS Server: node-o09.pool-180-180.dynamic.totinternet.net,TH,Asia,South-eastern Asia,Thailand,Bangkok,,Bangkok
180.180.170.14,4,-21333,DNS Server: node-xla.pool-180-180.dynamic.totinternet.net,TH,Asia,South-eastern Asia,Thailand,Bangkok,,Bangkok
180.180.175.122,4,-8955,DNS Server: node-ynu.pool-180-180.dynamic.totinternet.net,TH,Asia,South-eastern Asia,Thailand,Bangkok,,Bangkok
101.109.176.135,4,121,DNS Server: node-yvb.pool-101-109.dynamic.totinternet.net,TH,Asia,South-eastern Asia,Thailand,Bangkok,,Bangkok
203.150.19.24,4,268,dprns.com,TH,Asia,South-eastern Asia,Thailand,Bangkok,,Bangkok
122.155.166.150,4,2,dptools.co.th,TH,Asia,South-eastern Asia,Thailand,Bangkok,,Bangkok
110.77.129.237,4,-9,dreamworld.co.th,TH,Asia,South-eastern Asia,Thailand,Bangkok,,Bangkok
202.9.90.145,4,49,forklift-js.com,TH,Asia,South-eastern Asia,Thailand,Bangkok,,Bangkok
38.54.33.51,4,46,fun88asia.cc,TH,Asia,South-eastern Asia,Thailand,Bangkok,,Bangkok
38.54.117.250,4,57,fun88online.me,TH,Asia,South-eastern Asia,Thailand,Bangkok,,Bangkok
38.54.32.248,4,34,fun88slot.asia,TH,Asia,South-eastern Asia,Thailand,Bangkok,,Bangkok
38.60.200.246,4,68,fun88slot.shop,TH,Asia,South-eastern Asia,Thailand,Bangkok,,Bangkok
115.31.159.131,4,30,gameindy.com,TH,Asia,South-eastern Asia,Thailand,Bangkok,,Phaya Thai
115.31.159.132,4,3,gameindy.com,TH,Asia,South-eastern Asia,Thailand,Bangkok,,Phaya Thai
122.155.7.29,4,959,hostparagon.com,TH,Asia,South-eastern Asia,Thailand,Bangkok,,Bangkok
156.249.161.113,4,9,huizhoubomei-fr.com,TH,Asia,South-eastern Asia,Thailand,Bangkok,,Bangkok
49.0.124.168,4,35,icheckinn.com,TH,Asia,South-eastern Asia,Thailand,Bangkok,,Bangkok
163.44.198.57,4,21,investlaos.gov.la,TH,Asia,South-eastern Asia,Thailand,Bangkok,,Bangkok
38.54.32.5,4,1,kubet.fyi,TH,Asia,South-eastern Asia,Thailand,Bangkok,,Bangkok
122.155.165.38,4,-7,longdo.com,TH,Asia,South-eastern Asia,Thailand,Bangkok,,Bangkok
150.95.30.185,4,1167,lullabels.com,TH,Asia,South-eastern Asia,Thailand,Bangkok,,Bangkok
122.155.18.143,4,-9,meemodel.com,TH,Asia,South-eastern Asia,Thailand,Bangkok,,Bangkok
122.155.17.113,4,-9,meweb.asia,TH,Asia,South-eastern Asia,Thailand,Bangkok,,Bangkok
38.60.254.29,4,58,mfun88.info,TH,Asia,South-eastern Asia,Thailand,Bangkok,,Bangkok
156.249.170.162,4,6,mint-residence.com,TH,Asia,South-eastern Asia,Thailand,Bangkok,,Bangkok
175.176.193.164,4,2,monomax.me,TH,Asia,South-eastern Asia,Thailand,Bangkok,,Bangkok
175.176.193.153,4,5,monomax.me,TH,Asia,South-eastern Asia,Thailand,Bangkok,,Bangkok
38.60.174.33,4,8,monomax.me,TH,Asia,South-eastern Asia,Thailand,Bangkok,,Bangkok
38.60.174.30,4,11,monomax.me,TH,Asia,South-eastern Asia,Thailand,Bangkok,,Bangkok
110.238.119.21,4,5,mqdc.com,TH,Asia,South-eastern Asia,Thailand,Bangkok,,Bangkok
103.40.138.233,4,2,navakij.co.th,TH,Asia,South-eastern Asia,Thailand,Bangkok,,Bangkok
122.155.166.148,4,-5,ngaidai.com,TH,Asia,South-eastern Asia,Thailand,Bangkok,,Bangkok
49.231.27.91,4,25,nrru.ac.th,TH,Asia,South-eastern Asia,Thailand,Bangkok,,Bangkok
115.31.171.6,4,120,Ookla Speedtest Server 18487: sp1.uih.cloud,TH,Asia,South-eastern Asia,Thailand,Bangkok,,Bangkok
110.164.2.220,4,236,Ookla Speedtest Server 22667: speedtest-jas1.3bb.co.th,TH,Asia,South-eastern Asia,Thailand,Bangkok,,Bangkok
110.164.3.234,4,343,Ookla Speedtest Server 23118: speedtest-cbi1.3bb.co.th,TH,Asia,South-eastern Asia,Thailand,Bangkok,,Bangkok
110.164.3.253,4,308,Ookla Speedtest Server 23249: speedtest-cmi2.3bb.co.th,TH,Asia,South-eastern Asia,Thailand,Bangkok,,Bangkok
110.164.2.211,4,229,Ookla Speedtest Server 23295: speedtest-pte1.3bb.co.th,TH,Asia,South-eastern Asia,Thailand,Bangkok,,Bangkok
110.164.3.226,4,385,Ookla Speedtest Server 23519: speedtest-kkn1.3bb.co.th,TH,Asia,South-eastern Asia,Thailand,Bangkok,,Bangkok
110.164.3.212,4,302,Ookla Speedtest Server 24588: speedtest-aya1.3bb.co.th,TH,Asia,South-eastern Asia,Thailand,Bangkok,,Bangkok
27.131.178.200,4,276,Ookla Speedtest Server 63681: speedtest.net.kirz.com,TH,Asia,South-eastern Asia,Thailand,Bangkok,,Bangkok
122.155.5.143,4,-14,opat.ac.th,TH,Asia,South-eastern Asia,Thailand,Bangkok,,Bangkok
122.155.0.190,4,-14,palungjit.com,TH,Asia,South-eastern Asia,Thailand,Bangkok,,Bangkok
163.44.196.63,4,13,pim.ac.th,TH,Asia,South-eastern Asia,Thailand,Bangkok,,Bangkok
122.155.167.68,4,18,pkd.ac.th,TH,Asia,South-eastern Asia,Thailand,Bangkok,,Bangkok
202.9.90.73,4,91,puean.co.th,TH,Asia,South-eastern Asia,Thailand,Bangkok,,Bangkok
122.155.167.47,4,52,rack-need.com,TH,Asia,South-eastern Asia,Thailand,Bangkok,,Bangkok
150.95.30.56,4,15,realteamclinic.com,TH,Asia,South-eastern Asia,Thailand,Bangkok,,Bangkok
103.82.249.50,4,49,rockyfurniture.com,TH,Asia,South-eastern Asia,Thailand,Bangkok,,Bangkok
171.102.216.172,4,4,rsu.ac.th,TH,Asia,South-eastern Asia,Thailand,Bangkok,,Bangkok
163.44.197.25,4,19,santhiya.com,TH,Asia,South-eastern Asia,Thailand,Bangkok,,Bangkok
122.155.18.147,4,-341813,setsatian.ac.th,TH,Asia,South-eastern Asia,Thailand,Bangkok,,Bangkok
163.44.197.215,4,4376,siamtobacco.biz,TH,Asia,South-eastern Asia,Thailand,Bangkok,,Bangkok
163.44.198.51,4,9,siamturakij.com,TH,Asia,South-eastern Asia,Thailand,Bangkok,,Bangkok
122.155.167.201,4,8,sksamurai.com,TH,Asia,South-eastern Asia,Thailand,Bangkok,,Bangkok
122.155.7.167,4,-649,smethailandclub.com,TH,Asia,South-eastern Asia,Thailand,Bangkok,,Bangkok
203.146.170.20,4,-2,soccersuck.com,TH,Asia,South-eastern Asia,Thailand,Bangkok,,Bangkok
38.54.32.141,4,39,taifun88.net,TH,Asia,South-eastern Asia,Thailand,Bangkok,,Bangkok
159.138.243.69,4,2,tarad.com,TH,Asia,South-eastern Asia,Thailand,Bangkok,,Bangkok
118.174.211.43,4,-16520,technicchan.ac.th,TH,Asia,South-eastern Asia,Thailand,Bangkok,,Bangkok Noi
202.29.229.203,4,147697,technicchan.ac.th,TH,Asia,South-eastern Asia,Thailand,Bangkok,,Bangkok
122.155.17.247,4,44,terminalseal.com,TH,Asia,South-eastern Asia,Thailand,Bangkok,,Bangkok
122.155.17.91,4,3,thaihometown.com,TH,Asia,South-eastern Asia,Thailand,Bangkok,,Bangkok
122.155.166.7,4,-3,thaiorc.com,TH,Asia,South-eastern Asia,Thailand,Bangkok,,Bangkok
122.155.177.136,4,-1,tianshidichan.com,TH,Asia,South-eastern Asia,Thailand,Bangkok,,Bangkok
150.95.31.27,4,9,tni.ac.th,TH,Asia,South-eastern Asia,Thailand,Bangkok,,Bangkok
150.95.31.42,4,17,tricaremyanmar.com,TH,Asia,South-eastern Asia,Thailand,Bangkok,,Bangkok
202.94.166.31,4,33,trisara.com,TH,Asia,South-eastern Asia,Thailand,Bangkok,,Bangkok
150.95.23.169,4,6,udomsuk459.com,TH,Asia,South-eastern Asia,Thailand,Bangkok,,Bangkok
117.121.215.102,4,149,UIH 1,TH,Asia,South-eastern Asia,Thailand,Bangkok,,Bangkok
117.121.215.101,4,11,UIH 2,TH,Asia,South-eastern Asia,Thailand,Bangkok,,Bangkok
122.155.167.46,4,8,unionhospitalproduct.com,TH,Asia,South-eastern Asia,Thailand,Bangkok,,Bangkok
122.155.167.45,4,-7,unionhospitalproduct.com,TH,Asia,South-eastern Asia,Thailand,Bangkok,,Bangkok
122.155.167.48,4,-6,vcare-ambulance.com,TH,Asia,South-eastern Asia,Thailand,Bangkok,,Bangkok
163.44.198.52,4,10,vouchertoday.com,TH,Asia,South-eastern Asia,Thailand,Bangkok,,Bangkok
163.44.198.39,4,9,wku.ac.th,TH,Asia,South-eastern Asia,Thailand,Bangkok,,Bangkok
122.155.167.160,4,-9,wllighting.net,TH,Asia,South-eastern Asia,Thailand,Bangkok,,Bangkok
103.76.180.131,4,-38,xlx822.com,TH,Asia,South-eastern Asia,Thailand,Bangkok,,Bangkok
122.155.187.11,4,-18,xn--12cfje0exb6bdcs1eqh4cvb3a9bzlng.com,TH,Asia,South-eastern Asia,Thailand,Bangkok,,Bangkok
163.44.197.99,4,46,xn--12co8bkb4ccba6b3geffwj63b.com,TH,Asia,South-eastern Asia,Thailand,Bangkok,,Bangkok
122.155.177.83,4,-46,york-institute.com,TH,Asia,South-eastern Asia,Thailand,Bangkok,,Bangkok
