reflector_ip,ip_version,offset,description,country_code,region,sub_region,country_name,sub_division_1,sub_division_2,city
93.113.55.76,4,933,1asig.ro,RO,Europe,Eastern Europe,Romania,București,,Bucharest
81.196.84.126,4,804918,800mb.ro,RO,Europe,Eastern Europe,Romania,București,,Bucharest
5.2.139.93,4,7,accentgroup.ro,RO,Europe,Eastern Europe,Romania,București,,Bucharest
37.156.180.126,4,46,ach.ro,RO,Europe,Eastern Europe,Romania,București,,Bucharest
185.146.84.92,4,103,adtob.com,RO,Europe,Eastern Europe,Romania,București,,Bucharest
185.146.85.178,4,39,agroinfo.ro,RO,Europe,Eastern Europe,Romania,București,,Bucharest
89.36.154.170,4,64,anat.ro,RO,Europe,Eastern Europe,Romania,București,,Bucharest
213.177.10.50,4,70,andnet.ro,RO,Europe,Eastern Europe,Romania,București,,Bucharest
213.177.27.66,4,600066,anrmap.ro,RO,Europe,Eastern Europe,Romania,București,,Bucharest
185.146.87.79,4,5,arc.ro,RO,Europe,Eastern Europe,Romania,București,,Bucharest
45.15.23.224,4,6,archeus.ro,RO,Europe,Eastern Europe,Romania,București,,Bucharest
86.105.216.196,4,285749,armyacademy.ro,RO,Europe,Eastern Europe,Romania,București,,Bucharest
89.40.33.215,4,511,attotrafic.ro,RO,Europe,Eastern Europe,Romania,București,,Bucharest
89.44.105.182,4,594,autosic.ro,RO,Europe,Eastern Europe,Romania,București,,Bucharest
83.97.20.141,4,58,avax-wallet.com,RO,Europe,Eastern Europe,Romania,București,,Bucharest
80.86.107.131,4,2,axigen.com,RO,Europe,Eastern Europe,Romania,București,,Bucharest
86.104.182.182,4,-799,b-mall.ro,RO,Europe,Eastern Europe,Romania,București,,Bucharest
86.124.19.142,4,12,baar.ro,RO,Europe,Eastern Europe,Romania,București,,Bucharest
193.151.29.15,4,-27,bec.ro,RO,Europe,Eastern Europe,Romania,București,,Bucharest
80.86.106.231,4,2,bei.ro,RO,Europe,Eastern Europe,Romania,București,,Bucharest
213.177.9.178,4,27,biblacad.ro,RO,Europe,Eastern Europe,Romania,București,,Bucharest
83.97.20.38,4,39,bitcheese.net,RO,Europe,Eastern Europe,Romania,București,,Bucharest
89.44.105.96,4,97,blogs-collection.com,RO,Europe,Eastern Europe,Romania,București,,Bucharest
93.114.248.241,4,285,book-land.ro,RO,Europe,Eastern Europe,Romania,București,,Bucharest
185.247.224.91,4,9,btnull.org,RO,Europe,Eastern Europe,Romania,București,,Bucharest
176.126.172.52,4,9,businesscover.ro,RO,Europe,Eastern Europe,Romania,București,,Bucharest
185.244.151.84,4,4,businessopad.com,RO,Europe,Eastern Europe,Romania,București,,Bucharest
213.177.4.142,4,-5,caa.ro,RO,Europe,Eastern Europe,Romania,București,,Bucharest
81.196.111.74,4,5,carturesti.ro,RO,Europe,Eastern Europe,Romania,București,,Bucharest
94.177.36.83,4,10,castel.ro,RO,Europe,Eastern Europe,Romania,București,,Bucharest
130.195.251.52,4,3,ceccar.ro,RO,Europe,Eastern Europe,Romania,București,,Bucharest
86.105.152.166,4,28,chris-tv.com,RO,Europe,Eastern Europe,Romania,București,,Bucharest
136.255.207.138,4,5,cjph.ro,RO,Europe,Eastern Europe,Romania,București,,Bucharest
85.9.63.215,4,-429,classoft.ro,RO,Europe,Eastern Europe,Romania,București,,Bucharest
193.239.85.202,4,-51,cock.li,RO,Europe,Eastern Europe,Romania,București,,Bucharest
86.105.153.230,4,200,computerblog.ro,RO,Europe,Eastern Europe,Romania,București,,Bucharest
86.105.216.130,4,17,curteadeconturi.ro,RO,Europe,Eastern Europe,Romania,București,,Bucharest
86.105.153.210,4,-460,derbrutkasten.com,RO,Europe,Eastern Europe,Romania,București,,Bucharest
185.146.86.191,4,4,desteptarea.ro,RO,Europe,Eastern Europe,Romania,București,,Bucharest
85.9.63.237,4,-449,directory-free.com,RO,Europe,Eastern Europe,Romania,București,,Bucharest
79.115.29.173,4,30,DNS Server: 79-115-29-173.rdsnet.ro,RO,Europe,Eastern Europe,Romania,București,,Bucharest
79.115.31.76,4,61,DNS Server: 79-115-31-76.rdsnet.ro,RO,Europe,Eastern Europe,Romania,București,,Bucharest
81.196.111.92,4,2,DNS Server: 81-196-111-92.rdsnet.ro,RO,Europe,Eastern Europe,Romania,București,,Bucharest
82.137.27.130,4,2623,DNS Server: 82-137-27-130.rdsnet.ro,RO,Europe,Eastern Europe,Romania,București,,Bucharest
82.76.228.89,4,1923,DNS Server: 82-76-228-89.rdsnet.ro,RO,Europe,Eastern Europe,Romania,București,,Bucharest
86.125.42.133,4,-12416,DNS Server: 86-125-42-133.rdsnet.ro,RO,Europe,Eastern Europe,Romania,București,,Bucharest
95.76.162.137,4,39609,DNS Server: ahlautorent-dacia93-fo.b.astral.ro,RO,Europe,Eastern Europe,Romania,București,,Bucharest
89.238.206.66,4,4741,DNS Server: ip4-89-238-206-66.euroweb.ro,RO,Europe,Eastern Europe,Romania,București,,Bucharest
89.238.234.50,4,43,DNS Server: ip4-89-238-234-50.euroweb.ro,RO,Europe,Eastern Europe,Romania,București,,Bucharest
89.238.246.6,4,93941,DNS Server: ip4-89-238-246-6.euroweb.ro,RO,Europe,Eastern Europe,Romania,București,,Bucharest
89.238.247.35,4,-100160,DNS Server: ip4-89-238-247-35.euroweb.ro,RO,Europe,Eastern Europe,Romania,București,,Bucharest
95.77.96.11,4,1717,DNS Server: mail.asco.ro,RO,Europe,Eastern Europe,Romania,București,,Bucharest
95.77.99.62,4,-12859,DNS Server: mail.interprima.ro,RO,Europe,Eastern Europe,Romania,București,,Bucharest
89.38.58.11,4,142,DNS Server: R10.easynet.dev,RO,Europe,Eastern Europe,Romania,București,,Bucharest
5.2.148.118,4,557,DNS Server: static-5-2-148-118.rdsnet.ro,RO,Europe,Eastern Europe,Romania,București,,Bucharest
5.2.219.31,4,276,DNS Server: static-5-2-219-31.rdsnet.ro,RO,Europe,Eastern Europe,Romania,București,,Bucharest
86.120.147.183,4,290,DNS Server: static-86-120-147-183.rdsnet.ro,RO,Europe,Eastern Europe,Romania,București,,Bucharest
86.123.140.156,4,272,DNS Server: static-86-123-140-156.rdsnet.ro,RO,Europe,Eastern Europe,Romania,București,,Bucharest
86.125.46.220,4,-17386,DNS Server: static-86-125-46-220.rdsnet.ro,RO,Europe,Eastern Europe,Romania,București,,Bucharest
80.86.107.11,4,46,doingbusiness.ro,RO,Europe,Eastern Europe,Romania,București,,Bucharest
31.14.56.144,4,16,dolce-sport.ro,RO,Europe,Eastern Europe,Romania,București,,Bucharest
37.156.181.226,4,75,edemantiques.com,RO,Europe,Eastern Europe,Romania,București,,Bucharest
188.212.127.95,4,255,electrodb.ro,RO,Europe,Eastern Europe,Romania,București,,Bucharest
31.14.56.42,4,654,elenis.ro,RO,Europe,Eastern Europe,Romania,București,,Bucharest
37.156.180.235,4,458,eligon.ro,RO,Europe,Eastern Europe,Romania,București,,Bucharest
185.146.87.201,4,11,emaramures.ro,RO,Europe,Eastern Europe,Romania,București,,Bucharest
185.92.192.135,4,5,energyindustryreview.com,RO,Europe,Eastern Europe,Romania,București,,Bucharest
82.78.47.245,4,14,epochtimes-romania.com,RO,Europe,Eastern Europe,Romania,București,,Bucharest
89.238.225.78,4,2807,euroweb.ro,RO,Europe,Eastern Europe,Romania,București,,Bucharest
31.14.56.114,4,506,extragsm.ro,RO,Europe,Eastern Europe,Romania,București,,Bucharest
185.100.84.14,4,406,flokinet.is,RO,Europe,Eastern Europe,Romania,București,,Bucharest
91.195.98.230,4,10,frbaschet.ro,RO,Europe,Eastern Europe,Romania,București,,Bucharest
85.204.99.154,4,982,free.org.ro,RO,Europe,Eastern Europe,Romania,București,,Bucharest
86.105.152.129,4,55,gallerytoday.com,RO,Europe,Eastern Europe,Romania,București,,Bucharest
188.212.255.217,4,220,garana-jazz.ro,RO,Europe,Eastern Europe,Romania,București,,Bucharest
146.70.56.164,4,-1486,gopups.com,RO,Europe,Eastern Europe,Romania,București,,Bucharest
31.14.56.225,4,724,hermannstaedter.ro,RO,Europe,Eastern Europe,Romania,București,,Bucharest
31.14.252.162,4,649,homeworlddesign.com,RO,Europe,Eastern Europe,Romania,București,,Bucharest
89.46.100.131,4,43,horacredit.ro,RO,Europe,Eastern Europe,Romania,București,,Bucharest
89.42.13.156,4,148,hotelplutitorserano.ro,RO,Europe,Eastern Europe,Romania,București,,Bucharest
188.214.214.89,4,918,iab-romania.ro,RO,Europe,Eastern Europe,Romania,București,,Bucharest
89.36.154.183,4,85,impact.ro,RO,Europe,Eastern Europe,Romania,București,,Bucharest
85.120.20.1,4,2,inoe.ro,RO,Europe,Eastern Europe,Romania,București,,Bucharest
193.151.29.23,4,-61,insse.ro,RO,Europe,Eastern Europe,Romania,București,,Bucharest
86.107.78.1,4,463,integritate.eu,RO,Europe,Eastern Europe,Romania,București,,Bucharest
80.86.106.61,4,-70,itsybitsy.ro,RO,Europe,Eastern Europe,Romania,București,,Bucharest
193.151.29.11,4,36,jandarmeriaromana.ro,RO,Europe,Eastern Europe,Romania,București,,Bucharest
83.97.20.147,4,3,jaxxliberty.io,RO,Europe,Eastern Europe,Romania,București,,Bucharest
5.254.67.147,4,6,juridice.ro,RO,Europe,Eastern Europe,Romania,București,,Bucharest
93.113.54.240,4,486,kesheromania.ro,RO,Europe,Eastern Europe,Romania,București,,Bucharest
93.119.122.252,4,280,kogaionon.ro,RO,Europe,Eastern Europe,Romania,București,,Bucharest
89.44.105.89,4,80,ldmstudio.com,RO,Europe,Eastern Europe,Romania,București,,Bucharest
93.119.122.53,4,-279,lifeisanepisode.com,RO,Europe,Eastern Europe,Romania,București,,Bucharest
193.151.29.26,4,63,madr.ro,RO,Europe,Eastern Europe,Romania,București,,Bucharest
193.151.29.7,4,2,mae.ro,RO,Europe,Eastern Europe,Romania,București,,Bucharest
193.151.29.12,4,6,mai-dga.ro,RO,Europe,Eastern Europe,Romania,București,,Bucharest
31.14.56.65,4,-444,marosme.ro,RO,Europe,Eastern Europe,Romania,București,,Bucharest
185.100.87.211,4,88,mastodon.ml,RO,Europe,Eastern Europe,Romania,București,,Bucharest
89.36.18.30,4,-611,mercedesblog.com,RO,Europe,Eastern Europe,Romania,București,,Bucharest
176.126.172.44,4,6,millionsoffriends.org,RO,Europe,Eastern Europe,Romania,București,,Bucharest
91.195.99.115,4,10,mir.cr,RO,Europe,Eastern Europe,Romania,București,,Bucharest
91.195.99.122,4,1,mirrored.to,RO,Europe,Eastern Europe,Romania,București,,Bucharest
80.86.107.140,4,0,misiuneacasa.ro,RO,Europe,Eastern Europe,Romania,București,,Bucharest
193.151.29.13,4,-101,mmanpis.ro,RO,Europe,Eastern Europe,Romania,București,,Bucharest
193.151.29.5,4,3,mmuncii.ro,RO,Europe,Eastern Europe,Romania,București,,Bucharest
185.181.100.50,4,411,motociclism.ro,RO,Europe,Eastern Europe,Romania,București,,Bucharest
193.151.29.21,4,-99,mpublic.ro,RO,Europe,Eastern Europe,Romania,București,,Bucharest
81.196.10.78,4,29343356,mstdn.ro,RO,Europe,Eastern Europe,Romania,București,,Bucharest
193.151.29.16,4,-99,mt.ro,RO,Europe,Eastern Europe,Romania,București,,Bucharest
188.241.118.148,4,13,muzeul-etnografic.ro,RO,Europe,Eastern Europe,Romania,București,,Bucharest
89.46.103.117,4,4,myconnector.ro,RO,Europe,Eastern Europe,Romania,București,,Bucharest
89.33.246.197,4,6,mystage.ro,RO,Europe,Eastern Europe,Romania,București,,Bucharest
94.177.106.20,4,4,nudeexpress.com,RO,Europe,Eastern Europe,Romania,București,,Bucharest
193.151.29.37,4,19,onjn.gov.ro,RO,Europe,Eastern Europe,Romania,București,,Bucharest
93.113.0.102,4,101,Ookla Speedtest Server 15247: buc.signalx.uk,RO,Europe,Eastern Europe,Romania,București,,Bucharest
92.86.84.173,4,130,Ookla Speedtest Server 16457: speedtest.fix.orange.ro,RO,Europe,Eastern Europe,Romania,București,,Bucharest
193.226.158.66,4,327,Ookla Speedtest Server 29707: speedtest.gtstelecom.ro,RO,Europe,Eastern Europe,Romania,București,,Bucharest
89.37.117.115,4,279,Ookla Speedtest Server 58039: speedtest.nexonhost.com,RO,Europe,Eastern Europe,Romania,București,,Bucharest
93.113.55.95,4,929,operanb.ro,RO,Europe,Eastern Europe,Romania,București,,Bucharest
212.146.85.111,4,506,otopeni-rent-a-car.ro,RO,Europe,Eastern Europe,Romania,București,,Bucharest
185.100.85.96,4,33,ourhome2.net,RO,Europe,Eastern Europe,Romania,București,,Bucharest
185.93.220.70,4,1,owni.eu,RO,Europe,Eastern Europe,Romania,București,,Bucharest
84.247.89.66,4,35,pentrugatit.ro,RO,Europe,Eastern Europe,Romania,București,,Bucharest
91.195.98.226,4,25,portalit.net,RO,Europe,Eastern Europe,Romania,București,,Bucharest
5.254.103.154,4,71,posta-romana.ro,RO,Europe,Eastern Europe,Romania,București,,Bucharest
93.119.122.143,4,930,potatobusiness.com,RO,Europe,Eastern Europe,Romania,București,,Bucharest
193.151.29.25,4,58,presamil.ro,RO,Europe,Eastern Europe,Romania,București,,Bucharest
193.151.29.6,4,69,presidency.ro,RO,Europe,Eastern Europe,Romania,București,,Bucharest
188.241.118.254,4,597,pressalert.ro,RO,Europe,Eastern Europe,Romania,București,,Bucharest
213.177.29.172,4,10,primariaarad.ro,RO,Europe,Eastern Europe,Romania,București,,Bucharest
37.156.4.56,4,598,primariateius.ro,RO,Europe,Eastern Europe,Romania,București,,Bucharest
82.137.31.190,4,77,primarie3.ro,RO,Europe,Eastern Europe,Romania,București,,Bucharest
185.100.84.150,4,12,psiram.com,RO,Europe,Eastern Europe,Romania,București,,Bucharest
176.126.172.181,4,21,punctul.ro,RO,Europe,Eastern Europe,Romania,București,,Bucharest
89.44.105.232,4,279,qmagazine.ro,RO,Europe,Eastern Europe,Romania,București,,Bucharest
86.105.153.2,4,14,razvanbb.ro,RO,Europe,Eastern Europe,Romania,București,,Bucharest
188.214.214.194,4,55,rentacar-ro.eu,RO,Europe,Eastern Europe,Romania,București,,Bucharest
185.247.225.8,4,585,reportersunited.gr,RO,Europe,Eastern Europe,Romania,București,,Bucharest
185.146.87.178,4,10,revista-ferma.ro,RO,Europe,Eastern Europe,Romania,București,,Bucharest
193.151.29.17,4,31,rocnee.eu,RO,Europe,Eastern Europe,Romania,București,,Bucharest
79.115.31.193,4,61,rol.ro,RO,Europe,Eastern Europe,Romania,București,,Bucharest
176.126.172.116,4,54,romaniajournal.ro,RO,Europe,Eastern Europe,Romania,București,,Bucharest
5.254.56.3,4,2,romfilatelia.ro,RO,Europe,Eastern Europe,Romania,București,,Bucharest
185.247.225.10,4,1206,sandiegocream.com,RO,Europe,Eastern Europe,Romania,București,,Bucharest
89.44.105.64,4,97,selfpay.ro,RO,Europe,Eastern Europe,Romania,București,,Bucharest
185.181.103.174,4,15,seniormates.com,RO,Europe,Eastern Europe,Romania,București,,Bucharest
193.151.29.33,4,-88,sgg.gov.ro,RO,Europe,Eastern Europe,Romania,București,,Bucharest
185.247.225.7,4,318,shortyzone.com,RO,Europe,Eastern Europe,Romania,București,,Bucharest
146.70.213.146,4,32,softnews.ro,RO,Europe,Eastern Europe,Romania,București,,Bucharest
188.241.118.36,4,611273,stiri21.ro,RO,Europe,Eastern Europe,Romania,București,,Bucharest
193.151.29.8,4,78,sts.ro,RO,Europe,Eastern Europe,Romania,București,,Bucharest
146.70.56.163,4,-1501,sundaybiggs.com,RO,Europe,Eastern Europe,Romania,București,,Bucharest
85.122.127.214,4,0,superking.com.hk,RO,Europe,Eastern Europe,Romania,București,,Bucharest
31.14.56.126,4,504,swarovski-gioielli.it,RO,Europe,Eastern Europe,Romania,București,,Bucharest
176.126.172.243,4,8,tablet-news.com,RO,Europe,Eastern Europe,Romania,București,,Bucharest
86.105.152.250,4,25,techniumscience.com,RO,Europe,Eastern Europe,Romania,București,,Bucharest
185.181.102.231,4,17078197,tfm.ro,RO,Europe,Eastern Europe,Romania,București,,Bucharest
185.247.225.40,4,29,theindicter.com,RO,Europe,Eastern Europe,Romania,București,,Bucharest
89.39.209.53,4,4,thewoman.ro,RO,Europe,Eastern Europe,Romania,București,,Bucharest
91.220.63.93,4,1352,timpul.md,RO,Europe,Eastern Europe,Romania,București,,Bucharest
193.151.29.22,4,11,turism.gov.ro,RO,Europe,Eastern Europe,Romania,București,,Bucharest
194.8.80.3,4,1120,turism.ro,RO,Europe,Eastern Europe,Romania,București,,Bucharest
193.186.33.181,4,-29440,tvr.ro,RO,Europe,Eastern Europe,Romania,București,,Bucharest
193.186.33.61,4,12,tvrplus.ro,RO,Europe,Eastern Europe,Romania,București,,Bucharest
86.105.219.51,4,-1,unap.ro,RO,Europe,Eastern Europe,Romania,București,,Bucharest
89.149.28.119,4,2,uniuneanotarilor.ro,RO,Europe,Eastern Europe,Romania,București,,Bucharest
185.146.84.86,4,150,veedyou.com,RO,Europe,Eastern Europe,Romania,București,,Bucharest
212.146.84.65,4,618,vendiofa.ro,RO,Europe,Eastern Europe,Romania,București,,Bucharest
185.146.87.53,4,1056,verificaip.ro,RO,Europe,Eastern Europe,Romania,București,,Bucharest
89.42.13.25,4,919,voceatransilvaniei.ro,RO,Europe,Eastern Europe,Romania,București,,Bucharest
86.105.153.89,4,-1,warcraft-secrets.com,RO,Europe,Eastern Europe,Romania,București,,Bucharest
83.97.20.83,4,55,web-sollet.io,RO,Europe,Eastern Europe,Romania,București,,Bucharest
80.97.43.34,4,1,ziaristii.com,RO,Europe,Eastern Europe,Romania,București,,Bucharest
176.126.172.61,4,8,ziarulring.ro,RO,Europe,Eastern Europe,Romania,București,,Bucharest
