reflector_ip,ip_version,offset,description,country_code,region,sub_region,country_name,sub_division_1,sub_division_2,city
213.238.32.179,4,5565,abc.de,DE,Europe,Western Europe,Germany,Free and Hanseatic City of Hamburg,,Hamburg
104.102.15.81,4,20,advocare.com,DE,Europe,Western Europe,Germany,Free and Hanseatic City of Hamburg,,Hamburg
212.72.165.66,4,46,all-classifieds.net,DE,Europe,Western Europe,Germany,Free and Hanseatic City of Hamburg,,Hamburg
212.72.171.241,4,5,android-hilfe.de,DE,Europe,Western Europe,Germany,Free and Hanseatic City of Hamburg,,Hamburg
93.92.133.124,4,20,atmosfair.de,DE,Europe,Western Europe,Germany,Free and Hanseatic City of Hamburg,,Hamburg
148.251.112.94,4,16,berlintravelfestival.com,DE,Europe,Western Europe,Germany,Free and Hanseatic City of Hamburg,,Hamburg
148.251.209.175,4,5,berrybase.de,DE,Europe,Western Europe,Germany,Free and Hanseatic City of Hamburg,,Hamburg
148.251.93.154,4,44,bestmovie.it,DE,Europe,Western Europe,Germany,Free and Hanseatic City of Hamburg,,Hamburg
82.207.187.7,4,17,bnitm.de,DE,Europe,Western Europe,Germany,Free and Hanseatic City of Hamburg,,Hamburg
212.79.53.30,4,39,buergel.de,DE,Europe,Western Europe,Germany,Free and Hanseatic City of Hamburg,,Hamburg
88.99.233.240,4,17,chapril.org,DE,Europe,Western Europe,Germany,Free and Hanseatic City of Hamburg,,Hamburg
193.218.20.133,4,54,dashoefer.de,DE,Europe,Western Europe,Germany,Free and Hanseatic City of Hamburg,,Hamburg
104.87.224.202,4,10,dhgate.com,DE,Europe,Western Europe,Germany,Free and Hanseatic City of Hamburg,,Hamburg
148.251.244.29,4,116,diakonie-baden.de,DE,Europe,Western Europe,Germany,Free and Hanseatic City of Hamburg,,Hamburg
212.72.182.41,4,175,enenko.de,DE,Europe,Western Europe,Germany,Free and Hanseatic City of Hamburg,,Hamburg
212.72.182.36,4,9,ergotec.de,DE,Europe,Western Europe,Germany,Free and Hanseatic City of Hamburg,,Hamburg
212.72.171.122,4,154,evangeliums.net,DE,Europe,Western Europe,Germany,Free and Hanseatic City of Hamburg,,Hamburg
93.92.134.165,4,37,farmy.ch,DE,Europe,Western Europe,Germany,Free and Hanseatic City of Hamburg,,Hamburg
2.16.204.149,4,15,fendi.com,DE,Europe,Western Europe,Germany,Free and Hanseatic City of Hamburg,,Hamburg
2.16.204.147,4,34,fendi.com,DE,Europe,Western Europe,Germany,Free and Hanseatic City of Hamburg,,Hamburg
212.12.39.62,4,9081,fielmann.com,DE,Europe,Western Europe,Germany,Free and Hanseatic City of Hamburg,,Hamburg
148.251.96.215,4,10,foto-webcam.eu,DE,Europe,Western Europe,Germany,Free and Hanseatic City of Hamburg,,Hamburg
82.149.252.42,4,3,goalunited.org,DE,Europe,Western Europe,Germany,Free and Hanseatic City of Hamburg,,Hamburg
88.99.236.191,4,4,got-big.de,DE,Europe,Western Europe,Germany,Free and Hanseatic City of Hamburg,,Hamburg
185.45.110.169,4,7,h2-mobility.de,DE,Europe,Western Europe,Germany,Free and Hanseatic City of Hamburg,,Hamburg
213.238.42.198,4,9710,hamburgcruisedays.de,DE,Europe,Western Europe,Germany,Free and Hanseatic City of Hamburg,,Hamburg
88.99.235.226,4,59,hardwareschotte.de,DE,Europe,Western Europe,Germany,Free and Hanseatic City of Hamburg,,Hamburg
212.72.171.207,4,28,hifi-und-lebensart.de,DE,Europe,Western Europe,Germany,Free and Hanseatic City of Hamburg,,Hamburg
217.114.79.202,4,21,infodrom.org,DE,Europe,Western Europe,Germany,Free and Hanseatic City of Hamburg,,Hamburg
148.251.219.204,4,29,jacobs-university.de,DE,Europe,Western Europe,Germany,Free and Hanseatic City of Hamburg,,Hamburg
104.87.217.35,4,15,jaguar.com.au,DE,Europe,Western Europe,Germany,Free and Hanseatic City of Hamburg,,Hamburg
148.251.55.130,4,4,jrpromotions.co.za,DE,Europe,Western Europe,Germany,Free and Hanseatic City of Hamburg,,Hamburg
212.72.182.207,4,19,klonblog.com,DE,Europe,Western Europe,Germany,Free and Hanseatic City of Hamburg,,Hamburg
185.45.110.181,4,6,l-mount.com,DE,Europe,Western Europe,Germany,Free and Hanseatic City of Hamburg,,Hamburg
104.87.217.30,4,11,landrover.com,DE,Europe,Western Europe,Germany,Free and Hanseatic City of Hamburg,,Hamburg
88.99.223.20,4,26,leasingtime.de,DE,Europe,Western Europe,Germany,Free and Hanseatic City of Hamburg,,Hamburg
212.72.184.247,4,-351,leichte-sprache.org,DE,Europe,Western Europe,Germany,Free and Hanseatic City of Hamburg,,Hamburg
185.45.110.180,4,4,lfi-online.de,DE,Europe,Western Europe,Germany,Free and Hanseatic City of Hamburg,,Hamburg
212.72.171.37,4,4,listen-to-our-future.de,DE,Europe,Western Europe,Germany,Free and Hanseatic City of Hamburg,,Hamburg
213.238.47.226,4,59654,ma-hsh.de,DE,Europe,Western Europe,Germany,Free and Hanseatic City of Hamburg,,Hamburg
93.92.134.136,4,14,moviepark.de,DE,Europe,Western Europe,Germany,Free and Hanseatic City of Hamburg,,Hamburg
2.16.253.149,4,49,msccruzeiros.com.br,DE,Europe,Western Europe,Germany,Free and Hanseatic City of Hamburg,,Hamburg
24.40.173.118,4,1,msi-computer.de,DE,Europe,Western Europe,Germany,Free and Hanseatic City of Hamburg,,Hamburg
82.207.180.164,4,536,muelheim-ruhr.de,DE,Europe,Western Europe,Germany,Free and Hanseatic City of Hamburg,,Hamburg
88.99.176.131,4,9,nagerforum.ch,DE,Europe,Western Europe,Germany,Free and Hanseatic City of Hamburg,,Hamburg
104.101.247.217,4,15,navarro.com,DE,Europe,Western Europe,Germany,Free and Hanseatic City of Hamburg,,Hamburg
213.238.45.93,4,-24362,netlabs.org,DE,Europe,Western Europe,Germany,Free and Hanseatic City of Hamburg,,Hamburg
2.16.183.157,4,8,ninjatestkitchen.eu,DE,Europe,Western Europe,Germany,Free and Hanseatic City of Hamburg,,Hamburg
2.16.183.172,4,12,ninjatestkitchen.eu,DE,Europe,Western Europe,Germany,Free and Hanseatic City of Hamburg,,Hamburg
148.251.219.193,4,6,nuernbergmesse.de,DE,Europe,Western Europe,Germany,Free and Hanseatic City of Hamburg,,Hamburg
213.209.106.95,4,494,Ookla Speedtest Server 4087: speedtest.wtnet.de,DE,Europe,Western Europe,Germany,Free and Hanseatic City of Hamburg,,Hamburg
89.58.45.187,4,307,Ookla Speedtest Server 58266: speedtest.jonasdevries.net,DE,Europe,Western Europe,Germany,Free and Hanseatic City of Hamburg,,Hamburg
62.52.30.92,4,292,Ookla Speedtest Server 60747: ookla-2408.speedtest.telefonica.de,DE,Europe,Western Europe,Germany,Free and Hanseatic City of Hamburg,,Hamburg
212.72.183.88,4,-355,papierkram.de,DE,Europe,Western Europe,Germany,Free and Hanseatic City of Hamburg,,Hamburg
88.99.128.134,4,11,pflanzwerk.de,DE,Europe,Western Europe,Germany,Free and Hanseatic City of Hamburg,,Hamburg
212.12.36.29,4,59678,planetarium-hamburg.de,DE,Europe,Western Europe,Germany,Free and Hanseatic City of Hamburg,,Hamburg
212.79.54.202,4,42,pop.de,DE,Europe,Western Europe,Germany,Free and Hanseatic City of Hamburg,,Hamburg
212.72.183.218,4,4,powweb.de,DE,Europe,Western Europe,Germany,Free and Hanseatic City of Hamburg,,Hamburg
148.251.112.245,4,21,pr-com.de,DE,Europe,Western Europe,Germany,Free and Hanseatic City of Hamburg,,Hamburg
213.238.32.188,4,-492154,projekt-gutenberg.org,DE,Europe,Western Europe,Germany,Free and Hanseatic City of Hamburg,,Hamburg
104.82.88.32,4,63,prolexic.com,DE,Europe,Western Europe,Germany,Free and Hanseatic City of Hamburg,,Hamburg
2.16.204.80,4,13,przelewy24.pl,DE,Europe,Western Europe,Germany,Free and Hanseatic City of Hamburg,,Hamburg
2.16.204.82,4,57,przelewy24.pl,DE,Europe,Western Europe,Germany,Free and Hanseatic City of Hamburg,,Hamburg
148.251.158.110,4,46,rumundco.de,DE,Europe,Western Europe,Germany,Free and Hanseatic City of Hamburg,,Hamburg
88.99.235.231,4,44,schottenland.de,DE,Europe,Western Europe,Germany,Free and Hanseatic City of Hamburg,,Hamburg
188.94.27.25,4,12,sebastian-bergmann.de,DE,Europe,Western Europe,Germany,Free and Hanseatic City of Hamburg,,Hamburg
104.102.8.152,4,8,silverkris.com,DE,Europe,Western Europe,Germany,Free and Hanseatic City of Hamburg,,Hamburg
185.45.110.228,4,79,splendid-film.de,DE,Europe,Western Europe,Germany,Free and Hanseatic City of Hamburg,,Hamburg
93.92.128.130,4,60,tennismagazin.de,DE,Europe,Western Europe,Germany,Free and Hanseatic City of Hamburg,,Hamburg
188.94.27.20,4,3,thephp.cc,DE,Europe,Western Europe,Germany,Free and Hanseatic City of Hamburg,,Hamburg
148.251.5.11,4,15,tipsofwork.com,DE,Europe,Western Europe,Germany,Free and Hanseatic City of Hamburg,,Hamburg
212.12.37.69,4,9036,tivoli.de,DE,Europe,Western Europe,Germany,Free and Hanseatic City of Hamburg,,Hamburg
88.99.233.254,4,6,tosto.re,DE,Europe,Western Europe,Germany,Free and Hanseatic City of Hamburg,,Hamburg
148.251.93.149,4,4,truenumbers.it,DE,Europe,Western Europe,Germany,Free and Hanseatic City of Hamburg,,Hamburg
212.48.120.130,4,24,usemax.de,DE,Europe,Western Europe,Germany,Free and Hanseatic City of Hamburg,,Hamburg
93.92.135.57,4,35,wido.de,DE,Europe,Western Europe,Germany,Free and Hanseatic City of Hamburg,,Hamburg
148.251.217.244,4,10,wissenschaft-online.de,DE,Europe,Western Europe,Germany,Free and Hanseatic City of Hamburg,,Hamburg
212.72.182.4,4,3,wiwi-treff.de,DE,Europe,Western Europe,Germany,Free and Hanseatic City of Hamburg,,Hamburg
213.238.33.129,4,9038,work.de,DE,Europe,Western Europe,Germany,Free and Hanseatic City of Hamburg,,Hamburg
212.72.171.178,4,44,xendach.de,DE,Europe,Western Europe,Germany,Free and Hanseatic City of Hamburg,,Hamburg
148.251.196.18,4,8,zoon.com.ua,DE,Europe,Western Europe,Germany,Free and Hanseatic City of Hamburg,,Hamburg
