reflector_ip,ip_version,offset,description,country_code,region,sub_region,country_name,sub_division_1,sub_division_2,city
64.34.22.63,4,8,211oc.org,CA,Americas,Northern America,Canada,Ontario,,Toronto
151.101.127.10,4,4,24petwatch.com,CA,Americas,Northern America,Canada,Ontario,,Toronto
69.90.66.170,4,-4,2pass.co.uk,CA,Americas,Northern America,Canada,Ontario,,Toronto
23.205.255.179,4,0,407etr.com,CA,Americas,Northern America,Canada,Ontario,,Toronto
23.205.255.140,4,-2,407etr.com,CA,Americas,Northern America,Canada,Ontario,,Toronto
167.99.180.108,4,7,49thshelf.com,CA,Americas,Northern America,Canada,Ontario,,Toronto
192.250.237.73,4,-1,aavw.org,CA,Americas,Northern America,Canada,Ontario,,Toronto
172.105.3.223,4,6,abreadaffair.com,CA,Americas,Northern America,Canada,Ontario,,Toronto
69.172.204.200,4,37,advosys.ca,CA,Americas,Northern America,Canada,Ontario,,Toronto
45.56.220.53,4,5,airtindi.com,CA,Americas,Northern America,Canada,Ontario,,Toronto
5.149.253.41,4,-52740406,allofmp3.com,CA,Americas,Northern America,Canada,Ontario,,Toronto
192.250.237.39,4,-1,allweatherriders.com,CA,Americas,Northern America,Canada,Ontario,,Toronto
64.34.65.20,4,123,alphaouest.ca,CA,Americas,Northern America,Canada,Ontario,,Toronto
64.34.72.8,4,-2,alz.to,CA,Americas,Northern America,Canada,Ontario,,Toronto
139.177.199.205,4,10,amazingbridalshowers.com,CA,Americas,Northern America,Canada,Ontario,,Toronto
159.203.32.250,4,5,amputeesplace.com,CA,Americas,Northern America,Canada,Ontario,,Toronto
139.177.199.201,4,9,anarchymoney.com,CA,Americas,Northern America,Canada,Ontario,,Toronto
192.250.237.125,4,7,angryasianman.com,CA,Americas,Northern America,Canada,Ontario,,Toronto
159.203.25.135,4,56,annickpress.com,CA,Americas,Northern America,Canada,Ontario,,Toronto
172.81.183.85,4,37,antikforever.com,CA,Americas,Northern America,Canada,Ontario,,Toronto
167.99.179.49,4,17,anuko.com,CA,Americas,Northern America,Canada,Ontario,,Toronto
172.105.20.198,4,4,apparentsoft.com,CA,Americas,Northern America,Canada,Ontario,,Toronto
103.26.141.68,4,11,armadaassets.com.au,CA,Americas,Northern America,Canada,Ontario,,Toronto
138.197.157.82,4,12,arsenalpulp.com,CA,Americas,Northern America,Canada,Ontario,,Toronto
159.203.18.93,4,1687851,asteriskdocs.org,CA,Americas,Northern America,Canada,Ontario,,Toronto
103.26.143.223,4,6,audiria.com,CA,Americas,Northern America,Canada,Ontario,,Toronto
208.79.218.194,4,6,australiaunwrapped.com,CA,Americas,Northern America,Canada,Ontario,,Toronto
142.93.147.40,4,7,avisodeprivacidad.info,CA,Americas,Northern America,Canada,Ontario,,Toronto
172.105.21.143,4,13,aworldglobalnews.com,CA,Americas,Northern America,Canada,Ontario,,Toronto
69.42.58.99,4,-10,backcountryskiingcanada.com,CA,Americas,Northern America,Canada,Ontario,,Toronto
192.250.237.151,4,-3,bannedthought.net,CA,Americas,Northern America,Canada,Ontario,,Toronto
45.56.217.54,4,37,batashoemuseum.ca,CA,Americas,Northern America,Canada,Ontario,,Toronto
172.96.178.186,4,7,bay12games.com,CA,Americas,Northern America,Canada,Ontario,,Toronto
216.7.90.28,4,4,bayobserver.ca,CA,Americas,Northern America,Canada,Ontario,,Toronto
142.93.154.44,4,5,bcpharmacy.ca,CA,Americas,Northern America,Canada,Ontario,,Toronto
159.203.45.239,4,31,bddiesel.com,CA,Americas,Northern America,Canada,Ontario,,Toronto
96.45.195.6,4,26,beanfield.com,CA,Americas,Northern America,Canada,Ontario,,Toronto
70.50.36.156,4,42,beatnikpad.com,CA,Americas,Northern America,Canada,Ontario,,Toronto
45.114.226.59,4,13,beechwoodottawa.ca,CA,Americas,Northern America,Canada,Ontario,,Toronto
172.105.11.234,4,4,benroproperties.com,CA,Americas,Northern America,Canada,Ontario,,Toronto
159.203.54.99,4,9,biblioottawalibrary.ca,CA,Americas,Northern America,Canada,Ontario,,Toronto
139.177.195.201,4,3,biographi.ca,CA,Americas,Northern America,Canada,Ontario,,Toronto
64.34.156.157,4,1,biroco.com,CA,Americas,Northern America,Canada,Ontario,,Toronto
178.128.239.245,4,9,birthdayinabox.com,CA,Americas,Northern America,Canada,Ontario,,Toronto
170.187.181.152,4,7,biztechpost.com,CA,Americas,Northern America,Canada,Ontario,,Toronto
172.105.97.75,4,7,bkgm.com,CA,Americas,Northern America,Canada,Ontario,,Toronto
192.46.222.68,4,4,blackentrepreneurprofile.com,CA,Americas,Northern America,Canada,Ontario,,Toronto
69.90.141.33,4,9,blazebayley.net,CA,Americas,Northern America,Canada,Ontario,,Toronto
208.89.50.202,4,10,blockchain-revolution.com,CA,Americas,Northern America,Canada,Ontario,,Toronto
65.39.133.125,4,-22,blueworld.com,CA,Americas,Northern America,Canada,Ontario,,Toronto
172.96.178.167,4,6,boattraining.com,CA,Americas,Northern America,Canada,Ontario,,Toronto
172.81.183.122,4,2,bordel.wtf,CA,Americas,Northern America,Canada,Ontario,,Toronto
159.203.7.81,4,5,bowtiephotography.ca,CA,Americas,Northern America,Canada,Ontario,,Toronto
159.203.16.14,4,27,brandsnag.com,CA,Americas,Northern America,Canada,Ontario,,Toronto
216.7.89.18,4,5,briercrest.ca,CA,Americas,Northern America,Canada,Ontario,,Toronto
143.110.221.118,4,1,brightweavings.com,CA,Americas,Northern America,Canada,Ontario,,Toronto
174.138.113.73,4,1,britishcolumbiagolf.org,CA,Americas,Northern America,Canada,Ontario,,Toronto
209.15.205.190,4,2,bttr.im,CA,Americas,Northern America,Canada,Ontario,,Toronto
155.138.130.221,4,65,burrowingowlwine.ca,CA,Americas,Northern America,Canada,Ontario,,Toronto
198.255.89.8,4,3,busr.ag,CA,Americas,Northern America,Canada,Ontario,,Toronto
165.227.40.236,4,6,bvcentre.ca,CA,Americas,Northern America,Canada,Ontario,,Toronto
159.203.0.188,4,17,ca.org,CA,Americas,Northern America,Canada,Ontario,,Toronto
192.46.223.150,4,798,cabotlinks.com,CA,Americas,Northern America,Canada,Ontario,,Toronto
45.56.219.253,4,9,cabsfromheathrow.com,CA,Americas,Northern America,Canada,Ontario,,Toronto
172.96.178.12,4,18,cafecampagne.com,CA,Americas,Northern America,Canada,Ontario,,Toronto
143.198.33.190,4,6,caitlinpress.com,CA,Americas,Northern America,Canada,Ontario,,Toronto
172.96.179.116,4,10,calawaypark.com,CA,Americas,Northern America,Canada,Ontario,,Toronto
199.103.62.8,4,25,canadaguaranty.ca,CA,Americas,Northern America,Canada,Ontario,,Toronto
107.6.27.197,4,18,canadianaudiologist.ca,CA,Americas,Northern America,Canada,Ontario,,Toronto
64.34.70.141,4,524,canadianautowreckers.ca,CA,Americas,Northern America,Canada,Ontario,,Toronto
172.96.179.247,4,7,canadianbeats.ca,CA,Americas,Northern America,Canada,Ontario,,Toronto
199.83.241.213,4,26,canadiancharitylaw.ca,CA,Americas,Northern America,Canada,Ontario,,Toronto
159.203.29.216,4,2,canadiancrimestoppers.org,CA,Americas,Northern America,Canada,Ontario,,Toronto
139.177.193.106,4,9,canadianmennonite.org,CA,Americas,Northern America,Canada,Ontario,,Toronto
174.138.114.160,4,21,canadiansocialresearch.net,CA,Americas,Northern America,Canada,Ontario,,Toronto
45.114.225.121,4,4,canfar.com,CA,Americas,Northern America,Canada,Ontario,,Toronto
65.39.193.20,4,14,canoe.org.au,CA,Americas,Northern America,Canada,Ontario,,Toronto
64.34.221.231,4,4,canopytower.com,CA,Americas,Northern America,Canada,Ontario,,Toronto
138.197.153.44,4,14,carbonfacesocial.org,CA,Americas,Northern America,Canada,Ontario,,Toronto
72.14.155.163,4,3,caribbeannewsglobal.com,CA,Americas,Northern America,Canada,Ontario,,Toronto
45.114.227.146,4,8,carverinnovationcenter.com,CA,Americas,Northern America,Canada,Ontario,,Toronto
172.105.5.40,4,4,casinoreports.ca,CA,Americas,Northern America,Canada,Ontario,,Toronto
159.203.10.129,4,19,casinosblockchain.io,CA,Americas,Northern America,Canada,Ontario,,Toronto
45.114.227.223,4,2,casinosincanada.com,CA,Americas,Northern America,Canada,Ontario,,Toronto
23.111.69.162,4,7,casn.ca,CA,Americas,Northern America,Canada,Ontario,,Toronto
159.203.54.251,4,48,cbdc.ca,CA,Americas,Northern America,Canada,Ontario,,Toronto
147.182.155.34,4,1,cchl-ccls.ca,CA,Americas,Northern America,Canada,Ontario,,Toronto
138.197.174.198,4,1,ccsa.ca,CA,Americas,Northern America,Canada,Ontario,,Toronto
138.197.136.72,4,20,cedarbureau.org,CA,Americas,Northern America,Canada,Ontario,,Toronto
137.184.168.241,4,7,cedinci.org,CA,Americas,Northern America,Canada,Ontario,,Toronto
159.89.115.187,4,41,cellcarta.com,CA,Americas,Northern America,Canada,Ontario,,Toronto
103.26.141.223,4,23,centertrt.org,CA,Americas,Northern America,Canada,Ontario,,Toronto
67.223.101.61,4,7,changedetection.io,CA,Americas,Northern America,Canada,Ontario,,Toronto
143.110.212.200,4,10,charmsville.com,CA,Americas,Northern America,Canada,Ontario,,Toronto
159.203.20.68,4,7,chbooks.com,CA,Americas,Northern America,Canada,Ontario,,Toronto
142.93.151.211,4,26,chezmaya.com,CA,Americas,Northern America,Canada,Ontario,,Toronto
199.83.241.185,4,3,chiropractic.ca,CA,Americas,Northern America,Canada,Ontario,,Toronto
69.90.66.100,4,-11,christinedemerchant.com,CA,Americas,Northern America,Canada,Ontario,,Toronto
192.250.237.49,4,13,cips.ca,CA,Americas,Northern America,Canada,Ontario,,Toronto
45.56.222.235,4,7,citizenshipinvestment.org,CA,Americas,Northern America,Canada,Ontario,,Toronto
45.114.224.129,4,6,cityfarmer.org,CA,Americas,Northern America,Canada,Ontario,,Toronto
134.122.32.43,4,38,civicaction.ca,CA,Americas,Northern America,Canada,Ontario,,Toronto
172.105.97.132,4,11,ckut.ca,CA,Americas,Northern America,Canada,Ontario,,Toronto
66.102.133.116,4,25,clairerolo.com,CA,Americas,Northern America,Canada,Ontario,,Toronto
45.56.220.28,4,4,classicsdujour.com,CA,Americas,Northern America,Canada,Ontario,,Toronto
143.110.208.221,4,14,clevelandhistorical.org,CA,Americas,Northern America,Canada,Ontario,,Toronto
64.34.75.146,4,5,clubtroppo.com.au,CA,Americas,Northern America,Canada,Ontario,,Toronto
70.33.246.91,4,0,cmca.org.au,CA,Americas,Northern America,Canada,Ontario,,Toronto
192.53.121.175,4,3,cmcelectronics.ca,CA,Americas,Northern America,Canada,Ontario,,Toronto
142.93.156.79,4,1,coach.ca,CA,Americas,Northern America,Canada,Ontario,,Toronto
66.22.26.110,4,6,cogeco.ca,CA,Americas,Northern America,Canada,Ontario,,Toronto
34.130.61.140,4,5,collorastudios.com,CA,Americas,Northern America,Canada,Ontario,,Toronto
159.89.127.61,4,60,comfortclean.com,CA,Americas,Northern America,Canada,Ontario,,Toronto
172.105.102.151,4,2,commonword.ca,CA,Americas,Northern America,Canada,Ontario,,Toronto
192.250.237.65,4,11,communityassociations.net,CA,Americas,Northern America,Canada,Ontario,,Toronto
45.56.220.132,4,27,compasshealthcenter.net,CA,Americas,Northern America,Canada,Ontario,,Toronto
208.79.219.147,4,42,concrobium.com,CA,Americas,Northern America,Canada,Ontario,,Toronto
45.56.220.25,4,7,conseils-thermiques.org,CA,Americas,Northern America,Canada,Ontario,,Toronto
159.203.11.255,4,27,corecodec.com,CA,Americas,Northern America,Canada,Ontario,,Toronto
159.203.40.197,4,2,coupdecoeur.ca,CA,Americas,Northern America,Canada,Ontario,,Toronto
45.114.227.15,4,8,cpcgroup.ca,CA,Americas,Northern America,Canada,Ontario,,Toronto
143.198.39.95,4,4,crawfordco.org,CA,Americas,Northern America,Canada,Ontario,,Toronto
159.89.118.99,4,6,cruciverb.com,CA,Americas,Northern America,Canada,Ontario,,Toronto
159.89.119.96,4,8,csae.com,CA,Americas,Northern America,Canada,Ontario,,Toronto
199.103.63.50,4,-1,csc-dcc.ca,CA,Americas,Northern America,Canada,Ontario,,Toronto
104.245.201.102,4,6,csfs.ca,CA,Americas,Northern America,Canada,Ontario,,Toronto
139.177.199.203,4,92,cultureforum.net,CA,Americas,Northern America,Canada,Ontario,,Toronto
143.198.36.2,4,3,cumberland-village.com,CA,Americas,Northern America,Canada,Ontario,,Toronto
209.15.236.146,4,-4,curlingzone.com,CA,Americas,Northern America,Canada,Ontario,,Toronto
45.56.219.20,4,7,customerservicemanager.com,CA,Americas,Northern America,Canada,Ontario,,Toronto
192.250.237.58,4,8,cwreenactors.com,CA,Americas,Northern America,Canada,Ontario,,Toronto
142.93.148.238,4,6,cwrp.ca,CA,Americas,Northern America,Canada,Ontario,,Toronto
159.203.10.254,4,1,dailyobjectivist.com,CA,Americas,Northern America,Canada,Ontario,,Toronto
138.197.149.84,4,8,dansedanse.ca,CA,Americas,Northern America,Canada,Ontario,,Toronto
155.138.130.206,4,1,darwinsys.com,CA,Americas,Northern America,Canada,Ontario,,Toronto
149.248.54.169,4,22,datingsitesreviews.com,CA,Americas,Northern America,Canada,Ontario,,Toronto
139.177.199.190,4,81,debteasyhelp.com,CA,Americas,Northern America,Canada,Ontario,,Toronto
142.93.150.134,4,103,decourbaine.com,CA,Americas,Northern America,Canada,Ontario,,Toronto
65.39.133.31,4,-185,dentistportperry.com,CA,Americas,Northern America,Canada,Ontario,,Toronto
170.187.194.164,4,65612,dictionaryofarchitectsincanada.org,CA,Americas,Northern America,Canada,Ontario,,Toronto
216.7.91.167,4,40,diotima-doctafemina.org,CA,Americas,Northern America,Canada,Ontario,,Toronto
134.122.42.241,4,13,disarraygun.com,CA,Americas,Northern America,Canada,Ontario,,Toronto
159.203.27.31,4,41,discjockeymusicsupply.com,CA,Americas,Northern America,Canada,Ontario,,Toronto
172.96.178.141,4,6,distresscentre.com,CA,Americas,Northern America,Canada,Ontario,,Toronto
143.198.36.151,4,6,djmohtorious.com,CA,Americas,Northern America,Canada,Ontario,,Toronto
155.138.147.59,4,-4,dn.ca,CA,Americas,Northern America,Canada,Ontario,,Toronto
155.138.133.103,4,147,DNS Server: 155.138.133.103.vultrusercontent.com,CA,Americas,Northern America,Canada,Ontario,,Toronto
159.203.0.135,4,180,DNS Server: bacon.wafflecat.com,CA,Americas,Northern America,Canada,Ontario,,Toronto
91.194.11.222,4,22,DNS Server: caw.info,CA,Americas,Northern America,Canada,Ontario,,Toronto
172.105.8.42,4,347,DNS Server: li1962-42.members.linode.com,CA,Americas,Northern America,Canada,Ontario,,Toronto
172.105.14.197,4,326,DNS Server: li1969-197.members.linode.com,CA,Americas,Northern America,Canada,Ontario,,Toronto
208.89.50.204,4,20,dontapscott.com,CA,Americas,Northern America,Canada,Ontario,,Toronto
159.203.7.146,4,72,doriantaylor.com,CA,Americas,Northern America,Canada,Ontario,,Toronto
192.53.121.89,4,20,downtownfitnessclub.com,CA,Americas,Northern America,Canada,Ontario,,Toronto
68.183.197.44,4,7,drifttravel.com,CA,Americas,Northern America,Canada,Ontario,,Toronto
143.110.212.198,4,11,dubaudi.com,CA,Americas,Northern America,Canada,Ontario,,Toronto
172.105.12.164,4,71,dvcrequest.com,CA,Americas,Northern America,Canada,Ontario,,Toronto
216.7.90.139,4,9,easna.org,CA,Americas,Northern America,Canada,Ontario,,Toronto
23.111.69.47,4,855,economik.com,CA,Americas,Northern America,Canada,Ontario,,Toronto
172.96.179.164,4,6,ecotourism.org,CA,Americas,Northern America,Canada,Ontario,,Toronto
192.250.237.62,4,7,edwardwillett.com,CA,Americas,Northern America,Canada,Ontario,,Toronto
172.96.176.109,4,40,elliottwave-forecast.com,CA,Americas,Northern America,Canada,Ontario,,Toronto
178.128.233.211,4,5,emugaming.com,CA,Americas,Northern America,Canada,Ontario,,Toronto
45.56.223.138,4,18,enepe.fr,CA,Americas,Northern America,Canada,Ontario,,Toronto
45.114.226.58,4,7,ergocanada.com,CA,Americas,Northern America,Canada,Ontario,,Toronto
146.190.252.68,4,7,espresso-jobs.com,CA,Americas,Northern America,Canada,Ontario,,Toronto
159.203.15.159,4,976,eucalan.com,CA,Americas,Northern America,Canada,Ontario,,Toronto
45.114.224.161,4,14,evolution-101.com,CA,Americas,Northern America,Canada,Ontario,,Toronto
199.27.180.164,4,12,evolution-control.com,CA,Americas,Northern America,Canada,Ontario,,Toronto
76.9.213.155,4,-1,evony.com,CA,Americas,Northern America,Canada,Ontario,,Toronto
34.130.219.88,4,4,explorethebruce.com,CA,Americas,Northern America,Canada,Ontario,,Toronto
172.96.176.83,4,88,fairmountbagel.com,CA,Americas,Northern America,Canada,Ontario,,Toronto
107.155.98.109,4,-3,ferbena.com,CA,Americas,Northern America,Canada,Ontario,,Toronto
38.117.80.196,4,4,filexoom.com,CA,Americas,Northern America,Canada,Ontario,,Toronto
143.110.212.199,4,5,financiarul.com,CA,Americas,Northern America,Canada,Ontario,,Toronto
172.105.106.222,4,4,fissionclassifieds.com,CA,Americas,Northern America,Canada,Ontario,,Toronto
158.106.106.39,4,8,flightnetwork.com,CA,Americas,Northern America,Canada,Ontario,,Toronto
159.203.45.138,4,25,flutetunes.com,CA,Americas,Northern America,Canada,Ontario,,Toronto
76.74.235.160,4,14,fondation-du-rein.org,CA,Americas,Northern America,Canada,Ontario,,Toronto
66.102.132.177,4,5,forestalumina.com,CA,Americas,Northern America,Canada,Ontario,,Toronto
159.89.117.216,4,14,forestsontario.ca,CA,Americas,Northern America,Canada,Ontario,,Toronto
134.122.32.234,4,7,fortunehealthcarepharmacy.com,CA,Americas,Northern America,Canada,Ontario,,Toronto
103.26.141.9,4,4,fortyork.ca,CA,Americas,Northern America,Canada,Ontario,,Toronto
172.105.19.25,4,4,free-culture.org,CA,Americas,Northern America,Canada,Ontario,,Toronto
216.7.90.254,4,16,frippwarehousing.com,CA,Americas,Northern America,Canada,Ontario,,Toronto
159.203.14.13,4,14,frumforum.com,CA,Americas,Northern America,Canada,Ontario,,Toronto
170.187.192.167,4,8,gameo.org,CA,Americas,Northern America,Canada,Ontario,,Toronto
192.250.237.55,4,5,gameusedcards.com,CA,Americas,Northern America,Canada,Ontario,,Toronto
192.250.237.57,4,4,gamji.com,CA,Americas,Northern America,Canada,Ontario,,Toronto
138.197.175.33,4,3,garantiegcr.com,CA,Americas,Northern America,Canada,Ontario,,Toronto
172.105.106.99,4,39,genericcure.net,CA,Americas,Northern America,Canada,Ontario,,Toronto
172.105.6.15,4,47,geobon.org,CA,Americas,Northern America,Canada,Ontario,,Toronto
138.197.154.93,4,72,georgianicols.com,CA,Americas,Northern America,Canada,Ontario,,Toronto
174.138.112.20,4,4,gettinglost.ca,CA,Americas,Northern America,Canada,Ontario,,Toronto
216.220.54.30,4,11,gfo.ca,CA,Americas,Northern America,Canada,Ontario,,Toronto
45.56.222.124,4,28,giveplasma.ca,CA,Americas,Northern America,Canada,Ontario,,Toronto
159.203.61.247,4,14,glaceon.social,CA,Americas,Northern America,Canada,Ontario,,Toronto
172.105.25.199,4,2,glamourhome.com,CA,Americas,Northern America,Canada,Ontario,,Toronto
64.34.156.161,4,-6,goeasylist.com,CA,Americas,Northern America,Canada,Ontario,,Toronto
69.90.66.130,4,17,goldenrice.org,CA,Americas,Northern America,Canada,Ontario,,Toronto
45.56.216.86,4,7,groupebgfibank.com,CA,Americas,Northern America,Canada,Ontario,,Toronto
216.128.183.67,4,1,growmemarketing.ca,CA,Americas,Northern America,Canada,Ontario,,Toronto
146.190.188.201,4,4,gtfs.org,CA,Americas,Northern America,Canada,Ontario,,Toronto
69.90.223.165,4,39,gutenberg.ca,CA,Americas,Northern America,Canada,Ontario,,Toronto
103.26.140.251,4,5,gutsmagazine.ca,CA,Americas,Northern America,Canada,Ontario,,Toronto
69.172.239.150,4,29,hastings1066.com,CA,Americas,Northern America,Canada,Ontario,,Toronto
138.113.101.15,4,5,heron-metal.com,CA,Americas,Northern America,Canada,Ontario,,Toronto
45.114.226.158,4,4,hispanicaccess.org,CA,Americas,Northern America,Canada,Ontario,,Toronto
143.198.40.224,4,18,hockeygods.com,CA,Americas,Northern America,Canada,Ontario,,Toronto
34.130.148.27,4,5,hollerwp.com,CA,Americas,Northern America,Canada,Ontario,,Toronto
167.99.177.186,4,9,hollywoodsuite.ca,CA,Americas,Northern America,Canada,Ontario,,Toronto
134.122.43.154,4,39,holmesagro.com,CA,Americas,Northern America,Canada,Ontario,,Toronto
172.105.3.98,4,9,home-decor-online.com,CA,Americas,Northern America,Canada,Ontario,,Toronto
172.105.23.69,4,16,homerenovationtipsandtricks.com,CA,Americas,Northern America,Canada,Ontario,,Toronto
172.105.20.72,4,11,hometowncolorado.org,CA,Americas,Northern America,Canada,Ontario,,Toronto
64.202.124.114,4,7,hometrust.ca,CA,Americas,Northern America,Canada,Ontario,,Toronto
5.149.252.34,4,0,hostzealot.com,CA,Americas,Northern America,Canada,Ontario,,Toronto
159.89.113.249,4,12,housesigma.com,CA,Americas,Northern America,Canada,Ontario,,Toronto
103.26.141.217,4,6,humanmedia.org,CA,Americas,Northern America,Canada,Ontario,,Toronto
45.56.223.213,4,3,hurqalya.org,CA,Americas,Northern America,Canada,Ontario,,Toronto
172.105.19.218,4,202,hydrostor.ca,CA,Americas,Northern America,Canada,Ontario,,Toronto
66.207.202.242,4,15,i4i.com,CA,Americas,Northern America,Canada,Ontario,,Toronto
64.34.156.148,4,-1,ianchadwick.com,CA,Americas,Northern America,Canada,Ontario,,Toronto
45.114.226.71,4,24,ieng.tech,CA,Americas,Northern America,Canada,Ontario,,Toronto
159.203.23.59,4,7,ih8sn0w.com,CA,Americas,Northern America,Canada,Ontario,,Toronto
157.230.70.240,4,1,ijc.org,CA,Americas,Northern America,Canada,Ontario,,Toronto
170.187.183.70,4,37,inclue.com,CA,Americas,Northern America,Canada,Ontario,,Toronto
107.155.98.108,4,37,infowarrior.org,CA,Americas,Northern America,Canada,Ontario,,Toronto
45.56.222.241,4,5,inkwellideas.com,CA,Americas,Northern America,Canada,Ontario,,Toronto
138.197.135.146,4,874167,insureye.com,CA,Americas,Northern America,Canada,Ontario,,Toronto
172.105.27.166,4,9,intelivita.com,CA,Americas,Northern America,Canada,Ontario,,Toronto
107.6.27.185,4,-84003,interaccess.org,CA,Americas,Northern America,Canada,Ontario,,Toronto
142.93.156.94,4,4,interviewfor.red,CA,Americas,Northern America,Canada,Ontario,,Toronto
103.26.142.203,4,22,investontario.ca,CA,Americas,Northern America,Canada,Ontario,,Toronto
134.122.35.243,4,1,iogen.ca,CA,Americas,Northern America,Canada,Ontario,,Toronto
172.96.176.157,4,8,irises.org,CA,Americas,Northern America,Canada,Ontario,,Toronto
66.199.141.100,4,-5,iubmb.org,CA,Americas,Northern America,Canada,Ontario,,Toronto
159.89.116.121,4,14,jackosx.com,CA,Americas,Northern America,Canada,Ontario,,Toronto
104.248.104.95,4,6,jcda.ca,CA,Americas,Northern America,Canada,Ontario,,Toronto
69.172.239.145,4,-2,jgballard.ca,CA,Americas,Northern America,Canada,Ontario,,Toronto
192.250.237.64,4,-1,johnbatchelorshow.com,CA,Americas,Northern America,Canada,Ontario,,Toronto
45.56.219.207,4,3,joshshipp.com,CA,Americas,Northern America,Canada,Ontario,,Toronto
66.207.211.119,4,8,jumptools.com,CA,Americas,Northern America,Canada,Ontario,,Toronto
45.56.223.123,4,5,justherecreating.com,CA,Americas,Northern America,Canada,Ontario,,Toronto
192.250.237.6,4,-5,kaapc.com,CA,Americas,Northern America,Canada,Ontario,,Toronto
107.155.98.107,4,36,katespadeshandbags.us,CA,Americas,Northern America,Canada,Ontario,,Toronto
68.183.192.202,4,6,kentchiromed.com,CA,Americas,Northern America,Canada,Ontario,,Toronto
172.105.8.187,4,6,kidsandcompany.com,CA,Americas,Northern America,Canada,Ontario,,Toronto
23.111.71.41,4,70,kidsportcanada.ca,CA,Americas,Northern America,Canada,Ontario,,Toronto
134.122.33.159,4,3,killertestimonials.com,CA,Americas,Northern America,Canada,Ontario,,Toronto
155.138.148.68,4,0,kwizcom.com,CA,Americas,Northern America,Canada,Ontario,,Toronto
38.111.114.211,4,6,lacc.gov.lr,CA,Americas,Northern America,Canada,Ontario,,Toronto
66.102.128.31,4,6,lacis.com,CA,Americas,Northern America,Canada,Ontario,,Toronto
159.203.47.79,4,10,lambertetfils.com,CA,Americas,Northern America,Canada,Ontario,,Toronto
159.203.54.83,4,3,landscapeontario.com,CA,Americas,Northern America,Canada,Ontario,,Toronto
140.238.137.63,4,10,language.ca,CA,Americas,Northern America,Canada,Ontario,,Toronto
38.111.114.11,4,17,languages-study.com,CA,Americas,Northern America,Canada,Ontario,,Toronto
69.42.58.119,4,1775,languagescanada.ca,CA,Americas,Northern America,Canada,Ontario,,Toronto
64.34.221.19,4,39,lassosoft.com,CA,Americas,Northern America,Canada,Ontario,,Toronto
67.21.146.68,4,3,lavalife.com,CA,Americas,Northern America,Canada,Ontario,,Toronto
139.177.199.202,4,8,legalnewsletter.info,CA,Americas,Northern America,Canada,Ontario,,Toronto
192.250.237.72,4,37,lemurconservationnetwork.org,CA,Americas,Northern America,Canada,Ontario,,Toronto
162.248.221.212,4,4,letoverlambda.com,CA,Americas,Northern America,Canada,Ontario,,Toronto
45.56.217.242,4,16,levalet.com,CA,Americas,Northern America,Canada,Ontario,,Toronto
143.110.211.198,4,5,lexum.com,CA,Americas,Northern America,Canada,Ontario,,Toronto
66.102.142.15,4,7,lfchosting.com,CA,Americas,Northern America,Canada,Ontario,,Toronto
206.248.146.231,4,3,lifewater.ca,CA,Americas,Northern America,Canada,Ontario,,Toronto
167.99.189.146,4,24,lift.co,CA,Americas,Northern America,Canada,Ontario,,Toronto
23.205.255.161,4,32,lightstream.com,CA,Americas,Northern America,Canada,Ontario,,Toronto
23.205.255.142,4,-3,lightstream.com,CA,Americas,Northern America,Canada,Ontario,,Toronto
45.56.218.39,4,747,linuxfreedom.com,CA,Americas,Northern America,Canada,Ontario,,Toronto
178.128.224.189,4,28,livinghistoryworldwide.com,CA,Americas,Northern America,Canada,Ontario,,Toronto
45.56.221.202,4,29,locavore.scot,CA,Americas,Northern America,Canada,Ontario,,Toronto
159.203.15.211,4,-25,loranscholar.ca,CA,Americas,Northern America,Canada,Ontario,,Toronto
172.105.96.201,4,76027,lozano-hemmer.com,CA,Americas,Northern America,Canada,Ontario,,Toronto
70.52.163.217,4,18,lucifer.com,CA,Americas,Northern America,Canada,Ontario,,Toronto
209.162.253.182,4,57,maestronet.com,CA,Americas,Northern America,Canada,Ontario,,Toronto
170.187.181.208,4,228,maestropms.com,CA,Americas,Northern America,Canada,Ontario,,Toronto
172.105.14.41,4,34,magellan.aero,CA,Americas,Northern America,Canada,Ontario,,Toronto
142.93.148.185,4,0,magnet.today,CA,Americas,Northern America,Canada,Ontario,,Toronto
155.138.128.113,4,-4,mamamommymom.com,CA,Americas,Northern America,Canada,Ontario,,Toronto
45.56.219.192,4,36,marathoninvestigation.com,CA,Americas,Northern America,Canada,Ontario,,Toronto
192.53.121.237,4,11,marineornithology.org,CA,Americas,Northern America,Canada,Ontario,,Toronto
190.102.106.138,4,20,math-drills.com,CA,Americas,Northern America,Canada,Ontario,,Toronto
192.250.237.56,4,1,maxlamb.org,CA,Americas,Northern America,Canada,Ontario,,Toronto
198.44.140.76,4,6,mediatomb.cc,CA,Americas,Northern America,Canada,Ontario,,Toronto
159.203.27.47,4,38,medicago.com,CA,Americas,Northern America,Canada,Ontario,,Toronto
64.34.67.230,4,41,megacashforcars.ca,CA,Americas,Northern America,Canada,Ontario,,Toronto
172.96.179.59,4,30,menhavingbabies.org,CA,Americas,Northern America,Canada,Ontario,,Toronto
172.105.17.86,4,4,mennonitechurch.ca,CA,Americas,Northern America,Canada,Ontario,,Toronto
192.53.122.214,4,3,metal-rules.com,CA,Americas,Northern America,Canada,Ontario,,Toronto
159.203.24.168,4,11,micheldebroin.org,CA,Americas,Northern America,Canada,Ontario,,Toronto
142.93.153.57,4,30,michigantrailmaps.com,CA,Americas,Northern America,Canada,Ontario,,Toronto
104.245.201.220,4,39,micklinlawgroup.com,CA,Americas,Northern America,Canada,Ontario,,Toronto
199.103.60.196,4,8,mightygodking.com,CA,Americas,Northern America,Canada,Ontario,,Toronto
138.197.143.147,4,7,milesopedia.com,CA,Americas,Northern America,Canada,Ontario,,Toronto
103.26.143.230,4,3,miovision.com,CA,Americas,Northern America,Canada,Ontario,,Toronto
192.250.237.63,4,-4,modernhaiku.org,CA,Americas,Northern America,Canada,Ontario,,Toronto
159.89.115.47,4,51,modernstoicism.com,CA,Americas,Northern America,Canada,Ontario,,Toronto
172.105.10.110,4,31,montrealcomiccon.com,CA,Americas,Northern America,Canada,Ontario,,Toronto
5.149.253.34,4,-52740457,mp3sparks.com,CA,Americas,Northern America,Canada,Ontario,,Toronto
103.26.140.100,4,7,mprcenter.org,CA,Americas,Northern America,Canada,Ontario,,Toronto
68.183.205.98,4,1,mricon.com,CA,Americas,Northern America,Canada,Ontario,,Toronto
138.197.134.199,4,9,mrmikes.ca,CA,Americas,Northern America,Canada,Ontario,,Toronto
69.90.66.90,4,295,mundoauditivo.com,CA,Americas,Northern America,Canada,Ontario,,Toronto
64.34.68.60,4,-4,muturzikin.com,CA,Americas,Northern America,Canada,Ontario,,Toronto
64.34.75.150,4,12,mypathologyreport.ca,CA,Americas,Northern America,Canada,Ontario,,Toronto
65.39.193.32,4,-4,naisa.ca,CA,Americas,Northern America,Canada,Ontario,,Toronto
45.114.225.94,4,4,napcor.com,CA,Americas,Northern America,Canada,Ontario,,Toronto
34.130.4.141,4,28,netify.ai,CA,Americas,Northern America,Canada,Ontario,,Toronto
139.177.199.206,4,2,new-era-homes.com,CA,Americas,Northern America,Canada,Ontario,,Toronto
192.53.121.55,4,83,newshealth.net,CA,Americas,Northern America,Canada,Ontario,,Toronto
45.114.227.124,4,9,newventuresbc.com,CA,Americas,Northern America,Canada,Ontario,,Toronto
103.26.142.97,4,17,nextrex.com,CA,Americas,Northern America,Canada,Ontario,,Toronto
192.250.237.71,4,5,nicolayoon.com,CA,Americas,Northern America,Canada,Ontario,,Toronto
172.105.99.232,4,10,nitroshare.net,CA,Americas,Northern America,Canada,Ontario,,Toronto
66.22.26.199,4,5,njoyn.com,CA,Americas,Northern America,Canada,Ontario,,Toronto
143.110.212.197,4,5,northcountypoolsupply.com,CA,Americas,Northern America,Canada,Ontario,,Toronto
64.34.75.151,4,370,novascotiabusiness.com,CA,Americas,Northern America,Canada,Ontario,,Toronto
172.81.177.179,4,6,nuclearfaq.ca,CA,Americas,Northern America,Canada,Ontario,,Toronto
172.105.6.167,4,18,nwchem-sw.org,CA,Americas,Northern America,Canada,Ontario,,Toronto
64.34.67.250,4,-1,nyesigiso-mali.org,CA,Americas,Northern America,Canada,Ontario,,Toronto
104.245.201.38,4,51,observatoriodeconflictos.org.ve,CA,Americas,Northern America,Canada,Ontario,,Toronto
172.98.72.144,4,-2,oc.org,CA,Americas,Northern America,Canada,Ontario,,Toronto
199.27.180.73,4,25,off.net,CA,Americas,Northern America,Canada,Ontario,,Toronto
66.102.133.37,4,139,onlinebible.net,CA,Americas,Northern America,Canada,Ontario,,Toronto
199.103.61.47,4,-3,ontariolivingwage.ca,CA,Americas,Northern America,Canada,Ontario,,Toronto
159.203.38.81,4,4,ontariomidwives.ca,CA,Americas,Northern America,Canada,Ontario,,Toronto
216.7.90.89,4,6,ontariomortgagesuperstore.com,CA,Americas,Northern America,Canada,Ontario,,Toronto
159.203.54.127,4,7,ontarioplanners.ca,CA,Americas,Northern America,Canada,Ontario,,Toronto
198.255.86.4,4,161,Ookla Speedtest Server 9911: lg-tor.fdcservers.net,CA,Americas,Northern America,Canada,Ontario,,Toronto
170.39.230.156,4,339,Ookla Speedtest Server 38242: spdtst.xenyth.net,CA,Americas,Northern America,Canada,Ontario,,Toronto
162.253.128.66,4,24,opednews.com,CA,Americas,Northern America,Canada,Ontario,,Toronto
107.6.27.55,4,0,open-book.ca,CA,Americas,Northern America,Canada,Ontario,,Toronto
104.248.104.109,4,4,openbooktoronto.com,CA,Americas,Northern America,Canada,Ontario,,Toronto
199.27.180.199,4,40,openflows.org,CA,Americas,Northern America,Canada,Ontario,,Toronto
159.89.120.99,4,5,OpenNIC 1,CA,Americas,Northern America,Canada,Ontario,,Toronto
178.128.230.2,4,6,openprivacy.ca,CA,Americas,Northern America,Canada,Ontario,,Toronto
172.96.176.8,4,23,opportunityzonehub.org,CA,Americas,Northern America,Canada,Ontario,,Toronto
104.245.200.186,4,5,orcasound.com,CA,Americas,Northern America,Canada,Ontario,,Toronto
45.79.116.232,4,14,osflash.org,CA,Americas,Northern America,Canada,Ontario,,Toronto
216.7.88.122,4,6,oswegohills.com,CA,Americas,Northern America,Canada,Ontario,,Toronto
165.22.231.179,4,9,ottiaq.org,CA,Americas,Northern America,Canada,Ontario,,Toronto
103.26.143.142,4,6,ozsuper.com,CA,Americas,Northern America,Canada,Ontario,,Toronto
172.105.13.93,4,41,parkpeople.ca,CA,Americas,Northern America,Canada,Ontario,,Toronto
193.203.203.104,4,24,passcovery.com,CA,Americas,Northern America,Canada,Ontario,,Toronto
172.105.111.188,4,8,paydaylv.com,CA,Americas,Northern America,Canada,Ontario,,Toronto
172.105.11.96,4,45,peregrine-foundation.ca,CA,Americas,Northern America,Canada,Ontario,,Toronto
64.34.221.11,4,41,perfect.org,CA,Americas,Northern America,Canada,Ontario,,Toronto
159.203.46.175,4,37,personaljournal.ca,CA,Americas,Northern America,Canada,Ontario,,Toronto
45.56.221.127,4,28,photomacrography.net,CA,Americas,Northern America,Canada,Ontario,,Toronto
170.187.183.238,4,6,pillarnonprofit.ca,CA,Americas,Northern America,Canada,Ontario,,Toronto
172.105.28.5,4,67,pinnguaq.com,CA,Americas,Northern America,Canada,Ontario,,Toronto
66.102.135.202,4,9,planetfriendly.net,CA,Americas,Northern America,Canada,Ontario,,Toronto
178.128.236.230,4,9,playwrightscanada.com,CA,Americas,Northern America,Canada,Ontario,,Toronto
143.110.212.162,4,14,portageandmainpress.com,CA,Americas,Northern America,Canada,Ontario,,Toronto
209.38.8.59,4,18,positivecreations.ca,CA,Americas,Northern America,Canada,Ontario,,Toronto
69.90.66.190,4,39,positivedisintegration.com,CA,Americas,Northern America,Canada,Ontario,,Toronto
149.248.59.195,4,15,precheur.org,CA,Americas,Northern America,Canada,Ontario,,Toronto
107.155.98.92,4,45,presidential-candidates.org,CA,Americas,Northern America,Canada,Ontario,,Toronto
64.202.124.226,4,27,princeedwardisland.ca,CA,Americas,Northern America,Canada,Ontario,,Toronto
138.197.129.177,4,16,privacyfoundation.org,CA,Americas,Northern America,Canada,Ontario,,Toronto
66.102.132.118,4,103,probono-udem.ca,CA,Americas,Northern America,Canada,Ontario,,Toronto
216.235.13.26,4,78,prohost.org,CA,Americas,Northern America,Canada,Ontario,,Toronto
76.74.235.210,4,0,pycaret.org,CA,Americas,Northern America,Canada,Ontario,,Toronto
98.158.132.69,4,12,pygresql.org,CA,Americas,Northern America,Canada,Ontario,,Toronto
172.105.98.127,4,5,qcbs.ca,CA,Americas,Northern America,Canada,Ontario,,Toronto
172.105.26.201,4,3,qctonline.com,CA,Americas,Northern America,Canada,Ontario,,Toronto
45.56.216.158,4,-621,qkon.ca,CA,Americas,Northern America,Canada,Ontario,,Toronto
209.226.137.53,4,506607,qnx.com,CA,Americas,Northern America,Canada,Ontario,,Toronto
66.102.135.210,4,20,quandarygame.org,CA,Americas,Northern America,Canada,Ontario,,Toronto
172.105.29.82,4,19,quebecdanse.org,CA,Americas,Northern America,Canada,Ontario,,Toronto
159.203.15.46,4,19,quebecsolidaire.net,CA,Americas,Northern America,Canada,Ontario,,Toronto
45.56.221.27,4,19,queerbio.com,CA,Americas,Northern America,Canada,Ontario,,Toronto
45.114.224.176,4,18,quirktools.com,CA,Americas,Northern America,Canada,Ontario,,Toronto
192.250.237.69,4,6,raffinews.com,CA,Americas,Northern America,Canada,Ontario,,Toronto
172.98.77.111,4,21,rallyargentina.com,CA,Americas,Northern America,Canada,Ontario,,Toronto
147.194.32.7,4,118,reach.net,CA,Americas,Northern America,Canada,Ontario,,Toronto
45.114.226.249,4,50,realmofdarkness.net,CA,Americas,Northern America,Canada,Ontario,,Toronto
38.117.80.3,4,49,rebeladmin.com,CA,Americas,Northern America,Canada,Ontario,,Toronto
65.93.250.218,4,6,reliks.com,CA,Americas,Northern America,Canada,Ontario,,Toronto
172.96.179.240,4,21,rewardscanada.ca,CA,Americas,Northern America,Canada,Ontario,,Toronto
66.102.132.119,4,17,rfwireless-world.com,CA,Americas,Northern America,Canada,Ontario,,Toronto
199.83.241.206,4,23,rgptoronto.ca,CA,Americas,Northern America,Canada,Ontario,,Toronto
199.103.61.99,4,17,ribo.com,CA,Americas,Northern America,Canada,Ontario,,Toronto
162.219.178.146,4,5,richters.com,CA,Americas,Northern America,Canada,Ontario,,Toronto
172.105.27.37,4,14,robertfulford.com,CA,Americas,Northern America,Canada,Ontario,,Toronto
45.56.220.105,4,29,rockpapercynic.com,CA,Americas,Northern America,Canada,Ontario,,Toronto
139.177.198.128,4,32,roofingandsidingcontractorsnewsdigest.com,CA,Americas,Northern America,Canada,Ontario,,Toronto
138.197.143.207,4,36,rosenzweig.io,CA,Americas,Northern America,Canada,Ontario,,Toronto
64.34.156.159,4,12,royalark.net,CA,Americas,Northern America,Canada,Ontario,,Toronto
104.225.219.24,4,11,rpgmaker.net,CA,Americas,Northern America,Canada,Ontario,,Toronto
64.34.67.245,4,2,salmonsafe.org,CA,Americas,Northern America,Canada,Ontario,,Toronto
64.34.67.210,4,-16,sasdevelopments.com,CA,Americas,Northern America,Canada,Ontario,,Toronto
64.202.124.102,4,15,saskatchewan.ca,CA,Americas,Northern America,Canada,Ontario,,Toronto
64.202.124.16,4,43,saskjobs.ca,CA,Americas,Northern America,Canada,Ontario,,Toronto
172.105.16.186,4,2,scaleai.ca,CA,Americas,Northern America,Canada,Ontario,,Toronto
149.248.59.22,4,14,school.com,CA,Americas,Northern America,Canada,Ontario,,Toronto
172.105.11.186,4,12,secretsmassage.ca,CA,Americas,Northern America,Canada,Ontario,,Toronto
67.213.90.20,4,5,securityspace.com,CA,Americas,Northern America,Canada,Ontario,,Toronto
66.22.26.189,4,11,sedarplus.com,CA,Americas,Northern America,Canada,Ontario,,Toronto
66.22.26.19,4,21,sedi.ca,CA,Americas,Northern America,Canada,Ontario,,Toronto
172.105.4.70,4,27,seeds.ca,CA,Americas,Northern America,Canada,Ontario,,Toronto
159.203.0.164,4,15,selectbutton.net,CA,Americas,Northern America,Canada,Ontario,,Toronto
208.69.58.225,4,25,seotorontospecialists.com,CA,Americas,Northern America,Canada,Ontario,,Toronto
134.122.46.184,4,37,serveidaho.org,CA,Americas,Northern America,Canada,Ontario,,Toronto
172.96.177.29,4,4,sfplayhouse.org,CA,Americas,Northern America,Canada,Ontario,,Toronto
155.138.144.37,4,-5,shopcryptominer.com,CA,Americas,Northern America,Canada,Ontario,,Toronto
45.56.218.97,4,5,shopyourtv.com,CA,Americas,Northern America,Canada,Ontario,,Toronto
159.203.37.112,4,11,silldenafilpik.us,CA,Americas,Northern America,Canada,Ontario,,Toronto
23.162.200.183,4,7,simpsonsarchive.com,CA,Americas,Northern America,Canada,Ontario,,Toronto
64.34.65.10,4,7,sirmaskafsoxila.gr,CA,Americas,Northern America,Canada,Ontario,,Toronto
68.183.206.71,4,2,sivertimes.com,CA,Americas,Northern America,Canada,Ontario,,Toronto
139.177.195.159,4,6,skylinenewspaper.com,CA,Americas,Northern America,Canada,Ontario,,Toronto
64.34.156.160,4,0,skymaps.com,CA,Americas,Northern America,Canada,Ontario,,Toronto
165.227.37.99,4,24,slotogate.com,CA,Americas,Northern America,Canada,Ontario,,Toronto
66.102.132.195,4,41,societevegane.re,CA,Americas,Northern America,Canada,Ontario,,Toronto
107.155.98.91,4,-1,soft-ballbats.com,CA,Americas,Northern America,Canada,Ontario,,Toronto
172.105.103.214,4,18,softball.ca,CA,Americas,Northern America,Canada,Ontario,,Toronto
172.96.178.25,4,26,softbytelabs.com,CA,Americas,Northern America,Canada,Ontario,,Toronto
23.223.17.206,4,0,soho.co,CA,Americas,Northern America,Canada,Ontario,,Toronto
23.223.17.202,4,22,soho.co,CA,Americas,Northern America,Canada,Ontario,,Toronto
172.105.104.97,4,59010,spammimic.com,CA,Americas,Northern America,Canada,Ontario,,Toronto
149.248.54.138,4,27,sportfishingbc.com,CA,Americas,Northern America,Canada,Ontario,,Toronto
45.56.216.17,4,49,sportsdepot.com,CA,Americas,Northern America,Canada,Ontario,,Toronto
172.105.97.22,4,30,stevehanov.ca,CA,Americas,Northern America,Canada,Ontario,,Toronto
76.74.235.190,4,-4,stjamesminorbaseball.net,CA,Americas,Northern America,Canada,Ontario,,Toronto
66.102.133.150,4,11,stlhe.ca,CA,Americas,Northern America,Canada,Ontario,,Toronto
192.53.121.196,4,7,stormcloudsgathering.com,CA,Americas,Northern America,Canada,Ontario,,Toronto
172.105.27.23,4,3,storwell.com,CA,Americas,Northern America,Canada,Ontario,,Toronto
206.248.137.124,4,30,stuffedcow.net,CA,Americas,Northern America,Canada,Ontario,,Toronto
172.98.64.218,4,4,supind.com,CA,Americas,Northern America,Canada,Ontario,,Toronto
159.203.50.177,4,62,surge.sh,CA,Americas,Northern America,Canada,Ontario,,Toronto
138.197.131.55,4,13,sustainablebiz.ca,CA,Americas,Northern America,Canada,Ontario,,Toronto
199.103.56.80,4,-2,swimnews.com,CA,Americas,Northern America,Canada,Ontario,,Toronto
172.105.16.82,4,3,synapse.net,CA,Americas,Northern America,Canada,Ontario,,Toronto
192.53.121.51,4,46,syndigate.info,CA,Americas,Northern America,Canada,Ontario,,Toronto
167.99.186.88,4,4,tadalista.com,CA,Americas,Northern America,Canada,Ontario,,Toronto
69.90.66.10,4,20,tagg.org,CA,Americas,Northern America,Canada,Ontario,,Toronto
45.56.219.80,4,9,talentdevelop.com,CA,Americas,Northern America,Canada,Ontario,,Toronto
138.197.140.37,4,72546,tao.ca,CA,Americas,Northern America,Canada,Ontario,,Toronto
138.197.135.190,4,0,tapforms.com,CA,Americas,Northern America,Canada,Ontario,,Toronto
167.99.189.32,4,78,tc2.ca,CA,Americas,Northern America,Canada,Ontario,,Toronto
157.230.71.130,4,8,teachmag.com,CA,Americas,Northern America,Canada,Ontario,,Toronto
66.102.132.19,4,66,techaddiction.ca,CA,Americas,Northern America,Canada,Ontario,,Toronto
147.194.32.21,4,3,templarhistory.com,CA,Americas,Northern America,Canada,Ontario,,Toronto
172.105.98.217,4,3,terroiretsaveurs.com,CA,Americas,Northern America,Canada,Ontario,,Toronto
45.114.224.42,4,6,teslontario.org,CA,Americas,Northern America,Canada,Ontario,,Toronto
159.203.51.4,4,5,tetesaclaques.tv,CA,Americas,Northern America,Canada,Ontario,,Toronto
172.98.64.177,4,0,texasfishingforum.com,CA,Americas,Northern America,Canada,Ontario,,Toronto
172.98.64.173,4,0,texashuntingforum.com,CA,Americas,Northern America,Canada,Ontario,,Toronto
149.248.61.67,4,-8,the-peak.ca,CA,Americas,Northern America,Canada,Ontario,,Toronto
199.83.241.216,4,27,the-wire.com,CA,Americas,Northern America,Canada,Ontario,,Toronto
192.250.237.61,4,-4,theaterforthenewcity.net,CA,Americas,Northern America,Canada,Ontario,,Toronto
138.197.151.2,4,51,thecoachessite.com,CA,Americas,Northern America,Canada,Ontario,,Toronto
64.34.156.166,4,31,thecontinuum.ca,CA,Americas,Northern America,Canada,Ontario,,Toronto
192.250.237.115,4,-5,theexaminernews.com,CA,Americas,Northern America,Canada,Ontario,,Toronto
172.81.180.23,4,48,thefreeworldpress.com,CA,Americas,Northern America,Canada,Ontario,,Toronto
172.105.15.5,4,1113,thehiddenpages.com,CA,Americas,Northern America,Canada,Ontario,,Toronto
167.99.182.161,4,0,theicod.org,CA,Americas,Northern America,Canada,Ontario,,Toronto
45.56.219.185,4,14,theinfluenceagency.com,CA,Americas,Northern America,Canada,Ontario,,Toronto
172.105.15.243,4,31,theinterstatemovingcompanies.com,CA,Americas,Northern America,Canada,Ontario,,Toronto
172.96.176.225,4,23,thekernelbrewery.com,CA,Americas,Northern America,Canada,Ontario,,Toronto
159.203.14.9,4,11,theoldnet.com,CA,Americas,Northern America,Canada,Ontario,,Toronto
192.250.237.67,4,52,theoldrobots.com,CA,Americas,Northern America,Canada,Ontario,,Toronto
64.34.156.156,4,-1,theplanetstoday.com,CA,Americas,Northern America,Canada,Ontario,,Toronto
138.197.151.129,4,13,theplayhouse.ca,CA,Americas,Northern America,Canada,Ontario,,Toronto
157.230.71.133,4,16,therooms.ca,CA,Americas,Northern America,Canada,Ontario,,Toronto
23.47.10.160,4,0,thesocial.ca,CA,Americas,Northern America,Canada,Ontario,,Toronto
192.250.237.36,4,9,thethirdindustrialrevolution.com,CA,Americas,Northern America,Canada,Ontario,,Toronto
172.96.178.130,4,16,thetvaddict.com,CA,Americas,Northern America,Canada,Ontario,,Toronto
165.227.33.206,4,9,thewickhut.com,CA,Americas,Northern America,Canada,Ontario,,Toronto
208.68.90.162,4,0,thewrenchmonkey.ca,CA,Americas,Northern America,Canada,Ontario,,Toronto
157.230.69.96,4,13,thiefgame.com,CA,Americas,Northern America,Canada,Ontario,,Toronto
172.96.178.170,4,140,thunderbayhiphop.com,CA,Americas,Northern America,Canada,Ontario,,Toronto
143.110.210.65,4,28,thwindowsdoors.com,CA,Americas,Northern America,Canada,Ontario,,Toronto
104.248.107.166,4,59,tilde.town,CA,Americas,Northern America,Canada,Ontario,,Toronto
172.105.11.105,4,7,tinkerine.com,CA,Americas,Northern America,Canada,Ontario,,Toronto
64.34.156.168,4,-2,track0.com,CA,Americas,Northern America,Canada,Ontario,,Toronto
64.34.221.209,4,3,treefrog.ca,CA,Americas,Northern America,Canada,Ontario,,Toronto
159.203.19.53,4,19,tribemagazine.com,CA,Americas,Northern America,Canada,Ontario,,Toronto
64.202.124.85,4,41,tribunalsontario.ca,CA,Americas,Northern America,Canada,Ontario,,Toronto
23.111.69.48,4,-52,triec.ca,CA,Americas,Northern America,Canada,Ontario,,Toronto
165.22.235.176,4,9,truenorthaid.ca,CA,Americas,Northern America,Canada,Ontario,,Toronto
67.223.101.59,4,4,tshirtslayer.com,CA,Americas,Northern America,Canada,Ontario,,Toronto
104.242.12.20,4,960,turtles.org,CA,Americas,Northern America,Canada,Ontario,,Toronto
69.172.239.143,4,-5,u4ya.ca,CA,Americas,Northern America,Canada,Ontario,,Toronto
45.114.227.179,4,9,udualc.org,CA,Americas,Northern America,Canada,Ontario,,Toronto
172.105.15.92,4,4,uhoreg.ca,CA,Americas,Northern America,Canada,Ontario,,Toronto
199.103.62.205,4,139,unevenearth.org,CA,Americas,Northern America,Canada,Ontario,,Toronto
45.56.219.135,4,10,unimanix.com,CA,Americas,Northern America,Canada,Ontario,,Toronto
69.90.66.80,4,0,universe-review.ca,CA,Americas,Northern America,Canada,Ontario,,Toronto
159.203.33.209,4,2,uofrpress.ca,CA,Americas,Northern America,Canada,Ontario,,Toronto
128.100.201.204,4,3,utias-sfl.net,CA,Americas,Northern America,Canada,Ontario,,Toronto
192.250.237.37,4,5,vaccinationcouncil.org,CA,Americas,Northern America,Canada,Ontario,,Toronto
192.250.237.59,4,10,vaclib.org,CA,Americas,Northern America,Canada,Ontario,,Toronto
199.103.57.96,4,-1,vancouver-webpages.com,CA,Americas,Northern America,Canada,Ontario,,Toronto
23.223.17.173,4,16,vaughan.ca,CA,Americas,Northern America,Canada,Ontario,,Toronto
23.223.17.171,4,9,vaughan.ca,CA,Americas,Northern America,Canada,Ontario,,Toronto
192.46.223.209,4,36,vdb.org,CA,Americas,Northern America,Canada,Ontario,,Toronto
138.197.148.56,4,14,vigile.quebec,CA,Americas,Northern America,Canada,Ontario,,Toronto
165.227.34.192,4,11,vitalitenb.ca,CA,Americas,Northern America,Canada,Ontario,,Toronto
149.248.57.180,4,1,viva-media.ca,CA,Americas,Northern America,Canada,Ontario,,Toronto
139.177.194.61,4,1,vmdk.ca,CA,Americas,Northern America,Canada,Ontario,,Toronto
45.56.216.88,4,9,voiceofdetroit.net,CA,Americas,Northern America,Canada,Ontario,,Toronto
149.248.58.230,4,15,vores-penge.dk,CA,Americas,Northern America,Canada,Ontario,,Toronto
134.122.32.70,4,165,vran.org,CA,Americas,Northern America,Canada,Ontario,,Toronto
98.158.132.75,4,-1,vrplumber.com,CA,Americas,Northern America,Canada,Ontario,,Toronto
192.65.239.147,4,10,vttoth.com,CA,Americas,Northern America,Canada,Ontario,,Toronto
172.105.27.183,4,13,websequencediagrams.com,CA,Americas,Northern America,Canada,Ontario,,Toronto
172.96.179.149,4,4,wellingtonadvertiser.com,CA,Americas,Northern America,Canada,Ontario,,Toronto
192.250.237.66,4,-5,wellsgray.ca,CA,Americas,Northern America,Canada,Ontario,,Toronto
167.99.190.14,4,3,wendyssubway.com,CA,Americas,Northern America,Canada,Ontario,,Toronto
159.203.56.94,4,6,whiskyintelligence.com,CA,Americas,Northern America,Canada,Ontario,,Toronto
208.89.50.205,4,74,wikinomics.com,CA,Americas,Northern America,Canada,Ontario,,Toronto
192.250.237.68,4,5,windowsofnewyork.com,CA,Americas,Northern America,Canada,Ontario,,Toronto
165.227.47.180,4,13,windowtechcanada.ca,CA,Americas,Northern America,Canada,Ontario,,Toronto
159.89.124.171,4,45,wineriesofniagaraonthelake.com,CA,Americas,Northern America,Canada,Ontario,,Toronto
68.183.196.163,4,8,winprog.org,CA,Americas,Northern America,Canada,Ontario,,Toronto
159.203.20.96,4,4,with.pink,CA,Americas,Northern America,Canada,Ontario,,Toronto
64.34.156.149,4,28,wodb.ca,CA,Americas,Northern America,Canada,Ontario,,Toronto
192.250.237.60,4,-1,worldoflongmire.com,CA,Americas,Northern America,Canada,Ontario,,Toronto
172.96.177.139,4,8,worlds50beaches.com,CA,Americas,Northern America,Canada,Ontario,,Toronto
165.227.37.155,4,20,woundedwarriors.ca,CA,Americas,Northern America,Canada,Ontario,,Toronto
45.56.220.233,4,8,wowxwow.com,CA,Americas,Northern America,Canada,Ontario,,Toronto
172.105.110.163,4,9,writersunion.ca,CA,Americas,Northern America,Canada,Ontario,,Toronto
64.34.221.124,4,-15,wyemarsh.com,CA,Americas,Northern America,Canada,Ontario,,Toronto
199.83.241.54,4,4,wzmh.com,CA,Americas,Northern America,Canada,Ontario,,Toronto
149.248.60.145,4,0,xn--mltidsposten-tcb.dk,CA,Americas,Northern America,Canada,Ontario,,Toronto
155.138.142.34,4,-3,xn--rikpkonst-82a.se,CA,Americas,Northern America,Canada,Ontario,,Toronto
155.138.151.174,4,6,xn--sknhetsbloggarna-nwb.se,CA,Americas,Northern America,Canada,Ontario,,Toronto
149.248.57.219,4,0,xn--vrhobby-exa.se,CA,Americas,Northern America,Canada,Ontario,,Toronto
216.7.89.253,4,18,yolobus.com,CA,Americas,Northern America,Canada,Ontario,,Toronto
139.177.199.200,4,7,youcantbuyculture.com,CA,Americas,Northern America,Canada,Ontario,,Toronto
159.203.32.245,4,8,yourtitanisready.com,CA,Americas,Northern America,Canada,Ontario,,Toronto
38.64.168.168,4,1,yvonnebutler.com,CA,Americas,Northern America,Canada,Ontario,,Toronto
66.102.133.221,4,22,zarzuela.net,CA,Americas,Northern America,Canada,Ontario,,Toronto
172.96.176.116,4,9,zerenesystems.com,CA,Americas,Northern America,Canada,Ontario,,Toronto
149.248.53.135,4,7,zinkspanden.dk,CA,Americas,Northern America,Canada,Ontario,,Toronto
103.26.141.123,4,9,zonebooks.org,CA,Americas,Northern America,Canada,Ontario,,Toronto
107.155.98.32,4,-2,zoommeetingbackgrounds.com,CA,Americas,Northern America,Canada,Ontario,,Toronto
138.113.101.14,4,1,zsezt.com,CA,Americas,Northern America,Canada,Ontario,,Toronto
