reflector_ip,ip_version,offset,description,country_code,region,sub_region,country_name,sub_division_1,sub_division_2,city
176.123.7.228,4,7,1lib.sk,MD,Europe,Eastern Europe,Republic of Moldova,Chișinău Municipality,,Chisinau
176.123.0.28,4,87,alexhost.com,MD,Europe,Eastern Europe,Republic of Moldova,Chișinău Municipality,,Chisinau
176.123.0.49,4,11,alexhost.fr,MD,Europe,Eastern Europe,Republic of Moldova,Chișinău Municipality,,Chisinau
31.131.1.201,4,86919,api.md,MD,Europe,Eastern Europe,Republic of Moldova,Chișinău Municipality,,Chisinau
94.158.245.144,4,-20,arenabg.com,MD,Europe,Eastern Europe,Republic of Moldova,Chișinău Municipality,,Chisinau
81.180.69.169,4,3,ase.md,MD,Europe,Eastern Europe,Republic of Moldova,Chișinău Municipality,,Chisinau
176.123.1.61,4,5610,atslibrary.com,MD,Europe,Eastern Europe,Republic of Moldova,Chișinău Municipality,,Chisinau
188.138.180.105,4,17,auto-max.md,MD,Europe,Eastern Europe,Republic of Moldova,Chișinău Municipality,,Chisinau
185.181.230.90,4,61,ava.md,MD,Europe,Eastern Europe,Republic of Moldova,Chișinău Municipality,,Chisinau
176.123.0.130,4,-323,avahost.ru,MD,Europe,Eastern Europe,Republic of Moldova,Chișinău Municipality,,Chisinau
37.221.67.110,4,9,avxhm.se,MD,Europe,Eastern Europe,Republic of Moldova,Chișinău Municipality,,Chisinau
185.70.190.14,4,19,azi.md,MD,Europe,Eastern Europe,Republic of Moldova,Chișinău Municipality,,Chisinau
37.233.63.201,4,6,bnrm.md,MD,Europe,Eastern Europe,Republic of Moldova,Chișinău Municipality,,Chisinau
194.33.40.56,4,15,cocorigo.md,MD,Europe,Eastern Europe,Republic of Moldova,Chișinău Municipality,,Chisinau
176.123.0.83,4,918,dafa-bet.in,MD,Europe,Eastern Europe,Republic of Moldova,Chișinău Municipality,,Chisinau
194.33.40.58,4,9,dinotte.md,MD,Europe,Eastern Europe,Republic of Moldova,Chișinău Municipality,,Chisinau
217.26.175.49,4,172003,DNS Server: 175-49.araxinfo.com,MD,Europe,Eastern Europe,Republic of Moldova,Chișinău Municipality,,Chisinau
185.172.34.131,4,36,DNS Server: 185-172-34-131.ali-net.md,MD,Europe,Eastern Europe,Republic of Moldova,Chișinău Municipality,,Chisinau
89.28.12.62,4,28758,DNS Server: 89-28-12-62.starnet.md,MD,Europe,Eastern Europe,Republic of Moldova,Chișinău Municipality,,Chisinau
89.28.56.134,4,-26595207,DNS Server: 89-28-56-134.starnet.md,MD,Europe,Eastern Europe,Republic of Moldova,Chișinău Municipality,,Chisinau
89.28.65.201,4,306419,DNS Server: 89-28-65-201.starnet.md,MD,Europe,Eastern Europe,Republic of Moldova,Chișinău Municipality,,Chisinau
91.239.11.235,4,-2014,DNS Server: 91-239-11-235.adinet.md,MD,Europe,Eastern Europe,Republic of Moldova,Chișinău Municipality,,Sîngera
91.239.8.150,4,30635,DNS Server: 91-239-8-150.adinet.md,MD,Europe,Eastern Europe,Republic of Moldova,Chișinău Municipality,,Sîngera
95.65.9.171,4,11,DNS Server: 95-65-9-171.starnet.md,MD,Europe,Eastern Europe,Republic of Moldova,Chișinău Municipality,,Chisinau
89.32.226.54,4,8120,DNS Server: host-89-32-226-54.itsec.md,MD,Europe,Eastern Europe,Republic of Moldova,Chișinău Municipality,,Chisinau
109.185.143.111,4,28322,DNS Server: host-static-109-185-143-111.moldtelecom.md,MD,Europe,Eastern Europe,Republic of Moldova,Chișinău Municipality,,Chisinau
212.0.202.80,4,106,DNS Server: host-static-212-0-202-80.moldtelecom.md,MD,Europe,Eastern Europe,Republic of Moldova,Chișinău Municipality,,Chisinau
89.39.113.45,4,7,DNS Server: host-static-89-39-113-45.moldtelecom.md,MD,Europe,Eastern Europe,Republic of Moldova,Chișinău Municipality,,Vadul lui Vodă
93.115.136.236,4,29,DNS Server: host-static-93-115-136-236.moldtelecom.md,MD,Europe,Eastern Europe,Republic of Moldova,Chișinău Municipality,,Chisinau
93.115.138.250,4,-1197,DNS Server: host-static-93-115-138-250.moldtelecom.md,MD,Europe,Eastern Europe,Republic of Moldova,Chișinău Municipality,,Chisinau
93.115.141.18,4,256871,DNS Server: host-static-93-115-141-18.moldtelecom.md,MD,Europe,Eastern Europe,Republic of Moldova,Chișinău Municipality,,Chisinau
93.116.176.251,4,1300,DNS Server: host-static-93-116-176-251.moldtelecom.md,MD,Europe,Eastern Europe,Republic of Moldova,Chișinău Municipality,,Chisinau
93.116.207.229,4,34429,DNS Server: host-static-93-116-207-229.moldtelecom.md,MD,Europe,Eastern Europe,Republic of Moldova,Chișinău Municipality,,Chisinau
81.180.64.62,4,-105,DNS Server: ip-81.180.64.62.renam.md,MD,Europe,Eastern Europe,Republic of Moldova,Chișinău Municipality,,Chisinau
81.180.65.18,4,81,DNS Server: ip-81.180.65.18.renam.md,MD,Europe,Eastern Europe,Republic of Moldova,Chișinău Municipality,,Chisinau
81.180.74.121,4,91,DNS Server: ip-81.180.74.121.utm.md,MD,Europe,Eastern Europe,Republic of Moldova,Chișinău Municipality,,Chisinau
212.56.212.162,4,9835,DNS Server: mail.slimbodyreview.com,MD,Europe,Eastern Europe,Republic of Moldova,Chișinău Municipality,,Chisinau
93.115.136.226,4,199,DNS Server: mx1.moldpresa.md,MD,Europe,Eastern Europe,Republic of Moldova,Chișinău Municipality,,Chisinau
212.56.201.202,4,70938,DNS Server: static.212.56.201.202.mldnet.com,MD,Europe,Eastern Europe,Republic of Moldova,Chișinău Municipality,,Chisinau
77.89.223.66,4,6582,DNS Server: static.77.89.223.66.tmg.md,MD,Europe,Eastern Europe,Republic of Moldova,Chișinău Municipality,,Chisinau
185.163.46.10,4,1525,drive-avto.md,MD,Europe,Eastern Europe,Republic of Moldova,Chișinău Municipality,,Chisinau
31.131.1.11,4,113,electroplus.md,MD,Europe,Eastern Europe,Republic of Moldova,Chișinău Municipality,,Chisinau
31.131.1.70,4,17,expert-grup.org,MD,Europe,Eastern Europe,Republic of Moldova,Chișinău Municipality,,Chisinau
45.142.212.135,4,6,fast-torrent.ru,MD,Europe,Eastern Europe,Republic of Moldova,Chișinău Municipality,,Chisinau
37.221.65.11,4,17,genericviragaonline.com,MD,Europe,Eastern Europe,Republic of Moldova,Chișinău Municipality,,Chisinau
194.33.40.228,4,29,guidelang.md,MD,Europe,Eastern Europe,Republic of Moldova,Chișinău Municipality,,Chisinau
31.131.0.101,4,12,ihost.md,MD,Europe,Eastern Europe,Republic of Moldova,Chișinău Municipality,,Chisinau
188.138.141.135,4,19582,ipn.md,MD,Europe,Eastern Europe,Republic of Moldova,Chișinău Municipality,,Chisinau
195.20.18.205,4,4,lenino.info,MD,Europe,Eastern Europe,Republic of Moldova,Chișinău Municipality,,Chisinau
195.178.106.105,4,674,mamont.md,MD,Europe,Eastern Europe,Republic of Moldova,Chișinău Municipality,,Chisinau
31.131.1.100,4,29,mci.md,MD,Europe,Eastern Europe,Republic of Moldova,Chișinău Municipality,,Chisinau
185.181.230.88,4,8,milestii-mici.md,MD,Europe,Eastern Europe,Republic of Moldova,Chișinău Municipality,,Chisinau
31.131.1.16,4,9,mold-street.com,MD,Europe,Eastern Europe,Republic of Moldova,Chișinău Municipality,,Chisinau
79.170.226.12,4,-2,moldcell.md,MD,Europe,Eastern Europe,Republic of Moldova,Chișinău Municipality,,Chisinau
89.28.56.161,4,-26595224,moldexpo.md,MD,Europe,Eastern Europe,Republic of Moldova,Chișinău Municipality,,Chisinau
31.131.2.59,4,48,moldova.travel,MD,Europe,Eastern Europe,Republic of Moldova,Chișinău Municipality,,Chisinau
178.175.134.4,4,5,movie87hd.com,MD,Europe,Eastern Europe,Republic of Moldova,Chișinău Municipality,,Chisinau
178.168.4.71,4,367,Ookla Speedtest Server 6433: st01.starnet.md,MD,Europe,Eastern Europe,Republic of Moldova,Chișinău Municipality,,Chisinau
5.32.168.62,4,116,Ookla Speedtest Server 18210: speedtest.arax.md,MD,Europe,Eastern Europe,Republic of Moldova,Chișinău Municipality,,Chisinau
185.153.197.186,4,191,Ookla Speedtest Server 56618: speedtest.mangohost.net,MD,Europe,Eastern Europe,Republic of Moldova,Chișinău Municipality,,Chisinau
91.242.97.3,4,247,Ookla Speedtest Server: speedtest.in.md,MD,Europe,Eastern Europe,Republic of Moldova,Chișinău Municipality,,Chisinau
212.56.207.106,4,5,ournet.md,MD,Europe,Eastern Europe,Republic of Moldova,Chișinău Municipality,,Chisinau
217.26.150.160,4,41,posta.md,MD,Europe,Eastern Europe,Republic of Moldova,Chișinău Municipality,,Chisinau
178.17.163.156,4,1189,premiertelecom.md,MD,Europe,Eastern Europe,Republic of Moldova,Chișinău Municipality,,Chisinau
194.33.40.50,4,-3302,prokids.md,MD,Europe,Eastern Europe,Republic of Moldova,Chișinău Municipality,,Chisinau
5.32.168.52,4,49,railway.md,MD,Europe,Eastern Europe,Republic of Moldova,Chișinău Municipality,,Chisinau
176.123.5.148,4,7,sanfordpharmacy.com,MD,Europe,Eastern Europe,Republic of Moldova,Chișinău Municipality,,Chisinau
194.156.67.126,4,24,santehkomplekt.md,MD,Europe,Eastern Europe,Republic of Moldova,Chișinău Municipality,,Chisinau
176.123.0.55,4,109,scrisdemana.com,MD,Europe,Eastern Europe,Republic of Moldova,Chișinău Municipality,,Chisinau
195.178.106.115,4,7,smileshop.md,MD,Europe,Eastern Europe,Republic of Moldova,Chișinău Municipality,,Chisinau
185.163.46.131,4,5,softwareunity.com,MD,Europe,Eastern Europe,Republic of Moldova,Chișinău Municipality,,Chisinau
195.20.18.203,4,29,sportmashina.com,MD,Europe,Eastern Europe,Republic of Moldova,Chișinău Municipality,,Chisinau
178.168.4.121,4,52,starnet.md,MD,Europe,Eastern Europe,Republic of Moldova,Chișinău Municipality,,Chisinau
195.20.18.204,4,4,stroydomkrim.ru,MD,Europe,Eastern Europe,Republic of Moldova,Chișinău Municipality,,Chisinau
195.20.18.95,4,8,stuki-druki.com,MD,Europe,Eastern Europe,Republic of Moldova,Chișinău Municipality,,Chisinau
194.110.247.81,4,6,torlock.com,MD,Europe,Eastern Europe,Republic of Moldova,Chișinău Municipality,,Chisinau
178.17.174.161,4,3,ulim.md,MD,Europe,Eastern Europe,Republic of Moldova,Chișinău Municipality,,Chisinau
87.248.191.150,4,4,unica.md,MD,Europe,Eastern Europe,Republic of Moldova,Chișinău Municipality,,Chisinau
176.123.5.91,4,15,userupload.net,MD,Europe,Eastern Europe,Republic of Moldova,Chișinău Municipality,,Chisinau
195.178.106.125,4,10,usm.md,MD,Europe,Eastern Europe,Republic of Moldova,Chișinău Municipality,,Chisinau
5.32.174.10,4,155553,usmf.md,MD,Europe,Eastern Europe,Republic of Moldova,Chișinău Municipality,,Chisinau
81.180.74.23,4,11,utm.md,MD,Europe,Eastern Europe,Republic of Moldova,Chișinău Municipality,,Chisinau
87.255.78.165,4,24,warmd.net,MD,Europe,Eastern Europe,Republic of Moldova,Chișinău Municipality,,Chisinau
195.20.18.202,4,14,webgeniuslab.net,MD,Europe,Eastern Europe,Republic of Moldova,Chișinău Municipality,,Chisinau
188.244.20.38,4,35413,wineofmoldova.com,MD,Europe,Eastern Europe,Republic of Moldova,Chișinău Municipality,,Chisinau
176.123.6.10,4,8,wordlegame.org,MD,Europe,Eastern Europe,Republic of Moldova,Chișinău Municipality,,Chisinau
185.163.45.187,4,-31,yazsoft.com,MD,Europe,Eastern Europe,Republic of Moldova,Chișinău Municipality,,Chisinau
