reflector_ip,ip_version,offset,description,country_code,region,sub_region,country_name,sub_division_1,sub_division_2,city
151.101.65.43,4,5,1-800-flowers.com,US,Americas,Northern America,United States of America,California,,San Francisco
151.101.193.43,4,5,1-800-flowers.com,US,Americas,Northern America,United States of America,California,,San Francisco
151.101.1.43,4,5,1-800-flowers.com,US,Americas,Northern America,United States of America,California,,San Francisco
151.101.129.43,4,4,1-800-flowers.com,US,Americas,Northern America,United States of America,California,,San Francisco
151.101.1.205,4,11,1stdibs.co.uk,US,Americas,Northern America,United States of America,California,,San Francisco
198.199.115.170,4,3,88stacks.com,US,Americas,Northern America,United States of America,California,,San Francisco
199.16.173.80,4,7,abarabove.com,US,Americas,Northern America,United States of America,California,,San Francisco
199.16.173.199,4,4,abortionno.org,US,Americas,Northern America,United States of America,California,,San Francisco
198.199.110.14,4,38,absolutelykona.com,US,Americas,Northern America,United States of America,California,,San Francisco
104.131.149.64,4,170161,aerofred.com,US,Americas,Northern America,United States of America,California,,San Francisco
104.131.137.201,4,3020765,affecttheverb.com,US,Americas,Northern America,United States of America,California,,San Francisco
104.236.158.134,4,9,aiscorp.com,US,Americas,Northern America,United States of America,California,,San Francisco
146.190.165.45,4,7,akkartik.name,US,Americas,Northern America,United States of America,California,,San Francisco
45.55.18.15,4,5,allisons.org,US,Americas,Northern America,United States of America,California,,San Francisco
198.199.101.227,4,58,allremedies.com,US,Americas,Northern America,United States of America,California,,San Francisco
159.203.237.96,4,3011127,alltooflat.com,US,Americas,Northern America,United States of America,California,,San Francisco
66.220.15.171,4,76,altonweb.com,US,Americas,Northern America,United States of America,California,,San Francisco
192.0.66.187,4,11,altran.com,US,Americas,Northern America,United States of America,California,,San Francisco
104.131.154.233,4,4,americanbestpoolsupply.com,US,Americas,Northern America,United States of America,California,,San Francisco
198.199.119.5,4,2995244,amnation.com,US,Americas,Northern America,United States of America,California,,San Francisco
151.101.0.97,4,29,amplifyatx.org,US,Americas,Northern America,United States of America,California,,San Francisco
162.243.140.82,4,110,anatomy-resources.com,US,Americas,Northern America,United States of America,California,,San Francisco
192.0.66.215,4,15,anitian.com,US,Americas,Northern America,United States of America,California,,San Francisco
64.23.255.11,4,59,antiquesnavigator.com,US,Americas,Northern America,United States of America,California,,San Francisco
104.236.157.71,4,-156,aoeu.eu,US,Americas,Northern America,United States of America,California,,San Francisco
199.16.172.37,4,6,apa-hai.org,US,Americas,Northern America,United States of America,California,,San Francisco
199.16.172.103,4,4,aptera.us,US,Americas,Northern America,United States of America,California,,San Francisco
199.16.173.66,4,9,aptera.us,US,Americas,Northern America,United States of America,California,,San Francisco
107.170.248.247,4,116,arcanabooks.com,US,Americas,Northern America,United States of America,California,,San Francisco
192.0.66.171,4,15,arendt.com,US,Americas,Northern America,United States of America,California,,San Francisco
192.0.66.132,4,5,arnnet.com.au,US,Americas,Northern America,United States of America,California,,San Francisco
104.236.143.202,4,364677,astronaut.io,US,Americas,Northern America,United States of America,California,,San Francisco
192.241.197.135,4,910687,aynrandlexicon.com,US,Americas,Northern America,United States of America,California,,San Francisco
151.101.194.8,4,11,baqend.com,US,Americas,Northern America,United States of America,California,,San Francisco
151.101.66.8,4,6,baqend.com,US,Americas,Northern America,United States of America,California,,San Francisco
151.101.2.8,4,9,baqend.com,US,Americas,Northern America,United States of America,California,,San Francisco
151.101.130.8,4,10,baqend.com,US,Americas,Northern America,United States of America,California,,San Francisco
199.16.172.19,4,18,battellemedia.com,US,Americas,Northern America,United States of America,California,,San Francisco
151.101.0.81,4,6,bbcrussian.com,US,Americas,Northern America,United States of America,California,,San Francisco
151.101.192.81,4,6,bbcrussian.com,US,Americas,Northern America,United States of America,California,,San Francisco
151.101.128.81,4,5,bbcrussian.com,US,Americas,Northern America,United States of America,California,,San Francisco
151.101.64.81,4,5,bbcrussian.com,US,Americas,Northern America,United States of America,California,,San Francisco
192.0.66.222,4,18,bbgi.com,US,Americas,Northern America,United States of America,California,,San Francisco
192.0.66.1,4,7,beebom.com,US,Americas,Northern America,United States of America,California,,San Francisco
151.101.1.131,4,32,belk.com,US,Americas,Northern America,United States of America,California,,San Francisco
138.68.214.117,4,4,benaughty.com,US,Americas,Northern America,United States of America,California,,San Francisco
162.243.137.9,4,3542639,bias-inc.com,US,Americas,Northern America,United States of America,California,,San Francisco
198.199.107.127,4,10,bibrave.com,US,Americas,Northern America,United States of America,California,,San Francisco
199.16.173.223,4,-8,billionsinchange.com,US,Americas,Northern America,United States of America,California,,San Francisco
162.243.142.250,4,25,bioetica.org,US,Americas,Northern America,United States of America,California,,San Francisco
198.199.107.221,4,4,biologiachile.cl,US,Americas,Northern America,United States of America,California,,San Francisco
199.16.172.188,4,3,birthbootcamp.com,US,Americas,Northern America,United States of America,California,,San Francisco
192.241.198.180,4,4,bitterfilms.com,US,Americas,Northern America,United States of America,California,,San Francisco
151.101.65.73,4,43,bloombergneweconomy.com,US,Americas,Northern America,United States of America,California,,San Francisco
151.101.1.73,4,34,bloombergneweconomy.com,US,Americas,Northern America,United States of America,California,,San Francisco
151.101.129.73,4,6,bloombergneweconomy.com,US,Americas,Northern America,United States of America,California,,San Francisco
151.101.193.73,4,23,bloombergneweconomy.com,US,Americas,Northern America,United States of America,California,,San Francisco
151.101.1.79,4,10,boden.fr,US,Americas,Northern America,United States of America,California,,San Francisco
151.101.129.79,4,4,boden.fr,US,Americas,Northern America,United States of America,California,,San Francisco
151.101.65.79,4,4,boden.fr,US,Americas,Northern America,United States of America,California,,San Francisco
151.101.193.79,4,8,boden.fr,US,Americas,Northern America,United States of America,California,,San Francisco
45.55.109.185,4,12,book-it.org,US,Americas,Northern America,United States of America,California,,San Francisco
64.23.219.254,4,4,bornwiki.com,US,Americas,Northern America,United States of America,California,,San Francisco
199.16.173.233,4,45,breakinglatest.news,US,Americas,Northern America,United States of America,California,,San Francisco
199.16.172.55,4,9,brentozar.com,US,Americas,Northern America,United States of America,California,,San Francisco
198.199.96.69,4,4,c2.com,US,Americas,Northern America,United States of America,California,,San Francisco
199.16.172.114,4,38,cal.net,US,Americas,Northern America,United States of America,California,,San Francisco
199.16.172.86,4,7,calnonprofits.org,US,Americas,Northern America,United States of America,California,,San Francisco
192.0.66.165,4,8,capitalgazette.com,US,Americas,Northern America,United States of America,California,,San Francisco
151.101.65.171,4,5,catchpoint.com,US,Americas,Northern America,United States of America,California,,San Francisco
151.101.129.171,4,62,catchpoint.com,US,Americas,Northern America,United States of America,California,,San Francisco
151.101.1.171,4,3,catchpoint.com,US,Americas,Northern America,United States of America,California,,San Francisco
151.101.193.171,4,24,catchpoint.com,US,Americas,Northern America,United States of America,California,,San Francisco
199.16.173.127,4,7,ccbfuneral.com,US,Americas,Northern America,United States of America,California,,San Francisco
151.101.1.197,4,4,ccnsite.com,US,Americas,Northern America,United States of America,California,,San Francisco
151.101.65.197,4,8,ccnsite.com,US,Americas,Northern America,United States of America,California,,San Francisco
151.101.193.197,4,4,ccnsite.com,US,Americas,Northern America,United States of America,California,,San Francisco
151.101.129.197,4,7,ccnsite.com,US,Americas,Northern America,United States of America,California,,San Francisco
151.101.129.162,4,11,changelog.com,US,Americas,Northern America,United States of America,California,,San Francisco
151.101.193.162,4,5,changelog.com,US,Americas,Northern America,United States of America,California,,San Francisco
151.101.1.162,4,4,changelog.com,US,Americas,Northern America,United States of America,California,,San Francisco
151.101.65.162,4,7,changelog.com,US,Americas,Northern America,United States of America,California,,San Francisco
151.101.1.21,4,20,chargehound.com,US,Americas,Northern America,United States of America,California,,San Francisco
199.16.172.149,4,6,chilmarkresearch.com,US,Americas,Northern America,United States of America,California,,San Francisco
151.101.128.229,4,4,chippercash.com,US,Americas,Northern America,United States of America,California,,San Francisco
151.101.192.229,4,18,chippercash.com,US,Americas,Northern America,United States of America,California,,San Francisco
151.101.0.229,4,4,chippercash.com,US,Americas,Northern America,United States of America,California,,San Francisco
151.101.64.229,4,8,chippercash.com,US,Americas,Northern America,United States of America,California,,San Francisco
159.203.239.193,4,5,christineknight.me,US,Americas,Northern America,United States of America,California,,San Francisco
192.0.66.25,4,4,ciospain.es,US,Americas,Northern America,United States of America,California,,San Francisco
192.0.77.17,4,53,cldup.com,US,Americas,Northern America,United States of America,California,,San Francisco
192.0.66.141,4,7,clevertap.com,US,Americas,Northern America,United States of America,California,,San Francisco
199.16.172.125,4,4,cnatraininghelp.com,US,Americas,Northern America,United States of America,California,,San Francisco
151.101.3.5,4,4,cnn.com,US,Americas,Northern America,United States of America,California,,San Francisco
151.101.131.5,4,3,cnn.com,US,Americas,Northern America,United States of America,California,,San Francisco
151.101.67.5,4,3,cnn.com,US,Americas,Northern America,United States of America,California,,San Francisco
151.101.195.5,4,3,cnn.com,US,Americas,Northern America,United States of America,California,,San Francisco
199.16.172.191,4,5,coachville.com,US,Americas,Northern America,United States of America,California,,San Francisco
151.101.130.226,4,4,cocokara-next.com,US,Americas,Northern America,United States of America,California,,San Francisco
151.101.194.226,4,4,cocokara-next.com,US,Americas,Northern America,United States of America,California,,San Francisco
151.101.2.226,4,4,cocokara-next.com,US,Americas,Northern America,United States of America,California,,San Francisco
151.101.66.226,4,3,cocokara-next.com,US,Americas,Northern America,United States of America,California,,San Francisco
107.170.192.189,4,3,collingsfoundation.org,US,Americas,Northern America,United States of America,California,,San Francisco
159.203.226.130,4,6,companiesnz.com,US,Americas,Northern America,United States of America,California,,San Francisco
107.170.210.99,4,621588,conal.net,US,Americas,Northern America,United States of America,California,,San Francisco
192.0.66.133,4,5,coralproject.net,US,Americas,Northern America,United States of America,California,,San Francisco
151.101.66.139,4,29,couponfollow.com,US,Americas,Northern America,United States of America,California,,San Francisco
151.101.194.139,4,17,couponfollow.com,US,Americas,Northern America,United States of America,California,,San Francisco
151.101.130.139,4,30,couponfollow.com,US,Americas,Northern America,United States of America,California,,San Francisco
151.101.2.139,4,13,couponfollow.com,US,Americas,Northern America,United States of America,California,,San Francisco
192.0.66.166,4,7,courant.com,US,Americas,Northern America,United States of America,California,,San Francisco
199.16.173.229,4,14,cpothemes.com,US,Americas,Northern America,United States of America,California,,San Francisco
151.101.1.169,4,5,crate.io,US,Americas,Northern America,United States of America,California,,San Francisco
151.101.65.169,4,5,crate.io,US,Americas,Northern America,United States of America,California,,San Francisco
151.101.129.169,4,3,crate.io,US,Americas,Northern America,United States of America,California,,San Francisco
151.101.193.169,4,4,crate.io,US,Americas,Northern America,United States of America,California,,San Francisco
151.101.128.207,4,17,cratedb.com,US,Americas,Northern America,United States of America,California,,San Francisco
151.101.192.207,4,19,cratedb.com,US,Americas,Northern America,United States of America,California,,San Francisco
198.199.103.82,4,633076,cvxr.com,US,Americas,Northern America,United States of America,California,,San Francisco
104.236.168.41,4,5,darkcoding.net,US,Americas,Northern America,United States of America,California,,San Francisco
151.101.65.67,4,4,dccomics.com,US,Americas,Northern America,United States of America,California,,San Francisco
151.101.193.67,4,9,dccomics.com,US,Americas,Northern America,United States of America,California,,San Francisco
151.101.129.67,4,7,dccomics.com,US,Americas,Northern America,United States of America,California,,San Francisco
151.101.1.67,4,4,dccomics.com,US,Americas,Northern America,United States of America,California,,San Francisco
104.236.183.149,4,4,ddrfreak.com,US,Americas,Northern America,United States of America,California,,San Francisco
192.0.66.30,4,37,dealer.com,US,Americas,Northern America,United States of America,California,,San Francisco
151.101.128.141,4,5,delivery.com,US,Americas,Northern America,United States of America,California,,San Francisco
151.101.192.141,4,17,delivery.com,US,Americas,Northern America,United States of America,California,,San Francisco
151.101.64.141,4,44,delivery.com,US,Americas,Northern America,United States of America,California,,San Francisco
151.101.0.141,4,5,delivery.com,US,Americas,Northern America,United States of America,California,,San Francisco
151.101.129.145,4,3,developerforce.com,US,Americas,Northern America,United States of America,California,,San Francisco
151.101.193.145,4,5,developerforce.com,US,Americas,Northern America,United States of America,California,,San Francisco
151.101.1.145,4,110,developerforce.com,US,Americas,Northern America,United States of America,California,,San Francisco
151.101.65.145,4,4,developerforce.com,US,Americas,Northern America,United States of America,California,,San Francisco
199.16.173.178,4,65,diariosanrafael.com.ar,US,Americas,Northern America,United States of America,California,,San Francisco
192.0.66.57,4,50,diritto.it,US,Americas,Northern America,United States of America,California,,San Francisco
199.16.172.101,4,33,dishcrawl.com,US,Americas,Northern America,United States of America,California,,San Francisco
151.101.64.134,4,9,disqus.com,US,Americas,Northern America,United States of America,California,,San Francisco
151.101.128.134,4,4,disqus.com,US,Americas,Northern America,United States of America,California,,San Francisco
151.101.0.134,4,58,disqus.com,US,Americas,Northern America,United States of America,California,,San Francisco
151.101.192.134,4,104,disqus.com,US,Americas,Northern America,United States of America,California,,San Francisco
96.78.147.162,4,48,DNS Server: 96-78-147-162-static.hfc.comcastbusiness.net,US,Americas,Northern America,United States of America,California,,San Francisco
96.90.233.5,4,37,DNS Server: 96-90-233-5-static.hfc.comcastbusiness.net,US,Americas,Northern America,United States of America,California,,San Francisco
151.101.193.9,4,8,dollarshaveclub.com,US,Americas,Northern America,United States of America,California,,San Francisco
151.101.65.9,4,39,dollarshaveclub.com,US,Americas,Northern America,United States of America,California,,San Francisco
151.101.1.9,4,88,dollarshaveclub.com,US,Americas,Northern America,United States of America,California,,San Francisco
151.101.129.9,4,33,dollarshaveclub.com,US,Americas,Northern America,United States of America,California,,San Francisco
192.0.66.163,4,61,dolphinquest.com,US,Americas,Northern America,United States of America,California,,San Francisco
107.170.208.170,4,10,domyessay.co.uk,US,Americas,Northern America,United States of America,California,,San Francisco
199.16.173.136,4,12,doylesails.com,US,Americas,Northern America,United States of America,California,,San Francisco
199.16.172.235,4,7,dscej.org,US,Americas,Northern America,United States of America,California,,San Francisco
107.170.221.252,4,4,ducea.com,US,Americas,Northern America,United States of America,California,,San Francisco
199.16.173.33,4,67,duda.news,US,Americas,Northern America,United States of America,California,,San Francisco
199.16.172.64,4,4,earthdance.org,US,Americas,Northern America,United States of America,California,,San Francisco
192.0.66.178,4,18,earwolf.com,US,Americas,Northern America,United States of America,California,,San Francisco
151.101.0.151,4,50,eat24hours.com,US,Americas,Northern America,United States of America,California,,San Francisco
151.101.64.151,4,21,eat24hours.com,US,Americas,Northern America,United States of America,California,,San Francisco
151.101.192.151,4,19,eat24hours.com,US,Americas,Northern America,United States of America,California,,San Francisco
151.101.128.151,4,32,eat24hours.com,US,Americas,Northern America,United States of America,California,,San Francisco
199.16.173.84,4,50,echostage.com,US,Americas,Northern America,United States of America,California,,San Francisco
192.0.78.122,4,40,ehe.health,US,Americas,Northern America,United States of America,California,,San Francisco
151.101.192.249,4,6,eitb.tv,US,Americas,Northern America,United States of America,California,,San Francisco
151.101.0.249,4,30,eitb.tv,US,Americas,Northern America,United States of America,California,,San Francisco
151.101.64.249,4,24,eitb.tv,US,Americas,Northern America,United States of America,California,,San Francisco
151.101.128.249,4,7,eitb.tv,US,Americas,Northern America,United States of America,California,,San Francisco
199.16.172.66,4,104,electricliterature.com,US,Americas,Northern America,United States of America,California,,San Francisco
151.101.2.202,4,65,elheraldo.hn,US,Americas,Northern America,United States of America,California,,San Francisco
151.101.66.202,4,36,elheraldo.hn,US,Americas,Northern America,United States of America,California,,San Francisco
151.101.130.202,4,5,elheraldo.hn,US,Americas,Northern America,United States of America,California,,San Francisco
151.101.194.202,4,52,elheraldo.hn,US,Americas,Northern America,United States of America,California,,San Francisco
104.236.163.66,4,57,eligrey.com,US,Americas,Northern America,United States of America,California,,San Francisco
199.16.172.194,4,8,elnuevodiario.com.do,US,Americas,Northern America,United States of America,California,,San Francisco
198.199.105.242,4,44,emailondeck.com,US,Americas,Northern America,United States of America,California,,San Francisco
192.0.66.153,4,9,embedded.com,US,Americas,Northern America,United States of America,California,,San Francisco
199.16.172.91,4,91,emdcleaning.com,US,Americas,Northern America,United States of America,California,,San Francisco
104.236.181.76,4,26,endless.horse,US,Americas,Northern America,United States of America,California,,San Francisco
199.16.173.175,4,21,epayco.com,US,Americas,Northern America,United States of America,California,,San Francisco
146.190.164.101,4,15,epm.org,US,Americas,Northern America,United States of America,California,,San Francisco
104.236.182.182,4,12,epminerals.com,US,Americas,Northern America,United States of America,California,,San Francisco
209.237.226.93,4,13,erowid.org,US,Americas,Northern America,United States of America,California,,San Francisco
199.16.172.159,4,58,escapetix.com,US,Americas,Northern America,United States of America,California,,San Francisco
199.16.173.128,4,4,esquiresolutions.com,US,Americas,Northern America,United States of America,California,,San Francisco
151.101.193.224,4,5,etsy.com,US,Americas,Northern America,United States of America,California,,San Francisco
151.101.1.224,4,4,etsy.com,US,Americas,Northern America,United States of America,California,,San Francisco
151.101.129.224,4,15,etsy.com,US,Americas,Northern America,United States of America,California,,San Francisco
151.101.65.224,4,49,etsy.com,US,Americas,Northern America,United States of America,California,,San Francisco
192.0.66.21,4,4,eurasiantimes.com,US,Americas,Northern America,United States of America,California,,San Francisco
199.16.173.176,4,20,everlastingelopements.com,US,Americas,Northern America,United States of America,California,,San Francisco
199.16.172.89,4,25,everyonegoeshome.com,US,Americas,Northern America,United States of America,California,,San Francisco
199.16.172.48,4,142,exedyusa.com,US,Americas,Northern America,United States of America,California,,San Francisco
199.16.173.240,4,34,extension.org,US,Americas,Northern America,United States of America,California,,San Francisco
198.199.94.53,4,7,facsimilefinder.com,US,Americas,Northern America,United States of America,California,,San Francisco
151.101.65.57,4,5,fastly.com,US,Americas,Northern America,United States of America,California,,San Francisco
151.101.1.57,4,5,fastly.com,US,Americas,Northern America,United States of America,California,,San Francisco
151.101.193.57,4,4,fastly.com,US,Americas,Northern America,United States of America,California,,San Francisco
151.101.129.57,4,5,fastly.com,US,Americas,Northern America,United States of America,California,,San Francisco
151.101.193.6,4,4,fastly.net,US,Americas,Northern America,United States of America,California,,San Francisco
151.101.129.6,4,16,fastly.net,US,Americas,Northern America,United States of America,California,,San Francisco
151.101.1.6,4,34,fastly.net,US,Americas,Northern America,United States of America,California,,San Francisco
151.101.65.6,4,26,fastly.net,US,Americas,Northern America,United States of America,California,,San Francisco
199.16.173.185,4,6,fcd-us.org,US,Americas,Northern America,United States of America,California,,San Francisco
199.16.172.85,4,32,fiestasanantonio.org,US,Americas,Northern America,United States of America,California,,San Francisco
199.16.172.69,4,67,filestage.io,US,Americas,Northern America,United States of America,California,,San Francisco
192.0.66.115,4,56,finalemusic.com,US,Americas,Northern America,United States of America,California,,San Francisco
151.101.129.62,4,24,finncdn.no,US,Americas,Northern America,United States of America,California,,San Francisco
151.101.193.62,4,6,finncdn.no,US,Americas,Northern America,United States of America,California,,San Francisco
151.101.65.62,4,40,finncdn.no,US,Americas,Northern America,United States of America,California,,San Francisco
151.101.1.62,4,21,finncdn.no,US,Americas,Northern America,United States of America,California,,San Francisco
192.0.66.240,4,3,fivethirtyeight.com,US,Americas,Northern America,United States of America,California,,San Francisco
199.16.173.54,4,3,fiyahlitmag.com,US,Americas,Northern America,United States of America,California,,San Francisco
199.16.172.58,4,5,flyingboatmuseum.com,US,Americas,Northern America,United States of America,California,,San Francisco
199.16.173.230,4,65,foodgps.com,US,Americas,Northern America,United States of America,California,,San Francisco
199.16.173.31,4,45,forbestechcouncil.com,US,Americas,Northern America,United States of America,California,,San Francisco
199.16.172.247,4,3,fourhourworkweek.com,US,Americas,Northern America,United States of America,California,,San Francisco
159.203.253.22,4,15,freegraphics.com,US,Americas,Northern America,United States of America,California,,San Francisco
199.16.172.49,4,36,frommichigantothetable.com,US,Americas,Northern America,United States of America,California,,San Francisco
151.101.128.230,4,3,fubo.tv,US,Americas,Northern America,United States of America,California,,San Francisco
151.101.0.230,4,5,fubo.tv,US,Americas,Northern America,United States of America,California,,San Francisco
151.101.64.230,4,4,fubo.tv,US,Americas,Northern America,United States of America,California,,San Francisco
151.101.192.230,4,3,fubo.tv,US,Americas,Northern America,United States of America,California,,San Francisco
151.101.193.178,4,7,furniture123.co.uk,US,Americas,Northern America,United States of America,California,,San Francisco
199.16.172.197,4,3,fussfreeflavours.com,US,Americas,Northern America,United States of America,California,,San Francisco
151.101.130.71,4,21,gametime.co,US,Americas,Northern America,United States of America,California,,San Francisco
151.101.66.71,4,9,gametime.co,US,Americas,Northern America,United States of America,California,,San Francisco
151.101.2.71,4,21,gametime.co,US,Americas,Northern America,United States of America,California,,San Francisco
151.101.194.71,4,32,gametime.co,US,Americas,Northern America,United States of America,California,,San Francisco
151.101.66.62,4,16,gannettfoundation.org,US,Americas,Northern America,United States of America,California,,San Francisco
151.101.2.62,4,13,gannettfoundation.org,US,Americas,Northern America,United States of America,California,,San Francisco
151.101.130.62,4,22,gannettfoundation.org,US,Americas,Northern America,United States of America,California,,San Francisco
151.101.194.62,4,5,gannettfoundation.org,US,Americas,Northern America,United States of America,California,,San Francisco
151.101.65.175,4,151,geonet.org.nz,US,Americas,Northern America,United States of America,California,,San Francisco
151.101.129.175,4,6,geonet.org.nz,US,Americas,Northern America,United States of America,California,,San Francisco
151.101.1.175,4,13,geonet.org.nz,US,Americas,Northern America,United States of America,California,,San Francisco
151.101.193.175,4,10,geonet.org.nz,US,Americas,Northern America,United States of America,California,,San Francisco
151.101.192.138,4,20,giftcards.com,US,Americas,Northern America,United States of America,California,,San Francisco
151.101.0.138,4,24,giftcards.com,US,Americas,Northern America,United States of America,California,,San Francisco
151.101.128.138,4,28,giftcards.com,US,Americas,Northern America,United States of America,California,,San Francisco
151.101.64.138,4,41,giftcards.com,US,Americas,Northern America,United States of America,California,,San Francisco
159.203.224.21,4,2,gioiacompany.net,US,Americas,Northern America,United States of America,California,,San Francisco
198.199.107.146,4,9,go-zh.org,US,Americas,Northern America,United States of America,California,,San Francisco
199.16.173.204,4,29,gobiernu.cw,US,Americas,Northern America,United States of America,California,,San Francisco
192.0.66.45,4,17,gofeminin.de,US,Americas,Northern America,United States of America,California,,San Francisco
199.16.173.20,4,5,gopassage.com,US,Americas,Northern America,United States of America,California,,San Francisco
199.16.172.132,4,50,gopassage.com,US,Americas,Northern America,United States of America,California,,San Francisco
151.101.1.180,4,2,govx.com,US,Americas,Northern America,United States of America,California,,San Francisco
151.101.193.180,4,2,govx.com,US,Americas,Northern America,United States of America,California,,San Francisco
151.101.129.180,4,2,govx.com,US,Americas,Northern America,United States of America,California,,San Francisco
151.101.65.180,4,50,govx.com,US,Americas,Northern America,United States of America,California,,San Francisco
192.241.236.249,4,8,graceconstruction.com,US,Americas,Northern America,United States of America,California,,San Francisco
104.236.152.89,4,11,gravel2008.us,US,Americas,Northern America,United States of America,California,,San Francisco
199.16.172.18,4,5,greatdaysoutdoors.com,US,Americas,Northern America,United States of America,California,,San Francisco
199.16.172.139,4,44,gript.ie,US,Americas,Northern America,United States of America,California,,San Francisco
192.0.66.67,4,5,growthspotter.com,US,Americas,Northern America,United States of America,California,,San Francisco
151.101.1.160,4,16,grubhub.com,US,Americas,Northern America,United States of America,California,,San Francisco
192.0.66.212,4,6,gsmr.org,US,Americas,Northern America,United States of America,California,,San Francisco
151.101.1.207,4,3,guidetoiceland.is,US,Americas,Northern America,United States of America,California,,San Francisco
151.101.129.207,4,3,guidetoiceland.is,US,Americas,Northern America,United States of America,California,,San Francisco
151.101.65.207,4,4,guidetoiceland.is,US,Americas,Northern America,United States of America,California,,San Francisco
151.101.193.207,4,20,guidetoiceland.is,US,Americas,Northern America,United States of America,California,,San Francisco
199.16.172.180,4,7,guidingtech.com,US,Americas,Northern America,United States of America,California,,San Francisco
199.16.173.245,4,13,gutenbergtimes.com,US,Americas,Northern America,United States of America,California,,San Francisco
159.203.243.241,4,21,halloweencandybuyback.com,US,Americas,Northern America,United States of America,California,,San Francisco
199.16.173.191,4,44,hashkitchen.com,US,Americas,Northern America,United States of America,California,,San Francisco
45.55.30.240,4,117705,havokband.com,US,Americas,Northern America,United States of America,California,,San Francisco
151.101.1.191,4,3,hawkvw.com,US,Americas,Northern America,United States of America,California,,San Francisco
151.101.129.191,4,3,hawkvw.com,US,Americas,Northern America,United States of America,California,,San Francisco
151.101.193.191,4,2,hawkvw.com,US,Americas,Northern America,United States of America,California,,San Francisco
151.101.65.191,4,3,hawkvw.com,US,Americas,Northern America,United States of America,California,,San Francisco
199.16.172.123,4,7,hchc.edu,US,Americas,Northern America,United States of America,California,,San Francisco
199.16.173.196,4,4,healthjournalism.org,US,Americas,Northern America,United States of America,California,,San Francisco
199.16.172.254,4,79,hearingloss.org,US,Americas,Northern America,United States of America,California,,San Francisco
192.241.228.126,4,326151,heirloom-organics.com,US,Americas,Northern America,United States of America,California,,San Francisco
198.199.109.25,4,7,highrankings.com,US,Americas,Northern America,United States of America,California,,San Francisco
199.16.173.100,4,68,hiltonhead.com,US,Americas,Northern America,United States of America,California,,San Francisco
199.16.173.132,4,12,hiltonheadisland.com,US,Americas,Northern America,United States of America,California,,San Francisco
199.16.173.171,4,8,hip-hopvibe.com,US,Americas,Northern America,United States of America,California,,San Francisco
199.16.172.210,4,14,hirejordansmith.com,US,Americas,Northern America,United States of America,California,,San Francisco
192.0.66.214,4,5,hmgstrategy.com,US,Americas,Northern America,United States of America,California,,San Francisco
192.0.66.75,4,4,hms.com,US,Americas,Northern America,United States of America,California,,San Francisco
146.190.169.234,4,34,homeschoolof1.com,US,Americas,Northern America,United States of America,California,,San Francisco
192.0.66.98,4,44,hotnews.ro,US,Americas,Northern America,United States of America,California,,San Francisco
199.16.172.175,4,10,houseofmalt.co.uk,US,Americas,Northern America,United States of America,California,,San Francisco
151.101.64.93,4,8,houzz.jp,US,Americas,Northern America,United States of America,California,,San Francisco
151.101.0.93,4,17,houzz.jp,US,Americas,Northern America,United States of America,California,,San Francisco
151.101.192.93,4,7,houzz.jp,US,Americas,Northern America,United States of America,California,,San Francisco
151.101.128.93,4,16,houzz.jp,US,Americas,Northern America,United States of America,California,,San Francisco
199.16.173.126,4,35,hoveniersbedrijfhendrickx.nl,US,Americas,Northern America,United States of America,California,,San Francisco
64.23.154.40,4,9,howtonow.com,US,Americas,Northern America,United States of America,California,,San Francisco
198.199.116.73,4,5,hplfilmfestival.com,US,Americas,Northern America,United States of America,California,,San Francisco
192.0.78.26,4,4,href.li,US,Americas,Northern America,United States of America,California,,San Francisco
192.0.78.27,4,3,href.li,US,Americas,Northern America,United States of America,California,,San Francisco
192.0.66.211,4,4,humanite.fr,US,Americas,Northern America,United States of America,California,,San Francisco
104.236.189.185,4,6,huzzaz.com,US,Americas,Northern America,United States of America,California,,San Francisco
209.237.226.92,4,-4,hyperreal.org,US,Americas,Northern America,United States of America,California,,San Francisco
151.101.194.85,4,3,hzcdn.com,US,Americas,Northern America,United States of America,California,,San Francisco
151.101.130.85,4,3,hzcdn.com,US,Americas,Northern America,United States of America,California,,San Francisco
151.101.2.85,4,5,hzcdn.com,US,Americas,Northern America,United States of America,California,,San Francisco
151.101.66.85,4,3,hzcdn.com,US,Americas,Northern America,United States of America,California,,San Francisco
192.0.66.228,4,8,i-d.co,US,Americas,Northern America,United States of America,California,,San Francisco
192.0.77.2,4,7,i2.wp.com,US,Americas,Northern America,United States of America,California,,San Francisco
199.16.172.98,4,3,icc.com,US,Americas,Northern America,United States of America,California,,San Francisco
192.0.66.70,4,19,idg.com.au,US,Americas,Northern America,United States of America,California,,San Francisco
151.101.128.65,4,4,iheart.com,US,Americas,Northern America,United States of America,California,,San Francisco
151.101.192.65,4,5,iheart.com,US,Americas,Northern America,United States of America,California,,San Francisco
151.101.0.65,4,6,iheart.com,US,Americas,Northern America,United States of America,California,,San Francisco
151.101.64.65,4,4,iheart.com,US,Americas,Northern America,United States of America,California,,San Francisco
151.101.65.16,4,9,images-fe.ssl-images-amazon.com,US,Americas,Northern America,United States of America,California,,San Francisco
151.101.193.16,4,4,images-fe.ssl-images-amazon.com,US,Americas,Northern America,United States of America,California,,San Francisco
151.101.129.16,4,3,images-fe.ssl-images-amazon.com,US,Americas,Northern America,United States of America,California,,San Francisco
151.101.1.16,4,16,images-fe.ssl-images-amazon.com,US,Americas,Northern America,United States of America,California,,San Francisco
199.16.173.121,4,6,imforza.com,US,Americas,Northern America,United States of America,California,,San Francisco
199.16.172.57,4,9,improveverywhere.com,US,Americas,Northern America,United States of America,California,,San Francisco
151.101.193.54,4,37,inc.com,US,Americas,Northern America,United States of America,California,,San Francisco
151.101.1.54,4,5,inc.com,US,Americas,Northern America,United States of America,California,,San Francisco
151.101.129.54,4,21,inc.com,US,Americas,Northern America,United States of America,California,,San Francisco
151.101.65.54,4,9,inc.com,US,Americas,Northern America,United States of America,California,,San Francisco
151.101.194.59,4,16,incimages.com,US,Americas,Northern America,United States of America,California,,San Francisco
151.101.2.59,4,25,incimages.com,US,Americas,Northern America,United States of America,California,,San Francisco
151.101.66.59,4,49,incimages.com,US,Americas,Northern America,United States of America,California,,San Francisco
151.101.130.59,4,28,incimages.com,US,Americas,Northern America,United States of America,California,,San Francisco
192.0.66.106,4,19,incode.com,US,Americas,Northern America,United States of America,California,,San Francisco
151.101.193.184,4,3,independent.co.uk,US,Americas,Northern America,United States of America,California,,San Francisco
151.101.129.184,4,55,independent.co.uk,US,Americas,Northern America,United States of America,California,,San Francisco
151.101.1.184,4,2,independent.co.uk,US,Americas,Northern America,United States of America,California,,San Francisco
151.101.65.184,4,71,independent.co.uk,US,Americas,Northern America,United States of America,California,,San Francisco
199.16.173.93,4,83,indiadeals.com,US,Americas,Northern America,United States of America,California,,San Francisco
199.16.172.59,4,80,indiginews.com,US,Americas,Northern America,United States of America,California,,San Francisco
199.16.173.34,4,96,indiginews.com,US,Americas,Northern America,United States of America,California,,San Francisco
151.101.129.186,4,42,indy100.com,US,Americas,Northern America,United States of America,California,,San Francisco
151.101.65.186,4,75,indy100.com,US,Americas,Northern America,United States of America,California,,San Francisco
151.101.193.186,4,51,indy100.com,US,Americas,Northern America,United States of America,California,,San Francisco
151.101.1.186,4,48,indy100.com,US,Americas,Northern America,United States of America,California,,San Francisco
151.101.130.253,4,26,infoblox.com,US,Americas,Northern America,United States of America,California,,San Francisco
151.101.66.253,4,52,infoblox.com,US,Americas,Northern America,United States of America,California,,San Francisco
151.101.2.253,4,12,infoblox.com,US,Americas,Northern America,United States of America,California,,San Francisco
151.101.194.253,4,3,infoblox.com,US,Americas,Northern America,United States of America,California,,San Francisco
151.101.193.105,4,40,instructables.com,US,Americas,Northern America,United States of America,California,,San Francisco
151.101.129.105,4,83,instructables.com,US,Americas,Northern America,United States of America,California,,San Francisco
151.101.1.105,4,68,instructables.com,US,Americas,Northern America,United States of America,California,,San Francisco
151.101.65.105,4,27,instructables.com,US,Americas,Northern America,United States of America,California,,San Francisco
192.241.233.157,4,19,intellitec.edu,US,Americas,Northern America,United States of America,California,,San Francisco
192.0.66.52,4,19,interflex.com,US,Americas,Northern America,United States of America,California,,San Francisco
151.101.194.203,4,43,invesco.com,US,Americas,Northern America,United States of America,California,,San Francisco
151.101.66.203,4,56,invesco.com,US,Americas,Northern America,United States of America,California,,San Francisco
151.101.2.203,4,19,invesco.com,US,Americas,Northern America,United States of America,California,,San Francisco
151.101.130.203,4,17,invesco.com,US,Americas,Northern America,United States of America,California,,San Francisco
64.23.216.132,4,3,ipam.org.br,US,Americas,Northern America,United States of America,California,,San Francisco
199.16.172.251,4,3,ips-dc.org,US,Americas,Northern America,United States of America,California,,San Francisco
151.101.194.174,4,4,irishtimes.com,US,Americas,Northern America,United States of America,California,,San Francisco
151.101.66.174,4,26,irishtimes.com,US,Americas,Northern America,United States of America,California,,San Francisco
151.101.130.174,4,12,irishtimes.com,US,Americas,Northern America,United States of America,California,,San Francisco
151.101.2.174,4,81,irishtimes.com,US,Americas,Northern America,United States of America,California,,San Francisco
104.236.177.85,4,907805,isenselabs.com,US,Americas,Northern America,United States of America,California,,San Francisco
198.199.109.141,4,5,isocpp.org,US,Americas,Northern America,United States of America,California,,San Francisco
199.16.173.5,4,13,itgetsbetter.org,US,Americas,Northern America,United States of America,California,,San Francisco
199.16.172.184,4,12,jameskoster.co.uk,US,Americas,Northern America,United States of America,California,,San Francisco
192.0.66.230,4,17,januvia.com,US,Americas,Northern America,United States of America,California,,San Francisco
199.16.173.150,4,4,jeffgothelf.com,US,Americas,Northern America,United States of America,California,,San Francisco
199.16.172.174,4,3,jeffgothelf.com,US,Americas,Northern America,United States of America,California,,San Francisco
199.16.173.237,4,36,jeffreymorgenthaler.com,US,Americas,Northern America,United States of America,California,,San Francisco
192.0.66.190,4,5,jetaviation.com,US,Americas,Northern America,United States of America,California,,San Francisco
151.101.130.2,4,6,jimdo.com,US,Americas,Northern America,United States of America,California,,San Francisco
151.101.2.2,4,3,jimdo.com,US,Americas,Northern America,United States of America,California,,San Francisco
151.101.194.2,4,2,jimdo.com,US,Americas,Northern America,United States of America,California,,San Francisco
151.101.66.2,4,4,jimdo.com,US,Americas,Northern America,United States of America,California,,San Francisco
199.16.173.181,4,110,joelonsoftware.com,US,Americas,Northern America,United States of America,California,,San Francisco
162.243.157.51,4,22,jordaneldredge.com,US,Americas,Northern America,United States of America,California,,San Francisco
107.161.208.39,4,15,josephson.com,US,Americas,Northern America,United States of America,California,,San Francisco
151.101.128.152,4,2,jstor.org,US,Americas,Northern America,United States of America,California,,San Francisco
151.101.192.152,4,2,jstor.org,US,Americas,Northern America,United States of America,California,,San Francisco
151.101.0.152,4,3,jstor.org,US,Americas,Northern America,United States of America,California,,San Francisco
151.101.64.152,4,4,jstor.org,US,Americas,Northern America,United States of America,California,,San Francisco
163.5.198.99,4,3,kaleme.com,US,Americas,Northern America,United States of America,California,,San Francisco
148.64.109.20,4,2,kaourantin.net,US,Americas,Northern America,United States of America,California,,San Francisco
199.16.172.157,4,52,kaspa.org,US,Americas,Northern America,United States of America,California,,San Francisco
199.16.173.164,4,82,kaspa.org,US,Americas,Northern America,United States of America,California,,San Francisco
198.199.101.47,4,2337,kej.tw,US,Americas,Northern America,United States of America,California,,San Francisco
199.16.173.103,4,4,kelseymontagueart.com,US,Americas,Northern America,United States of America,California,,San Francisco
199.16.172.110,4,61,kidspark.com,US,Americas,Northern America,United States of America,California,,San Francisco
199.16.173.78,4,4,killscreen.com,US,Americas,Northern America,United States of America,California,,San Francisco
151.101.65.161,4,7,kin.com,US,Americas,Northern America,United States of America,California,,San Francisco
151.101.193.161,4,5,kin.com,US,Americas,Northern America,United States of America,California,,San Francisco
151.101.129.161,4,2,kin.com,US,Americas,Northern America,United States of America,California,,San Francisco
199.16.173.37,4,8,kitchencents.com,US,Americas,Northern America,United States of America,California,,San Francisco
192.241.195.21,4,2,klancashire.com,US,Americas,Northern America,United States of America,California,,San Francisco
151.101.193.78,4,3,koji.to,US,Americas,Northern America,United States of America,California,,San Francisco
151.101.1.78,4,2,koji.to,US,Americas,Northern America,United States of America,California,,San Francisco
151.101.129.78,4,2,koji.to,US,Americas,Northern America,United States of America,California,,San Francisco
151.101.65.78,4,2,koji.to,US,Americas,Northern America,United States of America,California,,San Francisco
151.101.130.224,4,18,kornferry.com,US,Americas,Northern America,United States of America,California,,San Francisco
45.55.110.254,4,145884,laco.org,US,Americas,Northern America,United States of America,California,,San Francisco
107.170.253.157,4,5,laike9m.com,US,Americas,Northern America,United States of America,California,,San Francisco
199.16.172.7,4,12,lambdaliterary.org,US,Americas,Northern America,United States of America,California,,San Francisco
199.16.172.113,4,50,largeheartedboy.com,US,Americas,Northern America,United States of America,California,,San Francisco
192.0.66.53,4,4,lasicilia.it,US,Americas,Northern America,United States of America,California,,San Francisco
199.16.172.224,4,28,lasportshall.com,US,Americas,Northern America,United States of America,California,,San Francisco
192.0.79.171,4,4,latestsightings.com,US,Americas,Northern America,United States of America,California,,San Francisco
199.16.172.218,4,4,lawfirmnewswire.com,US,Americas,Northern America,United States of America,California,,San Francisco
162.243.149.201,4,3257425,legalreader.com,US,Americas,Northern America,United States of America,California,,San Francisco
138.68.216.177,4,2,lesbiemates.com,US,Americas,Northern America,United States of America,California,,San Francisco
192.0.79.161,4,36,level33.com.sg,US,Americas,Northern America,United States of America,California,,San Francisco
192.0.79.142,4,85,level33.com.sg,US,Americas,Northern America,United States of America,California,,San Francisco
192.241.214.14,4,24,librem.one,US,Americas,Northern America,United States of America,California,,San Francisco
208.70.31.70,4,68,librivox.org,US,Americas,Northern America,United States of America,California,,San Francisco
192.241.223.99,4,26,libsdl.org,US,Americas,Northern America,United States of America,California,,San Francisco
151.101.1.173,4,40,life.church,US,Americas,Northern America,United States of America,California,,San Francisco
151.101.65.173,4,72,life.church,US,Americas,Northern America,United States of America,California,,San Francisco
151.101.193.173,4,53,life.church,US,Americas,Northern America,United States of America,California,,San Francisco
151.101.129.173,4,29,life.church,US,Americas,Northern America,United States of America,California,,San Francisco
199.16.173.125,4,27,lifeedited.com,US,Americas,Northern America,United States of America,California,,San Francisco
151.101.192.172,4,16,lifetime.life,US,Americas,Northern America,United States of America,California,,San Francisco
107.170.206.20,4,5,linuxvirtualserver.org,US,Americas,Northern America,United States of America,California,,San Francisco
199.16.173.22,4,2,lisacrispin.com,US,Americas,Northern America,United States of America,California,,San Francisco
199.16.173.211,4,5,littlehousebigalaska.com,US,Americas,Northern America,United States of America,California,,San Francisco
199.16.173.9,4,17,littlenorthernbakehouse.com,US,Americas,Northern America,United States of America,California,,San Francisco
192.0.66.121,4,4,livewithkellyandmark.com,US,Americas,Northern America,United States of America,California,,San Francisco
199.16.172.168,4,3,localmatters.co.nz,US,Americas,Northern America,United States of America,California,,San Francisco
199.16.172.226,4,3,lodo.org,US,Americas,Northern America,United States of America,California,,San Francisco
199.16.173.193,4,57,loveislouder.com,US,Americas,Northern America,United States of America,California,,San Francisco
199.16.173.60,4,4,lssi.org,US,Americas,Northern America,United States of America,California,,San Francisco
151.101.66.224,4,5,lucasgroup.com,US,Americas,Northern America,United States of America,California,,San Francisco
151.101.2.224,4,10,lucasgroup.com,US,Americas,Northern America,United States of America,California,,San Francisco
151.101.1.151,4,18,lulus.com,US,Americas,Northern America,United States of America,California,,San Francisco
199.16.173.39,4,35,macdailynews.com,US,Americas,Northern America,United States of America,California,,San Francisco
199.16.172.171,4,10,machothemes.com,US,Americas,Northern America,United States of America,California,,San Francisco
192.0.66.116,4,14,macwelt.de,US,Americas,Northern America,United States of America,California,,San Francisco
192.0.66.26,4,3,macworld.se,US,Americas,Northern America,United States of America,California,,San Francisco
199.16.173.213,4,11,madebyteachers.com,US,Americas,Northern America,United States of America,California,,San Francisco
199.16.172.134,4,14,madebyteachers.com,US,Americas,Northern America,United States of America,California,,San Francisco
199.16.172.67,4,9,madeintandem.com,US,Americas,Northern America,United States of America,California,,San Francisco
199.16.173.17,4,5,madeintandem.com,US,Americas,Northern America,United States of America,California,,San Francisco
199.16.173.207,4,21,madisonian.net,US,Americas,Northern America,United States of America,California,,San Francisco
199.16.173.214,4,15,madlyodd.com,US,Americas,Northern America,United States of America,California,,San Francisco
151.101.193.47,4,7,magidglove.com,US,Americas,Northern America,United States of America,California,,San Francisco
151.101.129.47,4,3,magidglove.com,US,Americas,Northern America,United States of America,California,,San Francisco
151.101.1.47,4,50,magidglove.com,US,Americas,Northern America,United States of America,California,,San Francisco
151.101.65.47,4,20,magidglove.com,US,Americas,Northern America,United States of America,California,,San Francisco
199.16.173.64,4,3,mainstreet.com,US,Americas,Northern America,United States of America,California,,San Francisco
199.16.172.150,4,25,mainstreet.com,US,Americas,Northern America,United States of America,California,,San Francisco
199.16.172.130,4,103,majesticcaverns.com,US,Americas,Northern America,United States of America,California,,San Francisco
192.0.66.161,4,3,mamashelter.com,US,Americas,Northern America,United States of America,California,,San Francisco
151.101.193.12,4,53,mamaway.com,US,Americas,Northern America,United States of America,California,,San Francisco
151.101.193.75,4,47,mandolinrestaurant.com,US,Americas,Northern America,United States of America,California,,San Francisco
151.101.65.75,4,5,mandolinrestaurant.com,US,Americas,Northern America,United States of America,California,,San Francisco
151.101.129.75,4,54,mandolinrestaurant.com,US,Americas,Northern America,United States of America,California,,San Francisco
64.23.154.190,4,4,manorvail.com,US,Americas,Northern America,United States of America,California,,San Francisco
151.101.0.143,4,2,mapbox.com,US,Americas,Northern America,United States of America,California,,San Francisco
151.101.64.143,4,5,mapbox.com,US,Americas,Northern America,United States of America,California,,San Francisco
151.101.192.143,4,5,mapbox.com,US,Americas,Northern America,United States of America,California,,San Francisco
151.101.128.143,4,15,mapbox.com,US,Americas,Northern America,United States of America,California,,San Francisco
199.16.173.48,4,58,maps.org,US,Americas,Northern America,United States of America,California,,San Francisco
199.16.173.63,4,52,margaretcho.com,US,Americas,Northern America,United States of America,California,,San Francisco
199.16.172.205,4,6,margaretcho.com,US,Americas,Northern America,United States of America,California,,San Francisco
199.16.172.10,4,51,marinamaral.com,US,Americas,Northern America,United States of America,California,,San Francisco
198.199.103.225,4,770,matrix67.com,US,Americas,Northern America,United States of America,California,,San Francisco
199.16.173.206,4,41,maudlinhouse.net,US,Americas,Northern America,United States of America,California,,San Francisco
199.16.173.24,4,30,maxborgesagency.com,US,Americas,Northern America,United States of America,California,,San Francisco
199.16.172.126,4,71,mbird.com,US,Americas,Northern America,United States of America,California,,San Francisco
70.36.157.233,4,405122,mckusick.com,US,Americas,Northern America,United States of America,California,,San Francisco
199.16.172.198,4,18,mcrrc.org,US,Americas,Northern America,United States of America,California,,San Francisco
199.16.172.201,4,62,mectizan.org,US,Americas,Northern America,United States of America,California,,San Francisco
151.101.66.21,4,58,mediametrie.fr,US,Americas,Northern America,United States of America,California,,San Francisco
192.0.66.27,4,34,medianewsgroup.com,US,Americas,Northern America,United States of America,California,,San Francisco
107.170.231.145,4,15,memcached.org,US,Americas,Northern America,United States of America,California,,San Francisco
151.101.65.156,4,21,menus.fyi,US,Americas,Northern America,United States of America,California,,San Francisco
151.101.129.156,4,3,menus.fyi,US,Americas,Northern America,United States of America,California,,San Francisco
151.101.1.156,4,15,menus.fyi,US,Americas,Northern America,United States of America,California,,San Francisco
151.101.193.156,4,2,menus.fyi,US,Americas,Northern America,United States of America,California,,San Francisco
192.241.220.98,4,2897281,merchline.com,US,Americas,Northern America,United States of America,California,,San Francisco
192.0.66.103,4,4,merck-animal-health.com,US,Americas,Northern America,United States of America,California,,San Francisco
151.101.193.132,4,63,mergermarket.com,US,Americas,Northern America,United States of America,California,,San Francisco
151.101.129.132,4,73,mergermarket.com,US,Americas,Northern America,United States of America,California,,San Francisco
151.101.65.132,4,10,mergermarket.com,US,Americas,Northern America,United States of America,California,,San Francisco
151.101.1.132,4,3,mergermarket.com,US,Americas,Northern America,United States of America,California,,San Francisco
192.0.66.69,4,34,meta-media.fr,US,Americas,Northern America,United States of America,California,,San Francisco
192.0.66.185,4,6,metallic.io,US,Americas,Northern America,United States of America,California,,San Francisco
107.170.203.237,4,32,metanotes.com,US,Americas,Northern America,United States of America,California,,San Francisco
192.0.66.62,4,7,metro.us,US,Americas,Northern America,United States of America,California,,San Francisco
199.16.172.178,4,6,mgfamiliar.info,US,Americas,Northern America,United States of America,California,,San Francisco
199.16.172.3,4,6,michiganapples.com,US,Americas,Northern America,United States of America,California,,San Francisco
199.16.172.96,4,27,mickeyvisit.com,US,Americas,Northern America,United States of America,California,,San Francisco
198.199.102.50,4,14,milaninstitute.edu,US,Americas,Northern America,United States of America,California,,San Francisco
192.0.66.157,4,4,minq.com,US,Americas,Northern America,United States of America,California,,San Francisco
151.101.1.178,4,4,minted.com,US,Americas,Northern America,United States of America,California,,San Francisco
151.101.195.29,4,13,minuteclinic.com,US,Americas,Northern America,United States of America,California,,San Francisco
151.101.131.29,4,6,minuteclinic.com,US,Americas,Northern America,United States of America,California,,San Francisco
151.101.67.29,4,9,minuteclinic.com,US,Americas,Northern America,United States of America,California,,San Francisco
151.101.3.29,4,12,minuteclinic.com,US,Americas,Northern America,United States of America,California,,San Francisco
208.69.40.28,4,5,missionmission.org,US,Americas,Northern America,United States of America,California,,San Francisco
198.199.97.17,4,6,missionmsa.org,US,Americas,Northern America,United States of America,California,,San Francisco
192.241.220.163,4,3,misskatecuttables.com,US,Americas,Northern America,United States of America,California,,San Francisco
192.0.66.229,4,3,mitek-us.com,US,Americas,Northern America,United States of America,California,,San Francisco
151.101.0.207,4,3,modelviewculture.com,US,Americas,Northern America,United States of America,California,,San Francisco
151.101.64.207,4,2,modelviewculture.com,US,Americas,Northern America,United States of America,California,,San Francisco
64.23.254.162,4,245568,moeinsurgicalarts.com,US,Americas,Northern America,United States of America,California,,San Francisco
199.16.173.158,4,11,mondoweiss.net,US,Americas,Northern America,United States of America,California,,San Francisco
151.101.130.26,4,65,moo.com,US,Americas,Northern America,United States of America,California,,San Francisco
151.101.2.26,4,3,moo.com,US,Americas,Northern America,United States of America,California,,San Francisco
151.101.66.26,4,3,moo.com,US,Americas,Northern America,United States of America,California,,San Francisco
151.101.194.26,4,2,moo.com,US,Americas,Northern America,United States of America,California,,San Francisco
151.101.3.0,4,6,moretrees.eco,US,Americas,Northern America,United States of America,California,,San Francisco
151.101.67.0,4,6,moretrees.eco,US,Americas,Northern America,United States of America,California,,San Francisco
151.101.131.0,4,3,moretrees.eco,US,Americas,Northern America,United States of America,California,,San Francisco
151.101.195.0,4,3,moretrees.eco,US,Americas,Northern America,United States of America,California,,San Francisco
199.16.173.16,4,4,morningconsult.com,US,Americas,Northern America,United States of America,California,,San Francisco
199.16.172.148,4,20,morningconsult.com,US,Americas,Northern America,United States of America,California,,San Francisco
199.16.172.223,4,6,morphyauctions.com,US,Americas,Northern America,United States of America,California,,San Francisco
151.101.0.195,4,2,mothercare.com,US,Americas,Northern America,United States of America,California,,San Francisco
151.101.64.195,4,11,mothercare.com,US,Americas,Northern America,United States of America,California,,San Francisco
192.0.66.139,4,2,mua.edu,US,Americas,Northern America,United States of America,California,,San Francisco
151.101.64.203,4,56,multiply.com,US,Americas,Northern America,United States of America,California,,San Francisco
151.101.128.203,4,45,multiply.com,US,Americas,Northern America,United States of America,California,,San Francisco
151.101.0.203,4,38,multiply.com,US,Americas,Northern America,United States of America,California,,San Francisco
151.101.192.203,4,19,multiply.com,US,Americas,Northern America,United States of America,California,,San Francisco
107.170.213.215,4,126,multitwitch.tv,US,Americas,Northern America,United States of America,California,,San Francisco
192.0.66.207,4,34,musicfeeds.com.au,US,Americas,Northern America,United States of America,California,,San Francisco
199.16.172.22,4,40,muslimgirl.com,US,Americas,Northern America,United States of America,California,,San Francisco
199.16.172.90,4,27,mycovenant.org.uk,US,Americas,Northern America,United States of America,California,,San Francisco
199.16.173.192,4,34,mydomastudio.com,US,Americas,Northern America,United States of America,California,,San Francisco
151.101.130.168,4,48,mylifetime.com,US,Americas,Northern America,United States of America,California,,San Francisco
151.101.2.168,4,32,mylifetime.com,US,Americas,Northern America,United States of America,California,,San Francisco
151.101.194.168,4,33,mylifetime.com,US,Americas,Northern America,United States of America,California,,San Francisco
151.101.66.168,4,25,mylifetime.com,US,Americas,Northern America,United States of America,California,,San Francisco
192.0.66.105,4,13,mypet.com,US,Americas,Northern America,United States of America,California,,San Francisco
162.243.133.6,4,1146482,mysmilies.com,US,Americas,Northern America,United States of America,California,,San Francisco
45.55.110.124,4,3,mysuperjob.it,US,Americas,Northern America,United States of America,California,,San Francisco
198.199.96.11,4,13,myvetonline.com,US,Americas,Northern America,United States of America,California,,San Francisco
192.0.66.56,4,3,nabjonline.org,US,Americas,Northern America,United States of America,California,,San Francisco
199.16.173.85,4,17,nachedeu.com,US,Americas,Northern America,United States of America,California,,San Francisco
199.16.172.165,4,94,nasddds.org,US,Americas,Northern America,United States of America,California,,San Francisco
199.16.172.70,4,98,natureandculture.org,US,Americas,Northern America,United States of America,California,,San Francisco
199.16.172.131,4,37,naturecoaster.com,US,Americas,Northern America,United States of America,California,,San Francisco
162.243.144.243,4,11,navarrowine.com,US,Americas,Northern America,United States of America,California,,San Francisco
199.16.173.28,4,6,nbamaniacs.com,US,Americas,Northern America,United States of America,California,,San Francisco
151.101.1.86,4,4,nbc-2.com,US,Americas,Northern America,United States of America,California,,San Francisco
151.101.193.86,4,10,nbc-2.com,US,Americas,Northern America,United States of America,California,,San Francisco
151.101.129.86,4,3,nbc-2.com,US,Americas,Northern America,United States of America,California,,San Francisco
151.101.65.86,4,4,nbc-2.com,US,Americas,Northern America,United States of America,California,,San Francisco
192.0.66.51,4,6,nbcstations.com,US,Americas,Northern America,United States of America,California,,San Francisco
199.16.173.227,4,13,ncafp.org,US,Americas,Northern America,United States of America,California,,San Francisco
192.241.236.27,4,1,ncascades.org,US,Americas,Northern America,United States of America,California,,San Francisco
192.0.66.174,4,11,ndi.video,US,Americas,Northern America,United States of America,California,,San Francisco
199.16.173.6,4,51,neosensory.com,US,Americas,Northern America,United States of America,California,,San Francisco
199.16.172.33,4,14,neosensory.com,US,Americas,Northern America,United States of America,California,,San Francisco
69.28.100.13,4,4,netfortris.com,US,Americas,Northern America,United States of America,California,,San Francisco
199.16.172.23,4,9,newdestinyhousing.org,US,Americas,Northern America,United States of America,California,,San Francisco
199.16.173.148,4,6,newdestinyhousing.org,US,Americas,Northern America,United States of America,California,,San Francisco
199.16.173.208,4,4,newporthealthcare.com,US,Americas,Northern America,United States of America,California,,San Francisco
199.16.172.40,4,4,news-in-english.com,US,Americas,Northern America,United States of America,California,,San Francisco
198.199.97.89,4,2,newyork-company.com,US,Americas,Northern America,United States of America,California,,San Francisco
192.0.66.65,4,12,nexplanon.com,US,Americas,Northern America,United States of America,California,,San Francisco
199.16.172.17,4,60,nfina.com,US,Americas,Northern America,United States of America,California,,San Francisco
192.0.66.189,4,35,nice.com,US,Americas,Northern America,United States of America,California,,San Francisco
199.16.172.54,4,9,nisaw.org,US,Americas,Northern America,United States of America,California,,San Francisco
104.236.179.56,4,2,njstar.com,US,Americas,Northern America,United States of America,California,,San Francisco
199.16.173.165,4,4,nmgastronome.com,US,Americas,Northern America,United States of America,California,,San Francisco
198.199.103.8,4,62,nonint.com,US,Americas,Northern America,United States of America,California,,San Francisco
192.0.66.60,4,138,novanta.com,US,Americas,Northern America,United States of America,California,,San Francisco
199.16.173.72,4,3,nqttcn.com,US,Americas,Northern America,United States of America,California,,San Francisco
199.16.172.13,4,6,nqttcn.com,US,Americas,Northern America,United States of America,California,,San Francisco
192.0.66.73,4,21,nymetroparents.com,US,Americas,Northern America,United States of America,California,,San Francisco
199.16.173.142,4,42,obrag.org,US,Americas,Northern America,United States of America,California,,San Francisco
192.0.66.89,4,-6,observeinc.com,US,Americas,Northern America,United States of America,California,,San Francisco
199.16.173.209,4,4,occasionscaterers.com,US,Americas,Northern America,United States of America,California,,San Francisco
199.16.172.190,4,17,occasionscaterers.com,US,Americas,Northern America,United States of America,California,,San Francisco
198.199.98.90,4,5,occupyoakland.org,US,Americas,Northern America,United States of America,California,,San Francisco
192.0.66.151,4,24,odometer.com,US,Americas,Northern America,United States of America,California,,San Francisco
107.170.215.9,4,42,odopod.com,US,Americas,Northern America,United States of America,California,,San Francisco
199.16.172.104,4,3,ohiobasketball.com,US,Americas,Northern America,United States of America,California,,San Francisco
199.16.173.88,4,4,ohiobasketball.com,US,Americas,Northern America,United States of America,California,,San Francisco
199.16.172.206,4,65,olaschool.org,US,Americas,Northern America,United States of America,California,,San Francisco
199.16.173.212,4,51,olelo.org,US,Americas,Northern America,United States of America,California,,San Francisco
199.16.173.183,4,16,omgchrome.com,US,Americas,Northern America,United States of America,California,,San Francisco
199.16.173.168,4,27,omgubuntu.co.uk,US,Americas,Northern America,United States of America,California,,San Francisco
199.16.173.86,4,8,onedegreeorganics.com,US,Americas,Northern America,United States of America,California,,San Francisco
151.101.0.201,4,2,onlinecensorship.org,US,Americas,Northern America,United States of America,California,,San Francisco
151.101.64.201,4,8,onlinecensorship.org,US,Americas,Northern America,United States of America,California,,San Francisco
151.101.192.201,4,2,onlinecensorship.org,US,Americas,Northern America,United States of America,California,,San Francisco
151.101.128.201,4,2,onlinecensorship.org,US,Americas,Northern America,United States of America,California,,San Francisco
192.241.196.219,4,3438,onlineutah.us,US,Americas,Northern America,United States of America,California,,San Francisco
192.0.79.183,4,22,onthewater.com,US,Americas,Northern America,United States of America,California,,San Francisco
192.0.79.145,4,8,onthewater.com,US,Americas,Northern America,United States of America,California,,San Francisco
208.69.40.37,4,8681039,Ookla Speedtest Server: speedtest.monkeybrains.net,US,Americas,Northern America,United States of America,California,,San Francisco
192.0.66.78,4,85,oola.com,US,Americas,Northern America,United States of America,California,,San Francisco
199.16.173.71,4,6,opensource.net,US,Americas,Northern America,United States of America,California,,San Francisco
199.16.172.170,4,3,opensource.org,US,Americas,Northern America,United States of America,California,,San Francisco
199.16.173.47,4,20,orangetreetheatre.co.uk,US,Americas,Northern America,United States of America,California,,San Francisco
199.16.172.217,4,20,order-order.com,US,Americas,Northern America,United States of America,California,,San Francisco
146.190.166.148,4,7,orwhateveryoudo.com,US,Americas,Northern America,United States of America,California,,San Francisco
199.16.173.221,4,3,otherwords.org,US,Americas,Northern America,United States of America,California,,San Francisco
199.16.172.169,4,89,ourawesomeplanet.com,US,Americas,Northern America,United States of America,California,,San Francisco
151.101.194.228,4,20,outdooralabama.com,US,Americas,Northern America,United States of America,California,,San Francisco
151.101.66.228,4,20,outdooralabama.com,US,Americas,Northern America,United States of America,California,,San Francisco
151.101.130.228,4,2,outdooralabama.com,US,Americas,Northern America,United States of America,California,,San Francisco
192.0.66.135,4,4,oversightboard.com,US,Americas,Northern America,United States of America,California,,San Francisco
199.16.173.110,4,24,pakwired.com,US,Americas,Northern America,United States of America,California,,San Francisco
151.101.129.170,4,3,palantir.com,US,Americas,Northern America,United States of America,California,,San Francisco
151.101.1.170,4,53,palantir.com,US,Americas,Northern America,United States of America,California,,San Francisco
151.101.65.170,4,14,palantir.com,US,Americas,Northern America,United States of America,California,,San Francisco
151.101.193.170,4,3,palantir.com,US,Americas,Northern America,United States of America,California,,San Francisco
151.101.130.80,4,2,paperlesspost.com,US,Americas,Northern America,United States of America,California,,San Francisco
151.101.2.80,4,3,paperlesspost.com,US,Americas,Northern America,United States of America,California,,San Francisco
151.101.194.80,4,16,paperlesspost.com,US,Americas,Northern America,United States of America,California,,San Francisco
151.101.66.80,4,7,paperlesspost.com,US,Americas,Northern America,United States of America,California,,San Francisco
199.16.173.105,4,26,parisbaguette.com,US,Americas,Northern America,United States of America,California,,San Francisco
199.16.173.248,4,18,parkworld-online.com,US,Americas,Northern America,United States of America,California,,San Francisco
199.16.173.61,4,61,pastdaily.com,US,Americas,Northern America,United States of America,California,,San Francisco
192.0.66.237,4,30,patelco.org,US,Americas,Northern America,United States of America,California,,San Francisco
199.16.172.250,4,44,patentprogress.org,US,Americas,Northern America,United States of America,California,,San Francisco
199.16.173.94,4,17,patentprogress.org,US,Americas,Northern America,United States of America,California,,San Francisco
199.16.173.95,4,7,pathfinderseo.com,US,Americas,Northern America,United States of America,California,,San Francisco
199.16.173.133,4,8,paynefellows.org,US,Americas,Northern America,United States of America,California,,San Francisco
199.16.172.60,4,14,paynefellows.org,US,Americas,Northern America,United States of America,California,,San Francisco
151.101.3.1,4,3,paypal.pl,US,Americas,Northern America,United States of America,California,,San Francisco
151.101.67.1,4,5,paypal.pl,US,Americas,Northern America,United States of America,California,,San Francisco
199.16.172.122,4,7,pbc.org,US,Americas,Northern America,United States of America,California,,San Francisco
192.0.66.111,4,32,pcwelt.de,US,Americas,Northern America,United States of America,California,,San Francisco
192.0.66.107,4,4,pcworld.com,US,Americas,Northern America,United States of America,California,,San Francisco
151.101.193.39,4,4,percolate.com,US,Americas,Northern America,United States of America,California,,San Francisco
151.101.65.39,4,2,percolate.com,US,Americas,Northern America,United States of America,California,,San Francisco
151.101.129.39,4,2,percolate.com,US,Americas,Northern America,United States of America,California,,San Francisco
151.101.1.39,4,2,percolate.com,US,Americas,Northern America,United States of America,California,,San Francisco
199.16.172.252,4,13,pged.org,US,Americas,Northern America,United States of America,California,,San Francisco
199.16.173.161,4,11,pharmafile.com,US,Americas,Northern America,United States of America,California,,San Francisco
199.16.173.114,4,23,pharmasug.org,US,Americas,Northern America,United States of America,California,,San Francisco
192.0.66.235,4,25,phillysportsnetwork.com,US,Americas,Northern America,United States of America,California,,San Francisco
199.16.173.139,4,18,pincho.com,US,Americas,Northern America,United States of America,California,,San Francisco
151.101.64.64,4,6,piriform.com,US,Americas,Northern America,United States of America,California,,San Francisco
151.101.192.64,4,37,piriform.com,US,Americas,Northern America,United States of America,California,,San Francisco
151.101.0.64,4,18,piriform.com,US,Americas,Northern America,United States of America,California,,San Francisco
151.101.128.64,4,12,piriform.com,US,Americas,Northern America,United States of America,California,,San Francisco
199.16.172.24,4,17,pivot.quebec,US,Americas,Northern America,United States of America,California,,San Francisco
151.101.192.119,4,20,pixelperfectdigital.com,US,Americas,Northern America,United States of America,California,,San Francisco
199.16.173.50,4,7,pixelsandpills.com,US,Americas,Northern America,United States of America,California,,San Francisco
199.16.173.152,4,23,plannersweb.com,US,Americas,Northern America,United States of America,California,,San Francisco
192.0.66.20,4,16,playstationlifestyle.net,US,Americas,Northern America,United States of America,California,,San Francisco
107.170.203.194,4,12,pleco.com,US,Americas,Northern America,United States of America,California,,San Francisco
151.101.0.119,4,4,ploom.tv,US,Americas,Northern America,United States of America,California,,San Francisco
199.16.173.135,4,4,pmlive.com,US,Americas,Northern America,United States of America,California,,San Francisco
199.16.172.146,4,3,pmlive.com,US,Americas,Northern America,United States of America,California,,San Francisco
199.16.173.70,4,39,pnt.org,US,Americas,Northern America,United States of America,California,,San Francisco
199.16.172.244,4,3,pocketcasts.com,US,Americas,Northern America,United States of America,California,,San Francisco
199.16.173.2,4,4,podcastpage.io,US,Americas,Northern America,United States of America,California,,San Francisco
199.16.172.6,4,48,podcastpage.io,US,Americas,Northern America,United States of America,California,,San Francisco
199.16.172.68,4,49,pollara.com,US,Americas,Northern America,United States of America,California,,San Francisco
104.131.140.26,4,36,ponyos.org,US,Americas,Northern America,United States of America,California,,San Francisco
199.16.172.207,4,22,pophistorydig.com,US,Americas,Northern America,United States of America,California,,San Francisco
199.16.172.121,4,20,power2u.org,US,Americas,Northern America,United States of America,California,,San Francisco
192.0.66.83,4,15,ppp-quotes.com,US,Americas,Northern America,United States of America,California,,San Francisco
199.16.173.55,4,16,prairie-care.com,US,Americas,Northern America,United States of America,California,,San Francisco
192.0.66.122,4,45,prepredzone.com,US,Americas,Northern America,United States of America,California,,San Francisco
192.0.66.195,4,70,presidiotunneltops.gov,US,Americas,Northern America,United States of America,California,,San Francisco
199.16.173.167,4,34,pressable.com,US,Americas,Northern America,United States of America,California,,San Francisco
192.0.66.191,4,65,pressenterprise.com,US,Americas,Northern America,United States of America,California,,San Francisco
151.101.130.186,4,29,priceline.com,US,Americas,Northern America,United States of America,California,,San Francisco
151.101.2.186,4,50,priceline.com,US,Americas,Northern America,United States of America,California,,San Francisco
151.101.66.186,4,56,priceline.com,US,Americas,Northern America,United States of America,California,,San Francisco
151.101.194.186,4,68,priceline.com,US,Americas,Northern America,United States of America,California,,San Francisco
151.101.192.70,4,42,primesport.com,US,Americas,Northern America,United States of America,California,,San Francisco
151.101.128.70,4,24,primesport.com,US,Americas,Northern America,United States of America,California,,San Francisco
151.101.64.70,4,53,primesport.com,US,Americas,Northern America,United States of America,California,,San Francisco
151.101.0.70,4,70,primesport.com,US,Americas,Northern America,United States of America,California,,San Francisco
199.16.172.162,4,25,printmag.com,US,Americas,Northern America,United States of America,California,,San Francisco
107.170.240.125,4,29,producereport.com,US,Americas,Northern America,United States of America,California,,San Francisco
199.16.172.8,4,14,professionalwatches.com,US,Americas,Northern America,United States of America,California,,San Francisco
199.16.172.231,4,17,project-disco.org,US,Americas,Northern America,United States of America,California,,San Francisco
199.16.173.59,4,7,project-disco.org,US,Americas,Northern America,United States of America,California,,San Francisco
96.82.106.35,4,87644,promisec.net,US,Americas,Northern America,United States of America,California,,San Francisco
192.0.66.197,4,43,psmag.com,US,Americas,Northern America,United States of America,California,,San Francisco
199.16.172.179,4,55,publishers.org,US,Americas,Northern America,United States of America,California,,San Francisco
199.16.172.97,4,19,purelansing.com,US,Americas,Northern America,United States of America,California,,San Francisco
162.243.129.169,4,7,puu.sh,US,Americas,Northern America,United States of America,California,,San Francisco
151.101.194.197,4,1,pvhcorporateoutfitters.com,US,Americas,Northern America,United States of America,California,,San Francisco
151.101.66.197,4,19,pvhcorporateoutfitters.com,US,Americas,Northern America,United States of America,California,,San Francisco
151.101.130.197,4,11,pvhcorporateoutfitters.com,US,Americas,Northern America,United States of America,California,,San Francisco
151.101.2.197,4,19,pvhcorporateoutfitters.com,US,Americas,Northern America,United States of America,California,,San Francisco
151.101.0.223,4,2,pythonhosted.org,US,Americas,Northern America,United States of America,California,,San Francisco
151.101.128.223,4,2,pythonhosted.org,US,Americas,Northern America,United States of America,California,,San Francisco
151.101.192.223,4,3,pythonhosted.org,US,Americas,Northern America,United States of America,California,,San Francisco
151.101.64.223,4,5,pythonhosted.org,US,Americas,Northern America,United States of America,California,,San Francisco
199.16.172.115,4,4,qcostarica.com,US,Americas,Northern America,United States of America,California,,San Francisco
199.16.172.102,4,5,qem.org,US,Americas,Northern America,United States of America,California,,San Francisco
192.0.66.22,4,10,qns.com,US,Americas,Northern America,United States of America,California,,San Francisco
199.16.173.41,4,9,quantumzeitgeist.com,US,Americas,Northern America,United States of America,California,,San Francisco
199.16.172.183,4,6,quividi.com,US,Americas,Northern America,United States of America,California,,San Francisco
151.101.129.208,4,4,quizzle.com,US,Americas,Northern America,United States of America,California,,San Francisco
151.101.65.208,4,26,quizzle.com,US,Americas,Northern America,United States of America,California,,San Francisco
151.101.193.208,4,3,quizzle.com,US,Americas,Northern America,United States of America,California,,San Francisco
151.101.1.208,4,8,quizzle.com,US,Americas,Northern America,United States of America,California,,San Francisco
199.16.172.237,4,121,rad-aid.org,US,Americas,Northern America,United States of America,California,,San Francisco
192.0.66.101,4,59,rakutenadvertising.com,US,Americas,Northern America,United States of America,California,,San Francisco
138.68.223.40,4,41,rankchart.org,US,Americas,Northern America,United States of America,California,,San Francisco
151.101.131.11,4,18,ranker.com,US,Americas,Northern America,United States of America,California,,San Francisco
151.101.67.11,4,38,ranker.com,US,Americas,Northern America,United States of America,California,,San Francisco
151.101.195.11,4,4,ranker.com,US,Americas,Northern America,United States of America,California,,San Francisco
151.101.3.11,4,52,ranker.com,US,Americas,Northern America,United States of America,California,,San Francisco
199.16.172.105,4,16,rankinfoundation.org,US,Americas,Northern America,United States of America,California,,San Francisco
199.16.173.141,4,40,rankinfoundation.org,US,Americas,Northern America,United States of America,California,,San Francisco
151.101.65.245,4,27,rapidrewardsdining.com,US,Americas,Northern America,United States of America,California,,San Francisco
151.101.129.245,4,21,rapidrewardsdining.com,US,Americas,Northern America,United States of America,California,,San Francisco
151.101.1.245,4,32,rapidrewardsdining.com,US,Americas,Northern America,United States of America,California,,San Francisco
151.101.193.245,4,48,rapidrewardsdining.com,US,Americas,Northern America,United States of America,California,,San Francisco
199.16.173.253,4,49,rationalwalk.com,US,Americas,Northern America,United States of America,California,,San Francisco
192.0.66.221,4,6,rbcx.com,US,Americas,Northern America,United States of America,California,,San Francisco
192.241.199.44,4,2709409,rbutr.com,US,Americas,Northern America,United States of America,California,,San Francisco
192.0.66.140,4,4,rcfp.org,US,Americas,Northern America,United States of America,California,,San Francisco
151.101.1.135,4,8,rdr2map.com,US,Americas,Northern America,United States of America,California,,San Francisco
151.101.129.135,4,18,rdr2map.com,US,Americas,Northern America,United States of America,California,,San Francisco
151.101.193.135,4,11,rdr2map.com,US,Americas,Northern America,United States of America,California,,San Francisco
151.101.65.135,4,14,rdr2map.com,US,Americas,Northern America,United States of America,California,,San Francisco
192.0.66.193,4,13,realtrends.com,US,Americas,Northern America,United States of America,California,,San Francisco
199.16.173.190,4,30,rebarkable.com,US,Americas,Northern America,United States of America,California,,San Francisco
199.16.172.82,4,18,reclamesticker.nl,US,Americas,Northern America,United States of America,California,,San Francisco
192.0.66.119,4,16,recolorado.com,US,Americas,Northern America,United States of America,California,,San Francisco
199.16.173.194,4,25,recordingconnection.com,US,Americas,Northern America,United States of America,California,,San Francisco
192.241.218.177,4,2,reddit-stream.com,US,Americas,Northern America,United States of America,California,,San Francisco
151.101.129.140,4,4,reddithelp.com,US,Americas,Northern America,United States of America,California,,San Francisco
151.101.193.140,4,3,reddithelp.com,US,Americas,Northern America,United States of America,California,,San Francisco
151.101.65.140,4,31,reddithelp.com,US,Americas,Northern America,United States of America,California,,San Francisco
151.101.1.140,4,4,reddithelp.com,US,Americas,Northern America,United States of America,California,,San Francisco
199.16.172.189,4,17,redheadmom.com,US,Americas,Northern America,United States of America,California,,San Francisco
192.241.194.213,4,2,refog.com,US,Americas,Northern America,United States of America,California,,San Francisco
199.16.173.19,4,50,reggioalliance.org,US,Americas,Northern America,United States of America,California,,San Francisco
192.0.66.102,4,24,remaxcommercial.com,US,Americas,Northern America,United States of America,California,,San Francisco
199.16.172.27,4,20,remolacha.net,US,Americas,Northern America,United States of America,California,,San Francisco
199.16.173.130,4,26,remolacha.net,US,Americas,Northern America,United States of America,California,,San Francisco
104.131.138.17,4,71582,renci.org,US,Americas,Northern America,United States of America,California,,San Francisco
199.16.172.145,4,12,reoldsmuseum.org,US,Americas,Northern America,United States of America,California,,San Francisco
104.236.134.154,4,2561,requestpolicy.com,US,Americas,Northern America,United States of America,California,,San Francisco
151.101.1.41,4,64,researcher-app.com,US,Americas,Northern America,United States of America,California,,San Francisco
151.101.129.41,4,2,researcher-app.com,US,Americas,Northern America,United States of America,California,,San Francisco
151.101.65.41,4,29,researcher-app.com,US,Americas,Northern America,United States of America,California,,San Francisco
151.101.193.41,4,43,researcher-app.com,US,Americas,Northern America,United States of America,California,,San Francisco
192.0.66.19,4,40,reseller.co.nz,US,Americas,Northern America,United States of America,California,,San Francisco
64.23.214.173,4,5,reyescocacola.com,US,Americas,Northern America,United States of America,California,,San Francisco
151.101.66.150,4,16,rezserver.com,US,Americas,Northern America,United States of America,California,,San Francisco
151.101.194.150,4,37,rezserver.com,US,Americas,Northern America,United States of America,California,,San Francisco
151.101.2.150,4,48,rezserver.com,US,Americas,Northern America,United States of America,California,,San Francisco
151.101.130.150,4,9,rezserver.com,US,Americas,Northern America,United States of America,California,,San Francisco
199.16.173.52,4,36,ridester.com,US,Americas,Northern America,United States of America,California,,San Francisco
199.16.172.21,4,14,ridester.com,US,Americas,Northern America,United States of America,California,,San Francisco
199.16.173.91,4,31,rightsindevelopment.org,US,Americas,Northern America,United States of America,California,,San Francisco
192.0.66.194,4,4,rightworks.com,US,Americas,Northern America,United States of America,California,,San Francisco
199.16.173.157,4,4,ringthepines.com,US,Americas,Northern America,United States of America,California,,San Francisco
199.16.173.26,4,8,riograndeguardian.com,US,Americas,Northern America,United States of America,California,,San Francisco
199.16.172.129,4,4,riversidehealth.org,US,Americas,Northern America,United States of America,California,,San Francisco
199.16.172.35,4,5,rmc.edu,US,Americas,Northern America,United States of America,California,,San Francisco
199.16.173.120,4,6,rmc.edu,US,Americas,Northern America,United States of America,California,,San Francisco
199.16.173.180,4,24,rmhp.org,US,Americas,Northern America,United States of America,California,,San Francisco
199.16.172.28,4,5,rmhp.org,US,Americas,Northern America,United States of America,California,,San Francisco
192.0.66.24,4,25,robbreport.com,US,Americas,Northern America,United States of America,California,,San Francisco
199.16.172.56,4,4,roberson.org,US,Americas,Northern America,United States of America,California,,San Francisco
199.16.173.197,4,47,rocketdogrescue.org,US,Americas,Northern America,United States of America,California,,San Francisco
199.16.172.118,4,3,rocketdogrescue.org,US,Americas,Northern America,United States of America,California,,San Francisco
151.101.2.56,4,7,rocketlawyer.co.uk,US,Americas,Northern America,United States of America,California,,San Francisco
151.101.194.56,4,4,rocketlawyer.co.uk,US,Americas,Northern America,United States of America,California,,San Francisco
151.101.66.56,4,2,rocketlawyer.co.uk,US,Americas,Northern America,United States of America,California,,San Francisco
151.101.130.56,4,3,rocketlawyer.co.uk,US,Americas,Northern America,United States of America,California,,San Francisco
192.0.66.114,4,53,rollingstone.com,US,Americas,Northern America,United States of America,California,,San Francisco
199.16.173.234,4,15,romingerlegal.com,US,Americas,Northern America,United States of America,California,,San Francisco
199.16.172.221,4,85,rootedinrights.org,US,Americas,Northern America,United States of America,California,,San Francisco
199.16.173.23,4,4,rootedinrights.org,US,Americas,Northern America,United States of America,California,,San Francisco
199.16.172.177,4,41,rowingnews.com,US,Americas,Northern America,United States of America,California,,San Francisco
199.16.173.62,4,9,roxanegay.com,US,Americas,Northern America,United States of America,California,,San Francisco
199.16.172.20,4,12,roxanegay.com,US,Americas,Northern America,United States of America,California,,San Francisco
199.16.173.112,4,37,royalexaminer.com,US,Americas,Northern America,United States of America,California,,San Francisco
199.16.172.222,4,7,rpo.org,US,Americas,Northern America,United States of America,California,,San Francisco
199.16.173.68,4,20,rpo.org,US,Americas,Northern America,United States of America,California,,San Francisco
199.16.172.172,4,11,rsilogistics.com,US,Americas,Northern America,United States of America,California,,San Francisco
199.16.173.224,4,15,rta-arts.org,US,Americas,Northern America,United States of America,California,,San Francisco
199.16.172.186,4,7,rta-arts.org,US,Americas,Northern America,United States of America,California,,San Francisco
192.0.66.125,4,49,rtcamp.com,US,Americas,Northern America,United States of America,California,,San Francisco
151.101.130.192,4,3,rtp.pt,US,Americas,Northern America,United States of America,California,,San Francisco
151.101.2.192,4,18,rtp.pt,US,Americas,Northern America,United States of America,California,,San Francisco
151.101.194.192,4,3,rtp.pt,US,Americas,Northern America,United States of America,California,,San Francisco
151.101.66.192,4,5,rtp.pt,US,Americas,Northern America,United States of America,California,,San Francisco
151.101.129.227,4,28,rubygems.org,US,Americas,Northern America,United States of America,California,,San Francisco
151.101.65.227,4,21,rubygems.org,US,Americas,Northern America,United States of America,California,,San Francisco
151.101.193.227,4,20,rubygems.org,US,Americas,Northern America,United States of America,California,,San Francisco
151.101.1.227,4,59,rubygems.org,US,Americas,Northern America,United States of America,California,,San Francisco
208.69.40.117,4,6,rudyrucker.com,US,Americas,Northern America,United States of America,California,,San Francisco
107.170.243.210,4,82,rushnsp.org.au,US,Americas,Northern America,United States of America,California,,San Francisco
199.16.173.143,4,4,rutgersaaup.org,US,Americas,Northern America,United States of America,California,,San Francisco
199.16.173.74,4,25,sabor.com,US,Americas,Northern America,United States of America,California,,San Francisco
199.16.172.234,4,3,sabor.com,US,Americas,Northern America,United States of America,California,,San Francisco
45.55.109.214,4,5,sacredsheetmusic.org,US,Americas,Northern America,United States of America,California,,San Francisco
199.16.172.161,4,8,safehealthcareforeverywoman.org,US,Americas,Northern America,United States of America,California,,San Francisco
199.16.173.251,4,4,saferbirth.org,US,Americas,Northern America,United States of America,California,,San Francisco
192.0.66.152,4,56,salesforceventures.com,US,Americas,Northern America,United States of America,California,,San Francisco
198.199.109.18,4,27,samat.org,US,Americas,Northern America,United States of America,California,,San Francisco
104.236.181.37,4,44,samy.pl,US,Americas,Northern America,United States of America,California,,San Francisco
199.16.172.202,4,21,sandiegobloodbank.org,US,Americas,Northern America,United States of America,California,,San Francisco
199.16.173.249,4,8,sandiegobloodbank.org,US,Americas,Northern America,United States of America,California,,San Francisco
199.16.173.172,4,19,sandiegoexplorer.com,US,Americas,Northern America,United States of America,California,,San Francisco
199.16.173.250,4,5,sandiegofreepress.org,US,Americas,Northern America,United States of America,California,,San Francisco
192.0.79.148,4,6,santaanastar.com,US,Americas,Northern America,United States of America,California,,San Francisco
192.0.79.164,4,3,santaanastar.com,US,Americas,Northern America,United States of America,California,,San Francisco
199.16.173.123,4,5,saparksfoundation.org,US,Americas,Northern America,United States of America,California,,San Francisco
199.16.173.182,4,11,saratogawine.com,US,Americas,Northern America,United States of America,California,,San Francisco
192.0.66.16,4,69,saratogian.com,US,Americas,Northern America,United States of America,California,,San Francisco
12.27.69.132,4,1215762,satmagazine.com,US,Americas,Northern America,United States of America,California,,San Francisco
12.27.69.131,4,1215794,satnews.com,US,Americas,Northern America,United States of America,California,,San Francisco
199.16.172.116,4,3,savannahpd.org,US,Americas,Northern America,United States of America,California,,San Francisco
199.16.173.10,4,34,savannahpd.org,US,Americas,Northern America,United States of America,California,,San Francisco
138.68.220.23,4,5,scdp.org,US,Americas,Northern America,United States of America,California,,San Francisco
199.16.172.203,4,51,schneier.com,US,Americas,Northern America,United States of America,California,,San Francisco
199.16.173.239,4,51,schneier.com,US,Americas,Northern America,United States of America,California,,San Francisco
192.0.66.183,4,4,schnepsmedia.com,US,Americas,Northern America,United States of America,California,,San Francisco
199.16.172.124,4,8,scholars-stage.org,US,Americas,Northern America,United States of America,California,,San Francisco
199.16.173.153,4,5,scholars-stage.org,US,Americas,Northern America,United States of America,California,,San Francisco
199.16.172.65,4,4,sciencefun.org,US,Americas,Northern America,United States of America,California,,San Francisco
199.16.173.115,4,12,scleroderma.org,US,Americas,Northern America,United States of America,California,,San Francisco
151.101.130.33,4,30,scratchjr.org,US,Americas,Northern America,United States of America,California,,San Francisco
151.101.66.33,4,16,scratchjr.org,US,Americas,Northern America,United States of America,California,,San Francisco
151.101.2.33,4,21,scratchjr.org,US,Americas,Northern America,United States of America,California,,San Francisco
151.101.194.33,4,19,scratchjr.org,US,Americas,Northern America,United States of America,California,,San Francisco
199.16.172.173,4,6,seadek.com,US,Americas,Northern America,United States of America,California,,San Francisco
151.101.1.158,4,28,seamlessweb.com,US,Americas,Northern America,United States of America,California,,San Francisco
93.115.200.73,4,6,seasonsindia.com,US,Americas,Northern America,United States of America,California,,San Francisco
151.101.1.188,4,9,seattle11.com,US,Americas,Northern America,United States of America,California,,San Francisco
151.101.65.188,4,18,seattle11.com,US,Americas,Northern America,United States of America,California,,San Francisco
151.101.129.188,4,16,seattle11.com,US,Americas,Northern America,United States of America,California,,San Francisco
151.101.193.188,4,16,seattle11.com,US,Americas,Northern America,United States of America,California,,San Francisco
151.101.2.228,4,14,seattleschools.org,US,Americas,Northern America,United States of America,California,,San Francisco
209.237.237.37,4,11,secinfo.com,US,Americas,Northern America,United States of America,California,,San Francisco
199.16.172.196,4,7,secondharvestmadison.org,US,Americas,Northern America,United States of America,California,,San Francisco
199.16.173.129,4,13,secondlinethemes.com,US,Americas,Northern America,United States of America,California,,San Francisco
64.23.203.97,4,0,secret.graphics,US,Americas,Northern America,United States of America,California,,San Francisco
199.16.172.219,4,19,selfadvocacyinfo.org,US,Americas,Northern America,United States of America,California,,San Francisco
199.16.172.140,4,19,seniorplanet.org,US,Americas,Northern America,United States of America,California,,San Francisco
192.0.79.165,4,4,serbiantimes.info,US,Americas,Northern America,United States of America,California,,San Francisco
192.0.79.147,4,3,serbiantimes.info,US,Americas,Northern America,United States of America,California,,San Francisco
198.199.96.18,4,29,servomagazine.com,US,Americas,Northern America,United States of America,California,,San Francisco
199.16.173.25,4,5,sfchamber.com,US,Americas,Northern America,United States of America,California,,San Francisco
199.16.172.192,4,2,sfchamber.com,US,Americas,Northern America,United States of America,California,,San Francisco
199.16.173.18,4,3,sfindie.com,US,Americas,Northern America,United States of America,California,,San Francisco
199.16.172.41,4,7,shareable.net,US,Americas,Northern America,United States of America,California,,San Francisco
199.16.172.61,4,4,shastascout.org,US,Americas,Northern America,United States of America,California,,San Francisco
199.16.173.149,4,6,shastascout.org,US,Americas,Northern America,United States of America,California,,San Francisco
199.16.173.138,4,5,shellypalmer.com,US,Americas,Northern America,United States of America,California,,San Francisco
64.23.240.9,4,2,shivshambu.net,US,Americas,Northern America,United States of America,California,,San Francisco
107.170.232.188,4,4,shopgalleree.com,US,Americas,Northern America,United States of America,California,,San Francisco
199.16.173.238,4,21,shorelunch.com,US,Americas,Northern America,United States of America,California,,San Francisco
199.16.172.143,4,10,shorelunch.com,US,Americas,Northern America,United States of America,California,,San Francisco
199.16.173.144,4,10,shotkit.com,US,Americas,Northern America,United States of America,California,,San Francisco
151.101.129.122,4,9,sigmaphoto.com,US,Americas,Northern America,United States of America,California,,San Francisco
151.101.1.122,4,19,sigmaphoto.com,US,Americas,Northern America,United States of America,California,,San Francisco
151.101.193.122,4,5,sigmaphoto.com,US,Americas,Northern America,United States of America,California,,San Francisco
151.101.65.122,4,2,sigmaphoto.com,US,Americas,Northern America,United States of America,California,,San Francisco
199.16.173.89,4,41,siliconcape.com,US,Americas,Northern America,United States of America,California,,San Francisco
199.16.173.12,4,5,silverhillsbakery.ca,US,Americas,Northern America,United States of America,California,,San Francisco
199.16.172.83,4,2,silverhillsbakery.ca,US,Americas,Northern America,United States of America,California,,San Francisco
199.16.172.176,4,87,silvermansfarm.com,US,Americas,Northern America,United States of America,California,,San Francisco
199.16.173.111,4,22,silvermansfarm.com,US,Americas,Northern America,United States of America,California,,San Francisco
199.16.173.116,4,6,silverpetticoatreview.com,US,Americas,Northern America,United States of America,California,,San Francisco
192.0.66.234,4,19,sima.ai,US,Americas,Northern America,United States of America,California,,San Francisco
151.101.2.127,4,69,simplifimoney.com,US,Americas,Northern America,United States of America,California,,San Francisco
151.101.194.127,4,40,simplifimoney.com,US,Americas,Northern America,United States of America,California,,San Francisco
151.101.66.127,4,13,simplifimoney.com,US,Americas,Northern America,United States of America,California,,San Francisco
151.101.130.127,4,16,simplifimoney.com,US,Americas,Northern America,United States of America,California,,San Francisco
104.245.32.150,4,3,sindhtoday.net,US,Americas,Northern America,United States of America,California,,San Francisco
198.199.119.33,4,30,sitesee.co,US,Americas,Northern America,United States of America,California,,San Francisco
199.16.172.195,4,3,siti.org,US,Americas,Northern America,United States of America,California,,San Francisco
199.16.172.73,4,6,sixcolors.com,US,Americas,Northern America,United States of America,California,,San Francisco
199.16.173.210,4,21,skinneymedspa.com,US,Americas,Northern America,United States of America,California,,San Francisco
151.101.2.152,4,14,slideshare.com,US,Americas,Northern America,United States of America,California,,San Francisco
151.101.130.152,4,10,slideshare.com,US,Americas,Northern America,United States of America,California,,San Francisco
151.101.194.152,4,20,slideshare.com,US,Americas,Northern America,United States of America,California,,San Francisco
151.101.66.152,4,12,slideshare.com,US,Americas,Northern America,United States of America,California,,San Francisco
199.16.173.96,4,21,slimandhuskys.com,US,Americas,Northern America,United States of America,California,,San Francisco
151.101.65.102,4,8,slingsby.com,US,Americas,Northern America,United States of America,California,,San Francisco
151.101.1.102,4,3,slingsby.com,US,Americas,Northern America,United States of America,California,,San Francisco
151.101.129.102,4,4,slingsby.com,US,Americas,Northern America,United States of America,California,,San Francisco
151.101.193.102,4,3,slingsby.com,US,Americas,Northern America,United States of America,California,,San Francisco
192.0.66.204,4,17,smartcompany.com.au,US,Americas,Northern America,United States of America,California,,San Francisco
199.16.172.31,4,23,smartkidswithld.org,US,Americas,Northern America,United States of America,California,,San Francisco
199.16.173.118,4,22,smartrenovation.ae,US,Americas,Northern America,United States of America,California,,San Francisco
199.16.173.186,4,11,smg.com,US,Americas,Northern America,United States of America,California,,San Francisco
199.16.173.173,4,12,smittenkitchen.com,US,Americas,Northern America,United States of America,California,,San Francisco
104.236.183.13,4,4,smofa.org,US,Americas,Northern America,United States of America,California,,San Francisco
45.55.30.138,4,2817255,snmc.io,US,Americas,Northern America,United States of America,California,,San Francisco
192.0.66.74,4,24,socialtimes.com,US,Americas,Northern America,United States of America,California,,San Francisco
192.0.66.162,4,16,sourcingjournal.com,US,Americas,Northern America,United States of America,California,,San Francisco
199.16.172.39,4,6,southernmostillinois.com,US,Americas,Northern America,United States of America,California,,San Francisco
199.16.172.240,4,58,speakingofsuicide.com,US,Americas,Northern America,United States of America,California,,San Francisco
138.68.210.49,4,9,speeddater.co.uk,US,Americas,Northern America,United States of America,California,,San Francisco
199.16.173.92,4,2,speedpro.com,US,Americas,Northern America,United States of America,California,,San Francisco
199.16.172.62,4,2,speedpro.com,US,Americas,Northern America,United States of America,California,,San Francisco
151.101.194.219,4,2,speedtestcustom.com,US,Americas,Northern America,United States of America,California,,San Francisco
151.101.66.219,4,2,speedtestcustom.com,US,Americas,Northern America,United States of America,California,,San Francisco
151.101.130.219,4,2,speedtestcustom.com,US,Americas,Northern America,United States of America,California,,San Francisco
151.101.2.219,4,1,speedtestcustom.com,US,Americas,Northern America,United States of America,California,,San Francisco
199.16.172.119,4,28,splc.org,US,Americas,Northern America,United States of America,California,,San Francisco
199.16.173.73,4,8,splc.org,US,Americas,Northern America,United States of America,California,,San Francisco
151.101.67.9,4,2,split.io,US,Americas,Northern America,United States of America,California,,San Francisco
151.101.131.9,4,2,split.io,US,Americas,Northern America,United States of America,California,,San Francisco
151.101.3.9,4,3,split.io,US,Americas,Northern America,United States of America,California,,San Francisco
151.101.195.9,4,4,split.io,US,Americas,Northern America,United States of America,California,,San Francisco
151.101.1.209,4,2,splitsider.com,US,Americas,Northern America,United States of America,California,,San Francisco
151.101.129.209,4,3,splitsider.com,US,Americas,Northern America,United States of America,California,,San Francisco
151.101.193.209,4,2,splitsider.com,US,Americas,Northern America,United States of America,California,,San Francisco
151.101.65.209,4,6,splitsider.com,US,Americas,Northern America,United States of America,California,,San Francisco
23.108.190.202,4,9,spotonflorida.com,US,Americas,Northern America,United States of America,California,,San Francisco
199.16.173.122,4,5,spryfox.com,US,Americas,Northern America,United States of America,California,,San Francisco
151.101.193.143,4,42,starlink.com,US,Americas,Northern America,United States of America,California,,San Francisco
151.101.129.143,4,94,starlink.com,US,Americas,Northern America,United States of America,California,,San Francisco
151.101.1.143,4,34,starlink.com,US,Americas,Northern America,United States of America,California,,San Francisco
151.101.65.143,4,3,starlink.com,US,Americas,Northern America,United States of America,California,,San Francisco
199.16.172.164,4,40,startup-marketing.com,US,Americas,Northern America,United States of America,California,,San Francisco
199.16.173.170,4,33,startup-marketing.com,US,Americas,Northern America,United States of America,California,,San Francisco
199.16.172.135,4,40,startupboy.com,US,Americas,Northern America,United States of America,California,,San Francisco
151.101.194.165,4,3,staticworld.net,US,Americas,Northern America,United States of America,California,,San Francisco
151.101.66.165,4,4,staticworld.net,US,Americas,Northern America,United States of America,California,,San Francisco
151.101.130.165,4,3,staticworld.net,US,Americas,Northern America,United States of America,California,,San Francisco
151.101.2.165,4,8,staticworld.net,US,Americas,Northern America,United States of America,California,,San Francisco
199.16.172.163,4,36,staticz.com,US,Americas,Northern America,United States of America,California,,San Francisco
199.16.173.58,4,3,staticz.com,US,Americas,Northern America,United States of America,California,,San Francisco
192.0.66.213,4,36,stb.gov,US,Americas,Northern America,United States of America,California,,San Francisco
199.16.173.218,4,32,steamthing.com,US,Americas,Northern America,United States of America,California,,San Francisco
151.101.2.193,4,6,steveharveyfm.com,US,Americas,Northern America,United States of America,California,,San Francisco
151.101.194.193,4,5,steveharveyfm.com,US,Americas,Northern America,United States of America,California,,San Francisco
151.101.130.193,4,3,steveharveyfm.com,US,Americas,Northern America,United States of America,California,,San Francisco
151.101.66.193,4,3,steveharveyfm.com,US,Americas,Northern America,United States of America,California,,San Francisco
199.16.172.182,4,7,stevivor.com,US,Americas,Northern America,United States of America,California,,San Francisco
199.16.173.160,4,41,stevivor.com,US,Americas,Northern America,United States of America,California,,San Francisco
199.16.172.243,4,17,stopaapihate.org,US,Americas,Northern America,United States of America,California,,San Francisco
199.16.172.142,4,3,stoprelationshipabuse.org,US,Americas,Northern America,United States of America,California,,San Francisco
199.16.173.202,4,37,stoveindustryalliance.com,US,Americas,Northern America,United States of America,California,,San Francisco
199.16.172.25,4,12,stoveindustryalliance.com,US,Americas,Northern America,United States of America,California,,San Francisco
199.16.172.88,4,68,stratechery.com,US,Americas,Northern America,United States of America,California,,San Francisco
151.101.193.63,4,10,streamable.com,US,Americas,Northern America,United States of America,California,,San Francisco
151.101.1.63,4,62,streamable.com,US,Americas,Northern America,United States of America,California,,San Francisco
151.101.129.63,4,33,streamable.com,US,Americas,Northern America,United States of America,California,,San Francisco
151.101.65.63,4,33,streamable.com,US,Americas,Northern America,United States of America,California,,San Francisco
192.0.66.148,4,48,streetsblog.net,US,Americas,Northern America,United States of America,California,,San Francisco
199.16.173.14,4,9,strengthlog.com,US,Americas,Northern America,United States of America,California,,San Francisco
199.16.172.160,4,38,strengthlog.com,US,Americas,Northern America,United States of America,California,,San Francisco
192.0.66.77,4,2,strictlyvc.com,US,Americas,Northern America,United States of America,California,,San Francisco
199.16.172.141,4,3,studentsforfairadmissions.org,US,Americas,Northern America,United States of America,California,,San Francisco
199.16.173.99,4,3,studentsforfairadmissions.org,US,Americas,Northern America,United States of America,California,,San Francisco
199.16.172.108,4,61,studiodrift.com,US,Americas,Northern America,United States of America,California,,San Francisco
192.0.66.146,4,6,stylitics.com,US,Americas,Northern America,United States of America,California,,San Francisco
199.16.172.208,4,11,successforall.org,US,Americas,Northern America,United States of America,California,,San Francisco
199.16.173.162,4,54,successforall.org,US,Americas,Northern America,United States of America,California,,San Francisco
198.199.116.180,4,13,sudoroom.org,US,Americas,Northern America,United States of America,California,,San Francisco
208.94.4.90,4,12,sugarsync.com,US,Americas,Northern America,United States of America,California,,San Francisco
192.0.66.129,4,4,suggest.com,US,Americas,Northern America,United States of America,California,,San Francisco
192.0.66.126,4,14,sun-sentinel.com,US,Americas,Northern America,United States of America,California,,San Francisco
192.0.66.42,4,3,sunnysidepost.com,US,Americas,Northern America,United States of America,California,,San Francisco
192.0.66.79,4,6,sunsetwatersportskeywest.com,US,Americas,Northern America,United States of America,California,,San Francisco
199.16.172.193,4,14,sunstonemagazine.com,US,Americas,Northern America,United States of America,California,,San Francisco
192.241.227.60,4,5,suntoday.org,US,Americas,Northern America,United States of America,California,,San Francisco
192.0.66.28,4,80,supdepub.com,US,Americas,Northern America,United States of America,California,,San Francisco
199.16.173.104,4,16,supermarketnews.co.nz,US,Americas,Northern America,United States of America,California,,San Francisco
199.16.172.211,4,5,susiemadrak.com,US,Americas,Northern America,United States of America,California,,San Francisco
199.16.172.242,4,26,swenergy.org,US,Americas,Northern America,United States of America,California,,San Francisco
151.101.129.29,4,9,swoodoo.com,US,Americas,Northern America,United States of America,California,,San Francisco
151.101.193.29,4,3,swoodoo.com,US,Americas,Northern America,United States of America,California,,San Francisco
151.101.1.29,4,5,swoodoo.com,US,Americas,Northern America,United States of America,California,,San Francisco
151.101.65.29,4,15,swoodoo.com,US,Americas,Northern America,United States of America,California,,San Francisco
192.0.78.248,4,17,takeitpersonelly.com,US,Americas,Northern America,United States of America,California,,San Francisco
151.101.130.187,4,5,target.com,US,Americas,Northern America,United States of America,California,,San Francisco
151.101.194.187,4,52,target.com,US,Americas,Northern America,United States of America,California,,San Francisco
151.101.2.187,4,3,target.com,US,Americas,Northern America,United States of America,California,,San Francisco
151.101.66.187,4,2,target.com,US,Americas,Northern America,United States of America,California,,San Francisco
192.0.66.130,4,3,taskandpurpose.com,US,Americas,Northern America,United States of America,California,,San Francisco
192.0.78.145,4,15,taypedia.com,US,Americas,Northern America,United States of America,California,,San Francisco
151.101.193.49,4,3,tbd.website,US,Americas,Northern America,United States of America,California,,San Francisco
151.101.1.49,4,4,tbd.website,US,Americas,Northern America,United States of America,California,,San Francisco
151.101.129.49,4,4,tbd.website,US,Americas,Northern America,United States of America,California,,San Francisco
151.101.65.49,4,18,tbd.website,US,Americas,Northern America,United States of America,California,,San Francisco
199.16.172.50,4,14,tcj.com,US,Americas,Northern America,United States of America,California,,San Francisco
192.0.66.224,4,61,techadvisor.com,US,Americas,Northern America,United States of America,California,,San Francisco
151.101.0.68,4,27,techinsider.io,US,Americas,Northern America,United States of America,California,,San Francisco
151.101.128.68,4,44,techinsider.io,US,Americas,Northern America,United States of America,California,,San Francisco
151.101.64.68,4,48,techinsider.io,US,Americas,Northern America,United States of America,California,,San Francisco
151.101.192.68,4,65,techinsider.io,US,Americas,Northern America,United States of America,California,,San Francisco
199.16.173.189,4,40,techqueria.org,US,Americas,Northern America,United States of America,California,,San Francisco
104.131.151.64,4,2956047,techzulu.com,US,Americas,Northern America,United States of America,California,,San Francisco
199.16.172.236,4,54,telacu.com,US,Americas,Northern America,United States of America,California,,San Francisco
192.0.66.219,4,41,telefonica.com.pe,US,Americas,Northern America,United States of America,California,,San Francisco
192.0.66.64,4,23,telemundo48elpaso.com,US,Americas,Northern America,United States of America,California,,San Francisco
192.0.66.232,4,8,televisaunivision.com,US,Americas,Northern America,United States of America,California,,San Francisco
138.68.208.214,4,7,tenderbang.com,US,Americas,Northern America,United States of America,California,,San Francisco
192.241.215.27,4,0,tendermeets.com,US,Americas,Northern America,United States of America,California,,San Francisco
151.101.2.106,4,2,tenplay.com.au,US,Americas,Northern America,United States of America,California,,San Francisco
151.101.130.106,4,3,tenplay.com.au,US,Americas,Northern America,United States of America,California,,San Francisco
151.101.194.106,4,62,tenplay.com.au,US,Americas,Northern America,United States of America,California,,San Francisco
151.101.66.106,4,3,tenplay.com.au,US,Americas,Northern America,United States of America,California,,San Francisco
199.16.173.174,4,56,teraco.co.za,US,Americas,Northern America,United States of America,California,,San Francisco
151.101.64.228,4,3,tes.com,US,Americas,Northern America,United States of America,California,,San Francisco
151.101.128.228,4,3,tes.com,US,Americas,Northern America,United States of America,California,,San Francisco
151.101.0.228,4,3,tes.com,US,Americas,Northern America,United States of America,California,,San Francisco
151.101.192.228,4,4,tes.com,US,Americas,Northern America,United States of America,California,,San Francisco
199.16.172.46,4,17,texvetpets.org,US,Americas,Northern America,United States of America,California,,San Francisco
192.0.78.164,4,4,the-avocado.org,US,Americas,Northern America,United States of America,California,,San Francisco
192.0.66.136,4,9,the-sun.com,US,Americas,Northern America,United States of America,California,,San Francisco
199.16.172.138,4,12,theadventurebite.com,US,Americas,Northern America,United States of America,California,,San Francisco
151.101.194.60,4,13,thebanker.com,US,Americas,Northern America,United States of America,California,,San Francisco
151.101.66.60,4,5,thebanker.com,US,Americas,Northern America,United States of America,California,,San Francisco
151.101.2.60,4,5,thebanker.com,US,Americas,Northern America,United States of America,California,,San Francisco
151.101.130.60,4,17,thebanker.com,US,Americas,Northern America,United States of America,California,,San Francisco
151.101.2.84,4,19,theblaze.com,US,Americas,Northern America,United States of America,California,,San Francisco
151.101.66.84,4,2,theblaze.com,US,Americas,Northern America,United States of America,California,,San Francisco
151.101.130.84,4,3,theblaze.com,US,Americas,Northern America,United States of America,California,,San Francisco
151.101.194.84,4,9,theblaze.com,US,Americas,Northern America,United States of America,California,,San Francisco
199.16.173.13,4,5,thebuckeyeflame.com,US,Americas,Northern America,United States of America,California,,San Francisco
199.16.172.238,4,7,thebuckeyeflame.com,US,Americas,Northern America,United States of America,California,,San Francisco
192.0.78.254,4,44,thebuffalofanatics.com,US,Americas,Northern America,United States of America,California,,San Francisco
199.16.173.8,4,5,thecarbonalmanac.org,US,Americas,Northern America,United States of America,California,,San Francisco
199.16.172.93,4,80,thechildrenstheatre.com,US,Americas,Northern America,United States of America,California,,San Francisco
192.0.66.188,4,26,thecinemaholic.com,US,Americas,Northern America,United States of America,California,,San Francisco
192.0.66.38,4,4,thedailyiberian.com,US,Americas,Northern America,United States of America,California,,San Francisco
192.241.227.128,4,6,thedigitalstory.com,US,Americas,Northern America,United States of America,California,,San Francisco
192.0.66.209,4,6,thedispatch.com,US,Americas,Northern America,United States of America,California,,San Francisco
192.0.66.155,4,25,thedrive.com,US,Americas,Northern America,United States of America,California,,San Francisco
199.16.172.230,4,6,theduran.com,US,Americas,Northern America,United States of America,California,,San Francisco
199.16.173.106,4,20,theduran.com,US,Americas,Northern America,United States of America,California,,San Francisco
151.101.194.211,4,4,theecoexperts.co.uk,US,Americas,Northern America,United States of America,California,,San Francisco
151.101.130.211,4,4,theecoexperts.co.uk,US,Americas,Northern America,United States of America,California,,San Francisco
151.101.66.211,4,36,theecoexperts.co.uk,US,Americas,Northern America,United States of America,California,,San Francisco
199.16.173.241,4,39,thegoodlifefrance.com,US,Americas,Northern America,United States of America,California,,San Francisco
199.16.172.249,4,2,thegoodlifefrance.com,US,Americas,Northern America,United States of America,California,,San Francisco
199.16.172.158,4,3,thegreatfroglondon.com,US,Americas,Northern America,United States of America,California,,San Francisco
192.0.66.206,4,5,thegreatoutdoorsmag.com,US,Americas,Northern America,United States of America,California,,San Francisco
151.101.1.111,4,63,theguardian.co.uk,US,Americas,Northern America,United States of America,California,,San Francisco
151.101.193.111,4,6,theguardian.co.uk,US,Americas,Northern America,United States of America,California,,San Francisco
151.101.129.111,4,10,theguardian.co.uk,US,Americas,Northern America,United States of America,California,,San Francisco
151.101.65.111,4,47,theguardian.co.uk,US,Americas,Northern America,United States of America,California,,San Francisco
199.16.172.106,4,12,thehelm.co,US,Americas,Northern America,United States of America,California,,San Francisco
199.16.173.198,4,43,thehelm.co,US,Americas,Northern America,United States of America,California,,San Francisco
199.16.173.119,4,2,theindependent.ca,US,Americas,Northern America,United States of America,California,,San Francisco
192.0.66.199,4,2,theintercept.com,US,Americas,Northern America,United States of America,California,,San Francisco
199.16.172.2,4,4,thelandcle.org,US,Americas,Northern America,United States of America,California,,San Francisco
199.16.173.101,4,10,thelandcle.org,US,Americas,Northern America,United States of America,California,,San Francisco
192.0.78.204,4,93,thelumberjack.org,US,Americas,Northern America,United States of America,California,,San Francisco
192.0.66.82,4,34,themandarin.com.au,US,Americas,Northern America,United States of America,California,,San Francisco
199.16.172.200,4,38,themehunk.com,US,Americas,Northern America,United States of America,California,,San Francisco
199.16.173.46,4,18,themehunk.com,US,Americas,Northern America,United States of America,California,,San Francisco
192.0.66.112,4,81,themorningsun.com,US,Americas,Northern America,United States of America,California,,San Francisco
151.101.65.72,4,9,theneweuropean.co.uk,US,Americas,Northern America,United States of America,California,,San Francisco
151.101.193.72,4,32,theneweuropean.co.uk,US,Americas,Northern America,United States of America,California,,San Francisco
151.101.1.72,4,3,theneweuropean.co.uk,US,Americas,Northern America,United States of America,California,,San Francisco
151.101.129.72,4,63,theneweuropean.co.uk,US,Americas,Northern America,United States of America,California,,San Francisco
199.16.172.245,4,47,thenewyorkmafia.com,US,Americas,Northern America,United States of America,California,,San Francisco
199.16.173.195,4,5,thenewyorkmafia.com,US,Americas,Northern America,United States of America,California,,San Francisco
199.16.172.241,4,80,theopennotebook.com,US,Americas,Northern America,United States of America,California,,San Francisco
199.16.173.140,4,8,theopennotebook.com,US,Americas,Northern America,United States of America,California,,San Francisco
199.16.173.244,4,21,theorganizedmama.com,US,Americas,Northern America,United States of America,California,,San Francisco
192.0.78.172,4,3,thepatterning.com,US,Americas,Northern America,United States of America,California,,San Francisco
199.16.172.239,4,10,thepostemail.com,US,Americas,Northern America,United States of America,California,,San Francisco
199.16.173.145,4,5,thepostemail.com,US,Americas,Northern America,United States of America,California,,San Francisco
199.16.172.229,4,3,therapyforblackgirls.com,US,Americas,Northern America,United States of America,California,,San Francisco
199.16.173.200,4,5,therapyforblackgirls.com,US,Americas,Northern America,United States of America,California,,San Francisco
151.101.128.242,4,8,therealreal.com,US,Americas,Northern America,United States of America,California,,San Francisco
199.16.173.11,4,15,theregistryps.com,US,Americas,Northern America,United States of America,California,,San Francisco
199.16.173.231,4,11,theregistrysocal.com,US,Americas,Northern America,United States of America,California,,San Francisco
199.16.173.51,4,16,thermaxxjackets.com,US,Americas,Northern America,United States of America,California,,San Francisco
192.0.66.109,4,19,theshaderoom.com,US,Americas,Northern America,United States of America,California,,San Francisco
199.16.172.248,4,2,thestonesoup.com,US,Americas,Northern America,United States of America,California,,San Francisco
199.16.173.154,4,13,thextremexperience.com,US,Americas,Northern America,United States of America,California,,San Francisco
199.16.172.246,4,4,thextremexperience.com,US,Americas,Northern America,United States of America,California,,San Francisco
151.101.128.84,4,5,theyes.com,US,Americas,Northern America,United States of America,California,,San Francisco
151.101.192.84,4,10,theyes.com,US,Americas,Northern America,United States of America,California,,San Francisco
151.101.64.84,4,8,theyes.com,US,Americas,Northern America,United States of America,California,,San Francisco
151.101.0.84,4,14,theyes.com,US,Americas,Northern America,United States of America,California,,San Francisco
192.0.66.84,4,22,threatdown.com,US,Americas,Northern America,United States of America,California,,San Francisco
151.101.194.7,4,12,thriftbooks.com,US,Americas,Northern America,United States of America,California,,San Francisco
151.101.2.7,4,17,thriftbooks.com,US,Americas,Northern America,United States of America,California,,San Francisco
151.101.66.7,4,31,thriftbooks.com,US,Americas,Northern America,United States of America,California,,San Francisco
151.101.130.7,4,3,thriftbooks.com,US,Americas,Northern America,United States of America,California,,San Francisco
192.0.66.149,4,3,thueringen24.de,US,Americas,Northern America,United States of America,California,,San Francisco
151.101.194.135,4,4,thuisbezorgd.nl,US,Americas,Northern America,United States of America,California,,San Francisco
151.101.66.135,4,1,thuisbezorgd.nl,US,Americas,Northern America,United States of America,California,,San Francisco
151.101.2.135,4,2,thuisbezorgd.nl,US,Americas,Northern America,United States of America,California,,San Francisco
151.101.130.135,4,6,thuisbezorgd.nl,US,Americas,Northern America,United States of America,California,,San Francisco
151.101.194.173,4,3,thumbplay.com,US,Americas,Northern America,United States of America,California,,San Francisco
151.101.130.173,4,9,thumbplay.com,US,Americas,Northern America,United States of America,California,,San Francisco
151.101.2.173,4,2,thumbplay.com,US,Americas,Northern America,United States of America,California,,San Francisco
151.101.66.173,4,3,thumbplay.com,US,Americas,Northern America,United States of America,California,,San Francisco
151.101.65.204,4,3,ticketmaster.co.za,US,Americas,Northern America,United States of America,California,,San Francisco
151.101.1.204,4,2,ticketmaster.co.za,US,Americas,Northern America,United States of America,California,,San Francisco
151.101.193.204,4,2,ticketmaster.co.za,US,Americas,Northern America,United States of America,California,,San Francisco
151.101.129.204,4,9,ticketmaster.co.za,US,Americas,Northern America,United States of America,California,,San Francisco
151.101.1.237,4,11,ticketmaster.sg,US,Americas,Northern America,United States of America,California,,San Francisco
151.101.193.237,4,22,ticketmaster.sg,US,Americas,Northern America,United States of America,California,,San Francisco
151.101.129.237,4,6,ticketmaster.sg,US,Americas,Northern America,United States of America,California,,San Francisco
151.101.65.237,4,11,ticketmaster.sg,US,Americas,Northern America,United States of America,California,,San Francisco
192.0.66.233,4,5,tickld.com,US,Americas,Northern America,United States of America,California,,San Francisco
151.101.192.204,4,4,ticnet.se,US,Americas,Northern America,United States of America,California,,San Francisco
151.101.128.204,4,2,ticnet.se,US,Americas,Northern America,United States of America,California,,San Francisco
199.16.173.188,4,213,tighar.org,US,Americas,Northern America,United States of America,California,,San Francisco
199.16.172.136,4,78,tighar.org,US,Americas,Northern America,United States of America,California,,San Francisco
199.16.173.243,4,31,tim.blog,US,Americas,Northern America,United States of America,California,,San Francisco
199.16.173.155,4,16,timelines.ai,US,Americas,Northern America,United States of America,California,,San Francisco
199.16.173.220,4,4,timeoutyouth.org,US,Americas,Northern America,United States of America,California,,San Francisco
199.16.172.45,4,53,timeoutyouth.org,US,Americas,Northern America,United States of America,California,,San Francisco
151.101.65.164,4,7,timestalks.com,US,Americas,Northern America,United States of America,California,,San Francisco
151.101.1.164,4,6,timestalks.com,US,Americas,Northern America,United States of America,California,,San Francisco
151.101.193.164,4,29,timestalks.com,US,Americas,Northern America,United States of America,California,,San Francisco
151.101.129.164,4,4,timestalks.com,US,Americas,Northern America,United States of America,California,,San Francisco
199.16.173.109,4,27,tiny-project.com,US,Americas,Northern America,United States of America,California,,San Francisco
199.16.172.12,4,4,tiny-project.com,US,Americas,Northern America,United States of America,California,,San Francisco
199.16.172.94,4,3,tinywoodstove.com,US,Americas,Northern America,United States of America,California,,San Francisco
151.101.128.119,4,7,tissue-queens.com,US,Americas,Northern America,United States of America,California,,San Francisco
151.101.64.119,4,8,tissue-queens.com,US,Americas,Northern America,United States of America,California,,San Francisco
151.101.130.46,4,14,tnw.to,US,Americas,Northern America,United States of America,California,,San Francisco
151.101.66.46,4,28,tnw.to,US,Americas,Northern America,United States of America,California,,San Francisco
151.101.2.46,4,6,tnw.to,US,Americas,Northern America,United States of America,California,,San Francisco
151.101.194.46,4,12,tnw.to,US,Americas,Northern America,United States of America,California,,San Francisco
199.16.172.213,4,15,tobaccotactics.org,US,Americas,Northern America,United States of America,California,,San Francisco
199.16.173.65,4,7,tobaccotactics.org,US,Americas,Northern America,United States of America,California,,San Francisco
199.16.173.97,4,4,tobinbrothers.com.au,US,Americas,Northern America,United States of America,California,,San Francisco
199.16.172.253,4,11,tobinbrothers.com.au,US,Americas,Northern America,United States of America,California,,San Francisco
192.0.66.158,4,5,tomblog.rip,US,Americas,Northern America,United States of America,California,,San Francisco
199.16.172.44,4,9,tomtalks.blog,US,Americas,Northern America,United States of America,California,,San Francisco
199.16.172.204,4,5,tonemadison.com,US,Americas,Northern America,United States of America,California,,San Francisco
199.16.173.225,4,3,tonemadison.com,US,Americas,Northern America,United States of America,California,,San Francisco
104.236.176.96,4,1018561,tonybai.com,US,Americas,Northern America,United States of America,California,,San Francisco
199.16.173.151,4,32,toomuchonline.org,US,Americas,Northern America,United States of America,California,,San Francisco
199.16.172.4,4,4,toomuchonline.org,US,Americas,Northern America,United States of America,California,,San Francisco
199.16.172.167,4,23,touruk.co.uk,US,Americas,Northern America,United States of America,California,,San Francisco
199.16.173.117,4,5,touruk.co.uk,US,Americas,Northern America,United States of America,California,,San Francisco
198.199.106.49,4,12,tox.chat,US,Americas,Northern America,United States of America,California,,San Francisco
192.0.66.87,4,5,toysrusmena.com,US,Americas,Northern America,United States of America,California,,San Francisco
192.0.78.20,4,18,trademap.com.br,US,Americas,Northern America,United States of America,California,,San Francisco
192.0.78.175,4,20,tradeoffs.org,US,Americas,Northern America,United States of America,California,,San Francisco
199.16.173.21,4,18,traumasensitiveschools.org,US,Americas,Northern America,United States of America,California,,San Francisco
199.16.172.92,4,4,traumasensitiveschools.org,US,Americas,Northern America,United States of America,California,,San Francisco
192.0.66.117,4,7,travelawaits.com,US,Americas,Northern America,United States of America,California,,San Francisco
199.16.172.128,4,6,treatmentadvocacycenter.org,US,Americas,Northern America,United States of America,California,,San Francisco
192.0.66.154,4,43,trellis.net,US,Americas,Northern America,United States of America,California,,San Francisco
192.0.66.127,4,32,trelock.de,US,Americas,Northern America,United States of America,California,,San Francisco
192.0.66.48,4,27,trentonian.com,US,Americas,Northern America,United States of America,California,,San Francisco
199.16.172.95,4,22,tressiemc.com,US,Americas,Northern America,United States of America,California,,San Francisco
199.16.173.75,4,21,tressiemc.com,US,Americas,Northern America,United States of America,California,,San Francisco
192.0.66.202,4,41,tribehotels.com,US,Americas,Northern America,United States of America,California,,San Francisco
151.101.66.28,4,9,tripadvisor.se,US,Americas,Northern America,United States of America,California,,San Francisco
151.101.194.28,4,4,tripadvisor.se,US,Americas,Northern America,United States of America,California,,San Francisco
151.101.2.28,4,23,tripadvisor.se,US,Americas,Northern America,United States of America,California,,San Francisco
151.101.130.28,4,2,tripadvisor.se,US,Americas,Northern America,United States of America,California,,San Francisco
199.16.172.15,4,4,trollart.com,US,Americas,Northern America,United States of America,California,,San Francisco
199.16.173.56,4,6,trollart.com,US,Americas,Northern America,United States of America,California,,San Francisco
192.0.66.66,4,2,troops.ai,US,Americas,Northern America,United States of America,California,,San Francisco
192.0.66.80,4,10,troyrecord.com,US,Americas,Northern America,United States of America,California,,San Francisco
198.199.110.97,4,1896202,tubemate.net,US,Americas,Northern America,United States of America,California,,San Francisco
199.16.172.52,4,5,tucowsdomains.com,US,Americas,Northern America,United States of America,California,,San Francisco
151.101.192.220,4,4,tudor.com,US,Americas,Northern America,United States of America,California,,San Francisco
151.101.64.220,4,3,tudor.com,US,Americas,Northern America,United States of America,California,,San Francisco
151.101.128.220,4,4,tudor.com,US,Americas,Northern America,United States of America,California,,San Francisco
151.101.0.220,4,4,tudor.com,US,Americas,Northern America,United States of America,California,,San Francisco
192.0.77.40,4,10,tumblr.com,US,Americas,Northern America,United States of America,California,,San Francisco
192.0.66.81,4,4,tustinranchgolf.com,US,Americas,Northern America,United States of America,California,,San Francisco
199.16.172.147,4,12,tvmenorah.com.br,US,Americas,Northern America,United States of America,California,,San Francisco
199.16.173.159,4,6,tvmenorah.com.br,US,Americas,Northern America,United States of America,California,,San Francisco
192.0.66.156,4,2,tvsvizzera.it,US,Americas,Northern America,United States of America,California,,San Francisco
192.0.78.195,4,6,twailr.com,US,Americas,Northern America,United States of America,California,,San Francisco
192.0.66.144,4,35,twistedsifter.com,US,Americas,Northern America,United States of America,California,,San Francisco
151.101.66.167,4,3,twitch.tv,US,Americas,Northern America,United States of America,California,,San Francisco
151.101.194.167,4,2,twitch.tv,US,Americas,Northern America,United States of America,California,,San Francisco
151.101.2.167,4,2,twitch.tv,US,Americas,Northern America,United States of America,California,,San Francisco
151.101.130.167,4,4,twitch.tv,US,Americas,Northern America,United States of America,California,,San Francisco
151.101.0.159,4,4,twitpic.com,US,Americas,Northern America,United States of America,California,,San Francisco
151.101.128.159,4,2,twitpic.com,US,Americas,Northern America,United States of America,California,,San Francisco
151.101.64.159,4,3,twitpic.com,US,Americas,Northern America,United States of America,California,,San Francisco
151.101.192.159,4,2,twitpic.com,US,Americas,Northern America,United States of America,California,,San Francisco
192.0.78.142,4,6,twocoatsofpaint.com,US,Americas,Northern America,United States of America,California,,San Francisco
198.199.117.33,4,2974248,typedrummer.com,US,Americas,Northern America,United States of America,California,,San Francisco
192.0.66.198,4,11,uabmedicine.org,US,Americas,Northern America,United States of America,California,,San Francisco
199.16.172.156,4,3,uavcoach.com,US,Americas,Northern America,United States of America,California,,San Francisco
199.16.173.222,4,3,uavcoach.com,US,Americas,Northern America,United States of America,California,,San Francisco
192.0.78.176,4,3,uclawreview.org,US,Americas,Northern America,United States of America,California,,San Francisco
192.0.78.251,4,6,ucpac.org,US,Americas,Northern America,United States of America,California,,San Francisco
192.0.78.225,4,5,udaipurkiran.com,US,Americas,Northern America,United States of America,California,,San Francisco
192.0.78.152,4,10,ugandawildlife.org,US,Americas,Northern America,United States of America,California,,San Francisco
192.0.78.229,4,5,uimla.org,US,Americas,Northern America,United States of America,California,,San Francisco
192.0.78.184,4,2,uisoftware.com,US,Americas,Northern America,United States of America,California,,San Francisco
192.0.78.167,4,5,ukhumanrightsblog.com,US,Americas,Northern America,United States of America,California,,San Francisco
192.0.78.214,4,11,umbria24.it,US,Americas,Northern America,United States of America,California,,San Francisco
199.16.173.201,4,10,ummah.net,US,Americas,Northern America,United States of America,California,,San Francisco
199.16.172.47,4,10,ummah.net,US,Americas,Northern America,United States of America,California,,San Francisco
151.101.2.236,4,5,uncompany.com,US,Americas,Northern America,United States of America,California,,San Francisco
151.101.130.236,4,31,uncompany.com,US,Americas,Northern America,United States of America,California,,San Francisco
151.101.66.236,4,2,uncompany.com,US,Americas,Northern America,United States of America,California,,San Francisco
151.101.194.236,4,7,uncompany.com,US,Americas,Northern America,United States of America,California,,San Francisco
199.16.172.77,4,10,unicef.dk,US,Americas,Northern America,United States of America,California,,San Francisco
192.241.215.96,4,0,unixism.net,US,Americas,Northern America,United States of America,California,,San Francisco
151.101.193.181,4,4,unsplash.com,US,Americas,Northern America,United States of America,California,,San Francisco
151.101.129.181,4,2,unsplash.com,US,Americas,Northern America,United States of America,California,,San Francisco
151.101.1.181,4,2,unsplash.com,US,Americas,Northern America,United States of America,California,,San Francisco
151.101.65.181,4,2,unsplash.com,US,Americas,Northern America,United States of America,California,,San Francisco
192.0.78.134,4,8,upfivedown.com,US,Americas,Northern America,United States of America,California,,San Francisco
192.0.66.54,4,5,uproxx.com,US,Americas,Northern America,United States of America,California,,San Francisco
192.0.78.181,4,6,uptonsnaturals.com,US,Americas,Northern America,United States of America,California,,San Francisco
151.101.65.68,4,20,upworthy.com,US,Americas,Northern America,United States of America,California,,San Francisco
151.101.1.68,4,13,upworthy.com,US,Americas,Northern America,United States of America,California,,San Francisco
151.101.129.68,4,5,upworthy.com,US,Americas,Northern America,United States of America,California,,San Francisco
151.101.193.68,4,19,upworthy.com,US,Americas,Northern America,United States of America,California,,San Francisco
192.241.208.239,4,2800538,uranusjr.com,US,Americas,Northern America,United States of America,California,,San Francisco
199.16.172.111,4,7,urbanasian.com,US,Americas,Northern America,United States of America,California,,San Francisco
199.16.173.35,4,8,urbanasian.com,US,Americas,Northern America,United States of America,California,,San Francisco
199.16.173.1,4,7,urbangeekz.com,US,Americas,Northern America,United States of America,California,,San Francisco
199.16.173.49,4,14,urologyaustin.com,US,Americas,Northern America,United States of America,California,,San Francisco
199.16.172.228,4,5,urologyaustin.com,US,Americas,Northern America,United States of America,California,,San Francisco
199.16.172.81,4,6,usapowerlifting.com,US,Americas,Northern America,United States of America,California,,San Francisco
199.16.173.137,4,21,usapowerlifting.com,US,Americas,Northern America,United States of America,California,,San Francisco
151.101.130.189,4,17,usatodaysports.com,US,Americas,Northern America,United States of America,California,,San Francisco
151.101.194.189,4,24,usatodaysports.com,US,Americas,Northern America,United States of America,California,,San Francisco
151.101.2.189,4,12,usatodaysports.com,US,Americas,Northern America,United States of America,California,,San Francisco
151.101.66.189,4,6,usatodaysports.com,US,Americas,Northern America,United States of America,California,,San Francisco
151.101.1.34,4,13,usechorus.com,US,Americas,Northern America,United States of America,California,,San Francisco
151.101.193.34,4,11,usechorus.com,US,Americas,Northern America,United States of America,California,,San Francisco
151.101.129.34,4,22,usechorus.com,US,Americas,Northern America,United States of America,California,,San Francisco
151.101.65.34,4,40,usechorus.com,US,Americas,Northern America,United States of America,California,,San Francisco
192.0.78.139,4,38,userreport.com,US,Americas,Northern America,United States of America,California,,San Francisco
151.101.66.49,4,17,userzoom.com,US,Americas,Northern America,United States of America,California,,San Francisco
151.101.130.49,4,20,userzoom.com,US,Americas,Northern America,United States of America,California,,San Francisco
151.101.194.49,4,21,userzoom.com,US,Americas,Northern America,United States of America,California,,San Francisco
151.101.2.49,4,4,userzoom.com,US,Americas,Northern America,United States of America,California,,San Francisco
192.0.78.190,4,7,usma.ac.pa,US,Americas,Northern America,United States of America,California,,San Francisco
199.16.173.83,4,3,ussa.edu,US,Americas,Northern America,United States of America,California,,San Francisco
199.16.172.26,4,5,ussa.edu,US,Americas,Northern America,United States of America,California,,San Francisco
199.16.173.29,4,3,utahforge.com,US,Americas,Northern America,United States of America,California,,San Francisco
199.16.172.29,4,9,utahforge.com,US,Americas,Northern America,United States of America,California,,San Francisco
192.0.78.157,4,13,van-magazine.com,US,Americas,Northern America,United States of America,California,,San Francisco
192.0.78.205,4,10,vedicastrologylessons.com,US,Americas,Northern America,United States of America,California,,San Francisco
192.0.78.130,4,12,vegcookbook.net,US,Americas,Northern America,United States of America,California,,San Francisco
199.16.173.146,4,35,veggiefunkitchen.com,US,Americas,Northern America,United States of America,California,,San Francisco
199.16.172.127,4,11,veggiefunkitchen.com,US,Americas,Northern America,United States of America,California,,San Francisco
192.0.66.47,4,23,vendini.com,US,Americas,Northern America,United States of America,California,,San Francisco
199.16.173.147,4,24,venerafactory.com,US,Americas,Northern America,United States of America,California,,San Francisco
199.16.172.16,4,3,venerafactory.com,US,Americas,Northern America,United States of America,California,,San Francisco
209.38.156.154,4,7,venturacountyfair.org,US,Americas,Northern America,United States of America,California,,San Francisco
199.16.173.38,4,3,venturehacks.com,US,Americas,Northern America,United States of America,California,,San Francisco
192.0.78.138,4,14,vermontdailychronicle.com,US,Americas,Northern America,United States of America,California,,San Francisco
192.0.66.210,4,5,veronapharma.com,US,Americas,Northern America,United States of America,California,,San Francisco
192.0.66.76,4,23,verramobility.com,US,Americas,Northern America,United States of America,California,,San Francisco
151.101.194.166,4,31,verysmartbrothas.com,US,Americas,Northern America,United States of America,California,,San Francisco
151.101.66.166,4,17,verysmartbrothas.com,US,Americas,Northern America,United States of America,California,,San Francisco
151.101.2.166,4,14,verysmartbrothas.com,US,Americas,Northern America,United States of America,California,,San Francisco
151.101.130.166,4,4,verysmartbrothas.com,US,Americas,Northern America,United States of America,California,,San Francisco
192.0.66.220,4,19,vestis.com,US,Americas,Northern America,United States of America,California,,San Francisco
192.0.66.61,4,14,vesuviolive.it,US,Americas,Northern America,United States of America,California,,San Francisco
151.101.64.92,4,4,vevo.ly,US,Americas,Northern America,United States of America,California,,San Francisco
151.101.128.92,4,5,vevo.ly,US,Americas,Northern America,United States of America,California,,San Francisco
151.101.0.92,4,4,vevo.ly,US,Americas,Northern America,United States of America,California,,San Francisco
151.101.192.92,4,2,vevo.ly,US,Americas,Northern America,United States of America,California,,San Francisco
199.16.173.53,4,3,via313.com,US,Americas,Northern America,United States of America,California,,San Francisco
199.16.172.1,4,4,via313.com,US,Americas,Northern America,United States of America,California,,San Francisco
192.0.66.226,4,40,victoriaharbourferry.com,US,Americas,Northern America,United States of America,California,,San Francisco
192.0.78.31,4,9,video.blog,US,Americas,Northern America,United States of America,California,,San Francisco
192.0.78.30,4,2,video.blog,US,Americas,Northern America,United States of America,California,,San Francisco
151.101.65.120,4,14,videomarketingplatform.co,US,Americas,Northern America,United States of America,California,,San Francisco
151.101.1.120,4,2,videomarketingplatform.co,US,Americas,Northern America,United States of America,California,,San Francisco
151.101.193.120,4,2,videomarketingplatform.co,US,Americas,Northern America,United States of America,California,,San Francisco
151.101.129.120,4,3,videomarketingplatform.co,US,Americas,Northern America,United States of America,California,,San Francisco
192.0.78.244,4,3,vietnaminsider.vn,US,Americas,Northern America,United States of America,California,,San Francisco
192.0.66.49,4,6,villasport.com,US,Americas,Northern America,United States of America,California,,San Francisco
151.101.130.109,4,2,vimeocdn.com,US,Americas,Northern America,United States of America,California,,San Francisco
151.101.2.109,4,3,vimeocdn.com,US,Americas,Northern America,United States of America,California,,San Francisco
151.101.66.109,4,6,vimeocdn.com,US,Americas,Northern America,United States of America,California,,San Francisco
151.101.194.109,4,3,vimeocdn.com,US,Americas,Northern America,United States of America,California,,San Francisco
192.0.66.200,4,3,vinsolutions.com,US,Americas,Northern America,United States of America,California,,San Francisco
192.0.78.144,4,4,vipdesk.com,US,Americas,Northern America,United States of America,California,,San Francisco
199.16.173.169,4,3,virtina.com,US,Americas,Northern America,United States of America,California,,San Francisco
199.16.172.100,4,145,virtina.com,US,Americas,Northern America,United States of America,California,,San Francisco
199.16.173.215,4,12,virtu.com,US,Americas,Northern America,United States of America,California,,San Francisco
199.16.172.212,4,38,virtu.com,US,Americas,Northern America,United States of America,California,,San Francisco
151.101.65.193,4,5,visionsfcu.org,US,Americas,Northern America,United States of America,California,,San Francisco
151.101.193.193,4,3,visionsfcu.org,US,Americas,Northern America,United States of America,California,,San Francisco
151.101.1.193,4,32,visionsfcu.org,US,Americas,Northern America,United States of America,California,,San Francisco
151.101.129.193,4,4,visionsfcu.org,US,Americas,Northern America,United States of America,California,,San Francisco
199.16.172.117,4,13,visitpago.com,US,Americas,Northern America,United States of America,California,,San Francisco
199.16.173.4,4,9,visitpago.com,US,Americas,Northern America,United States of America,California,,San Francisco
199.16.172.232,4,7,visitrainier.com,US,Americas,Northern America,United States of America,California,,San Francisco
199.16.173.98,4,4,visitrainier.com,US,Americas,Northern America,United States of America,California,,San Francisco
192.0.66.231,4,2,visittrinity.ie,US,Americas,Northern America,United States of America,California,,San Francisco
199.16.173.179,4,6,visitusaparks.com,US,Americas,Northern America,United States of America,California,,San Francisco
199.16.172.220,4,15,visitusaparks.com,US,Americas,Northern America,United States of America,California,,San Francisco
192.0.78.193,4,39,visokio.com,US,Americas,Northern America,United States of America,California,,San Francisco
199.16.173.163,4,48,vistancia.com,US,Americas,Northern America,United States of America,California,,San Francisco
199.16.172.166,4,32,vistancia.com,US,Americas,Northern America,United States of America,California,,San Francisco
192.0.66.172,4,2,vivienna.it,US,Americas,Northern America,United States of America,California,,San Francisco
192.0.78.13,4,4,vnvc.vn,US,Americas,Northern America,United States of America,California,,San Francisco
192.0.78.12,4,15,vnvc.vn,US,Americas,Northern America,United States of America,California,,San Francisco
151.101.194.30,4,6,voa.gov.uk,US,Americas,Northern America,United States of America,California,,San Francisco
151.101.2.30,4,11,voa.gov.uk,US,Americas,Northern America,United States of America,California,,San Francisco
151.101.130.30,4,3,voa.gov.uk,US,Americas,Northern America,United States of America,California,,San Francisco
151.101.66.30,4,5,voa.gov.uk,US,Americas,Northern America,United States of America,California,,San Francisco
151.101.0.239,4,61,vogue.com,US,Americas,Northern America,United States of America,California,,San Francisco
151.101.192.239,4,134,vogue.com,US,Americas,Northern America,United States of America,California,,San Francisco
151.101.128.239,4,46,vogue.com,US,Americas,Northern America,United States of America,California,,San Francisco
151.101.64.239,4,19,vogue.com,US,Americas,Northern America,United States of America,California,,San Francisco
192.0.78.156,4,6,voiceofoc.org,US,Americas,Northern America,United States of America,California,,San Francisco
192.0.78.235,4,12,voiceofoc.org,US,Americas,Northern America,United States of America,California,,San Francisco
192.0.78.186,4,4,voiceofsandiego.org,US,Americas,Northern America,United States of America,California,,San Francisco
192.0.78.216,4,3,voiceofsandiego.org,US,Americas,Northern America,United States of America,California,,San Francisco
192.0.78.133,4,58,volatilityfoundation.org,US,Americas,Northern America,United States of America,California,,San Francisco
151.101.130.117,4,32,volvotrucks.us,US,Americas,Northern America,United States of America,California,,San Francisco
151.101.194.117,4,2,volvotrucks.us,US,Americas,Northern America,United States of America,California,,San Francisco
151.101.2.117,4,7,volvotrucks.us,US,Americas,Northern America,United States of America,California,,San Francisco
151.101.1.52,4,4,voxmedia.com,US,Americas,Northern America,United States of America,California,,San Francisco
151.101.129.52,4,21,voxmedia.com,US,Americas,Northern America,United States of America,California,,San Francisco
151.101.193.52,4,20,voxmedia.com,US,Americas,Northern America,United States of America,California,,San Francisco
151.101.65.52,4,15,voxmedia.com,US,Americas,Northern America,United States of America,California,,San Francisco
192.0.78.153,4,7,vtdigger.org,US,Americas,Northern America,United States of America,California,,San Francisco
192.0.66.182,4,5,vysa.com,US,Americas,Northern America,United States of America,California,,San Francisco
199.16.172.181,4,16,walzcraft.com,US,Americas,Northern America,United States of America,California,,San Francisco
199.16.173.69,4,6,walzcraft.com,US,Americas,Northern America,United States of America,California,,San Francisco
199.16.172.74,4,21,warrenellis.ltd,US,Americas,Northern America,United States of America,California,,San Francisco
199.16.173.247,4,9,warrenellis.ltd,US,Americas,Northern America,United States of America,California,,San Francisco
192.0.78.241,4,3,washingtoncountysheriff.org,US,Americas,Northern America,United States of America,California,,San Francisco
151.101.65.153,4,8,washingtonfootball.com,US,Americas,Northern America,United States of America,California,,San Francisco
151.101.129.153,4,18,washingtonfootball.com,US,Americas,Northern America,United States of America,California,,San Francisco
151.101.1.153,4,5,washingtonfootball.com,US,Americas,Northern America,United States of America,California,,San Francisco
151.101.193.153,4,8,washingtonfootball.com,US,Americas,Northern America,United States of America,California,,San Francisco
192.0.78.148,4,5,watchblog.com,US,Americas,Northern America,United States of America,California,,San Francisco
209.40.90.31,4,8,wattis.org,US,Americas,Northern America,United States of America,California,,San Francisco
199.16.172.80,4,5,wattsupwiththat.com,US,Americas,Northern America,United States of America,California,,San Francisco
192.0.66.91,4,3,wavestone.com,US,Americas,Northern America,United States of America,California,,San Francisco
151.101.65.252,4,17,wayfair.de,US,Americas,Northern America,United States of America,California,,San Francisco
151.101.129.252,4,3,wayfair.de,US,Americas,Northern America,United States of America,California,,San Francisco
151.101.1.252,4,3,wayfair.de,US,Americas,Northern America,United States of America,California,,San Francisco
151.101.193.252,4,4,wayfair.de,US,Americas,Northern America,United States of America,California,,San Francisco
192.0.78.180,4,6,wbbblog.com,US,Americas,Northern America,United States of America,California,,San Francisco
192.0.66.39,4,5,wbls.com,US,Americas,Northern America,United States of America,California,,San Francisco
199.16.172.87,4,7,wcad.org,US,Americas,Northern America,United States of America,California,,San Francisco
199.16.173.27,4,12,we4f.org,US,Americas,Northern America,United States of America,California,,San Francisco
199.16.172.9,4,20,we4f.org,US,Americas,Northern America,United States of America,California,,San Francisco
151.101.1.125,4,7,wealthfront.com,US,Americas,Northern America,United States of America,California,,San Francisco
151.101.65.125,4,9,wealthfront.com,US,Americas,Northern America,United States of America,California,,San Francisco
151.101.193.125,4,24,wealthfront.com,US,Americas,Northern America,United States of America,California,,San Francisco
151.101.129.125,4,6,wealthfront.com,US,Americas,Northern America,United States of America,California,,San Francisco
192.0.78.220,4,3,wear-next.com,US,Americas,Northern America,United States of America,California,,San Francisco
192.0.66.100,4,8,wearethemighty.com,US,Americas,Northern America,United States of America,California,,San Francisco
199.16.173.108,4,39,weaverstreetmarket.coop,US,Americas,Northern America,United States of America,California,,San Francisco
199.16.172.14,4,5,weaverstreetmarket.coop,US,Americas,Northern America,United States of America,California,,San Francisco
192.0.78.159,4,27,webdesksolution.com,US,Americas,Northern America,United States of America,California,,San Francisco
151.101.194.207,4,4,webosfritos.es,US,Americas,Northern America,United States of America,California,,San Francisco
151.101.66.207,4,6,webosfritos.es,US,Americas,Northern America,United States of America,California,,San Francisco
151.101.2.207,4,21,webosfritos.es,US,Americas,Northern America,United States of America,California,,San Francisco
151.101.130.207,4,5,webosfritos.es,US,Americas,Northern America,United States of America,California,,San Francisco
104.236.158.24,4,26,websa100.com,US,Americas,Northern America,United States of America,California,,San Francisco
151.101.2.211,4,27,websitebuilderexpert.com,US,Americas,Northern America,United States of America,California,,San Francisco
192.0.79.32,4,39,webworkerdaily.com,US,Americas,Northern America,United States of America,California,,San Francisco
192.0.79.33,4,44,webworkerdaily.com,US,Americas,Northern America,United States of America,California,,San Francisco
199.16.173.67,4,12,weeklyworldnews.com,US,Americas,Northern America,United States of America,California,,San Francisco
199.16.172.151,4,10,weeklyworldnews.com,US,Americas,Northern America,United States of America,California,,San Francisco
151.101.66.125,4,2,welcometoloudcity.com,US,Americas,Northern America,United States of America,California,,San Francisco
151.101.2.125,4,11,welcometoloudcity.com,US,Americas,Northern America,United States of America,California,,San Francisco
151.101.194.125,4,9,welcometoloudcity.com,US,Americas,Northern America,United States of America,California,,San Francisco
151.101.130.125,4,3,welcometoloudcity.com,US,Americas,Northern America,United States of America,California,,San Francisco
151.101.2.64,4,9,weldom.fr,US,Americas,Northern America,United States of America,California,,San Francisco
151.101.66.64,4,7,weldom.fr,US,Americas,Northern America,United States of America,California,,San Francisco
151.101.194.64,4,6,weldom.fr,US,Americas,Northern America,United States of America,California,,San Francisco
151.101.130.64,4,7,weldom.fr,US,Americas,Northern America,United States of America,California,,San Francisco
192.0.78.137,4,6,wen.com,US,Americas,Northern America,United States of America,California,,San Francisco
192.0.78.215,4,12,wen.com,US,Americas,Northern America,United States of America,California,,San Francisco
151.101.194.123,4,5,wepay.com,US,Americas,Northern America,United States of America,California,,San Francisco
151.101.66.123,4,2,wepay.com,US,Americas,Northern America,United States of America,California,,San Francisco
151.101.2.123,4,3,wepay.com,US,Americas,Northern America,United States of America,California,,San Francisco
151.101.130.123,4,4,wepay.com,US,Americas,Northern America,United States of America,California,,San Francisco
64.23.190.0,4,7,westwardlook.com,US,Americas,Northern America,United States of America,California,,San Francisco
192.0.66.227,4,10,westwinddi.com,US,Americas,Northern America,United States of America,California,,San Francisco
192.0.66.173,4,6,wetnwildbeauty.com,US,Americas,Northern America,United States of America,California,,San Francisco
151.101.194.224,4,3,wgu.edu,US,Americas,Northern America,United States of America,California,,San Francisco
192.0.78.140,4,4,whalestalewaterpark.net,US,Americas,Northern America,United States of America,California,,San Francisco
192.0.78.132,4,12,whatcom-news.com,US,Americas,Northern America,United States of America,California,,San Francisco
192.0.78.203,4,24,whatconsumesme.com,US,Americas,Northern America,United States of America,California,,San Francisco
192.0.78.199,4,9,whatjessicabakednext.com,US,Americas,Northern America,United States of America,California,,San Francisco
192.0.66.218,4,5,whatsonstage.com,US,Americas,Northern America,United States of America,California,,San Francisco
104.236.156.15,4,795586,whattheheckdoieatnow.com,US,Americas,Northern America,United States of America,California,,San Francisco
192.0.78.163,4,5,whenwomeninspire.com,US,Americas,Northern America,United States of America,California,,San Francisco
192.0.78.230,4,5,whenwomeninspire.com,US,Americas,Northern America,United States of America,California,,San Francisco
199.16.173.232,4,4,whirlwindsteel.com,US,Americas,Northern America,United States of America,California,,San Francisco
192.0.78.160,4,6,whistlermuseum.org,US,Americas,Northern America,United States of America,California,,San Francisco
192.0.66.168,4,11,whitehousedrugpolicy.gov,US,Americas,Northern America,United States of America,California,,San Francisco
151.101.129.12,4,8,whitemountainshoes.com,US,Americas,Northern America,United States of America,California,,San Francisco
192.0.78.158,4,12,whiteroom.ai,US,Americas,Northern America,United States of America,California,,San Francisco
199.16.172.107,4,3,whoishussain.org,US,Americas,Northern America,United States of America,California,,San Francisco
199.16.173.216,4,7,whoishussain.org,US,Americas,Northern America,United States of America,California,,San Francisco
151.101.192.69,4,3,wholefoods.com,US,Americas,Northern America,United States of America,California,,San Francisco
151.101.128.69,4,7,wholefoods.com,US,Americas,Northern America,United States of America,California,,San Francisco
151.101.0.69,4,6,wholefoods.com,US,Americas,Northern America,United States of America,California,,San Francisco
151.101.64.69,4,2,wholefoods.com,US,Americas,Northern America,United States of America,California,,San Francisco
162.243.152.24,4,72977,whopayswriters.com,US,Americas,Northern America,United States of America,California,,San Francisco
192.0.66.128,4,5,whotv.com,US,Americas,Northern America,United States of America,California,,San Francisco
192.0.66.31,4,22,wibc.com,US,Americas,Northern America,United States of America,California,,San Francisco
192.0.78.242,4,24,wifihustlin.com,US,Americas,Northern America,United States of America,California,,San Francisco
199.16.172.99,4,19,wigsforkids.org,US,Americas,Northern America,United States of America,California,,San Francisco
199.16.173.90,4,12,wigsforkids.org,US,Americas,Northern America,United States of America,California,,San Francisco
151.101.64.194,4,7,wikicities.com,US,Americas,Northern America,United States of America,California,,San Francisco
151.101.128.194,4,21,wikicities.com,US,Americas,Northern America,United States of America,California,,San Francisco
151.101.0.194,4,47,wikicities.com,US,Americas,Northern America,United States of America,California,,San Francisco
151.101.192.194,4,49,wikicities.com,US,Americas,Northern America,United States of America,California,,San Francisco
104.236.135.232,4,54,wikidates.org,US,Americas,Northern America,United States of America,California,,San Francisco
192.0.78.222,4,77,wikisummaries.org,US,Americas,Northern America,United States of America,California,,San Francisco
151.101.193.154,4,7,wildcraft.com,US,Americas,Northern America,United States of America,California,,San Francisco
151.101.65.154,4,12,wildcraft.com,US,Americas,Northern America,United States of America,California,,San Francisco
151.101.129.154,4,14,wildcraft.com,US,Americas,Northern America,United States of America,California,,San Francisco
151.101.1.154,4,21,wildcraft.com,US,Americas,Northern America,United States of America,California,,San Francisco
199.16.173.43,4,5,wildernessmag.co.nz,US,Americas,Northern America,United States of America,California,,San Francisco
199.16.172.84,4,27,wildernessmag.co.nz,US,Americas,Northern America,United States of America,California,,San Francisco
192.0.66.36,4,9,wildhorsesaloon.com,US,Americas,Northern America,United States of America,California,,San Francisco
192.0.78.174,4,42,wildrivertours.com.au,US,Americas,Northern America,United States of America,California,,San Francisco
192.0.78.234,4,10,willwilkinson.net,US,Americas,Northern America,United States of America,California,,San Francisco
192.0.78.170,4,16,willwilkinson.net,US,Americas,Northern America,United States of America,California,,San Francisco
45.55.115.108,4,1,wilsondaniels.com,US,Americas,Northern America,United States of America,California,,San Francisco
151.101.0.80,4,8,wilsonschoolsnc.net,US,Americas,Northern America,United States of America,California,,San Francisco
151.101.128.80,4,15,wilsonschoolsnc.net,US,Americas,Northern America,United States of America,California,,San Francisco
151.101.64.80,4,7,wilsonschoolsnc.net,US,Americas,Northern America,United States of America,California,,San Francisco
192.0.66.236,4,18,wimp.com,US,Americas,Northern America,United States of America,California,,San Francisco
192.0.78.211,4,4,win-vector.com,US,Americas,Northern America,United States of America,California,,San Francisco
192.0.78.202,4,3,winbylosing.org,US,Americas,Northern America,United States of America,California,,San Francisco
192.0.78.146,4,5,wineeconomist.com,US,Americas,Northern America,United States of America,California,,San Francisco
192.0.78.239,4,9,wineeconomist.com,US,Americas,Northern America,United States of America,California,,San Francisco
199.16.173.79,4,7,winixamerica.com,US,Americas,Northern America,United States of America,California,,San Francisco
199.16.172.155,4,8,winixamerica.com,US,Americas,Northern America,United States of America,California,,San Francisco
192.0.66.177,4,17,winknews.com,US,Americas,Northern America,United States of America,California,,San Francisco
192.0.66.33,4,39,winnipegfreepress.com,US,Americas,Northern America,United States of America,California,,San Francisco
192.0.78.252,4,9,winpoin.com,US,Americas,Northern America,United States of America,California,,San Francisco
192.0.78.154,4,12,winthropwashington.com,US,Americas,Northern America,United States of America,California,,San Francisco
151.101.2.194,4,3,wired.com,US,Americas,Northern America,United States of America,California,,San Francisco
151.101.194.194,4,7,wired.com,US,Americas,Northern America,United States of America,California,,San Francisco
151.101.66.194,4,4,wired.com,US,Americas,Northern America,United States of America,California,,San Francisco
151.101.130.194,4,14,wired.com,US,Americas,Northern America,United States of America,California,,San Francisco
199.16.173.242,4,36,wiredproductions.com,US,Americas,Northern America,United States of America,California,,San Francisco
199.16.172.133,4,22,wiredproductions.com,US,Americas,Northern America,United States of America,California,,San Francisco
151.101.192.80,4,6,wisd.org,US,Americas,Northern America,United States of America,California,,San Francisco
45.55.111.42,4,4,wliha.org,US,Americas,Northern America,United States of America,California,,San Francisco
192.0.78.213,4,8,wluw.org,US,Americas,Northern America,United States of America,California,,San Francisco
192.0.66.192,4,3,wmn.de,US,Americas,Northern America,United States of America,California,,San Francisco
199.16.173.236,4,4,wnpa.org,US,Americas,Northern America,United States of America,California,,San Francisco
199.16.172.63,4,6,wnpa.org,US,Americas,Northern America,United States of America,California,,San Francisco
192.0.78.243,4,4,wnycatholic.org,US,Americas,Northern America,United States of America,California,,San Francisco
192.0.78.249,4,17,wnynewsnow.com,US,Americas,Northern America,United States of America,California,,San Francisco
192.0.78.165,4,4,wnynewsnow.com,US,Americas,Northern America,United States of America,California,,San Francisco
151.101.66.126,4,31,wolfermans.com,US,Americas,Northern America,United States of America,California,,San Francisco
151.101.194.126,4,12,wolfermans.com,US,Americas,Northern America,United States of America,California,,San Francisco
151.101.130.126,4,12,wolfermans.com,US,Americas,Northern America,United States of America,California,,San Francisco
151.101.2.126,4,9,wolfermans.com,US,Americas,Northern America,United States of America,California,,San Francisco
192.0.78.151,4,58,womansplaceuk.org,US,Americas,Northern America,United States of America,California,,San Francisco
192.0.78.183,4,25,womenin3dprinting.com,US,Americas,Northern America,United States of America,California,,San Francisco
192.0.78.219,4,16,womenin3dprinting.com,US,Americas,Northern America,United States of America,California,,San Francisco
199.16.172.154,4,9,womensenews.org,US,Americas,Northern America,United States of America,California,,San Francisco
199.16.173.134,4,21,womensenews.org,US,Americas,Northern America,United States of America,California,,San Francisco
151.101.0.200,4,48,womenshealthmag.co.uk,US,Americas,Northern America,United States of America,California,,San Francisco
151.101.192.200,4,24,womenshealthmag.co.uk,US,Americas,Northern America,United States of America,California,,San Francisco
151.101.64.200,4,21,womenshealthmag.co.uk,US,Americas,Northern America,United States of America,California,,San Francisco
151.101.128.200,4,23,womenshealthmag.co.uk,US,Americas,Northern America,United States of America,California,,San Francisco
151.101.0.155,4,22,womenshealthmag.com,US,Americas,Northern America,United States of America,California,,San Francisco
151.101.192.155,4,26,womenshealthmag.com,US,Americas,Northern America,United States of America,California,,San Francisco
151.101.128.155,4,30,womenshealthmag.com,US,Americas,Northern America,United States of America,California,,San Francisco
151.101.64.155,4,42,womenshealthmag.com,US,Americas,Northern America,United States of America,California,,San Francisco
199.16.173.219,4,18,womensmentalhealth.org,US,Americas,Northern America,United States of America,California,,San Francisco
199.16.172.75,4,41,womensmentalhealth.org,US,Americas,Northern America,United States of America,California,,San Francisco
199.16.172.109,4,4,womenspreventivehealth.org,US,Americas,Northern America,United States of America,California,,San Francisco
199.16.173.228,4,3,womenspreventivehealth.org,US,Americas,Northern America,United States of America,California,,San Francisco
192.0.66.18,4,16,wonderwall.com,US,Americas,Northern America,United States of America,California,,San Francisco
192.0.66.5,4,9,woocommerce.com,US,Americas,Northern America,United States of America,California,,San Francisco
192.0.66.167,4,5,woodward.com,US,Americas,Northern America,United States of America,California,,San Francisco
199.16.172.5,4,4,woollyworm.com,US,Americas,Northern America,United States of America,California,,San Francisco
192.0.66.3,4,6,woothemes.com,US,Americas,Northern America,United States of America,California,,San Francisco
192.0.78.209,4,11,wordhistories.net,US,Americas,Northern America,United States of America,California,,San Francisco
192.0.78.226,4,10,wordinblack.com,US,Americas,Northern America,United States of America,California,,San Francisco
192.0.78.182,4,11,wordinblack.com,US,Americas,Northern America,United States of America,California,,San Francisco
192.0.78.9,4,11,wordpress.com,US,Americas,Northern America,United States of America,California,,San Francisco
192.0.78.17,4,5,wordpress.com,US,Americas,Northern America,United States of America,California,,San Francisco
192.0.78.178,4,5,workbravely.com,US,Americas,Northern America,United States of America,California,,San Francisco
192.0.78.232,4,12,workbravely.com,US,Americas,Northern America,United States of America,California,,San Francisco
192.0.78.197,4,4,workingclasshistory.com,US,Americas,Northern America,United States of America,California,,San Francisco
192.0.66.72,4,2,worklife.news,US,Americas,Northern America,United States of America,California,,San Francisco
192.0.78.227,4,23,worldairlinenews.com,US,Americas,Northern America,United States of America,California,,San Francisco
199.16.172.185,4,3,worldbicyclerelief.org,US,Americas,Northern America,United States of America,California,,San Francisco
199.16.173.77,4,7,worldcitiescultureforum.com,US,Americas,Northern America,United States of America,California,,San Francisco
199.16.173.15,4,14,worldcitiescultureforum.com,US,Americas,Northern America,United States of America,California,,San Francisco
192.0.78.128,4,12,worldlupusday.org,US,Americas,Northern America,United States of America,California,,San Francisco
192.0.66.58,4,5,worldpoliticsreview.com,US,Americas,Northern America,United States of America,California,,San Francisco
192.0.78.191,4,23,worldskills2024.com,US,Americas,Northern America,United States of America,California,,San Francisco
192.0.78.233,4,5,worldskills2024.com,US,Americas,Northern America,United States of America,California,,San Francisco
192.0.66.216,4,30,worldsoccer.com,US,Americas,Northern America,United States of America,California,,San Francisco
151.101.64.193,4,3,worldstar.com,US,Americas,Northern America,United States of America,California,,San Francisco
151.101.192.193,4,8,worldstar.com,US,Americas,Northern America,United States of America,California,,San Francisco
151.101.0.193,4,3,worldstar.com,US,Americas,Northern America,United States of America,California,,San Francisco
151.101.128.193,4,5,worldstar.com,US,Americas,Northern America,United States of America,California,,San Francisco
192.0.66.2,4,19,worldwealthreport.com,US,Americas,Northern America,United States of America,California,,San Francisco
199.16.173.44,4,10,worldyouthday.com,US,Americas,Northern America,United States of America,California,,San Francisco
199.16.172.32,4,12,worldyouthday.com,US,Americas,Northern America,United States of America,California,,San Francisco
199.16.172.72,4,18,worldysnews.com,US,Americas,Northern America,United States of America,California,,San Francisco
199.16.173.81,4,25,worldysnews.com,US,Americas,Northern America,United States of America,California,,San Francisco
192.0.78.129,4,2,worleygig.com,US,Americas,Northern America,United States of America,California,,San Francisco
192.0.78.223,4,4,worleygig.com,US,Americas,Northern America,United States of America,California,,San Francisco
192.0.66.120,4,8,worthypublishing.com,US,Americas,Northern America,United States of America,California,,San Francisco
192.0.66.4,4,3,wpjobmanager.com,US,Americas,Northern America,United States of America,California,,San Francisco
199.16.173.3,4,4,wptavern.com,US,Americas,Northern America,United States of America,California,,San Francisco
199.16.172.53,4,4,wptavern.com,US,Americas,Northern America,United States of America,California,,San Francisco
192.0.66.32,4,7,wpvip.com,US,Americas,Northern America,United States of America,California,,San Francisco
199.16.172.11,4,9,wpzita.com,US,Americas,Northern America,United States of America,California,,San Francisco
199.16.173.124,4,24,wpzita.com,US,Americas,Northern America,United States of America,California,,San Francisco
192.0.78.135,4,7,wrenchinthegears.com,US,Americas,Northern America,United States of America,California,,San Francisco
192.0.78.196,4,8,wrestlenomics.com,US,Americas,Northern America,United States of America,California,,San Francisco
192.0.66.180,4,4,wrestlezone.com,US,Americas,Northern America,United States of America,California,,San Francisco
192.0.78.179,4,21,wrexham.com,US,Americas,Northern America,United States of America,California,,San Francisco
192.0.78.221,4,3,wrexham.com,US,Americas,Northern America,United States of America,California,,San Francisco
192.0.66.88,4,43,writer.com,US,Americas,Northern America,United States of America,California,,San Francisco
199.16.172.199,4,29,writer.org,US,Americas,Northern America,United States of America,California,,San Francisco
199.16.173.42,4,3,writer.org,US,Americas,Northern America,United States of America,California,,San Francisco
192.0.78.217,4,4,writingcenters.org,US,Americas,Northern America,United States of America,California,,San Francisco
162.243.132.125,4,5,writology.com,US,Americas,Northern America,United States of America,California,,San Francisco
192.0.66.40,4,3,wsfm.com.au,US,Americas,Northern America,United States of America,California,,San Francisco
192.0.66.96,4,7,wsvn.com,US,Americas,Northern America,United States of America,California,,San Francisco
151.101.130.50,4,1,wtgf.org,US,Americas,Northern America,United States of America,California,,San Francisco
151.101.2.50,4,3,wtgf.org,US,Americas,Northern America,United States of America,California,,San Francisco
151.101.194.50,4,2,wtgf.org,US,Americas,Northern America,United States of America,California,,San Francisco
151.101.66.50,4,2,wtgf.org,US,Americas,Northern America,United States of America,California,,San Francisco
151.101.194.217,4,5,wtop.com,US,Americas,Northern America,United States of America,California,,San Francisco
151.101.66.217,4,4,wtop.com,US,Americas,Northern America,United States of America,California,,San Francisco
151.101.2.217,4,4,wtop.com,US,Americas,Northern America,United States of America,California,,San Francisco
151.101.130.217,4,2,wtop.com,US,Americas,Northern America,United States of America,California,,San Francisco
192.0.66.94,4,5,wufc.com.au,US,Americas,Northern America,United States of America,California,,San Francisco
192.0.78.131,4,5,wuog.org,US,Americas,Northern America,United States of America,California,,San Francisco
192.0.78.201,4,6,wuog.org,US,Americas,Northern America,United States of America,California,,San Francisco
159.203.254.109,4,4,wursthall.com,US,Americas,Northern America,United States of America,California,,San Francisco
151.101.195.42,4,1,wurth.es,US,Americas,Northern America,United States of America,California,,San Francisco
151.101.67.42,4,4,wurth.es,US,Americas,Northern America,United States of America,California,,San Francisco
151.101.131.42,4,3,wurth.es,US,Americas,Northern America,United States of America,California,,San Francisco
151.101.3.42,4,6,wurth.es,US,Americas,Northern America,United States of America,California,,San Francisco
192.0.66.223,4,4,wvpentours.com,US,Americas,Northern America,United States of America,California,,San Francisco
151.101.193.114,4,8,wvtm13.com,US,Americas,Northern America,United States of America,California,,San Francisco
151.101.129.114,4,3,wvtm13.com,US,Americas,Northern America,United States of America,California,,San Francisco
151.101.65.114,4,3,wvtm13.com,US,Americas,Northern America,United States of America,California,,San Francisco
151.101.1.114,4,3,wvtm13.com,US,Americas,Northern America,United States of America,California,,San Francisco
151.101.194.99,4,6,ww.com,US,Americas,Northern America,United States of America,California,,San Francisco
151.101.2.99,4,7,ww.com,US,Americas,Northern America,United States of America,California,,San Francisco
151.101.130.99,4,5,ww.com,US,Americas,Northern America,United States of America,California,,San Francisco
151.101.66.99,4,4,ww.com,US,Americas,Northern America,United States of America,California,,San Francisco
192.0.66.184,4,9,wwd.com,US,Americas,Northern America,United States of America,California,,San Francisco
151.101.128.144,4,5,www.mod.uk,US,Americas,Northern America,United States of America,California,,San Francisco
151.101.0.144,4,3,www.mod.uk,US,Americas,Northern America,United States of America,California,,San Francisco
151.101.192.144,4,4,www.mod.uk,US,Americas,Northern America,United States of America,California,,San Francisco
151.101.64.144,4,2,www.mod.uk,US,Americas,Northern America,United States of America,California,,San Francisco
151.101.194.87,4,14,www.ticketweb.uk,US,Americas,Northern America,United States of America,California,,San Francisco
151.101.2.87,4,35,www.ticketweb.uk,US,Americas,Northern America,United States of America,California,,San Francisco
151.101.66.87,4,50,www.ticketweb.uk,US,Americas,Northern America,United States of America,California,,San Francisco
151.101.130.87,4,4,www.ticketweb.uk,US,Americas,Northern America,United States of America,California,,San Francisco
192.0.78.187,4,4,wyofile.com,US,Americas,Northern America,United States of America,California,,San Francisco
192.0.78.206,4,2,wyofile.com,US,Americas,Northern America,United States of America,California,,San Francisco
104.236.135.127,4,2567992,xbsoftware.com,US,Americas,Northern America,United States of America,California,,San Francisco
151.101.192.67,4,3,xkcd.com,US,Americas,Northern America,United States of America,California,,San Francisco
151.101.128.67,4,3,xkcd.com,US,Americas,Northern America,United States of America,California,,San Francisco
151.101.0.67,4,4,xkcd.com,US,Americas,Northern America,United States of America,California,,San Francisco
151.101.64.67,4,3,xkcd.com,US,Americas,Northern America,United States of America,California,,San Francisco
151.101.65.21,4,6,xoom.com,US,Americas,Northern America,United States of America,California,,San Francisco
151.101.129.21,4,6,xoom.com,US,Americas,Northern America,United States of America,California,,San Francisco
45.55.26.49,4,3,xrafstar.monster,US,Americas,Northern America,United States of America,California,,San Francisco
192.0.66.176,4,11,xtime.com,US,Americas,Northern America,United States of America,California,,San Francisco
192.0.78.250,4,5,xyleme.com,US,Americas,Northern America,United States of America,California,,San Francisco
192.0.66.104,4,8,y108.ca,US,Americas,Northern America,United States of America,California,,San Francisco
151.101.130.98,4,2,yachtsinternational.com,US,Americas,Northern America,United States of America,California,,San Francisco
151.101.194.98,4,17,yachtsinternational.com,US,Americas,Northern America,United States of America,California,,San Francisco
151.101.66.98,4,3,yachtsinternational.com,US,Americas,Northern America,United States of America,California,,San Francisco
151.101.2.98,4,12,yachtsinternational.com,US,Americas,Northern America,United States of America,California,,San Francisco
192.0.78.168,4,2,yaleclimateconnections.org,US,Americas,Northern America,United States of America,California,,San Francisco
192.0.78.231,4,4,yaleclimateconnections.org,US,Americas,Northern America,United States of America,California,,San Francisco
192.0.78.136,4,3,yarnutopia.com,US,Americas,Northern America,United States of America,California,,San Francisco
192.0.78.218,4,37,yarnutopia.com,US,Americas,Northern America,United States of America,California,,San Francisco
192.0.78.189,4,6,yehey.com,US,Americas,Northern America,United States of America,California,,San Francisco
192.0.78.236,4,3,yehey.com,US,Americas,Northern America,United States of America,California,,San Francisco
192.0.78.166,4,4,yieldkit.com,US,Americas,Northern America,United States of America,California,,San Francisco
192.0.78.208,4,4,yieldkit.com,US,Americas,Northern America,United States of America,California,,San Francisco
151.101.66.137,4,3,ymparisto.fi,US,Americas,Northern America,United States of America,California,,San Francisco
151.101.194.137,4,2,ymparisto.fi,US,Americas,Northern America,United States of America,California,,San Francisco
151.101.130.137,4,1,ymparisto.fi,US,Americas,Northern America,United States of America,California,,San Francisco
151.101.2.137,4,4,ymparisto.fi,US,Americas,Northern America,United States of America,California,,San Francisco
192.0.66.205,4,4,ymsprr.com,US,Americas,Northern America,United States of America,California,,San Francisco
192.0.78.147,4,7,yoptima.com,US,Americas,Northern America,United States of America,California,,San Francisco
151.101.130.225,4,3,yorkbenimaru.com,US,Americas,Northern America,United States of America,California,,San Francisco
151.101.2.225,4,4,yorkbenimaru.com,US,Americas,Northern America,United States of America,California,,San Francisco
151.101.194.225,4,4,yorkbenimaru.com,US,Americas,Northern America,United States of America,California,,San Francisco
151.101.66.225,4,3,yorkbenimaru.com,US,Americas,Northern America,United States of America,California,,San Francisco
192.0.66.239,4,7,yorkswildkingdom.com,US,Americas,Northern America,United States of America,California,,San Francisco
151.101.3.52,4,4,yoshidakaban.com,US,Americas,Northern America,United States of America,California,,San Francisco
151.101.195.52,4,3,yoshidakaban.com,US,Americas,Northern America,United States of America,California,,San Francisco
151.101.67.52,4,2,yoshidakaban.com,US,Americas,Northern America,United States of America,California,,San Francisco
151.101.131.52,4,4,yoshidakaban.com,US,Americas,Northern America,United States of America,California,,San Francisco
192.0.78.194,4,5,youarenotsosmart.com,US,Americas,Northern America,United States of America,California,,San Francisco
198.199.94.195,4,5,younglivingfoundation.org,US,Americas,Northern America,United States of America,California,,San Francisco
192.0.66.143,4,4,youpouch.com,US,Americas,Northern America,United States of America,California,,San Francisco
192.0.78.237,4,22,yourdevan.com,US,Americas,Northern America,United States of America,California,,San Francisco
192.0.78.188,4,23,yourdevan.com,US,Americas,Northern America,United States of America,California,,San Francisco
192.0.66.160,4,8,yourhorse.co.uk,US,Americas,Northern America,United States of America,California,,San Francisco
192.0.78.143,4,7,yoursdp.org,US,Americas,Northern America,United States of America,California,,San Francisco
192.0.78.238,4,8,yoursdp.org,US,Americas,Northern America,United States of America,California,,San Francisco
199.16.173.252,4,19,youscience.com,US,Americas,Northern America,United States of America,California,,San Francisco
199.16.172.225,4,4,youscience.com,US,Americas,Northern America,United States of America,California,,San Francisco
192.0.78.171,4,4,yubanet.com,US,Americas,Northern America,United States of America,California,,San Francisco
192.0.78.210,4,3,yubanet.com,US,Americas,Northern America,United States of America,California,,San Francisco
192.0.78.245,4,6,yubariver.org,US,Americas,Northern America,United States of America,California,,San Francisco
192.0.78.161,4,3,yubariver.org,US,Americas,Northern America,United States of America,California,,San Francisco
151.101.130.114,4,3,yubico.com,US,Americas,Northern America,United States of America,California,,San Francisco
151.101.2.114,4,3,yubico.com,US,Americas,Northern America,United States of America,California,,San Francisco
151.101.66.114,4,3,yubico.com,US,Americas,Northern America,United States of America,California,,San Francisco
151.101.194.114,4,2,yubico.com,US,Americas,Northern America,United States of America,California,,San Francisco
192.0.78.185,4,5,yucatan.com.mx,US,Americas,Northern America,United States of America,California,,San Francisco
192.0.78.192,4,5,yucatan.com.mx,US,Americas,Northern America,United States of America,California,,San Francisco
192.0.78.246,4,3,yukonprogressnews.com,US,Americas,Northern America,United States of America,California,,San Francisco
192.0.78.162,4,4,yvesengler.com,US,Americas,Northern America,United States of America,California,,San Francisco
192.0.78.228,4,5,yvesengler.com,US,Americas,Northern America,United States of America,California,,San Francisco
199.16.172.120,4,27,zacamesa.com,US,Americas,Northern America,United States of America,California,,San Francisco
151.101.1.174,4,5,zaius.com,US,Americas,Northern America,United States of America,California,,San Francisco
151.101.129.174,4,85,zaius.com,US,Americas,Northern America,United States of America,California,,San Francisco
151.101.65.174,4,5,zaius.com,US,Americas,Northern America,United States of America,California,,San Francisco
151.101.193.174,4,61,zaius.com,US,Americas,Northern America,United States of America,California,,San Francisco
192.0.78.207,4,21,zakthebaker.com,US,Americas,Northern America,United States of America,California,,San Francisco
192.0.78.177,4,8,zakthebaker.com,US,Americas,Northern America,United States of America,California,,San Francisco
151.101.1.75,4,2,zaytinya.com,US,Americas,Northern America,United States of America,California,,San Francisco
151.101.130.119,4,5,zazzle.fr,US,Americas,Northern America,United States of America,California,,San Francisco
151.101.194.119,4,5,zazzle.fr,US,Americas,Northern America,United States of America,California,,San Francisco
151.101.2.119,4,4,zazzle.fr,US,Americas,Northern America,United States of America,California,,San Francisco
151.101.66.119,4,4,zazzle.fr,US,Americas,Northern America,United States of America,California,,San Francisco
192.0.78.198,4,9,zeeemedia.com,US,Americas,Northern America,United States of America,California,,San Francisco
192.0.78.212,4,15,zeek.org,US,Americas,Northern America,United States of America,California,,San Francisco
192.0.78.150,4,16,zeek.org,US,Americas,Northern America,United States of America,California,,San Francisco
151.101.65.55,4,19,zenbusiness.com,US,Americas,Northern America,United States of America,California,,San Francisco
151.101.129.55,4,8,zenbusiness.com,US,Americas,Northern America,United States of America,California,,San Francisco
151.101.1.55,4,8,zenbusiness.com,US,Americas,Northern America,United States of America,California,,San Francisco
151.101.193.55,4,5,zenbusiness.com,US,Americas,Northern America,United States of America,California,,San Francisco
199.16.172.187,4,8,zendoproject.org,US,Americas,Northern America,United States of America,California,,San Francisco
199.16.173.57,4,5,zendoproject.org,US,Americas,Northern America,United States of America,California,,San Francisco
192.0.78.240,4,13,zenledger.io,US,Americas,Northern America,United States of America,California,,San Francisco
192.0.78.141,4,7,zenledger.io,US,Americas,Northern America,United States of America,California,,San Francisco
192.0.78.169,4,3,zenzero.co.uk,US,Americas,Northern America,United States of America,California,,San Francisco
192.0.78.200,4,17,zenzero.co.uk,US,Americas,Northern America,United States of America,California,,San Francisco
151.101.64.204,4,2,zephoria.org,US,Americas,Northern America,United States of America,California,,San Francisco
151.101.0.204,4,3,zephoria.org,US,Americas,Northern America,United States of America,California,,San Francisco
151.101.2.159,4,3,zerionsoftware.com,US,Americas,Northern America,United States of America,California,,San Francisco
151.101.194.159,4,5,zeromillion.com,US,Americas,Northern America,United States of America,California,,San Francisco
192.0.78.149,4,6,zerowastechef.com,US,Americas,Northern America,United States of America,California,,San Francisco
192.0.78.253,4,2,zerowastechef.com,US,Americas,Northern America,United States of America,California,,San Francisco
151.101.1.161,4,5,zesty.io,US,Americas,Northern America,United States of America,California,,San Francisco
151.101.2.132,4,36,zg.ch,US,Americas,Northern America,United States of America,California,,San Francisco
151.101.130.132,4,6,zg.ch,US,Americas,Northern America,United States of America,California,,San Francisco
151.101.66.132,4,9,zg.ch,US,Americas,Northern America,United States of America,California,,San Francisco
151.101.194.132,4,6,zg.ch,US,Americas,Northern America,United States of America,California,,San Francisco
192.241.233.198,4,2197456,zhaojie.me,US,Americas,Northern America,United States of America,California,,San Francisco
45.55.2.73,4,5,zhar.net,US,Americas,Northern America,United States of America,California,,San Francisco
192.0.66.208,4,5,zhiphopcleveland.com,US,Americas,Northern America,United States of America,California,,San Francisco
151.101.67.7,4,12,zimmergren.net,US,Americas,Northern America,United States of America,California,,San Francisco
151.101.195.7,4,32,zimmergren.net,US,Americas,Northern America,United States of America,California,,San Francisco
151.101.3.7,4,31,zimmergren.net,US,Americas,Northern America,United States of America,California,,San Francisco
151.101.131.7,4,26,zimmergren.net,US,Americas,Northern America,United States of America,California,,San Francisco
151.101.65.195,4,7,zingchart.com,US,Americas,Northern America,United States of America,California,,San Francisco
151.101.1.195,4,6,zingchart.com,US,Americas,Northern America,United States of America,California,,San Francisco
192.0.78.247,4,5,znsbahamas.com,US,Americas,Northern America,United States of America,California,,San Francisco
192.0.78.155,4,4,znsbahamas.com,US,Americas,Northern America,United States of America,California,,San Francisco
151.101.66.159,4,13,zonnelux.nl,US,Americas,Northern America,United States of America,California,,San Francisco
151.101.131.10,4,6,zoomadrid.com,US,Americas,Northern America,United States of America,California,,San Francisco
151.101.67.10,4,8,zoomadrid.com,US,Americas,Northern America,United States of America,California,,San Francisco
151.101.195.10,4,4,zoomadrid.com,US,Americas,Northern America,United States of America,California,,San Francisco
151.101.3.10,4,4,zoomadrid.com,US,Americas,Northern America,United States of America,California,,San Francisco
192.241.192.183,4,3,zorinaq.com,US,Americas,Northern America,United States of America,California,,San Francisco
192.0.78.173,4,2,zoroastrians.net,US,Americas,Northern America,United States of America,California,,San Francisco
192.0.78.224,4,6,zoroastrians.net,US,Americas,Northern America,United States of America,California,,San Francisco
151.101.130.159,4,3,zubie.com,US,Americas,Northern America,United States of America,California,,San Francisco
151.101.194.191,4,3,zuehlke.com,US,Americas,Northern America,United States of America,California,,San Francisco
151.101.66.191,4,4,zuehlke.com,US,Americas,Northern America,United States of America,California,,San Francisco
151.101.2.191,4,5,zuehlke.com,US,Americas,Northern America,United States of America,California,,San Francisco
151.101.130.191,4,4,zuehlke.com,US,Americas,Northern America,United States of America,California,,San Francisco
151.101.194.216,4,2,zuerich.com,US,Americas,Northern America,United States of America,California,,San Francisco
151.101.66.216,4,4,zuerich.com,US,Americas,Northern America,United States of America,California,,San Francisco
151.101.2.216,4,5,zuerich.com,US,Americas,Northern America,United States of America,California,,San Francisco
151.101.130.216,4,7,zuerich.com,US,Americas,Northern America,United States of America,California,,San Francisco
151.101.1.124,4,2,zumiez.com,US,Americas,Northern America,United States of America,California,,San Francisco
151.101.65.124,4,2,zumiez.com,US,Americas,Northern America,United States of America,California,,San Francisco
151.101.193.124,4,3,zumiez.com,US,Americas,Northern America,United States of America,California,,San Francisco
151.101.129.124,4,3,zumiez.com,US,Americas,Northern America,United States of America,California,,San Francisco
151.101.66.133,4,3,zuu.co.jp,US,Americas,Northern America,United States of America,California,,San Francisco
151.101.194.133,4,3,zuu.co.jp,US,Americas,Northern America,United States of America,California,,San Francisco
151.101.2.133,4,4,zuu.co.jp,US,Americas,Northern America,United States of America,California,,San Francisco
151.101.130.133,4,2,zuu.co.jp,US,Americas,Northern America,United States of America,California,,San Francisco
185.199.109.153,4,2,zverok.space,US,Americas,Northern America,United States of America,California,,San Francisco
192.0.78.25,4,4,zwischenzugs.com,US,Americas,Northern America,United States of America,California,,San Francisco
192.0.78.24,4,3,zwischenzugs.com,US,Americas,Northern America,United States of America,California,,San Francisco
151.101.129.91,4,4,zx-10r.net,US,Americas,Northern America,United States of America,California,,San Francisco
151.101.193.91,4,3,zx-10r.net,US,Americas,Northern America,United States of America,California,,San Francisco
151.101.1.91,4,3,zx-10r.net,US,Americas,Northern America,United States of America,California,,San Francisco
151.101.65.91,4,2,zx-10r.net,US,Americas,Northern America,United States of America,California,,San Francisco
