reflector_ip,ip_version,offset,description,country_code,region,sub_region,country_name,sub_division_1,sub_division_2,city
103.224.182.23,4,6,addme.com,US,Americas,Northern America,United States of America,California,,San Diego
137.110.139.247,4,5,bindingdb.org,US,Americas,Northern America,United States of America,California,,San Diego
103.224.182.225,4,6,caucaz.com,US,Americas,Northern America,United States of America,California,,San Diego
103.224.182.212,4,16,dummy.com,US,Americas,Northern America,United States of America,California,,San Diego
169.228.46.70,4,10,earthmicrobiome.org,US,Americas,Northern America,United States of America,California,,San Diego
24.94.6.105,4,1,fupcinternational.com,US,Americas,Northern America,United States of America,California,,San Diego
103.224.182.217,4,1,hackaday.org,US,Americas,Northern America,United States of America,California,,San Diego
208.85.243.173,4,27,hostpic.org,US,Americas,Northern America,United States of America,California,,San Diego
162.254.119.14,4,8,huskerboard.com,US,Americas,Northern America,United States of America,California,,San Diego
103.224.182.222,4,4,jestar.com,US,Americas,Northern America,United States of America,California,,San Diego
103.224.182.25,4,7,keyworddiscovery.com,US,Americas,Northern America,United States of America,California,,San Diego
64.158.242.27,4,-6,kyocera.com,US,Americas,Northern America,United States of America,California,,San Diego
103.224.182.207,4,7,mad4milk.net,US,Americas,Northern America,United States of America,California,,San Diego
103.224.182.22,4,26,mamma.com,US,Americas,Northern America,United States of America,California,,San Diego
103.224.182.9,4,2,mbtshoesonline.com,US,Americas,Northern America,United States of America,California,,San Diego
103.224.182.223,4,5,nalcaci.com,US,Americas,Northern America,United States of America,California,,San Diego
198.241.46.69,4,10,netflixmovies.com,US,Americas,Northern America,United States of America,California,,San Diego
103.224.182.230,4,25,olimu.com,US,Americas,Northern America,United States of America,California,,San Diego
64.158.242.88,4,30,oma.aero,US,Americas,Northern America,United States of America,California,,San Diego
208.85.242.69,4,173316,Ookla Speedtest Server: lin1.san.fastserv.com,US,Americas,Northern America,United States of America,California,,San Diego
103.224.182.219,4,12,platinumgrit.com,US,Americas,Northern America,United States of America,California,,San Diego
66.181.0.14,4,0,siloworld.net,US,Americas,Northern America,United States of America,California,,San Diego
103.224.182.224,4,24,simpsonizeme.com,US,Americas,Northern America,United States of America,California,,San Diego
103.224.182.239,4,18,switzerland-cheese.com,US,Americas,Northern America,United States of America,California,,San Diego
103.224.182.249,4,52,teko.my,US,Americas,Northern America,United States of America,California,,San Diego
103.224.182.21,4,10,trellian.com,US,Americas,Northern America,United States of America,California,,San Diego
103.224.182.16,4,3,urltrends.com,US,Americas,Northern America,United States of America,California,,San Diego
67.207.213.76,4,22,visracing.com,US,Americas,Northern America,United States of America,California,,San Diego
103.224.182.234,4,19,wayfaring.com,US,Americas,Northern America,United States of America,California,,San Diego
103.224.182.242,4,44,webxturkiye.com,US,Americas,Northern America,United States of America,California,,San Diego
103.224.182.240,4,8,wesrch.com,US,Americas,Northern America,United States of America,California,,San Diego
103.224.182.244,4,6,withoutadoctorsprescriptions.com,US,Americas,Northern America,United States of America,California,,San Diego
103.224.182.218,4,24,womanmotorist.com,US,Americas,Northern America,United States of America,California,,San Diego
103.224.182.238,4,5,writingchecker.top,US,Americas,Northern America,United States of America,California,,San Diego
103.224.182.248,4,6,wupload.com,US,Americas,Northern America,United States of America,California,,San Diego
103.224.182.245,4,17,xn--glsersplmaschine-wnb15b.de,US,Americas,Northern America,United States of America,California,,San Diego
103.224.182.251,4,5,xoso188.site,US,Americas,Northern America,United States of America,California,,San Diego
103.224.182.247,4,5,yeezys500.com,US,Americas,Northern America,United States of America,California,,San Diego
103.224.182.208,4,10,youloan24.com,US,Americas,Northern America,United States of America,California,,San Diego
103.224.182.250,4,22,yourserver.com,US,Americas,Northern America,United States of America,California,,San Diego
103.224.182.226,4,5,youtuve.com,US,Americas,Northern America,United States of America,California,,San Diego
103.224.182.241,4,5,yukan-fuji.com,US,Americas,Northern America,United States of America,California,,San Diego
103.224.182.243,4,6,zgr.net,US,Americas,Northern America,United States of America,California,,San Diego
103.224.182.210,4,4,zithromax.lol,US,Americas,Northern America,United States of America,California,,San Diego
103.224.182.253,4,8,zooburst.com,US,Americas,Northern America,United States of America,California,,San Diego
103.224.182.246,4,6,zusaar.com,US,Americas,Northern America,United States of America,California,,San Diego
103.224.182.252,4,2,zx6.ru,US,Americas,Northern America,United States of America,California,,San Diego
