reflector_ip,ip_version,offset,description,country_code,region,sub_region,country_name,sub_division_1,sub_division_2,city
104.237.63.179,4,5,bingkaiindonesia.com,US,Americas,Northern America,United States of America,California,,El Segundo
104.237.57.170,4,8,bluediamondfamilypups.com,US,Americas,Northern America,United States of America,California,,El Segundo
200.225.43.128,4,8,celebsages.com,US,Americas,Northern America,United States of America,California,,El Segundo
104.237.63.178,4,6,centralkoolkas.com,US,Americas,Northern America,United States of America,California,,El Segundo
200.225.42.88,4,4,chiropractorjax.com,US,Americas,Northern America,United States of America,California,,El Segundo
173.222.162.46,4,12,discovergoodnutrition.com,US,Americas,Northern America,United States of America,California,,El Segundo
200.225.42.93,4,5,expogroup.com.ar,US,Americas,Northern America,United States of America,California,,El Segundo
200.225.40.5,4,19,gaminginstincts.com,US,Americas,Northern America,United States of America,California,,El Segundo
200.225.43.30,4,5,handicappershideaway.com,US,Americas,Northern America,United States of America,California,,El Segundo
200.225.43.113,4,16,helenamodernriviera.com,US,Americas,Northern America,United States of America,California,,El Segundo
200.225.41.198,4,8,knowthecause.com,US,Americas,Northern America,United States of America,California,,El Segundo
200.225.43.222,4,6,lodgingmagazine.com,US,Americas,Northern America,United States of America,California,,El Segundo
200.225.41.26,4,7,m105.ca,US,Americas,Northern America,United States of America,California,,El Segundo
23.43.182.80,4,4,musicarts.com,US,Americas,Northern America,United States of America,California,,El Segundo
200.225.43.201,4,37,nationalrrmuseum.org,US,Americas,Northern America,United States of America,California,,El Segundo
200.225.40.226,4,4,netowl.com,US,Americas,Northern America,United States of America,California,,El Segundo
200.225.43.100,4,6,nrm.org,US,Americas,Northern America,United States of America,California,,El Segundo
200.225.41.169,4,7,orientdisplay.com,US,Americas,Northern America,United States of America,California,,El Segundo
200.225.40.44,4,0,osap.org,US,Americas,Northern America,United States of America,California,,El Segundo
104.237.55.155,4,25,peramatour.com,US,Americas,Northern America,United States of America,California,,El Segundo
200.225.41.57,4,9,phyton.com,US,Americas,Northern America,United States of America,California,,El Segundo
200.225.43.94,4,6,scenictrace.com,US,Americas,Northern America,United States of America,California,,El Segundo
173.223.234.151,4,2,soundfeelings.com,US,Americas,Northern America,United States of America,California,,El Segundo
173.223.234.144,4,15,soundfeelings.com,US,Americas,Northern America,United States of America,California,,El Segundo
104.237.61.227,4,472,sunsigns.org,US,Americas,Northern America,United States of America,California,,El Segundo
200.225.40.145,4,18,tradesecrets.ca,US,Americas,Northern America,United States of America,California,,El Segundo
200.225.41.212,4,6,wwfs.org,US,Americas,Northern America,United States of America,California,,El Segundo
