reflector_ip,ip_version,offset,description,country_code,region,sub_region,country_name,sub_division_1,sub_division_2,city
192.124.249.203,4,23,asbh.org,US,Americas,Northern America,United States of America,California,,Menifee
192.124.249.141,4,-36,boldly.com,US,Americas,Northern America,United States of America,California,,Menifee
192.124.249.174,4,-20,golosislama.com,US,Americas,Northern America,United States of America,California,,Menifee
192.124.249.116,4,11,hallco.org,US,Americas,Northern America,United States of America,California,,Menifee
192.124.249.173,4,-27,probonoaustralia.com.au,US,Americas,Northern America,United States of America,California,,Menifee
192.124.249.26,4,27,rategain.com,US,Americas,Northern America,United States of America,California,,Menifee
192.124.249.30,4,-2,rideillinois.org,US,Americas,Northern America,United States of America,California,,Menifee
192.124.249.185,4,-3,stockex.co.tt,US,Americas,Northern America,United States of America,California,,Menifee
192.124.249.16,4,33,sucuri.net,US,Americas,Northern America,United States of America,California,,Menifee
192.124.249.21,4,-11,sucuri.net,US,Americas,Northern America,United States of America,California,,Menifee
192.124.249.38,4,-29,taniabruguera.com,US,Americas,Northern America,United States of America,California,,Menifee
192.124.249.125,4,-37,theccd.ie,US,Americas,Northern America,United States of America,California,,Menifee
192.124.249.37,4,-21,thekills.tv,US,Americas,Northern America,United States of America,California,,Menifee
192.124.249.75,4,-37,themagazineantiques.com,US,Americas,Northern America,United States of America,California,,Menifee
192.124.249.129,4,63,thenewjournalandguide.com,US,Americas,Northern America,United States of America,California,,Menifee
192.124.249.127,4,62,thenivbible.com,US,Americas,Northern America,United States of America,California,,Menifee
192.124.249.77,4,-8,therustic.com,US,Americas,Northern America,United States of America,California,,Menifee
192.124.249.160,4,20,tiaca.org,US,Americas,Northern America,United States of America,California,,Menifee
192.124.249.188,4,-11,titanfueltanks.com,US,Americas,Northern America,United States of America,California,,Menifee
192.124.249.176,4,-19,titanicbranson.com,US,Americas,Northern America,United States of America,California,,Menifee
192.124.249.25,4,-21,todaysbride.ca,US,Americas,Northern America,United States of America,California,,Menifee
192.124.249.177,4,-24,topmarkfunding.com,US,Americas,Northern America,United States of America,California,,Menifee
192.124.249.190,4,-33,truelds.com,US,Americas,Northern America,United States of America,California,,Menifee
192.124.249.68,4,-22,trustuscotton.org,US,Americas,Northern America,United States of America,California,,Menifee
192.124.249.82,4,-19,ubuprojex.com,US,Americas,Northern America,United States of America,California,,Menifee
192.124.249.70,4,0,underwoodgardens.com,US,Americas,Northern America,United States of America,California,,Menifee
192.124.249.40,4,-20,uniquegroup.com,US,Americas,Northern America,United States of America,California,,Menifee
192.124.249.56,4,29,uqar.ca,US,Americas,Northern America,United States of America,California,,Menifee
192.124.249.27,4,-27,urbaser.com,US,Americas,Northern America,United States of America,California,,Menifee
192.124.249.59,4,16,ushersnewlook.org,US,Americas,Northern America,United States of America,California,,Menifee
192.124.249.128,4,-19,ut.ac.id,US,Americas,Northern America,United States of America,California,,Menifee
192.124.249.138,4,-20,vashiva.com,US,Americas,Northern America,United States of America,California,,Menifee
192.124.249.106,4,15,vegaawards.com,US,Americas,Northern America,United States of America,California,,Menifee
192.124.249.4,4,-4,veranda-resorts.com,US,Americas,Northern America,United States of America,California,,Menifee
192.124.249.126,4,-23,visasavenue.com,US,Americas,Northern America,United States of America,California,,Menifee
192.124.249.89,4,-17,visitcolumbusga.com,US,Americas,Northern America,United States of America,California,,Menifee
192.124.249.104,4,-11,visitcorvallis.com,US,Americas,Northern America,United States of America,California,,Menifee
192.124.249.90,4,-27,visitthegambia.com,US,Americas,Northern America,United States of America,California,,Menifee
192.124.249.78,4,-16,vladimirzelenkomd.com,US,Americas,Northern America,United States of America,California,,Menifee
192.124.249.187,4,-20,volex.com,US,Americas,Northern America,United States of America,California,,Menifee
192.124.249.53,4,7,walkleys.com,US,Americas,Northern America,United States of America,California,,Menifee
192.124.249.17,4,26,wapol.org,US,Americas,Northern America,United States of America,California,,Menifee
192.124.249.84,4,-34,warkawater.org,US,Americas,Northern America,United States of America,California,,Menifee
192.124.249.184,4,-34,warrenkinsella.com,US,Americas,Northern America,United States of America,California,,Menifee
192.124.249.155,4,1,wau.edu,US,Americas,Northern America,United States of America,California,,Menifee
192.124.249.179,4,-18,wbjeeb.in,US,Americas,Northern America,United States of America,California,,Menifee
192.124.249.137,4,-14,wealthygenius.com,US,Americas,Northern America,United States of America,California,,Menifee
192.124.249.140,4,-5,webguru-india.com,US,Americas,Northern America,United States of America,California,,Menifee
192.124.249.170,4,34,wecaremedical.us,US,Americas,Northern America,United States of America,California,,Menifee
192.124.249.87,4,-17,weddingsutra.com,US,Americas,Northern America,United States of America,California,,Menifee
192.124.249.135,4,-22,wellnesswithedie.com,US,Americas,Northern America,United States of America,California,,Menifee
192.124.249.103,4,1,weru.org,US,Americas,Northern America,United States of America,California,,Menifee
192.124.249.28,4,-14,westernplayland.com,US,Americas,Northern America,United States of America,California,,Menifee
192.124.249.133,4,-23,westofengland-ca.gov.uk,US,Americas,Northern America,United States of America,California,,Menifee
192.124.249.189,4,-18,wetandforget.com,US,Americas,Northern America,United States of America,California,,Menifee
192.124.249.29,4,-8,wewash24.com,US,Americas,Northern America,United States of America,California,,Menifee
192.124.249.63,4,1,wfw.com,US,Americas,Northern America,United States of America,California,,Menifee
192.124.249.115,4,3,whatsinthepan.com,US,Americas,Northern America,United States of America,California,,Menifee
192.124.249.55,4,3,whistler.ca,US,Americas,Northern America,United States of America,California,,Menifee
192.124.249.62,4,11,whitebirdclinic.org,US,Americas,Northern America,United States of America,California,,Menifee
192.124.249.139,4,-21,whitesecuritieslaw.com,US,Americas,Northern America,United States of America,California,,Menifee
192.124.249.83,4,-29,wicklow.ie,US,Americas,Northern America,United States of America,California,,Menifee
192.124.249.79,4,11,wienerbezirksblatt.at,US,Americas,Northern America,United States of America,California,,Menifee
192.124.249.132,4,22,wikinger-reisen.de,US,Americas,Northern America,United States of America,California,,Menifee
192.124.249.168,4,-3,wildmountain.com,US,Americas,Northern America,United States of America,California,,Menifee
192.124.249.163,4,7,willystreet.coop,US,Americas,Northern America,United States of America,California,,Menifee
192.124.249.12,4,29,wilmafrieda.com,US,Americas,Northern America,United States of America,California,,Menifee
192.124.249.34,4,-33,winesofcanada.com,US,Americas,Northern America,United States of America,California,,Menifee
192.124.249.102,4,48,winmagic.com,US,Americas,Northern America,United States of America,California,,Menifee
192.124.249.33,4,-30,wintermute.com,US,Americas,Northern America,United States of America,California,,Menifee
192.124.249.60,4,25,winwithjmc.com,US,Americas,Northern America,United States of America,California,,Menifee
192.124.249.80,4,0,witchsrocksurfcamp.com,US,Americas,Northern America,United States of America,California,,Menifee
192.124.249.118,4,-21,wockenfusscandies.com,US,Americas,Northern America,United States of America,California,,Menifee
192.124.249.180,4,13,wolfmediausa.com,US,Americas,Northern America,United States of America,California,,Menifee
192.124.249.175,4,-32,womeninfootball.co.uk,US,Americas,Northern America,United States of America,California,,Menifee
192.124.249.109,4,10,womenoftoday.com,US,Americas,Northern America,United States of America,California,,Menifee
192.124.249.114,4,5,wonderlandbakery.com,US,Americas,Northern America,United States of America,California,,Menifee
192.124.249.19,4,-30,woodlarkblog.com,US,Americas,Northern America,United States of America,California,,Menifee
192.124.249.61,4,-1,worcester.gov.uk,US,Americas,Northern America,United States of America,California,,Menifee
192.124.249.76,4,-17,workplaceintelligence.com,US,Americas,Northern America,United States of America,California,,Menifee
192.124.249.10,4,20,world-hydrogen-summit.com,US,Americas,Northern America,United States of America,California,,Menifee
192.124.249.159,4,10,worldofwork.io,US,Americas,Northern America,United States of America,California,,Menifee
192.124.249.164,4,10,worldpeace.org,US,Americas,Northern America,United States of America,California,,Menifee
192.124.249.113,4,0,worldspaceweek.org,US,Americas,Northern America,United States of America,California,,Menifee
192.124.249.183,4,-18,worldwidejournals.com,US,Americas,Northern America,United States of America,California,,Menifee
192.124.249.5,4,0,wp-events-plugin.com,US,Americas,Northern America,United States of America,California,,Menifee
192.124.249.58,4,9,wpi.com,US,Americas,Northern America,United States of America,California,,Menifee
192.124.249.3,4,6,wpja.com,US,Americas,Northern America,United States of America,California,,Menifee
192.124.249.182,4,-14,wrec.net,US,Americas,Northern America,United States of America,California,,Menifee
192.124.249.178,4,-23,writingtips.org,US,Americas,Northern America,United States of America,California,,Menifee
192.124.249.162,4,12,wtc.com,US,Americas,Northern America,United States of America,California,,Menifee
192.124.249.117,4,30,wvrivers.org,US,Americas,Northern America,United States of America,California,,Menifee
192.124.249.22,4,-29,wwf.org.uk,US,Americas,Northern America,United States of America,California,,Menifee
192.124.249.88,4,-29,wychavon.gov.uk,US,Americas,Northern America,United States of America,California,,Menifee
192.124.249.20,4,-4,wyomingcda.com,US,Americas,Northern America,United States of America,California,,Menifee
192.124.249.9,4,9,wyomingdinosaurcenter.org,US,Americas,Northern America,United States of America,California,,Menifee
192.124.249.107,4,12,x9.org,US,Americas,Northern America,United States of America,California,,Menifee
192.124.249.105,4,2,xyntekinc.com,US,Americas,Northern America,United States of America,California,,Menifee
192.124.249.39,4,-21,xyzreptiles.com,US,Americas,Northern America,United States of America,California,,Menifee
192.124.249.156,4,14,yamnuska.com,US,Americas,Northern America,United States of America,California,,Menifee
192.124.249.35,4,-16,yamu.lk,US,Americas,Northern America,United States of America,California,,Menifee
192.124.249.65,4,5,yanderesimulator.com,US,Americas,Northern America,United States of America,California,,Menifee
192.124.249.2,4,10,yankeemagazine.com,US,Americas,Northern America,United States of America,California,,Menifee
192.124.249.11,4,-1,yavapai-apache.org,US,Americas,Northern America,United States of America,California,,Menifee
192.124.249.112,4,10,ymcaokc.org,US,Americas,Northern America,United States of America,California,,Menifee
192.124.249.111,4,2,yodiz.com,US,Americas,Northern America,United States of America,California,,Menifee
192.124.249.152,4,6,yogarenewteachertraining.com,US,Americas,Northern America,United States of America,California,,Menifee
192.124.249.157,4,7,yosemitethisyear.com,US,Americas,Northern America,United States of America,California,,Menifee
192.124.249.6,4,12,yourdomain.com,US,Americas,Northern America,United States of America,California,,Menifee
192.124.249.57,4,7,yourradioplace.com,US,Americas,Northern America,United States of America,California,,Menifee
192.124.249.153,4,2,yourtea.com,US,Americas,Northern America,United States of America,California,,Menifee
192.124.249.15,4,3,yummymummystore.com,US,Americas,Northern America,United States of America,California,,Menifee
192.124.249.7,4,25,zain.com,US,Americas,Northern America,United States of America,California,,Menifee
192.124.249.130,4,1,zamusic.org,US,Americas,Northern America,United States of America,California,,Menifee
192.124.249.161,4,10,zappysys.com,US,Americas,Northern America,United States of America,California,,Menifee
192.124.249.154,4,-10,ziphearing.com,US,Americas,Northern America,United States of America,California,,Menifee
192.124.249.64,4,17,zippypaws.com,US,Americas,Northern America,United States of America,California,,Menifee
192.124.249.134,4,-32,zipthecanyons.com,US,Americas,Northern America,United States of America,California,,Menifee
192.124.249.18,4,-18,zodiackillerfacts.com,US,Americas,Northern America,United States of America,California,,Menifee
192.124.249.120,4,0,zoflora.co.uk,US,Americas,Northern America,United States of America,California,,Menifee
192.124.249.167,4,20,zonarosa.com,US,Americas,Northern America,United States of America,California,,Menifee
192.124.249.52,4,19,zoocheck.com,US,Americas,Northern America,United States of America,California,,Menifee
192.124.249.108,4,1,zoolert.com,US,Americas,Northern America,United States of America,California,,Menifee
192.124.249.158,4,1,zoomroom.com,US,Americas,Northern America,United States of America,California,,Menifee
192.124.249.8,4,1,zozothemes.com,US,Americas,Northern America,United States of America,California,,Menifee
192.124.249.32,4,-20,ztrip.com,US,Americas,Northern America,United States of America,California,,Menifee
192.124.249.119,4,-28,zulunation.com,US,Americas,Northern America,United States of America,California,,Menifee
192.124.249.14,4,5,zumvu.com,US,Americas,Northern America,United States of America,California,,Menifee
192.124.249.85,4,-21,zuomod.com,US,Americas,Northern America,United States of America,California,,Menifee
