reflector_ip,ip_version,offset,description,country_code,region,sub_region,country_name,sub_division_1,sub_division_2,city
159.223.205.106,4,8,10thplanetjj.com,US,Americas,Northern America,United States of America,California,,Santa Clara
143.198.138.245,4,4,12step.org,US,Americas,Northern America,United States of America,California,,Santa Clara
140.82.49.248,4,3,21lab.co,US,Americas,Northern America,United States of America,California,,Santa Clara
128.199.5.71,4,4,2foodtrippers.com,US,Americas,Northern America,United States of America,California,,Santa Clara
146.190.156.76,4,4,33acresbrewing.com,US,Americas,Northern America,United States of America,California,,Santa Clara
149.28.219.67,4,3,3dprintersonlinestore.com,US,Americas,Northern America,United States of America,California,,Santa Clara
47.254.74.51,4,598013,52magic.net,US,Americas,Northern America,United States of America,California,,Santa Clara
45.63.86.42,4,3,5productreviews.com,US,Americas,Northern America,United States of America,California,,Santa Clara
24.199.73.23,4,9,aax.com,US,Americas,Northern America,United States of America,California,,Santa Clara
165.22.170.171,4,5,adamsmithworks.org,US,Americas,Northern America,United States of America,California,,Santa Clara
162.244.35.53,4,-1,ahtops.com,US,Americas,Northern America,United States of America,California,,Santa Clara
165.232.153.0,4,4,aidlindarlingdesign.com,US,Americas,Northern America,United States of America,California,,Santa Clara
164.92.106.162,4,2,aimbridgehospitality.com,US,Americas,Northern America,United States of America,California,,Santa Clara
157.230.160.218,4,9,airoomplanner.com,US,Americas,Northern America,United States of America,California,,Santa Clara
143.198.54.52,4,87,alexedwards.net,US,Americas,Northern America,United States of America,California,,Santa Clara
147.182.242.146,4,7,alicaspepperpot.com,US,Americas,Northern America,United States of America,California,,Santa Clara
165.232.155.249,4,8,allcorrectgames.com,US,Americas,Northern America,United States of America,California,,Santa Clara
157.245.179.200,4,3,americancinemathequecalendar.com,US,Americas,Northern America,United States of America,California,,Santa Clara
143.244.189.152,4,4,americanwineryguide.com,US,Americas,Northern America,United States of America,California,,Santa Clara
140.82.51.155,4,1,amgentourofcalifornia.com,US,Americas,Northern America,United States of America,California,,Santa Clara
138.197.237.109,4,9,anagrama.com,US,Americas,Northern America,United States of America,California,,Santa Clara
172.121.38.22,4,1,andreas-krautwald.com,US,Americas,Northern America,United States of America,California,,Santa Clara
147.182.201.119,4,22,androidcommunity.com,US,Americas,Northern America,United States of America,California,,Santa Clara
138.197.200.215,4,7,anexerciseinfrugality.com,US,Americas,Northern America,United States of America,California,,Santa Clara
138.68.51.125,4,838324,answerbag.com,US,Americas,Northern America,United States of America,California,,Santa Clara
138.68.19.146,4,18,appdata.com,US,Americas,Northern America,United States of America,California,,Santa Clara
206.189.168.160,4,135,arbiteronline.com,US,Americas,Northern America,United States of America,California,,Santa Clara
165.22.159.246,4,15,arizonachristian.edu,US,Americas,Northern America,United States of America,California,,Santa Clara
143.198.146.216,4,4,armemberplugin.com,US,Americas,Northern America,United States of America,California,,Santa Clara
164.92.87.132,4,43,art.net,US,Americas,Northern America,United States of America,California,,Santa Clara
164.90.146.146,4,11,arweave.org,US,Americas,Northern America,United States of America,California,,Santa Clara
24.199.100.143,4,9,asone.ai,US,Americas,Northern America,United States of America,California,,Santa Clara
137.184.118.216,4,96,aspengreen.com,US,Americas,Northern America,United States of America,California,,Santa Clara
167.99.26.250,4,5,astrologycom.com,US,Americas,Northern America,United States of America,California,,Santa Clara
164.92.96.169,4,7,azorius.net,US,Americas,Northern America,United States of America,California,,Santa Clara
159.89.153.107,4,7,babynamescube.com,US,Americas,Northern America,United States of America,California,,Santa Clara
164.92.74.183,4,8,backroadramblers.com,US,Americas,Northern America,United States of America,California,,Santa Clara
159.89.157.10,4,7,backyardlandscapingconcepts.com,US,Americas,Northern America,United States of America,California,,Santa Clara
167.99.175.91,4,6,bad-neighborhood.com,US,Americas,Northern America,United States of America,California,,Santa Clara
167.172.125.196,4,11,bakeorbreak.com,US,Americas,Northern America,United States of America,California,,Santa Clara
143.198.231.148,4,6,baldtruthtalk.com,US,Americas,Northern America,United States of America,California,,Santa Clara
64.227.105.210,4,9,bannerview.com,US,Americas,Northern America,United States of America,California,,Santa Clara
178.128.77.8,4,34,barcelonabeerfestival.com,US,Americas,Northern America,United States of America,California,,Santa Clara
64.235.38.200,4,12,baynetworks.com,US,Americas,Northern America,United States of America,California,,Santa Clara
164.92.117.26,4,6,beehaw.org,US,Americas,Northern America,United States of America,California,,Santa Clara
164.90.153.196,4,5,befree.com,US,Americas,Northern America,United States of America,California,,Santa Clara
165.232.149.164,4,12,berecycled.org,US,Americas,Northern America,United States of America,California,,Santa Clara
137.184.126.222,4,9,bestonlinetrafficschool.co,US,Americas,Northern America,United States of America,California,,Santa Clara
143.198.51.57,4,43,bigspeak.ai,US,Americas,Northern America,United States of America,California,,Santa Clara
47.251.13.231,4,14,bio-protocol.org,US,Americas,Northern America,United States of America,California,,Santa Clara
164.90.245.39,4,4,biolayne.com,US,Americas,Northern America,United States of America,California,,Santa Clara
146.190.141.71,4,6,bitsandbitesblog.com,US,Americas,Northern America,United States of America,California,,Santa Clara
157.245.161.158,4,6,blackpeoplesrecipes.com,US,Americas,Northern America,United States of America,California,,Santa Clara
47.251.57.55,4,7,blackseries.net,US,Americas,Northern America,United States of America,California,,Santa Clara
143.244.183.32,4,6,blogchef.net,US,Americas,Northern America,United States of America,California,,Santa Clara
157.230.150.240,4,6,bluebridgehospitality.com,US,Americas,Northern America,United States of America,California,,Santa Clara
137.184.88.210,4,16,bmwperformancecenter.com,US,Americas,Northern America,United States of America,California,,Santa Clara
24.199.74.241,4,36,bobamilktea.xyz,US,Americas,Northern America,United States of America,California,,Santa Clara
138.68.19.237,4,6,boldminded.com,US,Americas,Northern America,United States of America,California,,Santa Clara
159.89.139.45,4,4,botmake.io,US,Americas,Northern America,United States of America,California,,Santa Clara
206.189.73.169,4,54,boxwoodavenue.com,US,Americas,Northern America,United States of America,California,,Santa Clara
178.128.73.173,4,37,brasilsabor.com.br,US,Americas,Northern America,United States of America,California,,Santa Clara
143.198.247.73,4,11,brassneck.ca,US,Americas,Northern America,United States of America,California,,Santa Clara
167.71.158.190,4,5,brownthumbmama.com,US,Americas,Northern America,United States of America,California,,Santa Clara
143.198.129.40,4,34,budget101.com,US,Americas,Northern America,United States of America,California,,Santa Clara
143.198.139.108,4,29,bugbustersusa.com,US,Americas,Northern America,United States of America,California,,Santa Clara
149.28.196.222,4,41,bulkcheapammo.com,US,Americas,Northern America,United States of America,California,,Santa Clara
24.199.101.72,4,25,busexplorer.com,US,Americas,Northern America,United States of America,California,,Santa Clara
157.245.183.162,4,6,butterforall.com,US,Americas,Northern America,United States of America,California,,Santa Clara
159.89.152.193,4,8,caddy.community,US,Americas,Northern America,United States of America,California,,Santa Clara
165.227.20.207,4,7,caddyserver.com,US,Americas,Northern America,United States of America,California,,Santa Clara
142.93.91.251,4,12,camping-usa.com,US,Americas,Northern America,United States of America,California,,Santa Clara
128.199.9.26,4,6,cannabisinternational.org,US,Americas,Northern America,United States of America,California,,Santa Clara
146.190.140.59,4,7,carriebradshawlied.com,US,Americas,Northern America,United States of America,California,,Santa Clara
143.198.238.183,4,9,carros.com,US,Americas,Northern America,United States of America,California,,Santa Clara
64.225.116.45,4,71,cartalkcredits.com,US,Americas,Northern America,United States of America,California,,Santa Clara
167.172.10.158,4,94,caryacademy.org,US,Americas,Northern America,United States of America,California,,Santa Clara
45.32.131.114,4,3,cascience.org,US,Americas,Northern America,United States of America,California,,Santa Clara
45.77.187.143,4,24,catie.ac.cr,US,Americas,Northern America,United States of America,California,,Santa Clara
165.227.60.17,4,4,cavebear.com,US,Americas,Northern America,United States of America,California,,Santa Clara
159.89.156.178,4,6,ccair.org,US,Americas,Northern America,United States of America,California,,Santa Clara
47.251.39.45,4,3,ccell.com,US,Americas,Northern America,United States of America,California,,Santa Clara
138.68.255.143,4,6,cdacasino.com,US,Americas,Northern America,United States of America,California,,Santa Clara
167.99.101.183,4,3,celebratio.org,US,Americas,Northern America,United States of America,California,,Santa Clara
138.197.204.33,4,6,cencosud.com,US,Americas,Northern America,United States of America,California,,Santa Clara
71.19.158.123,4,3,chadaustin.me,US,Americas,Northern America,United States of America,California,,Santa Clara
165.227.5.197,4,9,charactermedia.com,US,Americas,Northern America,United States of America,California,,Santa Clara
137.184.190.22,4,5,chasingfoxes.com,US,Americas,Northern America,United States of America,California,,Santa Clara
143.110.157.217,4,3,cheaperseeker.com,US,Americas,Northern America,United States of America,California,,Santa Clara
146.190.41.31,4,20,cheney.net,US,Americas,Northern America,United States of America,California,,Santa Clara
144.202.108.15,4,229860,chncpa.org,US,Americas,Northern America,United States of America,California,,Santa Clara
143.198.111.9,4,21,christkirk.com,US,Americas,Northern America,United States of America,California,,Santa Clara
143.110.192.45,4,5,cinfotech.net,US,Americas,Northern America,United States of America,California,,Santa Clara
128.199.2.118,4,11,cleverly.com,US,Americas,Northern America,United States of America,California,,Santa Clara
164.90.158.50,4,10,club31women.com,US,Americas,Northern America,United States of America,California,,Santa Clara
165.232.148.185,4,13,codeandroid.org,US,Americas,Northern America,United States of America,California,,Santa Clara
138.197.200.216,4,237239,collectiblend.com,US,Americas,Northern America,United States of America,California,,Santa Clara
143.198.152.118,4,6,coloradorenaissance.com,US,Americas,Northern America,United States of America,California,,Santa Clara
159.89.145.72,4,3,comicbookrealm.com,US,Americas,Northern America,United States of America,California,,Santa Clara
128.199.3.197,4,49,conecti.me,US,Americas,Northern America,United States of America,California,,Santa Clara
128.199.1.114,4,3,consumerreview.biz,US,Americas,Northern America,United States of America,California,,Santa Clara
142.93.83.196,4,12,couponsplusdeals.com,US,Americas,Northern America,United States of America,California,,Santa Clara
164.92.87.250,4,14,covecollective.org,US,Americas,Northern America,United States of America,California,,Santa Clara
149.28.208.198,4,4,cowcreek-nsn.gov,US,Americas,Northern America,United States of America,California,,Santa Clara
149.28.196.103,4,3,craftbot.com,US,Americas,Northern America,United States of America,California,,Santa Clara
159.89.220.181,4,1,craignewmarkphilanthropies.org,US,Americas,Northern America,United States of America,California,,Santa Clara
138.197.197.65,4,15,crediblemeds.org,US,Americas,Northern America,United States of America,California,,Santa Clara
164.92.97.155,4,18,creolestudios.com,US,Americas,Northern America,United States of America,California,,Santa Clara
164.92.75.31,4,7,crosswordmonkey.com,US,Americas,Northern America,United States of America,California,,Santa Clara
167.172.115.171,4,7,curiouscuisiniere.com,US,Americas,Northern America,United States of America,California,,Santa Clara
143.198.231.210,4,15,curvesinformation.com,US,Americas,Northern America,United States of America,California,,Santa Clara
144.126.209.130,4,6,cvnl.org,US,Americas,Northern America,United States of America,California,,Santa Clara
24.144.69.175,4,5,cyberpaws.lol,US,Americas,Northern America,United States of America,California,,Santa Clara
176.111.223.136,4,-2,cyclopsinfosys.com,US,Americas,Northern America,United States of America,California,,Santa Clara
47.251.59.198,4,3,czsewingthread.com,US,Americas,Northern America,United States of America,California,,Santa Clara
144.126.216.193,4,6,d1softballnews.com,US,Americas,Northern America,United States of America,California,,Santa Clara
71.19.148.51,4,3,da.gd,US,Americas,Northern America,United States of America,California,,Santa Clara
43.130.11.243,4,3,dajingtools.com,US,Americas,Northern America,United States of America,California,,Santa Clara
149.28.196.170,4,6,danheller.com,US,Americas,Northern America,United States of America,California,,Santa Clara
164.92.125.162,4,7,darcyandbrian.com,US,Americas,Northern America,United States of America,California,,Santa Clara
43.135.168.84,4,7,darryring.com,US,Americas,Northern America,United States of America,California,,Santa Clara
165.227.60.14,4,5,dcleaks.com,US,Americas,Northern America,United States of America,California,,Santa Clara
159.89.148.93,4,4,deadlystream.com,US,Americas,Northern America,United States of America,California,,Santa Clara
157.245.167.53,4,6,deelvin.com,US,Americas,Northern America,United States of America,California,,Santa Clara
47.251.8.109,4,6,degson.com,US,Americas,Northern America,United States of America,California,,Santa Clara
71.19.154.137,4,62,deirdre.net,US,Americas,Northern America,United States of America,California,,Santa Clara
45.63.83.157,4,42,delnortehistory.org,US,Americas,Northern America,United States of America,California,,Santa Clara
143.110.159.247,4,4,demandafrica.com,US,Americas,Northern America,United States of America,California,,Santa Clara
146.190.3.1,4,6,deschuteslandtrust.org,US,Americas,Northern America,United States of America,California,,Santa Clara
143.198.148.180,4,6,desicritics.org,US,Americas,Northern America,United States of America,California,,Santa Clara
149.28.223.56,4,20,designsmaz.com,US,Americas,Northern America,United States of America,California,,Santa Clara
147.182.228.29,4,3,dessertnowdinnerlater.com,US,Americas,Northern America,United States of America,California,,Santa Clara
206.189.166.158,4,3,detecthistory.com,US,Americas,Northern America,United States of America,California,,Santa Clara
104.207.148.130,4,5,dhbest-invest.com,US,Americas,Northern America,United States of America,California,,Santa Clara
138.68.23.93,4,7,dhtmlx.com,US,Americas,Northern America,United States of America,California,,Santa Clara
165.232.154.225,4,4,digitalcurrent.com,US,Americas,Northern America,United States of America,California,,Santa Clara
138.68.5.117,4,6,discoweb.org,US,Americas,Northern America,United States of America,California,,Santa Clara
138.68.226.188,4,5,diyhomeideas.net,US,Americas,Northern America,United States of America,California,,Santa Clara
138.197.219.200,4,5,diytipsandtricksforhomeimprovement.com,US,Americas,Northern America,United States of America,California,,Santa Clara
107.175.28.94,4,5,DNS Server: 107-175-28-94-host.colocrossing.com,US,Americas,Northern America,United States of America,California,,Santa Clara
145.40.67.98,4,8,DNS Server: 32010-emsv15-rescue,US,Americas,Northern America,United States of America,California,,Santa Clara
75.127.0.220,4,128,DNS Server: 75-127-0-220-host.colocrossing.com,US,Americas,Northern America,United States of America,California,,Santa Clara
209.249.125.1,4,7,DNS Server: gosnell-gw.gosnellcompanies.com,US,Americas,Northern America,United States of America,California,,Santa Clara
147.182.243.49,4,188,DNS Server: ns1.purplenightstudios.com,US,Americas,Northern America,United States of America,California,,Santa Clara
104.168.96.107,4,331,DNS Server: win.suricloud.com,US,Americas,Northern America,United States of America,California,,Santa Clara
164.92.120.32,4,3,dodgeridge.com,US,Americas,Northern America,United States of America,California,,Santa Clara
161.35.230.93,4,7,domainwinds.com,US,Americas,Northern America,United States of America,California,,Santa Clara
165.22.164.63,4,3,donadora.org,US,Americas,Northern America,United States of America,California,,Santa Clara
24.144.87.29,4,12,dotcomstories.com,US,Americas,Northern America,United States of America,California,,Santa Clara
64.227.102.109,4,10,downloadroute.com,US,Americas,Northern America,United States of America,California,,Santa Clara
140.82.50.190,4,1,dragcave.net,US,Americas,Northern America,United States of America,California,,Santa Clara
144.202.108.148,4,3,dragcave.net,US,Americas,Northern America,United States of America,California,,Santa Clara
71.19.148.133,4,3,durak.org,US,Americas,Northern America,United States of America,California,,Santa Clara
104.128.67.157,4,15,earthbyte.org,US,Americas,Northern America,United States of America,California,,Santa Clara
147.182.243.72,4,5,easyhomemadelife.com,US,Americas,Northern America,United States of America,California,,Santa Clara
64.225.120.202,4,6,eat-your-heart-out.net,US,Americas,Northern America,United States of America,California,,Santa Clara
137.184.0.215,4,5,ecreee.org,US,Americas,Northern America,United States of America,California,,Santa Clara
206.189.172.32,4,2,edrdg.org,US,Americas,Northern America,United States of America,California,,Santa Clara
143.198.154.185,4,42,effectiveremedies.com,US,Americas,Northern America,United States of America,California,,Santa Clara
64.227.56.105,4,84,elogic.co,US,Americas,Northern America,United States of America,California,,Santa Clara
137.184.114.241,4,2,elvtr.com,US,Americas,Northern America,United States of America,California,,Santa Clara
128.199.9.25,4,8,emergenetics.com,US,Americas,Northern America,United States of America,California,,Santa Clara
143.198.230.120,4,4,enjoy-swimming.com,US,Americas,Northern America,United States of America,California,,Santa Clara
143.110.236.190,4,9,envivio.com,US,Americas,Northern America,United States of America,California,,Santa Clara
43.130.7.92,4,3,etinysoft.com,US,Americas,Northern America,United States of America,California,,Santa Clara
137.184.190.101,4,6,everlineresort.com,US,Americas,Northern America,United States of America,California,,Santa Clara
159.223.206.197,4,6,evertek.com,US,Americas,Northern America,United States of America,California,,Santa Clara
178.128.69.182,4,2,everyonehome.org,US,Americas,Northern America,United States of America,California,,Santa Clara
178.128.77.79,4,6,excamera.com,US,Americas,Northern America,United States of America,California,,Santa Clara
143.198.236.173,4,10,explorist.life,US,Americas,Northern America,United States of America,California,,Santa Clara
143.198.154.128,4,4,f13.net,US,Americas,Northern America,United States of America,California,,Santa Clara
68.183.250.221,4,3,familyfeatures.com,US,Americas,Northern America,United States of America,California,,Santa Clara
147.182.245.214,4,9,familygamenight.net,US,Americas,Northern America,United States of America,California,,Santa Clara
164.92.68.42,4,28,farside.link,US,Americas,Northern America,United States of America,California,,Santa Clara
206.189.171.122,4,28,fasturtle.com,US,Americas,Northern America,United States of America,California,,Santa Clara
164.92.85.200,4,35,faxvin.com,US,Americas,Northern America,United States of America,California,,Santa Clara
24.199.70.184,4,5,fbmsales.com,US,Americas,Northern America,United States of America,California,,Santa Clara
143.198.102.221,4,3,fenzyme.com,US,Americas,Northern America,United States of America,California,,Santa Clara
143.244.211.110,4,34,fictionpress.com,US,Americas,Northern America,United States of America,California,,Santa Clara
143.198.60.42,4,12,finalbastion.com,US,Americas,Northern America,United States of America,California,,Santa Clara
143.198.53.148,4,2,findstorenearme.us,US,Americas,Northern America,United States of America,California,,Santa Clara
138.68.24.196,4,6,finpecia.click,US,Americas,Northern America,United States of America,California,,Santa Clara
144.202.99.136,4,32,firstworldwar.com,US,Americas,Northern America,United States of America,California,,Santa Clara
146.190.142.94,4,5,fitzgeraldnick.com,US,Americas,Northern America,United States of America,California,,Santa Clara
24.199.122.69,4,2,flamingoresort.com,US,Americas,Northern America,United States of America,California,,Santa Clara
164.92.117.77,4,-2,floomby.com,US,Americas,Northern America,United States of America,California,,Santa Clara
143.244.181.145,4,17,flypeachpie.com,US,Americas,Northern America,United States of America,California,,Santa Clara
164.90.148.208,4,66,food-ts.com,US,Americas,Northern America,United States of America,California,,Santa Clara
138.68.36.33,4,9,forthmobility.org,US,Americas,Northern America,United States of America,California,,Santa Clara
138.197.235.235,4,1,fortross.org,US,Americas,Northern America,United States of America,California,,Santa Clara
137.184.94.59,4,34,fourscoreliving.com,US,Americas,Northern America,United States of America,California,,Santa Clara
167.71.146.72,4,6,fractracker.org,US,Americas,Northern America,United States of America,California,,Santa Clara
64.227.110.140,4,71,freeonlineencyclopedia.net,US,Americas,Northern America,United States of America,California,,Santa Clara
167.99.103.199,4,30,freshouttatime.com,US,Americas,Northern America,United States of America,California,,Santa Clara
143.198.50.34,4,14,frrouting.org,US,Americas,Northern America,United States of America,California,,Santa Clara
138.68.248.183,4,5,fsck.com,US,Americas,Northern America,United States of America,California,,Santa Clara
23.192.228.24,4,4,fucsia.co,US,Americas,Northern America,United States of America,California,,Santa Clara
23.192.228.10,4,6,fucsia.co,US,Americas,Northern America,United States of America,California,,Santa Clara
24.199.74.182,4,5,fundinguniverse.com,US,Americas,Northern America,United States of America,California,,Santa Clara
178.128.191.231,4,57,funnymonkey.com,US,Americas,Northern America,United States of America,California,,Santa Clara
167.99.173.155,4,6,futureofworking.com,US,Americas,Northern America,United States of America,California,,Santa Clara
159.223.205.52,4,4,g503.com,US,Americas,Northern America,United States of America,California,,Santa Clara
143.198.149.222,4,21,gamersdecide.com,US,Americas,Northern America,United States of America,California,,Santa Clara
164.92.72.128,4,15,gardenbetty.com,US,Americas,Northern America,United States of America,California,,Santa Clara
164.92.68.92,4,12,garix.com.co,US,Americas,Northern America,United States of America,California,,Santa Clara
159.65.98.126,4,1,gaskination.com,US,Americas,Northern America,United States of America,California,,Santa Clara
143.198.232.230,4,105,geniimagazine.com,US,Americas,Northern America,United States of America,California,,Santa Clara
64.23.172.165,4,8,gering.org,US,Americas,Northern America,United States of America,California,,Santa Clara
138.68.31.58,4,59,getawaymavens.com,US,Americas,Northern America,United States of America,California,,Santa Clara
45.63.88.99,4,20,getbeststuff.com,US,Americas,Northern America,United States of America,California,,Santa Clara
137.184.245.113,4,47,goreportcard.com,US,Americas,Northern America,United States of America,California,,Santa Clara
71.19.150.86,4,22,gpodder.org,US,Americas,Northern America,United States of America,California,,Santa Clara
185.180.198.72,4,5,grandeurhillsgroup.com,US,Americas,Northern America,United States of America,California,,Santa Clara
137.184.45.228,4,10,graph500.org,US,Americas,Northern America,United States of America,California,,Santa Clara
43.135.139.12,4,11,greatdryermachinery.com,US,Americas,Northern America,United States of America,California,,Santa Clara
143.244.178.54,4,4,greencentury.com,US,Americas,Northern America,United States of America,California,,Santa Clara
167.71.148.170,4,16,greengarageblog.org,US,Americas,Northern America,United States of America,California,,Santa Clara
138.68.17.248,4,27,greenstocknews.com,US,Americas,Northern America,United States of America,California,,Santa Clara
138.197.203.41,4,3,growthmachine.com,US,Americas,Northern America,United States of America,California,,Santa Clara
138.197.235.100,4,3,guamcc.edu,US,Americas,Northern America,United States of America,California,,Santa Clara
71.19.144.6,4,5,gunters.org,US,Americas,Northern America,United States of America,California,,Santa Clara
144.126.212.105,4,4,gvrec.org,US,Americas,Northern America,United States of America,California,,Santa Clara
172.120.98.124,4,4,gyhhr.com,US,Americas,Northern America,United States of America,California,,Santa Clara
64.227.99.245,4,55,habricentral.org,US,Americas,Northern America,United States of America,California,,Santa Clara
143.110.133.51,4,3,handmadeintheheartland.com,US,Americas,Northern America,United States of America,California,,Santa Clara
128.199.15.14,4,27,healthandfitnesstips.us,US,Americas,Northern America,United States of America,California,,Santa Clara
165.227.6.110,4,18,hellofashionblog.com,US,Americas,Northern America,United States of America,California,,Santa Clara
172.121.124.162,4,-1,hendrithvasmith.com,US,Americas,Northern America,United States of America,California,,Santa Clara
137.184.190.209,4,4,hermesbirkinbags.com.co,US,Americas,Northern America,United States of America,California,,Santa Clara
143.110.144.195,4,5,heysocal.com,US,Americas,Northern America,United States of America,California,,Santa Clara
170.106.184.183,4,3,hiabrasives.com,US,Americas,Northern America,United States of America,California,,Santa Clara
137.184.229.115,4,4,hintsandthings.co.uk,US,Americas,Northern America,United States of America,California,,Santa Clara
165.227.50.177,4,-96,homedistiller.org,US,Americas,Northern America,United States of America,California,,Santa Clara
143.110.156.230,4,25,homeefficiencytips.com,US,Americas,Northern America,United States of America,California,,Santa Clara
157.245.188.61,4,46,homenish.com,US,Americas,Northern America,United States of America,California,,Santa Clara
137.184.86.40,4,13,homerepairandrenovationdigest.com,US,Americas,Northern America,United States of America,California,,Santa Clara
165.232.147.88,4,4,hoodlem.me,US,Americas,Northern America,United States of America,California,,Santa Clara
138.197.221.47,4,4,hookupgeek.com,US,Americas,Northern America,United States of America,California,,Santa Clara
143.198.67.184,4,23,hoopswire.com,US,Americas,Northern America,United States of America,California,,Santa Clara
137.184.246.133,4,6,horadopovo.com.br,US,Americas,Northern America,United States of America,California,,Santa Clara
24.199.127.113,4,27,hormonesmatter.com,US,Americas,Northern America,United States of America,California,,Santa Clara
164.92.107.210,4,8,horsepaste.com,US,Americas,Northern America,United States of America,California,,Santa Clara
144.202.98.244,4,7,houseaffection.com,US,Americas,Northern America,United States of America,California,,Santa Clara
178.128.75.104,4,43,housefulofhandmade.com,US,Americas,Northern America,United States of America,California,,Santa Clara
165.227.241.38,4,5,housesitworld.com,US,Americas,Northern America,United States of America,California,,Santa Clara
164.90.151.118,4,6,howardism.org,US,Americas,Northern America,United States of America,California,,Santa Clara
143.198.152.212,4,11,howtodiscuss.com,US,Americas,Northern America,United States of America,California,,Santa Clara
64.225.41.2,4,2,hwaci.com,US,Americas,Northern America,United States of America,California,,Santa Clara
71.19.145.174,4,3,hylang.org,US,Americas,Northern America,United States of America,California,,Santa Clara
167.99.162.224,4,9,hymnal.net,US,Americas,Northern America,United States of America,California,,Santa Clara
165.22.143.170,4,6,hyperdocs.co,US,Americas,Northern America,United States of America,California,,Santa Clara
64.227.103.102,4,2,iabaustralia.com.au,US,Americas,Northern America,United States of America,California,,Santa Clara
178.128.15.199,4,8,ibusinesspromoter.com,US,Americas,Northern America,United States of America,California,,Santa Clara
165.232.141.184,4,8,ichigos.com,US,Americas,Northern America,United States of America,California,,Santa Clara
157.230.147.165,4,5,iconfitness.com,US,Americas,Northern America,United States of America,California,,Santa Clara
206.189.160.222,4,17,id3.org,US,Americas,Northern America,United States of America,California,,Santa Clara
137.184.7.47,4,14,idia.ac.id,US,Americas,Northern America,United States of America,California,,Santa Clara
64.227.108.204,4,33,imagecomics.com,US,Americas,Northern America,United States of America,California,,Santa Clara
159.89.140.115,4,26,imnloyaltydriver.org,US,Americas,Northern America,United States of America,California,,Santa Clara
164.90.146.65,4,11,imperialviolet.org,US,Americas,Northern America,United States of America,California,,Santa Clara
146.190.2.153,4,30,inburke.com,US,Americas,Northern America,United States of America,California,,Santa Clara
138.68.40.17,4,5,industrialandmanufacturinginsights.com,US,Americas,Northern America,United States of America,California,,Santa Clara
165.232.129.120,4,49,infonews.co.nz,US,Americas,Northern America,United States of America,California,,Santa Clara
43.130.17.28,4,1,injetenergy.com,US,Americas,Northern America,United States of America,California,,Santa Clara
143.110.145.149,4,8,inqscribe.com,US,Americas,Northern America,United States of America,California,,Santa Clara
138.68.255.154,4,25,insiderexclusive.com,US,Americas,Northern America,United States of America,California,,Santa Clara
138.68.17.120,4,3,insightguides.com,US,Americas,Northern America,United States of America,California,,Santa Clara
159.65.64.73,4,2,instawp.xyz,US,Americas,Northern America,United States of America,California,,Santa Clara
178.128.0.97,4,71,intelligentbee.com,US,Americas,Northern America,United States of America,California,,Santa Clara
104.156.230.95,4,4,internetometer.com,US,Americas,Northern America,United States of America,California,,Santa Clara
146.190.12.19,4,65,interval.com,US,Americas,Northern America,United States of America,California,,Santa Clara
143.198.156.197,4,20,intltravelnews.com,US,Americas,Northern America,United States of America,California,,Santa Clara
24.199.114.217,4,24,intursa.com.pe,US,Americas,Northern America,United States of America,California,,Santa Clara
178.128.68.22,4,9,iotachina.com,US,Americas,Northern America,United States of America,California,,Santa Clara
146.190.125.197,4,85,irisholidays.com,US,Americas,Northern America,United States of America,California,,Santa Clara
147.182.238.69,4,4,iscreamforbuttercream.com,US,Americas,Northern America,United States of America,California,,Santa Clara
143.198.226.161,4,6,iww.org,US,Americas,Northern America,United States of America,California,,Santa Clara
146.190.133.215,4,3,jade-lang.com,US,Americas,Northern America,United States of America,California,,Santa Clara
165.232.136.25,4,2,jayssweetnsourlife.com,US,Americas,Northern America,United States of America,California,,Santa Clara
152.44.45.134,4,-14,jbum.com,US,Americas,Northern America,United States of America,California,,Santa Clara
147.182.199.29,4,4,jetboaters.net,US,Americas,Northern America,United States of America,California,,Santa Clara
45.63.87.70,4,3,jetphotosoft.com,US,Americas,Northern America,United States of America,California,,Santa Clara
47.251.58.39,4,5,jianshu.com,US,Americas,Northern America,United States of America,California,,Santa Clara
137.184.92.216,4,6,justiceactioncenter.org,US,Americas,Northern America,United States of America,California,,Santa Clara
178.128.128.87,4,0,kazzit.com,US,Americas,Northern America,United States of America,California,,Santa Clara
192.3.51.90,4,7,kdpkit.com,US,Americas,Northern America,United States of America,California,,Santa Clara
137.184.186.192,4,13,kemitchell.com,US,Americas,Northern America,United States of America,California,,Santa Clara
43.130.45.159,4,21,kiloview.com,US,Americas,Northern America,United States of America,California,,Santa Clara
138.68.242.162,4,18,kimbino.com,US,Americas,Northern America,United States of America,California,,Santa Clara
138.68.26.58,4,3,knowbility.org,US,Americas,Northern America,United States of America,California,,Santa Clara
144.126.208.127,4,6,ladesignconcepts.com,US,Americas,Northern America,United States of America,California,,Santa Clara
146.190.118.48,4,7,lakearrowheadresort.com,US,Americas,Northern America,United States of America,California,,Santa Clara
71.19.154.186,4,684946,langsec.org,US,Americas,Northern America,United States of America,California,,Santa Clara
172.82.16.143,4,192730,laoda.de,US,Americas,Northern America,United States of America,California,,Santa Clara
47.254.73.93,4,2,laozihao-ip.com,US,Americas,Northern America,United States of America,California,,Santa Clara
143.198.247.194,4,28,laracroftandtheguardianoflight.com,US,Americas,Northern America,United States of America,California,,Santa Clara
157.245.228.241,4,77,las-vegas-home.net,US,Americas,Northern America,United States of America,California,,Santa Clara
147.182.250.59,4,55,lavalavabeachclub.com,US,Americas,Northern America,United States of America,California,,Santa Clara
149.28.195.193,4,3,lavamagazine.com,US,Americas,Northern America,United States of America,California,,Santa Clara
178.128.186.211,4,5,lazooz.org,US,Americas,Northern America,United States of America,California,,Santa Clara
161.35.234.195,4,4,lcblack.com,US,Americas,Northern America,United States of America,California,,Santa Clara
161.35.224.193,4,6,ld.net,US,Americas,Northern America,United States of America,California,,Santa Clara
143.110.157.173,4,17,learningfuze.com,US,Americas,Northern America,United States of America,California,,Santa Clara
138.68.14.8,4,6,leetcode.net,US,Americas,Northern America,United States of America,California,,Santa Clara
138.68.233.24,4,16,legalterminology.co,US,Americas,Northern America,United States of America,California,,Santa Clara
176.111.223.175,4,3,levitrasvr.com,US,Americas,Northern America,United States of America,California,,Santa Clara
47.254.65.122,4,5,lexar.com,US,Americas,Northern America,United States of America,California,,Santa Clara
143.198.152.63,4,6,linki.st,US,Americas,Northern America,United States of America,California,,Santa Clara
143.198.237.61,4,2,lmu.build,US,Americas,Northern America,United States of America,California,,Santa Clara
137.184.89.88,4,6,longtermtrends.net,US,Americas,Northern America,United States of America,California,,Santa Clara
138.68.36.104,4,2,lovelaconner.com,US,Americas,Northern America,United States of America,California,,Santa Clara
47.251.11.50,4,0,lover-beauty.com,US,Americas,Northern America,United States of America,California,,Santa Clara
147.182.228.178,4,7,lovevolunteers.org,US,Americas,Northern America,United States of America,California,,Santa Clara
206.189.77.112,4,5,lucillesbbq.com,US,Americas,Northern America,United States of America,California,,Santa Clara
138.197.203.91,4,394551,lugod.org,US,Americas,Northern America,United States of America,California,,Santa Clara
149.28.200.198,4,1,lunss.com,US,Americas,Northern America,United States of America,California,,Santa Clara
143.244.191.126,4,5,luxerecess.com,US,Americas,Northern America,United States of America,California,,Santa Clara
147.185.242.96,4,2,lymanmuseum.org,US,Americas,Northern America,United States of America,California,,Santa Clara
164.90.150.198,4,4,magnoliahotels.com,US,Americas,Northern America,United States of America,California,,Santa Clara
47.254.70.184,4,22,mailorderbrides-ru.com,US,Americas,Northern America,United States of America,California,,Santa Clara
206.189.160.227,4,3,mainesfinest.org,US,Americas,Northern America,United States of America,California,,Santa Clara
23.216.149.137,4,30,mainone.net,US,Americas,Northern America,United States of America,California,,Santa Clara
165.232.149.131,4,9,mapmodnews.com,US,Americas,Northern America,United States of America,California,,Santa Clara
137.184.39.179,4,6,mariebostwick.com,US,Americas,Northern America,United States of America,California,,Santa Clara
143.198.142.234,4,10,mazamascience.com,US,Americas,Northern America,United States of America,California,,Santa Clara
137.184.1.127,4,7,mazerooms.com,US,Americas,Northern America,United States of America,California,,Santa Clara
165.227.0.63,4,5,mdhelicopters.com,US,Americas,Northern America,United States of America,California,,Santa Clara
137.184.119.165,4,20,melpa.org,US,Americas,Northern America,United States of America,California,,Santa Clara
165.227.56.198,4,12,messier-objects.com,US,Americas,Northern America,United States of America,California,,Santa Clara
143.198.77.61,4,8,metalary.com,US,Americas,Northern America,United States of America,California,,Santa Clara
164.92.105.254,4,7,mexicodestinos.com,US,Americas,Northern America,United States of America,California,,Santa Clara
137.184.233.136,4,10,mg-architecture.ca,US,Americas,Northern America,United States of America,California,,Santa Clara
64.23.164.195,4,17,mickeyblog.com,US,Americas,Northern America,United States of America,California,,Santa Clara
138.197.235.24,4,12,midheaven.com,US,Americas,Northern America,United States of America,California,,Santa Clara
165.22.134.187,4,8,midiworld.com,US,Americas,Northern America,United States of America,California,,Santa Clara
146.190.52.13,4,4,mikechambers.com,US,Americas,Northern America,United States of America,California,,Santa Clara
178.128.130.249,4,5,mindfulnessinschools.org,US,Americas,Northern America,United States of America,California,,Santa Clara
159.89.141.152,4,4,minesweeperonline.com,US,Americas,Northern America,United States of America,California,,Santa Clara
143.198.104.235,4,2,mjseo.agency,US,Americas,Northern America,United States of America,California,,Santa Clara
165.227.14.29,4,4,model1.com,US,Americas,Northern America,United States of America,California,,Santa Clara
143.110.147.246,4,28,modernadventure.com,US,Americas,Northern America,United States of America,California,,Santa Clara
165.227.56.139,4,3,modpodgerocksblog.com,US,Americas,Northern America,United States of America,California,,Santa Clara
143.110.151.231,4,77,moneysavingsexpert.biz,US,Americas,Northern America,United States of America,California,,Santa Clara
165.227.14.236,4,3,moondownload.com,US,Americas,Northern America,United States of America,California,,Santa Clara
157.230.198.26,4,5,msp.org,US,Americas,Northern America,United States of America,California,,Santa Clara
137.184.239.156,4,3,mturkforum.com,US,Americas,Northern America,United States of America,California,,Santa Clara
149.28.220.255,4,31,musiccritic.com,US,Americas,Northern America,United States of America,California,,Santa Clara
138.68.61.169,4,1,muttville.org,US,Americas,Northern America,United States of America,California,,Santa Clara
149.28.220.184,4,28,myecovermaker.com,US,Americas,Northern America,United States of America,California,,Santa Clara
159.89.140.185,4,21,myfithive.com,US,Americas,Northern America,United States of America,California,,Santa Clara
104.238.180.84,4,97,mymotherlode.com,US,Americas,Northern America,United States of America,California,,Santa Clara
64.23.141.134,4,7,myrecipetreasures.com,US,Americas,Northern America,United States of America,California,,Santa Clara
164.92.90.40,4,3,mysagedental.com,US,Americas,Northern America,United States of America,California,,Santa Clara
45.77.2.133,4,12,n2ugs.com,US,Americas,Northern America,United States of America,California,,Santa Clara
137.184.224.189,4,12,nationalartsstandards.org,US,Americas,Northern America,United States of America,California,,Santa Clara
144.202.108.239,4,6,nationalgriefawarenessday.com,US,Americas,Northern America,United States of America,California,,Santa Clara
178.128.5.110,4,6,naturephotographers.net,US,Americas,Northern America,United States of America,California,,Santa Clara
98.142.102.26,4,-148,ncctt.org,US,Americas,Northern America,United States of America,California,,Santa Clara
167.172.192.209,4,3,ncviewer.com,US,Americas,Northern America,United States of America,California,,Santa Clara
146.190.117.242,4,20,nerdsmagazine.com,US,Americas,Northern America,United States of America,California,,Santa Clara
71.19.156.131,4,75,networthify.com,US,Americas,Northern America,United States of America,California,,Santa Clara
64.225.90.25,4,66,newart.city,US,Americas,Northern America,United States of America,California,,Santa Clara
138.68.237.56,4,30,newreleasetuesday.com,US,Americas,Northern America,United States of America,California,,Santa Clara
167.71.159.17,4,4,nftshowroom.com,US,Americas,Northern America,United States of America,California,,Santa Clara
143.110.237.243,4,5,nick-cave.com,US,Americas,Northern America,United States of America,California,,Santa Clara
172.121.78.183,4,4,njyuechi.com,US,Americas,Northern America,United States of America,California,,Santa Clara
24.199.69.137,4,58,noh8campaign.com,US,Americas,Northern America,United States of America,California,,Santa Clara
138.68.46.44,4,6087314,noiseprotocol.org,US,Americas,Northern America,United States of America,California,,Santa Clara
164.92.118.129,4,21,nomsmagazine.com,US,Americas,Northern America,United States of America,California,,Santa Clara
45.77.5.58,4,5,norcal.social,US,Americas,Northern America,United States of America,California,,Santa Clara
143.244.183.177,4,94,nssoaxaca.com,US,Americas,Northern America,United States of America,California,,Santa Clara
172.121.78.180,4,2,ntlfzs.com,US,Americas,Northern America,United States of America,California,,Santa Clara
24.144.69.210,4,4,nuelink.com,US,Americas,Northern America,United States of America,California,,Santa Clara
165.232.137.49,4,3,nutritionfoundation.org.nz,US,Americas,Northern America,United States of America,California,,Santa Clara
64.225.112.117,4,3,nutritiousdeliciousness.com,US,Americas,Northern America,United States of America,California,,Santa Clara
24.199.69.138,4,3,oasishoteles.com,US,Americas,Northern America,United States of America,California,,Santa Clara
47.251.55.71,4,5,obachina.net,US,Americas,Northern America,United States of America,California,,Santa Clara
206.189.77.233,4,30,obra.org,US,Americas,Northern America,United States of America,California,,Santa Clara
165.227.20.8,4,4,offermate.us,US,Americas,Northern America,United States of America,California,,Santa Clara
137.184.39.108,4,3,oizom.com,US,Americas,Northern America,United States of America,California,,Santa Clara
146.190.13.15,4,5,okbu.edu,US,Americas,Northern America,United States of America,California,,Santa Clara
165.227.27.60,4,16,oldpeoplewholikebirds.com,US,Americas,Northern America,United States of America,California,,Santa Clara
138.197.233.4,4,1043586,olymoly.com,US,Americas,Northern America,United States of America,California,,Santa Clara
206.189.212.203,4,3,onenightfriend.com,US,Americas,Northern America,United States of America,California,,Santa Clara
107.173.157.123,4,6,onenotegem.com,US,Americas,Northern America,United States of America,California,,Santa Clara
159.89.138.163,4,4,onlinenevada.org,US,Americas,Northern America,United States of America,California,,Santa Clara
23.155.72.85,4,328,Ookla Speedtest Server 58605: speedtest.macarne.com,US,Americas,Northern America,United States of America,California,,Santa Clara
165.227.241.138,4,5,open-emr.org,US,Americas,Northern America,United States of America,California,,Santa Clara
146.190.53.128,4,4,openconversational.ai,US,Americas,Northern America,United States of America,California,,Santa Clara
143.198.98.13,4,7,openwebui.com,US,Americas,Northern America,United States of America,California,,Santa Clara
142.93.27.11,4,6,originalpancakehouse.com,US,Americas,Northern America,United States of America,California,,Santa Clara
149.28.204.138,4,16,osopinion.com,US,Americas,Northern America,United States of America,California,,Santa Clara
152.44.45.96,4,1653,outkastfishingforum.com,US,Americas,Northern America,United States of America,California,,Santa Clara
138.68.30.104,4,3,p4.org,US,Americas,Northern America,United States of America,California,,Santa Clara
143.198.65.187,4,5,pacific.net,US,Americas,Northern America,United States of America,California,,Santa Clara
143.198.239.159,4,5,packerstalk.com,US,Americas,Northern America,United States of America,California,,Santa Clara
138.68.5.187,4,35,paintcolorproject.com,US,Americas,Northern America,United States of America,California,,Santa Clara
47.251.8.243,4,3,panda-admission.com,US,Americas,Northern America,United States of America,California,,Santa Clara
159.89.156.173,4,55,papersmaster.com,US,Americas,Northern America,United States of America,California,,Santa Clara
143.198.245.116,4,33,parallel49brewing.com,US,Americas,Northern America,United States of America,California,,Santa Clara
143.198.68.212,4,25,parkadvisor.com,US,Americas,Northern America,United States of America,California,,Santa Clara
138.68.61.224,4,169,pat2pdf.org,US,Americas,Northern America,United States of America,California,,Santa Clara
137.184.228.18,4,37,patrick.net,US,Americas,Northern America,United States of America,California,,Santa Clara
165.232.51.40,4,7,pauldianno.com,US,Americas,Northern America,United States of America,California,,Santa Clara
164.90.244.243,4,2,pawbuzz.com,US,Americas,Northern America,United States of America,California,,Santa Clara
143.198.157.21,4,10,pdxcontemporaryart.com,US,Americas,Northern America,United States of America,California,,Santa Clara
98.142.102.10,4,-298,pecassuzuki.com.br,US,Americas,Northern America,United States of America,California,,Santa Clara
64.225.121.194,4,17,penniesonaplatter.com,US,Americas,Northern America,United States of America,California,,Santa Clara
69.192.139.103,4,67,performbetter.com,US,Americas,Northern America,United States of America,California,,Santa Clara
159.65.77.250,4,49,personalfinancearticle.net,US,Americas,Northern America,United States of America,California,,Santa Clara
43.135.170.102,4,5,petgov.com,US,Americas,Northern America,United States of America,California,,Santa Clara
167.172.220.199,4,14,pgdash.io,US,Americas,Northern America,United States of America,California,,Santa Clara
143.198.239.18,4,31,phpdeveloper.org,US,Americas,Northern America,United States of America,California,,Santa Clara
165.22.150.19,4,5,pica.gov.jm,US,Americas,Northern America,United States of America,California,,Santa Clara
164.92.124.135,4,51,pictify.com,US,Americas,Northern America,United States of America,California,,Santa Clara
165.232.141.172,4,4,pitchforkeconomics.com,US,Americas,Northern America,United States of America,California,,Santa Clara
178.128.79.11,4,316806,pixelation.org,US,Americas,Northern America,United States of America,California,,Santa Clara
159.89.132.66,4,5,pixeldynamo.com,US,Americas,Northern America,United States of America,California,,Santa Clara
164.92.122.209,4,6,politicaprivacidade.com,US,Americas,Northern America,United States of America,California,,Santa Clara
45.77.186.247,4,3,poorhousestory.com,US,Americas,Northern America,United States of America,California,,Santa Clara
45.63.82.226,4,38,populartimelines.com,US,Americas,Northern America,United States of America,California,,Santa Clara
143.110.231.133,4,27,posmotre.li,US,Americas,Northern America,United States of America,California,,Santa Clara
24.144.84.200,4,36,prescientdigital.com,US,Americas,Northern America,United States of America,California,,Santa Clara
71.19.154.22,4,56,pro-football-history.com,US,Americas,Northern America,United States of America,California,,Santa Clara
68.183.167.43,4,46,procesosistemico.com,US,Americas,Northern America,United States of America,California,,Santa Clara
144.202.103.95,4,14,programming.guide,US,Americas,Northern America,United States of America,California,,Santa Clara
71.19.146.213,4,19,pronouncenames.com,US,Americas,Northern America,United States of America,California,,Santa Clara
143.244.186.196,4,5,prosoundnews.com,US,Americas,Northern America,United States of America,California,,Santa Clara
206.189.79.169,4,10,prudentbaby.com,US,Americas,Northern America,United States of America,California,,Santa Clara
159.89.220.132,4,30,psmuseum.org,US,Americas,Northern America,United States of America,California,,Santa Clara
45.32.138.49,4,10,pulse360.com,US,Americas,Northern America,United States of America,California,,Santa Clara
143.198.236.114,4,37,pumpkinnspice.com,US,Americas,Northern America,United States of America,California,,Santa Clara
138.68.5.192,4,7,pycs.net,US,Americas,Northern America,United States of America,California,,Santa Clara
170.106.176.214,4,6,pymyj2002.com,US,Americas,Northern America,United States of America,California,,Santa Clara
45.77.1.174,4,38,queenmary.com,US,Americas,Northern America,United States of America,California,,Santa Clara
206.189.211.238,4,-5,quickflirt.com,US,Americas,Northern America,United States of America,California,,Santa Clara
159.65.100.2,4,47,racingbeat.com,US,Americas,Northern America,United States of America,California,,Santa Clara
147.182.243.209,4,30,rapideuphoria.com,US,Americas,Northern America,United States of America,California,,Santa Clara
164.92.127.6,4,40,raymii.org,US,Americas,Northern America,United States of America,California,,Santa Clara
45.32.133.21,4,16,rdwarf.com,US,Americas,Northern America,United States of America,California,,Santa Clara
137.184.126.87,4,6,reachformontessori.com,US,Americas,Northern America,United States of America,California,,Santa Clara
165.227.12.30,4,30,real-timedeals.com,US,Americas,Northern America,United States of America,California,,Santa Clara
206.189.78.27,4,29,rebelsguidetopm.com,US,Americas,Northern America,United States of America,California,,Santa Clara
164.92.67.162,4,40,redclade.org,US,Americas,Northern America,United States of America,California,,Santa Clara
71.19.148.35,4,219,reedmedia.net,US,Americas,Northern America,United States of America,California,,Santa Clara
165.232.159.12,4,3,regalosteotihuacan.com,US,Americas,Northern America,United States of America,California,,Santa Clara
24.199.126.188,4,30,reklamstore.com,US,Americas,Northern America,United States of America,California,,Santa Clara
178.128.176.49,4,29,rentv.com,US,Americas,Northern America,United States of America,California,,Santa Clara
137.184.121.204,4,4,rentzsch.com,US,Americas,Northern America,United States of America,California,,Santa Clara
147.182.206.138,4,5,reputationmanagementconsultants.com,US,Americas,Northern America,United States of America,California,,Santa Clara
147.182.253.128,4,39,resortsgal.com,US,Americas,Northern America,United States of America,California,,Santa Clara
159.89.152.115,4,49,responsive.menu,US,Americas,Northern America,United States of America,California,,Santa Clara
164.92.98.189,4,58,resurrectionremix.com,US,Americas,Northern America,United States of America,California,,Santa Clara
71.19.154.141,4,1,retrodev.com,US,Americas,Northern America,United States of America,California,,Santa Clara
167.99.99.216,4,4,rippedjeansandbifocals.com,US,Americas,Northern America,United States of America,California,,Santa Clara
64.225.121.11,4,58,roastedrootfood.com,US,Americas,Northern America,United States of America,California,,Santa Clara
138.68.48.247,4,48,rockinjump.com,US,Americas,Northern America,United States of America,California,,Santa Clara
143.110.235.144,4,22,royalcoffee.com,US,Americas,Northern America,United States of America,California,,Santa Clara
164.90.158.246,4,2,rssdog.com,US,Americas,Northern America,United States of America,California,,Santa Clara
161.35.232.100,4,3,rukhshana.com,US,Americas,Northern America,United States of America,California,,Santa Clara
165.232.48.27,4,24,runninsrilankan.com,US,Americas,Northern America,United States of America,California,,Santa Clara
162.244.32.126,4,26,ruslog.com,US,Americas,Northern America,United States of America,California,,Santa Clara
138.68.54.87,4,49,rusmania.com,US,Americas,Northern America,United States of America,California,,Santa Clara
178.128.72.27,4,10,rutasdelconflicto.com,US,Americas,Northern America,United States of America,California,,Santa Clara
137.184.247.244,4,18,sacballet.org,US,Americas,Northern America,United States of America,California,,Santa Clara
164.92.95.230,4,31,sacred-texts.com,US,Americas,Northern America,United States of America,California,,Santa Clara
138.68.12.78,4,238094,sales-planet.com,US,Americas,Northern America,United States of America,California,,Santa Clara
161.35.224.130,4,13,sarahtitus.com,US,Americas,Northern America,United States of America,California,,Santa Clara
71.19.154.210,4,35,schedmd.com,US,Americas,Northern America,United States of America,California,,Santa Clara
165.227.54.107,4,24,sciencemuseumok.org,US,Americas,Northern America,United States of America,California,,Santa Clara
159.65.67.18,4,41,scratchoff-odds.com,US,Americas,Northern America,United States of America,California,,Santa Clara
206.189.210.254,4,6,scratchoff-odds.com,US,Americas,Northern America,United States of America,California,,Santa Clara
206.189.209.253,4,4,scratchoff-odds.com,US,Americas,Northern America,United States of America,California,,Santa Clara
104.156.229.84,4,2,scuttlebot.io,US,Americas,Northern America,United States of America,California,,Santa Clara
47.251.53.121,4,4,sdgicable.com,US,Americas,Northern America,United States of America,California,,Santa Clara
149.28.213.133,4,25,seapointcenter.com,US,Americas,Northern America,United States of America,California,,Santa Clara
138.68.11.130,4,22,secretgeek.net,US,Americas,Northern America,United States of America,California,,Santa Clara
143.110.224.186,4,5,seirdy.one,US,Americas,Northern America,United States of America,California,,Santa Clara
137.184.4.207,4,25,seniorgo.ai,US,Americas,Northern America,United States of America,California,,Santa Clara
143.198.152.18,4,40,seoprofy.com,US,Americas,Northern America,United States of America,California,,Santa Clara
138.68.5.89,4,22,serendipityandspice.com,US,Americas,Northern America,United States of America,California,,Santa Clara
137.184.177.143,4,2474436,seussville.com,US,Americas,Northern America,United States of America,California,,Santa Clara
159.89.144.20,4,26,sfdesignweek.org,US,Americas,Northern America,United States of America,California,,Santa Clara
172.121.78.153,4,19,sflng.com,US,Americas,Northern America,United States of America,California,,Santa Clara
71.19.149.191,4,9,shallowsky.com,US,Americas,Northern America,United States of America,California,,Santa Clara
159.65.67.213,4,8,shalom.com.pe,US,Americas,Northern America,United States of America,California,,Santa Clara
64.23.133.92,4,5,shelikesfood.com,US,Americas,Northern America,United States of America,California,,Santa Clara
146.190.130.227,4,6,shreethemes.in,US,Americas,Northern America,United States of America,California,,Santa Clara
147.182.242.83,4,3,shriamarnathjishrine.com,US,Americas,Northern America,United States of America,California,,Santa Clara
47.251.44.15,4,6,simcom.com,US,Americas,Northern America,United States of America,California,,Santa Clara
165.227.242.14,4,6,simpleisbetterthancomplex.com,US,Americas,Northern America,United States of America,California,,Santa Clara
172.121.63.215,4,0,siyin51.com,US,Americas,Northern America,United States of America,California,,Santa Clara
138.68.226.233,4,7,skybusinessnews.com,US,Americas,Northern America,United States of America,California,,Santa Clara
159.65.71.232,4,6,skyzone.com,US,Americas,Northern America,United States of America,California,,Santa Clara
147.182.255.36,4,24,smallbusinesstips.us,US,Americas,Northern America,United States of America,California,,Santa Clara
75.98.95.168,4,8,smart911.com,US,Americas,Northern America,United States of America,California,,Santa Clara
138.68.3.11,4,25,smashcreative.com,US,Americas,Northern America,United States of America,California,,Santa Clara
164.90.247.169,4,2,smbaker.com,US,Americas,Northern America,United States of America,California,,Santa Clara
165.232.146.198,4,3,smithskauai.com,US,Americas,Northern America,United States of America,California,,Santa Clara
146.190.38.48,4,32,smokefreehousinginfo.com,US,Americas,Northern America,United States of America,California,,Santa Clara
64.225.88.137,4,9,smuinballet.org,US,Americas,Northern America,United States of America,California,,Santa Clara
143.198.235.23,4,59,snocross.com,US,Americas,Northern America,United States of America,California,,Santa Clara
165.227.22.171,4,42,snoflo.org,US,Americas,Northern America,United States of America,California,,Santa Clara
165.22.152.134,4,0,socialab.com,US,Americas,Northern America,United States of America,California,,Santa Clara
137.184.178.242,4,29,socialmediasun.com,US,Americas,Northern America,United States of America,California,,Santa Clara
164.90.146.106,4,11,sociamonials.com,US,Americas,Northern America,United States of America,California,,Santa Clara
178.128.187.39,4,44,sociatap.com,US,Americas,Northern America,United States of America,California,,Santa Clara
143.198.60.115,4,37,solution21.com,US,Americas,Northern America,United States of America,California,,Santa Clara
138.197.237.178,4,6,soundoftext.com,US,Americas,Northern America,United States of America,California,,Santa Clara
137.184.2.108,4,1,special-learning.com,US,Americas,Northern America,United States of America,California,,Santa Clara
178.128.128.20,4,16,spelunkyworld.com,US,Americas,Northern America,United States of America,California,,Santa Clara
164.92.105.91,4,4,sphericalinsights.com,US,Americas,Northern America,United States of America,California,,Santa Clara
23.56.120.29,4,0,spirit.com,US,Americas,Northern America,United States of America,California,,Santa Clara
167.71.120.152,4,39,spokanehoopfest.net,US,Americas,Northern America,United States of America,California,,Santa Clara
138.68.228.60,4,5,sporturfintl.com,US,Americas,Northern America,United States of America,California,,Santa Clara
164.92.94.114,4,26,sprucepointinn.com,US,Americas,Northern America,United States of America,California,,Santa Clara
64.225.112.44,4,13,spudtech.com,US,Americas,Northern America,United States of America,California,,Santa Clara
71.19.155.148,4,20,spurint.org,US,Americas,Northern America,United States of America,California,,Santa Clara
147.182.233.13,4,19,spyrestudios.com,US,Americas,Northern America,United States of America,California,,Santa Clara
164.90.146.212,4,8,ssjournals.net,US,Americas,Northern America,United States of America,California,,Santa Clara
143.198.239.109,4,3,standardbatteryinc.com,US,Americas,Northern America,United States of America,California,,Santa Clara
146.190.138.8,4,8,stelmos.com,US,Americas,Northern America,United States of America,California,,Santa Clara
192.3.85.50,4,25,sterjosoft.com,US,Americas,Northern America,United States of America,California,,Santa Clara
137.184.89.131,4,7,stickyday.com,US,Americas,Northern America,United States of America,California,,Santa Clara
138.68.230.99,4,22,stopsmartmeters.org,US,Americas,Northern America,United States of America,California,,Santa Clara
45.32.141.211,4,56,su-jine.com,US,Americas,Northern America,United States of America,California,,Santa Clara
159.89.149.97,4,22,su.domains,US,Americas,Northern America,United States of America,California,,Santa Clara
178.128.14.35,4,4,sugardishme.com,US,Americas,Northern America,United States of America,California,,Santa Clara
206.189.160.117,4,4,sunshineandhurricanes.com,US,Americas,Northern America,United States of America,California,,Santa Clara
165.232.59.104,4,5,sunshineandrainydays.com,US,Americas,Northern America,United States of America,California,,Santa Clara
142.93.82.146,4,4,svinews.com,US,Americas,Northern America,United States of America,California,,Santa Clara
143.110.236.1,4,19,swflcrimestoppers.org,US,Americas,Northern America,United States of America,California,,Santa Clara
143.110.154.161,4,4,t1international.com,US,Americas,Northern America,United States of America,California,,Santa Clara
143.110.228.173,4,3,takase.com,US,Americas,Northern America,United States of America,California,,Santa Clara
104.248.208.164,4,6,taketwotapas.com,US,Americas,Northern America,United States of America,California,,Santa Clara
178.128.64.247,4,2,tavernhg.com,US,Americas,Northern America,United States of America,California,,Santa Clara
178.128.128.185,4,1,tayles.com,US,Americas,Northern America,United States of America,California,,Santa Clara
143.198.141.218,4,5,tbinrc.com,US,Americas,Northern America,United States of America,California,,Santa Clara
143.198.238.41,4,55,techcoollv.com,US,Americas,Northern America,United States of America,California,,Santa Clara
162.244.32.244,4,-3,techslides.com,US,Americas,Northern America,United States of America,California,,Santa Clara
157.245.228.41,4,5,tehamagrouppr.com,US,Americas,Northern America,United States of America,California,,Santa Clara
157.245.170.145,4,20,testiphone.com,US,Americas,Northern America,United States of America,California,,Santa Clara
147.182.254.155,4,6,the-next-tech.com,US,Americas,Northern America,United States of America,California,,Santa Clara
24.199.104.26,4,2,theabbeyresort.com,US,Americas,Northern America,United States of America,California,,Santa Clara
134.209.143.125,4,6,thebigwave.net,US,Americas,Northern America,United States of America,California,,Santa Clara
64.227.98.185,4,3,theblower.au,US,Americas,Northern America,United States of America,California,,Santa Clara
143.110.130.25,4,30,thecapecoop.com,US,Americas,Northern America,United States of America,California,,Santa Clara
138.68.24.237,4,31,thecuriouschickpea.com,US,Americas,Northern America,United States of America,California,,Santa Clara
165.232.134.61,4,27,thecurriculumcorner.com,US,Americas,Northern America,United States of America,California,,Santa Clara
157.245.232.17,4,2,thefrugalgirl.com,US,Americas,Northern America,United States of America,California,,Santa Clara
138.197.236.155,4,6,thefunplex.com,US,Americas,Northern America,United States of America,California,,Santa Clara
159.65.79.83,4,8,thegeorgiareview.com,US,Americas,Northern America,United States of America,California,,Santa Clara
138.68.50.31,4,8,thegratefulgirlcooks.com,US,Americas,Northern America,United States of America,California,,Santa Clara
159.89.144.197,4,2,thehandymansdaughter.com,US,Americas,Northern America,United States of America,California,,Santa Clara
206.189.64.87,4,8,thehuntswoman.com,US,Americas,Northern America,United States of America,California,,Santa Clara
165.227.5.246,4,4,thekittchen.com,US,Americas,Northern America,United States of America,California,,Santa Clara
206.189.170.254,4,1,thelatinahomemaker.com,US,Americas,Northern America,United States of America,California,,Santa Clara
167.99.24.181,4,4,thelosangelesbeat.com,US,Americas,Northern America,United States of America,California,,Santa Clara
64.225.41.128,4,7,thenerdswife.com,US,Americas,Northern America,United States of America,California,,Santa Clara
137.184.84.212,4,1,thepaydayloanstore.com,US,Americas,Northern America,United States of America,California,,Santa Clara
146.190.59.143,4,51,thepickler.com,US,Americas,Northern America,United States of America,California,,Santa Clara
165.227.24.29,4,11,thereislifeafterwheat.com,US,Americas,Northern America,United States of America,California,,Santa Clara
138.197.222.162,4,9,theretirementmanifesto.com,US,Americas,Northern America,United States of America,California,,Santa Clara
167.71.125.97,4,7,thetasteofkosher.com,US,Americas,Northern America,United States of America,California,,Santa Clara
104.248.190.167,4,11,thetimezoneconverter.com,US,Americas,Northern America,United States of America,California,,Santa Clara
143.198.51.89,4,12,thetopmeal.com,US,Americas,Northern America,United States of America,California,,Santa Clara
147.182.193.175,4,19,thetremonthouse.com,US,Americas,Northern America,United States of America,California,,Santa Clara
165.227.48.168,4,4,theurbanist.org,US,Americas,Northern America,United States of America,California,,Santa Clara
138.68.10.234,4,12,thinlicious.com,US,Americas,Northern America,United States of America,California,,Santa Clara
164.92.109.162,4,18,thomaskeller.com,US,Americas,Northern America,United States of America,California,,Santa Clara
24.199.101.215,4,15,tidymom.net,US,Americas,Northern America,United States of America,California,,Santa Clara
47.251.53.222,4,4,tingfm.com,US,Americas,Northern America,United States of America,California,,Santa Clara
167.172.119.181,4,22,tinyemails.com,US,Americas,Northern America,United States of America,California,,Santa Clara
24.199.78.3,4,1,tkohhh.social,US,Americas,Northern America,United States of America,California,,Santa Clara
138.197.234.194,4,4,tmmc.org,US,Americas,Northern America,United States of America,California,,Santa Clara
178.128.10.47,4,23,todayscreativeideas.com,US,Americas,Northern America,United States of America,California,,Santa Clara
165.227.6.152,4,5,together.com,US,Americas,Northern America,United States of America,California,,Santa Clara
138.68.62.239,4,7,together2night.com,US,Americas,Northern America,United States of America,California,,Santa Clara
143.198.108.93,4,5,tomatoblues.com,US,Americas,Northern America,United States of America,California,,Santa Clara
137.184.231.143,4,11,tommybahamamiramonte.com,US,Americas,Northern America,United States of America,California,,Santa Clara
149.28.204.240,4,1,tonic.to,US,Americas,Northern America,United States of America,California,,Santa Clara
167.99.24.93,4,6,toolshed.com,US,Americas,Northern America,United States of America,California,,Santa Clara
47.254.71.106,4,5,top-shine.com,US,Americas,Northern America,United States of America,California,,Santa Clara
143.198.140.84,4,8,tophub.today,US,Americas,Northern America,United States of America,California,,Santa Clara
71.19.148.192,4,3,tornadovps.com,US,Americas,Northern America,United States of America,California,,Santa Clara
147.182.245.168,4,4,torresdelpaine.com,US,Americas,Northern America,United States of America,California,,Santa Clara
138.197.207.13,4,19,totallygoldens.com,US,Americas,Northern America,United States of America,California,,Santa Clara
143.198.72.120,4,10,towncountry.com,US,Americas,Northern America,United States of America,California,,Santa Clara
128.199.10.158,4,6,travel.to,US,Americas,Northern America,United States of America,California,,Santa Clara
143.110.148.107,4,35,travis-walton.com,US,Americas,Northern America,United States of America,California,,Santa Clara
161.35.230.24,4,14,travisonline.com,US,Americas,Northern America,United States of America,California,,Santa Clara
206.189.209.77,4,13,tuberanker.com,US,Americas,Northern America,United States of America,California,,Santa Clara
143.198.245.80,4,19,tunicgame.com,US,Americas,Northern America,United States of America,California,,Santa Clara
43.130.26.209,4,2,tuobopackaging.com,US,Americas,Northern America,United States of America,California,,Santa Clara
206.189.171.133,4,1310,tw.com,US,Americas,Northern America,United States of America,California,,Santa Clara
206.189.160.110,4,14,twilightguide.com,US,Americas,Northern America,United States of America,California,,Santa Clara
104.248.223.89,4,3,twodrifters.us,US,Americas,Northern America,United States of America,California,,Santa Clara
164.90.156.239,4,8,ubc-emotionlab.ca,US,Americas,Northern America,United States of America,California,,Santa Clara
23.94.98.42,4,28,ultimatebootcd.com,US,Americas,Northern America,United States of America,California,,Santa Clara
138.197.214.235,4,6,unfussykitchen.com,US,Americas,Northern America,United States of America,California,,Santa Clara
206.189.167.123,4,23,uniformdating.com,US,Americas,Northern America,United States of America,California,,Santa Clara
137.184.230.74,4,14,unitedskates.com,US,Americas,Northern America,United States of America,California,,Santa Clara
138.68.55.246,4,6,unpythonic.net,US,Americas,Northern America,United States of America,California,,Santa Clara
138.68.18.55,4,13,usalovelist.com,US,Americas,Northern America,United States of America,California,,Santa Clara
143.198.246.108,4,3,usfamilyguide.com,US,Americas,Northern America,United States of America,California,,Santa Clara
143.110.235.50,4,7,uxua.com,US,Americas,Northern America,United States of America,California,,Santa Clara
146.190.132.62,4,4,vanidades.com,US,Americas,Northern America,United States of America,California,,Santa Clara
167.71.150.246,4,25,velofix.com,US,Americas,Northern America,United States of America,California,,Santa Clara
64.225.91.95,4,49,vetco.net,US,Americas,Northern America,United States of America,California,,Santa Clara
159.89.135.66,4,5,vetsintech.co,US,Americas,Northern America,United States of America,California,,Santa Clara
167.99.110.5,4,2,vexanium.com,US,Americas,Northern America,United States of America,California,,Santa Clara
146.190.159.251,4,12,viralcontentbee.com,US,Americas,Northern America,United States of America,California,,Santa Clara
159.89.146.217,4,8,virtual-data-room.org,US,Americas,Northern America,United States of America,California,,Santa Clara
138.68.53.43,4,6,visionfilms.net,US,Americas,Northern America,United States of America,California,,Santa Clara
134.209.141.10,4,10,visitskagitvalley.com,US,Americas,Northern America,United States of America,California,,Santa Clara
161.35.239.50,4,6,vista-rec.com,US,Americas,Northern America,United States of America,California,,Santa Clara
104.248.190.40,4,8,visualgps.net,US,Americas,Northern America,United States of America,California,,Santa Clara
143.110.228.163,4,4,vnistar.com,US,Americas,Northern America,United States of America,California,,Santa Clara
143.198.58.145,4,27,voltagepictures.com,US,Americas,Northern America,United States of America,California,,Santa Clara
165.227.13.94,4,7,voyagetampa.com,US,Americas,Northern America,United States of America,California,,Santa Clara
144.126.215.83,4,2,vpnc.org,US,Americas,Northern America,United States of America,California,,Santa Clara
138.68.6.125,4,4,vpri.org,US,Americas,Northern America,United States of America,California,,Santa Clara
164.90.244.158,4,6,vytality.com,US,Americas,Northern America,United States of America,California,,Santa Clara
143.198.244.187,4,5,wakatime.com,US,Americas,Northern America,United States of America,California,,Santa Clara
23.216.149.204,4,17,walshcollege.edu,US,Americas,Northern America,United States of America,California,,Santa Clara
23.216.149.210,4,5,walshcollege.edu,US,Americas,Northern America,United States of America,California,,Santa Clara
164.90.244.238,4,6,warhawkairmuseum.org,US,Americas,Northern America,United States of America,California,,Santa Clara
143.198.226.145,4,5,watercolorpainting.com,US,Americas,Northern America,United States of America,California,,Santa Clara
146.190.37.150,4,3,wcctrainingcenter.com,US,Americas,Northern America,United States of America,California,,Santa Clara
161.35.234.209,4,12,weahomes.com,US,Americas,Northern America,United States of America,California,,Santa Clara
138.197.208.45,4,9,wedistill.io,US,Americas,Northern America,United States of America,California,,Santa Clara
147.182.207.36,4,7,welppp.com,US,Americas,Northern America,United States of America,California,,Santa Clara
142.93.88.96,4,0,westbankcorp.com,US,Americas,Northern America,United States of America,California,,Santa Clara
143.198.244.88,4,7,westernrivers.org,US,Americas,Northern America,United States of America,California,,Santa Clara
138.68.47.2,4,4,wfpa.org,US,Americas,Northern America,United States of America,California,,Santa Clara
23.221.76.117,4,6,whitneypeakhotel.com,US,Americas,Northern America,United States of America,California,,Santa Clara
167.99.99.49,4,4,wi-lab.com,US,Americas,Northern America,United States of America,California,,Santa Clara
137.184.238.244,4,1,wildandscenicfilmfestival.org,US,Americas,Northern America,United States of America,California,,Santa Clara
159.65.70.221,4,4,willmackintosh.org,US,Americas,Northern America,United States of America,California,,Santa Clara
159.223.200.119,4,4,willowslodge.com,US,Americas,Northern America,United States of America,California,,Santa Clara
143.198.109.241,4,5,wiredforwar.org,US,Americas,Northern America,United States of America,California,,Santa Clara
45.77.0.202,4,20,wiresnr.org,US,Americas,Northern America,United States of America,California,,Santa Clara
138.68.234.19,4,17,withablast.net,US,Americas,Northern America,United States of America,California,,Santa Clara
147.182.250.222,4,15,womanstats.org,US,Americas,Northern America,United States of America,California,,Santa Clara
167.172.207.126,4,7,womenshairlossproject.com,US,Americas,Northern America,United States of America,California,,Santa Clara
134.209.61.243,4,4,workshopkitchenbar.com,US,Americas,Northern America,United States of America,California,,Santa Clara
167.99.102.226,4,10,wpfomify.com,US,Americas,Northern America,United States of America,California,,Santa Clara
206.189.160.213,4,8,writebrave.org,US,Americas,Northern America,United States of America,California,,Santa Clara
137.184.123.128,4,3,x3.wiki,US,Americas,Northern America,United States of America,California,,Santa Clara
71.19.144.185,4,5,xanadu.com.au,US,Americas,Northern America,United States of America,California,,Santa Clara
172.121.38.199,4,0,xiangjiaoshui.com,US,Americas,Northern America,United States of America,California,,Santa Clara
149.28.203.119,4,22,xn--mltidsmagasinet-hlb.dk,US,Americas,Northern America,United States of America,California,,Santa Clara
149.28.204.5,4,43,xn--sportutvare-xfb.se,US,Americas,Northern America,United States of America,California,,Santa Clara
149.28.212.91,4,52,xn--trningfralla-hcb1x.se,US,Americas,Northern America,United States of America,California,,Santa Clara
143.244.210.117,4,4,xtreemsolution.com,US,Americas,Northern America,United States of America,California,,Santa Clara
165.227.18.16,4,0,yakamanation-nsn.gov,US,Americas,Northern America,United States of America,California,,Santa Clara
43.130.10.155,4,2,yito-lighting.com,US,Americas,Northern America,United States of America,California,,Santa Clara
98.142.102.250,4,540,yog-sothoth.com,US,Americas,Northern America,United States of America,California,,Santa Clara
157.245.179.234,4,4,zenmaster8.com,US,Americas,Northern America,United States of America,California,,Santa Clara
167.71.151.172,4,9,zhixin90.com,US,Americas,Northern America,United States of America,California,,Santa Clara
137.184.41.121,4,34,ziggyknowsdisney.com,US,Americas,Northern America,United States of America,California,,Santa Clara
157.245.229.17,4,3,zsonamaco.com,US,Americas,Northern America,United States of America,California,,Santa Clara
64.227.53.243,4,3,zthemes.net,US,Americas,Northern America,United States of America,California,,Santa Clara
