reflector_ip,ip_version,offset,description,country_code,region,sub_region,country_name,sub_division_1,sub_division_2,city
69.163.183.93,4,9,1234.info,US,Americas,Northern America,United States of America,California,,Brea
69.163.137.163,4,10,19216801.onl,US,Americas,Northern America,United States of America,California,,Brea
69.163.177.124,4,-411,1sky.org,US,Americas,Northern America,United States of America,California,,Brea
69.163.181.34,4,9,40watt.com,US,Americas,Northern America,United States of America,California,,Brea
69.163.253.218,4,9,413chan.net,US,Americas,Northern America,United States of America,California,,Brea
69.163.202.199,4,10,acwr.com,US,Americas,Northern America,United States of America,California,,Brea
69.163.181.220,4,11,ad6dm.net,US,Americas,Northern America,United States of America,California,,Brea
69.163.182.13,4,9,adambrown.info,US,Americas,Northern America,United States of America,California,,Brea
69.163.142.202,4,12,adamgreen.info,US,Americas,Northern America,United States of America,California,,Brea
69.163.177.252,4,8,agencymumbai.com,US,Americas,Northern America,United States of America,California,,Brea
69.163.185.165,4,17,agileadvice.com,US,Americas,Northern America,United States of America,California,,Brea
69.163.176.251,4,11,agiletaste.com,US,Americas,Northern America,United States of America,California,,Brea
69.163.144.145,4,9,agmip.org,US,Americas,Northern America,United States of America,California,,Brea
69.163.198.232,4,10,agonybooth.com,US,Americas,Northern America,United States of America,California,,Brea
69.163.237.130,4,129,akwaaba.com,US,Americas,Northern America,United States of America,California,,Brea
69.163.178.181,4,10,alamedatheatres.com,US,Americas,Northern America,United States of America,California,,Brea
69.163.130.182,4,9,alaska-native-news.com,US,Americas,Northern America,United States of America,California,,Brea
69.163.210.120,4,79,alissarumsey.com,US,Americas,Northern America,United States of America,California,,Brea
69.163.129.152,4,19,allsaints-pas.org,US,Americas,Northern America,United States of America,California,,Brea
69.163.177.85,4,10,amazing-kids.org,US,Americas,Northern America,United States of America,California,,Brea
69.163.150.134,4,8,americasnationalparks.org,US,Americas,Northern America,United States of America,California,,Brea
69.163.132.178,4,17,amortowles.com,US,Americas,Northern America,United States of America,California,,Brea
69.163.237.72,4,28,anadisgoi.com,US,Americas,Northern America,United States of America,California,,Brea
69.163.255.78,4,30,analyticshour.io,US,Americas,Northern America,United States of America,California,,Brea
69.163.254.69,4,12,ancient-greece.org,US,Americas,Northern America,United States of America,California,,Brea
69.163.177.69,4,-381,andiamnotlying.com,US,Americas,Northern America,United States of America,California,,Brea
69.163.213.67,4,18,andrebona.com.br,US,Americas,Northern America,United States of America,California,,Brea
69.163.177.136,4,16,andymatuschak.org,US,Americas,Northern America,United States of America,California,,Brea
69.163.199.57,4,27,animatedviews.com,US,Americas,Northern America,United States of America,California,,Brea
69.163.180.41,4,9,anonpress.org,US,Americas,Northern America,United States of America,California,,Brea
69.163.238.119,4,9,apainc.org,US,Americas,Northern America,United States of America,California,,Brea
69.163.201.58,4,35,appleworld.today,US,Americas,Northern America,United States of America,California,,Brea
69.163.135.10,4,9,apprising.org,US,Americas,Northern America,United States of America,California,,Brea
69.163.204.77,4,47,aputure.com,US,Americas,Northern America,United States of America,California,,Brea
69.163.181.151,4,24,aradovan.com,US,Americas,Northern America,United States of America,California,,Brea
69.163.199.188,4,182,arcanewonders.com,US,Americas,Northern America,United States of America,California,,Brea
69.163.141.153,4,10,archaeologica.org,US,Americas,Northern America,United States of America,California,,Brea
69.163.242.97,4,-32214,armadilloaerospace.com,US,Americas,Northern America,United States of America,California,,Brea
69.163.196.33,4,14,artichokefestival.org,US,Americas,Northern America,United States of America,California,,Brea
69.163.249.163,4,26,artificialworlds.net,US,Americas,Northern America,United States of America,California,,Brea
69.163.142.66,4,11,artistsafety.net,US,Americas,Northern America,United States of America,California,,Brea
69.163.243.90,4,8,artsbeatla.com,US,Americas,Northern America,United States of America,California,,Brea
69.163.197.204,4,60,audium.org,US,Americas,Northern America,United States of America,California,,Brea
69.163.177.182,4,12,austintownhall.com,US,Americas,Northern America,United States of America,California,,Brea
69.163.172.92,4,18,autismspectrumnews.org,US,Americas,Northern America,United States of America,California,,Brea
69.163.245.170,4,8,balmingilead.org,US,Americas,Northern America,United States of America,California,,Brea
69.163.214.132,4,29,beanpoet.com,US,Americas,Northern America,United States of America,California,,Brea
69.163.244.134,4,8,bearsearscoalition.org,US,Americas,Northern America,United States of America,California,,Brea
69.163.177.193,4,13,beej.us,US,Americas,Northern America,United States of America,California,,Brea
69.163.255.140,4,9,beginningwithi.com,US,Americas,Northern America,United States of America,California,,Brea
69.163.177.17,4,10,bekendedodenederlanders.com,US,Americas,Northern America,United States of America,California,,Brea
69.163.182.155,4,6,bespokesynth.com,US,Americas,Northern America,United States of America,California,,Brea
69.163.197.118,4,11,bethkanter.org,US,Americas,Northern America,United States of America,California,,Brea
69.163.139.237,4,6,betterlivingthroughdesign.com,US,Americas,Northern America,United States of America,California,,Brea
69.163.178.35,4,8,betweentheburiedandme.com,US,Americas,Northern America,United States of America,California,,Brea
69.163.147.86,4,37,bfpminc.com,US,Americas,Northern America,United States of America,California,,Brea
69.163.178.173,4,16,bibliotrek.com,US,Americas,Northern America,United States of America,California,,Brea
69.163.140.44,4,103,bigmapblog.com,US,Americas,Northern America,United States of America,California,,Brea
69.163.185.108,4,26,bikepacking.quebec,US,Americas,Northern America,United States of America,California,,Brea
69.163.187.24,4,9,bikinikill.com,US,Americas,Northern America,United States of America,California,,Brea
69.163.185.42,4,10,bincfoundation.org,US,Americas,Northern America,United States of America,California,,Brea
69.163.184.115,4,19,biosector01.com,US,Americas,Northern America,United States of America,California,,Brea
69.163.140.74,4,63,birzebbugastpetersfc.com,US,Americas,Northern America,United States of America,California,,Brea
69.163.144.148,4,8,blackandpink.org,US,Americas,Northern America,United States of America,California,,Brea
69.163.184.226,4,11,bleedingespresso.com,US,Americas,Northern America,United States of America,California,,Brea
69.163.176.119,4,67,bloglisting.net,US,Americas,Northern America,United States of America,California,,Brea
69.163.176.46,4,12,blooberry.com,US,Americas,Northern America,United States of America,California,,Brea
69.163.243.27,4,9,bluedot.global,US,Americas,Northern America,United States of America,California,,Brea
69.163.142.155,4,49,bookbindersmuseum.org,US,Americas,Northern America,United States of America,California,,Brea
69.163.210.136,4,9,booksforlittles.com,US,Americas,Northern America,United States of America,California,,Brea
69.163.168.10,4,11,boondockersbible.com,US,Americas,Northern America,United States of America,California,,Brea
69.163.133.79,4,17,brainium.com,US,Americas,Northern America,United States of America,California,,Brea
69.163.144.105,4,19,brandnamepencils.com,US,Americas,Northern America,United States of America,California,,Brea
69.163.140.77,4,9,briandettmer.com,US,Americas,Northern America,United States of America,California,,Brea
69.163.176.96,4,8,britishsurnames.co.uk,US,Americas,Northern America,United States of America,California,,Brea
69.163.182.158,4,6,broobles.com,US,Americas,Northern America,United States of America,California,,Brea
69.163.236.112,4,41,brwnpaperbag.com,US,Americas,Northern America,United States of America,California,,Brea
69.163.209.218,4,11,bryndonovan.com,US,Americas,Northern America,United States of America,California,,Brea
69.163.140.156,4,9,buckwheatzydeco.com,US,Americas,Northern America,United States of America,California,,Brea
69.163.143.42,4,47,bueno.org,US,Americas,Northern America,United States of America,California,,Brea
69.163.180.196,4,25,buffyguide.com,US,Americas,Northern America,United States of America,California,,Brea
69.163.240.93,4,24,bulldogclubofamerica.org,US,Americas,Northern America,United States of America,California,,Brea
69.163.130.27,4,23,bumblebee.com,US,Americas,Northern America,United States of America,California,,Brea
69.163.180.48,4,60,burlesqueclasses.com,US,Americas,Northern America,United States of America,California,,Brea
69.163.179.224,4,9,buttertech.xyz,US,Americas,Northern America,United States of America,California,,Brea
69.163.141.250,4,8,canopymusic.net,US,Americas,Northern America,United States of America,California,,Brea
69.163.135.27,4,29,capservices.org,US,Americas,Northern America,United States of America,California,,Brea
69.163.138.117,4,57,carnaldish.com,US,Americas,Northern America,United States of America,California,,Brea
69.163.181.229,4,-177,carriganfarms.com,US,Americas,Northern America,United States of America,California,,Brea
69.163.197.168,4,21,cassclaycooking.com,US,Americas,Northern America,United States of America,California,,Brea
69.163.178.16,4,25,cathodecorner.com,US,Americas,Northern America,United States of America,California,,Brea
69.163.150.104,4,8,cce.org.uy,US,Americas,Northern America,United States of America,California,,Brea
69.163.255.189,4,8,ccga.edu,US,Americas,Northern America,United States of America,California,,Brea
69.163.202.92,4,9,cckonex.org,US,Americas,Northern America,United States of America,California,,Brea
69.163.202.1,4,11,cdfe.org,US,Americas,Northern America,United States of America,California,,Brea
69.163.201.211,4,17,center4reproduction.com,US,Americas,Northern America,United States of America,California,,Brea
69.163.139.82,4,9,chainbaker.com,US,Americas,Northern America,United States of America,California,,Brea
69.163.198.96,4,9,championforest.org,US,Americas,Northern America,United States of America,California,,Brea
69.163.183.115,4,13,chickenwheel.com,US,Americas,Northern America,United States of America,California,,Brea
69.163.139.213,4,9,childhelphotline.org,US,Americas,Northern America,United States of America,California,,Brea
69.163.245.95,4,20,christianresearchnetwork.org,US,Americas,Northern America,United States of America,California,,Brea
69.163.178.242,4,-337,christophertin.com,US,Americas,Northern America,United States of America,California,,Brea
69.163.140.16,4,10,cipinet.com,US,Americas,Northern America,United States of America,California,,Brea
69.163.134.36,4,58,citycenterdc.com,US,Americas,Northern America,United States of America,California,,Brea
69.163.141.92,4,10,clarity.net,US,Americas,Northern America,United States of America,California,,Brea
69.163.134.7,4,3,clarkcountybar.org,US,Americas,Northern America,United States of America,California,,Brea
69.163.180.239,4,10,clcworld.net,US,Americas,Northern America,United States of America,California,,Brea
69.163.181.31,4,6,cocoawithlove.com,US,Americas,Northern America,United States of America,California,,Brea
69.163.203.59,4,17,cohnlg.com,US,Americas,Northern America,United States of America,California,,Brea
69.163.140.178,4,35,cohsf.org,US,Americas,Northern America,United States of America,California,,Brea
69.163.177.198,4,14,colacityrefuge.org,US,Americas,Northern America,United States of America,California,,Brea
69.163.181.86,4,9,colinmarshall.org,US,Americas,Northern America,United States of America,California,,Brea
69.163.176.28,4,13,collectiondx.com,US,Americas,Northern America,United States of America,California,,Brea
69.163.207.138,4,17,collegesofdistinction.com,US,Americas,Northern America,United States of America,California,,Brea
69.163.142.37,4,8,comics212.net,US,Americas,Northern America,United States of America,California,,Brea
69.163.177.188,4,-306,comixpedia.com,US,Americas,Northern America,United States of America,California,,Brea
69.163.236.150,4,10,conlang.org,US,Americas,Northern America,United States of America,California,,Brea
69.163.182.184,4,10,conps.org,US,Americas,Northern America,United States of America,California,,Brea
69.163.178.11,4,8,consoledatabase.com,US,Americas,Northern America,United States of America,California,,Brea
69.163.183.69,4,-354,cooperscully.com,US,Americas,Northern America,United States of America,California,,Brea
69.163.183.127,4,17,costumepage.org,US,Americas,Northern America,United States of America,California,,Brea
69.163.139.125,4,10,cottey.edu,US,Americas,Northern America,United States of America,California,,Brea
69.163.186.52,4,9,crackingdrupal.com,US,Americas,Northern America,United States of America,California,,Brea
69.163.254.44,4,9,craftynest.com,US,Americas,Northern America,United States of America,California,,Brea
69.163.179.126,4,8,critical-theory.com,US,Americas,Northern America,United States of America,California,,Brea
69.163.146.163,4,8,crownpoint.com,US,Americas,Northern America,United States of America,California,,Brea
69.163.248.119,4,8,csldf.org,US,Americas,Northern America,United States of America,California,,Brea
69.163.148.107,4,10,ctnc.org,US,Americas,Northern America,United States of America,California,,Brea
69.163.128.131,4,-372,ctsfw.edu,US,Americas,Northern America,United States of America,California,,Brea
69.163.142.120,4,13,cuedspeech.org,US,Americas,Northern America,United States of America,California,,Brea
69.163.244.150,4,9,cyclicarx.com,US,Americas,Northern America,United States of America,California,,Brea
69.163.179.19,4,146,cynthiasays.com,US,Americas,Northern America,United States of America,California,,Brea
69.163.186.135,4,27,dailylit.com,US,Americas,Northern America,United States of America,California,,Brea
69.163.180.178,4,-175,dallashistory.org,US,Americas,Northern America,United States of America,California,,Brea
69.163.179.59,4,39,danecountybeekeepers.org,US,Americas,Northern America,United States of America,California,,Brea
69.163.179.20,4,27,davalka.site,US,Americas,Northern America,United States of America,California,,Brea
69.163.130.145,4,440,deainc.com,US,Americas,Northern America,United States of America,California,,Brea
69.163.214.233,4,66,debbiegibsonofficial.com,US,Americas,Northern America,United States of America,California,,Brea
69.163.145.152,4,14,debbieohi.com,US,Americas,Northern America,United States of America,California,,Brea
69.163.182.188,4,171,deciccoandsons.com,US,Americas,Northern America,United States of America,California,,Brea
69.163.178.135,4,8,demoapp-lc.com,US,Americas,Northern America,United States of America,California,,Brea
69.163.243.172,4,8,departmentofproduct.com,US,Americas,Northern America,United States of America,California,,Brea
69.163.176.173,4,9,depressionquest.com,US,Americas,Northern America,United States of America,California,,Brea
69.163.150.150,4,24,designer-daily.com,US,Americas,Northern America,United States of America,California,,Brea
69.163.179.181,4,5,designswarm.com,US,Americas,Northern America,United States of America,California,,Brea
69.163.187.246,4,38,detonationfilms.com,US,Americas,Northern America,United States of America,California,,Brea
69.163.129.141,4,8,dexi.io,US,Americas,Northern America,United States of America,California,,Brea
69.163.187.116,4,9,dhawards.org,US,Americas,Northern America,United States of America,California,,Brea
69.163.147.15,4,8,diariosustentable.com,US,Americas,Northern America,United States of America,California,,Brea
69.163.198.6,4,33,diariouno.pe,US,Americas,Northern America,United States of America,California,,Brea
69.163.143.4,4,16,didntdoitbailbonds.com,US,Americas,Northern America,United States of America,California,,Brea
69.163.180.147,4,8,diegorivera.com,US,Americas,Northern America,United States of America,California,,Brea
69.163.200.32,4,18,digitalpimponline.com,US,Americas,Northern America,United States of America,California,,Brea
69.163.183.149,4,34,digitalpowerlines.net,US,Americas,Northern America,United States of America,California,,Brea
69.163.130.115,4,17,disabilityrightswi.org,US,Americas,Northern America,United States of America,California,,Brea
69.163.129.190,4,8,discourse.net,US,Americas,Northern America,United States of America,California,,Brea
69.163.194.99,4,28,diybookscanner.org,US,Americas,Northern America,United States of America,California,,Brea
69.163.140.222,4,6,dmdavid.com,US,Americas,Northern America,United States of America,California,,Brea
69.163.236.9,4,9,dmitrybrant.com,US,Americas,Northern America,United States of America,California,,Brea
69.163.147.19,4,79,dominic-deegan.com,US,Americas,Northern America,United States of America,California,,Brea
69.163.249.156,4,10,donsmaps.com,US,Americas,Northern America,United States of America,California,,Brea
69.163.201.24,4,9,downtowntc.com,US,Americas,Northern America,United States of America,California,,Brea
69.163.177.137,4,39,draknek.org,US,Americas,Northern America,United States of America,California,,Brea
69.163.141.176,4,31,dreadscott.net,US,Americas,Northern America,United States of America,California,,Brea
69.163.180.195,4,9,dream.press,US,Americas,Northern America,United States of America,California,,Brea
69.163.178.122,4,34,dreamcatcherltd.com,US,Americas,Northern America,United States of America,California,,Brea
69.163.150.123,4,8,dressforthewedding.com,US,Americas,Northern America,United States of America,California,,Brea
69.163.130.100,4,-728,drinkneuro.com,US,Americas,Northern America,United States of America,California,,Brea
69.163.212.68,4,-3,drugscience.org,US,Americas,Northern America,United States of America,California,,Brea
69.163.187.250,4,9,drugwarrant.com,US,Americas,Northern America,United States of America,California,,Brea
69.163.140.83,4,7,dustbunny.com,US,Americas,Northern America,United States of America,California,,Brea
69.163.140.53,4,13,dustedmagazine.com,US,Americas,Northern America,United States of America,California,,Brea
69.163.185.75,4,32,dynaplug.com,US,Americas,Northern America,United States of America,California,,Brea
69.163.248.80,4,10,e-channelnews.com,US,Americas,Northern America,United States of America,California,,Brea
69.163.183.83,4,7,ebhsoc.org,US,Americas,Northern America,United States of America,California,,Brea
69.163.182.113,4,6,ecovillage.org.in,US,Americas,Northern America,United States of America,California,,Brea
69.163.143.184,4,7,ecstaticpeace.com,US,Americas,Northern America,United States of America,California,,Brea
69.163.183.187,4,8,educationpoint.xyz,US,Americas,Northern America,United States of America,California,,Brea
69.163.239.90,4,11,elreynetwork.com,US,Americas,Northern America,United States of America,California,,Brea
69.163.183.97,4,33,embedresponsively.com,US,Americas,Northern America,United States of America,California,,Brea
69.163.181.227,4,10,emuverse.com,US,Americas,Northern America,United States of America,California,,Brea
69.163.179.232,4,36,enterprise.press,US,Americas,Northern America,United States of America,California,,Brea
69.163.182.76,4,11,enyojs.com,US,Americas,Northern America,United States of America,California,,Brea
69.163.131.145,4,9,eplocalnews.org,US,Americas,Northern America,United States of America,California,,Brea
69.163.179.37,4,9,esp32.net,US,Americas,Northern America,United States of America,California,,Brea
69.163.249.254,4,13,etsc.eu,US,Americas,Northern America,United States of America,California,,Brea
69.163.146.116,4,1,eukicks.com,US,Americas,Northern America,United States of America,California,,Brea
69.163.142.151,4,9,evilspacerobot.com,US,Americas,Northern America,United States of America,California,,Brea
69.163.147.172,4,10,evonomics.com,US,Americas,Northern America,United States of America,California,,Brea
69.163.182.10,4,62,exiftool.org,US,Americas,Northern America,United States of America,California,,Brea
69.163.237.62,4,37,expenews.com,US,Americas,Northern America,United States of America,California,,Brea
69.163.142.219,4,34,extreme.com,US,Americas,Northern America,United States of America,California,,Brea
69.163.186.76,4,8,fairviewitm.com,US,Americas,Northern America,United States of America,California,,Brea
69.163.143.219,4,17,farscape.com,US,Americas,Northern America,United States of America,California,,Brea
69.163.236.140,4,9,fbtb.net,US,Americas,Northern America,United States of America,California,,Brea
69.163.130.206,4,508,fdnyfoundation.org,US,Americas,Northern America,United States of America,California,,Brea
69.163.128.196,4,9,fdnysmart.org,US,Americas,Northern America,United States of America,California,,Brea
69.163.249.190,4,10,feministsf.org,US,Americas,Northern America,United States of America,California,,Brea
69.163.206.160,4,32,fifthestate.org,US,Americas,Northern America,United States of America,California,,Brea
69.163.255.98,4,10,finchnetwork.org,US,Americas,Northern America,United States of America,California,,Brea
69.163.137.218,4,17,findacomposter.com,US,Americas,Northern America,United States of America,California,,Brea
69.163.184.116,4,9,findchaos.com,US,Americas,Northern America,United States of America,California,,Brea
69.163.148.150,4,19,firstroboticscanada.org,US,Americas,Northern America,United States of America,California,,Brea
69.163.179.120,4,20,fluxblog.org,US,Americas,Northern America,United States of America,California,,Brea
69.163.242.61,4,12,flyafricaworld.com,US,Americas,Northern America,United States of America,California,,Brea
69.163.244.15,4,7,foodgal.com,US,Americas,Northern America,United States of America,California,,Brea
69.163.138.17,4,45,foodgypsy.ca,US,Americas,Northern America,United States of America,California,,Brea
69.163.144.87,4,8,foodiebaker.com,US,Americas,Northern America,United States of America,California,,Brea
69.163.181.32,4,4,forkosh.com,US,Americas,Northern America,United States of America,California,,Brea
69.163.137.137,4,50,fortmose.org,US,Americas,Northern America,United States of America,California,,Brea
69.163.201.73,4,22,foundant.com,US,Americas,Northern America,United States of America,California,,Brea
69.163.132.241,4,30,fraenkelgallery.com,US,Americas,Northern America,United States of America,California,,Brea
69.163.179.35,4,64,fray.com,US,Americas,Northern America,United States of America,California,,Brea
69.163.185.119,4,28,fresnoalliance.com,US,Americas,Northern America,United States of America,California,,Brea
69.163.180.162,4,31,frogsonice.com,US,Americas,Northern America,United States of America,California,,Brea
69.163.135.151,4,14,ftpplanet.com,US,Americas,Northern America,United States of America,California,,Brea
69.163.178.229,4,9,fuchsiadunlop.com,US,Americas,Northern America,United States of America,California,,Brea
69.163.186.124,4,7,fulhamusa.com,US,Americas,Northern America,United States of America,California,,Brea
69.163.137.59,4,8,fvza.org,US,Americas,Northern America,United States of America,California,,Brea
69.163.212.105,4,8,gamehistory.org,US,Americas,Northern America,United States of America,California,,Brea
69.163.186.86,4,26,gameroomguys.com,US,Americas,Northern America,United States of America,California,,Brea
69.163.146.2,4,18,gapintelligence.com,US,Americas,Northern America,United States of America,California,,Brea
69.163.253.8,4,8,garden.com,US,Americas,Northern America,United States of America,California,,Brea
69.163.197.148,4,8,gayletter.com,US,Americas,Northern America,United States of America,California,,Brea
69.163.212.109,4,7,gbs.edu,US,Americas,Northern America,United States of America,California,,Brea
69.163.245.162,4,9,gearboxsoftware.com,US,Americas,Northern America,United States of America,California,,Brea
69.163.130.84,4,12,geeksout.org,US,Americas,Northern America,United States of America,California,,Brea
69.163.179.52,4,16,geometrygames.org,US,Americas,Northern America,United States of America,California,,Brea
69.163.180.60,4,9,ggenyc.org,US,Americas,Northern America,United States of America,California,,Brea
69.163.129.174,4,52,ghostcultmag.com,US,Americas,Northern America,United States of America,California,,Brea
69.163.252.105,4,30,gifntext.com,US,Americas,Northern America,United States of America,California,,Brea
69.163.181.185,4,7,gifteddevelopment.com,US,Americas,Northern America,United States of America,California,,Brea
69.163.202.228,4,23,giftedguru.com,US,Americas,Northern America,United States of America,California,,Brea
69.163.209.47,4,24,glamourandgraceblog.com,US,Americas,Northern America,United States of America,California,,Brea
69.163.248.232,4,9,glioblastomatreatments.wiki,US,Americas,Northern America,United States of America,California,,Brea
69.163.195.53,4,10,global-view.com,US,Americas,Northern America,United States of America,California,,Brea
69.163.207.216,4,16,goalexandria.com,US,Americas,Northern America,United States of America,California,,Brea
69.163.209.201,4,13,goodknitkisses.com,US,Americas,Northern America,United States of America,California,,Brea
69.163.200.66,4,10,gracebook.app,US,Americas,Northern America,United States of America,California,,Brea
69.163.177.14,4,25,graphpaper.com,US,Americas,Northern America,United States of America,California,,Brea
69.163.179.98,4,26,greatraftbrewing.com,US,Americas,Northern America,United States of America,California,,Brea
69.163.198.55,4,36,greenwaste.com,US,Americas,Northern America,United States of America,California,,Brea
69.163.142.136,4,74,grocerycouponnetwork.com,US,Americas,Northern America,United States of America,California,,Brea
69.163.245.10,4,27,grouppolicy.biz,US,Americas,Northern America,United States of America,California,,Brea
69.163.183.74,4,187,growingchurches.org,US,Americas,Northern America,United States of America,California,,Brea
69.163.244.4,4,45,growinghomeinc.org,US,Americas,Northern America,United States of America,California,,Brea
69.163.138.53,4,10,gsmheritagecenter.org,US,Americas,Northern America,United States of America,California,,Brea
69.163.253.163,4,9,gunweek.com,US,Americas,Northern America,United States of America,California,,Brea
69.163.179.135,4,13,guyboulianne.info,US,Americas,Northern America,United States of America,California,,Brea
69.163.137.108,4,8,gymware.com.au,US,Americas,Northern America,United States of America,California,,Brea
69.163.248.188,4,11,halfelf.org,US,Americas,Northern America,United States of America,California,,Brea
69.163.249.115,4,9,harrypotterfanzone.com,US,Americas,Northern America,United States of America,California,,Brea
69.163.138.152,4,2,havocscope.com,US,Americas,Northern America,United States of America,California,,Brea
69.163.145.224,4,8,hawaii247.com,US,Americas,Northern America,United States of America,California,,Brea
69.163.176.194,4,9,hazon.org,US,Americas,Northern America,United States of America,California,,Brea
69.163.182.182,4,10,health-bent.com,US,Americas,Northern America,United States of America,California,,Brea
69.163.179.110,4,8,healthawards.com,US,Americas,Northern America,United States of America,California,,Brea
69.163.141.35,4,15,healthinfodaily.net,US,Americas,Northern America,United States of America,California,,Brea
69.163.210.166,4,27,hellorigby.com,US,Americas,Northern America,United States of America,California,,Brea
69.163.203.107,4,8,hemphillbrothers.com,US,Americas,Northern America,United States of America,California,,Brea
69.163.183.154,4,-140,henrymiller.org,US,Americas,Northern America,United States of America,California,,Brea
69.163.238.27,4,15,heroes.app,US,Americas,Northern America,United States of America,California,,Brea
69.163.186.6,4,22,hiphopmakers.com,US,Americas,Northern America,United States of America,California,,Brea
69.163.180.172,4,12,hispaniola.com,US,Americas,Northern America,United States of America,California,,Brea
69.163.185.110,4,8,hixie.ch,US,Americas,Northern America,United States of America,California,,Brea
69.163.247.43,4,8,hollynear.com,US,Americas,Northern America,United States of America,California,,Brea
69.163.179.230,4,50,homedesigninspired.com,US,Americas,Northern America,United States of America,California,,Brea
69.163.177.38,4,9,honeysucklecreek.net,US,Americas,Northern America,United States of America,California,,Brea
69.163.182.17,4,7,howarthlab.org,US,Americas,Northern America,United States of America,California,,Brea
69.163.187.249,4,5,hypergridbusiness.com,US,Americas,Northern America,United States of America,California,,Brea
69.163.149.98,4,13,hyphenonline.com,US,Americas,Northern America,United States of America,California,,Brea
69.163.142.142,4,6,iamerica.net,US,Americas,Northern America,United States of America,California,,Brea
69.163.196.13,4,20,icpa4kids.org,US,Americas,Northern America,United States of America,California,,Brea
69.163.205.136,4,10,idesignawards.com,US,Americas,Northern America,United States of America,California,,Brea
69.163.247.240,4,19,idyllicpursuit.com,US,Americas,Northern America,United States of America,California,,Brea
69.163.173.108,4,17,ifdc.org,US,Americas,Northern America,United States of America,California,,Brea
69.163.177.16,4,12,igracemusic.com,US,Americas,Northern America,United States of America,California,,Brea
69.163.201.248,4,41,illuminagegroup.com,US,Americas,Northern America,United States of America,California,,Brea
69.163.143.41,4,35,indiepages.com,US,Americas,Northern America,United States of America,California,,Brea
69.163.183.63,4,65,info-france-usa.org,US,Americas,Northern America,United States of America,California,,Brea
69.163.185.147,4,20,info.org.il,US,Americas,Northern America,United States of America,California,,Brea
69.163.179.103,4,32,infolific.com,US,Americas,Northern America,United States of America,California,,Brea
69.163.143.248,4,15,inktank.com,US,Americas,Northern America,United States of America,California,,Brea
69.163.150.236,4,117,innoplexus.com,US,Americas,Northern America,United States of America,California,,Brea
69.163.181.3,4,7,inspiracy.com,US,Americas,Northern America,United States of America,California,,Brea
69.163.145.214,4,40,internationaldessertsblog.com,US,Americas,Northern America,United States of America,California,,Brea
69.163.183.165,4,10,intertwingly.net,US,Americas,Northern America,United States of America,California,,Brea
69.163.183.245,4,18,ipbrief.net,US,Americas,Northern America,United States of America,California,,Brea
69.163.214.99,4,46,iredellfreenews.com,US,Americas,Northern America,United States of America,California,,Brea
69.163.178.92,4,10,irongeek.com,US,Americas,Northern America,United States of America,California,,Brea
69.163.183.106,4,128,iruntheinternet.com,US,Americas,Northern America,United States of America,California,,Brea
69.163.209.157,4,10,isans.ca,US,Americas,Northern America,United States of America,California,,Brea
69.163.147.76,4,7,islandinstitute.org,US,Americas,Northern America,United States of America,California,,Brea
69.163.182.185,4,-306,iswc.net,US,Americas,Northern America,United States of America,California,,Brea
69.163.132.58,4,11,jackstraw.org,US,Americas,Northern America,United States of America,California,,Brea
69.163.180.36,4,15,jacobysaustin.com,US,Americas,Northern America,United States of America,California,,Brea
69.163.149.76,4,9,jacquesvallee.net,US,Americas,Northern America,United States of America,California,,Brea
69.163.185.65,4,8,jamessacorey.com,US,Americas,Northern America,United States of America,California,,Brea
69.163.176.14,4,38,janeyolen.com,US,Americas,Northern America,United States of America,California,,Brea
69.163.184.249,4,9,jasminestarblog.com,US,Americas,Northern America,United States of America,California,,Brea
69.163.180.27,4,13,jasnh.com,US,Americas,Northern America,United States of America,California,,Brea
69.163.182.179,4,13,jasonrobertbrown.com,US,Americas,Northern America,United States of America,California,,Brea
69.163.206.159,4,3329,jesse-anderson.com,US,Americas,Northern America,United States of America,California,,Brea
69.163.149.38,4,92,jessicacox.com.au,US,Americas,Northern America,United States of America,California,,Brea
69.163.179.81,4,9,jetwolf.com,US,Americas,Northern America,United States of America,California,,Brea
69.163.177.150,4,6,jibble.org,US,Americas,Northern America,United States of America,California,,Brea
69.163.179.74,4,6,jimonlight.com,US,Americas,Northern America,United States of America,California,,Brea
69.163.181.89,4,24,jonathanstray.com,US,Americas,Northern America,United States of America,California,,Brea
69.163.186.246,4,78,journal18.org,US,Americas,Northern America,United States of America,California,,Brea
69.163.179.100,4,8,julestyne.com,US,Americas,Northern America,United States of America,California,,Brea
69.163.178.235,4,11,junotdiaz.com,US,Americas,Northern America,United States of America,California,,Brea
69.163.145.226,4,8,justinecelina.com,US,Americas,Northern America,United States of America,California,,Brea
69.163.146.42,4,8,kalalautrail.com,US,Americas,Northern America,United States of America,California,,Brea
69.163.214.135,4,46,karmel.com,US,Americas,Northern America,United States of America,California,,Brea
69.163.253.198,4,9,katzeyeoptics.com,US,Americas,Northern America,United States of America,California,,Brea
69.163.208.155,4,15,keeptalkinggame.com,US,Americas,Northern America,United States of America,California,,Brea
69.163.133.212,4,-232,kindertrauma.com,US,Americas,Northern America,United States of America,California,,Brea
69.163.177.168,4,8,kingthrillgore.name,US,Americas,Northern America,United States of America,California,,Brea
69.163.183.104,4,9,kirbycenter.org,US,Americas,Northern America,United States of America,California,,Brea
69.163.237.42,4,10,klickstreet.com,US,Americas,Northern America,United States of America,California,,Brea
69.163.207.11,4,25,knoxfocus.com,US,Americas,Northern America,United States of America,California,,Brea
69.163.187.3,4,23,kreegermuseum.org,US,Americas,Northern America,United States of America,California,,Brea
69.163.128.88,4,9,ktpress.rw,US,Americas,Northern America,United States of America,California,,Brea
69.163.179.96,4,7,kyngchaos.com,US,Americas,Northern America,United States of America,California,,Brea
69.163.198.181,4,10,kyotojournal.org,US,Americas,Northern America,United States of America,California,,Brea
69.163.180.25,4,9,labinthewild.org,US,Americas,Northern America,United States of America,California,,Brea
69.163.181.221,4,33,labix.org,US,Americas,Northern America,United States of America,California,,Brea
69.163.149.198,4,18,labyrinthinc.com,US,Americas,Northern America,United States of America,California,,Brea
69.163.245.16,4,7,lakeblackshearresort.com,US,Americas,Northern America,United States of America,California,,Brea
69.163.131.160,4,866,laluzdejesus.com,US,Americas,Northern America,United States of America,California,,Brea
69.163.129.207,4,576,lasallecorrections.com,US,Americas,Northern America,United States of America,California,,Brea
69.163.206.161,4,3327,lawschool.life,US,Americas,Northern America,United States of America,California,,Brea
69.163.180.202,4,7,lcdp.org,US,Americas,Northern America,United States of America,California,,Brea
69.163.183.201,4,22,learnmorsecode.com,US,Americas,Northern America,United States of America,California,,Brea
69.163.178.175,4,52,lee.org,US,Americas,Northern America,United States of America,California,,Brea
69.163.183.163,4,17,lemurreserve.org,US,Americas,Northern America,United States of America,California,,Brea
69.163.182.3,4,7,lettercult.com,US,Americas,Northern America,United States of America,California,,Brea
69.163.179.202,4,-346,lgbpsychology.org,US,Americas,Northern America,United States of America,California,,Brea
69.163.177.107,4,30,lightingrumours.com,US,Americas,Northern America,United States of America,California,,Brea
69.163.182.75,4,12,lightstalkers.org,US,Americas,Northern America,United States of America,California,,Brea
69.163.179.251,4,6,link1.com,US,Americas,Northern America,United States of America,California,,Brea
69.163.181.184,4,7,linkeddata.org,US,Americas,Northern America,United States of America,California,,Brea
69.163.143.134,4,21,linuxcnc.org,US,Americas,Northern America,United States of America,California,,Brea
69.163.185.191,4,-11,linuxgrrl.com,US,Americas,Northern America,United States of America,California,,Brea
69.163.128.2,4,12,linuxlinks.com,US,Americas,Northern America,United States of America,California,,Brea
69.163.142.255,4,10,liquidninja.com,US,Americas,Northern America,United States of America,California,,Brea
69.163.129.71,4,36,literary-agents.com,US,Americas,Northern America,United States of America,California,,Brea
69.163.134.31,4,29,literaryagencies.com,US,Americas,Northern America,United States of America,California,,Brea
69.163.185.47,4,57,literatureandlatte.com,US,Americas,Northern America,United States of America,California,,Brea
69.163.178.32,4,-273,littlebabysicecream.com,US,Americas,Northern America,United States of America,California,,Brea
69.163.200.31,4,9,littleoslo.com,US,Americas,Northern America,United States of America,California,,Brea
69.163.239.239,4,8,livethroughthis.org,US,Americas,Northern America,United States of America,California,,Brea
69.163.145.155,4,8,loomisgreene.com,US,Americas,Northern America,United States of America,California,,Brea
69.163.130.156,4,19,loosewireblog.com,US,Americas,Northern America,United States of America,California,,Brea
69.163.150.71,4,41,loppet.org,US,Americas,Northern America,United States of America,California,,Brea
69.163.194.8,4,48,lotusvibes.com,US,Americas,Northern America,United States of America,California,,Brea
69.163.178.194,4,10,lowculture.com,US,Americas,Northern America,United States of America,California,,Brea
69.163.210.147,4,15,lsecities.net,US,Americas,Northern America,United States of America,California,,Brea
69.163.180.115,4,9,machetesoft.com,US,Americas,Northern America,United States of America,California,,Brea
69.163.179.114,4,0,madisonfamily.info,US,Americas,Northern America,United States of America,California,,Brea
69.163.247.56,4,10,mainenewsonline.com,US,Americas,Northern America,United States of America,California,,Brea
69.163.181.135,4,10,malevole.com,US,Americas,Northern America,United States of America,California,,Brea
69.163.214.123,4,42,mane6.com,US,Americas,Northern America,United States of America,California,,Brea
69.163.186.74,4,39,manresarestaurant.com,US,Americas,Northern America,United States of America,California,,Brea
69.163.245.144,4,47,marclaidlaw.com,US,Americas,Northern America,United States of America,California,,Brea
69.163.182.6,4,53,marklyon.org,US,Americas,Northern America,United States of America,California,,Brea
69.163.211.227,4,14,marpaihealth.com,US,Americas,Northern America,United States of America,California,,Brea
69.163.176.88,4,107,marsnews.com,US,Americas,Northern America,United States of America,California,,Brea
69.163.179.64,4,68,massignani.it,US,Americas,Northern America,United States of America,California,,Brea
69.163.253.65,4,17,matthiasson.com,US,Americas,Northern America,United States of America,California,,Brea
69.163.185.246,4,10,maybole.org,US,Americas,Northern America,United States of America,California,,Brea
69.163.246.119,4,15,mbhci.org,US,Americas,Northern America,United States of America,California,,Brea
69.163.134.148,4,8,mcintyrelaw.com,US,Americas,Northern America,United States of America,California,,Brea
69.163.248.202,4,24,mdfilmfest.com,US,Americas,Northern America,United States of America,California,,Brea
69.163.138.19,4,53,medb.org,US,Americas,Northern America,United States of America,California,,Brea
69.163.132.204,4,46,medicare4all.org,US,Americas,Northern America,United States of America,California,,Brea
69.163.209.242,4,8,meic.org,US,Americas,Northern America,United States of America,California,,Brea
69.163.200.240,4,28,membranes.com,US,Americas,Northern America,United States of America,California,,Brea
69.163.254.180,4,8,mercylounge.com,US,Americas,Northern America,United States of America,California,,Brea
69.163.186.79,4,7,mermagblog.com,US,Americas,Northern America,United States of America,California,,Brea
69.163.247.180,4,7,mhf-mag.com,US,Americas,Northern America,United States of America,California,,Brea
69.163.211.127,4,9,micromd.com,US,Americas,Northern America,United States of America,California,,Brea
69.163.210.160,4,8,midwestrenew.org,US,Americas,Northern America,United States of America,California,,Brea
69.163.178.234,4,10,mindymcadams.com,US,Americas,Northern America,United States of America,California,,Brea
69.163.183.208,4,6,misha-and-puff.com,US,Americas,Northern America,United States of America,California,,Brea
69.163.142.246,4,33,missioncreep.com,US,Americas,Northern America,United States of America,California,,Brea
69.163.255.58,4,21,mitc.com,US,Americas,Northern America,United States of America,California,,Brea
69.163.176.166,4,8,mobilexweb.com,US,Americas,Northern America,United States of America,California,,Brea
69.163.181.33,4,16,modernthings.org,US,Americas,Northern America,United States of America,California,,Brea
69.163.145.238,4,6,moneytaskforce.com,US,Americas,Northern America,United States of America,California,,Brea
69.163.176.255,4,7,mooseyard.com,US,Americas,Northern America,United States of America,California,,Brea
69.163.214.154,4,36,moreplatesmoredates.com,US,Americas,Northern America,United States of America,California,,Brea
69.163.249.142,4,43,motorcycletraining.us,US,Americas,Northern America,United States of America,California,,Brea
69.163.212.6,4,26,movetocambodia.com,US,Americas,Northern America,United States of America,California,,Brea
69.163.197.191,4,9,moxieinstitute.com,US,Americas,Northern America,United States of America,California,,Brea
69.163.178.66,4,6,much-ado.net,US,Americas,Northern America,United States of America,California,,Brea
69.163.236.89,4,9,murl.com,US,Americas,Northern America,United States of America,California,,Brea
69.163.239.80,4,9,muscleprodigy.com,US,Americas,Northern America,United States of America,California,,Brea
69.163.236.238,4,11,mwelab.com,US,Americas,Northern America,United States of America,California,,Brea
69.163.151.118,4,25,mygermanyvacation.com,US,Americas,Northern America,United States of America,California,,Brea
69.163.177.18,4,13,mypcmag.com,US,Americas,Northern America,United States of America,California,,Brea
69.163.135.103,4,34,myresourcecenter.org,US,Americas,Northern America,United States of America,California,,Brea
69.163.133.97,4,9,myweekendkitchen.in,US,Americas,Northern America,United States of America,California,,Brea
69.163.177.169,4,23,nakedwhiz.com,US,Americas,Northern America,United States of America,California,,Brea
69.163.246.54,4,9,nationalhomeless.org,US,Americas,Northern America,United States of America,California,,Brea
69.163.238.24,4,14,nationalphilharmonic.org,US,Americas,Northern America,United States of America,California,,Brea
69.163.137.79,4,15,ndoherty.com,US,Americas,Northern America,United States of America,California,,Brea
69.163.248.189,4,16,nerdbear.com,US,Americas,Northern America,United States of America,California,,Brea
69.163.131.170,4,31,netwellness.org,US,Americas,Northern America,United States of America,California,,Brea
69.163.253.124,4,11,newmars.com,US,Americas,Northern America,United States of America,California,,Brea
69.163.186.141,4,5,newmindspace.com,US,Americas,Northern America,United States of America,California,,Brea
69.163.147.114,4,9,nextbite.io,US,Americas,Northern America,United States of America,California,,Brea
69.163.148.166,4,16,niceridemn.org,US,Americas,Northern America,United States of America,California,,Brea
69.163.128.16,4,165,nicfraternity.org,US,Americas,Northern America,United States of America,California,,Brea
69.163.249.54,4,20,nicolasjaar.net,US,Americas,Northern America,United States of America,California,,Brea
69.163.182.46,4,21,nicubunu.ro,US,Americas,Northern America,United States of America,California,,Brea
69.163.210.48,4,7,nightingaledvs.com,US,Americas,Northern America,United States of America,California,,Brea
69.163.141.179,4,5,nihongoresources.com,US,Americas,Northern America,United States of America,California,,Brea
69.163.132.97,4,0,ninasimone.com,US,Americas,Northern America,United States of America,California,,Brea
69.163.179.87,4,7,nitronic-rush.com,US,Americas,Northern America,United States of America,California,,Brea
69.163.181.245,4,8,no-intro.org,US,Americas,Northern America,United States of America,California,,Brea
69.163.215.130,4,7,nomv.org,US,Americas,Northern America,United States of America,California,,Brea
69.163.183.161,4,11,normanet.ne.jp,US,Americas,Northern America,United States of America,California,,Brea
69.163.249.114,4,9,northernway.org,US,Americas,Northern America,United States of America,California,,Brea
69.163.246.193,4,18,notebooksapp.com,US,Americas,Northern America,United States of America,California,,Brea
69.163.140.54,4,40,nothings.org,US,Americas,Northern America,United States of America,California,,Brea
69.163.183.53,4,32,novalis.org,US,Americas,Northern America,United States of America,California,,Brea
69.163.180.49,4,0,novarata.net,US,Americas,Northern America,United States of America,California,,Brea
69.163.143.2,4,9,number2.com,US,Americas,Northern America,United States of America,California,,Brea
69.163.149.92,4,7,nursingclio.org,US,Americas,Northern America,United States of America,California,,Brea
69.163.236.80,4,7,nwpb.org,US,Americas,Northern America,United States of America,California,,Brea
69.163.131.133,4,7,nyccriminallawyer.com,US,Americas,Northern America,United States of America,California,,Brea
69.163.187.129,4,12,nylcv.org,US,Americas,Northern America,United States of America,California,,Brea
69.163.215.10,4,5,oakhill.com,US,Americas,Northern America,United States of America,California,,Brea
69.163.177.127,4,7,oaklandanimalservices.org,US,Americas,Northern America,United States of America,California,,Brea
69.163.140.40,4,8,oceanvoyagesinstitute.org,US,Americas,Northern America,United States of America,California,,Brea
69.163.209.143,4,17,octa-trails.org,US,Americas,Northern America,United States of America,California,,Brea
69.163.176.91,4,13,odannyboy.com,US,Americas,Northern America,United States of America,California,,Brea
69.163.178.110,4,10,officialcitysites.org,US,Americas,Northern America,United States of America,California,,Brea
69.163.143.5,4,50,olana.org,US,Americas,Northern America,United States of America,California,,Brea
69.163.176.189,4,-283,olavsplates.com,US,Americas,Northern America,United States of America,California,,Brea
69.163.203.88,4,8,oldstrathcona.ca,US,Americas,Northern America,United States of America,California,,Brea
69.163.253.174,4,15,olegvolk.net,US,Americas,Northern America,United States of America,California,,Brea
69.163.252.18,4,18,omrg.org,US,Americas,Northern America,United States of America,California,,Brea
69.163.177.33,4,7,onefrugalgirl.com,US,Americas,Northern America,United States of America,California,,Brea
69.163.177.53,4,25,oogaboogastore.com,US,Americas,Northern America,United States of America,California,,Brea
69.163.181.120,4,8,opencircuits.com,US,Americas,Northern America,United States of America,California,,Brea
69.163.178.31,4,104,openmolecules.net,US,Americas,Northern America,United States of America,California,,Brea
69.163.183.244,4,13,openrbl.org,US,Americas,Northern America,United States of America,California,,Brea
69.163.180.65,4,-220,optipess.com,US,Americas,Northern America,United States of America,California,,Brea
69.163.132.16,4,15,orartswatch.org,US,Americas,Northern America,United States of America,California,,Brea
69.163.184.253,4,6,otherthings.com,US,Americas,Northern America,United States of America,California,,Brea
69.163.144.232,4,6,outspokenmedia.com,US,Americas,Northern America,United States of America,California,,Brea
69.163.180.204,4,31,paleodiet.com,US,Americas,Northern America,United States of America,California,,Brea
69.163.182.60,4,9,paleofood.com,US,Americas,Northern America,United States of America,California,,Brea
69.163.130.98,4,29,parsec.media,US,Americas,Northern America,United States of America,California,,Brea
69.163.180.58,4,40,partclone.org,US,Americas,Northern America,United States of America,California,,Brea
69.163.180.155,4,-244,patrickrhone.com,US,Americas,Northern America,United States of America,California,,Brea
69.163.131.42,4,30,paulcomp.com,US,Americas,Northern America,United States of America,California,,Brea
69.163.183.189,4,16,pawfal.org,US,Americas,Northern America,United States of America,California,,Brea
69.163.151.36,4,15,payrange.com,US,Americas,Northern America,United States of America,California,,Brea
69.163.193.10,4,11,pcnw.org,US,Americas,Northern America,United States of America,California,,Brea
69.163.199.201,4,16,peachypalate.com,US,Americas,Northern America,United States of America,California,,Brea
69.163.197.114,4,30,pebbletec.com,US,Americas,Northern America,United States of America,California,,Brea
69.163.143.171,4,6,penelopesplace.net,US,Americas,Northern America,United States of America,California,,Brea
69.163.182.77,4,7,penguinppc.org,US,Americas,Northern America,United States of America,California,,Brea
69.163.180.138,4,24,pentacom.jp,US,Americas,Northern America,United States of America,California,,Brea
69.163.134.213,4,10,pepperplacemarket.com,US,Americas,Northern America,United States of America,California,,Brea
69.163.180.13,4,13,perfectpaws.com,US,Americas,Northern America,United States of America,California,,Brea
69.163.134.76,4,453,pflagnyc.org,US,Americas,Northern America,United States of America,California,,Brea
69.163.177.109,4,25,pharmacyonlinerx.site,US,Americas,Northern America,United States of America,California,,Brea
69.163.130.17,4,6,phillysoccerpage.net,US,Americas,Northern America,United States of America,California,,Brea
69.163.185.23,4,10,philosecurity.org,US,Americas,Northern America,United States of America,California,,Brea
69.163.144.107,4,43,phonelosers.com,US,Americas,Northern America,United States of America,California,,Brea
69.163.132.133,4,31,pifmagazine.com,US,Americas,Northern America,United States of America,California,,Brea
69.163.180.217,4,21,pilotjobsnetwork.com,US,Americas,Northern America,United States of America,California,,Brea
69.163.146.84,4,10,pingminghealth.com,US,Americas,Northern America,United States of America,California,,Brea
69.163.183.155,4,-315,pitapolicy.com,US,Americas,Northern America,United States of America,California,,Brea
69.163.181.209,4,26,planetbollywood.com,US,Americas,Northern America,United States of America,California,,Brea
69.163.179.201,4,28,planetdan.net,US,Americas,Northern America,United States of America,California,,Brea
69.163.178.144,4,3,playdrhutch.com,US,Americas,Northern America,United States of America,California,,Brea
69.163.213.13,4,7,plumbistro.com,US,Americas,Northern America,United States of America,California,,Brea
69.163.140.126,4,13,pluskid.org,US,Americas,Northern America,United States of America,California,,Brea
69.163.210.165,4,18,pmldaily.com,US,Americas,Northern America,United States of America,California,,Brea
69.163.182.173,4,56,poetrynw.org,US,Americas,Northern America,United States of America,California,,Brea
69.163.134.71,4,17,poplarforest.org,US,Americas,Northern America,United States of America,California,,Brea
69.163.148.26,4,20,portlandfarmersmarket.org,US,Americas,Northern America,United States of America,California,,Brea
69.163.214.46,4,45,postroadmag.com,US,Americas,Northern America,United States of America,California,,Brea
69.163.182.226,4,37,powazek.com,US,Americas,Northern America,United States of America,California,,Brea
69.163.182.34,4,7,powerhoof.com,US,Americas,Northern America,United States of America,California,,Brea
69.163.183.109,4,43,pravosudija.net,US,Americas,Northern America,United States of America,California,,Brea
69.163.247.140,4,95,prepcaltrack.com,US,Americas,Northern America,United States of America,California,,Brea
69.163.206.53,4,43,presidio.edu,US,Americas,Northern America,United States of America,California,,Brea
69.163.186.65,4,42,productfoo.com,US,Americas,Northern America,United States of America,California,,Brea
69.163.184.55,4,4,profileinsgroup.com,US,Americas,Northern America,United States of America,California,,Brea
69.163.187.138,4,84,programmermeetdesigner.com,US,Americas,Northern America,United States of America,California,,Brea
69.163.180.165,4,4,progressive-economics.ca,US,Americas,Northern America,United States of America,California,,Brea
69.163.181.104,4,26,protomen.com,US,Americas,Northern America,United States of America,California,,Brea
69.163.206.102,4,3335,psychologistworld.com,US,Americas,Northern America,United States of America,California,,Brea
69.163.147.240,4,7,publicseminar.org,US,Americas,Northern America,United States of America,California,,Brea
69.163.186.63,4,57,puffinfoundation.org,US,Americas,Northern America,United States of America,California,,Brea
69.163.243.123,4,23,pumpingstationone.org,US,Americas,Northern America,United States of America,California,,Brea
69.163.187.152,4,16,purehunger.com,US,Americas,Northern America,United States of America,California,,Brea
69.163.186.57,4,19,purityringthing.com,US,Americas,Northern America,United States of America,California,,Brea
69.163.240.130,4,12,pussers.com,US,Americas,Northern America,United States of America,California,,Brea
69.163.194.243,4,7,qdb.us,US,Americas,Northern America,United States of America,California,,Brea
69.163.182.215,4,17,queenlet.com,US,Americas,Northern America,United States of America,California,,Brea
69.163.182.57,4,34,rachelnabors.com,US,Americas,Northern America,United States of America,California,,Brea
69.163.142.24,4,81,radicati.com,US,Americas,Northern America,United States of America,California,,Brea
69.163.246.77,4,68,radiofree.org,US,Americas,Northern America,United States of America,California,,Brea
69.163.187.235,4,20,raeannkelly.com,US,Americas,Northern America,United States of America,California,,Brea
69.163.177.34,4,23,ranchero.com,US,Americas,Northern America,United States of America,California,,Brea
69.163.178.226,4,38,rario.us,US,Americas,Northern America,United States of America,California,,Brea
69.163.176.128,4,55,raxanreeb.com,US,Americas,Northern America,United States of America,California,,Brea
69.163.185.18,4,8,rbpfex.com.br,US,Americas,Northern America,United States of America,California,,Brea
69.163.148.86,4,14,rcafassociation.ca,US,Americas,Northern America,United States of America,California,,Brea
69.163.177.132,4,10,re-sources.org,US,Americas,Northern America,United States of America,California,,Brea
69.163.151.65,4,32,realgoodeats.ca,US,Americas,Northern America,United States of America,California,,Brea
69.163.178.20,4,10,rebeccaitow.com,US,Americas,Northern America,United States of America,California,,Brea
69.163.243.46,4,11,redcottagechronicles.com,US,Americas,Northern America,United States of America,California,,Brea
69.163.180.145,4,16,rednuht.org,US,Americas,Northern America,United States of America,California,,Brea
69.163.140.169,4,19,repo-opera.com,US,Americas,Northern America,United States of America,California,,Brea
69.163.178.193,4,29,resort.com,US,Americas,Northern America,United States of America,California,,Brea
69.163.142.240,4,43,retinart.net,US,Americas,Northern America,United States of America,California,,Brea
69.163.182.83,4,26,retrojordanssale.com,US,Americas,Northern America,United States of America,California,,Brea
69.163.194.47,4,15,rgd.ca,US,Americas,Northern America,United States of America,California,,Brea
69.163.185.209,4,16,rice-boy.com,US,Americas,Northern America,United States of America,California,,Brea
69.163.179.25,4,33,ridefreefearlessmoney.com,US,Americas,Northern America,United States of America,California,,Brea
69.163.128.38,4,10,risk-show.com,US,Americas,Northern America,United States of America,California,,Brea
69.163.182.164,4,20,ritiriwaz.com,US,Americas,Northern America,United States of America,California,,Brea
69.163.209.146,4,16,rivieratheatre.org,US,Americas,Northern America,United States of America,California,,Brea
69.163.185.91,4,43,roboppy.net,US,Americas,Northern America,United States of America,California,,Brea
69.163.182.33,4,59,rocktumblinghobby.com,US,Americas,Northern America,United States of America,California,,Brea
69.163.131.109,4,53,rodencrater.com,US,Americas,Northern America,United States of America,California,,Brea
69.163.180.95,4,34,rogerblack.com,US,Americas,Northern America,United States of America,California,,Brea
69.163.151.137,4,45,royallhouse.org,US,Americas,Northern America,United States of America,California,,Brea
69.163.207.146,4,8,rrnetwork.org,US,Americas,Northern America,United States of America,California,,Brea
69.163.179.39,4,19,rune-nifelheim.com,US,Americas,Northern America,United States of America,California,,Brea
69.163.254.177,4,25,ruralmom.com,US,Americas,Northern America,United States of America,California,,Brea
69.163.177.50,4,10,ruthreichl.com,US,Americas,Northern America,United States of America,California,,Brea
69.163.211.252,4,7,rwhalf.com,US,Americas,Northern America,United States of America,California,,Brea
69.163.181.43,4,11,sacredfools.org,US,Americas,Northern America,United States of America,California,,Brea
69.163.182.27,4,23,saje.net,US,Americas,Northern America,United States of America,California,,Brea
69.163.183.195,4,7,saladwithsteve.com,US,Americas,Northern America,United States of America,California,,Brea
69.163.181.161,4,24,salecalc.com,US,Americas,Northern America,United States of America,California,,Brea
69.163.178.56,4,29,sandboxgamemaker.com,US,Americas,Northern America,United States of America,California,,Brea
69.163.187.88,4,13,saner.gy,US,Americas,Northern America,United States of America,California,,Brea
69.163.178.254,4,6,sb.org,US,Americas,Northern America,United States of America,California,,Brea
69.163.180.182,4,5,sbcvoices.com,US,Americas,Northern America,United States of America,California,,Brea
69.163.185.11,4,19,sciencemeetsfood.org,US,Americas,Northern America,United States of America,California,,Brea
69.163.182.242,4,10,scifijapan.com,US,Americas,Northern America,United States of America,California,,Brea
69.163.186.223,4,9,scifiwright.com,US,Americas,Northern America,United States of America,California,,Brea
69.163.249.161,4,31,scoliosis.org,US,Americas,Northern America,United States of America,California,,Brea
69.163.236.230,4,-40,screamscape.com,US,Americas,Northern America,United States of America,California,,Brea
69.163.186.113,4,9,sdmt.org,US,Americas,Northern America,United States of America,California,,Brea
69.163.213.224,4,43,seattleshakespeare.org,US,Americas,Northern America,United States of America,California,,Brea
69.163.145.131,4,23,secondhelpings.org,US,Americas,Northern America,United States of America,California,,Brea
69.163.142.195,4,20,secularright.org,US,Americas,Northern America,United States of America,California,,Brea
69.163.183.158,4,20,selfshadow.com,US,Americas,Northern America,United States of America,California,,Brea
69.163.185.85,4,24,sequenza21.com,US,Americas,Northern America,United States of America,California,,Brea
69.163.180.226,4,39,serenomiami.com,US,Americas,Northern America,United States of America,California,,Brea
69.163.187.180,4,11,seriesengine.com,US,Americas,Northern America,United States of America,California,,Brea
69.163.181.191,4,42,serioussam.com,US,Americas,Northern America,United States of America,California,,Brea
69.163.179.223,4,8,seriouswheels.com,US,Americas,Northern America,United States of America,California,,Brea
69.163.184.238,4,48,seventhsanctum.com,US,Americas,Northern America,United States of America,California,,Brea
69.163.181.203,4,14,sexdol.shop,US,Americas,Northern America,United States of America,California,,Brea
69.163.178.72,4,8,sfcinematheque.org,US,Americas,Northern America,United States of America,California,,Brea
69.163.206.129,4,3326,sfspiritscomp.com,US,Americas,Northern America,United States of America,California,,Brea
69.163.180.238,4,-222,shakespeare-monologues.org,US,Americas,Northern America,United States of America,California,,Brea
69.163.181.147,4,11,shemezaclouds.com,US,Americas,Northern America,United States of America,California,,Brea
69.163.176.81,4,-50,shin-ibs.edu,US,Americas,Northern America,United States of America,California,,Brea
69.163.211.158,4,11,shrineofremembrance.com,US,Americas,Northern America,United States of America,California,,Brea
69.163.179.127,4,6,shuttersisters.com,US,Americas,Northern America,United States of America,California,,Brea
69.163.145.103,4,45,sichildrensmuseum.org,US,Americas,Northern America,United States of America,California,,Brea
69.163.184.146,4,7,sigcis.org,US,Americas,Northern America,United States of America,California,,Brea
69.163.142.198,4,53,silverspaceship.com,US,Americas,Northern America,United States of America,California,,Brea
69.163.177.37,4,13,simplytiffanychalk.com,US,Americas,Northern America,United States of America,California,,Brea
69.163.142.80,4,7,sindark.com,US,Americas,Northern America,United States of America,California,,Brea
69.163.187.253,4,32,sisterlouisaschurch.com,US,Americas,Northern America,United States of America,California,,Brea
69.163.140.177,4,18,sitchin.com,US,Americas,Northern America,United States of America,California,,Brea
69.163.140.43,4,11,sixorgans.com,US,Americas,Northern America,United States of America,California,,Brea
69.163.148.126,4,11,sixsigmastudyguide.com,US,Americas,Northern America,United States of America,California,,Brea
69.163.179.24,4,57,skingraftrecords.com,US,Americas,Northern America,United States of America,California,,Brea
69.163.210.7,4,6,smallpressexpo.com,US,Americas,Northern America,United States of America,California,,Brea
69.163.180.68,4,35,smash-uk.com,US,Americas,Northern America,United States of America,California,,Brea
69.163.238.232,4,11,smashpages.net,US,Americas,Northern America,United States of America,California,,Brea
69.163.182.254,4,16,smbus.org,US,Americas,Northern America,United States of America,California,,Brea
69.163.178.90,4,-259,smedbergs.us,US,Americas,Northern America,United States of America,California,,Brea
69.163.181.133,4,25,smiletimegh.com,US,Americas,Northern America,United States of America,California,,Brea
69.163.202.88,4,15,snipercentral.com,US,Americas,Northern America,United States of America,California,,Brea
69.163.179.189,4,51,socialmarketingfella.com,US,Americas,Northern America,United States of America,California,,Brea
69.163.184.141,4,29,socialquant.net,US,Americas,Northern America,United States of America,California,,Brea
69.163.140.213,4,31,socialviralworld.com,US,Americas,Northern America,United States of America,California,,Brea
69.163.141.214,4,5,softwaredigitaldownload.com,US,Americas,Northern America,United States of America,California,,Brea
69.163.238.46,4,30,solarviews.com,US,Americas,Northern America,United States of America,California,,Brea
69.163.142.57,4,3,soopermexican.com,US,Americas,Northern America,United States of America,California,,Brea
69.163.182.239,4,9,soundplant.org,US,Americas,Northern America,United States of America,California,,Brea
69.163.135.159,4,213,soundsleeping.com,US,Americas,Northern America,United States of America,California,,Brea
69.163.130.202,4,29,southsideweekly.com,US,Americas,Northern America,United States of America,California,,Brea
69.163.182.163,4,44,specgram.com,US,Americas,Northern America,United States of America,California,,Brea
69.163.179.174,4,14,spiderforest.com,US,Americas,Northern America,United States of America,California,,Brea
69.163.177.88,4,9,spinelessbooks.com,US,Americas,Northern America,United States of America,California,,Brea
69.163.186.91,4,9,splendad.com,US,Americas,Northern America,United States of America,California,,Brea
69.163.252.35,4,64,sportsinsider.com,US,Americas,Northern America,United States of America,California,,Brea
69.163.179.33,4,7,spritestitch.com,US,Americas,Northern America,United States of America,California,,Brea
69.163.183.130,4,-250,staggeringbeauty.com,US,Americas,Northern America,United States of America,California,,Brea
69.163.180.139,4,57,stargate-sg1-solutions.com,US,Americas,Northern America,United States of America,California,,Brea
69.163.181.82,4,7,starwarsminute.com,US,Americas,Northern America,United States of America,California,,Brea
69.163.180.20,4,64,statoids.com,US,Americas,Northern America,United States of America,California,,Brea
69.163.178.139,4,14,steampunkworkshop.com,US,Americas,Northern America,United States of America,California,,Brea
69.163.196.192,4,44,steamworksbrewing.com,US,Americas,Northern America,United States of America,California,,Brea
69.163.180.67,4,8,stephenmalkmus.com,US,Americas,Northern America,United States of America,California,,Brea
69.163.136.50,4,9,stevegarfield.com,US,Americas,Northern America,United States of America,California,,Brea
69.163.177.95,4,10,stevesouders.com,US,Americas,Northern America,United States of America,California,,Brea
69.163.137.199,4,9,stewartlee.co.uk,US,Americas,Northern America,United States of America,California,,Brea
69.163.213.194,4,15,strata-gee.com,US,Americas,Northern America,United States of America,California,,Brea
69.163.186.8,4,30,stripcreator.com,US,Americas,Northern America,United States of America,California,,Brea
69.163.176.77,4,8,stubbornella.org,US,Americas,Northern America,United States of America,California,,Brea
69.163.179.143,4,15,studiocleo.com,US,Americas,Northern America,United States of America,California,,Brea
69.163.179.21,4,16,suddenoakdeath.org,US,Americas,Northern America,United States of America,California,,Brea
69.163.180.228,4,9,sugarfishsushi.com,US,Americas,Northern America,United States of America,California,,Brea
69.163.183.76,4,10,sunniport.com,US,Americas,Northern America,United States of America,California,,Brea
69.163.180.185,4,-220,supercard.sc,US,Americas,Northern America,United States of America,California,,Brea
69.163.180.38,4,-301,superfluousbanter.org,US,Americas,Northern America,United States of America,California,,Brea
69.163.146.16,4,8,svrobo.org,US,Americas,Northern America,United States of America,California,,Brea
69.163.193.71,4,8,symbolhunt.com,US,Americas,Northern America,United States of America,California,,Brea
69.163.184.222,4,7,syntheticbiology.com,US,Americas,Northern America,United States of America,California,,Brea
69.163.176.170,4,11,synthfool.com,US,Americas,Northern America,United States of America,California,,Brea
69.163.203.176,4,3349,tagcrowd.com,US,Americas,Northern America,United States of America,California,,Brea
69.163.177.179,4,16,taylorbranch.com,US,Americas,Northern America,United States of America,California,,Brea
69.163.202.86,4,9,taylormali.com,US,Americas,Northern America,United States of America,California,,Brea
69.163.144.39,4,88,tech-ish.com,US,Americas,Northern America,United States of America,California,,Brea
69.163.181.117,4,9,techfugees.com,US,Americas,Northern America,United States of America,California,,Brea
69.163.177.47,4,6,technoccult.net,US,Americas,Northern America,United States of America,California,,Brea
69.163.243.91,4,7,technogog.com,US,Americas,Northern America,United States of America,California,,Brea
69.163.176.146,4,123,technomancy.us,US,Americas,Northern America,United States of America,California,,Brea
69.163.141.53,4,5,techworksworld.com,US,Americas,Northern America,United States of America,California,,Brea
69.163.181.175,4,46,tedkooser.net,US,Americas,Northern America,United States of America,California,,Brea
69.163.178.7,4,16,tek.zone,US,Americas,Northern America,United States of America,California,,Brea
69.163.198.174,4,13,tellart.com,US,Americas,Northern America,United States of America,California,,Brea
69.163.133.155,4,7,tembici.com.br,US,Americas,Northern America,United States of America,California,,Brea
69.163.181.240,4,-202,terminatorfiles.com,US,Americas,Northern America,United States of America,California,,Brea
69.163.180.252,4,-1,teutonichealing.com,US,Americas,Northern America,United States of America,California,,Brea
69.163.134.158,4,6,texasaft.org,US,Americas,Northern America,United States of America,California,,Brea
69.163.185.240,4,16,texyt.com,US,Americas,Northern America,United States of America,California,,Brea
69.163.183.66,4,6,the-beach-house.com,US,Americas,Northern America,United States of America,California,,Brea
69.163.199.58,4,10,theava.com,US,Americas,Northern America,United States of America,California,,Brea
69.163.238.57,4,17,thebeachcomber.com,US,Americas,Northern America,United States of America,California,,Brea
69.163.148.101,4,7,thebernician.net,US,Americas,Northern America,United States of America,California,,Brea
69.163.252.22,4,9,thebloomingplatter.com,US,Americas,Northern America,United States of America,California,,Brea
69.163.243.92,4,6,thebreadshebakes.com,US,Americas,Northern America,United States of America,California,,Brea
69.163.187.230,4,50,thechieftains.com,US,Americas,Northern America,United States of America,California,,Brea
69.163.181.134,4,49,thechubbyvegetarian.com,US,Americas,Northern America,United States of America,California,,Brea
69.163.144.184,4,55,thecomedybureau.com,US,Americas,Northern America,United States of America,California,,Brea
69.163.205.237,4,32,thecreativemom.com,US,Americas,Northern America,United States of America,California,,Brea
69.163.177.231,4,24,thecubanhistory.com,US,Americas,Northern America,United States of America,California,,Brea
69.163.182.167,4,8,thedrawplay.com,US,Americas,Northern America,United States of America,California,,Brea
69.163.132.182,4,104,theferrett.com,US,Americas,Northern America,United States of America,California,,Brea
69.163.133.179,4,-337,thehouseofsmiths.com,US,Americas,Northern America,United States of America,California,,Brea
69.163.202.65,4,88,theinstructionlimit.com,US,Americas,Northern America,United States of America,California,,Brea
69.163.178.152,4,6,themountaingoats.net,US,Americas,Northern America,United States of America,California,,Brea
69.163.206.245,4,75,thenocturnaltimes.com,US,Americas,Northern America,United States of America,California,,Brea
69.163.196.203,4,8,thenutgraph.com,US,Americas,Northern America,United States of America,California,,Brea
69.163.248.152,4,75,thepaintedhive.net,US,Americas,Northern America,United States of America,California,,Brea
69.163.183.232,4,9,theraveonettes.com,US,Americas,Northern America,United States of America,California,,Brea
69.163.180.180,4,8,therpgsite.com,US,Americas,Northern America,United States of America,California,,Brea
69.163.178.17,4,-239,thesystemis.com,US,Americas,Northern America,United States of America,California,,Brea
69.163.252.97,4,12,thetreemaker.com,US,Americas,Northern America,United States of America,California,,Brea
69.163.236.85,4,14,theuncool.com,US,Americas,Northern America,United States of America,California,,Brea
69.163.244.101,4,15,thewhitebuffalostylingco.com,US,Americas,Northern America,United States of America,California,,Brea
69.163.142.56,4,7,thewondrous.com,US,Americas,Northern America,United States of America,California,,Brea
69.163.179.193,4,16,thingsthatdontmatter.net,US,Americas,Northern America,United States of America,California,,Brea
69.163.147.100,4,30,thisisclassicalguitar.com,US,Americas,Northern America,United States of America,California,,Brea
69.163.238.252,4,21,thisishorror.co.uk,US,Americas,Northern America,United States of America,California,,Brea
69.163.140.209,4,6,thisiswhyyourefat.com,US,Americas,Northern America,United States of America,California,,Brea
69.163.133.178,4,8,thisnation.com,US,Americas,Northern America,United States of America,California,,Brea
69.163.211.24,4,15,thisolemom.com,US,Americas,Northern America,United States of America,California,,Brea
69.163.183.60,4,-232,thomasdolby.com,US,Americas,Northern America,United States of America,California,,Brea
69.163.187.188,4,30,threewordphrase.com,US,Americas,Northern America,United States of America,California,,Brea
69.163.176.224,4,8,thrillingadventurehour.com,US,Americas,Northern America,United States of America,California,,Brea
69.163.183.231,4,15,tigersandstrawberries.com,US,Americas,Northern America,United States of America,California,,Brea
69.163.237.46,4,48,timanderic.com,US,Americas,Northern America,United States of America,California,,Brea
69.163.178.138,4,20,timwu.org,US,Americas,Northern America,United States of America,California,,Brea
69.163.187.156,4,5,toazted.com,US,Americas,Northern America,United States of America,California,,Brea
69.163.142.241,4,5,tokyofotoawards.jp,US,Americas,Northern America,United States of America,California,,Brea
69.163.180.54,4,23,topfunky.com,US,Americas,Northern America,United States of America,California,,Brea
69.163.185.107,4,11,tozaigames.com,US,Americas,Northern America,United States of America,California,,Brea
69.163.186.221,4,14,tracery.io,US,Americas,Northern America,United States of America,California,,Brea
69.163.134.115,4,9,traderjoesreviews.com,US,Americas,Northern America,United States of America,California,,Brea
69.163.252.116,4,26,transfer-me.com,US,Americas,Northern America,United States of America,California,,Brea
69.163.206.154,4,3360,tribecbd.com,US,Americas,Northern America,United States of America,California,,Brea
69.163.202.23,4,8,trickdogbar.com,US,Americas,Northern America,United States of America,California,,Brea
69.163.201.145,4,30,trishsutton.com,US,Americas,Northern America,United States of America,California,,Brea
69.163.183.108,4,20,twinkiechan.com,US,Americas,Northern America,United States of America,California,,Brea
69.163.176.94,4,-244,tylerneylon.com,US,Americas,Northern America,United States of America,California,,Brea
69.163.133.200,4,9,uavionix.com,US,Americas,Northern America,United States of America,California,,Brea
69.163.144.125,4,8,ubqmaterials.com,US,Americas,Northern America,United States of America,California,,Brea
69.163.178.43,4,15,ubuntupocketguide.com,US,Americas,Northern America,United States of America,California,,Brea
69.163.236.243,4,12,ufcw400.org,US,Americas,Northern America,United States of America,California,,Brea
69.163.182.201,4,-11,ultimateoutsider.com,US,Americas,Northern America,United States of America,California,,Brea
69.163.181.150,4,-230,ultrasparky.org,US,Americas,Northern America,United States of America,California,,Brea
69.163.177.212,4,1,umbertoeco.com,US,Americas,Northern America,United States of America,California,,Brea
69.163.212.12,4,6,uncommondesignsonline.com,US,Americas,Northern America,United States of America,California,,Brea
69.163.180.55,4,11,unfiction.com,US,Americas,Northern America,United States of America,California,,Brea
69.163.213.178,4,28,unicoilodge.com,US,Americas,Northern America,United States of America,California,,Brea
69.163.198.16,4,24,unitedbypop.com,US,Americas,Northern America,United States of America,California,,Brea
69.163.177.91,4,12,universityreview.org,US,Americas,Northern America,United States of America,California,,Brea
69.163.186.154,4,10,uoguide.com,US,Americas,Northern America,United States of America,California,,Brea
69.163.138.99,4,8,uscar.org,US,Americas,Northern America,United States of America,California,,Brea
69.163.128.27,4,475,usworker.coop,US,Americas,Northern America,United States of America,California,,Brea
69.163.187.150,4,10,utahrails.net,US,Americas,Northern America,United States of America,California,,Brea
69.163.179.40,4,8,uudb.org,US,Americas,Northern America,United States of America,California,,Brea
69.163.176.237,4,-11,valerieaurora.org,US,Americas,Northern America,United States of America,California,,Brea
69.163.141.247,4,7,valherumud.wiki,US,Americas,Northern America,United States of America,California,,Brea
69.163.248.171,4,7,vanishingtattoo.com,US,Americas,Northern America,United States of America,California,,Brea
69.163.238.80,4,8,vblank.com,US,Americas,Northern America,United States of America,California,,Brea
69.163.180.131,4,12,vdrift.net,US,Americas,Northern America,United States of America,California,,Brea
69.163.183.23,4,50,vector-conversions.com,US,Americas,Northern America,United States of America,California,,Brea
69.163.176.191,4,6,verber.com,US,Americas,Northern America,United States of America,California,,Brea
69.163.187.142,4,18,verysmallarray.com,US,Americas,Northern America,United States of America,California,,Brea
69.163.180.113,4,28,viagra-generics.us,US,Americas,Northern America,United States of America,California,,Brea
69.163.253.169,4,46,victorygirlsblog.com,US,Americas,Northern America,United States of America,California,,Brea
69.163.181.21,4,23,vietnammm.com,US,Americas,Northern America,United States of America,California,,Brea
69.163.187.190,4,-252,villiard.com,US,Americas,Northern America,United States of America,California,,Brea
69.163.245.134,4,10,virtualweberbullet.com,US,Americas,Northern America,United States of America,California,,Brea
69.163.185.152,4,32,viruscomix.com,US,Americas,Northern America,United States of America,California,,Brea
69.163.141.206,4,31,visualeditors.com,US,Americas,Northern America,United States of America,California,,Brea
69.163.129.205,4,28,vitaltalk.org,US,Americas,Northern America,United States of America,California,,Brea
69.163.192.50,4,116,vrtxmag.com,US,Americas,Northern America,United States of America,California,,Brea
69.163.200.67,4,30,vurl.com,US,Americas,Northern America,United States of America,California,,Brea
69.163.141.28,4,12,w140.com,US,Americas,Northern America,United States of America,California,,Brea
69.163.178.237,4,6,waldorfcritics.org,US,Americas,Northern America,United States of America,California,,Brea
69.163.182.234,4,11,warrenzevon.com,US,Americas,Northern America,United States of America,California,,Brea
69.163.183.148,4,33,websnark.com,US,Americas,Northern America,United States of America,California,,Brea
69.163.249.184,4,10,webtitan.com,US,Americas,Northern America,United States of America,California,,Brea
69.163.178.79,4,-220,weft.org,US,Americas,Northern America,United States of America,California,,Brea
69.163.182.65,4,13,welchwrite.com,US,Americas,Northern America,United States of America,California,,Brea
69.163.180.168,4,6,whatbird.com,US,Americas,Northern America,United States of America,California,,Brea
69.163.178.85,4,12,whereswalden.com,US,Americas,Northern America,United States of America,California,,Brea
69.163.238.4,4,8,whiteind.com,US,Americas,Northern America,United States of America,California,,Brea
69.163.180.1,4,28,wholemeltextract.us,US,Americas,Northern America,United States of America,California,,Brea
69.163.178.80,4,10,wibsite.com,US,Americas,Northern America,United States of America,California,,Brea
69.163.180.96,4,12,windosill.com,US,Americas,Northern America,United States of America,California,,Brea
69.163.143.40,4,23,wiscon.net,US,Americas,Northern America,United States of America,California,,Brea
69.163.150.186,4,28,wisdomoftheelders.org,US,Americas,Northern America,United States of America,California,,Brea
69.163.200.7,4,8,withoutmyconsent.org,US,Americas,Northern America,United States of America,California,,Brea
69.163.180.247,4,7,wix.ph,US,Americas,Northern America,United States of America,California,,Brea
69.163.141.185,4,11,wlonk.com,US,Americas,Northern America,United States of America,California,,Brea
69.163.186.186,4,6,wonder-tonic.com,US,Americas,Northern America,United States of America,California,,Brea
69.163.140.42,4,6,works.io,US,Americas,Northern America,United States of America,California,,Brea
69.163.140.102,4,8,worldcantwait.org,US,Americas,Northern America,United States of America,California,,Brea
69.163.180.248,4,7,worldlisteningproject.org,US,Americas,Northern America,United States of America,California,,Brea
69.163.177.165,4,23,writingforward.com,US,Americas,Northern America,United States of America,California,,Brea
69.163.142.189,4,10,wwcd.org,US,Americas,Northern America,United States of America,California,,Brea
69.163.209.180,4,8,xblafans.com,US,Americas,Northern America,United States of America,California,,Brea
69.163.252.88,4,9,xenasecurity.com,US,Americas,Northern America,United States of America,California,,Brea
69.163.179.194,4,3,xp-e.net,US,Americas,Northern America,United States of America,California,,Brea
69.163.183.123,4,10,yang.id.au,US,Americas,Northern America,United States of America,California,,Brea
69.163.182.25,4,9,yellowgorilla.net,US,Americas,Northern America,United States of America,California,,Brea
69.163.183.9,4,8,yescalifornia.org,US,Americas,Northern America,United States of America,California,,Brea
69.163.183.45,4,11,yost.com,US,Americas,Northern America,United States of America,California,,Brea
69.163.176.66,4,13,yoz.com,US,Americas,Northern America,United States of America,California,,Brea
69.163.182.143,4,11,yueliangmama.com,US,Americas,Northern America,United States of America,California,,Brea
69.163.177.131,4,11,zachstronaut.com,US,Americas,Northern America,United States of America,California,,Brea
69.163.193.159,4,14,zapatopi.net,US,Americas,Northern America,United States of America,California,,Brea
69.163.179.95,4,23,zaprava.ru,US,Americas,Northern America,United States of America,California,,Brea
69.163.214.56,4,8,zatznotfunny.com,US,Americas,Northern America,United States of America,California,,Brea
69.163.141.31,4,3,zebbly.com,US,Americas,Northern America,United States of America,California,,Brea
69.163.182.107,4,9,zeek.net,US,Americas,Northern America,United States of America,California,,Brea
69.163.132.1,4,90,zeitoons.com,US,Americas,Northern America,United States of America,California,,Brea
69.163.176.246,4,22,zs4.net,US,Americas,Northern America,United States of America,California,,Brea
69.163.176.105,4,1,zubiaga.org,US,Americas,Northern America,United States of America,California,,Brea
