reflector_ip,ip_version,offset,description,country_code,region,sub_region,country_name,sub_division_1,sub_division_2,city
207.60.57.40,4,-2,18954256981.com,US,Americas,Northern America,United States of America,California,,Rancho Cucamonga
207.60.57.58,4,-2,8399wan.com,US,Americas,Northern America,United States of America,California,,Rancho Cucamonga
207.60.18.62,4,-7,chinacics.org,US,Americas,Northern America,United States of America,California,,Rancho Cucamonga
207.60.57.54,4,-1,ctswshgfgs.com,US,Americas,Northern America,United States of America,California,,Rancho Cucamonga
207.60.57.57,4,-4,dgyuanlin68.com,US,Americas,Northern America,United States of America,California,,Rancho Cucamonga
207.60.57.50,4,-3,funiankang1.com,US,Americas,Northern America,United States of America,California,,Rancho Cucamonga
207.60.57.55,4,-3,haolanhuanke.com,US,Americas,Northern America,United States of America,California,,Rancho Cucamonga
207.60.57.53,4,-3,hnhsxcl.com,US,Americas,Northern America,United States of America,California,,Rancho Cucamonga
207.60.55.167,4,-1,huzi8.net,US,Americas,Northern America,United States of America,California,,Rancho Cucamonga
207.60.57.56,4,-2,hzljkj888.com,US,Americas,Northern America,United States of America,California,,Rancho Cucamonga
207.60.28.169,4,2,indaseg.com,US,Americas,Northern America,United States of America,California,,Rancho Cucamonga
207.60.16.66,4,-7,jiyustore.com,US,Americas,Northern America,United States of America,California,,Rancho Cucamonga
207.60.57.43,4,-2,jizhang0351.com,US,Americas,Northern America,United States of America,California,,Rancho Cucamonga
207.60.16.80,4,-6,jydata.net,US,Americas,Northern America,United States of America,California,,Rancho Cucamonga
207.60.16.73,4,7,kanjiabang.com,US,Americas,Northern America,United States of America,California,,Rancho Cucamonga
207.60.57.51,4,21,lvtuqiyuan.com,US,Americas,Northern America,United States of America,California,,Rancho Cucamonga
207.60.58.31,4,-2,lygaunzism.com,US,Americas,Northern America,United States of America,California,,Rancho Cucamonga
134.173.42.2,4,13,pcg-random.org,US,Americas,Northern America,United States of America,California,,Rancho Cucamonga
207.60.57.42,4,8,pinchao-expo.com,US,Americas,Northern America,United States of America,California,,Rancho Cucamonga
207.60.16.70,4,-5,qiqutianxia.com,US,Americas,Northern America,United States of America,California,,Rancho Cucamonga
207.60.16.67,4,-3,sanyuanoffice.com,US,Americas,Northern America,United States of America,California,,Rancho Cucamonga
207.60.57.47,4,-4,shandongshenbo.com,US,Americas,Northern America,United States of America,California,,Rancho Cucamonga
207.60.59.84,4,12,shengyidi.com,US,Americas,Northern America,United States of America,California,,Rancho Cucamonga
207.60.57.44,4,-3,syjunzhou.com,US,Americas,Northern America,United States of America,California,,Rancho Cucamonga
207.60.57.38,4,0,vibarch.com,US,Americas,Northern America,United States of America,California,,Rancho Cucamonga
207.60.57.48,4,-1,whlvying.com,US,Americas,Northern America,United States of America,California,,Rancho Cucamonga
207.60.57.45,4,-3,xiongmaokaoyu.com,US,Americas,Northern America,United States of America,California,,Rancho Cucamonga
207.60.16.71,4,-7,xjaxcs.com,US,Americas,Northern America,United States of America,California,,Rancho Cucamonga
207.60.57.37,4,1,youdu56.com,US,Americas,Northern America,United States of America,California,,Rancho Cucamonga
207.60.57.52,4,-1,zhengzhou-africa.com,US,Americas,Northern America,United States of America,California,,Rancho Cucamonga
207.60.58.33,4,-2,zhengzhou-chengdu.com,US,Americas,Northern America,United States of America,California,,Rancho Cucamonga
207.60.57.59,4,-1,zhengzhou-eerduosi.com,US,Americas,Northern America,United States of America,California,,Rancho Cucamonga
207.60.58.32,4,-4,zhengzhou-wutaishan.com,US,Americas,Northern America,United States of America,California,,Rancho Cucamonga
207.60.57.46,4,-1,zhongyizhidianxian.com,US,Americas,Northern America,United States of America,California,,Rancho Cucamonga
207.60.24.124,4,-3,zmki.cn,US,Americas,Northern America,United States of America,California,,Rancho Cucamonga
