reflector_ip,ip_version,offset,description,country_code,region,sub_region,country_name,sub_division_1,sub_division_2,city
38.174.224.102,4,325956,000836.com,US,Americas,Northern America,United States of America,California,,Los Angeles
154.85.40.189,4,8,028bbs.com,US,Americas,Northern America,United States of America,California,,Los Angeles
142.171.229.192,4,1,0595yw.cc,US,Americas,Northern America,United States of America,California,,Los Angeles
38.174.79.8,4,2,0710pco.com,US,Americas,Northern America,United States of America,California,,Los Angeles
38.48.203.134,4,4,0985042003.com,US,Americas,Northern America,United States of America,California,,Los Angeles
23.95.33.136,4,3,1069.club,US,Americas,Northern America,United States of America,California,,Los Angeles
38.147.180.42,4,7,115ya.com,US,Americas,Northern America,United States of America,California,,Los Angeles
67.218.130.142,4,7,11ria.com,US,Americas,Northern America,United States of America,California,,Los Angeles
38.61.1.184,4,2115,13mei13.top,US,Americas,Northern America,United States of America,California,,Los Angeles
107.155.127.126,4,7,16valvulas.com.ar,US,Americas,Northern America,United States of America,California,,Los Angeles
206.119.175.36,4,-57666,19881111.cn,US,Americas,Northern America,United States of America,California,,Los Angeles
64.52.108.44,4,2,2000mules.com,US,Americas,Northern America,United States of America,California,,Los Angeles
38.45.127.157,4,10,25871.cc,US,Americas,Northern America,United States of America,California,,Los Angeles
107.167.20.68,4,1,2742bbs.com,US,Americas,Northern America,United States of America,California,,Los Angeles
38.162.66.119,4,-1,33chahs.com,US,Americas,Northern America,United States of America,California,,Los Angeles
128.14.157.240,4,4,3edu.net,US,Americas,Northern America,United States of America,California,,Los Angeles
38.55.112.236,4,6,4globaljobs.com,US,Americas,Northern America,United States of America,California,,Los Angeles
154.40.57.123,4,-1175,518809.com,US,Americas,Northern America,United States of America,California,,Los Angeles
198.12.114.122,4,1,51xxwz.com,US,Americas,Northern America,United States of America,California,,Los Angeles
107.182.23.69,4,3,520bhhqm.com,US,Americas,Northern America,United States of America,California,,Los Angeles
173.242.115.253,4,6,779188.com,US,Americas,Northern America,United States of America,California,,Los Angeles
185.238.250.173,4,-4,863134.com,US,Americas,Northern America,United States of America,California,,Los Angeles
38.84.177.92,4,8,86fag.com,US,Americas,Northern America,United States of America,California,,Los Angeles
38.49.37.3,4,2,9106.net,US,Americas,Northern America,United States of America,California,,Los Angeles
204.44.86.192,4,220,97zjj.com,US,Americas,Northern America,United States of America,California,,Los Angeles
89.116.113.2,4,4,aapspharmaceutica.com,US,Americas,Northern America,United States of America,California,,Los Angeles
35.236.41.141,4,5,abeautifulmind.com,US,Americas,Northern America,United States of America,California,,Los Angeles
34.94.253.108,4,45,academia-lab.com,US,Americas,Northern America,United States of America,California,,Los Angeles
74.48.12.115,4,5,academictips.org,US,Americas,Northern America,United States of America,California,,Los Angeles
66.63.171.254,4,24,admedia.com,US,Americas,Northern America,United States of America,California,,Los Angeles
209.151.236.227,4,4,afsf.com,US,Americas,Northern America,United States of America,California,,Los Angeles
88.218.93.55,4,8,agro-smi.ru,US,Americas,Northern America,United States of America,California,,Los Angeles
173.254.194.202,4,1007,agsearch.us,US,Americas,Northern America,United States of America,California,,Los Angeles
38.60.71.147,4,54,ahsrst.cn,US,Americas,Northern America,United States of America,California,,Los Angeles
38.165.100.77,4,8,alanyacastle.online,US,Americas,Northern America,United States of America,California,,Los Angeles
173.254.204.146,4,482,alencontre.org,US,Americas,Northern America,United States of America,California,,Los Angeles
38.165.111.199,4,21,alibabacan.online,US,Americas,Northern America,United States of America,California,,Los Angeles
38.6.118.17,4,-332904,allblacksvswallabieslive.com,US,Americas,Northern America,United States of America,California,,Los Angeles
69.90.188.54,4,36,allhomeonlinebusiness.com,US,Americas,Northern America,United States of America,California,,Los Angeles
148.135.86.34,4,0,allo.com,US,Americas,Northern America,United States of America,California,,Los Angeles
23.80.216.72,4,10,allthatsparklescleaning.com,US,Americas,Northern America,United States of America,California,,Los Angeles
207.198.108.66,4,46,allusedparts.com,US,Americas,Northern America,United States of America,California,,Los Angeles
198.252.106.245,4,6,antwoordapparaten.com,US,Americas,Northern America,United States of America,California,,Los Angeles
142.171.97.17,4,347,anytxt.net,US,Americas,Northern America,United States of America,California,,Los Angeles
38.49.37.58,4,47,apap.net,US,Americas,Northern America,United States of America,California,,Los Angeles
198.252.106.3,4,23,aplaguetale.com,US,Americas,Northern America,United States of America,California,,Los Angeles
64.188.5.2,4,37,apple.pro,US,Americas,Northern America,United States of America,California,,Los Angeles
154.17.4.71,4,-1,aralia.com,US,Americas,Northern America,United States of America,California,,Los Angeles
72.51.43.139,4,111,arcataeye.com,US,Americas,Northern America,United States of America,California,,Los Angeles
38.61.13.24,4,4991,arktechcn.com,US,Americas,Northern America,United States of America,California,,Los Angeles
172.233.137.208,4,32,arounddeal.com,US,Americas,Northern America,United States of America,California,,Los Angeles
208.79.89.246,4,7,arpnetworks.com,US,Americas,Northern America,United States of America,California,,Los Angeles
162.254.36.115,4,10,artrocker.tv,US,Americas,Northern America,United States of America,California,,Los Angeles
64.110.26.202,4,0,ashforkland.com,US,Americas,Northern America,United States of America,California,,Los Angeles
23.92.53.206,4,0,asiame.reviews,US,Americas,Northern America,United States of America,California,,Los Angeles
144.34.197.187,4,4,asiarfid.com,US,Americas,Northern America,United States of America,California,,Los Angeles
69.12.68.218,4,918,asic-world.com,US,Americas,Northern America,United States of America,California,,Los Angeles
38.165.111.196,4,48,aspendostheatre.online,US,Americas,Northern America,United States of America,California,,Los Angeles
23.237.72.202,4,6,asrn.org,US,Americas,Northern America,United States of America,California,,Los Angeles
38.165.111.197,4,0,atincnukan.online,US,Americas,Northern America,United States of America,California,,Los Angeles
142.171.61.26,4,-454,atn.com.au,US,Americas,Northern America,United States of America,California,,Los Angeles
96.44.131.250,4,764,audiocontrol.com,US,Americas,Northern America,United States of America,California,,Los Angeles
69.174.251.114,4,35,automotix.net,US,Americas,Northern America,United States of America,California,,Los Angeles
64.34.127.122,4,43,autopartsfair.com,US,Americas,Northern America,United States of America,California,,Los Angeles
174.136.99.130,4,17,av8n.com,US,Americas,Northern America,United States of America,California,,Los Angeles
162.254.37.161,4,45,avona.org,US,Americas,Northern America,United States of America,California,,Los Angeles
192.3.159.70,4,2,axiontech.com,US,Americas,Northern America,United States of America,California,,Los Angeles
176.122.138.150,4,752619,axios-js.com,US,Americas,Northern America,United States of America,California,,Los Angeles
38.165.99.77,4,5,ayvansaraystreet.online,US,Americas,Northern America,United States of America,California,,Los Angeles
38.6.207.209,4,-6,ayxwlst.cn,US,Americas,Northern America,United States of America,California,,Los Angeles
89.117.134.190,4,5,backsettings.com,US,Americas,Northern America,United States of America,California,,Los Angeles
38.63.24.123,4,15,baidut.cn,US,Americas,Northern America,United States of America,California,,Los Angeles
149.28.67.71,4,7,ballisticparts.com,US,Americas,Northern America,United States of America,California,,Los Angeles
38.63.206.148,4,6,baojian520.com,US,Americas,Northern America,United States of America,California,,Los Angeles
66.154.123.10,4,754,barefootstudent.com,US,Americas,Northern America,United States of America,California,,Los Angeles
38.174.251.125,4,325950,bbhshipyard.com,US,Americas,Northern America,United States of America,California,,Los Angeles
45.32.81.241,4,29,bbsdev.net,US,Americas,Northern America,United States of America,California,,Los Angeles
38.174.250.72,4,325948,bdgyyx.com,US,Americas,Northern America,United States of America,California,,Los Angeles
216.205.154.98,4,7,beerknurd.com,US,Americas,Northern America,United States of America,California,,Los Angeles
165.154.173.109,4,-1857,beloader.com,US,Americas,Northern America,United States of America,California,,Los Angeles
69.12.87.138,4,8,beneficialbotanicals.com,US,Americas,Northern America,United States of America,California,,Los Angeles
69.12.73.114,4,21,bestofsicily.com,US,Americas,Northern America,United States of America,California,,Los Angeles
198.252.107.177,4,8,bestvibratorsformen.com,US,Americas,Northern America,United States of America,California,,Los Angeles
96.44.133.2,4,89,binghamuni.edu.ng,US,Americas,Northern America,United States of America,California,,Los Angeles
104.238.249.36,4,-30943369,birthdaypartyideas.com,US,Americas,Northern America,United States of America,California,,Los Angeles
67.215.246.202,4,510,bittorrent.org,US,Americas,Northern America,United States of America,California,,Los Angeles
207.246.106.59,4,-1,bjango.com,US,Americas,Northern America,United States of America,California,,Los Angeles
148.135.16.205,4,2,bjstsc.com,US,Americas,Northern America,United States of America,California,,Los Angeles
204.44.86.21,4,217,bjxhyydghw.com,US,Americas,Northern America,United States of America,California,,Los Angeles
66.165.237.221,4,44,blogpros.com,US,Americas,Northern America,United States of America,California,,Los Angeles
74.48.27.144,4,19,book345.com,US,Americas,Northern America,United States of America,California,,Los Angeles
173.242.117.74,4,12,booklink.me,US,Americas,Northern America,United States of America,California,,Los Angeles
104.168.27.0,4,40,boot2docker.io,US,Americas,Northern America,United States of America,California,,Los Angeles
64.31.61.189,4,5,borntoblog.in,US,Americas,Northern America,United States of America,California,,Los Angeles
23.82.253.146,4,24,bosruiters.com,US,Americas,Northern America,United States of America,California,,Los Angeles
104.207.154.231,4,3,boxthemes.net,US,Americas,Northern America,United States of America,California,,Los Angeles
38.60.90.18,4,4,bqpu.net,US,Americas,Northern America,United States of America,California,,Los Angeles
64.34.205.58,4,5115,breakintochat.com,US,Americas,Northern America,United States of America,California,,Los Angeles
173.254.242.74,4,1,bridgeschool.org,US,Americas,Northern America,United States of America,California,,Los Angeles
35.236.67.136,4,29,bronx-injury-lawyers.com,US,Americas,Northern America,United States of America,California,,Los Angeles
66.155.40.165,4,0,browsehappy.com,US,Americas,Northern America,United States of America,California,,Los Angeles
74.48.31.210,4,6,bry.com,US,Americas,Northern America,United States of America,California,,Los Angeles
64.185.234.195,4,5,bsd.network,US,Americas,Northern America,United States of America,California,,Los Angeles
194.124.244.30,4,6,budgetvm.com,US,Americas,Northern America,United States of America,California,,Los Angeles
108.61.206.78,4,29,building--block.com,US,Americas,Northern America,United States of America,California,,Los Angeles
38.165.98.77,4,31,bulentuygun.online,US,Americas,Northern America,United States of America,California,,Los Angeles
46.21.150.242,4,3,burnaware.com,US,Americas,Northern America,United States of America,California,,Los Angeles
142.171.232.36,4,71,burningsea.com,US,Americas,Northern America,United States of America,California,,Los Angeles
162.244.241.15,4,3,bwh81.net,US,Americas,Northern America,United States of America,California,,Los Angeles
38.63.24.182,4,2,bzetly.com,US,Americas,Northern America,United States of America,California,,Los Angeles
74.48.156.42,4,28,calbizjournal.com,US,Americas,Northern America,United States of America,California,,Los Angeles
23.82.164.56,4,45,canadianxldrugstore.com,US,Americas,Northern America,United States of America,California,,Los Angeles
205.234.232.127,4,30,casinoonlineww.com,US,Americas,Northern America,United States of America,California,,Los Angeles
206.119.179.184,4,11757,caster.hk,US,Americas,Northern America,United States of America,California,,Los Angeles
192.154.231.174,4,1280,castlekalwar.com,US,Americas,Northern America,United States of America,California,,Los Angeles
108.181.20.35,4,16,catbox.moe,US,Americas,Northern America,United States of America,California,,Los Angeles
172.235.49.91,4,12,cathyduffyreviews.com,US,Americas,Northern America,United States of America,California,,Los Angeles
23.225.77.233,4,5,ccvic.com,US,Americas,Northern America,United States of America,California,,Los Angeles
38.174.73.189,4,0,cdkmr.com,US,Americas,Northern America,United States of America,California,,Los Angeles
155.94.204.131,4,101,cdrfr.cn,US,Americas,Northern America,United States of America,California,,Los Angeles
64.62.251.159,4,4,cdws.us,US,Americas,Northern America,United States of America,California,,Los Angeles
38.165.100.76,4,40,cemilcicek.online,US,Americas,Northern America,United States of America,California,,Los Angeles
38.165.100.92,4,8,cezayirstreet.online,US,Americas,Northern America,United States of America,California,,Los Angeles
38.28.201.133,4,-2,cfyyfk.com,US,Americas,Northern America,United States of America,California,,Los Angeles
38.28.201.59,4,3,cfyyxc.com,US,Americas,Northern America,United States of America,California,,Los Angeles
174.136.109.18,4,7083,chair6.net,US,Americas,Northern America,United States of America,California,,Los Angeles
199.168.114.96,4,27,chas.org,US,Americas,Northern America,United States of America,California,,Los Angeles
192.210.166.179,4,13,cheap-rayban.com.co,US,Americas,Northern America,United States of America,California,,Los Angeles
38.162.65.184,4,2,chenqiujianqi.com,US,Americas,Northern America,United States of America,California,,Los Angeles
38.11.206.12,4,3,chentongfangshui.com,US,Americas,Northern America,United States of America,California,,Los Angeles
74.48.104.40,4,5,chinadevelopmentbrief.org,US,Americas,Northern America,United States of America,California,,Los Angeles
38.55.12.60,4,-1,chinagwyw.org,US,Americas,Northern America,United States of America,California,,Los Angeles
66.103.196.77,4,8,chinamartyrs.gov.cn,US,Americas,Northern America,United States of America,California,,Los Angeles
185.186.146.225,4,-10,chinesecj.com,US,Americas,Northern America,United States of America,California,,Los Angeles
66.155.58.236,4,0,chisham.com,US,Americas,Northern America,United States of America,California,,Los Angeles
118.193.77.156,4,3,chisonsonoeye.com,US,Americas,Northern America,United States of America,California,,Los Angeles
64.69.32.96,4,0,chksgy.com,US,Americas,Northern America,United States of America,California,,Los Angeles
142.171.121.178,4,4459,choosephilippines.com,US,Americas,Northern America,United States of America,California,,Los Angeles
38.33.73.40,4,4,choosevpn.net,US,Americas,Northern America,United States of America,California,,Los Angeles
38.165.111.212,4,6,choramuseum.online,US,Americas,Northern America,United States of America,California,,Los Angeles
98.143.146.67,4,0,christianfilipina.com,US,Americas,Northern America,United States of America,California,,Los Angeles
108.61.216.101,4,12,chunk9.top,US,Americas,Northern America,United States of America,California,,Los Angeles
64.34.204.69,4,0,cialisees.com,US,Americas,Northern America,United States of America,California,,Los Angeles
154.40.54.184,4,9548,cikeblog.com,US,Americas,Northern America,United States of America,California,,Los Angeles
64.31.6.2,4,3,classicmoviehub.com,US,Americas,Northern America,United States of America,California,,Los Angeles
38.11.169.143,4,9,clhyjbz.com,US,Americas,Northern America,United States of America,California,,Los Angeles
142.171.97.55,4,331,client-diesel.com,US,Americas,Northern America,United States of America,California,,Los Angeles
208.123.118.252,4,4,clipzdownloader.com,US,Americas,Northern America,United States of America,California,,Los Angeles
192.0.123.238,4,10,cloudup.com,US,Americas,Northern America,United States of America,California,,Los Angeles
192.0.123.239,4,4,cloudup.com,US,Americas,Northern America,United States of America,California,,Los Angeles
107.167.17.42,4,10,cn2che.com,US,Americas,Northern America,United States of America,California,,Los Angeles
38.49.56.84,4,2,cn2che.com,US,Americas,Northern America,United States of America,California,,Los Angeles
173.242.120.123,4,8,cncode.com,US,Americas,Northern America,United States of America,California,,Los Angeles
104.238.140.188,4,5,cnpack.org,US,Americas,Northern America,United States of America,California,,Los Angeles
94.100.23.82,4,7,corabuhlert.com,US,Americas,Northern America,United States of America,California,,Los Angeles
38.55.20.64,4,-1,cqgdsh.org,US,Americas,Northern America,United States of America,California,,Los Angeles
38.45.122.76,4,1,cqjiabo.com,US,Americas,Northern America,United States of America,California,,Los Angeles
149.28.78.177,4,10,crackap.com,US,Americas,Northern America,United States of America,California,,Los Angeles
149.255.35.26,4,4,craftbreeders.com,US,Americas,Northern America,United States of America,California,,Los Angeles
144.202.126.228,4,15,crestviewrecovery.com,US,Americas,Northern America,United States of America,California,,Los Angeles
45.32.89.165,4,14,crigan.us,US,Americas,Northern America,United States of America,California,,Los Angeles
64.62.251.58,4,3,cuindependent.com,US,Americas,Northern America,United States of America,California,,Los Angeles
35.215.108.58,4,10,culips.com,US,Americas,Northern America,United States of America,California,,Los Angeles
66.42.109.250,4,12,culturedfoodlife.com,US,Americas,Northern America,United States of America,California,,Los Angeles
38.165.111.195,4,7,cumhuriyetstreet.online,US,Americas,Northern America,United States of America,California,,Los Angeles
69.172.229.4,4,-2,d-n-i.net,US,Americas,Northern America,United States of America,California,,Los Angeles
185.197.30.201,4,-2,d.sb,US,Americas,Northern America,United States of America,California,,Los Angeles
34.94.248.66,4,3,dabconnection.com,US,Americas,Northern America,United States of America,California,,Los Angeles
23.80.216.103,4,5,dachanghu.com,US,Americas,Northern America,United States of America,California,,Los Angeles
154.85.52.71,4,37,daikuanren.com,US,Americas,Northern America,United States of America,California,,Los Angeles
173.254.195.226,4,820,dallaslibrary2.org,US,Americas,Northern America,United States of America,California,,Los Angeles
38.38.11.18,4,3,daoyimedia.com,US,Americas,Northern America,United States of America,California,,Los Angeles
38.63.252.32,4,163,datingservicesonline.net,US,Americas,Northern America,United States of America,California,,Los Angeles
66.165.238.101,4,6,dayoftheweek.org,US,Americas,Northern America,United States of America,California,,Los Angeles
23.19.200.84,4,26,dayufish.com,US,Americas,Northern America,United States of America,California,,Los Angeles
74.63.233.143,4,3,dayzunderground.com,US,Americas,Northern America,United States of America,California,,Los Angeles
104.255.172.237,4,-1,deadlinelive.info,US,Americas,Northern America,United States of America,California,,Los Angeles
38.63.132.170,4,16,dearaycn.com,US,Americas,Northern America,United States of America,California,,Los Angeles
38.177.197.36,4,-32838,deedeetech.net,US,Americas,Northern America,United States of America,California,,Los Angeles
38.165.100.72,4,52,defnesamyeli.online,US,Americas,Northern America,United States of America,California,,Los Angeles
142.171.183.174,4,7,demaxde.com,US,Americas,Northern America,United States of America,California,,Los Angeles
38.63.255.59,4,3,demetozdemir.online,US,Americas,Northern America,United States of America,California,,Los Angeles
198.252.106.244,4,6,dev47apps.com,US,Americas,Northern America,United States of America,California,,Los Angeles
172.233.147.252,4,1,dfsa.dk,US,Americas,Northern America,United States of America,California,,Los Angeles
38.55.40.193,4,-3,dgcaiduo.com,US,Americas,Northern America,United States of America,California,,Los Angeles
64.31.61.165,4,4,dgmarkets.uk,US,Americas,Northern America,United States of America,California,,Los Angeles
142.171.70.148,4,0,dhobi.win,US,Americas,Northern America,United States of America,California,,Los Angeles
179.61.199.2,4,35,dhrubo.com.bd,US,Americas,Northern America,United States of America,California,,Los Angeles
23.19.200.82,4,6,diaoyurenjiaoliuhui.com,US,Americas,Northern America,United States of America,California,,Los Angeles
64.34.250.93,4,-1,digipedia.pl,US,Americas,Northern America,United States of America,California,,Los Angeles
38.63.158.226,4,16,dignisoft.com,US,Americas,Northern America,United States of America,California,,Los Angeles
151.101.199.7,4,46,disconnect.blog,US,Americas,Northern America,United States of America,California,,Los Angeles
23.206.229.134,4,2,distro.tv,US,Americas,Northern America,United States of America,California,,Los Angeles
23.206.229.138,4,15,distro.tv,US,Americas,Northern America,United States of America,California,,Los Angeles
108.181.18.143,4,23,dkmanagement.in,US,Americas,Northern America,United States of America,California,,Los Angeles
23.19.200.78,4,5,dltaihao.com,US,Americas,Northern America,United States of America,California,,Los Angeles
76.50.178.230,4,388083,DNS Server: 076-050-178-230.res.spectrum.com,US,Americas,Northern America,United States of America,California,,Los Angeles
207.246.98.123,4,69,DNS Server: 207.246.98.123.vultrusercontent.com,US,Americas,Northern America,United States of America,California,,Los Angeles
23.94.234.130,4,-5,DNS Server: 23-94-234-130-host.colocrossing.com,US,Americas,Northern America,United States of America,California,,Los Angeles
23.95.34.31,4,-20,DNS Server: 23-95-34-31-host.colocrossing.com,US,Americas,Northern America,United States of America,California,,Los Angeles
23.105.222.239,4,6,DNS Server: 23.105.222.239.16clouds.com,US,Americas,Northern America,United States of America,California,,Los Angeles
66.42.98.203,4,57,DNS Server: 66.42.98.203.vultrusercontent.com,US,Americas,Northern America,United States of America,California,,Los Angeles
76.82.118.158,4,-15104,DNS Server: 76-82-118-158.res.spectrum.com,US,Americas,Northern America,United States of America,California,,Los Angeles
209.160.252.138,4,23249,DNS Server: host-209-160-252-138.customer.veroxity.net,US,Americas,Northern America,United States of America,California,,Los Angeles
154.17.5.23,4,8,DNS Server: Host-By.DMIT.com,US,Americas,Northern America,United States of America,California,,Los Angeles
149.28.65.242,4,171,DNS Server: pdns-36.sdp.com,US,Americas,Northern America,United States of America,California,,Los Angeles
98.152.51.220,4,52763,DNS Server: rrcs-98-152-51-220.west.biz.rr.com,US,Americas,Northern America,United States of America,California,,Los Angeles
173.254.229.237,4,831,documentromanesc.com,US,Americas,Northern America,United States of America,California,,Los Angeles
45.76.174.243,4,6,domyhomework.pro,US,Americas,Northern America,United States of America,California,,Los Angeles
144.168.57.100,4,15,drch.top,US,Americas,Northern America,United States of America,California,,Los Angeles
104.255.171.48,4,44,dreambank.net,US,Americas,Northern America,United States of America,California,,Los Angeles
98.143.159.10,4,456,drfunkenberry.com,US,Americas,Northern America,United States of America,California,,Los Angeles
207.246.109.188,4,5,dtoplist.com,US,Americas,Northern America,United States of America,California,,Los Angeles
38.60.95.18,4,22678,dugebitv84.xyz,US,Americas,Northern America,United States of America,California,,Los Angeles
107.167.26.118,4,-446,dy-wzs.cn,US,Americas,Northern America,United States of America,California,,Los Angeles
104.237.11.209,4,6,dynamiclayers.net,US,Americas,Northern America,United States of America,California,,Los Angeles
172.93.46.201,4,4,dzcnc.com,US,Americas,Northern America,United States of America,California,,Los Angeles
45.63.53.216,4,5,e4fc.org,US,Americas,Northern America,United States of America,California,,Los Angeles
192.161.54.12,4,365,eaec.org,US,Americas,Northern America,United States of America,California,,Los Angeles
35.236.20.222,4,15,ebaymotorsblog.com,US,Americas,Northern America,United States of America,California,,Los Angeles
72.11.130.122,4,31,echinacities.com,US,Americas,Northern America,United States of America,California,,Los Angeles
66.42.97.68,4,3,ecoquestfreshair.com,US,Americas,Northern America,United States of America,California,,Los Angeles
64.34.204.213,4,-1,ecuadorianwomendating.com,US,Americas,Northern America,United States of America,California,,Los Angeles
31.220.30.134,4,7052,edepot.com,US,Americas,Northern America,United States of America,California,,Los Angeles
38.63.255.55,4,5,edirnekapistreet.online,US,Americas,Northern America,United States of America,California,,Los Angeles
64.31.61.175,4,4,editorialmash.com,US,Americas,Northern America,United States of America,California,,Los Angeles
193.22.152.43,4,5,ehang.com,US,Americas,Northern America,United States of America,California,,Los Angeles
192.154.230.242,4,1482,electricalgang.com,US,Americas,Northern America,United States of America,California,,Los Angeles
144.34.177.81,4,2,emorpm.com,US,Americas,Northern America,United States of America,California,,Los Angeles
38.165.99.67,4,4,emrebelozoglu.online,US,Americas,Northern America,United States of America,California,,Los Angeles
38.165.111.216,4,5,emrekaya.online,US,Americas,Northern America,United States of America,California,,Los Angeles
38.165.98.86,4,8,emrekilinc.online,US,Americas,Northern America,United States of America,California,,Los Angeles
38.165.111.194,4,2,enginakyurek.online,US,Americas,Northern America,United States of America,California,,Los Angeles
38.165.100.71,4,-1,enginaltanduzyatan.online,US,Americas,Northern America,United States of America,California,,Los Angeles
38.165.111.207,4,5,ephesusmuseum.online,US,Americas,Northern America,United States of America,California,,Los Angeles
38.165.98.78,4,5,erdalinonu.online,US,Americas,Northern America,United States of America,California,,Los Angeles
38.165.111.213,4,44,erolevgin.online,US,Americas,Northern America,United States of America,California,,Los Angeles
38.63.249.34,4,4,esgeneric.space,US,Americas,Northern America,United States of America,California,,Los Angeles
192.154.231.67,4,7,eslgames.com,US,Americas,Northern America,United States of America,California,,Los Angeles
74.48.72.98,4,652,esspecialistcorp.com,US,Americas,Northern America,United States of America,California,,Los Angeles
199.87.211.143,4,3,esstech.com,US,Americas,Northern America,United States of America,California,,Los Angeles
172.93.123.7,4,575,euro-inox.org,US,Americas,Northern America,United States of America,California,,Los Angeles
198.23.242.88,4,-2,evergreenchild.com,US,Americas,Northern America,United States of America,California,,Los Angeles
173.254.218.18,4,260,everythingthathappens.com,US,Americas,Northern America,United States of America,California,,Los Angeles
38.173.130.68,4,1,exbulk.com,US,Americas,Northern America,United States of America,California,,Los Angeles
46.3.113.71,4,752,expreview.com,US,Americas,Northern America,United States of America,California,,Los Angeles
89.116.100.11,4,0,exthem.es,US,Americas,Northern America,United States of America,California,,Los Angeles
47.51.20.212,4,-5,extropy.org,US,Americas,Northern America,United States of America,California,,Los Angeles
74.48.187.140,4,3,eyeonhollywood.com,US,Americas,Northern America,United States of America,California,,Los Angeles
144.34.183.157,4,5,ezylifeglobal.com,US,Americas,Northern America,United States of America,California,,Los Angeles
148.135.75.19,4,18,fargoal.com,US,Americas,Northern America,United States of America,California,,Los Angeles
38.165.98.90,4,19,farukcelik.online,US,Americas,Northern America,United States of America,California,,Los Angeles
38.165.100.75,4,23,faruknafizozak.online,US,Americas,Northern America,United States of America,California,,Los Angeles
38.48.143.234,4,30,fasteners-taiwan.com,US,Americas,Northern America,United States of America,California,,Los Angeles
38.165.98.82,4,19,fatihdistrict.online,US,Americas,Northern America,United States of America,California,,Los Angeles
38.165.100.85,4,30,fatihdonmez.online,US,Americas,Northern America,United States of America,California,,Los Angeles
148.135.48.235,4,34,favdevs.com,US,Americas,Northern America,United States of America,California,,Los Angeles
38.49.56.82,4,-2,faxingzhan.com,US,Americas,Northern America,United States of America,California,,Los Angeles
38.63.50.13,4,10897,fgxjkja.cn,US,Americas,Northern America,United States of America,California,,Los Angeles
65.166.16.163,4,48,fidm.com,US,Americas,Northern America,United States of America,California,,Los Angeles
66.165.237.172,4,38,fijivillage.com,US,Americas,Northern America,United States of America,California,,Los Angeles
38.165.100.87,4,21,fikretorman.online,US,Americas,Northern America,United States of America,California,,Los Angeles
67.215.234.54,4,200,filestream.com,US,Americas,Northern America,United States of America,California,,Los Angeles
168.235.104.27,4,4,filmetrics.com,US,Americas,Northern America,United States of America,California,,Los Angeles
198.54.96.130,4,11,findchips.com,US,Americas,Northern America,United States of America,California,,Los Angeles
198.54.96.98,4,19,findchips.com,US,Americas,Northern America,United States of America,California,,Los Angeles
38.55.112.234,4,27,firm8769.com,US,Americas,Northern America,United States of America,California,,Los Angeles
172.233.149.167,4,3,flightpedia.org,US,Americas,Northern America,United States of America,California,,Los Angeles
45.32.81.248,4,150,floridapoolpro.com,US,Americas,Northern America,United States of America,California,,Los Angeles
198.255.68.46,4,-1556107,flvsoft.com,US,Americas,Northern America,United States of America,California,,Los Angeles
23.104.69.2,4,-1,foloda.com,US,Americas,Northern America,United States of America,California,,Los Angeles
173.254.218.136,4,6,forbiddenknowledgetv.net,US,Americas,Northern America,United States of America,California,,Los Angeles
83.147.42.216,4,1,fotobug.net,US,Americas,Northern America,United States of America,California,,Los Angeles
104.168.86.2,4,13,fourpointsinstitute.com,US,Americas,Northern America,United States of America,California,,Los Angeles
38.6.207.219,4,-8,frdzkj10.cn,US,Americas,Northern America,United States of America,California,,Los Angeles
154.212.36.104,4,32,freshappshere.com,US,Americas,Northern America,United States of America,California,,Los Angeles
142.171.76.57,4,21,freudfile.org,US,Americas,Northern America,United States of America,California,,Los Angeles
38.63.50.34,4,10906,frxqyn.cn,US,Americas,Northern America,United States of America,California,,Los Angeles
107.155.74.250,4,7,ftrc.blog,US,Americas,Northern America,United States of America,California,,Los Angeles
38.165.111.200,4,3,fuatoktay.online,US,Americas,Northern America,United States of America,California,,Los Angeles
104.238.249.64,4,106,funcage.com,US,Americas,Northern America,United States of America,California,,Los Angeles
38.55.112.235,4,26,funkyfairytalephotography.com,US,Americas,Northern America,United States of America,California,,Los Angeles
64.34.254.87,4,-3,futurehi.net,US,Americas,Northern America,United States of America,California,,Los Angeles
38.28.201.154,4,4,fxzpfyy.com,US,Americas,Northern America,United States of America,California,,Los Angeles
23.19.200.72,4,5,fzfuye.com,US,Americas,Northern America,United States of America,California,,Los Angeles
38.165.98.75,4,13,galatamevlevimuseum.online,US,Americas,Northern America,United States of America,California,,Los Angeles
38.165.111.206,4,21,galatatower.online,US,Americas,Northern America,United States of America,California,,Los Angeles
154.23.189.164,4,1443,gamer520.com,US,Americas,Northern America,United States of America,California,,Los Angeles
162.220.14.150,4,-2316,gamesas.com,US,Americas,Northern America,United States of America,California,,Los Angeles
64.31.61.177,4,11,gametransfers.com,US,Americas,Northern America,United States of America,California,,Los Angeles
38.165.111.219,4,5,gazapizm.online,US,Americas,Northern America,United States of America,California,,Los Angeles
172.233.149.136,4,6,gbhackers.com,US,Americas,Northern America,United States of America,California,,Los Angeles
38.38.7.4,4,2,gbmiotii.com,US,Americas,Northern America,United States of America,California,,Los Angeles
107.172.7.94,4,-2,gct.co,US,Americas,Northern America,United States of America,California,,Los Angeles
66.103.218.187,4,5,gdsj888.com,US,Americas,Northern America,United States of America,California,,Los Angeles
64.31.61.182,4,6,generalassessment.com,US,Americas,Northern America,United States of America,California,,Los Angeles
173.254.243.202,4,946,gentlegiantsrescue.com,US,Americas,Northern America,United States of America,California,,Los Angeles
104.238.220.157,4,1,gentlemansguru.com,US,Americas,Northern America,United States of America,California,,Los Angeles
69.12.64.194,4,534,getmotivation.com,US,Americas,Northern America,United States of America,California,,Los Angeles
70.33.250.84,4,6,giomusic.net,US,Americas,Northern America,United States of America,California,,Los Angeles
104.200.152.250,4,1,glassofvenice.com,US,Americas,Northern America,United States of America,California,,Los Angeles
46.21.150.243,4,19,glorylogic.com,US,Americas,Northern America,United States of America,California,,Los Angeles
45.32.66.134,4,4,gmoscience.org,US,Americas,Northern America,United States of America,California,,Los Angeles
148.135.58.178,4,5877,goethe-zertifikat.com.de,US,Americas,Northern America,United States of America,California,,Los Angeles
64.34.205.83,4,2,goftp.com,US,Americas,Northern America,United States of America,California,,Los Angeles
38.33.69.82,4,5,goingupriver.com,US,Americas,Northern America,United States of America,California,,Los Angeles
38.63.255.57,4,5,gokhanozen.online,US,Americas,Northern America,United States of America,California,,Los Angeles
38.165.100.86,4,7,gokhantore.online,US,Americas,Northern America,United States of America,California,,Los Angeles
38.165.100.67,4,6,gokhanturkmen.online,US,Americas,Northern America,United States of America,California,,Los Angeles
45.67.219.18,4,8345,goldengooseoutlet.org,US,Americas,Northern America,United States of America,California,,Los Angeles
170.178.167.208,4,9,goldzhan.com,US,Americas,Northern America,United States of America,California,,Los Angeles
64.62.251.67,4,4,golfcoursehome.com,US,Americas,Northern America,United States of America,California,,Los Angeles
35.235.126.200,4,36,grantjenks.com,US,Americas,Northern America,United States of America,California,,Los Angeles
45.76.70.29,4,5,gravitysensation.com,US,Americas,Northern America,United States of America,California,,Los Angeles
66.165.237.220,4,5,growtraffic.com,US,Americas,Northern America,United States of America,California,,Los Angeles
23.224.33.74,4,23,guaji333.com,US,Americas,Northern America,United States of America,California,,Los Angeles
38.63.12.36,4,7,guiliugong.com.cn,US,Americas,Northern America,United States of America,California,,Los Angeles
38.165.100.68,4,12,gulcinergul.online,US,Americas,Northern America,United States of America,California,,Los Angeles
104.238.220.186,4,1,gurukuluniversal.com,US,Americas,Northern America,United States of America,California,,Los Angeles
38.165.111.221,4,7,guvenyalcin.online,US,Americas,Northern America,United States of America,California,,Los Angeles
142.171.134.213,4,1,gxagfjc.com,US,Americas,Northern America,United States of America,California,,Los Angeles
23.19.200.71,4,4,gywj2020.com,US,Americas,Northern America,United States of America,California,,Los Angeles
170.178.171.84,4,3950,gzjlby.cn,US,Americas,Northern America,United States of America,California,,Los Angeles
23.19.200.70,4,4,gzyuguang.com,US,Americas,Northern America,United States of America,California,,Los Angeles
198.54.96.155,4,7,hackaday.io,US,Americas,Northern America,United States of America,California,,Los Angeles
198.54.96.120,4,-1,hackaday.io,US,Americas,Northern America,United States of America,California,,Los Angeles
172.233.131.254,4,108,hacksparrow.com,US,Americas,Northern America,United States of America,California,,Los Angeles
148.135.66.241,4,9,haicuneo.com,US,Americas,Northern America,United States of America,California,,Los Angeles
38.165.98.79,4,8,hakancalhanoglu.online,US,Americas,Northern America,United States of America,California,,Los Angeles
38.165.98.69,4,13,haluklevent.online,US,Americas,Northern America,United States of America,California,,Los Angeles
96.44.175.130,4,0,hansenpartnership.com,US,Americas,Northern America,United States of America,California,,Los Angeles
38.38.218.211,4,6,haojiexinyuan.com,US,Americas,Northern America,United States of America,California,,Los Angeles
45.63.56.48,4,1,happythought.co.uk,US,Americas,Northern America,United States of America,California,,Los Angeles
144.202.124.110,4,886,hawaiiweathertoday.com,US,Americas,Northern America,United States of America,California,,Los Angeles
38.165.99.69,4,5,haydut.online,US,Americas,Northern America,United States of America,California,,Los Angeles
38.55.112.238,4,9,hbshncyryfwcjh.com,US,Americas,Northern America,United States of America,California,,Los Angeles
207.246.102.198,4,3,hbvgj.top,US,Americas,Northern America,United States of America,California,,Los Angeles
23.80.193.112,4,4,hcc-heb.com,US,Americas,Northern America,United States of America,California,,Los Angeles
38.11.209.213,4,1,hclsw.com,US,Americas,Northern America,United States of America,California,,Los Angeles
173.242.112.101,4,2,hdkaraokesong.com,US,Americas,Northern America,United States of America,California,,Los Angeles
23.80.193.97,4,47,hemadaxue.com,US,Americas,Northern America,United States of America,California,,Los Angeles
38.63.16.3,4,2,henanpuyou.com,US,Americas,Northern America,United States of America,California,,Los Angeles
45.205.188.32,4,3,hgcoffee.net,US,Americas,Northern America,United States of America,California,,Los Angeles
148.135.34.158,4,972,hillbuzz.org,US,Americas,Northern America,United States of America,California,,Los Angeles
104.223.9.25,4,2,hipmarket.com,US,Americas,Northern America,United States of America,California,,Los Angeles
104.223.9.23,4,11,hipplanet.com,US,Americas,Northern America,United States of America,California,,Los Angeles
148.135.34.157,4,968,hjsplit.org,US,Americas,Northern America,United States of America,California,,Los Angeles
23.19.200.68,4,9,hlxjkj.com,US,Americas,Northern America,United States of America,California,,Los Angeles
38.33.69.114,4,2,hnjinshansi.com,US,Americas,Northern America,United States of America,California,,Los Angeles
64.188.6.35,4,0,hobowars.com,US,Americas,Northern America,United States of America,California,,Los Angeles
142.91.250.49,4,6,homeszz.com,US,Americas,Northern America,United States of America,California,,Los Angeles
38.6.170.199,4,11,honghuofeiyang.com,US,Americas,Northern America,United States of America,California,,Los Angeles
148.135.62.212,4,2,hopcialisraj.com,US,Americas,Northern America,United States of America,California,,Los Angeles
104.243.21.178,4,26,hopuoilpurify.com,US,Americas,Northern America,United States of America,California,,Los Angeles
178.236.246.139,4,9,hotelrenovation.us,US,Americas,Northern America,United States of America,California,,Los Angeles
35.236.6.113,4,8,hotwirefoamfactory.com,US,Americas,Northern America,United States of America,California,,Los Angeles
74.48.197.16,4,336,howsci.com,US,Americas,Northern America,United States of America,California,,Los Angeles
67.21.92.34,4,0,hrpub.org,US,Americas,Northern America,United States of America,California,,Los Angeles
38.177.197.59,4,-32840,htjdaz.com,US,Americas,Northern America,United States of America,California,,Los Angeles
93.179.112.69,4,-1,htmldrive.net,US,Americas,Northern America,United States of America,California,,Los Angeles
149.28.76.160,4,8,huaclub.com,US,Americas,Northern America,United States of America,California,,Los Angeles
23.19.200.117,4,5,huangshangjia.com,US,Americas,Northern America,United States of America,California,,Los Angeles
38.147.179.36,4,11,huanyu800.com,US,Americas,Northern America,United States of America,California,,Los Angeles
23.80.193.98,4,11,huikuainiu.com,US,Americas,Northern America,United States of America,California,,Los Angeles
38.60.86.214,4,2,huitongseo.com,US,Americas,Northern America,United States of America,California,,Los Angeles
38.165.100.90,4,4,hulyaavsar.online,US,Americas,Northern America,United States of America,California,,Los Angeles
69.12.81.186,4,6,humboldtredwoods.org,US,Americas,Northern America,United States of America,California,,Los Angeles
140.82.18.131,4,9,hungrylittlegirl.com,US,Americas,Northern America,United States of America,California,,Los Angeles
38.165.100.70,4,1,huseyincelik.online,US,Americas,Northern America,United States of America,California,,Los Angeles
38.63.237.167,4,3,hxhs0769.com,US,Americas,Northern America,United States of America,California,,Los Angeles
146.75.95.7,4,5,hybridpedagogy.org,US,Americas,Northern America,United States of America,California,,Los Angeles
38.174.252.219,4,78462,hymshop.net,US,Americas,Northern America,United States of America,California,,Los Angeles
38.63.24.166,4,2,hznsun.com,US,Americas,Northern America,United States of America,California,,Los Angeles
204.152.206.186,4,39,i-doser.com,US,Americas,Northern America,United States of America,California,,Los Angeles
172.93.123.127,4,-350525,i-recruit.com,US,Americas,Northern America,United States of America,California,,Los Angeles
142.171.135.158,4,5,ib.tv,US,Americas,Northern America,United States of America,California,,Los Angeles
216.144.236.122,4,116,icanig.org,US,Americas,Northern America,United States of America,California,,Los Angeles
67.215.245.243,4,40,iceinspace.com.au,US,Americas,Northern America,United States of America,California,,Los Angeles
38.165.100.82,4,20,iclalaydin.online,US,Americas,Northern America,United States of America,California,,Los Angeles
154.12.40.9,4,3,iconcool.com,US,Americas,Northern America,United States of America,California,,Los Angeles
162.251.63.197,4,2,ighm.org,US,Americas,Northern America,United States of America,California,,Los Angeles
204.152.215.202,4,519,ihcworld.com,US,Americas,Northern America,United States of America,California,,Los Angeles
38.12.212.152,4,7,iidmt.com,US,Americas,Northern America,United States of America,California,,Los Angeles
64.34.217.181,4,0,indecortrends.com,US,Americas,Northern America,United States of America,California,,Los Angeles
45.77.87.84,4,6,indoprogress.com,US,Americas,Northern America,United States of America,California,,Los Angeles
35.236.76.40,4,3,inmamaskitchen.com,US,Americas,Northern America,United States of America,California,,Los Angeles
154.9.247.125,4,2,inmoke.com,US,Americas,Northern America,United States of America,California,,Los Angeles
206.125.168.74,4,24899081,instant-eyedropper.com,US,Americas,Northern America,United States of America,California,,Los Angeles
64.52.108.164,4,18,instantiated.xyz,US,Americas,Northern America,United States of America,California,,Los Angeles
192.0.123.247,4,7,intensedebate.com,US,Americas,Northern America,United States of America,California,,Los Angeles
192.0.123.246,4,5,intensedebate.com,US,Americas,Northern America,United States of America,California,,Los Angeles
173.254.212.50,4,421,internationalbrain.org,US,Americas,Northern America,United States of America,California,,Los Angeles
38.48.184.203,4,3,intravnews.com,US,Americas,Northern America,United States of America,California,,Los Angeles
64.64.253.130,4,4,ioiox.com,US,Americas,Northern America,United States of America,California,,Los Angeles
172.233.129.37,4,1,ipv6.rs,US,Americas,Northern America,United States of America,California,,Los Angeles
66.103.217.151,4,40,iseepassword.com,US,Americas,Northern America,United States of America,California,,Los Angeles
89.116.113.101,4,102,iso-cert.vn,US,Americas,Northern America,United States of America,California,,Los Angeles
142.171.93.114,4,-1,isra.com,US,Americas,Northern America,United States of America,California,,Los Angeles
89.116.220.111,4,3,isragirls.co.il,US,Americas,Northern America,United States of America,California,,Los Angeles
38.165.100.81,4,19,istanbulmilitarymuseum.online,US,Americas,Northern America,United States of America,California,,Los Angeles
38.63.255.54,4,7,istanbulmodernartmuseum.online,US,Americas,Northern America,United States of America,California,,Los Angeles
38.165.111.218,4,39,istanbulpostalmuseum.online,US,Americas,Northern America,United States of America,California,,Los Angeles
38.165.111.214,4,5,istanbulsealifeaquarium.online,US,Americas,Northern America,United States of America,California,,Los Angeles
38.165.98.71,4,11,istikalstreet.online,US,Americas,Northern America,United States of America,California,,Los Angeles
38.165.111.205,4,28,istiklalcaddesi.online,US,Americas,Northern America,United States of America,California,,Los Angeles
38.63.12.53,4,5,itsmts.com.cn,US,Americas,Northern America,United States of America,California,,Los Angeles
142.171.153.18,4,10,iwatchstuff.com,US,Americas,Northern America,United States of America,California,,Los Angeles
64.31.61.169,4,19,j-speak.info,US,Americas,Northern America,United States of America,California,,Los Angeles
198.252.106.242,4,57,jameshallison.com,US,Americas,Northern America,United States of America,California,,Los Angeles
192.154.231.79,4,1087,jegged.com,US,Americas,Northern America,United States of America,California,,Los Angeles
149.28.65.13,4,4,jellywp.com,US,Americas,Northern America,United States of America,California,,Los Angeles
38.85.195.106,4,-4,jfbabyins.cn,US,Americas,Northern America,United States of America,California,,Los Angeles
38.55.118.126,4,2,jhxinrui.com,US,Americas,Northern America,United States of America,California,,Los Angeles
38.63.124.188,4,1,jiabanghuanbao.com,US,Americas,Northern America,United States of America,California,,Los Angeles
45.205.188.8,4,3,jijiyiyifund.com,US,Americas,Northern America,United States of America,California,,Los Angeles
144.34.161.90,4,-3,jindoushiqi.com,US,Americas,Northern America,United States of America,California,,Los Angeles
23.80.193.89,4,4,jinqinkouqiang.com,US,Americas,Northern America,United States of America,California,,Los Angeles
23.80.193.110,4,6,jiujiuxuan.com,US,Americas,Northern America,United States of America,California,,Los Angeles
38.11.210.81,4,1,jiushenghaoche.com,US,Americas,Northern America,United States of America,California,,Los Angeles
107.149.207.173,4,6,jiye168.cn,US,Americas,Northern America,United States of America,California,,Los Angeles
128.14.143.34,4,3,jj59.com,US,Americas,Northern America,United States of America,California,,Los Angeles
74.211.107.181,4,-3,jjjjxs.com,US,Americas,Northern America,United States of America,California,,Los Angeles
38.38.218.213,4,3,jkqhjjs.com,US,Americas,Northern America,United States of America,California,,Los Angeles
38.165.124.223,4,3,jmfcsj.cn,US,Americas,Northern America,United States of America,California,,Los Angeles
23.80.193.90,4,4,jmzs666.com,US,Americas,Northern America,United States of America,California,,Los Angeles
66.155.40.161,4,1,joeclark.org,US,Americas,Northern America,United States of America,California,,Los Angeles
216.144.236.195,4,2,jogos-cacaniqueis.com,US,Americas,Northern America,United States of America,California,,Los Angeles
142.171.146.178,4,100,johnsoulesfoods.com,US,Americas,Northern America,United States of America,California,,Los Angeles
144.34.221.87,4,324,jonpin.com,US,Americas,Northern America,United States of America,California,,Los Angeles
104.194.79.26,4,0,joycode.com,US,Americas,Northern America,United States of America,California,,Los Angeles
38.6.234.217,4,-1,jscbtg.cn,US,Americas,Northern America,United States of America,California,,Los Angeles
67.215.252.131,4,410,jscs.info,US,Americas,Northern America,United States of America,California,,Los Angeles
38.63.16.23,4,2,jsoyzc.com,US,Americas,Northern America,United States of America,California,,Los Angeles
74.48.143.82,4,-897,jubileecampaign.org,US,Americas,Northern America,United States of America,California,,Los Angeles
151.101.197.124,4,5,junaidjamshed.com,US,Americas,Northern America,United States of America,California,,Los Angeles
38.12.199.65,4,3,jyw.org.cn,US,Americas,Northern America,United States of America,California,,Los Angeles
38.165.111.220,4,7,kaanayhan.online,US,Americas,Northern America,United States of America,California,,Los Angeles
38.165.100.66,4,20,kadikoystreet.online,US,Americas,Northern America,United States of America,California,,Los Angeles
38.165.100.91,4,7,kadirinanir.online,US,Americas,Northern America,United States of America,California,,Los Angeles
199.180.112.93,4,5,kangxizidian.com,US,Americas,Northern America,United States of America,California,,Los Angeles
38.63.203.197,4,5,kaoparts.com,US,Americas,Northern America,United States of America,California,,Los Angeles
148.135.57.199,4,-730218,katastimataone.com,US,Americas,Northern America,United States of America,California,,Los Angeles
104.224.182.143,4,4,kehu56.com,US,Americas,Northern America,United States of America,California,,Los Angeles
38.165.99.76,4,42,kenandogulu.online,US,Americas,Northern America,United States of America,California,,Los Angeles
38.165.111.204,4,5,kenanisik.online,US,Americas,Northern America,United States of America,California,,Los Angeles
38.165.100.80,4,3,kenankaraman.online,US,Americas,Northern America,United States of America,California,,Los Angeles
45.63.53.140,4,11,keystone-jacks.com,US,Americas,Northern America,United States of America,California,,Los Angeles
128.14.237.126,4,3,kimi.com.tw,US,Americas,Northern America,United States of America,California,,Los Angeles
142.171.28.200,4,5,kittyads.com,US,Americas,Northern America,United States of America,California,,Los Angeles
128.14.156.140,4,5,kk888-era5d.top,US,Americas,Northern America,United States of America,California,,Los Angeles
154.40.47.236,4,112,kkt99.top,US,Americas,Northern America,United States of America,California,,Los Angeles
38.47.252.200,4,-2,klmybbs.com,US,Americas,Northern America,United States of America,California,,Los Angeles
128.14.230.88,4,6,komoejoy.com,US,Americas,Northern America,United States of America,California,,Los Angeles
38.165.111.202,4,4,konyamevlanamuseum.online,US,Americas,Northern America,United States of America,California,,Los Angeles
172.96.161.212,4,-227,koreanstudies.com,US,Americas,Northern America,United States of America,California,,Los Angeles
173.211.46.62,4,22,kovifabrics.com,US,Americas,Northern America,United States of America,California,,Los Angeles
192.210.173.194,4,-5,ktv1bet.me,US,Americas,Northern America,United States of America,California,,Los Angeles
192.3.90.38,4,3,ktv1bet.mobi,US,Americas,Northern America,United States of America,California,,Los Angeles
209.182.235.44,4,7,kuchutimes.com,US,Americas,Northern America,United States of America,California,,Los Angeles
192.3.159.169,4,-1,kungfucinema.com,US,Americas,Northern America,United States of America,California,,Los Angeles
38.165.98.88,4,7,kurkcustreet.online,US,Americas,Northern America,United States of America,California,,Los Angeles
173.254.213.44,4,4,kvta.com,US,Americas,Northern America,United States of America,California,,Los Angeles
192.3.169.141,4,-3,ladymilonguera.fr,US,Americas,Northern America,United States of America,California,,Los Angeles
45.76.65.14,4,10,landis.media,US,Americas,Northern America,United States of America,California,,Los Angeles
38.11.210.82,4,44,lantsingmedia.com,US,Americas,Northern America,United States of America,California,,Los Angeles
38.48.184.145,4,12,lantuwangluo.com,US,Americas,Northern America,United States of America,California,,Los Angeles
144.34.167.176,4,9,laoxu.date,US,Americas,Northern America,United States of America,California,,Los Angeles
38.11.210.84,4,2,laoyouleyanglao.com,US,Americas,Northern America,United States of America,California,,Los Angeles
76.74.218.170,4,-4,latinadatingtips.com,US,Americas,Northern America,United States of America,California,,Los Angeles
162.254.38.172,4,104,latinowomen.org,US,Americas,Northern America,United States of America,California,,Los Angeles
149.28.69.16,4,3,lbo-talk.org,US,Americas,Northern America,United States of America,California,,Los Angeles
206.162.240.215,4,-1179360,league.org,US,Americas,Northern America,United States of America,California,,Los Angeles
38.13.22.176,4,95,leemyalone.org,US,Americas,Northern America,United States of America,California,,Los Angeles
45.205.188.9,4,14,lehawan.com,US,Americas,Northern America,United States of America,California,,Los Angeles
45.32.70.18,4,45,lemis.com,US,Americas,Northern America,United States of America,California,,Los Angeles
38.6.118.77,4,-332893,letspartyvirginia.com,US,Americas,Northern America,United States of America,California,,Los Angeles
35.236.103.56,4,2785180,letstalkaboutmoney.com,US,Americas,Northern America,United States of America,California,,Los Angeles
38.45.127.77,4,18,lfav.xyz,US,Americas,Northern America,United States of America,California,,Los Angeles
23.80.193.87,4,4,lianzansh.com,US,Americas,Northern America,United States of America,California,,Los Angeles
35.236.62.230,4,26,lifestreet.com,US,Americas,Northern America,United States of America,California,,Los Angeles
174.136.99.43,4,-632,lilypie.com,US,Americas,Northern America,United States of America,California,,Los Angeles
38.38.218.214,4,30,lingzd.com,US,Americas,Northern America,United States of America,California,,Los Angeles
204.152.203.118,4,6,linksysrouterlogins.com,US,Americas,Northern America,United States of America,California,,Los Angeles
172.93.123.163,4,-350527,linktionary.com,US,Americas,Northern America,United States of America,California,,Los Angeles
192.158.229.38,4,47,listiller.com,US,Americas,Northern America,United States of America,California,,Los Angeles
45.32.93.220,4,210,livecoupons.net,US,Americas,Northern America,United States of America,California,,Los Angeles
45.205.188.10,4,-4,lksp88.com,US,Americas,Northern America,United States of America,California,,Los Angeles
38.63.135.173,4,3,lnpnt.com,US,Americas,Northern America,United States of America,California,,Los Angeles
74.48.97.57,4,817,lntoxicated.com,US,Americas,Northern America,United States of America,California,,Los Angeles
66.63.171.112,4,39,localpages.com,US,Americas,Northern America,United States of America,California,,Los Angeles
144.202.121.16,4,5,lonelylabel.com,US,Americas,Northern America,United States of America,California,,Los Angeles
104.238.249.57,4,10,long-short.dev,US,Americas,Northern America,United States of America,California,,Los Angeles
38.63.135.186,4,11,lsscgs.com,US,Americas,Northern America,United States of America,California,,Los Angeles
216.18.206.146,4,10,lucidcrew.com,US,Americas,Northern America,United States of America,California,,Los Angeles
108.181.45.98,4,3,luisvnunez.com,US,Americas,Northern America,United States of America,California,,Los Angeles
38.165.124.143,4,1,lzjdwl.cn,US,Americas,Northern America,United States of America,California,,Los Angeles
38.165.98.87,4,5,mabelmatiz.online,US,Americas,Northern America,United States of America,California,,Los Angeles
66.112.212.233,4,-1,macgood.com,US,Americas,Northern America,United States of America,California,,Los Angeles
66.155.58.196,4,128,macvalves.com,US,Americas,Northern America,United States of America,California,,Los Angeles
206.119.175.84,4,-28939,macyoyo.cn,US,Americas,Northern America,United States of America,California,,Los Angeles
66.155.58.79,4,-3,maggievanostrand.com,US,Americas,Northern America,United States of America,California,,Los Angeles
176.122.143.112,4,73,magicdvdripper.com,US,Americas,Northern America,United States of America,California,,Los Angeles
46.21.153.30,4,3,makeyourownjeans.com,US,Americas,Northern America,United States of America,California,,Los Angeles
38.33.77.247,4,3,malaikamediatv.com,US,Americas,Northern America,United States of America,California,,Los Angeles
96.44.134.122,4,515,manowar.com,US,Americas,Northern America,United States of America,California,,Los Angeles
45.63.52.155,4,184,masterplanthemovie.com,US,Americas,Northern America,United States of America,California,,Los Angeles
38.85.220.223,4,3,mcserpenti.com,US,Americas,Northern America,United States of America,California,,Los Angeles
192.227.238.35,4,2,meaningkosh.com,US,Americas,Northern America,United States of America,California,,Los Angeles
154.85.56.66,4,32,medlonchina.com,US,Americas,Northern America,United States of America,California,,Los Angeles
74.48.216.28,4,396,meetco-furniture.com,US,Americas,Northern America,United States of America,California,,Los Angeles
38.165.111.203,4,5,mehmetekici.online,US,Americas,Northern America,United States of America,California,,Los Angeles
38.165.100.74,4,3,mehmetmuharremkasapoglu.online,US,Americas,Northern America,United States of America,California,,Los Angeles
38.165.98.74,4,7,mehmetozdilek.online,US,Americas,Northern America,United States of America,California,,Los Angeles
107.148.151.129,4,20809,meijutt.tv,US,Americas,Northern America,United States of America,California,,Los Angeles
38.165.98.85,4,23,mertmuldur.online,US,Americas,Northern America,United States of America,California,,Los Angeles
38.165.98.73,4,9,mevlutcavusoglu.online,US,Americas,Northern America,United States of America,California,,Los Angeles
66.155.40.160,4,-2,meyerweb.com,US,Americas,Northern America,United States of America,California,,Los Angeles
69.12.65.195,4,776,militarycac.com,US,Americas,Northern America,United States of America,California,,Los Angeles
38.63.24.175,4,5,miniase.com,US,Americas,Northern America,United States of America,California,,Los Angeles
192.154.231.231,4,9,mircorp.com,US,Americas,Northern America,United States of America,California,,Los Angeles
98.143.159.82,4,644,mission4today.com,US,Americas,Northern America,United States of America,California,,Los Angeles
69.90.188.56,4,-2,mitrapro.com,US,Americas,Northern America,United States of America,California,,Los Angeles
91.210.164.97,4,6,mix-goapp.com,US,Americas,Northern America,United States of America,California,,Los Angeles
69.12.78.98,4,256,mkaku.org,US,Americas,Northern America,United States of America,California,,Los Angeles
198.252.106.145,4,9,modestyblaisebooks.com,US,Americas,Northern America,United States of America,California,,Los Angeles
74.48.197.17,4,321,mok007.net,US,Americas,Northern America,United States of America,California,,Los Angeles
64.185.233.132,4,776,mommarambles.com,US,Americas,Northern America,United States of America,California,,Los Angeles
199.231.161.122,4,31,monteswines.com,US,Americas,Northern America,United States of America,California,,Los Angeles
154.19.185.123,4,20,morenjoy.com,US,Americas,Northern America,United States of America,California,,Los Angeles
38.165.99.68,4,9,morveotesi.online,US,Americas,Northern America,United States of America,California,,Los Angeles
216.24.178.117,4,4,motrix.app,US,Americas,Northern America,United States of America,California,,Los Angeles
45.76.75.144,4,4,mountainenterprise.com,US,Americas,Northern America,United States of America,California,,Los Angeles
104.238.222.215,4,6,mpbus.com,US,Americas,Northern America,United States of America,California,,Los Angeles
108.181.40.166,4,3,msnho.com,US,Americas,Northern America,United States of America,California,,Los Angeles
38.165.98.93,4,4,muazzezilmiyecig.online,US,Americas,Northern America,United States of America,California,,Los Angeles
38.165.100.93,4,115,muharremince.online,US,Americas,Northern America,United States of America,California,,Los Angeles
162.254.37.134,4,0,muldowneydigital.com,US,Americas,Northern America,United States of America,California,,Los Angeles
198.252.107.152,4,9,multimedianewsroom.us,US,Americas,Northern America,United States of America,California,,Los Angeles
198.255.68.42,4,-1556065,multipelife.com,US,Americas,Northern America,United States of America,California,,Los Angeles
38.165.98.81,4,119,muratboz.online,US,Americas,Northern America,United States of America,California,,Los Angeles
38.165.99.65,4,6,mustafacengiz.online,US,Americas,Northern America,United States of America,California,,Los Angeles
38.63.255.51,4,5,mustafasentop.online,US,Americas,Northern America,United States of America,California,,Los Angeles
38.165.100.84,4,5,mustafavarank.online,US,Americas,Northern America,United States of America,California,,Los Angeles
66.165.238.100,4,15,mybirthday.ninja,US,Americas,Northern America,United States of America,California,,Los Angeles
66.155.106.126,4,-2,myburbank.com,US,Americas,Northern America,United States of America,California,,Los Angeles
66.165.238.102,4,30,myfirstname.rocks,US,Americas,Northern America,United States of America,California,,Los Angeles
168.235.98.29,4,19,myhealthlives.com,US,Americas,Northern America,United States of America,California,,Los Angeles
107.155.74.2,4,51,mymidici.com,US,Americas,Northern America,United States of America,California,,Los Angeles
142.171.236.242,4,337,mynetworks.us,US,Americas,Northern America,United States of America,California,,Los Angeles
206.119.175.133,4,-12728,myonlineslambook.com,US,Americas,Northern America,United States of America,California,,Los Angeles
38.63.255.41,4,7,mywildtree.com,US,Americas,Northern America,United States of America,California,,Los Angeles
66.165.231.66,4,2,nafizhasan.com,US,Americas,Northern America,United States of America,California,,Los Angeles
108.181.19.38,4,379,nagarjunauniversity.ac.in,US,Americas,Northern America,United States of America,California,,Los Angeles
216.45.58.2,4,-85,nathanielturner.com,US,Americas,Northern America,United States of America,California,,Los Angeles
172.233.152.148,4,3,navalaviationmuseum.org,US,Americas,Northern America,United States of America,California,,Los Angeles
38.165.98.65,4,7,nazimhikmet.online,US,Americas,Northern America,United States of America,California,,Los Angeles
38.63.8.119,4,1,nbbosyy.com,US,Americas,Northern America,United States of America,California,,Los Angeles
38.6.207.216,4,-11,nbcblog.cn,US,Americas,Northern America,United States of America,California,,Los Angeles
192.161.48.107,4,-192440,newdesignfile.com,US,Americas,Northern America,United States of America,California,,Los Angeles
74.48.52.79,4,26,newmediarights.org,US,Americas,Northern America,United States of America,California,,Los Angeles
198.96.92.102,4,871,newone2017.com,US,Americas,Northern America,United States of America,California,,Los Angeles
107.152.46.94,4,5,newsroompanama.com,US,Americas,Northern America,United States of America,California,,Los Angeles
199.7.140.189,4,2,ngmoco.com,US,Americas,Northern America,United States of America,California,,Los Angeles
172.233.137.172,4,3,ngmodules.org,US,Americas,Northern America,United States of America,California,,Los Angeles
38.47.248.28,4,0,nha123.cc,US,Americas,Northern America,United States of America,California,,Los Angeles
162.254.37.107,4,0,nicaragua-magazine.com,US,Americas,Northern America,United States of America,California,,Los Angeles
148.135.58.233,4,27,nightbulb.net,US,Americas,Northern America,United States of America,California,,Los Angeles
142.171.70.186,4,2,nightcall.co.il,US,Americas,Northern America,United States of America,California,,Los Angeles
38.165.100.79,4,6,nihatdjemal.online,US,Americas,Northern America,United States of America,California,,Los Angeles
38.165.111.209,4,19,nimetcubukcu.online,US,Americas,Northern America,United States of America,California,,Los Angeles
142.171.28.196,4,11,nobspay.com,US,Americas,Northern America,United States of America,California,,Los Angeles
192.227.146.48,4,11,northwestcostume.com,US,Americas,Northern America,United States of America,California,,Los Angeles
107.148.40.135,4,-1,nos998.com,US,Americas,Northern America,United States of America,California,,Los Angeles
204.152.215.194,4,829,nowiknow.com,US,Americas,Northern America,United States of America,California,,Los Angeles
38.63.135.167,4,1,nt029.com,US,Americas,Northern America,United States of America,California,,Los Angeles
38.165.100.83,4,5,nuruosmaniyestreet.online,US,Americas,Northern America,United States of America,California,,Los Angeles
185.186.146.90,4,4,nvg.dev,US,Americas,Northern America,United States of America,California,,Los Angeles
154.219.58.179,4,2,nxljd.com,US,Americas,Northern America,United States of America,California,,Los Angeles
162.254.38.232,4,9,obbrewing.com,US,Americas,Northern America,United States of America,California,,Los Angeles
38.61.10.44,4,9,od686.cc,US,Americas,Northern America,United States of America,California,,Los Angeles
154.17.2.113,4,0,oi-wiki.org,US,Americas,Northern America,United States of America,California,,Los Angeles
83.147.40.36,4,10,okspare.com,US,Americas,Northern America,United States of America,California,,Los Angeles
38.165.98.89,4,5,olcaysahan.online,US,Americas,Northern America,United States of America,California,,Los Angeles
142.171.100.149,4,362,oldmantvg.net,US,Americas,Northern America,United States of America,California,,Los Angeles
89.117.85.84,4,25,omamschools.edu.jo,US,Americas,Northern America,United States of America,California,,Los Angeles
38.165.98.70,4,6,omerdincer.online,US,Americas,Northern America,United States of America,California,,Los Angeles
64.52.108.32,4,0,omv-extras.org,US,Americas,Northern America,United States of America,California,,Los Angeles
207.198.108.122,4,2,onecle.com,US,Americas,Northern America,United States of America,California,,Los Angeles
64.185.235.74,4,343,Ookla Speedtest Server 5861: lax1a-speedtest.webnx.com,US,Americas,Northern America,United States of America,California,,Los Angeles
8.3.86.3,4,182,Ookla Speedtest Server 18229: speedtest-server-lax.starry.com,US,Americas,Northern America,United States of America,California,,Los Angeles
66.165.241.242,4,105,Ookla Speedtest Server 19230: speedtest.lax.hivelocity.net,US,Americas,Northern America,United States of America,California,,Los Angeles
162.255.183.26,4,286,Ookla Speedtest Server 21001: speedtest.5x5tele.com,US,Americas,Northern America,United States of America,California,,Los Angeles
194.124.244.6,4,245,Ookla Speedtest Server 21363: speedtest-dc08.enzu.com,US,Americas,Northern America,United States of America,California,,Los Angeles
88.210.36.42,4,212,Ookla Speedtest Server 48044: speedtest-lax.melbicom.net,US,Americas,Northern America,United States of America,California,,Los Angeles
66.114.152.44,4,125,Ookla Speedtest Server 56370: speedtest.la2.gigabitnow.com,US,Americas,Northern America,United States of America,California,,Los Angeles
38.175.108.88,4,257,Ookla Speedtest Server 60392: us-lax02.speed.misaka.one,US,Americas,Northern America,United States of America,California,,Los Angeles
192.189.157.21,4,241,Ookla Speedtest Server 62638: speedtest.la.macarne.com,US,Americas,Northern America,United States of America,California,,Los Angeles
45.61.57.19,4,-4280,Ookla Speedtest Server 64135: speedtest.us-la.kamatera.com,US,Americas,Northern America,United States of America,California,,Los Angeles
104.251.238.142,4,332,Ookla Speedtest Server 64487: speedtest.us310.lax.us.ctcsci.com,US,Americas,Northern America,United States of America,California,,Los Angeles
199.231.161.162,4,5,opendocs.com,US,Americas,Northern America,United States of America,California,,Los Angeles
199.180.155.30,4,36,opengameart.org,US,Americas,Northern America,United States of America,California,,Los Angeles
216.144.236.76,4,795,optiboard.com,US,Americas,Northern America,United States of America,California,,Los Angeles
172.96.141.103,4,-4,orientaloutpost.com,US,Americas,Northern America,United States of America,California,,Los Angeles
38.12.192.148,4,21,orseek.com,US,Americas,Northern America,United States of America,California,,Los Angeles
38.165.111.211,4,7,ortakoy.online,US,Americas,Northern America,United States of America,California,,Los Angeles
38.63.255.53,4,5,osmanbaydemir.online,US,Americas,Northern America,United States of America,California,,Los Angeles
89.117.217.12,4,17,outletonline-michaelkors.com,US,Americas,Northern America,United States of America,California,,Los Angeles
149.248.19.157,4,7,ozyandmillie.org,US,Americas,Northern America,United States of America,California,,Los Angeles
64.62.251.181,4,12,pacificcitizen.org,US,Americas,Northern America,United States of America,California,,Los Angeles
64.31.61.168,4,13,paidcracked.com,US,Americas,Northern America,United States of America,California,,Los Angeles
172.96.160.198,4,210,parttime.com.tw,US,Americas,Northern America,United States of America,California,,Los Angeles
66.165.242.66,4,76,passp.org.pk,US,Americas,Northern America,United States of America,California,,Los Angeles
104.194.8.80,4,0,patanjaliayurved.org,US,Americas,Northern America,United States of America,California,,Los Angeles
198.255.68.44,4,-1556043,pavtube.cn,US,Americas,Northern America,United States of America,California,,Los Angeles
198.255.68.43,4,-1556082,pavtube.com,US,Americas,Northern America,United States of America,California,,Los Angeles
38.165.99.86,4,81,paxil.click,US,Americas,Northern America,United States of America,California,,Los Angeles
46.21.150.244,4,17,pdfshaper.com,US,Americas,Northern America,United States of America,California,,Los Angeles
149.248.2.247,4,0,pearlriverbridge.com,US,Americas,Northern America,United States of America,California,,Los Angeles
23.80.193.85,4,50,pengchengfangshui.com,US,Americas,Northern America,United States of America,California,,Los Angeles
38.55.112.196,4,4,peninsulargold.com,US,Americas,Northern America,United States of America,California,,Los Angeles
38.165.100.69,4,93,pergamonacropolis.online,US,Americas,Northern America,United States of America,California,,Los Angeles
38.165.98.84,4,15,pergamum.online,US,Americas,Northern America,United States of America,California,,Los Angeles
96.44.174.19,4,779097,perpetualdalta.edu.ph,US,Americas,Northern America,United States of America,California,,Los Angeles
38.60.84.210,4,72,perzen.com.cn,US,Americas,Northern America,United States of America,California,,Los Angeles
89.116.156.132,4,29,philboxing.com,US,Americas,Northern America,United States of America,California,,Los Angeles
190.102.104.130,4,9,phoronix-test-suite.com,US,Americas,Northern America,United States of America,California,,Los Angeles
66.63.171.125,4,20,phosphodiesterase4.com,US,Americas,Northern America,United States of America,California,,Los Angeles
38.63.227.6,4,17,phototexterapp.com,US,Americas,Northern America,United States of America,California,,Los Angeles
38.14.32.51,4,30,phyto-world.com,US,Americas,Northern America,United States of America,California,,Los Angeles
216.18.219.98,4,25,picresize.com,US,Americas,Northern America,United States of America,California,,Los Angeles
162.251.63.78,4,11,pinkwhitney.us,US,Americas,Northern America,United States of America,California,,Los Angeles
67.21.93.230,4,16,pk855.com,US,Americas,Northern America,United States of America,California,,Los Angeles
94.100.20.132,4,24,plainsite.org,US,Americas,Northern America,United States of America,California,,Los Angeles
216.45.52.70,4,15,playlater.com,US,Americas,Northern America,United States of America,California,,Los Angeles
142.171.100.17,4,347,pleval.com,US,Americas,Northern America,United States of America,California,,Los Angeles
64.62.251.130,4,7,plonkwine.com,US,Americas,Northern America,United States of America,California,,Los Angeles
74.48.216.146,4,346,pmauriatmusic.com,US,Americas,Northern America,United States of America,California,,Los Angeles
64.34.205.47,4,26,podbrix.com,US,Americas,Northern America,United States of America,California,,Los Angeles
107.161.80.10,4,980,pointblanknews.com,US,Americas,Northern America,United States of America,California,,Los Angeles
173.254.196.236,4,738,popevil.com,US,Americas,Northern America,United States of America,California,,Los Angeles
38.181.56.100,4,-2,potu.com,US,Americas,Northern America,United States of America,California,,Los Angeles
45.32.76.248,4,6,pptmon.com,US,Americas,Northern America,United States of America,California,,Los Angeles
38.165.124.238,4,5,ppvlu.cn,US,Americas,Northern America,United States of America,California,,Los Angeles
192.161.54.51,4,33,pridenation.com,US,Americas,Northern America,United States of America,California,,Los Angeles
142.171.130.24,4,2,primewritings.com,US,Americas,Northern America,United States of America,California,,Los Angeles
64.62.251.129,4,14,primolevicenter.org,US,Americas,Northern America,United States of America,California,,Los Angeles
38.63.252.13,4,3,privatelinesdating.com,US,Americas,Northern America,United States of America,California,,Los Angeles
74.48.172.146,4,38,prodraw.net,US,Americas,Northern America,United States of America,California,,Los Angeles
96.44.128.250,4,157,psrtutorial.com,US,Americas,Northern America,United States of America,California,,Los Angeles
149.28.89.23,4,37,psychlinks.ca,US,Americas,Northern America,United States of America,California,,Los Angeles
64.62.251.203,4,43,psychotactics.com,US,Americas,Northern America,United States of America,California,,Los Angeles
99.24.238.181,4,-56076,punkrockdemo.com,US,Americas,Northern America,United States of America,California,,Los Angeles
66.165.237.219,4,43,punkvoter.com,US,Americas,Northern America,United States of America,California,,Los Angeles
198.252.106.251,4,4,pxpoker.com,US,Americas,Northern America,United States of America,California,,Los Angeles
38.11.170.206,4,2,pzhjhny.com,US,Americas,Northern America,United States of America,California,,Los Angeles
38.38.218.209,4,5,qdpuruixinjixie.com,US,Americas,Northern America,United States of America,California,,Los Angeles
38.6.108.48,4,-2,qhddsxb.com,US,Americas,Northern America,United States of America,California,,Los Angeles
66.206.15.26,4,760,qigonginstitute.org,US,Americas,Northern America,United States of America,California,,Los Angeles
38.162.64.194,4,-3,qimingdianqi.com,US,Americas,Northern America,United States of America,California,,Los Angeles
23.80.193.74,4,6,qingsheshuo.com,US,Americas,Northern America,United States of America,California,,Los Angeles
38.11.210.74,4,1,qixun1688.com,US,Americas,Northern America,United States of America,California,,Los Angeles
38.11.177.26,4,-115,qq-inv.com,US,Americas,Northern America,United States of America,California,,Los Angeles
154.85.43.108,4,7,qqai.net,US,Americas,Northern America,United States of America,California,,Los Angeles
23.80.193.84,4,6,qsd0570.com,US,Americas,Northern America,United States of America,California,,Los Angeles
23.26.125.13,4,8,queenelizabethnationalpark.com,US,Americas,Northern America,United States of America,California,,Los Angeles
154.219.58.61,4,18,qugkt.com,US,Americas,Northern America,United States of America,California,,Los Angeles
45.32.77.223,4,14,quic.cloud,US,Americas,Northern America,United States of America,California,,Los Angeles
192.227.247.150,4,-715,qxwjpj.com,US,Americas,Northern America,United States of America,California,,Los Angeles
96.44.131.114,4,1959,raceacrossamerica.org,US,Americas,Northern America,United States of America,California,,Los Angeles
38.165.98.80,4,58,rafetelroman.online,US,Americas,Northern America,United States of America,California,,Los Angeles
64.188.2.199,4,55,rafiqulmatin.ac.bd,US,Americas,Northern America,United States of America,California,,Los Angeles
74.48.69.172,4,19,rainforrent.com,US,Americas,Northern America,United States of America,California,,Los Angeles
74.63.233.135,4,9,rbgkew.org.uk,US,Americas,Northern America,United States of America,California,,Los Angeles
38.48.184.157,4,35,rc-scrm.com,US,Americas,Northern America,United States of America,California,,Los Angeles
38.165.100.78,4,55,recepakdag.online,US,Americas,Northern America,United States of America,California,,Los Angeles
38.165.111.217,4,3,receptayyiperdogan.online,US,Americas,Northern America,United States of America,California,,Los Angeles
38.85.217.89,4,30,rechappy.com,US,Americas,Northern America,United States of America,California,,Los Angeles
172.96.160.112,4,13,recordgone.com,US,Americas,Northern America,United States of America,California,,Los Angeles
66.212.16.162,4,518,recording.org,US,Americas,Northern America,United States of America,California,,Los Angeles
38.48.190.148,4,5,rentloscabos.com,US,Americas,Northern America,United States of America,California,,Los Angeles
104.168.111.181,4,4,reservationsdeltaairlines.com,US,Americas,Northern America,United States of America,California,,Los Angeles
38.63.255.56,4,5,retiredfootballers.online,US,Americas,Northern America,United States of America,California,,Los Angeles
149.248.18.127,4,6,rexx.com,US,Americas,Northern America,United States of America,California,,Los Angeles
66.165.236.242,4,4,rfparts.com,US,Americas,Northern America,United States of America,California,,Los Angeles
23.19.200.121,4,7,rglinkup.com,US,Americas,Northern America,United States of America,California,,Los Angeles
38.173.142.237,4,12,rhd996.com,US,Americas,Northern America,United States of America,California,,Los Angeles
104.207.152.40,4,40,ridianur.com,US,Americas,Northern America,United States of America,California,,Los Angeles
38.33.94.106,4,2,rjmeishi.com,US,Americas,Northern America,United States of America,California,,Los Angeles
181.41.215.18,4,57,robvincent.net,US,Americas,Northern America,United States of America,California,,Los Angeles
38.165.98.66,4,19,rocksitesofcappadocia.online,US,Americas,Northern America,United States of America,California,,Los Angeles
216.144.237.66,4,343,roddenberry.com,US,Americas,Northern America,United States of America,California,,Los Angeles
38.11.210.66,4,53,rongyizu888.com,US,Americas,Northern America,United States of America,California,,Los Angeles
104.223.9.229,4,51,ronmoodyandthecentaurs.com,US,Americas,Northern America,United States of America,California,,Los Angeles
98.142.101.178,4,-127,rosenhotels.com,US,Americas,Northern America,United States of America,California,,Los Angeles
23.229.102.106,4,-28,rrsupplier.com,US,Americas,Northern America,United States of America,California,,Los Angeles
204.152.206.14,4,5,sagma.lk,US,Americas,Northern America,United States of America,California,,Los Angeles
38.63.255.52,4,6,sagopakajmer.online,US,Americas,Northern America,United States of America,California,,Los Angeles
38.165.100.73,4,17,sahaflarcarsisi.online,US,Americas,Northern America,United States of America,California,,Los Angeles
38.165.111.193,4,30,samatyastreet.online,US,Americas,Northern America,United States of America,California,,Los Angeles
198.252.106.147,4,9,sampletemplatess.com,US,Americas,Northern America,United States of America,California,,Los Angeles
38.6.64.207,4,19,sandianyixian.cn,US,Americas,Northern America,United States of America,California,,Los Angeles
38.63.161.190,4,37665,sanjiajuhe.com,US,Americas,Northern America,United States of America,California,,Los Angeles
155.94.204.138,4,-199,sanree.com,US,Americas,Northern America,United States of America,California,,Los Angeles
38.170.199.231,4,301,sanyangguoji.com,US,Americas,Northern America,United States of America,California,,Los Angeles
199.43.207.142,4,294098,satelliteindustries.com,US,Americas,Northern America,United States of America,California,,Los Angeles
64.156.14.3,4,24,satellitemap.space,US,Americas,Northern America,United States of America,California,,Los Angeles
142.171.235.47,4,5,satellitetvonline.cn,US,Americas,Northern America,United States of America,California,,Los Angeles
66.42.98.49,4,3,saynotogmos.org,US,Americas,Northern America,United States of America,California,,Los Angeles
38.174.75.177,4,8,sc109.com,US,Americas,Northern America,United States of America,California,,Los Angeles
96.44.164.32,4,7,scarsdale10583.com,US,Americas,Northern America,United States of America,California,,Los Angeles
207.141.116.140,4,14,sccwrp.org,US,Americas,Northern America,United States of America,California,,Los Angeles
216.23.175.149,4,3,scentbox.com,US,Americas,Northern America,United States of America,California,,Los Angeles
23.19.200.105,4,6,schrfp.com,US,Americas,Northern America,United States of America,California,,Los Angeles
170.178.176.226,4,1,sciepub.com,US,Americas,Northern America,United States of America,California,,Los Angeles
142.171.140.100,4,-77,scifistar.com,US,Americas,Northern America,United States of America,California,,Los Angeles
107.174.102.119,4,28,sctiyu.cn,US,Americas,Northern America,United States of America,California,,Los Angeles
38.47.248.59,4,-2,sdhxqz.com,US,Americas,Northern America,United States of America,California,,Los Angeles
38.63.198.20,4,2,sdlxy.cn,US,Americas,Northern America,United States of America,California,,Los Angeles
38.165.98.67,4,24,sedabakan.online,US,Americas,Northern America,United States of America,California,,Los Angeles
38.165.98.92,4,7,sehitmuhtarstreet.online,US,Americas,Northern America,United States of America,California,,Los Angeles
38.165.111.210,4,4,selcukinan.online,US,Americas,Northern America,United States of America,California,,Los Angeles
38.165.98.91,4,49,serdaraziz.online,US,Americas,Northern America,United States of America,California,,Los Angeles
148.135.65.160,4,57,sexpro.co.il,US,Americas,Northern America,United States of America,California,,Los Angeles
89.116.211.94,4,3,sexynine.co.il,US,Americas,Northern America,United States of America,California,,Los Angeles
38.165.98.72,4,4,sezaitemelli.online,US,Americas,Northern America,United States of America,California,,Los Angeles
128.14.246.31,4,5,sf-international.com,US,Americas,Northern America,United States of America,California,,Los Angeles
38.11.206.9,4,3,sfqkc.com,US,Americas,Northern America,United States of America,California,,Los Angeles
170.178.191.84,4,0,sharktech.net,US,Americas,Northern America,United States of America,California,,Los Angeles
155.94.204.48,4,269,shendun520.com,US,Americas,Northern America,United States of America,California,,Los Angeles
38.11.210.68,4,4,shengqia666.com,US,Americas,Northern America,United States of America,California,,Los Angeles
23.106.155.200,4,1,shengup.com,US,Americas,Northern America,United States of America,California,,Los Angeles
148.135.112.161,4,5,shoujitouping.com,US,Americas,Northern America,United States of America,California,,Los Angeles
74.48.79.235,4,1,shouyaoyuanliao.com,US,Americas,Northern America,United States of America,California,,Los Angeles
74.48.13.72,4,19,shuax.com,US,Americas,Northern America,United States of America,California,,Los Angeles
142.171.122.108,4,0,shuge.org,US,Americas,Northern America,United States of America,California,,Los Angeles
38.11.210.75,4,1,shuixingjiuzhou.com,US,Americas,Northern America,United States of America,California,,Los Angeles
38.49.28.12,4,2,shxb.net,US,Americas,Northern America,United States of America,California,,Los Angeles
38.63.106.47,4,0,shymhg.com.cn,US,Americas,Northern America,United States of America,California,,Los Angeles
108.181.19.217,4,-4,siam-daynight.com,US,Americas,Northern America,United States of America,California,,Los Angeles
198.23.250.115,4,-9697,silxdalis.com,US,Americas,Northern America,United States of America,California,,Los Angeles
38.63.255.58,4,6,simge.online,US,Americas,Northern America,United States of America,California,,Los Angeles
74.48.32.66,4,32,simplemedrx.top,US,Americas,Northern America,United States of America,California,,Los Angeles
66.155.40.162,4,6,simplepie.org,US,Americas,Northern America,United States of America,California,,Los Angeles
38.63.200.95,4,3,sinoboolean.com,US,Americas,Northern America,United States of America,California,,Los Angeles
38.147.176.42,4,16,sjsd8.com,US,Americas,Northern America,United States of America,California,,Los Angeles
45.205.188.12,4,3,skf007.com,US,Americas,Northern America,United States of America,California,,Los Angeles
66.55.93.22,4,428,skilookout.com,US,Americas,Northern America,United States of America,California,,Los Angeles
209.127.59.70,4,23,slotgamemalaysia.com,US,Americas,Northern America,United States of America,California,,Los Angeles
64.31.61.187,4,17,smartytechnologies.com,US,Americas,Northern America,United States of America,California,,Los Angeles
35.236.68.95,4,33,soccergarage.com,US,Americas,Northern America,United States of America,California,,Los Angeles
69.12.68.194,4,-60,softoroom.net,US,Americas,Northern America,United States of America,California,,Los Angeles
38.165.98.68,4,40,sogukcesmestreet.online,US,Americas,Northern America,United States of America,California,,Los Angeles
34.94.149.43,4,31,solveit.dev,US,Americas,Northern America,United States of America,California,,Los Angeles
162.254.36.26,4,43,somalilandsun.com,US,Americas,Northern America,United States of America,California,,Los Angeles
142.171.233.82,4,25,songjiale.com,US,Americas,Northern America,United States of America,California,,Los Angeles
192.3.243.115,4,19,sonicresearch.org,US,Americas,Northern America,United States of America,California,,Los Angeles
64.34.217.215,4,12,souwesterlodge.com,US,Americas,Northern America,United States of America,California,,Los Angeles
45.76.76.237,4,5,sp-usa.org,US,Americas,Northern America,United States of America,California,,Los Angeles
104.128.237.182,4,16,spacehike.com,US,Americas,Northern America,United States of America,California,,Los Angeles
172.235.57.151,4,3,spectra.video,US,Americas,Northern America,United States of America,California,,Los Angeles
172.235.39.186,4,60,sportelloboston.com,US,Americas,Northern America,United States of America,California,,Los Angeles
108.61.207.209,4,2,sportsmanfinder.com,US,Americas,Northern America,United States of America,California,,Los Angeles
35.235.85.147,4,69,springscs.org,US,Americas,Northern America,United States of America,California,,Los Angeles
23.19.200.81,4,12,sshongfei.com,US,Americas,Northern America,United States of America,California,,Los Angeles
216.18.201.26,4,7,statueforum.com,US,Americas,Northern America,United States of America,California,,Los Angeles
67.21.89.51,4,34,steincn.com,US,Americas,Northern America,United States of America,California,,Los Angeles
192.210.193.19,4,-2,stevequayle.com,US,Americas,Northern America,United States of America,California,,Los Angeles
107.174.3.99,4,29,stradanove.net,US,Americas,Northern America,United States of America,California,,Los Angeles
38.55.112.237,4,6,streetworksmanagement.com,US,Americas,Northern America,United States of America,California,,Los Angeles
172.96.160.195,4,192,strida.com,US,Americas,Northern America,United States of America,California,,Los Angeles
23.83.36.132,4,59,stromectolxlp.com,US,Americas,Northern America,United States of America,California,,Los Angeles
154.17.3.217,4,-3,subhd.tv,US,Americas,Northern America,United States of America,California,,Los Angeles
38.91.112.109,4,0,sucaihuo.com,US,Americas,Northern America,United States of America,California,,Los Angeles
149.248.19.231,4,4,sucaitianxia.com,US,Americas,Northern America,United States of America,California,,Los Angeles
38.162.71.204,4,-1,sunic-corp.com,US,Americas,Northern America,United States of America,California,,Los Angeles
198.252.106.110,4,8,supcefix.com,US,Americas,Northern America,United States of America,California,,Los Angeles
38.174.114.73,4,-1,supfree.net,US,Americas,Northern America,United States of America,California,,Los Angeles
192.0.123.249,4,3,survey.fm,US,Americas,Northern America,United States of America,California,,Los Angeles
192.0.123.248,4,2,survey.fm,US,Americas,Northern America,United States of America,California,,Los Angeles
38.11.210.73,4,44,sw1080.com,US,Americas,Northern America,United States of America,California,,Los Angeles
38.48.130.61,4,0,sxnd.com.cn,US,Americas,Northern America,United States of America,California,,Los Angeles
23.110.202.108,4,-17,syknp.com,US,Americas,Northern America,United States of America,California,,Los Angeles
209.127.37.163,4,83,synergiesprairies.ca,US,Americas,Northern America,United States of America,California,,Los Angeles
38.60.98.136,4,25,syparkerpen.cn,US,Americas,Northern America,United States of America,California,,Los Angeles
38.11.210.70,4,11,syshengqun.com,US,Americas,Northern America,United States of America,California,,Los Angeles
38.11.210.67,4,1,sz-teacher.com,US,Americas,Northern America,United States of America,California,,Los Angeles
38.85.196.100,4,-4,szqhd.cn,US,Americas,Northern America,United States of America,California,,Los Angeles
38.38.218.212,4,2,szxl16888.com,US,Americas,Northern America,United States of America,California,,Los Angeles
38.11.210.69,4,2,szyfgxdjk.com,US,Americas,Northern America,United States of America,California,,Los Angeles
107.167.27.87,4,0,szyuqifang.com,US,Americas,Northern America,United States of America,California,,Los Angeles
104.194.80.98,4,0,t.tl,US,Americas,Northern America,United States of America,California,,Los Angeles
64.62.251.121,4,5,tainstruments.com,US,Americas,Northern America,United States of America,California,,Los Angeles
38.63.63.204,4,54,talenty.com,US,Americas,Northern America,United States of America,California,,Los Angeles
38.63.255.61,4,6,taneryildiz.online,US,Americas,Northern America,United States of America,California,,Los Angeles
23.19.200.125,4,5,tangheli.com,US,Americas,Northern America,United States of America,California,,Los Angeles
38.11.210.71,4,1,taocaiku-inc.com,US,Americas,Northern America,United States of America,California,,Los Angeles
38.60.103.126,4,-2,taopuxue.com,US,Americas,Northern America,United States of America,California,,Los Angeles
38.165.100.88,4,8,tayahatunstreet.online,US,Americas,Northern America,United States of America,California,,Los Angeles
104.168.104.4,4,-3,tbrowdies.com,US,Americas,Northern America,United States of America,California,,Los Angeles
107.167.27.84,4,1,tchongxiang.com,US,Americas,Northern America,United States of America,California,,Los Angeles
23.80.216.114,4,6,tchzchina.com,US,Americas,Northern America,United States of America,California,,Los Angeles
38.177.197.60,4,-32837,tcltsy.net,US,Americas,Northern America,United States of America,California,,Los Angeles
38.174.119.115,4,-1,tcs-model.com,US,Americas,Northern America,United States of America,California,,Los Angeles
192.158.229.21,4,1315,teachersparadise.com,US,Americas,Northern America,United States of America,California,,Los Angeles
38.165.98.130,4,42,teapartyhome.com,US,Americas,Northern America,United States of America,California,,Los Angeles
74.63.233.157,4,28,techpinger.com,US,Americas,Northern America,United States of America,California,,Los Angeles
216.18.205.234,4,4,teclis.com,US,Americas,Northern America,United States of America,California,,Los Angeles
65.39.250.34,4,56,teejunction.com.au,US,Americas,Northern America,United States of America,California,,Los Angeles
38.55.117.213,4,-41739,tehyy.com,US,Americas,Northern America,United States of America,California,,Los Angeles
38.60.76.17,4,1,teima168.com,US,Americas,Northern America,United States of America,California,,Los Angeles
104.129.17.75,4,5,thaiexaminer.com,US,Americas,Northern America,United States of America,California,,Los Angeles
104.238.220.27,4,1,thailandvapers.com,US,Americas,Northern America,United States of America,California,,Los Angeles
205.161.200.21,4,26,the-tidings.com,US,Americas,Northern America,United States of America,California,,Los Angeles
108.181.24.149,4,-5408356,the-zomb.com,US,Americas,Northern America,United States of America,California,,Los Angeles
64.62.251.205,4,4,thebakedpotato.com,US,Americas,Northern America,United States of America,California,,Los Angeles
46.21.158.226,4,4,theblueridgehighlander.com,US,Americas,Northern America,United States of America,California,,Los Angeles
69.12.76.10,4,709,thecemeteryregistry.com,US,Americas,Northern America,United States of America,California,,Los Angeles
66.103.199.87,4,-2,thechocolatelife.com,US,Americas,Northern America,United States of America,California,,Los Angeles
198.252.106.246,4,21,thefamousbirthdays.com,US,Americas,Northern America,United States of America,California,,Los Angeles
107.174.44.192,4,25,theglensecret.com,US,Americas,Northern America,United States of America,California,,Los Angeles
45.63.58.95,4,-4,thehollywoodchristmasparade.org,US,Americas,Northern America,United States of America,California,,Los Angeles
172.233.144.209,4,25,thekinglive.com,US,Americas,Northern America,United States of America,California,,Los Angeles
144.202.119.126,4,1,thembay.com,US,Americas,Northern America,United States of America,California,,Los Angeles
38.11.210.72,4,2,themoonsapp.com,US,Americas,Northern America,United States of America,California,,Los Angeles
38.165.111.215,4,18,theodosiuscistern.online,US,Americas,Northern America,United States of America,California,,Los Angeles
67.215.239.234,4,1061,theoperacritic.com,US,Americas,Northern America,United States of America,California,,Los Angeles
104.238.61.150,4,4,therealallanholdsworth.com,US,Americas,Northern America,United States of America,California,,Los Angeles
162.254.37.213,4,13,theslow.id,US,Americas,Northern America,United States of America,California,,Los Angeles
149.28.71.131,4,12,thewilderesort.com,US,Americas,Northern America,United States of America,California,,Los Angeles
142.171.197.58,4,4,threepercenternation.com,US,Americas,Northern America,United States of America,California,,Los Angeles
64.62.251.62,4,36,threeroomspress.com,US,Americas,Northern America,United States of America,California,,Los Angeles
38.162.65.185,4,0,tianjinyuelin.com,US,Americas,Northern America,United States of America,California,,Los Angeles
38.11.210.65,4,2,tiaowowo.com,US,Americas,Northern America,United States of America,California,,Los Angeles
142.171.28.203,4,15,ticolugar.com,US,Americas,Northern America,United States of America,California,,Los Angeles
38.6.218.156,4,8,tjzubai.com.cn,US,Americas,Northern America,United States of America,California,,Los Angeles
142.171.100.11,4,325,tnhzmz.com,US,Americas,Northern America,United States of America,California,,Los Angeles
198.252.106.192,4,4,toefungus.top,US,Americas,Northern America,United States of America,California,,Los Angeles
38.48.184.132,4,14,tongxisi.com,US,Americas,Northern America,United States of America,California,,Los Angeles
107.167.27.89,4,42,top81.cn,US,Americas,Northern America,United States of America,California,,Los Angeles
103.177.80.50,4,22,topairpack.com,US,Americas,Northern America,United States of America,California,,Los Angeles
149.248.7.122,4,28,topratedbizlist.com,US,Americas,Northern America,United States of America,California,,Los Angeles
172.93.121.21,4,59,tortoiseworldinc.com,US,Americas,Northern America,United States of America,California,,Los Angeles
162.254.38.243,4,20,tracymayor.com,US,Americas,Northern America,United States of America,California,,Los Angeles
128.14.57.234,4,44,tradebearings.com,US,Americas,Northern America,United States of America,California,,Los Angeles
148.135.75.186,4,35,tradingschools.org,US,Americas,Northern America,United States of America,California,,Los Angeles
96.44.129.35,4,69275,traileraddict.com,US,Americas,Northern America,United States of America,California,,Los Angeles
23.26.125.3,4,28,transmit.love,US,Americas,Northern America,United States of America,California,,Los Angeles
64.31.61.162,4,2,tribernna.com,US,Americas,Northern America,United States of America,California,,Los Angeles
45.32.80.93,4,7,trotons.com,US,Americas,Northern America,United States of America,California,,Los Angeles
89.116.156.128,4,3,trustcirclenetworks.org,US,Americas,Northern America,United States of America,California,,Los Angeles
38.48.169.156,4,0,tsrdsnzp.com,US,Americas,Northern America,United States of America,California,,Los Angeles
38.162.99.33,4,-4,tsytjx.com,US,Americas,Northern America,United States of America,California,,Los Angeles
38.12.193.41,4,1,tt-sz.com,US,Americas,Northern America,United States of America,California,,Los Angeles
128.14.151.194,4,19,ttsite.com,US,Americas,Northern America,United States of America,California,,Los Angeles
38.165.100.89,4,8,tubabuyukustun.online,US,Americas,Northern America,United States of America,California,,Los Angeles
192.154.231.235,4,22,tulumruins.net,US,Americas,Northern America,United States of America,California,,Los Angeles
104.223.62.200,4,3,turbomaxturbos.com,US,Americas,Northern America,United States of America,California,,Los Angeles
67.21.89.54,4,1,txdzs.com,US,Americas,Northern America,United States of America,California,,Los Angeles
144.168.57.36,4,4,txt99.com,US,Americas,Northern America,United States of America,California,,Los Angeles
74.63.233.142,4,4,txtlinks.com,US,Americas,Northern America,United States of America,California,,Los Angeles
206.119.166.132,4,1440,tylsncp.com,US,Americas,Northern America,United States of America,California,,Los Angeles
38.28.201.71,4,3,tywansha.com,US,Americas,Northern America,United States of America,California,,Los Angeles
107.167.27.86,4,6,tzinfo.net,US,Americas,Northern America,United States of America,California,,Los Angeles
104.166.94.194,4,7,udrpsearch.com,US,Americas,Northern America,United States of America,California,,Los Angeles
198.252.106.250,4,6,ufa345.info,US,Americas,Northern America,United States of America,California,,Los Angeles
64.188.2.244,4,-3,ufbnewengland.com,US,Americas,Northern America,United States of America,California,,Los Angeles
45.32.64.193,4,5,ufw.org,US,Americas,Northern America,United States of America,California,,Los Angeles
96.44.134.18,4,260,universaldesign.com,US,Americas,Northern America,United States of America,California,,Los Angeles
128.14.74.99,4,4,university-list.net,US,Americas,Northern America,United States of America,California,,Los Angeles
76.74.178.66,4,-1,uokraskom.com,US,Americas,Northern America,United States of America,California,,Los Angeles
146.75.93.60,4,10,usabaseball.com,US,Americas,Northern America,United States of America,California,,Los Angeles
98.143.146.7,4,509,utorrent.com,US,Americas,Northern America,United States of America,California,,Los Angeles
66.63.171.134,4,19,validclick.net,US,Americas,Northern America,United States of America,California,,Los Angeles
170.205.38.191,4,16,vandanasheth.com,US,Americas,Northern America,United States of America,California,,Los Angeles
45.128.156.142,4,8,vapeshops.biz,US,Americas,Northern America,United States of America,California,,Los Angeles
23.19.72.154,4,-22,vasafitness.com,US,Americas,Northern America,United States of America,California,,Los Angeles
207.178.180.7,4,7,vcnet.com,US,Americas,Northern America,United States of America,California,,Los Angeles
76.74.218.139,4,0,vdrsetup.com,US,Americas,Northern America,United States of America,California,,Los Angeles
172.233.158.90,4,62,videoconverterfactory.com,US,Americas,Northern America,United States of America,California,,Los Angeles
96.44.182.153,4,345,videya-dental.com,US,Americas,Northern America,United States of America,California,,Los Angeles
198.252.106.241,4,9,violonbleu.com,US,Americas,Northern America,United States of America,California,,Los Angeles
38.106.63.180,4,2,visualware.com,US,Americas,Northern America,United States of America,California,,Los Angeles
38.63.226.26,4,2,vladimirwrites.com,US,Americas,Northern America,United States of America,California,,Los Angeles
96.44.131.18,4,113,vodka360.com,US,Americas,Northern America,United States of America,California,,Los Angeles
128.97.229.84,4,49,voteview.com,US,Americas,Northern America,United States of America,California,,Los Angeles
66.165.237.122,4,2,vulcanplatinums-onlline.com,US,Americas,Northern America,United States of America,California,,Los Angeles
172.247.129.178,4,18,w3help.org,US,Americas,Northern America,United States of America,California,,Los Angeles
64.62.251.132,4,15,wallstreetreporter.com,US,Americas,Northern America,United States of America,California,,Los Angeles
148.135.16.206,4,12,wanshenglu.com.cn,US,Americas,Northern America,United States of America,California,,Los Angeles
35.235.86.96,4,4,webcamsdemexico.com,US,Americas,Northern America,United States of America,California,,Los Angeles
38.6.186.57,4,450,webitcn.com,US,Americas,Northern America,United States of America,California,,Los Angeles
202.91.32.13,4,43,wei2008.com,US,Americas,Northern America,United States of America,California,,Los Angeles
45.205.188.14,4,18,weidantour.com,US,Americas,Northern America,United States of America,California,,Los Angeles
38.55.112.228,4,28,weifenfuwu.com,US,Americas,Northern America,United States of America,California,,Los Angeles
38.63.183.244,4,17,weilan999.cn,US,Americas,Northern America,United States of America,California,,Los Angeles
38.33.70.118,4,-2,wfjkqyy.net,US,Americas,Northern America,United States of America,California,,Los Angeles
142.171.225.6,4,9,whatsoproudlywehail.org,US,Americas,Northern America,United States of America,California,,Los Angeles
146.75.94.132,4,9,whereyoulivematters.org,US,Americas,Northern America,United States of America,California,,Los Angeles
108.181.3.119,4,7,whois365.com,US,Americas,Northern America,United States of America,California,,Los Angeles
38.48.237.164,4,8,wholesalersbootcamp.com,US,Americas,Northern America,United States of America,California,,Los Angeles
64.62.251.180,4,7,wife.org,US,Americas,Northern America,United States of America,California,,Los Angeles
97.64.24.141,4,58,wikirhymer.com,US,Americas,Northern America,United States of America,California,,Los Angeles
66.206.14.2,4,2,willows-inn.com,US,Americas,Northern America,United States of America,California,,Los Angeles
174.136.96.43,4,34,win-magazine.com,US,Americas,Northern America,United States of America,California,,Los Angeles
69.12.87.146,4,989,winerytoursandtastings.org,US,Americas,Northern America,United States of America,California,,Los Angeles
64.185.234.186,4,3,winewomenandshoes.com,US,Americas,Northern America,United States of America,California,,Los Angeles
142.171.80.78,4,25086,winsen-sensor.com,US,Americas,Northern America,United States of America,California,,Los Angeles
38.174.251.88,4,325927,winsood.com,US,Americas,Northern America,United States of America,California,,Los Angeles
104.238.222.28,4,4,winstonrods.com,US,Americas,Northern America,United States of America,California,,Los Angeles
45.152.182.179,4,7,witopia.com,US,Americas,Northern America,United States of America,California,,Los Angeles
38.28.214.160,4,1,wlssad.cn,US,Americas,Northern America,United States of America,California,,Los Angeles
45.63.54.20,4,5915,wmra-multimode.link,US,Americas,Northern America,United States of America,California,,Los Angeles
45.32.82.114,4,5503,wmrasystem.com,US,Americas,Northern America,United States of America,California,,Los Angeles
64.31.61.154,4,5,womenhealth1.com,US,Americas,Northern America,United States of America,California,,Los Angeles
154.40.48.10,4,-21942,woniuzhibo.com,US,Americas,Northern America,United States of America,California,,Los Angeles
66.155.40.164,4,13,wordpress.net,US,Americas,Northern America,United States of America,California,,Los Angeles
142.171.187.250,4,523,worldwar2facts.org,US,Americas,Northern America,United States of America,California,,Los Angeles
66.155.40.163,4,-1,wp-persian.com,US,Americas,Northern America,United States of America,California,,Los Angeles
66.155.40.24,4,5,wp-plugins.net,US,Americas,Northern America,United States of America,California,,Los Angeles
74.48.73.219,4,6,wpematico.com,US,Americas,Northern America,United States of America,California,,Los Angeles
108.61.214.35,4,0,wpgpl.com,US,Americas,Northern America,United States of America,California,,Los Angeles
144.202.117.216,4,5,wpslash.com,US,Americas,Northern America,United States of America,California,,Los Angeles
38.47.248.34,4,2,wufumiaomu5.com,US,Americas,Northern America,United States of America,California,,Los Angeles
170.178.183.18,4,1,x7wfvyzgcs.com,US,Americas,Northern America,United States of America,California,,Los Angeles
108.181.34.31,4,1,xbox-hq.com,US,Americas,Northern America,United States of America,California,,Los Angeles
108.181.8.73,4,3,xcm-dh.top,US,Americas,Northern America,United States of America,California,,Los Angeles
38.162.64.178,4,-2,xdgdzz.com,US,Americas,Northern America,United States of America,California,,Los Angeles
173.254.242.42,4,551,xeltek.com,US,Americas,Northern America,United States of America,California,,Los Angeles
107.167.27.83,4,1,xiangxue-hotel.cn,US,Americas,Northern America,United States of America,California,,Los Angeles
23.80.197.68,4,4,xiaoduwangui.com,US,Americas,Northern America,United States of America,California,,Los Angeles
23.80.197.70,4,4,xiaomakuaipao888.com,US,Americas,Northern America,United States of America,California,,Los Angeles
95.169.24.249,4,5,xiaomeijiasuqi.org,US,Americas,Northern America,United States of America,California,,Los Angeles
38.38.218.210,4,2,xiaozhuqianbao.com,US,Americas,Northern America,United States of America,California,,Los Angeles
155.94.204.76,4,-386,xitaicoin.com,US,Americas,Northern America,United States of America,California,,Los Angeles
38.162.67.90,4,0,xiuhuabbs.com,US,Americas,Northern America,United States of America,California,,Los Angeles
38.48.186.220,4,-15,xjshzzy.com,US,Americas,Northern America,United States of America,California,,Los Angeles
38.11.186.125,4,2,xjyiliao.com,US,Americas,Northern America,United States of America,California,,Los Angeles
216.45.59.205,4,770,xl.com,US,Americas,Northern America,United States of America,California,,Los Angeles
45.205.188.15,4,2,xmmylikezx.com,US,Americas,Northern America,United States of America,California,,Los Angeles
23.19.200.69,4,5,xmzhousi.com,US,Americas,Northern America,United States of America,California,,Los Angeles
95.169.27.53,4,5,xn--mnqx9d.net,US,Americas,Northern America,United States of America,California,,Los Angeles
45.32.79.122,4,75,xn--onlinespilleglde-7ob.dk,US,Americas,Northern America,United States of America,California,,Los Angeles
45.32.79.47,4,15,xn--rrelsebehov-rfb.se,US,Americas,Northern America,United States of America,California,,Los Angeles
45.32.85.55,4,6,xn--vr-ekonomi-15a.se,US,Americas,Northern America,United States of America,California,,Los Angeles
45.76.66.239,4,0,xn--vrmat-mra.se,US,Americas,Northern America,United States of America,California,,Los Angeles
38.63.24.184,4,1,xs-lcd.com,US,Americas,Northern America,United States of America,California,,Los Angeles
192.3.243.74,4,0,xsl163.com,US,Americas,Northern America,United States of America,California,,Los Angeles
212.103.62.58,4,-8,xsnvshen.com,US,Americas,Northern America,United States of America,California,,Los Angeles
35.235.78.198,4,5,xuao-machinery.com,US,Americas,Northern America,United States of America,California,,Los Angeles
67.21.89.52,4,1,xun6.com,US,Americas,Northern America,United States of America,California,,Los Angeles
38.63.143.229,4,1,xwtwedding.com,US,Americas,Northern America,United States of America,California,,Los Angeles
142.171.238.85,4,2,xxhlfdj.com,US,Americas,Northern America,United States of America,California,,Los Angeles
74.48.113.217,4,-1,xxsdzbj.com,US,Americas,Northern America,United States of America,California,,Los Angeles
23.19.200.93,4,4,xzbenyi.com,US,Americas,Northern America,United States of America,California,,Los Angeles
38.28.201.144,4,5,xzgknxyy.com,US,Americas,Northern America,United States of America,California,,Los Angeles
23.19.200.90,4,5,xzoracle.com,US,Americas,Northern America,United States of America,California,,Los Angeles
174.35.2.11,4,48,yaofangwang.com,US,Americas,Northern America,United States of America,California,,Los Angeles
38.60.87.211,4,-1,ychdzx517.com,US,Americas,Northern America,United States of America,California,,Los Angeles
23.19.200.87,4,7,ychxmr.com,US,Americas,Northern America,United States of America,California,,Los Angeles
38.49.56.24,4,-7,yczihua.com,US,Americas,Northern America,United States of America,California,,Los Angeles
38.165.98.83,4,11,yenicarsistreet.online,US,Americas,Northern America,United States of America,California,,Los Angeles
107.167.27.88,4,0,yi-ting.cn,US,Americas,Northern America,United States of America,California,,Los Angeles
154.85.60.150,4,0,yibeian.net,US,Americas,Northern America,United States of America,California,,Los Angeles
23.80.197.74,4,5,yibenjk.com,US,Americas,Northern America,United States of America,California,,Los Angeles
23.80.197.69,4,7,yidugy.com,US,Americas,Northern America,United States of America,California,,Los Angeles
23.19.200.86,4,5,yiheccn.com,US,Americas,Northern America,United States of America,California,,Los Angeles
23.19.200.89,4,5,yijiu88.com,US,Americas,Northern America,United States of America,California,,Los Angeles
199.19.106.174,4,4,yikm.net,US,Americas,Northern America,United States of America,California,,Los Angeles
38.165.111.201,4,3,yildiztilbe.online,US,Americas,Northern America,United States of America,California,,Los Angeles
38.48.184.139,4,13,yingtaoplay.com,US,Americas,Northern America,United States of America,California,,Los Angeles
154.219.55.170,4,12777,yinwente.com,US,Americas,Northern America,United States of America,California,,Los Angeles
38.63.12.44,4,1,yisobi.cn,US,Americas,Northern America,United States of America,California,,Los Angeles
23.19.200.112,4,6,yjmian.com,US,Americas,Northern America,United States of America,California,,Los Angeles
107.167.27.85,4,1,yndkedd.cn,US,Americas,Northern America,United States of America,California,,Los Angeles
38.165.124.107,4,0,ynlbjx.cn,US,Americas,Northern America,United States of America,California,,Los Angeles
144.34.187.6,4,0,ynsidi.com,US,Americas,Northern America,United States of America,California,,Los Angeles
64.34.217.23,4,2,youaresucky.com,US,Americas,Northern America,United States of America,California,,Los Angeles
209.127.59.53,4,360,youcheck.info,US,Americas,Northern America,United States of America,California,,Los Angeles
107.149.199.209,4,-3,youmihua.com,US,Americas,Northern America,United States of America,California,,Los Angeles
89.116.211.130,4,7,yourpublicmedia.org,US,Americas,Northern America,United States of America,California,,Los Angeles
23.80.197.71,4,5,youxianghd.com,US,Americas,Northern America,United States of America,California,,Los Angeles
23.19.200.119,4,16,ytkaola.com,US,Americas,Northern America,United States of America,California,,Los Angeles
172.233.145.22,4,6,yunliejz.com,US,Americas,Northern America,United States of America,California,,Los Angeles
23.80.216.111,4,4,yuntcms.com,US,Americas,Northern America,United States of America,California,,Los Angeles
38.63.255.50,4,7,yunusmalli.online,US,Americas,Northern America,United States of America,California,,Los Angeles
104.128.86.191,4,5,ywhhg.com,US,Americas,Northern America,United States of America,California,,Los Angeles
216.24.184.169,4,4,yys5.com,US,Americas,Northern America,United States of America,California,,Los Angeles
142.171.134.216,4,-1,yzgrxny.com,US,Americas,Northern America,United States of America,California,,Los Angeles
170.178.171.90,4,3948,yzkscc.cn,US,Americas,Northern America,United States of America,California,,Los Angeles
142.171.134.212,4,5,yzwxhb.com,US,Americas,Northern America,United States of America,California,,Los Angeles
64.62.251.148,4,4,zacheven-esh.com,US,Americas,Northern America,United States of America,California,,Los Angeles
38.165.111.198,4,67,zambakstreet.online,US,Americas,Northern America,United States of America,California,,Los Angeles
142.171.234.170,4,1,zazagreb.com,US,Americas,Northern America,United States of America,California,,Los Angeles
38.49.2.172,4,-1,zbyan.com,US,Americas,Northern America,United States of America,California,,Los Angeles
107.167.27.81,4,2,zcjy.com.cn,US,Americas,Northern America,United States of America,California,,Los Angeles
38.6.201.28,4,-14,zcxny99.com,US,Americas,Northern America,United States of America,California,,Los Angeles
38.63.12.54,4,4,zdhwx.cn,US,Americas,Northern America,United States of America,California,,Los Angeles
38.165.98.76,4,11,zekialasya.online,US,Americas,Northern America,United States of America,California,,Los Angeles
38.165.111.208,4,6,zerrintekindor.online,US,Americas,Northern America,United States of America,California,,Los Angeles
38.63.255.60,4,19,zeynepcamci.online,US,Americas,Northern America,United States of America,California,,Los Angeles
38.165.100.65,4,6,zeynepsultanstreet.online,US,Americas,Northern America,United States of America,California,,Los Angeles
107.167.27.82,4,1,zgsfj.com,US,Americas,Northern America,United States of America,California,,Los Angeles
38.162.65.186,4,0,zgzhnyw.com,US,Americas,Northern America,United States of America,California,,Los Angeles
170.130.207.194,4,27270,zhengjian2009.com,US,Americas,Northern America,United States of America,California,,Los Angeles
23.19.200.83,4,4,zhinengbaojie.com,US,Americas,Northern America,United States of America,California,,Los Angeles
199.193.125.120,4,4,zhiqiang.name,US,Americas,Northern America,United States of America,California,,Los Angeles
23.80.197.79,4,6,zhlanlv.com,US,Americas,Northern America,United States of America,California,,Los Angeles
23.19.200.96,4,9,zhlingchi.com,US,Americas,Northern America,United States of America,California,,Los Angeles
107.167.27.90,4,3,zhonghangxing.cn,US,Americas,Northern America,United States of America,California,,Los Angeles
38.49.56.23,4,12,zhuwang.cc,US,Americas,Northern America,United States of America,California,,Los Angeles
67.21.89.53,4,5,zhzyw.org,US,Americas,Northern America,United States of America,California,,Los Angeles
47.180.143.226,4,4,zimage.com,US,Americas,Northern America,United States of America,California,,Los Angeles
96.44.130.155,4,665,zimbabwepools.com,US,Americas,Northern America,United States of America,California,,Los Angeles
144.168.61.193,4,30,zimuku.org,US,Americas,Northern America,United States of America,California,,Los Angeles
38.174.100.36,4,-3,zjkxiaole.com,US,Americas,Northern America,United States of America,California,,Los Angeles
38.90.10.172,4,-19,zjledq.com,US,Americas,Northern America,United States of America,California,,Los Angeles
38.177.198.34,4,-32839,zjtzdl.com,US,Americas,Northern America,United States of America,California,,Los Angeles
23.19.200.91,4,4,zkwx365.com,US,Americas,Northern America,United States of America,California,,Los Angeles
170.178.172.173,4,2,zone-h.com,US,Americas,Northern America,United States of America,California,,Los Angeles
170.178.172.174,4,0,zone-h.org,US,Americas,Northern America,United States of America,California,,Los Angeles
45.62.127.110,4,-1,zpycloud.com,US,Americas,Northern America,United States of America,California,,Los Angeles
23.19.200.80,4,4,zsjunying.com,US,Americas,Northern America,United States of America,California,,Los Angeles
23.80.216.93,4,4,zstoplighting.com,US,Americas,Northern America,United States of America,California,,Los Angeles
23.19.200.79,4,4,zt-glasses.com,US,Americas,Northern America,United States of America,California,,Los Angeles
74.48.52.71,4,3,ztsky.cn,US,Americas,Northern America,United States of America,California,,Los Angeles
64.64.225.60,4,5,ztyzo.com,US,Americas,Northern America,United States of America,California,,Los Angeles
38.48.184.151,4,16,zubaok.com,US,Americas,Northern America,United States of America,California,,Los Angeles
38.63.203.214,4,1,zuliaodiancn.com,US,Americas,Northern America,United States of America,California,,Los Angeles
38.6.186.106,4,262,zxar520.com,US,Americas,Northern America,United States of America,California,,Los Angeles
154.40.55.162,4,111,zykj2016.com,US,Americas,Northern America,United States of America,California,,Los Angeles
154.9.243.184,4,-1,zykj2016.com,US,Americas,Northern America,United States of America,California,,Los Angeles
108.181.10.106,4,-29736593,zzyedu.org,US,Americas,Northern America,United States of America,California,,Los Angeles
