reflector_ip,ip_version,offset,description,country_code,region,sub_region,country_name,sub_division_1,sub_division_2,city
38.11.85.176,4,6,12366boke.com,US,Americas,Northern America,United States of America,California,,San Jose
38.11.32.33,4,3,1t4po.com,US,Americas,Northern America,United States of America,California,,San Jose
38.127.242.235,4,10,21yibiao.com,US,Americas,Northern America,United States of America,California,,San Jose
38.165.9.58,4,7,2200cy.com,US,Americas,Northern America,United States of America,California,,San Jose
38.165.11.55,4,10,4230233.com,US,Americas,Northern America,United States of America,California,,San Jose
38.11.127.196,4,17,51sxsw.com,US,Americas,Northern America,United States of America,California,,San Jose
38.33.20.81,4,1853,521miaozan.cn,US,Americas,Northern America,United States of America,California,,San Jose
192.9.233.68,4,7,565865.com,US,Americas,Northern America,United States of America,California,,San Jose
38.165.11.23,4,1,58neng.com,US,Americas,Northern America,United States of America,California,,San Jose
38.11.36.108,4,5,608788.com,US,Americas,Northern America,United States of America,California,,San Jose
38.127.241.13,4,12,7777web.com,US,Americas,Northern America,United States of America,California,,San Jose
38.165.10.49,4,7,835372.com,US,Americas,Northern America,United States of America,California,,San Jose
38.33.247.210,4,3,9wei.com.cn,US,Americas,Northern America,United States of America,California,,San Jose
52.9.40.250,4,21,admission.net,US,Americas,Northern America,United States of America,California,,San Jose
13.57.110.62,4,29,admission.net,US,Americas,Northern America,United States of America,California,,San Jose
54.153.2.41,4,94,ag-grid.com,US,Americas,Northern America,United States of America,California,,San Jose
52.8.151.151,4,0,agora.io,US,Americas,Northern America,United States of America,California,,San Jose
38.11.13.154,4,6,aheis.cn,US,Americas,Northern America,United States of America,California,,San Jose
38.28.143.87,4,2,ahkaiye.com,US,Americas,Northern America,United States of America,California,,San Jose
38.28.250.76,4,8,aimengyou.com,US,Americas,Northern America,United States of America,California,,San Jose
192.9.140.15,4,19,airwarriors.com,US,Americas,Northern America,United States of America,California,,San Jose
38.165.13.62,4,8,aiwangguang.com,US,Americas,Northern America,United States of America,California,,San Jose
54.241.253.113,4,-2,aleks.com,US,Americas,Northern America,United States of America,California,,San Jose
54.219.77.212,4,-1,aleks.com,US,Americas,Northern America,United States of America,California,,San Jose
52.9.8.246,4,-3,alfa-chemistry.com,US,Americas,Northern America,United States of America,California,,San Jose
52.9.111.86,4,-2,alfa-chemistry.com,US,Americas,Northern America,United States of America,California,,San Jose
38.165.11.59,4,6,alkid888.com,US,Americas,Northern America,United States of America,California,,San Jose
54.219.103.9,4,29,amazingmagnets.com,US,Americas,Northern America,United States of America,California,,San Jose
54.153.9.208,4,5,anglofareast.com,US,Americas,Northern America,United States of America,California,,San Jose
50.18.187.246,4,-1,aopen.com,US,Americas,Northern America,United States of America,California,,San Jose
38.14.82.69,4,4,apvision.cn,US,Americas,Northern America,United States of America,California,,San Jose
54.177.72.169,4,9,backgrid.com,US,Americas,Northern America,United States of America,California,,San Jose
38.14.156.78,4,18,bailunengyuan.com,US,Americas,Northern America,United States of America,California,,San Jose
45.29.138.82,4,-5134239,bambi.net,US,Americas,Northern America,United States of America,California,,San Jose
38.127.243.2,4,7,bbcia.com,US,Americas,Northern America,United States of America,California,,San Jose
38.165.10.50,4,7,beepvp.com,US,Americas,Northern America,United States of America,California,,San Jose
38.165.13.39,4,17,beijingmusiccenter.com,US,Americas,Northern America,United States of America,California,,San Jose
38.165.12.39,4,9,beixiangli.com,US,Americas,Northern America,United States of America,California,,San Jose
38.14.84.6,4,4,benmia.cn,US,Americas,Northern America,United States of America,California,,San Jose
38.38.134.34,4,3,biaishangys.com,US,Americas,Northern America,United States of America,California,,San Jose
38.12.65.23,4,1,bioinfo.org.cn,US,Americas,Northern America,United States of America,California,,San Jose
38.165.11.52,4,10,bjnaishao.com,US,Americas,Northern America,United States of America,California,,San Jose
38.174.130.198,4,2,blgzzc.com,US,Americas,Northern America,United States of America,California,,San Jose
38.127.240.138,4,8,bn163.net,US,Americas,Northern America,United States of America,California,,San Jose
54.219.141.208,4,-2,bocsci.com,US,Americas,Northern America,United States of America,California,,San Jose
54.177.93.152,4,1,bocsci.com,US,Americas,Northern America,United States of America,California,,San Jose
38.33.196.26,4,5,bogedj.cn,US,Americas,Northern America,United States of America,California,,San Jose
54.153.69.28,4,3,bpftp.com,US,Americas,Northern America,United States of America,California,,San Jose
38.14.142.51,4,-265,bravo-jinglin.com,US,Americas,Northern America,United States of America,California,,San Jose
38.14.147.10,4,2,bwliuxue.com.cn,US,Americas,Northern America,United States of America,California,,San Jose
199.223.209.169,4,295,c4.com,US,Americas,Northern America,United States of America,California,,San Jose
38.165.12.53,4,7,caibaikuaizhuang.com,US,Americas,Northern America,United States of America,California,,San Jose
38.33.234.237,4,6,cbbbing.cn,US,Americas,Northern America,United States of America,California,,San Jose
38.14.136.1,4,2,ccruisetravel.com,US,Americas,Northern America,United States of America,California,,San Jose
54.193.39.51,4,0,cd-genomics.com,US,Americas,Northern America,United States of America,California,,San Jose
52.52.239.184,4,-2,cd-genomics.com,US,Americas,Northern America,United States of America,California,,San Jose
38.11.125.243,4,16,cdrlqc.com,US,Americas,Northern America,United States of America,California,,San Jose
38.165.10.42,4,7,changxucapital.com,US,Americas,Northern America,United States of America,California,,San Jose
38.38.188.144,4,16,chanyemap.com,US,Americas,Northern America,United States of America,California,,San Jose
38.33.52.142,4,18,chaoguoxian.com,US,Americas,Northern America,United States of America,California,,San Jose
13.56.220.213,4,1,chemlinked.com,US,Americas,Northern America,United States of America,California,,San Jose
38.14.142.56,4,-244,chengshivr.com,US,Americas,Northern America,United States of America,California,,San Jose
38.38.142.231,4,6,chengxin88.com.cn,US,Americas,Northern America,United States of America,California,,San Jose
38.165.8.41,4,7,chichengsz.com,US,Americas,Northern America,United States of America,California,,San Jose
52.9.39.107,4,4,chicscotland.com,US,Americas,Northern America,United States of America,California,,San Jose
38.28.187.234,4,2,china-grinding.com,US,Americas,Northern America,United States of America,California,,San Jose
38.174.163.157,4,3,chinabloodinst.com,US,Americas,Northern America,United States of America,California,,San Jose
13.52.93.207,4,-1,chinatour.net,US,Americas,Northern America,United States of America,California,,San Jose
38.127.240.124,4,13,chinayouhe.com,US,Americas,Northern America,United States of America,California,,San Jose
13.57.96.61,4,6,choicereviews.org,US,Americas,Northern America,United States of America,California,,San Jose
52.8.145.100,4,-1,choicereviews.org,US,Americas,Northern America,United States of America,California,,San Jose
38.12.88.212,4,12,chrunfeng.com,US,Americas,Northern America,United States of America,California,,San Jose
38.12.88.208,4,2,chunliangbj.com,US,Americas,Northern America,United States of America,California,,San Jose
38.14.218.170,4,9,cltlbook.com,US,Americas,Northern America,United States of America,California,,San Jose
38.38.188.155,4,9,clzqszxs.com,US,Americas,Northern America,United States of America,California,,San Jose
38.33.227.73,4,2,cmts.cn,US,Americas,Northern America,United States of America,California,,San Jose
38.165.9.36,4,9,cnsending.com,US,Americas,Northern America,United States of America,California,,San Jose
38.165.9.47,4,7,cntangzhai.com,US,Americas,Northern America,United States of America,California,,San Jose
64.64.24.204,4,636,coffeechemistry.com,US,Americas,Northern America,United States of America,California,,San Jose
52.53.111.132,4,0,colorsupplyyy.com,US,Americas,Northern America,United States of America,California,,San Jose
13.57.81.220,4,-2,colorsupplyyy.com,US,Americas,Northern America,United States of America,California,,San Jose
54.151.112.219,4,43,coros.com,US,Americas,Northern America,United States of America,California,,San Jose
38.127.242.114,4,35,cq8168.com,US,Americas,Northern America,United States of America,California,,San Jose
38.33.219.185,4,1843,cqdiannaohs.com,US,Americas,Northern America,United States of America,California,,San Jose
38.38.181.55,4,3,cqha.net,US,Americas,Northern America,United States of America,California,,San Jose
38.33.202.29,4,3,cqslan.com,US,Americas,Northern America,United States of America,California,,San Jose
38.12.142.249,4,35,crazyprofile.com,US,Americas,Northern America,United States of America,California,,San Jose
54.241.164.140,4,3,creative-biogene.com,US,Americas,Northern America,United States of America,California,,San Jose
54.183.149.135,4,-3,creative-biogene.com,US,Americas,Northern America,United States of America,California,,San Jose
54.183.98.64,4,31,creative-biolabs.com,US,Americas,Northern America,United States of America,California,,San Jose
54.219.229.130,4,1,creative-biolabs.com,US,Americas,Northern America,United States of America,California,,San Jose
54.183.208.188,4,17,creative-biostructure.com,US,Americas,Northern America,United States of America,California,,San Jose
54.153.89.183,4,7,creative-biostructure.com,US,Americas,Northern America,United States of America,California,,San Jose
54.215.33.241,4,17,creative-diagnostics.com,US,Americas,Northern America,United States of America,California,,San Jose
52.52.116.21,4,32,creative-diagnostics.com,US,Americas,Northern America,United States of America,California,,San Jose
54.183.140.166,4,32,creative-enzymes.com,US,Americas,Northern America,United States of America,California,,San Jose
52.9.14.122,4,0,creative-enzymes.com,US,Americas,Northern America,United States of America,California,,San Jose
151.101.41.208,4,4,crimsoneducation.org,US,Americas,Northern America,United States of America,California,,San Jose
151.101.42.133,4,5,csustan.edu,US,Americas,Northern America,United States of America,California,,San Jose
184.105.224.29,4,5,cttbusa.org,US,Americas,Northern America,United States of America,California,,San Jose
38.165.11.60,4,7,czbyjd.com,US,Americas,Northern America,United States of America,California,,San Jose
38.11.126.249,4,16,czjinyue.com,US,Americas,Northern America,United States of America,California,,San Jose
38.173.193.103,4,-32838,czymmp.com,US,Americas,Northern America,United States of America,California,,San Jose
38.165.14.52,4,7,dagekuaixun.com,US,Americas,Northern America,United States of America,California,,San Jose
38.173.193.108,4,-32835,dasanji.com,US,Americas,Northern America,United States of America,California,,San Jose
54.67.28.13,4,41,decoder.link,US,Americas,Northern America,United States of America,California,,San Jose
52.52.16.184,4,7,decoder.link,US,Americas,Northern America,United States of America,California,,San Jose
38.165.9.40,4,4,dengyuninfo.com,US,Americas,Northern America,United States of America,California,,San Jose
38.14.183.34,4,2,dequan123.com,US,Americas,Northern America,United States of America,California,,San Jose
66.22.80.181,4,22,derechoshumanos.gov.co,US,Americas,Northern America,United States of America,California,,San Jose
38.127.241.232,4,13,dfyzj.com,US,Americas,Northern America,United States of America,California,,San Jose
38.12.191.213,4,-1,dgjiacheng168.com,US,Americas,Northern America,United States of America,California,,San Jose
38.11.125.241,4,51,dgjieying.com,US,Americas,Northern America,United States of America,California,,San Jose
99.165.192.235,4,10765851,dineview.com,US,Americas,Northern America,United States of America,California,,San Jose
38.11.32.34,4,1,dingzhidengju.com,US,Americas,Northern America,United States of America,California,,San Jose
54.183.81.60,4,354,direct2drive.com,US,Americas,Northern America,United States of America,California,,San Jose
54.183.15.10,4,3,DNS Server: ec2-54-183-15-10.us-west-1.compute.amazonaws.com,US,Americas,Northern America,United States of America,California,,San Jose
99.165.192.233,4,10766184,DNS Server: mail.eonweb.com,US,Americas,Northern America,United States of America,California,,San Jose
38.165.14.44,4,6,docdomhealthcare.com,US,Americas,Northern America,United States of America,California,,San Jose
184.105.224.18,4,30,drbachinese.org,US,Americas,Northern America,United States of America,California,,San Jose
38.165.12.49,4,70,dskqyz.com,US,Americas,Northern America,United States of America,California,,San Jose
38.165.14.61,4,9,dwjforhealth.com,US,Americas,Northern America,United States of America,California,,San Jose
38.165.15.35,4,29,dwshlsy.com,US,Americas,Northern America,United States of America,California,,San Jose
38.165.13.61,4,34,dxgdled.com,US,Americas,Northern America,United States of America,California,,San Jose
38.28.169.114,4,4,dzlead-net.com,US,Americas,Northern America,United States of America,California,,San Jose
13.56.147.112,4,0,ecmsglobal.com,US,Americas,Northern America,United States of America,California,,San Jose
38.11.32.36,4,1,ecp777.com,US,Americas,Northern America,United States of America,California,,San Jose
13.57.90.157,4,-1,effectgames.com,US,Americas,Northern America,United States of America,California,,San Jose
38.165.14.36,4,73,elyseesenvie.com,US,Americas,Northern America,United States of America,California,,San Jose
64.64.22.99,4,773,escapeartist.com,US,Americas,Northern America,United States of America,California,,San Jose
38.127.242.72,4,12,europoolcn.com,US,Americas,Northern America,United States of America,California,,San Jose
38.12.74.34,4,6,eventdove.com,US,Americas,Northern America,United States of America,California,,San Jose
50.193.16.177,4,34,eviloverlord.com,US,Americas,Northern America,United States of America,California,,San Jose
52.8.144.76,4,23,exoticsracing.com,US,Americas,Northern America,United States of America,California,,San Jose
13.57.142.240,4,13,exoticsracing.com,US,Americas,Northern America,United States of America,California,,San Jose
38.14.81.61,4,3,fangbaokongtiao.cn,US,Americas,Northern America,United States of America,California,,San Jose
38.14.184.59,4,-1,fcg22.com,US,Americas,Northern America,United States of America,California,,San Jose
38.165.11.53,4,8,fengkukeji.com,US,Americas,Northern America,United States of America,California,,San Jose
54.193.66.179,4,15,florimapaul.com,US,Americas,Northern America,United States of America,California,,San Jose
38.165.14.45,4,13,fluxyyu.com,US,Americas,Northern America,United States of America,California,,San Jose
151.101.41.124,4,3,foliosociety.com,US,Americas,Northern America,United States of America,California,,San Jose
52.52.162.255,4,22,foxrenderfarm.com,US,Americas,Northern America,United States of America,California,,San Jose
54.219.102.128,4,7,foxrenderfarm.com,US,Americas,Northern America,United States of America,California,,San Jose
52.52.163.102,4,-3,freetypinggame.net,US,Americas,Northern America,United States of America,California,,San Jose
184.169.211.2,4,30,freetypinggame.net,US,Americas,Northern America,United States of America,California,,San Jose
38.99.122.171,4,25,frogloop.com,US,Americas,Northern America,United States of America,California,,San Jose
38.99.122.172,4,7,frogloop.com,US,Americas,Northern America,United States of America,California,,San Jose
38.99.122.173,4,23,frogloop.com,US,Americas,Northern America,United States of America,California,,San Jose
38.165.15.62,4,6,fruitmanor.com,US,Americas,Northern America,United States of America,California,,San Jose
38.174.183.4,4,35,fulivio.cn,US,Americas,Northern America,United States of America,California,,San Jose
192.9.250.254,4,2,futurequest.net,US,Americas,Northern America,United States of America,California,,San Jose
38.14.130.33,4,-269,fxshijie.com,US,Americas,Northern America,United States of America,California,,San Jose
38.33.247.216,4,2,fy1688.cn,US,Americas,Northern America,United States of America,California,,San Jose
38.12.142.232,4,34,gd563.com,US,Americas,Northern America,United States of America,California,,San Jose
38.28.173.218,4,1851,gdkaitian.com,US,Americas,Northern America,United States of America,California,,San Jose
38.12.14.106,4,16,gepeli.com,US,Americas,Northern America,United States of America,California,,San Jose
104.233.178.146,4,27715957,giga103.com,US,Americas,Northern America,United States of America,California,,San Jose
52.52.43.6,4,1,godlife.com,US,Americas,Northern America,United States of America,California,,San Jose
52.9.115.80,4,15,godlife.com,US,Americas,Northern America,United States of America,California,,San Jose
38.165.10.43,4,5,goingnutown.com,US,Americas,Northern America,United States of America,California,,San Jose
38.165.9.37,4,6,gonggongquan.com,US,Americas,Northern America,United States of America,California,,San Jose
38.174.186.65,4,15,goodcompa.com,US,Americas,Northern America,United States of America,California,,San Jose
174.35.123.100,4,-13,gpotato.eu,US,Americas,Northern America,United States of America,California,,San Jose
38.14.83.73,4,3,gqxy.com.cn,US,Americas,Northern America,United States of America,California,,San Jose
52.8.37.135,4,-1,guac-dev.org,US,Americas,Northern America,United States of America,California,,San Jose
38.28.148.29,4,0,gubuyit.com,US,Americas,Northern America,United States of America,California,,San Jose
38.165.11.48,4,8,guihebie.com,US,Americas,Northern America,United States of America,California,,San Jose
38.11.50.25,4,8,guohongjiaoyu.cn,US,Americas,Northern America,United States of America,California,,San Jose
38.127.242.112,4,8,gxghsy.com,US,Americas,Northern America,United States of America,California,,San Jose
54.215.198.90,4,0,gymboreeclasses.com,US,Americas,Northern America,United States of America,California,,San Jose
54.67.14.105,4,0,gymboreeclasses.com,US,Americas,Northern America,United States of America,California,,San Jose
38.165.68.15,4,0,gyscwy.com,US,Americas,Northern America,United States of America,California,,San Jose
38.165.13.43,4,4,gyzq888.com,US,Americas,Northern America,United States of America,California,,San Jose
38.33.61.98,4,2,gzevergrandefc.com,US,Americas,Northern America,United States of America,California,,San Jose
38.165.14.37,4,5,gzsdjgy.com,US,Americas,Northern America,United States of America,California,,San Jose
38.165.11.49,4,6,gzxinshenghuo.com,US,Americas,Northern America,United States of America,California,,San Jose
38.11.125.245,4,16,haikenhongming.com,US,Americas,Northern America,United States of America,California,,San Jose
38.165.14.53,4,29,hailanshuihui.com,US,Americas,Northern America,United States of America,California,,San Jose
54.241.77.183,4,0,hawaiiliving.com,US,Americas,Northern America,United States of America,California,,San Jose
38.11.32.38,4,1,hbdcgysj.com,US,Americas,Northern America,United States of America,California,,San Jose
38.12.191.212,4,-2,hbmswhlaw.com,US,Americas,Northern America,United States of America,California,,San Jose
38.165.10.44,4,5,hbzhongyegeshan.com,US,Americas,Northern America,United States of America,California,,San Jose
54.183.72.77,4,-3,headsetplus.com,US,Americas,Northern America,United States of America,California,,San Jose
64.64.22.63,4,27690,healthfacts.ng,US,Americas,Northern America,United States of America,California,,San Jose
38.33.236.111,4,2,hebeidexin.com,US,Americas,Northern America,United States of America,California,,San Jose
38.165.10.56,4,19,hebeipeople.com,US,Americas,Northern America,United States of America,California,,San Jose
38.165.29.68,4,1,hefeitianwei.com,US,Americas,Northern America,United States of America,California,,San Jose
38.12.130.153,4,-269,hejianfl.com,US,Americas,Northern America,United States of America,California,,San Jose
13.52.148.153,4,21,helpwire.app,US,Americas,Northern America,United States of America,California,,San Jose
38.165.14.62,4,6,hengchanghb168.com,US,Americas,Northern America,United States of America,California,,San Jose
38.165.14.48,4,9,hfmifeng.com,US,Americas,Northern America,United States of America,California,,San Jose
38.38.168.221,4,1,hnyjdz.cn,US,Americas,Northern America,United States of America,California,,San Jose
54.215.208.172,4,3,home-2009.com,US,Americas,Northern America,United States of America,California,,San Jose
38.14.222.211,4,28,hongguoplay.com,US,Americas,Northern America,United States of America,California,,San Jose
38.174.186.82,4,14,hr107.com,US,Americas,Northern America,United States of America,California,,San Jose
38.174.186.83,4,6,hs3368.com,US,Americas,Northern America,United States of America,California,,San Jose
38.173.193.102,4,-32837,hsjzzp.com,US,Americas,Northern America,United States of America,California,,San Jose
38.165.10.57,4,6,hstxmjrz.com,US,Americas,Northern America,United States of America,California,,San Jose
38.14.244.211,4,3,htjyups.com,US,Americas,Northern America,United States of America,California,,San Jose
38.14.222.207,4,8,huannang.com,US,Americas,Northern America,United States of America,California,,San Jose
38.12.183.152,4,-1,huayuzsd.com,US,Americas,Northern America,United States of America,California,,San Jose
38.33.233.125,4,-1,huilucai.com,US,Americas,Northern America,United States of America,California,,San Jose
38.12.88.198,4,2,huixuehua.com,US,Americas,Northern America,United States of America,California,,San Jose
38.165.10.45,4,5,hxlcj.com,US,Americas,Northern America,United States of America,California,,San Jose
38.14.142.48,4,-269,hzwenrui.com,US,Americas,Northern America,United States of America,California,,San Jose
54.176.179.247,4,1,icomamerica.com,US,Americas,Northern America,United States of America,California,,San Jose
38.127.243.100,4,12,ig-erp.com,US,Americas,Northern America,United States of America,California,,San Jose
54.177.3.192,4,1,ijcai.org,US,Americas,Northern America,United States of America,California,,San Jose
184.105.229.59,4,8,instantteleseminar.com,US,Americas,Northern America,United States of America,California,,San Jose
54.215.13.238,4,-1,internationalwholesale.com,US,Americas,Northern America,United States of America,California,,San Jose
38.12.57.178,4,-1,iprcn.com,US,Americas,Northern America,United States of America,California,,San Jose
66.22.80.235,4,26,isuzucv.com,US,Americas,Northern America,United States of America,California,,San Jose
38.174.183.2,4,47,it1115.cn,US,Americas,Northern America,United States of America,California,,San Jose
184.105.229.60,4,4,iteleseminar.com,US,Americas,Northern America,United States of America,California,,San Jose
54.176.163.86,4,3,ixwebhosting.com,US,Americas,Northern America,United States of America,California,,San Jose
38.165.15.61,4,5,jdkdapi.com,US,Americas,Northern America,United States of America,California,,San Jose
38.33.21.83,4,1852,jianuolai.com,US,Americas,Northern America,United States of America,California,,San Jose
38.127.240.93,4,13,jiayisj.net,US,Americas,Northern America,United States of America,California,,San Jose
38.28.250.97,4,0,jingfuzhi.com,US,Americas,Northern America,United States of America,California,,San Jose
38.127.242.54,4,8,jinghuaqimo.com,US,Americas,Northern America,United States of America,California,,San Jose
38.165.13.40,4,6,jingshenghuihuang.com,US,Americas,Northern America,United States of America,California,,San Jose
38.14.113.175,4,0,jingyilin.org,US,Americas,Northern America,United States of America,California,,San Jose
38.12.191.209,4,-2,jinhaianyujia.com,US,Americas,Northern America,United States of America,California,,San Jose
38.12.1.21,4,-8,jinhuizhan.cn,US,Americas,Northern America,United States of America,California,,San Jose
38.14.183.35,4,-1,jinmenglighting.com,US,Americas,Northern America,United States of America,California,,San Jose
38.28.173.219,4,1852,jiuxingchaoshi.com,US,Americas,Northern America,United States of America,California,,San Jose
38.174.140.7,4,3,jjiale.cn,US,Americas,Northern America,United States of America,California,,San Jose
38.11.85.181,4,3,jjyiyue.com,US,Americas,Northern America,United States of America,California,,San Jose
38.11.33.38,4,0,jldszy.com,US,Americas,Northern America,United States of America,California,,San Jose
38.165.10.53,4,9,jnguanjia.com,US,Americas,Northern America,United States of America,California,,San Jose
38.165.8.51,4,5,jnr-pro.com,US,Americas,Northern America,United States of America,California,,San Jose
38.14.184.57,4,-1,jnxrsdc.com,US,Americas,Northern America,United States of America,California,,San Jose
38.33.12.12,4,-800,joeldavidrealtor.com,US,Americas,Northern America,United States of America,California,,San Jose
38.165.12.48,4,6,jsalddl.com,US,Americas,Northern America,United States of America,California,,San Jose
38.14.183.61,4,0,jsycwz.com,US,Americas,Northern America,United States of America,California,,San Jose
38.165.12.50,4,6,junxiaozhiyou.com,US,Americas,Northern America,United States of America,California,,San Jose
184.169.151.116,4,2,jurispro.com,US,Americas,Northern America,United States of America,California,,San Jose
38.33.20.84,4,1854,juxing8.cn,US,Americas,Northern America,United States of America,California,,San Jose
38.28.249.117,4,-1,jwycfilm.com,US,Americas,Northern America,United States of America,California,,San Jose
38.14.198.184,4,2,jxcs58.com,US,Americas,Northern America,United States of America,California,,San Jose
38.14.184.33,4,-2,jxzhuotu.com,US,Americas,Northern America,United States of America,California,,San Jose
38.165.11.54,4,4,jzcqedu.com,US,Americas,Northern America,United States of America,California,,San Jose
38.165.10.140,4,8,kaiyuanhuman.com,US,Americas,Northern America,United States of America,California,,San Jose
38.174.137.104,4,3,kehaijx.cn,US,Americas,Northern America,United States of America,California,,San Jose
38.14.142.55,4,-267,kjst0871.com,US,Americas,Northern America,United States of America,California,,San Jose
38.11.36.186,4,12,kmtcjy.com,US,Americas,Northern America,United States of America,California,,San Jose
38.165.13.35,4,19,koalhk.com,US,Americas,Northern America,United States of America,California,,San Jose
38.11.125.239,4,20,ktsss.com,US,Americas,Northern America,United States of America,California,,San Jose
38.165.11.56,4,8,kujiangbz.com,US,Americas,Northern America,United States of America,California,,San Jose
38.174.182.29,4,55,kvggjso.cn,US,Americas,Northern America,United States of America,California,,San Jose
38.14.88.138,4,27,kwvulh.cn,US,Americas,Northern America,United States of America,California,,San Jose
13.56.55.0,4,-1,lcb.org,US,Americas,Northern America,United States of America,California,,San Jose
38.12.88.209,4,1,lcfttx.com,US,Americas,Northern America,United States of America,California,,San Jose
38.127.241.211,4,11,lcyongsheng.com,US,Americas,Northern America,United States of America,California,,San Jose
54.153.114.62,4,4,lelo.com,US,Americas,Northern America,United States of America,California,,San Jose
54.153.111.143,4,45,lelo.com,US,Americas,Northern America,United States of America,California,,San Jose
38.165.14.60,4,5,liangzichuanbo.com,US,Americas,Northern America,United States of America,California,,San Jose
54.215.208.227,4,1,lifeasible.com,US,Americas,Northern America,United States of America,California,,San Jose
54.176.103.161,4,6,lifeasible.com,US,Americas,Northern America,United States of America,California,,San Jose
64.64.20.100,4,37,lifesciencemarketresearch.com,US,Americas,Northern America,United States of America,California,,San Jose
52.8.240.222,4,2,live555.com,US,Americas,Northern America,United States of America,California,,San Jose
38.127.242.42,4,6,longjia-door.com,US,Americas,Northern America,United States of America,California,,San Jose
38.165.8.48,4,29,loushiwo.com,US,Americas,Northern America,United States of America,California,,San Jose
38.165.15.45,4,7,lrmiaochuangwang.com,US,Americas,Northern America,United States of America,California,,San Jose
38.11.13.130,4,11,lszncsh.com,US,Americas,Northern America,United States of America,California,,San Jose
38.11.13.151,4,2,ltstcz.com,US,Americas,Northern America,United States of America,California,,San Jose
152.70.118.237,4,3,lunwendata.com,US,Americas,Northern America,United States of America,California,,San Jose
38.165.12.54,4,6,lvyinnongchang.com,US,Americas,Northern America,United States of America,California,,San Jose
38.165.12.34,4,8,lwleiming.com,US,Americas,Northern America,United States of America,California,,San Jose
38.33.225.249,4,1843,lychengxinjiadian.com,US,Americas,Northern America,United States of America,California,,San Jose
38.165.13.36,4,4,lyenbabys.com,US,Americas,Northern America,United States of America,California,,San Jose
38.165.8.45,4,11,lyg95jx.com,US,Americas,Northern America,United States of America,California,,San Jose
38.127.240.160,4,16,lyhvc.com,US,Americas,Northern America,United States of America,California,,San Jose
38.14.243.85,4,5,lyxmys.com,US,Americas,Northern America,United States of America,California,,San Jose
147.75.201.41,4,4,macosx.com,US,Americas,Northern America,United States of America,California,,San Jose
38.165.10.46,4,8,magicsstar.com,US,Americas,Northern America,United States of America,California,,San Jose
38.12.88.200,4,62,manmaotechnology.com,US,Americas,Northern America,United States of America,California,,San Jose
38.165.10.55,4,38,meimanzhiye.com,US,Americas,Northern America,United States of America,California,,San Jose
54.67.22.151,4,1,menalto.com,US,Americas,Northern America,United States of America,California,,San Jose
38.165.13.59,4,11,mengzhilong9.com,US,Americas,Northern America,United States of America,California,,San Jose
38.12.1.24,4,9,miatfqj.cn,US,Americas,Northern America,United States of America,California,,San Jose
199.223.209.153,4,774,mikeysboard.com,US,Americas,Northern America,United States of America,California,,San Jose
38.165.14.59,4,4,mingrunjituan.com,US,Americas,Northern America,United States of America,California,,San Jose
38.12.191.210,4,70,mingzhushengyuan.com,US,Americas,Northern America,United States of America,California,,San Jose
64.64.26.201,4,455,minimalistic-design.com,US,Americas,Northern America,United States of America,California,,San Jose
38.165.14.58,4,6,minshengcaizhi.com,US,Americas,Northern America,United States of America,California,,San Jose
38.165.12.45,4,6,mitct.com,US,Americas,Northern America,United States of America,California,,San Jose
38.165.9.41,4,6,mljdglsz.com,US,Americas,Northern America,United States of America,California,,San Jose
38.14.183.44,4,12,mochichuju.com,US,Americas,Northern America,United States of America,California,,San Jose
54.151.5.97,4,-3,moonsindustries.com,US,Americas,Northern America,United States of America,California,,San Jose
52.9.91.45,4,-2,moonsindustries.com,US,Americas,Northern America,United States of America,California,,San Jose
52.9.211.125,4,0,motorcycleroads.com,US,Americas,Northern America,United States of America,California,,San Jose
54.183.64.37,4,4,motorcycleroads.com,US,Americas,Northern America,United States of America,California,,San Jose
38.14.88.141,4,7,motornext.cn,US,Americas,Northern America,United States of America,California,,San Jose
66.151.139.170,4,5,moxtra.com,US,Americas,Northern America,United States of America,California,,San Jose
64.64.31.180,4,1066,murwillumbahpoolshop.com,US,Americas,Northern America,United States of America,California,,San Jose
38.165.14.55,4,6,mushroomenglish.com,US,Americas,Northern America,United States of America,California,,San Jose
54.215.162.101,4,9,myblessedhome.net,US,Americas,Northern America,United States of America,California,,San Jose
38.165.10.51,4,30,myeverytimes.com,US,Americas,Northern America,United States of America,California,,San Jose
38.33.59.182,4,0,nakinewzealand.com.cn,US,Americas,Northern America,United States of America,California,,San Jose
38.165.11.61,4,6,nbbohe.com,US,Americas,Northern America,United States of America,California,,San Jose
38.165.9.38,4,5,nbyuanzhi.com,US,Americas,Northern America,United States of America,California,,San Jose
199.233.217.205,4,-4,netbsd.org,US,Americas,Northern America,United States of America,California,,San Jose
38.165.8.49,4,6,ngmjwj.com,US,Americas,Northern America,United States of America,California,,San Jose
38.165.15.39,4,3,njlthydp.com,US,Americas,Northern America,United States of America,California,,San Jose
38.165.13.56,4,5,njyjskj.com,US,Americas,Northern America,United States of America,California,,San Jose
23.82.16.156,4,12,northsouth.edu,US,Americas,Northern America,United States of America,California,,San Jose
38.127.242.172,4,21,nsssd.com,US,Americas,Northern America,United States of America,California,,San Jose
38.165.14.56,4,9,nxhuashengchang.com,US,Americas,Northern America,United States of America,California,,San Jose
38.14.81.42,4,2,nxinda.com.cn,US,Americas,Northern America,United States of America,California,,San Jose
38.165.12.41,4,8,nyyzwa.com,US,Americas,Northern America,United States of America,California,,San Jose
66.22.80.182,4,3,ocair.com,US,Americas,Northern America,United States of America,California,,San Jose
98.142.97.2,4,-230,ohmyheartsiegirl.com,US,Americas,Northern America,United States of America,California,,San Jose
64.71.4.102,4,282,Ookla Speedtest Server 17587: sfosfookla.wiline.com,US,Americas,Northern America,United States of America,California,,San Jose
70.42.212.53,4,121903,Ookla Speedtest Server 60616: speedtest.asymptote.cc,US,Americas,Northern America,United States of America,California,,San Jose
206.71.158.39,4,334,Ookla Speedtest Server 64108: speedtest.sv5.macarne.com,US,Americas,Northern America,United States of America,California,,San Jose
146.112.62.105,4,9,opendns.com,US,Americas,Northern America,United States of America,California,,San Jose
52.52.56.138,4,553,openmedicalpublishing.org,US,Americas,Northern America,United States of America,California,,San Jose
52.53.224.55,4,2,oualline.com,US,Americas,Northern America,United States of America,California,,San Jose
52.53.87.213,4,3,parksystems.com,US,Americas,Northern America,United States of America,California,,San Jose
54.183.255.224,4,37,parksystems.com,US,Americas,Northern America,United States of America,California,,San Jose
38.14.142.54,4,-227,pay680.com,US,Americas,Northern America,United States of America,California,,San Jose
151.101.42.165,4,27,pcworld.co.nz,US,Americas,Northern America,United States of America,California,,San Jose
98.142.97.82,4,18,pdfconverter.com,US,Americas,Northern America,United States of America,California,,San Jose
38.38.187.133,4,13,pfsw88888.com,US,Americas,Northern America,United States of America,California,,San Jose
64.64.30.230,4,343,photomosh.com,US,Americas,Northern America,United States of America,California,,San Jose
198.90.5.100,4,483,pinkbike.com,US,Americas,Northern America,United States of America,California,,San Jose
52.9.13.125,4,0,pinkbike.org,US,Americas,Northern America,United States of America,California,,San Jose
52.52.207.45,4,12,pinkbike.org,US,Americas,Northern America,United States of America,California,,San Jose
38.11.126.226,4,24,pinzhi-vip.com,US,Americas,Northern America,United States of America,California,,San Jose
199.233.217.207,4,-3,pkgsrc.org,US,Americas,Northern America,United States of America,California,,San Jose
38.165.12.37,4,5,ppxvtm.com,US,Americas,Northern America,United States of America,California,,San Jose
52.9.232.117,4,15,pumaoutlet-online.com,US,Americas,Northern America,United States of America,California,,San Jose
38.165.14.34,4,5,qbaqa.com,US,Americas,Northern America,United States of America,California,,San Jose
38.165.15.40,4,27,qc-bang.com,US,Americas,Northern America,United States of America,California,,San Jose
38.165.8.39,4,6,qckc0531.com,US,Americas,Northern America,United States of America,California,,San Jose
23.108.122.51,4,5,qdhongfan.com,US,Americas,Northern America,United States of America,California,,San Jose
38.165.10.54,4,6,qingdianyiren.com,US,Americas,Northern America,United States of America,California,,San Jose
38.11.32.39,4,1,qishilundao.com,US,Americas,Northern America,United States of America,California,,San Jose
38.127.241.30,4,14,qsdck.com,US,Americas,Northern America,United States of America,California,,San Jose
38.14.152.81,4,-1,qstyjg.com,US,Americas,Northern America,United States of America,California,,San Jose
216.21.3.77,4,7,quad9.net,US,Americas,Northern America,United States of America,California,,San Jose
38.33.53.248,4,2,qzkairun.com,US,Americas,Northern America,United States of America,California,,San Jose
206.214.210.171,4,342,rarebooksnetwork.com,US,Americas,Northern America,United States of America,California,,San Jose
38.165.13.34,4,6,rdzcpx.com,US,Americas,Northern America,United States of America,California,,San Jose
52.52.239.208,4,56,region10.org,US,Americas,Northern America,United States of America,California,,San Jose
52.8.15.40,4,63,region10.org,US,Americas,Northern America,United States of America,California,,San Jose
13.52.89.118,4,12,renfei.org,US,Americas,Northern America,United States of America,California,,San Jose
38.165.11.34,4,6,rmwkeji.com,US,Americas,Northern America,United States of America,California,,San Jose
147.75.201.43,4,23,rockcrawler.com,US,Americas,Northern America,United States of America,California,,San Jose
13.52.170.43,4,49,rollapp.com,US,Americas,Northern America,United States of America,California,,San Jose
13.57.159.171,4,8,rollapp.com,US,Americas,Northern America,United States of America,California,,San Jose
38.165.15.42,4,29,rongdatongxun.com,US,Americas,Northern America,United States of America,California,,San Jose
38.14.146.46,4,-267,ruishangtech.com,US,Americas,Northern America,United States of America,California,,San Jose
75.53.11.93,4,1,saabnet.com,US,Americas,Northern America,United States of America,California,,San Jose
38.14.187.98,4,21,sanlipeng.com,US,Americas,Northern America,United States of America,California,,San Jose
13.56.96.53,4,54,saurik.com,US,Americas,Northern America,United States of America,California,,San Jose
52.52.242.211,4,19,scoutapm.com,US,Americas,Northern America,United States of America,California,,San Jose
13.56.38.249,4,2,scoutapm.com,US,Americas,Northern America,United States of America,California,,San Jose
50.18.209.95,4,4,scoutapp.com,US,Americas,Northern America,United States of America,California,,San Jose
13.56.245.255,4,1,scoutapp.com,US,Americas,Northern America,United States of America,California,,San Jose
38.127.240.229,4,22,scutde.com,US,Americas,Northern America,United States of America,California,,San Jose
38.14.147.29,4,2,sdcnc.cn,US,Americas,Northern America,United States of America,California,,San Jose
38.165.13.55,4,4,sdlqbl.com,US,Americas,Northern America,United States of America,California,,San Jose
38.165.14.54,4,5,sdnlxypj.com,US,Americas,Northern America,United States of America,California,,San Jose
38.33.194.26,4,0,sdrdfy.cn,US,Americas,Northern America,United States of America,California,,San Jose
38.165.12.52,4,5,sdshiyueliang.com,US,Americas,Northern America,United States of America,California,,San Jose
38.11.32.35,4,29,senwulin.com,US,Americas,Northern America,United States of America,California,,San Jose
54.177.101.208,4,-1,serviceobjects.com,US,Americas,Northern America,United States of America,California,,San Jose
38.165.13.58,4,11,sfteacher.com,US,Americas,Northern America,United States of America,California,,San Jose
38.165.14.49,4,6,sh-yuang.com,US,Americas,Northern America,United States of America,California,,San Jose
38.127.240.123,4,11,shabu360.com,US,Americas,Northern America,United States of America,California,,San Jose
38.165.12.42,4,4,shanxuansc.com,US,Americas,Northern America,United States of America,California,,San Jose
38.11.126.247,4,17,shhwtg.com,US,Americas,Northern America,United States of America,California,,San Jose
38.165.14.57,4,5,shinetech-sh.com,US,Americas,Northern America,United States of America,California,,San Jose
38.12.88.207,4,2,shiyantx.com,US,Americas,Northern America,United States of America,California,,San Jose
38.165.13.50,4,5,shiyeyiyuan.com,US,Americas,Northern America,United States of America,California,,San Jose
38.165.15.46,4,5,shiyunfu.com,US,Americas,Northern America,United States of America,California,,San Jose
38.165.13.60,4,4,shsatuo.com,US,Americas,Northern America,United States of America,California,,San Jose
38.165.15.47,4,4,shunheyidiao.com,US,Americas,Northern America,United States of America,California,,San Jose
38.165.10.61,4,6,shyixinjy.com,US,Americas,Northern America,United States of America,California,,San Jose
38.165.10.34,4,4,shytgs88.com,US,Americas,Northern America,United States of America,California,,San Jose
38.14.146.50,4,-269,shzhigang.com,US,Americas,Northern America,United States of America,California,,San Jose
151.101.42.132,4,3,signarama.com,US,Americas,Northern America,United States of America,California,,San Jose
52.9.18.82,4,21,sildenafil.com,US,Americas,Northern America,United States of America,California,,San Jose
13.56.148.163,4,-3,sildenafil.com,US,Americas,Northern America,United States of America,California,,San Jose
38.165.8.50,4,12,sixmandarin.com,US,Americas,Northern America,United States of America,California,,San Jose
38.14.88.140,4,2,skauo.cn,US,Americas,Northern America,United States of America,California,,San Jose
38.14.107.85,4,43,skliangcang.com,US,Americas,Northern America,United States of America,California,,San Jose
52.53.74.42,4,1,smartbusinessdaily.com,US,Americas,Northern America,United States of America,California,,San Jose
38.11.127.210,4,18,so-easytest.com,US,Americas,Northern America,United States of America,California,,San Jose
38.165.12.44,4,40,solartriz.com,US,Americas,Northern America,United States of America,California,,San Jose
38.165.9.62,4,13,solution2all.com,US,Americas,Northern America,United States of America,California,,San Jose
54.215.149.26,4,74,speedvegas.com,US,Americas,Northern America,United States of America,California,,San Jose
52.8.181.27,4,-3,speedvegas.com,US,Americas,Northern America,United States of America,California,,San Jose
23.93.51.234,4,193,ssba.com,US,Americas,Northern America,United States of America,California,,San Jose
38.165.10.52,4,3,sslt888.com,US,Americas,Northern America,United States of America,California,,San Jose
38.174.183.5,4,92,st853.cn,US,Americas,Northern America,United States of America,California,,San Jose
38.38.191.137,4,3,suizhouyoutao.com,US,Americas,Northern America,United States of America,California,,San Jose
38.165.12.35,4,5,sundhospital.com,US,Americas,Northern America,United States of America,California,,San Jose
165.1.75.52,4,6,superforos.com,US,Americas,Northern America,United States of America,California,,San Jose
38.11.37.4,4,50,sw3y.com,US,Americas,Northern America,United States of America,California,,San Jose
38.165.12.36,4,5,sxebhy.com,US,Americas,Northern America,United States of America,California,,San Jose
38.127.243.10,4,26,sxlly.com,US,Americas,Northern America,United States of America,California,,San Jose
38.165.10.60,4,5,sxxdljx.com,US,Americas,Northern America,United States of America,California,,San Jose
38.38.191.141,4,3,syhaiduo.com,US,Americas,Northern America,United States of America,California,,San Jose
38.165.15.36,4,7,sylanyuan.com,US,Americas,Northern America,United States of America,California,,San Jose
13.57.77.174,4,-2,symbium.com,US,Americas,Northern America,United States of America,California,,San Jose
52.53.105.164,4,1,symbium.com,US,Americas,Northern America,United States of America,California,,San Jose
38.165.13.41,4,50,syshuanghe.com,US,Americas,Northern America,United States of America,California,,San Jose
38.11.85.186,4,3,szaib.com,US,Americas,Northern America,United States of America,California,,San Jose
38.165.10.59,4,5,szbeyoungdesign.com,US,Americas,Northern America,United States of America,California,,San Jose
38.38.191.25,4,1844,szjrxbz.com,US,Americas,Northern America,United States of America,California,,San Jose
38.12.27.121,4,14,szjyxb.com,US,Americas,Northern America,United States of America,California,,San Jose
38.38.191.145,4,3,szplits.com,US,Americas,Northern America,United States of America,California,,San Jose
38.165.15.43,4,5,szsruoying.com,US,Americas,Northern America,United States of America,California,,San Jose
38.14.84.1,4,4,taidr.com.cn,US,Americas,Northern America,United States of America,California,,San Jose
38.165.14.35,4,4,tangwgo.com,US,Americas,Northern America,United States of America,California,,San Jose
38.165.15.44,4,4,tanshaobawei.com,US,Americas,Northern America,United States of America,California,,San Jose
38.14.183.43,4,-1,tanzhiyang.com,US,Americas,Northern America,United States of America,California,,San Jose
64.64.21.19,4,522,teganandsara.com,US,Americas,Northern America,United States of America,California,,San Jose
206.214.211.172,4,26,thecount.com,US,Americas,Northern America,United States of America,California,,San Jose
38.33.13.4,4,-28005687,thedartmooryarncompany.com,US,Americas,Northern America,United States of America,California,,San Jose
38.99.122.16,4,3,thepetitionsite.com,US,Americas,Northern America,United States of America,California,,San Jose
38.99.122.18,4,40,thepetitionsite.com,US,Americas,Northern America,United States of America,California,,San Jose
38.99.122.17,4,50,thepetitionsite.com,US,Americas,Northern America,United States of America,California,,San Jose
38.165.12.43,4,5,tianshiba.com,US,Americas,Northern America,United States of America,California,,San Jose
52.9.108.68,4,11,ticktick.com,US,Americas,Northern America,United States of America,California,,San Jose
54.177.49.57,4,0,ticktick.com,US,Americas,Northern America,United States of America,California,,San Jose
38.12.88.210,4,4,tiechie-mall.com,US,Americas,Northern America,United States of America,California,,San Jose
38.165.15.41,4,4,tjxhsc888.com,US,Americas,Northern America,United States of America,California,,San Jose
38.11.85.189,4,2,tjyumeng.com,US,Americas,Northern America,United States of America,California,,San Jose
13.52.95.246,4,-1,tlv.com,US,Americas,Northern America,United States of America,California,,San Jose
38.165.15.37,4,6,tmgbk8.com,US,Americas,Northern America,United States of America,California,,San Jose
206.214.211.133,4,618,tomatoville.com,US,Americas,Northern America,United States of America,California,,San Jose
38.174.185.66,4,13,topmalledge.com,US,Americas,Northern America,United States of America,California,,San Jose
103.73.195.51,4,0,touchpal.com,US,Americas,Northern America,United States of America,California,,San Jose
38.12.88.211,4,2,toupaicaiwu.com,US,Americas,Northern America,United States of America,California,,San Jose
152.67.234.163,4,562092,treehouse.systems,US,Americas,Northern America,United States of America,California,,San Jose
38.12.1.27,4,-4,tspdssz.cn,US,Americas,Northern America,United States of America,California,,San Jose
38.11.127.207,4,16,ttqsmoke.com,US,Americas,Northern America,United States of America,California,,San Jose
38.165.8.47,4,4,ttxzg.com,US,Americas,Northern America,United States of America,California,,San Jose
38.14.185.48,4,11,tzdongniu.com,US,Americas,Northern America,United States of America,California,,San Jose
38.14.84.228,4,6,tzmz1915.cn,US,Americas,Northern America,United States of America,California,,San Jose
38.12.191.211,4,3,tzyihongjixie.com,US,Americas,Northern America,United States of America,California,,San Jose
66.22.80.219,4,9,uned.ac.cr,US,Americas,Northern America,United States of America,California,,San Jose
54.219.36.122,4,-4,uog.edu,US,Americas,Northern America,United States of America,California,,San Jose
38.127.242.232,4,6,upmego.com,US,Americas,Northern America,United States of America,California,,San Jose
173.249.199.163,4,2,upvote.au,US,Americas,Northern America,United States of America,California,,San Jose
64.64.24.127,4,4,userealbutter.com,US,Americas,Northern America,United States of America,California,,San Jose
38.28.249.116,4,2,uvttv.com,US,Americas,Northern America,United States of America,California,,San Jose
149.36.48.12,4,14,veoh.com,US,Americas,Northern America,United States of America,California,,San Jose
149.36.48.13,4,26,veoh.com,US,Americas,Northern America,United States of America,California,,San Jose
149.36.48.11,4,14,veoh.com,US,Americas,Northern America,United States of America,California,,San Jose
52.53.173.61,4,-3,veryhuasuan.com,US,Americas,Northern America,United States of America,California,,San Jose
54.176.110.96,4,5,vir.bio,US,Americas,Northern America,United States of America,California,,San Jose
50.18.203.130,4,1,w-uh.com,US,Americas,Northern America,United States of America,California,,San Jose
38.174.135.117,4,1,wakbbfhhh.cn,US,Americas,Northern America,United States of America,California,,San Jose
38.12.88.213,4,11,walanganoman.com,US,Americas,Northern America,United States of America,California,,San Jose
38.12.169.241,4,0,walmart-pharm.net,US,Americas,Northern America,United States of America,California,,San Jose
38.14.113.237,4,9,waltsocks.com,US,Americas,Northern America,United States of America,California,,San Jose
38.165.13.42,4,-10,wanniujianzhu.com,US,Americas,Northern America,United States of America,California,,San Jose
38.165.12.55,4,-16,wanpincg.com,US,Americas,Northern America,United States of America,California,,San Jose
13.56.152.68,4,4,waverleysoftware.com,US,Americas,Northern America,United States of America,California,,San Jose
38.165.12.40,4,-17,webppneductrain.com,US,Americas,Northern America,United States of America,California,,San Jose
54.67.98.83,4,20,weecare.co,US,Americas,Northern America,United States of America,California,,San Jose
52.9.154.175,4,29,weecare.co,US,Americas,Northern America,United States of America,California,,San Jose
38.165.10.62,4,-21,weofcity.com,US,Americas,Northern America,United States of America,California,,San Jose
52.8.190.134,4,10,wetdesign.com,US,Americas,Northern America,United States of America,California,,San Jose
52.53.43.79,4,1,wisetour.com,US,Americas,Northern America,United States of America,California,,San Jose
54.215.149.28,4,5,wisetour.com,US,Americas,Northern America,United States of America,California,,San Jose
38.14.218.46,4,-45,wnmotor-share.top,US,Americas,Northern America,United States of America,California,,San Jose
38.165.11.58,4,-19,wodessay.com,US,Americas,Northern America,United States of America,California,,San Jose
151.101.40.204,4,2,wowwiki.com,US,Americas,Northern America,United States of America,California,,San Jose
192.18.143.53,4,9,wqidian.com,US,Americas,Northern America,United States of America,California,,San Jose
38.165.14.43,4,-15,wxzuimei.com,US,Americas,Northern America,United States of America,California,,San Jose
38.38.162.208,4,-321610,xahuance.com,US,Americas,Northern America,United States of America,California,,San Jose
38.165.14.38,4,-22,xbjclm.com,US,Americas,Northern America,United States of America,California,,San Jose
38.165.13.46,4,-18,xclm178.com,US,Americas,Northern America,United States of America,California,,San Jose
38.127.241.166,4,-12,xdyt668.com,US,Americas,Northern America,United States of America,California,,San Jose
38.11.85.182,4,7,xgcdj.com,US,Americas,Northern America,United States of America,California,,San Jose
38.165.14.50,4,-20,xiangcuntanmi.com,US,Americas,Northern America,United States of America,California,,San Jose
38.165.11.57,4,-19,xianshutech.com,US,Americas,Northern America,United States of America,California,,San Jose
38.165.14.46,4,-14,xiaopingartschool.com,US,Americas,Northern America,United States of America,California,,San Jose
38.28.129.74,4,-270,xinfanwuliu.com,US,Americas,Northern America,United States of America,California,,San Jose
38.165.12.51,4,-13,xingzhengrenli.com,US,Americas,Northern America,United States of America,California,,San Jose
38.14.142.53,4,-270,xinsehe.com,US,Americas,Northern America,United States of America,California,,San Jose
38.165.13.47,4,-18,xintushop.com,US,Americas,Northern America,United States of America,California,,San Jose
38.12.142.248,4,33,xjqx.cn,US,Americas,Northern America,United States of America,California,,San Jose
38.165.10.48,4,-19,xjzhjx.com,US,Americas,Northern America,United States of America,California,,San Jose
38.165.15.38,4,-17,xlmjg008.com,US,Americas,Northern America,United States of America,California,,San Jose
38.14.81.56,4,2,xmhynh.cn,US,Americas,Northern America,United States of America,California,,San Jose
38.165.12.38,4,-17,xuchangfengming.com,US,Americas,Northern America,United States of America,California,,San Jose
38.33.228.108,4,7032,xylmr.com,US,Americas,Northern America,United States of America,California,,San Jose
38.11.85.188,4,3,xyzhenzhuyan.cn,US,Americas,Northern America,United States of America,California,,San Jose
38.14.183.57,4,-1,xzyouku.com,US,Americas,Northern America,United States of America,California,,San Jose
38.28.184.19,4,3,yanyuyuanda.com,US,Americas,Northern America,United States of America,California,,San Jose
38.173.193.107,4,-32841,yayimanti.com,US,Americas,Northern America,United States of America,California,,San Jose
38.14.83.81,4,2,ycyfbz.cn,US,Americas,Northern America,United States of America,California,,San Jose
38.11.32.37,4,0,yek44.com,US,Americas,Northern America,United States of America,California,,San Jose
38.33.11.170,4,1,ygfsxyjy.com,US,Americas,Northern America,United States of America,California,,San Jose
38.14.69.154,4,1841,yhfztz.com,US,Americas,Northern America,United States of America,California,,San Jose
38.165.13.38,4,-12,yhhg0554.com,US,Americas,Northern America,United States of America,California,,San Jose
38.165.13.44,4,-24,yidianzhushou.com,US,Americas,Northern America,United States of America,California,,San Jose
38.14.133.180,4,7035,yingfengty.com,US,Americas,Northern America,United States of America,California,,San Jose
38.165.8.46,4,-17,yingkaidj.com,US,Americas,Northern America,United States of America,California,,San Jose
38.165.13.57,4,-20,yinsinuoche.com,US,Americas,Northern America,United States of America,California,,San Jose
38.12.142.246,4,32,ylstudy.com,US,Americas,Northern America,United States of America,California,,San Jose
38.14.217.44,4,-41,yms88.top,US,Americas,Northern America,United States of America,California,,San Jose
52.52.75.250,4,1,yoair.com,US,Americas,Northern America,United States of America,California,,San Jose
38.165.15.48,4,-18,yongyuyi.com,US,Americas,Northern America,United States of America,California,,San Jose
38.165.14.51,4,-14,youquan008.com,US,Americas,Northern America,United States of America,California,,San Jose
38.28.188.58,4,4,yqtltx.com,US,Americas,Northern America,United States of America,California,,San Jose
38.14.183.38,4,-1,yuanbuluojuluobu.com,US,Americas,Northern America,United States of America,California,,San Jose
38.174.181.122,4,2,yuandaocn.com,US,Americas,Northern America,United States of America,California,,San Jose
38.165.13.45,4,-16,yuanxueline.com,US,Americas,Northern America,United States of America,California,,San Jose
52.9.190.100,4,8,yujawang.com,US,Americas,Northern America,United States of America,California,,San Jose
38.11.125.227,4,16,yunhuibao6.com,US,Americas,Northern America,United States of America,California,,San Jose
38.165.9.45,4,-15,yushengpay.com,US,Americas,Northern America,United States of America,California,,San Jose
38.165.9.61,4,-12,yuwojiaoyu.com,US,Americas,Northern America,United States of America,California,,San Jose
38.14.144.44,4,-270,yvzjnd.com,US,Americas,Northern America,United States of America,California,,San Jose
38.11.52.45,4,4,yzblp.com,US,Americas,Northern America,United States of America,California,,San Jose
38.165.11.62,4,-14,zbbinda.com,US,Americas,Northern America,United States of America,California,,San Jose
38.165.10.58,4,-20,zbyccy.com,US,Americas,Northern America,United States of America,California,,San Jose
38.127.242.230,4,-14,zcz88.com,US,Americas,Northern America,United States of America,California,,San Jose
38.165.13.48,4,-17,zhaoyu5556.com,US,Americas,Northern America,United States of America,California,,San Jose
38.14.107.92,4,0,zhihetraining.com,US,Americas,Northern America,United States of America,California,,San Jose
38.14.144.51,4,-269,zhiqixingqi.com,US,Americas,Northern America,United States of America,California,,San Jose
38.165.13.49,4,-18,zhongchancap.com,US,Americas,Northern America,United States of America,California,,San Jose
38.165.10.47,4,-22,zhongchuang-edu.com,US,Americas,Northern America,United States of America,California,,San Jose
38.165.15.34,4,-19,zhongheyi888.com,US,Americas,Northern America,United States of America,California,,San Jose
38.14.88.153,4,4,zhubao168.com.cn,US,Americas,Northern America,United States of America,California,,San Jose
38.165.14.47,4,-21,zhzs09.com,US,Americas,Northern America,United States of America,California,,San Jose
38.14.107.76,4,52,zilianw.com,US,Americas,Northern America,United States of America,California,,San Jose
38.165.14.42,4,-9,zjdisheng.com,US,Americas,Northern America,United States of America,California,,San Jose
38.173.193.106,4,-32840,zkdmdy.com,US,Americas,Northern America,United States of America,California,,San Jose
13.56.33.8,4,4,zoto.com,US,Americas,Northern America,United States of America,California,,San Jose
38.12.1.28,4,5,zponjrr.cn,US,Americas,Northern America,United States of America,California,,San Jose
38.173.193.114,4,-32840,zx-opto.com,US,Americas,Northern America,United States of America,California,,San Jose
38.11.126.241,4,15,zyyuo.com,US,Americas,Northern America,United States of America,California,,San Jose
38.165.13.37,4,-16,zzfsmw.com,US,Americas,Northern America,United States of America,California,,San Jose
38.11.85.180,4,3,zzxsczy.com,US,Americas,Northern America,United States of America,California,,San Jose
