reflector_ip,ip_version,offset,description,country_code,region,sub_region,country_name,sub_division_1,sub_division_2,city
74.207.248.140,4,7,11secondclub.com,US,Americas,Northern America,United States of America,California,,Fremont
192.155.83.150,4,6,1976design.com,US,Americas,Northern America,United States of America,California,,Fremont
173.255.254.49,4,9,1keydata.com,US,Americas,Northern America,United States of America,California,,Fremont
45.79.80.120,4,4,2carpros.com,US,Americas,Northern America,United States of America,California,,Fremont
45.33.45.201,4,9,3d-scantech.com,US,Americas,Northern America,United States of America,California,,Fremont
23.239.21.21,4,6,4gltemall.com,US,Americas,Northern America,United States of America,California,,Fremont
192.155.86.138,4,4,58kt.com,US,Americas,Northern America,United States of America,California,,Fremont
74.207.254.164,4,4,5ball.com,US,Americas,Northern America,United States of America,California,,Fremont
45.33.35.159,4,31,accendoreliability.com,US,Americas,Northern America,United States of America,California,,Fremont
23.92.26.186,4,7,acroname.com,US,Americas,Northern America,United States of America,California,,Fremont
74.207.240.64,4,21,actionkit.com,US,Americas,Northern America,United States of America,California,,Fremont
173.255.247.113,4,48,adahome.com,US,Americas,Northern America,United States of America,California,,Fremont
173.255.253.151,4,50,aerobile.com,US,Americas,Northern America,United States of America,California,,Fremont
173.255.249.21,4,3,aimath.org,US,Americas,Northern America,United States of America,California,,Fremont
173.255.211.158,4,13,algoname.com,US,Americas,Northern America,United States of America,California,,Fremont
45.56.91.79,4,973393,allegistranscription.com,US,Americas,Northern America,United States of America,California,,Fremont
50.116.2.148,4,31,allproducts.com,US,Americas,Northern America,United States of America,California,,Fremont
192.155.83.248,4,3,amuselabs.com,US,Americas,Northern America,United States of America,California,,Fremont
173.255.240.206,4,6,annexgalleries.com,US,Americas,Northern America,United States of America,California,,Fremont
96.126.98.21,4,24,annonline.com,US,Americas,Northern America,United States of America,California,,Fremont
45.79.97.253,4,6,antimatrix.org,US,Americas,Northern America,United States of America,California,,Fremont
74.207.252.179,4,20,apenwarr.ca,US,Americas,Northern America,United States of America,California,,Fremont
74.207.246.137,4,4,arctic.org,US,Americas,Northern America,United States of America,California,,Fremont
173.255.251.245,4,29,artists.ca,US,Americas,Northern America,United States of America,California,,Fremont
173.255.242.112,4,22,artsandmusicpa.com,US,Americas,Northern America,United States of America,California,,Fremont
45.33.52.142,4,9,ascentmagazine.com,US,Americas,Northern America,United States of America,California,,Fremont
45.79.66.52,4,32,aspiesforfreedom.com,US,Americas,Northern America,United States of America,California,,Fremont
104.237.156.103,4,10,asuw.org,US,Americas,Northern America,United States of America,California,,Fremont
45.79.81.245,4,7,atomisystems.com,US,Americas,Northern America,United States of America,California,,Fremont
45.79.65.251,4,14,audentio.com,US,Americas,Northern America,United States of America,California,,Fremont
173.230.155.187,4,9,audio-surf.com,US,Americas,Northern America,United States of America,California,,Fremont
45.79.82.237,4,31,auslogics.com,US,Americas,Northern America,United States of America,California,,Fremont
45.79.228.178,4,23,automuseum.org,US,Americas,Northern America,United States of America,California,,Fremont
45.33.105.166,4,24,auw.org,US,Americas,Northern America,United States of America,California,,Fremont
74.207.250.219,4,4,avoiceformen.com,US,Americas,Northern America,United States of America,California,,Fremont
173.255.242.227,4,39,bababrinkman.com,US,Americas,Northern America,United States of America,California,,Fremont
66.175.220.61,4,5,badpets.net,US,Americas,Northern America,United States of America,California,,Fremont
50.116.12.212,4,1165,barrameda.com.ar,US,Americas,Northern America,United States of America,California,,Fremont
96.126.101.124,4,5,baseball-cards.com,US,Americas,Northern America,United States of America,California,,Fremont
192.81.132.103,4,36,beachwoodbrewing.com,US,Americas,Northern America,United States of America,California,,Fremont
192.155.80.225,4,6,bearaudiotool.com,US,Americas,Northern America,United States of America,California,,Fremont
96.126.101.56,4,9,beesbuzz.biz,US,Americas,Northern America,United States of America,California,,Fremont
45.79.75.95,4,2,betterphoto.com,US,Americas,Northern America,United States of America,California,,Fremont
104.237.158.18,4,654,bicycletutor.com,US,Americas,Northern America,United States of America,California,,Fremont
45.79.115.146,4,8,bigwinds.com,US,Americas,Northern America,United States of America,California,,Fremont
45.56.94.168,4,6,biodiversitylinks.org,US,Americas,Northern America,United States of America,California,,Fremont
96.126.100.83,4,10,biodynamics.com,US,Americas,Northern America,United States of America,California,,Fremont
104.237.158.185,4,80,bitkeeper.org,US,Americas,Northern America,United States of America,California,,Fremont
192.81.133.4,4,3,bluesea.com,US,Americas,Northern America,United States of America,California,,Fremont
45.79.91.206,4,6,bmcm.org,US,Americas,Northern America,United States of America,California,,Fremont
45.56.90.211,4,117233,bmwmotorcycletech.info,US,Americas,Northern America,United States of America,California,,Fremont
45.56.81.61,4,3,bobgoldpr.com,US,Americas,Northern America,United States of America,California,,Fremont
173.255.251.69,4,3,bonito-packaging.com,US,Americas,Northern America,United States of America,California,,Fremont
192.81.132.132,4,4,bonkersinstitute.org,US,Americas,Northern America,United States of America,California,,Fremont
23.92.27.171,4,26,bowtieapp.com,US,Americas,Northern America,United States of America,California,,Fremont
45.79.71.126,4,2,briandunning.com,US,Americas,Northern America,United States of America,California,,Fremont
45.33.55.219,4,2,bu.mp,US,Americas,Northern America,United States of America,California,,Fremont
50.116.6.80,4,2500,bumwine.com,US,Americas,Northern America,United States of America,California,,Fremont
23.239.2.211,4,5,burnermail.io,US,Americas,Northern America,United States of America,California,,Fremont
50.116.8.124,4,61,businessbankruptcies.com,US,Americas,Northern America,United States of America,California,,Fremont
45.33.104.23,4,6,buymeapie.com,US,Americas,Northern America,United States of America,California,,Fremont
50.116.10.186,4,4,byvoid.com,US,Americas,Northern America,United States of America,California,,Fremont
173.255.214.29,4,6,carifree.com,US,Americas,Northern America,United States of America,California,,Fremont
45.33.108.28,4,4,casinoslots.net,US,Americas,Northern America,United States of America,California,,Fremont
66.175.223.105,4,48,ceres-solver.org,US,Americas,Northern America,United States of America,California,,Fremont
173.255.243.251,4,7,chabotspace.org,US,Americas,Northern America,United States of America,California,,Fremont
173.255.209.81,4,2,cheapbotsdonequick.com,US,Americas,Northern America,United States of America,California,,Fremont
50.116.1.176,4,3,childrensparadise.com,US,Americas,Northern America,United States of America,California,,Fremont
45.33.47.125,4,6,chrisguillebeau.com,US,Americas,Northern America,United States of America,California,,Fremont
23.239.22.13,4,7,christiananswers.net,US,Americas,Northern America,United States of America,California,,Fremont
74.207.254.42,4,1234535,chromefans.org,US,Americas,Northern America,United States of America,California,,Fremont
50.116.11.100,4,15,chucklorre.com,US,Americas,Northern America,United States of America,California,,Fremont
173.255.217.109,4,4,circusponies.com,US,Americas,Northern America,United States of America,California,,Fremont
45.79.225.139,4,-1,cityers.com,US,Americas,Northern America,United States of America,California,,Fremont
74.207.244.182,4,47,classicexhibits.com,US,Americas,Northern America,United States of America,California,,Fremont
45.79.93.41,4,29,clker.com,US,Americas,Northern America,United States of America,California,,Fremont
74.207.252.192,4,2,cnfa.org,US,Americas,Northern America,United States of America,California,,Fremont
50.116.5.166,4,58244,cnhfpipe.com,US,Americas,Northern America,United States of America,California,,Fremont
45.33.39.217,4,10,cockeyed.com,US,Americas,Northern America,United States of America,California,,Fremont
173.255.219.70,4,8,codingbat.com,US,Americas,Northern America,United States of America,California,,Fremont
45.79.68.99,4,21,codingblocks.net,US,Americas,Northern America,United States of America,California,,Fremont
23.92.24.192,4,425216,codingnow.com,US,Americas,Northern America,United States of America,California,,Fremont
45.79.68.24,4,4,coiab.org.br,US,Americas,Northern America,United States of America,California,,Fremont
173.255.212.92,4,863684,colormind.io,US,Americas,Northern America,United States of America,California,,Fremont
192.155.82.16,4,3,communitylegalservice.net,US,Americas,Northern America,United States of America,California,,Fremont
74.207.244.249,4,48,comparewords.com,US,Americas,Northern America,United States of America,California,,Fremont
45.79.78.123,4,2,concordia.net,US,Americas,Northern America,United States of America,California,,Fremont
173.255.244.244,4,1,constitutionallyspeaking.co.za,US,Americas,Northern America,United States of America,California,,Fremont
45.79.74.161,4,6,convivea.com,US,Americas,Northern America,United States of America,California,,Fremont
50.116.3.150,4,7,coocox.org,US,Americas,Northern America,United States of America,California,,Fremont
96.126.100.86,4,13,couleursapp.com,US,Americas,Northern America,United States of America,California,,Fremont
104.237.155.209,4,81,culturaltrust.org,US,Americas,Northern America,United States of America,California,,Fremont
198.74.49.153,4,10,cushycms.com,US,Americas,Northern America,United States of America,California,,Fremont
66.175.218.12,4,6,cyanworlds.com,US,Americas,Northern America,United States of America,California,,Fremont
50.116.5.251,4,3,danplanet.com,US,Americas,Northern America,United States of America,California,,Fremont
96.126.102.146,4,91,dating-russian-brides.com,US,Americas,Northern America,United States of America,California,,Fremont
104.200.24.76,4,2,debevec.org,US,Americas,Northern America,United States of America,California,,Fremont
50.116.4.133,4,3,debuggex.com,US,Americas,Northern America,United States of America,California,,Fremont
74.207.252.81,4,3,delmain.co,US,Americas,Northern America,United States of America,California,,Fremont
45.56.82.204,4,198461,dentalget.com,US,Americas,Northern America,United States of America,California,,Fremont
45.79.73.148,4,3,deuceofclubs.com,US,Americas,Northern America,United States of America,California,,Fremont
96.126.103.196,4,9,didierstevens.com,US,Americas,Northern America,United States of America,California,,Fremont
23.239.5.85,4,303,DNS Server: li699-85.members.linode.com,US,Americas,Northern America,United States of America,California,,Fremont
45.33.33.234,4,324,DNS Server: li983-234.members.linode.com,US,Americas,Northern America,United States of America,California,,Fremont
45.33.41.203,4,0,doomshack.org,US,Americas,Northern America,United States of America,California,,Fremont
96.126.96.32,4,88,dssurl.com,US,Americas,Northern America,United States of America,California,,Fremont
198.74.50.19,4,2,dx.am,US,Americas,Northern America,United States of America,California,,Fremont
96.126.102.96,4,558,eastcountymagazine.org,US,Americas,Northern America,United States of America,California,,Fremont
45.79.72.161,4,4,eastdesign.net,US,Americas,Northern America,United States of America,California,,Fremont
45.79.224.78,4,12,edisonenergy.com,US,Americas,Northern America,United States of America,California,,Fremont
45.33.35.166,4,0,endlessgames.com,US,Americas,Northern America,United States of America,California,,Fremont
45.33.47.154,4,1513,eopugetsound.org,US,Americas,Northern America,United States of America,California,,Fremont
74.207.242.85,4,15,evilmadscience.com,US,Americas,Northern America,United States of America,California,,Fremont
45.56.84.144,4,23,exitinternational.net,US,Americas,Northern America,United States of America,California,,Fremont
173.230.148.231,4,28,exoplanets.org,US,Americas,Northern America,United States of America,California,,Fremont
173.230.146.53,4,64,expatistan.com,US,Americas,Northern America,United States of America,California,,Fremont
173.255.241.205,4,20,eye-of-newt.com,US,Americas,Northern America,United States of America,California,,Fremont
173.255.219.46,4,3,fabrikmagazine.com,US,Americas,Northern America,United States of America,California,,Fremont
50.116.1.240,4,596080,family1st.io,US,Americas,Northern America,United States of America,California,,Fremont
192.81.133.24,4,5,fastcomments.com,US,Americas,Northern America,United States of America,California,,Fremont
173.255.221.44,4,22,fatcatsoftware.com,US,Americas,Northern America,United States of America,California,,Fremont
173.255.247.124,4,4,fedpaymentsimprovement.org,US,Americas,Northern America,United States of America,California,,Fremont
66.175.221.207,4,64,filmpreservation.org,US,Americas,Northern America,United States of America,California,,Fremont
74.207.249.205,4,50,finance-cn.com,US,Americas,Northern America,United States of America,California,,Fremont
50.116.1.144,4,5,financetrainingtopics.com,US,Americas,Northern America,United States of America,California,,Fremont
45.33.41.26,4,5,firsttracksonline.com,US,Americas,Northern America,United States of America,California,,Fremont
45.33.57.254,4,20,fishingreminder.com,US,Americas,Northern America,United States of America,California,,Fremont
45.79.95.89,4,3,fishsniffer.com,US,Americas,Northern America,United States of America,California,,Fremont
74.207.245.61,4,3,flamingspork.com,US,Americas,Northern America,United States of America,California,,Fremont
173.255.214.197,4,3,fleetscience.org,US,Americas,Northern America,United States of America,California,,Fremont
45.33.61.48,4,5,flippengroup.com,US,Americas,Northern America,United States of America,California,,Fremont
173.230.155.139,4,6,fltk.org,US,Americas,Northern America,United States of America,California,,Fremont
173.255.221.236,4,7,fluidr.com,US,Americas,Northern America,United States of America,California,,Fremont
74.207.246.29,4,10,fluorofinder.com,US,Americas,Northern America,United States of America,California,,Fremont
173.255.221.229,4,2,fnd.to,US,Americas,Northern America,United States of America,California,,Fremont
50.116.4.130,4,215546,fontcubes.com,US,Americas,Northern America,United States of America,California,,Fremont
45.79.98.180,4,51,foreverredwood.com,US,Americas,Northern America,United States of America,California,,Fremont
45.79.80.165,4,13,fossilera.com,US,Americas,Northern America,United States of America,California,,Fremont
23.92.24.82,4,2,fqxi.org,US,Americas,Northern America,United States of America,California,,Fremont
74.207.253.81,4,2,freehtmldesigns.com,US,Americas,Northern America,United States of America,California,,Fremont
45.79.83.238,4,3,friend.camp,US,Americas,Northern America,United States of America,California,,Fremont
173.230.148.242,4,127208,friendlyelec.com,US,Americas,Northern America,United States of America,California,,Fremont
173.230.148.37,4,4,fukuchi.org,US,Americas,Northern America,United States of America,California,,Fremont
45.79.102.42,4,35,gamesandcasino.com,US,Americas,Northern America,United States of America,California,,Fremont
74.207.252.230,4,11,geckotribe.com,US,Americas,Northern America,United States of America,California,,Fremont
50.116.7.85,4,11,genocideeducation.org,US,Americas,Northern America,United States of America,California,,Fremont
192.155.81.176,4,23,geoipview.com,US,Americas,Northern America,United States of America,California,,Fremont
45.79.86.10,4,4,getpagespeed.com,US,Americas,Northern America,United States of America,California,,Fremont
74.207.241.115,4,15,glench.com,US,Americas,Northern America,United States of America,California,,Fremont
173.255.214.219,4,5,gleon.org,US,Americas,Northern America,United States of America,California,,Fremont
23.239.4.141,4,13,goalkicker.com,US,Americas,Northern America,United States of America,California,,Fremont
96.126.100.158,4,23,goodstop10.com,US,Americas,Northern America,United States of America,California,,Fremont
50.116.12.238,4,3,gracethrufaith.com,US,Americas,Northern America,United States of America,California,,Fremont
23.239.1.164,4,19,graphicall.org,US,Americas,Northern America,United States of America,California,,Fremont
74.207.246.10,4,3,graphicsfactory.com,US,Americas,Northern America,United States of America,California,,Fremont
192.81.135.44,4,6,greaterwrong.com,US,Americas,Northern America,United States of America,California,,Fremont
45.56.83.179,4,26,gregshealthjournal.com,US,Americas,Northern America,United States of America,California,,Fremont
45.79.87.223,4,10,guildofarchivists.org,US,Americas,Northern America,United States of America,California,,Fremont
192.155.82.43,4,235332,guoziweb.com,US,Americas,Northern America,United States of America,California,,Fremont
23.239.2.229,4,2,gymmasteronline.com,US,Americas,Northern America,United States of America,California,,Fremont
96.126.96.97,4,18,hamillgallery.com,US,Americas,Northern America,United States of America,California,,Fremont
192.53.125.126,4,4,harnesslink.com,US,Americas,Northern America,United States of America,California,,Fremont
45.79.100.227,4,18,harringtonhoists.com,US,Americas,Northern America,United States of America,California,,Fremont
45.33.111.28,4,4,hexun.com.tw,US,Americas,Northern America,United States of America,California,,Fremont
173.230.152.32,4,605945,hivandhepatitis.com,US,Americas,Northern America,United States of America,California,,Fremont
45.79.89.75,4,6,hmlanding.com,US,Americas,Northern America,United States of America,California,,Fremont
23.92.25.73,4,3,homeyhawaii.com,US,Americas,Northern America,United States of America,California,,Fremont
96.126.99.33,4,8,hooktheory.com,US,Americas,Northern America,United States of America,California,,Fremont
173.255.244.176,4,7,hpcalc.org,US,Americas,Northern America,United States of America,California,,Fremont
45.79.77.178,4,5,humanclock.com,US,Americas,Northern America,United States of America,California,,Fremont
50.116.15.81,4,6,humblesoftware.com,US,Americas,Northern America,United States of America,California,,Fremont
50.116.3.242,4,2,hyperpolyglot.org,US,Americas,Northern America,United States of America,California,,Fremont
96.126.97.217,4,6,icefestivalharbin.com,US,Americas,Northern America,United States of America,California,,Fremont
45.79.109.213,4,410,ichiban1.org,US,Americas,Northern America,United States of America,California,,Fremont
45.33.58.244,4,-3,idealtax.com,US,Americas,Northern America,United States of America,California,,Fremont
173.255.208.217,4,5,ideosphere.com,US,Americas,Northern America,United States of America,California,,Fremont
45.79.99.86,4,28,idmforums.com,US,Americas,Northern America,United States of America,California,,Fremont
173.255.249.51,4,16,igeekphone.com,US,Americas,Northern America,United States of America,California,,Fremont
50.116.6.178,4,1,ihax0r.com,US,Americas,Northern America,United States of America,California,,Fremont
45.79.107.192,4,1,iieta.org,US,Americas,Northern America,United States of America,California,,Fremont
45.79.67.77,4,11,imtx.me,US,Americas,Northern America,United States of America,California,,Fremont
74.207.251.42,4,1537823,incise.org,US,Americas,Northern America,United States of America,California,,Fremont
104.237.158.110,4,33,indieweb.org,US,Americas,Northern America,United States of America,California,,Fremont
173.255.212.226,4,10,ingber.com,US,Americas,Northern America,United States of America,California,,Fremont
198.74.50.147,4,959794,inogolo.com,US,Americas,Northern America,United States of America,California,,Fremont
45.79.111.244,4,5,insani.org,US,Americas,Northern America,United States of America,California,,Fremont
104.237.154.11,4,55,intherooms.com,US,Americas,Northern America,United States of America,California,,Fremont
198.74.48.193,4,246562,investfeed.com,US,Americas,Northern America,United States of America,California,,Fremont
23.239.3.27,4,122451,iotdesignpro.com,US,Americas,Northern America,United States of America,California,,Fremont
45.33.41.7,4,47,iplaysoft.com,US,Americas,Northern America,United States of America,California,,Fremont
192.81.135.74,4,47,issarice.com,US,Americas,Northern America,United States of America,California,,Fremont
104.237.154.219,4,4,istumbler.net,US,Americas,Northern America,United States of America,California,,Fremont
45.79.115.66,4,13,itch.io,US,Americas,Northern America,United States of America,California,,Fremont
50.116.4.60,4,4,itopomaps.com,US,Americas,Northern America,United States of America,California,,Fremont
45.33.45.191,4,34,jacquesmariemage.com,US,Americas,Northern America,United States of America,California,,Fremont
66.175.220.195,4,21,jasonwebley.com,US,Americas,Northern America,United States of America,California,,Fremont
173.230.156.128,4,6,jihosoft.com,US,Americas,Northern America,United States of America,California,,Fremont
192.81.132.174,4,27,jneen.net,US,Americas,Northern America,United States of America,California,,Fremont
96.126.97.132,4,22,joshondesign.com,US,Americas,Northern America,United States of America,California,,Fremont
192.155.85.199,4,3,kaleb.co,US,Americas,Northern America,United States of America,California,,Fremont
173.255.249.177,4,45,kalsey.com,US,Americas,Northern America,United States of America,California,,Fremont
50.116.4.32,4,4,kei.com,US,Americas,Northern America,United States of America,California,,Fremont
50.116.0.12,4,3,keryet.com,US,Americas,Northern America,United States of America,California,,Fremont
50.116.2.70,4,-2,kiwisdr.com,US,Americas,Northern America,United States of America,California,,Fremont
45.56.94.222,4,2,ktasuperstores.com,US,Americas,Northern America,United States of America,California,,Fremont
104.237.157.180,4,5,kylc.com,US,Americas,Northern America,United States of America,California,,Fremont
50.116.11.90,4,4,landartgenerator.org,US,Americas,Northern America,United States of America,California,,Fremont
192.81.132.241,4,9,langtolang.com,US,Americas,Northern America,United States of America,California,,Fremont
45.33.104.79,4,16,larimerhumane.org,US,Americas,Northern America,United States of America,California,,Fremont
45.33.33.137,4,11,leawo.com,US,Americas,Northern America,United States of America,California,,Fremont
23.239.3.106,4,96987,letsfilm.org,US,Americas,Northern America,United States of America,California,,Fremont
23.239.0.78,4,881338,livepopulation.com,US,Americas,Northern America,United States of America,California,,Fremont
74.207.247.6,4,5,lmsvschools.org,US,Americas,Northern America,United States of America,California,,Fremont
45.79.98.225,4,4,loomcom.com,US,Americas,Northern America,United States of America,California,,Fremont
50.116.0.43,4,5,lowcarboneday.com,US,Americas,Northern America,United States of America,California,,Fremont
45.33.61.132,4,22,luarocks.org,US,Americas,Northern America,United States of America,California,,Fremont
50.116.7.221,4,7,lucidity.com,US,Americas,Northern America,United States of America,California,,Fremont
23.239.20.10,4,43,luckylasers.com,US,Americas,Northern America,United States of America,California,,Fremont
66.175.218.227,4,5,mabinogiworld.com,US,Americas,Northern America,United States of America,California,,Fremont
45.56.94.93,4,4,mactech.com,US,Americas,Northern America,United States of America,California,,Fremont
74.207.249.251,4,2,maidenfans.com,US,Americas,Northern America,United States of America,California,,Fremont
23.92.26.112,4,4,maldef.org,US,Americas,Northern America,United States of America,California,,Fremont
173.255.210.126,4,7,malibutimes.com,US,Americas,Northern America,United States of America,California,,Fremont
74.207.240.43,4,5,marks4antiques.com,US,Americas,Northern America,United States of America,California,,Fremont
45.56.88.230,4,6,markstewart.com,US,Americas,Northern America,United States of America,California,,Fremont
45.79.77.14,4,3,marshallmcluhan.com,US,Americas,Northern America,United States of America,California,,Fremont
23.239.2.166,4,3,maskray.me,US,Americas,Northern America,United States of America,California,,Fremont
23.239.20.80,4,7,maykool.com,US,Americas,Northern America,United States of America,California,,Fremont
45.56.83.210,4,9,mediacoderhq.com,US,Americas,Northern America,United States of America,California,,Fremont
45.79.228.171,4,76,mediacontentlab.com,US,Americas,Northern America,United States of America,California,,Fremont
23.92.26.85,4,20,megamotormadness.com,US,Americas,Northern America,United States of America,California,,Fremont
173.255.215.113,4,15,metalreviews.com,US,Americas,Northern America,United States of America,California,,Fremont
173.230.149.130,4,5,milwaukeewave.com,US,Americas,Northern America,United States of America,California,,Fremont
192.53.124.79,4,-2,mineralminers.com,US,Americas,Northern America,United States of America,California,,Fremont
50.116.3.9,4,55,moderncrypto.org,US,Americas,Northern America,United States of America,California,,Fremont
45.56.89.214,4,21,monster6502.com,US,Americas,Northern America,United States of America,California,,Fremont
74.207.254.48,4,249814,morethanamomofthree.com,US,Americas,Northern America,United States of America,California,,Fremont
173.230.148.212,4,-4,motorreviewer.com,US,Americas,Northern America,United States of America,California,,Fremont
173.255.209.91,4,2,msweet.org,US,Americas,Northern America,United States of America,California,,Fremont
23.239.1.51,4,1153,mtntactical.com,US,Americas,Northern America,United States of America,California,,Fremont
45.33.52.179,4,65,museumsandtheweb.com,US,Americas,Northern America,United States of America,California,,Fremont
66.175.219.138,4,54,musictheory.net,US,Americas,Northern America,United States of America,California,,Fremont
173.230.151.143,4,53,myhealthtalk.net,US,Americas,Northern America,United States of America,California,,Fremont
45.79.100.109,4,5,nakulaser.com,US,Americas,Northern America,United States of America,California,,Fremont
66.175.221.10,4,67,nattyware.com,US,Americas,Northern America,United States of America,California,,Fremont
96.126.99.242,4,5,neatorama.com,US,Americas,Northern America,United States of America,California,,Fremont
23.239.6.122,4,18,neatoshop.com,US,Americas,Northern America,United States of America,California,,Fremont
104.237.159.63,4,44,netninja.com,US,Americas,Northern America,United States of America,California,,Fremont
45.79.105.138,4,15,netsurf.com,US,Americas,Northern America,United States of America,California,,Fremont
23.239.7.133,4,3,newseasims.com,US,Americas,Northern America,United States of America,California,,Fremont
173.255.246.213,4,2,nextsoftwaresolutions.com,US,Americas,Northern America,United States of America,California,,Fremont
173.230.156.248,4,570,nicegiftbox.com,US,Americas,Northern America,United States of America,California,,Fremont
74.207.253.171,4,-1,nicoletcollege.edu,US,Americas,Northern America,United States of America,California,,Fremont
45.33.39.196,4,21,notebook-driver.com,US,Americas,Northern America,United States of America,California,,Fremont
96.126.102.13,4,44,notgrass.com,US,Americas,Northern America,United States of America,California,,Fremont
23.239.4.40,4,3,nugeldlenen.org,US,Americas,Northern America,United States of America,California,,Fremont
74.207.246.46,4,5,nuwen.net,US,Americas,Northern America,United States of America,California,,Fremont
45.33.33.166,4,3,nwcouncil.org,US,Americas,Northern America,United States of America,California,,Fremont
45.79.75.204,4,-11,nwjs.io,US,Americas,Northern America,United States of America,California,,Fremont
96.126.97.110,4,10,oa30us.com,US,Americas,Northern America,United States of America,California,,Fremont
50.116.7.224,4,7,oakorchardcanoe.com,US,Americas,Northern America,United States of America,California,,Fremont
74.207.243.57,4,5,oceanmedical.net,US,Americas,Northern America,United States of America,California,,Fremont
173.255.210.228,4,10,oconnor.cx,US,Americas,Northern America,United States of America,California,,Fremont
45.56.90.99,4,1,ohsoft.net,US,Americas,Northern America,United States of America,California,,Fremont
104.237.157.132,4,-1,olansi.net,US,Americas,Northern America,United States of America,California,,Fremont
173.255.208.104,4,13,onemorelevel.com,US,Americas,Northern America,United States of America,California,,Fremont
173.255.210.241,4,3,onlinemagazinepublishing.net,US,Americas,Northern America,United States of America,California,,Fremont
103.196.37.118,4,315,Ookla Speedtest Server 61787: speedtest.m-d.net,US,Americas,Northern America,United States of America,California,,Fremont
45.56.91.11,4,1,openfontlibrary.org,US,Americas,Northern America,United States of America,California,,Fremont
74.207.243.79,4,30,opennebula.io,US,Americas,Northern America,United States of America,California,,Fremont
23.239.5.185,4,34,opennebula.org,US,Americas,Northern America,United States of America,California,,Fremont
198.74.50.242,4,55,opennrm.org,US,Americas,Northern America,United States of America,California,,Fremont
74.207.240.140,4,27,openpilot.org,US,Americas,Northern America,United States of America,California,,Fremont
45.79.100.239,4,5,openwebmail.org,US,Americas,Northern America,United States of America,California,,Fremont
74.207.252.91,4,151,openworkbench.org,US,Americas,Northern America,United States of America,California,,Fremont
192.81.135.229,4,2,orionesolutions.com,US,Americas,Northern America,United States of America,California,,Fremont
74.207.254.192,4,1,owlcat.games,US,Americas,Northern America,United States of America,California,,Fremont
45.33.108.146,4,6,pacificmagazine.net,US,Americas,Northern America,United States of America,California,,Fremont
45.33.49.25,4,-2,painterlypack.net,US,Americas,Northern America,United States of America,California,,Fremont
173.255.252.37,4,4,paleotronic.com,US,Americas,Northern America,United States of America,California,,Fremont
45.33.55.156,4,42,parklanejewelry.com,US,Americas,Northern America,United States of America,California,,Fremont
173.255.251.126,4,6,pattisonoutdoor.com,US,Americas,Northern America,United States of America,California,,Fremont
45.56.83.221,4,28,pcs.org,US,Americas,Northern America,United States of America,California,,Fremont
45.79.113.99,4,1,pennmush.org,US,Americas,Northern America,United States of America,California,,Fremont
45.56.91.135,4,63,performancecontracting.com,US,Americas,Northern America,United States of America,California,,Fremont
45.33.33.65,4,12,perlbrew.pl,US,Americas,Northern America,United States of America,California,,Fremont
45.56.86.49,4,1646,phcc.gov.ph,US,Americas,Northern America,United States of America,California,,Fremont
66.175.219.204,4,20,photo-toolbox.com,US,Americas,Northern America,United States of America,California,,Fremont
66.175.222.236,4,7,pixelmator.com,US,Americas,Northern America,United States of America,California,,Fremont
23.92.25.32,4,17,postofficehours.us,US,Americas,Northern America,United States of America,California,,Fremont
50.116.13.139,4,31,power.net,US,Americas,Northern America,United States of America,California,,Fremont
173.255.218.28,4,10,practical-scheme.net,US,Americas,Northern America,United States of America,California,,Fremont
45.33.57.222,4,60,presentation-3d.com,US,Americas,Northern America,United States of America,California,,Fremont
45.33.51.49,4,78,prestigecare.com,US,Americas,Northern America,United States of America,California,,Fremont
50.116.12.169,4,7,princexml.com,US,Americas,Northern America,United States of America,California,,Fremont
104.237.155.161,4,84,prmention.com,US,Americas,Northern America,United States of America,California,,Fremont
45.79.71.95,4,40,progressquest.com,US,Americas,Northern America,United States of America,California,,Fremont
173.255.249.237,4,1034555,punkbuster.com,US,Americas,Northern America,United States of America,California,,Fremont
45.56.95.215,4,12,py.checkio.org,US,Americas,Northern America,United States of America,California,,Fremont
45.79.110.219,4,124,pynchonwiki.com,US,Americas,Northern America,United States of America,California,,Fremont
45.33.63.65,4,39,radiosilenceapp.com,US,Americas,Northern America,United States of America,California,,Fremont
50.116.13.131,4,1,rancidbacon.com,US,Americas,Northern America,United States of America,California,,Fremont
45.33.60.106,4,52,randomchaos.com,US,Americas,Northern America,United States of America,California,,Fremont
173.255.214.9,4,819254,ratfactor.com,US,Americas,Northern America,United States of America,California,,Fremont
50.116.1.163,4,26,realmoneyaction.com,US,Americas,Northern America,United States of America,California,,Fremont
45.79.73.14,4,30,rebuild.fm,US,Americas,Northern America,United States of America,California,,Fremont
45.79.113.165,4,5,redbot.org,US,Americas,Northern America,United States of America,California,,Fremont
45.33.40.48,4,49,responsinator.com,US,Americas,Northern America,United States of America,California,,Fremont
173.255.252.249,4,4,ricebowldeluxe.com,US,Americas,Northern America,United States of America,California,,Fremont
50.116.2.199,4,13,rmportal.net,US,Americas,Northern America,United States of America,California,,Fremont
45.79.88.57,4,4,rntico.com,US,Americas,Northern America,United States of America,California,,Fremont
173.255.242.141,4,7,robcottingham.ca,US,Americas,Northern America,United States of America,California,,Fremont
45.33.108.91,4,36,rolecosplay.com,US,Americas,Northern America,United States of America,California,,Fremont
104.237.159.132,4,110,romexsoftware.com,US,Americas,Northern America,United States of America,California,,Fremont
45.33.33.39,4,25,rootdivision.org,US,Americas,Northern America,United States of America,California,,Fremont
45.56.89.105,4,69,rotar.tk,US,Americas,Northern America,United States of America,California,,Fremont
66.175.221.219,4,3,rpg.net,US,Americas,Northern America,United States of America,California,,Fremont
173.255.251.29,4,42,rrrrthats5rs.com,US,Americas,Northern America,United States of America,California,,Fremont
192.155.87.248,4,748,rtsoft.com,US,Americas,Northern America,United States of America,California,,Fremont
173.255.251.228,4,4,run-3.online,US,Americas,Northern America,United States of America,California,,Fremont
45.79.65.201,4,17,sandiegotheatres.org,US,Americas,Northern America,United States of America,California,,Fremont
192.155.87.11,4,13,sandvox.com,US,Americas,Northern America,United States of America,California,,Fremont
173.255.240.235,4,6,santaynezvalleystar.com,US,Americas,Northern America,United States of America,California,,Fremont
96.126.103.156,4,13,saverocity.com,US,Americas,Northern America,United States of America,California,,Fremont
74.207.242.163,4,4,sayjack.com,US,Americas,Northern America,United States of America,California,,Fremont
74.207.252.200,4,11,sciencemadness.org,US,Americas,Northern America,United States of America,California,,Fremont
45.79.82.102,4,529212,scivideoblog.com,US,Americas,Northern America,United States of America,California,,Fremont
45.33.111.85,4,46,scotthyoung.com,US,Americas,Northern America,United States of America,California,,Fremont
45.56.92.45,4,23,scribie.com,US,Americas,Northern America,United States of America,California,,Fremont
45.79.113.132,4,6,scriptasylum.com,US,Americas,Northern America,United States of America,California,,Fremont
45.79.224.137,4,2,scullinsteel.com,US,Americas,Northern America,United States of America,California,,Fremont
96.126.103.34,4,4,sdrm.org,US,Americas,Northern America,United States of America,California,,Fremont
45.79.68.243,4,3,seattlerb.org,US,Americas,Northern America,United States of America,California,,Fremont
173.255.249.236,4,5,securitynewspaper.com,US,Americas,Northern America,United States of America,California,,Fremont
96.126.96.64,4,16,segfault.org,US,Americas,Northern America,United States of America,California,,Fremont
45.33.51.100,4,15,selfhosted.show,US,Americas,Northern America,United States of America,California,,Fremont
173.255.255.28,4,19,sendomatic.com,US,Americas,Northern America,United States of America,California,,Fremont
45.79.65.120,4,33,seobook.com,US,Americas,Northern America,United States of America,California,,Fremont
96.126.103.16,4,27,sequelpro.com,US,Americas,Northern America,United States of America,California,,Fremont
45.56.81.122,4,1,seriss.com,US,Americas,Northern America,United States of America,California,,Fremont
45.79.230.234,4,9,sfba.social,US,Americas,Northern America,United States of America,California,,Fremont
23.239.0.84,4,0,shieldlist.org,US,Americas,Northern America,United States of America,California,,Fremont
173.255.246.165,4,118839,shopjessicabuurman.com,US,Americas,Northern America,United States of America,California,,Fremont
170.187.174.195,4,10,sidewalkdog.com,US,Americas,Northern America,United States of America,California,,Fremont
45.33.50.110,4,4,signature-maker.net,US,Americas,Northern America,United States of America,California,,Fremont
23.239.2.17,4,2621507,siriuspup.com,US,Americas,Northern America,United States of America,California,,Fremont
192.81.129.109,4,3,sjmusart.org,US,Americas,Northern America,United States of America,California,,Fremont
45.79.81.225,4,3,skateboard-city.com,US,Americas,Northern America,United States of America,California,,Fremont
104.200.26.154,4,12,sleazyfork.org,US,Americas,Northern America,United States of America,California,,Fremont
104.200.26.234,4,8,sleazyfork.org,US,Americas,Northern America,United States of America,California,,Fremont
45.79.231.217,4,1,sleazyfork.org,US,Americas,Northern America,United States of America,California,,Fremont
96.126.99.28,4,1,sleazyfork.org,US,Americas,Northern America,United States of America,California,,Fremont
104.200.27.49,4,11,sleazyfork.org,US,Americas,Northern America,United States of America,California,,Fremont
96.126.97.242,4,38,slimy.com,US,Americas,Northern America,United States of America,California,,Fremont
45.79.65.19,4,2,smart-kit.com,US,Americas,Northern America,United States of America,California,,Fremont
50.116.11.196,4,106464,smonet.com,US,Americas,Northern America,United States of America,California,,Fremont
104.237.157.94,4,4,snaresolutions.com,US,Americas,Northern America,United States of America,California,,Fremont
45.79.90.136,4,52,socalpulse.com,US,Americas,Northern America,United States of America,California,,Fremont
173.255.209.242,4,-1,softintegration.com,US,Americas,Northern America,United States of America,California,,Fremont
45.79.97.153,4,2,softwaremaniacs.org,US,Americas,Northern America,United States of America,California,,Fremont
173.255.253.234,4,31,sohosoftware.com,US,Americas,Northern America,United States of America,California,,Fremont
192.155.80.23,4,55,solarwindow.com,US,Americas,Northern America,United States of America,California,,Fremont
173.255.241.17,4,0,solorb.com,US,Americas,Northern America,United States of America,California,,Fremont
192.155.80.207,4,4,spambouncer.org,US,Americas,Northern America,United States of America,California,,Fremont
23.92.26.106,4,112,sportshigh.com,US,Americas,Northern America,United States of America,California,,Fremont
96.126.96.153,4,234636,stpaulseniors.org,US,Americas,Northern America,United States of America,California,,Fremont
45.79.230.44,4,4,stranger.social,US,Americas,Northern America,United States of America,California,,Fremont
104.200.27.68,4,20,stringking.com,US,Americas,Northern America,United States of America,California,,Fremont
96.126.100.67,4,1,sunline.org,US,Americas,Northern America,United States of America,California,,Fremont
173.255.245.115,4,7,surfguitar101.com,US,Americas,Northern America,United States of America,California,,Fremont
45.56.89.210,4,5,surgemail.com,US,Americas,Northern America,United States of America,California,,Fremont
74.207.252.72,4,4,synchrotech.com,US,Americas,Northern America,United States of America,California,,Fremont
74.207.252.227,4,1,tahoe-lafs.org,US,Americas,Northern America,United States of America,California,,Fremont
185.101.97.153,4,10,tbtf.com,US,Americas,Northern America,United States of America,California,,Fremont
23.239.4.235,4,51,teamten.com,US,Americas,Northern America,United States of America,California,,Fremont
50.116.1.221,4,8,tedxtokyo.com,US,Americas,Northern America,United States of America,California,,Fremont
23.239.3.188,4,1188361,terasic.com,US,Americas,Northern America,United States of America,California,,Fremont
104.237.155.123,4,23944,tf-tools.com,US,Americas,Northern America,United States of America,California,,Fremont
45.33.57.174,4,13,tfaoi.com,US,Americas,Northern America,United States of America,California,,Fremont
45.79.110.96,4,-3,thebeautydepartment.com,US,Americas,Northern America,United States of America,California,,Fremont
23.239.20.246,4,26,thebike.com,US,Americas,Northern America,United States of America,California,,Fremont
173.255.217.254,4,4,theduckwebcomics.com,US,Americas,Northern America,United States of America,California,,Fremont
104.200.25.240,4,8,thegioixoso.info,US,Americas,Northern America,United States of America,California,,Fremont
74.207.241.102,4,3,thehuddlefamily.com,US,Americas,Northern America,United States of America,California,,Fremont
45.79.226.111,4,5,theincomparable.com,US,Americas,Northern America,United States of America,California,,Fremont
23.152.160.2,4,2,thelifeofkenneth.com,US,Americas,Northern America,United States of America,California,,Fremont
45.79.72.102,4,4,themarriagefoundation.org,US,Americas,Northern America,United States of America,California,,Fremont
45.79.109.69,4,7,themebeta.com,US,Americas,Northern America,United States of America,California,,Fremont
173.255.215.124,4,1,thenewlighterlife.com,US,Americas,Northern America,United States of America,California,,Fremont
96.126.103.126,4,3,theory.org,US,Americas,Northern America,United States of America,California,,Fremont
45.79.75.231,4,27,thepost.com.pk,US,Americas,Northern America,United States of America,California,,Fremont
45.79.90.239,4,20,theringfinders.com,US,Americas,Northern America,United States of America,California,,Fremont
45.33.50.178,4,9,thetamusic.com,US,Americas,Northern America,United States of America,California,,Fremont
173.255.212.171,4,80,theworstthingsforsale.com,US,Americas,Northern America,United States of America,California,,Fremont
45.79.114.104,4,867,thisisblythe.com,US,Americas,Northern America,United States of America,California,,Fremont
104.237.156.115,4,15,thomashunter.name,US,Americas,Northern America,United States of America,California,,Fremont
173.255.216.193,4,2,thrivelife.com,US,Americas,Northern America,United States of America,California,,Fremont
66.175.220.77,4,19,tieguy.org,US,Americas,Northern America,United States of America,California,,Fremont
45.33.32.16,4,-10,tiempo.com.mx,US,Americas,Northern America,United States of America,California,,Fremont
50.116.3.131,4,5,tinykittens.com,US,Americas,Northern America,United States of America,California,,Fremont
45.79.224.6,4,23,tinysubversions.com,US,Americas,Northern America,United States of America,California,,Fremont
192.155.87.41,4,31,tippett.com,US,Americas,Northern America,United States of America,California,,Fremont
45.33.35.199,4,919,tipsparatuviaje.com,US,Americas,Northern America,United States of America,California,,Fremont
45.79.68.15,4,10,tombuntu.com,US,Americas,Northern America,United States of America,California,,Fremont
192.81.129.234,4,58,topenddevs.com,US,Americas,Northern America,United States of America,California,,Fremont
192.155.82.42,4,5,transit.wiki,US,Americas,Northern America,United States of America,California,,Fremont
50.116.6.214,4,5,tsgwm.com,US,Americas,Northern America,United States of America,California,,Fremont
173.230.144.11,4,1541855,unfogged.com,US,Americas,Northern America,United States of America,California,,Fremont
45.33.54.246,4,7,urbanize.city,US,Americas,Northern America,United States of America,California,,Fremont
173.255.243.23,4,18,urm.org,US,Americas,Northern America,United States of America,California,,Fremont
192.81.128.168,4,10,usnetads.com,US,Americas,Northern America,United States of America,California,,Fremont
66.175.217.53,4,17,utvunderground.com,US,Americas,Northern America,United States of America,California,,Fremont
173.255.210.122,4,16,veekun.com,US,Americas,Northern America,United States of America,California,,Fremont
173.230.151.124,4,26,veripool.org,US,Americas,Northern America,United States of America,California,,Fremont
96.126.102.95,4,17,villatheme.com,US,Americas,Northern America,United States of America,California,,Fremont
45.56.87.249,4,2,vintageapple.org,US,Americas,Northern America,United States of America,California,,Fremont
173.255.216.180,4,8,visitsandiego.com,US,Americas,Northern America,United States of America,California,,Fremont
45.79.83.98,4,7,visualgdb.com,US,Americas,Northern America,United States of America,California,,Fremont
45.79.77.230,4,1126169,vm-help.com,US,Americas,Northern America,United States of America,California,,Fremont
50.116.14.213,4,8,vpser.net,US,Americas,Northern America,United States of America,California,,Fremont
23.92.24.95,4,16,wa7dre.org,US,Americas,Northern America,United States of America,California,,Fremont
45.79.82.85,4,5,waggenerlaw.com,US,Americas,Northern America,United States of America,California,,Fremont
45.33.34.68,4,14,washingtoncity.org,US,Americas,Northern America,United States of America,California,,Fremont
173.255.255.224,4,22,watercrestseniorliving.com,US,Americas,Northern America,United States of America,California,,Fremont
45.79.114.72,4,-1,wellspouse.org,US,Americas,Northern America,United States of America,California,,Fremont
45.56.81.215,4,2,westseattleblog.com,US,Americas,Northern America,United States of America,California,,Fremont
173.230.149.42,4,3,whatstheirnetworth.com,US,Americas,Northern America,United States of America,California,,Fremont
173.230.158.67,4,164,wheelhaus.com,US,Americas,Northern America,United States of America,California,,Fremont
45.79.225.83,4,2,wheresmybank.com,US,Americas,Northern America,United States of America,California,,Fremont
45.33.37.238,4,7,wichitahistory.org,US,Americas,Northern America,United States of America,California,,Fremont
45.79.66.15,4,3,wifinetnews.com,US,Americas,Northern America,United States of America,California,,Fremont
45.79.113.60,4,35,winability.com,US,Americas,Northern America,United States of America,California,,Fremont
45.79.82.95,4,7,with.in,US,Americas,Northern America,United States of America,California,,Fremont
45.56.82.246,4,8,woombie.com,US,Americas,Northern America,United States of America,California,,Fremont
74.207.240.18,4,1112924,wopular.com,US,Americas,Northern America,United States of America,California,,Fremont
45.33.106.44,4,9,wordfest.com,US,Americas,Northern America,United States of America,California,,Fremont
173.230.151.12,4,22,wordunscrambler.me,US,Americas,Northern America,United States of America,California,,Fremont
74.207.249.179,4,8,worldclassfitness.net,US,Americas,Northern America,United States of America,California,,Fremont
192.81.132.47,4,2,worlddominationsummit.com,US,Americas,Northern America,United States of America,California,,Fremont
74.207.249.10,4,4,wowlit.org,US,Americas,Northern America,United States of America,California,,Fremont
23.152.160.66,4,9,wplives.org,US,Americas,Northern America,United States of America,California,,Fremont
198.74.48.54,4,4,xepher.net,US,Americas,Northern America,United States of America,California,,Fremont
23.239.21.153,4,302170,yesbutnobutyes.com,US,Americas,Northern America,United States of America,California,,Fremont
173.255.242.215,4,1,yhbt.net,US,Americas,Northern America,United States of America,California,,Fremont
173.230.156.224,4,3,yiklik.com,US,Americas,Northern America,United States of America,California,,Fremont
45.79.89.227,4,-56,youidraw.com,US,Americas,Northern America,United States of America,California,,Fremont
45.33.44.16,4,2,youlookfab.com,US,Americas,Northern America,United States of America,California,,Fremont
45.79.110.15,4,3,yourlogicalfallacyis.com,US,Americas,Northern America,United States of America,California,,Fremont
45.33.51.132,4,5,youroil.org,US,Americas,Northern America,United States of America,California,,Fremont
45.33.47.16,4,6,youthrights.org,US,Americas,Northern America,United States of America,California,,Fremont
45.79.94.235,4,6,yoycart.com,US,Americas,Northern America,United States of America,California,,Fremont
66.175.216.46,4,3,yubnub.org,US,Americas,Northern America,United States of America,California,,Fremont
50.116.0.154,4,4,yvrskylynx.com,US,Americas,Northern America,United States of America,California,,Fremont
173.255.247.237,4,2,zenspider.com,US,Americas,Northern America,United States of America,California,,Fremont
45.79.72.254,4,4,zgp.org,US,Americas,Northern America,United States of America,California,,Fremont
