reflector_ip,ip_version,offset,description,country_code,region,sub_region,country_name,sub_division_1,sub_division_2,city
118.36.77.82,4,4,aad.kr,KR,Asia,Eastern Asia,South Korea,Gyeonggi-do,,Ansan-si
175.115.53.50,4,176,aaesthetics.co.kr,KR,Asia,Eastern Asia,South Korea,Gyeonggi-do,,Goyang-si
211.117.60.196,4,350543,apparelnews.co.kr,KR,Asia,Eastern Asia,South Korea,Gyeonggi-do,,Seongnam-si
121.170.187.147,4,-32402357,awardog.kr,KR,Asia,Eastern Asia,South Korea,Gyeonggi-do,,Anyang-si
219.240.16.26,4,93496,bodnara.co.kr,KR,Asia,Eastern Asia,South Korea,Gyeonggi-do,,Seongnam-si
110.10.168.148,4,-5,bstm.kr,KR,Asia,Eastern Asia,South Korea,Gyeonggi-do,,Uijeongbu-si
106.254.241.146,4,-25,camosglobal.com,KR,Asia,Eastern Asia,South Korea,Gyeonggi-do,,Uijeongbu-si
222.237.78.107,4,-643098,chachamortors.com,KR,Asia,Eastern Asia,South Korea,Gyeonggi-do,,Hwaseong-si
218.159.7.71,4,4,chuing.net,KR,Asia,Eastern Asia,South Korea,Gyeonggi-do,,Pyeongtaek-si
112.217.203.242,4,10,churchit.kr,KR,Asia,Eastern Asia,South Korea,Gyeonggi-do,,Yongin-si
222.239.223.76,4,830,cinstech-inspect-survey.com,KR,Asia,Eastern Asia,South Korea,Gyeonggi-do,,Yongin-si
112.216.33.202,4,1,daedo.kr,KR,Asia,Eastern Asia,South Korea,Gyeonggi-do,,Suwon
115.143.114.135,4,1072,daolsoft.co.kr,KR,Asia,Eastern Asia,South Korea,Gyeonggi-do,,Ansan-si
219.240.134.18,4,-5,designhanin.com,KR,Asia,Eastern Asia,South Korea,Gyeonggi-do,,Yongin-si
218.236.58.203,4,8075,dkmmotor.com,KR,Asia,Eastern Asia,South Korea,Gyeonggi-do,,Namyangju
183.99.5.104,4,-4,dothome.kr,KR,Asia,Eastern Asia,South Korea,Gyeonggi-do,,Seongnam-si
211.214.56.131,4,-32398485,dreambiketour.co.kr,KR,Asia,Eastern Asia,South Korea,Gyeonggi-do,,Pyeongtaek-si
182.208.92.35,4,-64,drtax.kr,KR,Asia,Eastern Asia,South Korea,Gyeonggi-do,,Seongnam-si
128.134.177.207,4,-3,dwchina-it.com,KR,Asia,Eastern Asia,South Korea,Gyeonggi-do,,Suwon
222.234.1.245,4,-723,eduhope.net,KR,Asia,Eastern Asia,South Korea,Gyeonggi-do,,Guri-si
218.152.220.17,4,-32395469,engtech.kr,KR,Asia,Eastern Asia,South Korea,Gyeonggi-do,,Goyang-si
118.220.195.51,4,-4,etkr.co.kr,KR,Asia,Eastern Asia,South Korea,Gyeonggi-do,,Seongnam-si
124.61.133.67,4,1381,feedpost.co.kr,KR,Asia,Eastern Asia,South Korea,Gyeonggi-do,,Seongnam-si
211.117.60.254,4,344,gamefocus.co.kr,KR,Asia,Eastern Asia,South Korea,Gyeonggi-do,,Seongnam-si
211.115.80.21,4,672,giftpool.co.kr,KR,Asia,Eastern Asia,South Korea,Gyeonggi-do,,Suwon
1.242.6.147,4,-79408,goesh.net,KR,Asia,Eastern Asia,South Korea,Gyeonggi-do,,Ansan-si
211.115.92.135,4,-50,gp114.net,KR,Asia,Eastern Asia,South Korea,Gyeonggi-do,,Suwon
211.115.92.200,4,112,graypension.com,KR,Asia,Eastern Asia,South Korea,Gyeonggi-do,,Suwon
211.115.92.194,4,79,gursong.com,KR,Asia,Eastern Asia,South Korea,Gyeonggi-do,,Suwon
110.10.167.76,4,-5,hankilfood.com,KR,Asia,Eastern Asia,South Korea,Gyeonggi-do,,Uijeongbu-si
112.216.78.155,4,-125,harmonicar.co.kr,KR,Asia,Eastern Asia,South Korea,Gyeonggi-do,,Bucheon-si
222.234.2.35,4,1202,home1.co.kr,KR,Asia,Eastern Asia,South Korea,Gyeonggi-do,,Guri-si
112.216.156.206,4,4,humansoft.co.kr,KR,Asia,Eastern Asia,South Korea,Gyeonggi-do,,Yangp'yŏng
222.234.2.140,4,-574,igmp.co.kr,KR,Asia,Eastern Asia,South Korea,Gyeonggi-do,,Guri-si
58.229.253.178,4,512,j2v.co.kr,KR,Asia,Eastern Asia,South Korea,Gyeonggi-do,,Gwacheon-si
222.237.78.8,4,1811,jbcra.com,KR,Asia,Eastern Asia,South Korea,Gyeonggi-do,,Hwaseong-si
175.119.129.10,4,-5,jesf.kr,KR,Asia,Eastern Asia,South Korea,Gyeonggi-do,,Yongin-si
122.37.28.8,4,-2638076,jjcatering.co.kr,KR,Asia,Eastern Asia,South Korea,Gyeonggi-do,,Hwaseong-si
175.195.0.189,4,-18,k-special.com,KR,Asia,Eastern Asia,South Korea,Gyeonggi-do,,Suwon
106.10.110.146,4,8746649,kaplug.co.kr,KR,Asia,Eastern Asia,South Korea,Gyeonggi-do,,Suwon
219.240.16.12,4,69100,kbench.com,KR,Asia,Eastern Asia,South Korea,Gyeonggi-do,,Seongnam-si
211.45.37.180,4,8,kcar.com,KR,Asia,Eastern Asia,South Korea,Gyeonggi-do,,Seongnam-si
175.214.9.16,4,-32399648,kmbfamily.net,KR,Asia,Eastern Asia,South Korea,Gyeonggi-do,,Suwon
61.101.55.31,4,-11,kmicc.com,KR,Asia,Eastern Asia,South Korea,Gyeonggi-do,,Seongnam-si
121.134.185.211,4,446,knolive.kr,KR,Asia,Eastern Asia,South Korea,Gyeonggi-do,,Seongnam-si
115.92.212.117,4,23,kobus.co.kr,KR,Asia,Eastern Asia,South Korea,Gyeonggi-do,,Yongin-si
114.202.2.132,4,1030,kokoo.kr,KR,Asia,Eastern Asia,South Korea,Gyeonggi-do,,Goyang-si
210.178.6.145,4,1,krbda.co.kr,KR,Asia,Eastern Asia,South Korea,Gyeonggi-do,,Seongnam-si
106.247.251.2,4,-5,lagrima.co.kr,KR,Asia,Eastern Asia,South Korea,Gyeonggi-do,,Goyang-si
222.112.197.153,4,-1287715,linkic.co.kr,KR,Asia,Eastern Asia,South Korea,Gyeonggi-do,,Anyang-si
110.10.168.239,4,-1992,localhero.kr,KR,Asia,Eastern Asia,South Korea,Gyeonggi-do,,Uijeongbu-si
211.170.25.137,4,-32397971,mailroom.co.kr,KR,Asia,Eastern Asia,South Korea,Gyeonggi-do,,Gunpo
114.202.2.242,4,-760,medicalworldnews.co.kr,KR,Asia,Eastern Asia,South Korea,Gyeonggi-do,,Goyang-si
58.229.253.246,4,52,mtes.co.kr,KR,Asia,Eastern Asia,South Korea,Gyeonggi-do,,Gwacheon-si
1.238.222.235,4,41358,muscleman.co.kr,KR,Asia,Eastern Asia,South Korea,Gyeonggi-do,,Yongin-si
118.32.61.102,4,1316316,nueway.co.kr,KR,Asia,Eastern Asia,South Korea,Gyeonggi-do,,Guri-si
121.125.67.195,4,-677,oncob2b.co.kr,KR,Asia,Eastern Asia,South Korea,Gyeonggi-do,,Gwangmyeong
121.135.126.217,4,-12,ooz.kr,KR,Asia,Eastern Asia,South Korea,Gyeonggi-do,,Seongnam-si
211.115.92.218,4,-16,optotech.co.kr,KR,Asia,Eastern Asia,South Korea,Gyeonggi-do,,Suwon
221.150.76.99,4,28354,orientelec.co.kr,KR,Asia,Eastern Asia,South Korea,Gyeonggi-do,,Hwaseong-si
114.203.209.13,4,940,piebly.com,KR,Asia,Eastern Asia,South Korea,Gyeonggi-do,,Ansan-si
128.134.187.138,4,-31900541,pottomall.com,KR,Asia,Eastern Asia,South Korea,Gyeonggi-do,,Suwon
222.237.77.140,4,14,scout.co.kr,KR,Asia,Eastern Asia,South Korea,Gyeonggi-do,,Hwaseong-si
221.139.85.84,4,-32398243,sluck.kr,KR,Asia,Eastern Asia,South Korea,Gyeonggi-do,,Hwaseong-si
211.221.163.186,4,68271,snawide.com,KR,Asia,Eastern Asia,South Korea,Gyeonggi-do,,Anyang-si
175.195.0.176,4,-11,sulseam.com,KR,Asia,Eastern Asia,South Korea,Gyeonggi-do,,Suwon
14.38.204.228,4,-11,talkstarsi.com,KR,Asia,Eastern Asia,South Korea,Gyeonggi-do,,Siheung-si
119.207.110.14,4,5,ukeymo.com,KR,Asia,Eastern Asia,South Korea,Gyeonggi-do,,Gunpo
222.121.93.241,4,-32398826,walltent.co.kr,KR,Asia,Eastern Asia,South Korea,Gyeonggi-do,,Seongnam-si
112.216.156.203,4,-18,webmast.kr,KR,Asia,Eastern Asia,South Korea,Gyeonggi-do,,Yangp'yŏng
222.237.78.239,4,973,weehan.com,KR,Asia,Eastern Asia,South Korea,Gyeonggi-do,,Hwaseong-si
114.203.209.94,4,479,windo.co.kr,KR,Asia,Eastern Asia,South Korea,Gyeonggi-do,,Ansan-si
222.234.2.25,4,470,withi.kr,KR,Asia,Eastern Asia,South Korea,Gyeonggi-do,,Guri-si
112.223.83.86,4,2037,wooriname.com,KR,Asia,Eastern Asia,South Korea,Gyeonggi-do,,Gimpo-si
58.229.240.170,4,3980,xn--o39aobz10imyfjmjywhq7c.com,KR,Asia,Eastern Asia,South Korea,Gyeonggi-do,,Hwaseong-si
219.251.136.178,4,3667,xn--sns-dk6nm87c.com,KR,Asia,Eastern Asia,South Korea,Gyeonggi-do,,Anyang-si
118.218.136.62,4,-440,yoonlife.kr,KR,Asia,Eastern Asia,South Korea,Gyeonggi-do,,Gimpo-si
210.90.155.200,4,6,yujinparts.co.kr,KR,Asia,Eastern Asia,South Korea,Gyeonggi-do,,Seongnam-si
117.123.231.239,4,-731,zerocert.org,KR,Asia,Eastern Asia,South Korea,Gyeonggi-do,,Yongin-si
