reflector_ip,ip_version,offset,description,country_code,region,sub_region,country_name,sub_division_1,sub_division_2,city
162.240.110.105,4,5,5y521.com,US,Americas,Northern America,United States of America,Idaho,,Meridian
162.240.238.144,4,5,aerolite.org,US,Americas,Northern America,United States of America,Idaho,,Meridian
162.240.110.58,4,6,airscience.com,US,Americas,Northern America,United States of America,Idaho,,Meridian
162.240.64.252,4,-3,americandreamdrivein.com,US,Americas,Northern America,United States of America,Idaho,,Meridian
162.240.2.246,4,0,americannamedaycalendar.com,US,Americas,Northern America,United States of America,Idaho,,Meridian
162.240.169.88,4,2,analytics.in,US,Americas,Northern America,United States of America,Idaho,,Meridian
162.240.157.170,4,26,andacademy.com,US,Americas,Northern America,United States of America,Idaho,,Meridian
162.240.216.49,4,27726,angelofthewinds.com,US,Americas,Northern America,United States of America,Idaho,,Meridian
162.240.69.246,4,4,anishinabek.ca,US,Americas,Northern America,United States of America,Idaho,,Meridian
162.240.24.33,4,31,artsfund.org,US,Americas,Northern America,United States of America,Idaho,,Meridian
162.240.13.91,4,-8,arunachaltimes.in,US,Americas,Northern America,United States of America,Idaho,,Meridian
162.240.100.48,4,13,asa.cv,US,Americas,Northern America,United States of America,Idaho,,Meridian
162.240.106.241,4,5,atlasevhub.com,US,Americas,Northern America,United States of America,Idaho,,Meridian
162.240.165.33,4,31,atto.com,US,Americas,Northern America,United States of America,Idaho,,Meridian
162.240.152.110,4,4,ayurhelp.com,US,Americas,Northern America,United States of America,Idaho,,Meridian
162.240.65.158,4,-1,benchwarmerscoffee.com,US,Americas,Northern America,United States of America,Idaho,,Meridian
162.240.224.99,4,20,botswanatourism.co.bw,US,Americas,Northern America,United States of America,Idaho,,Meridian
162.240.111.228,4,3,cactusglobal.com,US,Americas,Northern America,United States of America,Idaho,,Meridian
162.240.212.96,4,2,cactusleague.com,US,Americas,Northern America,United States of America,Idaho,,Meridian
162.240.73.210,4,5,cadal.org,US,Americas,Northern America,United States of America,Idaho,,Meridian
162.240.77.162,4,55,celebrityxyz.com,US,Americas,Northern America,United States of America,Idaho,,Meridian
162.240.65.190,4,-3,century2.org,US,Americas,Northern America,United States of America,Idaho,,Meridian
162.240.101.51,4,6,chandlerlimited.com,US,Americas,Northern America,United States of America,Idaho,,Meridian
162.240.78.7,4,5,claret.org,US,Americas,Northern America,United States of America,Idaho,,Meridian
162.240.21.151,4,4,clevelandyrc.org,US,Americas,Northern America,United States of America,Idaho,,Meridian
162.240.76.122,4,7,codigosanluis.com,US,Americas,Northern America,United States of America,Idaho,,Meridian
162.240.174.226,4,36,coffeetimeromance.com,US,Americas,Northern America,United States of America,Idaho,,Meridian
162.240.224.22,4,2,connect.in,US,Americas,Northern America,United States of America,Idaho,,Meridian
162.240.159.9,4,2,cornellpump.com,US,Americas,Northern America,United States of America,Idaho,,Meridian
162.240.64.102,4,-6,creative-solutions.net,US,Americas,Northern America,United States of America,Idaho,,Meridian
162.240.235.88,4,3,cvsc.co,US,Americas,Northern America,United States of America,Idaho,,Meridian
162.240.2.151,4,44,davidarchuleta.com,US,Americas,Northern America,United States of America,Idaho,,Meridian
162.240.209.112,4,-1,discountafricanhunts.com,US,Americas,Northern America,United States of America,Idaho,,Meridian
162.240.234.255,4,2,dpsparowal.com,US,Americas,Northern America,United States of America,Idaho,,Meridian
162.240.49.201,4,19,economicprism.com,US,Americas,Northern America,United States of America,Idaho,,Meridian
162.240.72.244,4,4,exploringnature.org,US,Americas,Northern America,United States of America,Idaho,,Meridian
162.240.107.41,4,3,expressomt.com.br,US,Americas,Northern America,United States of America,Idaho,,Meridian
162.240.210.197,4,6,fatimafurniture.ae,US,Americas,Northern America,United States of America,Idaho,,Meridian
162.240.230.199,4,3,firsttouchonline.com,US,Americas,Northern America,United States of America,Idaho,,Meridian
162.240.237.93,4,0,flightwingsaviation.com,US,Americas,Northern America,United States of America,Idaho,,Meridian
162.240.15.135,4,16,floristsreview.com,US,Americas,Northern America,United States of America,Idaho,,Meridian
162.240.175.148,4,33,frischs.com,US,Americas,Northern America,United States of America,Idaho,,Meridian
162.240.163.28,4,717,german-way.com,US,Americas,Northern America,United States of America,Idaho,,Meridian
162.240.99.72,4,14,gkstill.com,US,Americas,Northern America,United States of America,Idaho,,Meridian
162.240.25.134,4,5,goldsea.com,US,Americas,Northern America,United States of America,Idaho,,Meridian
162.240.217.183,4,6,gomarbeauty.com,US,Americas,Northern America,United States of America,Idaho,,Meridian
162.240.159.124,4,14,gustorunning.com,US,Americas,Northern America,United States of America,Idaho,,Meridian
162.240.167.174,4,3,handsandvoices.org,US,Americas,Northern America,United States of America,Idaho,,Meridian
162.240.214.209,4,1,happho.com,US,Americas,Northern America,United States of America,Idaho,,Meridian
162.240.144.87,4,9,he-man.org,US,Americas,Northern America,United States of America,Idaho,,Meridian
162.240.152.240,4,9,henrymakow.com,US,Americas,Northern America,United States of America,Idaho,,Meridian
162.240.216.119,4,0,highlightsalongtheway.com,US,Americas,Northern America,United States of America,Idaho,,Meridian
162.240.50.236,4,16,historicgames.com,US,Americas,Northern America,United States of America,Idaho,,Meridian
162.240.171.156,4,-1,hubpgslot.com,US,Americas,Northern America,United States of America,Idaho,,Meridian
162.240.67.197,4,8,hullnumber.com,US,Americas,Northern America,United States of America,Idaho,,Meridian
162.240.17.160,4,2,iaeimagazine.org,US,Americas,Northern America,United States of America,Idaho,,Meridian
162.240.156.120,4,36,ianwelsh.net,US,Americas,Northern America,United States of America,Idaho,,Meridian
162.240.150.206,4,40,icoop.edu.br,US,Americas,Northern America,United States of America,Idaho,,Meridian
162.240.159.48,4,8,indianetzone.com,US,Americas,Northern America,United States of America,Idaho,,Meridian
162.240.66.83,4,1,jdmsportclassics.com,US,Americas,Northern America,United States of America,Idaho,,Meridian
162.240.213.65,4,15,kidsfront.com,US,Americas,Northern America,United States of America,Idaho,,Meridian
162.240.48.246,4,1,laorpheum.com,US,Americas,Northern America,United States of America,Idaho,,Meridian
162.240.72.5,4,5,latfusa.com,US,Americas,Northern America,United States of America,Idaho,,Meridian
162.240.111.41,4,6,laurelleaffarm.com,US,Americas,Northern America,United States of America,Idaho,,Meridian
162.240.151.180,4,5,lawnet.gov.lk,US,Americas,Northern America,United States of America,Idaho,,Meridian
162.240.76.5,4,3,leadgenapp.io,US,Americas,Northern America,United States of America,Idaho,,Meridian
162.240.158.166,4,59304,mappingsupport.com,US,Americas,Northern America,United States of America,Idaho,,Meridian
162.240.25.101,4,-1,mayabeachhotel.com,US,Americas,Northern America,United States of America,Idaho,,Meridian
162.240.152.204,4,2,medixocentre.com,US,Americas,Northern America,United States of America,Idaho,,Meridian
162.240.230.197,4,26,mesteel.com,US,Americas,Northern America,United States of America,Idaho,,Meridian
162.240.152.29,4,1,mhebazar.in,US,Americas,Northern America,United States of America,Idaho,,Meridian
162.240.225.152,4,6,mitsde.com,US,Americas,Northern America,United States of America,Idaho,,Meridian
162.240.54.185,4,10,mogreenway.com,US,Americas,Northern America,United States of America,Idaho,,Meridian
162.240.107.88,4,6,mohavecourts.com,US,Americas,Northern America,United States of America,Idaho,,Meridian
162.240.65.180,4,-2,mrchensjackson.com,US,Americas,Northern America,United States of America,Idaho,,Meridian
162.240.63.152,4,41,myjapanesegreentea.com,US,Americas,Northern America,United States of America,Idaho,,Meridian
162.240.43.240,4,5,nndswo.org.np,US,Americas,Northern America,United States of America,Idaho,,Meridian
162.240.106.11,4,4,ocso.net,US,Americas,Northern America,United States of America,Idaho,,Meridian
162.240.100.146,4,6525,opalug.com,US,Americas,Northern America,United States of America,Idaho,,Meridian
162.240.166.241,4,4,pafiketapang.org,US,Americas,Northern America,United States of America,Idaho,,Meridian
162.240.97.131,4,11,ph8899.net,US,Americas,Northern America,United States of America,Idaho,,Meridian
162.240.99.252,4,308,planocritico.com,US,Americas,Northern America,United States of America,Idaho,,Meridian
162.240.71.159,4,25,politicalsaga.com,US,Americas,Northern America,United States of America,Idaho,,Meridian
162.240.106.128,4,42,pompedia.com,US,Americas,Northern America,United States of America,Idaho,,Meridian
162.240.77.54,4,10,probonoinst.org,US,Americas,Northern America,United States of America,Idaho,,Meridian
162.240.90.107,4,-4,purplepier.com.br,US,Americas,Northern America,United States of America,Idaho,,Meridian
209.161.6.214,4,8,quios.com,US,Americas,Northern America,United States of America,Idaho,,Meridian
162.240.31.216,4,29,rapairport.com,US,Americas,Northern America,United States of America,Idaho,,Meridian
162.240.223.143,4,24,reducingstereotypethreat.org,US,Americas,Northern America,United States of America,Idaho,,Meridian
162.240.21.236,4,23,rentalhq.com,US,Americas,Northern America,United States of America,Idaho,,Meridian
162.240.1.7,4,8,rsipvision.com,US,Americas,Northern America,United States of America,Idaho,,Meridian
162.240.111.158,4,631,rycom.net,US,Americas,Northern America,United States of America,Idaho,,Meridian
162.240.73.111,4,45,sarcoma.org.uk,US,Americas,Northern America,United States of America,Idaho,,Meridian
162.240.208.65,4,21,scottmadden.com,US,Americas,Northern America,United States of America,Idaho,,Meridian
162.240.216.206,4,7,sfsciencecenter.org,US,Americas,Northern America,United States of America,Idaho,,Meridian
162.240.106.170,4,10,shakermuseum.org,US,Americas,Northern America,United States of America,Idaho,,Meridian
162.240.228.169,4,8,shelterlistings.org,US,Americas,Northern America,United States of America,Idaho,,Meridian
162.240.69.249,4,6,sheridanwyoming.org,US,Americas,Northern America,United States of America,Idaho,,Meridian
162.240.53.38,4,14,sobhacrystalmeadows.com,US,Americas,Northern America,United States of America,Idaho,,Meridian
162.240.222.198,4,32,socialsecurityoffices.info,US,Americas,Northern America,United States of America,Idaho,,Meridian
162.240.158.36,4,531,sopacultural.com,US,Americas,Northern America,United States of America,Idaho,,Meridian
162.240.217.4,4,5,southeastdiscovery.com,US,Americas,Northern America,United States of America,Idaho,,Meridian
162.240.171.237,4,2,tabeertours.com,US,Americas,Northern America,United States of America,Idaho,,Meridian
162.240.24.35,4,4,tamworthdistilling.com,US,Americas,Northern America,United States of America,Idaho,,Meridian
162.240.150.99,4,9,taproduce.com,US,Americas,Northern America,United States of America,Idaho,,Meridian
162.240.171.116,4,-11,temporary.site,US,Americas,Northern America,United States of America,Idaho,,Meridian
162.240.107.83,4,0,theatlasphere.com,US,Americas,Northern America,United States of America,Idaho,,Meridian
162.240.44.38,4,0,thecodebuzz.com,US,Americas,Northern America,United States of America,Idaho,,Meridian
162.240.43.104,4,30,thefreela.com,US,Americas,Northern America,United States of America,Idaho,,Meridian
162.240.153.125,4,6,themeansar.com,US,Americas,Northern America,United States of America,Idaho,,Meridian
162.240.73.61,4,73,thequrancourses.com,US,Americas,Northern America,United States of America,Idaho,,Meridian
162.240.147.30,4,19,tocmp.com,US,Americas,Northern America,United States of America,Idaho,,Meridian
162.240.44.106,4,4,trickful.com,US,Americas,Northern America,United States of America,Idaho,,Meridian
162.240.145.112,4,7,uaht.edu,US,Americas,Northern America,United States of America,Idaho,,Meridian
162.240.99.8,4,7,udyamregisteration.org,US,Americas,Northern America,United States of America,Idaho,,Meridian
162.240.44.99,4,47,understandingcompassion.com,US,Americas,Northern America,United States of America,Idaho,,Meridian
162.240.161.135,4,31,uniweld.com,US,Americas,Northern America,United States of America,Idaho,,Meridian
162.240.76.60,4,1,venusdancewear.com,US,Americas,Northern America,United States of America,Idaho,,Meridian
162.240.239.44,4,0,war-stories.com,US,Americas,Northern America,United States of America,Idaho,,Meridian
162.240.12.40,4,2,wbcollaborative.org,US,Americas,Northern America,United States of America,Idaho,,Meridian
162.240.232.153,4,2,weather-almanac.com,US,Americas,Northern America,United States of America,Idaho,,Meridian
162.240.147.32,4,1,wgsbn-iau.org,US,Americas,Northern America,United States of America,Idaho,,Meridian
162.240.239.53,4,7,wineomark.com,US,Americas,Northern America,United States of America,Idaho,,Meridian
162.240.214.43,4,13,yourislandnews.com,US,Americas,Northern America,United States of America,Idaho,,Meridian
