reflector_ip,ip_version,offset,description,country_code,region,sub_region,country_name,sub_division_1,sub_division_2,city
95.211.203.210,4,10,4sport.ua,NL,Europe,Western Europe,Netherlands,Utrecht,,Maarssen
95.211.148.47,4,5,adtarget.me,NL,Europe,Western Europe,Netherlands,Utrecht,,Maarssen
84.22.107.251,4,5,appel.nl,NL,Europe,Western Europe,Netherlands,Utrecht,,Woerden
95.211.231.76,4,7,artlabjo.com,NL,Europe,Western Europe,Netherlands,Utrecht,,Maarssen
212.114.109.154,4,121,avonturiashop.nl,NL,Europe,Western Europe,Netherlands,Utrecht,,Utrecht
83.149.104.55,4,23,bangkoktourist.com,NL,Europe,Western Europe,Netherlands,Utrecht,,IJsselstein
212.114.109.98,4,13,bedrijfs-kleding.nl,NL,Europe,Western Europe,Netherlands,Utrecht,,Utrecht
83.149.90.14,4,8,bedrijvenpagina.nl,NL,Europe,Western Europe,Netherlands,Utrecht,,IJsselstein
84.22.102.253,4,26,ber-art.nl,NL,Europe,Western Europe,Netherlands,Utrecht,,Woerden
95.211.191.35,4,654,berudo.ru,NL,Europe,Western Europe,Netherlands,Utrecht,,Maarssen
95.211.189.138,4,31,biosemiotic.com,NL,Europe,Western Europe,Netherlands,Utrecht,,Maarssen
84.22.103.207,4,6,bits-chips.nl,NL,Europe,Western Europe,Netherlands,Utrecht,,Woerden
212.114.96.3,4,59,burenstad.nl,NL,Europe,Western Europe,Netherlands,Utrecht,,Utrecht
95.211.184.118,4,0,centarsrce.org,NL,Europe,Western Europe,Netherlands,Utrecht,,Maarssen
213.247.120.178,4,2541,centrum45.nl,NL,Europe,Western Europe,Netherlands,Utrecht,,Utrecht
84.22.105.9,4,51,clintel.nl,NL,Europe,Western Europe,Netherlands,Utrecht,,Woerden
95.211.185.122,4,4,cryoutcreations.eu,NL,Europe,Western Europe,Netherlands,Utrecht,,Maarssen
84.22.109.77,4,8,czyborra.com,NL,Europe,Western Europe,Netherlands,Utrecht,,Woerden
83.143.189.87,4,8,daklapack.nl,NL,Europe,Western Europe,Netherlands,Utrecht,,Renswoude
95.211.138.73,4,16,dhs.nu,NL,Europe,Western Europe,Netherlands,Utrecht,,Maarssen
95.211.211.205,4,-36,djvu.online,NL,Europe,Western Europe,Netherlands,Utrecht,,Maarssen
80.114.49.130,4,-7199775,DNS Server: 80-114-49-130.cable.dynamic.v4.ziggo.nl,NL,Europe,Western Europe,Netherlands,Utrecht,,Utrecht
90.145.82.28,4,2327083,DNS Server: 90-145-82-28.bbserv.nl,NL,Europe,Western Europe,Netherlands,Utrecht,,Meerkerk
81.173.126.239,4,178,DNS Server: a81-173-126-239.dsl.pocosnet.nl,NL,Europe,Western Europe,Netherlands,Utrecht,,Utrecht
83.149.100.11,4,8,dropship.me,NL,Europe,Western Europe,Netherlands,Utrecht,,IJsselstein
89.248.172.69,4,5,edhardysoriginals.com,NL,Europe,Western Europe,Netherlands,Utrecht,,Utrecht
84.22.97.151,4,6,esb.nu,NL,Europe,Western Europe,Netherlands,Utrecht,,Woerden
95.211.200.52,4,2218636,filefactory.com,NL,Europe,Western Europe,Netherlands,Utrecht,,Maarssen
95.211.222.85,4,6678722,filipinofoodstore.com,NL,Europe,Western Europe,Netherlands,Utrecht,,Maarssen
90.145.87.110,4,6,gmb.nl,NL,Europe,Western Europe,Netherlands,Utrecht,,Meerkerk
95.211.238.240,4,2,halfnote.gr,NL,Europe,Western Europe,Netherlands,Utrecht,,Maarssen
83.143.189.103,4,72,handyman.nl,NL,Europe,Western Europe,Netherlands,Utrecht,,Renswoude
87.251.53.99,4,16,high-quality.nl,NL,Europe,Western Europe,Netherlands,Utrecht,,Utrecht
84.22.98.212,4,693894,hostinginnederland.nl,NL,Europe,Western Europe,Netherlands,Utrecht,,Woerden
84.22.97.251,4,62,impact-investor.com,NL,Europe,Western Europe,Netherlands,Utrecht,,Woerden
212.114.109.17,4,40,iswa.org,NL,Europe,Western Europe,Netherlands,Utrecht,,Utrecht
95.211.197.162,4,245,jankoatwarpspeed.com,NL,Europe,Western Europe,Netherlands,Utrecht,,Maarssen
84.22.100.164,4,-29683,kaasmarkt.nl,NL,Europe,Western Europe,Netherlands,Utrecht,,Woerden
84.22.115.195,4,343,kindenziekenhuis.nl,NL,Europe,Western Europe,Netherlands,Utrecht,,Woerden
84.22.103.168,4,12,klikaanklikuit.nl,NL,Europe,Western Europe,Netherlands,Utrecht,,Woerden
95.211.224.153,4,1633,kulichki.net,NL,Europe,Western Europe,Netherlands,Utrecht,,Maarssen
84.22.100.12,4,22,legendsworld.net,NL,Europe,Western Europe,Netherlands,Utrecht,,Woerden
178.237.38.148,4,606,level42.com,NL,Europe,Western Europe,Netherlands,Utrecht,,IJsselstein
95.211.189.152,4,84,linuxelectrons.com,NL,Europe,Western Europe,Netherlands,Utrecht,,Maarssen
83.149.93.69,4,53,luier.nl,NL,Europe,Western Europe,Netherlands,Utrecht,,IJsselstein
83.143.189.99,4,151,matrabike.nl,NL,Europe,Western Europe,Netherlands,Utrecht,,Renswoude
95.211.197.229,4,27,megadownload.net,NL,Europe,Western Europe,Netherlands,Utrecht,,Maarssen
95.211.144.79,4,1223,mindlyapp.com,NL,Europe,Western Europe,Netherlands,Utrecht,,Maarssen
192.83.120.212,4,7,mindscape.nl,NL,Europe,Western Europe,Netherlands,Utrecht,,Zeist
95.211.226.103,4,111,mirgif.com,NL,Europe,Western Europe,Netherlands,Utrecht,,Maarssen
95.211.216.182,4,3,moowy.be,NL,Europe,Western Europe,Netherlands,Utrecht,,Maarssen
84.22.110.126,4,887,myopeninghours.co.uk,NL,Europe,Western Europe,Netherlands,Utrecht,,Woerden
95.211.227.90,4,98,mypets.by,NL,Europe,Western Europe,Netherlands,Utrecht,,Maarssen
83.149.103.152,4,3,need2beonline.com,NL,Europe,Western Europe,Netherlands,Utrecht,,IJsselstein
213.247.120.177,4,2686,nil.nl,NL,Europe,Western Europe,Netherlands,Utrecht,,Utrecht
84.22.96.194,4,10,nobian.com,NL,Europe,Western Europe,Netherlands,Utrecht,,Woerden
84.22.101.57,4,4,noraonline.nl,NL,Europe,Western Europe,Netherlands,Utrecht,,Woerden
212.114.111.24,4,6,normaal.nl,NL,Europe,Western Europe,Netherlands,Utrecht,,Utrecht
84.22.117.19,4,51,oemmotorparts.com,NL,Europe,Western Europe,Netherlands,Utrecht,,Woerden
213.156.0.4,4,346,Ookla Speedtest Server 63833: speedtest1.nextpertise.nl,NL,Europe,Western Europe,Netherlands,Utrecht,,Utrecht
212.114.109.26,4,5,oomssport.nl,NL,Europe,Western Europe,Netherlands,Utrecht,,Utrecht
84.22.97.162,4,9,persberichtenrotterdam.nl,NL,Europe,Western Europe,Netherlands,Utrecht,,Woerden
84.22.114.94,4,51,pifworld.com,NL,Europe,Western Europe,Netherlands,Utrecht,,Woerden
84.22.114.145,4,4,piratenpartij.nl,NL,Europe,Western Europe,Netherlands,Utrecht,,Woerden
213.156.0.5,4,3,powerpeers.nl,NL,Europe,Western Europe,Netherlands,Utrecht,,Utrecht
84.22.103.51,4,84835,redrc.net,NL,Europe,Western Europe,Netherlands,Utrecht,,Woerden
95.211.148.58,4,13,ruwest.ru,NL,Europe,Western Europe,Netherlands,Utrecht,,Maarssen
84.22.109.49,4,10,salland1.nl,NL,Europe,Western Europe,Netherlands,Utrecht,,Woerden
84.22.106.35,4,9,screensaversplanet.com,NL,Europe,Western Europe,Netherlands,Utrecht,,Woerden
95.211.204.172,4,11,seedr.cc,NL,Europe,Western Europe,Netherlands,Utrecht,,Maarssen
83.149.93.137,4,17,seeyounow.net,NL,Europe,Western Europe,Netherlands,Utrecht,,IJsselstein
84.22.107.165,4,31,skbwinterswijk.nl,NL,Europe,Western Europe,Netherlands,Utrecht,,Woerden
95.211.228.67,4,15,skinwp.ru,NL,Europe,Western Europe,Netherlands,Utrecht,,Maarssen
84.22.96.44,4,6,slingeland.nl,NL,Europe,Western Europe,Netherlands,Utrecht,,Woerden
84.22.110.35,4,13,snappymail.eu,NL,Europe,Western Europe,Netherlands,Utrecht,,Woerden
95.211.197.140,4,26,softoware.org,NL,Europe,Western Europe,Netherlands,Utrecht,,Maarssen
84.22.98.112,4,43,spek.cc,NL,Europe,Western Europe,Netherlands,Utrecht,,Woerden
192.87.212.23,4,24,sron.nl,NL,Europe,Western Europe,Netherlands,Utrecht,,Utrecht
84.22.103.111,4,49,stiva.nl,NL,Europe,Western Europe,Netherlands,Utrecht,,Woerden
84.22.96.247,4,-47,stroom.nl,NL,Europe,Western Europe,Netherlands,Utrecht,,Woerden
95.211.137.112,4,0,suicidecommando.be,NL,Europe,Western Europe,Netherlands,Utrecht,,Maarssen
95.211.223.35,4,4,testimania.com,NL,Europe,Western Europe,Netherlands,Utrecht,,Maarssen
84.22.115.35,4,1618,tmannetje.nl,NL,Europe,Western Europe,Netherlands,Utrecht,,Woerden
95.211.228.155,4,4,tordini.org,NL,Europe,Western Europe,Netherlands,Utrecht,,Maarssen
37.74.86.205,4,10,trafassi.nl,NL,Europe,Western Europe,Netherlands,Utrecht,,Amersfoort
95.211.138.10,4,4,unigine.com,NL,Europe,Western Europe,Netherlands,Utrecht,,Maarssen
84.22.96.250,4,46,victronenergy.fr,NL,Europe,Western Europe,Netherlands,Utrecht,,Woerden
95.211.203.221,4,-18,vlaamsechambresdhotes.com,NL,Europe,Western Europe,Netherlands,Utrecht,,Maarssen
84.22.109.14,4,3,vntg.com,NL,Europe,Western Europe,Netherlands,Utrecht,,Woerden
212.114.96.5,4,48,voorbrood.nl,NL,Europe,Western Europe,Netherlands,Utrecht,,Utrecht
84.22.114.24,4,52,vreeken.nl,NL,Europe,Western Europe,Netherlands,Utrecht,,Woerden
84.22.116.147,4,138,vrijemeid.nl,NL,Europe,Western Europe,Netherlands,Utrecht,,Woerden
84.22.120.51,4,8,wearetravellers.nl,NL,Europe,Western Europe,Netherlands,Utrecht,,Woerden
84.22.103.59,4,43,wikilovesmonuments.org,NL,Europe,Western Europe,Netherlands,Utrecht,,Woerden
95.211.218.10,4,25,windows-noob.com,NL,Europe,Western Europe,Netherlands,Utrecht,,Maarssen
84.22.116.3,4,25,zelfenergieproduceren.nl,NL,Europe,Western Europe,Netherlands,Utrecht,,Woerden
84.22.105.203,4,33,zelfenergieproduceren.nl,NL,Europe,Western Europe,Netherlands,Utrecht,,Woerden
