reflector_ip,ip_version,offset,description,country_code,region,sub_region,country_name,sub_division_1,sub_division_2,city
46.249.36.28,4,0,1001spelletjes.nl,NL,Europe,Western Europe,Netherlands,Overijssel,,Hengelo
130.89.148.23,4,5,aegee.org,NL,Europe,Western Europe,Netherlands,Overijssel,,Enschede
5.79.122.68,4,22,altiro.nl,NL,Europe,Western Europe,Netherlands,Overijssel,,Enschede
46.19.218.209,4,82,anafora.nl,NL,Europe,Western Europe,Netherlands,Overijssel,,Almelo
185.80.234.113,4,7,asiandrama.live,NL,Europe,Western Europe,Netherlands,Overijssel,,Enschede
178.251.31.168,4,236,benhousing.nl,NL,Europe,Western Europe,Netherlands,Overijssel,,Haaksbergen
46.19.218.204,4,4,bettieserveert.com,NL,Europe,Western Europe,Netherlands,Overijssel,,Almelo
46.19.218.206,4,8,bimloket.nl,NL,Europe,Western Europe,Netherlands,Overijssel,,Almelo
178.251.31.165,4,1224,buitengewoonreizen.nl,NL,Europe,Western Europe,Netherlands,Overijssel,,Haaksbergen
46.19.218.125,4,58,citymom.nl,NL,Europe,Western Europe,Netherlands,Overijssel,,Almelo
84.241.182.212,4,4,cliniclowns.nl,NL,Europe,Western Europe,Netherlands,Overijssel,,Hengelo
46.249.36.14,4,42,coolegames.com,NL,Europe,Western Europe,Netherlands,Overijssel,,Hengelo
46.19.218.210,4,16,creative-council.nl,NL,Europe,Western Europe,Netherlands,Overijssel,,Almelo
46.19.218.24,4,18,dation.nl,NL,Europe,Western Europe,Netherlands,Overijssel,,Almelo
130.89.148.77,4,5,debian.com,NL,Europe,Western Europe,Netherlands,Overijssel,,Enschede
82.148.212.138,4,7,DNS Server: 82-148-212-138.bbserv.nl,NL,Europe,Western Europe,Netherlands,Overijssel,,Zwolle
92.64.203.129,4,-1086055896,DNS Server: 92-64-203-129.biz.kpn.net,NL,Europe,Western Europe,Netherlands,Overijssel,,Losser
46.249.39.8,4,167,DNS Server: ns2.kp-dns.com,NL,Europe,Western Europe,Netherlands,Overijssel,,Hengelo
46.249.36.55,4,118,DNS Server: server16.totallyvps.nl,NL,Europe,Western Europe,Netherlands,Overijssel,,Hengelo
5.79.126.136,4,4,elquods.com,NL,Europe,Western Europe,Netherlands,Overijssel,,Enschede
46.19.218.115,4,6,enwijdoenderest.nl,NL,Europe,Western Europe,Netherlands,Overijssel,,Almelo
5.79.119.52,4,10,evisumservice.nl,NL,Europe,Western Europe,Netherlands,Overijssel,,Enschede
46.19.218.133,4,7,faro.nl,NL,Europe,Western Europe,Netherlands,Overijssel,,Almelo
46.249.39.92,4,3,floortec.nl,NL,Europe,Western Europe,Netherlands,Overijssel,,Hengelo
84.241.186.231,4,8,footsteps.nl,NL,Europe,Western Europe,Netherlands,Overijssel,,Deventer
178.251.26.161,4,16460,forresult.nl,NL,Europe,Western Europe,Netherlands,Overijssel,,Haaksbergen
178.251.31.187,4,480,fruchtportal.de,NL,Europe,Western Europe,Netherlands,Overijssel,,Haaksbergen
5.79.121.166,4,-20,gamblejoe.com,NL,Europe,Western Europe,Netherlands,Overijssel,,Enschede
46.249.36.15,4,18,gezonder-afvallen.nl,NL,Europe,Western Europe,Netherlands,Overijssel,,Hengelo
84.241.182.218,4,45,gps.nl,NL,Europe,Western Europe,Netherlands,Overijssel,,Hengelo
84.241.182.219,4,7,gpstracks.nl,NL,Europe,Western Europe,Netherlands,Overijssel,,Hengelo
84.241.182.98,4,-29451,henribloem.nl,NL,Europe,Western Europe,Netherlands,Overijssel,,Hengelo
178.251.26.203,4,3,hilberink.nl,NL,Europe,Western Europe,Netherlands,Overijssel,,Haaksbergen
46.19.218.153,4,5,hoogveld-geonius.nl,NL,Europe,Western Europe,Netherlands,Overijssel,,Almelo
46.19.218.18,4,24,hoorayhr.io,NL,Europe,Western Europe,Netherlands,Overijssel,,Almelo
84.241.182.206,4,3,hypotheekadvies.nl,NL,Europe,Western Europe,Netherlands,Overijssel,,Hengelo
178.251.26.102,4,4,kerkinnood.nl,NL,Europe,Western Europe,Netherlands,Overijssel,,Haaksbergen
46.19.218.205,4,4,kieskrm.nl,NL,Europe,Western Europe,Netherlands,Overijssel,,Almelo
191.96.52.6,4,42,kivu24.com,NL,Europe,Western Europe,Netherlands,Overijssel,,Enschede
46.19.218.69,4,2,linssenyachts.com,NL,Europe,Western Europe,Netherlands,Overijssel,,Almelo
217.119.227.154,4,9,lionix-international.com,NL,Europe,Western Europe,Netherlands,Overijssel,,Hengelo
46.19.218.80,4,8,mimicry.nl,NL,Europe,Western Europe,Netherlands,Overijssel,,Almelo
84.241.177.145,4,48,mmmonvhf.de,NL,Europe,Western Europe,Netherlands,Overijssel,,Deventer
46.19.218.211,4,48,netwerkdigitaalerfgoed.nl,NL,Europe,Western Europe,Netherlands,Overijssel,,Almelo
46.249.40.37,4,-393068,nlstore.nl,NL,Europe,Western Europe,Netherlands,Overijssel,,Hengelo
185.80.233.178,4,143,Ookla Speedtest Server 8997: speedtest.novoserve.com,NL,Europe,Western Europe,Netherlands,Overijssel,,Enschede
145.131.115.245,4,48,ouderportaal.nl,NL,Europe,Western Europe,Netherlands,Overijssel,,Zwolle
46.19.218.100,4,10,oxilion.nl,NL,Europe,Western Europe,Netherlands,Overijssel,,Almelo
178.251.24.78,4,17,pagina-informatie.nl,NL,Europe,Western Europe,Netherlands,Overijssel,,Haaksbergen
217.114.110.226,4,30,partyflock.nl,NL,Europe,Western Europe,Netherlands,Overijssel,,Enschede
46.19.218.114,4,2,pianola.nl,NL,Europe,Western Europe,Netherlands,Overijssel,,Almelo
178.251.24.51,4,40,prijsvragen.nl,NL,Europe,Western Europe,Netherlands,Overijssel,,Haaksbergen
178.251.28.38,4,1,providercheck.nl,NL,Europe,Western Europe,Netherlands,Overijssel,,Haaksbergen
84.241.182.213,4,2,rijnbrink.nl,NL,Europe,Western Europe,Netherlands,Overijssel,,Hengelo
84.241.182.105,4,-602,sednet.org,NL,Europe,Western Europe,Netherlands,Overijssel,,Hengelo
178.251.24.118,4,14,sfeervolleshutters.nl,NL,Europe,Western Europe,Netherlands,Overijssel,,Haaksbergen
82.94.240.152,4,4,sitearchief.nl,NL,Europe,Western Europe,Netherlands,Overijssel,,Enter
5.79.119.25,4,-1,tappaya.com,NL,Europe,Western Europe,Netherlands,Overijssel,,Enschede
130.89.161.150,4,1,thebias.nl,NL,Europe,Western Europe,Netherlands,Overijssel,,Enschede
178.251.25.69,4,-402636,tkkrlab.nl,NL,Europe,Western Europe,Netherlands,Overijssel,,Haaksbergen
84.241.186.204,4,34,tropenbos.org,NL,Europe,Western Europe,Netherlands,Overijssel,,Deventer
46.19.223.81,4,5,uitgekookt.nl,NL,Europe,Western Europe,Netherlands,Overijssel,,Almelo
84.241.180.152,4,1,unoy.org,NL,Europe,Western Europe,Netherlands,Overijssel,,Deventer
89.105.223.250,4,7,vavada-regs.ru,NL,Europe,Western Europe,Netherlands,Overijssel,,Enschede
46.19.218.212,4,5,vebidak.nl,NL,Europe,Western Europe,Netherlands,Overijssel,,Almelo
185.80.234.230,4,1,videochd4.shop,NL,Europe,Western Europe,Netherlands,Overijssel,,Enschede
46.249.39.34,4,21,visserijnieuws.nl,NL,Europe,Western Europe,Netherlands,Overijssel,,Hengelo
46.249.37.204,4,5,vlaanderenvrijwilligt.be,NL,Europe,Western Europe,Netherlands,Overijssel,,Hengelo
46.19.218.126,4,4,waterstudio.nl,NL,Europe,Western Europe,Netherlands,Overijssel,,Almelo
46.19.218.40,4,4,wattisduurzaam.nl,NL,Europe,Western Europe,Netherlands,Overijssel,,Almelo
84.241.186.211,4,164,webdesign-gids.nl,NL,Europe,Western Europe,Netherlands,Overijssel,,Deventer
84.241.137.101,4,9,webgispublisher.nl,NL,Europe,Western Europe,Netherlands,Overijssel,,Rijssen
5.79.119.34,4,37,webshopovername.nl,NL,Europe,Western Europe,Netherlands,Overijssel,,Enschede
5.79.122.12,4,20096,webtranslateit.com,NL,Europe,Western Europe,Netherlands,Overijssel,,Enschede
46.19.218.113,4,4,winkelstechniek.nl,NL,Europe,Western Europe,Netherlands,Overijssel,,Almelo
84.241.180.151,4,1,zylstra.org,NL,Europe,Western Europe,Netherlands,Overijssel,,Deventer
