reflector_ip,ip_version,offset,description,country_code,region,sub_region,country_name,sub_division_1,sub_division_2,city
62.204.42.125,4,5,242.md,NL,Europe,Western Europe,Netherlands,South Holland,,Naaldwijk
92.48.192.68,4,9,48hourfilm.com,NL,Europe,Western Europe,Netherlands,South Holland,,Oud-Beijerland
185.18.52.85,4,8,aaa-logo.com,NL,Europe,Western Europe,Netherlands,South Holland,,Naaldwijk
136.144.254.47,4,68,abrahamart.com,NL,Europe,Western Europe,Netherlands,South Holland,,The Hague
80.95.166.59,4,66,acsifreelife.nl,NL,Europe,Western Europe,Netherlands,South Holland,,Barendrecht
136.144.243.115,4,5,afvalcontainerbestellen.nl,NL,Europe,Western Europe,Netherlands,South Holland,,The Hague
149.210.214.80,4,17,ah-boodschappen.nl,NL,Europe,Western Europe,Netherlands,South Holland,,Bodegraven
31.131.26.80,4,30,aikidosydney.com,NL,Europe,Western Europe,Netherlands,South Holland,,Rotterdam
185.157.210.10,4,980,almazois.gr,NL,Europe,Western Europe,Netherlands,South Holland,,Alblasserdam
185.40.97.100,4,4,ambifloor.nl,NL,Europe,Western Europe,Netherlands,South Holland,,Zoetermeer
136.144.239.229,4,6,ambulancewens.nl,NL,Europe,Western Europe,Netherlands,South Holland,,The Hague
149.210.242.240,4,4,amerikaplus.nl,NL,Europe,Western Europe,Netherlands,South Holland,,Bodegraven
185.177.127.96,4,8,anycount.com,NL,Europe,Western Europe,Netherlands,South Holland,,Naaldwijk
185.191.3.124,4,59,appsignal.com,NL,Europe,Western Europe,Netherlands,South Holland,,Naaldwijk
138.128.218.22,4,41,arendaizrail.com,NL,Europe,Western Europe,Netherlands,South Holland,,
136.144.251.254,4,46,asrbouw.nl,NL,Europe,Western Europe,Netherlands,South Holland,,The Hague
136.144.251.236,4,7,atuna.com,NL,Europe,Western Europe,Netherlands,South Holland,,The Hague
185.132.178.214,4,6,autentik.net,NL,Europe,Western Europe,Netherlands,South Holland,,Naaldwijk
185.40.97.141,4,-125,autoleitner.nl,NL,Europe,Western Europe,Netherlands,South Holland,,Zoetermeer
149.210.247.51,4,17,autovendi.nl,NL,Europe,Western Europe,Netherlands,South Holland,,Bodegraven
149.210.192.123,4,2,avecoverzekeringen.nl,NL,Europe,Western Europe,Netherlands,South Holland,,Bodegraven
185.183.33.9,4,86,aviationmegastore.com,NL,Europe,Western Europe,Netherlands,South Holland,,Naaldwijk
213.206.230.113,4,30,awvn.nl,NL,Europe,Western Europe,Netherlands,South Holland,,Rotterdam
212.8.243.80,4,10,bbsradio.com,NL,Europe,Western Europe,Netherlands,South Holland,,Naaldwijk
136.144.227.56,4,14,beautyspot.nl,NL,Europe,Western Europe,Netherlands,South Holland,,The Hague
136.144.236.234,4,23,biografieportaal.nl,NL,Europe,Western Europe,Netherlands,South Holland,,The Hague
136.144.242.54,4,77,bisdom-roermond.nl,NL,Europe,Western Europe,Netherlands,South Holland,,The Hague
80.79.6.142,4,80,bitedition.io,NL,Europe,Western Europe,Netherlands,South Holland,,Naaldwijk
217.23.10.94,4,17,bl3p.eu,NL,Europe,Western Europe,Netherlands,South Holland,,Naaldwijk
212.8.249.233,4,6,bloghub.com,NL,Europe,Western Europe,Netherlands,South Holland,,Naaldwijk
45.83.192.157,4,6,blogvecindad.com,NL,Europe,Western Europe,Netherlands,South Holland,,Rotterdam
178.162.166.194,4,4,blueseum.org,NL,Europe,Western Europe,Netherlands,South Holland,,Bergschenhoek
149.210.197.52,4,38,boekbeschrijvingen.nl,NL,Europe,Western Europe,Netherlands,South Holland,,Bodegraven
93.190.136.191,4,27,bookmate.com,NL,Europe,Western Europe,Netherlands,South Holland,,Naaldwijk
93.190.136.192,4,51,bookmate.com,NL,Europe,Western Europe,Netherlands,South Holland,,Naaldwijk
109.236.89.42,4,5,bronx.com,NL,Europe,Western Europe,Netherlands,South Holland,,Naaldwijk
193.111.63.101,4,5,brunocasino.world,NL,Europe,Western Europe,Netherlands,South Holland,,Rotterdam
149.210.229.177,4,7,bsubooster.nl,NL,Europe,Western Europe,Netherlands,South Holland,,Bodegraven
217.119.1.83,4,56,bureaustoel.nl,NL,Europe,Western Europe,Netherlands,South Holland,,Rotterdam
80.95.173.30,4,82,burgernet.nl,NL,Europe,Western Europe,Netherlands,South Holland,,Barendrecht
185.189.182.163,4,9,buuffies.nl,NL,Europe,Western Europe,Netherlands,South Holland,,Rotterdam
93.190.140.87,4,3,byclickdownloader.com,NL,Europe,Western Europe,Netherlands,South Holland,,Naaldwijk
149.210.243.151,4,36,campingdiever.nl,NL,Europe,Western Europe,Netherlands,South Holland,,Bodegraven
185.191.3.3,4,6,cannenburg.nl,NL,Europe,Western Europe,Netherlands,South Holland,,Naaldwijk
217.119.11.92,4,56,caravantrekker.nl,NL,Europe,Western Europe,Netherlands,South Holland,,Rotterdam
109.236.89.136,4,4,ccmixter.org,NL,Europe,Western Europe,Netherlands,South Holland,,Naaldwijk
149.210.197.242,4,8,cdromland.nl,NL,Europe,Western Europe,Netherlands,South Holland,,Bodegraven
45.83.192.92,4,3,ceskecasino.best,NL,Europe,Western Europe,Netherlands,South Holland,,Rotterdam
5.200.6.112,4,4,cg-raad.nl,NL,Europe,Western Europe,Netherlands,South Holland,,Rotterdam
149.210.244.119,4,21,chalet.nu,NL,Europe,Western Europe,Netherlands,South Holland,,Bodegraven
190.2.133.122,4,54,checkra.in,NL,Europe,Western Europe,Netherlands,South Holland,,Naaldwijk
109.236.91.4,4,8,citywalls.ru,NL,Europe,Western Europe,Netherlands,South Holland,,Naaldwijk
95.211.66.35,4,3,clickiocdn.com,NL,Europe,Western Europe,Netherlands,South Holland,,Oegstgeest
95.211.66.34,4,6,clickiocdn.com,NL,Europe,Western Europe,Netherlands,South Holland,,Oegstgeest
149.210.243.39,4,131,colombiareports.com,NL,Europe,Western Europe,Netherlands,South Holland,,Bodegraven
185.40.97.114,4,7,conservatoriumvanamsterdam.nl,NL,Europe,Western Europe,Netherlands,South Holland,,Zoetermeer
149.210.201.231,4,99,contimeta.com,NL,Europe,Western Europe,Netherlands,South Holland,,Bodegraven
136.144.242.239,4,10,coolmark.nl,NL,Europe,Western Europe,Netherlands,South Holland,,The Hague
185.173.160.143,4,4,cryptobrowser.site,NL,Europe,Western Europe,Netherlands,South Holland,,Naaldwijk
185.173.160.139,4,0,cryptobrowser.site,NL,Europe,Western Europe,Netherlands,South Holland,,Naaldwijk
185.173.160.142,4,0,cryptobrowser.site,NL,Europe,Western Europe,Netherlands,South Holland,,Naaldwijk
31.210.170.12,4,17,cy-pr.com,NL,Europe,Western Europe,Netherlands,South Holland,,Naaldwijk
136.144.239.121,4,33,cyberpoli.nl,NL,Europe,Western Europe,Netherlands,South Holland,,The Hague
46.21.166.148,4,6,cyclingfever.com,NL,Europe,Western Europe,Netherlands,South Holland,,The Hague
149.210.213.202,4,29,debabykraam.nl,NL,Europe,Western Europe,Netherlands,South Holland,,Bodegraven
217.119.11.8,4,3,deboekenplank.nl,NL,Europe,Western Europe,Netherlands,South Holland,,Rotterdam
86.87.119.140,4,22093,devroom.io,NL,Europe,Western Europe,Netherlands,South Holland,,Rotterdam
23.137.249.99,4,-27944629,digdeeper.club,NL,Europe,Western Europe,Netherlands,South Holland,,Naaldwijk
217.23.5.10,4,-1,digits.net,NL,Europe,Western Europe,Netherlands,South Holland,,Naaldwijk
185.183.34.105,4,16,dimenno.nl,NL,Europe,Western Europe,Netherlands,South Holland,,Naaldwijk
185.40.97.139,4,30,district8.net,NL,Europe,Western Europe,Netherlands,South Holland,,Zoetermeer
149.210.197.33,4,6,djoser.nl,NL,Europe,Western Europe,Netherlands,South Holland,,Bodegraven
95.97.113.102,4,36,DNS Server: 095-097-113-102.static.chello.nl,NL,Europe,Western Europe,Netherlands,South Holland,,Delft
95.97.233.134,4,-2144222329,DNS Server: 095-097-233-134.static.chello.nl,NL,Europe,Western Europe,Netherlands,South Holland,,Rotterdam
5.39.191.74,4,91,DNS Server: 5-39-191-74.colocenter.nl,NL,Europe,Western Europe,Netherlands,South Holland,,Zoetermeer
80.242.237.178,4,207,DNS Server: 50F2EDB2.static.ziggozakelijk.nl,NL,Europe,Western Europe,Netherlands,South Holland,,Delft
83.85.40.128,4,6,DNS Server: 83-85-40-128.cable.dynamic.v4.ziggo.nl,NL,Europe,Western Europe,Netherlands,South Holland,,Noordwijk aan Zee
83.87.202.7,4,839245,DNS Server: 83-87-202-7.cable.dynamic.v4.ziggo.nl,NL,Europe,Western Europe,Netherlands,South Holland,,Alblasserdam
91.232.105.138,4,0,DNS Server: 91-232-105-138.hosted-by-worldstream.net,NL,Europe,Western Europe,Netherlands,South Holland,,Naaldwijk
95.128.95.72,4,-204,DNS Server: cust-95-128-95-72.breedbanddelft.nl,NL,Europe,Western Europe,Netherlands,South Holland,,Delft
217.100.187.236,4,5807,DNS Server: D964BBEC.static.ziggozakelijk.nl,NL,Europe,Western Europe,Netherlands,South Holland,,The Hague
89.98.136.103,4,88,DNS Server: dhcp-089-098-136-103.chello.nl,NL,Europe,Western Europe,Netherlands,South Holland,,Rotterdam
81.4.104.170,4,12,DNS Server: epsys35a.epsys.nl,NL,Europe,Western Europe,Netherlands,South Holland,,Alblasserdam
80.56.228.161,4,227,DNS Server: f228161.upc-f.chello.nl,NL,Europe,Western Europe,Netherlands,South Holland,,Rotterdam
46.21.171.193,4,52,DNS Server: no-record-set.datafiber.nl,NL,Europe,Western Europe,Netherlands,South Holland,,The Hague
87.215.138.234,4,-2146668739,DNS Server: remote.rembrandtclassic.com,NL,Europe,Western Europe,Netherlands,South Holland,,Zoetermeer
212.121.115.14,4,118,DNS Server: rt115bb121-212-14.routit.net,NL,Europe,Western Europe,Netherlands,South Holland,,Bergambacht
145.128.210.203,4,-2146225536,DNS Server: rt210bb128-145-203.routit.net,NL,Europe,Western Europe,Netherlands,South Holland,,Berkel en Rodenrijs
89.146.35.15,4,88,DNS Server: rt35bb146-89-15.routit.net,NL,Europe,Western Europe,Netherlands,South Holland,,Schiedam
89.146.42.63,4,-2142935944,DNS Server: rt42bb146-89-63.routit.net,NL,Europe,Western Europe,Netherlands,South Holland,,Schiedam
95.168.170.31,4,86,DNS Server: server1315.seedhost.eu,NL,Europe,Western Europe,Netherlands,South Holland,,Schiedam
178.162.138.121,4,76,docentenplein.nl,NL,Europe,Western Europe,Netherlands,South Holland,,Bergschenhoek
149.210.224.84,4,22,doopsgezindhaarlem.nl,NL,Europe,Western Europe,Netherlands,South Holland,,Bodegraven
95.211.75.10,4,9,dougabbs.com,NL,Europe,Western Europe,Netherlands,South Holland,,Oegstgeest
45.83.193.80,4,9,dovidka.com.ua,NL,Europe,Western Europe,Netherlands,South Holland,,Rotterdam
217.23.9.2,4,10,downloadvideosfrom.com,NL,Europe,Western Europe,Netherlands,South Holland,,Naaldwijk
5.200.2.178,4,38,duikeninbeeld.tv,NL,Europe,Western Europe,Netherlands,South Holland,,Rotterdam
95.211.127.209,4,3,dvd.nl,NL,Europe,Western Europe,Netherlands,South Holland,,Oegstgeest
149.210.236.28,4,1722626,e-mark.nl,NL,Europe,Western Europe,Netherlands,South Holland,,Bodegraven
185.157.209.26,4,3,e-perimetron.org,NL,Europe,Western Europe,Netherlands,South Holland,,Alblasserdam
95.168.166.88,4,62,earth-history.com,NL,Europe,Western Europe,Netherlands,South Holland,,Schiedam
85.17.183.81,4,1629,eastrolog.com,NL,Europe,Western Europe,Netherlands,South Holland,,Rotterdam
212.8.242.16,4,17,eduke32.com,NL,Europe,Western Europe,Netherlands,South Holland,,Naaldwijk
185.189.182.134,4,49,eindhoveninbeeld.com,NL,Europe,Western Europe,Netherlands,South Holland,,Rotterdam
91.229.23.135,4,49,ejmanager.com,NL,Europe,Western Europe,Netherlands,South Holland,,Naaldwijk
136.144.235.253,4,3,ekbouwadvies.nl,NL,Europe,Western Europe,Netherlands,South Holland,,The Hague
136.144.242.224,4,72,ellisfaas.com,NL,Europe,Western Europe,Netherlands,South Holland,,The Hague
136.144.254.178,4,21,emble.nl,NL,Europe,Western Europe,Netherlands,South Holland,,The Hague
136.144.240.222,4,3,eoq.org,NL,Europe,Western Europe,Netherlands,South Holland,,The Hague
149.210.242.236,4,4,estivant.nl,NL,Europe,Western Europe,Netherlands,South Holland,,Bodegraven
93.190.138.175,4,3,fabrica-vika.com.ua,NL,Europe,Western Europe,Netherlands,South Holland,,Naaldwijk
31.131.27.63,4,3,feng-shui.ua,NL,Europe,Western Europe,Netherlands,South Holland,,Rotterdam
136.144.231.56,4,5,firenzecard.it,NL,Europe,Western Europe,Netherlands,South Holland,,The Hague
149.210.244.29,4,4,floravannederland.nl,NL,Europe,Western Europe,Netherlands,South Holland,,Bodegraven
217.119.5.67,4,-2,foox.nl,NL,Europe,Western Europe,Netherlands,South Holland,,Rotterdam
190.2.130.169,4,40,freecaptchabypass.com,NL,Europe,Western Europe,Netherlands,South Holland,,Naaldwijk
77.73.224.157,4,-14,freelance.nl,NL,Europe,Western Europe,Netherlands,South Holland,,Schiedam
149.210.234.190,4,14,frieslandholland.nl,NL,Europe,Western Europe,Netherlands,South Holland,,Bodegraven
92.119.156.24,4,0,fryspotpeoria.com,NL,Europe,Western Europe,Netherlands,South Holland,,Naaldwijk
213.214.123.41,4,-67,fw.nu,NL,Europe,Western Europe,Netherlands,South Holland,,Rotterdam
89.39.107.229,4,6,gloria.tv,NL,Europe,Western Europe,Netherlands,South Holland,,Naaldwijk
149.210.194.128,4,23,goedkoop-treinkaartje.nl,NL,Europe,Western Europe,Netherlands,South Holland,,Bodegraven
149.210.235.141,4,6,gpgroot.nl,NL,Europe,Western Europe,Netherlands,South Holland,,Bodegraven
136.144.250.14,4,64,graszoden.nl,NL,Europe,Western Europe,Netherlands,South Holland,,The Hague
92.119.156.50,4,25,greek-movies.com,NL,Europe,Western Europe,Netherlands,South Holland,,Naaldwijk
149.210.212.101,4,26,group-office.com,NL,Europe,Western Europe,Netherlands,South Holland,,Bodegraven
136.144.248.8,4,2,grys.it,NL,Europe,Western Europe,Netherlands,South Holland,,The Hague
136.144.246.7,4,2,ha-marketing.nl,NL,Europe,Western Europe,Netherlands,South Holland,,The Hague
136.144.238.186,4,4,haarlemmermeer.nl,NL,Europe,Western Europe,Netherlands,South Holland,,The Hague
185.177.126.122,4,5,haje.nu,NL,Europe,Western Europe,Netherlands,South Holland,,Naaldwijk
149.210.192.67,4,9,handboogsport.nl,NL,Europe,Western Europe,Netherlands,South Holland,,Bodegraven
31.131.20.159,4,26,haryana-online.com,NL,Europe,Western Europe,Netherlands,South Holland,,Rotterdam
109.236.89.55,4,4,hatecrimesheartland.com,NL,Europe,Western Europe,Netherlands,South Holland,,Naaldwijk
212.57.57.68,4,5,hdn.nl,NL,Europe,Western Europe,Netherlands,South Holland,,Rotterdam
109.236.92.46,4,2,hmpnp.pk,NL,Europe,Western Europe,Netherlands,South Holland,,Naaldwijk
149.210.199.100,4,4,hoedoe.nl,NL,Europe,Western Europe,Netherlands,South Holland,,Bodegraven
136.144.229.215,4,40,horoscoop.nl,NL,Europe,Western Europe,Netherlands,South Holland,,The Hague
149.210.226.247,4,15,houseofbritain.nl,NL,Europe,Western Europe,Netherlands,South Holland,,Bodegraven
171.33.132.21,4,5,houtenkozijnonline.nl,NL,Europe,Western Europe,Netherlands,South Holland,,Leiden
149.210.201.104,4,2,huisenaanbod.nl,NL,Europe,Western Europe,Netherlands,South Holland,,Bodegraven
31.204.152.114,4,35,icastelli.it,NL,Europe,Western Europe,Netherlands,South Holland,,Rotterdam
31.204.154.168,4,21,icastelli.net,NL,Europe,Western Europe,Netherlands,South Holland,,Rotterdam
212.8.252.174,4,6,igetter.net,NL,Europe,Western Europe,Netherlands,South Holland,,Rotterdam
31.131.20.62,4,4,impgroup.com.ua,NL,Europe,Western Europe,Netherlands,South Holland,,Rotterdam
185.168.142.40,4,90,indonesianmma.com,NL,Europe,Western Europe,Netherlands,South Holland,,Rotterdam
95.211.75.178,4,60,infobron.nl,NL,Europe,Western Europe,Netherlands,South Holland,,Oegstgeest
95.211.74.17,4,52,infomir.eu,NL,Europe,Western Europe,Netherlands,South Holland,,Oegstgeest
178.162.165.4,4,-35,inres.sk,NL,Europe,Western Europe,Netherlands,South Holland,,Bergschenhoek
95.168.175.214,4,123,institutfrancais.rs,NL,Europe,Western Europe,Netherlands,South Holland,,Schiedam
46.21.164.170,4,32,ipass.com,NL,Europe,Western Europe,Netherlands,South Holland,,The Hague
95.168.161.39,4,7,irobot.pl,NL,Europe,Western Europe,Netherlands,South Holland,,Schiedam
178.162.131.202,4,66,isowindows.net,NL,Europe,Western Europe,Netherlands,South Holland,,Bergschenhoek
217.23.14.218,4,109,issr-journals.org,NL,Europe,Western Europe,Netherlands,South Holland,,Naaldwijk
178.162.172.74,4,32,itheorie.nl,NL,Europe,Western Europe,Netherlands,South Holland,,Bergschenhoek
149.210.233.66,4,8,jaato.com,NL,Europe,Western Europe,Netherlands,South Holland,,Bodegraven
136.144.228.187,4,3,jlgrealestate.com,NL,Europe,Western Europe,Netherlands,South Holland,,The Hague
81.4.72.114,4,15,jobesports.com,NL,Europe,Western Europe,Netherlands,South Holland,,Voorburg
31.131.20.114,4,16,jonny-jackpot.com,NL,Europe,Western Europe,Netherlands,South Holland,,Rotterdam
213.214.122.92,4,-3,juristu.nl,NL,Europe,Western Europe,Netherlands,South Holland,,Rotterdam
149.210.205.159,4,26,justbeyou.nl,NL,Europe,Western Europe,Netherlands,South Holland,,Bodegraven
217.119.1.1,4,1,karakteruitgevers.nl,NL,Europe,Western Europe,Netherlands,South Holland,,Rotterdam
149.210.230.250,4,9,kessels-smit.com,NL,Europe,Western Europe,Netherlands,South Holland,,Bodegraven
217.119.11.112,4,3,kewodak.nl,NL,Europe,Western Europe,Netherlands,South Holland,,Rotterdam
149.210.250.38,4,6,kids-tube.nl,NL,Europe,Western Europe,Netherlands,South Holland,,Bodegraven
136.144.231.45,4,40,kinderfeestjes.nl,NL,Europe,Western Europe,Netherlands,South Holland,,The Hague
185.180.222.212,4,17,knmo.nl,NL,Europe,Western Europe,Netherlands,South Holland,,Naaldwijk
5.39.189.19,4,18,knsa.nl,NL,Europe,Western Europe,Netherlands,South Holland,,Zoetermeer
136.144.245.252,4,2,koppejanautomotive.nl,NL,Europe,Western Europe,Netherlands,South Holland,,The Hague
149.210.215.195,4,4,kreeftopleidingen.nl,NL,Europe,Western Europe,Netherlands,South Holland,,Bodegraven
185.18.53.217,4,82,kremen.today,NL,Europe,Western Europe,Netherlands,South Holland,,Naaldwijk
31.210.173.8,4,3,ksovd.ru,NL,Europe,Western Europe,Netherlands,South Holland,,Naaldwijk
5.200.19.60,4,115,kunsthal.nl,NL,Europe,Western Europe,Netherlands,South Holland,,Rotterdam
194.36.191.196,4,59,labtestedthc.com,NL,Europe,Western Europe,Netherlands,South Holland,,Naaldwijk
81.4.72.170,4,26,laurenskerkrotterdam.nl,NL,Europe,Western Europe,Netherlands,South Holland,,Voorburg
136.144.237.8,4,23,letselpro.nl,NL,Europe,Western Europe,Netherlands,South Holland,,The Hague
45.83.192.8,4,29,lifecollection.top,NL,Europe,Western Europe,Netherlands,South Holland,,Rotterdam
149.210.215.64,4,51,ligfiets.net,NL,Europe,Western Europe,Netherlands,South Holland,,Bodegraven
95.211.75.177,4,21,linkkwartier.nl,NL,Europe,Western Europe,Netherlands,South Holland,,Oegstgeest
149.210.234.234,4,52,litecoinpool.org,NL,Europe,Western Europe,Netherlands,South Holland,,Bodegraven
149.210.202.72,4,6,loesje.org,NL,Europe,Western Europe,Netherlands,South Holland,,Bodegraven
149.210.237.195,4,3,loods5.nl,NL,Europe,Western Europe,Netherlands,South Holland,,Bodegraven
185.185.49.237,4,34,luxafor.com,NL,Europe,Western Europe,Netherlands,South Holland,,Naaldwijk
31.204.150.134,4,37,luxebedden.nl,NL,Europe,Western Europe,Netherlands,South Holland,,Rotterdam
31.172.74.145,4,1,luxelive.net,NL,Europe,Western Europe,Netherlands,South Holland,,Naaldwijk
85.17.249.196,4,4,make-upstudio.com,NL,Europe,Western Europe,Netherlands,South Holland,,The Hague
190.2.130.42,4,28,mangohost.net,NL,Europe,Western Europe,Netherlands,South Holland,,Naaldwijk
149.210.193.129,4,42,marabos.nl,NL,Europe,Western Europe,Netherlands,South Holland,,Bodegraven
178.162.151.226,4,-19,mary-black.net,NL,Europe,Western Europe,Netherlands,South Holland,,Bergschenhoek
31.131.20.166,4,13,md-eksperiment.org,NL,Europe,Western Europe,Netherlands,South Holland,,Rotterdam
136.144.241.225,4,17,mdfs.net,NL,Europe,Western Europe,Netherlands,South Holland,,The Hague
141.105.121.87,4,64,mediamagazine.nl,NL,Europe,Western Europe,Netherlands,South Holland,,Dordrecht
185.157.209.18,4,475,megaron.gr,NL,Europe,Western Europe,Netherlands,South Holland,,Alblasserdam
95.211.75.26,4,121,metrolink.com,NL,Europe,Western Europe,Netherlands,South Holland,,Oegstgeest
149.210.237.150,4,22,milov.nl,NL,Europe,Western Europe,Netherlands,South Holland,,Bodegraven
164.132.23.31,4,23,mindanaoexaminer.com,NL,Europe,Western Europe,Netherlands,South Holland,,Rotterdam
185.182.193.246,4,79,misteragri.com,NL,Europe,Western Europe,Netherlands,South Holland,,Naaldwijk
185.162.11.100,4,-24481,moemesto.ru,NL,Europe,Western Europe,Netherlands,South Holland,,Naaldwijk
141.105.121.74,4,22,mooistedorpjes.nl,NL,Europe,Western Europe,Netherlands,South Holland,,Dordrecht
213.206.227.140,4,16,movingintelligence.nl,NL,Europe,Western Europe,Netherlands,South Holland,,Rotterdam
31.131.20.11,4,2,msbooks.club,NL,Europe,Western Europe,Netherlands,South Holland,,Rotterdam
176.56.235.2,4,9,mtbroutes.nl,NL,Europe,Western Europe,Netherlands,South Holland,,Alblasserdam
136.144.247.166,4,74,multatuli-museum.nl,NL,Europe,Western Europe,Netherlands,South Holland,,The Hague
149.210.243.189,4,19,mybloodyvalentine.org,NL,Europe,Western Europe,Netherlands,South Holland,,Bodegraven
109.236.81.81,4,29,myescort.network,NL,Europe,Western Europe,Netherlands,South Holland,,Naaldwijk
95.211.73.102,4,32,myfamilyshop.net,NL,Europe,Western Europe,Netherlands,South Holland,,Oegstgeest
185.2.81.156,4,36,myfashionwriter.com,NL,Europe,Western Europe,Netherlands,South Holland,,Naaldwijk
31.131.21.189,4,17,mysticstars.org,NL,Europe,Western Europe,Netherlands,South Holland,,Rotterdam
185.165.243.130,4,23,mywallop.com,NL,Europe,Western Europe,Netherlands,South Holland,,Naaldwijk
193.111.61.211,4,2,newcars.com.ua,NL,Europe,Western Europe,Netherlands,South Holland,,Rotterdam
136.144.226.139,4,18,nieman.nl,NL,Europe,Western Europe,Netherlands,South Holland,,The Hague
149.210.192.49,4,6,noordelijkfilmfestival.nl,NL,Europe,Western Europe,Netherlands,South Holland,,Bodegraven
185.189.182.54,4,28,novon.nl,NL,Europe,Western Europe,Netherlands,South Holland,,Rotterdam
31.210.170.52,4,113,novospress.ru,NL,Europe,Western Europe,Netherlands,South Holland,,Naaldwijk
5.39.185.202,4,7,ntg.nl,NL,Europe,Western Europe,Netherlands,South Holland,,Zoetermeer
190.2.150.35,4,6,nttb.nl,NL,Europe,Western Europe,Netherlands,South Holland,,Naaldwijk
45.83.192.189,4,13,omg.md,NL,Europe,Western Europe,Netherlands,South Holland,,Rotterdam
213.136.4.197,4,27,omo.nl,NL,Europe,Western Europe,Netherlands,South Holland,,Gorinchem
136.144.226.23,4,1,onepage.website,NL,Europe,Western Europe,Netherlands,South Holland,,The Hague
95.211.120.110,4,24,ongakueternal.com,NL,Europe,Western Europe,Netherlands,South Holland,,Oegstgeest
136.144.240.220,4,7,onl.nl,NL,Europe,Western Europe,Netherlands,South Holland,,The Hague
136.144.247.38,4,84,onlinebestrating.nl,NL,Europe,Western Europe,Netherlands,South Holland,,The Hague
85.17.147.12,4,4,oocities.com,NL,Europe,Western Europe,Netherlands,South Holland,,Rotterdam
85.17.147.6,4,1,oocities.com,NL,Europe,Western Europe,Netherlands,South Holland,,Rotterdam
185.182.195.78,4,400,Ookla Speedtest Server 6554: speedtest.worldstream.nl,NL,Europe,Western Europe,Netherlands,South Holland,,Naaldwijk
45.142.147.36,4,282,Ookla Speedtest Server 13831: speedtest1.vmtux.net,NL,Europe,Western Europe,Netherlands,South Holland,,Gorinchem
185.183.96.212,4,251,Ookla Speedtest Server 20914: speedtestdbc.hostsailor.com,NL,Europe,Western Europe,Netherlands,South Holland,,Rotterdam
185.41.38.93,4,467,Ookla Speedtest Server 26476: speedtest.glasnet.nl,NL,Europe,Western Europe,Netherlands,South Holland,,Delft
185.244.24.47,4,3444,Ookla Speedtest Server 62515: speedtest.bouwhuis.network,NL,Europe,Western Europe,Netherlands,South Holland,,Rotterdam
5.200.22.69,4,26,op-terschelling.nl,NL,Europe,Western Europe,Netherlands,South Holland,,Rotterdam
217.119.11.89,4,33,opentuinendagen.nl,NL,Europe,Western Europe,Netherlands,South Holland,,Rotterdam
136.144.248.48,4,14,opthoog.nl,NL,Europe,Western Europe,Netherlands,South Holland,,The Hague
185.191.0.8,4,38,orchidee.nl,NL,Europe,Western Europe,Netherlands,South Holland,,Naaldwijk
95.211.57.5,4,8,oudvalkeveen.nl,NL,Europe,Western Europe,Netherlands,South Holland,,Oegstgeest
217.23.12.233,4,41,outcampaign.org,NL,Europe,Western Europe,Netherlands,South Holland,,Naaldwijk
31.204.128.90,4,7,ovonetwork.com,NL,Europe,Western Europe,Netherlands,South Holland,,Rotterdam
149.210.200.140,4,12,parkerenindestad.nl,NL,Europe,Western Europe,Netherlands,South Holland,,Bodegraven
149.210.192.134,4,5,paymentor.nl,NL,Europe,Western Europe,Netherlands,South Holland,,Bodegraven
95.168.170.78,4,33,photofunia.com,NL,Europe,Western Europe,Netherlands,South Holland,,Schiedam
109.236.91.25,4,22,picgifs.com,NL,Europe,Western Europe,Netherlands,South Holland,,Naaldwijk
149.210.206.214,4,8,pindat.com,NL,Europe,Western Europe,Netherlands,South Holland,,Bodegraven
145.24.145.63,4,14,pouet.net,NL,Europe,Western Europe,Netherlands,South Holland,,Delft
45.83.193.70,4,23,pregnancy.org.ua,NL,Europe,Western Europe,Netherlands,South Holland,,Rotterdam
185.177.125.56,4,54,premium-hookahs.nl,NL,Europe,Western Europe,Netherlands,South Holland,,Naaldwijk
31.131.27.44,4,51,pro-groshi.info,NL,Europe,Western Europe,Netherlands,South Holland,,Rotterdam
185.182.193.65,4,74431,protemos.com,NL,Europe,Western Europe,Netherlands,South Holland,,Naaldwijk
109.236.81.246,4,21,proxmark.org,NL,Europe,Western Europe,Netherlands,South Holland,,Naaldwijk
136.144.248.41,4,12,puzzel.org,NL,Europe,Western Europe,Netherlands,South Holland,,The Hague
136.144.247.143,4,27,quantes.nl,NL,Europe,Western Europe,Netherlands,South Holland,,The Hague
109.236.84.35,4,2,qwertyoruiop.com,NL,Europe,Western Europe,Netherlands,South Holland,,Naaldwijk
217.119.11.41,4,826,radiocapelle.nl,NL,Europe,Western Europe,Netherlands,South Holland,,Rotterdam
190.2.153.21,4,42,radioparadise.com,NL,Europe,Western Europe,Netherlands,South Holland,,Naaldwijk
185.165.242.247,4,57,radioveseliafolclor.com,NL,Europe,Western Europe,Netherlands,South Holland,,Naaldwijk
31.10.5.231,4,54,receptsamogona.ru,NL,Europe,Western Europe,Netherlands,South Holland,,Naaldwijk
185.165.241.224,4,15,redacted.ch,NL,Europe,Western Europe,Netherlands,South Holland,,Naaldwijk
149.210.244.217,4,34,responsibledisclosure.nl,NL,Europe,Western Europe,Netherlands,South Holland,,Bodegraven
81.4.72.21,4,17,rietveldlicht.nl,NL,Europe,Western Europe,Netherlands,South Holland,,Voorburg
136.144.241.88,4,16,rijndam.nl,NL,Europe,Western Europe,Netherlands,South Holland,,The Hague
178.132.2.45,4,6,rivierenland-radio.nl,NL,Europe,Western Europe,Netherlands,South Holland,,Naaldwijk
79.132.137.64,4,26,rockisfest.ru,NL,Europe,Western Europe,Netherlands,South Holland,,Naaldwijk
136.144.251.144,4,17,rondomwerk.nl,NL,Europe,Western Europe,Netherlands,South Holland,,The Hague
178.162.131.96,4,36,rozefilmdagen.nl,NL,Europe,Western Europe,Netherlands,South Holland,,Bergschenhoek
136.144.252.110,4,18,rps.nl,NL,Europe,Western Europe,Netherlands,South Holland,,The Hague
81.4.122.152,4,47,rsgbcc.org,NL,Europe,Western Europe,Netherlands,South Holland,,Alblasserdam
178.162.164.90,4,48,ruaf.org,NL,Europe,Western Europe,Netherlands,South Holland,,Bergschenhoek
31.210.173.110,4,19,ruclips.net,NL,Europe,Western Europe,Netherlands,South Holland,,Naaldwijk
95.211.55.213,4,5,saabplanet.com,NL,Europe,Western Europe,Netherlands,South Holland,,Oegstgeest
95.168.175.211,4,-14,safestroke.eu,NL,Europe,Western Europe,Netherlands,South Holland,,Schiedam
81.4.72.136,4,63,saltro.nl,NL,Europe,Western Europe,Netherlands,South Holland,,Voorburg
185.191.2.2,4,-1,samdesign.nl,NL,Europe,Western Europe,Netherlands,South Holland,,Naaldwijk
185.191.1.2,4,6,samonlinemarketing.nl,NL,Europe,Western Europe,Netherlands,South Holland,,Naaldwijk
185.132.179.45,4,4,satbeams.com,NL,Europe,Western Europe,Netherlands,South Holland,,Naaldwijk
145.24.145.163,4,11,scene.org,NL,Europe,Western Europe,Netherlands,South Holland,,Delft
213.136.0.188,4,22,schaken.net,NL,Europe,Western Europe,Netherlands,South Holland,,Gorinchem
141.105.126.156,4,48,schilderijenshop.com,NL,Europe,Western Europe,Netherlands,South Holland,,Dordrecht
31.131.26.27,4,189682,schoolbag.info,NL,Europe,Western Europe,Netherlands,South Holland,,Rotterdam
136.144.231.146,4,3,schorembarbier.nl,NL,Europe,Western Europe,Netherlands,South Holland,,The Hague
185.165.240.149,4,10,scopemed.org,NL,Europe,Western Europe,Netherlands,South Holland,,Naaldwijk
185.173.161.25,4,13,seepje.nl,NL,Europe,Western Europe,Netherlands,South Holland,,Naaldwijk
190.2.146.62,4,35,seotips4u.com,NL,Europe,Western Europe,Netherlands,South Holland,,Naaldwijk
89.104.167.14,4,14,sickofitall.com,NL,Europe,Western Europe,Netherlands,South Holland,,Rotterdam
95.211.120.71,4,12,silverjet.nl,NL,Europe,Western Europe,Netherlands,South Holland,,Oegstgeest
217.23.14.136,4,3,sjifactor.com,NL,Europe,Western Europe,Netherlands,South Holland,,Naaldwijk
176.56.235.3,4,9,sjorssportief.nl,NL,Europe,Western Europe,Netherlands,South Holland,,Alblasserdam
136.144.237.132,4,6,sneeuwsport.info,NL,Europe,Western Europe,Netherlands,South Holland,,The Hague
185.132.179.211,4,28,somehide.org,NL,Europe,Western Europe,Netherlands,South Holland,,Naaldwijk
95.211.75.16,4,5,songweaver.com,NL,Europe,Western Europe,Netherlands,South Holland,,Oegstgeest
185.183.34.114,4,3,sovet-ingenera.com,NL,Europe,Western Europe,Netherlands,South Holland,,Naaldwijk
213.214.123.24,4,2,spa.be,NL,Europe,Western Europe,Netherlands,South Holland,,Rotterdam
136.144.248.181,4,73,speedtalk.com,NL,Europe,Western Europe,Netherlands,South Holland,,The Hague
149.210.226.119,4,8,srcds.com,NL,Europe,Western Europe,Netherlands,South Holland,,Bodegraven
212.57.57.242,4,3,sro.nl,NL,Europe,Western Europe,Netherlands,South Holland,,Rotterdam
178.162.151.23,4,31,st8.ru,NL,Europe,Western Europe,Netherlands,South Holland,,Bergschenhoek
164.132.23.138,4,12,startpagina.net,NL,Europe,Western Europe,Netherlands,South Holland,,Rotterdam
89.104.167.10,4,-66723,streekstadcentraal.nl,NL,Europe,Western Europe,Netherlands,South Holland,,Rotterdam
213.214.122.32,4,-6,studentenbureau.nl,NL,Europe,Western Europe,Netherlands,South Holland,,Rotterdam
136.144.231.213,4,6,studenthelpr.com,NL,Europe,Western Europe,Netherlands,South Holland,,The Hague
149.210.247.244,4,51,submarinechannel.com,NL,Europe,Western Europe,Netherlands,South Holland,,Bodegraven
80.95.166.55,4,10,suncamp.nl,NL,Europe,Western Europe,Netherlands,South Holland,,Barendrecht
85.17.172.246,4,72,superior-air.gr,NL,Europe,Western Europe,Netherlands,South Holland,,Rotterdam
136.144.247.101,4,31,superknjizara.hr,NL,Europe,Western Europe,Netherlands,South Holland,,The Hague
95.211.95.218,4,38,tabaknee.nl,NL,Europe,Western Europe,Netherlands,South Holland,,Oegstgeest
149.210.215.88,4,2,tabledebates.org,NL,Europe,Western Europe,Netherlands,South Holland,,Bodegraven
5.200.2.183,4,15,talentstimuleren.nl,NL,Europe,Western Europe,Netherlands,South Holland,,Rotterdam
85.17.183.162,4,-862240,taniesianie.pl,NL,Europe,Western Europe,Netherlands,South Holland,,Rotterdam
136.144.245.195,4,16,telenord.it,NL,Europe,Western Europe,Netherlands,South Holland,,The Hague
45.83.192.60,4,66,tercom.org.ua,NL,Europe,Western Europe,Netherlands,South Holland,,Rotterdam
31.210.173.103,4,-1,th-cam.com,NL,Europe,Western Europe,Netherlands,South Holland,,Naaldwijk
31.204.147.11,4,2,theaterwalhalla.nl,NL,Europe,Western Europe,Netherlands,South Holland,,Rotterdam
171.33.132.16,4,3,thef4.com,NL,Europe,Western Europe,Netherlands,South Holland,,Leiden
31.131.26.121,4,9,tommyhilfigerca.ca,NL,Europe,Western Europe,Netherlands,South Holland,,Rotterdam
85.17.172.48,4,31,topadserver.com,NL,Europe,Western Europe,Netherlands,South Holland,,Rotterdam
185.191.2.3,4,18,topslotenmaker.nl,NL,Europe,Western Europe,Netherlands,South Holland,,Naaldwijk
109.236.86.186,4,-1998,toutes-les-couleurs.com,NL,Europe,Western Europe,Netherlands,South Holland,,Naaldwijk
95.211.75.25,4,4,tr200.net,NL,Europe,Western Europe,Netherlands,South Holland,,Oegstgeest
136.144.232.173,4,3,treant.nl,NL,Europe,Western Europe,Netherlands,South Holland,,The Hague
149.210.239.131,4,30,trendjuwelier.nl,NL,Europe,Western Europe,Netherlands,South Holland,,Bodegraven
136.144.250.174,4,3,trouweninnoordbrabant.nl,NL,Europe,Western Europe,Netherlands,South Holland,,The Hague
176.56.235.6,4,3,tuinengras.nl,NL,Europe,Western Europe,Netherlands,South Holland,,Alblasserdam
85.17.164.55,4,1592658,tuning-gids.nl,NL,Europe,Western Europe,Netherlands,South Holland,,Rotterdam
185.165.241.252,4,4,turpoisk.com.ua,NL,Europe,Western Europe,Netherlands,South Holland,,Naaldwijk
5.200.11.124,4,14,tweedehandslundia.nl,NL,Europe,Western Europe,Netherlands,South Holland,,Rotterdam
136.144.241.174,4,4,tx-keur.nl,NL,Europe,Western Europe,Netherlands,South Holland,,The Hague
85.17.141.153,4,2,ukraineun.org,NL,Europe,Western Europe,Netherlands,South Holland,,Rotterdam
176.105.233.32,4,5,ukrtibet.net,NL,Europe,Western Europe,Netherlands,South Holland,,Rotterdam
31.131.26.115,4,28,umdis.org,NL,Europe,Western Europe,Netherlands,South Holland,,Rotterdam
185.157.209.83,4,8,unibrain.com,NL,Europe,Western Europe,Netherlands,South Holland,,Alblasserdam
45.83.192.191,4,3,uti-puti.com.ua,NL,Europe,Western Europe,Netherlands,South Holland,,Rotterdam
185.191.0.9,4,5,uwverandaspecialist.nl,NL,Europe,Western Europe,Netherlands,South Holland,,Naaldwijk
95.97.54.126,4,0,v.st,NL,Europe,Western Europe,Netherlands,South Holland,,Rotterdam
178.162.140.132,4,31,vandal.net,NL,Europe,Western Europe,Netherlands,South Holland,,Bergschenhoek
185.191.0.14,4,-2,vanderpigge.nl,NL,Europe,Western Europe,Netherlands,South Holland,,Naaldwijk
136.144.235.38,4,3,vanleersum.nl,NL,Europe,Western Europe,Netherlands,South Holland,,The Hague
81.4.72.120,4,10,veluwespecialist.nl,NL,Europe,Western Europe,Netherlands,South Holland,,Voorburg
92.48.208.132,4,5,venturaprojects.com,NL,Europe,Western Europe,Netherlands,South Holland,,Oud-Beijerland
31.204.147.10,4,9,veracamilla.nl,NL,Europe,Western Europe,Netherlands,South Holland,,Rotterdam
149.210.194.156,4,19,verlorenofgevonden.nl,NL,Europe,Western Europe,Netherlands,South Holland,,Bodegraven
149.210.224.180,4,14,verzekeringvergelijk.nl,NL,Europe,Western Europe,Netherlands,South Holland,,Bodegraven
149.210.200.244,4,12,veteranendag.nl,NL,Europe,Western Europe,Netherlands,South Holland,,Bodegraven
149.210.200.247,4,8,veteranendag.nl,NL,Europe,Western Europe,Netherlands,South Holland,,Bodegraven
149.210.215.103,4,39,veteraneninstituut.nl,NL,Europe,Western Europe,Netherlands,South Holland,,Bodegraven
149.210.215.4,4,11,veteraneninstituut.nl,NL,Europe,Western Europe,Netherlands,South Holland,,Bodegraven
45.14.135.100,4,18,vgtimes.ru,NL,Europe,Western Europe,Netherlands,South Holland,,Naaldwijk
141.105.127.116,4,1,vindeentherapeut.be,NL,Europe,Western Europe,Netherlands,South Holland,,Dordrecht
185.18.54.76,4,2,vitannya.info,NL,Europe,Western Europe,Netherlands,South Holland,,Naaldwijk
81.4.72.49,4,2,vliegveldtaxirotterdam.nl,NL,Europe,Western Europe,Netherlands,South Holland,,Voorburg
185.189.181.140,4,16,vndb.org,NL,Europe,Western Europe,Netherlands,South Holland,,Rotterdam
141.105.120.43,4,44,vrijeboeken.com,NL,Europe,Western Europe,Netherlands,South Holland,,Dordrecht
45.83.192.98,4,23,vuze.camera,NL,Europe,Western Europe,Netherlands,South Holland,,Rotterdam
193.111.62.11,4,14,vv.com.ua,NL,Europe,Western Europe,Netherlands,South Holland,,Rotterdam
213.136.4.209,4,7,vvgi.nl,NL,Europe,Western Europe,Netherlands,South Holland,,Gorinchem
5.200.6.110,4,38370,weddingfair.nl,NL,Europe,Western Europe,Netherlands,South Holland,,Rotterdam
149.210.219.30,4,8,wellnessacademie.be,NL,Europe,Western Europe,Netherlands,South Holland,,Bodegraven
93.190.143.74,4,12,welspun.com,NL,Europe,Western Europe,Netherlands,South Holland,,Naaldwijk
136.144.244.45,4,4,wereldwinkels.nl,NL,Europe,Western Europe,Netherlands,South Holland,,The Hague
195.143.61.138,4,8,werkenbijutrecht.nl,NL,Europe,Western Europe,Netherlands,South Holland,,Schiedam
31.131.20.75,4,10,whoiswhopersona.info,NL,Europe,Western Europe,Netherlands,South Holland,,Rotterdam
136.144.238.168,4,12,wij.nl,NL,Europe,Western Europe,Netherlands,South Holland,,The Hague
185.191.0.3,4,38,wijkopenhuizen.nl,NL,Europe,Western Europe,Netherlands,South Holland,,Naaldwijk
95.211.59.147,4,46,windowstorrent.net,NL,Europe,Western Europe,Netherlands,South Holland,,Oegstgeest
80.79.5.44,4,11,wisenederland.nl,NL,Europe,Western Europe,Netherlands,South Holland,,Naaldwijk
185.157.210.11,4,1581,womenontop.gr,NL,Europe,Western Europe,Netherlands,South Holland,,Alblasserdam
95.211.8.169,4,-29,wooptydoo.com,NL,Europe,Western Europe,Netherlands,South Holland,,Oegstgeest
185.183.35.88,4,4,worldofjohancruyff.com,NL,Europe,Western Europe,Netherlands,South Holland,,Naaldwijk
185.21.63.36,4,14,worldstream.com,NL,Europe,Western Europe,Netherlands,South Holland,,Naaldwijk
185.18.52.211,4,8,z-pryvitannyamy.com.ua,NL,Europe,Western Europe,Netherlands,South Holland,,Naaldwijk
136.144.239.104,4,7,zamsierbestrating.nl,NL,Europe,Western Europe,Netherlands,South Holland,,The Hague
141.105.121.154,4,9,zelfranken.nl,NL,Europe,Western Europe,Netherlands,South Holland,,Dordrecht
31.210.171.188,4,7,zerkallo-1xbet.ru,NL,Europe,Western Europe,Netherlands,South Holland,,Naaldwijk
93.88.74.105,4,0,zhkhplus.ru,NL,Europe,Western Europe,Netherlands,South Holland,,Naaldwijk
31.204.159.244,4,4,zinngeld.nl,NL,Europe,Western Europe,Netherlands,South Holland,,Rotterdam
213.214.122.153,4,27,zlm.nl,NL,Europe,Western Europe,Netherlands,South Holland,,Rotterdam
141.105.127.81,4,6,zomercarnaval.com,NL,Europe,Western Europe,Netherlands,South Holland,,Dordrecht
149.210.206.244,4,41,zone5300.nl,NL,Europe,Western Europe,Netherlands,South Holland,,Bodegraven
185.182.193.41,4,-2,zubrit.com,NL,Europe,Western Europe,Netherlands,South Holland,,Naaldwijk
