reflector_ip,ip_version,offset,description,country_code,region,sub_region,country_name,sub_division_1,sub_division_2,city
200.123.128.78,4,8,argentinainvestiga.edu.ar,AR,Americas,Latin America and the Caribbean,Argentina,Buenos Aires F.D.,,Buenos Aires
200.80.43.211,4,-2,bodegacolome.com,AR,Americas,Latin America and the Caribbean,Argentina,Buenos Aires F.D.,,Buenos Aires
200.110.135.96,4,3,boletinesinteligentes.com,AR,Americas,Latin America and the Caribbean,Argentina,Buenos Aires F.D.,,Buenos Aires
190.2.34.5,4,15,bolsadecereales.com,AR,Americas,Latin America and the Caribbean,Argentina,Buenos Aires F.D.,,Buenos Aires
200.110.149.87,4,25,campananoticias.com,AR,Americas,Latin America and the Caribbean,Argentina,Buenos Aires F.D.,,Buenos Aires
170.78.75.97,4,113,canaltrans.com,AR,Americas,Latin America and the Caribbean,Argentina,Buenos Aires F.D.,,Buenos Aires
200.68.105.39,4,5,cari.org.ar,AR,Americas,Latin America and the Caribbean,Argentina,Buenos Aires F.D.,,Buenos Aires
200.80.42.204,4,-1,cmtv.com.ar,AR,Americas,Latin America and the Caribbean,Argentina,Buenos Aires F.D.,,Buenos Aires
190.61.219.75,4,123926,contartese.com,AR,Americas,Latin America and the Caribbean,Argentina,Buenos Aires F.D.,,Buenos Aires
190.104.218.28,4,2,cta.org.ar,AR,Americas,Latin America and the Caribbean,Argentina,Buenos Aires F.D.,,Buenos Aires
184.31.2.74,4,28,davesmotors.com,AR,Americas,Latin America and the Caribbean,Argentina,Buenos Aires F.D.,,Buenos Aires
209.13.159.138,4,14,defensorba.org.ar,AR,Americas,Latin America and the Caribbean,Argentina,Buenos Aires F.D.,,Buenos Aires
149.50.129.96,4,226,desarrollomor.com,AR,Americas,Latin America and the Caribbean,Argentina,Buenos Aires F.D.,,Buenos Aires
181.30.97.20,4,39081,DNS Server: 20-97-30-181.fibertel.com.ar,AR,Americas,Latin America and the Caribbean,Argentina,Buenos Aires F.D.,,Buenos Aires
200.41.174.20,4,7,DNS Server: 20.host.advance.com.ar,AR,Americas,Latin America and the Caribbean,Argentina,Buenos Aires F.D.,,Buenos Aires
200.105.83.250,4,39365,DNS Server: 200.105.83.250.fibercorp.com.ar,AR,Americas,Latin America and the Caribbean,Argentina,Buenos Aires F.D.,,Buenos Aires
201.234.15.170,4,10,DNS Server: 201-234-15-170.dynamic.telered.net.ar,AR,Americas,Latin America and the Caribbean,Argentina,Buenos Aires F.D.,,Buenos Aires
201.234.152.129,4,2,DNS Server: 201-234-152-129.static.impsat.net.ar,AR,Americas,Latin America and the Caribbean,Argentina,Buenos Aires F.D.,,Buenos Aires
201.234.44.129,4,52,DNS Server: 201-234-44-129.dynamic.funescoop.com.ar,AR,Americas,Latin America and the Caribbean,Argentina,Buenos Aires F.D.,,Buenos Aires
201.234.138.252,4,179,DNS Server: coopticino.com.ar,AR,Americas,Latin America and the Caribbean,Argentina,Buenos Aires F.D.,,Buenos Aires
200.123.177.83,4,9,DNS Server: customer-static-123-177-83.iplannetworks.net,AR,Americas,Latin America and the Caribbean,Argentina,Buenos Aires F.D.,,Buenos Aires
190.210.62.152,4,428,DNS Server: customer-static-210-62-152.iplannetworks.net,AR,Americas,Latin America and the Caribbean,Argentina,Buenos Aires F.D.,,Buenos Aires
190.210.8.69,4,109,DNS Server: customer-static-210-8-69.iplannetworks.net,AR,Americas,Latin America and the Caribbean,Argentina,Buenos Aires F.D.,,Buenos Aires
190.210.8.90,4,109,DNS Server: customer-static-210-8-90.iplannetworks.net,AR,Americas,Latin America and the Caribbean,Argentina,Buenos Aires F.D.,,Buenos Aires
200.55.37.165,4,5,DNS Server: earth.uces.edu.ar,AR,Americas,Latin America and the Caribbean,Argentina,Buenos Aires F.D.,,Buenos Aires
200.117.246.158,4,-2145585654,DNS Server: host117248158.arnet.net.ar,AR,Americas,Latin America and the Caribbean,Argentina,Buenos Aires F.D.,,Buenos Aires
190.136.183.124,4,-2145867276,DNS Server: host124.190-136-183.telecom.net.ar,AR,Americas,Latin America and the Caribbean,Argentina,Buenos Aires F.D.,,Buenos Aires
181.10.167.171,4,-873,DNS Server: host171.181-10-167.telecom.net.ar,AR,Americas,Latin America and the Caribbean,Argentina,Buenos Aires F.D.,,Buenos Aires
200.45.14.178,4,-27468,DNS Server: host178.200-45-14.telecom.net.ar,AR,Americas,Latin America and the Caribbean,Argentina,Buenos Aires F.D.,,Buenos Aires
181.10.18.243,4,-8284197,DNS Server: host243.181-10-18.telecom.net.ar,AR,Americas,Latin America and the Caribbean,Argentina,Buenos Aires F.D.,,Buenos Aires
190.111.207.83,4,2985,DNS Server: host83.207.111.190.cps.com.ar,AR,Americas,Latin America and the Caribbean,Argentina,Buenos Aires F.D.,,Buenos Aires
201.216.252.57,4,21,elaleph.com,AR,Americas,Latin America and the Caribbean,Argentina,Buenos Aires F.D.,,Buenos Aires
190.210.10.34,4,3,flechabus.com.ar,AR,Americas,Latin America and the Caribbean,Argentina,Buenos Aires F.D.,,Buenos Aires
190.210.186.8,4,4,floreriaatlantico.com.ar,AR,Americas,Latin America and the Caribbean,Argentina,Buenos Aires F.D.,,Buenos Aires
151.101.219.10,4,31,galicia.ar,AR,Americas,Latin America and the Caribbean,Argentina,Buenos Aires F.D.,,Buenos Aires
190.2.38.19,4,-22,hcdiputados-ba.gov.ar,AR,Americas,Latin America and the Caribbean,Argentina,Buenos Aires F.D.,,Buenos Aires
45.230.20.5,4,3,hcdn.gov.ar,AR,Americas,Latin America and the Caribbean,Argentina,Buenos Aires F.D.,,Buenos Aires
201.216.208.13,4,5,iapg.org.ar,AR,Americas,Latin America and the Caribbean,Argentina,Buenos Aires F.D.,,Buenos Aires
200.68.105.151,4,4,lasretamasapart.com.ar,AR,Americas,Latin America and the Caribbean,Argentina,Buenos Aires F.D.,,Buenos Aires
179.41.6.122,4,225,launion.com.ar,AR,Americas,Latin America and the Caribbean,Argentina,Buenos Aires F.D.,,Buenos Aires
200.80.43.108,4,52,medicinabuenosaires.com,AR,Americas,Latin America and the Caribbean,Argentina,Buenos Aires F.D.,,Buenos Aires
200.68.105.13,4,2351,mibenjamin.com,AR,Americas,Latin America and the Caribbean,Argentina,Buenos Aires F.D.,,Buenos Aires
200.80.43.55,4,-1,oma.org.ar,AR,Americas,Latin America and the Caribbean,Argentina,Buenos Aires F.D.,,Buenos Aires
181.9.194.134,4,2497,Ookla Speedtest Server 17538: st-tucuman-tuc1.cablevisionfibertel.com.ar,AR,Americas,Latin America and the Caribbean,Argentina,Buenos Aires F.D.,,Buenos Aires
200.32.126.70,4,20540574,Ookla Speedtest Server 55029: buenosaires.speedtest.ciriontechnologies.com,AR,Americas,Latin America and the Caribbean,Argentina,Buenos Aires F.D.,,Buenos Aires
190.105.164.2,4,12,Ookla Speedtest Server: www.pccp.net.ar,AR,Americas,Latin America and the Caribbean,Argentina,Buenos Aires F.D.,,Buenos Aires
200.80.42.219,4,47,puntoip.info,AR,Americas,Latin America and the Caribbean,Argentina,Buenos Aires F.D.,,Buenos Aires
190.210.186.138,4,36,raovet.com.ar,AR,Americas,Latin America and the Caribbean,Argentina,Buenos Aires F.D.,,Buenos Aires
200.80.10.124,4,10,revistaleemos.com,AR,Americas,Latin America and the Caribbean,Argentina,Buenos Aires F.D.,,Buenos Aires
168.96.15.24,4,16,rosario-conicet.gov.ar,AR,Americas,Latin America and the Caribbean,Argentina,Buenos Aires F.D.,,Buenos Aires
200.61.169.5,4,6,safaesperanza.com,AR,Americas,Latin America and the Caribbean,Argentina,Buenos Aires F.D.,,Buenos Aires
190.12.101.125,4,644,sanmartindelosandes.gov.ar,AR,Americas,Latin America and the Caribbean,Argentina,Buenos Aires F.D.,,Buenos Aires
200.123.128.68,4,20,siu.edu.ar,AR,Americas,Latin America and the Caribbean,Argentina,Buenos Aires F.D.,,Buenos Aires
200.80.43.5,4,1,smarthings.com.ar,AR,Americas,Latin America and the Caribbean,Argentina,Buenos Aires F.D.,,Buenos Aires
190.210.162.105,4,1272163,smartmail.com.ar,AR,Americas,Latin America and the Caribbean,Argentina,Buenos Aires F.D.,,Buenos Aires
190.210.186.76,4,12,summamasshop.com.ar,AR,Americas,Latin America and the Caribbean,Argentina,Buenos Aires F.D.,,Buenos Aires
200.80.43.218,4,-1,tudorplace.com.ar,AR,Americas,Latin America and the Caribbean,Argentina,Buenos Aires F.D.,,Buenos Aires
200.110.149.101,4,2,turismoentrerios.com,AR,Americas,Latin America and the Caribbean,Argentina,Buenos Aires F.D.,,Buenos Aires
190.221.183.74,4,0,tvpublica.com.ar,AR,Americas,Latin America and the Caribbean,Argentina,Buenos Aires F.D.,,Buenos Aires
190.220.158.69,4,14,ub.edu.ar,AR,Americas,Latin America and the Caribbean,Argentina,Buenos Aires F.D.,,Buenos Aires
190.210.238.97,4,10,ucema.edu.ar,AR,Americas,Latin America and the Caribbean,Argentina,Buenos Aires F.D.,,Buenos Aires
170.78.75.247,4,5256,ufasta.edu.ar,AR,Americas,Latin America and the Caribbean,Argentina,Buenos Aires F.D.,,Buenos Aires
200.51.41.139,4,23,um.edu.ar,AR,Americas,Latin America and the Caribbean,Argentina,Buenos Aires F.D.,,Buenos Aires
