reflector_ip,ip_version,offset,description,country_code,region,sub_region,country_name,sub_division_1,sub_division_2,city
95.100.117.49,4,45,admanmedia.com,ES,Europe,Southern Europe,Spain,Madrid,Madrid,Madrid
178.33.5.208,4,5,agendapublica.es,ES,Europe,Southern Europe,Spain,Madrid,Madrid,Madrid
178.33.164.163,4,62,albasolar.es,ES,Europe,Southern Europe,Spain,Madrid,Madrid,Madrid
154.58.198.208,4,53,alejandradeargos.com,ES,Europe,Southern Europe,Spain,Madrid,Madrid,Madrid
178.211.133.32,4,6,alexrovira.com,ES,Europe,Southern Europe,Spain,Madrid,Madrid,Madrid
178.33.167.74,4,39,alojamientosenpamplona.com,ES,Europe,Southern Europe,Spain,Madrid,Madrid,Madrid
154.53.132.86,4,3222,altamiraweb.net,ES,Europe,Southern Europe,Spain,Madrid,Madrid,Madrid
178.211.133.28,4,5,annestokes.com,ES,Europe,Southern Europe,Spain,Madrid,Madrid,Madrid
188.213.5.124,4,83,aperturas.org,ES,Europe,Southern Europe,Spain,Madrid,Madrid,Madrid
178.211.133.65,4,23,archivoshistoria.com,ES,Europe,Southern Europe,Spain,Madrid,Madrid,Madrid
31.14.255.81,4,-1181,argentaceramica.com,ES,Europe,Southern Europe,Spain,Madrid,Madrid,Madrid
178.211.133.33,4,29,artesaniaviana.com,ES,Europe,Southern Europe,Spain,Madrid,Madrid,Madrid
185.161.98.43,4,43,aslan.es,ES,Europe,Southern Europe,Spain,Madrid,Madrid,Madrid
185.195.98.213,4,-4804,attac.es,ES,Europe,Southern Europe,Spain,Madrid,Madrid,Madrid
212.170.49.16,4,31,autoprin.com,ES,Europe,Southern Europe,Spain,Madrid,Madrid,Madrid
5.57.227.251,4,380460,awwwards.com,ES,Europe,Southern Europe,Spain,Madrid,Madrid,Madrid
185.195.98.157,4,2,ayuntamientoboadilladelmonte.org,ES,Europe,Southern Europe,Spain,Madrid,Madrid,Madrid
154.56.135.244,4,-834,azteca.es,ES,Europe,Southern Europe,Spain,Madrid,Madrid,Madrid
178.211.133.51,4,37,biblogtecarios.es,ES,Europe,Southern Europe,Spain,Madrid,Madrid,Madrid
5.196.164.65,4,30,casinounique.es,ES,Europe,Southern Europe,Spain,Madrid,Madrid,Madrid
217.111.175.25,4,89,cedro.org,ES,Europe,Southern Europe,Spain,Madrid,Madrid,Madrid
195.16.153.36,4,1,cesabadellfc.com,ES,Europe,Southern Europe,Spain,Madrid,Madrid,Madrid
178.211.133.30,4,6,ciarglobal.com,ES,Europe,Southern Europe,Spain,Madrid,Madrid,Madrid
94.23.85.44,4,6,ciudadano2cero.com,ES,Europe,Southern Europe,Spain,Madrid,Madrid,Madrid
185.2.151.134,4,514672,ciudadreal.es,ES,Europe,Southern Europe,Spain,Madrid,Madrid,Madrid
178.211.133.9,4,111,claudioinacio.com,ES,Europe,Southern Europe,Spain,Madrid,Madrid,Madrid
193.147.107.22,4,25,cliplab.org,ES,Europe,Southern Europe,Spain,Madrid,Madrid,Madrid
95.100.105.146,4,8,cmpco.com,ES,Europe,Southern Europe,Spain,Madrid,Madrid,Madrid
95.100.105.145,4,11,cmpco.com,ES,Europe,Southern Europe,Spain,Madrid,Madrid,Madrid
149.202.147.243,4,7,cnse.es,ES,Europe,Southern Europe,Spain,Madrid,Madrid,Madrid
62.97.123.107,4,-29512859,COLT Technology Services Group Limited,ES,Europe,Southern Europe,Spain,Madrid,Madrid,Madrid
178.211.133.14,4,3,concentrico.es,ES,Europe,Southern Europe,Spain,Madrid,Madrid,Madrid
94.23.83.112,4,3,contaminacionacustica.net,ES,Europe,Southern Europe,Spain,Madrid,Madrid,Madrid
178.211.133.72,4,23,dantealighieriasturias.es,ES,Europe,Southern Europe,Spain,Madrid,Madrid,Madrid
178.211.133.68,4,44,deautonomos.com,ES,Europe,Southern Europe,Spain,Madrid,Madrid,Madrid
34.175.177.228,4,91,decoratrix.com,ES,Europe,Southern Europe,Spain,Madrid,Madrid,Madrid
178.33.167.50,4,82,descobreixmenorca.com,ES,Europe,Southern Europe,Spain,Madrid,Madrid,Madrid
178.211.133.8,4,4,dexway.com,ES,Europe,Southern Europe,Spain,Madrid,Madrid,Madrid
178.211.133.34,4,15,diamundialautismo.com,ES,Europe,Southern Europe,Spain,Madrid,Madrid,Madrid
185.37.226.43,4,26,diariobahiadecadiz.com,ES,Europe,Southern Europe,Spain,Madrid,Madrid,Madrid
34.175.78.19,4,54,diariomotor.com,ES,Europe,Southern Europe,Spain,Madrid,Madrid,Madrid
194.179.98.48,4,-214222,diputaciolleida.cat,ES,Europe,Southern Europe,Spain,Madrid,Madrid,Madrid
81.42.234.1,4,22937,DNS Server: 1.red-81-42-234.staticip.rima-tde.net,ES,Europe,Southern Europe,Spain,Madrid,Madrid,Madrid
88.28.220.105,4,70,DNS Server: 105.red-88-28-220.staticip.rima-tde.net,ES,Europe,Southern Europe,Spain,Madrid,Madrid,Madrid
95.22.2.114,4,809,DNS Server: 114.pool95-22-2.dynamic.orange.es,ES,Europe,Southern Europe,Spain,Madrid,Madrid,Madrid
80.27.0.158,4,211,DNS Server: 158.red-80-27-0.staticip.rima-tde.net,ES,Europe,Southern Europe,Spain,Madrid,Madrid,Madrid
80.27.0.161,4,-3890725959,DNS Server: 161.red-80-27-0.staticip.rima-tde.net,ES,Europe,Southern Europe,Spain,Madrid,Madrid,Madrid
83.48.7.163,4,2951,DNS Server: 163.red-83-48-7.staticip.rima-tde.net,ES,Europe,Southern Europe,Spain,Madrid,Madrid,Madrid
88.28.192.185,4,937,DNS Server: 185.red-88-28-192.staticip.rima-tde.net,ES,Europe,Southern Europe,Spain,Madrid,Madrid,Madrid
83.48.108.186,4,4006,DNS Server: 186.red-83-48-108.staticip.rima-tde.net,ES,Europe,Southern Europe,Spain,Madrid,Madrid,Madrid
88.28.222.20,4,-3890707098,DNS Server: 20.red-88-28-222.staticip.rima-tde.net,ES,Europe,Southern Europe,Spain,Madrid,Madrid,Madrid
89.128.26.211,4,21110,DNS Server: 211.pool89-128-26.dynamic.orange.es,ES,Europe,Southern Europe,Spain,Madrid,Madrid,Madrid
80.27.2.221,4,11731,DNS Server: 221.red-80-27-2.staticip.rima-tde.net,ES,Europe,Southern Europe,Spain,Madrid,Madrid,Madrid
80.27.2.222,4,16071,DNS Server: 222.red-80-27-2.staticip.rima-tde.net,ES,Europe,Southern Europe,Spain,Madrid,Madrid,Madrid
88.28.203.228,4,11,DNS Server: 228.red-88-28-203.staticip.rima-tde.net,ES,Europe,Southern Europe,Spain,Madrid,Madrid,Madrid
83.48.80.229,4,0,DNS Server: 229.red-83-48-80.staticip.rima-tde.net,ES,Europe,Southern Europe,Spain,Madrid,Madrid,Madrid
2.136.81.230,4,44,DNS Server: 230.red-2-136-81.staticip.rima-tde.net,ES,Europe,Southern Europe,Spain,Madrid,Madrid,Madrid
80.27.7.47,4,3581,DNS Server: 47.red-80-27-7.staticip.rima-tde.net,ES,Europe,Southern Europe,Spain,Madrid,Madrid,Madrid
80.27.3.5,4,-11230,DNS Server: 5.red-80-27-3.staticip.rima-tde.net,ES,Europe,Southern Europe,Spain,Madrid,Madrid,Madrid
80.27.3.71,4,-3344,DNS Server: 71.red-80-27-3.staticip.rima-tde.net,ES,Europe,Southern Europe,Spain,Madrid,Madrid,Madrid
85.62.13.83,4,-3136,DNS Server: 85.62.13.83.static.abi.uni2.es,ES,Europe,Southern Europe,Spain,Madrid,Madrid,Madrid
91.215.65.184,4,15,DNS Server: GSF-MADDC01-DIA01,ES,Europe,Southern Europe,Spain,Madrid,Madrid,Madrid
194.224.216.170,4,142,DNS Server: info170.xpress.es,ES,Europe,Southern Europe,Spain,Madrid,Madrid,Madrid
89.7.235.170,4,-20358824,DNS Server: static-170-235-7-89.ipcom.comunitel.net,ES,Europe,Southern Europe,Spain,Madrid,Madrid,Madrid
77.230.66.172,4,368,DNS Server: static-172-66-230-77.ipcom.comunitel.net,ES,Europe,Southern Europe,Spain,Madrid,Madrid,Madrid
185.93.3.163,4,375,DNS Server: unn-185-93-3-163.datapacket.com,ES,Europe,Southern Europe,Spain,Madrid,Madrid,Madrid
184.24.14.126,4,12,download.lenovo.com,ES,Europe,Southern Europe,Spain,Madrid,Madrid,Madrid
23.36.127.75,4,13,download.oracle.com,ES,Europe,Southern Europe,Spain,Madrid,Madrid,Madrid
185.2.150.213,4,121,eapn.es,ES,Europe,Southern Europe,Spain,Madrid,Madrid,Madrid
154.56.135.128,4,6435,ecopilas.es,ES,Europe,Southern Europe,Spain,Madrid,Madrid,Madrid
149.202.147.245,4,117,ecuador.travel,ES,Europe,Southern Europe,Spain,Madrid,Madrid,Madrid
178.211.133.46,4,14,eictv.org,ES,Europe,Southern Europe,Spain,Madrid,Madrid,Madrid
151.101.134.133,4,187,elcorreoweb.es,ES,Europe,Southern Europe,Spain,Madrid,Madrid,Madrid
178.211.133.61,4,9,elejandria.com,ES,Europe,Southern Europe,Spain,Madrid,Madrid,Madrid
151.101.133.124,4,10,elnaturalista.com,ES,Europe,Southern Europe,Spain,Madrid,Madrid,Madrid
178.33.164.236,4,64,elparadordelgarraf.com,ES,Europe,Southern Europe,Spain,Madrid,Madrid,Madrid
185.161.98.69,4,4,enertic.org,ES,Europe,Southern Europe,Spain,Madrid,Madrid,Madrid
149.202.128.253,4,18,esdi.es,ES,Europe,Southern Europe,Spain,Madrid,Madrid,Madrid
62.36.228.50,4,1944,estamosrodando.com,ES,Europe,Southern Europe,Spain,Madrid,Madrid,Madrid
34.175.128.105,4,3,euqulraqia.com,ES,Europe,Southern Europe,Spain,Madrid,Madrid,Madrid
154.56.135.111,4,-19,ferrofi.com,ES,Europe,Southern Europe,Spain,Madrid,Madrid,Madrid
178.33.161.23,4,62,ferugby.es,ES,Europe,Southern Europe,Spain,Madrid,Madrid,Madrid
34.175.118.85,4,55,foodfinder.us,ES,Europe,Southern Europe,Spain,Madrid,Madrid,Madrid
93.95.208.22,4,3,forumlibertas.com,ES,Europe,Southern Europe,Spain,Madrid,Madrid,Madrid
208.85.17.238,4,9,fpdeseo.org,ES,Europe,Southern Europe,Spain,Madrid,Madrid,Madrid
178.33.161.97,4,2,fronterad.com,ES,Europe,Southern Europe,Spain,Madrid,Madrid,Madrid
80.28.51.242,4,47,fuhem.es,ES,Europe,Southern Europe,Spain,Madrid,Madrid,Madrid
154.56.134.69,4,-1220,fundaciondelcorazon.com,ES,Europe,Southern Europe,Spain,Madrid,Madrid,Madrid
95.100.105.187,4,28,fundacioniberdrolaespana.org,ES,Europe,Southern Europe,Spain,Madrid,Madrid,Madrid
185.37.226.87,4,26,fundaciovilacasas.com,ES,Europe,Southern Europe,Spain,Madrid,Madrid,Madrid
185.99.184.231,4,5,getafe.es,ES,Europe,Southern Europe,Spain,Madrid,Madrid,Madrid
178.211.133.19,4,5,getuplead.com,ES,Europe,Southern Europe,Spain,Madrid,Madrid,Madrid
5.57.226.44,4,47,giftcampaign.es,ES,Europe,Southern Europe,Spain,Madrid,Madrid,Madrid
5.57.226.43,4,8,giftcampaign.fr,ES,Europe,Southern Europe,Spain,Madrid,Madrid,Madrid
5.134.116.16,4,713,ginernet.com,ES,Europe,Southern Europe,Spain,Madrid,Madrid,Madrid
185.195.96.114,4,3,ginferreradv.com,ES,Europe,Southern Europe,Spain,Madrid,Madrid,Madrid
185.103.37.138,4,10,gocco.es,ES,Europe,Southern Europe,Spain,Madrid,Madrid,Madrid
154.56.134.55,4,3861,gominolasdepetroleo.com,ES,Europe,Southern Europe,Spain,Madrid,Madrid,Madrid
2.17.211.217,4,13,grandvision.it,ES,Europe,Southern Europe,Spain,Madrid,Madrid,Madrid
2.17.211.186,4,45,grandvision.it,ES,Europe,Southern Europe,Spain,Madrid,Madrid,Madrid
178.33.165.201,4,38,granvelada.com,ES,Europe,Southern Europe,Spain,Madrid,Madrid,Madrid
194.179.98.47,4,266,guissona.cat,ES,Europe,Southern Europe,Spain,Madrid,Madrid,Madrid
178.33.162.193,4,9,h-oda.com,ES,Europe,Southern Europe,Spain,Madrid,Madrid,Madrid
178.211.133.23,4,32,hace.es,ES,Europe,Southern Europe,Spain,Madrid,Madrid,Madrid
188.210.216.129,4,0,hefame.es,ES,Europe,Southern Europe,Spain,Madrid,Madrid,Madrid
178.211.133.22,4,34,historiasdeluz.es,ES,Europe,Southern Europe,Spain,Madrid,Madrid,Madrid
95.100.105.194,4,33,iberdrola.com,ES,Europe,Southern Europe,Spain,Madrid,Madrid,Madrid
95.100.105.188,4,11,iberdrola.com,ES,Europe,Southern Europe,Spain,Madrid,Madrid,Madrid
95.100.105.193,4,32,iberdrola.es,ES,Europe,Southern Europe,Spain,Madrid,Madrid,Madrid
95.100.105.175,4,39,iberdrola.es,ES,Europe,Southern Europe,Spain,Madrid,Madrid,Madrid
95.100.105.179,4,5,iberdrola.es,ES,Europe,Southern Europe,Spain,Madrid,Madrid,Madrid
95.100.105.177,4,15,iberdrola.es,ES,Europe,Southern Europe,Spain,Madrid,Madrid,Madrid
95.100.105.154,4,12,iberdrola.es,ES,Europe,Southern Europe,Spain,Madrid,Madrid,Madrid
95.100.105.163,4,22,iberdrola.es,ES,Europe,Southern Europe,Spain,Madrid,Madrid,Madrid
95.100.105.132,4,20,iberdrola.es,ES,Europe,Southern Europe,Spain,Madrid,Madrid,Madrid
185.161.98.65,4,24,icamalaga.es,ES,Europe,Southern Europe,Spain,Madrid,Madrid,Madrid
212.222.42.101,4,30,ikuska.com,ES,Europe,Southern Europe,Spain,Madrid,Madrid,Madrid
185.195.99.30,4,3343,imdea.org,ES,Europe,Southern Europe,Spain,Madrid,Madrid,Madrid
178.33.162.164,4,2,incyde.org,ES,Europe,Southern Europe,Spain,Madrid,Madrid,Madrid
212.222.42.94,4,54,interhotel.com,ES,Europe,Southern Europe,Spain,Madrid,Madrid,Madrid
149.202.147.247,4,5,inventario.pro,ES,Europe,Southern Europe,Spain,Madrid,Madrid,Madrid
5.39.109.87,4,29,irbarcelona.org,ES,Europe,Southern Europe,Spain,Madrid,Madrid,Madrid
5.22.218.121,4,56400,iucncongress2020.org,ES,Europe,Southern Europe,Spain,Madrid,Madrid,Madrid
178.33.165.67,4,4,jeanleon.com,ES,Europe,Southern Europe,Spain,Madrid,Madrid,Madrid
213.0.33.12,4,20,jerez.es,ES,Europe,Southern Europe,Spain,Madrid,Madrid,Madrid
178.211.133.15,4,14,jesushuertadesoto.com,ES,Europe,Southern Europe,Spain,Madrid,Madrid,Madrid
178.33.161.178,4,3,joaquin-rodrigo.com,ES,Europe,Southern Europe,Spain,Madrid,Madrid,Madrid
154.58.198.161,4,5,juanrevenga.com,ES,Europe,Southern Europe,Spain,Madrid,Madrid,Madrid
185.195.98.34,4,2,juegosadn.es,ES,Europe,Southern Europe,Spain,Madrid,Madrid,Madrid
178.211.133.63,4,12,kedin.es,ES,Europe,Southern Europe,Spain,Madrid,Madrid,Madrid
185.23.118.242,4,28,laxarxa.cat,ES,Europe,Southern Europe,Spain,Madrid,Madrid,Madrid
34.175.201.153,4,5700,lestergrow.es,ES,Europe,Southern Europe,Spain,Madrid,Madrid,Madrid
178.211.133.29,4,2,lhardy.com,ES,Europe,Southern Europe,Spain,Madrid,Madrid,Madrid
178.211.133.35,4,22,listarojapatrimonio.org,ES,Europe,Southern Europe,Spain,Madrid,Madrid,Madrid
185.93.3.244,4,66,loverfans.com,ES,Europe,Southern Europe,Spain,Madrid,Madrid,Madrid
185.22.92.179,4,19887,lowfestival.es,ES,Europe,Southern Europe,Spain,Madrid,Madrid,Madrid
178.211.133.53,4,73,magicolom.com,ES,Europe,Southern Europe,Spain,Madrid,Madrid,Madrid
178.33.160.204,4,51,marinador.com,ES,Europe,Southern Europe,Spain,Madrid,Madrid,Madrid
178.211.133.69,4,41,mariomarini.es,ES,Europe,Southern Europe,Spain,Madrid,Madrid,Madrid
178.211.133.11,4,39,marketingandweb.es,ES,Europe,Southern Europe,Spain,Madrid,Madrid,Madrid
185.22.92.131,4,18411,mercasa.es,ES,Europe,Southern Europe,Spain,Madrid,Madrid,Madrid
93.95.208.8,4,3,metalocus.es,ES,Europe,Southern Europe,Spain,Madrid,Madrid,Madrid
185.161.98.86,4,15,microteatro.es,ES,Europe,Southern Europe,Spain,Madrid,Madrid,Madrid
54.37.172.161,4,3,miradormadrid.com,ES,Europe,Southern Europe,Spain,Madrid,Madrid,Madrid
62.97.82.34,4,26,mitula.us,ES,Europe,Southern Europe,Spain,Madrid,Madrid,Madrid
149.202.147.244,4,-1,mochileandoporelmundo.com,ES,Europe,Southern Europe,Spain,Madrid,Madrid,Madrid
62.97.84.20,4,5,moduslaborandi.com,ES,Europe,Southern Europe,Spain,Madrid,Madrid,Madrid
104.83.80.230,4,12,morganstanley.com,ES,Europe,Southern Europe,Spain,Madrid,Madrid,Madrid
62.97.82.44,4,2,nestoria.co.uk,ES,Europe,Southern Europe,Spain,Madrid,Madrid,Madrid
185.195.97.101,4,-629,novagob.org,ES,Europe,Southern Europe,Spain,Madrid,Madrid,Madrid
149.202.147.246,4,2,nuestropsicologoenmadrid.com,ES,Europe,Southern Europe,Spain,Madrid,Madrid,Madrid
185.161.98.3,4,4,nutfruit.org,ES,Europe,Southern Europe,Spain,Madrid,Madrid,Madrid
178.33.160.224,4,4,oafifoundation.com,ES,Europe,Southern Europe,Spain,Madrid,Madrid,Madrid
50.7.31.242,4,143,Ookla Speedtest Server 9933: lg-mad.fdcservers.net,ES,Europe,Southern Europe,Spain,Madrid,Madrid,Madrid
212.81.140.37,4,372,Ookla Speedtest Server 40135: speedmad.sarenet.es,ES,Europe,Southern Europe,Spain,Madrid,Madrid,Madrid
85.208.114.221,4,231,Ookla Speedtest Server 52295: speedtest.ohz.es,ES,Europe,Southern Europe,Spain,Madrid,Madrid,Madrid
149.202.147.248,4,22,operaliacompetition.org,ES,Europe,Southern Europe,Spain,Madrid,Madrid,Madrid
185.93.182.243,4,2,ourfuturerailway.hk,ES,Europe,Southern Europe,Spain,Madrid,Madrid,Madrid
178.211.133.58,4,26,paisajetransversal.org,ES,Europe,Southern Europe,Spain,Madrid,Madrid,Madrid
178.211.133.64,4,9,periodismociudadano.com,ES,Europe,Southern Europe,Spain,Madrid,Madrid,Madrid
178.211.133.47,4,31,petdarling.com,ES,Europe,Southern Europe,Spain,Madrid,Madrid,Madrid
178.211.133.50,4,29,portalparados.es,ES,Europe,Southern Europe,Spain,Madrid,Madrid,Madrid
38.180.53.107,4,54,profvibor.ru,ES,Europe,Southern Europe,Spain,Madrid,Madrid,Madrid
185.103.39.249,4,72,programacion.com,ES,Europe,Southern Europe,Spain,Madrid,Madrid,Madrid
188.213.5.160,4,43,protegeles.com,ES,Europe,Southern Europe,Spain,Madrid,Madrid,Madrid
31.14.255.129,4,192,pta.es,ES,Europe,Southern Europe,Spain,Madrid,Madrid,Madrid
178.33.165.11,4,10,quincenamusical.eus,ES,Europe,Southern Europe,Spain,Madrid,Madrid,Madrid
5.188.183.186,4,7,qxinfo.in,ES,Europe,Southern Europe,Spain,Madrid,Madrid,Madrid
91.132.103.5,4,29,raiolanetworks.es,ES,Europe,Southern Europe,Spain,Madrid,Madrid,Madrid
62.97.84.197,4,12,rcsmm.eu,ES,Europe,Southern Europe,Spain,Madrid,Madrid,Madrid
178.211.133.10,4,39,reds-sdsn.es,ES,Europe,Southern Europe,Spain,Madrid,Madrid,Madrid
178.211.133.16,4,20,reformasfarol.com,ES,Europe,Southern Europe,Spain,Madrid,Madrid,Madrid
178.211.133.40,4,38,restauranteelkano.com,ES,Europe,Southern Europe,Spain,Madrid,Madrid,Madrid
95.100.132.47,4,4,retabet.es,ES,Europe,Southern Europe,Spain,Madrid,Madrid,Madrid
94.23.113.106,4,36,revistaganamas.com.pe,ES,Europe,Southern Europe,Spain,Madrid,Madrid,Madrid
95.100.105.150,4,33,rge.com,ES,Europe,Southern Europe,Spain,Madrid,Madrid,Madrid
95.100.105.190,4,13,rge.com,ES,Europe,Southern Europe,Spain,Madrid,Madrid,Madrid
62.36.229.31,4,59,richmediastudio.com,ES,Europe,Southern Europe,Spain,Madrid,Madrid,Madrid
178.211.133.42,4,5,rsce.es,ES,Europe,Southern Europe,Spain,Madrid,Madrid,Madrid
95.100.105.183,4,37,scottishpower.co.uk,ES,Europe,Southern Europe,Spain,Madrid,Madrid,Madrid
95.100.105.149,4,9,scottishpower.co.uk,ES,Europe,Southern Europe,Spain,Madrid,Madrid,Madrid
95.100.105.138,4,57,scottishpower.com,ES,Europe,Southern Europe,Spain,Madrid,Madrid,Madrid
95.100.105.139,4,16,scottishpower.com,ES,Europe,Southern Europe,Spain,Madrid,Madrid,Madrid
95.100.105.134,4,4,scottishpowerrenewables.com,ES,Europe,Southern Europe,Spain,Madrid,Madrid,Madrid
95.100.105.180,4,30,scottishpowerrenewables.com,ES,Europe,Southern Europe,Spain,Madrid,Madrid,Madrid
178.211.133.7,4,17,sedolor.es,ES,Europe,Southern Europe,Spain,Madrid,Madrid,Madrid
178.211.133.36,4,18,seepidemiologia.es,ES,Europe,Southern Europe,Spain,Madrid,Madrid,Madrid
178.211.133.60,4,20,seff.es,ES,Europe,Southern Europe,Spain,Madrid,Madrid,Madrid
178.33.167.92,4,3,sharemusic.es,ES,Europe,Southern Europe,Spain,Madrid,Madrid,Madrid
178.211.133.26,4,44,siberzone.es,ES,Europe,Southern Europe,Spain,Madrid,Madrid,Madrid
178.32.150.78,4,4,sociedadgeologica.es,ES,Europe,Southern Europe,Spain,Madrid,Madrid,Madrid
90.160.60.180,4,345504,soib.es,ES,Europe,Southern Europe,Spain,Madrid,Madrid,Madrid
185.195.96.254,4,-3028,somosmalasana.com,ES,Europe,Southern Europe,Spain,Madrid,Madrid,Madrid
178.33.167.117,4,4,sosracisme.org,ES,Europe,Southern Europe,Spain,Madrid,Madrid,Madrid
65.20.98.252,4,13,soyunperro.com,ES,Europe,Southern Europe,Spain,Madrid,Madrid,Madrid
94.23.84.5,4,2,spainsif.es,ES,Europe,Southern Europe,Spain,Madrid,Madrid,Madrid
95.100.105.155,4,36,spenergynetworks.co.uk,ES,Europe,Southern Europe,Spain,Madrid,Madrid,Madrid
95.100.105.142,4,19,spenergynetworks.co.uk,ES,Europe,Southern Europe,Spain,Madrid,Madrid,Madrid
5.57.226.105,4,7,stackscale.com,ES,Europe,Southern Europe,Spain,Madrid,Madrid,Madrid
5.57.226.103,4,12,stackscale.com,ES,Europe,Southern Europe,Spain,Madrid,Madrid,Madrid
178.211.133.44,4,18,surfingtheplanet.com,ES,Europe,Southern Europe,Spain,Madrid,Madrid,Madrid
178.33.165.168,4,2,tablaolosgallos.com,ES,Europe,Southern Europe,Spain,Madrid,Madrid,Madrid
178.211.133.59,4,13,terzas.es,ES,Europe,Southern Europe,Spain,Madrid,Madrid,Madrid
178.33.163.4,4,33,themystica.com,ES,Europe,Southern Europe,Spain,Madrid,Madrid,Madrid
178.211.133.38,4,4,tiempodenegocios.com,ES,Europe,Southern Europe,Spain,Madrid,Madrid,Madrid
178.211.133.21,4,35,todoababor.es,ES,Europe,Southern Europe,Spain,Madrid,Madrid,Madrid
178.211.133.49,4,15,todoindie.com,ES,Europe,Southern Europe,Spain,Madrid,Madrid,Madrid
178.211.133.62,4,29,transparencia.org.es,ES,Europe,Southern Europe,Spain,Madrid,Madrid,Madrid
212.222.42.100,4,4,turincon.com,ES,Europe,Southern Europe,Spain,Madrid,Madrid,Madrid
178.33.166.103,4,8,turismodemurcia.es,ES,Europe,Southern Europe,Spain,Madrid,Madrid,Madrid
213.0.33.71,4,43,turismojerez.com,ES,Europe,Southern Europe,Spain,Madrid,Madrid,Madrid
213.27.150.201,4,3,udima.es,ES,Europe,Southern Europe,Spain,Madrid,Madrid,Madrid
195.16.147.111,4,14,ulma.com,ES,Europe,Southern Europe,Spain,Madrid,Madrid,Madrid
193.146.156.243,4,3,upsa.es,ES,Europe,Southern Europe,Spain,Madrid,Madrid,Madrid
178.211.133.17,4,4,vacunas.org,ES,Europe,Southern Europe,Spain,Madrid,Madrid,Madrid
178.211.133.54,4,7,vatiometro.com,ES,Europe,Southern Europe,Spain,Madrid,Madrid,Madrid
91.149.243.116,4,31,vestalfamily.com,ES,Europe,Southern Europe,Spain,Madrid,Madrid,Madrid
185.195.98.40,4,6,vivecamino.com,ES,Europe,Southern Europe,Spain,Madrid,Madrid,Madrid
5.134.119.90,4,28,vivirsinplastico.com,ES,Europe,Southern Europe,Spain,Madrid,Madrid,Madrid
195.12.50.18,4,12,warninglabelgenerator.com,ES,Europe,Southern Europe,Spain,Madrid,Madrid,Madrid
217.182.10.18,4,5,wkf.net,ES,Europe,Southern Europe,Spain,Madrid,Madrid,Madrid
65.20.98.20,4,11,worldwaronecolorphotos.com,ES,Europe,Southern Europe,Spain,Madrid,Madrid,Madrid
185.2.150.214,4,6,xsolidaria.org,ES,Europe,Southern Europe,Spain,Madrid,Madrid,Madrid
178.33.162.250,4,4,yllana.com,ES,Europe,Southern Europe,Spain,Madrid,Madrid,Madrid
178.33.5.216,4,3,yoseomarketing.com,ES,Europe,Southern Europe,Spain,Madrid,Madrid,Madrid
178.33.167.168,4,8,youbarcelona.com,ES,Europe,Southern Europe,Spain,Madrid,Madrid,Madrid
185.22.92.19,4,-19504,yumas.com,ES,Europe,Southern Europe,Spain,Madrid,Madrid,Madrid
178.33.5.215,4,6,zooportraits.com,ES,Europe,Southern Europe,Spain,Madrid,Madrid,Madrid
178.33.162.182,4,0,zurichmaratobarcelona.es,ES,Europe,Southern Europe,Spain,Madrid,Madrid,Madrid
