reflector_ip,ip_version,offset,description,country_code,region,sub_region,country_name,sub_division_1,sub_division_2,city
144.217.75.219,4,6,01xz.net,CA,Americas,Northern America,Canada,Quebec,,Beauharnois
54.39.182.171,4,4,1001fonts.com,CA,Americas,Northern America,Canada,Quebec,,Beauharnois
149.56.22.117,4,96,1199seiu.org,CA,Americas,Northern America,Canada,Quebec,,Montreal
198.27.110.63,4,3,2022old.com,CA,Americas,Northern America,Canada,Quebec,,Montreal
204.80.4.250,4,4,211qc.ca,CA,Americas,Northern America,Canada,Quebec,,Joliette
174.142.221.53,4,5,2718281828.com,CA,Americas,Northern America,Canada,Quebec,,Westmount
198.27.66.66,4,1,2normal.com,CA,Americas,Northern America,Canada,Quebec,,Montreal
144.217.204.30,4,4,2thesunnyside.com,CA,Americas,Northern America,Canada,Quebec,,Beauharnois
144.217.77.187,4,3,360meridianos.com,CA,Americas,Northern America,Canada,Quebec,,Beauharnois
144.217.234.217,4,2,3yummytummies.com,CA,Americas,Northern America,Canada,Quebec,,Beauharnois
142.44.140.78,4,1,50gameslike.com,CA,Americas,Northern America,Canada,Quebec,,
198.100.159.128,4,10,aapeducation.com.au,CA,Americas,Northern America,Canada,Quebec,,Montreal
158.69.112.86,4,5,abrir.link,CA,Americas,Northern America,Canada,Quebec,,Montreal
144.217.30.60,4,14,accuenergy.com,CA,Americas,Northern America,Canada,Quebec,,Beauharnois
142.44.138.120,4,61,aci.aero,CA,Americas,Northern America,Canada,Quebec,,
51.222.107.124,4,56,acs-aec.ca,CA,Americas,Northern America,Canada,Quebec,,
38.102.85.112,4,79,activewords.com,CA,Americas,Northern America,Canada,Quebec,,Montreal
51.161.86.52,4,2,acuitastx.com,CA,Americas,Northern America,Canada,Quebec,,Montreal
192.99.87.142,4,2,adidascanadaonline.ca,CA,Americas,Northern America,Canada,Quebec,,Montreal
149.56.26.2,4,261536,adioma.com,CA,Americas,Northern America,Canada,Quebec,,Montreal
144.217.204.13,4,4,adorefoods.com,CA,Americas,Northern America,Canada,Quebec,,Beauharnois
192.99.122.158,4,5,adultscare.com,CA,Americas,Northern America,Canada,Quebec,,Montreal
192.95.33.210,4,30,adzs.nl,CA,Americas,Northern America,Canada,Quebec,,Montreal
208.111.83.132,4,45653,agrireseau.net,CA,Americas,Northern America,Canada,Quebec,,Saint-Basile-le-Grand
167.114.179.229,4,3,airport-authority.com,CA,Americas,Northern America,Canada,Quebec,,Montreal
158.69.117.236,4,6,airport-data.com,CA,Americas,Northern America,Canada,Quebec,,Montreal
51.222.248.193,4,3,alanbatnews.net,CA,Americas,Northern America,Canada,Quebec,,
149.56.26.10,4,1,albertaaviationmuseum.com,CA,Americas,Northern America,Canada,Quebec,,Montreal
174.142.201.166,4,46,alcolockusa.com,CA,Americas,Northern America,Canada,Quebec,,Westmount
209.127.13.35,4,1,ale.org,CA,Americas,Northern America,Canada,Quebec,,Montreal
167.114.208.144,4,102,algonquinoutfitters.com,CA,Americas,Northern America,Canada,Quebec,,Montreal
142.44.218.217,4,4,alihuata.com,CA,Americas,Northern America,Canada,Quebec,,
198.72.127.75,4,-1568,all-new.info,CA,Americas,Northern America,Canada,Quebec,,Montreal
144.217.180.28,4,4,alqalam.edu.pk,CA,Americas,Northern America,Canada,Quebec,,Beauharnois
144.217.93.152,4,1,alumnit.ca,CA,Americas,Northern America,Canada,Quebec,,Beauharnois
174.142.186.174,4,18,alwatan.sy,CA,Americas,Northern America,Canada,Quebec,,Westmount
174.142.186.176,4,3,alwatanonline.com,CA,Americas,Northern America,Canada,Quebec,,Westmount
51.79.21.141,4,37,alwelayh.com,CA,Americas,Northern America,Canada,Quebec,,Beauharnois
158.69.18.241,4,848,amcham.org.pe,CA,Americas,Northern America,Canada,Quebec,,Montreal
174.142.95.85,4,4,amdh.org.ma,CA,Americas,Northern America,Canada,Quebec,,Westmount
54.39.106.148,4,5,americasfreedomfighters.com,CA,Americas,Northern America,Canada,Quebec,,Beauharnois
64.187.182.76,4,351,amilia.com,CA,Americas,Northern America,Canada,Quebec,,Montreal
35.203.109.213,4,25,amnistie.ca,CA,Americas,Northern America,Canada,Quebec,,Montreal
149.56.31.227,4,4,amphenol-industrial.com,CA,Americas,Northern America,Canada,Quebec,,Montreal
158.69.193.174,4,30,amt-games.com,CA,Americas,Northern America,Canada,Quebec,,Montreal
45.72.186.94,4,43,anarc.at,CA,Americas,Northern America,Canada,Quebec,,Dorval
144.217.33.164,4,5,andersbrownworth.com,CA,Americas,Northern America,Canada,Quebec,,Beauharnois
167.114.1.56,4,5,animecharactersdatabase.com,CA,Americas,Northern America,Canada,Quebec,,Montreal
51.161.115.176,4,11,anped.org.br,CA,Americas,Northern America,Canada,Quebec,,Montreal
167.114.61.127,4,242,apexmagnets.com,CA,Americas,Northern America,Canada,Quebec,,Montreal
144.217.234.204,4,38,apinchofhealthy.com,CA,Americas,Northern America,Canada,Quebec,,Beauharnois
144.217.204.21,4,5,apriljharris.com,CA,Americas,Northern America,Canada,Quebec,,Beauharnois
51.222.173.73,4,493,aprosojabrasil.com.br,CA,Americas,Northern America,Canada,Quebec,,
167.114.126.91,4,2,architectsandartisans.com,CA,Americas,Northern America,Canada,Quebec,,Montreal
51.222.143.185,4,5,argosoft.com,CA,Americas,Northern America,Canada,Quebec,,
149.56.145.220,4,1234,artevisual.com.co,CA,Americas,Northern America,Canada,Quebec,,Montreal
54.39.51.159,4,27,artscad.com,CA,Americas,Northern America,Canada,Quebec,,Beauharnois
192.99.68.35,4,76,artsmontreal.org,CA,Americas,Northern America,Canada,Quebec,,Montreal
192.99.88.85,4,8,asitis.com,CA,Americas,Northern America,Canada,Quebec,,Montreal
51.79.80.66,4,32,asphaltkingdom.com,CA,Americas,Northern America,Canada,Quebec,,Québec
51.79.72.7,4,2,astrolab-parc-national-mont-megantic.org,CA,Americas,Northern America,Canada,Quebec,,Québec
174.142.199.243,4,53,astronomerstelegram.org,CA,Americas,Northern America,Canada,Quebec,,Westmount
104.254.183.92,4,1,ateliersetsaveurs.com,CA,Americas,Northern America,Canada,Quebec,,Boucherville
192.95.55.91,4,22,atlantatitlepawn.com,CA,Americas,Northern America,Canada,Quebec,,Montreal
142.44.211.67,4,3,atmaclassique.com,CA,Americas,Northern America,Canada,Quebec,,
144.217.93.84,4,28,audiomass.co,CA,Americas,Northern America,Canada,Quebec,,Beauharnois
142.44.135.168,4,24,automobile-catalog.com,CA,Americas,Northern America,Canada,Quebec,,
144.217.204.29,4,5,awayfromthebox.com,CA,Americas,Northern America,Canada,Quebec,,Beauharnois
149.56.240.118,4,5,awesomelibrary.org,CA,Americas,Northern America,Canada,Quebec,,Montreal
147.253.137.164,4,19,axess.com,CA,Americas,Northern America,Canada,Quebec,,Montreal
51.161.119.96,4,3,ba-k.com,CA,Americas,Northern America,Canada,Quebec,,Montreal
142.44.215.79,4,7,backroadmapbooks.com,CA,Americas,Northern America,Canada,Quebec,,
216.137.165.215,4,6,baiesaintpaul.com,CA,Americas,Northern America,Canada,Quebec,,Trois-Rivières
54.39.102.19,4,-242,ballcharts.com,CA,Americas,Northern America,Canada,Quebec,,Beauharnois
66.212.232.220,4,4,baltimoresportsreport.com,CA,Americas,Northern America,Canada,Quebec,,Montreal
158.69.118.235,4,12,barganews.com,CA,Americas,Northern America,Canada,Quebec,,Montreal
192.95.11.130,4,8,batterywarehouse.net,CA,Americas,Northern America,Canada,Quebec,,Montreal
144.217.234.202,4,8,bbqingwiththenolands.com,CA,Americas,Northern America,Canada,Quebec,,Beauharnois
144.217.153.206,4,1,bealuniversity.ca,CA,Americas,Northern America,Canada,Quebec,,Beauharnois
158.69.204.153,4,4,bearssl.org,CA,Americas,Northern America,Canada,Quebec,,Montreal
142.44.135.249,4,-2,beforeiplay.com,CA,Americas,Northern America,Canada,Quebec,,
205.204.73.33,4,6,belgczan.ru,CA,Americas,Northern America,Canada,Quebec,,Longueuil
198.72.104.55,4,4,bernardbelanger.com,CA,Americas,Northern America,Canada,Quebec,,Montreal
38.180.12.29,4,4,betera-by.com,CA,Americas,Northern America,Canada,Quebec,,Montreal
167.114.86.204,4,192,bibliomontreal.com,CA,Americas,Northern America,Canada,Quebec,,Montreal
99.79.0.67,4,18,bigbluebubble.com,CA,Americas,Northern America,Canada,Quebec,,Montreal
198.72.111.146,4,62,billionessays.com,CA,Americas,Northern America,Canada,Quebec,,Montreal
167.114.117.40,4,2,biology-forums.com,CA,Americas,Northern America,Canada,Quebec,,Montreal
158.69.75.251,4,19,bircham.edu,CA,Americas,Northern America,Canada,Quebec,,Montreal
51.222.41.148,4,3,bishopairport.org,CA,Americas,Northern America,Canada,Quebec,,Beauharnois
162.250.191.220,4,5,bitmessage.org,CA,Americas,Northern America,Canada,Quebec,,Montreal
184.95.249.170,4,1,bixi.com,CA,Americas,Northern America,Canada,Quebec,,Montreal
144.217.195.33,4,5,blacksbbq.com,CA,Americas,Northern America,Canada,Quebec,,Beauharnois
54.39.243.36,4,30,blogdaqualidade.com.br,CA,Americas,Northern America,Canada,Quebec,,Québec
144.217.157.115,4,6,bluevoda.com,CA,Americas,Northern America,Canada,Quebec,,Beauharnois
149.56.103.91,4,-35577,blvd.fm,CA,Americas,Northern America,Canada,Quebec,,Montreal
144.217.195.21,4,12,bonistika.net,CA,Americas,Northern America,Canada,Quebec,,Beauharnois
51.161.33.125,4,4,bookrastinating.com,CA,Americas,Northern America,Canada,Quebec,,Montreal
158.69.185.247,4,-1669,booksprout.co,CA,Americas,Northern America,Canada,Quebec,,Montreal
192.95.45.164,4,42,boomerandecho.com,CA,Americas,Northern America,Canada,Quebec,,Montreal
205.204.89.94,4,16,bootiemashup.com,CA,Americas,Northern America,Canada,Quebec,,Longueuil
23.128.160.51,4,1,boreale.com,CA,Americas,Northern America,Canada,Quebec,,Montreal
51.222.44.159,4,84,boshart.com,CA,Americas,Northern America,Canada,Quebec,,
51.161.27.31,4,5,boyaca.gov.co,CA,Americas,Northern America,Canada,Quebec,,Montreal
167.114.42.137,4,92,bravotelecom.com,CA,Americas,Northern America,Canada,Quebec,,Montreal
144.217.180.122,4,41,breachattack.com,CA,Americas,Northern America,Canada,Quebec,,Beauharnois
149.56.198.193,4,4,brossard.ca,CA,Americas,Northern America,Canada,Quebec,,Montreal
51.222.135.1,4,69,burstallconrad.com,CA,Americas,Northern America,Canada,Quebec,,
168.138.66.83,4,44,bus-hit.me,CA,Americas,Northern America,Canada,Quebec,,Montreal
51.222.8.98,4,4,buzzen.com,CA,Americas,Northern America,Canada,Quebec,,
167.114.141.163,4,-4238031,byblosbank.com,CA,Americas,Northern America,Canada,Quebec,,Montreal
51.222.164.26,4,8,bytowngroup.com,CA,Americas,Northern America,Canada,Quebec,,
144.217.83.100,4,5,bzflag.org,CA,Americas,Northern America,Canada,Quebec,,Beauharnois
158.69.0.41,4,5,bzflag.org,CA,Americas,Northern America,Canada,Quebec,,Montreal
144.217.234.197,4,2,cadryskitchen.com,CA,Americas,Northern America,Canada,Quebec,,Beauharnois
144.217.107.59,4,11,caivn.org,CA,Americas,Northern America,Canada,Quebec,,Beauharnois
108.163.158.12,4,55,calendarbudget.com,CA,Americas,Northern America,Canada,Quebec,,Montreal
142.44.214.235,4,6,camara-e.net,CA,Americas,Northern America,Canada,Quebec,,
142.44.247.59,4,11,campinglescargot.ca,CA,Americas,Northern America,Canada,Quebec,,
67.212.64.242,4,1398,canadian-universities.net,CA,Americas,Northern America,Canada,Quebec,,Montreal
167.114.103.153,4,24,canadiancoinnews.com,CA,Americas,Northern America,Canada,Quebec,,Montreal
51.222.249.210,4,14,canalcienciascriminais.com.br,CA,Americas,Northern America,Canada,Quebec,,
54.39.49.104,4,8,canardsdulacbrome.com,CA,Americas,Northern America,Canada,Quebec,,Beauharnois
158.69.235.190,4,980,canyoustayfordinner.com,CA,Americas,Northern America,Canada,Quebec,,Montreal
167.114.101.43,4,7,caravanevaillancourt.ca,CA,Americas,Northern America,Canada,Quebec,,Montreal
167.114.33.180,4,1175,carnavaldebarranquilla.org,CA,Americas,Northern America,Canada,Quebec,,Montreal
198.27.83.118,4,4,carros-usados.us,CA,Americas,Northern America,Canada,Quebec,,Montreal
51.222.52.210,4,36,cas.gov.co,CA,Americas,Northern America,Canada,Quebec,,
167.114.174.89,4,16,cashisonline.com,CA,Americas,Northern America,Canada,Quebec,,Montreal
198.27.99.41,4,35,castlepainters.ca,CA,Americas,Northern America,Canada,Quebec,,Montreal
54.39.70.90,4,5,casualleasingaustralia.com,CA,Americas,Northern America,Canada,Quebec,,Beauharnois
51.222.121.213,4,15,cavalia.net,CA,Americas,Northern America,Canada,Quebec,,
158.69.140.81,4,3,cavaswinelodge.com,CA,Americas,Northern America,Canada,Quebec,,Montreal
15.222.82.71,4,9,cbdreamers.com,CA,Americas,Northern America,Canada,Quebec,,Montreal
198.27.81.121,4,3,ccab.com,CA,Americas,Northern America,Canada,Quebec,,Montreal
51.222.40.31,4,933,cdnstream.com,CA,Americas,Northern America,Canada,Quebec,,
35.203.2.187,4,3,cegepmontpetit.ca,CA,Americas,Northern America,Canada,Quebec,,Montreal
134.195.198.8,4,9,celebratingthesoaps.com,CA,Americas,Northern America,Canada,Quebec,,Montreal
34.152.12.22,4,78,cengn.ca,CA,Americas,Northern America,Canada,Quebec,,Montreal
158.69.227.165,4,23,centos-webpanel.com,CA,Americas,Northern America,Canada,Quebec,,Montreal
198.72.104.57,4,2,centresabouraud.fr,CA,Americas,Northern America,Canada,Quebec,,Montreal
167.114.116.199,4,9,ceqoya.com,CA,Americas,Northern America,Canada,Quebec,,Montreal
162.250.190.65,4,3067,ceri.ca,CA,Americas,Northern America,Canada,Quebec,,Montreal
174.142.230.64,4,3,cfa-fca.ca,CA,Americas,Northern America,Canada,Quebec,,Westmount
149.56.241.207,4,6,cfta-alec.ca,CA,Americas,Northern America,Canada,Quebec,,Montreal
149.56.15.77,4,50,chameleonwebservices.com,CA,Americas,Northern America,Canada,Quebec,,Montreal
38.148.136.233,4,-1,checkphoto.info,CA,Americas,Northern America,Canada,Quebec,,Montreal
158.69.159.172,4,46,cheeseforum.org,CA,Americas,Northern America,Canada,Quebec,,Montreal
34.152.23.23,4,2,chefcookit.com,CA,Americas,Northern America,Canada,Quebec,,Montreal
167.114.23.169,4,339,chiefsplanet.com,CA,Americas,Northern America,Canada,Quebec,,Montreal
198.27.78.236,4,3239927,childstarlets.com,CA,Americas,Northern America,Canada,Quebec,,Montreal
132.206.92.127,4,1,chime-experiment.ca,CA,Americas,Northern America,Canada,Quebec,,Verdun
54.39.50.120,4,12,choq.ca,CA,Americas,Northern America,Canada,Quebec,,Beauharnois
167.114.169.18,4,7,chozan.co,CA,Americas,Northern America,Canada,Quebec,,Montreal
198.27.76.60,4,4,cialisvu.com,CA,Americas,Northern America,Canada,Quebec,,Montreal
38.170.152.25,4,11,cienklub.com,CA,Americas,Northern America,Canada,Quebec,,Montreal
51.161.125.86,4,14,cinema-crazed.com,CA,Americas,Northern America,Canada,Quebec,,Montreal
205.173.254.107,4,-17946,ciot.com,CA,Americas,Northern America,Canada,Quebec,,Montreal
51.79.20.161,4,14,cip-icu.ca,CA,Americas,Northern America,Canada,Quebec,,Beauharnois
167.114.60.221,4,1002,clerks2.com,CA,Americas,Northern America,Canada,Quebec,,Montreal
209.44.124.6,4,2,clga.ca,CA,Americas,Northern America,Canada,Quebec,,Montreal
158.69.53.59,4,10,climateatlas.ca,CA,Americas,Northern America,Canada,Quebec,,Montreal
51.222.108.20,4,6,cloudfilt.com,CA,Americas,Northern America,Canada,Quebec,,
144.217.68.90,4,1162,clubsoda.ca,CA,Americas,Northern America,Canada,Quebec,,Beauharnois
167.114.153.68,4,4,cna.ca,CA,Americas,Northern America,Canada,Quebec,,Montreal
167.114.14.74,4,-24,cndl.org.br,CA,Americas,Northern America,Canada,Quebec,,Montreal
144.217.178.194,4,982,cocoandash.com,CA,Americas,Northern America,Canada,Quebec,,Beauharnois
54.39.96.213,4,774,coica.org.ec,CA,Americas,Northern America,Canada,Quebec,,Beauharnois
167.114.219.245,4,690,colombiadecolores.com.co,CA,Americas,Northern America,Canada,Quebec,,Montreal
144.217.77.69,4,-383321,coloring-pages-adults.com,CA,Americas,Northern America,Canada,Quebec,,Beauharnois
149.56.232.94,4,778,columbiapaper.com,CA,Americas,Northern America,Canada,Quebec,,Montreal
167.114.89.124,4,59,confessionsofafitnessinstructor.com,CA,Americas,Northern America,Canada,Quebec,,Montreal
142.44.224.82,4,0,cookcraftlove.com,CA,Americas,Northern America,Canada,Quebec,,
192.99.70.55,4,0,cornerbrook.com,CA,Americas,Northern America,Canada,Quebec,,Montreal
174.142.214.50,4,3,corporateknights.com,CA,Americas,Northern America,Canada,Quebec,,Westmount
158.69.200.107,4,63,coryn.club,CA,Americas,Northern America,Canada,Quebec,,Montreal
149.56.140.69,4,5,cpci.ca,CA,Americas,Northern America,Canada,Quebec,,Montreal
192.81.169.206,4,1,cpcml.ca,CA,Americas,Northern America,Canada,Quebec,,Montreal
149.56.26.144,4,4,craftbits.com,CA,Americas,Northern America,Canada,Quebec,,Montreal
51.161.100.130,4,6,createblog.com,CA,Americas,Northern America,Canada,Quebec,,Montreal
142.44.235.113,4,5,cropj.com,CA,Americas,Northern America,Canada,Quebec,,
24.37.193.117,4,2375,crosswinds.net,CA,Americas,Northern America,Canada,Quebec,,Mirabel
149.56.123.202,4,3,cryptocurrencymedia.co.uk,CA,Americas,Northern America,Canada,Quebec,,Montreal
149.56.24.172,4,12,crystalglass.ca,CA,Americas,Northern America,Canada,Quebec,,Montreal
23.136.240.90,4,0,ctequebec.com,CA,Americas,Northern America,Canada,Quebec,,Sainte-Madeleine
149.56.37.3,4,1,cupidbaba.com,CA,Americas,Northern America,Canada,Quebec,,Montreal
144.217.253.110,4,15552,customersupportnetwork.com,CA,Americas,Northern America,Canada,Quebec,,Beauharnois
54.39.157.47,4,3,cyclechaos.com,CA,Americas,Northern America,Canada,Quebec,,Beauharnois
142.44.138.212,4,2,dailyrazor.com,CA,Americas,Northern America,Canada,Quebec,,
51.222.233.102,4,47,darcynorman.net,CA,Americas,Northern America,Canada,Quebec,,
192.95.9.109,4,19,davepedu.com,CA,Americas,Northern America,Canada,Quebec,,Montreal
167.114.115.54,4,6,dawncanada.net,CA,Americas,Northern America,Canada,Quebec,,Montreal
167.114.115.211,4,3,daytah-or-dahtah.ovh,CA,Americas,Northern America,Canada,Quebec,,Montreal
51.222.110.250,4,6,delisoft.ca,CA,Americas,Northern America,Canada,Quebec,,
144.217.252.16,4,4,denodo.com,CA,Americas,Northern America,Canada,Quebec,,Beauharnois
144.217.78.63,4,38,detroitdogrescue.com,CA,Americas,Northern America,Canada,Quebec,,Beauharnois
158.69.235.120,4,4,devourfest.com,CA,Americas,Northern America,Canada,Quebec,,Montreal
142.44.213.66,4,46,dialoginsight.com,CA,Americas,Northern America,Canada,Quebec,,Beauharnois
142.44.214.129,4,4,diariodoturismo.com.br,CA,Americas,Northern America,Canada,Quebec,,
144.217.87.249,4,39,digimindsoft.com,CA,Americas,Northern America,Canada,Quebec,,Beauharnois
167.114.83.209,4,23,digitalserver.com.mx,CA,Americas,Northern America,Canada,Quebec,,Montreal
51.222.28.193,4,2,digitogy.com,CA,Americas,Northern America,Canada,Quebec,,
68.71.45.166,4,-2,dimaname.ru,CA,Americas,Northern America,Canada,Quebec,,Laval
149.56.134.58,4,7,diocesemontreal.org,CA,Americas,Northern America,Canada,Quebec,,Montreal
144.217.67.48,4,34,dirtdoctor.com,CA,Americas,Northern America,Canada,Quebec,,Beauharnois
149.56.25.239,4,103,dirtsimple.org,CA,Americas,Northern America,Canada,Quebec,,Montreal
51.222.205.211,4,34,discoverfrance.com,CA,Americas,Northern America,Canada,Quebec,,
144.217.66.107,4,5,distancesto.com,CA,Americas,Northern America,Canada,Quebec,,Beauharnois
51.222.43.81,4,3,diversitywoman.com,CA,Americas,Northern America,Canada,Quebec,,
144.217.125.86,4,3,dlcompare.com,CA,Americas,Northern America,Canada,Quebec,,Beauharnois
198.27.127.249,4,5,dmv-permit-test.com,CA,Americas,Northern America,Canada,Quebec,,Montreal
144.217.13.156,4,38,DNS Server: 156.ip-144-217-13.net,CA,Americas,Northern America,Canada,Quebec,,Beauharnois
169.54.78.85,4,4,DNS Server: 55.4e.36a9.ip4.static.sl-reverse.com,CA,Americas,Northern America,Canada,Quebec,,Montreal
51.222.156.234,4,85,DNS Server: bkp.uifserver.net,CA,Americas,Northern America,Canada,Quebec,,
23.136.240.4,4,-5,DNS Server: dns01.nuage.unno.ca,CA,Americas,Northern America,Canada,Quebec,,Sainte-Madeleine
99.79.50.252,4,58,DNS Server: ec2-99-79-50-252.ca-central-1.compute.amazonaws.com,CA,Americas,Northern America,Canada,Quebec,,Montreal
107.161.9.170,4,51750,DNS Server: IP-107-161-9-170.static.cooptique.net,CA,Americas,Northern America,Canada,Quebec,,Montreal
45.61.14.18,4,146431,DNS Server: IP-18-14-156-104.static.fibrenoire.ca,CA,Americas,Northern America,Canada,Quebec,,Montreal
68.67.33.94,4,153,DNS Server: IP-68-67-33-94.static.fibrenoire.ca,CA,Americas,Northern America,Canada,Quebec,,Montreal
158.69.100.160,4,20,DNS Server: ip160.ip-158-69-100.net,CA,Americas,Northern America,Canada,Quebec,,Montreal
142.44.198.171,4,1,DNS Server: ip171.ip-142-44-198.net,CA,Americas,Northern America,Canada,Quebec,,
147.253.142.51,4,-193978,DNS Server: modemcable051.142-253-147.static.videotron.ca,CA,Americas,Northern America,Canada,Quebec,,Montreal
24.203.247.55,4,346,DNS Server: modemcable055.247-203-24.mc.videotron.ca,CA,Americas,Northern America,Canada,Quebec,,Montreal
104.221.94.207,4,-15613541,DNS Server: modemcable207.94-221-104.mc.videotron.ca,CA,Americas,Northern America,Canada,Quebec,,Pierrefonds
107.171.232.212,4,198,DNS Server: modemcable212.232-171.107.mc.videotron.ca,CA,Americas,Northern America,Canada,Quebec,,Montreal
24.37.125.246,4,-6237,DNS Server: modemcable246.125-37-24.static.videotron.ca,CA,Americas,Northern America,Canada,Quebec,,Montreal
149.56.184.112,4,75,DNS Server: ns.ca.tilde.club,CA,Americas,Northern America,Canada,Quebec,,Montreal
51.161.9.194,4,261,DNS Server: pihole.spacework.com.mx,CA,Americas,Northern America,Canada,Quebec,,Montreal
51.222.28.131,4,72,DNS Server: vps-0238d094.vps.ovh.ca,CA,Americas,Northern America,Canada,Quebec,,
192.99.68.173,4,133,DNS Server: vps-b1d5fe85.vps.ovh.ca,CA,Americas,Northern America,Canada,Quebec,,Montreal
198.72.98.76,4,21,doingitlocal.com,CA,Americas,Northern America,Canada,Quebec,,Montreal
144.217.204.19,4,50,domesticgothess.com,CA,Americas,Northern America,Canada,Quebec,,Beauharnois
158.69.125.188,4,11,dominicantoday.com,CA,Americas,Northern America,Canada,Quebec,,Montreal
23.128.160.3,4,46,dominiqueroy.com,CA,Americas,Northern America,Canada,Quebec,,Montreal
144.217.178.222,4,979,dontgobaconmyheart.co.uk,CA,Americas,Northern America,Canada,Quebec,,Beauharnois
38.62.240.10,4,3,doorkeeper.jp,CA,Americas,Northern America,Canada,Quebec,,Montreal
51.161.84.6,4,34,dose.ca,CA,Americas,Northern America,Canada,Quebec,,Québec
54.39.146.185,4,3,dostips.com,CA,Americas,Northern America,Canada,Quebec,,Beauharnois
149.56.18.66,4,7,doublestandards.org,CA,Americas,Northern America,Canada,Quebec,,Montreal
144.217.76.193,4,6,downtownhalifax.ca,CA,Americas,Northern America,Canada,Quebec,,Beauharnois
144.217.75.119,4,33,drazko.com,CA,Americas,Northern America,Canada,Quebec,,Beauharnois
158.69.116.159,4,4,dreamcancel.com,CA,Americas,Northern America,Canada,Quebec,,Montreal
192.95.19.210,4,5,dreamsdemystified.blog,CA,Americas,Northern America,Canada,Quebec,,Montreal
144.217.19.196,4,1399,drfrancoisbourdeau.com,CA,Americas,Northern America,Canada,Quebec,,Beauharnois
54.39.193.60,4,6,drganja.com,CA,Americas,Northern America,Canada,Quebec,,Beauharnois
173.209.37.232,4,3,driveteslacanada.ca,CA,Americas,Northern America,Canada,Quebec,,Montreal
144.217.74.22,4,42,dubaimonsters.com,CA,Americas,Northern America,Canada,Quebec,,Beauharnois
54.39.52.201,4,4,dumpsterdivingceo.com,CA,Americas,Northern America,Canada,Quebec,,Beauharnois
144.217.72.44,4,683,duncan.ca,CA,Americas,Northern America,Canada,Quebec,,Beauharnois
68.71.48.218,4,3,duplication.ca,CA,Americas,Northern America,Canada,Quebec,,Laval
142.44.149.41,4,275,eastwaysgroup.co.ke,CA,Americas,Northern America,Canada,Quebec,,
144.217.178.206,4,976,easyhealthyrecipes.com,CA,Americas,Northern America,Canada,Quebec,,Beauharnois
142.44.224.73,4,23,eatsamazing.co.uk,CA,Americas,Northern America,Canada,Quebec,,
51.161.13.209,4,16,eb2a.com,CA,Americas,Northern America,Canada,Quebec,,Montreal
15.222.112.219,4,2,ecamm.com,CA,Americas,Northern America,Canada,Quebec,,Montreal
35.182.125.237,4,7,ecamm.com,CA,Americas,Northern America,Canada,Quebec,,Montreal
149.56.165.147,4,2,eclectica.org,CA,Americas,Northern America,Canada,Quebec,,Montreal
144.217.20.40,4,7,ecohome.net,CA,Americas,Northern America,Canada,Quebec,,Beauharnois
144.217.190.81,4,127,ecolebranchee.com,CA,Americas,Northern America,Canada,Quebec,,Beauharnois
174.142.221.58,4,4,ecuafutbol.org,CA,Americas,Northern America,Canada,Quebec,,Westmount
192.95.13.141,4,722,editorapenalux.com.br,CA,Americas,Northern America,Canada,Quebec,,Montreal
51.222.46.143,4,27,editorialivrea.com,CA,Americas,Northern America,Canada,Quebec,,
174.142.200.104,4,8,educativa.com,CA,Americas,Northern America,Canada,Quebec,,Westmount
142.44.138.132,4,8,egy.com,CA,Americas,Northern America,Canada,Quebec,,
54.39.19.240,4,21,elac.com,CA,Americas,Northern America,Canada,Quebec,,Beauharnois
24.50.127.208,4,156472,elbullazul.com,CA,Americas,Northern America,Canada,Quebec,,Saint-Georges
144.217.58.201,4,5,elclarin.cl,CA,Americas,Northern America,Canada,Quebec,,Beauharnois
167.114.58.232,4,5,electrocd.com,CA,Americas,Northern America,Canada,Quebec,,Montreal
51.79.77.111,4,5,elementsearch.com,CA,Americas,Northern America,Canada,Quebec,,Beauharnois
167.114.173.8,4,3,epadv.com.br,CA,Americas,Northern America,Canada,Quebec,,Montreal
198.100.159.156,4,2,equilibre.ca,CA,Americas,Northern America,Canada,Quebec,,Montreal
144.217.180.146,4,-5,estampas.com,CA,Americas,Northern America,Canada,Quebec,,Beauharnois
209.222.235.48,4,-1,estrieplus.com,CA,Americas,Northern America,Canada,Quebec,,Sherbrooke
174.142.60.85,4,9,eventsinamerica.com,CA,Americas,Northern America,Canada,Quebec,,Westmount
54.39.248.69,4,8,evolutionwriters.biz,CA,Americas,Northern America,Canada,Quebec,,Beauharnois
158.69.36.92,4,6,evtrails.com,CA,Americas,Northern America,Canada,Quebec,,Montreal
51.222.41.192,4,6,exams4sure.com,CA,Americas,Northern America,Canada,Quebec,,Beauharnois
149.56.39.124,4,3,exporail.org,CA,Americas,Northern America,Canada,Quebec,,Montreal
51.161.76.69,4,3,ezix.org,CA,Americas,Northern America,Canada,Quebec,,Montreal
158.69.59.84,4,4,falcon-sign.info,CA,Americas,Northern America,Canada,Quebec,,Montreal
54.39.58.207,4,10,familycaregiversbc.ca,CA,Americas,Northern America,Canada,Quebec,,Beauharnois
158.69.63.236,4,8,fastmac.com,CA,Americas,Northern America,Canada,Quebec,,Montreal
144.217.252.134,4,4,faunaparaguay.com,CA,Americas,Northern America,Canada,Quebec,,Beauharnois
144.217.113.139,4,32,fcghana.org,CA,Americas,Northern America,Canada,Quebec,,Beauharnois
51.222.159.171,4,3,fengoffice.com,CA,Americas,Northern America,Canada,Quebec,,
158.69.3.111,4,1044,festivaldelaimagen.com,CA,Americas,Northern America,Canada,Quebec,,Montreal
142.44.138.162,4,18,festivalmodedesign.com,CA,Americas,Northern America,Canada,Quebec,,
158.69.59.184,4,4,festivalnuitsdafrique.com,CA,Americas,Northern America,Canada,Quebec,,Montreal
104.254.182.34,4,1,fetenationale.quebec,CA,Americas,Northern America,Canada,Quebec,,Boucherville
66.70.178.94,4,994,fieracapital.com,CA,Americas,Northern America,Canada,Quebec,,Beauharnois
174.142.203.132,4,1,filecart.com,CA,Americas,Northern America,Canada,Quebec,,Westmount
68.71.52.186,4,150,fileconvoy.com,CA,Americas,Northern America,Canada,Quebec,,Laval
198.27.70.11,4,412,finadev-groupe.com,CA,Americas,Northern America,Canada,Quebec,,Montreal
167.114.50.130,4,3,financialsamurai.com,CA,Americas,Northern America,Canada,Quebec,,Montreal
198.27.127.40,4,48,findattorneys.org,CA,Americas,Northern America,Canada,Quebec,,Montreal
167.114.98.104,4,21,findemails.com,CA,Americas,Northern America,Canada,Quebec,,Montreal
144.217.144.235,4,7,fitmealideas.com,CA,Americas,Northern America,Canada,Quebec,,Beauharnois
149.56.38.106,4,3,fivefishermen.com,CA,Americas,Northern America,Canada,Quebec,,Montreal
149.56.126.52,4,2,fjcdn.com,CA,Americas,Northern America,Canada,Quebec,,Montreal
149.56.80.102,4,8,fleeped.com,CA,Americas,Northern America,Canada,Quebec,,Montreal
142.44.224.64,4,3,floraandvino.com,CA,Americas,Northern America,Canada,Quebec,,
144.217.178.192,4,1043,foodapparel.com,CA,Americas,Northern America,Canada,Quebec,,Beauharnois
158.69.245.40,4,41,france-cadastre.fr,CA,Americas,Northern America,Canada,Quebec,,Montreal
51.161.13.13,4,53,fredericremington.org,CA,Americas,Northern America,Canada,Quebec,,Montreal
54.39.129.129,4,6,freechess.org,CA,Americas,Northern America,Canada,Quebec,,Beauharnois
51.222.135.24,4,53,freekeene.com,CA,Americas,Northern America,Canada,Quebec,,
158.69.195.52,4,7,freesoftwaremagazine.com,CA,Americas,Northern America,Canada,Quebec,,Montreal
51.79.78.81,4,396,frimastudio.com,CA,Americas,Northern America,Canada,Quebec,,Québec
158.69.124.94,4,11,fullfat.com,CA,Americas,Northern America,Canada,Quebec,,Montreal
158.69.235.179,4,983,funcookierecipes.com,CA,Americas,Northern America,Canada,Quebec,,Montreal
158.69.76.1,4,50,fundersandfounders.com,CA,Americas,Northern America,Canada,Quebec,,Montreal
144.217.254.140,4,101,funkypotato.com,CA,Americas,Northern America,Canada,Quebec,,Beauharnois
149.56.126.49,4,11,funnyjunk.com,CA,Americas,Northern America,Canada,Quebec,,Montreal
158.69.228.158,4,51,funnyjunk.com,CA,Americas,Northern America,Canada,Quebec,,Montreal
174.142.205.80,4,3,futbolete.com,CA,Americas,Northern America,Canada,Quebec,,Westmount
198.27.88.111,4,2,futbolparatodos.com.ar,CA,Americas,Northern America,Canada,Quebec,,Montreal
144.217.206.221,4,2,futureofwebapps.com,CA,Americas,Northern America,Canada,Quebec,,Beauharnois
51.222.156.67,4,-1,galactic-citizen.com,CA,Americas,Northern America,Canada,Quebec,,
174.142.221.60,4,32,galaxy.ps,CA,Americas,Northern America,Canada,Quebec,,Westmount
158.69.117.237,4,22,gamersdailynews.com,CA,Americas,Northern America,Canada,Quebec,,Montreal
158.69.201.51,4,8,ganssle.io,CA,Americas,Northern America,Canada,Quebec,,Montreal
51.222.104.17,4,80,gepcta.com,CA,Americas,Northern America,Canada,Quebec,,
67.212.64.164,4,1076,getunitronic.com,CA,Americas,Northern America,Canada,Quebec,,Montreal
51.222.240.106,4,1,ghanandwom.net,CA,Americas,Northern America,Canada,Quebec,,
54.39.202.48,4,13,ghostbsd.org,CA,Americas,Northern America,Canada,Quebec,,Beauharnois
51.79.72.229,4,1,girlswithmuscle.com,CA,Americas,Northern America,Canada,Quebec,,Québec
192.67.255.216,4,17,give2get-webinar.com,CA,Americas,Northern America,Canada,Quebec,,Montreal
167.114.173.132,4,1,givebackbox.com,CA,Americas,Northern America,Canada,Quebec,,Montreal
144.217.96.196,4,4,glbcontactcenter.com,CA,Americas,Northern America,Canada,Quebec,,Beauharnois
149.56.39.74,4,20,global.org.br,CA,Americas,Northern America,Canada,Quebec,,Montreal
51.161.84.48,4,5,globovision.com,CA,Americas,Northern America,Canada,Quebec,,Québec
54.39.128.215,4,32,gnosoft.com.co,CA,Americas,Northern America,Canada,Quebec,,Beauharnois
142.44.128.236,4,47,go-oo.org,CA,Americas,Northern America,Canada,Quebec,,
24.37.193.100,4,5,goodtricks.net,CA,Americas,Northern America,Canada,Quebec,,Mirabel
174.142.230.61,4,5,gosselindesign.com,CA,Americas,Northern America,Canada,Quebec,,Westmount
192.95.30.201,4,45,gourmandize.com,CA,Americas,Northern America,Canada,Quebec,,Montreal
51.222.106.13,4,8,grandprixforums.com,CA,Americas,Northern America,Canada,Quebec,,
144.217.89.149,4,36,greatis.com,CA,Americas,Northern America,Canada,Quebec,,Beauharnois
51.161.84.236,4,115,greenrooftechnology.com,CA,Americas,Northern America,Canada,Quebec,,Québec
144.217.96.221,4,-35143,groovy-directory.com,CA,Americas,Northern America,Canada,Quebec,,Beauharnois
198.27.83.5,4,74,grottomc.com,CA,Americas,Northern America,Canada,Quebec,,Montreal
192.99.75.44,4,19,grupokania.com.br,CA,Americas,Northern America,Canada,Quebec,,Montreal
144.217.184.198,4,31,gruporadialcontinental.com,CA,Americas,Northern America,Canada,Quebec,,Beauharnois
66.70.176.210,4,10,gulfofgeorgiacannery.org,CA,Americas,Northern America,Canada,Quebec,,Beauharnois
54.39.13.220,4,5,gw-project.org,CA,Americas,Northern America,Canada,Quebec,,Beauharnois
167.114.144.228,4,2,gwbs.biz,CA,Americas,Northern America,Canada,Quebec,,Montreal
167.114.3.5,4,6,gwtproject.org,CA,Americas,Northern America,Canada,Quebec,,Montreal
198.72.104.66,4,2,hacking-health.org,CA,Americas,Northern America,Canada,Quebec,,Montreal
54.39.48.95,4,6,haidanation.ca,CA,Americas,Northern America,Canada,Quebec,,Beauharnois
51.222.88.245,4,4,haitilibre.com,CA,Americas,Northern America,Canada,Quebec,,
54.39.121.243,4,1,hamlink.ca,CA,Americas,Northern America,Canada,Quebec,,Beauharnois
144.217.72.151,4,9,hatchwise.com,CA,Americas,Northern America,Canada,Quebec,,Beauharnois
51.222.42.21,4,1,hawramani.com,CA,Americas,Northern America,Canada,Quebec,,Québec
158.69.28.24,4,3,hellboundbloggers.com,CA,Americas,Northern America,Canada,Quebec,,Montreal
198.27.127.22,4,15,hellobee.com,CA,Americas,Northern America,Canada,Quebec,,Montreal
72.10.160.242,4,4,herbmuseum.ca,CA,Americas,Northern America,Canada,Quebec,,Montreal
51.222.108.79,4,30,heritagehome.ca,CA,Americas,Northern America,Canada,Quebec,,
142.44.146.155,4,30,hermans.se,CA,Americas,Northern America,Canada,Quebec,,
192.95.11.243,4,1,herwigphoto.com,CA,Americas,Northern America,Canada,Quebec,,Montreal
167.114.112.126,4,19,holidazzle.com,CA,Americas,Northern America,Canada,Quebec,,Montreal
144.217.66.85,4,59,holoweb.net,CA,Americas,Northern America,Canada,Quebec,,Beauharnois
51.79.78.125,4,3,holyblood.com,CA,Americas,Northern America,Canada,Quebec,,Québec
192.95.62.125,4,25,homeschoolcreations.net,CA,Americas,Northern America,Canada,Quebec,,Montreal
38.170.155.14,4,352,homieinex.com,CA,Americas,Northern America,Canada,Quebec,,Montreal
51.222.104.54,4,6,honeyaffair.com,CA,Americas,Northern America,Canada,Quebec,,
142.44.224.93,4,29,hopefulhoney.com,CA,Americas,Northern America,Canada,Quebec,,
158.69.56.152,4,1144,horrorchannel.com,CA,Americas,Northern America,Canada,Quebec,,Montreal
142.44.215.40,4,2,hoydia.com.ar,CA,Americas,Northern America,Canada,Quebec,,
158.69.26.157,4,-694,hunting-washington.com,CA,Americas,Northern America,Canada,Quebec,,Montreal
158.69.225.70,4,6,iai.int,CA,Americas,Northern America,Canada,Quebec,,Montreal
144.217.111.182,4,27,icakeshop.com,CA,Americas,Northern America,Canada,Quebec,,Beauharnois
174.142.205.18,4,31,icanblink.com,CA,Americas,Northern America,Canada,Quebec,,Westmount
51.161.115.60,4,7,icewalkers.com,CA,Americas,Northern America,Canada,Quebec,,Montreal
51.222.88.244,4,3,icihaiti.com,CA,Americas,Northern America,Canada,Quebec,,
51.161.75.236,4,6,ideelart.com,CA,Americas,Northern America,Canada,Quebec,,Montreal
144.217.224.180,4,1011,iep.org.pe,CA,Americas,Northern America,Canada,Quebec,,Beauharnois
144.217.22.224,4,9,ifbbpro.com,CA,Americas,Northern America,Canada,Quebec,,Beauharnois
51.222.156.82,4,0,igarape.org.br,CA,Americas,Northern America,Canada,Quebec,,
142.44.240.74,4,4,iiit.org,CA,Americas,Northern America,Canada,Quebec,,
167.114.117.46,4,2,iiug.org,CA,Americas,Northern America,Canada,Quebec,,Montreal
51.222.48.183,4,1,ile-en-ile.org,CA,Americas,Northern America,Canada,Quebec,,
108.163.136.98,4,47,ilesansfil.org,CA,Americas,Northern America,Canada,Quebec,,
149.56.249.137,4,2,illumi.com,CA,Americas,Northern America,Canada,Quebec,,Montreal
144.217.96.200,4,77,imagenesorales.com,CA,Americas,Northern America,Canada,Quebec,,Beauharnois
167.114.64.218,4,7,imcdb.org,CA,Americas,Northern America,Canada,Quebec,,Montreal
51.222.108.129,4,6,imgburn.com,CA,Americas,Northern America,Canada,Quebec,,
51.222.67.104,4,22,immunize.ca,CA,Americas,Northern America,Canada,Quebec,,
192.95.40.1,4,19,imoveisdns.com.br,CA,Americas,Northern America,Canada,Quebec,,Montreal
158.69.254.66,4,-1,imperios6.com,CA,Americas,Northern America,Canada,Quebec,,Montreal
51.222.53.170,4,-418601,incp.org.co,CA,Americas,Northern America,Canada,Quebec,,
167.114.214.143,4,63,incparadise.net,CA,Americas,Northern America,Canada,Quebec,,Montreal
167.114.35.53,4,1,indigostar.com,CA,Americas,Northern America,Canada,Quebec,,Montreal
51.161.86.180,4,808,innu.ca,CA,Americas,Northern America,Canada,Quebec,,Montreal
149.56.115.99,4,85,internal.org,CA,Americas,Northern America,Canada,Quebec,,Montreal
51.79.98.213,4,6,invesp.com,CA,Americas,Northern America,Canada,Quebec,,Beauharnois
149.56.24.167,4,30,ipac-canada.org,CA,Americas,Northern America,Canada,Quebec,,Montreal
144.217.184.161,4,616,ipalmafuerte.com,CA,Americas,Northern America,Canada,Quebec,,Beauharnois
142.44.212.173,4,5,iragoldinvestments.org,CA,Americas,Northern America,Canada,Quebec,,Beauharnois
158.69.243.87,4,35,isa-sociology.org,CA,Americas,Northern America,Canada,Quebec,,Montreal
51.222.188.165,4,5,itschagen.nl,CA,Americas,Northern America,Canada,Quebec,,
198.27.68.222,4,21,itsjerryandharry.com,CA,Americas,Northern America,Canada,Quebec,,Montreal
142.44.224.81,4,19,itsybitsykitchen.com,CA,Americas,Northern America,Canada,Quebec,,
144.217.113.151,4,6,jalal.com,CA,Americas,Northern America,Canada,Quebec,,Beauharnois
51.222.58.13,4,6,jch-optimize.net,CA,Americas,Northern America,Canada,Quebec,,
104.254.182.105,4,0,jebenevole.ca,CA,Americas,Northern America,Canada,Quebec,,Boucherville
51.161.117.109,4,1,jfranews.com.jo,CA,Americas,Northern America,Canada,Quebec,,Beauharnois
149.56.18.207,4,3,jisho.org,CA,Americas,Northern America,Canada,Quebec,,Montreal
51.161.87.91,4,0,jmp.chat,CA,Americas,Northern America,Canada,Quebec,,Montreal
142.44.214.169,4,8,johnodonohue.com,CA,Americas,Northern America,Canada,Quebec,,
192.99.19.65,4,3,joliemodels.com.br,CA,Americas,Northern America,Canada,Quebec,,Beauharnois
198.72.117.89,4,4,jthink.net,CA,Americas,Northern America,Canada,Quebec,,Montreal
158.69.128.44,4,0,judiciallearningcenter.org,CA,Americas,Northern America,Canada,Quebec,,Montreal
54.39.100.156,4,3,judyrecords.com,CA,Americas,Northern America,Canada,Quebec,,Beauharnois
51.222.44.83,4,4,junar.com,CA,Americas,Northern America,Canada,Quebec,,
51.161.32.130,4,4,kabarjp.com,CA,Americas,Northern America,Canada,Quebec,,Montreal
167.114.156.156,4,2,keyingredient.com,CA,Americas,Northern America,Canada,Quebec,,Montreal
198.27.92.3,4,5,kimsufi.com,CA,Americas,Northern America,Canada,Quebec,,Montreal
104.254.183.54,4,28,kinatex.com,CA,Americas,Northern America,Canada,Quebec,,Boucherville
149.56.207.44,4,1110,kindearth.net,CA,Americas,Northern America,Canada,Quebec,,Montreal
158.69.52.169,4,15,kiralikbahisite.net.tr,CA,Americas,Northern America,Canada,Quebec,,Montreal
158.69.235.186,4,987,knickoftime.net,CA,Americas,Northern America,Canada,Quebec,,Montreal
149.56.9.13,4,7162,krishna.org,CA,Americas,Northern America,Canada,Quebec,,Montreal
149.56.185.177,4,5,krugozormagazine.com,CA,Americas,Northern America,Canada,Quebec,,Montreal
142.44.140.111,4,0,lacrosse.ca,CA,Americas,Northern America,Canada,Quebec,,
74.123.92.72,4,171,laction.com,CA,Americas,Northern America,Canada,Quebec,,Saint-Laurent
158.69.16.39,4,3,lahey.com,CA,Americas,Northern America,Canada,Quebec,,Montreal
38.129.52.68,4,6,laidbackgardener.blog,CA,Americas,Northern America,Canada,Quebec,,
51.161.12.122,4,5,lakeviewhotels.com,CA,Americas,Northern America,Canada,Quebec,,Montreal
51.161.86.2,4,31,lameridiana.it,CA,Americas,Northern America,Canada,Quebec,,Montreal
51.79.80.227,4,51,lanetaneta.com,CA,Americas,Northern America,Canada,Quebec,,Québec
15.157.232.110,4,7,lasikmd.com,CA,Americas,Northern America,Canada,Quebec,,Montreal
15.157.37.3,4,19,lasikmd.com,CA,Americas,Northern America,Canada,Quebec,,Montreal
144.217.144.215,4,7,laurenfromscratch.com,CA,Americas,Northern America,Canada,Quebec,,Beauharnois
64.18.87.82,4,2,lavasoftsupport.com,CA,Americas,Northern America,Canada,Quebec,,Kirkland
64.18.87.81,4,0,lavasoftsupport.com,CA,Americas,Northern America,Canada,Quebec,,Kirkland
64.18.87.102,4,0,lavasoftusa.com,CA,Americas,Northern America,Canada,Quebec,,Kirkland
167.114.119.161,4,4,lawofone.info,CA,Americas,Northern America,Canada,Quebec,,Montreal
51.222.35.220,4,5,lawsintexas.com,CA,Americas,Northern America,Canada,Quebec,,
142.44.133.80,4,20,leakzone.net,CA,Americas,Northern America,Canada,Quebec,,
192.95.5.56,4,1,leavenotrace.ca,CA,Americas,Northern America,Canada,Quebec,,Montreal
38.102.84.90,4,627469,lemmy.moe,CA,Americas,Northern America,Canada,Quebec,,Montreal
144.217.178.204,4,979,lepetiteats.com,CA,Americas,Northern America,Canada,Quebec,,Beauharnois
51.161.116.123,4,52,lereporter.ma,CA,Americas,Northern America,Canada,Quebec,,Beauharnois
144.217.150.13,4,16,lerners.ca,CA,Americas,Northern America,Canada,Quebec,,Beauharnois
51.222.43.14,4,32,lessignets.com,CA,Americas,Northern America,Canada,Quebec,,
51.222.167.229,4,121,letskinky.com,CA,Americas,Northern America,Canada,Quebec,,
149.56.117.110,4,1,lexi.net,CA,Americas,Northern America,Canada,Quebec,,Montreal
158.69.240.192,4,2,lexivox.org,CA,Americas,Northern America,Canada,Quebec,,Montreal
99.79.139.23,4,4,liberal.ca,CA,Americas,Northern America,Canada,Quebec,,Montreal
198.27.66.12,4,52,lid24.com,CA,Americas,Northern America,Canada,Quebec,,Montreal
208.94.107.72,4,-38,linknow.com,CA,Americas,Northern America,Canada,Quebec,,Montreal
142.44.212.122,4,5,linksweb.com.br,CA,Americas,Northern America,Canada,Quebec,,Beauharnois
198.27.113.120,4,3,linux-usb.org,CA,Americas,Northern America,Canada,Quebec,,Montreal
54.39.146.237,4,3,linuxfocus.org,CA,Americas,Northern America,Canada,Quebec,,Beauharnois
69.51.204.240,4,28,litterature.org,CA,Americas,Northern America,Canada,Quebec,,Frampton
51.222.141.85,4,3,liveplasma.com,CA,Americas,Northern America,Canada,Quebec,,
167.114.114.168,4,5,livepositively.com,CA,Americas,Northern America,Canada,Quebec,,Montreal
198.27.82.32,4,1,logogarden.com,CA,Americas,Northern America,Canada,Quebec,,Montreal
144.217.180.147,4,12,lojavirtualgratis.net.br,CA,Americas,Northern America,Canada,Quebec,,Beauharnois
54.39.50.99,4,4,lookoutnewspaper.com,CA,Americas,Northern America,Canada,Quebec,,Beauharnois
142.44.188.188,4,7,lordbyronskitchen.com,CA,Americas,Northern America,Canada,Quebec,,
51.222.17.225,4,15,louis-vuittonoutlet.net.co,CA,Americas,Northern America,Canada,Quebec,,
209.127.39.26,4,27,lululemon-outlet-canada.ca,CA,Americas,Northern America,Canada,Quebec,,Montreal
167.114.2.121,4,2,lungcancercanada.ca,CA,Americas,Northern America,Canada,Quebec,,Montreal
144.217.66.186,4,3,lyberial.com,CA,Americas,Northern America,Canada,Quebec,,Beauharnois
198.27.102.28,4,-227,lymphomacoalition.org,CA,Americas,Northern America,Canada,Quebec,,Montreal
34.152.36.59,4,2,m32connect.com,CA,Americas,Northern America,Canada,Quebec,,Montreal
54.39.221.243,4,5,m5bank.com.br,CA,Americas,Northern America,Canada,Quebec,,Beauharnois
74.114.100.228,4,502,machineriesforest.com,CA,Americas,Northern America,Canada,Quebec,,Saint-Laurent
51.79.79.95,4,262,maclarenart.com,CA,Americas,Northern America,Canada,Quebec,,Beauharnois
51.161.0.103,4,5,macmakeup.org.uk,CA,Americas,Northern America,Canada,Quebec,,Montreal
167.114.35.218,4,12,magician.org,CA,Americas,Northern America,Canada,Quebec,,Montreal
144.217.158.103,4,10,magliacalcioshop.it,CA,Americas,Northern America,Canada,Quebec,,Beauharnois
174.142.221.59,4,1,make-it-your-own.com,CA,Americas,Northern America,Canada,Quebec,,Westmount
51.222.27.68,4,2,makivik.org,CA,Americas,Northern America,Canada,Quebec,,
174.142.129.94,4,21,manpower.com.ng,CA,Americas,Northern America,Canada,Quebec,,Westmount
158.69.18.250,4,872,mantyobras.com,CA,Americas,Northern America,Canada,Quebec,,Montreal
104.254.181.104,4,46,marchespublics-mtl.com,CA,Americas,Northern America,Canada,Quebec,,Boucherville
158.69.231.241,4,197,mardelplatafilmfest.com,CA,Americas,Northern America,Canada,Quebec,,Montreal
209.44.124.65,4,55,marinebiodiversity.ca,CA,Americas,Northern America,Canada,Quebec,,Montreal
54.39.103.37,4,0,marti.mx,CA,Americas,Northern America,Canada,Quebec,,Beauharnois
167.114.35.174,4,4,marxism2004.net,CA,Americas,Northern America,Canada,Quebec,,Montreal
167.114.153.250,4,2,massibot.net,CA,Americas,Northern America,Canada,Quebec,,Montreal
167.114.206.90,4,1,max-p.me,CA,Americas,Northern America,Canada,Quebec,,Montreal
158.69.1.162,4,4,mcgilldaily.com,CA,Americas,Northern America,Canada,Quebec,,Montreal
167.114.114.121,4,4,mdgfog.com,CA,Americas,Northern America,Canada,Quebec,,Montreal
54.39.49.239,4,4,mediavillage.com,CA,Americas,Northern America,Canada,Quebec,,Beauharnois
51.222.203.155,4,64,medigraphic.com,CA,Americas,Northern America,Canada,Quebec,,
51.222.156.224,4,51,medis.com.tn,CA,Americas,Northern America,Canada,Quebec,,
54.39.23.179,4,267662,mekoramaforum.com,CA,Americas,Northern America,Canada,Quebec,,Beauharnois
198.27.110.62,4,21,mem168.com,CA,Americas,Northern America,Canada,Quebec,,Montreal
149.56.142.124,4,25,mentionade.com,CA,Americas,Northern America,Canada,Quebec,,Montreal
158.69.243.49,4,3,mesamatrix.net,CA,Americas,Northern America,Canada,Quebec,,Montreal
142.44.241.240,4,0,metalandbattlefields.com,CA,Americas,Northern America,Canada,Quebec,,
54.39.33.156,4,38,metkere.com,CA,Americas,Northern America,Canada,Quebec,,Beauharnois
158.69.155.10,4,36,metkere.com,CA,Americas,Northern America,Canada,Quebec,,Montreal
167.114.150.87,4,6,michaelfullan.ca,CA,Americas,Northern America,Canada,Quebec,,Montreal
149.56.167.198,4,23,michelf.ca,CA,Americas,Northern America,Canada,Quebec,,Montreal
149.56.108.225,4,8,mikegerwitz.com,CA,Americas,Northern America,Canada,Quebec,,Montreal
158.69.140.186,4,4,milarch.com.br,CA,Americas,Northern America,Canada,Quebec,,Montreal
167.114.128.84,4,5,milaulas.com,CA,Americas,Northern America,Canada,Quebec,,Montreal
158.69.54.110,4,1,millat.com,CA,Americas,Northern America,Canada,Quebec,,Montreal
51.222.233.104,4,41,milneopentextbooks.org,CA,Americas,Northern America,Canada,Quebec,,
68.168.112.66,4,30,milos.ca,CA,Americas,Northern America,Canada,Quebec,,Montreal
108.163.135.201,4,2,minhaj.org,CA,Americas,Northern America,Canada,Quebec,,
51.222.24.182,4,3,mixdown.ca,CA,Americas,Northern America,Canada,Quebec,,
158.69.140.133,4,5,mlpforums.com,CA,Americas,Northern America,Canada,Quebec,,Montreal
64.119.211.44,4,10,mobibikes.ca,CA,Americas,Northern America,Canada,Quebec,,Montreal
104.254.180.131,4,16,mobilaide.com,CA,Americas,Northern America,Canada,Quebec,,Boucherville
149.56.159.157,4,15,moc.org,CA,Americas,Northern America,Canada,Quebec,,Montreal
144.217.91.214,4,0,mods4ever.com,CA,Americas,Northern America,Canada,Quebec,,Beauharnois
68.71.54.152,4,5,mogodetroit.org,CA,Americas,Northern America,Canada,Quebec,,Laval
167.114.9.140,4,6,momsecrets.co,CA,Americas,Northern America,Canada,Quebec,,Montreal
192.252.132.60,4,82,monsaintsauveur.com,CA,Americas,Northern America,Canada,Quebec,,Montreal
54.39.53.113,4,4,montel.com,CA,Americas,Northern America,Canada,Quebec,,Beauharnois
158.69.226.173,4,580,montrealbaroque.com,CA,Americas,Northern America,Canada,Quebec,,Montreal
149.56.20.211,4,31,morainelake.com,CA,Americas,Northern America,Canada,Quebec,,Montreal
54.39.18.149,4,1,mountpearl.ca,CA,Americas,Northern America,Canada,Quebec,,Beauharnois
167.114.136.100,4,14,movitabeaucoup.com,CA,Americas,Northern America,Canada,Quebec,,Montreal
51.222.151.98,4,1,mpourmontreal.com,CA,Americas,Northern America,Canada,Quebec,,
158.69.240.84,4,50,mstdn.mx,CA,Americas,Northern America,Canada,Quebec,,Montreal
192.99.91.196,4,9,muimperio.site,CA,Americas,Northern America,Canada,Quebec,,Montreal
149.56.70.17,4,-913,mumble.com,CA,Americas,Northern America,Canada,Quebec,,Montreal
158.69.247.53,4,43,municipalworld.com,CA,Americas,Northern America,Canada,Quebec,,Montreal
149.56.240.226,4,0,muse.ai,CA,Americas,Northern America,Canada,Quebec,,Montreal
144.217.243.44,4,1,museesmontreal.org,CA,Americas,Northern America,Canada,Quebec,,Beauharnois
167.114.222.56,4,804,musfx.net,CA,Americas,Northern America,Canada,Quebec,,Montreal
158.69.119.78,4,5,musicoin.org,CA,Americas,Northern America,Canada,Quebec,,Montreal
209.44.124.12,4,24,mvtpaix.org,CA,Americas,Northern America,Canada,Quebec,,Montreal
192.99.109.143,4,3,mwomercs.com,CA,Americas,Northern America,Canada,Quebec,,Montreal
144.217.178.193,4,1004,myberryforest.com,CA,Americas,Northern America,Canada,Quebec,,Beauharnois
198.27.98.201,4,3,mycandylove.com,CA,Americas,Northern America,Canada,Quebec,,Montreal
158.69.118.143,4,1,mycrowd.ca,CA,Americas,Northern America,Canada,Quebec,,Montreal
51.222.206.251,4,20,mydecorative.com,CA,Americas,Northern America,Canada,Quebec,,
142.44.224.78,4,42,myglutenfreemiami.com,CA,Americas,Northern America,Canada,Quebec,,
174.142.97.209,4,34,myislandbistrokitchen.com,CA,Americas,Northern America,Canada,Quebec,,Westmount
144.217.144.253,4,3,mypcoskitchen.com,CA,Americas,Northern America,Canada,Quebec,,Beauharnois
149.56.185.175,4,2,mysitemapgenerator.com,CA,Americas,Northern America,Canada,Quebec,,Montreal
192.95.31.92,4,1,nacc.ca,CA,Americas,Northern America,Canada,Quebec,,Montreal
144.217.230.140,4,8,namb.la,CA,Americas,Northern America,Canada,Quebec,,Beauharnois
167.114.82.156,4,14,namestall.com,CA,Americas,Northern America,Canada,Quebec,,Montreal
144.217.204.14,4,8,nanaslittlekitchen.com,CA,Americas,Northern America,Canada,Quebec,,Beauharnois
142.44.158.131,4,11,napoleonicsociety.com,CA,Americas,Northern America,Canada,Quebec,,
54.39.200.91,4,3,nationtalk.ca,CA,Americas,Northern America,Canada,Quebec,,Beauharnois
174.142.48.106,4,2,nch.ca,CA,Americas,Northern America,Canada,Quebec,,Westmount
192.99.96.176,4,3,nesdev.com,CA,Americas,Northern America,Canada,Quebec,,Montreal
149.56.167.49,4,0,netpalace.jp,CA,Americas,Northern America,Canada,Quebec,,Montreal
174.142.242.81,4,1,netvasco.com.br,CA,Americas,Northern America,Canada,Quebec,,Westmount
142.44.215.15,4,0,niagaraparks.com,CA,Americas,Northern America,Canada,Quebec,,
192.99.65.95,4,0,ninzio.com,CA,Americas,Northern America,Canada,Quebec,,Montreal
34.152.35.185,4,3,nlhydro.com,CA,Americas,Northern America,Canada,Quebec,,Montreal
142.44.224.71,4,0,nomageddon.com,CA,Americas,Northern America,Canada,Quebec,,
158.69.201.22,4,6,now-dns.net,CA,Americas,Northern America,Canada,Quebec,,Montreal
149.56.113.173,4,7,nsbs.org,CA,Americas,Northern America,Canada,Quebec,,Montreal
45.45.148.208,4,3,nsec.io,CA,Americas,Northern America,Canada,Quebec,,
158.69.224.221,4,8,ntdtv.com.tw,CA,Americas,Northern America,Canada,Quebec,,Montreal
198.27.78.195,4,-1,nzfenciblesociety.org.nz,CA,Americas,Northern America,Canada,Quebec,,Montreal
34.152.51.70,4,12,oceansupercluster.ca,CA,Americas,Northern America,Canada,Quebec,,Montreal
167.114.188.133,4,-4237978,oerlive.com,CA,Americas,Northern America,Canada,Quebec,,Montreal
192.99.232.136,4,4,oldcarmanualproject.com,CA,Americas,Northern America,Canada,Quebec,,Montreal
144.217.254.196,4,1,on-page.ai,CA,Americas,Northern America,Canada,Quebec,,Beauharnois
174.142.46.57,4,2,onesky.ca,CA,Americas,Northern America,Canada,Quebec,,Westmount
192.81.170.4,4,6,ontarioarchitecture.com,CA,Americas,Northern America,Canada,Quebec,,Montreal
54.39.200.90,4,40,ontariocaregiver.ca,CA,Americas,Northern America,Canada,Quebec,,Beauharnois
142.44.136.90,4,3,ontariohealthcoalition.ca,CA,Americas,Northern America,Canada,Quebec,,
144.217.78.51,4,205,ontariohistoricalsociety.ca,CA,Americas,Northern America,Canada,Quebec,,Beauharnois
149.56.38.216,4,7,ontariolearn.com,CA,Americas,Northern America,Canada,Quebec,,Montreal
144.217.15.76,4,39,ontariosoilcrop.org,CA,Americas,Northern America,Canada,Quebec,,Beauharnois
51.161.122.67,4,17,onyxsolar.com,CA,Americas,Northern America,Canada,Quebec,,Montreal
205.237.60.50,4,53730,Ookla Speedtest Server 17823: vitesse.cogeco.ca,CA,Americas,Northern America,Canada,Quebec,,Rosemère
61.8.190.101,4,339,Ookla Speedtest Server 34011: speedtest.ihrtelecom.com,CA,Americas,Northern America,Canada,Quebec,,Knowlton
170.39.197.37,4,412,Ookla Speedtest Server 41241: speedtest.hivedatacenter.com,CA,Americas,Northern America,Canada,Quebec,,Beaconsfield
38.133.57.50,4,345,Ookla Speedtest Server 57380: speedtest.k-fo.net,CA,Americas,Northern America,Canada,Quebec,,
66.118.62.133,4,297,Ookla Speedtest Server 57528: speedtest.307net.ca,CA,Americas,Northern America,Canada,Quebec,,Cantley
54.39.173.91,4,7,Ookla Speedtest Server: www.akinet.com.br,CA,Americas,Northern America,Canada,Quebec,,Beauharnois
38.108.68.66,4,8,opendev.org,CA,Americas,Northern America,Canada,Quebec,,Montreal
144.217.98.100,4,3,opinanews.com.br,CA,Americas,Northern America,Canada,Quebec,,Beauharnois
51.222.153.51,4,16,opseu.org,CA,Americas,Northern America,Canada,Quebec,,
23.128.160.24,4,1,opto.ca,CA,Americas,Northern America,Canada,Quebec,,Montreal
149.56.22.104,4,7,oraclenana.com,CA,Americas,Northern America,Canada,Quebec,,Montreal
54.39.156.218,4,5,orbitsoft.com,CA,Americas,Northern America,Canada,Quebec,,Québec
38.170.156.77,4,382,ordertadalafiltablets.com,CA,Americas,Northern America,Canada,Quebec,,Montreal
142.44.240.238,4,70,orientdb.org,CA,Americas,Northern America,Canada,Quebec,,
192.99.233.238,4,1433777,orlandoattractions.com,CA,Americas,Northern America,Canada,Quebec,,Montreal
54.39.45.78,4,6,orthodoxchristianity.net,CA,Americas,Northern America,Canada,Quebec,,Beauharnois
51.222.80.112,4,22,oscarparrilla.com,CA,Americas,Northern America,Canada,Quebec,,
192.95.31.85,4,33,ossec.net,CA,Americas,Northern America,Canada,Quebec,,Montreal
167.114.178.75,4,4210824,outlawsmc.com,CA,Americas,Northern America,Canada,Quebec,,Montreal
192.95.20.61,4,0,outonscreen.com,CA,Americas,Northern America,Canada,Quebec,,Montreal
51.161.102.148,4,74,overthetopseo.com,CA,Americas,Northern America,Canada,Quebec,,Montreal
198.27.92.7,4,28,ovh.co.uk,CA,Americas,Northern America,Canada,Quebec,,Montreal
198.27.92.1,4,6,ovh.com,CA,Americas,Northern America,Canada,Quebec,,Montreal
198.27.92.5,4,40,ovh.es,CA,Americas,Northern America,Canada,Quebec,,Montreal
198.27.92.15,4,4,ovh.ie,CA,Americas,Northern America,Canada,Quebec,,Montreal
198.27.92.4,4,6,ovh.it,CA,Americas,Northern America,Canada,Quebec,,Montreal
198.27.92.22,4,40,ovh.nl,CA,Americas,Northern America,Canada,Quebec,,Montreal
198.27.92.6,4,17,ovh.pl,CA,Americas,Northern America,Canada,Quebec,,Montreal
54.39.46.56,4,13,ovhcloud.com,CA,Americas,Northern America,Canada,Quebec,,Beauharnois
198.27.92.21,4,12,ovhtelecom.fr,CA,Americas,Northern America,Canada,Quebec,,Montreal
51.222.33.182,4,3,paceelectric.com,CA,Americas,Northern America,Canada,Quebec,,
198.27.126.57,4,1,pages24.com,CA,Americas,Northern America,Canada,Quebec,,Montreal
104.254.180.95,4,0,palacioquintin.com,CA,Americas,Northern America,Canada,Quebec,,Boucherville
149.56.26.66,4,548,paradigmresearchgroup.org,CA,Americas,Northern America,Canada,Quebec,,Montreal
51.161.33.14,4,42,parquedelacosta.com.ar,CA,Americas,Northern America,Canada,Quebec,,Montreal
54.39.190.109,4,382,parquedelcafe.co,CA,Americas,Northern America,Canada,Quebec,,Beauharnois
174.142.195.152,4,813,pasmag.com,CA,Americas,Northern America,Canada,Quebec,,Westmount
149.56.23.144,4,34,pathfinder2.ca,CA,Americas,Northern America,Canada,Quebec,,Montreal
149.56.202.81,4,4,paulofreire.org,CA,Americas,Northern America,Canada,Quebec,,Montreal
142.44.198.77,4,53,peggyscoveregion.com,CA,Americas,Northern America,Canada,Quebec,,
158.69.126.55,4,33,permacon.ca,CA,Americas,Northern America,Canada,Quebec,,Montreal
142.44.136.119,4,31,perotech.com,CA,Americas,Northern America,Canada,Quebec,,
51.161.15.69,4,4,personalchef.com,CA,Americas,Northern America,Canada,Quebec,,Beauharnois
167.114.115.121,4,25,petitpetitgamin.com,CA,Americas,Northern America,Canada,Quebec,,Montreal
174.142.55.129,4,26,pheeds.com,CA,Americas,Northern America,Canada,Quebec,,Westmount
149.56.26.207,4,59,philharmony.com,CA,Americas,Northern America,Canada,Quebec,,Montreal
158.69.203.30,4,43,philosophynow.org,CA,Americas,Northern America,Canada,Quebec,,Montreal
54.39.129.183,4,11,phpclasses.org,CA,Americas,Northern America,Canada,Quebec,,Beauharnois
192.99.85.0,4,1,phpexcel.net,CA,Americas,Northern America,Canada,Quebec,,Montreal
142.44.144.182,4,59,pianostreet.com,CA,Americas,Northern America,Canada,Quebec,,
51.222.109.171,4,21,pictorem.com,CA,Americas,Northern America,Canada,Quebec,,
51.222.155.185,4,37,pidora.ca,CA,Americas,Northern America,Canada,Quebec,,
144.217.204.7,4,19,pinabresciani.com,CA,Americas,Northern America,Canada,Quebec,,Beauharnois
54.39.160.178,4,24,pinkandblueparenting.com,CA,Americas,Northern America,Canada,Quebec,,Beauharnois
51.222.140.13,4,29,pipa.com.br,CA,Americas,Northern America,Canada,Quebec,,
142.44.138.103,4,25,pixelfy.me,CA,Americas,Northern America,Canada,Quebec,,
149.56.185.120,4,6,pizzanova.com,CA,Americas,Northern America,Canada,Quebec,,Montreal
54.39.129.84,4,31,planosaudeluca.com.br,CA,Americas,Northern America,Canada,Quebec,,Beauharnois
144.217.20.182,4,732,plant-life.org,CA,Americas,Northern America,Canada,Quebec,,Beauharnois
198.72.104.58,4,6,plasticsurgery.ca,CA,Americas,Northern America,Canada,Quebec,,Montreal
3.98.115.202,4,8,playalberta.ca,CA,Americas,Northern America,Canada,Quebec,,Montreal
15.157.227.26,4,2,playalberta.ca,CA,Americas,Northern America,Canada,Quebec,,Montreal
99.79.183.55,4,2,playalberta.ca,CA,Americas,Northern America,Canada,Quebec,,Montreal
51.79.20.70,4,2,plugins4free.com,CA,Americas,Northern America,Canada,Quebec,,Beauharnois
142.44.212.57,4,38,pocketdentistry.com,CA,Americas,Northern America,Canada,Quebec,,Beauharnois
142.44.169.83,4,27,pokiestar.com,CA,Americas,Northern America,Canada,Quebec,,
167.114.194.189,4,130,polarconnection.org,CA,Americas,Northern America,Canada,Quebec,,Montreal
149.56.24.229,4,36,porcupinesquill.ca,CA,Americas,Northern America,Canada,Quebec,,Montreal
142.44.179.115,4,205,portalcafebrasil.com.br,CA,Americas,Northern America,Canada,Quebec,,
144.217.183.143,4,27,positiveparentingconnection.net,CA,Americas,Northern America,Canada,Quebec,,Beauharnois
54.39.18.29,4,50,postgrid.ca,CA,Americas,Northern America,Canada,Quebec,,Beauharnois
51.161.116.195,4,21,powerthesaurus.org,CA,Americas,Northern America,Canada,Quebec,,Beauharnois
51.79.20.46,4,66,powerthesaurus.org,CA,Americas,Northern America,Canada,Quebec,,Beauharnois
51.161.115.112,4,3,powerthesaurus.org,CA,Americas,Northern America,Canada,Quebec,,Montreal
192.99.67.26,4,31,precisionconference.com,CA,Americas,Northern America,Canada,Quebec,,Montreal
192.81.168.63,4,12,premiummod.com,CA,Americas,Northern America,Canada,Quebec,,Montreal
158.69.91.239,4,46,presagis.com,CA,Americas,Northern America,Canada,Quebec,,Montreal
192.95.62.127,4,67,prettyextraordinary.com,CA,Americas,Northern America,Canada,Quebec,,Montreal
51.161.77.208,4,51,proboards7.com,CA,Americas,Northern America,Canada,Quebec,,Montreal
54.39.201.193,4,39,productionsdoz.com,CA,Americas,Northern America,Canada,Quebec,,Beauharnois
51.161.47.44,4,6,profileplaylist.net,CA,Americas,Northern America,Canada,Quebec,,Montreal
192.95.19.66,4,1,projectpokemon.org,CA,Americas,Northern America,Canada,Quebec,,Montreal
174.142.222.210,4,120,protravelnetwork.com,CA,Americas,Northern America,Canada,Quebec,,Westmount
158.69.184.12,4,11,prouditaliancook.com,CA,Americas,Northern America,Canada,Quebec,,Montreal
51.222.41.84,4,941,psiquiatraenprovidencia.cl,CA,Americas,Northern America,Canada,Quebec,,Beauharnois
158.69.54.116,4,31,psseo.ca,CA,Americas,Northern America,Canada,Quebec,,Montreal
158.69.124.172,4,16,psychedelicspotlight.com,CA,Americas,Northern America,Canada,Quebec,,Montreal
142.44.241.106,4,35,psycopg.org,CA,Americas,Northern America,Canada,Quebec,,
142.44.253.80,4,1435,pt-profluid.com,CA,Americas,Northern America,Canada,Quebec,,
167.114.191.116,4,7,ptaff.ca,CA,Americas,Northern America,Canada,Quebec,,Montreal
192.81.168.65,4,1,ptt.edu,CA,Americas,Northern America,Canada,Quebec,,Montreal
167.114.98.191,4,3,pythoninstitute.org,CA,Americas,Northern America,Canada,Quebec,,Montreal
51.222.159.179,4,2,qkseo.in,CA,Americas,Northern America,Canada,Quebec,,
192.67.255.205,4,14,quadrigainitiative.com,CA,Americas,Northern America,Canada,Quebec,,Montreal
51.222.105.7,4,49,quatuorstomp.com,CA,Americas,Northern America,Canada,Quebec,,
69.51.204.127,4,27,quebecmaritime.ca,CA,Americas,Northern America,Canada,Quebec,,Frampton
167.114.145.10,4,14,quickbooksupportnet.com,CA,Americas,Northern America,Canada,Quebec,,Montreal
51.222.44.74,4,57,rac.ca,CA,Americas,Northern America,Canada,Quebec,,
209.222.227.12,4,94,radioactif.com,CA,Americas,Northern America,Canada,Quebec,,Montreal
158.69.124.113,4,183,radioboss.fm,CA,Americas,Northern America,Canada,Quebec,,Montreal
51.79.82.218,4,69,radiouno.pe,CA,Americas,Northern America,Canada,Quebec,,Beauharnois
144.217.144.218,4,7,raisinggenerationnourished.com,CA,Americas,Northern America,Canada,Quebec,,Beauharnois
142.44.140.154,4,4,rampregistrations.com,CA,Americas,Northern America,Canada,Quebec,,
149.56.27.116,4,41,ranthamborenationalpark.com,CA,Americas,Northern America,Canada,Quebec,,Montreal
167.114.10.220,4,33,rapidenet.ca,CA,Americas,Northern America,Canada,Quebec,,Montreal
144.217.254.156,4,40,rawdigger.com,CA,Americas,Northern America,Canada,Quebec,,Beauharnois
149.56.179.0,4,8,rayban-wear.co.uk,CA,Americas,Northern America,Canada,Quebec,,Montreal
142.44.216.172,4,7,rboconcursos.com.br,CA,Americas,Northern America,Canada,Quebec,,
167.114.188.212,4,16,recantodasletras.com.br,CA,Americas,Northern America,Canada,Quebec,,Montreal
51.222.233.115,4,7,reclaimhosting.com,CA,Americas,Northern America,Canada,Quebec,,
149.56.157.48,4,17,redesdamare.org.br,CA,Americas,Northern America,Canada,Quebec,,Montreal
51.222.50.6,4,23,redipe.org,CA,Americas,Northern America,Canada,Quebec,,
158.69.158.186,4,40,redwall.org,CA,Americas,Northern America,Canada,Quebec,,Montreal
142.44.241.239,4,33,referr.com.ua,CA,Americas,Northern America,Canada,Quebec,,
198.72.127.83,4,-33,refriguniversal.com.br,CA,Americas,Northern America,Canada,Quebec,,Montreal
51.222.17.224,4,11,refuseandresist.org,CA,Americas,Northern America,Canada,Quebec,,
208.71.10.211,4,62,remax-quebec.com,CA,Americas,Northern America,Canada,Quebec,,Montreal
142.44.136.10,4,19,remix.audio,CA,Americas,Northern America,Canada,Quebec,,
167.114.161.58,4,6,remotetopc.com,CA,Americas,Northern America,Canada,Quebec,,Montreal
192.81.170.20,4,-5,republican-candidates.org,CA,Americas,Northern America,Canada,Quebec,,Montreal
51.222.190.194,4,39,resumes-writer.com,CA,Americas,Northern America,Canada,Quebec,,
149.56.223.200,4,14,rfsafe.com,CA,Americas,Northern America,Canada,Quebec,,Montreal
158.69.19.57,4,10,richardson.ca,CA,Americas,Northern America,Canada,Quebec,,Montreal
144.217.84.5,4,28,rigsofrods.org,CA,Americas,Northern America,Canada,Quebec,,Beauharnois
198.27.68.121,4,2,rimsntires.com,CA,Americas,Northern America,Canada,Quebec,,Montreal
45.45.148.200,4,107,ringzer0ctf.com,CA,Americas,Northern America,Canada,Quebec,,
198.27.68.184,4,3,rishoncosmeticos.com.br,CA,Americas,Northern America,Canada,Quebec,,Montreal
51.161.101.205,4,1,rizon.net,CA,Americas,Northern America,Canada,Quebec,,Montreal
142.44.215.48,4,7,rjc.ca,CA,Americas,Northern America,Canada,Quebec,,
54.39.64.69,4,42,roadtrips.com,CA,Americas,Northern America,Canada,Quebec,,Beauharnois
51.161.118.13,4,342,rode.com.br,CA,Americas,Northern America,Canada,Quebec,,Beauharnois
51.161.84.134,4,34,roms-download.com,CA,Americas,Northern America,Canada,Quebec,,Québec
167.114.107.144,4,34,ronrolheiser.com,CA,Americas,Northern America,Canada,Quebec,,Montreal
54.39.58.255,4,72,rotorbuilds.com,CA,Americas,Northern America,Canada,Quebec,,Beauharnois
192.95.29.89,4,50,rsssfbrasil.com,CA,Americas,Northern America,Canada,Quebec,,Montreal
142.44.175.223,4,1,rt66.com,CA,Americas,Northern America,Canada,Quebec,,
158.69.201.18,4,34,rugift.com,CA,Americas,Northern America,Canada,Quebec,,Montreal
51.222.203.79,4,48,rumbominero.com,CA,Americas,Northern America,Canada,Quebec,,
54.39.244.13,4,18,runottawa.ca,CA,Americas,Northern America,Canada,Quebec,,Beauharnois
51.222.138.209,4,6,rxdz668.com,CA,Americas,Northern America,Canada,Quebec,,
38.180.12.125,4,0,rzd-expo.ru,CA,Americas,Northern America,Canada,Quebec,,Montreal
149.56.64.11,4,0,safe.mn,CA,Americas,Northern America,Canada,Quebec,,Montreal
142.44.129.236,4,7,safemanuals.com,CA,Americas,Northern America,Canada,Quebec,,
51.222.191.31,4,2,safras.com.br,CA,Americas,Northern America,Canada,Quebec,,
68.71.54.196,4,8,saguenay.ca,CA,Americas,Northern America,Canada,Quebec,,Laval
167.114.102.202,4,12,sai.com.bo,CA,Americas,Northern America,Canada,Quebec,,Montreal
54.39.51.72,4,5,saila.com,CA,Americas,Northern America,Canada,Quebec,,Beauharnois
51.161.15.142,4,4,salessquad.co.uk,CA,Americas,Northern America,Canada,Quebec,,Beauharnois
149.56.195.84,4,60,salkantaytrekking.com,CA,Americas,Northern America,Canada,Quebec,,Montreal
149.56.23.152,4,5,saludos.com,CA,Americas,Northern America,Canada,Quebec,,Montreal
149.56.112.47,4,326907,sanlorenzo.com.ar,CA,Americas,Northern America,Canada,Quebec,,Montreal
198.27.110.87,4,-350,sasosoft.com,CA,Americas,Northern America,Canada,Quebec,,Montreal
51.222.108.110,4,32494,savage2.com,CA,Americas,Northern America,Canada,Quebec,,
198.27.81.211,4,3,savealoonie.com,CA,Americas,Northern America,Canada,Quebec,,Montreal
144.217.75.33,4,-1,sbmania.net,CA,Americas,Northern America,Canada,Quebec,,Beauharnois
51.161.13.200,4,21,scifi.radio,CA,Americas,Northern America,Canada,Quebec,,Montreal
167.114.211.135,4,19,scorpionmasque.com,CA,Americas,Northern America,Canada,Quebec,,Montreal
54.39.157.179,4,2,screenshot-program.com,CA,Americas,Northern America,Canada,Quebec,,Beauharnois
167.114.3.86,4,5,script.sh,CA,Americas,Northern America,Canada,Quebec,,Montreal
144.217.178.205,4,993,seat42f.com,CA,Americas,Northern America,Canada,Quebec,,Beauharnois
174.142.125.32,4,8,secretcityrecords.com,CA,Americas,Northern America,Canada,Quebec,,Westmount
192.95.15.215,4,3,secretsofsongwriting.com,CA,Americas,Northern America,Canada,Quebec,,Montreal
144.217.20.181,4,722,segolo.com,CA,Americas,Northern America,Canada,Quebec,,Beauharnois
54.39.51.70,4,29,selfgrowth.com,CA,Americas,Northern America,Canada,Quebec,,Beauharnois
142.44.210.167,4,36,selfmanagementresource.com,CA,Americas,Northern America,Canada,Quebec,,
54.39.48.213,4,12,sens-public.org,CA,Americas,Northern America,Canada,Quebec,,Beauharnois
192.99.230.68,4,2,sensoft.ca,CA,Americas,Northern America,Canada,Quebec,,Montreal
158.69.201.102,4,24,seriousgmod.com,CA,Americas,Northern America,Canada,Quebec,,Montreal
99.79.25.245,4,4,sexcurve.com,CA,Americas,Northern America,Canada,Quebec,,Montreal
158.69.127.8,4,0,sgdg.org,CA,Americas,Northern America,Canada,Quebec,,Montreal
158.69.251.137,4,25,shaw-centre.com,CA,Americas,Northern America,Canada,Quebec,,Montreal
51.222.209.214,4,0,shawinigan.ca,CA,Americas,Northern America,Canada,Quebec,,
149.56.65.175,4,3,shenghaiautoparts.com,CA,Americas,Northern America,Canada,Quebec,,Montreal
51.222.80.222,4,1,shootingstarsmag.net,CA,Americas,Northern America,Canada,Quebec,,
198.27.81.224,4,38,siberiancms.com,CA,Americas,Northern America,Canada,Quebec,,Montreal
67.215.3.165,4,2,sibername.com,CA,Americas,Northern America,Canada,Quebec,,Montreal
66.70.176.69,4,6,signatures.ca,CA,Americas,Northern America,Canada,Quebec,,Beauharnois
192.99.233.116,4,1,singpolyma.net,CA,Americas,Northern America,Canada,Quebec,,Montreal
51.161.118.83,4,42,sitecontabil.com.br,CA,Americas,Northern America,Canada,Quebec,,Beauharnois
192.95.19.76,4,4,sitedossier.com,CA,Americas,Northern America,Canada,Quebec,,Montreal
104.254.181.172,4,-13,sjsr.ca,CA,Americas,Northern America,Canada,Quebec,,Boucherville
167.114.185.115,4,5,skyhubmc.com,CA,Americas,Northern America,Canada,Quebec,,Montreal
142.44.246.83,4,12,sladderpressen.dk,CA,Americas,Northern America,Canada,Quebec,,
144.217.7.30,4,25,slangdefine.org,CA,Americas,Northern America,Canada,Quebec,,Beauharnois
142.44.234.148,4,0,slots4play.com,CA,Americas,Northern America,Canada,Quebec,,
51.79.72.148,4,9,smadav.net,CA,Americas,Northern America,Canada,Quebec,,Québec
142.44.215.113,4,25,smogon.com,CA,Americas,Northern America,Canada,Quebec,,
51.161.124.166,4,2,snaprama.com,CA,Americas,Northern America,Canada,Quebec,,Montreal
51.161.122.110,4,257108,snapzu.com,CA,Americas,Northern America,Canada,Quebec,,Montreal
142.44.224.90,4,3,sneakyveg.com,CA,Americas,Northern America,Canada,Quebec,,
51.222.247.161,4,4,snmpe.org.pe,CA,Americas,Northern America,Canada,Quebec,,
51.222.43.131,4,70,socialifestylemag.com,CA,Americas,Northern America,Canada,Quebec,,
144.217.68.223,4,25,socialist.ca,CA,Americas,Northern America,Canada,Quebec,,Beauharnois
209.44.124.244,4,19,sodefitex.sn,CA,Americas,Northern America,Canada,Quebec,,Montreal
51.222.241.163,4,9,solaci.org,CA,Americas,Northern America,Canada,Quebec,,
158.69.138.2,4,737,somoslibres.org,CA,Americas,Northern America,Canada,Quebec,,Montreal
198.72.104.25,4,6,sonus.ca,CA,Americas,Northern America,Canada,Quebec,,Montreal
158.69.224.10,4,213,sorabji.com,CA,Americas,Northern America,Canada,Quebec,,Montreal
142.44.224.74,4,6,soupaddict.com,CA,Americas,Northern America,Canada,Quebec,,
192.81.170.5,4,3,sowintheword.org,CA,Americas,Northern America,Canada,Quebec,,Montreal
198.27.92.2,4,0,soyoustart.com,CA,Americas,Northern America,Canada,Quebec,,Montreal
51.161.122.130,4,56,sponsor.com,CA,Americas,Northern America,Canada,Quebec,,Montreal
54.39.133.136,4,3,spyrix.com,CA,Americas,Northern America,Canada,Quebec,,Beauharnois
167.114.129.74,4,348,sro-ads.com,CA,Americas,Northern America,Canada,Quebec,,Montreal
158.69.26.167,4,0,ssclg.com,CA,Americas,Northern America,Canada,Quebec,,Montreal
51.79.20.123,4,651,sso-usa.org,CA,Americas,Northern America,Canada,Quebec,,Beauharnois
35.203.125.129,4,20,stao.ca,CA,Americas,Northern America,Canada,Quebec,,Montreal
144.217.49.0,4,33,stard-statement.org,CA,Americas,Northern America,Canada,Quebec,,Beauharnois
170.39.198.196,4,116187,starlightcanada.org,CA,Americas,Northern America,Canada,Quebec,,Saint-Laurent
158.69.84.99,4,665204,statshow.com,CA,Americas,Northern America,Canada,Quebec,,Montreal
51.161.119.142,4,48,stbruno.ca,CA,Americas,Northern America,Canada,Quebec,,Montreal
149.56.23.157,4,77,steadyhealth.com,CA,Americas,Northern America,Canada,Quebec,,Montreal
51.222.24.193,4,42,steannes.com,CA,Americas,Northern America,Canada,Quebec,,
45.45.148.7,4,1,stgraber.org,CA,Americas,Northern America,Canada,Quebec,,
51.222.228.21,4,70,stickypiston.co,CA,Americas,Northern America,Canada,Quebec,,
174.142.144.119,4,3,stlyrics.com,CA,Americas,Northern America,Canada,Quebec,,Westmount
144.217.175.154,4,8,stopglobalwarming.org,CA,Americas,Northern America,Canada,Quebec,,Beauharnois
167.114.196.1,4,3,storagenewsletter.com,CA,Americas,Northern America,Canada,Quebec,,Montreal
167.114.174.112,4,4,streamloots.com,CA,Americas,Northern America,Canada,Quebec,,Montreal
142.44.179.122,4,2,strongnations.com,CA,Americas,Northern America,Canada,Quebec,,
51.222.46.79,4,23,stylesgap.com,CA,Americas,Northern America,Canada,Quebec,,
167.114.119.53,4,23,sucreriedelamontagne.com,CA,Americas,Northern America,Canada,Quebec,,Montreal
51.222.17.228,4,3,suhagratab.online,CA,Americas,Northern America,Canada,Quebec,,
198.27.126.78,4,13,superprof.com,CA,Americas,Northern America,Canada,Quebec,,Montreal
149.56.83.242,4,32,superprof.com.br,CA,Americas,Northern America,Canada,Quebec,,Montreal
174.142.247.185,4,501,sustainablewaterlooregion.ca,CA,Americas,Northern America,Canada,Quebec,,Westmount
51.222.17.227,4,37,svetlozerschool29.ru,CA,Americas,Northern America,Canada,Quebec,,
158.69.185.3,4,0,sweetiq.com,CA,Americas,Northern America,Canada,Quebec,,Montreal
54.39.123.239,4,14,sylviahotel.com,CA,Americas,Northern America,Canada,Quebec,,Beauharnois
192.99.71.110,4,1,symbiostock.org,CA,Americas,Northern America,Canada,Quebec,,Montreal
15.156.194.37,4,8,tagabikes.com,CA,Americas,Northern America,Canada,Quebec,,Montreal
167.114.155.17,4,3,tahitinuitravel.com,CA,Americas,Northern America,Canada,Quebec,,Montreal
149.56.21.30,4,5,takyon.com.ar,CA,Americas,Northern America,Canada,Quebec,,Montreal
54.39.237.49,4,-2,tctranscontinental.com,CA,Americas,Northern America,Canada,Quebec,,Beauharnois
149.56.70.22,4,-841,teamspeak3.com,CA,Americas,Northern America,Canada,Quebec,,Montreal
142.44.140.66,4,6,teenink.com,CA,Americas,Northern America,Canada,Quebec,,
51.222.29.240,4,62,tehranbureau.com,CA,Americas,Northern America,Canada,Quebec,,
51.222.248.17,4,40,tekart.com.br,CA,Americas,Northern America,Canada,Quebec,,
67.212.79.130,4,41,telemarktalk.com,CA,Americas,Northern America,Canada,Quebec,,Montreal
192.81.170.12,4,53,terralingua.org,CA,Americas,Northern America,Canada,Quebec,,Montreal
51.79.78.60,4,43,textgiraffe.com,CA,Americas,Northern America,Canada,Quebec,,Québec
51.79.78.58,4,-3,textgiraffe.com,CA,Americas,Northern America,Canada,Quebec,,Québec
174.142.230.53,4,19,textosl.com,CA,Americas,Northern America,Canada,Quebec,,Westmount
167.114.117.149,4,14,tfarchive.com,CA,Americas,Northern America,Canada,Quebec,,Montreal
167.114.88.84,4,2,the-lilypad.com,CA,Americas,Northern America,Canada,Quebec,,Montreal
3.99.94.193,4,14,theassayer.org,CA,Americas,Northern America,Canada,Quebec,,Montreal
198.27.102.3,4,-432031,theatrecalgary.com,CA,Americas,Northern America,Canada,Quebec,,Montreal
173.209.56.178,4,2,thebao.ca,CA,Americas,Northern America,Canada,Quebec,,Montreal
174.142.148.32,4,2,thebricspost.com,CA,Americas,Northern America,Canada,Quebec,,Westmount
51.79.98.122,4,16,thebuddyforum.com,CA,Americas,Northern America,Canada,Quebec,,Beauharnois
142.44.139.175,4,2,thecampingadvisor.com,CA,Americas,Northern America,Canada,Quebec,,
34.118.136.123,4,6,thediscoverycentre.ca,CA,Americas,Northern America,Canada,Quebec,,Montreal
144.217.95.36,4,11,thehappyguy.com,CA,Americas,Northern America,Canada,Quebec,,Beauharnois
51.161.119.47,4,27,thehockeyresource.com,CA,Americas,Northern America,Canada,Quebec,,Montreal
149.56.167.51,4,0,theinterviews.jp,CA,Americas,Northern America,Canada,Quebec,,Montreal
158.69.175.129,4,33,themilitarywifeandmom.com,CA,Americas,Northern America,Canada,Quebec,,Montreal
149.56.207.38,4,1069,themovementmenu.com,CA,Americas,Northern America,Canada,Quebec,,Montreal
167.114.171.149,4,9,theresjustonemommy.com,CA,Americas,Northern America,Canada,Quebec,,Montreal
173.209.37.208,4,2,thesgc.org,CA,Americas,Northern America,Canada,Quebec,,Montreal
142.44.224.88,4,7,thespicetrain.com,CA,Americas,Northern America,Canada,Quebec,,
142.44.224.65,4,5,thespicyapron.com,CA,Americas,Northern America,Canada,Quebec,,
144.217.234.214,4,3,thestingyvegan.com,CA,Americas,Northern America,Canada,Quebec,,Beauharnois
3.99.180.151,4,44,thetealmango.com,CA,Americas,Northern America,Canada,Quebec,,Montreal
192.95.33.213,4,4,thetranslationcompany.com,CA,Americas,Northern America,Canada,Quebec,,Montreal
167.114.9.136,4,7,theurbenlife.com,CA,Americas,Northern America,Canada,Quebec,,Montreal
192.81.170.18,4,7,thewayhometolove.com,CA,Americas,Northern America,Canada,Quebec,,Montreal
144.217.163.155,4,10,thinkers50.com,CA,Americas,Northern America,Canada,Quebec,,Beauharnois
144.217.87.209,4,-6,thorvinvear.com,CA,Americas,Northern America,Canada,Quebec,,Beauharnois
158.69.140.83,4,4,tierrasatamisque.com,CA,Americas,Northern America,Canada,Quebec,,Montreal
142.44.150.184,4,8,tilde.club,CA,Americas,Northern America,Canada,Quebec,,
174.142.205.102,4,15,timesmojo.com,CA,Americas,Northern America,Canada,Quebec,,Westmount
167.114.64.7,4,-3,timminsrenovations.ca,CA,Americas,Northern America,Canada,Quebec,,Montreal
54.39.176.175,4,6,tmediasolutions.net,CA,Americas,Northern America,Canada,Quebec,,Beauharnois
144.217.29.217,4,3,to-love.net,CA,Americas,Northern America,Canada,Quebec,,Beauharnois
209.90.137.185,4,8718919,torontocentralhealthline.ca,CA,Americas,Northern America,Canada,Quebec,,Gatineau
198.27.65.65,4,6,torontopersians.com,CA,Americas,Northern America,Canada,Quebec,,Montreal
192.99.85.120,4,6,totalcoaching.com,CA,Americas,Northern America,Canada,Quebec,,Montreal
54.39.114.144,4,26,tourismhamilton.com,CA,Americas,Northern America,Canada,Quebec,,Beauharnois
144.217.91.41,4,4,toyorigin.com,CA,Americas,Northern America,Canada,Quebec,,Beauharnois
149.56.24.145,4,3,toyotires.ca,CA,Americas,Northern America,Canada,Quebec,,Montreal
144.217.169.73,4,60678,tradekey.com,CA,Americas,Northern America,Canada,Quebec,,Beauharnois
51.79.21.238,4,2847443,tradekey.com,CA,Americas,Northern America,Canada,Quebec,,Beauharnois
144.217.126.182,4,23,tradingcharts.com,CA,Americas,Northern America,Canada,Quebec,,Beauharnois
144.217.29.104,4,1385,transbahteraindologistik.com,CA,Americas,Northern America,Canada,Quebec,,Beauharnois
149.56.162.39,4,14,transplantquebec.ca,CA,Americas,Northern America,Canada,Quebec,,Montreal
51.222.24.154,4,11,travelwithlanguages.com,CA,Americas,Northern America,Canada,Quebec,,
174.142.119.36,4,20,trendelfindelmundo.com.ar,CA,Americas,Northern America,Canada,Quebec,,Westmount
144.217.57.154,4,38,trettsveenbygg.no,CA,Americas,Northern America,Canada,Quebec,,Beauharnois
158.69.175.128,4,4,trueaimeducation.com,CA,Americas,Northern America,Canada,Quebec,,Montreal
209.127.20.163,4,801,truejesus.net,CA,Americas,Northern America,Canada,Quebec,,Montreal
54.39.81.142,4,4,trysilmultirep.no,CA,Americas,Northern America,Canada,Quebec,,Beauharnois
54.39.102.77,4,8,tsukihi.me,CA,Americas,Northern America,Canada,Quebec,,Beauharnois
54.39.17.36,4,2,ttsmp3.com,CA,Americas,Northern America,Canada,Quebec,,Beauharnois
144.217.243.241,4,13,ttyplus.com,CA,Americas,Northern America,Canada,Quebec,,Beauharnois
51.222.174.97,4,1,tulolagpetroleumenergyltd.com,CA,Americas,Northern America,Canada,Quebec,,
149.56.22.100,4,927,turbulence.org,CA,Americas,Northern America,Canada,Quebec,,Montreal
142.44.224.67,4,3,tutti-dolci.com,CA,Americas,Northern America,Canada,Quebec,,
192.99.98.109,4,4,twistedwave.com,CA,Americas,Northern America,Canada,Quebec,,Montreal
209.127.5.114,4,649,twitchetts.com,CA,Americas,Northern America,Canada,Quebec,,Montreal
51.222.105.185,4,5,twrp.me,CA,Americas,Northern America,Canada,Quebec,,
142.44.139.173,4,360,ucsf.edu.ar,CA,Americas,Northern America,Canada,Quebec,,
54.39.16.180,4,11,ukbap.org.uk,CA,Americas,Northern America,Canada,Quebec,,Beauharnois
54.39.35.48,4,17,ultras-tifo.net,CA,Americas,Northern America,Canada,Quebec,,Beauharnois
142.44.211.36,4,48178,unamenlinea.info,CA,Americas,Northern America,Canada,Quebec,,
142.44.169.238,4,23,uncommon-knowledge.co.uk,CA,Americas,Northern America,Canada,Quebec,,
144.217.229.16,4,7,underworldralinwood.ca,CA,Americas,Northern America,Canada,Quebec,,Beauharnois
51.79.98.235,4,13,uniquefm.ca,CA,Americas,Northern America,Canada,Quebec,,Beauharnois
198.72.127.80,4,-39,unitau.br,CA,Americas,Northern America,Canada,Quebec,,Montreal
54.39.64.68,4,9,unitedwayeo.ca,CA,Americas,Northern America,Canada,Quebec,,Beauharnois
51.222.111.86,4,3,unlok.ca,CA,Americas,Northern America,Canada,Quebec,,
142.44.214.113,4,24,unpointcinq.ca,CA,Americas,Northern America,Canada,Quebec,,
158.69.60.163,4,999,untrm.edu.pe,CA,Americas,Northern America,Canada,Quebec,,Montreal
158.69.15.100,4,3,upla.edu.pe,CA,Americas,Northern America,Canada,Quebec,,Montreal
144.217.12.113,4,15,upplevelsemagasinet.se,CA,Americas,Northern America,Canada,Quebec,,Beauharnois
149.56.26.174,4,-1,uptoten.com,CA,Americas,Northern America,Canada,Quebec,,Montreal
15.235.66.161,4,3,urbanyvr.com,CA,Americas,Northern America,Canada,Quebec,,Montreal
3.98.40.66,4,0,urgelbourgie.com,CA,Americas,Northern America,Canada,Quebec,,Montreal
54.39.161.167,4,2,userbenchmark.com,CA,Americas,Northern America,Canada,Quebec,,Beauharnois
51.161.87.20,4,2,usfiredept.com,CA,Americas,Northern America,Canada,Quebec,,Montreal
198.72.126.225,4,6,usudbury.ca,CA,Americas,Northern America,Canada,Quebec,,Montreal
142.44.247.44,4,5,utahradio.org,CA,Americas,Northern America,Canada,Quebec,,
158.69.7.166,4,11,vacancesessipit.com,CA,Americas,Northern America,Canada,Quebec,,Montreal
54.39.163.38,4,7,vacay.ca,CA,Americas,Northern America,Canada,Quebec,,Beauharnois
192.95.11.244,4,4,vancouverfringe.com,CA,Americas,Northern America,Canada,Quebec,,Montreal
51.161.21.1,4,5,vaporshop.com,CA,Americas,Northern America,Canada,Quebec,,Montreal
144.217.70.116,4,12,vapoteurs.net,CA,Americas,Northern America,Canada,Quebec,,Beauharnois
144.217.14.164,4,3,variancemagazine.com,CA,Americas,Northern America,Canada,Quebec,,Beauharnois
142.44.224.84,4,2,veganonboard.com,CA,Americas,Northern America,Canada,Quebec,,
144.217.178.223,4,981,veggieinspiredjourney.com,CA,Americas,Northern America,Canada,Quebec,,Beauharnois
149.56.70.19,4,-913,ventrilo.com,CA,Americas,Northern America,Canada,Quebec,,Montreal
51.161.56.197,4,54,vetaomfinanser.se,CA,Americas,Northern America,Canada,Quebec,,Montreal
142.44.212.56,4,2,veteriankey.com,CA,Americas,Northern America,Canada,Quebec,,Beauharnois
149.56.128.144,4,47304,vgleaks.com,CA,Americas,Northern America,Canada,Quebec,,Montreal
144.217.30.89,4,4,videowhisper.com,CA,Americas,Northern America,Canada,Quebec,,Beauharnois
216.239.80.84,4,3,vif.com,CA,Americas,Northern America,Canada,Quebec,,Longueuil
144.217.144.217,4,3,villapark.co,CA,Americas,Northern America,Canada,Quebec,,Beauharnois
54.39.81.138,4,6,vinkenessag.no,CA,Americas,Northern America,Canada,Quebec,,Beauharnois
144.217.38.59,4,53,virtual-laser-keyboard.com,CA,Americas,Northern America,Canada,Quebec,,Beauharnois
51.79.77.233,4,4,visitminot.org,CA,Americas,Northern America,Canada,Quebec,,Beauharnois
167.114.118.235,4,5,vitalaxion.com,CA,Americas,Northern America,Canada,Quebec,,Montreal
51.161.122.78,4,5,vitalitybowls.com,CA,Americas,Northern America,Canada,Quebec,,Montreal
158.69.155.77,4,15,vodahost.com,CA,Americas,Northern America,Canada,Quebec,,Montreal
51.222.140.244,4,6,vpnveteran.com,CA,Americas,Northern America,Canada,Quebec,,
192.95.21.85,4,3,vpsdime.com,CA,Americas,Northern America,Canada,Quebec,,Montreal
144.217.72.42,4,175,vtpi.org,CA,Americas,Northern America,Canada,Quebec,,Beauharnois
51.161.77.72,4,2,vtrailway.com,CA,Americas,Northern America,Canada,Quebec,,Montreal
51.222.43.200,4,7,w-w-b.net.ua,CA,Americas,Northern America,Canada,Quebec,,
144.217.248.187,4,9,wabano.com,CA,Americas,Northern America,Canada,Quebec,,Beauharnois
54.39.51.158,4,7,wahooart.com,CA,Americas,Northern America,Canada,Quebec,,Beauharnois
192.99.100.51,4,8,waukeganparks.org,CA,Americas,Northern America,Canada,Quebec,,Montreal
192.99.232.17,4,9,wawataynews.ca,CA,Americas,Northern America,Canada,Quebec,,Montreal
167.114.60.161,4,4,waytoosocial.com,CA,Americas,Northern America,Canada,Quebec,,Montreal
149.56.15.92,4,0,wcpinstitute.org,CA,Americas,Northern America,Canada,Quebec,,Montreal
192.95.30.117,4,9,webestools.com,CA,Americas,Northern America,Canada,Quebec,,Montreal
192.95.53.248,4,12,websavers.ca,CA,Americas,Northern America,Canada,Quebec,,Montreal
192.99.230.86,4,4,weioud.com,CA,Americas,Northern America,Canada,Quebec,,Montreal
149.56.24.165,4,14,westworldforum.com,CA,Americas,Northern America,Canada,Quebec,,Montreal
108.163.128.210,4,350,wetsuweten.com,CA,Americas,Northern America,Canada,Quebec,,
174.142.8.164,4,4,wfsj.org,CA,Americas,Northern America,Canada,Quebec,,Westmount
149.56.207.60,4,1068,whatshouldimakefor.com,CA,Americas,Northern America,Canada,Quebec,,Montreal
162.250.191.229,4,2,whatsyourimpact.org,CA,Americas,Northern America,Canada,Quebec,,Montreal
167.114.26.57,4,3,wheelchairbasketball.ca,CA,Americas,Northern America,Canada,Quebec,,Montreal
54.39.26.59,4,6,wheelndealmama.com,CA,Americas,Northern America,Canada,Quebec,,Beauharnois
149.56.151.116,4,10,whiskynsunshine.com,CA,Americas,Northern America,Canada,Quebec,,Montreal
144.217.79.100,4,4,whisps.com,CA,Americas,Northern America,Canada,Quebec,,Beauharnois
198.27.90.244,4,1,whmcsglobalservices.com,CA,Americas,Northern America,Canada,Quebec,,Montreal
35.215.32.239,4,55,wikifoundry.com,CA,Americas,Northern America,Canada,Quebec,,Montreal
158.69.227.116,4,64,wikilivres.ca,CA,Americas,Northern America,Canada,Quebec,,Montreal
198.72.126.220,4,13,wildsound-filmmaking-feedback-events.com,CA,Americas,Northern America,Canada,Quebec,,Montreal
144.217.253.205,4,6,windowanddoorrepairs.top,CA,Americas,Northern America,Canada,Quebec,,Beauharnois
51.222.90.224,4,-7957,winworldpc.com,CA,Americas,Northern America,Canada,Quebec,,
51.222.12.11,4,4,wirelessdefence.org,CA,Americas,Northern America,Canada,Quebec,,
144.217.87.132,4,-8552,wknd.fm,CA,Americas,Northern America,Canada,Quebec,,Beauharnois
144.217.77.217,4,19,wololo.net,CA,Americas,Northern America,Canada,Quebec,,Beauharnois
54.39.244.14,4,17,womeninfilm.ca,CA,Americas,Northern America,Canada,Quebec,,Beauharnois
38.153.116.235,4,8,wondernetwork.com,CA,Americas,Northern America,Canada,Quebec,,Montreal
158.69.236.17,4,4,wonderville.ca,CA,Americas,Northern America,Canada,Quebec,,Montreal
158.69.91.252,4,7,wongbakerfaces.org,CA,Americas,Northern America,Canada,Quebec,,Montreal
144.217.72.92,4,6,woodrufffamilytree.com,CA,Americas,Northern America,Canada,Quebec,,Beauharnois
15.235.9.25,4,13,wordingwell.com,CA,Americas,Northern America,Canada,Quebec,,Montreal
54.39.160.179,4,4,worksafesask.ca,CA,Americas,Northern America,Canada,Quebec,,Beauharnois
54.39.87.213,4,11,worldblindunion.org,CA,Americas,Northern America,Canada,Quebec,,Beauharnois
167.114.34.54,4,28,worldplaces.me,CA,Americas,Northern America,Canada,Quebec,,Montreal
167.114.103.51,4,7,worldrps.com,CA,Americas,Northern America,Canada,Quebec,,Montreal
149.56.159.136,4,10,worlds.net,CA,Americas,Northern America,Canada,Quebec,,Montreal
167.114.205.193,4,14,worldsiteindex.com,CA,Americas,Northern America,Canada,Quebec,,Montreal
35.203.98.172,4,15,worshiptraining.com,CA,Americas,Northern America,Canada,Quebec,,Montreal
51.161.12.100,4,17,woundscanada.ca,CA,Americas,Northern America,Canada,Quebec,,Montreal
54.39.18.54,4,5,wowtheme7.com,CA,Americas,Northern America,Canada,Quebec,,Beauharnois
54.39.193.115,4,-1,wowubuntu.com,CA,Americas,Northern America,Canada,Quebec,,Beauharnois
54.39.78.69,4,4,wthgis.com,CA,Americas,Northern America,Canada,Quebec,,Beauharnois
198.72.127.235,4,-30,wwzc.org,CA,Americas,Northern America,Canada,Quebec,,Montreal
54.39.133.185,4,4,xach.com,CA,Americas,Northern America,Canada,Quebec,,Beauharnois
192.95.33.163,4,4,xanga.com,CA,Americas,Northern America,Canada,Quebec,,Montreal
142.44.251.77,4,-1,xboxaddict.com,CA,Americas,Northern America,Canada,Quebec,,
51.222.151.191,4,6,xceed.com,CA,Americas,Northern America,Canada,Quebec,,
198.27.113.70,4,4,ximea.com,CA,Americas,Northern America,Canada,Quebec,,Montreal
144.217.57.148,4,66,xn--fjeldheim-entreprenr-tcc.no,CA,Americas,Northern America,Canada,Quebec,,Beauharnois
192.99.150.8,4,60,xn--iu1b50mw7j.info,CA,Americas,Northern America,Canada,Quebec,,Beauharnois
142.44.242.91,4,1,xn--konomiposten-ujb.dk,CA,Americas,Northern America,Canada,Quebec,,
144.217.12.124,4,62,xn--konstnrden-jcb.se,CA,Americas,Northern America,Canada,Quebec,,Beauharnois
167.114.16.172,4,67,xn--nario-rta.gov.co,CA,Americas,Northern America,Canada,Quebec,,Montreal
142.44.243.104,4,59,xn--serviceochunderhll-kub.se,CA,Americas,Northern America,Canada,Quebec,,
142.44.246.179,4,25,xn--sknhedsunivers-rqb.dk,CA,Americas,Northern America,Canada,Quebec,,
54.39.81.129,4,27,xn--syllisen-afseth-llb.no,CA,Americas,Northern America,Canada,Quebec,,Beauharnois
192.99.119.40,4,4,xn--tbrtenmaskin-vcb.no,CA,Americas,Northern America,Canada,Quebec,,Montreal
198.27.76.160,4,3,yahosein.com,CA,Americas,Northern America,Canada,Quebec,,Montreal
52.60.140.239,4,11,yapla.com,CA,Americas,Northern America,Canada,Quebec,,Montreal
149.56.225.6,4,-1,yeezy350shoes.ca,CA,Americas,Northern America,Canada,Quebec,,Montreal
54.39.196.148,4,0,yogonet.com,CA,Americas,Northern America,Canada,Quebec,,Beauharnois
51.79.80.223,4,210012,you.dj,CA,Americas,Northern America,Canada,Quebec,,Québec
158.69.73.63,4,877,yourparentingmojo.com,CA,Americas,Northern America,Canada,Quebec,,Montreal
51.222.67.102,4,8,yourperiod.ca,CA,Americas,Northern America,Canada,Quebec,,
51.161.73.177,4,10,yourway.store,CA,Americas,Northern America,Canada,Quebec,,Montreal
167.114.209.72,4,1,ytcvn.com,CA,Americas,Northern America,Canada,Quebec,,Montreal
142.44.246.189,4,3,yteservice.no,CA,Americas,Northern America,Canada,Quebec,,
51.222.200.79,4,0,yukonenergy.ca,CA,Americas,Northern America,Canada,Quebec,,
192.81.170.17,4,0,ywnews.com.tw,CA,Americas,Northern America,Canada,Quebec,,Montreal
167.114.116.238,4,13,zacbrowser.com,CA,Americas,Northern America,Canada,Quebec,,Montreal
158.69.118.193,4,41,zag.com,CA,Americas,Northern America,Canada,Quebec,,Montreal
192.81.168.81,4,23,ze.com,CA,Americas,Northern America,Canada,Quebec,,Montreal
142.44.144.147,4,13,zeboats.com,CA,Americas,Northern America,Canada,Quebec,,
142.44.144.225,4,4,zemotor.com,CA,Americas,Northern America,Canada,Quebec,,
158.69.119.123,4,9,zetatijuana.com,CA,Americas,Northern America,Canada,Quebec,,Montreal
149.56.249.187,4,834,zimjs.com,CA,Americas,Northern America,Canada,Quebec,,Montreal
198.27.88.204,4,3,ziplist.com,CA,Americas,Northern America,Canada,Quebec,,Montreal
174.142.230.74,4,102,zpag.net,CA,Americas,Northern America,Canada,Quebec,,Westmount
167.114.156.72,4,0,zsnes.com,CA,Americas,Northern America,Canada,Quebec,,Montreal
