reflector_ip,ip_version,offset,description,country_code,region,sub_region,country_name,sub_division_1,sub_division_2,city
194.146.24.196,4,28,angband.live,GB,Europe,Northern Europe,United Kingdom,England,Tower Hamlets,Canary Wharf
89.187.167.238,4,12,champdogs.co.uk,GB,Europe,Northern Europe,United Kingdom,England,Tower Hamlets,Canary Wharf
95.168.184.184,4,29,companydatashop.com,GB,Europe,Northern Europe,United Kingdom,England,Tower Hamlets,Canary Wharf
212.69.36.144,4,22,fast-rewind.com,GB,Europe,Northern Europe,United Kingdom,England,Tower Hamlets,Canary Wharf
103.105.50.114,4,11,firegirls.co.il,GB,Europe,Northern Europe,United Kingdom,England,Tower Hamlets,Canary Wharf
212.69.40.200,4,2,footballsquads.co.uk,GB,Europe,Northern Europe,United Kingdom,England,Tower Hamlets,Canary Wharf
185.164.136.179,4,22,frenchcarforum.co.uk,GB,Europe,Northern Europe,United Kingdom,England,Tower Hamlets,Canary Wharf
94.229.76.211,4,-437,gogartys.ie,GB,Europe,Northern Europe,United Kingdom,England,Tower Hamlets,Canary Wharf
89.238.176.195,4,3,gonegold.com,GB,Europe,Northern Europe,United Kingdom,England,Tower Hamlets,Canary Wharf
212.69.36.50,4,3,idnet.com,GB,Europe,Northern Europe,United Kingdom,England,Tower Hamlets,Canary Wharf
193.9.113.199,4,38,image-perth.org,GB,Europe,Northern Europe,United Kingdom,England,Tower Hamlets,Canary Wharf
141.98.100.36,4,18,incrysis.com,GB,Europe,Northern Europe,United Kingdom,England,Tower Hamlets,Canary Wharf
193.9.113.233,4,4,kccommunitynews.com,GB,Europe,Northern Europe,United Kingdom,England,Tower Hamlets,Canary Wharf
213.255.246.31,4,11,night.dog,GB,Europe,Northern Europe,United Kingdom,England,Tower Hamlets,Canary Wharf
185.30.233.241,4,4,nyweedlove.com,GB,Europe,Northern Europe,United Kingdom,England,Tower Hamlets,Canary Wharf
212.82.94.119,4,223,Ookla Speedtest Server 46783: speedtest-london.its-tg.net,GB,Europe,Northern Europe,United Kingdom,England,Tower Hamlets,Canary Wharf
212.69.36.27,4,336,Ookla Speedtest Server 48505: ookla.idnet.net,GB,Europe,Northern Europe,United Kingdom,England,Tower Hamlets,Canary Wharf
46.227.207.14,4,369,Ookla Speedtest Server 59128: ixn.lon.uk.speedtest.faelix.net,GB,Europe,Northern Europe,United Kingdom,England,Tower Hamlets,Canary Wharf
185.245.83.196,4,30,portobelloroad.co.uk,GB,Europe,Northern Europe,United Kingdom,England,Tower Hamlets,Canary Wharf
213.255.246.98,4,46,realmuscleforum.com,GB,Europe,Northern Europe,United Kingdom,England,Tower Hamlets,Canary Wharf
213.255.246.173,4,30,retrobike.co.uk,GB,Europe,Northern Europe,United Kingdom,England,Tower Hamlets,Canary Wharf
185.245.83.125,4,1,rivmedia.co.uk,GB,Europe,Northern Europe,United Kingdom,England,Tower Hamlets,Canary Wharf
185.198.188.191,4,747,scottcinemas.co.uk,GB,Europe,Northern Europe,United Kingdom,England,Tower Hamlets,Canary Wharf
185.212.168.37,4,10,smokinaces.net,GB,Europe,Northern Europe,United Kingdom,England,Tower Hamlets,Canary Wharf
185.42.222.171,4,27,thecinemalaser.com,GB,Europe,Northern Europe,United Kingdom,England,Tower Hamlets,Canary Wharf
185.42.222.172,4,2,thecinemalaser.com,GB,Europe,Northern Europe,United Kingdom,England,Tower Hamlets,Canary Wharf
94.229.73.130,4,10,tunes-interiors.com,GB,Europe,Northern Europe,United Kingdom,England,Tower Hamlets,Canary Wharf
185.127.16.115,4,633,unmillenniumproject.org,GB,Europe,Northern Europe,United Kingdom,England,Tower Hamlets,Canary Wharf
213.255.246.100,4,2,vwcaliforniaclub.com,GB,Europe,Northern Europe,United Kingdom,England,Tower Hamlets,Canary Wharf
217.138.195.83,4,6,witopia.com,GB,Europe,Northern Europe,United Kingdom,England,Tower Hamlets,Canary Wharf
185.237.13.238,4,2,zimamagazine.com,GB,Europe,Northern Europe,United Kingdom,England,Tower Hamlets,Canary Wharf
