reflector_ip,ip_version,offset,description,country_code,region,sub_region,country_name,sub_division_1,sub_division_2,city
45.32.179.232,4,5,accessplace.com,GB,Europe,Northern Europe,United Kingdom,England,Tower Hamlets,Whitechapel
192.248.156.38,4,10,appetitecreative.com,GB,Europe,Northern Europe,United Kingdom,England,Tower Hamlets,Whitechapel
108.61.174.244,4,3,bizwiki.co.uk,GB,Europe,Northern Europe,United Kingdom,England,Tower Hamlets,Whitechapel
78.141.240.254,4,8,brendansadventures.com,GB,Europe,Northern Europe,United Kingdom,England,Tower Hamlets,Whitechapel
209.250.231.50,4,84,computationalculture.net,GB,Europe,Northern Europe,United Kingdom,England,Tower Hamlets,Whitechapel
78.141.243.121,4,53,DNS Server: 78.141.243.121.vultrusercontent.com,GB,Europe,Northern Europe,United Kingdom,England,Tower Hamlets,Whitechapel
95.179.193.65,4,5,DNS Server: 95.179.193.65.vultrusercontent.com,GB,Europe,Northern Europe,United Kingdom,England,Tower Hamlets,Whitechapel
104.238.172.38,4,84,ekips.co.uk,GB,Europe,Northern Europe,United Kingdom,England,Tower Hamlets,Whitechapel
192.248.172.128,4,80,eurydice.org,GB,Europe,Northern Europe,United Kingdom,England,Tower Hamlets,Whitechapel
45.76.139.61,4,12,exclusive-networks.com,GB,Europe,Northern Europe,United Kingdom,England,Tower Hamlets,Whitechapel
45.77.59.245,4,39,fighterjetsworld.com,GB,Europe,Northern Europe,United Kingdom,England,Tower Hamlets,Whitechapel
209.250.226.140,4,14,for-robots.com,GB,Europe,Northern Europe,United Kingdom,England,Tower Hamlets,Whitechapel
209.250.226.118,4,1,fussballtransfers.com,GB,Europe,Northern Europe,United Kingdom,England,Tower Hamlets,Whitechapel
104.238.174.70,4,4,gosvopros.ru,GB,Europe,Northern Europe,United Kingdom,England,Tower Hamlets,Whitechapel
78.141.196.212,4,33,homehow.co.uk,GB,Europe,Northern Europe,United Kingdom,England,Tower Hamlets,Whitechapel
104.238.184.249,4,73,inasp.info,GB,Europe,Northern Europe,United Kingdom,England,Tower Hamlets,Whitechapel
95.179.207.208,4,3,inthenews.co.uk,GB,Europe,Northern Europe,United Kingdom,England,Tower Hamlets,Whitechapel
192.248.175.132,4,32,isotonikstudios.com,GB,Europe,Northern Europe,United Kingdom,England,Tower Hamlets,Whitechapel
95.179.200.247,4,-103,lemmy.studio,GB,Europe,Northern Europe,United Kingdom,England,Tower Hamlets,Whitechapel
192.248.156.195,4,9,liamyoung.org,GB,Europe,Northern Europe,United Kingdom,England,Tower Hamlets,Whitechapel
45.76.143.90,4,5,livingreading.co.uk,GB,Europe,Northern Europe,United Kingdom,England,Tower Hamlets,Whitechapel
78.141.201.202,4,4,lnreview.co.uk,GB,Europe,Northern Europe,United Kingdom,England,Tower Hamlets,Whitechapel
45.77.58.123,4,222,muscletalk.co.uk,GB,Europe,Northern Europe,United Kingdom,England,Tower Hamlets,Whitechapel
104.238.173.176,4,30,myfreeoffice.com,GB,Europe,Northern Europe,United Kingdom,England,Tower Hamlets,Whitechapel
95.179.199.157,4,17,mythindex.com,GB,Europe,Northern Europe,United Kingdom,England,Tower Hamlets,Whitechapel
45.76.129.44,4,6,nextag.co.uk,GB,Europe,Northern Europe,United Kingdom,England,Tower Hamlets,Whitechapel
45.77.231.154,4,5,oldpulteney.com,GB,Europe,Northern Europe,United Kingdom,England,Tower Hamlets,Whitechapel
45.76.142.15,4,3,orlan.net,GB,Europe,Northern Europe,United Kingdom,England,Tower Hamlets,Whitechapel
136.244.77.252,4,25,oxfordanimalethics.com,GB,Europe,Northern Europe,United Kingdom,England,Tower Hamlets,Whitechapel
45.32.176.201,4,27,peelhotels.co.uk,GB,Europe,Northern Europe,United Kingdom,England,Tower Hamlets,Whitechapel
192.248.162.241,4,43,pickmypostcode.com,GB,Europe,Northern Europe,United Kingdom,England,Tower Hamlets,Whitechapel
192.248.161.208,4,30,redaragon.com,GB,Europe,Northern Europe,United Kingdom,England,Tower Hamlets,Whitechapel
192.248.175.241,4,11,rezervasyonal.com,GB,Europe,Northern Europe,United Kingdom,England,Tower Hamlets,Whitechapel
45.77.89.224,4,59,starkmedmotion.se,GB,Europe,Northern Europe,United Kingdom,England,Tower Hamlets,Whitechapel
78.141.233.10,4,50536,torresjrjr.com,GB,Europe,Northern Europe,United Kingdom,England,Tower Hamlets,Whitechapel
209.250.228.113,4,36,travellerrpg.com,GB,Europe,Northern Europe,United Kingdom,England,Tower Hamlets,Whitechapel
45.32.179.19,4,3,tseliot.com,GB,Europe,Northern Europe,United Kingdom,England,Tower Hamlets,Whitechapel
78.141.226.157,4,21,usdnaira.com,GB,Europe,Northern Europe,United Kingdom,England,Tower Hamlets,Whitechapel
104.238.184.244,4,19,vholdr.com,GB,Europe,Northern Europe,United Kingdom,England,Tower Hamlets,Whitechapel
45.77.227.62,4,52,webb-handel.se,GB,Europe,Northern Europe,United Kingdom,England,Tower Hamlets,Whitechapel
192.248.173.67,4,46,website.review,GB,Europe,Northern Europe,United Kingdom,England,Tower Hamlets,Whitechapel
95.179.206.236,4,79,xn--hobbyhjlp-12a.se,GB,Europe,Northern Europe,United Kingdom,England,Tower Hamlets,Whitechapel
45.76.130.62,4,4,xn--nyhedsvrdi-j6a.dk,GB,Europe,Northern Europe,United Kingdom,England,Tower Hamlets,Whitechapel
209.250.224.135,4,3,xn--upplevelserfralla-b0b.se,GB,Europe,Northern Europe,United Kingdom,England,Tower Hamlets,Whitechapel
78.141.229.29,4,52,zagdaily.com,GB,Europe,Northern Europe,United Kingdom,England,Tower Hamlets,Whitechapel
192.248.156.201,4,10,zebrabi.com,GB,Europe,Northern Europe,United Kingdom,England,Tower Hamlets,Whitechapel
45.32.183.112,4,5,zebrabi.com,GB,Europe,Northern Europe,United Kingdom,England,Tower Hamlets,Whitechapel
95.179.193.19,4,9,zeissopticians.co.uk,GB,Europe,Northern Europe,United Kingdom,England,Tower Hamlets,Whitechapel
