reflector_ip,ip_version,offset,description,country_code,region,sub_region,country_name,sub_division_1,sub_division_2,city
51.38.169.100,4,5,amarehotels.com,ES,Europe,Southern Europe,Spain,Galicia,Lugo,Lugo
51.210.207.118,4,6,aprenderfotografia.online,ES,Europe,Southern Europe,Spain,Galicia,Lugo,Lugo
51.254.23.71,4,24,autismo.org.es,ES,Europe,Southern Europe,Spain,Galicia,Lugo,Lugo
79.137.45.1,4,5,ayudaleyprotecciondatos.es,ES,Europe,Southern Europe,Spain,Galicia,Lugo,Lugo
178.60.29.64,4,365436,blogdefarmacia.com,ES,Europe,Southern Europe,Spain,Galicia,Pontevedra,Vigo
178.32.226.81,4,5,catlike.es,ES,Europe,Southern Europe,Spain,Galicia,Lugo,Lugo
178.60.29.107,4,394428,cgcop.es,ES,Europe,Southern Europe,Spain,Galicia,Pontevedra,Vigo
51.75.233.73,4,13,ciclo21.com,ES,Europe,Southern Europe,Spain,Galicia,Lugo,Lugo
51.38.169.87,4,5,cise.es,ES,Europe,Southern Europe,Spain,Galicia,Lugo,Lugo
54.37.168.114,4,19,clinicaferrusbratos.com,ES,Europe,Southern Europe,Spain,Galicia,Lugo,Lugo
51.255.151.87,4,11,clinicamenorca.com,ES,Europe,Southern Europe,Spain,Galicia,Lugo,Lugo
193.144.42.56,4,9,culturagalega.gal,ES,Europe,Southern Europe,Spain,Galicia,A Coruña,Teo
178.32.28.37,4,54,curiosfera-historia.com,ES,Europe,Southern Europe,Spain,Galicia,Lugo,Lugo
5.196.170.81,4,4,democraciarealya.es,ES,Europe,Southern Europe,Spain,Galicia,Lugo,Lugo
141.94.57.155,4,5,dgmingenieria.es,ES,Europe,Southern Europe,Spain,Galicia,Lugo,Lugo
51.75.233.83,4,5,digitaldeleon.com,ES,Europe,Southern Europe,Spain,Galicia,Lugo,Lugo
178.60.25.141,4,8040,DNS Server: 141.25.60.178.unassigned.reverse-mundo-r.com,ES,Europe,Southern Europe,Spain,Galicia,Pontevedra,Vigo
37.13.100.49,4,-294,DNS Server: 49.red-37-13-100.dynamicip.rima-tde.net,ES,Europe,Southern Europe,Spain,Galicia,A Coruña,Noia
77.26.5.87,4,7,DNS Server: 87.5.26.77.dynamic.reverse-mundo-r.com,ES,Europe,Southern Europe,Spain,Galicia,A Coruña,A Coruña
77.26.214.15,4,35021,DNS Server: asaingenieros.es,ES,Europe,Southern Europe,Spain,Galicia,Pontevedra,Vigo
51.75.233.98,4,7,educalingo.com,ES,Europe,Southern Europe,Spain,Galicia,Lugo,Lugo
5.196.239.38,4,123,elapuron.com,ES,Europe,Southern Europe,Spain,Galicia,Lugo,Lugo
51.255.120.213,4,156,elcosmonauta.es,ES,Europe,Southern Europe,Spain,Galicia,Lugo,Lugo
51.38.169.95,4,343,euroresidentes.es,ES,Europe,Southern Europe,Spain,Galicia,Lugo,Lugo
51.210.87.162,4,19,fly-news.es,ES,Europe,Southern Europe,Spain,Galicia,Lugo,Lugo
176.58.10.208,4,35285,fomentosansebastian.eus,ES,Europe,Southern Europe,Spain,Galicia,A Coruña,A Coruña
5.39.109.133,4,3,formaciononline.eu,ES,Europe,Southern Europe,Spain,Galicia,Lugo,Lugo
147.135.225.234,4,3,fuertehoteles.com,ES,Europe,Southern Europe,Spain,Galicia,Lugo,Lugo
51.254.23.70,4,32,game-learn.com,ES,Europe,Southern Europe,Spain,Galicia,Lugo,Lugo
51.75.233.104,4,6,growbarato.net,ES,Europe,Southern Europe,Spain,Galicia,Lugo,Lugo
51.210.207.94,4,5,iepp.es,ES,Europe,Southern Europe,Spain,Galicia,Lugo,Lugo
54.37.168.193,4,74,internetrepublica.com,ES,Europe,Southern Europe,Spain,Galicia,Lugo,Lugo
176.58.9.126,4,360,ithotelero.com,ES,Europe,Southern Europe,Spain,Galicia,A Coruña,A Coruña
5.135.120.106,4,2,josefacchin.com,ES,Europe,Southern Europe,Spain,Galicia,Lugo,Lugo
5.196.170.84,4,6,juancmejia.com,ES,Europe,Southern Europe,Spain,Galicia,Lugo,Lugo
51.210.207.87,4,76,lacastafiore.es,ES,Europe,Southern Europe,Spain,Galicia,Lugo,Lugo
51.75.233.71,4,5,lapreferente.com,ES,Europe,Southern Europe,Spain,Galicia,Lugo,Lugo
51.254.23.88,4,38,librosdelzorrorojo.com,ES,Europe,Southern Europe,Spain,Galicia,Lugo,Lugo
51.38.169.80,4,143,makutizanzibar.com,ES,Europe,Southern Europe,Spain,Galicia,Lugo,Lugo
176.58.8.119,4,1129,mardeons.es,ES,Europe,Southern Europe,Spain,Galicia,A Coruña,A Coruña
5.39.16.169,4,7,marko.net,ES,Europe,Southern Europe,Spain,Galicia,Lugo,Lugo
147.135.147.130,4,61,massresources.org,ES,Europe,Southern Europe,Spain,Galicia,Lugo,Lugo
151.80.177.219,4,22,migualdad.es,ES,Europe,Southern Europe,Spain,Galicia,Lugo,Lugo
91.117.125.200,4,10,monbus.es,ES,Europe,Southern Europe,Spain,Galicia,A Coruña,Santa Uxía de Ribeira
178.32.150.211,4,6,n-t.org,ES,Europe,Southern Europe,Spain,Galicia,Lugo,Lugo
213.60.254.217,4,46,parador.es,ES,Europe,Southern Europe,Spain,Galicia,Ourense,Vilariño
54.37.168.24,4,7,plataformasinc.es,ES,Europe,Southern Europe,Spain,Galicia,Lugo,Lugo
51.210.207.103,4,13,pre-textos.com,ES,Europe,Southern Europe,Spain,Galicia,Lugo,Lugo
37.59.246.201,4,25,quescrem.es,ES,Europe,Southern Europe,Spain,Galicia,Lugo,Lugo
54.37.168.127,4,4,recetasdeescandalo.com,ES,Europe,Southern Europe,Spain,Galicia,Lugo,Lugo
176.58.12.112,4,1105,robertoverino.com,ES,Europe,Southern Europe,Spain,Galicia,A Coruña,A Coruña
51.210.164.149,4,24,rosagres.com,ES,Europe,Southern Europe,Spain,Galicia,Lugo,Lugo
51.210.87.131,4,4,sansebastianturismoa.eus,ES,Europe,Southern Europe,Spain,Galicia,Lugo,Lugo
213.32.58.27,4,6,siliconnews.es,ES,Europe,Southern Europe,Spain,Galicia,Lugo,Lugo
193.147.87.25,4,5,sing-group.org,ES,Europe,Southern Europe,Spain,Galicia,Pontevedra,Vigo
149.202.12.71,4,38,socialancer.com,ES,Europe,Southern Europe,Spain,Galicia,Lugo,Lugo
54.36.248.140,4,60,sportec.es,ES,Europe,Southern Europe,Spain,Galicia,Lugo,Lugo
51.75.233.110,4,8,sup.es,ES,Europe,Southern Europe,Spain,Galicia,Lugo,Lugo
51.38.169.115,4,33,supercurioso.com,ES,Europe,Southern Europe,Spain,Galicia,Lugo,Lugo
178.60.29.219,4,130437,suplments.com,ES,Europe,Southern Europe,Spain,Galicia,Pontevedra,Vigo
5.196.239.36,4,8,taiarts.com,ES,Europe,Southern Europe,Spain,Galicia,Lugo,Lugo
213.32.58.41,4,10,thepowermba.com,ES,Europe,Southern Europe,Spain,Galicia,Lugo,Lugo
51.75.233.97,4,11,tides4fishing.com,ES,Europe,Southern Europe,Spain,Galicia,Lugo,Lugo
146.59.171.107,4,77,topciment.com,ES,Europe,Southern Europe,Spain,Galicia,Lugo,Lugo
149.202.106.53,4,3,trap.it,ES,Europe,Southern Europe,Spain,Galicia,Lugo,Lugo
147.135.161.74,4,802,unionespanola.cl,ES,Europe,Southern Europe,Spain,Galicia,Lugo,Lugo
193.146.32.200,4,5,uvigo.es,ES,Europe,Southern Europe,Spain,Galicia,Pontevedra,Vigo
