reflector_ip,ip_version,offset,description,country_code,region,sub_region,country_name,sub_division_1,sub_division_2,city
88.148.3.209,4,4,agustinoszaragoza.com,ES,Europe,Southern Europe,Spain,Andalusia,Almeria,El Pilar
213.227.44.40,4,20,albalearning.com,ES,Europe,Southern Europe,Spain,Andalusia,Huelva,La Antilla
185.92.244.178,4,52,andaluciarustica.com,ES,Europe,Southern Europe,Spain,Andalusia,Almeria,Almería
150.214.104.61,4,54,arqus-alliance.eu,ES,Europe,Southern Europe,Spain,Andalusia,Jaen,Jaén
5.135.40.73,4,-160,atalaya-golf.com,ES,Europe,Southern Europe,Spain,Andalusia,Granada,Granada
195.248.231.74,4,63,carmenthyssenmalaga.org,ES,Europe,Southern Europe,Spain,Andalusia,Malaga,Málaga
95.60.250.151,4,-14634,cixug.es,ES,Europe,Southern Europe,Spain,Andalusia,Seville,Seville
5.135.40.74,4,-115,clubdegolfaloha.com,ES,Europe,Southern Europe,Spain,Andalusia,Granada,Granada
195.248.230.149,4,20,cudeca.org,ES,Europe,Southern Europe,Spain,Andalusia,Malaga,Málaga
5.135.40.23,4,26,curiosoando.com,ES,Europe,Southern Europe,Spain,Andalusia,Granada,Granada
195.78.228.88,4,-641,dailygames.com,ES,Europe,Southern Europe,Spain,Andalusia,Seville,Seville
195.248.230.141,4,45,digitales.es,ES,Europe,Southern Europe,Spain,Andalusia,Malaga,Málaga
5.83.75.10,4,12,DNS Server: 10-75-83-5-red-servicios.onlycable.es,ES,Europe,Southern Europe,Spain,Andalusia,Seville,Osuna
85.62.132.100,4,69,DNS Server: 100.pool85-62-132.dynamic.orange.es,ES,Europe,Southern Europe,Spain,Andalusia,Granada,Granada
5.83.75.137,4,6,DNS Server: 137-75-83-5-red-servicios.onlycable.es,ES,Europe,Southern Europe,Spain,Andalusia,Seville,Osuna
46.37.64.143,4,-10594990,DNS Server: 143.red.64.37.46.procono.es,ES,Europe,Southern Europe,Spain,Andalusia,Malaga,Málaga
85.54.189.149,4,946,DNS Server: 149.pool85-54-189.dynamic.orange.es,ES,Europe,Southern Europe,Spain,Andalusia,Jaen,Guarromán
2.140.161.158,4,-211,DNS Server: 158.red-2-140-161.dynamicip.rima-tde.net,ES,Europe,Southern Europe,Spain,Andalusia,Cadiz,Grazalema
92.186.209.183,4,-5343651,DNS Server: 183.pool92-186-209.dynamic.orange.es,ES,Europe,Southern Europe,Spain,Andalusia,Seville,Brenes
84.79.235.2,4,-1540433,DNS Server: 2.pool84-79-235.dynamic.orange.es,ES,Europe,Southern Europe,Spain,Andalusia,Seville,Seville
5.83.92.254,4,80,DNS Server: 254-92-83-5-red-servicios.onlycable.es,ES,Europe,Southern Europe,Spain,Andalusia,Seville,La Puebla de Cazalla
84.78.176.47,4,30300340,DNS Server: 47.pool84-78-176.dynamic.orange.es,ES,Europe,Southern Europe,Spain,Andalusia,Cordoba,Córdoba
5.134.36.15,4,145,DNS Server: 5-134-43-15.ipdinamica.dinfotec.com,ES,Europe,Southern Europe,Spain,Andalusia,Jaen,Alcalá la Real
85.62.158.60,4,5,DNS Server: 60.pool85-62-158.dynamic.orange.es,ES,Europe,Southern Europe,Spain,Andalusia,Seville,Guadalcanal
212.225.218.80,4,-1230,DNS Server: 80.red.218.225.212.procono.es,ES,Europe,Southern Europe,Spain,Andalusia,Malaga,Málaga
84.124.45.207,4,62,DNS Server: 84.124.45.207.static.user.ono.com,ES,Europe,Southern Europe,Spain,Andalusia,Almeria,Adra
80.103.33.94,4,-39,DNS Server: 94.pool80-103-33.dynamic.orange.es,ES,Europe,Southern Europe,Spain,Andalusia,Cadiz,Arcos de la Frontera
77.241.112.23,4,5,DNS Server: dns1.epresaenergia.es,ES,Europe,Southern Europe,Spain,Andalusia,Cadiz,Puerto Real
77.241.112.24,4,7,DNS Server: dns2.epresaenergia.es,ES,Europe,Southern Europe,Spain,Andalusia,Cadiz,Puerto Real
46.27.132.14,4,-2497707642,elbaixllobregat.cat,ES,Europe,Southern Europe,Spain,Andalusia,Malaga,Málaga
195.78.228.226,4,22,elotrolado.net,ES,Europe,Southern Europe,Spain,Andalusia,Seville,Seville
5.135.40.102,4,790,formentera.es,ES,Europe,Southern Europe,Spain,Andalusia,Granada,Granada
150.214.1.36,4,10,fundaciondescubre.es,ES,Europe,Southern Europe,Spain,Andalusia,Seville,Seville
195.248.231.166,4,26,giochipreziosi.it,ES,Europe,Southern Europe,Spain,Andalusia,Malaga,Málaga
5.135.40.51,4,-56,golfsotogrande.com,ES,Europe,Southern Europe,Spain,Andalusia,Granada,Granada
195.248.230.230,4,35,horajaen.com,ES,Europe,Southern Europe,Spain,Andalusia,Malaga,Málaga
89.140.230.74,4,-3852,imedhospitales.com,ES,Europe,Southern Europe,Spain,Andalusia,Granada,Granada
84.232.101.7,4,-71358,inclass.es,ES,Europe,Southern Europe,Spain,Andalusia,Cordoba,Montoro
217.61.143.49,4,9,lustau.es,ES,Europe,Southern Europe,Spain,Andalusia,Seville,Seville
93.114.159.254,4,366,Ookla Speedtest Server 6903: test1.velocable.com,ES,Europe,Southern Europe,Spain,Andalusia,Malaga,Málaga
185.118.189.26,4,391,Ookla Speedtest Server 14616: stwibermad.mismenet.net,ES,Europe,Southern Europe,Spain,Andalusia,Granada,Granada
185.205.252.30,4,105473,Ookla Speedtest Server 19125: speedtest.fion.es,ES,Europe,Southern Europe,Spain,Andalusia,Malaga,Casarabonela
212.230.175.202,4,99394,Ookla Speedtest Server 21378: speedtest-mad.masmovil.com,ES,Europe,Southern Europe,Spain,Andalusia,Malaga,Málaga
212.230.175.203,4,-1545117,Ookla Speedtest Server 21516: speedtest-bcn.masmovil.com,ES,Europe,Southern Europe,Spain,Andalusia,Malaga,Málaga
77.81.115.252,4,451,Ookla Speedtest Server 35992: speedtest.differnet.es,ES,Europe,Southern Europe,Spain,Andalusia,Seville,Seville
45.15.117.127,4,254,Ookla Speedtest Server 45317: speedtest.beconet.es,ES,Europe,Southern Europe,Spain,Andalusia,Cordoba,Bujalance
185.228.126.12,4,-885417,Ookla Speedtest Server 56355: speedtest.excom.net,ES,Europe,Southern Europe,Spain,Andalusia,Cadiz,Olvera
185.49.170.126,4,283,Ookla Speedtest Server 63147: ookla.olin.es,ES,Europe,Southern Europe,Spain,Andalusia,Malaga,Marbella
185.219.120.7,4,215,Ookla Speedtest Server: speedtest.fibra-amg.com,ES,Europe,Southern Europe,Spain,Andalusia,Granada,Granada
185.118.188.97,4,27494,Ookla Speedtest Server: speedtest.mismenet.net,ES,Europe,Southern Europe,Spain,Andalusia,Granada,Híjar
54.38.30.72,4,16,parquenacionalsierraguadarrama.es,ES,Europe,Southern Europe,Spain,Andalusia,Granada,Granada
185.92.244.76,4,14,representacionesluislopez.com,ES,Europe,Southern Europe,Spain,Andalusia,Almeria,Almería
185.92.245.252,4,3,tlaxcala.es,ES,Europe,Southern Europe,Spain,Andalusia,Almeria,Almería
89.6.107.233,4,13,torrecid.com,ES,Europe,Southern Europe,Spain,Andalusia,Cordoba,Cabra
5.135.93.116,4,3164,trianarts.com,ES,Europe,Southern Europe,Spain,Andalusia,Granada,Granada
150.214.80.210,4,5,uca.es,ES,Europe,Southern Europe,Spain,Andalusia,Seville,Tomares
150.214.110.212,4,16,uco.es,ES,Europe,Southern Europe,Spain,Andalusia,Jaen,Jaén
194.15.236.231,4,9841,uninoovo.com,ES,Europe,Southern Europe,Spain,Andalusia,Granada,Motril
5.135.40.72,4,1253,valderrama.com,ES,Europe,Southern Europe,Spain,Andalusia,Granada,Granada
185.118.190.159,4,-36119,valencianoticias.com,ES,Europe,Southern Europe,Spain,Andalusia,Granada,Granada
54.37.116.112,4,80,voluntaris.cat,ES,Europe,Southern Europe,Spain,Andalusia,Granada,Granada
