reflector_ip,ip_version,offset,description,country_code,region,sub_region,country_name,sub_division_1,sub_division_2,city
216.37.3.20,4,4,a-film.nl,US,Americas,Northern America,United States of America,Indiana,,Indianapolis
216.37.42.56,4,6,abcardio.org,US,Americas,Northern America,United States of America,Indiana,,Indianapolis
216.37.42.106,4,-1,adda.org,US,Americas,Northern America,United States of America,Indiana,,Indianapolis
216.37.42.210,4,-2,alienskin.com,US,Americas,Northern America,United States of America,Indiana,,Indianapolis
69.2.212.203,4,-2,aprivateisland.com,US,Americas,Northern America,United States of America,Indiana,,Jeffersonville
209.239.99.67,4,64,aristokraft.com,US,Americas,Northern America,United States of America,Indiana,,Santa Claus
72.12.205.194,4,9,basinc.com,US,Americas,Northern America,United States of America,Indiana,,West Lafayette
216.37.42.13,4,7,bristolbotanicals.co.uk,US,Americas,Northern America,United States of America,Indiana,,Indianapolis
68.233.44.144,4,7,brizsoft.com,US,Americas,Northern America,United States of America,Indiana,,South Bend
68.233.44.21,4,4,businessaddress.us,US,Americas,Northern America,United States of America,Indiana,,South Bend
216.37.42.159,4,-15,celebstoner.com,US,Americas,Northern America,United States of America,Indiana,,Indianapolis
216.37.42.30,4,3,centuryofaction.org,US,Americas,Northern America,United States of America,Indiana,,Indianapolis
128.210.142.81,4,24,chgk.info,US,Americas,Northern America,United States of America,Indiana,,Lafayette
209.43.58.200,4,2,corpuschristiairport.com,US,Americas,Northern America,United States of America,Indiana,,Westport
216.37.42.207,4,-1,cstsonline.org,US,Americas,Northern America,United States of America,Indiana,,Indianapolis
198.134.104.124,4,7,cyclone-hosting.net,US,Americas,Northern America,United States of America,Indiana,,Indianapolis
209.239.99.68,4,111,decoracabinets.com,US,Americas,Northern America,United States of America,Indiana,,Santa Claus
209.239.99.69,4,49,diamondcabinets.com,US,Americas,Northern America,United States of America,Indiana,,Santa Claus
50.90.174.76,4,-6164,DNS Server: 050-090-174-076.res.spectrum.com,US,Americas,Northern America,United States of America,Indiana,,Indianapolis
162.211.33.243,4,32,DNS Server: 1519516-c200-static.peruinaa.metronetinc.net,US,Americas,Northern America,United States of America,Indiana,,Peru
199.193.81.33,4,10,DNS Server: 199-193-81-33.cst.watchcomm.net,US,Americas,Northern America,United States of America,Indiana,,Wadesville
199.193.82.25,4,10,DNS Server: 199-193-82-25.cst.watchcomm.net,US,Americas,Northern America,United States of America,Indiana,,Wadesville
199.193.83.137,4,4,DNS Server: 199-193-83-137.cst.watchcomm.net,US,Americas,Northern America,United States of America,Indiana,,Wadesville
199.193.83.62,4,-26195289,DNS Server: 199-193-83-62.cst.watchcomm.net,US,Americas,Northern America,United States of America,Indiana,,Wadesville
70.88.70.1,4,60057,DNS Server: 70-88-70-1-BusName-speedway.in.hfc.comcastbusiness.net,US,Americas,Northern America,United States of America,Indiana,,Indianapolis
71.32.149.154,4,-6,DNS Server: 71-32-149-154.chyn.qwest.net,US,Americas,Northern America,United States of America,Indiana,,Plymouth
24.15.52.125,4,32,DNS Server: c-24-15-52-125.hsd1.in.comcast.net,US,Americas,Northern America,United States of America,Indiana,,Warsaw
68.39.209.26,4,15,DNS Server: c-68-39-209-26.hsd1.in.comcast.net,US,Americas,Northern America,United States of America,Indiana,,Kokomo
24.166.251.56,4,-14773,DNS Server: cpe-24-166-251-56.cinci.res.rr.com,US,Americas,Northern America,United States of America,Indiana,,New Albany
74.128.222.165,4,-27426397,DNS Server: cpe-74-128-222-165.kya.res.rr.com,US,Americas,Northern America,United States of America,Indiana,,Evansville
208.103.33.22,4,31963511,DNS Server: ip208-103-33-22.dyn.mintel.net,US,Americas,Northern America,United States of America,Indiana,,Mulberry
38.100.24.10,4,0,dvlabs.com,US,Americas,Northern America,United States of America,Indiana,,South Bend
66.244.119.114,4,24,elwoodstaffing.com,US,Americas,Northern America,United States of America,Indiana,,Bloomington
128.210.6.106,4,45,ersei.net,US,Americas,Northern America,United States of America,Indiana,,West Lafayette
216.37.42.155,4,311,experienceplus.com,US,Americas,Northern America,United States of America,Indiana,,Indianapolis
216.37.42.206,4,4,fundraisingcoach.com,US,Americas,Northern America,United States of America,Indiana,,Indianapolis
66.244.86.90,4,5,gsdi.org,US,Americas,Northern America,United States of America,Indiana,,Bloomington
216.37.42.139,4,13,healthandenvironment.org,US,Americas,Northern America,United States of America,Indiana,,Indianapolis
216.37.42.120,4,0,highwayconditions.com,US,Americas,Northern America,United States of America,Indiana,,Indianapolis
209.239.99.70,4,7,homecrestcabinetry.com,US,Americas,Northern America,United States of America,Indiana,,Santa Claus
128.210.6.102,4,6,iamincredibly.gay,US,Americas,Northern America,United States of America,Indiana,,West Lafayette
172.87.16.92,4,110,ibewlocal26.org,US,Americas,Northern America,United States of America,Indiana,,Franklin
216.37.42.214,4,51,inclusivedevelopment.net,US,Americas,Northern America,United States of America,Indiana,,Indianapolis
131.239.7.19,4,10,indyencyclopedia.org,US,Americas,Northern America,United States of America,Indiana,,Indianapolis
131.239.7.30,4,3,indypl.org,US,Americas,Northern America,United States of America,Indiana,,Indianapolis
206.80.104.134,4,8,jdsinc.net,US,Americas,Northern America,United States of America,Indiana,,Carmel
209.239.99.72,4,13,kitchencraft.com,US,Americas,Northern America,United States of America,Indiana,,Santa Claus
216.37.42.25,4,37,marciaconner.com,US,Americas,Northern America,United States of America,Indiana,,Indianapolis
216.37.42.10,4,55,markdroberts.com,US,Americas,Northern America,United States of America,Indiana,,Indianapolis
209.239.99.66,4,64,masterbrandcabinets.com,US,Americas,Northern America,United States of America,Indiana,,Santa Claus
216.37.42.239,4,15,maumee.org,US,Americas,Northern America,United States of America,Indiana,,Indianapolis
216.37.42.73,4,5,millinerandassoc.com,US,Americas,Northern America,United States of America,Indiana,,Indianapolis
198.134.109.146,4,2,mmcrabbits.com,US,Americas,Northern America,United States of America,Indiana,,Indianapolis
216.37.42.157,4,2,mpp.org,US,Americas,Northern America,United States of America,Indiana,,Indianapolis
216.37.42.203,4,0,nativeground.com,US,Americas,Northern America,United States of America,Indiana,,Indianapolis
216.176.133.5,4,3,netnitco.net,US,Americas,Northern America,United States of America,Indiana,,Hebron
216.37.42.18,4,-6,nicolelislab.net,US,Americas,Northern America,United States of America,Indiana,,Indianapolis
216.176.133.12,4,1,nitco.com,US,Americas,Northern America,United States of America,Indiana,,Hebron
168.215.194.138,4,10,nodwick.com,US,Americas,Northern America,United States of America,Indiana,,Indianapolis
216.37.42.46,4,6,notstarring.com,US,Americas,Northern America,United States of America,Indiana,,Indianapolis
66.244.86.120,4,2,ogc.org,US,Americas,Northern America,United States of America,Indiana,,Bloomington
209.239.99.73,4,-1,omegacabinetry.com,US,Americas,Northern America,United States of America,Indiana,,Santa Claus
69.174.148.182,4,307,Ookla Speedtest Server 12947: speedtest.oswgilaa.metronetinc.com,US,Americas,Northern America,United States of America,Indiana,,Connersville
192.198.62.126,4,269,Ookla Speedtest Server 21223: speedtest.sycmilaa.metronetinc.com,US,Americas,Northern America,United States of America,Indiana,,Seymour
209.141.96.11,4,331,Ookla Speedtest Server 63551: chi-speedtest.net.sangoma.net,US,Americas,Northern America,United States of America,Indiana,,Greenwood
64.112.232.10,4,131,Ookla Speedtest Server: myspeedtest.jacksonremc.com,US,Americas,Northern America,United States of America,Indiana,,Scottsburg
208.38.238.58,4,187,Ookla Speedtest Server: speedtest.lxtnkyaa.metronetinc.com,US,Americas,Northern America,United States of America,Indiana,,Vincennes
208.38.254.170,4,163,Ookla Speedtest Server: speedtest.rochmnaa.metronetinc.com,US,Americas,Northern America,United States of America,Indiana,,Monticello
136.228.67.22,4,36,Ookla Speedtest Server: speedtest.sciremc.com,US,Americas,Northern America,United States of America,Indiana,,Martinsville
216.49.101.122,4,136,Ookla Speedtest Server: speedtest2.psci.net,US,Americas,Northern America,United States of America,Indiana,,Tell City
192.24.80.230,4,6,Ookla Speedtest Server: vincennes1.cabospeed.com,US,Americas,Northern America,United States of America,Indiana,,Vincennes
66.244.86.70,4,1,opengis.net,US,Americas,Northern America,United States of America,Indiana,,Bloomington
216.37.42.35,4,-8,outbackphoto.com,US,Americas,Northern America,United States of America,Indiana,,Indianapolis
149.154.21.43,4,-5,outoforder.cc,US,Americas,Northern America,United States of America,Indiana,,Fishers
216.37.42.137,4,1,powertyping.com,US,Americas,Northern America,United States of America,Indiana,,Indianapolis
168.215.194.14,4,3,publicdomaintorrents.com,US,Americas,Northern America,United States of America,Indiana,,Indianapolis
216.37.42.20,4,72,saidthegramophone.com,US,Americas,Northern America,United States of America,Indiana,,Indianapolis
209.239.99.74,4,12,schrock.com,US,Americas,Northern America,United States of America,Indiana,,Santa Claus
216.37.42.75,4,14,sciflicks.com,US,Americas,Northern America,United States of America,Indiana,,Indianapolis
206.162.192.4,4,-386,seidata.com,US,Americas,Northern America,United States of America,Indiana,,Versailles
216.37.42.93,4,3,selricoservices.com,US,Americas,Northern America,United States of America,Indiana,,Indianapolis
128.135.164.125,4,40,smlnj.org,US,Americas,Northern America,United States of America,Indiana,,East Chicago
216.37.42.201,4,5,sparklehorse.com,US,Americas,Northern America,United States of America,Indiana,,Indianapolis
68.233.42.25,4,61,starsend.org,US,Americas,Northern America,United States of America,Indiana,,South Bend
216.37.42.143,4,27,stophazing.org,US,Americas,Northern America,United States of America,Indiana,,Indianapolis
68.233.44.102,4,8,tampapix.com,US,Americas,Northern America,United States of America,Indiana,,South Bend
216.37.42.48,4,62,telsoc.org,US,Americas,Northern America,United States of America,Indiana,,Indianapolis
69.2.200.133,4,2852,theanticraft.com,US,Americas,Northern America,United States of America,Indiana,,Jeffersonville
128.135.164.114,4,36,theoryofcomputing.org,US,Americas,Northern America,United States of America,Indiana,,East Chicago
216.37.42.192,4,3,thepharcyde.com,US,Americas,Northern America,United States of America,Indiana,,Indianapolis
173.237.235.102,4,8,ustriplenickel.com,US,Americas,Northern America,United States of America,Indiana,,Laconia
216.37.42.45,4,8,vendingconnection.com,US,Americas,Northern America,United States of America,Indiana,,Indianapolis
216.37.42.135,4,12,vicentesederberg.com,US,Americas,Northern America,United States of America,Indiana,,Indianapolis
216.37.42.100,4,2,victorianresearch.org,US,Americas,Northern America,United States of America,Indiana,,Indianapolis
205.137.32.35,4,4,vigoschools.org,US,Americas,Northern America,United States of America,Indiana,,Terre Haute
216.37.3.185,4,8,villman.com,US,Americas,Northern America,United States of America,Indiana,,Indianapolis
172.98.130.150,4,11,vyew.com,US,Americas,Northern America,United States of America,Indiana,,Indianapolis
69.174.135.78,4,2,walkingbytheway.com,US,Americas,Northern America,United States of America,Indiana,,Fishers
104.63.177.34,4,4,wbiw.com,US,Americas,Northern America,United States of America,Indiana,,Indianapolis
66.252.95.36,4,5,wcoil.com,US,Americas,Northern America,United States of America,Indiana,,Muncie
68.233.44.23,4,2,whichbudget.com,US,Americas,Northern America,United States of America,Indiana,,South Bend
195.252.201.30,4,6,xenforotorrenttracker.com,US,Americas,Northern America,United States of America,Indiana,,Greencastle
216.37.42.101,4,-3,xs11.com,US,Americas,Northern America,United States of America,Indiana,,Indianapolis
