reflector_ip,ip_version,offset,description,country_code,region,sub_region,country_name,sub_division_1,sub_division_2,city
192.252.151.31,4,10,aaert.org,US,Americas,Northern America,United States of America,Massachusetts,,Waltham
192.252.157.166,4,5,aafd.org,US,Americas,Northern America,United States of America,Massachusetts,,Waltham
192.252.148.139,4,11,aasbc.com,US,Americas,Northern America,United States of America,Massachusetts,,Waltham
93.127.217.25,4,15,aau.edu.jo,US,Americas,Northern America,United States of America,Massachusetts,,Boston
167.88.37.49,4,19,afrasiabanjum.com,US,Americas,Northern America,United States of America,Massachusetts,,Boston
192.252.149.32,4,5,aftersilence.org,US,Americas,Northern America,United States of America,Massachusetts,,Waltham
23.197.177.125,4,15,aircanada.ca,US,Americas,Northern America,United States of America,Massachusetts,,Billerica
217.15.171.119,4,5,alas-la.org,US,Americas,Northern America,United States of America,Massachusetts,,Boston
192.252.151.19,4,6,aleung.com,US,Americas,Northern America,United States of America,Massachusetts,,Waltham
192.252.156.13,4,29,alsd.com,US,Americas,Northern America,United States of America,Massachusetts,,Waltham
23.38.112.65,4,1,americanforcestravel.com,US,Americas,Northern America,United States of America,Massachusetts,,Boston
192.252.151.134,4,5,americanvisionwindows.com,US,Americas,Northern America,United States of America,Massachusetts,,Waltham
38.242.7.89,4,6,anticipationsf.ca,US,Americas,Northern America,United States of America,Massachusetts,,Boston
82.197.83.228,4,15,ardmoremusichall.com,US,Americas,Northern America,United States of America,Massachusetts,,Boston
192.252.152.109,4,80,armls.com,US,Americas,Northern America,United States of America,Massachusetts,,Waltham
82.197.86.179,4,3,arshavidya.org,US,Americas,Northern America,United States of America,Massachusetts,,Boston
192.252.144.58,4,14,arthawk.ws,US,Americas,Northern America,United States of America,Massachusetts,,Waltham
157.173.208.97,4,15,arusi.in,US,Americas,Northern America,United States of America,Massachusetts,,Boston
194.164.67.105,4,4,atinkanews.net,US,Americas,Northern America,United States of America,Massachusetts,,Boston
192.252.151.22,4,6,awareawakealive.org,US,Americas,Northern America,United States of America,Massachusetts,,Waltham
88.223.84.215,4,5,baseballloveclub.com,US,Americas,Northern America,United States of America,Massachusetts,,Boston
157.173.214.248,4,4,bayaninstitute.net,US,Americas,Northern America,United States of America,Massachusetts,,Boston
192.252.152.206,4,4,bbqchamps.com,US,Americas,Northern America,United States of America,Massachusetts,,Waltham
192.252.154.13,4,20,bealecorner.com,US,Americas,Northern America,United States of America,Massachusetts,,Waltham
147.79.76.11,4,3,beargrylls.com,US,Americas,Northern America,United States of America,Massachusetts,,Boston
192.252.144.26,4,72,beaverisland.org,US,Americas,Northern America,United States of America,Massachusetts,,Waltham
192.252.155.157,4,5,bluefront.org,US,Americas,Northern America,United States of America,Massachusetts,,Waltham
217.15.171.85,4,2,bmxbling.com,US,Americas,Northern America,United States of America,Massachusetts,,Boston
82.197.83.212,4,13,bombercommandmuseum.ca,US,Americas,Northern America,United States of America,Massachusetts,,Boston
82.197.80.78,4,8,boxofficetheory.com,US,Americas,Northern America,United States of America,Massachusetts,,Boston
192.252.151.35,4,6,broadrippleindy.org,US,Americas,Northern America,United States of America,Massachusetts,,Waltham
192.252.154.71,4,3,brokeinphilly.org,US,Americas,Northern America,United States of America,Massachusetts,,Waltham
192.252.154.149,4,11,bungyjapan.com,US,Americas,Northern America,United States of America,Massachusetts,,Waltham
157.173.209.43,4,35,business-today.net,US,Americas,Northern America,United States of America,Massachusetts,,Boston
82.197.83.59,4,3,buybabyjeeteronline.com,US,Americas,Northern America,United States of America,Massachusetts,,Boston
147.79.73.38,4,24,callmefred.com,US,Americas,Northern America,United States of America,Massachusetts,,Boston
192.252.156.29,4,42,capmktsreg.org,US,Americas,Northern America,United States of America,Massachusetts,,Waltham
157.173.209.61,4,5,capripackages.com.pk,US,Americas,Northern America,United States of America,Massachusetts,,Boston
192.252.149.37,4,8,captainforever.com,US,Americas,Northern America,United States of America,Massachusetts,,Waltham
192.252.144.52,4,16,carbonafrica.co.ke,US,Americas,Northern America,United States of America,Massachusetts,,Waltham
88.223.82.210,4,4,cdltmds.com,US,Americas,Northern America,United States of America,Massachusetts,,Boston
82.197.80.8,4,6,cenforce200.us,US,Americas,Northern America,United States of America,Massachusetts,,Boston
194.164.64.66,4,40,centsai.com,US,Americas,Northern America,United States of America,Massachusetts,,Boston
192.252.144.11,4,22,chestnutsquare.org,US,Americas,Northern America,United States of America,Massachusetts,,Waltham
192.252.154.247,4,3,childneurologysociety.org,US,Americas,Northern America,United States of America,Massachusetts,,Waltham
192.252.157.101,4,7,christiancounseling.com,US,Americas,Northern America,United States of America,Massachusetts,,Waltham
194.164.67.80,4,6,circeinstitute.org,US,Americas,Northern America,United States of America,Massachusetts,,Boston
157.173.214.87,4,5,clinicaveterinariakiron.com,US,Americas,Northern America,United States of America,Massachusetts,,Boston
192.252.144.18,4,32,cognilytica.com,US,Americas,Northern America,United States of America,Massachusetts,,Waltham
38.111.239.250,4,4,comfi.com,US,Americas,Northern America,United States of America,Massachusetts,,Marlborough
69.26.96.84,4,6,confex.com,US,Americas,Northern America,United States of America,Massachusetts,,Marlborough
192.252.144.17,4,9,conscienhealth.org,US,Americas,Northern America,United States of America,Massachusetts,,Waltham
157.173.209.210,4,3,coolnsmart.com,US,Americas,Northern America,United States of America,Massachusetts,,Boston
147.79.73.88,4,3,cppboxes.com,US,Americas,Northern America,United States of America,Massachusetts,,Boston
192.252.146.12,4,2,crescotimes.com,US,Americas,Northern America,United States of America,Massachusetts,,Waltham
192.252.144.34,4,4,crispywaffle.com,US,Americas,Northern America,United States of America,Massachusetts,,Waltham
157.173.208.73,4,5,cryptoshoppingstore.com,US,Americas,Northern America,United States of America,Massachusetts,,Boston
192.252.156.55,4,8,curtisinstruments.com,US,Americas,Northern America,United States of America,Massachusetts,,Waltham
192.252.149.25,4,7,designishistory.com,US,Americas,Northern America,United States of America,Massachusetts,,Waltham
88.223.84.50,4,4,diamondairbar.com,US,Americas,Northern America,United States of America,Massachusetts,,Boston
23.32.175.181,4,13,dni.gov,US,Americas,Northern America,United States of America,Massachusetts,,Boston
68.112.236.239,4,-878,DNS Server: 068-112-236-239.res.spectrum.com,US,Americas,Northern America,United States of America,Massachusetts,,Worcester
96.81.123.146,4,-2143065337,DNS Server: 96-81-123-146-static.hfc.comcastbusiness.net,US,Americas,Northern America,United States of America,Massachusetts,,Dorchester
96.81.125.57,4,47463,DNS Server: 96-81-125-57-static.hfc.comcastbusiness.net,US,Americas,Northern America,United States of America,Massachusetts,,Greenfield
50.170.46.89,4,49520,DNS Server: c-50-170-46-89.unallocated.comcastbusiness.net,US,Americas,Northern America,United States of America,Massachusetts,,Waltham
71.235.255.179,4,6,DNS Server: c-71-235-255-179.hsd1.ma.comcast.net,US,Americas,Northern America,United States of America,Massachusetts,,Boston
73.100.140.28,4,4,DNS Server: c-73-100-140-28.hsd1.ct.comcast.net,US,Americas,Northern America,United States of America,Massachusetts,,Springfield
73.100.141.121,4,3,DNS Server: c-73-100-141-121.hsd1.ct.comcast.net,US,Americas,Northern America,United States of America,Massachusetts,,Springfield
73.238.246.19,4,5,DNS Server: c-73-238-246-19.hsd1.nh.comcast.net,US,Americas,Northern America,United States of America,Massachusetts,,Amherst
76.118.41.47,4,5,DNS Server: c-76-118-41-47.hsd1.ma.comcast.net,US,Americas,Northern America,United States of America,Massachusetts,,Brookline
194.164.71.252,4,3,doctorpuff.com,US,Americas,Northern America,United States of America,Massachusetts,,Boston
192.252.156.16,4,5,dognews.com,US,Americas,Northern America,United States of America,Massachusetts,,Waltham
192.252.154.18,4,24,dralegal.org,US,Americas,Northern America,United States of America,Massachusetts,,Waltham
217.15.174.179,4,13,duino4projects.com,US,Americas,Northern America,United States of America,Massachusetts,,Boston
192.252.154.51,4,4,ecowavepower.com,US,Americas,Northern America,United States of America,Massachusetts,,Waltham
192.252.156.21,4,2,eddiestobart.com,US,Americas,Northern America,United States of America,Massachusetts,,Waltham
157.173.208.251,4,4,elitevitalitypills.com,US,Americas,Northern America,United States of America,Massachusetts,,Boston
192.252.144.193,4,6,empirecenter.org,US,Americas,Northern America,United States of America,Massachusetts,,Waltham
192.252.144.27,4,35,entropyhouse.com,US,Americas,Northern America,United States of America,Massachusetts,,Waltham
157.173.208.12,4,5,espotting.com,US,Americas,Northern America,United States of America,Massachusetts,,Boston
157.173.208.125,4,19,esquizofreniabrelaspuertas.com,US,Americas,Northern America,United States of America,Massachusetts,,Boston
192.252.157.137,4,2,europeactive.eu,US,Americas,Northern America,United States of America,Massachusetts,,Waltham
192.252.157.74,4,20,evidencebasedmentoring.org,US,Americas,Northern America,United States of America,Massachusetts,,Waltham
192.252.144.10,4,20,ey-photography.com,US,Americas,Northern America,United States of America,Massachusetts,,Waltham
194.164.71.131,4,4,ezrsgold.com,US,Americas,Northern America,United States of America,Massachusetts,,Boston
192.252.151.58,4,8,fabricalaaurora.com,US,Americas,Northern America,United States of America,Massachusetts,,Waltham
157.173.208.63,4,3,fact-files.com,US,Americas,Northern America,United States of America,Massachusetts,,Boston
167.88.37.34,4,4,fairobserver.com,US,Americas,Northern America,United States of America,Massachusetts,,Boston
192.252.144.12,4,4,farbs.org,US,Americas,Northern America,United States of America,Massachusetts,,Waltham
88.223.81.74,4,40,fashionotography.com,US,Americas,Northern America,United States of America,Massachusetts,,Boston
192.252.156.44,4,35,fatfreevegan.com,US,Americas,Northern America,United States of America,Massachusetts,,Waltham
192.252.147.41,4,4,featheredpipe.com,US,Americas,Northern America,United States of America,Massachusetts,,Waltham
157.173.215.247,4,20,filmifeed.com,US,Americas,Northern America,United States of America,Massachusetts,,Boston
88.223.80.64,4,4,finetoshine.com,US,Americas,Northern America,United States of America,Massachusetts,,Boston
157.173.208.205,4,13,fitbreathing.com,US,Americas,Northern America,United States of America,Massachusetts,,Boston
157.173.209.7,4,24,flaremagazine.co.uk,US,Americas,Northern America,United States of America,Massachusetts,,Boston
192.252.154.201,4,3,floridalegaladvice.com,US,Americas,Northern America,United States of America,Massachusetts,,Waltham
192.252.156.18,4,11,fogus.me,US,Americas,Northern America,United States of America,Massachusetts,,Waltham
192.252.144.37,4,56,foodallergyawareness.org,US,Americas,Northern America,United States of America,Massachusetts,,Waltham
192.252.146.55,4,13,foodelever.com,US,Americas,Northern America,United States of America,Massachusetts,,Waltham
192.252.151.29,4,19,foresthills.edu,US,Americas,Northern America,United States of America,Massachusetts,,Waltham
194.164.64.143,4,36,freightercruises.com,US,Americas,Northern America,United States of America,Massachusetts,,Boston
82.197.80.196,4,3,fryd2gramdisposable.com,US,Americas,Northern America,United States of America,Massachusetts,,Boston
82.197.85.6,4,19,funsivly.com,US,Americas,Northern America,United States of America,Massachusetts,,Boston
192.252.144.231,4,6,futurechurch.org,US,Americas,Northern America,United States of America,Massachusetts,,Waltham
157.173.214.65,4,15,gadsdenmessenger.com,US,Americas,Northern America,United States of America,Massachusetts,,Boston
194.164.64.124,4,12,gamesbad.com,US,Americas,Northern America,United States of America,Massachusetts,,Boston
192.252.154.117,4,15,gamil.com,US,Americas,Northern America,United States of America,Massachusetts,,Waltham
192.252.156.12,4,2,gcv.org,US,Americas,Northern America,United States of America,Massachusetts,,Waltham
192.252.149.33,4,71,geneyang.com,US,Americas,Northern America,United States of America,Massachusetts,,Waltham
82.197.80.85,4,20,glamorousfrenchbulldogs.com,US,Americas,Northern America,United States of America,Massachusetts,,Boston
147.79.73.104,4,26,greatlowcarb.com,US,Americas,Northern America,United States of America,Massachusetts,,Boston
50.239.52.65,4,22,grsecurity.net,US,Americas,Northern America,United States of America,Massachusetts,,Quincy
157.173.215.127,4,3,gtarestoration.com,US,Americas,Northern America,United States of America,Massachusetts,,Boston
88.223.83.250,4,3,gyrus.com,US,Americas,Northern America,United States of America,Massachusetts,,Boston
192.252.149.13,4,13,halexandria.org,US,Americas,Northern America,United States of America,Massachusetts,,Waltham
192.252.154.80,4,16,harrispizza.com,US,Americas,Northern America,United States of America,Massachusetts,,Waltham
192.252.146.25,4,10,harvesth2o.com,US,Americas,Northern America,United States of America,Massachusetts,,Waltham
88.223.85.119,4,22,hatsoffpet.shop,US,Americas,Northern America,United States of America,Massachusetts,,Boston
82.197.80.116,4,3,heartandsoulhomeschooling.com,US,Americas,Northern America,United States of America,Massachusetts,,Boston
192.252.148.233,4,17,hempbasics.com,US,Americas,Northern America,United States of America,Massachusetts,,Waltham
88.223.84.217,4,2,hempfoundation.net,US,Americas,Northern America,United States of America,Massachusetts,,Boston
192.252.146.30,4,12,hiatuskaiyote.com,US,Americas,Northern America,United States of America,Massachusetts,,Waltham
192.252.144.192,4,3,highlandcountypress.com,US,Americas,Northern America,United States of America,Massachusetts,,Waltham
69.166.9.169,4,1,hinghamanchor.com,US,Americas,Northern America,United States of America,Massachusetts,,Boston
82.197.80.190,4,40,homeseer.com,US,Americas,Northern America,United States of America,Massachusetts,,Boston
192.252.144.14,4,43,horse-races.net,US,Americas,Northern America,United States of America,Massachusetts,,Waltham
82.197.80.1,4,-2,howeleryoon.com,US,Americas,Northern America,United States of America,Massachusetts,,Boston
217.15.173.114,4,3,hoydiariodelmagdalena.com.co,US,Americas,Northern America,United States of America,Massachusetts,,Boston
18.27.196.16,4,3,hri.org,US,Americas,Northern America,United States of America,Massachusetts,,Cambridge
192.252.156.216,4,5,huayuqiao.org,US,Americas,Northern America,United States of America,Massachusetts,,Waltham
88.223.84.74,4,0,huyenthoaibd.com,US,Americas,Northern America,United States of America,Massachusetts,,Boston
157.173.209.223,4,-1,hwkn.com,US,Americas,Northern America,United States of America,Massachusetts,,Boston
192.252.156.20,4,12,ideaworkscompany.com,US,Americas,Northern America,United States of America,Massachusetts,,Waltham
104.110.243.17,4,7,iifl.com,US,Americas,Northern America,United States of America,Massachusetts,,Billerica
82.197.80.15,4,59,indone-sia.com,US,Americas,Northern America,United States of America,Massachusetts,,Boston
192.252.149.27,4,33,industrialchassisinc.com,US,Americas,Northern America,United States of America,Massachusetts,,Waltham
157.173.209.29,4,76,indysb.org,US,Americas,Northern America,United States of America,Massachusetts,,Boston
192.252.149.22,4,5,instinctdogtraining.com,US,Americas,Northern America,United States of America,Massachusetts,,Waltham
192.252.154.14,4,4,integrativeonc.org,US,Americas,Northern America,United States of America,Massachusetts,,Waltham
104.102.108.109,4,2,interpol.int,US,Americas,Northern America,United States of America,Massachusetts,,Billerica
88.223.85.214,4,3,inuidea.com,US,Americas,Northern America,United States of America,Massachusetts,,Boston
82.197.87.42,4,16,istitutomarangonimiami.com,US,Americas,Northern America,United States of America,Massachusetts,,Boston
192.252.151.69,4,15,itdconsulting.net,US,Americas,Northern America,United States of America,Massachusetts,,Waltham
157.173.208.23,4,25,janeclairdental.com,US,Americas,Northern America,United States of America,Massachusetts,,Boston
192.252.156.28,4,23,jantarmantar.org,US,Americas,Northern America,United States of America,Massachusetts,,Waltham
192.252.146.46,4,3,jca-t.com,US,Americas,Northern America,United States of America,Massachusetts,,Waltham
82.197.83.199,4,6,jcdfitness.com,US,Americas,Northern America,United States of America,Massachusetts,,Boston
192.252.144.32,4,15,jenkinssoftware.com,US,Americas,Northern America,United States of America,Massachusetts,,Waltham
157.173.208.243,4,18,jewelsadvisor.com,US,Americas,Northern America,United States of America,Massachusetts,,Boston
192.252.146.63,4,19,jewishbible.org,US,Americas,Northern America,United States of America,Massachusetts,,Waltham
192.252.151.14,4,2,jimena.org,US,Americas,Northern America,United States of America,Massachusetts,,Waltham
192.252.144.25,4,6,jimshooter.com,US,Americas,Northern America,United States of America,Massachusetts,,Waltham
192.252.157.59,4,4,joedolson.com,US,Americas,Northern America,United States of America,Massachusetts,,Waltham
192.252.154.23,4,5,johnhagel.com,US,Americas,Northern America,United States of America,Massachusetts,,Waltham
192.252.146.23,4,4,jokewallpaper.com,US,Americas,Northern America,United States of America,Massachusetts,,Waltham
192.252.149.21,4,22,juliandibbell.com,US,Americas,Northern America,United States of America,Massachusetts,,Waltham
88.223.83.38,4,4,justamericanjackets.com,US,Americas,Northern America,United States of America,Massachusetts,,Boston
217.15.172.168,4,3,justcrackinterview.com,US,Americas,Northern America,United States of America,Massachusetts,,Boston
157.173.208.44,4,6,k2spices.shop,US,Americas,Northern America,United States of America,Massachusetts,,Boston
217.15.172.182,4,50,kalaholdings.com,US,Americas,Northern America,United States of America,Massachusetts,,Boston
82.197.80.202,4,45,kanyewestmerchandise.net,US,Americas,Northern America,United States of America,Massachusetts,,Boston
192.252.153.236,4,3,kapronasia.com,US,Americas,Northern America,United States of America,Massachusetts,,Waltham
145.223.122.14,4,4,kasapafmonline.com,US,Americas,Northern America,United States of America,Massachusetts,,Boston
23.25.224.129,4,60,kashrut.com,US,Americas,Northern America,United States of America,Massachusetts,,Boston
23.32.168.110,4,86,katespade.jp,US,Americas,Northern America,United States of America,Massachusetts,,Boston
192.252.144.16,4,81,keithschwarz.com,US,Americas,Northern America,United States of America,Massachusetts,,Waltham
167.88.36.38,4,2,kiwaradio.com,US,Americas,Northern America,United States of America,Massachusetts,,Boston
88.223.84.197,4,3,kizi10.org,US,Americas,Northern America,United States of America,Massachusetts,,Boston
192.252.146.29,4,3,koirestaurant.com,US,Americas,Northern America,United States of America,Massachusetts,,Waltham
157.173.209.200,4,4,krajee.com,US,Americas,Northern America,United States of America,Massachusetts,,Boston
144.121.39.3,4,3,kubotek3d.com,US,Americas,Northern America,United States of America,Massachusetts,,Needham
96.230.49.41,4,62,ladm.org,US,Americas,Northern America,United States of America,Massachusetts,,Abington
18.27.196.9,4,10,laptop.org,US,Americas,Northern America,United States of America,Massachusetts,,Cambridge
82.197.84.175,4,15,larazon.co,US,Americas,Northern America,United States of America,Massachusetts,,Boston
192.252.156.27,4,31,levick.com,US,Americas,Northern America,United States of America,Massachusetts,,Waltham
104.110.243.34,4,42,lifestyle.com.au,US,Americas,Northern America,United States of America,Massachusetts,,Billerica
104.110.243.49,4,22,lifestyle.com.au,US,Americas,Northern America,United States of America,Massachusetts,,Billerica
50.212.33.7,4,4,limarc.org,US,Americas,Northern America,United States of America,Massachusetts,,Quincy
194.164.64.180,4,3,linkulartoto.com,US,Americas,Northern America,United States of America,Massachusetts,,Boston
217.15.168.63,4,4,linkworld.us,US,Americas,Northern America,United States of America,Massachusetts,,Boston
216.93.248.87,4,3,liveatc.net,US,Americas,Northern America,United States of America,Massachusetts,,South Hamilton
184.25.148.35,4,21,livewellsd.org,US,Americas,Northern America,United States of America,Massachusetts,,Boston
184.25.148.16,4,20,livewellsd.org,US,Americas,Northern America,United States of America,Massachusetts,,Boston
192.252.154.11,4,7,lookaheadamerica.org,US,Americas,Northern America,United States of America,Massachusetts,,Waltham
192.252.146.11,4,32,ma-yitheatre.org,US,Americas,Northern America,United States of America,Massachusetts,,Waltham
23.197.182.231,4,7,madewell.com,US,Americas,Northern America,United States of America,Massachusetts,,Billerica
69.147.191.147,4,170,magicdraw.com,US,Americas,Northern America,United States of America,Massachusetts,,Jamaica Plain
82.197.80.174,4,4,mandako.com,US,Americas,Northern America,United States of America,Massachusetts,,Boston
23.32.173.76,4,92,mandap.com,US,Americas,Northern America,United States of America,Massachusetts,,Boston
192.252.151.201,4,0,marinhhs.org,US,Americas,Northern America,United States of America,Massachusetts,,Waltham
192.252.151.37,4,2,maryhillmuseum.org,US,Americas,Northern America,United States of America,Massachusetts,,Waltham
147.79.73.162,4,25,mcdonaldworley.com,US,Americas,Northern America,United States of America,Massachusetts,,Boston
157.173.208.197,4,4,mclub168.live,US,Americas,Northern America,United States of America,Massachusetts,,Boston
129.10.231.60,4,68563,meddle.mobi,US,Americas,Northern America,United States of America,Massachusetts,,Boston
157.173.208.45,4,17,megatechammunution.com,US,Americas,Northern America,United States of America,Massachusetts,,Boston
147.79.73.203,4,3,melbournecashforcarz.com.au,US,Americas,Northern America,United States of America,Massachusetts,,Boston
82.197.83.93,4,4,memorex.com,US,Americas,Northern America,United States of America,Massachusetts,,Boston
192.252.151.11,4,4,meskerparkzoo.com,US,Americas,Northern America,United States of America,Massachusetts,,Waltham
192.252.151.26,4,2,metalroofing.com,US,Americas,Northern America,United States of America,Massachusetts,,Waltham
192.252.146.165,4,11,middleburgheights.com,US,Americas,Northern America,United States of America,Massachusetts,,Waltham
129.10.115.71,4,4,mislove.org,US,Americas,Northern America,United States of America,Massachusetts,,Mansfield
192.252.144.20,4,3,missyhiggins.com,US,Americas,Northern America,United States of America,Massachusetts,,Waltham
192.252.154.21,4,74,misterguitar.us,US,Americas,Northern America,United States of America,Massachusetts,,Waltham
192.252.150.230,4,3,mitchellsicecream.com,US,Americas,Northern America,United States of America,Massachusetts,,Waltham
192.252.149.12,4,26,mondodomani.org,US,Americas,Northern America,United States of America,Massachusetts,,Waltham
82.112.251.93,4,24,montessori.club,US,Americas,Northern America,United States of America,Massachusetts,,Boston
82.197.80.128,4,15,mosaicroofingcompany.com,US,Americas,Northern America,United States of America,Massachusetts,,Boston
192.252.157.187,4,2,mountainlodgesofperu.com,US,Americas,Northern America,United States of America,Massachusetts,,Waltham
192.252.146.51,4,7,mozaic-bali.com,US,Americas,Northern America,United States of America,Massachusetts,,Waltham
23.197.177.168,4,9,msccruisesusa.com,US,Americas,Northern America,United States of America,Massachusetts,,Billerica
100.0.86.162,4,14,mtpsoftware.com,US,Americas,Northern America,United States of America,Massachusetts,,Medway
194.164.64.178,4,198,multigunshop.com,US,Americas,Northern America,United States of America,Massachusetts,,Boston
192.252.154.30,4,68,museumoffamilyhistory.com,US,Americas,Northern America,United States of America,Massachusetts,,Waltham
194.164.64.43,4,19,mydairy.ae,US,Americas,Northern America,United States of America,Massachusetts,,Boston
157.173.210.88,4,29,myfarewelling.com,US,Americas,Northern America,United States of America,Massachusetts,,Boston
82.197.83.82,4,14,myivdoctors.com,US,Americas,Northern America,United States of America,Massachusetts,,Boston
23.197.180.245,4,10,myntra.com,US,Americas,Northern America,United States of America,Massachusetts,,Billerica
192.252.149.17,4,14,mythfolklore.net,US,Americas,Northern America,United States of America,Massachusetts,,Waltham
23.38.112.81,4,3,navylifepnw.com,US,Americas,Northern America,United States of America,Massachusetts,,Boston
23.38.112.42,4,3,navylifepnw.com,US,Americas,Northern America,United States of America,Massachusetts,,Boston
23.38.112.18,4,0,navylifesw.com,US,Americas,Northern America,United States of America,Massachusetts,,Boston
23.38.112.25,4,-1,navylifesw.com,US,Americas,Northern America,United States of America,Massachusetts,,Boston
167.88.37.21,4,3,nbs24.org,US,Americas,Northern America,United States of America,Massachusetts,,Boston
151.101.118.133,4,6,nesfp.org,US,Americas,Northern America,United States of America,Massachusetts,,Boston
192.252.144.22,4,8,newdealdistillery.com,US,Americas,Northern America,United States of America,Massachusetts,,Waltham
192.252.144.29,4,4,newnetherlandinstitute.org,US,Americas,Northern America,United States of America,Massachusetts,,Waltham
192.252.146.16,4,9,newpraguetimes.com,US,Americas,Northern America,United States of America,Massachusetts,,Waltham
18.4.86.46,4,51,newsdiffs.org,US,Americas,Northern America,United States of America,Massachusetts,,Cambridge
157.173.214.147,4,5,newssurveyor.com,US,Americas,Northern America,United States of America,Massachusetts,,Boston
192.252.151.23,4,4,nhgazette.com,US,Americas,Northern America,United States of America,Massachusetts,,Waltham
192.252.151.30,4,27,nicolock.com,US,Americas,Northern America,United States of America,Massachusetts,,Waltham
194.164.65.187,4,3,nikohealth.com,US,Americas,Northern America,United States of America,Massachusetts,,Boston
88.223.86.109,4,2,nimbus.ca,US,Americas,Northern America,United States of America,Massachusetts,,Boston
104.102.101.98,4,19,ns.sg,US,Americas,Northern America,United States of America,Massachusetts,,Billerica
192.252.156.200,4,2,oafe.net,US,Americas,Northern America,United States of America,Massachusetts,,Waltham
192.252.154.22,4,22,oeffa.org,US,Americas,Northern America,United States of America,Massachusetts,,Waltham
82.112.251.98,4,18,officialfryd.com,US,Americas,Northern America,United States of America,Massachusetts,,Boston
192.252.157.80,4,15,oldgas.com,US,Americas,Northern America,United States of America,Massachusetts,,Waltham
192.252.156.11,4,16,omahadailyrecord.com,US,Americas,Northern America,United States of America,Massachusetts,,Waltham
38.42.96.242,4,400,Ookla Speedtest Server 13429: speedtest-server.starry.com,US,Americas,Northern America,United States of America,Massachusetts,,Cambridge
192.252.145.211,4,2,oregonvma.org,US,Americas,Northern America,United States of America,Massachusetts,,Waltham
82.197.83.39,4,3,osakatonic.site,US,Americas,Northern America,United States of America,Massachusetts,,Boston
23.37.6.9,4,1,oswalmatrimony.com,US,Americas,Northern America,United States of America,Massachusetts,,Boston
192.252.149.18,4,3,otarubeer.com,US,Americas,Northern America,United States of America,Massachusetts,,Waltham
192.252.156.127,4,71,otbxair.com,US,Americas,Northern America,United States of America,Massachusetts,,Waltham
192.252.146.15,4,24,otherhand.org,US,Americas,Northern America,United States of America,Massachusetts,,Waltham
82.197.80.94,4,3,otr.com,US,Americas,Northern America,United States of America,Massachusetts,,Boston
192.252.156.10,4,4,over-land.com,US,Americas,Northern America,United States of America,Massachusetts,,Waltham
192.252.156.31,4,0,paariusa.org,US,Americas,Northern America,United States of America,Massachusetts,,Waltham
192.252.151.191,4,6,parliamentofreligions.org,US,Americas,Northern America,United States of America,Massachusetts,,Waltham
192.252.157.169,4,4,pbmchealth.org,US,Americas,Northern America,United States of America,Massachusetts,,Waltham
23.39.47.10,4,6,pcavote.com,US,Americas,Northern America,United States of America,Massachusetts,,Billerica
23.39.47.26,4,9,pcavote.com,US,Americas,Northern America,United States of America,Massachusetts,,Billerica
82.197.80.165,4,30,pcwebopedia.com,US,Americas,Northern America,United States of America,Massachusetts,,Boston
192.252.146.33,4,46,peoi.org,US,Americas,Northern America,United States of America,Massachusetts,,Waltham
18.18.42.54,4,20,physionet.org,US,Americas,Northern America,United States of America,Massachusetts,,Cambridge
194.164.64.209,4,24,pizza-tycoon.com,US,Americas,Northern America,United States of America,Massachusetts,,Boston
82.197.83.186,4,9,playbestgames.online,US,Americas,Northern America,United States of America,Massachusetts,,Boston
82.197.80.17,4,22,polkadotshroomchocolatebar.com,US,Americas,Northern America,United States of America,Massachusetts,,Boston
192.252.154.31,4,82,presspublications.com,US,Americas,Northern America,United States of America,Massachusetts,,Waltham
82.197.80.186,4,40,primarycaremedstore.com,US,Americas,Northern America,United States of America,Massachusetts,,Boston
194.164.64.103,4,23,prodronessupply.com,US,Americas,Northern America,United States of America,Massachusetts,,Boston
194.164.64.95,4,27,psychedelicsdistro.com,US,Americas,Northern America,United States of America,Massachusetts,,Boston
192.252.149.26,4,9,puddlespityparty.com,US,Americas,Northern America,United States of America,Massachusetts,,Waltham
38.111.239.251,4,16,pushline.com,US,Americas,Northern America,United States of America,Massachusetts,,Marlborough
192.252.148.187,4,14,putnamcountytn.gov,US,Americas,Northern America,United States of America,Massachusetts,,Waltham
134.174.140.86,4,26578,pymolwiki.org,US,Americas,Northern America,United States of America,Massachusetts,,Boston
82.197.83.28,4,2,qnapandit.com,US,Americas,Northern America,United States of America,Massachusetts,,Boston
192.252.146.248,4,2,qovf.org,US,Americas,Northern America,United States of America,Massachusetts,,Waltham
192.252.153.226,4,3,quanex.com,US,Americas,Northern America,United States of America,Massachusetts,,Waltham
192.252.151.32,4,2,quantpsy.org,US,Americas,Northern America,United States of America,Massachusetts,,Waltham
192.252.145.120,4,9,quantumbalancing.com,US,Americas,Northern America,United States of America,Massachusetts,,Waltham
217.15.170.187,4,9,quickbookintegration.com,US,Americas,Northern America,United States of America,Massachusetts,,Boston
157.173.208.248,4,10,quirksandtwists.com,US,Americas,Northern America,United States of America,Massachusetts,,Boston
82.197.84.69,4,8,quotesautoinsurance.org,US,Americas,Northern America,United States of America,Massachusetts,,Boston
157.173.209.52,4,143,radicalfire.com,US,Americas,Northern America,United States of America,Massachusetts,,Boston
69.166.9.234,4,1005,raisedrightpets.com,US,Americas,Northern America,United States of America,Massachusetts,,Boston
82.197.80.204,4,26,ralphlaurensale-clearance.me.uk,US,Americas,Northern America,United States of America,Massachusetts,,Boston
82.197.87.232,4,60,rates.id,US,Americas,Northern America,United States of America,Massachusetts,,Boston
192.252.149.11,4,17,rcda.org,US,Americas,Northern America,United States of America,Massachusetts,,Waltham
192.252.148.172,4,13,realtaxtools.com,US,Americas,Northern America,United States of America,Massachusetts,,Waltham
192.252.144.35,4,13,reggaeontheriver.com,US,Americas,Northern America,United States of America,Massachusetts,,Waltham
93.127.217.116,4,44,rehs.com,US,Americas,Northern America,United States of America,Massachusetts,,Boston
192.252.151.24,4,65,reptilesupershow.com,US,Americas,Northern America,United States of America,Massachusetts,,Waltham
192.252.156.23,4,74,resumesfromabove.com,US,Americas,Northern America,United States of America,Massachusetts,,Waltham
192.252.144.86,4,13,ridecarts.com,US,Americas,Northern America,United States of America,Massachusetts,,Waltham
192.252.149.20,4,4,rocklandworldradio.com,US,Americas,Northern America,United States of America,Massachusetts,,Waltham
192.252.144.242,4,16,rong-chang.com,US,Americas,Northern America,United States of America,Massachusetts,,Waltham
192.252.156.33,4,46,rotterdamny.org,US,Americas,Northern America,United States of America,Massachusetts,,Waltham
82.197.83.24,4,33,rubberceramiclining.com,US,Americas,Northern America,United States of America,Massachusetts,,Boston
192.252.144.15,4,2,safecom.org.au,US,Americas,Northern America,United States of America,Massachusetts,,Waltham
192.252.157.62,4,2,saimm.co.za,US,Americas,Northern America,United States of America,Massachusetts,,Waltham
192.252.144.30,4,36,samaritansfeet.org,US,Americas,Northern America,United States of America,Massachusetts,,Waltham
192.252.154.163,4,37,samoanews.com,US,Americas,Northern America,United States of America,Massachusetts,,Waltham
82.197.80.224,4,16,santarosaliaproperty.com,US,Americas,Northern America,United States of America,Massachusetts,,Boston
192.252.157.47,4,12,scangauge.com,US,Americas,Northern America,United States of America,Massachusetts,,Waltham
82.197.84.239,4,28,schoolmerchcanada.com,US,Americas,Northern America,United States of America,Massachusetts,,Boston
88.223.83.10,4,37,sci-bc.ca,US,Americas,Northern America,United States of America,Massachusetts,,Boston
147.79.78.135,4,2,sdnpk.org,US,Americas,Northern America,United States of America,Massachusetts,,Boston
184.25.148.40,4,1,sdvote.com,US,Americas,Northern America,United States of America,Massachusetts,,Boston
184.25.148.8,4,4,sdvote.com,US,Americas,Northern America,United States of America,Massachusetts,,Boston
192.252.152.208,4,22,seethroughny.net,US,Americas,Northern America,United States of America,Massachusetts,,Waltham
157.173.208.4,4,10,selectivedealz.com,US,Americas,Northern America,United States of America,Massachusetts,,Boston
192.252.144.13,4,11,sephardicgen.com,US,Americas,Northern America,United States of America,Massachusetts,,Waltham
192.252.144.66,4,2,shanghaikiteboarding.com,US,Americas,Northern America,United States of America,Massachusetts,,Waltham
192.252.150.253,4,6,sharkattackfile.net,US,Americas,Northern America,United States of America,Massachusetts,,Waltham
192.252.154.213,4,3,shirtoid.com,US,Americas,Northern America,United States of America,Massachusetts,,Waltham
217.15.168.201,4,3,shootsta.com,US,Americas,Northern America,United States of America,Massachusetts,,Boston
194.164.67.231,4,35,sildenafiledcitrate.com,US,Americas,Northern America,United States of America,Massachusetts,,Boston
192.252.149.29,4,0,sjrnews.com,US,Americas,Northern America,United States of America,Massachusetts,,Waltham
192.252.151.38,4,28,skytopia.com,US,Americas,Northern America,United States of America,Massachusetts,,Waltham
192.252.146.19,4,5,skytruth.org,US,Americas,Northern America,United States of America,Massachusetts,,Waltham
192.252.151.12,4,18,slinging.org,US,Americas,Northern America,United States of America,Massachusetts,,Waltham
82.197.87.117,4,6,slushweb.com,US,Americas,Northern America,United States of America,Massachusetts,,Boston
192.252.144.206,4,1,smdm.org,US,Americas,Northern America,United States of America,Massachusetts,,Waltham
192.252.149.54,4,6,smftricks.com,US,Americas,Northern America,United States of America,Massachusetts,,Waltham
192.252.151.167,4,3,smithcountyinsider.com,US,Americas,Northern America,United States of America,Massachusetts,,Waltham
192.252.158.237,4,56,soapguild.org,US,Americas,Northern America,United States of America,Massachusetts,,Waltham
82.197.80.79,4,7,sociallystacked.com,US,Americas,Northern America,United States of America,Massachusetts,,Boston
192.252.149.41,4,34,solen.info,US,Americas,Northern America,United States of America,Massachusetts,,Waltham
184.25.58.42,4,10,southwestair.com,US,Americas,Northern America,United States of America,Massachusetts,,Boston
184.25.58.72,4,31,southwestair.com,US,Americas,Northern America,United States of America,Massachusetts,,Boston
192.252.153.240,4,31,spcacincinnati.org,US,Americas,Northern America,United States of America,Massachusetts,,Waltham
194.164.64.64,4,3,spectshop.com,US,Americas,Northern America,United States of America,Massachusetts,,Boston
192.252.149.30,4,3,spencerdailyreporter.com,US,Americas,Northern America,United States of America,Massachusetts,,Waltham
82.197.80.133,4,11,spritfly.com,US,Americas,Northern America,United States of America,Massachusetts,,Boston
147.79.73.13,4,14,spsreviews.com,US,Americas,Northern America,United States of America,Massachusetts,,Boston
82.197.83.73,4,6,ssgnews.com,US,Americas,Northern America,United States of America,Massachusetts,,Boston
192.252.154.24,4,20,standupeconomist.com,US,Americas,Northern America,United States of America,Massachusetts,,Waltham
82.197.83.30,4,12,startuptalky.co.uk,US,Americas,Northern America,United States of America,Massachusetts,,Boston
192.252.146.202,4,12,stellarworks.com,US,Americas,Northern America,United States of America,Massachusetts,,Waltham
82.197.80.207,4,4,stmik-dci.ac.id,US,Americas,Northern America,United States of America,Massachusetts,,Boston
194.164.64.189,4,22,storysupportpro.com,US,Americas,Northern America,United States of America,Massachusetts,,Boston
194.164.64.88,4,3,streetgangs.com,US,Americas,Northern America,United States of America,Massachusetts,,Boston
192.252.146.31,4,2,supermegamonkey.net,US,Americas,Northern America,United States of America,Massachusetts,,Waltham
192.252.159.138,4,30,sureserver.com,US,Americas,Northern America,United States of America,Massachusetts,,Waltham
96.67.55.151,4,13,surriel.com,US,Americas,Northern America,United States of America,Massachusetts,,Brookline
217.15.169.91,4,3,svglogomaker.com,US,Americas,Northern America,United States of America,Massachusetts,,Boston
192.252.144.21,4,3,swaintech.com,US,Americas,Northern America,United States of America,Massachusetts,,Waltham
157.173.214.140,4,3,sweats.co.kr,US,Americas,Northern America,United States of America,Massachusetts,,Boston
217.15.175.41,4,4,sweetscape.com,US,Americas,Northern America,United States of America,Massachusetts,,Boston
192.252.149.24,4,2,szub.net,US,Americas,Northern America,United States of America,Massachusetts,,Waltham
38.124.1.34,4,6,talkleft.com,US,Americas,Northern America,United States of America,Massachusetts,,Waltham
23.32.164.96,4,5,tamilmatrimony.com,US,Americas,Northern America,United States of America,Massachusetts,,Boston
217.15.169.43,4,2,tastythailand.com,US,Americas,Northern America,United States of America,Massachusetts,,Boston
157.173.215.160,4,42,taxlawgazette.com,US,Americas,Northern America,United States of America,Massachusetts,,Boston
82.197.80.175,4,34,teacoffeeplace.com,US,Americas,Northern America,United States of America,Massachusetts,,Boston
157.173.209.18,4,7,techniquehow.com,US,Americas,Northern America,United States of America,Massachusetts,,Boston
88.223.86.177,4,6,techpost.info,US,Americas,Northern America,United States of America,Massachusetts,,Boston
88.223.83.104,4,12,techreleased.co.uk,US,Americas,Northern America,United States of America,Massachusetts,,Boston
157.173.209.84,4,30,techydaily.co.uk,US,Americas,Northern America,United States of America,Massachusetts,,Boston
192.252.151.39,4,45,telcontar.net,US,Americas,Northern America,United States of America,Massachusetts,,Waltham
194.164.64.30,4,52,telescope-optics.net,US,Americas,Northern America,United States of America,Massachusetts,,Boston
192.252.156.210,4,11,templatesjungle.com,US,Americas,Northern America,United States of America,Massachusetts,,Waltham
192.252.146.26,4,3,thebigsort.com,US,Americas,Northern America,United States of America,Massachusetts,,Waltham
82.197.83.158,4,6,thecelebsinfo.com,US,Americas,Northern America,United States of America,Massachusetts,,Boston
194.164.66.143,4,3,theceoviews.com,US,Americas,Northern America,United States of America,Massachusetts,,Boston
192.252.144.36,4,3,thecityofbeverly.com,US,Americas,Northern America,United States of America,Massachusetts,,Waltham
147.79.73.96,4,12,thecorporatethiefbeats.com,US,Americas,Northern America,United States of America,Massachusetts,,Boston
194.164.64.132,4,3,thecrunchyreport.com,US,Americas,Northern America,United States of America,Massachusetts,,Boston
194.164.64.118,4,19,thecurezone.com,US,Americas,Northern America,United States of America,Massachusetts,,Boston
194.164.64.89,4,3,thedrawshop.com,US,Americas,Northern America,United States of America,Massachusetts,,Boston
192.252.156.30,4,4,thefilmyap.com,US,Americas,Northern America,United States of America,Massachusetts,,Waltham
157.173.209.158,4,1,thefriskys.com,US,Americas,Northern America,United States of America,Massachusetts,,Boston
192.252.144.23,4,64,thekaca.org,US,Americas,Northern America,United States of America,Massachusetts,,Waltham
192.252.146.10,4,12,thelaa.org,US,Americas,Northern America,United States of America,Massachusetts,,Waltham
192.252.156.19,4,24,themontrealreview.com,US,Americas,Northern America,United States of America,Massachusetts,,Waltham
82.197.86.115,4,11,thenexthint.com,US,Americas,Northern America,United States of America,Massachusetts,,Boston
157.173.208.22,4,63,theperksofbeingus.com,US,Americas,Northern America,United States of America,Massachusetts,,Boston
192.252.154.20,4,9,therookgroup.com,US,Americas,Northern America,United States of America,Massachusetts,,Waltham
192.252.151.16,4,10,thestonenyc.com,US,Americas,Northern America,United States of America,Massachusetts,,Waltham
88.223.80.184,4,2,thewho.net,US,Americas,Northern America,United States of America,Massachusetts,,Boston
192.252.144.38,4,9,thinkfirst.org,US,Americas,Northern America,United States of America,Massachusetts,,Waltham
167.88.38.123,4,1,thonet.com,US,Americas,Northern America,United States of America,Massachusetts,,Boston
88.223.85.4,4,3,tiktokfollows.co,US,Americas,Northern America,United States of America,Massachusetts,,Boston
192.252.144.19,4,17,tim-mann.org,US,Americas,Northern America,United States of America,Massachusetts,,Waltham
70.88.205.130,4,30,timepassagesnostalgia.com,US,Americas,Northern America,United States of America,Massachusetts,,Agawam
82.197.83.4,4,4,tnlin.com,US,Americas,Northern America,United States of America,Massachusetts,,Boston
192.252.156.230,4,3,tntrafficsafety.org,US,Americas,Northern America,United States of America,Massachusetts,,Waltham
157.173.209.181,4,4,todayfirstmagazine.com,US,Americas,Northern America,United States of America,Massachusetts,,Boston
157.173.214.8,4,7,todaytop24.com,US,Americas,Northern America,United States of America,Massachusetts,,Boston
192.252.144.31,4,13,tomdavenport.com,US,Americas,Northern America,United States of America,Massachusetts,,Waltham
82.197.84.9,4,17,topbritishwriters.com,US,Americas,Northern America,United States of America,Massachusetts,,Boston
192.252.149.36,4,41,travelindependent.info,US,Americas,Northern America,United States of America,Massachusetts,,Waltham
82.197.80.33,4,28,travelintelligence.net,US,Americas,Northern America,United States of America,Massachusetts,,Boston
192.252.146.13,4,8,tribecatrib.com,US,Americas,Northern America,United States of America,Massachusetts,,Waltham
192.252.146.32,4,39,tristateairport.com,US,Americas,Northern America,United States of America,Massachusetts,,Waltham
192.252.156.17,4,1,tropicalfruitforum.com,US,Americas,Northern America,United States of America,Massachusetts,,Waltham
38.111.239.225,4,8,trustoria.com,US,Americas,Northern America,United States of America,Massachusetts,,Marlborough
192.252.156.121,4,2,truthaboutnursing.org,US,Americas,Northern America,United States of America,Massachusetts,,Waltham
192.252.157.164,4,2,tsbdc.org,US,Americas,Northern America,United States of America,Massachusetts,,Waltham
192.252.156.25,4,10,tucsonpresidio.com,US,Americas,Northern America,United States of America,Massachusetts,,Waltham
192.252.157.78,4,1,turksandcaicostourism.com,US,Americas,Northern America,United States of America,Massachusetts,,Waltham
194.164.64.108,4,6,tvactivatecode.com,US,Americas,Northern America,United States of America,Massachusetts,,Boston
192.252.156.194,4,7,twistedsister.com,US,Americas,Northern America,United States of America,Massachusetts,,Waltham
134.88.1.12,4,-2,umassd.edu,US,Americas,Northern America,United States of America,Massachusetts,,East Wareham
88.223.86.240,4,4,unanleon.edu.ni,US,Americas,Northern America,United States of America,Massachusetts,,Boston
192.252.154.76,4,3,unitedwaysuncoast.org,US,Americas,Northern America,United States of America,Massachusetts,,Waltham
208.69.180.13,4,2,universalstandard.com,US,Americas,Northern America,United States of America,Massachusetts,,Boston
208.69.180.14,4,4,universalstandard.com,US,Americas,Northern America,United States of America,Massachusetts,,Boston
208.69.180.12,4,2,universalstandard.com,US,Americas,Northern America,United States of America,Massachusetts,,Boston
208.69.180.11,4,22,universalstandard.com,US,Americas,Northern America,United States of America,Massachusetts,,Boston
184.25.58.32,4,1,usaajobs.com,US,Americas,Northern America,United States of America,Massachusetts,,Boston
184.25.58.65,4,2,usaajobs.com,US,Americas,Northern America,United States of America,Massachusetts,,Boston
192.252.154.47,4,10,usbfever.com,US,Americas,Northern America,United States of America,Massachusetts,,Waltham
192.252.148.186,4,12,usconverters.com,US,Americas,Northern America,United States of America,Massachusetts,,Waltham
192.252.151.10,4,6,usfashionindustry.com,US,Americas,Northern America,United States of America,Massachusetts,,Waltham
82.197.83.185,4,91,veitillatelse.com,US,Americas,Northern America,United States of America,Massachusetts,,Boston
194.164.64.67,4,5,venusraquel.com,US,Americas,Northern America,United States of America,Massachusetts,,Boston
192.252.144.24,4,24,veteransaidbenefit.org,US,Americas,Northern America,United States of America,Massachusetts,,Waltham
216.235.254.230,4,22,vhfcn.org,US,Americas,Northern America,United States of America,Massachusetts,,East Bridgewater
82.112.248.14,4,3,videofitness.com,US,Americas,Northern America,United States of America,Massachusetts,,Boston
23.57.144.254,4,35,vietnamairlines.com,US,Americas,Northern America,United States of America,Massachusetts,,Boston
217.15.168.174,4,2,vinanutrifood.vn,US,Americas,Northern America,United States of America,Massachusetts,,Boston
194.164.71.59,4,5,viraltalky.com,US,Americas,Northern America,United States of America,Massachusetts,,Boston
96.39.84.61,4,36,vistumbler.net,US,Americas,Northern America,United States of America,Massachusetts,,Worcester
192.252.151.199,4,28,visualedgeit.com,US,Americas,Northern America,United States of America,Massachusetts,,Waltham
192.252.149.31,4,32,volunteerinternational.org,US,Americas,Northern America,United States of America,Massachusetts,,Waltham
157.173.209.36,4,84,vonsdogs.com,US,Americas,Northern America,United States of America,Massachusetts,,Boston
209.6.82.6,4,-3,w1ghz.org,US,Americas,Northern America,United States of America,Massachusetts,,Swampscott
192.252.149.16,4,8,wallacejnichols.org,US,Americas,Northern America,United States of America,Massachusetts,,Waltham
192.252.146.28,4,2,waukonstandard.com,US,Americas,Northern America,United States of America,Massachusetts,,Waltham
157.173.209.78,4,17,webhostingonedollar.com,US,Americas,Northern America,United States of America,Massachusetts,,Boston
192.252.156.168,4,2,westernite.org,US,Americas,Northern America,United States of America,Massachusetts,,Waltham
192.252.149.23,4,3,wesupporttrump.org,US,Americas,Northern America,United States of America,Massachusetts,,Waltham
194.164.69.12,4,1,whatifgaming.com,US,Americas,Northern America,United States of America,Massachusetts,,Boston
82.197.83.7,4,13,whilesaas.com,US,Americas,Northern America,United States of America,Massachusetts,,Boston
82.197.80.164,4,3,wholemeltsdispo.com,US,Americas,Northern America,United States of America,Massachusetts,,Boston
192.252.146.24,4,1,wia.org,US,Americas,Northern America,United States of America,Massachusetts,,Waltham
104.130.119.14,4,19,wintrustmortgage.com,US,Americas,Northern America,United States of America,Massachusetts,,Boston
192.252.154.32,4,5,wiredchemist.com,US,Americas,Northern America,United States of America,Massachusetts,,Waltham
192.252.151.15,4,16,wisconsinacademy.org,US,Americas,Northern America,United States of America,Massachusetts,,Waltham
82.197.83.189,4,2,wizroo.com,US,Americas,Northern America,United States of America,Massachusetts,,Boston
18.7.25.128,4,4,wmbr.org,US,Americas,Northern America,United States of America,Massachusetts,,Cambridge
192.252.149.10,4,0,woodheat.org,US,Americas,Northern America,United States of America,Massachusetts,,Waltham
192.252.149.15,4,4,worldcentric.com,US,Americas,Northern America,United States of America,Massachusetts,,Waltham
192.252.144.28,4,3,worldcentric.org,US,Americas,Northern America,United States of America,Massachusetts,,Waltham
157.173.214.179,4,2,wpchatplugins.com,US,Americas,Northern America,United States of America,Massachusetts,,Boston
217.15.168.90,4,4,writeurl.com,US,Americas,Northern America,United States of America,Massachusetts,,Boston
157.173.214.17,4,7,wtvox.com,US,Americas,Northern America,United States of America,Massachusetts,,Boston
192.252.157.49,4,6,wwoofjapan.com,US,Americas,Northern America,United States of America,Massachusetts,,Waltham
192.252.154.28,4,2,xmems.com,US,Americas,Northern America,United States of America,Massachusetts,,Waltham
157.173.214.245,4,52,xn--fhrerschein-online-kaufen-fwc.com,US,Americas,Northern America,United States of America,Massachusetts,,Boston
91.189.91.49,4,8,xubuntu.org,US,Americas,Northern America,United States of America,Massachusetts,,Boston
91.189.91.48,4,4,xubuntu.org,US,Americas,Northern America,United States of America,Massachusetts,,Boston
194.164.64.34,4,6,yakkyofy.com,US,Americas,Northern America,United States of America,Massachusetts,,Boston
192.252.154.25,4,3,yeagerairport.com,US,Americas,Northern America,United States of America,Massachusetts,,Waltham
23.32.160.153,4,2,yesbank.in,US,Americas,Northern America,United States of America,Massachusetts,,Boston
192.252.149.19,4,17,zahavrestaurant.com,US,Americas,Northern America,United States of America,Massachusetts,,Waltham
82.197.80.144,4,47,zakupprawajazdy.com,US,Americas,Northern America,United States of America,Massachusetts,,Boston
88.223.84.64,4,42,zestylore.com,US,Americas,Northern America,United States of America,Massachusetts,,Boston
82.197.83.42,4,3,zhulu8.xyz,US,Americas,Northern America,United States of America,Massachusetts,,Boston
192.252.154.16,4,3,zweigmedia.com,US,Americas,Northern America,United States of America,Massachusetts,,Waltham
