reflector_ip,ip_version,offset,description,country_code,region,sub_region,country_name,sub_division_1,sub_division_2,city
104.196.34.103,4,5,5harad.com,US,Americas,Northern America,United States of America,South Carolina,,North Charleston
34.138.7.144,4,893733,acceleratedresolutiontherapy.com,US,Americas,Northern America,United States of America,South Carolina,,North Charleston
35.237.0.151,4,4,acciusa.com,US,Americas,Northern America,United States of America,South Carolina,,North Charleston
34.138.103.113,4,5,agxproducts.com,US,Americas,Northern America,United States of America,South Carolina,,North Charleston
104.196.52.56,4,3,algebra.com,US,Americas,Northern America,United States of America,South Carolina,,North Charleston
74.255.65.30,4,-1120027,alpharubicon.com,US,Americas,Northern America,United States of America,South Carolina,,Walhalla
35.196.140.121,4,7,annamaria.edu,US,Americas,Northern America,United States of America,South Carolina,,North Charleston
35.237.23.73,4,6,asiahotel.co.th,US,Americas,Northern America,United States of America,South Carolina,,North Charleston
35.185.12.150,4,3,avalon-rpg.com,US,Americas,Northern America,United States of America,South Carolina,,North Charleston
35.196.179.135,4,3,beinglab-usa.com,US,Americas,Northern America,United States of America,South Carolina,,North Charleston
35.185.68.128,4,28,bestofweddingphotography.com,US,Americas,Northern America,United States of America,South Carolina,,North Charleston
35.196.178.65,4,10,bewe.co,US,Americas,Northern America,United States of America,South Carolina,,North Charleston
34.139.126.2,4,6,bluemedora.com,US,Americas,Northern America,United States of America,South Carolina,,North Charleston
35.237.4.50,4,17,boland-injury-law.com,US,Americas,Northern America,United States of America,South Carolina,,North Charleston
104.196.56.112,4,7,businessmanagementdaily.com,US,Americas,Northern America,United States of America,South Carolina,,North Charleston
34.139.253.252,4,4,cadem.cl,US,Americas,Northern America,United States of America,South Carolina,,North Charleston
34.73.202.94,4,20,camera-wiki.org,US,Americas,Northern America,United States of America,South Carolina,,North Charleston
104.196.68.81,4,4,changethatsrightnow.com,US,Americas,Northern America,United States of America,South Carolina,,North Charleston
35.227.18.6,4,7,cheneybrothers.com,US,Americas,Northern America,United States of America,South Carolina,,North Charleston
35.237.48.71,4,6,clamsnet.org,US,Americas,Northern America,United States of America,South Carolina,,North Charleston
35.190.147.67,4,12,classicalexburns.com,US,Americas,Northern America,United States of America,South Carolina,,North Charleston
35.196.211.70,4,5,cleanster.com,US,Americas,Northern America,United States of America,South Carolina,,North Charleston
34.75.230.183,4,6,clevelandnasalsinus.com,US,Americas,Northern America,United States of America,South Carolina,,North Charleston
35.231.232.216,4,11,clinica.org,US,Americas,Northern America,United States of America,South Carolina,,North Charleston
34.74.82.105,4,5,cnyflyfish.com,US,Americas,Northern America,United States of America,South Carolina,,North Charleston
104.196.53.134,4,3,cochaser.com,US,Americas,Northern America,United States of America,South Carolina,,North Charleston
130.127.206.21,4,76,coin-or.org,US,Americas,Northern America,United States of America,South Carolina,,Clemson
34.73.4.214,4,4,colegiovillanova.com,US,Americas,Northern America,United States of America,South Carolina,,North Charleston
35.185.11.58,4,10,comefromchina.com,US,Americas,Northern America,United States of America,South Carolina,,North Charleston
35.237.89.228,4,31,crenk.com,US,Americas,Northern America,United States of America,South Carolina,,North Charleston
35.229.56.191,4,26,darkryder.com,US,Americas,Northern America,United States of America,South Carolina,,North Charleston
35.185.109.143,4,4,daypilot.org,US,Americas,Northern America,United States of America,South Carolina,,North Charleston
35.211.109.70,4,2,diarioregistrado.com,US,Americas,Northern America,United States of America,South Carolina,,North Charleston
35.185.78.210,4,35,distancecalculator.net,US,Americas,Northern America,United States of America,South Carolina,,North Charleston
24.179.26.202,4,-5406,DNS Server: 024-179-026-202.res.spectrum.com,US,Americas,Northern America,United States of America,South Carolina,,Simpsonville
35.133.186.169,4,77,DNS Server: 035-133-186-169.res.spectrum.com,US,Americas,Northern America,United States of America,South Carolina,,Lyman
75.176.227.252,4,-8148,DNS Server: 075-176-227-252.res.spectrum.com,US,Americas,Northern America,United States of America,South Carolina,,Myrtle Beach
75.176.230.145,4,-9408,DNS Server: 075-176-230-145.res.spectrum.com,US,Americas,Northern America,United States of America,South Carolina,,Myrtle Beach
75.176.235.181,4,21074,DNS Server: 075-176-235-181.res.spectrum.com,US,Americas,Northern America,United States of America,South Carolina,,Myrtle Beach
128.92.65.181,4,6947,DNS Server: 128-092-065-181.biz.spectrum.com,US,Americas,Northern America,United States of America,South Carolina,,Fountain Inn
35.231.247.227,4,112,DNS Server: 227.247.231.35.bc.googleusercontent.com,US,Americas,Northern America,United States of America,South Carolina,,North Charleston
73.131.14.240,4,5,DNS Server: c-73-131-14-240.hsd1.sc.comcast.net,US,Americas,Northern America,United States of America,South Carolina,,Charleston
98.122.99.145,4,-56977,DNS Server: cpe-98-122-99-145.sc.res.rr.com,US,Americas,Northern America,United States of America,South Carolina,,Myrtle Beach
104.196.194.67,4,13,DNS Server: google.xxw.ca,US,Americas,Northern America,United States of America,South Carolina,,North Charleston
98.101.194.137,4,79,DNS Server: rrcs-98-101-194-137.midsouth.biz.rr.com,US,Americas,Northern America,United States of America,South Carolina,,Columbia
35.237.248.220,4,59,dresseldivers.com,US,Americas,Northern America,United States of America,South Carolina,,North Charleston
35.231.127.71,4,193,eldoradosparesorts.com,US,Americas,Northern America,United States of America,South Carolina,,North Charleston
34.148.90.61,4,104,encyclopedia-of-opinion.org,US,Americas,Northern America,United States of America,South Carolina,,North Charleston
35.229.84.18,4,5,energyx.com,US,Americas,Northern America,United States of America,South Carolina,,North Charleston
35.185.53.133,4,3,expressobeans.com,US,Americas,Northern America,United States of America,South Carolina,,North Charleston
35.243.173.118,4,6,fantasticosur.com,US,Americas,Northern America,United States of America,South Carolina,,North Charleston
216.59.16.177,4,-473,fauel.org.br,US,Americas,Northern America,United States of America,South Carolina,,Charleston
34.139.161.46,4,8,fieldcomplete.com,US,Americas,Northern America,United States of America,South Carolina,,North Charleston
34.75.126.16,4,4,filecamp.com,US,Americas,Northern America,United States of America,South Carolina,,North Charleston
34.139.125.22,4,89,funedmx.org,US,Americas,Northern America,United States of America,South Carolina,,North Charleston
34.73.188.127,4,5,gallowayprecision.com,US,Americas,Northern America,United States of America,South Carolina,,North Charleston
35.231.16.188,4,3,gametz.com,US,Americas,Northern America,United States of America,South Carolina,,North Charleston
34.138.136.111,4,3,gbmb.org,US,Americas,Northern America,United States of America,South Carolina,,North Charleston
35.185.15.72,4,13,glyph.net,US,Americas,Northern America,United States of America,South Carolina,,North Charleston
34.73.195.61,4,4,goldcoastschools.com,US,Americas,Northern America,United States of America,South Carolina,,North Charleston
35.211.57.89,4,14,gramatik.net,US,Americas,Northern America,United States of America,South Carolina,,North Charleston
104.196.49.157,4,3,haayal.co.il,US,Americas,Northern America,United States of America,South Carolina,,North Charleston
104.196.111.191,4,3,happy.co,US,Americas,Northern America,United States of America,South Carolina,,North Charleston
35.243.161.153,4,33,haverhill-ps.org,US,Americas,Northern America,United States of America,South Carolina,,North Charleston
34.73.74.95,4,5,hickoryfurniture.com,US,Americas,Northern America,United States of America,South Carolina,,North Charleston
35.231.243.134,4,2,hitcents.com,US,Americas,Northern America,United States of America,South Carolina,,North Charleston
35.237.4.164,4,3,hites.com,US,Americas,Northern America,United States of America,South Carolina,,North Charleston
35.231.129.181,4,13,icpac.net,US,Americas,Northern America,United States of America,South Carolina,,North Charleston
34.75.112.240,4,3,inhotim.org.br,US,Americas,Northern America,United States of America,South Carolina,,North Charleston
104.196.55.17,4,6,jayconrod.com,US,Americas,Northern America,United States of America,South Carolina,,North Charleston
35.190.179.141,4,11,lazytrips.com,US,Americas,Northern America,United States of America,South Carolina,,North Charleston
34.74.118.215,4,-30,lebanonembassyus.org,US,Americas,Northern America,United States of America,South Carolina,,North Charleston
34.74.179.144,4,49,lifeandtimes.com,US,Americas,Northern America,United States of America,South Carolina,,North Charleston
34.148.58.7,4,5,linden-nj.org,US,Americas,Northern America,United States of America,South Carolina,,North Charleston
216.59.16.162,4,2631,logweb.com.br,US,Americas,Northern America,United States of America,South Carolina,,Charleston
104.196.212.19,4,52243,magnitracking.com,US,Americas,Northern America,United States of America,South Carolina,,North Charleston
35.211.95.111,4,-4016,mapbiomas.org,US,Americas,Northern America,United States of America,South Carolina,,North Charleston
35.227.87.93,4,50,medgadget.com,US,Americas,Northern America,United States of America,South Carolina,,North Charleston
35.196.240.89,4,2,modpagespeed.com,US,Americas,Northern America,United States of America,South Carolina,,North Charleston
34.73.32.206,4,2,molblog.nl,US,Americas,Northern America,United States of America,South Carolina,,North Charleston
104.196.199.143,4,3,mouse-sensitivity.com,US,Americas,Northern America,United States of America,South Carolina,,North Charleston
35.231.88.248,4,4,mptron.com,US,Americas,Northern America,United States of America,South Carolina,,North Charleston
34.74.128.89,4,3,myjoyonline.com,US,Americas,Northern America,United States of America,South Carolina,,North Charleston
208.65.21.170,4,4,mysticpizza.com,US,Americas,Northern America,United States of America,South Carolina,,Myrtle Beach
35.196.149.117,4,3,npd.ca,US,Americas,Northern America,United States of America,South Carolina,,North Charleston
34.74.8.42,4,14,npd.ca,US,Americas,Northern America,United States of America,South Carolina,,North Charleston
34.75.122.6,4,3,nsuk.edu.ng,US,Americas,Northern America,United States of America,South Carolina,,North Charleston
35.196.174.192,4,2,oneplace.com,US,Americas,Northern America,United States of America,South Carolina,,North Charleston
165.166.15.17,4,288,Ookla Speedtest Server 6015: speedtest1.wctel.com,US,Americas,Northern America,United States of America,South Carolina,,Abbeville
97.107.96.114,4,340,Ookla Speedtest Server 15380: speedtest.truvista.net,US,Americas,Northern America,United States of America,South Carolina,,Chester
162.213.116.4,4,187,Ookla Speedtest Server 15775: speedtest.carolinaconnect.com,US,Americas,Northern America,United States of America,South Carolina,,Lexington
206.74.60.54,4,281,Ookla Speedtest Server 24421: sp1.shtc.net,US,Americas,Northern America,United States of America,South Carolina,,Fort Mill
208.104.203.195,4,236,Ookla Speedtest Server 62744: ookla1.comporium.net,US,Americas,Northern America,United States of America,South Carolina,,Lancaster
35.185.73.99,4,2,osceolasheriff.org,US,Americas,Northern America,United States of America,South Carolina,,North Charleston
104.196.185.170,4,7,packhacker.com,US,Americas,Northern America,United States of America,South Carolina,,North Charleston
34.74.96.176,4,5,pea.com,US,Americas,Northern America,United States of America,South Carolina,,North Charleston
104.196.28.198,4,6,performerstuff.com,US,Americas,Northern America,United States of America,South Carolina,,North Charleston
34.74.229.182,4,19,petinsurancereview.com,US,Americas,Northern America,United States of America,South Carolina,,North Charleston
34.148.106.69,4,3,pinbadges.co.uk,US,Americas,Northern America,United States of America,South Carolina,,North Charleston
34.148.242.92,4,14,pins.us,US,Americas,Northern America,United States of America,South Carolina,,North Charleston
35.231.226.164,4,13,plslogistics.com,US,Americas,Northern America,United States of America,South Carolina,,North Charleston
104.196.154.233,4,26,postgresconf.org,US,Americas,Northern America,United States of America,South Carolina,,North Charleston
35.185.14.50,4,6,rdf4j.org,US,Americas,Northern America,United States of America,South Carolina,,North Charleston
35.243.152.122,4,42,religiontoday.com,US,Americas,Northern America,United States of America,South Carolina,,North Charleston
66.194.21.223,4,26,richlandcountysc.gov,US,Americas,Northern America,United States of America,South Carolina,,Columbia
66.194.21.222,4,30,richlandonline.com,US,Americas,Northern America,United States of America,South Carolina,,Columbia
35.211.68.5,4,18,rosarioplus.com,US,Americas,Northern America,United States of America,South Carolina,,North Charleston
99.95.219.17,4,3369,runesmite.com,US,Americas,Northern America,United States of America,South Carolina,,Columbia
34.75.5.233,4,5390,ruudvanasseldonk.com,US,Americas,Northern America,United States of America,South Carolina,,North Charleston
35.227.42.23,4,3,ryanswell.ca,US,Americas,Northern America,United States of America,South Carolina,,North Charleston
104.196.186.166,4,9,sacramento365.com,US,Americas,Northern America,United States of America,South Carolina,,North Charleston
35.227.57.54,4,19,segurossura.com,US,Americas,Northern America,United States of America,South Carolina,,North Charleston
34.148.168.201,4,4,sescon.org.br,US,Americas,Northern America,United States of America,South Carolina,,North Charleston
35.231.8.46,4,4,showthemes.com,US,Americas,Northern America,United States of America,South Carolina,,North Charleston
34.74.44.1,4,1,snoodworld.com,US,Americas,Northern America,United States of America,South Carolina,,North Charleston
34.74.163.248,4,12,societyofthecincinnati.org,US,Americas,Northern America,United States of America,South Carolina,,North Charleston
35.185.21.244,4,20,socketo.me,US,Americas,Northern America,United States of America,South Carolina,,North Charleston
104.196.135.175,4,1,splinternews.com,US,Americas,Northern America,United States of America,South Carolina,,North Charleston
34.74.49.45,4,3,streetauthority.com,US,Americas,Northern America,United States of America,South Carolina,,North Charleston
34.73.151.161,4,4,summerplastic.surgery,US,Americas,Northern America,United States of America,South Carolina,,North Charleston
34.73.37.120,4,6,swaay.com,US,Americas,Northern America,United States of America,South Carolina,,North Charleston
35.227.66.138,4,31,tallahasseearts.org,US,Americas,Northern America,United States of America,South Carolina,,North Charleston
34.73.62.59,4,5,thehrspecialist.com,US,Americas,Northern America,United States of America,South Carolina,,North Charleston
104.196.197.94,4,2151287,thesilphroad.com,US,Americas,Northern America,United States of America,South Carolina,,North Charleston
35.207.6.251,4,14,thestageonbroadway.com,US,Americas,Northern America,United States of America,South Carolina,,North Charleston
35.190.174.218,4,3,tinydns.org,US,Americas,Northern America,United States of America,South Carolina,,North Charleston
35.185.42.76,4,19,trker.com,US,Americas,Northern America,United States of America,South Carolina,,North Charleston
35.196.240.132,4,4,txrxlabs.org,US,Americas,Northern America,United States of America,South Carolina,,North Charleston
34.139.182.46,4,3,uapa.edu.do,US,Americas,Northern America,United States of America,South Carolina,,North Charleston
34.148.149.248,4,11,uniatlantico.edu.co,US,Americas,Northern America,United States of America,South Carolina,,North Charleston
35.196.95.123,4,30,univesp.br,US,Americas,Northern America,United States of America,South Carolina,,North Charleston
35.196.15.146,4,4,unsta.edu.ar,US,Americas,Northern America,United States of America,South Carolina,,North Charleston
35.231.195.223,4,3,vcca.com,US,Americas,Northern America,United States of America,South Carolina,,North Charleston
35.190.151.136,4,55,vinylstickers.com,US,Americas,Northern America,United States of America,South Carolina,,North Charleston
35.196.115.96,4,3,virtlo.com,US,Americas,Northern America,United States of America,South Carolina,,North Charleston
34.139.47.114,4,7,vtcrc.com,US,Americas,Northern America,United States of America,South Carolina,,North Charleston
34.75.77.60,4,4,welcomenepaltreks.com,US,Americas,Northern America,United States of America,South Carolina,,North Charleston
104.196.61.75,4,4,word2word.com,US,Americas,Northern America,United States of America,South Carolina,,North Charleston
