reflector_ip,ip_version,offset,description,country_code,region,sub_region,country_name,sub_division_1,sub_division_2,city
34.82.156.43,4,5,1trn.com,US,Americas,Northern America,United States of America,Oregon,,The Dalles
44.230.44.244,4,5,3dlook.me,US,Americas,Northern America,United States of America,Oregon,,Boardman
5.78.89.93,4,13,4d2.org,US,Americas,Northern America,United States of America,Oregon,,Hillsboro
51.81.205.63,4,-3,4guysfromrolla.com,US,Americas,Northern America,United States of America,Oregon,,Hillsboro
44.237.70.253,4,4,4iiii.com,US,Americas,Northern America,United States of America,Oregon,,Boardman
51.81.195.36,4,-2,aattp.org,US,Americas,Northern America,United States of America,Oregon,,Hillsboro
52.27.231.76,4,2,acemetrix.com,US,Americas,Northern America,United States of America,Oregon,,Boardman
54.188.52.62,4,6,adminmonitor.com,US,Americas,Northern America,United States of America,Oregon,,Boardman
54.148.69.205,4,3,adminmonitor.com,US,Americas,Northern America,United States of America,Oregon,,Boardman
52.33.243.231,4,19,adminmonitor.com,US,Americas,Northern America,United States of America,Oregon,,Boardman
8.39.235.115,4,20,adventuremomblog.com,US,Americas,Northern America,United States of America,Oregon,,Bend
34.208.203.190,4,5,airdata.com,US,Americas,Northern America,United States of America,Oregon,,Boardman
52.25.98.68,4,5,aiseesoft.com,US,Americas,Northern America,United States of America,Oregon,,Boardman
51.81.201.180,4,5,alexisparkinn.com,US,Americas,Northern America,United States of America,Oregon,,Hillsboro
54.68.96.25,4,128,alisonarmstrong.com,US,Americas,Northern America,United States of America,Oregon,,Boardman
69.59.196.169,4,29,allacademic.com,US,Americas,Northern America,United States of America,Oregon,,
100.21.57.139,4,7,alleanzaimobiliaria.com.br,US,Americas,Northern America,United States of America,Oregon,,Boardman
34.105.111.212,4,33,allstarlink.org,US,Americas,Northern America,United States of America,Oregon,,The Dalles
51.81.205.46,4,-3,alltechbuzz.net,US,Americas,Northern America,United States of America,Oregon,,Hillsboro
35.203.148.4,4,4,alphagroomingpetsalon.com,US,Americas,Northern America,United States of America,Oregon,,The Dalles
52.11.126.232,4,180,altmuslimah.com,US,Americas,Northern America,United States of America,Oregon,,Boardman
54.68.36.138,4,14,amaszonas.com,US,Americas,Northern America,United States of America,Oregon,,Boardman
35.163.207.168,4,5,anfip.org.br,US,Americas,Northern America,United States of America,Oregon,,Boardman
140.211.169.55,4,9,angstrom-distribution.org,US,Americas,Northern America,United States of America,Oregon,,Ashland
52.11.220.160,4,-253214,anii.org.uy,US,Americas,Northern America,United States of America,Oregon,,Boardman
100.20.92.225,4,-1,anyrec.io,US,Americas,Northern America,United States of America,Oregon,,Boardman
52.88.145.60,4,25,apeaksoft.com,US,Americas,Northern America,United States of America,Oregon,,Boardman
5.78.91.60,4,15,appcamp4girls.com,US,Americas,Northern America,United States of America,Oregon,,Hillsboro
35.167.217.60,4,3,aprn.org,US,Americas,Northern America,United States of America,Oregon,,Boardman
52.41.3.203,4,1,apwg.org,US,Americas,Northern America,United States of America,Oregon,,Boardman
52.32.95.156,4,43,arestravel.com,US,Americas,Northern America,United States of America,Oregon,,Boardman
35.247.92.239,4,11,argo.ai,US,Americas,Northern America,United States of America,Oregon,,The Dalles
52.11.239.87,4,2,armeniapedia.org,US,Americas,Northern America,United States of America,Oregon,,Boardman
66.241.70.99,4,9,ashlandchamber.com,US,Americas,Northern America,United States of America,Oregon,,Ashland
104.249.62.122,4,2690,assistanceleague.org,US,Americas,Northern America,United States of America,Oregon,,Bend
51.81.198.226,4,71,atebits.com,US,Americas,Northern America,United States of America,Oregon,,Hillsboro
51.81.245.35,4,3,atomicorp.com,US,Americas,Northern America,United States of America,Oregon,,Hillsboro
35.230.33.189,4,4,atvtracks.net,US,Americas,Northern America,United States of America,Oregon,,The Dalles
44.240.89.38,4,56,augustasportswear.com,US,Americas,Northern America,United States of America,Oregon,,Boardman
44.240.34.10,4,0,augustasportswear.com,US,Americas,Northern America,United States of America,Oregon,,Boardman
51.81.209.207,4,6,autisticburnout.org,US,Americas,Northern America,United States of America,Oregon,,Hillsboro
52.41.217.222,4,52,avaamo.ai,US,Americas,Northern America,United States of America,Oregon,,Boardman
52.36.248.55,4,15,avaamo.ai,US,Americas,Northern America,United States of America,Oregon,,Boardman
44.241.91.190,4,52,avaamo.ai,US,Americas,Northern America,United States of America,Oregon,,Boardman
54.218.146.122,4,68,avaamo.ai,US,Americas,Northern America,United States of America,Oregon,,Boardman
18.236.195.236,4,19,avaide.com,US,Americas,Northern America,United States of America,Oregon,,Boardman
34.145.43.103,4,3,babysparks.com,US,Americas,Northern America,United States of America,Oregon,,The Dalles
5.78.75.237,4,62,backwoodshome.com,US,Americas,Northern America,United States of America,Oregon,,Hillsboro
51.81.213.22,4,8,badmintonlink.com,US,Americas,Northern America,United States of America,Oregon,,Hillsboro
198.251.114.230,4,6,bandnamemaker.com,US,Americas,Northern America,United States of America,Oregon,,Medford
51.81.215.133,4,9,banyuleandnillumbikweekly.com.au,US,Americas,Northern America,United States of America,Oregon,,Hillsboro
51.81.205.40,4,4,baycitizen.org,US,Americas,Northern America,United States of America,Oregon,,Hillsboro
5.78.70.11,4,-12,beautifullife.info,US,Americas,Northern America,United States of America,Oregon,,Hillsboro
104.152.222.147,4,-8,beeanerd.com,US,Americas,Northern America,United States of America,Oregon,,Bend
104.198.4.135,4,25,beedub.com,US,Americas,Northern America,United States of America,Oregon,,The Dalles
5.78.104.95,4,3,bestiver.se,US,Americas,Northern America,United States of America,Oregon,,Hillsboro
216.151.18.115,4,7,bestplaces.net,US,Americas,Northern America,United States of America,Oregon,,Portland
15.204.12.153,4,1,betting-casinos.com,US,Americas,Northern America,United States of America,Oregon,,Hillsboro
52.13.27.231,4,17,bgmgirl.com,US,Americas,Northern America,United States of America,Oregon,,Boardman
54.213.41.230,4,7,bibbase.org,US,Americas,Northern America,United States of America,Oregon,,Boardman
54.71.87.189,4,-1,bibbulmuntrack.org.au,US,Americas,Northern America,United States of America,Oregon,,Boardman
52.41.133.68,4,5,bigfooty.com,US,Americas,Northern America,United States of America,Oregon,,Boardman
44.230.91.100,4,46,bigfooty.com,US,Americas,Northern America,United States of America,Oregon,,Boardman
104.198.13.4,4,10,bioinforx.com,US,Americas,Northern America,United States of America,Oregon,,The Dalles
52.11.229.59,4,80,bitglass.com,US,Americas,Northern America,United States of America,Oregon,,Boardman
52.41.10.242,4,19,bitglass.com,US,Americas,Northern America,United States of America,Oregon,,Boardman
54.187.61.52,4,10,bitglass.com,US,Americas,Northern America,United States of America,Oregon,,Boardman
54.187.64.198,4,30,bitglass.com,US,Americas,Northern America,United States of America,Oregon,,Boardman
104.255.169.137,4,664900,blahoo.net,US,Americas,Northern America,United States of America,Oregon,,Bend
54.191.109.124,4,7,blockfolio.com,US,Americas,Northern America,United States of America,Oregon,,Boardman
52.33.195.254,4,4,blockfolio.com,US,Americas,Northern America,United States of America,Oregon,,Boardman
54.218.199.113,4,6,bollywood.com,US,Americas,Northern America,United States of America,Oregon,,Boardman
34.208.54.94,4,13,bookey.app,US,Americas,Northern America,United States of America,Oregon,,Boardman
100.20.17.255,4,10,bookey.app,US,Americas,Northern America,United States of America,Oregon,,Boardman
35.247.52.117,4,12,bradfitz.com,US,Americas,Northern America,United States of America,Oregon,,The Dalles
140.211.10.233,4,31,buildbot.net,US,Americas,Northern America,United States of America,Oregon,,Albany
35.185.198.20,4,3,burzynskimovie.com,US,Americas,Northern America,United States of America,Oregon,,The Dalles
5.78.160.232,4,-13,bytes.com,US,Americas,Northern America,United States of America,Oregon,,Hillsboro
147.135.46.41,4,16,cadcrowd.com,US,Americas,Northern America,United States of America,Oregon,,Hillsboro
44.239.85.220,4,1,cafago.com,US,Americas,Northern America,United States of America,Oregon,,Boardman
35.83.171.225,4,3,cafago.com,US,Americas,Northern America,United States of America,Oregon,,Boardman
34.215.113.189,4,5,cafebonappetit.com,US,Americas,Northern America,United States of America,Oregon,,Boardman
34.216.100.204,4,3,cafebonappetit.com,US,Americas,Northern America,United States of America,Oregon,,Boardman
44.231.93.27,4,78,cafebonappetit.com,US,Americas,Northern America,United States of America,Oregon,,Boardman
52.10.68.252,4,2,cafebonappetit.com,US,Americas,Northern America,United States of America,Oregon,,Boardman
184.171.110.10,4,6,calico.org,US,Americas,Northern America,United States of America,Oregon,,Eugene
54.218.90.201,4,3,califa.org,US,Americas,Northern America,United States of America,Oregon,,Boardman
44.240.203.217,4,3,calmradio.com,US,Americas,Northern America,United States of America,Oregon,,Boardman
100.21.210.34,4,7,calmradio.com,US,Americas,Northern America,United States of America,Oregon,,Boardman
52.13.63.198,4,24,calmradio.com,US,Americas,Northern America,United States of America,Oregon,,Boardman
35.199.161.130,4,18,cancerforcollege.org,US,Americas,Northern America,United States of America,Oregon,,The Dalles
104.152.223.9,4,6,cannabisvapeoiluk.com,US,Americas,Northern America,United States of America,Oregon,,Roseburg
15.204.12.154,4,0,cashfever.com,US,Americas,Northern America,United States of America,Oregon,,Hillsboro
54.191.106.98,4,9,casualcollective.com,US,Americas,Northern America,United States of America,Oregon,,Boardman
154.16.113.86,4,573,catchmarketingservices.com,US,Americas,Northern America,United States of America,Oregon,,Bend
66.241.70.76,4,13,catheatres.com,US,Americas,Northern America,United States of America,Oregon,,Ashland
35.233.183.132,4,3,cba.org.br,US,Americas,Northern America,United States of America,Oregon,,The Dalles
35.230.42.194,4,5,cca.edu,US,Americas,Northern America,United States of America,Oregon,,The Dalles
35.155.254.145,4,1,ccssd.org,US,Americas,Northern America,United States of America,Oregon,,Boardman
216.151.1.213,4,5,cdfa.net,US,Americas,Northern America,United States of America,Oregon,,Portland
54.68.7.204,4,15,chargifypay.com,US,Americas,Northern America,United States of America,Oregon,,Boardman
44.239.38.75,4,4,chargifypay.com,US,Americas,Northern America,United States of America,Oregon,,Boardman
35.162.18.143,4,6,chargifypay.com,US,Americas,Northern America,United States of America,Oregon,,Boardman
51.81.215.137,4,7,christianscroll.org,US,Americas,Northern America,United States of America,Oregon,,Hillsboro
35.160.62.65,4,6,christonekingfishingram.com,US,Americas,Northern America,United States of America,Oregon,,Boardman
104.198.110.55,4,11,cirtru.com,US,Americas,Northern America,United States of America,Oregon,,The Dalles
44.227.31.219,4,3,cleanmasterofficial.com,US,Americas,Northern America,United States of America,Oregon,,Boardman
44.239.76.136,4,8,cleanmasterofficial.com,US,Americas,Northern America,United States of America,Oregon,,Boardman
52.27.95.132,4,2,click2stream.com,US,Americas,Northern America,United States of America,Oregon,,Boardman
54.148.84.45,4,41,click2stream.com,US,Americas,Northern America,United States of America,Oregon,,Boardman
44.230.206.67,4,10,click2stream.com,US,Americas,Northern America,United States of America,Oregon,,Boardman
52.26.193.31,4,3,click2stream.com,US,Americas,Northern America,United States of America,Oregon,,Boardman
35.167.33.164,4,-2,closetomyheart.com,US,Americas,Northern America,United States of America,Oregon,,Boardman
51.81.137.178,4,5,cmder.net,US,Americas,Northern America,United States of America,Oregon,,Hillsboro
104.255.174.94,4,944,cnpapers.com,US,Americas,Northern America,United States of America,Oregon,,Bend
52.13.5.33,4,5,colorquiz.com,US,Americas,Northern America,United States of America,Oregon,,Boardman
8.39.234.150,4,7,columbiamagazine.com,US,Americas,Northern America,United States of America,Oregon,,Bend
34.211.195.96,4,42,community.lawyer,US,Americas,Northern America,United States of America,Oregon,,Boardman
54.70.151.172,4,8,control4.com,US,Americas,Northern America,United States of America,Oregon,,Boardman
52.89.118.207,4,2,control4.com,US,Americas,Northern America,United States of America,Oregon,,Boardman
51.81.174.227,4,1,coophousing.org,US,Americas,Northern America,United States of America,Oregon,,Hillsboro
54.200.214.197,4,-5,costumedesignersguild.com,US,Americas,Northern America,United States of America,Oregon,,Boardman
34.83.202.64,4,17,cotsjournalonline.com,US,Americas,Northern America,United States of America,Oregon,,The Dalles
35.212.149.131,4,16,covidclinic.org,US,Americas,Northern America,United States of America,Oregon,,The Dalles
104.196.245.9,4,9,creddle.io,US,Americas,Northern America,United States of America,Oregon,,The Dalles
52.37.54.35,4,26,criptext.com,US,Americas,Northern America,United States of America,Oregon,,Boardman
140.211.15.129,4,1,crosstool-ng.org,US,Americas,Northern America,United States of America,Oregon,,Albany
35.162.52.224,4,8,crystal-information.com,US,Americas,Northern America,United States of America,Oregon,,Boardman
54.70.122.111,4,3,crystalcentral.com,US,Americas,Northern America,United States of America,Oregon,,Boardman
52.33.100.45,4,5,csmusic.net,US,Americas,Northern America,United States of America,Oregon,,Boardman
35.166.83.79,4,3,csmusic.net,US,Americas,Northern America,United States of America,Oregon,,Boardman
34.217.155.195,4,4,csmusic.net,US,Americas,Northern America,United States of America,Oregon,,Boardman
52.34.201.16,4,8,csmusic.net,US,Americas,Northern America,United States of America,Oregon,,Boardman
44.238.9.169,4,4,csueastbay.edu,US,Americas,Northern America,United States of America,Oregon,,Boardman
35.160.230.247,4,4,csueastbay.edu,US,Americas,Northern America,United States of America,Oregon,,Boardman
54.218.46.116,4,4,csueastbay.edu,US,Americas,Northern America,United States of America,Oregon,,Boardman
34.223.252.197,4,6,cutout.pro,US,Americas,Northern America,United States of America,Oregon,,Boardman
54.213.0.200,4,875,cyberstep.com,US,Americas,Northern America,United States of America,Oregon,,Boardman
51.81.205.42,4,-4,d-addicts.com,US,Americas,Northern America,United States of America,Oregon,,Hillsboro
140.211.166.85,4,8,darcs.net,US,Americas,Northern America,United States of America,Oregon,,Corvallis
198.37.120.231,4,5,dashcamtalk.com,US,Americas,Northern America,United States of America,Oregon,,Bend
54.148.25.117,4,1,databridgemarketresearch.com,US,Americas,Northern America,United States of America,Oregon,,Boardman
54.71.210.88,4,9,databridgemarketresearch.com,US,Americas,Northern America,United States of America,Oregon,,Boardman
35.80.98.40,4,9,databridgemarketresearch.com,US,Americas,Northern America,United States of America,Oregon,,Boardman
34.212.245.10,4,12,datasheetarchive.com,US,Americas,Northern America,United States of America,Oregon,,Boardman
51.81.138.29,4,16891,datypic.com,US,Americas,Northern America,United States of America,Oregon,,Hillsboro
216.155.208.187,4,5,daywireless.com,US,Americas,Northern America,United States of America,Oregon,,Estacada
52.36.198.145,4,3,dealmoon.com,US,Americas,Northern America,United States of America,Oregon,,Boardman
51.81.244.151,4,5,deftpdf.com,US,Americas,Northern America,United States of America,Oregon,,Hillsboro
52.11.240.137,4,43,denomades.com,US,Americas,Northern America,United States of America,Oregon,,Boardman
35.162.32.193,4,10,denomades.com,US,Americas,Northern America,United States of America,Oregon,,Boardman
147.135.36.232,4,-2,dentistleandertx.com,US,Americas,Northern America,United States of America,Oregon,,Hillsboro
34.209.176.26,4,18,destinflorida.com,US,Americas,Northern America,United States of America,Oregon,,Boardman
52.40.217.233,4,2,destinflorida.com,US,Americas,Northern America,United States of America,Oregon,,Boardman
69.163.39.205,4,7,deveiate.org,US,Americas,Northern America,United States of America,Oregon,,Portland
170.39.215.215,4,9,diasp.org,US,Americas,Northern America,United States of America,Oregon,,Bend
51.81.138.171,4,4,didaskalia.net,US,Americas,Northern America,United States of America,Oregon,,Hillsboro
216.218.141.229,4,3,diffbot.com,US,Americas,Northern America,United States of America,Oregon,,Mosier
54.213.139.226,4,35,digitalsignage.com,US,Americas,Northern America,United States of America,Oregon,,Boardman
34.215.53.35,4,5,dimelo.com,US,Americas,Northern America,United States of America,Oregon,,Boardman
44.240.17.238,4,6,dimelo.com,US,Americas,Northern America,United States of America,Oregon,,Boardman
52.13.138.70,4,-3,diversity-jobs.com,US,Americas,Northern America,United States of America,Oregon,,Boardman
5.78.46.98,4,-4,divorcecanbesimple.com,US,Americas,Northern America,United States of America,Oregon,,Hillsboro
52.33.197.131,4,11,dmv.com,US,Americas,Northern America,United States of America,Oregon,,Boardman
51.81.202.2,4,7,dmvnearme.net,US,Americas,Northern America,United States of America,Oregon,,Hillsboro
47.40.102.94,4,34133,DNS Server: 047-040-102-094.res.spectrum.com,US,Americas,Northern America,United States of America,Oregon,,Roseburg
71.34.107.192,4,7,DNS Server: 71-34-107-192.ptld.qwest.net,US,Americas,Northern America,United States of America,Oregon,,Portland
75.164.170.85,4,6,DNS Server: 75-164-170-85.ptld.qwest.net,US,Americas,Northern America,United States of America,Oregon,,Portland
96.95.146.25,4,-14,DNS Server: 96-95-146-25-static.hfc.comcastbusiness.net,US,Americas,Northern America,United States of America,Oregon,,Portland
73.37.53.123,4,5,DNS Server: c-73-37-53-123.hsd1.or.comcast.net,US,Americas,Northern America,United States of America,Oregon,,Portland
51.81.195.11,4,22,DNS Server: ip11.ip-51-81-195.us,US,Americas,Northern America,United States of America,Oregon,,Hillsboro
51.81.147.9,4,71,DNS Server: ip9.ip-51-81-147.us,US,Americas,Northern America,United States of America,Oregon,,Hillsboro
51.81.208.46,4,111,DNS Server: ns1009026.ip-51-81-208.us,US,Americas,Northern America,United States of America,Oregon,,Hillsboro
15.204.58.182,4,8,dragonfireperformance.com,US,Americas,Northern America,United States of America,Oregon,,Hillsboro
52.26.72.219,4,4,dragonmount.com,US,Americas,Northern America,United States of America,Oregon,,Boardman
44.229.142.142,4,35,dragonmount.com,US,Americas,Northern America,United States of America,Oregon,,Boardman
52.43.97.230,4,5,dragonmount.com,US,Americas,Northern America,United States of America,Oregon,,Boardman
54.200.24.20,4,4,dragonmount.com,US,Americas,Northern America,United States of America,Oregon,,Boardman
209.170.79.83,4,-10,dream-singles.com,US,Americas,Northern America,United States of America,Oregon,,Portland
209.170.79.82,4,-6,dream-singles.com,US,Americas,Northern America,United States of America,Oregon,,Portland
51.81.215.93,4,18,dreniq.com,US,Americas,Northern America,United States of America,Oregon,,Hillsboro
54.244.87.178,4,7,driveweatherapp.com,US,Americas,Northern America,United States of America,Oregon,,Boardman
198.251.116.253,4,459,drizzle.com,US,Americas,Northern America,United States of America,Oregon,,Medford
52.26.62.214,4,16,dukesseafood.com,US,Americas,Northern America,United States of America,Oregon,,Boardman
54.191.61.237,4,70,dukesseafood.com,US,Americas,Northern America,United States of America,Oregon,,Boardman
52.36.11.12,4,0,e-iceblue.com,US,Americas,Northern America,United States of America,Oregon,,Boardman
54.70.63.188,4,73,easepdf.com,US,Americas,Northern America,United States of America,Oregon,,Boardman
15.204.18.141,4,0,easy-sheds.com,US,Americas,Northern America,United States of America,Oregon,,Hillsboro
52.35.171.73,4,301,easyar.com,US,Americas,Northern America,United States of America,Oregon,,Boardman
35.161.143.102,4,129,economista.com.mx,US,Americas,Northern America,United States of America,Oregon,,Boardman
35.85.110.61,4,87,ecovacs.com,US,Americas,Northern America,United States of America,Oregon,,Boardman
44.231.49.0,4,1,edanzediting.com,US,Americas,Northern America,United States of America,Oregon,,Boardman
54.201.225.27,4,77,edtabsonline24h.com,US,Americas,Northern America,United States of America,Oregon,,Boardman
65.19.139.5,4,3,edu-observatory.org,US,Americas,Northern America,United States of America,Oregon,,Astoria
5.78.86.142,4,-16266,effortlessmath.com,US,Americas,Northern America,United States of America,Oregon,,Hillsboro
35.230.28.165,4,17,eglibc.org,US,Americas,Northern America,United States of America,Oregon,,The Dalles
54.148.207.117,4,10,ehsinsight.com,US,Americas,Northern America,United States of America,Oregon,,Boardman
100.21.65.91,4,12,ehsinsight.com,US,Americas,Northern America,United States of America,Oregon,,Boardman
54.148.239.35,4,13,ehungry.com,US,Americas,Northern America,United States of America,Oregon,,Boardman
34.168.26.183,4,64,eklitzke.org,US,Americas,Northern America,United States of America,Oregon,,The Dalles
35.161.100.221,4,21,elcomsoft.com,US,Americas,Northern America,United States of America,Oregon,,Boardman
34.215.188.205,4,172,elecfreaks.com,US,Americas,Northern America,United States of America,Oregon,,Boardman
140.211.15.97,4,36,elgg.org,US,Americas,Northern America,United States of America,Oregon,,Albany
54.148.72.236,4,15,emailonacid.com,US,Americas,Northern America,United States of America,Oregon,,Boardman
52.39.114.251,4,50,emailonacid.com,US,Americas,Northern America,United States of America,Oregon,,Boardman
35.161.91.7,4,79,emailonacid.com,US,Americas,Northern America,United States of America,Oregon,,Boardman
51.81.229.121,4,6,enetget.com,US,Americas,Northern America,United States of America,Oregon,,Hillsboro
66.169.254.194,4,-14,englundmarine.com,US,Americas,Northern America,United States of America,Oregon,,Astoria
140.211.167.131,4,12,enlightenment.org,US,Americas,Northern America,United States of America,Oregon,,Corvallis
65.19.141.99,4,1,enounce.com,US,Americas,Northern America,United States of America,Oregon,,Astoria
15.204.11.24,4,13,epicurean.com,US,Americas,Northern America,United States of America,Oregon,,Hillsboro
52.27.211.206,4,32,esljobslounge.com,US,Americas,Northern America,United States of America,Oregon,,Boardman
35.166.84.215,4,61,eventhi.io,US,Americas,Northern America,United States of America,Oregon,,Boardman
54.191.125.109,4,53,eventhi.io,US,Americas,Northern America,United States of America,Oregon,,Boardman
15.204.103.26,4,2,ewrdigital.com,US,Americas,Northern America,United States of America,Oregon,,Hillsboro
35.161.124.106,4,31,experianidworks.com,US,Americas,Northern America,United States of America,Oregon,,Boardman
51.81.148.209,4,4,explica.co,US,Americas,Northern America,United States of America,Oregon,,Hillsboro
51.81.151.147,4,4,ezinemark.com,US,Americas,Northern America,United States of America,Oregon,,Hillsboro
52.89.127.60,4,12,fav.me,US,Americas,Northern America,United States of America,Oregon,,Boardman
34.213.210.12,4,8,fav.me,US,Americas,Northern America,United States of America,Oregon,,Boardman
52.26.38.7,4,2,fav.me,US,Americas,Northern America,United States of America,Oregon,,Boardman
140.211.169.196,4,2,fedorahosted.org,US,Americas,Northern America,United States of America,Oregon,,Ashland
15.204.85.50,4,-1,fehali.com,US,Americas,Northern America,United States of America,Oregon,,Hillsboro
52.37.169.217,4,1,fielding.edu,US,Americas,Northern America,United States of America,Oregon,,Boardman
35.233.131.244,4,20,finishlineusa.com,US,Americas,Northern America,United States of America,Oregon,,The Dalles
44.239.99.253,4,17,firestats.cc,US,Americas,Northern America,United States of America,Oregon,,Boardman
34.83.202.223,4,4,firestonewalker.com,US,Americas,Northern America,United States of America,Oregon,,The Dalles
52.11.241.53,4,-33346,floobits.com,US,Americas,Northern America,United States of America,Oregon,,Boardman
52.89.47.77,4,174975,floobits.com,US,Americas,Northern America,United States of America,Oregon,,Boardman
51.81.215.125,4,6,fnnewsonline.com,US,Americas,Northern America,United States of America,Oregon,,Hillsboro
50.112.40.6,4,3,fonelab.com,US,Americas,Northern America,United States of America,Oregon,,Boardman
216.151.7.139,4,34,franchising.com,US,Americas,Northern America,United States of America,Oregon,,Portland
65.19.140.3,4,5,freeburmarangers.org,US,Americas,Northern America,United States of America,Oregon,,Astoria
15.204.12.35,4,5,freecsstemplates.org,US,Americas,Northern America,United States of America,Oregon,,Hillsboro
52.26.173.149,4,23,freemind.today,US,Americas,Northern America,United States of America,Oregon,,Boardman
35.166.142.92,4,30,freemyip.com,US,Americas,Northern America,United States of America,Oregon,,Boardman
100.20.112.54,4,2,frontpanelexpress.com,US,Americas,Northern America,United States of America,Oregon,,Boardman
44.235.97.209,4,5,fs.com,US,Americas,Northern America,United States of America,Oregon,,Boardman
44.232.196.184,4,0,fs.com,US,Americas,Northern America,United States of America,Oregon,,Boardman
216.151.7.140,4,4,gaiscioch.com,US,Americas,Northern America,United States of America,Oregon,,Portland
15.204.12.156,4,0,gambling-casinos-guide.com,US,Americas,Northern America,United States of America,Oregon,,Hillsboro
104.152.222.63,4,2114,gamebanshee.com,US,Americas,Northern America,United States of America,Oregon,,Bend
51.81.205.52,4,17,gamegavel.com,US,Americas,Northern America,United States of America,Oregon,,Hillsboro
5.78.83.132,4,-2,gcelt.org,US,Americas,Northern America,United States of America,Oregon,,Hillsboro
34.211.109.156,4,14,geekexchange.com,US,Americas,Northern America,United States of America,Oregon,,Boardman
54.69.253.54,4,4,genebase.com,US,Americas,Northern America,United States of America,Oregon,,Boardman
44.241.76.33,4,4,genebase.com,US,Americas,Northern America,United States of America,Oregon,,Boardman
8.39.234.166,4,4,georgiaweddingconsultants.com,US,Americas,Northern America,United States of America,Oregon,,Bend
51.81.205.55,4,-1,ges2016.org,US,Americas,Northern America,United States of America,Oregon,,Hillsboro
54.200.124.211,4,-1,getmymacros.com,US,Americas,Northern America,United States of America,Oregon,,Boardman
54.68.50.60,4,4,getwork.com,US,Americas,Northern America,United States of America,Oregon,,Boardman
35.83.22.192,4,2,getwork.com,US,Americas,Northern America,United States of America,Oregon,,Boardman
52.43.49.102,4,3,getwork.com,US,Americas,Northern America,United States of America,Oregon,,Boardman
51.81.205.48,4,2,getwox.com,US,Americas,Northern America,United States of America,Oregon,,Hillsboro
147.135.37.212,4,5,geysertimes.org,US,Americas,Northern America,United States of America,Oregon,,Hillsboro
52.26.51.43,4,8,givepower.org,US,Americas,Northern America,United States of America,Oregon,,Boardman
50.112.149.199,4,21,givepower.org,US,Americas,Northern America,United States of America,Oregon,,Boardman
35.203.181.185,4,3,gnzl.cl,US,Americas,Northern America,United States of America,Oregon,,The Dalles
52.89.234.38,4,15,gocopia.com,US,Americas,Northern America,United States of America,Oregon,,Boardman
34.213.28.187,4,5,gocopia.com,US,Americas,Northern America,United States of America,Oregon,,Boardman
54.186.127.180,4,7,gocopia.com,US,Americas,Northern America,United States of America,Oregon,,Boardman
44.239.11.155,4,4,gocopia.com,US,Americas,Northern America,United States of America,Oregon,,Boardman
51.81.211.207,4,18148,godhelpthegirl.com,US,Americas,Northern America,United States of America,Oregon,,Hillsboro
54.191.79.137,4,28,gogch.com,US,Americas,Northern America,United States of America,Oregon,,Boardman
35.83.107.94,4,15,gogch.com,US,Americas,Northern America,United States of America,Oregon,,Boardman
54.218.96.42,4,3,goldenbride.net,US,Americas,Northern America,United States of America,Oregon,,Boardman
51.81.204.80,4,-248,google-pluft.nl,US,Americas,Northern America,United States of America,Oregon,,Hillsboro
52.88.110.197,4,19,gopl.io,US,Americas,Northern America,United States of America,Oregon,,Boardman
155.254.19.114,4,41,gpsvisualizer.com,US,Americas,Northern America,United States of America,Oregon,,Bend
44.237.192.231,4,2,grassdoor.com,US,Americas,Northern America,United States of America,Oregon,,Boardman
35.163.193.32,4,29,grassdoor.com,US,Americas,Northern America,United States of America,Oregon,,Boardman
35.167.229.107,4,19,graviti.com,US,Americas,Northern America,United States of America,Oregon,,Boardman
52.89.206.65,4,4,graviti.com,US,Americas,Northern America,United States of America,Oregon,,Boardman
44.230.32.185,4,12,graviti.com,US,Americas,Northern America,United States of America,Oregon,,Boardman
44.235.235.162,4,8,graviti.com,US,Americas,Northern America,United States of America,Oregon,,Boardman
52.37.213.251,4,2,greateridaho.org,US,Americas,Northern America,United States of America,Oregon,,Boardman
52.36.76.130,4,45,greatplainscollege.ca,US,Americas,Northern America,United States of America,Oregon,,Boardman
44.231.77.14,4,30,greenrush.com,US,Americas,Northern America,United States of America,Oregon,,Boardman
34.145.58.89,4,-1,grilling.com,US,Americas,Northern America,United States of America,Oregon,,The Dalles
50.43.115.202,4,55,groundkontrol.com,US,Americas,Northern America,United States of America,Oregon,,Beaverton
147.135.36.77,4,9,grupotyc.com,US,Americas,Northern America,United States of America,Oregon,,Hillsboro
34.105.68.155,4,3,gshopper.com,US,Americas,Northern America,United States of America,Oregon,,The Dalles
54.202.86.196,4,6,guam.gov,US,Americas,Northern America,United States of America,Oregon,,Boardman
44.236.51.207,4,6,guardanthealth.com,US,Americas,Northern America,United States of America,Oregon,,Boardman
52.40.134.101,4,5,guardanthealth.com,US,Americas,Northern America,United States of America,Oregon,,Boardman
54.203.207.26,4,7,gulfshoreplayhouse.org,US,Americas,Northern America,United States of America,Oregon,,Boardman
44.231.167.87,4,26,gunrights.org,US,Americas,Northern America,United States of America,Oregon,,Boardman
52.88.53.99,4,6,gunrights.org,US,Americas,Northern America,United States of America,Oregon,,Boardman
52.42.23.184,4,1,gunrights.org,US,Americas,Northern America,United States of America,Oregon,,Boardman
54.69.159.180,4,4,gunrights.org,US,Americas,Northern America,United States of America,Oregon,,Boardman
52.42.183.14,4,10,hawaiilife.com,US,Americas,Northern America,United States of America,Oregon,,Boardman
35.165.188.72,4,-2,hea.com,US,Americas,Northern America,United States of America,Oregon,,Boardman
104.199.122.188,4,6,healthcabin.net,US,Americas,Northern America,United States of America,Oregon,,The Dalles
65.19.141.66,4,4,heliohost.org,US,Americas,Northern America,United States of America,Oregon,,Astoria
51.81.195.26,4,5,hillcountrybreakingnews.com,US,Americas,Northern America,United States of America,Oregon,,Hillsboro
5.78.81.154,4,7,hipsterlogogenerator.com,US,Americas,Northern America,United States of America,Oregon,,Hillsboro
52.24.20.166,4,11,hmana.org,US,Americas,Northern America,United States of America,Oregon,,Boardman
15.204.42.250,4,-1,homearise.com,US,Americas,Northern America,United States of America,Oregon,,Hillsboro
52.32.125.182,4,6,honorcare.com,US,Americas,Northern America,United States of America,Oregon,,Boardman
35.162.183.212,4,7,honorcare.com,US,Americas,Northern America,United States of America,Oregon,,Boardman
52.27.114.141,4,5,honorcare.com,US,Americas,Northern America,United States of America,Oregon,,Boardman
44.224.154.238,4,37,hotelpeterandpaul.com,US,Americas,Northern America,United States of America,Oregon,,Boardman
15.205.109.118,4,2,hrl.com,US,Americas,Northern America,United States of America,Oregon,,Boardman
52.61.12.187,4,3,hrl.com,US,Americas,Northern America,United States of America,Oregon,,Boardman
198.37.102.12,4,9,ibs.edu.lk,US,Americas,Northern America,United States of America,Oregon,,Bend
52.88.3.188,4,5,iccu.com,US,Americas,Northern America,United States of America,Oregon,,Boardman
50.112.138.184,4,-6,icesoft.org,US,Americas,Northern America,United States of America,Oregon,,Boardman
52.25.149.241,4,4,idk.com,US,Americas,Northern America,United States of America,Oregon,,Boardman
52.41.226.225,4,4,iezvu.com,US,Americas,Northern America,United States of America,Oregon,,Boardman
54.187.101.49,4,4,igms.com,US,Americas,Northern America,United States of America,Oregon,,Boardman
35.83.129.67,4,1,imboldn.com,US,Americas,Northern America,United States of America,Oregon,,Boardman
52.35.16.38,4,21,imboldn.com,US,Americas,Northern America,United States of America,Oregon,,Boardman
5.78.162.0,4,-14,incpu.ru,US,Americas,Northern America,United States of America,Oregon,,Hillsboro
65.19.150.83,4,461028,indianaturewatch.net,US,Americas,Northern America,United States of America,Oregon,,Astoria
147.135.36.135,4,6,industrialhempfarms.com,US,Americas,Northern America,United States of America,Oregon,,Hillsboro
38.77.195.163,4,26,inflexion.org,US,Americas,Northern America,United States of America,Oregon,,Eugene
52.34.190.107,4,9,infocasas.com.uy,US,Americas,Northern America,United States of America,Oregon,,Boardman
54.69.20.74,4,5,infocasas.com.uy,US,Americas,Northern America,United States of America,Oregon,,Boardman
52.37.1.163,4,60,infomine.com,US,Americas,Northern America,United States of America,Oregon,,Boardman
54.244.6.48,4,121,infomine.com,US,Americas,Northern America,United States of America,Oregon,,Boardman
52.88.233.87,4,6,infomine.com,US,Americas,Northern America,United States of America,Oregon,,Boardman
65.19.156.3,4,47,infraredsauna.com,US,Americas,Northern America,United States of America,Oregon,,Astoria
140.211.9.79,4,5,inkscape.org,US,Americas,Northern America,United States of America,Oregon,,Albany
51.81.205.34,4,-5,insidecatholic.com,US,Americas,Northern America,United States of America,Oregon,,Hillsboro
34.209.167.59,4,0,inspiredbythis.com,US,Americas,Northern America,United States of America,Oregon,,Boardman
44.232.84.88,4,0,inspiredbythis.com,US,Americas,Northern America,United States of America,Oregon,,Boardman
54.202.85.71,4,6,inspiredbythis.com,US,Americas,Northern America,United States of America,Oregon,,Boardman
52.26.196.197,4,5,inspiredbythis.com,US,Americas,Northern America,United States of America,Oregon,,Boardman
15.204.57.67,4,-2,internet.com,US,Americas,Northern America,United States of America,Oregon,,Hillsboro
52.33.79.204,4,2,irisenergy.co,US,Americas,Northern America,United States of America,Oregon,,Boardman
15.204.104.90,4,18,irixusa.com,US,Americas,Northern America,United States of America,Oregon,,Hillsboro
35.166.33.104,4,2,ivrose.com,US,Americas,Northern America,United States of America,Oregon,,Boardman
34.208.3.234,4,7,ivrose.com,US,Americas,Northern America,United States of America,Oregon,,Boardman
52.43.82.20,4,11,ivrose.com,US,Americas,Northern America,United States of America,Oregon,,Boardman
54.148.206.56,4,2,jacketmagazine.com,US,Americas,Northern America,United States of America,Oregon,,Boardman
63.224.252.32,4,5,jammed.com,US,Americas,Northern America,United States of America,Oregon,,Portland
35.197.95.6,4,3,jguitar.com,US,Americas,Northern America,United States of America,Oregon,,The Dalles
104.255.174.113,4,1644,josieking.org,US,Americas,Northern America,United States of America,Oregon,,Bend
15.204.43.84,4,19,jotscroll.com,US,Americas,Northern America,United States of America,Oregon,,Hillsboro
35.197.62.248,4,3,journalscape.com,US,Americas,Northern America,United States of America,Oregon,,The Dalles
51.81.205.43,4,-5,jt.org,US,Americas,Northern America,United States of America,Oregon,,Hillsboro
51.81.205.35,4,-3,kafila.org,US,Americas,Northern America,United States of America,Oregon,,Hillsboro
51.81.214.161,4,6,kagay-an.com,US,Americas,Northern America,United States of America,Oregon,,Hillsboro
65.19.150.82,4,427261,kalyanvarma.net,US,Americas,Northern America,United States of America,Oregon,,Astoria
54.191.95.168,4,4,kandrive.org,US,Americas,Northern America,United States of America,Oregon,,Boardman
35.83.71.170,4,7,kandrive.org,US,Americas,Northern America,United States of America,Oregon,,Boardman
50.112.231.232,4,0,karim-benzema.org,US,Americas,Northern America,United States of America,Oregon,,Boardman
51.81.242.168,4,0,karymullis.com,US,Americas,Northern America,United States of America,Oregon,,Hillsboro
103.124.106.93,4,9,kinkyshop.co.il,US,Americas,Northern America,United States of America,Oregon,,Portland
5.78.75.183,4,17,kitchenerfamilydentist.com,US,Americas,Northern America,United States of America,Oregon,,Hillsboro
51.81.205.38,4,-5,kitchensurfing.com,US,Americas,Northern America,United States of America,Oregon,,Hillsboro
96.79.110.97,4,13,kithrup.com,US,Americas,Northern America,United States of America,Oregon,,Beaverton
5.78.72.63,4,8,kmxt.org,US,Americas,Northern America,United States of America,Oregon,,Hillsboro
54.202.88.251,4,1,kooding.com,US,Americas,Northern America,United States of America,Oregon,,Boardman
5.78.67.177,4,5,kulfiy.com,US,Americas,Northern America,United States of America,Oregon,,Hillsboro
147.135.36.46,4,5,languageguide.org,US,Americas,Northern America,United States of America,Oregon,,Hillsboro
104.152.223.13,4,6,lastingexpressionphotography.com,US,Americas,Northern America,United States of America,Oregon,,Roseburg
35.161.232.244,4,14,leadfuze.com,US,Americas,Northern America,United States of America,Oregon,,Boardman
5.78.97.5,4,25,lemmy.today,US,Americas,Northern America,United States of America,Oregon,,Hillsboro
147.135.36.190,4,16,lerdorf.com,US,Americas,Northern America,United States of America,Oregon,,Hillsboro
54.200.3.198,4,15,lesschwab.com,US,Americas,Northern America,United States of America,Oregon,,Boardman
100.21.89.111,4,7,lesschwab.com,US,Americas,Northern America,United States of America,Oregon,,Boardman
147.135.44.9,4,4,lhub.to,US,Americas,Northern America,United States of America,Oregon,,Hillsboro
5.78.91.100,4,16,librti.com,US,Americas,Northern America,United States of America,Oregon,,Hillsboro
52.89.84.245,4,8,linked.com,US,Americas,Northern America,United States of America,Oregon,,Boardman
34.83.144.127,4,4,linko.page,US,Americas,Northern America,United States of America,Oregon,,The Dalles
140.211.9.49,4,2,linuxchix.org,US,Americas,Northern America,United States of America,Oregon,,Albany
15.204.22.7,4,5,lkwdpl.org,US,Americas,Northern America,United States of America,Oregon,,Hillsboro
51.81.185.129,4,6,loans4usa.com,US,Americas,Northern America,United States of America,Oregon,,Hillsboro
51.81.215.129,4,9,loop21.com,US,Americas,Northern America,United States of America,Oregon,,Hillsboro
5.78.104.244,4,6,lostcheese.com,US,Americas,Northern America,United States of America,Oregon,,Hillsboro
52.35.239.206,4,1,loyalfordogs.com,US,Americas,Northern America,United States of America,Oregon,,Boardman
35.155.143.220,4,3,loyalfordogs.com,US,Americas,Northern America,United States of America,Oregon,,Boardman
34.210.23.65,4,3,lwvnet.org,US,Americas,Northern America,United States of America,Oregon,,Boardman
51.81.229.122,4,4,maboot.com,US,Americas,Northern America,United States of America,Oregon,,Hillsboro
35.203.175.58,4,6,maccallumhouse.com,US,Americas,Northern America,United States of America,Oregon,,The Dalles
8.39.235.11,4,45,macrossworld.com,US,Americas,Northern America,United States of America,Oregon,,Bend
50.220.20.196,4,2069,mad-cow.org,US,Americas,Northern America,United States of America,Oregon,,Springfield
5.78.98.254,4,36,magazinesubscriberservices.com,US,Americas,Northern America,United States of America,Oregon,,Hillsboro
54.71.110.28,4,9,mailorderbridescanada.com,US,Americas,Northern America,United States of America,Oregon,,Boardman
54.187.137.151,4,60,mailordercentral.com,US,Americas,Northern America,United States of America,Oregon,,Boardman
52.26.195.96,4,2,mailwasher.net,US,Americas,Northern America,United States of America,Oregon,,Boardman
44.239.246.184,4,3,mantralabsglobal.com,US,Americas,Northern America,United States of America,Oregon,,Boardman
44.228.21.105,4,1,mantralabsglobal.com,US,Americas,Northern America,United States of America,Oregon,,Boardman
35.164.121.44,4,2,mantralabsglobal.com,US,Americas,Northern America,United States of America,Oregon,,Boardman
140.211.15.3,4,2,mapserver.org,US,Americas,Northern America,United States of America,Oregon,,Albany
34.83.63.148,4,56,markerly.com,US,Americas,Northern America,United States of America,Oregon,,The Dalles
52.40.185.61,4,4,marlinequity.com,US,Americas,Northern America,United States of America,Oregon,,Boardman
140.211.66.154,4,4,martinamisweb.com,US,Americas,Northern America,United States of America,Oregon,,Monmouth
34.105.38.102,4,7,materiacollective.com,US,Americas,Northern America,United States of America,Oregon,,The Dalles
52.40.111.135,4,1,mathacademy.com,US,Americas,Northern America,United States of America,Oregon,,Boardman
51.81.154.225,4,2,mcagfair.com,US,Americas,Northern America,United States of America,Oregon,,Hillsboro
35.83.107.201,4,1,mccollege.edu,US,Americas,Northern America,United States of America,Oregon,,Boardman
5.78.101.174,4,-1,measuredhs.com,US,Americas,Northern America,United States of America,Oregon,,Hillsboro
51.81.138.180,4,39,mediactive.com,US,Americas,Northern America,United States of America,Oregon,,Hillsboro
52.26.134.23,4,40,megameeting.com,US,Americas,Northern America,United States of America,Oregon,,Boardman
51.81.198.251,4,-4,meritline.com,US,Americas,Northern America,United States of America,Oregon,,Hillsboro
51.81.253.125,4,57,metapress.com,US,Americas,Northern America,United States of America,Oregon,,Hillsboro
15.204.15.230,4,16,mikechurch.com,US,Americas,Northern America,United States of America,Oregon,,Hillsboro
52.10.59.49,4,3,mikroe.com,US,Americas,Northern America,United States of America,Oregon,,Boardman
155.254.19.165,4,7,miramarevents.com,US,Americas,Northern America,United States of America,Oregon,,Bend
52.25.199.131,4,21,mlsdev.com,US,Americas,Northern America,United States of America,Oregon,,Boardman
44.236.125.20,4,4,mobileroadie.com,US,Americas,Northern America,United States of America,Oregon,,Boardman
35.81.119.152,4,8,mobileroadie.com,US,Americas,Northern America,United States of America,Oregon,,Boardman
216.134.160.120,4,8,molalla.com,US,Americas,Northern America,United States of America,Oregon,,Molalla
52.36.114.8,4,7,momento360.com,US,Americas,Northern America,United States of America,Oregon,,Boardman
52.37.11.98,4,20,momento360.com,US,Americas,Northern America,United States of America,Oregon,,Boardman
44.224.232.36,4,10,momento360.com,US,Americas,Northern America,United States of America,Oregon,,Boardman
34.208.186.250,4,2,motec.com.au,US,Americas,Northern America,United States of America,Oregon,,Boardman
5.78.89.95,4,21,mountainworldtreks.com,US,Americas,Northern America,United States of America,Oregon,,Hillsboro
75.145.67.76,4,-3228,musetechnical.com,US,Americas,Northern America,United States of America,Oregon,,Portland
54.188.235.114,4,11,myatlascms.com,US,Americas,Northern America,United States of America,Oregon,,Boardman
50.112.231.169,4,10,myatlascms.com,US,Americas,Northern America,United States of America,Oregon,,Boardman
44.236.191.0,4,5,myatlascms.com,US,Americas,Northern America,United States of America,Oregon,,Boardman
51.81.206.213,4,-6,mybasis.com,US,Americas,Northern America,United States of America,Oregon,,Hillsboro
34.210.176.226,4,3,mycloud.com,US,Americas,Northern America,United States of America,Oregon,,Boardman
54.245.120.18,4,22,mycloud.com,US,Americas,Northern America,United States of America,Oregon,,Boardman
52.88.147.184,4,24,mycloud.com,US,Americas,Northern America,United States of America,Oregon,,Boardman
44.235.232.197,4,41,myleague.com,US,Americas,Northern America,United States of America,Oregon,,Boardman
44.241.193.36,4,22,myleague.com,US,Americas,Northern America,United States of America,Oregon,,Boardman
54.186.9.241,4,0,mylocalsalon.com,US,Americas,Northern America,United States of America,Oregon,,Boardman
52.33.148.39,4,26,mymromarts.com,US,Americas,Northern America,United States of America,Oregon,,Boardman
44.241.25.154,4,3,mymromarts.com,US,Americas,Northern America,United States of America,Oregon,,Boardman
52.12.197.185,4,45,mymromarts.com,US,Americas,Northern America,United States of America,Oregon,,Boardman
52.89.182.65,4,1,mymromarts.com,US,Americas,Northern America,United States of America,Oregon,,Boardman
54.214.73.189,4,9,mysocialpinpoint.com,US,Americas,Northern America,United States of America,Oregon,,Boardman
34.223.136.148,4,1,mysocialpinpoint.com,US,Americas,Northern America,United States of America,Oregon,,Boardman
140.211.167.216,4,4,mythtv.org,US,Americas,Northern America,United States of America,Oregon,,Corvallis
5.78.160.128,4,-10,narwhal.city,US,Americas,Northern America,United States of America,Oregon,,Hillsboro
44.226.85.72,4,46,nativehealth.org,US,Americas,Northern America,United States of America,Oregon,,Boardman
35.155.94.233,4,1,navacenter.com,US,Americas,Northern America,United States of America,Oregon,,Boardman
35.212.150.207,4,1,ncgr.org,US,Americas,Northern America,United States of America,Oregon,,The Dalles
51.81.243.2,4,0,neorogue.com,US,Americas,Northern America,United States of America,Oregon,,Hillsboro
44.242.25.33,4,5,net1plus.com,US,Americas,Northern America,United States of America,Oregon,,Boardman
15.204.12.157,4,-2,netgamblingsite.com,US,Americas,Northern America,United States of America,Oregon,,Hillsboro
5.78.124.99,4,24,netronline.com,US,Americas,Northern America,United States of America,Oregon,,Hillsboro
44.238.179.109,4,13,newfront.com,US,Americas,Northern America,United States of America,Oregon,,Boardman
52.12.40.70,4,6,newfront.com,US,Americas,Northern America,United States of America,Oregon,,Boardman
54.188.129.68,4,4,newfront.com,US,Americas,Northern America,United States of America,Oregon,,Boardman
52.24.94.113,4,2,newlifeoutlook.com,US,Americas,Northern America,United States of America,Oregon,,Boardman
51.81.165.21,4,13,newsgater.com,US,Americas,Northern America,United States of America,Oregon,,Hillsboro
51.81.214.160,4,50,newsmaritime.com,US,Americas,Northern America,United States of America,Oregon,,Hillsboro
51.81.243.232,4,8,newspapers.ph,US,Americas,Northern America,United States of America,Oregon,,Hillsboro
15.204.12.18,4,30,newsvarsity.com,US,Americas,Northern America,United States of America,Oregon,,Hillsboro
50.112.183.172,4,8,nibbledish.com,US,Americas,Northern America,United States of America,Oregon,,Boardman
35.247.109.91,4,9,nicemice.net,US,Americas,Northern America,United States of America,Oregon,,The Dalles
35.83.115.51,4,3,nobleprog.com,US,Americas,Northern America,United States of America,Oregon,,Boardman
54.218.172.172,4,6,nortekcontrol.com,US,Americas,Northern America,United States of America,Oregon,,Boardman
54.188.101.126,4,5,npu.edu,US,Americas,Northern America,United States of America,Oregon,,Boardman
54.189.25.119,4,1,nudies.club,US,Americas,Northern America,United States of America,Oregon,,Boardman
147.135.38.149,4,-3,nyafuu.org,US,Americas,Northern America,United States of America,Oregon,,Hillsboro
54.68.197.142,4,7,nyx.net,US,Americas,Northern America,United States of America,Oregon,,Boardman
140.211.167.15,4,1,ohiolinux.org,US,Americas,Northern America,United States of America,Oregon,,Corvallis
51.81.242.100,4,0,olevod.com,US,Americas,Northern America,United States of America,Oregon,,Hillsboro
104.196.232.154,4,42,olympia.co.uk,US,Americas,Northern America,United States of America,Oregon,,The Dalles
51.81.215.89,4,17,omegaunderground.com,US,Americas,Northern America,United States of America,Oregon,,Hillsboro
44.230.98.102,4,-1,omniupdate.com,US,Americas,Northern America,United States of America,Oregon,,Boardman
52.10.152.152,4,46,onestopjerkyshop.com,US,Americas,Northern America,United States of America,Oregon,,Boardman
34.83.245.55,4,4,ontarioconstructionnews.com,US,Americas,Northern America,United States of America,Oregon,,The Dalles
209.216.162.10,4,6907,Ookla Speedtest Server 4063: myspeed.gorge.net,US,Americas,Northern America,United States of America,Oregon,,Hood River
216.110.192.118,4,1253910,Ookla Speedtest Server 6215: speedtest.lsnetworks.net,US,Americas,Northern America,United States of America,Oregon,,Moro
216.243.12.210,4,165,Ookla Speedtest Server 18533: speedtest-woodburnhe.wavebroadband.com,US,Americas,Northern America,United States of America,Oregon,,Carlton
173.241.160.38,4,304,Ookla Speedtest Server 51770: sn-speedtest-03.sandynet.org,US,Americas,Northern America,United States of America,Oregon,,Sandy
45.41.252.38,4,292,Ookla Speedtest Server 52388: speed.hyak.co,US,Americas,Northern America,United States of America,Oregon,,Florence
67.208.99.244,4,328,Ookla Speedtest Server 64152: pdxpo0001speedtestserver01.wiline.com,US,Americas,Northern America,United States of America,Oregon,,Portland
216.155.208.41,4,166,Ookla Speedtest Server: Speed.rconnects.com,US,Americas,Northern America,United States of America,Oregon,,Estacada
108.174.183.195,4,33,Ookla Speedtest Server: www.orcacomm.com,US,Americas,Northern America,United States of America,Oregon,,Roseburg
52.43.49.19,4,3,open-mpi.org,US,Americas,Northern America,United States of America,Oregon,,Boardman
35.199.159.224,4,31,open3d.org,US,Americas,Northern America,United States of America,Oregon,,The Dalles
15.204.3.230,4,141303,openleaks.org,US,Americas,Northern America,United States of America,Oregon,,Hillsboro
52.26.100.57,4,0,opentaps.org,US,Americas,Northern America,United States of America,Oregon,,Boardman
208.99.56.17,4,57,oregoncoastmagazine.com,US,Americas,Northern America,United States of America,Oregon,,Brookings
128.193.164.101,4,38,oregondigital.org,US,Americas,Northern America,United States of America,Oregon,,Corvallis
128.193.164.100,4,63,oregondigital.org,US,Americas,Northern America,United States of America,Oregon,,Corvallis
128.193.206.21,4,6,oregonflora.org,US,Americas,Northern America,United States of America,Oregon,,Corvallis
199.107.167.117,4,14,ori.org,US,Americas,Northern America,United States of America,Oregon,,Portland
54.245.86.90,4,6,osvr.com,US,Americas,Northern America,United States of America,Oregon,,Boardman
51.81.138.174,4,3,outhistory.org,US,Americas,Northern America,United States of America,Oregon,,Hillsboro
52.33.221.185,4,25,papadels.com,US,Americas,Northern America,United States of America,Oregon,,Boardman
51.81.196.0,4,5,para2000.org,US,Americas,Northern America,United States of America,Oregon,,Hillsboro
51.81.138.3,4,17506,pburch.net,US,Americas,Northern America,United States of America,Oregon,,Hillsboro
44.225.85.195,4,12,pcbgogo.com,US,Americas,Northern America,United States of America,Oregon,,Boardman
44.238.176.97,4,10,pcbgogo.com,US,Americas,Northern America,United States of America,Oregon,,Boardman
52.25.125.170,4,18,pcbway.com,US,Americas,Northern America,United States of America,Oregon,,Boardman
44.234.141.86,4,10,pcbway.com,US,Americas,Northern America,United States of America,Oregon,,Boardman
192.234.119.19,4,35943,pclinuxos.com,US,Americas,Northern America,United States of America,Oregon,,Lebanon
192.234.119.32,4,19,pclosmag.com,US,Americas,Northern America,United States of America,Oregon,,Lebanon
35.212.164.13,4,4,pdf-express.org,US,Americas,Northern America,United States of America,Oregon,,The Dalles
35.82.105.215,4,13,pdftron.com,US,Americas,Northern America,United States of America,Oregon,,Boardman
54.187.154.121,4,0,pdftron.com,US,Americas,Northern America,United States of America,Oregon,,Boardman
35.230.92.47,4,20,peak.ne.jp,US,Americas,Northern America,United States of America,Oregon,,The Dalles
52.34.178.78,4,5,perceptyx.com,US,Americas,Northern America,United States of America,Oregon,,Boardman
34.215.19.8,4,25,perceptyx.com,US,Americas,Northern America,United States of America,Oregon,,Boardman
54.189.157.226,4,21,perceptyx.com,US,Americas,Northern America,United States of America,Oregon,,Boardman
140.211.9.122,4,8999,personaltelco.net,US,Americas,Northern America,United States of America,Oregon,,Albany
65.182.224.60,4,27,perturb.org,US,Americas,Northern America,United States of America,Oregon,,Canby
54.202.32.132,4,3,photo.net,US,Americas,Northern America,United States of America,Oregon,,Boardman
44.233.15.135,4,32,photo.net,US,Americas,Northern America,United States of America,Oregon,,Boardman
44.229.49.181,4,2,photo.net,US,Americas,Northern America,United States of America,Oregon,,Boardman
54.68.92.40,4,13,pics4learning.com,US,Americas,Northern America,United States of America,Oregon,,Boardman
44.231.184.72,4,20,pics4learning.com,US,Americas,Northern America,United States of America,Oregon,,Boardman
50.43.62.90,4,39,pismotechnic.com,US,Americas,Northern America,United States of America,Oregon,,Portland
51.81.202.106,4,31,planetlockdownfilm.com,US,Americas,Northern America,United States of America,Oregon,,Hillsboro
51.81.137.146,4,-3,plrdatabase.net,US,Americas,Northern America,United States of America,Oregon,,Hillsboro
54.188.59.237,4,5,pntrac.com,US,Americas,Northern America,United States of America,Oregon,,Boardman
54.148.78.66,4,6,pntrac.com,US,Americas,Northern America,United States of America,Oregon,,Boardman
170.39.215.216,4,36,podupti.me,US,Americas,Northern America,United States of America,Oregon,,Bend
51.81.205.49,4,10,politic365.com,US,Americas,Northern America,United States of America,Oregon,,Hillsboro
15.204.41.192,4,58,prmac.com,US,Americas,Northern America,United States of America,Oregon,,Hillsboro
15.204.52.164,4,67,proamerica360.com,US,Americas,Northern America,United States of America,Oregon,,Hillsboro
54.191.30.60,4,7,processwire.com,US,Americas,Northern America,United States of America,Oregon,,Boardman
44.227.249.93,4,33,processwire.com,US,Americas,Northern America,United States of America,Oregon,,Boardman
35.166.127.150,4,78,processwire.com,US,Americas,Northern America,United States of America,Oregon,,Boardman
18.236.38.223,4,69,processwire.com,US,Americas,Northern America,United States of America,Oregon,,Boardman
52.35.3.5,4,21,puremagic.com,US,Americas,Northern America,United States of America,Oregon,,Boardman
51.81.205.39,4,-1,pvplive.net,US,Americas,Northern America,United States of America,Oregon,,Hillsboro
35.160.35.144,4,6,pyrotek.com,US,Americas,Northern America,United States of America,Oregon,,Boardman
140.211.15.4,4,2,qemu-project.org,US,Americas,Northern America,United States of America,Oregon,,Albany
54.69.213.197,4,10,qmetry.com,US,Americas,Northern America,United States of America,Oregon,,Boardman
35.247.70.22,4,6,qrcodechimp.com,US,Americas,Northern America,United States of America,Oregon,,The Dalles
52.26.98.106,4,35,rakuten.today,US,Americas,Northern America,United States of America,Oregon,,Boardman
52.41.16.182,4,56,rankingtennisclub.com,US,Americas,Northern America,United States of America,Oregon,,Boardman
5.78.79.32,4,18,raptivity.com,US,Americas,Northern America,United States of America,Oregon,,Hillsboro
51.81.174.185,4,18201,rationalistinternational.net,US,Americas,Northern America,United States of America,Oregon,,Hillsboro
15.204.12.84,4,18,readability.com,US,Americas,Northern America,United States of America,Oregon,,Hillsboro
51.81.155.24,4,21,realestatedaily-news.com,US,Americas,Northern America,United States of America,Oregon,,Hillsboro
5.78.106.190,4,15,realis.network,US,Americas,Northern America,United States of America,Oregon,,Hillsboro
5.78.106.232,4,45,realis.network,US,Americas,Northern America,United States of America,Oregon,,Hillsboro
5.78.110.7,4,6,realis.network,US,Americas,Northern America,United States of America,Oregon,,Hillsboro
34.217.201.179,4,3,realtydao.com,US,Americas,Northern America,United States of America,Oregon,,Boardman
35.227.138.93,4,12,recruitloop.com,US,Americas,Northern America,United States of America,Oregon,,The Dalles
35.185.211.143,4,21,recurvetech.com,US,Americas,Northern America,United States of America,Oregon,,The Dalles
52.37.255.120,4,34,redagricola.com,US,Americas,Northern America,United States of America,Oregon,,Boardman
52.37.241.214,4,6,redagricola.com,US,Americas,Northern America,United States of America,Oregon,,Boardman
52.89.237.67,4,33,rentmoola.com,US,Americas,Northern America,United States of America,Oregon,,Boardman
34.215.103.116,4,19,rentmoola.com,US,Americas,Northern America,United States of America,Oregon,,Boardman
44.237.57.171,4,8,rentmoola.com,US,Americas,Northern America,United States of America,Oregon,,Boardman
35.247.117.43,4,9,rephotosolution.com,US,Americas,Northern America,United States of America,Oregon,,The Dalles
35.166.231.211,4,13,restaurantcateringsystems.com,US,Americas,Northern America,United States of America,Oregon,,Boardman
34.82.173.111,4,25,riffmagazine.com,US,Americas,Northern America,United States of America,Oregon,,The Dalles
51.81.188.13,4,6,rinkratron.com,US,Americas,Northern America,United States of America,Oregon,,Hillsboro
44.239.232.80,4,11,rmgo.org,US,Americas,Northern America,United States of America,Oregon,,Boardman
52.26.83.115,4,5,rmgo.org,US,Americas,Northern America,United States of America,Oregon,,Boardman
34.211.88.102,4,7,rmgo.org,US,Americas,Northern America,United States of America,Oregon,,Boardman
44.236.225.199,4,6,rmgo.org,US,Americas,Northern America,United States of America,Oregon,,Boardman
15.204.104.148,4,40,robintrack.net,US,Americas,Northern America,United States of America,Oregon,,Hillsboro
52.36.51.84,4,24,robly.com,US,Americas,Northern America,United States of America,Oregon,,Boardman
52.41.150.158,4,1,robly.com,US,Americas,Northern America,United States of America,Oregon,,Boardman
44.229.104.71,4,2,robly.com,US,Americas,Northern America,United States of America,Oregon,,Boardman
52.27.60.220,4,2,robly.com,US,Americas,Northern America,United States of America,Oregon,,Boardman
51.81.187.58,4,38,rockbox.org,US,Americas,Northern America,United States of America,Oregon,,Hillsboro
5.78.16.101,4,43,roedererestate.com,US,Americas,Northern America,United States of America,Oregon,,Hillsboro
52.37.93.47,4,-47682,roughstock.com,US,Americas,Northern America,United States of America,Oregon,,Boardman
128.223.51.20,4,36,routeviews.org,US,Americas,Northern America,United States of America,Oregon,,Eugene
140.211.10.170,4,2,rtems.org,US,Americas,Northern America,United States of America,Oregon,,Albany
50.112.161.86,4,45,runkit.com,US,Americas,Northern America,United States of America,Oregon,,Boardman
52.11.188.94,4,32,runkit.com,US,Americas,Northern America,United States of America,Oregon,,Boardman
35.80.242.115,4,63,runkit.com,US,Americas,Northern America,United States of America,Oregon,,Boardman
52.25.232.67,4,17,rvappstudios.com,US,Americas,Northern America,United States of America,Oregon,,Boardman
5.78.92.183,4,772,sage.agency,US,Americas,Northern America,United States of America,Oregon,,Hillsboro
54.187.166.175,4,6,samepage.io,US,Americas,Northern America,United States of America,Oregon,,Boardman
35.155.205.112,4,0,samepage.io,US,Americas,Northern America,United States of America,Oregon,,Boardman
35.166.41.116,4,4,samepage.io,US,Americas,Northern America,United States of America,Oregon,,Boardman
54.186.135.72,4,25,samepage.io,US,Americas,Northern America,United States of America,Oregon,,Boardman
155.254.19.164,4,2,samschowderhouse.com,US,Americas,Northern America,United States of America,Oregon,,Bend
44.240.255.236,4,7,sansar.com,US,Americas,Northern America,United States of America,Oregon,,Boardman
44.233.61.92,4,14,sansar.com,US,Americas,Northern America,United States of America,Oregon,,Boardman
52.41.85.88,4,3,saritasa.com,US,Americas,Northern America,United States of America,Oregon,,Boardman
35.167.78.87,4,35,saritasa.com,US,Americas,Northern America,United States of America,Oregon,,Boardman
147.135.37.169,4,6,satthep.net,US,Americas,Northern America,United States of America,Oregon,,Hillsboro
51.81.185.192,4,355,savebears.org,US,Americas,Northern America,United States of America,Oregon,,Hillsboro
35.155.203.214,4,6,sbcc.edu,US,Americas,Northern America,United States of America,Oregon,,Boardman
54.68.49.14,4,25,scout.me,US,Americas,Northern America,United States of America,Oregon,,Boardman
35.162.241.102,4,6,scoutgps.com,US,Americas,Northern America,United States of America,Oregon,,Boardman
50.112.176.211,4,37,scoutgps.com,US,Americas,Northern America,United States of America,Oregon,,Boardman
51.81.205.32,4,-3,scrapdigest.com,US,Americas,Northern America,United States of America,Oregon,,Hillsboro
192.173.156.2,4,2,scrye.com,US,Americas,Northern America,United States of America,Oregon,,Philomath
35.160.224.169,4,-2,scvavolleyball.org,US,Americas,Northern America,United States of America,Oregon,,Boardman
198.37.120.194,4,2179,securitycamcenter.com,US,Americas,Northern America,United States of America,Oregon,,Bend
54.149.185.29,4,11,segment7.net,US,Americas,Northern America,United States of America,Oregon,,Boardman
51.81.205.60,4,7,sellaband.com,US,Americas,Northern America,United States of America,Oregon,,Hillsboro
18.236.1.250,4,33,servitechlabs.com,US,Americas,Northern America,United States of America,Oregon,,Boardman
147.135.46.3,4,42,sevasales.com,US,Americas,Northern America,United States of America,Oregon,,Hillsboro
108.174.190.109,4,59,sevenfeathers.com,US,Americas,Northern America,United States of America,Oregon,,Yoncalla
103.124.106.134,4,-12,sex4sex.co.il,US,Americas,Northern America,United States of America,Oregon,,Portland
140.211.167.245,4,17,sfconservancy.org,US,Americas,Northern America,United States of America,Oregon,,Corvallis
54.68.234.32,4,-1,shadertoy.com,US,Americas,Northern America,United States of America,Oregon,,Boardman
35.155.111.40,4,3,shadertoy.com,US,Americas,Northern America,United States of America,Oregon,,Boardman
104.196.236.238,4,3,shaklee.com,US,Americas,Northern America,United States of America,Oregon,,The Dalles
15.204.14.150,4,11,sharkprocessing.com,US,Americas,Northern America,United States of America,Oregon,,Hillsboro
104.255.169.179,4,10,sharks-world.com,US,Americas,Northern America,United States of America,Oregon,,Bend
51.81.214.238,4,4,sheckys.com,US,Americas,Northern America,United States of America,Oregon,,Hillsboro
35.197.98.11,4,3,sheet.host,US,Americas,Northern America,United States of America,Oregon,,The Dalles
51.81.183.220,4,9,sherlockian.net,US,Americas,Northern America,United States of America,Oregon,,Hillsboro
35.160.144.211,4,3,shiekh.com,US,Americas,Northern America,United States of America,Oregon,,Boardman
35.82.2.44,4,6,shiekh.com,US,Americas,Northern America,United States of America,Oregon,,Boardman
100.21.79.188,4,0,shiekhshoes.com,US,Americas,Northern America,United States of America,Oregon,,Boardman
44.225.197.2,4,5,shiekhshoes.com,US,Americas,Northern America,United States of America,Oregon,,Boardman
51.81.245.227,4,-4,shiningforcecentral.com,US,Americas,Northern America,United States of America,Oregon,,Hillsboro
51.81.195.80,4,11,shiptalk.org,US,Americas,Northern America,United States of America,Oregon,,Hillsboro
52.36.108.40,4,10,shopbase.com,US,Americas,Northern America,United States of America,Oregon,,Boardman
147.135.37.193,4,9,simpleprogrammer.com,US,Americas,Northern America,United States of America,Oregon,,Hillsboro
15.204.15.50,4,2,simplycollectiblecrochet.com,US,Americas,Northern America,United States of America,Oregon,,Hillsboro
66.39.178.168,4,2,singlemothersbychoice.org,US,Americas,Northern America,United States of America,Oregon,,Bend
35.247.58.108,4,5,sipcertified.org,US,Americas,Northern America,United States of America,Oregon,,The Dalles
54.213.201.186,4,64,skincaretherapy.net,US,Americas,Northern America,United States of America,Oregon,,Boardman
35.167.159.135,4,6,sky9.tw,US,Americas,Northern America,United States of America,Oregon,,Boardman
51.81.205.59,4,18,slamxhype.com,US,Americas,Northern America,United States of America,Oregon,,Hillsboro
34.82.156.243,4,27,sldirectory.com,US,Americas,Northern America,United States of America,Oregon,,The Dalles
51.81.205.57,4,6,slendergame.com,US,Americas,Northern America,United States of America,Oregon,,Hillsboro
52.36.10.140,4,1,smartmeetings.com,US,Americas,Northern America,United States of America,Oregon,,Boardman
54.187.57.13,4,30,smartvoter.org,US,Americas,Northern America,United States of America,Oregon,,Boardman
54.184.63.216,4,5,snapseed.online,US,Americas,Northern America,United States of America,Oregon,,Boardman
15.204.12.56,4,64,snooth.com,US,Americas,Northern America,United States of America,Oregon,,Hillsboro
44.225.127.158,4,7,snorkel.ai,US,Americas,Northern America,United States of America,Oregon,,Boardman
147.135.36.163,4,59,socialcatfish.com,US,Americas,Northern America,United States of America,Oregon,,Hillsboro
65.19.133.164,4,12,softandapps.info,US,Americas,Northern America,United States of America,Oregon,,Astoria
51.81.198.227,4,7,solidsmack.com,US,Americas,Northern America,United States of America,Oregon,,Hillsboro
54.218.210.31,4,21,sonomacountyairport.org,US,Americas,Northern America,United States of America,Oregon,,Boardman
52.36.100.27,4,18,sonomacountyairport.org,US,Americas,Northern America,United States of America,Oregon,,Boardman
51.81.188.11,4,18,soup.io,US,Americas,Northern America,United States of America,Oregon,,Hillsboro
52.43.47.174,4,2,sourceforge.jp,US,Americas,Northern America,United States of America,Oregon,,Boardman
34.217.253.179,4,6,sourceforge.jp,US,Americas,Northern America,United States of America,Oregon,,Boardman
44.240.165.155,4,18,soyatech.com,US,Americas,Northern America,United States of America,Oregon,,Boardman
54.188.4.191,4,12,spaceref.com,US,Americas,Northern America,United States of America,Oregon,,Boardman
34.208.231.21,4,23,spanglishbaby.com,US,Americas,Northern America,United States of America,Oregon,,Boardman
54.188.171.71,4,22,spellquiz.com,US,Americas,Northern America,United States of America,Oregon,,Boardman
54.148.145.49,4,13,spellquiz.com,US,Americas,Northern America,United States of America,Oregon,,Boardman
35.81.119.249,4,14,spellquiz.com,US,Americas,Northern America,United States of America,Oregon,,Boardman
34.82.147.118,4,4,spoonfulapp.com,US,Americas,Northern America,United States of America,Oregon,,The Dalles
52.89.129.153,4,68,sportscity.com,US,Americas,Northern America,United States of America,Oregon,,Boardman
155.254.16.33,4,459,sportsforum.com,US,Americas,Northern America,United States of America,Oregon,,Bend
34.105.108.62,4,4,sportshawaii.com,US,Americas,Northern America,United States of America,Oregon,,The Dalles
54.71.144.65,4,7,squareone.ca,US,Americas,Northern America,United States of America,Oregon,,Boardman
54.200.215.185,4,7,squareone.ca,US,Americas,Northern America,United States of America,Oregon,,Boardman
35.167.135.111,4,3,squareone.ca,US,Americas,Northern America,United States of America,Oregon,,Boardman
50.43.78.21,4,10,squidge.org,US,Americas,Northern America,United States of America,Oregon,,Hillsboro
104.152.222.128,4,6,srilankan.lk,US,Americas,Northern America,United States of America,Oregon,,Bend
216.151.9.99,4,428,ssiworld.com,US,Americas,Northern America,United States of America,Oregon,,Portland
52.43.45.197,4,3,stamped.io,US,Americas,Northern America,United States of America,Oregon,,Boardman
52.39.253.133,4,-1,stamped.io,US,Americas,Northern America,United States of America,Oregon,,Boardman
35.85.100.176,4,-1,stamped.io,US,Americas,Northern America,United States of America,Oregon,,Boardman
35.163.130.105,4,1,stamped.io,US,Americas,Northern America,United States of America,Oregon,,Boardman
51.81.209.40,4,59,starforgemc.com,US,Americas,Northern America,United States of America,Oregon,,Hillsboro
35.199.187.167,4,59,starkinsider.com,US,Americas,Northern America,United States of America,Oregon,,The Dalles
34.168.20.175,4,34,staroffice.com,US,Americas,Northern America,United States of America,Oregon,,The Dalles
15.204.48.197,4,57,start2000.nl,US,Americas,Northern America,United States of America,Oregon,,Hillsboro
69.30.47.84,4,14,stashtea.com,US,Americas,Northern America,United States of America,Oregon,,Portland
5.78.126.54,4,3,stribling.com,US,Americas,Northern America,United States of America,Oregon,,Hillsboro
52.26.212.215,4,1,studiosweatondemand.com,US,Americas,Northern America,United States of America,Oregon,,Boardman
51.81.205.62,4,33,studyguide.org,US,Americas,Northern America,United States of America,Oregon,,Hillsboro
51.81.243.158,4,0,survivalcourses.org,US,Americas,Northern America,United States of America,Oregon,,Hillsboro
34.211.233.150,4,16,sutrobio.com,US,Americas,Northern America,United States of America,Oregon,,Boardman
44.230.72.191,4,-23,swipeclock.com,US,Americas,Northern America,United States of America,Oregon,,Boardman
34.83.243.62,4,7,sysadmincasts.com,US,Americas,Northern America,United States of America,Oregon,,The Dalles
35.165.98.11,4,7,tacobellfoundation.org,US,Americas,Northern America,United States of America,Oregon,,Boardman
51.81.137.113,4,4,tapscape.com,US,Americas,Northern America,United States of America,Oregon,,Hillsboro
34.211.202.45,4,5,taskeasy.com,US,Americas,Northern America,United States of America,Oregon,,Boardman
52.43.111.191,4,0,tct.tv,US,Americas,Northern America,United States of America,Oregon,,Boardman
34.217.146.143,4,18,teachdemocracy.org,US,Americas,Northern America,United States of America,Oregon,,Boardman
44.235.224.195,4,5,techlinkcenter.org,US,Americas,Northern America,United States of America,Oregon,,Boardman
35.80.114.204,4,4,techlinkcenter.org,US,Americas,Northern America,United States of America,Oregon,,Boardman
34.223.160.61,4,43,teechip.com,US,Americas,Northern America,United States of America,Oregon,,Boardman
54.148.50.74,4,80,teechip.com,US,Americas,Northern America,United States of America,Oregon,,Boardman
147.135.46.168,4,75,tellabs.com,US,Americas,Northern America,United States of America,Oregon,,Hillsboro
34.83.94.186,4,3,temeculawines.org,US,Americas,Northern America,United States of America,Oregon,,The Dalles
51.81.198.189,4,0,the-underdogs.org,US,Americas,Northern America,United States of America,Oregon,,Hillsboro
192.183.215.91,4,-5979,thebigboss.org,US,Americas,Northern America,United States of America,Oregon,,La Grande
34.145.51.5,4,4,theclassychapter.com,US,Americas,Northern America,United States of America,Oregon,,The Dalles
35.165.55.180,4,13,thedeanhotel.com,US,Americas,Northern America,United States of America,Oregon,,Boardman
44.232.168.194,4,0,thedeanhotel.com,US,Americas,Northern America,United States of America,Oregon,,Boardman
44.228.167.144,4,21,thedefenders.net,US,Americas,Northern America,United States of America,Oregon,,Boardman
50.112.25.166,4,4,thedevconf.com,US,Americas,Northern America,United States of America,Oregon,,Boardman
44.232.159.254,4,26,thedevconf.com,US,Americas,Northern America,United States of America,Oregon,,Boardman
100.21.65.171,4,6,thedevconf.com,US,Americas,Northern America,United States of America,Oregon,,Boardman
34.216.2.116,4,37,thefatemperor.com,US,Americas,Northern America,United States of America,Oregon,,Boardman
140.211.167.4,4,6,theforeman.org,US,Americas,Northern America,United States of America,Oregon,,Corvallis
15.204.67.140,4,14,thefreeadforum.com,US,Americas,Northern America,United States of America,Oregon,,Hillsboro
52.34.126.88,4,37,thegogame.com,US,Americas,Northern America,United States of America,Oregon,,Boardman
51.81.215.121,4,5,thehackpost.com,US,Americas,Northern America,United States of America,Oregon,,Hillsboro
54.185.93.118,4,76,thejohnfox.com,US,Americas,Northern America,United States of America,Oregon,,Boardman
65.19.144.97,4,59,theleagueonline.org,US,Americas,Northern America,United States of America,Oregon,,Astoria
35.247.53.102,4,10,thewritersblock.org,US,Americas,Northern America,United States of America,Oregon,,The Dalles
208.71.201.29,4,32,thprd.org,US,Americas,Northern America,United States of America,Oregon,,Hillsboro
54.186.202.16,4,2,ticketprinting.com,US,Americas,Northern America,United States of America,Oregon,,Boardman
54.188.29.112,4,7,ticketprinting.com,US,Americas,Northern America,United States of America,Oregon,,Boardman
54.71.54.109,4,0,ticketprinting.com,US,Americas,Northern America,United States of America,Oregon,,Boardman
34.216.84.90,4,3,ticketriver.com,US,Americas,Northern America,United States of America,Oregon,,Boardman
35.161.188.235,4,5,ticketriver.com,US,Americas,Northern America,United States of America,Oregon,,Boardman
54.200.114.97,4,27,tinashehair.com,US,Americas,Northern America,United States of America,Oregon,,Boardman
52.10.132.209,4,0,tinashehair.com,US,Americas,Northern America,United States of America,Oregon,,Boardman
35.85.17.175,4,-2,tipard.com,US,Americas,Northern America,United States of America,Oregon,,Boardman
44.238.15.189,4,4,todotango.com,US,Americas,Northern America,United States of America,Oregon,,Boardman
34.209.166.140,4,4,todotango.com,US,Americas,Northern America,United States of America,Oregon,,Boardman
35.203.182.32,4,7,toilet-guru.com,US,Americas,Northern America,United States of America,Oregon,,The Dalles
128.193.186.39,4,2,tolweb.org,US,Americas,Northern America,United States of America,Oregon,,Lebanon
54.148.1.31,4,19,tomtop.com,US,Americas,Northern America,United States of America,Oregon,,Boardman
52.33.55.99,4,4,tomtop.com,US,Americas,Northern America,United States of America,Oregon,,Boardman
199.204.38.40,4,64,topoquest.com,US,Americas,Northern America,United States of America,Oregon,,Klamath Falls
35.166.219.36,4,3,topsevenreviews.com,US,Americas,Northern America,United States of America,Oregon,,Boardman
35.199.148.86,4,6,trackapartner.com,US,Americas,Northern America,United States of America,Oregon,,The Dalles
104.249.62.104,4,329,tradezone.com,US,Americas,Northern America,United States of America,Oregon,,Bend
147.135.46.98,4,4,traumainformedoregon.org,US,Americas,Northern America,United States of America,Oregon,,Hillsboro
44.232.181.164,4,9,triconresidential.com,US,Americas,Northern America,United States of America,Oregon,,Boardman
51.81.188.14,4,5,truthfuleditor.com,US,Americas,Northern America,United States of America,Oregon,,Hillsboro
50.112.82.230,4,3,tsroadmap.com,US,Americas,Northern America,United States of America,Oregon,,Boardman
34.208.222.81,4,2,tsroadmap.com,US,Americas,Northern America,United States of America,Oregon,,Boardman
54.71.207.109,4,8,tsroadmap.com,US,Americas,Northern America,United States of America,Oregon,,Boardman
5.78.46.119,4,5,tuckerhillaz.com,US,Americas,Northern America,United States of America,Oregon,,Hillsboro
34.19.127.104,4,7,twpro.jp,US,Americas,Northern America,United States of America,Oregon,,The Dalles
34.19.0.139,4,3,twpro.jp,US,Americas,Northern America,United States of America,Oregon,,The Dalles
208.99.56.16,4,5,u-s-history.com,US,Americas,Northern America,United States of America,Oregon,,Brookings
44.233.147.252,4,1,uadates.com,US,Americas,Northern America,United States of America,Oregon,,Boardman
34.168.40.175,4,9,uat.edu,US,Americas,Northern America,United States of America,Oregon,,The Dalles
52.42.32.115,4,15,ubnt.com,US,Americas,Northern America,United States of America,Oregon,,Boardman
52.10.191.69,4,21,ubnt.com,US,Americas,Northern America,United States of America,Oregon,,Boardman
52.36.100.118,4,7,ubnt.com,US,Americas,Northern America,United States of America,Oregon,,Boardman
51.81.188.45,4,18166,ultramonkey.org,US,Americas,Northern America,United States of America,Oregon,,Hillsboro
54.71.153.182,4,6,unions.org,US,Americas,Northern America,United States of America,Oregon,,Boardman
65.100.62.105,4,6,uruk.org,US,Americas,Northern America,United States of America,Oregon,,Portland
52.25.144.75,4,36,used-line.com,US,Americas,Northern America,United States of America,Oregon,,Boardman
51.81.160.157,4,-1,uta.cloud,US,Americas,Northern America,United States of America,Oregon,,Hillsboro
208.67.200.46,4,7,vacationrentals411.com,US,Americas,Northern America,United States of America,Oregon,,Hillsboro
5.78.121.17,4,7,vaccinechoicecanada.com,US,Americas,Northern America,United States of America,Oregon,,Hillsboro
51.81.205.47,4,-3,valvetime.net,US,Americas,Northern America,United States of America,Oregon,,Hillsboro
147.135.45.24,4,26,vegas-valley.com,US,Americas,Northern America,United States of America,Oregon,,Hillsboro
35.164.3.172,4,15,vendhq.com,US,Americas,Northern America,United States of America,Oregon,,Boardman
44.226.3.81,4,7,vendhq.com,US,Americas,Northern America,United States of America,Oregon,,Boardman
54.187.33.222,4,0,ventura.org,US,Americas,Northern America,United States of America,Oregon,,Boardman
52.25.136.60,4,17,ventura.org,US,Americas,Northern America,United States of America,Oregon,,Boardman
34.217.247.121,4,2,venyu.com,US,Americas,Northern America,United States of America,Oregon,,Boardman
34.211.154.126,4,1,vidmore.com,US,Americas,Northern America,United States of America,Oregon,,Boardman
34.19.28.48,4,28,vietnamfinance.vn,US,Americas,Northern America,United States of America,Oregon,,The Dalles
54.200.155.93,4,47,vilaombak.com,US,Americas,Northern America,United States of America,Oregon,,Boardman
51.81.205.41,4,23,village-bakery.com,US,Americas,Northern America,United States of America,Oregon,,Hillsboro
155.254.18.31,4,10,vip600.com,US,Americas,Northern America,United States of America,Oregon,,Bend
147.135.39.236,4,6,vtz.mx,US,Americas,Northern America,United States of America,Oregon,,Hillsboro
44.228.249.3,4,2,vulnweb.com,US,Americas,Northern America,United States of America,Oregon,,Boardman
5.78.160.164,4,-15,walletinvestor.com,US,Americas,Northern America,United States of America,Oregon,,Hillsboro
51.81.202.206,4,1,walsh.com,US,Americas,Northern America,United States of America,Oregon,,Hillsboro
208.71.200.36,4,-10,wccls.org,US,Americas,Northern America,United States of America,Oregon,,Hillsboro
51.81.183.214,4,6,wcuquad.com,US,Americas,Northern America,United States of America,Oregon,,Hillsboro
52.40.189.31,4,8,webassessor.com,US,Americas,Northern America,United States of America,Oregon,,Boardman
35.230.89.149,4,3,wellable.co,US,Americas,Northern America,United States of America,Oregon,,The Dalles
35.203.161.141,4,2,wellbeingscounselling.ca,US,Americas,Northern America,United States of America,Oregon,,The Dalles
147.135.36.165,4,8,westernbass.com,US,Americas,Northern America,United States of America,Oregon,,Hillsboro
207.109.38.131,4,2,westernseminary.edu,US,Americas,Northern America,United States of America,Oregon,,Portland
104.255.170.81,4,724,wetmachine.com,US,Americas,Northern America,United States of America,Oregon,,Bend
52.25.148.89,4,9,wheelhouse.com,US,Americas,Northern America,United States of America,Oregon,,Boardman
35.165.45.97,4,4,wheelhouse.com,US,Americas,Northern America,United States of America,Oregon,,Boardman
54.70.83.128,4,15,whiteclaw.com,US,Americas,Northern America,United States of America,Oregon,,Boardman
54.149.67.150,4,4,whiteclaw.com,US,Americas,Northern America,United States of America,Oregon,,Boardman
50.112.150.139,4,25,whitehallledger.com,US,Americas,Northern America,United States of America,Oregon,,Boardman
51.81.205.51,4,0,widgetbox.com,US,Americas,Northern America,United States of America,Oregon,,Hillsboro
52.36.176.199,4,14,wiebetech.com,US,Americas,Northern America,United States of America,Oregon,,Boardman
54.187.122.53,4,78,wikiindex.org,US,Americas,Northern America,United States of America,Oregon,,Boardman
52.38.137.226,4,43,wikiindex.org,US,Americas,Northern America,United States of America,Oregon,,Boardman
51.81.184.25,4,0,windowsfordevices.com,US,Americas,Northern America,United States of America,Oregon,,Hillsboro
54.188.144.140,4,2,wiseagent.com,US,Americas,Northern America,United States of America,Oregon,,Boardman
52.40.174.40,4,1,wiseagent.com,US,Americas,Northern America,United States of America,Oregon,,Boardman
54.190.87.103,4,2,wiseagent.com,US,Americas,Northern America,United States of America,Oregon,,Boardman
35.165.62.155,4,3,wrangellsentinel.com,US,Americas,Northern America,United States of America,Oregon,,Boardman
52.24.53.217,4,20,wrirosscities.org,US,Americas,Northern America,United States of America,Oregon,,Boardman
54.190.214.87,4,3,wush.net,US,Americas,Northern America,United States of America,Oregon,,Boardman
67.43.64.10,4,11,wvi.com,US,Americas,Northern America,United States of America,Oregon,,Stayton
51.81.165.18,4,-6,xiaomiui.net,US,Americas,Northern America,United States of America,Oregon,,Hillsboro
51.81.205.37,4,-1,xomba.com,US,Americas,Northern America,United States of America,Oregon,,Hillsboro
140.211.166.31,4,1,xspf.org,US,Americas,Northern America,United States of America,Oregon,,Corvallis
5.78.106.210,4,-7,yamasaur.com,US,Americas,Northern America,United States of America,Oregon,,Hillsboro
54.218.89.189,4,2,yardsales.net,US,Americas,Northern America,United States of America,Oregon,,Boardman
54.203.75.182,4,16,yardsales.net,US,Americas,Northern America,United States of America,Oregon,,Boardman
15.204.67.21,4,3,ydw2020.com,US,Americas,Northern America,United States of America,Oregon,,Hillsboro
174.140.165.119,4,276595,yeloong.com,US,Americas,Northern America,United States of America,Oregon,,Portland
44.232.227.244,4,2,yestrak.com,US,Americas,Northern America,United States of America,Oregon,,Boardman
52.40.92.109,4,6,yestrak.com,US,Americas,Northern America,United States of America,Oregon,,Boardman
44.228.240.202,4,1,yestrak.com,US,Americas,Northern America,United States of America,Oregon,,Boardman
54.190.68.117,4,0,yestrak.com,US,Americas,Northern America,United States of America,Oregon,,Boardman
35.197.114.216,4,2796228,yogiapproved.com,US,Americas,Northern America,United States of America,Oregon,,The Dalles
51.81.165.16,4,-6,yoodley.com,US,Americas,Northern America,United States of America,Oregon,,Hillsboro
184.171.92.30,4,2,zfin.org,US,Americas,Northern America,United States of America,Oregon,,Eugene
51.81.174.128,4,4,ziddu.com,US,Americas,Northern America,United States of America,Oregon,,Hillsboro
35.166.226.192,4,6,zinro.net,US,Americas,Northern America,United States of America,Oregon,,Boardman
35.230.10.20,4,3,zippia.com,US,Americas,Northern America,United States of America,Oregon,,The Dalles
52.11.37.152,4,0,zoomdrain.com,US,Americas,Northern America,United States of America,Oregon,,Boardman
44.230.117.43,4,2,zscaler.com,US,Americas,Northern America,United States of America,Oregon,,Boardman
51.81.224.150,4,4,zshare.net,US,Americas,Northern America,United States of America,Oregon,,Hillsboro
15.204.56.187,4,-3,zsxwz.com,US,Americas,Northern America,United States of America,Oregon,,Hillsboro
51.81.194.202,4,5,zxq.net,US,Americas,Northern America,United States of America,Oregon,,Hillsboro
