reflector_ip,ip_version,offset,description,country_code,region,sub_region,country_name,sub_division_1,sub_division_2,city
192.155.95.31,4,6,68kmla.org,US,Americas,Northern America,United States of America,Georgia,,Atlanta
173.230.139.69,4,7,aaacn.org,US,Americas,Northern America,United States of America,Georgia,,Atlanta
45.79.201.107,4,13,acpe.org,US,Americas,Northern America,United States of America,Georgia,,Atlanta
45.79.193.216,4,29,aczoom.com,US,Americas,Northern America,United States of America,Georgia,,Atlanta
107.161.28.66,4,4,addesigner.com,US,Americas,Northern America,United States of America,Georgia,,Atlanta
74.207.228.105,4,425,addictionrecoveryguide.org,US,Americas,Northern America,United States of America,Georgia,,Atlanta
155.138.160.28,4,24,adtunes.com,US,Americas,Northern America,United States of America,Georgia,,Atlanta
108.61.192.134,4,0,adva-soft.com,US,Americas,Northern America,United States of America,Georgia,,Atlanta
173.230.133.211,4,333612,agenciaenvios.com,US,Americas,Northern America,United States of America,Georgia,,Atlanta
45.79.252.230,4,6,algop.org,US,Americas,Northern America,United States of America,Georgia,,Atlanta
45.32.221.133,4,34,all4one.com,US,Americas,Northern America,United States of America,Georgia,,Atlanta
194.195.210.182,4,5,ambermd.org,US,Americas,Northern America,United States of America,Georgia,,Atlanta
209.195.10.247,4,2,analoggamestudies.org,US,Americas,Northern America,United States of America,Georgia,,Marietta
173.230.132.141,4,22,angelisms.com,US,Americas,Northern America,United States of America,Georgia,,Atlanta
23.239.17.15,4,22,ania.org,US,Americas,Northern America,United States of America,Georgia,,Atlanta
139.144.48.87,4,7,annanurse.org,US,Americas,Northern America,United States of America,Georgia,,Atlanta
170.187.155.27,4,228309,anybrowser.org,US,Americas,Northern America,United States of America,Georgia,,Atlanta
66.154.14.122,4,78,arab-trainers.net,US,Americas,Northern America,United States of America,Georgia,,Atlanta
50.116.36.110,4,28,archlinuxarm.org,US,Americas,Northern America,United States of America,Georgia,,Atlanta
69.61.33.104,4,40,argenbio.org,US,Americas,Northern America,United States of America,Georgia,,Atlanta
50.116.41.19,4,13,arrowpress.net,US,Americas,Northern America,United States of America,Georgia,,Atlanta
45.33.97.131,4,20,aucenter.edu,US,Americas,Northern America,United States of America,Georgia,,Atlanta
66.42.80.254,4,23,avoidthehack.com,US,Americas,Northern America,United States of America,Georgia,,Atlanta
45.79.217.187,4,5,azenv.net,US,Americas,Northern America,United States of America,Georgia,,Atlanta
74.207.229.118,4,7,b-rhymes.com,US,Americas,Northern America,United States of America,Georgia,,Atlanta
107.175.30.100,4,7,badgerbadgerbadger.com,US,Americas,Northern America,United States of America,Georgia,,Marietta
45.79.203.41,4,11,bahamasferries.com,US,Americas,Northern America,United States of America,Georgia,,Atlanta
192.155.93.246,4,5,baheyeldin.com,US,Americas,Northern America,United States of America,Georgia,,Atlanta
155.138.214.252,4,-2,bakingobsession.com,US,Americas,Northern America,United States of America,Georgia,,Atlanta
67.222.3.173,4,10,banlieusardises.com,US,Americas,Northern America,United States of America,Georgia,,Atlanta
173.230.134.218,4,4,baptistfriends.org,US,Americas,Northern America,United States of America,Georgia,,Atlanta
216.119.148.40,4,1,barcelonayellow.com,US,Americas,Northern America,United States of America,Georgia,,Atlanta
45.33.97.164,4,6,belkasoft.com,US,Americas,Northern America,United States of America,Georgia,,Atlanta
23.94.91.242,4,1,bgreco.net,US,Americas,Northern America,United States of America,Georgia,,Marietta
173.230.138.170,4,121271,bionmr.com,US,Americas,Northern America,United States of America,Georgia,,Atlanta
108.61.192.200,4,-1,blogroll.org,US,Americas,Northern America,United States of America,Georgia,,Atlanta
45.56.119.186,4,2,blueprintcss.org,US,Americas,Northern America,United States of America,Georgia,,Atlanta
162.247.155.235,4,-2,bodyheightweight.com,US,Americas,Northern America,United States of America,Georgia,,Atlanta
66.115.166.237,4,8,brianenos.com,US,Americas,Northern America,United States of America,Georgia,,Atlanta
45.79.213.54,4,28,briarwood.org,US,Americas,Northern America,United States of America,Georgia,,Atlanta
151.101.17.124,4,6,britishmuseumshoponline.org,US,Americas,Northern America,United States of America,Georgia,,Atlanta
74.207.232.45,4,210768,bryanlewissaunders.org,US,Americas,Northern America,United States of America,Georgia,,Atlanta
104.223.93.125,4,-6722,businessdirectory.cc,US,Americas,Northern America,United States of America,Georgia,,Atlanta
170.187.151.129,4,38,businesstrainingvideo.net,US,Americas,Northern America,United States of America,Georgia,,Atlanta
66.228.61.32,4,3,buylasix.life,US,Americas,Northern America,United States of America,Georgia,,Atlanta
66.115.166.240,4,5,byzcath.org,US,Americas,Northern America,United States of America,Georgia,,Atlanta
45.76.255.164,4,-4,c-brats.com,US,Americas,Northern America,United States of America,Georgia,,Atlanta
139.144.187.123,4,2,cambio21.cl,US,Americas,Northern America,United States of America,Georgia,,Atlanta
155.138.160.210,4,1,cambridgebeaches.com,US,Americas,Northern America,United States of America,Georgia,,Atlanta
67.222.3.101,4,8,cambridgeincolour.com,US,Americas,Northern America,United States of America,Georgia,,Atlanta
45.79.222.111,4,3,canyon-tech.com,US,Americas,Northern America,United States of America,Georgia,,Atlanta
74.207.235.91,4,20,carpetcleaningfortdodge.com,US,Americas,Northern America,United States of America,Georgia,,Atlanta
23.239.17.40,4,12267,casajuancho.com,US,Americas,Northern America,United States of America,Georgia,,Atlanta
45.33.98.8,4,47,catholiclane.com,US,Americas,Northern America,United States of America,Georgia,,Atlanta
23.111.158.198,4,-3,charitygolftoday.com,US,Americas,Northern America,United States of America,Georgia,,Atlanta
23.111.190.49,4,10,chattooga1180.com,US,Americas,Northern America,United States of America,Georgia,,Atlanta
69.61.96.28,4,2373,cheapestwebsoftware.com,US,Americas,Northern America,United States of America,Georgia,,Atlanta
198.74.55.126,4,10,checkforai.com,US,Americas,Northern America,United States of America,Georgia,,Atlanta
45.79.207.173,4,25,chehaw.org,US,Americas,Northern America,United States of America,Georgia,,Atlanta
209.195.2.10,4,5,chirbit.com,US,Americas,Northern America,United States of America,Georgia,,Marietta
155.138.230.3,4,41,christianstt.com,US,Americas,Northern America,United States of America,Georgia,,Atlanta
67.222.6.131,4,58,cityofhumbletx.gov,US,Americas,Northern America,United States of America,Georgia,,Atlanta
194.195.215.138,4,6,citysquares.com,US,Americas,Northern America,United States of America,Georgia,,Atlanta
50.116.36.105,4,85,classicmotorsports.com,US,Americas,Northern America,United States of America,Georgia,,Atlanta
198.74.52.36,4,23,clickontyler.com,US,Americas,Northern America,United States of America,Georgia,,Atlanta
173.230.134.104,4,28,cloudshark.org,US,Americas,Northern America,United States of America,Georgia,,Atlanta
209.195.1.172,4,13,cnd.org,US,Americas,Northern America,United States of America,Georgia,,Marietta
74.207.227.83,4,35,cocacolaunited.com,US,Americas,Northern America,United States of America,Georgia,,Atlanta
23.92.29.118,4,694,collegesportsmadness.com,US,Americas,Northern America,United States of America,Georgia,,Atlanta
173.230.135.52,4,1087,connuestroperu.com,US,Americas,Northern America,United States of America,Georgia,,Atlanta
66.223.49.23,4,15,constitution.org,US,Americas,Northern America,United States of America,Georgia,,Atlanta
45.79.202.44,4,8,continuingeducationschools.com,US,Americas,Northern America,United States of America,Georgia,,Atlanta
66.228.60.95,4,35,costtotravel.com,US,Americas,Northern America,United States of America,Georgia,,Atlanta
69.61.92.133,4,3,countrymusicperformers.com,US,Americas,Northern America,United States of America,Georgia,,Atlanta
45.56.113.165,4,13,creativeloafing.com,US,Americas,Northern America,United States of America,Georgia,,Atlanta
50.116.43.116,4,5,crowd101.com,US,Americas,Northern America,United States of America,Georgia,,Atlanta
69.61.16.74,4,6,csnbbs.com,US,Americas,Northern America,United States of America,Georgia,,Atlanta
173.230.138.109,4,1,ctrl.blog,US,Americas,Northern America,United States of America,Georgia,,Atlanta
139.144.253.189,4,5,customsforge.com,US,Americas,Northern America,United States of America,Georgia,,Atlanta
69.61.26.123,4,-612722,cutt.us,US,Americas,Northern America,United States of America,Georgia,,Atlanta
45.79.221.106,4,3,cvphysiology.com,US,Americas,Northern America,United States of America,Georgia,,Atlanta
74.207.237.21,4,22,dandans.com,US,Americas,Northern America,United States of America,Georgia,,Atlanta
155.138.220.154,4,-3,danfords.com,US,Americas,Northern America,United States of America,Georgia,,Atlanta
45.76.250.39,4,35,deliciousthemes.com,US,Americas,Northern America,United States of America,Georgia,,Atlanta
173.230.129.243,4,26,denemo.org,US,Americas,Northern America,United States of America,Georgia,,Atlanta
45.79.216.42,4,3,derailer.org,US,Americas,Northern America,United States of America,Georgia,,Atlanta
172.105.153.112,4,19,derbycon.com,US,Americas,Northern America,United States of America,Georgia,,Atlanta
173.230.132.156,4,15,designrevision.com,US,Americas,Northern America,United States of America,Georgia,,Atlanta
170.187.206.88,4,5,digitalalabama.com,US,Americas,Northern America,United States of America,Georgia,,Atlanta
139.177.201.27,4,7,digitalmarketingphilippines.com,US,Americas,Northern America,United States of America,Georgia,,Atlanta
155.138.211.99,4,43,discoverynj.org,US,Americas,Northern America,United States of America,Georgia,,Atlanta
66.228.61.221,4,4,dividendchannel.com,US,Americas,Northern America,United States of America,Georgia,,Atlanta
47.32.113.23,4,9138,DNS Server: 047-032-113-023.res.spectrum.com,US,Americas,Northern America,United States of America,Georgia,,Athens
144.202.20.89,4,-2,DNS Server: 144.202.20.89.vultrusercontent.com,US,Americas,Northern America,United States of America,Georgia,,Atlanta
155.138.195.139,4,64,DNS Server: 155.138.195.139.vultrusercontent.com,US,Americas,Northern America,United States of America,Georgia,,Atlanta
173.230.132.207,4,75,DNS Server: 173-230-132-207.ip.linodeusercontent.com,US,Americas,Northern America,United States of America,Georgia,,Atlanta
192.210.213.112,4,2,DNS Server: 192-210-213-112-host.colocrossing.com,US,Americas,Northern America,United States of America,Georgia,,Marietta
23.95.216.52,4,87,DNS Server: 23-95-216-52-host.colocrossing.com,US,Americas,Northern America,United States of America,Georgia,,Marietta
45.79.195.75,4,3,DNS Server: 45-79-195-75.ip.linodeusercontent.com,US,Americas,Northern America,United States of America,Georgia,,Atlanta
45.79.220.27,4,119,DNS Server: 45-79-220-27.ip.linodeusercontent.com,US,Americas,Northern America,United States of America,Georgia,,Atlanta
70.88.28.76,4,9890,DNS Server: 70-88-28-76-augusta-ga.hfc.comcastbusiness.net,US,Americas,Northern America,United States of America,Georgia,,Augusta
8.28.113.202,4,-241122,DNS Server: 8.28.113.202.hwccustomers.com,US,Americas,Northern America,United States of America,Georgia,,Atlanta
96.79.222.253,4,9,DNS Server: 96-79-222-253-static.hfc.comcastbusiness.net,US,Americas,Northern America,United States of America,Georgia,,Savannah
144.202.27.112,4,30,DNS Server: atlanta,US,Americas,Northern America,United States of America,Georgia,,Atlanta
24.125.55.144,4,735,DNS Server: c-24-125-55-144.hsd1.ga.comcast.net,US,Americas,Northern America,United States of America,Georgia,,Douglasville
24.126.252.154,4,8,DNS Server: c-24-126-252-154.hsd1.ga.comcast.net,US,Americas,Northern America,United States of America,Georgia,,Canton
73.54.128.36,4,4,DNS Server: c-73-54-128-36.hsd1.ga.comcast.net,US,Americas,Northern America,United States of America,Georgia,,Atlanta
73.54.129.238,4,77,DNS Server: c-73-54-129-238.hsd1.ga.comcast.net,US,Americas,Northern America,United States of America,Georgia,,Atlanta
73.82.26.63,4,4,DNS Server: c-73-82-26-63.hsd1.ga.comcast.net,US,Americas,Northern America,United States of America,Georgia,,Canton
76.29.206.156,4,6,DNS Server: c-76-29-206-156.hsd1.ga.comcast.net,US,Americas,Northern America,United States of America,Georgia,,Savannah
45.79.192.16,4,393,DNS Server: li1291-16.members.linode.com,US,Americas,Northern America,United States of America,Georgia,,Atlanta
45.32.218.29,4,148,DNS Server: pdns-12.sdp.com,US,Americas,Northern America,United States of America,Georgia,,Atlanta
45.33.97.215,4,131,DNS Server: pihole.teknic.xyz,US,Americas,Northern America,United States of America,Georgia,,Atlanta
23.92.30.82,4,2,downcastapp.com,US,Americas,Northern America,United States of America,Georgia,,Atlanta
107.161.22.170,4,4,downtownwestchester.com,US,Americas,Northern America,United States of America,Georgia,,Atlanta
50.116.34.233,4,1,dragcity.com,US,Americas,Northern America,United States of America,Georgia,,Atlanta
151.101.16.144,4,3,dstl.gov.uk,US,Americas,Northern America,United States of America,Georgia,,Atlanta
170.187.152.183,4,4,dtwnews.com,US,Americas,Northern America,United States of America,Georgia,,Atlanta
66.228.60.29,4,3,dvdsreleasedates.com,US,Americas,Northern America,United States of America,Georgia,,Atlanta
64.42.179.202,4,5,edebris.com,US,Americas,Northern America,United States of America,Georgia,,Atlanta
45.79.201.160,4,10,edseek.com,US,Americas,Northern America,United States of America,Georgia,,Atlanta
66.115.166.243,4,32,ejumpcut.org,US,Americas,Northern America,United States of America,Georgia,,Atlanta
155.138.207.248,4,1,elpaisonline.com,US,Americas,Northern America,United States of America,Georgia,,Atlanta
50.116.43.125,4,4,emnuvens.com.br,US,Americas,Northern America,United States of America,Georgia,,Atlanta
66.71.244.103,4,530,encone.com,US,Americas,Northern America,United States of America,Georgia,,Atlanta
23.92.29.181,4,12,enviosagencia.com,US,Americas,Northern America,United States of America,Georgia,,Atlanta
173.230.131.119,4,10,envioscomunicacao.com,US,Americas,Northern America,United States of America,Georgia,,Atlanta
50.116.47.103,4,23,enviosimprensa.com,US,Americas,Northern America,United States of America,Georgia,,Atlanta
45.79.196.43,4,22,enviosinbound.com,US,Americas,Northern America,United States of America,Georgia,,Atlanta
74.207.228.242,4,17,enviosrp.com,US,Americas,Northern America,United States of America,Georgia,,Atlanta
45.79.209.190,4,124,esarch.com,US,Americas,Northern America,United States of America,Georgia,,Atlanta
209.10.105.126,4,1025,escrip.com,US,Americas,Northern America,United States of America,Georgia,,Duluth
96.30.198.41,4,0,essaarbuilders.in,US,Americas,Northern America,United States of America,Georgia,,Atlanta
173.230.138.134,4,-15,etfchannel.com,US,Americas,Northern America,United States of America,Georgia,,Atlanta
209.195.10.246,4,6,evitaperon.org,US,Americas,Northern America,United States of America,Georgia,,Marietta
45.79.193.135,4,94,expansionsolutionsmagazine.com,US,Americas,Northern America,United States of America,Georgia,,Atlanta
170.187.144.18,4,9,exploding-heads.com,US,Americas,Northern America,United States of America,Georgia,,Atlanta
74.207.235.168,4,58,familyissuesonline.net,US,Americas,Northern America,United States of America,Georgia,,Atlanta
45.33.98.181,4,4,familyvideocoupon.com,US,Americas,Northern America,United States of America,Georgia,,Atlanta
66.228.57.26,4,22,farmdev.com,US,Americas,Northern America,United States of America,Georgia,,Atlanta
173.230.128.219,4,42,fathom.info,US,Americas,Northern America,United States of America,Georgia,,Atlanta
162.246.58.39,4,5,fbbc.com,US,Americas,Northern America,United States of America,Georgia,,Atlanta
172.105.149.41,4,20,featuredcustomers.com,US,Americas,Northern America,United States of America,Georgia,,Atlanta
50.116.33.53,4,3,febo.com,US,Americas,Northern America,United States of America,Georgia,,Atlanta
45.32.223.181,4,4,fernandovillamorjr.com,US,Americas,Northern America,United States of America,Georgia,,Atlanta
45.79.217.20,4,4,fileinspect.com,US,Americas,Northern America,United States of America,Georgia,,Atlanta
66.228.60.9,4,4,filewhopper.com,US,Americas,Northern America,United States of America,Georgia,,Atlanta
45.79.193.68,4,25,financevideo.org,US,Americas,Northern America,United States of America,Georgia,,Atlanta
45.79.210.86,4,3,firsthomecareweb.com,US,Americas,Northern America,United States of America,Georgia,,Atlanta
172.105.157.234,4,52057,flairespresso.com,US,Americas,Northern America,United States of America,Georgia,,Atlanta
170.187.147.52,4,2,floridaman.com,US,Americas,Northern America,United States of America,Georgia,,Atlanta
173.230.140.189,4,21,flutrackers.com,US,Americas,Northern America,United States of America,Georgia,,Atlanta
45.61.59.72,4,12,flyingmachines.org,US,Americas,Northern America,United States of America,Georgia,,Atlanta
192.155.95.54,4,3,fmr.org,US,Americas,Northern America,United States of America,Georgia,,Atlanta
23.95.216.104,4,-23106,forbiddenbroadway.com,US,Americas,Northern America,United States of America,Georgia,,Marietta
66.115.166.241,4,4,fossilicious.com,US,Americas,Northern America,United States of America,Georgia,,Atlanta
108.61.215.224,4,-1,fredoneverything.net,US,Americas,Northern America,United States of America,Georgia,,Atlanta
162.245.219.133,4,6,freemypdf.com,US,Americas,Northern America,United States of America,Georgia,,Atlanta
74.207.228.67,4,1,fsf.org.in,US,Americas,Northern America,United States of America,Georgia,,Atlanta
108.61.193.170,4,17,gameofbombs.com,US,Americas,Northern America,United States of America,Georgia,,Atlanta
45.33.98.234,4,5,gapna.org,US,Americas,Northern America,United States of America,Georgia,,Atlanta
66.228.58.40,4,-4,garealtor.com,US,Americas,Northern America,United States of America,Georgia,,Atlanta
69.61.29.79,4,25,geeklab.com.ar,US,Americas,Northern America,United States of America,Georgia,,Atlanta
45.79.209.107,4,2,gettingattention.org,US,Americas,Northern America,United States of America,Georgia,,Atlanta
23.111.154.146,4,0,ghsa.net,US,Americas,Northern America,United States of America,Georgia,,Atlanta
66.115.166.242,4,2,golden-road.net,US,Americas,Northern America,United States of America,Georgia,,Atlanta
45.76.255.208,4,-2,gorge.net,US,Americas,Northern America,United States of America,Georgia,,Atlanta
45.56.119.49,4,22,grmotorsports.com,US,Americas,Northern America,United States of America,Georgia,,Atlanta
69.61.125.42,4,2,gtf.org,US,Americas,Northern America,United States of America,Georgia,,Atlanta
69.61.25.153,4,-1160,gwdhumanesociety.org,US,Americas,Northern America,United States of America,Georgia,,Atlanta
45.79.193.226,4,2,hanstone.ca,US,Americas,Northern America,United States of America,Georgia,,Atlanta
172.105.157.204,4,21,hatnote.com,US,Americas,Northern America,United States of America,Georgia,,Atlanta
66.115.166.130,4,2,healthfulpursuit.com,US,Americas,Northern America,United States of America,Georgia,,Atlanta
162.246.56.28,4,9,healwithfood.org,US,Americas,Northern America,United States of America,Georgia,,Atlanta
23.111.155.86,4,2,heroesofnewerth.com,US,Americas,Northern America,United States of America,Georgia,,Atlanta
172.105.158.243,4,9,heroonlinemoney.com,US,Americas,Northern America,United States of America,Georgia,,Atlanta
45.79.205.96,4,20,highlandercenter.org,US,Americas,Northern America,United States of America,Georgia,,Atlanta
23.239.17.92,4,21,hikealabama.org,US,Americas,Northern America,United States of America,Georgia,,Atlanta
192.155.95.58,4,8,homeimprovementtax.net,US,Americas,Northern America,United States of America,Georgia,,Atlanta
23.239.18.23,4,8,hospitalesangeles.com,US,Americas,Northern America,United States of America,Georgia,,Atlanta
45.79.252.186,4,10,howtoclean.pro,US,Americas,Northern America,United States of America,Georgia,,Atlanta
74.207.236.136,4,4,hsascuba.com,US,Americas,Northern America,United States of America,Georgia,,Atlanta
139.144.63.8,4,6,hvacsolutionsforhomeowners.com,US,Americas,Northern America,United States of America,Georgia,,Atlanta
66.115.166.247,4,27,icanbake.com,US,Americas,Northern America,United States of America,Georgia,,Atlanta
74.207.231.133,4,35,idiomdrottning.org,US,Americas,Northern America,United States of America,Georgia,,Atlanta
209.195.10.249,4,5,ielts-blog.com,US,Americas,Northern America,United States of America,Georgia,,Marietta
173.230.135.130,4,6,ilfilosofo.com,US,Americas,Northern America,United States of America,Georgia,,Atlanta
45.56.114.23,4,28,imagerecycle.com,US,Americas,Northern America,United States of America,Georgia,,Atlanta
45.79.218.101,4,72,impakter.com,US,Americas,Northern America,United States of America,Georgia,,Atlanta
172.105.149.213,4,9,imxsnd00.com,US,Americas,Northern America,United States of America,Georgia,,Atlanta
45.33.101.178,4,7,imxsnd02.com,US,Americas,Northern America,United States of America,Georgia,,Atlanta
45.33.101.248,4,5,imxsnd03.com,US,Americas,Northern America,United States of America,Georgia,,Atlanta
170.187.206.60,4,75,imxsnd04.com,US,Americas,Northern America,United States of America,Georgia,,Atlanta
170.187.206.248,4,38,imxsnd05.com,US,Americas,Northern America,United States of America,Georgia,,Atlanta
170.187.206.159,4,-1,imxsnd06.com,US,Americas,Northern America,United States of America,Georgia,,Atlanta
170.187.141.20,4,1,imxsnd07.com,US,Americas,Northern America,United States of America,Georgia,,Atlanta
170.187.141.29,4,2,imxsnd08.com,US,Americas,Northern America,United States of America,Georgia,,Atlanta
170.187.141.126,4,21,imxsnd09.com,US,Americas,Northern America,United States of America,Georgia,,Atlanta
66.228.60.125,4,22,imxsnd10.com,US,Americas,Northern America,United States of America,Georgia,,Atlanta
172.105.151.149,4,10,imxsnd11.com,US,Americas,Northern America,United States of America,Georgia,,Atlanta
170.187.157.148,4,3,imxsnd12.com,US,Americas,Northern America,United States of America,Georgia,,Atlanta
45.79.252.254,4,41,imxsnd13.com,US,Americas,Northern America,United States of America,Georgia,,Atlanta
170.187.159.57,4,17,imxsnd14.com,US,Americas,Northern America,United States of America,Georgia,,Atlanta
170.187.149.178,4,40,imxsnd15.com,US,Americas,Northern America,United States of America,Georgia,,Atlanta
170.187.205.16,4,0,imxsnd16.com,US,Americas,Northern America,United States of America,Georgia,,Atlanta
173.230.132.235,4,12,imxsnd17.com,US,Americas,Northern America,United States of America,Georgia,,Atlanta
45.79.222.81,4,73,imxsnd18.com,US,Americas,Northern America,United States of America,Georgia,,Atlanta
170.187.144.56,4,41,imxsnd19.com,US,Americas,Northern America,United States of America,Georgia,,Atlanta
45.33.96.128,4,1,imxsnd20.com,US,Americas,Northern America,United States of America,Georgia,,Atlanta
139.144.189.233,4,6,imxsnd22.com,US,Americas,Northern America,United States of America,Georgia,,Atlanta
194.195.209.21,4,87,indianatech.edu,US,Americas,Northern America,United States of America,Georgia,,Atlanta
107.172.25.36,4,-79523,indymogul.com,US,Americas,Northern America,United States of America,Georgia,,Marietta
67.222.4.141,4,74,infinitiscene.com,US,Americas,Northern America,United States of America,Georgia,,Atlanta
50.116.45.205,4,62,infomedia.com,US,Americas,Northern America,United States of America,Georgia,,Atlanta
130.207.91.95,4,4126,informs-sim.org,US,Americas,Northern America,United States of America,Georgia,,Atlanta
38.146.80.110,4,591,insideradvantage.com,US,Americas,Northern America,United States of America,Georgia,,Atlanta
67.222.7.194,4,27,instantonlinedivorce.com,US,Americas,Northern America,United States of America,Georgia,,Atlanta
66.228.63.58,4,14,inttelivacationhomes.com,US,Americas,Northern America,United States of America,Georgia,,Atlanta
173.230.136.199,4,5,iri.com,US,Americas,Northern America,United States of America,Georgia,,Atlanta
173.230.128.12,4,5,ismartgate.com,US,Americas,Northern America,United States of America,Georgia,,Atlanta
45.32.216.157,4,4,iwantmedia.com,US,Americas,Northern America,United States of America,Georgia,,Atlanta
69.61.2.229,4,5,j3s.sh,US,Americas,Northern America,United States of America,Georgia,,Atlanta
66.228.56.105,4,-1,jahsonic.com,US,Americas,Northern America,United States of America,Georgia,,Atlanta
209.195.22.26,4,32,jazzyjefffreshprince.com,US,Americas,Northern America,United States of America,Georgia,,Marietta
50.116.35.13,4,4,jewish-languages.org,US,Americas,Northern America,United States of America,Georgia,,Atlanta
104.129.24.165,4,1,jkllamps.com,US,Americas,Northern America,United States of America,Georgia,,Atlanta
50.116.41.187,4,1,jms1.net,US,Americas,Northern America,United States of America,Georgia,,Atlanta
173.230.134.34,4,2,joomlabuff.com,US,Americas,Northern America,United States of America,Georgia,,Atlanta
192.155.92.163,4,11,justcraftyenough.com,US,Americas,Northern America,United States of America,Georgia,,Atlanta
45.79.216.134,4,5,k4ern.net,US,Americas,Northern America,United States of America,Georgia,,Atlanta
151.101.52.68,4,9,kampyle.com,US,Americas,Northern America,United States of America,Georgia,,Atlanta
107.161.29.137,4,40,kavrakilab.org,US,Americas,Northern America,United States of America,Georgia,,Atlanta
155.138.235.175,4,26,kid-at-art.com,US,Americas,Northern America,United States of America,Georgia,,Atlanta
108.61.193.189,4,-4,ko4abp.com,US,Americas,Northern America,United States of America,Georgia,,Atlanta
104.76.210.211,4,0,kplus.vn,US,Americas,Northern America,United States of America,Georgia,,Atlanta
104.76.210.218,4,2,kplus.vn,US,Americas,Northern America,United States of America,Georgia,,Atlanta
45.79.244.111,4,0,kubesail.com,US,Americas,Northern America,United States of America,Georgia,,Atlanta
107.161.31.143,4,10,kustomrama.com,US,Americas,Northern America,United States of America,Georgia,,Atlanta
66.228.62.49,4,98,laborrights.org,US,Americas,Northern America,United States of America,Georgia,,Atlanta
45.56.112.196,4,15,landeeseelandeedo.com,US,Americas,Northern America,United States of America,Georgia,,Atlanta
23.1.33.17,4,3,lapdonline.org,US,Americas,Northern America,United States of America,Georgia,,Atlanta
23.1.33.5,4,16,lapdonline.org,US,Americas,Northern America,United States of America,Georgia,,Atlanta
192.210.137.140,4,51,lelivros.love,US,Americas,Northern America,United States of America,Georgia,,Marietta
172.105.158.121,4,24,lighthouseautismcenter.com,US,Americas,Northern America,United States of America,Georgia,,Atlanta
173.230.134.100,4,5,linnsoft.com,US,Americas,Northern America,United States of America,Georgia,,Atlanta
66.115.171.6,4,-1,littleleaffarms.com,US,Americas,Northern America,United States of America,Georgia,,Peachtree Corners
144.202.25.5,4,14,locallistingrus.com,US,Americas,Northern America,United States of America,Georgia,,Atlanta
23.111.154.230,4,0,localsearchforum.com,US,Americas,Northern America,United States of America,Georgia,,Atlanta
192.155.94.26,4,207027,longislandaquarium.com,US,Americas,Northern America,United States of America,Georgia,,Atlanta
172.105.155.24,4,1,lpslabs.com,US,Americas,Northern America,United States of America,Georgia,,Atlanta
74.207.237.157,4,68,machinethink.net,US,Americas,Northern America,United States of America,Georgia,,Atlanta
45.56.117.217,4,6,mali.pe,US,Americas,Northern America,United States of America,Georgia,,Atlanta
162.246.56.34,4,65,manuelstavern.com,US,Americas,Northern America,United States of America,Georgia,,Atlanta
173.230.128.27,4,13,maria-brazil.org,US,Americas,Northern America,United States of America,Georgia,,Atlanta
66.115.166.238,4,4,mathgametime.com,US,Americas,Northern America,United States of America,Georgia,,Atlanta
69.61.59.101,4,4,maxwelldrums.com,US,Americas,Northern America,United States of America,Georgia,,Atlanta
74.207.231.104,4,4,mclellanfarms.com,US,Americas,Northern America,United States of America,Georgia,,Atlanta
173.230.139.54,4,28,mediabrowser.tv,US,Americas,Northern America,United States of America,Georgia,,Atlanta
139.144.184.90,4,10,mei.edu,US,Americas,Northern America,United States of America,Georgia,,Atlanta
50.116.39.94,4,22,michaelfogleman.com,US,Americas,Northern America,United States of America,Georgia,,Atlanta
74.207.228.46,4,13,mideasti.org,US,Americas,Northern America,United States of America,Georgia,,Atlanta
45.79.252.128,4,20,midiareleases.com,US,Americas,Northern America,United States of America,Georgia,,Atlanta
155.138.160.35,4,46,millmanland.com,US,Americas,Northern America,United States of America,Georgia,,Atlanta
50.116.47.194,4,6,minco.com,US,Americas,Northern America,United States of America,Georgia,,Atlanta
66.71.240.10,4,4,mixunit.com,US,Americas,Northern America,United States of America,Georgia,,Atlanta
155.138.234.141,4,-4,mlaga97.space,US,Americas,Northern America,United States of America,Georgia,,Atlanta
209.195.13.98,4,4,mlpack.org,US,Americas,Northern America,United States of America,Georgia,,Marietta
45.56.114.145,4,51,mode7games.com,US,Americas,Northern America,United States of America,Georgia,,Atlanta
45.58.48.42,4,55,modelquestionpapers.in,US,Americas,Northern America,United States of America,Georgia,,Atlanta
162.246.57.105,4,8,montrealracing.com,US,Americas,Northern America,United States of America,Georgia,,Atlanta
67.222.1.222,4,8,mosaic-tile-guide.com,US,Americas,Northern America,United States of America,Georgia,,Atlanta
23.239.19.133,4,12,motorcomusic.com,US,Americas,Northern America,United States of America,Georgia,,Atlanta
45.76.61.72,4,-1,mrunix.net,US,Americas,Northern America,United States of America,Georgia,,Atlanta
151.101.13.124,4,106,multipower.de,US,Americas,Northern America,United States of America,Georgia,,Atlanta
162.246.57.11,4,5,museprintables.com,US,Americas,Northern America,United States of America,Georgia,,Atlanta
173.230.129.156,4,114038,musicasacra.com,US,Americas,Northern America,United States of America,Georgia,,Atlanta
66.228.57.82,4,7,muslimedia.com,US,Americas,Northern America,United States of America,Georgia,,Atlanta
173.230.141.62,4,16,myfav.es,US,Americas,Northern America,United States of America,Georgia,,Atlanta
74.207.234.63,4,15,nacin.com,US,Americas,Northern America,United States of America,Georgia,,Atlanta
45.79.198.155,4,5,nafwb.org,US,Americas,Northern America,United States of America,Georgia,,Atlanta
67.222.6.163,4,86,naspschools.org,US,Americas,Northern America,United States of America,Georgia,,Atlanta
45.33.98.239,4,15,nazca.co.jp,US,Americas,Northern America,United States of America,Georgia,,Atlanta
45.79.210.105,4,3,ncpd.org,US,Americas,Northern America,United States of America,Georgia,,Atlanta
50.116.33.223,4,5,newsarticlesabouthealth.com,US,Americas,Northern America,United States of America,Georgia,,Atlanta
155.138.214.50,4,-1,nokishita-camera.com,US,Americas,Northern America,United States of America,Georgia,,Atlanta
23.111.157.254,4,5,nurse.plus,US,Americas,Northern America,United States of America,Georgia,,Atlanta
74.207.224.60,4,5,nursingeconomics.net,US,Americas,Northern America,United States of America,Georgia,,Atlanta
211.152.148.86,4,-17,nweon.com,US,Americas,Northern America,United States of America,Georgia,,Atlanta
211.152.148.109,4,-15,nweon.com,US,Americas,Northern America,United States of America,Georgia,,Atlanta
211.152.148.29,4,-15,nweon.com,US,Americas,Northern America,United States of America,Georgia,,Atlanta
211.152.148.88,4,-12,nweon.com,US,Americas,Northern America,United States of America,Georgia,,Atlanta
139.144.28.44,4,11813,oabsp.org.br,US,Americas,Northern America,United States of America,Georgia,,Atlanta
162.246.59.173,4,9,oaesv.org,US,Americas,Northern America,United States of America,Georgia,,Atlanta
216.119.148.75,4,0,oneprojectcloser.com,US,Americas,Northern America,United States of America,Georgia,,Atlanta
66.228.62.86,4,3,onlinevoucher.net,US,Americas,Northern America,United States of America,Georgia,,Atlanta
205.171.95.162,4,188,Ookla Speedtest Server 53403: hinesville.speedtest.brightspeed.com,US,Americas,Northern America,United States of America,Georgia,,Hinesville
134.22.125.250,4,206,Ookla Speedtest Server 63009: cwf-speedtest-se.clearwave.com,US,Americas,Northern America,United States of America,Georgia,,Atlanta
45.61.59.30,4,-229,Ookla Speedtest Server 64213: speedtest.us-at.kamatera.com,US,Americas,Northern America,United States of America,Georgia,,Atlanta
38.66.221.87,4,305,Ookla Speedtest Server 64581: speedtest.southernfiberworx.com,US,Americas,Northern America,United States of America,Georgia,,Cordele
45.32.216.161,4,-1,opeforum.com,US,Americas,Northern America,United States of America,Georgia,,Atlanta
173.10.238.251,4,5,openvms.org,US,Americas,Northern America,United States of America,Georgia,,Savannah
66.228.62.138,4,4,osalt.com,US,Americas,Northern America,United States of America,Georgia,,Atlanta
45.33.97.245,4,77,outbyte.com,US,Americas,Northern America,United States of America,Georgia,,Atlanta
50.116.34.243,4,1,packagecontrol.io,US,Americas,Northern America,United States of America,Georgia,,Atlanta
45.79.199.58,4,514953,papercdcase.com,US,Americas,Northern America,United States of America,Georgia,,Atlanta
23.239.17.117,4,-76089,paramuspost.com,US,Americas,Northern America,United States of America,Georgia,,Atlanta
170.187.144.92,4,67,passageirodeprimeira.com,US,Americas,Northern America,United States of America,Georgia,,Atlanta
66.223.49.29,4,31,patcondell.net,US,Americas,Northern America,United States of America,Georgia,,Atlanta
170.187.156.135,4,6,pcbeach.org,US,Americas,Northern America,United States of America,Georgia,,Atlanta
173.230.140.163,4,254,pctechmag.com,US,Americas,Northern America,United States of America,Georgia,,Atlanta
66.228.63.109,4,20,pdfmyurl.com,US,Americas,Northern America,United States of America,Georgia,,Atlanta
50.116.35.84,4,16,pelicanssnoballs.com,US,Americas,Northern America,United States of America,Georgia,,Atlanta
173.230.140.127,4,40,perko.com,US,Americas,Northern America,United States of America,Georgia,,Atlanta
45.79.193.247,4,9,pernambuco.com,US,Americas,Northern America,United States of America,Georgia,,Atlanta
139.177.201.91,4,8,pesquisassan.net.br,US,Americas,Northern America,United States of America,Georgia,,Atlanta
192.155.95.151,4,83,photoarts.com,US,Americas,Northern America,United States of America,Georgia,,Atlanta
172.105.158.11,4,341643,pianonanny.com,US,Americas,Northern America,United States of America,Georgia,,Atlanta
66.228.59.124,4,25,picajet.com,US,Americas,Northern America,United States of America,Georgia,,Atlanta
45.79.212.59,4,0,pingfarm.com,US,Americas,Northern America,United States of America,Georgia,,Atlanta
65.254.222.163,4,26,pisgahinn.com,US,Americas,Northern America,United States of America,Georgia,,Duluth
45.33.97.236,4,45,pitch-releases.com,US,Americas,Northern America,United States of America,Georgia,,Atlanta
139.144.52.143,4,22,plataformacolei.com.br,US,Americas,Northern America,United States of America,Georgia,,Atlanta
198.74.52.110,4,30,populationeducation.org,US,Americas,Northern America,United States of America,Georgia,,Atlanta
45.79.202.146,4,1,pr-publisher.com,US,Americas,Northern America,United States of America,Georgia,,Atlanta
45.79.214.43,4,49,pressenvios.com,US,Americas,Northern America,United States of America,Georgia,,Atlanta
45.33.98.230,4,37,pressinbound.com,US,Americas,Northern America,United States of America,Georgia,,Atlanta
45.79.212.52,4,12,probotix.com,US,Americas,Northern America,United States of America,Georgia,,Atlanta
50.116.46.88,4,18,processingfoundation.org,US,Americas,Northern America,United States of America,Georgia,,Atlanta
45.33.103.156,4,30,publisher-pr.com,US,Americas,Northern America,United States of America,Georgia,,Atlanta
45.79.216.192,4,40,publisher-releases.com,US,Americas,Northern America,United States of America,Georgia,,Atlanta
128.61.240.205,4,39,pwnable.kr,US,Americas,Northern America,United States of America,Georgia,,Atlanta
192.155.92.101,4,17,quigley.com,US,Americas,Northern America,United States of America,Georgia,,Atlanta
69.61.93.15,4,23,quintadimension.com,US,Americas,Northern America,United States of America,Georgia,,Atlanta
45.56.118.22,4,5,radiofueguina.com,US,Americas,Northern America,United States of America,Georgia,,Atlanta
67.222.1.160,4,12,railroadfan.com,US,Americas,Northern America,United States of America,Georgia,,Atlanta
155.138.232.85,4,47,raptisoft.com,US,Americas,Northern America,United States of America,Georgia,,Atlanta
69.61.33.204,4,13,ravishly.com,US,Americas,Northern America,United States of America,Georgia,,Atlanta
23.239.18.47,4,31,raycomsports.com,US,Americas,Northern America,United States of America,Georgia,,Atlanta
45.33.99.208,4,101,rdpslides.com,US,Americas,Northern America,United States of America,Georgia,,Atlanta
45.79.194.248,4,23,readingreality.net,US,Americas,Northern America,United States of America,Georgia,,Atlanta
74.207.234.202,4,39,realsubliminal.com,US,Americas,Northern America,United States of America,Georgia,,Atlanta
66.228.61.16,4,51,recharity.ca,US,Americas,Northern America,United States of America,Georgia,,Atlanta
139.144.59.140,4,7,redeangola.info,US,Americas,Northern America,United States of America,Georgia,,Atlanta
139.177.202.218,4,8,referencevideo.net,US,Americas,Northern America,United States of America,Georgia,,Atlanta
66.228.58.178,4,41,releasesenvios.com,US,Americas,Northern America,United States of America,Georgia,,Atlanta
66.228.62.233,4,31,releasesinbound.com,US,Americas,Northern America,United States of America,Georgia,,Atlanta
95.174.70.50,4,45,resexcellence.com,US,Americas,Northern America,United States of America,Georgia,,Atlanta
139.177.207.109,4,90,retirenet.com,US,Americas,Northern America,United States of America,Georgia,,Atlanta
139.144.55.201,4,9,retrohandhelds.gg,US,Americas,Northern America,United States of America,Georgia,,Atlanta
162.247.155.224,4,13,rise-of-ra.com,US,Americas,Northern America,United States of America,Georgia,,Atlanta
69.61.26.76,4,2,ritalmedia.com,US,Americas,Northern America,United States of America,Georgia,,Atlanta
144.202.22.173,4,-3,riverbeats.life,US,Americas,Northern America,United States of America,Georgia,,Atlanta
172.105.150.231,4,32,rockypatel.com,US,Americas,Northern America,United States of America,Georgia,,Atlanta
67.222.6.114,4,49,rogerfederer.com,US,Americas,Northern America,United States of America,Georgia,,Atlanta
198.74.54.99,4,37,rollag.com,US,Americas,Northern America,United States of America,Georgia,,Atlanta
69.61.45.71,4,55,rosariobureau.com.ar,US,Americas,Northern America,United States of America,Georgia,,Atlanta
162.246.57.45,4,51,roundcubeforum.net,US,Americas,Northern America,United States of America,Georgia,,Atlanta
45.79.195.246,4,2,rumormillnews.com,US,Americas,Northern America,United States of America,Georgia,,Atlanta
66.223.49.32,4,477,russian-faith.com,US,Americas,Northern America,United States of America,Georgia,,Atlanta
67.222.5.154,4,3,safelyremove.com,US,Americas,Northern America,United States of America,Georgia,,Atlanta
96.30.197.231,4,2,saimmjournal.co.za,US,Americas,Northern America,United States of America,Georgia,,Atlanta
107.161.28.131,4,21,samurai-archives.com,US,Americas,Northern America,United States of America,Georgia,,Atlanta
170.187.205.200,4,2,sarahimgonnalickabattery.com,US,Americas,Northern America,United States of America,Georgia,,Atlanta
45.79.222.80,4,610,scionofzion.com,US,Americas,Northern America,United States of America,Georgia,,Atlanta
170.187.134.245,4,13,scriptstown.com,US,Americas,Northern America,United States of America,Georgia,,Atlanta
155.138.212.102,4,11,seadooforum.com,US,Americas,Northern America,United States of America,Georgia,,Atlanta
66.228.57.247,4,11,sentrics.com,US,Americas,Northern America,United States of America,Georgia,,Atlanta
216.189.145.15,4,1,sexybabydoll.co.il,US,Americas,Northern America,United States of America,Georgia,,Atlanta
66.228.61.92,4,18,sfi.org,US,Americas,Northern America,United States of America,Georgia,,Atlanta
45.76.60.230,4,-1,shadowspear.com,US,Americas,Northern America,United States of America,Georgia,,Atlanta
23.239.18.75,4,3,shinearticles.com,US,Americas,Northern America,United States of America,Georgia,,Atlanta
45.79.201.135,4,9,showmystreet.com,US,Americas,Northern America,United States of America,Georgia,,Atlanta
45.79.244.12,4,4,simcast.com,US,Americas,Northern America,United States of America,Georgia,,Atlanta
173.230.133.124,4,4,siouxsports.com,US,Americas,Northern America,United States of America,Georgia,,Atlanta
45.33.99.151,4,667,sisterssavingcents.com,US,Americas,Northern America,United States of America,Georgia,,Atlanta
155.138.214.216,4,-3,sjovhobby.dk,US,Americas,Northern America,United States of America,Georgia,,Atlanta
107.161.30.124,4,5,slickwrite.com,US,Americas,Northern America,United States of America,Georgia,,Atlanta
151.101.52.204,4,0,soaps.com,US,Americas,Northern America,United States of America,Georgia,,Atlanta
170.187.155.246,4,50,societymusictheory.org,US,Americas,Northern America,United States of America,Georgia,,Atlanta
45.79.222.8,4,0,sosuave.net,US,Americas,Northern America,United States of America,Georgia,,Atlanta
131.153.26.115,4,9,sourcewhatsgood.com,US,Americas,Northern America,United States of America,Georgia,,Atlanta
50.116.39.119,4,17,southernmuseumofflight.org,US,Americas,Northern America,United States of America,Georgia,,Atlanta
131.153.27.99,4,15,southernsavers.com,US,Americas,Northern America,United States of America,Georgia,,Atlanta
173.230.141.220,4,13,southwestmichiganfirst.com,US,Americas,Northern America,United States of America,Georgia,,Atlanta
45.79.193.27,4,15,southwickassociates.com,US,Americas,Northern America,United States of America,Georgia,,Atlanta
173.230.135.182,4,5,spacecoasttelecom.com,US,Americas,Northern America,United States of America,Georgia,,Atlanta
45.79.193.182,4,126568,spacefuture.com,US,Americas,Northern America,United States of America,Georgia,,Atlanta
23.47.156.93,4,15,spirit.com,US,Americas,Northern America,United States of America,Georgia,,Marietta
45.79.218.49,4,21,srqmagazine.com,US,Americas,Northern America,United States of America,Georgia,,Atlanta
45.79.212.224,4,27,starbrite.com,US,Americas,Northern America,United States of America,Georgia,,Atlanta
66.115.166.42,4,11,statecarinsurance.us,US,Americas,Northern America,United States of America,Georgia,,Atlanta
107.161.30.57,4,32,steel-storm.com,US,Americas,Northern America,United States of America,Georgia,,Atlanta
162.246.57.160,4,49,steelesmemorialchapel.com,US,Americas,Northern America,United States of America,Georgia,,Atlanta
151.101.54.62,4,23,steubencourier.com,US,Americas,Northern America,United States of America,Georgia,,Atlanta
173.230.131.223,4,2,stocksplithistory.com,US,Americas,Northern America,United States of America,Georgia,,Atlanta
45.79.216.224,4,3,sttark.com,US,Americas,Northern America,United States of America,Georgia,,Atlanta
23.239.16.183,4,5,suna.org,US,Americas,Northern America,United States of America,Georgia,,Atlanta
50.116.38.198,4,2,sunelec.com,US,Americas,Northern America,United States of America,Georgia,,Atlanta
155.138.206.244,4,-3,sunriverresort.com,US,Americas,Northern America,United States of America,Georgia,,Atlanta
45.33.102.254,4,357477,sunsetworldresorts.com,US,Americas,Northern America,United States of America,Georgia,,Atlanta
194.195.215.67,4,16,surveyshare.com,US,Americas,Northern America,United States of America,Georgia,,Atlanta
131.153.27.98,4,14,svrs.me,US,Americas,Northern America,United States of America,Georgia,,Atlanta
162.246.58.183,4,23,taquitos.net,US,Americas,Northern America,United States of America,Georgia,,Atlanta
172.105.159.217,4,3,tbi.net,US,Americas,Northern America,United States of America,Georgia,,Atlanta
50.116.43.119,4,92,technovelty.org,US,Americas,Northern America,United States of America,Georgia,,Atlanta
45.79.208.233,4,43,techtriage.guru,US,Americas,Northern America,United States of America,Georgia,,Atlanta
66.228.57.100,4,12219,telephonedirectories.us,US,Americas,Northern America,United States of America,Georgia,,Atlanta
45.79.202.99,4,3,tellingthetruth.info,US,Americas,Northern America,United States of America,Georgia,,Atlanta
66.115.154.114,4,58,tequilafortaleza.com,US,Americas,Northern America,United States of America,Georgia,,Atlanta
66.228.59.131,4,2644,the-gladiatorz.com,US,Americas,Northern America,United States of America,Georgia,,Atlanta
66.115.166.244,4,40,the-highway.com,US,Americas,Northern America,United States of America,Georgia,,Atlanta
64.77.70.100,4,39,theahaconnection.com,US,Americas,Northern America,United States of America,Georgia,,Atlanta
66.115.164.132,4,10,theanimalprintshop.com,US,Americas,Northern America,United States of America,Georgia,,Atlanta
69.61.10.186,4,949,thecitizen.com,US,Americas,Northern America,United States of America,Georgia,,Atlanta
45.79.205.176,4,3,thehomeschoolmagazine.com,US,Americas,Northern America,United States of America,Georgia,,Atlanta
45.56.119.174,4,-40,theinfo.org,US,Americas,Northern America,United States of America,Georgia,,Atlanta
170.187.156.250,4,1241341,thelabmiami.com,US,Americas,Northern America,United States of America,Georgia,,Atlanta
66.223.49.20,4,3,thelancasterpatriot.com,US,Americas,Northern America,United States of America,Georgia,,Atlanta
198.74.55.107,4,7,theluddite.org,US,Americas,Northern America,United States of America,Georgia,,Atlanta
66.71.242.195,4,2,themeparkreview.com,US,Americas,Northern America,United States of America,Georgia,,Atlanta
45.79.211.117,4,9,thephins.com,US,Americas,Northern America,United States of America,Georgia,,Atlanta
23.94.13.185,4,14,theresasreviews.com,US,Americas,Northern America,United States of America,Georgia,,Marietta
66.228.63.108,4,2,thesunpapers.com,US,Americas,Northern America,United States of America,Georgia,,Atlanta
139.144.255.138,4,4,thirdhome.com,US,Americas,Northern America,United States of America,Georgia,,Atlanta
45.56.117.155,4,1,thoughtfullearning.com,US,Americas,Northern America,United States of America,Georgia,,Atlanta
173.230.128.216,4,4,tickertech.com,US,Americas,Northern America,United States of America,Georgia,,Atlanta
45.56.112.248,4,3,tickertech.com,US,Americas,Northern America,United States of America,Georgia,,Atlanta
173.230.129.153,4,4,tickertech.net,US,Americas,Northern America,United States of America,Georgia,,Atlanta
45.79.211.205,4,1748,tiempo.com.mx,US,Americas,Northern America,United States of America,Georgia,,Atlanta
66.228.58.152,4,19,tintoyarcade.com,US,Americas,Northern America,United States of America,Georgia,,Atlanta
198.74.54.174,4,10,tomrafteryit.net,US,Americas,Northern America,United States of America,Georgia,,Atlanta
38.121.43.116,4,4,tradeholding.com,US,Americas,Northern America,United States of America,Georgia,,Atlanta
23.92.28.217,4,41,trinityaffirmations.com,US,Americas,Northern America,United States of America,Georgia,,Atlanta
67.222.4.156,4,60,troutbeck.com,US,Americas,Northern America,United States of America,Georgia,,Atlanta
162.247.152.29,4,33,truckmanualshub.com,US,Americas,Northern America,United States of America,Georgia,,Atlanta
67.222.1.231,4,8,trucksafety.org,US,Americas,Northern America,United States of America,Georgia,,Atlanta
107.161.22.33,4,9,truetex.com,US,Americas,Northern America,United States of America,Georgia,,Atlanta
170.187.156.227,4,4,trussville.org,US,Americas,Northern America,United States of America,Georgia,,Atlanta
45.32.210.191,4,-3,trustix.org,US,Americas,Northern America,United States of America,Georgia,,Atlanta
23.4.39.110,4,4,trutv.com,US,Americas,Northern America,United States of America,Georgia,,Atlanta
155.138.225.97,4,-5,turbobuick.com,US,Americas,Northern America,United States of America,Georgia,,Atlanta
204.2.175.36,4,1,tuscaloosa-library.org,US,Americas,Northern America,United States of America,Georgia,,Milner
74.207.233.113,4,3,txfx.net,US,Americas,Northern America,United States of America,Georgia,,Atlanta
45.79.245.10,4,6,uchealth.org,US,Americas,Northern America,United States of America,Georgia,,Atlanta
45.79.222.126,4,1,unicron.com,US,Americas,Northern America,United States of America,Georgia,,Atlanta
66.71.253.2,4,8,unification.net,US,Americas,Northern America,United States of America,Georgia,,Atlanta
67.222.5.127,4,7,uniondepot.org,US,Americas,Northern America,United States of America,Georgia,,Atlanta
45.32.215.77,4,0,upplevelseblogg.se,US,Americas,Northern America,United States of America,Georgia,,Atlanta
67.222.3.158,4,13,usesignhouse.com,US,Americas,Northern America,United States of America,Georgia,,Atlanta
66.223.49.26,4,3,usgovernmentrevenue.com,US,Americas,Northern America,United States of America,Georgia,,Atlanta
139.177.206.14,4,2,uwca.org,US,Americas,Northern America,United States of America,Georgia,,Atlanta
66.115.166.236,4,3,valentina-db.com,US,Americas,Northern America,United States of America,Georgia,,Atlanta
45.33.102.221,4,12,valueforum.com,US,Americas,Northern America,United States of America,Georgia,,Atlanta
144.202.24.66,4,18,velabattery.com,US,Americas,Northern America,United States of America,Georgia,,Atlanta
74.207.234.227,4,23,venezuelatoday.net,US,Americas,Northern America,United States of America,Georgia,,Atlanta
155.138.216.222,4,14,vietnamtrips.com,US,Americas,Northern America,United States of America,Georgia,,Atlanta
66.154.14.246,4,462,vintageandrare.com,US,Americas,Northern America,United States of America,Georgia,,Atlanta
74.207.233.40,4,1,vintagecomputing.com,US,Americas,Northern America,United States of America,Georgia,,Atlanta
45.79.201.63,4,5,vintagepens.com,US,Americas,Northern America,United States of America,Georgia,,Atlanta
50.116.44.96,4,69,vladonai.com,US,Americas,Northern America,United States of America,Georgia,,Atlanta
50.116.47.128,4,6,warroom.com,US,Americas,Northern America,United States of America,Georgia,,Atlanta
67.222.7.117,4,18,waterwaysjournal.net,US,Americas,Northern America,United States of America,Georgia,,Atlanta
45.79.195.178,4,4,wbond.net,US,Americas,Northern America,United States of America,Georgia,,Atlanta
23.92.73.210,4,1,wcnews.com,US,Americas,Northern America,United States of America,Georgia,,Atlanta
45.33.102.252,4,-1,wcwonline.org,US,Americas,Northern America,United States of America,Georgia,,Atlanta
139.144.255.148,4,4,weathertab.com,US,Americas,Northern America,United States of America,Georgia,,Atlanta
45.79.193.239,4,32,web-lib.org,US,Americas,Northern America,United States of America,Georgia,,Atlanta
66.228.58.156,4,0,webdesignfinders.net,US,Americas,Northern America,United States of America,Georgia,,Atlanta
162.247.153.150,4,369,websquash.com,US,Americas,Northern America,United States of America,Georgia,,Atlanta
74.207.236.48,4,1,westgatereservations.com,US,Americas,Northern America,United States of America,Georgia,,Atlanta
23.239.19.7,4,5,westgatespace.com,US,Americas,Northern America,United States of America,Georgia,,Atlanta
45.56.116.243,4,90,wikiwww.me,US,Americas,Northern America,United States of America,Georgia,,Atlanta
139.144.164.223,4,8,wishlist.com,US,Americas,Northern America,United States of America,Georgia,,Atlanta
23.111.159.202,4,5,wordai.com,US,Americas,Northern America,United States of America,Georgia,,Atlanta
194.195.209.190,4,1,workerscompensation.com,US,Americas,Northern America,United States of America,Georgia,,Atlanta
45.79.215.170,4,15,workflowmanagement.us,US,Americas,Northern America,United States of America,Georgia,,Atlanta
50.116.36.80,4,118,worldclimate.com,US,Americas,Northern America,United States of America,Georgia,,Atlanta
66.154.14.190,4,1,worldgn.com,US,Americas,Northern America,United States of America,Georgia,,Atlanta
45.79.222.138,4,6,wowphilippines.com.ph,US,Americas,Northern America,United States of America,Georgia,,Atlanta
139.144.29.132,4,0,wplug.org,US,Americas,Northern America,United States of America,Georgia,,Atlanta
23.108.116.210,4,3,xfjcsd.com,US,Americas,Northern America,United States of America,Georgia,,Atlanta
185.143.223.48,4,1,xfwed.com,US,Americas,Northern America,United States of America,Georgia,,Atlanta
45.76.249.53,4,26,xn--modefralla-icb.se,US,Americas,Northern America,United States of America,Georgia,,Atlanta
155.138.162.224,4,83,xn--teknikfrdig-xfb.se,US,Americas,Northern America,United States of America,Georgia,,Atlanta
155.138.226.46,4,-3,xn--trningsentusiasten-mtb.se,US,Americas,Northern America,United States of America,Georgia,,Atlanta
96.16.60.201,4,13,yourlourdes.com,US,Americas,Northern America,United States of America,Georgia,,Marietta
96.16.60.199,4,52,yourlourdes.com,US,Americas,Northern America,United States of America,Georgia,,Marietta
45.56.119.192,4,11,yourwebapps.com,US,Americas,Northern America,United States of America,Georgia,,Atlanta
45.79.253.146,4,13,zbshareware.com,US,Americas,Northern America,United States of America,Georgia,,Atlanta
139.144.53.218,4,6,zeusln.com,US,Americas,Northern America,United States of America,Georgia,,Atlanta
