reflector_ip,ip_version,offset,description,country_code,region,sub_region,country_name,sub_division_1,sub_division_2,city
216.109.194.6,4,173,123.net,US,Americas,Northern America,United States of America,Michigan,,Ann Arbor
207.179.106.118,4,14,acd.net,US,Americas,Northern America,United States of America,Michigan,,Okemos
173.225.177.192,4,261,ageways.org,US,Americas,Northern America,United States of America,Michigan,,Royal Oak
190.92.155.83,4,8,aikenamps.com,US,Americas,Northern America,United States of America,Michigan,,
190.92.142.59,4,-4,alexgardeningservice.com,US,Americas,Northern America,United States of America,Michigan,,
162.247.79.16,4,5,americanbeautytools.com,US,Americas,Northern America,United States of America,Michigan,,Detroit
74.126.5.226,4,360935,amray.com,US,Americas,Northern America,United States of America,Michigan,,Southfield
190.92.136.157,4,9,aoxnews.com,US,Americas,Northern America,United States of America,Michigan,,
190.92.128.129,4,14,apexwindowwerks.com,US,Americas,Northern America,United States of America,Michigan,,
190.92.143.171,4,22,ashland.news,US,Americas,Northern America,United States of America,Michigan,,
190.92.158.87,4,5,brca.org,US,Americas,Northern America,United States of America,Michigan,,
190.92.130.30,4,10,brightsideofnews.com,US,Americas,Northern America,United States of America,Michigan,,
190.92.154.108,4,7,bumblejax.com,US,Americas,Northern America,United States of America,Michigan,,
190.92.158.228,4,9,cakematernity.com,US,Americas,Northern America,United States of America,Michigan,,
190.92.129.179,4,3,capsahealthcare.com,US,Americas,Northern America,United States of America,Michigan,,
69.63.229.2,4,39,cata.org,US,Americas,Northern America,United States of America,Michigan,,Lansing
190.92.154.206,4,6,cementeriosalcedo.com,US,Americas,Northern America,United States of America,Michigan,,
38.79.143.50,4,6,certbolt.com,US,Americas,Northern America,United States of America,Michigan,,Royal Oak
38.143.180.210,4,15,certkiller.com,US,Americas,Northern America,United States of America,Michigan,,Royal Oak
190.92.129.12,4,5,classicalpoets.org,US,Americas,Northern America,United States of America,Michigan,,
190.92.156.46,4,44,clippingpathlab.com,US,Americas,Northern America,United States of America,Michigan,,
190.92.143.30,4,-17,codforums.com,US,Americas,Northern America,United States of America,Michigan,,
190.92.154.24,4,6,compassrecords.com,US,Americas,Northern America,United States of America,Michigan,,
69.41.14.75,4,3,covenanteyes.com,US,Americas,Northern America,United States of America,Michigan,,Owosso
190.92.128.77,4,-10,cozycatfurniture.com,US,Americas,Northern America,United States of America,Michigan,,
190.92.157.11,4,-12,cpdl.org,US,Americas,Northern America,United States of America,Michigan,,
65.183.182.18,4,0,dancingmac.com,US,Americas,Northern America,United States of America,Michigan,,Livonia
190.92.137.231,4,-4,dcslithiumbatteries.eu,US,Americas,Northern America,United States of America,Michigan,,
190.92.141.230,4,39,demanddeborah.org,US,Americas,Northern America,United States of America,Michigan,,
24.180.102.206,4,1823349,DNS Server: 024-180-102-206.res.spectrum.com,US,Americas,Northern America,United States of America,Michigan,,Cheboygan
24.231.181.182,4,695,DNS Server: 024-231-181-182.res.spectrum.com,US,Americas,Northern America,United States of America,Michigan,,Davison
75.129.96.217,4,3853,DNS Server: 075-129-096-217.res.spectrum.com,US,Americas,Northern America,United States of America,Michigan,,Traverse City
75.129.116.77,4,-1606,DNS Server: 075-129-116-077.res.spectrum.com,US,Americas,Northern America,United States of America,Michigan,,Caledonia
75.135.156.44,4,-785,DNS Server: 075-135-156-044.res.spectrum.com,US,Americas,Northern America,United States of America,Michigan,,Caledonia
96.36.9.12,4,28,DNS Server: 096-036-009-012.biz.spectrum.com,US,Americas,Northern America,United States of America,Michigan,,Hart
97.87.21.84,4,135,DNS Server: 097-087-021-084.biz.spectrum.com,US,Americas,Northern America,United States of America,Michigan,,Sault Ste. Marie
131.148.181.242,4,34,DNS Server: 131-148-181-242.biz.spectrum.com,US,Americas,Northern America,United States of America,Michigan,,Farmington Hills
50.204.174.58,4,15,DNS Server: 50-204-174-58-static.hfc.comcastbusiness.net,US,Americas,Northern America,United States of America,Michigan,,Romulus
50.77.209.154,4,62,DNS Server: 50-77-209-154-static.hfc.comcastbusiness.net,US,Americas,Northern America,United States of America,Michigan,,Detroit
97.107.80.53,4,4,DNS Server: 53-80-107-97.static.cm-pool.d-pcomm.com,US,Americas,Northern America,United States of America,Michigan,,Blissfield
75.151.13.1,4,-1211,DNS Server: 75-151-13-1-Michigan.hfc.comcastbusiness.net,US,Americas,Northern America,United States of America,Michigan,,Waterford
76.242.96.73,4,-16468100,DNS Server: 76-242-96-73.uvs.livnmi.sbcglobal.net,US,Americas,Northern America,United States of America,Michigan,,Bloomfield Hills
68.36.20.235,4,9,DNS Server: c-68-36-20-235.hsd1.mi.comcast.net,US,Americas,Northern America,United States of America,Michigan,,Lake Orion
68.48.245.22,4,40,DNS Server: c-68-48-245-22.hsd1.mi.comcast.net,US,Americas,Northern America,United States of America,Michigan,,Saline
68.49.32.98,4,17,DNS Server: c-68-49-32-98.hsd1.mi.comcast.net,US,Americas,Northern America,United States of America,Michigan,,Grand Rapids
73.161.253.29,4,17798470,DNS Server: c-73-161-253-29.hsd1.mi.comcast.net,US,Americas,Northern America,United States of America,Michigan,,East Lansing
98.224.247.4,4,7,DNS Server: c-98-224-247-4.hsd1.mi.comcast.net,US,Americas,Northern America,United States of America,Michigan,,Bloomfield Hills
98.243.171.106,4,13,DNS Server: c-98-243-171-106.hsd1.mi.comcast.net,US,Americas,Northern America,United States of America,Michigan,,Adrian
69.39.83.140,4,8,DNS Server: dns.izzy.net,US,Americas,Northern America,United States of America,Michigan,,Farmington Hills
204.106.240.53,4,4,DNS Server: dns3.dmcibb.net,US,Americas,Northern America,United States of America,Michigan,,Quincy
205.171.3.65,4,259,DNS Server: resolver1.lumen.tech,US,Americas,Northern America,United States of America,Michigan,,Vassar
97.78.117.4,4,89720,DNS Server: rrcs-97-78-117-4.se.biz.rr.com,US,Americas,Northern America,United States of America,Michigan,,Farmington Hills
97.78.189.245,4,4575,DNS Server: rrcs-97-78-189-245.se.biz.rr.com,US,Americas,Northern America,United States of America,Michigan,,Farmington Hills
190.92.154.71,4,5,dpublication.com,US,Americas,Northern America,United States of America,Michigan,,
190.92.156.132,4,109,editorsmanual.com,US,Americas,Northern America,United States of America,Michigan,,
190.92.137.144,4,65,employeeconnect.com,US,Americas,Northern America,United States of America,Michigan,,
190.92.157.231,4,-8,ericflint.net,US,Americas,Northern America,United States of America,Michigan,,
190.92.153.173,4,-11,evolpub.com,US,Americas,Northern America,United States of America,Michigan,,
190.92.157.239,4,5,faze.ca,US,Americas,Northern America,United States of America,Michigan,,
64.7.165.73,4,15,fhgov.com,US,Americas,Northern America,United States of America,Michigan,,Midland
190.92.136.130,4,9,firebeetechnoservices.com,US,Americas,Northern America,United States of America,Michigan,,
190.92.141.128,4,-12,fmchealth.org,US,Americas,Northern America,United States of America,Michigan,,
190.92.152.169,4,50,franchisingusamagazine.com,US,Americas,Northern America,United States of America,Michigan,,
38.45.80.237,4,4,freesticky.com,US,Americas,Northern America,United States of America,Michigan,,Royal Oak
190.92.156.21,4,37,garthstein.com,US,Americas,Northern America,United States of America,Michigan,,
199.38.28.16,4,403,georgewright.org,US,Americas,Northern America,United States of America,Michigan,,Rock
190.92.159.107,4,5,hauteretreats.com,US,Americas,Northern America,United States of America,Michigan,,
74.204.57.187,4,32046,historygrandrapids.org,US,Americas,Northern America,United States of America,Michigan,,Grand Rapids
190.92.152.12,4,-12,hueymagoos.com,US,Americas,Northern America,United States of America,Michigan,,
190.92.158.191,4,18,iapwe.org,US,Americas,Northern America,United States of America,Michigan,,
67.216.187.217,4,23,idexcorp.com,US,Americas,Northern America,United States of America,Michigan,,South Lyon
190.92.141.112,4,-18,intermatwrestle.com,US,Americas,Northern America,United States of America,Michigan,,
190.92.135.76,4,-1,internationaliceswimming.com,US,Americas,Northern America,United States of America,Michigan,,
190.92.159.217,4,13,isco-pipe.com,US,Americas,Northern America,United States of America,Michigan,,
190.92.154.114,4,1,itsalovelylife.com,US,Americas,Northern America,United States of America,Michigan,,
190.92.140.165,4,7,jetsonhacks.com,US,Americas,Northern America,United States of America,Michigan,,
162.247.78.54,4,4,jfcy.org,US,Americas,Northern America,United States of America,Michigan,,Detroit
190.92.141.182,4,-19,jnmc.edu,US,Americas,Northern America,United States of America,Michigan,,
190.92.140.112,4,-3,kyinwebgroup.com,US,Americas,Northern America,United States of America,Michigan,,
190.92.159.29,4,4,lapca.org,US,Americas,Northern America,United States of America,Michigan,,
190.92.156.195,4,2,lco-cdo.org,US,Americas,Northern America,United States of America,Michigan,,
173.162.42.193,4,8,linxnet.com,US,Americas,Northern America,United States of America,Michigan,,Ferndale
190.92.158.91,4,4,livingproofmag.com,US,Americas,Northern America,United States of America,Michigan,,
75.75.210.213,4,3,lon-capa.org,US,Americas,Northern America,United States of America,Michigan,,DeWitt
162.247.79.3,4,39,lovehkfilm.com,US,Americas,Northern America,United States of America,Michigan,,Detroit
162.247.79.183,4,373,manofactionfigures.com,US,Americas,Northern America,United States of America,Michigan,,Detroit
162.247.77.249,4,55,matrixsynth.com,US,Americas,Northern America,United States of America,Michigan,,Detroit
190.92.143.79,4,-12,membersthrive.com,US,Americas,Northern America,United States of America,Michigan,,
190.92.135.158,4,9,merg.org.uk,US,Americas,Northern America,United States of America,Michigan,,
216.109.194.8,4,180,mich.com,US,Americas,Northern America,United States of America,Michigan,,Ann Arbor
70.91.226.201,4,16,midnightbsd.org,US,Americas,Northern America,United States of America,Michigan,,Ypsilanti
190.92.158.251,4,0,minrec.org,US,Americas,Northern America,United States of America,Michigan,,
190.92.152.180,4,16,nachc.org,US,Americas,Northern America,United States of America,Michigan,,
190.92.154.167,4,4,nawcc.org,US,Americas,Northern America,United States of America,Michigan,,
74.126.10.12,4,4,netonecom.net,US,Americas,Northern America,United States of America,Michigan,,Madison Heights
173.15.229.21,4,14076047,neverpedia.com,US,Americas,Northern America,United States of America,Michigan,,Southfield
190.92.154.137,4,4,oceaneering.com,US,Americas,Northern America,United States of America,Michigan,,
190.92.159.115,4,7,onvif.org,US,Americas,Northern America,United States of America,Michigan,,
24.247.15.49,4,266,Ookla Speedtest Server 2406: spt01aldlmi.aldl.mi.charter.com,US,Americas,Northern America,United States of America,Michigan,,Holland
216.250.146.186,4,361,Ookla Speedtest Server 37933: kzspeedtest01.aunalytics.com,US,Americas,Northern America,United States of America,Michigan,,Vicksburg
66.187.100.36,4,432,Ookla Speedtest Server 40616: speedtest-srv-a.homeworks.org,US,Americas,Northern America,United States of America,Michigan,,Coral
69.36.50.194,4,268,Ookla Speedtest Server 55086: speedtest3.point-broadband.com,US,Americas,Northern America,United States of America,Michigan,,Greenville
97.107.80.6,4,222,Ookla Speedtest Server: d-pcommunications.com,US,Americas,Northern America,United States of America,Michigan,,Blissfield
209.124.40.2,4,352,Ookla Speedtest Server: sfld-speedtest-2.123.net,US,Americas,Northern America,United States of America,Michigan,,Berkley
162.220.236.94,4,395,Ookla Speedtest Server: sp1.summitdigital.net,US,Americas,Northern America,United States of America,Michigan,,Le Roy
64.191.86.158,4,316,Ookla Speedtest Server: speedtest.dal1.nitelusa.net,US,Americas,Northern America,United States of America,Michigan,,Grand Rapids
104.244.209.4,4,223,Ookla Speedtest Server: speedtest.mi.incx.net,US,Americas,Northern America,United States of America,Michigan,,Flushing
137.220.8.34,4,80,Ookla Speedtest Server: speedtest.springcom.com,US,Americas,Northern America,United States of America,Michigan,,Springport
67.209.250.150,4,253,Ookla Speedtest Server: speedtest.winntel.com,US,Americas,Northern America,United States of America,Michigan,,Alma
69.41.0.18,4,3,Ookla Speedtest Server: speedtest4.daystarr.net,US,Americas,Northern America,United States of America,Michigan,,Owosso
190.92.159.54,4,1,outdoorlivingtoday.com,US,Americas,Northern America,United States of America,Michigan,,
190.92.154.7,4,2,pensacolabeach.com,US,Americas,Northern America,United States of America,Michigan,,
190.92.137.120,4,32,pin-code.org.in,US,Americas,Northern America,United States of America,Michigan,,
205.251.188.25,4,42,pipelinepub.com,US,Americas,Northern America,United States of America,Michigan,,Detroit
190.92.158.216,4,36,pkware.com,US,Americas,Northern America,United States of America,Michigan,,
190.92.140.61,4,-2,plasticmold.net,US,Americas,Northern America,United States of America,Michigan,,
45.19.202.70,4,14,platewire.com,US,Americas,Northern America,United States of America,Michigan,,Ypsilanti
190.92.159.157,4,52,powerpyx.com,US,Americas,Northern America,United States of America,Michigan,,
190.92.141.10,4,3,psychicelements.com,US,Americas,Northern America,United States of America,Michigan,,
207.75.116.14,4,76,radb.net,US,Americas,Northern America,United States of America,Michigan,,Portage
190.92.132.47,4,64,ratinkhosh.com,US,Americas,Northern America,United States of America,Michigan,,
155.130.134.36,4,41,repocast.com,US,Americas,Northern America,United States of America,Michigan,,Lansing
173.225.177.223,4,23,responsivedesignchecker.com,US,Americas,Northern America,United States of America,Michigan,,Royal Oak
190.92.135.202,4,61,rotavicentina.com,US,Americas,Northern America,United States of America,Michigan,,
190.92.154.27,4,1,royal.com,US,Americas,Northern America,United States of America,Michigan,,
50.235.47.123,4,-3,safcodental.com,US,Americas,Northern America,United States of America,Michigan,,Muskegon
190.92.158.115,4,23,sakerestaurant.com.au,US,Americas,Northern America,United States of America,Michigan,,
190.92.129.1,4,12,scannerfrequencies.com,US,Americas,Northern America,United States of America,Michigan,,
190.92.143.96,4,-7,scientificbeekeeping.com,US,Americas,Northern America,United States of America,Michigan,,
190.92.159.46,4,9,seakayakadventures.com,US,Americas,Northern America,United States of America,Michigan,,
162.247.78.70,4,5,sexyloops.com,US,Americas,Northern America,United States of America,Michigan,,Detroit
208.92.218.146,4,19,sharkysevents.com,US,Americas,Northern America,United States of America,Michigan,,Bloomfield Hills
162.247.76.11,4,822,shourachemicals.com,US,Americas,Northern America,United States of America,Michigan,,Detroit
205.251.188.185,4,55252,silverboxx.com,US,Americas,Northern America,United States of America,Michigan,,Detroit
190.92.138.136,4,56,simplylearnt.com,US,Americas,Northern America,United States of America,Michigan,,
190.92.158.172,4,33,storypoint.com,US,Americas,Northern America,United States of America,Michigan,,
190.92.154.218,4,7,sunopta.com,US,Americas,Northern America,United States of America,Michigan,,
162.247.78.69,4,28,synerion.com,US,Americas,Northern America,United States of America,Michigan,,Detroit
190.92.139.218,4,25,teamcnut.com,US,Americas,Northern America,United States of America,Michigan,,
208.83.69.36,4,7,telcodata.us,US,Americas,Northern America,United States of America,Michigan,,Birmingham
190.92.132.173,4,66,terrassaencomu.cat,US,Americas,Northern America,United States of America,Michigan,,
38.143.183.195,4,3,test-king.com,US,Americas,Northern America,United States of America,Michigan,,Royal Oak
190.92.154.48,4,4,thegalleria.ae,US,Americas,Northern America,United States of America,Michigan,,
23.47.73.56,4,18,thegoodguys.com.au,US,Americas,Northern America,United States of America,Michigan,,Inkster
23.47.73.89,4,0,thegoodguys.com.au,US,Americas,Northern America,United States of America,Michigan,,Inkster
190.92.128.92,4,-4,topmexicorealestate.com,US,Americas,Northern America,United States of America,Michigan,,
152.160.174.125,4,31,traumasoft.com,US,Americas,Northern America,United States of America,Michigan,,Grand Rapids
190.92.158.224,4,33,travel.com,US,Americas,Northern America,United States of America,Michigan,,
162.247.76.123,4,13,tvsourcemagazine.com,US,Americas,Northern America,United States of America,Michigan,,Detroit
155.130.134.111,4,1,txauction.com,US,Americas,Northern America,United States of America,Michigan,,Lansing
190.92.156.129,4,25,urbansurvival.com,US,Americas,Northern America,United States of America,Michigan,,
38.45.81.237,4,4,vantazo.com,US,Americas,Northern America,United States of America,Michigan,,Royal Oak
69.41.13.62,4,5,vgchartz.com,US,Americas,Northern America,United States of America,Michigan,,Owosso
190.92.157.29,4,-8,votehemp.com,US,Americas,Northern America,United States of America,Michigan,,
190.92.154.189,4,3,vvc.edu,US,Americas,Northern America,United States of America,Michigan,,
190.92.128.144,4,-8,welding.org,US,Americas,Northern America,United States of America,Michigan,,
190.92.136.229,4,44,wellbutrin24.com,US,Americas,Northern America,United States of America,Michigan,,
64.7.165.70,4,11,westchester-il.org,US,Americas,Northern America,United States of America,Michigan,,Midland
190.92.129.2,4,4,wpaffiliatemanager.com,US,Americas,Northern America,United States of America,Michigan,,
190.92.158.4,4,7,wsdm-conference.org,US,Americas,Northern America,United States of America,Michigan,,
190.92.154.185,4,6,wwt.net,US,Americas,Northern America,United States of America,Michigan,,
190.92.159.51,4,4,zamboanga.com,US,Americas,Northern America,United States of America,Michigan,,
141.213.137.249,4,3,zhanggroup.org,US,Americas,Northern America,United States of America,Michigan,,Canton
