reflector_ip,ip_version,offset,description,country_code,region,sub_region,country_name,sub_division_1,sub_division_2,city
160.121.78.53,4,-1,1-ltc.com,US,Americas,Northern America,United States of America,Illinois,,Chicago
155.159.236.126,4,-3,100renli.com,US,Americas,Northern America,United States of America,Illinois,,Chicago
160.121.20.8,4,3,13625777838.com,US,Americas,Northern America,United States of America,Illinois,,Chicago
160.121.20.170,4,19,13baba.com,US,Americas,Northern America,United States of America,Illinois,,Chicago
168.206.40.200,4,25,170bd.com,US,Americas,Northern America,United States of America,Illinois,,Chicago
155.159.236.112,4,-3,178o2o.com,US,Americas,Northern America,United States of America,Illinois,,Chicago
168.206.62.45,4,34,19809999.com,US,Americas,Northern America,United States of America,Illinois,,Chicago
50.31.160.191,4,5,1stmuse.com,US,Americas,Northern America,United States of America,Illinois,,Chicago
160.121.35.99,4,15,2mihan.com,US,Americas,Northern America,United States of America,Illinois,,Chicago
168.206.60.56,4,34,5134cy.com,US,Americas,Northern America,United States of America,Illinois,,Chicago
168.206.57.60,4,35,58hmfc.com,US,Americas,Northern America,United States of America,Illinois,,Chicago
160.121.147.29,4,5,800ggw.com,US,Americas,Northern America,United States of America,Illinois,,Chicago
168.206.191.212,4,17,83164.com,US,Americas,Northern America,United States of America,Illinois,,Chicago
168.206.40.197,4,23,95fanxin.com,US,Americas,Northern America,United States of America,Illinois,,Chicago
204.93.224.104,4,32,academianacionaldemedicina.org,US,Americas,Northern America,United States of America,Illinois,,Chicago
75.102.22.59,4,15,acercadeinter.net,US,Americas,Northern America,United States of America,Illinois,,Chicago
216.138.0.104,4,0,adams.net,US,Americas,Northern America,United States of America,Illinois,,Quincy
38.58.224.106,4,6,adirondacksolutions.com,US,Americas,Northern America,United States of America,Illinois,,Chicago
66.225.201.104,4,111,adnsureste.info,US,Americas,Northern America,United States of America,Illinois,,Chicago
216.246.46.133,4,552,adsnetsoluciones.com,US,Americas,Northern America,United States of America,Illinois,,Chicago
216.246.113.184,4,715,agraria.pe,US,Americas,Northern America,United States of America,Illinois,,Chicago
168.206.60.53,4,35,ahdaosheng.com,US,Americas,Northern America,United States of America,Illinois,,Chicago
155.159.247.194,4,6,ahhuayugd.com,US,Americas,Northern America,United States of America,Illinois,,Chicago
168.206.24.129,4,21,ahlsn.com,US,Americas,Northern America,United States of America,Illinois,,Chicago
160.121.120.149,4,8,ahywaf.com,US,Americas,Northern America,United States of America,Illinois,,Chicago
155.159.128.196,4,8,aklsgjhio.com,US,Americas,Northern America,United States of America,Illinois,,Chicago
69.65.10.202,4,145,alexrov.com,US,Americas,Northern America,United States of America,Illinois,,Streamwood
160.121.72.67,4,20,alfares-egy.com,US,Americas,Northern America,United States of America,Illinois,,Chicago
23.60.134.125,4,3,alfaromeousa.com,US,Americas,Northern America,United States of America,Illinois,,Chicago
66.225.201.73,4,1237,americasolidaria.org,US,Americas,Northern America,United States of America,Illinois,,Chicago
168.206.176.20,4,9,an620.com,US,Americas,Northern America,United States of America,Illinois,,Chicago
152.44.43.85,4,3,anderson.com,US,Americas,Northern America,United States of America,Illinois,,
75.102.22.214,4,131,androidpctv.com,US,Americas,Northern America,United States of America,Illinois,,Chicago
69.65.4.137,4,30,animecastle.com,US,Americas,Northern America,United States of America,Illinois,,Streamwood
198.23.146.143,4,20,animeticket.com,US,Americas,Northern America,United States of America,Illinois,,Elk Grove Village
158.51.99.42,4,6,ankaraescrtlari.site,US,Americas,Northern America,United States of America,Illinois,,Schaumburg
193.29.62.169,4,8,anonion.social,US,Americas,Northern America,United States of America,Illinois,,Chicago
160.121.78.45,4,-4,anyushi.com,US,Americas,Northern America,United States of America,Illinois,,Chicago
155.159.237.112,4,-4,aotumama.com,US,Americas,Northern America,United States of America,Illinois,,Chicago
168.206.40.194,4,25,app269.com,US,Americas,Northern America,United States of America,Illinois,,Chicago
168.206.133.33,4,31,applexin.com,US,Americas,Northern America,United States of America,Illinois,,Chicago
45.76.30.80,4,17,ariannaonline.com,US,Americas,Northern America,United States of America,Illinois,,Elk Grove Village
75.102.23.22,4,16,armada.mil.do,US,Americas,Northern America,United States of America,Illinois,,Chicago
216.246.47.167,4,29,arqhys.com,US,Americas,Northern America,United States of America,Illinois,,Chicago
168.206.36.227,4,27,artwork-gz.com,US,Americas,Northern America,United States of America,Illinois,,Chicago
50.198.47.60,4,-11567,asiatoday.com,US,Americas,Northern America,United States of America,Illinois,,Orland Park
108.163.234.178,4,57,askbd.org,US,Americas,Northern America,United States of America,Illinois,,Elk Grove Village
76.247.10.170,4,36419,atour.com,US,Americas,Northern America,United States of America,Illinois,,Rockford
50.31.188.70,4,326,aula.edu.pe,US,Americas,Northern America,United States of America,Illinois,,Chicago
38.65.227.226,4,6,bakewithzoha.com,US,Americas,Northern America,United States of America,Illinois,,Chicago
45.136.113.233,4,16,baltimoresportsandlife.com,US,Americas,Northern America,United States of America,Illinois,,Chicago
23.45.46.199,4,5,banque-france.fr,US,Americas,Northern America,United States of America,Illinois,,Chicago
23.45.46.208,4,8,banque-france.fr,US,Americas,Northern America,United States of America,Illinois,,Chicago
168.206.40.42,4,7,baojie8755.com,US,Americas,Northern America,United States of America,Illinois,,Chicago
168.206.224.115,4,10,baoliaotai.cn,US,Americas,Northern America,United States of America,Illinois,,Chicago
69.65.4.52,4,37,bare-metal.com,US,Americas,Northern America,United States of America,Illinois,,Streamwood
45.63.67.119,4,-1,barkbusters.com,US,Americas,Northern America,United States of America,Illinois,,Elk Grove Village
67.202.71.212,4,-1,bay.ru,US,Americas,Northern America,United States of America,Illinois,,Chicago
216.246.46.152,4,25165,bbs.edu.do,US,Americas,Northern America,United States of America,Illinois,,Chicago
216.246.46.105,4,1236,beatbang.com.ar,US,Americas,Northern America,United States of America,Illinois,,Chicago
192.210.200.48,4,16,bikecollectives.org,US,Americas,Northern America,United States of America,Illinois,,Elk Grove Village
206.217.132.182,4,4,biocleaninternational.com,US,Americas,Northern America,United States of America,Illinois,,Elk Grove Village
50.31.174.197,4,1267,bitcoinenespanol.net,US,Americas,Northern America,United States of America,Illinois,,Chicago
134.195.89.118,4,12,bitlet.org,US,Americas,Northern America,United States of America,Illinois,,Chicago
208.77.18.144,4,6,bitsavers.org,US,Americas,Northern America,United States of America,Illinois,,Chicago
155.159.241.105,4,-4,bj-gysz.com,US,Americas,Northern America,United States of America,Illinois,,Chicago
160.121.78.42,4,-4,bj-hanyu.com,US,Americas,Northern America,United States of America,Illinois,,Chicago
168.206.62.46,4,33,bjzyckj.com,US,Americas,Northern America,United States of America,Illinois,,Chicago
160.121.61.38,4,7,blytea.com,US,Americas,Northern America,United States of America,Illinois,,Chicago
208.100.57.40,4,-10079,boat-design.net,US,Americas,Northern America,United States of America,Illinois,,Winnetka
155.159.236.121,4,-1,bokexiaozhen.com,US,Americas,Northern America,United States of America,Illinois,,Chicago
45.76.225.58,4,21,borderlessmag.org,US,Americas,Northern America,United States of America,Illinois,,Elk Grove Village
160.121.79.57,4,1,bowingroup.com,US,Americas,Northern America,United States of America,Illinois,,Chicago
172.232.0.32,4,7,brighthouse.com,US,Americas,Northern America,United States of America,Illinois,,Chicago
172.232.0.58,4,8,brighthouse.com,US,Americas,Northern America,United States of America,Illinois,,Chicago
208.100.49.52,4,3,brushd.com,US,Americas,Northern America,United States of America,Illinois,,Winnetka
45.76.31.42,4,4,btfaq.com,US,Americas,Northern America,United States of America,Illinois,,Elk Grove Village
155.159.247.193,4,8,btfeilu.com,US,Americas,Northern America,United States of America,Illinois,,Chicago
152.44.38.156,4,0,bunity.com,US,Americas,Northern America,United States of America,Illinois,,
216.246.46.200,4,43301,buyrdps.com,US,Americas,Northern America,United States of America,Illinois,,Chicago
168.206.176.24,4,5,bykstudio.com,US,Americas,Northern America,United States of America,Illinois,,Chicago
155.159.59.227,4,-4,bzbcjj.com,US,Americas,Northern America,United States of America,Illinois,,Chicago
50.31.148.82,4,3,cachefly.com,US,Americas,Northern America,United States of America,Illinois,,Chicago
50.31.176.39,4,293,campcodes.com,US,Americas,Northern America,United States of America,Illinois,,Chicago
172.234.197.240,4,6,campgroundviews.com,US,Americas,Northern America,United States of America,Illinois,,Chicago
208.100.53.75,4,46,campjellystone.com,US,Americas,Northern America,United States of America,Illinois,,Winnetka
208.100.57.214,4,13,canadianoutdoorequipment.com,US,Americas,Northern America,United States of America,Illinois,,Winnetka
193.106.251.19,4,21,cankiriescortbu.info,US,Americas,Northern America,United States of America,Illinois,,Chicago
160.121.80.54,4,1,caoxiaoshanpastel.com,US,Americas,Northern America,United States of America,Illinois,,Chicago
45.76.20.6,4,10,captainaltcoin.com,US,Americas,Northern America,United States of America,Illinois,,Elk Grove Village
50.31.188.37,4,394,caracteristicas.co,US,Americas,Northern America,United States of America,Illinois,,Chicago
104.114.166.56,4,1,caremark.com,US,Americas,Northern America,United States of America,Illinois,,Chicago
208.100.36.102,4,4,carinsurancerates.com,US,Americas,Northern America,United States of America,Illinois,,Winnetka
104.36.110.64,4,6,caryortho.com,US,Americas,Northern America,United States of America,Illinois,,Chicago
198.144.183.26,4,4,caycanhthiennhien.com,US,Americas,Northern America,United States of America,Illinois,,Elk Grove Village
155.159.250.207,4,5,cbslvyou.com.cn,US,Americas,Northern America,United States of America,Illinois,,Chicago
155.159.61.62,4,6,ccyingying.com,US,Americas,Northern America,United States of America,Illinois,,Chicago
168.206.57.178,4,9,cdnylt.com,US,Americas,Northern America,United States of America,Illinois,,Chicago
204.93.224.158,4,514,celeren.com,US,Americas,Northern America,United States of America,Illinois,,Chicago
66.42.125.196,4,18,centerstagechicago.com,US,Americas,Northern America,United States of America,Illinois,,Elk Grove Village
75.102.22.37,4,530,cgaf.com,US,Americas,Northern America,United States of America,Illinois,,Chicago
50.31.176.150,4,132,chapingo.mx,US,Americas,Northern America,United States of America,Illinois,,Chicago
172.245.94.102,4,4,cheese.beer,US,Americas,Northern America,United States of America,Illinois,,Elk Grove Village
168.206.56.59,4,34,cheesecoding.com,US,Americas,Northern America,United States of America,Illinois,,Chicago
168.206.40.198,4,22,chefs-gourmet.com,US,Americas,Northern America,United States of America,Illinois,,Chicago
50.31.143.150,4,221,chestnet.org,US,Americas,Northern America,United States of America,Illinois,,Chicago
149.28.115.12,4,7,chicagoharbors.info,US,Americas,Northern America,United States of America,Illinois,,Elk Grove Village
75.102.22.165,4,522,chiletoday.cl,US,Americas,Northern America,United States of America,Illinois,,Chicago
64.32.1.41,4,0,chinabm.cn,US,Americas,Northern America,United States of America,Illinois,,Chicago
104.36.229.133,4,8,chitowndailynews.org,US,Americas,Northern America,United States of America,Illinois,,West Chicago
160.121.82.54,4,0,chnzzkj.com,US,Americas,Northern America,United States of America,Illinois,,Chicago
168.206.62.53,4,40,choujiangapp.com,US,Americas,Northern America,United States of America,Illinois,,Chicago
152.44.41.164,4,3,chronicleofsocialchange.org,US,Americas,Northern America,United States of America,Illinois,,
168.206.80.29,4,6,chuangyuanled.com,US,Americas,Northern America,United States of America,Illinois,,Chicago
160.121.20.41,4,5,chuanxibang.com,US,Americas,Northern America,United States of America,Illinois,,Chicago
160.121.78.44,4,1,chunxiaoxuetang.com,US,Americas,Northern America,United States of America,Illinois,,Chicago
208.100.31.41,4,2,citizendium.org,US,Americas,Northern America,United States of America,Illinois,,Winnetka
149.130.215.216,4,4,civilloquy.com,US,Americas,Northern America,United States of America,Illinois,,Chicago
155.159.247.198,4,4,ciximc.net,US,Americas,Northern America,United States of America,Illinois,,Chicago
172.245.139.27,4,1,clearybuilding.com,US,Americas,Northern America,United States of America,Illinois,,Elk Grove Village
172.234.206.241,4,41,cliffle.com,US,Americas,Northern America,United States of America,Illinois,,Chicago
79.141.160.40,4,3,climatechangeforfamilies.com,US,Americas,Northern America,United States of America,Illinois,,Chicago
208.100.38.218,4,3,clixtrac.com,US,Americas,Northern America,United States of America,Illinois,,Winnetka
155.159.238.99,4,-2,club-sesam.com,US,Americas,Northern America,United States of America,Illinois,,Chicago
160.121.36.108,4,13,cn-came.com,US,Americas,Northern America,United States of America,Illinois,,Chicago
168.206.36.226,4,22,cn-qingrong.com,US,Americas,Northern America,United States of America,Illinois,,Chicago
155.159.238.119,4,-3,cnhangyou.com,US,Americas,Northern America,United States of America,Illinois,,Chicago
155.159.50.92,4,24,cnkiksfb.com,US,Americas,Northern America,United States of America,Illinois,,Chicago
50.31.188.186,4,626,cntamaulipas.mx,US,Americas,Northern America,United States of America,Illinois,,Chicago
160.121.78.48,4,-5,cnwszj.com,US,Americas,Northern America,United States of America,Illinois,,Chicago
155.159.236.118,4,-3,cocobamboohostel.com,US,Americas,Northern America,United States of America,Illinois,,Chicago
216.246.112.106,4,1114,codictados.com,US,Americas,Northern America,United States of America,Illinois,,Chicago
66.225.201.102,4,129,codigogeek.com,US,Americas,Northern America,United States of America,Illinois,,Chicago
168.206.60.40,4,35,colobosh.com,US,Americas,Northern America,United States of America,Illinois,,Chicago
23.108.95.231,4,5,coloradotechnology.org,US,Americas,Northern America,United States of America,Illinois,,Chicago
208.100.57.47,4,-10026,colorprintingforum.com,US,Americas,Northern America,United States of America,Illinois,,Winnetka
216.246.47.120,4,17,cometofaith.org,US,Americas,Northern America,United States of America,Illinois,,Chicago
12.8.61.129,4,50,compsych.com,US,Americas,Northern America,United States of America,Illinois,,Park Ridge
167.160.175.233,4,34,computerrepairexpert.com,US,Americas,Northern America,United States of America,Illinois,,Elk Grove Village
216.170.124.42,4,2,conceptdistributing.com,US,Americas,Northern America,United States of America,Illinois,,Chicago
69.65.4.234,4,6,concordia.edu,US,Americas,Northern America,United States of America,Illinois,,Streamwood
216.246.46.202,4,43298,conectamilk.cl,US,Americas,Northern America,United States of America,Illinois,,Chicago
45.63.67.102,4,5,contrastly.com,US,Americas,Northern America,United States of America,Illinois,,Elk Grove Village
155.159.237.107,4,-2,coronaacai.com,US,Americas,Northern America,United States of America,Illinois,,Chicago
155.159.219.244,4,13,cqwzjyc.com,US,Americas,Northern America,United States of America,Illinois,,Chicago
75.102.22.69,4,96,crc.sport,US,Americas,Northern America,United States of America,Illinois,,Chicago
69.65.11.85,4,2,crystalclassics.com,US,Americas,Northern America,United States of America,Illinois,,Arlington Heights
104.119.189.187,4,12,csiweb.com,US,Americas,Northern America,United States of America,Illinois,,Chicago
104.119.189.155,4,3,csiweb.com,US,Americas,Northern America,United States of America,Illinois,,Chicago
160.121.77.57,4,-6,csyangxin.com,US,Americas,Northern America,United States of America,Illinois,,Chicago
216.246.46.21,4,907,cuarteldelmetal.com,US,Americas,Northern America,United States of America,Illinois,,Chicago
104.36.228.4,4,12,curiyo.com,US,Americas,Northern America,United States of America,Illinois,,West Chicago
50.31.176.8,4,726,cuscorestaurants.com,US,Americas,Northern America,United States of America,Illinois,,Chicago
38.145.220.36,4,2,cwinn.info,US,Americas,Northern America,United States of America,Illinois,,Chicago
168.206.214.239,4,0,cxcanzhuoyi.com,US,Americas,Northern America,United States of America,Illinois,,Chicago
160.121.82.52,4,-6,cyjlfcs.com,US,Americas,Northern America,United States of America,Illinois,,Chicago
168.206.60.38,4,34,daihenkuai.com,US,Americas,Northern America,United States of America,Illinois,,Chicago
50.3.227.248,4,41271,daltonplastics.com,US,Americas,Northern America,United States of America,Illinois,,Chicago
160.121.175.214,4,4,danyin456.com,US,Americas,Northern America,United States of America,Illinois,,Chicago
168.206.56.43,4,51,danyin666.com,US,Americas,Northern America,United States of America,Illinois,,Chicago
67.202.70.109,4,49,davescomputertips.com,US,Americas,Northern America,United States of America,Illinois,,Chicago
168.206.210.182,4,5,davistps.com,US,Americas,Northern America,United States of America,Illinois,,Chicago
108.61.202.22,4,-5827,dbit.com,US,Americas,Northern America,United States of America,Illinois,,Elk Grove Village
69.39.239.198,4,8,dcac.org,US,Americas,Northern America,United States of America,Illinois,,Arlington Heights
216.246.47.72,4,367,dcinl.com,US,Americas,Northern America,United States of America,Illinois,,Chicago
23.55.220.146,4,1,deadspace.com,US,Americas,Northern America,United States of America,Illinois,,Chicago
23.55.221.139,4,5,deadspace.com,US,Americas,Northern America,United States of America,Illinois,,Chicago
23.55.220.160,4,2,deadspace.com,US,Americas,Northern America,United States of America,Illinois,,Chicago
152.44.38.162,4,37,decordove.com,US,Americas,Northern America,United States of America,Illinois,,
66.225.201.27,4,900,derf.com.ar,US,Americas,Northern America,United States of America,Illinois,,Chicago
155.159.237.109,4,-3,designboombox.com,US,Americas,Northern America,United States of America,Illinois,,Chicago
50.31.174.86,4,1041,desistfilm.com,US,Americas,Northern America,United States of America,Illinois,,Chicago
160.121.78.55,4,-4,desjy.com,US,Americas,Northern America,United States of America,Illinois,,Chicago
204.93.224.37,4,4,dfeuniversal.com,US,Americas,Northern America,United States of America,Illinois,,Chicago
160.121.175.209,4,2,dghczdh.com,US,Americas,Northern America,United States of America,Illinois,,Chicago
168.206.60.54,4,34,dgwlbj.com,US,Americas,Northern America,United States of America,Illinois,,Chicago
168.206.99.106,4,0,dhjingben.com,US,Americas,Northern America,United States of America,Illinois,,Chicago
168.206.60.43,4,39,dhplantwall.com,US,Americas,Northern America,United States of America,Illinois,,Chicago
149.28.114.194,4,6,diamondkotesiding.com,US,Americas,Northern America,United States of America,Illinois,,Elk Grove Village
160.121.82.51,4,-4,diancuiwang.com,US,Americas,Northern America,United States of America,Illinois,,Chicago
131.153.56.226,4,861,diarioeltiempo.com.ve,US,Americas,Northern America,United States of America,Illinois,,Chicago
45.63.64.161,4,4,diawellfurniture.com,US,Americas,Northern America,United States of America,Illinois,,Elk Grove Village
38.65.227.204,4,5,dictionary.co.il,US,Americas,Northern America,United States of America,Illinois,,Chicago
209.242.39.97,4,783,dietitian.com,US,Americas,Northern America,United States of America,Illinois,,Chicago
168.206.62.50,4,68,dilancl.com,US,Americas,Northern America,United States of America,Illinois,,Chicago
152.44.40.177,4,1484,dinosaurstatepark.org,US,Americas,Northern America,United States of America,Illinois,,
69.65.31.16,4,23,distributedcomputing.info,US,Americas,Northern America,United States of America,Illinois,,Streamwood
160.121.82.49,4,-6,dljingjie.com,US,Americas,Northern America,United States of America,Illinois,,Chicago
160.121.78.56,4,-5,dlwsh.com,US,Americas,Northern America,United States of America,Illinois,,Chicago
155.159.247.196,4,6,dmoz5.com,US,Americas,Northern America,United States of America,Illinois,,Chicago
168.206.56.53,4,38,dmsjizepjl.com,US,Americas,Northern America,United States of America,Illinois,,Chicago
208.77.22.93,4,892,dnfmaps.com,US,Americas,Northern America,United States of America,Illinois,,Chicago
71.14.240.217,4,-288,DNS Server: 071-014-240-217.biz.spectrum.com,US,Americas,Northern America,United States of America,Illinois,,East Alton
107.174.206.218,4,4,DNS Server: 107-174-206-218-host.colocrossing.com,US,Americas,Northern America,United States of America,Illinois,,Elk Grove Village
108.178.224.101,4,180,DNS Server: 108-178-224-101.client.mchsi.com,US,Americas,Northern America,United States of America,Illinois,,Penfield
192.227.155.216,4,5,DNS Server: 192-227-155-216-host.colocrossing.com,US,Americas,Northern America,United States of America,Illinois,,Elk Grove Village
198.23.144.89,4,20,DNS Server: 198-23-144-89-host.colocrossing.com,US,Americas,Northern America,United States of America,Illinois,,Elk Grove Village
198.23.238.196,4,-26064439,DNS Server: 198-23-238-196-host.enwebhost.net,US,Americas,Northern America,United States of America,Illinois,,Elk Grove Village
50.194.123.211,4,8,DNS Server: 50-194-123-211-static.hfc.comcastbusiness.net,US,Americas,Northern America,United States of America,Illinois,,Norridge
70.89.219.49,4,81,DNS Server: 70-89-219-49-temps-now-employment-il.hfc.comcastbusiness.net,US,Americas,Northern America,United States of America,Illinois,,Palatine
91.229.114.145,4,67,DNS Server: 91-229-114-145.ipv4.iana.org,US,Americas,Northern America,United States of America,Illinois,,Chicago
91.229.114.146,4,78,DNS Server: 91-229-114-146.ipv4.iana.org,US,Americas,Northern America,United States of America,Illinois,,Chicago
96.70.61.241,4,12,DNS Server: 96-70-61-241-static.hfc.comcastbusiness.net,US,Americas,Northern America,United States of America,Illinois,,Chicago
96.92.236.252,4,279176,DNS Server: 96-92-236-252-static.hfc.comcastbusiness.net,US,Americas,Northern America,United States of America,Illinois,,Chicago
96.92.248.91,4,90,DNS Server: 96-92-248-91-static.hfc.comcastbusiness.net,US,Americas,Northern America,United States of America,Illinois,,Chicago
71.239.106.29,4,10,DNS Server: c-71-239-106-29.hsd1.il.comcast.net,US,Americas,Northern America,United States of America,Illinois,,Crystal Lake
73.50.43.36,4,71210,DNS Server: c-73-50-43-36.hsd1.il.comcast.net,US,Americas,Northern America,United States of America,Illinois,,Joliet
73.8.100.238,4,9,DNS Server: c-73-8-100-238.hsd1.il.comcast.net,US,Americas,Northern America,United States of America,Illinois,,Elmhurst
76.16.127.159,4,22226,DNS Server: c-76-16-127-159.hsd1.il.comcast.net,US,Americas,Northern America,United States of America,Illinois,,Chicago
98.214.178.110,4,9,DNS Server: c-98-214-178-110.hsd1.il.comcast.net,US,Americas,Northern America,United States of America,Illinois,,East Peoria
207.229.141.4,4,71,DNS Server: chi-dhcp1.chi.il.cable.rcn.net,US,Americas,Northern America,United States of America,Illinois,,Chicago
209.242.60.162,4,-411202,DNS Server: defensor.realnets.net,US,Americas,Northern America,United States of America,Illinois,,Park Ridge
64.42.183.52,4,5,DNS Server: dser3.benchinfo.com,US,Americas,Northern America,United States of America,Illinois,,Chicago
208.103.190.92,4,96,DNS Server: G-I-T-92.grundyiptransport.net,US,Americas,Northern America,United States of America,Illinois,,Morris
38.124.38.1,4,604,DNS Server: gi100-0-0-10.nr11.b022161-0.ord01.atlas.cogentco.com,US,Americas,Northern America,United States of America,Illinois,,Elk Grove Village
206.246.248.139,4,20,DNS Server: ip206-246-248-139.east.widomaker.com,US,Americas,Northern America,United States of America,Illinois,,Waukegan
206.246.248.141,4,11,DNS Server: ip206-246-248-141.east.widomaker.com,US,Americas,Northern America,United States of America,Illinois,,Waukegan
208.59.78.153,4,397596,DNS Server: irouteinc154.i.subnet.rcn.com,US,Americas,Northern America,United States of America,Illinois,,Chicago
74.199.245.196,4,123,DNS Server: ns1648.ztomy.com,US,Americas,Northern America,United States of America,Illinois,,Godfrey
208.93.158.1,4,94,DNS Server: ns3.techpro.com,US,Americas,Northern America,United States of America,Illinois,,Glen Ellyn
173.234.56.115,4,6389,DNS Server: windy.deepdns.cryptostorm.net,US,Americas,Northern America,United States of America,Illinois,,Lombard
199.38.120.6,4,238927,DNS Server: wireless-120-6.freeport.il.jcwifi.com,US,Americas,Northern America,United States of America,Illinois,,Freeport
104.245.210.170,4,5,dnsimple.com,US,Americas,Northern America,United States of America,Illinois,,Chicago
23.33.29.143,4,30,dodge.com.mx,US,Americas,Northern America,United States of America,Illinois,,Chicago
172.232.13.67,4,0,dpriver.com,US,Americas,Northern America,United States of America,Illinois,,Chicago
174.127.125.247,4,60,dreamracing.com,US,Americas,Northern America,United States of America,Illinois,,Chicago
168.206.134.38,4,3,dulieutoancau.com,US,Americas,Northern America,United States of America,Illinois,,Chicago
160.121.82.53,4,-4,duyihx.com,US,Americas,Northern America,United States of America,Illinois,,Chicago
160.121.209.86,4,4,dynacoretechnology.com,US,Americas,Northern America,United States of America,Illinois,,Chicago
172.93.194.62,4,7,e-city.tv,US,Americas,Northern America,United States of America,Illinois,,Chicago
69.39.239.211,4,23,e-sword.net,US,Americas,Northern America,United States of America,Illinois,,Arlington Heights
160.121.210.83,4,2,eatlocalhampshire.com,US,Americas,Northern America,United States of America,Illinois,,Chicago
216.246.46.135,4,552,eatpalmini.com,US,Americas,Northern America,United States of America,Illinois,,Chicago
207.148.13.106,4,5,echolimousine.com,US,Americas,Northern America,United States of America,Illinois,,Elk Grove Village
185.42.25.41,4,3,ecomotive.ir,US,Americas,Northern America,United States of America,Illinois,,Chicago
50.31.177.198,4,917,edicionespiza.pe,US,Americas,Northern America,United States of America,Illinois,,Chicago
45.63.67.87,4,26,edicolaweb.net,US,Americas,Northern America,United States of America,Illinois,,Elk Grove Village
45.76.23.225,4,4,edunaissance.school,US,Americas,Northern America,United States of America,Illinois,,Elk Grove Village
216.246.34.82,4,286871,efnet.org,US,Americas,Northern America,United States of America,Illinois,,Chicago
64.250.117.68,4,-5,egservice.com.ve,US,Americas,Northern America,United States of America,Illinois,,Elk Grove Village
216.246.112.56,4,599,ejemplode.com,US,Americas,Northern America,United States of America,Illinois,,Chicago
75.102.22.215,4,296,eleccionesgenerales2021.pe,US,Americas,Northern America,United States of America,Illinois,,Chicago
216.246.112.168,4,589,elgraniluso.com,US,Americas,Northern America,United States of America,Illinois,,Chicago
66.225.201.54,4,955,eliminarcucarachas.net,US,Americas,Northern America,United States of America,Illinois,,Chicago
204.93.224.22,4,758,eljaya.com,US,Americas,Northern America,United States of America,Illinois,,Chicago
208.100.53.219,4,42,ellsworthcheese.com,US,Americas,Northern America,United States of America,Illinois,,Winnetka
208.115.219.122,4,973,emmawab.com,US,Americas,Northern America,United States of America,Illinois,,Chicago
204.93.224.87,4,8,emprendedor.money,US,Americas,Northern America,United States of America,Illinois,,Chicago
216.246.47.183,4,337,enneagrampersonalitytest.org,US,Americas,Northern America,United States of America,Illinois,,Chicago
107.150.28.20,4,15,enter-sys.com,US,Americas,Northern America,United States of America,Illinois,,Elk Grove Village
208.115.218.210,4,4,epd.org,US,Americas,Northern America,United States of America,Illinois,,Chicago
99.88.0.217,4,11,epicsol.org,US,Americas,Northern America,United States of America,Illinois,,Chicago
45.63.64.45,4,4,eradman.com,US,Americas,Northern America,United States of America,Illinois,,Elk Grove Village
216.246.46.117,4,3,esapa.edu.ar,US,Americas,Northern America,United States of America,Illinois,,Chicago
216.246.112.54,4,560,esgeeks.com,US,Americas,Northern America,United States of America,Illinois,,Chicago
74.122.196.210,4,1420,europrix.org,US,Americas,Northern America,United States of America,Illinois,,West Chicago
69.65.4.178,4,8,everwilde.com,US,Americas,Northern America,United States of America,Illinois,,Streamwood
23.56.168.10,4,0,eyebuydirect.com,US,Americas,Northern America,United States of America,Illinois,,Chicago
172.234.30.208,4,5,ezbsystems.com,US,Americas,Northern America,United States of America,Illinois,,Chicago
208.100.11.186,4,35,familybank.co.ke,US,Americas,Northern America,United States of America,Illinois,,Winnetka
168.206.82.2,4,5,fangxinyanjing.com,US,Americas,Northern America,United States of America,Illinois,,Chicago
168.206.155.111,4,36,fanhuijgj.com,US,Americas,Northern America,United States of America,Illinois,,Chicago
23.50.52.40,4,25,farmaciasanpablo.com.mx,US,Americas,Northern America,United States of America,Illinois,,Chicago
23.50.52.41,4,25,farmaciasanpablo.com.mx,US,Americas,Northern America,United States of America,Illinois,,Chicago
208.115.219.142,4,1191,farmersjoint.com,US,Americas,Northern America,United States of America,Illinois,,Chicago
168.206.21.57,4,44,fdjsend.cn,US,Americas,Northern America,United States of America,Illinois,,Chicago
216.170.124.211,4,7,fgbradleys.com,US,Americas,Northern America,United States of America,Illinois,,Chicago
160.121.25.103,4,24,fj-zs.cn,US,Americas,Northern America,United States of America,Illinois,,Chicago
160.121.78.49,4,20,fjiij.com,US,Americas,Northern America,United States of America,Illinois,,Chicago
152.44.32.82,4,-55158,fjjeba.com.br,US,Americas,Northern America,United States of America,Illinois,,
38.65.225.67,4,35,floridarambler.com,US,Americas,Northern America,United States of America,Illinois,,Chicago
66.225.201.101,4,117,flybaboo.com,US,Americas,Northern America,United States of America,Illinois,,Chicago
160.121.23.141,4,20,flymodelgroup.com,US,Americas,Northern America,United States of America,Illinois,,Chicago
168.206.212.142,4,4,forest-tea.com,US,Americas,Northern America,United States of America,Illinois,,Chicago
50.31.177.117,4,333,foropuros.com,US,Americas,Northern America,United States of America,Illinois,,Chicago
198.144.179.206,4,3,fotosdefrases.com,US,Americas,Northern America,United States of America,Illinois,,Elk Grove Village
144.202.57.63,4,24,freewarefiles.com,US,Americas,Northern America,United States of America,Illinois,,Elk Grove Village
23.198.73.215,4,40,freshthyme.com,US,Americas,Northern America,United States of America,Illinois,,Mount Prospect
155.159.243.109,4,4,fshuxin.com,US,Americas,Northern America,United States of America,Illinois,,Chicago
160.121.82.50,4,-5,fsjuzhao.com,US,Americas,Northern America,United States of America,Illinois,,Chicago
155.159.245.254,4,27,fst-gift.com,US,Americas,Northern America,United States of America,Illinois,,Chicago
168.206.56.61,4,35,fuliyuehaiwan.com,US,Americas,Northern America,United States of America,Illinois,,Chicago
208.100.15.76,4,2,fulltimefantasy.com,US,Americas,Northern America,United States of America,Illinois,,Winnetka
104.36.228.232,4,74,funender.com,US,Americas,Northern America,United States of America,Illinois,,West Chicago
160.121.82.45,4,-5,funengweike.com,US,Americas,Northern America,United States of America,Illinois,,Chicago
23.227.194.172,4,6,fusecheck.com,US,Americas,Northern America,United States of America,Illinois,,Chicago
168.206.40.196,4,21,fyyangzhi2.com,US,Americas,Northern America,United States of America,Illinois,,Chicago
168.206.141.233,4,42,fzsqs.com,US,Americas,Northern America,United States of America,Illinois,,Chicago
155.159.242.106,4,-1,fzwaimao.com,US,Americas,Northern America,United States of America,Illinois,,Chicago
23.94.131.3,4,4,g2g168f.mobi,US,Americas,Northern America,United States of America,Illinois,,Elk Grove Village
155.159.216.200,4,4,gadgetwerehouse.com,US,Americas,Northern America,United States of America,Illinois,,Chicago
160.121.76.51,4,18,gansulongsheng.com,US,Americas,Northern America,United States of America,Illinois,,Chicago
155.159.238.122,4,16,gaoqixin.com,US,Americas,Northern America,United States of America,Illinois,,Chicago
172.234.18.18,4,6,gatorcases.com,US,Americas,Northern America,United States of America,Illinois,,Chicago
172.93.194.60,4,9,gazetelerweb.com,US,Americas,Northern America,United States of America,Illinois,,Chicago
155.159.241.119,4,-3,gd-aolanshi.com,US,Americas,Northern America,United States of America,Illinois,,Chicago
69.65.17.36,4,-25041219,gigenet.com,US,Americas,Northern America,United States of America,Illinois,,Streamwood
208.100.11.184,4,4,gisuser.com,US,Americas,Northern America,United States of America,Illinois,,Winnetka
168.206.56.54,4,38,gkgliz.com,US,Americas,Northern America,United States of America,Illinois,,Chicago
38.34.178.26,4,8,glafly.com,US,Americas,Northern America,United States of America,Illinois,,Chicago
172.233.212.183,4,20,globalbodyweighttraining.com,US,Americas,Northern America,United States of America,Illinois,,Chicago
67.202.70.183,4,9,globalvoiceacademy.com,US,Americas,Northern America,United States of America,Illinois,,Chicago
172.232.2.183,4,6,globetrooper.com,US,Americas,Northern America,United States of America,Illinois,,Chicago
191.101.48.203,4,5,glow.gr,US,Americas,Northern America,United States of America,Illinois,,Chicago
69.65.31.63,4,12,gmofreeusa.org,US,Americas,Northern America,United States of America,Illinois,,Streamwood
45.136.113.57,4,1,gocoppermine.com,US,Americas,Northern America,United States of America,Illinois,,Chicago
155.159.236.111,4,3,gongxwang.com,US,Americas,Northern America,United States of America,Illinois,,Chicago
168.206.13.27,4,1,gpgranite.com,US,Americas,Northern America,United States of America,Illinois,,Chicago
216.246.112.206,4,821,gruasentemuco.cl,US,Americas,Northern America,United States of America,Illinois,,Chicago
216.246.47.101,4,47,gruposolmar.com.pe,US,Americas,Northern America,United States of America,Illinois,,Chicago
216.170.124.227,4,-820,gtlconnect.com,US,Americas,Northern America,United States of America,Illinois,,Chicago
50.31.176.70,4,578,guadalajara2011.org.mx,US,Americas,Northern America,United States of America,Illinois,,Chicago
168.206.56.62,4,34,guanglei1688.com,US,Americas,Northern America,United States of America,Illinois,,Chicago
12.8.61.132,4,4,guidanceresources.com,US,Americas,Northern America,United States of America,Illinois,,Park Ridge
168.206.62.47,4,48,guohaojx.com,US,Americas,Northern America,United States of America,Illinois,,Chicago
208.98.40.13,4,0,gzbsqy.com,US,Americas,Northern America,United States of America,Illinois,,Chicago
168.206.62.35,4,37,gzganjin.com,US,Americas,Northern America,United States of America,Illinois,,Chicago
168.206.78.135,4,-6,gzh6666.com,US,Americas,Northern America,United States of America,Illinois,,Chicago
155.159.65.23,4,8,gzhanyan.com,US,Americas,Northern America,United States of America,Illinois,,Chicago
160.121.78.40,4,-6,gzqingguan.com,US,Americas,Northern America,United States of America,Illinois,,Chicago
155.159.239.110,4,-2,gztcsxy.com,US,Americas,Northern America,United States of America,Illinois,,Chicago
23.198.6.55,4,86,hagergroup.com,US,Americas,Northern America,United States of America,Illinois,,Mount Prospect
23.198.6.39,4,8,hagergroup.com,US,Americas,Northern America,United States of America,Illinois,,Mount Prospect
160.121.78.38,4,4,haihao1688.com,US,Americas,Northern America,United States of America,Illinois,,Chicago
160.121.79.60,4,-3,haizhioiltools.com,US,Americas,Northern America,United States of America,Illinois,,Chicago
149.28.126.167,4,3,hammockbeach.com,US,Americas,Northern America,United States of America,Illinois,,Elk Grove Village
160.121.85.156,4,30,hanjiehg.com,US,Americas,Northern America,United States of America,Illinois,,Chicago
23.10.201.8,4,2,hannaford.com,US,Americas,Northern America,United States of America,Illinois,,Chicago
12.15.19.245,4,8,happcontrols.com,US,Americas,Northern America,United States of America,Illinois,,Chicago
160.121.76.57,4,-6,hbchanglan.com,US,Americas,Northern America,United States of America,Illinois,,Chicago
160.121.168.198,4,6,hbcsqc01.com,US,Americas,Northern America,United States of America,Illinois,,Chicago
168.206.62.33,4,36,hbgerun.com,US,Americas,Northern America,United States of America,Illinois,,Chicago
160.121.81.42,4,-5,hbsifeng.com,US,Americas,Northern America,United States of America,Illinois,,Chicago
208.93.158.167,4,2,hcpafl.org,US,Americas,Northern America,United States of America,Illinois,,Glen Ellyn
96.8.117.3,4,8,heartsacrossthemiles.org,US,Americas,Northern America,United States of America,Illinois,,Elk Grove Village
108.62.106.82,4,17,heimlichinstitute.com,US,Americas,Northern America,United States of America,Illinois,,Lombard
208.100.15.106,4,-3,heinzfield.com,US,Americas,Northern America,United States of America,Illinois,,Winnetka
160.121.79.61,4,-1,hejishaokao.com,US,Americas,Northern America,United States of America,Illinois,,Chicago
149.28.115.134,4,2,herorandom.com,US,Americas,Northern America,United States of America,Illinois,,Elk Grove Village
155.159.0.28,4,29,heshanmedia.cn,US,Americas,Northern America,United States of America,Illinois,,Chicago
23.205.89.156,4,2,hfecorp.com,US,Americas,Northern America,United States of America,Illinois,,Mount Prospect
168.206.56.60,4,37,hfzhenghui.com,US,Americas,Northern America,United States of America,Illinois,,Chicago
155.159.244.202,4,7,hhdiandang.com,US,Americas,Northern America,United States of America,Illinois,,Chicago
160.121.76.40,4,-1,hjsx88.com,US,Americas,Northern America,United States of America,Illinois,,Chicago
168.206.214.252,4,0,hkyisen13168.cn,US,Americas,Northern America,United States of America,Illinois,,Chicago
155.159.97.115,4,9,hljhsx.com,US,Americas,Northern America,United States of America,Illinois,,Chicago
168.206.213.130,4,4,hljztmy.com,US,Americas,Northern America,United States of America,Illinois,,Chicago
160.121.175.207,4,4,hlstlyy.com,US,Americas,Northern America,United States of America,Illinois,,Chicago
168.206.62.51,4,32,hmccsb.com,US,Americas,Northern America,United States of America,Illinois,,Chicago
168.206.61.52,4,33,hndaoju.com,US,Americas,Northern America,United States of America,Illinois,,Chicago
168.206.60.59,4,34,hnjx6.com,US,Americas,Northern America,United States of America,Illinois,,Chicago
168.206.61.53,4,36,hnlannuo.com,US,Americas,Northern America,United States of America,Illinois,,Chicago
168.206.61.50,4,36,hnmidu.com,US,Americas,Northern America,United States of America,Illinois,,Chicago
152.44.36.216,4,19,hockinghillscanopytours.com,US,Americas,Northern America,United States of America,Illinois,,
50.31.188.7,4,909,holameenamore.com,US,Americas,Northern America,United States of America,Illinois,,Chicago
45.63.76.87,4,44,homeslandcountrypropertyforsale.com,US,Americas,Northern America,United States of America,Illinois,,Elk Grove Village
38.65.227.140,4,9,homesteadersofamerica.com,US,Americas,Northern America,United States of America,Illinois,,Chicago
172.245.38.3,4,15,homesteadstores.com,US,Americas,Northern America,United States of America,Illinois,,Elk Grove Village
38.65.225.37,4,2,honestandtasty.com,US,Americas,Northern America,United States of America,Illinois,,Chicago
155.159.241.112,4,-3,hongbotec.com,US,Americas,Northern America,United States of America,Illinois,,Chicago
160.121.79.52,4,-3,hongdu-group.com,US,Americas,Northern America,United States of America,Illinois,,Chicago
160.121.82.48,4,-7,hongtaihy888.com,US,Americas,Northern America,United States of America,Illinois,,Chicago
64.32.3.90,4,4,hs360.32heise360dh.cc,US,Americas,Northern America,United States of America,Illinois,,Chicago
168.206.82.5,4,7,htbwb.com,US,Americas,Northern America,United States of America,Illinois,,Chicago
160.121.141.213,4,1,htghzz.com,US,Americas,Northern America,United States of America,Illinois,,Chicago
160.121.76.46,4,-3,huanzhenzhoucheng.com,US,Americas,Northern America,United States of America,Illinois,,Chicago
160.121.175.212,4,4,huehhjy.com,US,Americas,Northern America,United States of America,Illinois,,Chicago
155.159.243.126,4,-4,huibupin.com,US,Americas,Northern America,United States of America,Illinois,,Chicago
155.159.244.201,4,5,huichangyin.com,US,Americas,Northern America,United States of America,Illinois,,Chicago
168.206.56.52,4,36,hukumamy.com,US,Americas,Northern America,United States of America,Illinois,,Chicago
155.159.236.117,4,-4,huolien.com,US,Americas,Northern America,United States of America,Illinois,,Chicago
208.100.27.56,4,2,hyperacusis.net,US,Americas,Northern America,United States of America,Illinois,,Winnetka
208.59.34.7,4,20062,hyperjeff.net,US,Americas,Northern America,United States of America,Illinois,,Chicago
66.225.241.35,4,310,hyperoffice.com,US,Americas,Northern America,United States of America,Illinois,,Chicago
160.121.76.47,4,-4,hzsaicheng.com,US,Americas,Northern America,United States of America,Illinois,,Chicago
168.206.63.33,4,32,hztanghuang.com,US,Americas,Northern America,United States of America,Illinois,,Chicago
155.159.238.115,4,-5,hzw68.com,US,Americas,Northern America,United States of America,Illinois,,Chicago
23.215.11.240,4,33,ialottery.com,US,Americas,Northern America,United States of America,Illinois,,Elk Grove Village
104.207.143.9,4,8,ianix.com,US,Americas,Northern America,United States of America,Illinois,,Elk Grove Village
204.93.224.119,4,513,iatools.es,US,Americas,Northern America,United States of America,Illinois,,Chicago
38.145.205.9,4,16,icsin.org,US,Americas,Northern America,United States of America,Illinois,,Chicago
172.93.223.78,4,-27,iimamritsar.ac.in,US,Americas,Northern America,United States of America,Illinois,,Chicago
216.201.124.215,4,-396000,ilgateways.com,US,Americas,Northern America,United States of America,Illinois,,Peoria
208.93.159.175,4,61,illinoiscarry.com,US,Americas,Northern America,United States of America,Illinois,,Glen Ellyn
45.63.64.104,4,14,imaginegnats.com,US,Americas,Northern America,United States of America,Illinois,,Elk Grove Village
173.243.120.203,4,15,imeipro.info,US,Americas,Northern America,United States of America,Illinois,,West Chicago
69.65.4.68,4,9,importfood.com,US,Americas,Northern America,United States of America,Illinois,,Streamwood
204.93.224.230,4,692,ingenieros.cl,US,Americas,Northern America,United States of America,Illinois,,Chicago
216.246.46.181,4,18,institutojgutenberg.edu.ar,US,Americas,Northern America,United States of America,Illinois,,Chicago
50.31.174.169,4,1017,insumisos.com,US,Americas,Northern America,United States of America,Illinois,,Chicago
50.31.188.69,4,281,interjet.com.mx,US,Americas,Northern America,United States of America,Illinois,,Chicago
209.242.54.91,4,1918,irm.org,US,Americas,Northern America,United States of America,Illinois,,Park Ridge
68.235.36.10,4,10,iscripts.com,US,Americas,Northern America,United States of America,Illinois,,Chicago
66.55.68.205,4,1,ismailpc.com,US,Americas,Northern America,United States of America,Illinois,,Chicago
155.159.59.188,4,14,itdaan.com,US,Americas,Northern America,United States of America,Illinois,,Chicago
168.206.159.244,4,30,itinsoft.com,US,Americas,Northern America,United States of America,Illinois,,Chicago
216.246.46.56,4,10,itls.es,US,Americas,Northern America,United States of America,Illinois,,Chicago
160.121.34.116,4,11,itsitiomail.com,US,Americas,Northern America,United States of America,Illinois,,Chicago
155.159.55.237,4,-3,jatlb.com,US,Americas,Northern America,United States of America,Illinois,,Chicago
45.20.163.42,4,1,jcs.org,US,Americas,Northern America,United States of America,Illinois,,Oak Brook
160.121.82.47,4,-8,jcs848.com,US,Americas,Northern America,United States of America,Illinois,,Chicago
168.206.215.229,4,4,jdmyl.com,US,Americas,Northern America,United States of America,Illinois,,Chicago
155.159.240.116,4,-5,jdxns.com,US,Americas,Northern America,United States of America,Illinois,,Chicago
104.119.188.146,4,6,jeep.com.au,US,Americas,Northern America,United States of America,Illinois,,Chicago
155.159.237.118,4,-3,jianqiaonangzhong.com,US,Americas,Northern America,United States of America,Illinois,,Chicago
160.121.45.135,4,8,jianqiaoxinli.com,US,Americas,Northern America,United States of America,Illinois,,Chicago
155.159.237.97,4,1,jiefengkeji.com,US,Americas,Northern America,United States of America,Illinois,,Chicago
160.121.76.50,4,-4,jinanjxyy.com,US,Americas,Northern America,United States of America,Illinois,,Chicago
155.159.236.105,4,-2,jinghaihuanyu.com,US,Americas,Northern America,United States of America,Illinois,,Chicago
168.206.62.41,4,35,jingwei111.com,US,Americas,Northern America,United States of America,Illinois,,Chicago
160.121.82.46,4,-8,jingyanggongmao.com,US,Americas,Northern America,United States of America,Illinois,,Chicago
160.121.81.46,4,-5,jinhongsp.com,US,Americas,Northern America,United States of America,Illinois,,Chicago
168.206.82.26,4,2,jinzhanginfo.com,US,Americas,Northern America,United States of America,Illinois,,Chicago
168.206.189.41,4,9,jiuzxw.com,US,Americas,Northern America,United States of America,Illinois,,Chicago
160.121.187.142,4,25,jiyuwuliu.com,US,Americas,Northern America,United States of America,Illinois,,Chicago
168.206.78.29,4,4,jj91y.com,US,Americas,Northern America,United States of America,Illinois,,Chicago
155.159.58.251,4,-5,jk-way.com,US,Americas,Northern America,United States of America,Illinois,,Chicago
168.206.60.34,4,34,jldongdaluye.com,US,Americas,Northern America,United States of America,Illinois,,Chicago
160.121.220.112,4,5,jnzqjg.com,US,Americas,Northern America,United States of America,Illinois,,Chicago
160.121.221.124,4,2,jnzqjg.com,US,Americas,Northern America,United States of America,Illinois,,Chicago
149.255.39.187,4,4,joyworks.net,US,Americas,Northern America,United States of America,Illinois,,Chicago
160.121.76.38,4,-1,jpinchina.com,US,Americas,Northern America,United States of America,Illinois,,Chicago
168.206.61.62,4,33,jshuainai.com,US,Americas,Northern America,United States of America,Illinois,,Chicago
168.206.26.132,4,19,jsjsdy.com,US,Americas,Northern America,United States of America,Illinois,,Chicago
168.206.152.176,4,37,jssgjt.com,US,Americas,Northern America,United States of America,Illinois,,Chicago
155.159.101.126,4,8,jssjdesign.com,US,Americas,Northern America,United States of America,Illinois,,Chicago
160.121.98.179,4,5,jssxnjy.com,US,Americas,Northern America,United States of America,Illinois,,Chicago
160.121.76.58,4,-7,jsxyml.com,US,Americas,Northern America,United States of America,Illinois,,Chicago
160.121.20.139,4,19,jszcws.com,US,Americas,Northern America,United States of America,Illinois,,Chicago
155.159.238.113,4,-2,juhui361.com,US,Americas,Northern America,United States of America,Illinois,,Chicago
168.206.214.241,4,2,junengjinshu.com,US,Americas,Northern America,United States of America,Illinois,,Chicago
160.121.78.54,4,-4,jxgfwh01.com,US,Americas,Northern America,United States of America,Illinois,,Chicago
168.206.136.141,4,4883,jxmjgcp.com,US,Americas,Northern America,United States of America,Illinois,,Chicago
155.159.247.202,4,5,jxzl-sh.com,US,Americas,Northern America,United States of America,Illinois,,Chicago
155.159.135.76,4,5,jyffff.com,US,Americas,Northern America,United States of America,Illinois,,Chicago
168.206.212.246,4,0,jyjunwei.com,US,Americas,Northern America,United States of America,Illinois,,Chicago
160.121.10.36,4,17,kaifengbaojie.com,US,Americas,Northern America,United States of America,Illinois,,Chicago
216.246.46.86,4,1,kamimotors.com,US,Americas,Northern America,United States of America,Illinois,,Chicago
155.159.251.207,4,9,ke88886666ke.com,US,Americas,Northern America,United States of America,Illinois,,Chicago
160.121.76.56,4,-6,keduwu.com,US,Americas,Northern America,United States of America,Illinois,,Chicago
68.235.63.75,4,6,kickapps.com,US,Americas,Northern America,United States of America,Illinois,,Chicago
204.93.206.198,4,27,kidscorner.org,US,Americas,Northern America,United States of America,Illinois,,Chicago
104.238.165.137,4,6,kidsquest.com,US,Americas,Northern America,United States of America,Illinois,,Elk Grove Village
45.76.22.15,4,36,kindofnormal.com,US,Americas,Northern America,United States of America,Illinois,,Elk Grove Village
50.31.188.168,4,445,kingseafoodrestaurant.com,US,Americas,Northern America,United States of America,Illinois,,Chicago
204.93.183.11,4,100134,kismeta.com,US,Americas,Northern America,United States of America,Illinois,,Chicago
46.175.130.248,4,23,kitsunes.club,US,Americas,Northern America,United States of America,Illinois,,Moline
168.206.212.236,4,0,kjjcc.com,US,Americas,Northern America,United States of America,Illinois,,Chicago
155.159.238.114,4,-3,klarmor.com,US,Americas,Northern America,United States of America,Illinois,,Chicago
38.145.209.42,4,-1,klsele.com,US,Americas,Northern America,United States of America,Illinois,,Chicago
204.93.183.55,4,3,kmitch.com,US,Americas,Northern America,United States of America,Illinois,,Chicago
168.206.157.119,4,19,kmzhiqing.com,US,Americas,Northern America,United States of America,Illinois,,Chicago
216.138.7.14,4,0,knapheide.com,US,Americas,Northern America,United States of America,Illinois,,Quincy
38.145.207.112,4,-1,knorubber.com,US,Americas,Northern America,United States of America,Illinois,,Chicago
23.160.194.73,4,5,kourtiercourier.com.np,US,Americas,Northern America,United States of America,Illinois,,Chicago
168.206.155.110,4,18,ks-wsm.com,US,Americas,Northern America,United States of America,Illinois,,Chicago
155.159.128.199,4,10,kuaiden.com,US,Americas,Northern America,United States of America,Illinois,,Chicago
168.206.237.97,4,69,kunmingbz168.com,US,Americas,Northern America,United States of America,Illinois,,Chicago
64.32.14.142,4,1,kxin.cc,US,Americas,Northern America,United States of America,Illinois,,Chicago
155.159.193.38,4,21,kyaqm.cn,US,Americas,Northern America,United States of America,Illinois,,Chicago
50.31.177.22,4,846,laletrade.com,US,Americas,Northern America,United States of America,Illinois,,Chicago
160.121.76.48,4,-7,laoyezhi.com,US,Americas,Northern America,United States of America,Illinois,,Chicago
50.31.174.138,4,999,laverdad.com.mx,US,Americas,Northern America,United States of America,Illinois,,Chicago
50.76.90.213,4,19,lawndalenews.com,US,Americas,Northern America,United States of America,Illinois,,La Grange
204.93.224.165,4,11,lda.cr,US,Americas,Northern America,United States of America,Illinois,,Chicago
172.233.221.139,4,54,legendsofamerica.com,US,Americas,Northern America,United States of America,Illinois,,Chicago
168.206.81.2,4,6,leichengshizhuang.com,US,Americas,Northern America,United States of America,Illinois,,Chicago
168.206.80.25,4,40,leiermedical.com,US,Americas,Northern America,United States of America,Illinois,,Chicago
104.237.196.115,4,34,lenddo.com,US,Americas,Northern America,United States of America,Illinois,,Chicago
50.31.188.137,4,1077,lenguaje.com,US,Americas,Northern America,United States of America,Illinois,,Chicago
50.31.177.56,4,1020,letrasboom.com,US,Americas,Northern America,United States of America,Illinois,,Chicago
192.210.237.89,4,6,letsgoplayinc.org,US,Americas,Northern America,United States of America,Illinois,,Elk Grove Village
69.65.13.220,4,15,lexiconn.com,US,Americas,Northern America,United States of America,Illinois,,Arlington Heights
131.153.57.74,4,8,liamrosen.com,US,Americas,Northern America,United States of America,Illinois,,Chicago
96.90.126.43,4,1,liberatedmanuals.com,US,Americas,Northern America,United States of America,Illinois,,Chicago
23.62.35.10,4,35,lids.ca,US,Americas,Northern America,United States of America,Illinois,,Chicago
209.242.12.157,4,143032,lightology.com,US,Americas,Northern America,United States of America,Illinois,,Gurnee
75.102.22.197,4,769,lilliesnyc.com,US,Americas,Northern America,United States of America,Illinois,,Chicago
168.206.62.40,4,37,linquanzhongxin.com,US,Americas,Northern America,United States of America,Illinois,,Chicago
66.225.201.55,4,930,liquidaudio.com,US,Americas,Northern America,United States of America,Illinois,,Chicago
98.142.103.194,4,1189,lisajobaker.com,US,Americas,Northern America,United States of America,Illinois,,Chicago
216.170.124.124,4,12,littlegreenfootballs.com,US,Americas,Northern America,United States of America,Illinois,,Chicago
168.206.212.141,4,19,ljhn365.com,US,Americas,Northern America,United States of America,Illinois,,Chicago
160.121.76.41,4,-2,llhflv.com,US,Americas,Northern America,United States of America,Illinois,,Chicago
155.159.133.74,4,7,longchenw.com,US,Americas,Northern America,United States of America,Illinois,,Chicago
168.206.58.35,4,43,longkangsm.com,US,Americas,Northern America,United States of America,Illinois,,Chicago
160.121.79.46,4,11,longxunkj.com,US,Americas,Northern America,United States of America,Illinois,,Chicago
204.93.224.198,4,386,loscabosguide.com,US,Americas,Northern America,United States of America,Illinois,,Chicago
216.246.113.48,4,2,losrecursoshumanos.com,US,Americas,Northern America,United States of America,Illinois,,Chicago
168.206.56.55,4,41,luyuhzp.com,US,Americas,Northern America,United States of America,Illinois,,Chicago
168.206.60.60,4,36,lvyongzhuoeshop.com,US,Americas,Northern America,United States of America,Illinois,,Chicago
168.206.60.51,4,34,lxfspf.com,US,Americas,Northern America,United States of America,Illinois,,Chicago
168.206.80.11,4,8,lxjr019.com,US,Americas,Northern America,United States of America,Illinois,,Chicago
168.206.56.38,4,34,lyksks.com,US,Americas,Northern America,United States of America,Illinois,,Chicago
155.159.243.121,4,0,lyyue.com,US,Americas,Northern America,United States of America,Illinois,,Chicago
160.121.79.45,4,-7,lyzbchina.com,US,Americas,Northern America,United States of America,Illinois,,Chicago
155.159.236.113,4,-3,lzxuyi.com,US,Americas,Northern America,United States of America,Illinois,,Chicago
168.206.78.30,4,2,m3-pro.com,US,Americas,Northern America,United States of America,Illinois,,Chicago
209.182.219.107,4,18,macgui.com,US,Americas,Northern America,United States of America,Illinois,,Chicago
168.206.40.193,4,27,maiadorable.com,US,Americas,Northern America,United States of America,Illinois,,Chicago
168.206.78.28,4,3,maiyaoshi.com,US,Americas,Northern America,United States of America,Illinois,,Chicago
168.206.6.36,4,7,makeknowing.com,US,Americas,Northern America,United States of America,Illinois,,Chicago
50.31.176.103,4,501,marespowercats.com,US,Americas,Northern America,United States of America,Illinois,,Chicago
69.65.4.239,4,40,marscheese.com,US,Americas,Northern America,United States of America,Illinois,,Streamwood
66.42.119.162,4,4,mathgenealogy.org,US,Americas,Northern America,United States of America,Illinois,,Elk Grove Village
152.44.40.101,4,8,mchange.com,US,Americas,Northern America,United States of America,Illinois,,
209.50.50.233,4,16,meandmyinklings.com,US,Americas,Northern America,United States of America,Illinois,,Chicago
79.141.160.2,4,22,medcostbuy.co.uk,US,Americas,Northern America,United States of America,Illinois,,Chicago
160.121.58.157,4,88,meijindao.com,US,Americas,Northern America,United States of America,Illinois,,Chicago
38.65.226.4,4,2,memorycafedirectory.com,US,Americas,Northern America,United States of America,Illinois,,Chicago
168.206.152.170,4,65,metoo-eye.com,US,Americas,Northern America,United States of America,Illinois,,Chicago
168.206.176.15,4,36,meyouvip.com,US,Americas,Northern America,United States of America,Illinois,,Chicago
50.171.127.100,4,14,mhubchicago.com,US,Americas,Northern America,United States of America,Illinois,,Chicago
38.65.225.140,4,2,michaelfairmantv.com,US,Americas,Northern America,United States of America,Illinois,,Chicago
173.0.77.106,4,487,michigansportshof.org,US,Americas,Northern America,United States of America,Illinois,,Chicago
198.144.186.25,4,7,mickeypath.com,US,Americas,Northern America,United States of America,Illinois,,Elk Grove Village
50.31.174.53,4,556,micristosalva.com,US,Americas,Northern America,United States of America,Illinois,,Chicago
108.174.56.233,4,16,mikis-theodorakis.net,US,Americas,Northern America,United States of America,Illinois,,Elk Grove Village
209.242.30.207,4,1235834,ministryofrum.com,US,Americas,Northern America,United States of America,Illinois,,Gurnee
204.93.163.26,4,-663,minlax.com,US,Americas,Northern America,United States of America,Illinois,,Chicago
152.44.40.116,4,2,miraclemorning.com,US,Americas,Northern America,United States of America,Illinois,,
66.225.201.38,4,629,mistura.pe,US,Americas,Northern America,United States of America,Illinois,,Chicago
155.159.243.108,4,0,mlbaa.com,US,Americas,Northern America,United States of America,Illinois,,Chicago
155.159.240.111,4,-5,moebunny.com,US,Americas,Northern America,United States of America,Illinois,,Chicago
155.159.239.102,4,27,moneysendhome.com,US,Americas,Northern America,United States of America,Illinois,,Chicago
172.233.212.46,4,-15,monitortests.com,US,Americas,Northern America,United States of America,Illinois,,Chicago
204.93.224.181,4,430,monstertips.net,US,Americas,Northern America,United States of America,Illinois,,Chicago
216.246.113.116,4,7,montexanic.com.mx,US,Americas,Northern America,United States of America,Illinois,,Chicago
38.65.225.243,4,28,morganmessenger.com,US,Americas,Northern America,United States of America,Illinois,,Chicago
169.150.236.105,4,3,mtxserv.com,US,Americas,Northern America,United States of America,Illinois,,Chicago
50.31.188.53,4,100,museocatacumbas.com,US,Americas,Northern America,United States of America,Illinois,,Chicago
160.121.199.199,4,8,mxblog.com.cn,US,Americas,Northern America,United States of America,Illinois,,Chicago
155.159.239.116,4,2,mxr99.com,US,Americas,Northern America,United States of America,Illinois,,Chicago
168.206.57.48,4,38,mxsca.com,US,Americas,Northern America,United States of America,Illinois,,Chicago
104.207.138.20,4,19,myelomabeacon.com,US,Americas,Northern America,United States of America,Illinois,,Elk Grove Village
160.121.154.58,4,27,myslingli.com,US,Americas,Northern America,United States of America,Illinois,,Chicago
45.63.75.27,4,0,myspybot.com,US,Americas,Northern America,United States of America,Illinois,,Elk Grove Village
64.187.239.250,4,23,mysticscripts.com,US,Americas,Northern America,United States of America,Illinois,,Chicago
204.93.202.225,4,30,mywconline.net,US,Americas,Northern America,United States of America,Illinois,,Chicago
208.115.219.166,4,597,naijajoy.com.ng,US,Americas,Northern America,United States of America,Illinois,,Chicago
50.31.174.62,4,545,nailscuracaosandras.com,US,Americas,Northern America,United States of America,Illinois,,Chicago
64.224.19.34,4,5,nakasec.org,US,Americas,Northern America,United States of America,Illinois,,Arlington Heights
155.159.128.194,4,7,nappyonnet.com,US,Americas,Northern America,United States of America,Illinois,,Chicago
208.73.130.174,4,2,nationalcycle.com,US,Americas,Northern America,United States of America,Illinois,,Lombard
155.159.237.125,4,-1,nbpole.com,US,Americas,Northern America,United States of America,Illinois,,Chicago
208.115.219.118,4,1179,necorng.org,US,Americas,Northern America,United States of America,Illinois,,Chicago
208.100.22.149,4,4,necromanthus.com,US,Americas,Northern America,United States of America,Illinois,,Winnetka
65.182.170.12,4,110,neosmart.net,US,Americas,Northern America,United States of America,Illinois,,DeKalb
50.31.176.149,4,192,netgork.com,US,Americas,Northern America,United States of America,Illinois,,Chicago
67.202.70.79,4,39,newbieinthekitchen.com,US,Americas,Northern America,United States of America,Illinois,,Chicago
172.233.215.191,4,2,newcenturycomputers.net,US,Americas,Northern America,United States of America,Illinois,,Chicago
104.36.230.207,4,58,news24uk.co.uk,US,Americas,Northern America,United States of America,Illinois,,West Chicago
67.202.70.193,4,11,newsni.com,US,Americas,Northern America,United States of America,Illinois,,Chicago
206.217.130.134,4,7,ngoinabox.org,US,Americas,Northern America,United States of America,Illinois,,Elk Grove Village
162.251.60.17,4,15,nightowlapp.co,US,Americas,Northern America,United States of America,Illinois,,Chicago
168.206.196.52,4,11,ningbeng.com,US,Americas,Northern America,United States of America,Illinois,,Chicago
144.202.48.102,4,1,nirs.org,US,Americas,Northern America,United States of America,Illinois,,Elk Grove Village
168.206.62.62,4,34,njmilv.com,US,Americas,Northern America,United States of America,Illinois,,Chicago
168.206.5.56,4,5,njsugibo.com,US,Americas,Northern America,United States of America,Illinois,,Chicago
160.121.210.67,4,0,njzfyy.com,US,Americas,Northern America,United States of America,Illinois,,Chicago
208.115.218.222,4,330,nlcng.org,US,Americas,Northern America,United States of America,Illinois,,Chicago
168.206.60.47,4,32,nmg720.com,US,Americas,Northern America,United States of America,Illinois,,Chicago
23.64.112.80,4,4,nofear.com,US,Americas,Northern America,United States of America,Illinois,,Chicago
23.64.112.83,4,7,nofear.com,US,Americas,Northern America,United States of America,Illinois,,Chicago
198.144.186.118,4,4,normasbrasil.com.br,US,Americas,Northern America,United States of America,Illinois,,Elk Grove Village
66.42.125.135,4,4,northernillinoisrecovery.com,US,Americas,Northern America,United States of America,Illinois,,Elk Grove Village
172.232.2.233,4,5,nrd.li,US,Americas,Northern America,United States of America,Illinois,,Chicago
155.159.9.145,4,1,ntskjx.cn,US,Americas,Northern America,United States of America,Illinois,,Chicago
216.246.112.134,4,2105,nur.edu,US,Americas,Northern America,United States of America,Illinois,,Chicago
155.159.219.247,4,11,nwbdf.com,US,Americas,Northern America,United States of America,Illinois,,Chicago
172.234.195.53,4,-1,nweon.com,US,Americas,Northern America,United States of America,Illinois,,Chicago
204.93.207.22,4,12,nwtime.org,US,Americas,Northern America,United States of America,Illinois,,Chicago
50.31.174.199,4,1256,oceanworld.net,US,Americas,Northern America,United States of America,Illinois,,Chicago
67.202.70.12,4,5,ohohblog.com,US,Americas,Northern America,United States of America,Illinois,,Chicago
209.107.250.5,4,17,oilpatchsurplus.com,US,Americas,Northern America,United States of America,Illinois,,Tuscola
208.77.18.146,4,17,oldskool.org,US,Americas,Northern America,United States of America,Illinois,,Chicago
108.174.48.161,4,9,omg333.mobi,US,Americas,Northern America,United States of America,Illinois,,Elk Grove Village
50.31.174.103,4,883,onemagazine.es,US,Americas,Northern America,United States of America,Illinois,,Chicago
104.237.201.5,4,13,oneuptrader.com,US,Americas,Northern America,United States of America,Illinois,,Chicago
216.246.47.153,4,13,onlinecialls.com,US,Americas,Northern America,United States of America,Illinois,,Chicago
66.253.230.37,4,321,Ookla Speedtest Server 5295: cmi.speedtest.pavlovmedia.net,US,Americas,Northern America,United States of America,Illinois,,Champaign
68.235.48.115,4,269,Ookla Speedtest Server 5919: st1.tzulo.com,US,Americas,Northern America,United States of America,Illinois,,Chicago
204.188.230.91,4,364,Ookla Speedtest Server 7193: speedtest.chi.sharktech.net,US,Americas,Northern America,United States of America,Illinois,,Chicago
206.83.16.10,4,74,Ookla Speedtest Server 16198: speedtest.wabash.net,US,Americas,Northern America,United States of America,Illinois,,Effingham
24.245.95.5,4,265,Ookla Speedtest Server 16502: speedtest.casscomm.com,US,Americas,Northern America,United States of America,Illinois,,Rushville
209.107.242.82,4,99,Ookla Speedtest Server 17512: speedtest.il.mycci.net,US,Americas,Northern America,United States of America,Illinois,,Arcola
38.145.192.6,4,253,Ookla Speedtest Server 21364: speedtest-dc02.enzu.com,US,Americas,Northern America,United States of America,Illinois,,Chicago
23.189.48.242,4,264,Ookla Speedtest Server 52462: ookla.qsi.network,US,Americas,Northern America,United States of America,Illinois,,Metropolis
63.224.243.1,4,268,Ookla Speedtest Server 53398: chicago.speedtest.brightspeed.com,US,Americas,Northern America,United States of America,Illinois,,Chicago
12.147.33.37,4,254,Ookla Speedtest Server 59474: speedtest.newberlinfiber.net,US,Americas,Northern America,United States of America,Illinois,,New Berlin
66.220.80.50,4,362,Ookla Speedtest Server 60387: speedtest.futiva.biz,US,Americas,Northern America,United States of America,Illinois,,Carterville
208.98.36.193,4,333,Ookla Speedtest Server 63788: speedtest.las.sharktech.net,US,Americas,Northern America,United States of America,Illinois,,Chicago
108.60.126.230,4,302,Ookla Speedtest Server 63973: chich0003ooklaspeedtestserver01.wiline.com,US,Americas,Northern America,United States of America,Illinois,,Chicago
104.219.32.79,4,291,Ookla Speedtest Server 64153: pri-r450-speedtest.metrocomm.com,US,Americas,Northern America,United States of America,Illinois,,Princeton
104.219.32.175,4,365,Ookla Speedtest Server 64523: spr-r450-speedtest.metrocomm.com,US,Americas,Northern America,United States of America,Illinois,,Springfield
104.219.34.227,4,389,Ookla Speedtest Server 64676: rob-r450-speedtest.metrocomm.com,US,Americas,Northern America,United States of America,Illinois,,Robinson
104.219.34.253,4,338,Ookla Speedtest Server 64991: min-r450-speedtest.metrocomm.com,US,Americas,Northern America,United States of America,Illinois,,Minonk
64.7.103.3,4,169,Ookla Speedtest Server: remotespeedtest01.urbancom.net,US,Americas,Northern America,United States of America,Illinois,,Mokena
104.245.211.253,4,37,Ookla Speedtest Server: speedtest.servercentral.net,US,Americas,Northern America,United States of America,Illinois,,Chicago
23.152.8.6,4,6,Ookla Speedtest Server: speedtest2.mfbroadband.com,US,Americas,Northern America,United States of America,Illinois,,Philo
66.225.241.46,4,362,opinionysalud.com,US,Americas,Northern America,United States of America,Illinois,,Chicago
50.31.177.101,4,953,originalaffiliates.com,US,Americas,Northern America,United States of America,Illinois,,Chicago
64.32.10.22,4,0,ouerdq.com,US,Americas,Northern America,United States of America,Illinois,,Chicago
216.246.112.69,4,133,ourmarinespecies.com,US,Americas,Northern America,United States of America,Illinois,,Chicago
216.170.124.200,4,2,paganspath.com,US,Americas,Northern America,United States of America,Illinois,,Chicago
50.31.174.150,4,425,paiscircular.cl,US,Americas,Northern America,United States of America,Illinois,,Chicago
50.31.176.53,4,65,papeldigital.info,US,Americas,Northern America,United States of America,Illinois,,Chicago
168.206.134.51,4,19,paper0506.com,US,Americas,Northern America,United States of America,Illinois,,Chicago
45.63.65.162,4,28,paradisus.day,US,Americas,Northern America,United States of America,Illinois,,Elk Grove Village
168.206.11.166,4,89,pasarelapr.com,US,Americas,Northern America,United States of America,Illinois,,Chicago
216.246.47.24,4,34086,patasuma.com,US,Americas,Northern America,United States of America,Illinois,,Chicago
172.93.223.155,4,27764999,pavitrajyotish.com,US,Americas,Northern America,United States of America,Illinois,,Chicago
108.61.203.226,4,3,paynelesstravel.com,US,Americas,Northern America,United States of America,Illinois,,Elk Grove Village
66.225.201.134,4,2790,pelluhue.com,US,Americas,Northern America,United States of America,Illinois,,Chicago
69.65.28.100,4,27,perseus.gr,US,Americas,Northern America,United States of America,Illinois,,Streamwood
50.31.177.70,4,976,perumachupicchumagico.com,US,Americas,Northern America,United States of America,Illinois,,Chicago
38.145.218.100,4,4,pgsd-unlam.net,US,Americas,Northern America,United States of America,Illinois,,Chicago
64.224.19.247,4,22,photography-orlando.com,US,Americas,Northern America,United States of America,Illinois,,Arlington Heights
208.100.53.156,4,3,physicianonfire.com,US,Americas,Northern America,United States of America,Illinois,,Winnetka
50.31.176.166,4,375,pipilprint.com,US,Americas,Northern America,United States of America,Illinois,,Chicago
160.121.54.180,4,-2,pjtyj.com,US,Americas,Northern America,United States of America,Illinois,,Chicago
168.206.25.211,4,33,plantprotex.com,US,Americas,Northern America,United States of America,Illinois,,Chicago
158.51.98.144,4,10,playle.com,US,Americas,Northern America,United States of America,Illinois,,Schaumburg
67.202.70.148,4,7,plbg.com,US,Americas,Northern America,United States of America,Illinois,,Chicago
208.100.57.43,4,-9366,powerboatlistings.com,US,Americas,Northern America,United States of America,Illinois,,Winnetka
66.158.49.13,4,9,prairiestate.edu,US,Americas,Northern America,United States of America,Illinois,,Riverside
173.165.80.205,4,24,prairiestate.edu,US,Americas,Northern America,United States of America,Illinois,,Arlington Heights
155.159.243.111,4,55,precision-parts-customized.com,US,Americas,Northern America,United States of America,Illinois,,Chicago
95.169.180.228,4,26,presentationpoint.com,US,Americas,Northern America,United States of America,Illinois,,Chicago
66.225.201.6,4,922,procrastinafacil.com,US,Americas,Northern America,United States of America,Illinois,,Chicago
205.234.134.162,4,63,promiedos.com.ar,US,Americas,Northern America,United States of America,Illinois,,Chicago
66.225.201.231,4,857,promorapid.com,US,Americas,Northern America,United States of America,Illinois,,Chicago
45.63.70.16,4,34,pslover.com,US,Americas,Northern America,United States of America,Illinois,,Elk Grove Village
204.93.163.124,4,-383,pspug.org,US,Americas,Northern America,United States of America,Illinois,,Chicago
45.203.237.245,4,933,ptfilm.com,US,Americas,Northern America,United States of America,Illinois,,Chicago
172.93.223.99,4,124820,ptsdubai.com,US,Americas,Northern America,United States of America,Illinois,,Chicago
168.206.176.16,4,15,ptzdome.com,US,Americas,Northern America,United States of America,Illinois,,Chicago
168.206.97.168,4,2,q-onegroup.com,US,Americas,Northern America,United States of America,Illinois,,Chicago
168.206.47.221,4,22,qhhjt.com,US,Americas,Northern America,United States of America,Illinois,,Chicago
155.159.236.108,4,-2,qidianwork.com,US,Americas,Northern America,United States of America,Illinois,,Chicago
168.206.176.26,4,6,qidongzhan.com,US,Americas,Northern America,United States of America,Illinois,,Chicago
168.206.60.41,4,34,qingnuokeji.com,US,Americas,Northern America,United States of America,Illinois,,Chicago
168.206.155.117,4,21,qjstly.com,US,Americas,Northern America,United States of America,Illinois,,Chicago
168.206.176.18,4,7,qlpxjhj.com,US,Americas,Northern America,United States of America,Illinois,,Chicago
160.121.82.44,4,-4,qsduo.com,US,Americas,Northern America,United States of America,Illinois,,Chicago
168.206.80.122,4,14,quanjiasc.com,US,Americas,Northern America,United States of America,Illinois,,Chicago
50.31.188.166,4,442,quintonil.com,US,Americas,Northern America,United States of America,Illinois,,Chicago
216.246.113.212,4,6,quito.com.ec,US,Americas,Northern America,United States of America,Illinois,,Chicago
168.206.24.131,4,16,qzfds.com,US,Americas,Northern America,United States of America,Illinois,,Chicago
168.206.60.37,4,37,qzjcwl.com,US,Americas,Northern America,United States of America,Illinois,,Chicago
168.206.128.36,4,3,qzjjqy.com,US,Americas,Northern America,United States of America,Illinois,,Chicago
66.225.241.7,4,-87,radiosucre.com.ec,US,Americas,Northern America,United States of America,Illinois,,Chicago
208.77.22.107,4,67,radiosudamericana.com,US,Americas,Northern America,United States of America,Illinois,,Chicago
208.115.218.3,4,75,radwebhosting.com,US,Americas,Northern America,United States of America,Illinois,,Chicago
66.225.201.117,4,875,ragdoll.cl,US,Americas,Northern America,United States of America,Illinois,,Chicago
38.65.225.110,4,23,raidersbeat.com,US,Americas,Northern America,United States of America,Illinois,,Chicago
23.220.144.139,4,62,ramtrucks.com,US,Americas,Northern America,United States of America,Illinois,,Chicago
208.100.35.104,4,3,randolphschool.net,US,Americas,Northern America,United States of America,Illinois,,Winnetka
160.121.117.12,4,2,rcjetech.com,US,Americas,Northern America,United States of America,Illinois,,Chicago
198.23.228.254,4,3,realtimelogic.com,US,Americas,Northern America,United States of America,Illinois,,Elk Grove Village
216.246.113.236,4,1009,receivesmsonline.in,US,Americas,Northern America,United States of America,Illinois,,Chicago
216.128.146.192,4,28,redstarpictures.com,US,Americas,Northern America,United States of America,Illinois,,Elk Grove Village
155.159.236.99,4,-2,renhekangbao.com,US,Americas,Northern America,United States of America,Illinois,,Chicago
168.206.135.20,4,21,renhenk.com,US,Americas,Northern America,United States of America,Illinois,,Chicago
216.246.46.169,4,64,repositoria.com,US,Americas,Northern America,United States of America,Illinois,,Chicago
216.246.112.137,4,2136,responsiblemines.org,US,Americas,Northern America,United States of America,Illinois,,Chicago
69.162.167.131,4,63,reverse.net,US,Americas,Northern America,United States of America,Illinois,,Chicago
162.211.39.54,4,39,reynaulds.com,US,Americas,Northern America,United States of America,Illinois,,Batavia
98.142.103.146,4,-121,riotur.rio,US,Americas,Northern America,United States of America,Illinois,,Chicago
208.100.35.73,4,15,rivetedlit.com,US,Americas,Northern America,United States of America,Illinois,,Winnetka
50.31.176.38,4,285,rivierahotel.com,US,Americas,Northern America,United States of America,Illinois,,Chicago
216.246.113.40,4,811,rockaxis.com,US,Americas,Northern America,United States of America,Illinois,,Chicago
168.206.79.24,4,39,rongzdz.com,US,Americas,Northern America,United States of America,Illinois,,Chicago
216.128.147.54,4,28,rprogress.org,US,Americas,Northern America,United States of America,Illinois,,Elk Grove Village
66.225.241.22,4,667,rsebolivia.org,US,Americas,Northern America,United States of America,Illinois,,Chicago
69.65.39.144,4,8,rtpr.com,US,Americas,Northern America,United States of America,Illinois,,Arlington Heights
208.100.53.19,4,4,ruralassembly.org,US,Americas,Northern America,United States of America,Illinois,,Winnetka
23.10.221.32,4,1,ruthschris.com,US,Americas,Northern America,United States of America,Illinois,,Chicago
155.159.245.74,4,13,ryjsgs.com,US,Americas,Northern America,United States of America,Illinois,,Chicago
45.63.71.237,4,3,saberhealth.com,US,Americas,Northern America,United States of America,Illinois,,Elk Grove Village
208.100.35.69,4,6,sailboatlistings.com,US,Americas,Northern America,United States of America,Illinois,,Winnetka
38.65.227.179,4,32,salesfloor.net,US,Americas,Northern America,United States of America,Illinois,,Chicago
38.64.138.222,4,7,santaclara.org,US,Americas,Northern America,United States of America,Illinois,,Chicago
50.31.176.9,4,726,santocielos.com,US,Americas,Northern America,United States of America,Illinois,,Chicago
216.246.46.37,4,360,santucusco.com,US,Americas,Northern America,United States of America,Illinois,,Chicago
216.246.112.149,4,1236,saquedemeta.co,US,Americas,Northern America,United States of America,Illinois,,Chicago
64.224.16.52,4,52,satrya.me,US,Americas,Northern America,United States of America,Illinois,,Arlington Heights
96.8.119.220,4,5,saveinvestbecomefree.com,US,Americas,Northern America,United States of America,Illinois,,Elk Grove Village
155.159.243.113,4,1,sbjsjc.com,US,Americas,Northern America,United States of America,Illinois,,Chicago
69.65.10.231,4,-439,sbtrkt.com,US,Americas,Northern America,United States of America,Illinois,,Streamwood
168.206.76.13,4,11,sc-blc.com,US,Americas,Northern America,United States of America,Illinois,,Chicago
168.206.61.56,4,35,scchengde.com,US,Americas,Northern America,United States of America,Illinois,,Chicago
209.242.39.65,4,1595,schoen.com,US,Americas,Northern America,United States of America,Illinois,,Chicago
160.121.77.58,4,-5,schoolyaya.com,US,Americas,Northern America,United States of America,Illinois,,Chicago
66.42.125.117,4,6,scottfujita.com,US,Americas,Northern America,United States of America,Illinois,,Elk Grove Village
172.233.217.233,4,8,scriptarchive.com,US,Americas,Northern America,United States of America,Illinois,,Chicago
64.32.10.30,4,9,sctlgx.cn,US,Americas,Northern America,United States of America,Illinois,,Chicago
168.206.61.55,4,32,sczhentan.com,US,Americas,Northern America,United States of America,Illinois,,Chicago
160.121.77.56,4,-2,sd-zhijin.com,US,Americas,Northern America,United States of America,Illinois,,Chicago
168.206.61.49,4,35,sdgankang.com,US,Americas,Northern America,United States of America,Illinois,,Chicago
38.127.35.131,4,861,sdgsjg.com,US,Americas,Northern America,United States of America,Illinois,,Chicago
168.206.61.51,4,34,sdjunshang.com,US,Americas,Northern America,United States of America,Illinois,,Chicago
155.159.128.195,4,6,sdkghopk.com,US,Americas,Northern America,United States of America,Illinois,,Chicago
160.121.27.218,4,2,sdlfdzqj.com,US,Americas,Northern America,United States of America,Illinois,,Chicago
168.206.248.144,4,20,sdlm16188.com,US,Americas,Northern America,United States of America,Illinois,,Chicago
168.206.61.54,4,37,sdshuobao.com,US,Americas,Northern America,United States of America,Illinois,,Chicago
168.206.61.57,4,35,sdworan.com,US,Americas,Northern America,United States of America,Illinois,,Chicago
38.145.218.99,4,25,semihyenerdepot.com,US,Americas,Northern America,United States of America,Illinois,,Chicago
75.102.22.183,4,722,sentidodemujer.com,US,Americas,Northern America,United States of America,Illinois,,Chicago
69.65.41.131,4,5,serebii.net,US,Americas,Northern America,United States of America,Illinois,,Arlington Heights
50.31.136.153,4,126,servercentral.com,US,Americas,Northern America,United States of America,Illinois,,Chicago
160.121.77.55,4,-6,setufei.com,US,Americas,Northern America,United States of America,Illinois,,Chicago
216.128.149.75,4,2,sevencounties.org,US,Americas,Northern America,United States of America,Illinois,,Elk Grove Village
76.191.18.24,4,35,severinghaus.org,US,Americas,Northern America,United States of America,Illinois,,Champaign
168.206.57.46,4,36,sfw-coldchain.com,US,Americas,Northern America,United States of America,Illinois,,Chicago
208.98.40.208,4,-1,sh-artmuseum.org.cn,US,Americas,Northern America,United States of America,Illinois,,Chicago
38.65.224.243,4,9,shabbyfufu.com,US,Americas,Northern America,United States of America,Illinois,,Chicago
160.121.77.54,4,-4,shandongrankai.com,US,Americas,Northern America,United States of America,Illinois,,Chicago
160.121.77.53,4,-5,shangchengkeji.com,US,Americas,Northern America,United States of America,Illinois,,Chicago
160.121.77.52,4,-4,shangmuvs.com,US,Americas,Northern America,United States of America,Illinois,,Chicago
160.121.76.45,4,0,shanxin020.com,US,Americas,Northern America,United States of America,Illinois,,Chicago
160.121.76.49,4,-7,shaomayoushu.com,US,Americas,Northern America,United States of America,Illinois,,Chicago
160.121.78.47,4,-5,shaowancaipiao.com,US,Americas,Northern America,United States of America,Illinois,,Chicago
149.28.121.93,4,6,shareonall.com,US,Americas,Northern America,United States of America,Illinois,,Elk Grove Village
168.206.62.34,4,36,shbimo.com,US,Americas,Northern America,United States of America,Illinois,,Chicago
160.121.77.51,4,15,shburncenter.com,US,Americas,Northern America,United States of America,Illinois,,Chicago
168.206.62.36,4,35,shdaqu.com,US,Americas,Northern America,United States of America,Illinois,,Chicago
155.159.128.197,4,6,shdioho.com,US,Americas,Northern America,United States of America,Illinois,,Chicago
160.121.77.50,4,-7,shengdaitongdl.com,US,Americas,Northern America,United States of America,Illinois,,Chicago
155.159.241.117,4,0,shenyuegt.com,US,Americas,Northern America,United States of America,Illinois,,Chicago
155.159.238.126,4,-2,shenzhouyunchuang.com,US,Americas,Northern America,United States of America,Illinois,,Chicago
155.159.54.252,4,-6,shhuji.com.cn,US,Americas,Northern America,United States of America,Illinois,,Chicago
208.98.40.210,4,1,shike.org.cn,US,Americas,Northern America,United States of America,Illinois,,Chicago
160.121.76.53,4,-3,shqiaoshun.com,US,Americas,Northern America,United States of America,Illinois,,Chicago
168.206.62.37,4,33,shruanhua.com,US,Americas,Northern America,United States of America,Illinois,,Chicago
168.206.176.22,4,5,shuichanyz04.com,US,Americas,Northern America,United States of America,Illinois,,Chicago
155.159.247.195,4,6,shundacaigang.com,US,Americas,Northern America,United States of America,Illinois,,Chicago
168.206.47.222,4,22,shwymygs.com,US,Americas,Northern America,United States of America,Illinois,,Chicago
160.121.79.62,4,-4,shyffang.com,US,Americas,Northern America,United States of America,Illinois,,Chicago
155.159.237.117,4,0,singyutong.com,US,Americas,Northern America,United States of America,Illinois,,Chicago
168.206.176.25,4,8,siripartners.com,US,Americas,Northern America,United States of America,Illinois,,Chicago
207.229.155.80,4,39,skokielibrary.info,US,Americas,Northern America,United States of America,Illinois,,Chicago
144.202.55.107,4,11,slackerwood.com,US,Americas,Northern America,United States of America,Illinois,,Elk Grove Village
23.63.154.192,4,12,slazenger.com,US,Americas,Northern America,United States of America,Illinois,,Mount Prospect
43.228.184.5,4,2,smtp2go.com,US,Americas,Northern America,United States of America,Illinois,,Chicago
174.34.154.7,4,91,snakemuseum.com,US,Americas,Northern America,United States of America,Illinois,,Lombard
160.121.77.48,4,0,soar4ever.com,US,Americas,Northern America,United States of America,Illinois,,Chicago
152.44.37.10,4,13,songbyrddc.com,US,Americas,Northern America,United States of America,Illinois,,
168.206.157.118,4,17,songhejy.com,US,Americas,Northern America,United States of America,Illinois,,Chicago
50.56.5.29,4,1,sotellus.com,US,Americas,Northern America,United States of America,Illinois,,Chicago
168.206.60.44,4,36,spcx88.com,US,Americas,Northern America,United States of America,Illinois,,Chicago
23.253.10.159,4,39,speechpathology.com,US,Americas,Northern America,United States of America,Illinois,,Chicago
155.159.240.106,4,-5,speed-pictures.com,US,Americas,Northern America,United States of America,Illinois,,Chicago
131.193.32.108,4,3,sphincs.org,US,Americas,Northern America,United States of America,Illinois,,Park Forest
131.193.32.109,4,1,sphincs.org,US,Americas,Northern America,United States of America,Illinois,,Park Forest
216.170.124.201,4,2,sportmaster.net,US,Americas,Northern America,United States of America,Illinois,,Chicago
23.66.127.143,4,15,sportsdirect.com,US,Americas,Northern America,United States of America,Illinois,,Chicago
168.206.128.35,4,4,sqehs.com,US,Americas,Northern America,United States of America,Illinois,,Chicago
38.145.208.43,4,-7,sscatmall.com,US,Americas,Northern America,United States of America,Illinois,,Chicago
174.127.124.253,4,740,standardnewswire.com,US,Americas,Northern America,United States of America,Illinois,,Chicago
216.246.46.154,4,25185,startupmexico.com,US,Americas,Northern America,United States of America,Illinois,,Chicago
152.44.32.37,4,269,stealthskater.com,US,Americas,Northern America,United States of America,Illinois,,
50.31.160.189,4,463671,steinbach.com.tw,US,Americas,Northern America,United States of America,Illinois,,Chicago
208.100.42.9,4,1,stirlingengine.com,US,Americas,Northern America,United States of America,Illinois,,Winnetka
172.234.207.82,4,2,storynet.org,US,Americas,Northern America,United States of America,Illinois,,Chicago
50.31.176.152,4,156,strahlendenergy.com,US,Americas,Northern America,United States of America,Illinois,,Chicago
50.31.166.59,4,2,streamguys.us,US,Americas,Northern America,United States of America,Illinois,,Chicago
104.36.230.192,4,34,suchablog.com,US,Americas,Northern America,United States of America,Illinois,,West Chicago
172.234.221.234,4,4,sungro.com,US,Americas,Northern America,United States of America,Illinois,,Chicago
168.206.60.46,4,38,sunhortrade.com,US,Americas,Northern America,United States of America,Illinois,,Chicago
68.235.35.19,4,5,sunneez.com,US,Americas,Northern America,United States of America,Illinois,,Chicago
38.58.224.157,4,5,superherojacked.com,US,Americas,Northern America,United States of America,Illinois,,Chicago
168.206.63.35,4,54,sushitz.com,US,Americas,Northern America,United States of America,Illinois,,Chicago
155.159.239.115,4,-5,suzhounoble.com,US,Americas,Northern America,United States of America,Illinois,,Chicago
12.15.19.244,4,2,suzohapp.com,US,Americas,Northern America,United States of America,Illinois,,Chicago
168.206.56.46,4,34,suzyunlian.com,US,Americas,Northern America,United States of America,Illinois,,Chicago
75.102.22.213,4,119,swiki.net,US,Americas,Northern America,United States of America,Illinois,,Chicago
172.233.222.41,4,3,swmichigan.org,US,Americas,Northern America,United States of America,Illinois,,Chicago
168.206.80.30,4,5,swoutlets.com,US,Americas,Northern America,United States of America,Illinois,,Chicago
168.206.56.39,4,32,sxstbyq.com,US,Americas,Northern America,United States of America,Illinois,,Chicago
208.98.40.17,4,0,sxswhfzjjh.org,US,Americas,Northern America,United States of America,Illinois,,Chicago
160.121.82.43,4,-6,sygc61.com,US,Americas,Northern America,United States of America,Illinois,,Chicago
64.32.10.15,4,-2,sylqmygfw.com,US,Americas,Northern America,United States of America,Illinois,,Chicago
155.159.241.123,4,-4,syxinan.com,US,Americas,Northern America,United States of America,Illinois,,Chicago
160.121.45.148,4,7,szbyyym.com,US,Americas,Northern America,United States of America,Illinois,,Chicago
155.159.58.254,4,-3,szjczdh.com,US,Americas,Northern America,United States of America,Illinois,,Chicago
168.206.78.26,4,5,szmsc168.com,US,Americas,Northern America,United States of America,Illinois,,Chicago
160.121.76.59,4,-7,szpanyong.com,US,Americas,Northern America,United States of America,Illinois,,Chicago
64.32.10.13,4,-1,szshihe.com.cn,US,Americas,Northern America,United States of America,Illinois,,Chicago
160.121.45.149,4,9,szwqdd.com,US,Americas,Northern America,United States of America,Illinois,,Chicago
160.121.77.221,4,25,szyantang.com,US,Americas,Northern America,United States of America,Illinois,,Chicago
168.206.47.220,4,20,szzhenru.com,US,Americas,Northern America,United States of America,Illinois,,Chicago
168.206.56.45,4,34,szzljgxx.com,US,Americas,Northern America,United States of America,Illinois,,Chicago
168.206.78.25,4,5,taiyuanzhuangxiu.com,US,Americas,Northern America,United States of America,Illinois,,Chicago
168.206.60.48,4,34,tangshanlianherenli.com,US,Americas,Northern America,United States of America,Illinois,,Chicago
64.32.14.143,4,2,taocms.org,US,Americas,Northern America,United States of America,Illinois,,Chicago
104.238.164.225,4,10,tapesntapes.com,US,Americas,Northern America,United States of America,Illinois,,Elk Grove Village
66.225.201.213,4,318,technologyrobone.com,US,Americas,Northern America,United States of America,Illinois,,Chicago
168.206.60.42,4,44,tencentcloud-ai.com,US,Americas,Northern America,United States of America,Illinois,,Chicago
155.159.64.16,4,7,tengfamingche.com,US,Americas,Northern America,United States of America,Illinois,,Chicago
66.55.68.229,4,50,terrellhill.com,US,Americas,Northern America,United States of America,Illinois,,Chicago
168.206.60.36,4,36,tflala.com,US,Americas,Northern America,United States of America,Illinois,,Chicago
168.206.62.42,4,65,tgbd120.com,US,Americas,Northern America,United States of America,Illinois,,Chicago
66.55.68.9,4,2,thalaipuseithi.com,US,Americas,Northern America,United States of America,Illinois,,Chicago
168.206.164.209,4,2,theblockbeats.com,US,Americas,Northern America,United States of America,Illinois,,Chicago
199.21.113.0,4,4,theburnward.com,US,Americas,Northern America,United States of America,Illinois,,Elk Grove Village
144.202.61.32,4,7,theburrard.com,US,Americas,Northern America,United States of America,Illinois,,Elk Grove Village
64.224.16.117,4,6,thecheapsexcams.com,US,Americas,Northern America,United States of America,Illinois,,Arlington Heights
38.65.225.197,4,48,thedailybell.com,US,Americas,Northern America,United States of America,Illinois,,Chicago
155.159.245.195,4,32,thedetourtrip.com,US,Americas,Northern America,United States of America,Illinois,,Chicago
208.100.53.13,4,18,thehappyscraps.com,US,Americas,Northern America,United States of America,Illinois,,Winnetka
64.224.16.17,4,9,themist-movie.com,US,Americas,Northern America,United States of America,Illinois,,Arlington Heights
38.58.224.108,4,13,therustyspoon.com,US,Americas,Northern America,United States of America,Illinois,,Chicago
67.202.67.160,4,3,thespectrum.net,US,Americas,Northern America,United States of America,Illinois,,Chicago
208.100.53.111,4,23,thesummeryumbrella.com,US,Americas,Northern America,United States of America,Illinois,,Winnetka
107.152.100.231,4,22,thevegetariansite.com,US,Americas,Northern America,United States of America,Illinois,,Chicago
95.169.180.223,4,7,thunderfoxcloud.com,US,Americas,Northern America,United States of America,Illinois,,Chicago
168.206.56.44,4,34,tianniuxing.com,US,Americas,Northern America,United States of America,Illinois,,Chicago
160.121.169.90,4,5,tianrunedu.cn,US,Americas,Northern America,United States of America,Illinois,,Chicago
168.206.57.58,4,34,tianyuanhunjie.com,US,Americas,Northern America,United States of America,Illinois,,Chicago
50.31.177.134,4,66,tiendaspymes.com,US,Americas,Northern America,United States of America,Illinois,,Chicago
45.76.22.172,4,2,tireer.com,US,Americas,Northern America,United States of America,Illinois,,Elk Grove Village
64.32.10.25,4,-2,tj2shou.com,US,Americas,Northern America,United States of America,Illinois,,Chicago
155.159.52.253,4,-5,tjdianl.com,US,Americas,Northern America,United States of America,Illinois,,Chicago
64.32.14.150,4,1,tjjzhy.org,US,Americas,Northern America,United States of America,Illinois,,Chicago
64.32.14.146,4,1,tjzhaoyinlawyer.com,US,Americas,Northern America,United States of America,Illinois,,Chicago
160.121.31.199,4,3,tkwlt.com,US,Americas,Northern America,United States of America,Illinois,,Chicago
160.121.79.59,4,-4,tmxyzy.com,US,Americas,Northern America,United States of America,Illinois,,Chicago
160.121.82.55,4,8,topsalestool.com,US,Americas,Northern America,United States of America,Illinois,,Chicago
45.76.229.187,4,6,torhoermanlaw.com,US,Americas,Northern America,United States of America,Illinois,,Elk Grove Village
216.170.124.5,4,1,torontoverve.org,US,Americas,Northern America,United States of America,Illinois,,Chicago
144.202.50.98,4,1,towfiqi.com,US,Americas,Northern America,United States of America,Illinois,,Elk Grove Village
152.44.37.80,4,3,tpmr.com,US,Americas,Northern America,United States of America,Illinois,,
204.188.203.166,4,9,tr5.buzz,US,Americas,Northern America,United States of America,Illinois,,Chicago
38.65.227.59,4,1,trackandfieldnews.com,US,Americas,Northern America,United States of America,Illinois,,Chicago
172.245.86.133,4,7,traveldiscreet.co.il,US,Americas,Northern America,United States of America,Illinois,,Elk Grove Village
172.233.219.39,4,9,traversecitymi.gov,US,Americas,Northern America,United States of America,Illinois,,Chicago
96.8.122.200,4,22,trioilresources.com,US,Americas,Northern America,United States of America,Illinois,,Elk Grove Village
64.32.10.12,4,49,triphr.com,US,Americas,Northern America,United States of America,Illinois,,Chicago
104.36.230.147,4,27,troubleshooters.com,US,Americas,Northern America,United States of America,Illinois,,West Chicago
98.158.184.166,4,56,troutnut.com,US,Americas,Northern America,United States of America,Illinois,,Chicago
137.220.61.89,4,12,trulaw.com,US,Americas,Northern America,United States of America,Illinois,,Elk Grove Village
208.98.40.19,4,-2,tsfczx.com,US,Americas,Northern America,United States of America,Illinois,,Chicago
38.145.211.219,4,3,tukanglas.net,US,Americas,Northern America,United States of America,Illinois,,Chicago
208.115.218.58,4,437,tv360nigeria.com,US,Americas,Northern America,United States of America,Illinois,,Chicago
208.98.40.14,4,-2,ty-realestate.com.cn,US,Americas,Northern America,United States of America,Illinois,,Chicago
208.98.40.73,4,0,ty371.com,US,Americas,Northern America,United States of America,Illinois,,Chicago
155.159.247.217,4,3,tyboxian.com,US,Americas,Northern America,United States of America,Illinois,,Chicago
160.121.54.179,4,-8,tyxjrw.com,US,Americas,Northern America,United States of America,Illinois,,Chicago
168.206.137.41,4,2,tzfmryq.com,US,Americas,Northern America,United States of America,Illinois,,Chicago
216.246.113.164,4,177,u-rus.com.ar,US,Americas,Northern America,United States of America,Illinois,,Chicago
155.159.128.198,4,8,uhbvap.com,US,Americas,Northern America,United States of America,Illinois,,Chicago
128.248.155.93,4,3,uic.edu,US,Americas,Northern America,United States of America,Illinois,,Chicago
64.32.14.144,4,2,uiimg.com,US,Americas,Northern America,United States of America,Illinois,,Chicago
216.169.12.77,4,714,ultimate-rihanna.com,US,Americas,Northern America,United States of America,Illinois,,Morton
66.225.195.141,4,15,ultramusic.biz,US,Americas,Northern America,United States of America,Illinois,,Elk Grove Village
204.93.224.215,4,1352,uncephalized.com,US,Americas,Northern America,United States of America,Illinois,,Chicago
204.93.224.69,4,2,uninorte.edu.py,US,Americas,Northern America,United States of America,Illinois,,Chicago
168.206.40.195,4,25,unitport.com,US,Americas,Northern America,United States of America,Illinois,,Chicago
23.237.154.74,4,94,unknown.nu,US,Americas,Northern America,United States of America,Illinois,,Chicago
45.63.65.23,4,19,untroubled.org,US,Americas,Northern America,United States of America,Illinois,,Elk Grove Village
172.233.219.49,4,1,uploadable.ch,US,Americas,Northern America,United States of America,Illinois,,Chicago
172.233.219.78,4,2,uploadable.ch,US,Americas,Northern America,United States of America,Illinois,,Chicago
172.233.219.123,4,22,ur0.work,US,Americas,Northern America,United States of America,Illinois,,Chicago
104.36.230.220,4,5,urgentcareassociation.org,US,Americas,Northern America,United States of America,Illinois,,West Chicago
198.144.181.98,4,22,uscounties.com,US,Americas,Northern America,United States of America,Illinois,,Elk Grove Village
69.65.4.125,4,7,uscybersecurity.net,US,Americas,Northern America,United States of America,Illinois,,Streamwood
64.32.10.19,4,5,ustcbbs.com,US,Americas,Northern America,United States of America,Illinois,,Chicago
67.202.70.137,4,2,veggieprimer.com,US,Americas,Northern America,United States of America,Illinois,,Chicago
169.150.236.104,4,10,velodrome.finance,US,Americas,Northern America,United States of America,Illinois,,Chicago
216.246.46.90,4,2,venelusa.com,US,Americas,Northern America,United States of America,Illinois,,Chicago
38.34.178.106,4,19,viagarammd.com,US,Americas,Northern America,United States of America,Illinois,,Chicago
50.31.188.104,4,441,vibag.com.ec,US,Americas,Northern America,United States of America,Illinois,,Chicago
66.42.117.103,4,2,vimedbil.no,US,Americas,Northern America,United States of America,Illinois,,Elk Grove Village
38.64.138.112,4,15,visitsiliconvalley.org,US,Americas,Northern America,United States of America,Illinois,,Chicago
38.58.224.33,4,4,vitamagazine.com,US,Americas,Northern America,United States of America,Illinois,,Chicago
149.28.121.105,4,26,vladtepesblog.com,US,Americas,Northern America,United States of America,Illinois,,Elk Grove Village
69.65.3.168,4,5,voizgram.com,US,Americas,Northern America,United States of America,Illinois,,Streamwood
208.98.40.18,4,-2,vswang.com,US,Americas,Northern America,United States of America,Illinois,,Chicago
208.98.40.204,4,29,vzmu.com,US,Americas,Northern America,United States of America,Illinois,,Chicago
208.115.219.134,4,543,wanderglobal.com.ng,US,Americas,Northern America,United States of America,Illinois,,Chicago
168.206.176.21,4,-19,wantaotao.com,US,Americas,Northern America,United States of America,Illinois,,Chicago
208.98.40.207,4,1,wanye68.com,US,Americas,Northern America,United States of America,Illinois,,Chicago
23.10.208.190,4,2,watchshop.com,US,Americas,Northern America,United States of America,Illinois,,Chicago
208.100.46.78,4,6,wayalife.com,US,Americas,Northern America,United States of America,Illinois,,Winnetka
152.44.41.222,4,3,wbecs.com,US,Americas,Northern America,United States of America,Illinois,,
160.121.76.42,4,-33,wbt161717.com,US,Americas,Northern America,United States of America,Illinois,,Chicago
160.121.78.52,4,-30,wcy-lichuan.com,US,Americas,Northern America,United States of America,Illinois,,Chicago
149.28.119.253,4,16,wearableworld.co,US,Americas,Northern America,United States of America,Illinois,,Elk Grove Village
204.93.163.12,4,29,webhostingpad.com,US,Americas,Northern America,United States of America,Illinois,,Chicago
96.9.243.16,4,37,webtree.ca,US,Americas,Northern America,United States of America,Illinois,,Chicago
137.220.62.207,4,4,wegnercpas.com,US,Americas,Northern America,United States of America,Illinois,,Elk Grove Village
155.159.247.199,4,-18,weibojixie.com,US,Americas,Northern America,United States of America,Illinois,,Chicago
160.121.79.53,4,-31,weijiashidai.com,US,Americas,Northern America,United States of America,Illinois,,Chicago
208.98.40.15,4,0,weimeixi.com,US,Americas,Northern America,United States of America,Illinois,,Chicago
168.206.176.28,4,-14,weimishanghao.com,US,Americas,Northern America,United States of America,Illinois,,Chicago
168.206.60.35,4,25,weitaiccc.com,US,Americas,Northern America,United States of America,Illinois,,Chicago
45.63.74.252,4,3,well-fedsoul.com,US,Americas,Northern America,United States of America,Illinois,,Elk Grove Village
168.206.60.52,4,11,well-known-brand.com,US,Americas,Northern America,United States of America,Illinois,,Chicago
172.234.24.245,4,4,welovetrump.com,US,Americas,Northern America,United States of America,Illinois,,Chicago
168.206.57.55,4,16,wesunhealth.com,US,Americas,Northern America,United States of America,Illinois,,Chicago
160.121.78.39,4,-27,wflyws.com,US,Americas,Northern America,United States of America,Illinois,,Chicago
155.159.247.200,4,-16,wfzlaz.com,US,Americas,Northern America,United States of America,Illinois,,Chicago
207.148.9.103,4,4,whatchristianswanttoknow.com,US,Americas,Northern America,United States of America,Illinois,,Elk Grove Village
152.44.38.62,4,3,whtlradio.com,US,Americas,Northern America,United States of America,Illinois,,
216.246.46.150,4,25191,wiki.bz,US,Americas,Northern America,United States of America,Illinois,,Chicago
50.31.174.101,4,865,wikisaber.es,US,Americas,Northern America,United States of America,Illinois,,Chicago
38.127.34.170,4,25,wineds.cn,US,Americas,Northern America,United States of America,Illinois,,Chicago
152.44.35.58,4,65765,wingswest.com,US,Americas,Northern America,United States of America,Illinois,,
208.100.26.31,4,2,wintercohen.com,US,Americas,Northern America,United States of America,Illinois,,Winnetka
208.98.40.16,4,5,wlfbsa.org,US,Americas,Northern America,United States of America,Illinois,,Chicago
107.191.48.146,4,10,wmc.org,US,Americas,Northern America,United States of America,Illinois,,Elk Grove Village
68.235.41.156,4,-12730924,wocorlando.com,US,Americas,Northern America,United States of America,Illinois,,Chicago
69.65.4.167,4,7,woodpeck.com,US,Americas,Northern America,United States of America,Illinois,,Streamwood
64.187.239.229,4,11,worldventures.com,US,Americas,Northern America,United States of America,Illinois,,Chicago
149.28.117.168,4,1,wppluginsify.com,US,Americas,Northern America,United States of America,Illinois,,Elk Grove Village
208.100.23.152,4,13,writerstheatre.org,US,Americas,Northern America,United States of America,Illinois,,Winnetka
168.206.97.167,4,8,wxbjfcyy.com,US,Americas,Northern America,United States of America,Illinois,,Chicago
208.98.40.79,4,0,wxmrxh.com,US,Americas,Northern America,United States of America,Illinois,,Chicago
208.98.40.203,4,3,xabbs.com,US,Americas,Northern America,United States of America,Illinois,,Chicago
208.98.40.202,4,0,xajianche.com,US,Americas,Northern America,United States of America,Illinois,,Chicago
64.32.14.149,4,1,xauc.com,US,Americas,Northern America,United States of America,Illinois,,Chicago
208.98.40.74,4,2,xcganggeban.com,US,Americas,Northern America,United States of America,Illinois,,Chicago
168.206.60.45,4,14,xclzq66.com,US,Americas,Northern America,United States of America,Illinois,,Chicago
64.32.10.18,4,-2,xddjc.net,US,Americas,Northern America,United States of America,Illinois,,Chicago
208.98.40.20,4,-2,xfuedu.org,US,Americas,Northern America,United States of America,Illinois,,Chicago
208.98.40.10,4,0,xgu.cn,US,Americas,Northern America,United States of America,Illinois,,Chicago
155.159.100.158,4,-26,xiantongguan.com,US,Americas,Northern America,United States of America,Illinois,,Chicago
168.206.60.50,4,10,xiaochengxu888.com,US,Americas,Northern America,United States of America,Illinois,,Chicago
168.206.56.40,4,15,xiaofuns.com,US,Americas,Northern America,United States of America,Illinois,,Chicago
168.206.80.27,4,-16,xieziloufuwu.com,US,Americas,Northern America,United States of America,Illinois,,Chicago
160.121.182.139,4,7,xinfango.com,US,Americas,Northern America,United States of America,Illinois,,Chicago
168.206.214.236,4,-25,xingfafanganchangjia.cn,US,Americas,Northern America,United States of America,Illinois,,Chicago
168.206.157.120,4,-7,xingyajiaoyu.com,US,Americas,Northern America,United States of America,Illinois,,Chicago
168.206.79.1,4,-18,xinhuishuma.com,US,Americas,Northern America,United States of America,Illinois,,Chicago
160.121.76.54,4,-28,xinximeiye.com,US,Americas,Northern America,United States of America,Illinois,,Chicago
164.155.150.238,4,3,xjhouse.cn,US,Americas,Northern America,United States of America,Illinois,,Chicago
64.32.10.27,4,0,xjmu.org,US,Americas,Northern America,United States of America,Illinois,,Chicago
64.32.14.148,4,0,xjzkzx.com,US,Americas,Northern America,United States of America,Illinois,,Chicago
168.206.62.43,4,9,xmzhaoping.com,US,Americas,Northern America,United States of America,Illinois,,Chicago
66.42.115.210,4,91,xn--idrottsnrd-lcb.se,US,Americas,Northern America,United States of America,Illinois,,Elk Grove Village
45.76.27.5,4,24,xn--matochkk-t4a.se,US,Americas,Northern America,United States of America,Illinois,,Elk Grove Village
144.202.54.110,4,85,xn--sknhetochstil-jmb.se,US,Americas,Northern America,United States of America,Illinois,,Elk Grove Village
192.124.249.165,4,4,xonmining.com,US,Americas,Northern America,United States of America,Illinois,,Homewood
64.32.10.16,4,0,xsb-job.cn,US,Americas,Northern America,United States of America,Illinois,,Chicago
168.206.236.113,4,0,xszjapp.com,US,Americas,Northern America,United States of America,Illinois,,Chicago
160.121.78.51,4,-38,xuchzh.com,US,Americas,Northern America,United States of America,Illinois,,Chicago
160.121.78.37,4,-32,xuyuzixun.com,US,Americas,Northern America,United States of America,Illinois,,Chicago
208.98.40.70,4,0,xxsdpiao.com,US,Americas,Northern America,United States of America,Illinois,,Chicago
208.98.40.75,4,-1,xysfxy.cn,US,Americas,Northern America,United States of America,Illinois,,Chicago
155.159.53.252,4,-34,xzlsyxzc.com,US,Americas,Northern America,United States of America,Illinois,,Chicago
168.206.214.253,4,-24,xznysh.cn,US,Americas,Northern America,United States of America,Illinois,,Chicago
168.206.110.208,4,-15,xzs58.com,US,Americas,Northern America,United States of America,Illinois,,Chicago
160.121.78.50,4,-26,xztianchen.com,US,Americas,Northern America,United States of America,Illinois,,Chicago
169.197.131.94,4,6,y-me.org,US,Americas,Northern America,United States of America,Illinois,,Chicago
208.98.40.11,4,-3,ybshajiang.com,US,Americas,Northern America,United States of America,Illinois,,Chicago
208.98.40.77,4,2,ycgjj.com.cn,US,Americas,Northern America,United States of America,Illinois,,Chicago
204.93.224.54,4,289,yeezy380.us,US,Americas,Northern America,United States of America,Illinois,,Chicago
137.220.57.214,4,3,yeson19.com,US,Americas,Northern America,United States of America,Illinois,,Elk Grove Village
64.32.10.26,4,-1,yfu.cn,US,Americas,Northern America,United States of America,Illinois,,Chicago
168.206.234.92,4,-22,yimuidea.com,US,Americas,Northern America,United States of America,Illinois,,Chicago
160.121.234.14,4,1,yipkis.com,US,Americas,Northern America,United States of America,Illinois,,Chicago
155.159.237.122,4,-26,yishunjc.com,US,Americas,Northern America,United States of America,Illinois,,Chicago
168.206.57.57,4,14,yixianhuoliu.com,US,Americas,Northern America,United States of America,Illinois,,Chicago
168.206.56.47,4,12,yixingames.com,US,Americas,Northern America,United States of America,Illinois,,Chicago
168.206.57.56,4,12,yizhengtongjituan.com,US,Americas,Northern America,United States of America,Illinois,,Chicago
160.121.76.43,4,-28,yndashun.com,US,Americas,Northern America,United States of America,Illinois,,Chicago
208.98.40.76,4,-1,ynpoa.cn,US,Americas,Northern America,United States of America,Illinois,,Chicago
64.32.14.147,4,3,ynyb.org.cn,US,Americas,Northern America,United States of America,Illinois,,Chicago
208.98.40.71,4,0,ynzswang.com,US,Americas,Northern America,United States of America,Illinois,,Chicago
172.234.212.179,4,0,yolocountysheriff.com,US,Americas,Northern America,United States of America,Illinois,,Chicago
168.206.62.44,4,19,yonglininternationalhotel.com,US,Americas,Northern America,United States of America,Illinois,,Chicago
155.159.237.124,4,-26,yongqingqy.com,US,Americas,Northern America,United States of America,Illinois,,Chicago
208.100.53.17,4,11,yoursandmineareours.com,US,Americas,Northern America,United States of America,Illinois,,Winnetka
206.217.137.40,4,3,youtuberepeater.com,US,Americas,Northern America,United States of America,Illinois,,Elk Grove Village
160.121.77.49,4,-28,ytjinkong.com,US,Americas,Northern America,United States of America,Illinois,,Chicago
208.98.40.78,4,0,ytsuliao.com.cn,US,Americas,Northern America,United States of America,Illinois,,Chicago
168.206.79.2,4,-20,yuanchuangzs.com,US,Americas,Northern America,United States of America,Illinois,,Chicago
160.121.77.47,4,-31,yuetitle.com,US,Americas,Northern America,United States of America,Illinois,,Chicago
168.206.40.199,4,1,yunchou2020.com,US,Americas,Northern America,United States of America,Illinois,,Chicago
168.206.176.19,4,-14,yuncudong.com,US,Americas,Northern America,United States of America,Illinois,,Chicago
168.206.62.49,4,14,yunfumaikeweier.com,US,Americas,Northern America,United States of America,Illinois,,Chicago
64.32.10.21,4,-1,yunke029.com,US,Americas,Northern America,United States of America,Illinois,,Chicago
168.206.60.57,4,13,yxqihang.com,US,Americas,Northern America,United States of America,Illinois,,Chicago
208.98.40.209,4,1,yz88.org.cn,US,Americas,Northern America,United States of America,Illinois,,Chicago
64.32.12.199,4,1,yzjczm.cn,US,Americas,Northern America,United States of America,Illinois,,Chicago
172.234.195.187,4,7,z0r.co,US,Americas,Northern America,United States of America,Illinois,,Chicago
168.206.57.44,4,15,zccfdz.com,US,Americas,Northern America,United States of America,Illinois,,Chicago
64.32.10.28,4,2,zebox.com,US,Americas,Northern America,United States of America,Illinois,,Chicago
192.124.249.169,4,-28,zestforbaking.com,US,Americas,Northern America,United States of America,Illinois,,Homewood
208.98.40.206,4,0,zggbjd.org,US,Americas,Northern America,United States of America,Illinois,,Chicago
168.206.78.24,4,-18,zghmm.com,US,Americas,Northern America,United States of America,Illinois,,Chicago
64.32.10.20,4,-2,zgncpw.com,US,Americas,Northern America,United States of America,Illinois,,Chicago
208.98.40.201,4,-1,zgqkzzs.com,US,Americas,Northern America,United States of America,Illinois,,Chicago
208.98.40.12,4,2,zgxzw.com,US,Americas,Northern America,United States of America,Illinois,,Chicago
155.159.247.201,4,-14,zhaoqiangkqysj.com,US,Americas,Northern America,United States of America,Illinois,,Chicago
155.159.237.119,4,-29,zhengnongren.com,US,Americas,Northern America,United States of America,Illinois,,Chicago
168.206.57.47,4,12,zhenxinshangmao.com,US,Americas,Northern America,United States of America,Illinois,,Chicago
160.121.80.57,4,-28,zhhuigong.com,US,Americas,Northern America,United States of America,Illinois,,Chicago
168.206.156.116,4,-4,zhifusuixin.com,US,Americas,Northern America,United States of America,Illinois,,Chicago
155.159.238.112,4,-26,zhongminhuishou.com,US,Americas,Northern America,United States of America,Illinois,,Chicago
155.159.71.221,4,-14,zhongqiaojt.com,US,Americas,Northern America,United States of America,Illinois,,Chicago
168.206.60.49,4,14,zhoudaozixun.com,US,Americas,Northern America,United States of America,Illinois,,Chicago
168.206.60.55,4,14,zhucegongsi-jc.com,US,Americas,Northern America,United States of America,Illinois,,Chicago
155.159.64.9,4,-17,zhuoruixiangsu.com,US,Americas,Northern America,United States of America,Illinois,,Chicago
64.32.10.11,4,-2,zicd.com,US,Americas,Northern America,United States of America,Illinois,,Chicago
208.98.40.72,4,0,zjgsahsh.cn,US,Americas,Northern America,United States of America,Illinois,,Chicago
64.32.10.14,4,0,zjkskjxxs.org,US,Americas,Northern America,United States of America,Illinois,,Chicago
64.32.10.17,4,0,zjou.net.cn,US,Americas,Northern America,United States of America,Illinois,,Chicago
160.121.78.43,4,-29,zkcep.com,US,Americas,Northern America,United States of America,Illinois,,Chicago
172.234.222.143,4,1,zlidein.com,US,Americas,Northern America,United States of America,Illinois,,Chicago
172.234.222.138,4,2,zlidein.com,US,Americas,Northern America,United States of America,Illinois,,Chicago
193.243.190.30,4,7,zonarp.com,US,Americas,Northern America,United States of America,Illinois,,Chicago
64.32.14.145,4,2,zqwnet.com,US,Americas,Northern America,United States of America,Illinois,,Chicago
208.98.40.205,4,1,zscxxt.com.cn,US,Americas,Northern America,United States of America,Illinois,,Chicago
168.206.129.35,4,-17,zshkt.com,US,Americas,Northern America,United States of America,Illinois,,Chicago
168.206.62.54,4,6,ztcoltd.com,US,Americas,Northern America,United States of America,Illinois,,Chicago
64.32.10.24,4,-1,zunjuebaobei.com,US,Americas,Northern America,United States of America,Illinois,,Chicago
64.32.10.23,4,-2,zzhcz.com,US,Americas,Northern America,United States of America,Illinois,,Chicago
64.32.14.141,4,0,zzhxxy.com,US,Americas,Northern America,United States of America,Illinois,,Chicago
64.32.10.29,4,-1,zzist.net,US,Americas,Northern America,United States of America,Illinois,,Chicago
208.98.40.80,4,0,zzsljx.cn,US,Americas,Northern America,United States of America,Illinois,,Chicago
168.206.152.103,4,-4,zzyuandiao.com,US,Americas,Northern America,United States of America,Illinois,,Chicago
