reflector_ip,ip_version,offset,description,country_code,region,sub_region,country_name,sub_division_1,sub_division_2,city
208.94.117.11,4,-13,007james.com,US,Americas,Northern America,United States of America,Arizona,,Phoenix
217.21.76.132,4,3,1111customdesign.com,US,Americas,Northern America,United States of America,Arizona,,Phoenix
62.72.25.13,4,5,24x7satta-matka.in,US,Americas,Northern America,United States of America,Arizona,,Phoenix
209.50.52.82,4,3,300hours.com,US,Americas,Northern America,United States of America,Arizona,,Phoenix
82.180.138.186,4,5,30daysclub.com,US,Americas,Northern America,United States of America,Arizona,,Phoenix
108.170.5.194,4,1076,3steppers.com,US,Americas,Northern America,United States of America,Arizona,,Phoenix
184.171.164.245,4,13,405th.com,US,Americas,Northern America,United States of America,Arizona,,Phoenix
82.180.138.183,4,5,4iz4.com,US,Americas,Northern America,United States of America,Arizona,,Phoenix
106.0.62.86,4,7,4lo.com,US,Americas,Northern America,United States of America,Arizona,,Phoenix
89.117.139.231,4,6,60sfolksintheir60s.com,US,Americas,Northern America,United States of America,Arizona,,Phoenix
191.101.13.167,4,6,7gen.com,US,Americas,Northern America,United States of America,Arizona,,Phoenix
156.67.75.112,4,5,aadityaspinehospital.com,US,Americas,Northern America,United States of America,Arizona,,Phoenix
46.28.42.250,4,6,abhiandroid.com,US,Americas,Northern America,United States of America,Arizona,,Phoenix
195.35.33.81,4,9,abmts.com,US,Americas,Northern America,United States of America,Arizona,,Phoenix
191.96.234.202,4,6,abnt.org.br,US,Americas,Northern America,United States of America,Arizona,,Phoenix
191.101.15.181,4,2,abroadpathway.com,US,Americas,Northern America,United States of America,Arizona,,Phoenix
65.19.179.18,4,88,absoluteanime.com,US,Americas,Northern America,United States of America,Arizona,,Prescott Valley
195.179.237.89,4,16,acheckeredpast.shop,US,Americas,Northern America,United States of America,Arizona,,Phoenix
86.38.202.242,4,16,acnetreatmentdigest.com,US,Americas,Northern America,United States of America,Arizona,,Phoenix
208.94.118.156,4,-19,acooke.org,US,Americas,Northern America,United States of America,Arizona,,Phoenix
195.179.237.62,4,5,actiongame.online,US,Americas,Northern America,United States of America,Arizona,,Phoenix
82.180.174.89,4,5,actwitty.com,US,Americas,Northern America,United States of America,Arizona,,Phoenix
89.117.9.143,4,73,acumed.mx,US,Americas,Northern America,United States of America,Arizona,,Phoenix
195.35.15.99,4,5,adriancamps.com,US,Americas,Northern America,United States of America,Arizona,,Phoenix
62.72.50.50,4,39,aerobe.com,US,Americas,Northern America,United States of America,Arizona,,Phoenix
147.79.126.97,4,5,africafeeds.com,US,Americas,Northern America,United States of America,Arizona,,Phoenix
156.67.72.86,4,4,afrobitcoin.org,US,Americas,Northern America,United States of America,Arizona,,Phoenix
198.143.186.153,4,87,afterimagedesigns.com,US,Americas,Northern America,United States of America,Arizona,,Phoenix
64.150.188.238,4,3,afterlogic.com,US,Americas,Northern America,United States of America,Arizona,,Phoenix
185.162.55.53,4,5,agapelux.com,US,Americas,Northern America,United States of America,Arizona,,Phoenix
89.116.192.66,4,23,agoodgoodbye.com,US,Americas,Northern America,United States of America,Arizona,,Phoenix
62.72.48.128,4,5,agrihubcaribbean.com,US,Americas,Northern America,United States of America,Arizona,,Phoenix
82.180.175.22,4,10,aint-bad.com,US,Americas,Northern America,United States of America,Arizona,,Phoenix
184.164.76.202,4,7999,air-savings.com,US,Americas,Northern America,United States of America,Arizona,,Phoenix
217.196.54.161,4,19,airbarofficial.org,US,Americas,Northern America,United States of America,Arizona,,Phoenix
89.117.9.170,4,22,airportsterminal.com,US,Americas,Northern America,United States of America,Arizona,,Phoenix
194.195.84.78,4,3,akdigitalfile.com,US,Americas,Northern America,United States of America,Arizona,,Phoenix
82.180.172.21,4,77,al-maktabeh.com,US,Americas,Northern America,United States of America,Arizona,,Phoenix
170.130.180.188,4,6,alehb.com,US,Americas,Northern America,United States of America,Arizona,,Phoenix
191.101.13.208,4,4,alethiaproject.org,US,Americas,Northern America,United States of America,Arizona,,Phoenix
217.196.53.251,4,17,aliabdaal.com,US,Americas,Northern America,United States of America,Arizona,,Phoenix
156.67.73.254,4,5,aliantcu.org,US,Americas,Northern America,United States of America,Arizona,,Phoenix
195.35.15.100,4,4,alienlabss.com,US,Americas,Northern America,United States of America,Arizona,,Phoenix
62.72.50.126,4,4,allnigerianfoods.com,US,Americas,Northern America,United States of America,Arizona,,Phoenix
217.21.76.145,4,7,allseenalliance.org,US,Americas,Northern America,United States of America,Arizona,,Phoenix
82.180.174.137,4,5,allstudyguide.com,US,Americas,Northern America,United States of America,Arizona,,Phoenix
147.79.126.165,4,6,alltimeupdates.com,US,Americas,Northern America,United States of America,Arizona,,Phoenix
156.67.75.228,4,11,alreego.com,US,Americas,Northern America,United States of America,Arizona,,Phoenix
208.94.116.137,4,-13,altmba.com,US,Americas,Northern America,United States of America,Arizona,,Phoenix
209.188.18.154,4,6,alwaysinnovating.com,US,Americas,Northern America,United States of America,Arizona,,Phoenix
198.15.109.91,4,-52616,aman-mehndiratta.online,US,Americas,Northern America,United States of America,Arizona,,Phoenix
156.67.75.162,4,6,amazingcharts.com,US,Americas,Northern America,United States of America,Arizona,,Phoenix
193.203.178.240,4,5,amazingstories.com,US,Americas,Northern America,United States of America,Arizona,,Phoenix
191.96.56.53,4,5,ambri.com,US,Americas,Northern America,United States of America,Arizona,,Phoenix
82.180.128.214,4,5,americanbranddesigner.com,US,Americas,Northern America,United States of America,Arizona,,Phoenix
66.172.6.103,4,671531,ancientresource.com,US,Americas,Northern America,United States of America,Arizona,,Gilbert
208.94.117.53,4,16,andrewt.net,US,Americas,Northern America,United States of America,Arizona,,Phoenix
156.67.74.12,4,73,andthenthey.com,US,Americas,Northern America,United States of America,Arizona,,Phoenix
31.220.31.184,4,3,angelleye.com,US,Americas,Northern America,United States of America,Arizona,,Phoenix
45.137.159.4,4,5,anhome.tech,US,Americas,Northern America,United States of America,Arizona,,Phoenix
148.163.122.11,4,252952,annacalvi.com,US,Americas,Northern America,United States of America,Arizona,,Phoenix
108.170.53.46,4,7,annamalaiuniversity.ac.in,US,Americas,Northern America,United States of America,Arizona,,Phoenix
185.212.71.182,4,3,annmariejohn.com,US,Americas,Northern America,United States of America,Arizona,,Phoenix
77.37.93.219,4,25,anthonyjventura.com,US,Americas,Northern America,United States of America,Arizona,,Phoenix
23.83.130.96,4,14,apache-ssl.org,US,Americas,Northern America,United States of America,Arizona,,Phoenix
208.94.117.89,4,34,aperiodic.net,US,Americas,Northern America,United States of America,Arizona,,Phoenix
45.145.184.221,4,5,apzomedia.com,US,Americas,Northern America,United States of America,Arizona,,Phoenix
38.29.223.132,4,40,arayofsunlight.com,US,Americas,Northern America,United States of America,Arizona,,Phoenix
195.179.236.43,4,12,articlebusinessnews.com,US,Americas,Northern America,United States of America,Arizona,,Phoenix
195.179.236.70,4,48,articlecity.co.uk,US,Americas,Northern America,United States of America,Arizona,,Phoenix
82.180.172.54,4,9,artlookglass.com,US,Americas,Northern America,United States of America,Arizona,,Phoenix
193.46.198.100,4,37,ashastd.org,US,Americas,Northern America,United States of America,Arizona,,Phoenix
147.79.124.2,4,46,ashepamicuba.com,US,Americas,Northern America,United States of America,Arizona,,Phoenix
89.116.192.181,4,31,ashisoft.com,US,Americas,Northern America,United States of America,Arizona,,Phoenix
156.67.74.222,4,24,asianbusinessside.com,US,Americas,Northern America,United States of America,Arizona,,Phoenix
156.67.66.227,4,5,asifma.org,US,Americas,Northern America,United States of America,Arizona,,Phoenix
194.163.47.184,4,10,asisbiz.com,US,Americas,Northern America,United States of America,Arizona,,Phoenix
198.15.76.162,4,3,aspo-usa.com,US,Americas,Northern America,United States of America,Arizona,,Phoenix
195.35.10.195,4,6,astalaweb.org,US,Americas,Northern America,United States of America,Arizona,,Phoenix
198.143.186.151,4,72,astonlimoservice.com,US,Americas,Northern America,United States of America,Arizona,,Phoenix
195.35.10.57,4,11,astral-roleplay.com,US,Americas,Northern America,United States of America,Arizona,,Phoenix
216.239.131.114,4,67,astrologers.com,US,Americas,Northern America,United States of America,Arizona,,Tempe
195.35.8.65,4,14,astrology-online.com,US,Americas,Northern America,United States of America,Arizona,,Phoenix
89.117.139.224,4,4,atkell.com,US,Americas,Northern America,United States of America,Arizona,,Phoenix
107.167.90.213,4,22,auchipoly.edu.ng,US,Americas,Northern America,United States of America,Arizona,,Phoenix
89.117.9.85,4,15,audioworld.com,US,Americas,Northern America,United States of America,Arizona,,Phoenix
191.96.56.37,4,8,authorityhealthmag.com,US,Americas,Northern America,United States of America,Arizona,,Phoenix
185.214.133.182,4,-76,averagebeing.com,US,Americas,Northern America,United States of America,Arizona,,Phoenix
62.72.55.254,4,29,avnation.tv,US,Americas,Northern America,United States of America,Arizona,,Phoenix
195.179.237.211,4,4,ayndasaze.com,US,Americas,Northern America,United States of America,Arizona,,Phoenix
195.179.236.38,4,4,azaz.com.br,US,Americas,Northern America,United States of America,Arizona,,Phoenix
156.67.75.101,4,7,azithromycint.com,US,Americas,Northern America,United States of America,Arizona,,Phoenix
191.101.79.3,4,26,b2bleadfinders.com,US,Americas,Northern America,United States of America,Arizona,,Phoenix
195.35.15.85,4,51,babydreams.cl,US,Americas,Northern America,United States of America,Arizona,,Phoenix
195.35.38.240,4,96,ballparkreviews.com,US,Americas,Northern America,United States of America,Arizona,,Phoenix
185.212.70.95,4,10,bapeclothing.net,US,Americas,Northern America,United States of America,Arizona,,Phoenix
208.94.116.19,4,11,baseballcardpedia.com,US,Americas,Northern America,United States of America,Arizona,,Phoenix
148.163.121.219,4,1,baseballlibrary.com,US,Americas,Northern America,United States of America,Arizona,,Phoenix
147.79.121.214,4,29,basementfinishpros.com,US,Americas,Northern America,United States of America,Arizona,,Phoenix
89.116.239.241,4,8,batman-on-film.com,US,Americas,Northern America,United States of America,Arizona,,Phoenix
82.180.171.186,4,7,bbsis.org,US,Americas,Northern America,United States of America,Arizona,,Phoenix
64.6.109.80,4,8,bc8787.com,US,Americas,Northern America,United States of America,Arizona,,Tempe
191.96.56.234,4,9,bchums.com,US,Americas,Northern America,United States of America,Arizona,,Phoenix
190.92.150.196,4,1,beansandbrews.com,US,Americas,Northern America,United States of America,Arizona,,
195.35.38.11,4,18,begandigital.com,US,Americas,Northern America,United States of America,Arizona,,Phoenix
62.72.49.17,4,5,beingoptimist.com,US,Americas,Northern America,United States of America,Arizona,,Phoenix
45.145.186.114,4,5,beingpaperless.com,US,Americas,Northern America,United States of America,Arizona,,Phoenix
178.16.140.207,4,22,beldisegno.co,US,Americas,Northern America,United States of America,Arizona,,Phoenix
208.94.116.17,4,-14,benedelman.org,US,Americas,Northern America,United States of America,Arizona,,Phoenix
82.180.175.30,4,6,bestdigitalupdates.com,US,Americas,Northern America,United States of America,Arizona,,Phoenix
89.117.9.84,4,4,besthealthtopic.com,US,Americas,Northern America,United States of America,Arizona,,Phoenix
66.85.136.18,4,228,bestnetcraft.com,US,Americas,Northern America,United States of America,Arizona,,Phoenix
195.35.15.35,4,8,bestnewsonlinez.net,US,Americas,Northern America,United States of America,Arizona,,Phoenix
66.85.138.70,4,11,bestsmelters.com,US,Americas,Northern America,United States of America,Arizona,,Phoenix
199.232.153.124,4,3,bestwayusa.com,US,Americas,Northern America,United States of America,Arizona,,Phoenix
62.72.54.42,4,5,beverlyhillsmagazine.com,US,Americas,Northern America,United States of America,Arizona,,Phoenix
82.180.172.24,4,5,bicyclinglife.com,US,Americas,Northern America,United States of America,Arizona,,Phoenix
184.164.129.146,4,126,bigbold.com,US,Americas,Northern America,United States of America,Arizona,,Phoenix
217.196.54.129,4,65,bigluxviolin.com,US,Americas,Northern America,United States of America,Arizona,,Phoenix
156.67.73.178,4,6,bikesgeek.com,US,Americas,Northern America,United States of America,Arizona,,Phoenix
156.67.74.88,4,12,biketrials.com.au,US,Americas,Northern America,United States of America,Arizona,,Phoenix
62.72.48.40,4,21,bitd.com,US,Americas,Northern America,United States of America,Arizona,,Phoenix
185.164.109.142,4,6,bitmemetalk.net,US,Americas,Northern America,United States of America,Arizona,,Phoenix
217.196.54.120,4,5,blackhistorysociety.ca,US,Americas,Northern America,United States of America,Arizona,,Phoenix
191.101.233.180,4,34,blgwins.com,US,Americas,Northern America,United States of America,Arizona,,Phoenix
82.180.138.139,4,4,bloggersman.com,US,Americas,Northern America,United States of America,Arizona,,Phoenix
217.196.55.174,4,36,bloghints.com,US,Americas,Northern America,United States of America,Arizona,,Phoenix
191.101.13.133,4,5,boardgamewire.com,US,Americas,Northern America,United States of America,Arizona,,Phoenix
89.117.9.46,4,60,boastfulfood.com,US,Americas,Northern America,United States of America,Arizona,,Phoenix
156.67.76.87,4,14,bodie.com,US,Americas,Northern America,United States of America,Arizona,,Phoenix
217.21.76.222,4,5,bodygoalspt.com,US,Americas,Northern America,United States of America,Arizona,,Phoenix
156.67.74.236,4,2,bodypeacebook.com,US,Americas,Northern America,United States of America,Arizona,,Phoenix
108.170.52.140,4,15,bonnotsmillmo.com,US,Americas,Northern America,United States of America,Arizona,,Phoenix
45.145.187.98,4,25,bookmarkfeeds.com,US,Americas,Northern America,United States of America,Arizona,,Phoenix
195.35.15.110,4,10,booktix.com,US,Americas,Northern America,United States of America,Arizona,,Phoenix
89.116.192.83,4,50,boosterdrugs.com,US,Americas,Northern America,United States of America,Arizona,,Phoenix
185.212.70.71,4,12,bootstrapworld.org,US,Americas,Northern America,United States of America,Arizona,,Phoenix
208.94.117.13,4,9,boredzo.org,US,Americas,Northern America,United States of America,Arizona,,Phoenix
82.180.175.106,4,9,bradsprojects.com,US,Americas,Northern America,United States of America,Arizona,,Phoenix
82.180.172.123,4,16,brasslantern.org,US,Americas,Northern America,United States of America,Arizona,,Phoenix
195.35.10.126,4,8,brazilfrozenpoultryproducts.com,US,Americas,Northern America,United States of America,Arizona,,Phoenix
195.35.39.188,4,7,brentsdeli.com,US,Americas,Northern America,United States of America,Arizona,,Phoenix
45.145.185.29,4,6,brilliantlightpower.com,US,Americas,Northern America,United States of America,Arizona,,Phoenix
191.96.56.152,4,5,brookstonbeerbulletin.com,US,Americas,Northern America,United States of America,Arizona,,Phoenix
195.35.38.218,4,62,brownmilllstallions.com,US,Americas,Northern America,United States of America,Arizona,,Phoenix
208.94.117.49,4,-16,brushesapp.com,US,Americas,Northern America,United States of America,Arizona,,Phoenix
205.220.231.25,4,3,bscpad.com,US,Americas,Northern America,United States of America,Arizona,,Phoenix
208.94.117.57,4,5,btxx.org,US,Americas,Northern America,United States of America,Arizona,,Phoenix
89.116.192.212,4,6,bugle24.com,US,Americas,Northern America,United States of America,Arizona,,Phoenix
45.145.187.7,4,35,businessdit.com,US,Americas,Northern America,United States of America,Arizona,,Phoenix
195.35.35.178,4,16,businessinnovatorsradio.com,US,Americas,Northern America,United States of America,Arizona,,Phoenix
154.56.47.68,4,8,businesslnsight.com,US,Americas,Northern America,United States of America,Arizona,,Phoenix
45.137.159.111,4,25,businessnewstips.com,US,Americas,Northern America,United States of America,Arizona,,Phoenix
195.35.38.115,4,7,bustedrudder.com,US,Americas,Northern America,United States of America,Arizona,,Phoenix
209.50.60.16,4,57,butlerfirm.com,US,Americas,Northern America,United States of America,Arizona,,Phoenix
156.67.75.149,4,5,buycodeine.us,US,Americas,Northern America,United States of America,Arizona,,Phoenix
82.180.174.100,4,5,buygrinder.in,US,Americas,Northern America,United States of America,Arizona,,Phoenix
195.35.10.84,4,5,buyivermectinmeds.com,US,Americas,Northern America,United States of America,Arizona,,Phoenix
62.72.25.188,4,5,buyslimbiotic.com,US,Americas,Northern America,United States of America,Arizona,,Phoenix
23.226.70.194,4,3,buytradesell.org,US,Americas,Northern America,United States of America,Arizona,,Phoenix
89.117.139.145,4,5,buyweedonlineinusa.us,US,Americas,Northern America,United States of America,Arizona,,Phoenix
89.117.9.249,4,3,buzznc.com,US,Americas,Northern America,United States of America,Arizona,,Phoenix
191.96.234.10,4,5,buzztum.com,US,Americas,Northern America,United States of America,Arizona,,Phoenix
89.116.159.47,4,5,cafergot0i0.com,US,Americas,Northern America,United States of America,Arizona,,Phoenix
195.35.38.174,4,5,cainludhiana.com,US,Americas,Northern America,United States of America,Arizona,,Phoenix
193.203.179.210,4,4,cajuntravel.com,US,Americas,Northern America,United States of America,Arizona,,Phoenix
154.56.47.29,4,10,calibrasolutions.org,US,Americas,Northern America,United States of America,Arizona,,Phoenix
162.251.109.37,4,36,californiaherald.com,US,Americas,Northern America,United States of America,Arizona,,Phoenix
156.67.64.195,4,5,calltutors.com,US,Americas,Northern America,United States of America,Arizona,,Phoenix
217.21.77.212,4,4,calvinemr.com,US,Americas,Northern America,United States of America,Arizona,,Phoenix
156.67.75.169,4,48,canabistravelguide.org,US,Americas,Northern America,United States of America,Arizona,,Phoenix
86.38.202.135,4,25,canadatamilsangam.com,US,Americas,Northern America,United States of America,Arizona,,Phoenix
62.72.50.25,4,5,candidthemes.com,US,Americas,Northern America,United States of America,Arizona,,Phoenix
192.110.164.210,4,5,capitalgainsandgames.com,US,Americas,Northern America,United States of America,Arizona,,Phoenix
191.96.56.55,4,4,capprints.com,US,Americas,Northern America,United States of America,Arizona,,Phoenix
82.180.168.212,4,5,cardarium.com,US,Americas,Northern America,United States of America,Arizona,,Phoenix
195.179.236.7,4,8,cardoorseal.com,US,Americas,Northern America,United States of America,Arizona,,Phoenix
86.38.221.206,4,5,cardvcc.com,US,Americas,Northern America,United States of America,Arizona,,Phoenix
62.72.50.109,4,18,carolinabirds.org,US,Americas,Northern America,United States of America,Arizona,,Phoenix
195.35.39.127,4,134,carrymagazine.com,US,Americas,Northern America,United States of America,Arizona,,Phoenix
62.72.50.4,4,9,carteloil.org,US,Americas,Northern America,United States of America,Arizona,,Phoenix
89.117.139.118,4,18,cartitleloanscalifornia.com,US,Americas,Northern America,United States of America,Arizona,,Phoenix
195.35.10.80,4,5,casalunabali.com,US,Americas,Northern America,United States of America,Arizona,,Phoenix
170.130.255.169,4,1336,casinokld.com,US,Americas,Northern America,United States of America,Arizona,,Phoenix
170.130.255.168,4,1339,casinorealmoneytgrf.com,US,Americas,Northern America,United States of America,Arizona,,Phoenix
45.145.185.86,4,22,caus.org.lb,US,Americas,Northern America,United States of America,Arizona,,Phoenix
195.35.34.189,4,4,cbdmidlothian.com,US,Americas,Northern America,United States of America,Arizona,,Phoenix
89.117.9.125,4,4,cbdunkrautkaufen.com,US,Americas,Northern America,United States of America,Arizona,,Phoenix
89.116.192.182,4,6,ccitheo.com,US,Americas,Northern America,United States of America,Arizona,,Phoenix
217.21.76.65,4,4,cdroots.com,US,Americas,Northern America,United States of America,Arizona,,Phoenix
195.35.10.98,4,5,ceceliablog.com,US,Americas,Northern America,United States of America,Arizona,,Phoenix
5.183.8.124,4,6,cefnogi.com,US,Americas,Northern America,United States of America,Arizona,,Phoenix
217.196.55.18,4,6,celebcritics.com,US,Americas,Northern America,United States of America,Arizona,,Phoenix
191.96.56.96,4,4,celebqueries.com,US,Americas,Northern America,United States of America,Arizona,,Phoenix
185.212.70.124,4,-12,celestialtoday.com,US,Americas,Northern America,United States of America,Arizona,,Phoenix
198.24.145.124,4,5,celiac.com,US,Americas,Northern America,United States of America,Arizona,,Phoenix
107.158.113.61,4,16,centralcogtc.com,US,Americas,Northern America,United States of America,Arizona,,Glendale
209.188.21.53,4,4,cepaz.org,US,Americas,Northern America,United States of America,Arizona,,Phoenix
82.180.175.228,4,13,charismaticplanet.com,US,Americas,Northern America,United States of America,Arizona,,Phoenix
107.189.128.130,4,4,cheapinsurdealsfast.com,US,Americas,Northern America,United States of America,Arizona,,Phoenix
156.67.64.91,4,4,chefkarlacastro.com,US,Americas,Northern America,United States of America,Arizona,,Phoenix
77.37.91.235,4,6,chessdailynews.com,US,Americas,Northern America,United States of America,Arizona,,Phoenix
108.170.47.71,4,3,chetday.com,US,Americas,Northern America,United States of America,Arizona,,Phoenix
82.180.138.180,4,20,cheynairaviation.com,US,Americas,Northern America,United States of America,Arizona,,Phoenix
62.72.53.174,4,8,christmas-gifts.net,US,Americas,Northern America,United States of America,Arizona,,Phoenix
86.38.202.82,4,6,cielosports.net,US,Americas,Northern America,United States of America,Arizona,,Phoenix
77.37.91.220,4,4,ciolook.com,US,Americas,Northern America,United States of America,Arizona,,Phoenix
62.72.54.96,4,50,ciri.com,US,Americas,Northern America,United States of America,Arizona,,Phoenix
156.67.65.72,4,6,citylocalpro.com,US,Americas,Northern America,United States of America,Arizona,,Phoenix
156.67.74.82,4,5,citynewsr.com,US,Americas,Northern America,United States of America,Arizona,,Phoenix
195.35.39.94,4,8,cladsocial.com,US,Americas,Northern America,United States of America,Arizona,,Phoenix
148.163.42.119,4,2003,classicpersuasion.org,US,Americas,Northern America,United States of America,Arizona,,Phoenix
31.170.165.225,4,9,cleverleaves.com,US,Americas,Northern America,United States of America,Arizona,,Phoenix
82.180.175.223,4,4,climatechange2013.org,US,Americas,Northern America,United States of America,Arizona,,Phoenix
107.158.112.210,4,9,clobetovate.com,US,Americas,Northern America,United States of America,Arizona,,Glendale
45.137.159.179,4,5,coconamor.com.mx,US,Americas,Northern America,United States of America,Arizona,,Phoenix
68.177.195.84,4,2,coconino.edu,US,Americas,Northern America,United States of America,Arizona,,Flagstaff
89.117.8.80,4,18,codeskdhaka.com,US,Americas,Northern America,United States of America,Arizona,,Phoenix
108.170.44.75,4,8,cogatw.com,US,Americas,Northern America,United States of America,Arizona,,Phoenix
205.220.231.4,4,13,coinpayments.net,US,Americas,Northern America,United States of America,Arizona,,Phoenix
185.212.70.186,4,2,coldpoint.ca,US,Americas,Northern America,United States of America,Arizona,,Phoenix
106.0.62.104,4,-2,coloradofreemasons.org,US,Americas,Northern America,United States of America,Arizona,,Phoenix
208.94.116.169,4,-13,colorpowered.com,US,Americas,Northern America,United States of America,Arizona,,Phoenix
156.67.75.84,4,3,columbiaallergy.com,US,Americas,Northern America,United States of America,Arizona,,Phoenix
82.180.170.62,4,6,comic-cons.xyz,US,Americas,Northern America,United States of America,Arizona,,Phoenix
148.163.69.194,4,19,compralikes.net,US,Americas,Northern America,United States of America,Arizona,,Phoenix
82.180.137.55,4,66,compsmag.com,US,Americas,Northern America,United States of America,Arizona,,Phoenix
206.80.96.166,4,44,concernedwomen.org,US,Americas,Northern America,United States of America,Arizona,,Tucson
195.179.237.24,4,8,confort.com.bo,US,Americas,Northern America,United States of America,Arizona,,Phoenix
89.116.192.91,4,4,congdongvc.com,US,Americas,Northern America,United States of America,Arizona,,Phoenix
82.180.175.194,4,7,constructionhow.com,US,Americas,Northern America,United States of America,Arizona,,Phoenix
185.162.54.142,4,43,content4blogs.online,US,Americas,Northern America,United States of America,Arizona,,Phoenix
156.67.74.254,4,23,contiendas.com,US,Americas,Northern America,United States of America,Arizona,,Phoenix
154.56.47.40,4,16,contmuro.com,US,Americas,Northern America,United States of America,Arizona,,Phoenix
198.143.186.147,4,35,contracts-for-difference.com,US,Americas,Northern America,United States of America,Arizona,,Phoenix
217.21.76.126,4,30,coralmetalcrafts.com,US,Americas,Northern America,United States of America,Arizona,,Phoenix
191.101.14.206,4,2,coreftp.com,US,Americas,Northern America,United States of America,Arizona,,Phoenix
89.116.190.17,4,7,costoffliving.com,US,Americas,Northern America,United States of America,Arizona,,Phoenix
62.72.6.130,4,4,cotizacion-dolar.com.ar,US,Americas,Northern America,United States of America,Arizona,,Phoenix
45.86.209.58,4,0,couchcms.com,US,Americas,Northern America,United States of America,Arizona,,Phoenix
217.196.54.37,4,4,countingtools.com,US,Americas,Northern America,United States of America,Arizona,,Phoenix
66.85.135.202,4,18,couponrxsms.com,US,Americas,Northern America,United States of America,Arizona,,Phoenix
107.158.113.215,4,6,cqjiale.com,US,Americas,Northern America,United States of America,Arizona,,Glendale
107.158.9.103,4,6,craftgiftproduct.com,US,Americas,Northern America,United States of America,Arizona,,Glendale
194.163.46.162,4,13,creamnation.com,US,Americas,Northern America,United States of America,Arizona,,Phoenix
156.67.66.87,4,34,crispcollective.org,US,Americas,Northern America,United States of America,Arizona,,Phoenix
195.35.34.231,4,129,crowdytheme.com,US,Americas,Northern America,United States of America,Arizona,,Phoenix
193.203.179.241,4,5,csb-battery.com,US,Americas,Northern America,United States of America,Arizona,,Phoenix
62.72.49.216,4,10,cuevana33.com,US,Americas,Northern America,United States of America,Arizona,,Phoenix
86.38.202.98,4,27,curiosbettysa.com,US,Americas,Northern America,United States of America,Arizona,,Phoenix
62.72.54.95,4,5,cvgcares.com,US,Americas,Northern America,United States of America,Arizona,,Phoenix
184.95.37.21,4,10,cyberitalian.com,US,Americas,Northern America,United States of America,Arizona,,Phoenix
195.35.39.254,4,35,cybersguards.com,US,Americas,Northern America,United States of America,Arizona,,Phoenix
156.67.68.63,4,4,cycospray.com,US,Americas,Northern America,United States of America,Arizona,,Phoenix
156.67.73.118,4,78,dageek247.com,US,Americas,Northern America,United States of America,Arizona,,Phoenix
209.188.21.113,4,6,dailysunny.com,US,Americas,Northern America,United States of America,Arizona,,Phoenix
208.94.116.76,4,-7,dampfkraft.com,US,Americas,Northern America,United States of America,Arizona,,Phoenix
31.220.107.103,4,125,danbammassage.com,US,Americas,Northern America,United States of America,Arizona,,Phoenix
66.85.141.130,4,3,davistownmuseum.org,US,Americas,Northern America,United States of America,Arizona,,Phoenix
82.180.138.220,4,7,dbtselfhelp.com,US,Americas,Northern America,United States of America,Arizona,,Phoenix
208.94.117.210,4,0,debacle.us,US,Americas,Northern America,United States of America,Arizona,,Phoenix
148.163.69.168,4,549,debate.org.uk,US,Americas,Northern America,United States of America,Arizona,,Phoenix
208.94.117.207,4,-13,debsfoundation.org,US,Americas,Northern America,United States of America,Arizona,,Phoenix
69.164.56.128,4,30,delvenetworks.com,US,Americas,Northern America,United States of America,Arizona,,Phoenix
69.164.56.0,4,24,delvenetworks.com,US,Americas,Northern America,United States of America,Arizona,,Phoenix
108.170.56.101,4,0,denguefevermusic.com,US,Americas,Northern America,United States of America,Arizona,,Phoenix
216.17.103.19,4,10,deposits.org,US,Americas,Northern America,United States of America,Arizona,,Tempe
148.163.98.178,4,4,deppimpact.com,US,Americas,Northern America,United States of America,Arizona,,Phoenix
77.37.57.102,4,3,derechos.org.ve,US,Americas,Northern America,United States of America,Arizona,,Phoenix
62.72.6.214,4,7,descriptivewords.org,US,Americas,Northern America,United States of America,Arizona,,Phoenix
208.94.117.192,4,-13,designmeltdown.com,US,Americas,Northern America,United States of America,Arizona,,Phoenix
217.21.76.242,4,18,designova.net,US,Americas,Northern America,United States of America,Arizona,,Phoenix
195.35.33.196,4,38,designrfix.com,US,Americas,Northern America,United States of America,Arizona,,Phoenix
156.67.72.227,4,40,deusboxing.com,US,Americas,Northern America,United States of America,Arizona,,Phoenix
89.116.192.111,4,13,devcrud.com,US,Americas,Northern America,United States of America,Arizona,,Phoenix
217.196.54.90,4,4,developer.com,US,Americas,Northern America,United States of America,Arizona,,Phoenix
154.56.47.233,4,44,developphp.com,US,Americas,Northern America,United States of America,Arizona,,Phoenix
82.180.138.171,4,43,digihood.agency,US,Americas,Northern America,United States of America,Arizona,,Phoenix
89.117.9.150,4,20,digitaltrendsreport.com,US,Americas,Northern America,United States of America,Arizona,,Phoenix
23.83.130.99,4,11,ditchnet.org,US,Americas,Northern America,United States of America,Arizona,,Phoenix
147.79.121.77,4,0,divi-professional.com,US,Americas,Northern America,United States of America,Arizona,,Phoenix
195.35.15.109,4,5,dmarket360.com,US,Americas,Northern America,United States of America,Arizona,,Phoenix
85.31.224.130,4,3,dnpindia.in,US,Americas,Northern America,United States of America,Arizona,,Phoenix
67.206.161.69,4,73474,DNS Server: 175.206.67.firstdigital.com,US,Americas,Northern America,United States of America,Arizona,,Tucson
204.9.211.135,4,33,DNS Server: 204-9-211-135-CustomerCPE.hayden.coppernet.net,US,Americas,Northern America,United States of America,Arizona,,Kearny
204.9.214.118,4,10,DNS Server: 204-9-214-118-CustomerCPE.superior.coppernet.net,US,Americas,Northern America,United States of America,Arizona,,Superior
204.9.215.185,4,22,DNS Server: 204-9-215-185-CustomerCPE.kearny.coppernet.net,US,Americas,Northern America,United States of America,Arizona,,Kearny
75.167.167.204,4,15,DNS Server: 75-167-167-204.phnx.qwest.net,US,Americas,Northern America,United States of America,Arizona,,Mesa
89.117.139.123,4,32,dogmal.com,US,Americas,Northern America,United States of America,Arizona,,Phoenix
89.116.192.18,4,15,dogscatspets.org,US,Americas,Northern America,United States of America,Arizona,,Phoenix
45.137.159.78,4,69,domesticanimalbreeds.com,US,Americas,Northern America,United States of America,Arizona,,Phoenix
208.94.116.30,4,-13,donutcounty.com,US,Americas,Northern America,United States of America,Arizona,,Phoenix
208.94.116.99,4,-13,dood.al,US,Americas,Northern America,United States of America,Arizona,,Phoenix
194.195.84.177,4,4,doug-long.com,US,Americas,Northern America,United States of America,Arizona,,Phoenix
45.145.187.26,4,5,dplaser.com,US,Americas,Northern America,United States of America,Arizona,,Phoenix
198.15.106.227,4,8,dranoopkumarjaiswal.com,US,Americas,Northern America,United States of America,Arizona,,Phoenix
156.67.75.38,4,40,dreadxp.com,US,Americas,Northern America,United States of America,Arizona,,Phoenix
209.50.50.129,4,29,dreamcastlive.net,US,Americas,Northern America,United States of America,Arizona,,Phoenix
77.37.58.92,4,3,dreamcivil.com,US,Americas,Northern America,United States of America,Arizona,,Phoenix
147.79.124.4,4,3,dreamcrewstudios.com,US,Americas,Northern America,United States of America,Arizona,,Phoenix
89.116.192.53,4,6,dripbook.com,US,Americas,Northern America,United States of America,Arizona,,Phoenix
107.178.98.165,4,5,driverlayer.com,US,Americas,Northern America,United States of America,Arizona,,Phoenix
191.96.244.232,4,11,drkathyveon.com,US,Americas,Northern America,United States of America,Arizona,,Phoenix
82.180.174.214,4,6,dropyourgloves.com,US,Americas,Northern America,United States of America,Arizona,,Phoenix
191.96.56.241,4,3,dubaidesertsafari.com,US,Americas,Northern America,United States of America,Arizona,,Phoenix
192.110.161.58,4,119486,dumbingofage.com,US,Americas,Northern America,United States of America,Arizona,,Phoenix
208.94.117.188,4,14,dumptheguardian.com,US,Americas,Northern America,United States of America,Arizona,,Phoenix
23.83.130.101,4,3,dvdrw.com,US,Americas,Northern America,United States of America,Arizona,,Phoenix
62.72.55.176,4,5,dvntd8.com,US,Americas,Northern America,United States of America,Arizona,,Phoenix
192.110.161.90,4,1,e-crimea.info,US,Americas,Northern America,United States of America,Arizona,,Phoenix
82.180.132.1,4,13,earabiclearning.com,US,Americas,Northern America,United States of America,Arizona,,Phoenix
89.117.9.109,4,4,earthsite.org,US,Americas,Northern America,United States of America,Arizona,,Phoenix
156.67.64.81,4,8,easyworldofenglish.com,US,Americas,Northern America,United States of America,Arizona,,Phoenix
23.83.130.103,4,40,ebox-platform.com,US,Americas,Northern America,United States of America,Arizona,,Phoenix
86.38.202.225,4,25,ebsu.edu.ng,US,Americas,Northern America,United States of America,Arizona,,Phoenix
144.24.28.37,4,7,ecbaproject.eu,US,Americas,Northern America,United States of America,Arizona,,Phoenix
156.67.73.208,4,4,eclipse2024.org,US,Americas,Northern America,United States of America,Arizona,,Phoenix
89.117.139.93,4,70,ecofriendlyair.com,US,Americas,Northern America,United States of America,Arizona,,Phoenix
195.179.236.196,4,4,ecomindiasummit.com,US,Americas,Northern America,United States of America,Arizona,,Phoenix
107.158.70.76,4,75,edpillsfast.com,US,Americas,Northern America,United States of America,Arizona,,Glendale
62.72.55.164,4,8,educationalwave.com,US,Americas,Northern America,United States of America,Arizona,,Phoenix
195.179.237.147,4,4,eetex.gr,US,Americas,Northern America,United States of America,Arizona,,Phoenix
89.116.239.64,4,54,ekkomediainc.com,US,Americas,Northern America,United States of America,Arizona,,Phoenix
45.145.186.177,4,67,electricaltechnology.org,US,Americas,Northern America,United States of America,Arizona,,Phoenix
156.67.73.67,4,14,electronicstalk.com,US,Americas,Northern America,United States of America,Arizona,,Phoenix
89.116.192.156,4,78,eliteduhk.com,US,Americas,Northern America,United States of America,Arizona,,Phoenix
156.67.73.3,4,75,elvispelvis.com,US,Americas,Northern America,United States of America,Arizona,,Phoenix
194.195.84.96,4,4,emailregex.com,US,Americas,Northern America,United States of America,Arizona,,Phoenix
156.67.73.131,4,5,empressvacationrentals.com,US,Americas,Northern America,United States of America,Arizona,,Phoenix
191.96.244.84,4,9,encosia.com,US,Americas,Northern America,United States of America,Arizona,,Phoenix
192.30.139.35,4,7992,endpoverty2015.org,US,Americas,Northern America,United States of America,Arizona,,Phoenix
66.85.158.91,4,23,epid.gov.lk,US,Americas,Northern America,United States of America,Arizona,,Phoenix
185.212.70.155,4,5,eritreaall.com,US,Americas,Northern America,United States of America,Arizona,,Phoenix
86.38.202.49,4,30,esbconsult.com,US,Americas,Northern America,United States of America,Arizona,,Phoenix
82.180.170.73,4,6,eslvault.com,US,Americas,Northern America,United States of America,Arizona,,Phoenix
147.79.122.7,4,26,esoftskills.com,US,Americas,Northern America,United States of America,Arizona,,Phoenix
82.180.174.206,4,62,espanol.com,US,Americas,Northern America,United States of America,Arizona,,Phoenix
208.94.117.115,4,-14,esper.net,US,Americas,Northern America,United States of America,Arizona,,Phoenix
195.179.237.209,4,72,ethereal-ps.com,US,Americas,Northern America,United States of America,Arizona,,Phoenix
198.15.105.58,4,10,etherpad-mozilla.org,US,Americas,Northern America,United States of America,Arizona,,Phoenix
195.35.15.135,4,41,ethnotrot.com,US,Americas,Northern America,United States of America,Arizona,,Phoenix
217.196.54.44,4,9,etodolacs.com,US,Americas,Northern America,United States of America,Arizona,,Phoenix
108.170.59.170,4,1025,europeansafelist.com,US,Americas,Northern America,United States of America,Arizona,,Phoenix
208.94.116.116,4,55,exok.com,US,Americas,Northern America,United States of America,Arizona,,Phoenix
147.79.123.182,4,6,expert-themes.com,US,Americas,Northern America,United States of America,Arizona,,Phoenix
195.35.39.153,4,4,expertcivil.com,US,Americas,Northern America,United States of America,Arizona,,Phoenix
191.101.79.39,4,4,extratimeco.com,US,Americas,Northern America,United States of America,Arizona,,Phoenix
195.35.39.78,4,8,fam2fam.com,US,Americas,Northern America,United States of America,Arizona,,Phoenix
195.35.10.159,4,40,familiamanassero.com.ar,US,Americas,Northern America,United States of America,Arizona,,Phoenix
170.130.238.67,4,59892,famoticid.com,US,Americas,Northern America,United States of America,Arizona,,Phoenix
191.96.56.133,4,7,fantasporto.com,US,Americas,Northern America,United States of America,Arizona,,Phoenix
108.170.44.115,4,8,fashionmakefashion.com,US,Americas,Northern America,United States of America,Arizona,,Phoenix
45.137.159.35,4,12,fastfoodcalories.com,US,Americas,Northern America,United States of America,Arizona,,Phoenix
195.35.15.122,4,35,fastlinkmasstransit.com,US,Americas,Northern America,United States of America,Arizona,,Phoenix
195.35.39.10,4,10,femtechinsider.com,US,Americas,Northern America,United States of America,Arizona,,Phoenix
208.94.116.79,4,-13,ferd.ca,US,Americas,Northern America,United States of America,Arizona,,Phoenix
107.167.80.130,4,64,fifarosters.com,US,Americas,Northern America,United States of America,Arizona,,Phoenix
82.180.138.215,4,5,fildenai.com,US,Americas,Northern America,United States of America,Arizona,,Phoenix
108.170.16.98,4,15,fileshost.com,US,Americas,Northern America,United States of America,Arizona,,Phoenix
108.170.60.51,4,20,findukhosting.com,US,Americas,Northern America,United States of America,Arizona,,Phoenix
23.83.130.94,4,30,finepix-x100.com,US,Americas,Northern America,United States of America,Arizona,,Phoenix
108.170.27.202,4,-934,firsthorsevetcare.com,US,Americas,Northern America,United States of America,Arizona,,Phoenix
217.196.55.87,4,10,fitneass.com,US,Americas,Northern America,United States of America,Arizona,,Phoenix
185.212.70.126,4,-14,fittravelling.com,US,Americas,Northern America,United States of America,Arizona,,Phoenix
208.94.117.61,4,-12,fivefilters.org,US,Americas,Northern America,United States of America,Arizona,,Phoenix
23.83.129.3,4,-20,flagstaff.com,US,Americas,Northern America,United States of America,Arizona,,Phoenix
185.212.70.17,4,3,flashoffroad.com,US,Americas,Northern America,United States of America,Arizona,,Phoenix
208.94.117.69,4,-9,fletcherpenney.net,US,Americas,Northern America,United States of America,Arizona,,Phoenix
185.162.52.149,4,4,flyseair.com,US,Americas,Northern America,United States of America,Arizona,,Phoenix
192.110.161.107,4,7,follettice.com,US,Americas,Northern America,United States of America,Arizona,,Phoenix
217.21.78.26,4,6,follower.co,US,Americas,Northern America,United States of America,Arizona,,Phoenix
82.180.174.159,4,16,followyourdetour.com,US,Americas,Northern America,United States of America,Arizona,,Phoenix
107.189.188.130,4,12,footballeaglesofficials.com,US,Americas,Northern America,United States of America,Arizona,,Phoenix
89.116.192.64,4,22,footslopestours.com,US,Americas,Northern America,United States of America,Arizona,,Phoenix
82.180.171.57,4,4,forcan.com,US,Americas,Northern America,United States of America,Arizona,,Phoenix
209.50.48.239,4,27,fordhamram.com,US,Americas,Northern America,United States of America,Arizona,,Phoenix
62.72.26.17,4,4,fortunetelleroracle.com,US,Americas,Northern America,United States of America,Arizona,,Phoenix
89.117.9.138,4,11,fox3000.com,US,Americas,Northern America,United States of America,Arizona,,Phoenix
89.116.192.134,4,58,freakyjolly.com,US,Americas,Northern America,United States of America,Arizona,,Phoenix
108.170.16.99,4,8,freebdsmstories.biz,US,Americas,Northern America,United States of America,Arizona,,Phoenix
217.196.55.176,4,20,freelanmatch.com,US,Americas,Northern America,United States of America,Arizona,,Phoenix
156.67.75.139,4,3,freetutorialonline.com,US,Americas,Northern America,United States of America,Arizona,,Phoenix
82.180.174.121,4,4,friedcoffee.com,US,Americas,Northern America,United States of America,Arizona,,Phoenix
89.117.9.20,4,7,friends-tv.org,US,Americas,Northern America,United States of America,Arizona,,Phoenix
191.96.56.32,4,6,friendstrs.com,US,Americas,Northern America,United States of America,Arizona,,Phoenix
82.180.174.216,4,15,fromdev.com,US,Americas,Northern America,United States of America,Arizona,,Phoenix
148.163.93.114,4,13,frostillustrated.com,US,Americas,Northern America,United States of America,Arizona,,Phoenix
193.46.198.77,4,6,fruitsinfo.com,US,Americas,Northern America,United States of America,Arizona,,Phoenix
154.56.47.195,4,4,frydcarts.net,US,Americas,Northern America,United States of America,Arizona,,Phoenix
195.35.39.102,4,4,frydflavors.com,US,Americas,Northern America,United States of America,Arizona,,Phoenix
107.189.168.130,4,8,fun888thai.me,US,Americas,Northern America,United States of America,Arizona,,Phoenix
89.117.139.96,4,4,fusionbrandexperiences.com,US,Americas,Northern America,United States of America,Arizona,,Phoenix
86.38.202.146,4,7,fwstc.in,US,Americas,Northern America,United States of America,Arizona,,Phoenix
86.38.202.102,4,5,g-blog.net,US,Americas,Northern America,United States of America,Arizona,,Phoenix
82.180.172.195,4,4,galaxyindialogistics.com,US,Americas,Northern America,United States of America,Arizona,,Phoenix
82.180.138.242,4,3,game-revolution.com,US,Americas,Northern America,United States of America,Arizona,,Phoenix
77.37.67.157,4,14,gamedoc.org,US,Americas,Northern America,United States of America,Arizona,,Phoenix
198.15.101.2,4,21,gameonline.jp,US,Americas,Northern America,United States of America,Arizona,,Phoenix
195.35.33.136,4,5,gammawavegames.com,US,Americas,Northern America,United States of America,Arizona,,Phoenix
185.212.70.113,4,-3,garagebible.com,US,Americas,Northern America,United States of America,Arizona,,Phoenix
45.137.159.195,4,5,gdln.org,US,Americas,Northern America,United States of America,Arizona,,Phoenix
195.35.39.66,4,5,geekermag.com,US,Americas,Northern America,United States of America,Arizona,,Phoenix
195.179.236.149,4,10,genericaura.com,US,Americas,Northern America,United States of America,Arizona,,Phoenix
195.35.15.13,4,51,geniusbalance.com,US,Americas,Northern America,United States of America,Arizona,,Phoenix
195.179.237.214,4,24,geniuzmedia.com,US,Americas,Northern America,United States of America,Arizona,,Phoenix
217.21.66.125,4,37,genus.ai,US,Americas,Northern America,United States of America,Arizona,,Phoenix
156.67.78.188,4,18,genwords.com,US,Americas,Northern America,United States of America,Arizona,,Phoenix
191.101.79.33,4,9,geomidpoint.com,US,Americas,Northern America,United States of America,Arizona,,Phoenix
82.180.174.80,4,84,geonewsflare.com,US,Americas,Northern America,United States of America,Arizona,,Phoenix
38.145.60.20,4,0,getfedora.org,US,Americas,Northern America,United States of America,Arizona,,Chandler
38.145.60.21,4,1,getfedora.org,US,Americas,Northern America,United States of America,Arizona,,Chandler
217.196.55.16,4,6,getshortcodes.com,US,Americas,Northern America,United States of America,Arizona,,Phoenix
62.72.50.159,4,3,gfma.org,US,Americas,Northern America,United States of America,Arizona,,Phoenix
194.195.84.159,4,10,ghame.org,US,Americas,Northern America,United States of America,Arizona,,Phoenix
156.67.79.165,4,4,gimpshop.com,US,Americas,Northern America,United States of America,Arizona,,Phoenix
45.137.159.149,4,60,gizzmo.ai,US,Americas,Northern America,United States of America,Arizona,,Phoenix
170.130.238.80,4,59893,glimepryl.com,US,Americas,Northern America,United States of America,Arizona,,Phoenix
154.56.47.41,4,6,globalfreedommovement.org,US,Americas,Northern America,United States of America,Arizona,,Phoenix
82.180.174.104,4,8,globalfreetalk.com,US,Americas,Northern America,United States of America,Arizona,,Phoenix
148.163.74.66,4,6,globusz.com,US,Americas,Northern America,United States of America,Arizona,,Phoenix
82.180.138.26,4,5,gloriumtech.com,US,Americas,Northern America,United States of America,Arizona,,Phoenix
195.35.33.84,4,4,glowmagzine.com,US,Americas,Northern America,United States of America,Arizona,,Phoenix
62.72.0.124,4,3,gobookmart.com,US,Americas,Northern America,United States of America,Arizona,,Phoenix
89.117.139.57,4,7,goingfaster.com,US,Americas,Northern America,United States of America,Arizona,,Phoenix
107.178.106.146,4,-2,goodhealthall.com,US,Americas,Northern America,United States of America,Arizona,,Phoenix
89.117.9.202,4,10,goodmorning-love.com,US,Americas,Northern America,United States of America,Arizona,,Phoenix
162.213.210.99,4,6,googlified.com,US,Americas,Northern America,United States of America,Arizona,,Phoenix
191.96.56.185,4,3,gossip-themes.com,US,Americas,Northern America,United States of America,Arizona,,Phoenix
192.155.100.183,4,19,gotestprep.com,US,Americas,Northern America,United States of America,Arizona,,Phoenix
82.180.172.204,4,5,grammarvocab.com,US,Americas,Northern America,United States of America,Arizona,,Phoenix
86.38.202.129,4,5,graphicmail.com,US,Americas,Northern America,United States of America,Arizona,,Phoenix
154.56.47.32,4,35,greatfence.com,US,Americas,Northern America,United States of America,Arizona,,Phoenix
77.37.58.226,4,21,greatgroupgames.com,US,Americas,Northern America,United States of America,Arizona,,Phoenix
156.67.78.72,4,34,greenfleets.org,US,Americas,Northern America,United States of America,Arizona,,Phoenix
89.116.192.140,4,31,greenleaguepharmacy.com,US,Americas,Northern America,United States of America,Arizona,,Phoenix
147.79.123.210,4,5,greenmagichomes.com,US,Americas,Northern America,United States of America,Arizona,,Phoenix
217.196.54.99,4,8,gregegan.net,US,Americas,Northern America,United States of America,Arizona,,Phoenix
195.35.33.145,4,41,gromada.com,US,Americas,Northern America,United States of America,Arizona,,Phoenix
154.56.47.88,4,31,grubamericana.com,US,Americas,Northern America,United States of America,Arizona,,Phoenix
195.35.38.164,4,43,grupomercadeo.com,US,Americas,Northern America,United States of America,Arizona,,Phoenix
108.170.11.43,4,0,gthospital.org,US,Americas,Northern America,United States of America,Arizona,,Phoenix
185.162.55.204,4,6,gudstory.com,US,Americas,Northern America,United States of America,Arizona,,Phoenix
217.196.54.191,4,12,guiafacillagos.com.br,US,Americas,Northern America,United States of America,Arizona,,Phoenix
82.180.175.120,4,5,guidemefashion.com,US,Americas,Northern America,United States of America,Arizona,,Phoenix
82.197.91.181,4,13,gumilla.org,US,Americas,Northern America,United States of America,Arizona,,Phoenix
185.214.132.35,4,4,gve-group.com,US,Americas,Northern America,United States of America,Arizona,,Phoenix
89.117.9.5,4,3,gyanunlimited.com,US,Americas,Northern America,United States of America,Arizona,,Phoenix
195.35.39.131,4,3,gyrogear.co,US,Americas,Northern America,United States of America,Arizona,,Phoenix
89.116.190.13,4,13,habitatsa.org,US,Americas,Northern America,United States of America,Arizona,,Phoenix
156.67.64.186,4,4,hablamosdegamers.com,US,Americas,Northern America,United States of America,Arizona,,Phoenix
208.94.116.63,4,-14,halfbakery.com,US,Americas,Northern America,United States of America,Arizona,,Phoenix
89.116.49.179,4,7,handtocad.com,US,Americas,Northern America,United States of America,Arizona,,Phoenix
89.117.9.26,4,3,happyassassin.net,US,Americas,Northern America,United States of America,Arizona,,Phoenix
38.29.223.177,4,-1,happyyouhappyfamily.com,US,Americas,Northern America,United States of America,Arizona,,Phoenix
38.29.223.117,4,-1,happyyouhappyfamily.com,US,Americas,Northern America,United States of America,Arizona,,Phoenix
217.196.55.15,4,4,hardwooddeal.com,US,Americas,Northern America,United States of America,Arizona,,Phoenix
190.92.151.158,4,-7,havasudoug.com,US,Americas,Northern America,United States of America,Arizona,,
156.67.72.69,4,3,hazard.se,US,Americas,Northern America,United States of America,Arizona,,Phoenix
62.72.50.82,4,3,hbinpol.cz,US,Americas,Northern America,United States of America,Arizona,,Phoenix
217.196.54.214,4,16,healthforanimals.org,US,Americas,Northern America,United States of America,Arizona,,Phoenix
204.17.34.68,4,-13,healthjobsnationwide.com,US,Americas,Northern America,United States of America,Arizona,,Tucson
217.21.76.133,4,3,healthnewsmart24x7.com,US,Americas,Northern America,United States of America,Arizona,,Phoenix
82.180.172.59,4,21,healthychild.net,US,Americas,Northern America,United States of America,Arizona,,Phoenix
62.72.50.195,4,3,hearinglosshelp.com,US,Americas,Northern America,United States of America,Arizona,,Phoenix
64.6.100.58,4,6,hebeiltd.com.cn,US,Americas,Northern America,United States of America,Arizona,,Tempe
148.163.67.170,4,3,heidistjohn.com,US,Americas,Northern America,United States of America,Arizona,,Phoenix
191.96.56.4,4,5,helloshetkari.com,US,Americas,Northern America,United States of America,Arizona,,Phoenix
77.37.93.157,4,11,hempgazette.com,US,Americas,Northern America,United States of America,Arizona,,Phoenix
86.38.202.234,4,5,herbastat.com,US,Americas,Northern America,United States of America,Arizona,,Phoenix
191.96.56.7,4,6,hermesonsale.com,US,Americas,Northern America,United States of America,Arizona,,Phoenix
195.35.33.1,4,3,heroinandpillsstore.com,US,Americas,Northern America,United States of America,Arizona,,Phoenix
195.35.39.243,4,13,hight3ch.com,US,Americas,Northern America,United States of America,Arizona,,Phoenix
209.50.62.52,4,6,hillsidememorial.org,US,Americas,Northern America,United States of America,Arizona,,Phoenix
208.94.117.193,4,-8,hipsterbusiness.name,US,Americas,Northern America,United States of America,Arizona,,Phoenix
217.196.54.100,4,12,hirakbook.com,US,Americas,Northern America,United States of America,Arizona,,Phoenix
82.197.95.78,4,33,history-biography.com,US,Americas,Northern America,United States of America,Arizona,,Phoenix
194.195.84.19,4,4,hitprotv.com,US,Americas,Northern America,United States of America,Arizona,,Phoenix
193.203.179.124,4,4,hiwin.com,US,Americas,Northern America,United States of America,Arizona,,Phoenix
89.117.8.106,4,9,hollyroser.com,US,Americas,Northern America,United States of America,Arizona,,Phoenix
156.67.72.193,4,7,hollywoodrag.com,US,Americas,Northern America,United States of America,Arizona,,Phoenix
89.117.139.122,4,24,homeofreptiles.com,US,Americas,Northern America,United States of America,Arizona,,Phoenix
194.195.84.114,4,5,hoopa-nsn.gov,US,Americas,Northern America,United States of America,Arizona,,Phoenix
89.116.192.170,4,26,hopeformoney.com,US,Americas,Northern America,United States of America,Arizona,,Phoenix
154.56.47.75,4,20,horoscopefan.com,US,Americas,Northern America,United States of America,Arizona,,Phoenix
217.196.55.136,4,15,horrorlodge.com,US,Americas,Northern America,United States of America,Arizona,,Phoenix
191.96.56.168,4,16,hotelcasasanagustin.com,US,Americas,Northern America,United States of America,Arizona,,Phoenix
82.180.174.209,4,33,hotinsocialmedia.com,US,Americas,Northern America,United States of America,Arizona,,Phoenix
185.212.70.13,4,101,houseintegrals.com,US,Americas,Northern America,United States of America,Arizona,,Phoenix
77.37.114.4,4,6,houseplant411.com,US,Americas,Northern America,United States of America,Arizona,,Phoenix
191.96.56.98,4,8,howto-cancel.com,US,Americas,Northern America,United States of America,Arizona,,Phoenix
147.79.123.60,4,3,howto-connect.com,US,Americas,Northern America,United States of America,Arizona,,Phoenix
66.85.137.178,4,4,howtohealthyeating.com,US,Americas,Northern America,United States of America,Arizona,,Phoenix
217.196.54.48,4,6,hrts.com.mx,US,Americas,Northern America,United States of America,Arizona,,Phoenix
156.67.76.17,4,4,hsfootballhub.com,US,Americas,Northern America,United States of America,Arizona,,Phoenix
82.180.172.206,4,7,htownews.com,US,Americas,Northern America,United States of America,Arizona,,Phoenix
191.96.56.239,4,3,hu.edu.pk,US,Americas,Northern America,United States of America,Arizona,,Phoenix
195.35.33.56,4,4,huafupower.com,US,Americas,Northern America,United States of America,Arizona,,Phoenix
156.67.75.167,4,14,humble-homes.com,US,Americas,Northern America,United States of America,Arizona,,Phoenix
148.163.73.238,4,2,humoncomics.com,US,Americas,Northern America,United States of America,Arizona,,Phoenix
148.163.100.133,4,5962,humwaten.pk,US,Americas,Northern America,United States of America,Arizona,,Phoenix
89.117.9.140,4,7,huntersammoshop.com,US,Americas,Northern America,United States of America,Arizona,,Phoenix
209.50.55.169,4,2,hypervibe.com,US,Americas,Northern America,United States of America,Arizona,,Phoenix
66.85.160.106,4,2,i-autoresponder.com,US,Americas,Northern America,United States of America,Arizona,,Phoenix
89.116.192.99,4,10,ibommanews.com,US,Americas,Northern America,United States of America,Arizona,,Phoenix
156.67.69.144,4,4,icecreamnstickyfingers.com,US,Americas,Northern America,United States of America,Arizona,,Phoenix
191.96.244.96,4,31,icl.coop,US,Americas,Northern America,United States of America,Arizona,,Phoenix
156.67.68.26,4,13,ictdigital.com,US,Americas,Northern America,United States of America,Arizona,,Phoenix
89.116.192.217,4,3,idproperti.com,US,Americas,Northern America,United States of America,Arizona,,Phoenix
156.67.73.175,4,4,idstch.com,US,Americas,Northern America,United States of America,Arizona,,Phoenix
82.197.90.97,4,3,ifiyeradio.com,US,Americas,Northern America,United States of America,Arizona,,Phoenix
86.38.202.3,4,5,ifuturz.com,US,Americas,Northern America,United States of America,Arizona,,Phoenix
209.188.7.209,4,2,igwe.ca,US,Americas,Northern America,United States of America,Arizona,,Phoenix
66.85.162.203,4,4,ijcps.com,US,Americas,Northern America,United States of America,Arizona,,Phoenix
62.72.50.137,4,10,ilam.org,US,Americas,Northern America,United States of America,Arizona,,Phoenix
195.35.8.149,4,49,imagecraft.com,US,Americas,Northern America,United States of America,Arizona,,Phoenix
208.94.117.58,4,-3,imars.com,US,Americas,Northern America,United States of America,Arizona,,Phoenix
206.27.173.10,4,3,imemories.com,US,Americas,Northern America,United States of America,Arizona,,Mesa
129.153.113.21,4,2,imgtu.com,US,Americas,Northern America,United States of America,Arizona,,Phoenix
154.56.47.20,4,24,immigrationassistantnow.com,US,Americas,Northern America,United States of America,Arizona,,Phoenix
194.195.84.128,4,6,improvehomeusa.com,US,Americas,Northern America,United States of America,Arizona,,Phoenix
208.94.116.31,4,30,increpare.com,US,Americas,Northern America,United States of America,Arizona,,Phoenix
66.85.147.107,4,4,indianbarassociation.in,US,Americas,Northern America,United States of America,Arizona,,Phoenix
174.138.172.98,4,2,indonesia-tourism.com,US,Americas,Northern America,United States of America,Arizona,,Phoenix
195.35.33.115,4,3,infiknit.com,US,Americas,Northern America,United States of America,Arizona,,Phoenix
193.203.164.183,4,25,infinitewave.ca,US,Americas,Northern America,United States of America,Arizona,,Phoenix
170.130.153.28,4,-53124,infoslobber.com,US,Americas,Northern America,United States of America,Arizona,,Phoenix
62.72.50.42,4,24,ingeconvirtual.com,US,Americas,Northern America,United States of America,Arizona,,Phoenix
148.163.80.181,4,3,inktera.com,US,Americas,Northern America,United States of America,Arizona,,Phoenix
185.214.133.67,4,4,innovation-cities.com,US,Americas,Northern America,United States of America,Arizona,,Phoenix
77.37.56.116,4,5,innovationmanagement.se,US,Americas,Northern America,United States of America,Arizona,,Phoenix
185.162.55.89,4,34,innovativepest.sg,US,Americas,Northern America,United States of America,Arizona,,Phoenix
107.178.98.216,4,3,innspub.net,US,Americas,Northern America,United States of America,Arizona,,Phoenix
46.28.42.147,4,8,inreviewonline.com,US,Americas,Northern America,United States of America,Arizona,,Phoenix
195.35.15.215,4,45,inrng.com,US,Americas,Northern America,United States of America,Arizona,,Phoenix
193.203.177.169,4,4,insightscare.com,US,Americas,Northern America,United States of America,Arizona,,Phoenix
185.212.71.123,4,5,insightssuccess.com,US,Americas,Northern America,United States of America,Arizona,,Phoenix
185.162.54.52,4,7,insightssuccess.in,US,Americas,Northern America,United States of America,Arizona,,Phoenix
45.137.159.196,4,4,intechor.com,US,Americas,Northern America,United States of America,Arizona,,Phoenix
217.196.55.143,4,7,intrel.eu,US,Americas,Northern America,United States of America,Arizona,,Phoenix
216.17.104.79,4,7,intunegp.com,US,Americas,Northern America,United States of America,Arizona,,Tempe
191.101.79.170,4,5,inventcolabssoftware.com,US,Americas,Northern America,United States of America,Arizona,,Phoenix
154.41.229.99,4,4,invest-gate.me,US,Americas,Northern America,United States of America,Arizona,,Phoenix
156.67.64.137,4,36,investmentbank.com,US,Americas,Northern America,United States of America,Arizona,,Phoenix
184.164.91.226,4,26,inzonetrading.com,US,Americas,Northern America,United States of America,Arizona,,Phoenix
156.67.76.179,4,4,iobm.edu.pk,US,Americas,Northern America,United States of America,Arizona,,Phoenix
82.180.175.234,4,31,ioimprov.com,US,Americas,Northern America,United States of America,Arizona,,Phoenix
208.94.117.55,4,45,iolanguage.com,US,Americas,Northern America,United States of America,Arizona,,Phoenix
195.179.237.36,4,6,iraqfoundation.org,US,Americas,Northern America,United States of America,Arizona,,Phoenix
190.92.150.49,4,0,ircache.net,US,Americas,Northern America,United States of America,Arizona,,
209.50.48.221,4,3,iridientdigital.com,US,Americas,Northern America,United States of America,Arizona,,Phoenix
82.180.175.24,4,34,islam-watch.org,US,Americas,Northern America,United States of America,Arizona,,Phoenix
45.137.159.87,4,13,islamhelpline.net,US,Americas,Northern America,United States of America,Arizona,,Phoenix
195.35.33.65,4,5,island-of-freedom.com,US,Americas,Northern America,United States of America,Arizona,,Phoenix
195.35.10.25,4,2,isspammy.com,US,Americas,Northern America,United States of America,Arizona,,Phoenix
148.163.69.161,4,572,ite-galicia.es,US,Americas,Northern America,United States of America,Arizona,,Phoenix
156.67.72.84,4,5,itiguala.edu.mx,US,Americas,Northern America,United States of America,Arizona,,Phoenix
217.196.54.82,4,9,itsreleased.co.uk,US,Americas,Northern America,United States of America,Arizona,,Phoenix
195.35.38.62,4,6,jacketware.com,US,Americas,Northern America,United States of America,Arizona,,Phoenix
185.212.70.204,4,2,jacklynch.net,US,Americas,Northern America,United States of America,Arizona,,Phoenix
38.29.223.184,4,18,jamigold.com,US,Americas,Northern America,United States of America,Arizona,,Phoenix
154.56.47.196,4,17,jandminternationalministry.org,US,Americas,Northern America,United States of America,Arizona,,Phoenix
217.196.52.223,4,5,jbsagolf.com,US,Americas,Northern America,United States of America,Arizona,,Phoenix
191.101.79.233,4,4,jcfb.com,US,Americas,Northern America,United States of America,Arizona,,Phoenix
195.35.39.215,4,7,jeeterjuicevapes.co.uk,US,Americas,Northern America,United States of America,Arizona,,Phoenix
217.196.54.176,4,3,jennifermurch.com,US,Americas,Northern America,United States of America,Arizona,,Phoenix
208.94.117.163,4,-7,jessesquires.com,US,Americas,Northern America,United States of America,Arizona,,Phoenix
195.179.237.157,4,4,jetztlizenzieren.com,US,Americas,Northern America,United States of America,Arizona,,Phoenix
191.101.13.17,4,5,jfistechnologies.com,US,Americas,Northern America,United States of America,Arizona,,Phoenix
217.196.54.63,4,3,jhurr.com,US,Americas,Northern America,United States of America,Arizona,,Phoenix
217.196.54.183,4,4,jmmoving.store,US,Americas,Northern America,United States of America,Arizona,,Phoenix
148.135.130.48,4,6,jobapplicationcenter.com,US,Americas,Northern America,United States of America,Arizona,,Phoenix
77.37.114.34,4,28,jobzipk.online,US,Americas,Northern America,United States of America,Arizona,,Phoenix
147.79.123.22,4,4,joemuer.com,US,Americas,Northern America,United States of America,Arizona,,Phoenix
156.67.70.152,4,4,johnnyholland.org,US,Americas,Northern America,United States of America,Arizona,,Phoenix
77.37.56.113,4,5,johnspass.com,US,Americas,Northern America,United States of America,Arizona,,Phoenix
217.196.55.117,4,3,jonathanpollard.org,US,Americas,Northern America,United States of America,Arizona,,Phoenix
208.94.117.230,4,34,journaloffreespeechlaw.org,US,Americas,Northern America,United States of America,Arizona,,Phoenix
195.35.37.203,4,3,jptam.org,US,Americas,Northern America,United States of America,Arizona,,Phoenix
66.85.159.252,4,5,jrs-s.net,US,Americas,Northern America,United States of America,Arizona,,Phoenix
156.67.78.14,4,4,jsxzlyq.com,US,Americas,Northern America,United States of America,Arizona,,Phoenix
185.214.133.24,4,4,junglecity.com,US,Americas,Northern America,United States of America,Arizona,,Phoenix
82.180.172.224,4,4,justcol.com,US,Americas,Northern America,United States of America,Arizona,,Phoenix
195.35.38.105,4,4,justdreamweaver.com,US,Americas,Northern America,United States of America,Arizona,,Phoenix
208.94.117.30,4,-13,jwilk.net,US,Americas,Northern America,United States of America,Arizona,,Phoenix
106.0.62.162,4,0,jyfmachinery.com,US,Americas,Northern America,United States of America,Arizona,,Phoenix
209.188.7.251,4,9,ka-advocates.co.ke,US,Americas,Northern America,United States of America,Arizona,,Phoenix
195.35.38.255,4,4,kadobarvapes.com,US,Americas,Northern America,United States of America,Arizona,,Phoenix
156.67.72.59,4,17,kafeelcareservices.com.au,US,Americas,Northern America,United States of America,Arizona,,Phoenix
156.67.76.188,4,3,kahawatungu.com,US,Americas,Northern America,United States of America,Arizona,,Phoenix
217.196.55.90,4,4,kahi.in,US,Americas,Northern America,United States of America,Arizona,,Phoenix
62.72.50.66,4,14,karlgroves.com,US,Americas,Northern America,United States of America,Arizona,,Phoenix
170.130.12.15,4,-15667,kathiking.com,US,Americas,Northern America,United States of America,Arizona,,Glendale
195.35.10.89,4,32,kazam.mobi,US,Americas,Northern America,United States of America,Arizona,,Phoenix
62.72.53.14,4,3,kettleheroes.com,US,Americas,Northern America,United States of America,Arizona,,Phoenix
62.72.4.160,4,3,keysmosquito.org,US,Americas,Northern America,United States of America,Arizona,,Phoenix
106.0.62.72,4,23,khns.org,US,Americas,Northern America,United States of America,Arizona,,Phoenix
208.94.117.208,4,-14,kindofstephen.com,US,Americas,Northern America,United States of America,Arizona,,Phoenix
194.163.47.23,4,12,kinetic.com.sg,US,Americas,Northern America,United States of America,Arizona,,Phoenix
198.15.81.118,4,127,kitelife.com,US,Americas,Northern America,United States of America,Arizona,,Phoenix
208.94.116.122,4,-12,kmjn.org,US,Americas,Northern America,United States of America,Arizona,,Phoenix
82.180.175.91,4,23,knoldus.com,US,Americas,Northern America,United States of America,Arizona,,Phoenix
209.50.61.248,4,26,knowhours.com,US,Americas,Northern America,United States of America,Arizona,,Phoenix
209.50.62.40,4,63,komprise.com,US,Americas,Northern America,United States of America,Arizona,,Phoenix
107.189.169.162,4,54,konarka.com,US,Americas,Northern America,United States of America,Arizona,,Phoenix
156.67.73.116,4,44,korafoot.com,US,Americas,Northern America,United States of America,Arizona,,Phoenix
156.67.69.185,4,38,kqz-ks.org,US,Americas,Northern America,United States of America,Arizona,,Phoenix
209.50.61.109,4,-7,krazydad.com,US,Americas,Northern America,United States of America,Arizona,,Phoenix
45.137.159.152,4,35,kreativity.net,US,Americas,Northern America,United States of America,Arizona,,Phoenix
195.35.10.32,4,5,krishderrico.com,US,Americas,Northern America,United States of America,Arizona,,Phoenix
66.85.142.50,4,3,ktunaxa.org,US,Americas,Northern America,United States of America,Arizona,,Phoenix
89.117.139.149,4,2,kuchijewels.com,US,Americas,Northern America,United States of America,Arizona,,Phoenix
195.35.33.103,4,14,kulturehub.com,US,Americas,Northern America,United States of America,Arizona,,Phoenix
195.35.39.28,4,59,kumarbrosusa.com,US,Americas,Northern America,United States of America,Arizona,,Phoenix
195.35.9.113,4,2,laindustria.pe,US,Americas,Northern America,United States of America,Arizona,,Phoenix
208.94.117.110,4,-14,lakora.us,US,Americas,Northern America,United States of America,Arizona,,Phoenix
156.67.68.132,4,9,laprensafl.com,US,Americas,Northern America,United States of America,Arizona,,Phoenix
86.38.202.247,4,13,laptoprepair101.com,US,Americas,Northern America,United States of America,Arizona,,Phoenix
156.67.74.27,4,11,larsenonfilm.com,US,Americas,Northern America,United States of America,Arizona,,Phoenix
89.117.9.89,4,13,larslofgren.com,US,Americas,Northern America,United States of America,Arizona,,Phoenix
185.162.55.56,4,73,laverdadjuarez.com,US,Americas,Northern America,United States of America,Arizona,,Phoenix
194.195.84.115,4,8,lawandpolicyblog.com,US,Americas,Northern America,United States of America,Arizona,,Phoenix
156.67.74.57,4,5,laxlibrary.com,US,Americas,Northern America,United States of America,Arizona,,Phoenix
209.50.60.128,4,677,leahsfitness.com,US,Americas,Northern America,United States of America,Arizona,,Phoenix
45.137.159.81,4,25,learningpave.in,US,Americas,Northern America,United States of America,Arizona,,Phoenix
208.94.116.49,4,16,learnyouahaskell.com,US,Americas,Northern America,United States of America,Arizona,,Phoenix
208.94.116.42,4,19,learnyousomeerlang.com,US,Americas,Northern America,United States of America,Arizona,,Phoenix
162.213.210.220,4,3707,led-zeppelin.org,US,Americas,Northern America,United States of America,Arizona,,Phoenix
77.37.61.120,4,3,leds.to,US,Americas,Northern America,United States of America,Arizona,,Phoenix
82.180.175.110,4,4,lemonyblog.com,US,Americas,Northern America,United States of America,Arizona,,Phoenix
156.67.64.48,4,59,lifemaintain.com,US,Americas,Northern America,United States of America,Arizona,,Phoenix
77.37.32.29,4,7,lighthouse-sf.org,US,Americas,Northern America,United States of America,Arizona,,Phoenix
192.110.166.196,4,3,lighthouse.cc,US,Americas,Northern America,United States of America,Arizona,,Phoenix
66.172.22.192,4,834,lincolncountymt.us,US,Americas,Northern America,United States of America,Arizona,,Gilbert
195.35.10.60,4,3,linuxmall.com,US,Americas,Northern America,United States of America,Arizona,,Phoenix
89.117.139.146,4,4,liquavista.com,US,Americas,Northern America,United States of America,Arizona,,Phoenix
148.135.129.189,4,8,liquidk2spraystore.com,US,Americas,Northern America,United States of America,Arizona,,Phoenix
132.226.124.109,4,81,litchie.com,US,Americas,Northern America,United States of America,Arizona,,Phoenix
106.0.62.77,4,-3,littlebigcat.com,US,Americas,Northern America,United States of America,Arizona,,Phoenix
195.35.10.188,4,4,livinglifeasmoms.com,US,Americas,Northern America,United States of America,Arizona,,Phoenix
191.96.56.44,4,7,localstar.org,US,Americas,Northern America,United States of America,Arizona,,Phoenix
209.188.21.24,4,4,locanto69.com,US,Americas,Northern America,United States of America,Arizona,,Phoenix
45.145.187.224,4,17,locantotech.com,US,Americas,Northern America,United States of America,Arizona,,Phoenix
147.79.125.39,4,38,logingit.com,US,Americas,Northern America,United States of America,Arizona,,Phoenix
45.145.187.73,4,25,logodesigner.pk,US,Americas,Northern America,United States of America,Arizona,,Phoenix
193.203.176.119,4,4,logomyway.com,US,Americas,Northern America,United States of America,Arizona,,Phoenix
107.167.93.202,4,44,lollapaloozacl.com,US,Americas,Northern America,United States of America,Arizona,,Phoenix
162.254.191.100,4,5,londondailypost.com,US,Americas,Northern America,United States of America,Arizona,,Phoenix
191.101.79.88,4,7,looknohands.com,US,Americas,Northern America,United States of America,Arizona,,Phoenix
194.163.47.101,4,4,losafoods.com,US,Americas,Northern America,United States of America,Arizona,,Phoenix
191.96.244.38,4,-112,lotterysambad.in,US,Americas,Northern America,United States of America,Arizona,,Phoenix
195.35.35.143,4,114,lowcarbdietworld.com,US,Americas,Northern America,United States of America,Arizona,,Phoenix
209.50.52.193,4,58,luminous-landscape.com,US,Americas,Northern America,United States of America,Arizona,,Phoenix
217.196.51.77,4,15,mackenziemace.net,US,Americas,Northern America,United States of America,Arizona,,Phoenix
208.94.117.2,4,-1,madebyevan.com,US,Americas,Northern America,United States of America,Arizona,,Phoenix
89.116.192.185,4,3,mads-labs.com,US,Americas,Northern America,United States of America,Arizona,,Phoenix
62.72.49.244,4,59,magamemecoin.com,US,Americas,Northern America,United States of America,Arizona,,Phoenix
156.67.74.111,4,8,magicmushroomstoreoregon.com,US,Americas,Northern America,United States of America,Arizona,,Phoenix
62.72.50.175,4,5,magnachem.net,US,Americas,Northern America,United States of America,Arizona,,Phoenix
208.94.116.25,4,-14,makeitfrom.com,US,Americas,Northern America,United States of America,Arizona,,Phoenix
195.35.15.21,4,3,makinghealthychoices.ca,US,Americas,Northern America,United States of America,Arizona,,Phoenix
156.67.68.209,4,123,maliembassy.us,US,Americas,Northern America,United States of America,Arizona,,Phoenix
185.212.70.148,4,16,mangobaaz.com,US,Americas,Northern America,United States of America,Arizona,,Phoenix
209.188.7.227,4,36,manuscripthandler.com,US,Americas,Northern America,United States of America,Arizona,,Phoenix
86.38.242.22,4,47,marianne2024.com,US,Americas,Northern America,United States of America,Arizona,,Phoenix
185.162.55.101,4,93,marketinging.agency,US,Americas,Northern America,United States of America,Arizona,,Phoenix
62.72.50.104,4,3,massar.org,US,Americas,Northern America,United States of America,Arizona,,Phoenix
148.163.121.10,4,8,mastercoachperu.com,US,Americas,Northern America,United States of America,Arizona,,Phoenix
86.38.205.38,4,44,mathcracker.com,US,Americas,Northern America,United States of America,Arizona,,Phoenix
208.94.117.103,4,12,mattblaze.org,US,Americas,Northern America,United States of America,Arizona,,Phoenix
217.21.77.94,4,6,mattbrett.com,US,Americas,Northern America,United States of America,Arizona,,Phoenix
82.180.174.221,4,4,maxbranded.com,US,Americas,Northern America,United States of America,Arizona,,Phoenix
162.218.114.194,4,17,mbt-outlet.com,US,Americas,Northern America,United States of America,Arizona,,Phoenix
147.79.122.46,4,3,mctools.co,US,Americas,Northern America,United States of America,Arizona,,Phoenix
195.35.33.195,4,4,mddk.com,US,Americas,Northern America,United States of America,Arizona,,Phoenix
191.96.56.72,4,9,mdtechservices.com,US,Americas,Northern America,United States of America,Arizona,,Phoenix
156.67.74.199,4,22,medditus.it,US,Americas,Northern America,United States of America,Arizona,,Phoenix
147.79.126.18,4,58,medellinguru.com,US,Americas,Northern America,United States of America,Arizona,,Phoenix
208.94.116.50,4,33,medgestore.com,US,Americas,Northern America,United States of America,Arizona,,Phoenix
170.130.238.36,4,59901,medrovera.com,US,Americas,Northern America,United States of America,Arizona,,Phoenix
191.101.79.35,4,9,meganmunchkinhome.com,US,Americas,Northern America,United States of America,Arizona,,Phoenix
185.212.70.78,4,10,megwestlake.com,US,Americas,Northern America,United States of America,Arizona,,Phoenix
77.37.61.182,4,6,melodicmag.com,US,Americas,Northern America,United States of America,Arizona,,Phoenix
77.37.114.75,4,4,mendofever.com,US,Americas,Northern America,United States of America,Arizona,,Phoenix
86.38.202.71,4,14,merosamparka.com,US,Americas,Northern America,United States of America,Arizona,,Phoenix
195.35.35.198,4,3,meshtrac.com,US,Americas,Northern America,United States of America,Arizona,,Phoenix
195.35.38.205,4,2,metalico.com,US,Americas,Northern America,United States of America,Arizona,,Phoenix
191.101.79.194,4,4,metricmind.com,US,Americas,Northern America,United States of America,Arizona,,Phoenix
106.0.62.68,4,1,metrocrime.org,US,Americas,Northern America,United States of America,Arizona,,Phoenix
217.21.77.190,4,16,microfiberchina.com,US,Americas,Northern America,United States of America,Arizona,,Phoenix
108.170.12.50,4,4,mig33.com,US,Americas,Northern America,United States of America,Arizona,,Phoenix
156.67.71.18,4,4,militarychild.org,US,Americas,Northern America,United States of America,Arizona,,Phoenix
191.101.13.160,4,4,minersboss.com,US,Americas,Northern America,United States of America,Arizona,,Phoenix
156.67.75.161,4,29,misslaur.com,US,Americas,Northern America,United States of America,Arizona,,Phoenix
208.94.116.155,4,-8,mitxela.com,US,Americas,Northern America,United States of America,Arizona,,Phoenix
82.180.174.226,4,4,moaseo.com,US,Americas,Northern America,United States of America,Arizona,,Phoenix
66.85.160.75,4,2,mobilitydigest.com,US,Americas,Northern America,United States of America,Arizona,,Phoenix
198.167.189.18,4,44,moca-tucson.org,US,Americas,Northern America,United States of America,Arizona,,Tucson
156.67.70.180,4,5,mokaramlawfirm.com,US,Americas,Northern America,United States of America,Arizona,,Phoenix
82.180.138.6,4,7,momizat.com,US,Americas,Northern America,United States of America,Arizona,,Phoenix
82.180.175.219,4,23,moneyregard.com,US,Americas,Northern America,United States of America,Arizona,,Phoenix
191.101.233.134,4,7,moniispace.com,US,Americas,Northern America,United States of America,Arizona,,Phoenix
194.195.84.102,4,39,monotiti.org,US,Americas,Northern America,United States of America,Arizona,,Phoenix
23.83.130.100,4,34,moontoast.com,US,Americas,Northern America,United States of America,Arizona,,Phoenix
208.94.117.195,4,25,mothersruin.com,US,Americas,Northern America,United States of America,Arizona,,Phoenix
82.180.172.114,4,14,moversnearyou.info,US,Americas,Northern America,United States of America,Arizona,,Phoenix
208.94.116.18,4,8,mowglii.com,US,Americas,Northern America,United States of America,Arizona,,Phoenix
174.138.166.212,4,2,mrguestposting.com,US,Americas,Northern America,United States of America,Arizona,,Phoenix
191.101.79.102,4,4,mshafiq.ca,US,Americas,Northern America,United States of America,Arizona,,Phoenix
217.21.76.119,4,2,msm.com.ar,US,Americas,Northern America,United States of America,Arizona,,Phoenix
108.170.29.210,4,8195,msofficeforums.com,US,Americas,Northern America,United States of America,Arizona,,Phoenix
156.67.74.22,4,16,mtabram.com,US,Americas,Northern America,United States of America,Arizona,,Phoenix
217.21.76.44,4,31,mtst.org,US,Americas,Northern America,United States of America,Arizona,,Phoenix
82.180.172.233,4,87,multirobotsystems.org,US,Americas,Northern America,United States of America,Arizona,,Phoenix
217.21.77.136,4,21,multitradesoftware.com,US,Americas,Northern America,United States of America,Arizona,,Phoenix
38.29.223.119,4,0,muminthemadhouse.com,US,Americas,Northern America,United States of America,Arizona,,Phoenix
185.164.108.203,4,4,mvorganizing.org,US,Americas,Northern America,United States of America,Arizona,,Phoenix
86.38.202.240,4,10,mvp2kcaribe.com,US,Americas,Northern America,United States of America,Arizona,,Phoenix
195.35.15.223,4,18,mygreekfm.com,US,Americas,Northern America,United States of America,Arizona,,Phoenix
62.72.53.228,4,4,mylifesite.net,US,Americas,Northern America,United States of America,Arizona,,Phoenix
209.50.49.99,4,21,mymlsa.org,US,Americas,Northern America,United States of America,Arizona,,Phoenix
156.67.75.98,4,9,mynewsmania.co.uk,US,Americas,Northern America,United States of America,Arizona,,Phoenix
195.179.237.91,4,2,myonlinebillboard.com,US,Americas,Northern America,United States of America,Arizona,,Phoenix
156.67.71.197,4,3,myrealex.com,US,Americas,Northern America,United States of America,Arizona,,Phoenix
191.96.56.135,4,4,mytashkent.uz,US,Americas,Northern America,United States of America,Arizona,,Phoenix
209.50.49.68,4,101866,myturn.com,US,Americas,Northern America,United States of America,Arizona,,Phoenix
156.67.73.237,4,6,mywifiexthelp.net,US,Americas,Northern America,United States of America,Arizona,,Phoenix
195.35.33.242,4,9,myzuka.ru,US,Americas,Northern America,United States of America,Arizona,,Phoenix
62.72.2.167,4,20,naaia.org,US,Americas,Northern America,United States of America,Arizona,,Phoenix
195.35.33.104,4,66,narrowsecurity.com,US,Americas,Northern America,United States of America,Arizona,,Phoenix
89.116.192.47,4,39,natural-homeremedies.com,US,Americas,Northern America,United States of America,Arizona,,Phoenix
82.180.138.110,4,13,naturalthinker.net,US,Americas,Northern America,United States of America,Arizona,,Phoenix
89.116.192.28,4,10,navyandmarine.org,US,Americas,Northern America,United States of America,Arizona,,Phoenix
156.67.73.2,4,3,ncraoa.com,US,Americas,Northern America,United States of America,Arizona,,Phoenix
208.94.117.20,4,-12,nearlyfreespeech.net,US,Americas,Northern America,United States of America,Arizona,,Phoenix
107.158.101.205,4,6,nearoff.com,US,Americas,Northern America,United States of America,Arizona,,Glendale
208.94.116.154,4,-9,nerdparadise.com,US,Americas,Northern America,United States of America,Arizona,,Phoenix
209.188.14.165,4,17,netbeans.org,US,Americas,Northern America,United States of America,Arizona,,Phoenix
66.85.155.186,4,49,network1sports.com,US,Americas,Northern America,United States of America,Arizona,,Phoenix
208.94.116.102,4,12,neugierig.org,US,Americas,Northern America,United States of America,Arizona,,Phoenix
23.83.130.93,4,3,neuron2.net,US,Americas,Northern America,United States of America,Arizona,,Phoenix
107.178.115.72,4,-6803,neverusealone.com,US,Americas,Northern America,United States of America,Arizona,,Phoenix
106.0.62.78,4,-6,newhostapk.com,US,Americas,Northern America,United States of America,Arizona,,Phoenix
184.164.158.253,4,53,newpiyalievents.com,US,Americas,Northern America,United States of America,Arizona,,Phoenix
82.180.174.84,4,28,newsfirex.com,US,Americas,Northern America,United States of America,Arizona,,Phoenix
195.179.236.16,4,3,newshubmagzine.com,US,Americas,Northern America,United States of America,Arizona,,Phoenix
89.116.192.119,4,25,newsyber.com,US,Americas,Northern America,United States of America,Arizona,,Phoenix
195.35.39.118,4,17,newzbuds.com,US,Americas,Northern America,United States of America,Arizona,,Phoenix
45.137.159.116,4,19,nextbigtechnology.com,US,Americas,Northern America,United States of America,Arizona,,Phoenix
148.163.80.87,4,31,nextscripts.com,US,Americas,Northern America,United States of America,Arizona,,Phoenix
208.94.116.100,4,-11,nfshost.com,US,Americas,Northern America,United States of America,Arizona,,Phoenix
195.35.39.103,4,3,nfsmi.org,US,Americas,Northern America,United States of America,Arizona,,Phoenix
89.116.192.199,4,3,nhclc.org,US,Americas,Northern America,United States of America,Arizona,,Phoenix
156.67.77.234,4,6,nicksbuilding.com,US,Americas,Northern America,United States of America,Arizona,,Phoenix
86.38.202.48,4,4,nilambar.net,US,Americas,Northern America,United States of America,Arizona,,Phoenix
66.85.132.82,4,37,nimbelink.com,US,Americas,Northern America,United States of America,Arizona,,Phoenix
106.0.62.70,4,-4,nkyhealth.org,US,Americas,Northern America,United States of America,Arizona,,Phoenix
208.94.116.245,4,5,nolur.com,US,Americas,Northern America,United States of America,Arizona,,Phoenix
195.35.33.32,4,4,nonstoptraffic.org,US,Americas,Northern America,United States of America,Arizona,,Phoenix
208.94.117.116,4,-14,northwaygames.com,US,Americas,Northern America,United States of America,Arizona,,Phoenix
170.130.238.4,4,59890,nortrilor.com,US,Americas,Northern America,United States of America,Arizona,,Phoenix
191.101.13.42,4,3,norvasen.com,US,Americas,Northern America,United States of America,Arizona,,Phoenix
82.180.138.133,4,9,notderbypie.com,US,Americas,Northern America,United States of America,Arizona,,Phoenix
198.15.81.114,4,134,notfrisco2.com,US,Americas,Northern America,United States of America,Arizona,,Phoenix
89.117.9.245,4,30,npausa.com,US,Americas,Northern America,United States of America,Arizona,,Phoenix
194.195.84.134,4,7,ntclibya.org,US,Americas,Northern America,United States of America,Arizona,,Phoenix
142.202.240.21,4,-559274,nvzdp.com,US,Americas,Northern America,United States of America,Arizona,,Phoenix
45.137.159.48,4,4,nxznews.com,US,Americas,Northern America,United States of America,Arizona,,Phoenix
156.67.67.231,4,64,obet24.com,US,Americas,Northern America,United States of America,Arizona,,Phoenix
156.67.72.205,4,14,octopusmda.com,US,Americas,Northern America,United States of America,Arizona,,Phoenix
191.101.13.245,4,12,oderalon.net,US,Americas,Northern America,United States of America,Arizona,,Phoenix
208.94.117.237,4,7,odr.info,US,Americas,Northern America,United States of America,Arizona,,Phoenix
106.0.62.83,4,-3,oerdigamers.info,US,Americas,Northern America,United States of America,Arizona,,Phoenix
82.180.172.121,4,3,officiialrubycarts.com,US,Americas,Northern America,United States of America,Arizona,,Phoenix
108.170.22.59,4,35,oklahomarailwaymuseum.org,US,Americas,Northern America,United States of America,Arizona,,Phoenix
198.15.119.58,4,28,ole777.me,US,Americas,Northern America,United States of America,Arizona,,Phoenix
107.167.84.42,4,5,oliveoilandlemons.com,US,Americas,Northern America,United States of America,Arizona,,Phoenix
82.197.88.226,4,3,olivertraveltrailers.com,US,Americas,Northern America,United States of America,Arizona,,Phoenix
107.158.30.170,4,5,oliviapharm.com,US,Americas,Northern America,United States of America,Arizona,,Glendale
217.196.54.38,4,14,olomk.com,US,Americas,Northern America,United States of America,Arizona,,Phoenix
156.67.75.62,4,3,omgflix.blog,US,Americas,Northern America,United States of America,Arizona,,Phoenix
194.195.84.141,4,22,omnimedicalsearch.com,US,Americas,Northern America,United States of America,Arizona,,Phoenix
216.239.130.210,4,-1,omnis.com,US,Americas,Northern America,United States of America,Arizona,,Tempe
23.81.205.204,4,17,onairradio.net,US,Americas,Northern America,United States of America,Arizona,,Phoenix
192.110.160.67,4,-421,onlineclickdigital.com,US,Americas,Northern America,United States of America,Arizona,,Phoenix
104.251.122.19,4,160,Ookla Speedtest Server 16331: speedtest.1gservers.com,US,Americas,Northern America,United States of America,Arizona,,Phoenix
148.163.68.178,4,375,Ookla Speedtest Server 29074: speedtest.ioflood.com,US,Americas,Northern America,United States of America,Arizona,,Phoenix
64.119.32.68,4,1280954,Ookla Speedtest Server 33271: sp1.simplybits.net,US,Americas,Northern America,United States of America,Arizona,,Tucson
199.34.92.206,4,276,Ookla Speedtest Server 53418: speedtest.phx01.orion.cloud,US,Americas,Northern America,United States of America,Arizona,,Phoenix
170.64.4.2,4,282,Ookla Speedtest Server 57433: tem11-speedtest01.as15108.com,US,Americas,Northern America,United States of America,Arizona,,Tempe
8.23.104.133,4,367,Ookla Speedtest Server 59010: speedtest.ftmojave.net,US,Americas,Northern America,United States of America,Arizona,,Mohave Valley
104.153.73.215,4,192,Ookla Speedtest Server 63179: speed.circlecityinternet.com,US,Americas,Northern America,United States of America,Arizona,,Phoenix
108.60.107.228,4,339,Ookla Speedtest Server 64073: phxme0001speedtestserver01.wiline.com,US,Americas,Northern America,United States of America,Arizona,,Phoenix
162.219.91.255,4,18523352,Ookla Speedtest Server: shiprock-speedtest.commnetbroadband.com,US,Americas,Northern America,United States of America,Arizona,,Window Rock
162.219.93.131,4,-179,Ookla Speedtest Server: sptst1.ntua.net,US,Americas,Northern America,United States of America,Arizona,,Window Rock
184.164.156.144,4,101,opendesign.com,US,Americas,Northern America,United States of America,Arizona,,Phoenix
82.180.175.193,4,23,openprojects.net,US,Americas,Northern America,United States of America,Arizona,,Phoenix
216.239.136.99,4,8,opportunityknocks.org,US,Americas,Northern America,United States of America,Arizona,,Tempe
195.35.15.191,4,7,originalfuhrerschein.com,US,Americas,Northern America,United States of America,Arizona,,Phoenix
89.117.139.137,4,3,osorc.com,US,Americas,Northern America,United States of America,Arizona,,Phoenix
185.162.52.46,4,3,ottawaprotectiveequipment.ca,US,Americas,Northern America,United States of America,Arizona,,Phoenix
89.117.9.244,4,97,ouleft.org,US,Americas,Northern America,United States of America,Arizona,,Phoenix
184.164.134.218,4,512,ourblogginglife.com,US,Americas,Northern America,United States of America,Arizona,,Phoenix
148.135.131.12,4,26,ourclassified.net,US,Americas,Northern America,United States of America,Arizona,,Phoenix
62.72.50.85,4,3,overinsider.com,US,Americas,Northern America,United States of America,Arizona,,Phoenix
174.138.169.27,4,4171,ozolio.com,US,Americas,Northern America,United States of America,Arizona,,Phoenix
185.164.109.89,4,8,packersandmoverinmohali.in,US,Americas,Northern America,United States of America,Arizona,,Phoenix
86.38.202.224,4,2,packmanvape.co.uk,US,Americas,Northern America,United States of America,Arizona,,Phoenix
217.196.54.104,4,5,pacmandispo.com,US,Americas,Northern America,United States of America,Arizona,,Phoenix
23.81.234.38,4,-17,pagearizona.com,US,Americas,Northern America,United States of America,Arizona,,Phoenix
199.231.85.218,4,564,pagemax.com.br,US,Americas,Northern America,United States of America,Arizona,,Phoenix
217.196.54.74,4,22,palletliquidationforsale.com,US,Americas,Northern America,United States of America,Arizona,,Phoenix
195.35.39.50,4,15,panipooriwala.com,US,Americas,Northern America,United States of America,Arizona,,Phoenix
185.212.71.172,4,20,pappyvanwinklestore.com,US,Americas,Northern America,United States of America,Arizona,,Phoenix
170.130.238.71,4,59925,paracadol.com,US,Americas,Northern America,United States of America,Arizona,,Phoenix
77.37.93.16,4,69,parentscanada.com,US,Americas,Northern America,United States of America,Arizona,,Phoenix
217.21.76.54,4,7,parisvoice.com,US,Americas,Northern America,United States of America,Arizona,,Phoenix
45.145.187.3,4,17,parlatino.org,US,Americas,Northern America,United States of America,Arizona,,Phoenix
77.37.92.39,4,40,parnasandlion.com,US,Americas,Northern America,United States of America,Arizona,,Phoenix
205.220.231.16,4,7,path.net,US,Americas,Northern America,United States of America,Arizona,,Phoenix
154.56.47.140,4,15,pavitrakher.com,US,Americas,Northern America,United States of America,Arizona,,Phoenix
184.164.78.122,4,8024,pdabuzz.com,US,Americas,Northern America,United States of America,Arizona,,Phoenix
45.137.159.185,4,21,pearlsbuck.org,US,Americas,Northern America,United States of America,Arizona,,Phoenix
46.28.40.2,4,47,peoplebookmarks.com,US,Americas,Northern America,United States of America,Arizona,,Phoenix
208.94.117.212,4,-13,peoplespolicyproject.org,US,Americas,Northern America,United States of America,Arizona,,Phoenix
195.35.36.4,4,47,perfectessaywriting.com,US,Americas,Northern America,United States of America,Arizona,,Phoenix
195.35.15.24,4,34,periodictableguide.com,US,Americas,Northern America,United States of America,Arizona,,Phoenix
62.72.50.218,4,32,personalfinanceblogs.com,US,Americas,Northern America,United States of America,Arizona,,Phoenix
209.50.52.204,4,41,pestdefense.com,US,Americas,Northern America,United States of America,Arizona,,Phoenix
148.135.130.36,4,22,petamberalert.com,US,Americas,Northern America,United States of America,Arizona,,Phoenix
195.35.15.133,4,12,peterrisdon.com,US,Americas,Northern America,United States of America,Arizona,,Phoenix
82.180.175.154,4,23,petfonds.com,US,Americas,Northern America,United States of America,Arizona,,Phoenix
217.196.55.63,4,15,petsdairy.com,US,Americas,Northern America,United States of America,Arizona,,Phoenix
185.162.55.96,4,9,phdsc.org,US,Americas,Northern America,United States of America,Arizona,,Phoenix
148.163.121.28,4,5,philippinenews.com,US,Americas,Northern America,United States of America,Arizona,,Phoenix
82.197.91.245,4,5,pills4ever.com,US,Americas,Northern America,United States of America,Arizona,,Phoenix
156.67.79.149,4,7,pills4usa.com,US,Americas,Northern America,United States of America,Arizona,,Phoenix
217.21.67.134,4,11,piniweb.com.br,US,Americas,Northern America,United States of America,Arizona,,Phoenix
107.178.106.236,4,3,pinkfloyd-co.com,US,Americas,Northern America,United States of America,Arizona,,Phoenix
217.196.52.132,4,14,pioneersveneers.com,US,Americas,Northern America,United States of America,Arizona,,Phoenix
148.163.100.34,4,38,piratetimes.net,US,Americas,Northern America,United States of America,Arizona,,Phoenix
148.163.99.20,4,-174267,pishikaye.com,US,Americas,Northern America,United States of America,Arizona,,Phoenix
154.56.47.224,4,44,pivlex.com,US,Americas,Northern America,United States of America,Arizona,,Phoenix
191.96.56.190,4,5,pivozon.com,US,Americas,Northern America,United States of America,Arizona,,Phoenix
23.83.130.102,4,8,pjirc.com,US,Americas,Northern America,United States of America,Arizona,,Phoenix
195.35.33.203,4,7,pkmedics.com,US,Americas,Northern America,United States of America,Arizona,,Phoenix
45.137.159.142,4,32,planetozkids.com,US,Americas,Northern America,United States of America,Arizona,,Phoenix
195.35.15.210,4,36,plasticfactoryiraq.com,US,Americas,Northern America,United States of America,Arizona,,Phoenix
62.72.53.217,4,5,plastipak.com,US,Americas,Northern America,United States of America,Arizona,,Phoenix
38.29.223.116,4,14,playdoughtoplato.com,US,Americas,Northern America,United States of America,Arizona,,Phoenix
23.83.130.92,4,49,pocketpcmag.com,US,Americas,Northern America,United States of America,Arizona,,Phoenix
195.35.10.11,4,4,poftut.com,US,Americas,Northern America,United States of America,Arizona,,Phoenix
198.15.84.67,4,76,polarisbanklimited.com,US,Americas,Northern America,United States of America,Arizona,,Phoenix
208.94.118.189,4,-36,poormojo.org,US,Americas,Northern America,United States of America,Arizona,,Phoenix
185.162.53.192,4,38,popcreep.com,US,Americas,Northern America,United States of America,Arizona,,Phoenix
45.137.159.170,4,26,powerfulsight.com,US,Americas,Northern America,United States of America,Arizona,,Phoenix
23.81.234.40,4,13,prescott.com,US,Americas,Northern America,United States of America,Arizona,,Phoenix
107.158.70.49,4,57,prescriptiondrugs24.com,US,Americas,Northern America,United States of America,Arizona,,Glendale
38.29.223.131,4,31,primalpioneer.com,US,Americas,Northern America,United States of America,Arizona,,Phoenix
62.72.53.143,4,69,procrewschedule.com,US,Americas,Northern America,United States of America,Arizona,,Phoenix
64.6.97.88,4,37,produkte24.com,US,Americas,Northern America,United States of America,Arizona,,Tempe
195.35.39.79,4,2,profilesinfo.com,US,Americas,Northern America,United States of America,Arizona,,Phoenix
217.21.64.178,4,48,promaxsafety.com,US,Americas,Northern America,United States of America,Arizona,,Phoenix
184.164.136.210,4,12,prosperitymarketingsystem.com,US,Americas,Northern America,United States of America,Arizona,,Phoenix
38.29.223.121,4,35,proudtobeprimary.com,US,Americas,Northern America,United States of America,Arizona,,Phoenix
156.67.75.191,4,37,psychedelicmarketplace.net,US,Americas,Northern America,United States of America,Arizona,,Phoenix
46.28.40.177,4,59,psychreel.com,US,Americas,Northern America,United States of America,Arizona,,Phoenix
86.38.202.90,4,46,publicmedievalist.com,US,Americas,Northern America,United States of America,Arizona,,Phoenix
45.137.159.115,4,4,pucl.org,US,Americas,Northern America,United States of America,Arizona,,Phoenix
195.179.237.198,4,32,pulosari.id,US,Americas,Northern America,United States of America,Arizona,,Phoenix
82.180.175.232,4,44,pumpkinlady.com,US,Americas,Northern America,United States of America,Arizona,,Phoenix
195.35.33.99,4,44,pun.me,US,Americas,Northern America,United States of America,Arizona,,Phoenix
38.29.223.124,4,4,puravidamoms.com,US,Americas,Northern America,United States of America,Arizona,,Phoenix
185.162.52.187,4,4,queretaro.travel,US,Americas,Northern America,United States of America,Arizona,,Phoenix
86.38.202.158,4,9,questionsquestions.net,US,Americas,Northern America,United States of America,Arizona,,Phoenix
89.117.139.58,4,4,qureshileathers.com,US,Americas,Northern America,United States of America,Arizona,,Phoenix
86.38.202.249,4,4,quuppa.com,US,Americas,Northern America,United States of America,Arizona,,Phoenix
208.94.117.153,4,-13,quut.com,US,Americas,Northern America,United States of America,Arizona,,Phoenix
195.35.15.108,4,35,racketrampage.com,US,Americas,Northern America,United States of America,Arizona,,Phoenix
195.35.39.115,4,83,racpigeon.com,US,Americas,Northern America,United States of America,Arizona,,Phoenix
184.164.144.133,4,46,radianceengg.com,US,Americas,Northern America,United States of America,Arizona,,Phoenix
195.35.12.62,4,101,radiografica.org.ar,US,Americas,Northern America,United States of America,Arizona,,Phoenix
62.72.49.36,4,5,ragerlawoffices.com,US,Americas,Northern America,United States of America,Arizona,,Phoenix
217.196.54.47,4,30,rajahsharma.com,US,Americas,Northern America,United States of America,Arizona,,Phoenix
209.50.57.182,4,-1,ralphbaer.com,US,Americas,Northern America,United States of America,Arizona,,Phoenix
86.38.221.242,4,64,rankexcel.com,US,Americas,Northern America,United States of America,Arizona,,Phoenix
193.203.176.241,4,27,raresportbikesforsale.com,US,Americas,Northern America,United States of America,Arizona,,Phoenix
107.167.79.203,4,5398,ratugacorku.com,US,Americas,Northern America,United States of America,Arizona,,Phoenix
77.37.92.2,4,50,ravguide.com,US,Americas,Northern America,United States of America,Arizona,,Phoenix
147.79.121.179,4,22,reachfirst.com,US,Americas,Northern America,United States of America,Arizona,,Phoenix
208.94.117.141,4,11,readthesequences.com,US,Americas,Northern America,United States of America,Arizona,,Phoenix
62.72.50.234,4,21,realrender3d.co.uk,US,Americas,Northern America,United States of America,Arizona,,Phoenix
62.72.50.89,4,24,redbeansanderic.com,US,Americas,Northern America,United States of America,Arizona,,Phoenix
82.180.132.60,4,6,reddit-marketing.pro,US,Americas,Northern America,United States of America,Arizona,,Phoenix
82.180.138.204,4,51,regretsy.com,US,Americas,Northern America,United States of America,Arizona,,Phoenix
62.72.5.33,4,41,reincanada.com,US,Americas,Northern America,United States of America,Arizona,,Phoenix
195.35.15.150,4,17,reliefpillenzuverkaufen.com,US,Americas,Northern America,United States of America,Arizona,,Phoenix
31.220.109.113,4,27,renewamerica.com,US,Americas,Northern America,United States of America,Arizona,,Phoenix
178.16.140.142,4,21,rentla.net,US,Americas,Northern America,United States of America,Arizona,,Phoenix
195.179.237.54,4,4,repairmsexcel.com,US,Americas,Northern America,United States of America,Arizona,,Phoenix
89.116.192.211,4,6,reptilesbase.com,US,Americas,Northern America,United States of America,Arizona,,Phoenix
156.67.75.120,4,6,rescuedigitalmedia.com,US,Americas,Northern America,United States of America,Arizona,,Phoenix
209.188.7.226,4,26,researcherslinks.com,US,Americas,Northern America,United States of America,Arizona,,Phoenix
82.197.91.125,4,45,respawnfirst.com,US,Americas,Northern America,United States of America,Arizona,,Phoenix
208.94.117.56,4,19,resplashed.com,US,Americas,Northern America,United States of America,Arizona,,Phoenix
216.17.102.188,4,70,retailreviews.net,US,Americas,Northern America,United States of America,Arizona,,Tempe
195.35.15.27,4,19,reversedo.com,US,Americas,Northern America,United States of America,Arizona,,Phoenix
147.79.122.21,4,14,revolutionarywar.us,US,Americas,Northern America,United States of America,Arizona,,Phoenix
195.35.13.202,4,4,rickenbacker.com,US,Americas,Northern America,United States of America,Arizona,,Phoenix
185.212.71.71,4,6,rijbewijskopen-n.com,US,Americas,Northern America,United States of America,Arizona,,Phoenix
82.180.138.103,4,30,ripandscam.com,US,Americas,Northern America,United States of America,Arizona,,Phoenix
82.180.175.206,4,6,ristarstone.com,US,Americas,Northern America,United States of America,Arizona,,Phoenix
89.116.192.239,4,5,ritsolinc.com,US,Americas,Northern America,United States of America,Arizona,,Phoenix
62.72.6.218,4,29,roadkil.net,US,Americas,Northern America,United States of America,Arizona,,Phoenix
89.117.139.181,4,10,roadragehelp.org,US,Americas,Northern America,United States of America,Arizona,,Phoenix
64.6.107.150,4,5,roadragenz.com,US,Americas,Northern America,United States of America,Arizona,,Tempe
147.79.124.122,4,19,roadthemes.com,US,Americas,Northern America,United States of America,Arizona,,Phoenix
195.35.15.197,4,8,robpowellbizblog.com,US,Americas,Northern America,United States of America,Arizona,,Phoenix
89.116.167.126,4,26,rocellcosmetics.shop,US,Americas,Northern America,United States of America,Arizona,,Phoenix
82.180.175.155,4,42,rogersanchez.com,US,Americas,Northern America,United States of America,Arizona,,Phoenix
217.196.54.25,4,44,roman-vasilenko-wanted.com,US,Americas,Northern America,United States of America,Arizona,,Phoenix
193.203.178.231,4,30,rosariossa.com,US,Americas,Northern America,United States of America,Arizona,,Phoenix
38.29.223.154,4,17,rosemaryandmaple.com,US,Americas,Northern America,United States of America,Arizona,,Phoenix
38.29.223.54,4,7,rosemaryandmaple.com,US,Americas,Northern America,United States of America,Arizona,,Phoenix
195.35.39.238,4,28,rovebrandstore.com,US,Americas,Northern America,United States of America,Arizona,,Phoenix
195.35.38.13,4,7,royalecollege.edu.jm,US,Americas,Northern America,United States of America,Arizona,,Phoenix
45.137.159.135,4,6,royally.vip,US,Americas,Northern America,United States of America,Arizona,,Phoenix
82.180.128.87,4,27,roysfarm.com,US,Americas,Northern America,United States of America,Arizona,,Phoenix
209.50.57.213,4,37,rtpcompany.com,US,Americas,Northern America,United States of America,Arizona,,Phoenix
205.220.231.24,4,12,rumble.com,US,Americas,Northern America,United States of America,Arizona,,Phoenix
156.67.74.220,4,36,russianescorts-delhi.com,US,Americas,Northern America,United States of America,Arizona,,Phoenix
208.94.116.61,4,-14,rustacean.net,US,Americas,Northern America,United States of America,Arizona,,Phoenix
156.67.73.88,4,5,rzim.org,US,Americas,Northern America,United States of America,Arizona,,Phoenix
195.35.39.82,4,3,sagelawfirm.in,US,Americas,Northern America,United States of America,Arizona,,Phoenix
194.195.84.21,4,3,sahilgujral.com,US,Americas,Northern America,United States of America,Arizona,,Phoenix
156.67.66.47,4,12,saltandspoon.co,US,Americas,Northern America,United States of America,Arizona,,Phoenix
156.67.75.3,4,5,sanedriver.com,US,Americas,Northern America,United States of America,Arizona,,Phoenix
209.50.53.133,4,727,sarahwoodbury.com,US,Americas,Northern America,United States of America,Arizona,,Phoenix
185.214.132.229,4,115,sarimstudio.com,US,Americas,Northern America,United States of America,Arizona,,Phoenix
148.163.73.237,4,26,satwcomic.com,US,Americas,Northern America,United States of America,Arizona,,Phoenix
82.180.172.144,4,4,sbh.org.br,US,Americas,Northern America,United States of America,Arizona,,Phoenix
62.72.53.100,4,15,scc.edu.uy,US,Americas,Northern America,United States of America,Arizona,,Phoenix
156.67.70.2,4,28,scholarlyhelp.com,US,Americas,Northern America,United States of America,Arizona,,Phoenix
89.116.192.2,4,75,sciencebulletin.org,US,Americas,Northern America,United States of America,Arizona,,Phoenix
195.179.237.50,4,9,sciencegems.com,US,Americas,Northern America,United States of America,Arizona,,Phoenix
45.90.220.215,4,9,scientexconference.com,US,Americas,Northern America,United States of America,Arizona,,Phoenix
89.117.9.24,4,4,scintilla.org,US,Americas,Northern America,United States of America,Arizona,,Phoenix
217.21.76.90,4,20,scp-wiki.co,US,Americas,Northern America,United States of America,Arizona,,Phoenix
46.28.42.254,4,15,scrappygeek.com,US,Americas,Northern America,United States of America,Arizona,,Phoenix
86.38.202.85,4,4,sdln.net,US,Americas,Northern America,United States of America,Arizona,,Phoenix
77.37.57.21,4,7,seafoodpress.com,US,Americas,Northern America,United States of America,Arizona,,Phoenix
104.251.123.107,4,13,sealaskaheritage.org,US,Americas,Northern America,United States of America,Arizona,,Phoenix
185.212.71.220,4,18,searchenginegenie.com,US,Americas,Northern America,United States of America,Arizona,,Phoenix
45.137.159.176,4,14,searchgpt-course.com,US,Americas,Northern America,United States of America,Arizona,,Phoenix
156.67.74.28,4,16,seattleorganicrestaurants.com,US,Americas,Northern America,United States of America,Arizona,,Phoenix
148.135.131.246,4,6,seattleplumbingpros.net,US,Americas,Northern America,United States of America,Arizona,,Phoenix
217.21.76.115,4,31,sebraestartups.com.br,US,Americas,Northern America,United States of America,Arizona,,Phoenix
45.145.186.180,4,14,sedona.biz,US,Americas,Northern America,United States of America,Arizona,,Phoenix
23.83.129.13,4,-15,sedona.net,US,Americas,Northern America,United States of America,Arizona,,Phoenix
108.170.29.211,4,8174,seniorforums.com,US,Americas,Northern America,United States of America,Arizona,,Phoenix
174.138.166.170,4,7,seoclerks.com,US,Americas,Northern America,United States of America,Arizona,,Phoenix
174.138.166.154,4,10,seoclerks.com,US,Americas,Northern America,United States of America,Arizona,,Phoenix
174.138.166.186,4,4,seoclerks.com,US,Americas,Northern America,United States of America,Arizona,,Phoenix
86.38.202.104,4,28,seokhan.xyz,US,Americas,Northern America,United States of America,Arizona,,Phoenix
191.101.79.164,4,7,sevenarticle.com,US,Americas,Northern America,United States of America,Arizona,,Phoenix
23.226.70.131,4,7998,sexcrimeattorneysris.com,US,Americas,Northern America,United States of America,Arizona,,Phoenix
89.117.9.78,4,8,shapeservices.com,US,Americas,Northern America,United States of America,Arizona,,Phoenix
66.85.132.138,4,5,shapladoelsangsad.com,US,Americas,Northern America,United States of America,Arizona,,Phoenix
89.117.139.69,4,4,shareexit.com,US,Americas,Northern America,United States of America,Arizona,,Phoenix
38.29.223.174,4,-2,sharingkindergarten.com,US,Americas,Northern America,United States of America,Arizona,,Phoenix
217.196.55.42,4,4,shayski.com,US,Americas,Northern America,United States of America,Arizona,,Phoenix
209.50.61.178,4,2,shengshangtech.com,US,Americas,Northern America,United States of America,Arizona,,Phoenix
217.21.66.22,4,4,shilfmassage.com,US,Americas,Northern America,United States of America,Arizona,,Phoenix
106.0.62.87,4,293,shopdecordeals.com,US,Americas,Northern America,United States of America,Arizona,,Phoenix
191.101.79.77,4,5,shopwithus.live,US,Americas,Northern America,United States of America,Arizona,,Phoenix
147.79.126.21,4,4,shotecamera.com,US,Americas,Northern America,United States of America,Arizona,,Phoenix
185.162.53.184,4,4,showslab.com,US,Americas,Northern America,United States of America,Arizona,,Phoenix
108.170.19.59,4,2,shrishrijee.com,US,Americas,Northern America,United States of America,Arizona,,Phoenix
217.21.64.170,4,6,sibconline.com.sb,US,Americas,Northern America,United States of America,Arizona,,Phoenix
185.213.90.31,4,3,sibergy.com,US,Americas,Northern America,United States of America,Arizona,,Phoenix
156.67.74.157,4,48,sightviewsafari.com,US,Americas,Northern America,United States of America,Arizona,,Phoenix
217.21.77.88,4,27,signal81.com,US,Americas,Northern America,United States of America,Arizona,,Phoenix
38.29.223.51,4,2,simplefunforkids.com,US,Americas,Northern America,United States of America,Arizona,,Phoenix
38.29.223.151,4,-1,simplefunforkids.com,US,Americas,Northern America,United States of America,Arizona,,Phoenix
38.29.223.181,4,12,simplefunforkids.com,US,Americas,Northern America,United States of America,Arizona,,Phoenix
62.72.1.162,4,4,siouxcountyradio.com,US,Americas,Northern America,United States of America,Arizona,,Phoenix
148.163.122.9,4,252890,siprogperu.com,US,Americas,Northern America,United States of America,Arizona,,Phoenix
89.117.139.159,4,17,sirknightj.com,US,Americas,Northern America,United States of America,Arizona,,Phoenix
62.72.50.172,4,82,sitkasentinel.com,US,Americas,Northern America,United States of America,Arizona,,Phoenix
46.28.43.75,4,55,skeptiko.com,US,Americas,Northern America,United States of America,Arizona,,Phoenix
191.101.13.121,4,3,skokr.com,US,Americas,Northern America,United States of America,Arizona,,Phoenix
154.56.47.114,4,29,sky-info-tech.com,US,Americas,Northern America,United States of America,Arizona,,Phoenix
156.67.73.134,4,4,skyvisionenterprises.com,US,Americas,Northern America,United States of America,Arizona,,Phoenix
208.94.117.196,4,-12,slimvoice.co,US,Americas,Northern America,United States of America,Arizona,,Phoenix
89.117.139.205,4,18,slotatlantis.com,US,Americas,Northern America,United States of America,Arizona,,Phoenix
86.38.202.62,4,9,slounik.org,US,Americas,Northern America,United States of America,Arizona,,Phoenix
77.37.61.234,4,13,slovar.info,US,Americas,Northern America,United States of America,Arizona,,Phoenix
208.94.116.34,4,-14,slweb.org,US,Americas,Northern America,United States of America,Arizona,,Phoenix
185.212.70.216,4,5,smarterlearningguide.com,US,Americas,Northern America,United States of America,Arizona,,Phoenix
106.0.62.92,4,12,smartmobs.com,US,Americas,Northern America,United States of America,Arizona,,Phoenix
62.72.25.174,4,3,snaplap.net,US,Americas,Northern America,United States of America,Arizona,,Phoenix
66.37.3.122,4,25,snvrha.org,US,Americas,Northern America,United States of America,Arizona,,Tempe
147.79.125.45,4,13,sociallybuzz.com,US,Americas,Northern America,United States of America,Arizona,,Phoenix
185.162.53.252,4,31,softwarepatch.com,US,Americas,Northern America,United States of America,Arizona,,Phoenix
154.56.47.137,4,7,softwareproz.com,US,Americas,Northern America,United States of America,Arizona,,Phoenix
185.212.71.6,4,14,sogamosoindustrialyminero.gov.co,US,Americas,Northern America,United States of America,Arizona,,Phoenix
191.96.244.42,4,15,sol8.com,US,Americas,Northern America,United States of America,Arizona,,Phoenix
195.35.33.167,4,49,soldeprimavera.org,US,Americas,Northern America,United States of America,Arizona,,Phoenix
46.28.43.106,4,3,solitario-spider.online,US,Americas,Northern America,United States of America,Arizona,,Phoenix
31.220.31.29,4,11252,solucx.com.br,US,Americas,Northern America,United States of America,Arizona,,Phoenix
82.180.138.130,4,18,something-fishy.org,US,Americas,Northern America,United States of America,Arizona,,Phoenix
195.35.8.115,4,18,sonnenalp.com,US,Americas,Northern America,United States of America,Arizona,,Phoenix
195.179.237.124,4,14,sophe.org,US,Americas,Northern America,United States of America,Arizona,,Phoenix
82.180.129.166,4,4,sosc.org,US,Americas,Northern America,United States of America,Arizona,,Phoenix
108.170.28.19,4,0,soulfuldetroit.com,US,Americas,Northern America,United States of America,Arizona,,Phoenix
209.188.14.132,4,5,spamassassin.org,US,Americas,Northern America,United States of America,Arizona,,Phoenix
156.67.73.189,4,5,spartacuslawfirm.com,US,Americas,Northern America,United States of America,Arizona,,Phoenix
198.15.97.90,4,1428185,spear1340.com,US,Americas,Northern America,United States of America,Arizona,,Phoenix
198.24.151.123,4,875200,spiderhosting.com.np,US,Americas,Northern America,United States of America,Arizona,,Phoenix
208.94.117.48,4,-8,splasho.com,US,Americas,Northern America,United States of America,Arizona,,Phoenix
77.37.32.82,4,24,sportsannouncing.com,US,Americas,Northern America,United States of America,Arizona,,Phoenix
190.92.151.57,4,11,spudz.org,US,Americas,Northern America,United States of America,Arizona,,
147.79.122.97,4,17,spyglass360.com,US,Americas,Northern America,United States of America,Arizona,,Phoenix
5.183.9.140,4,4,spymasterpro.com,US,Americas,Northern America,United States of America,Arizona,,Phoenix
148.163.89.10,4,-1,sssscomic.com,US,Americas,Northern America,United States of America,Arizona,,Phoenix
191.101.79.144,4,30,starlysoft.com,US,Americas,Northern America,United States of America,Arizona,,Phoenix
106.0.62.82,4,45,starsgraph.com,US,Americas,Northern America,United States of America,Arizona,,Phoenix
184.164.131.226,4,33,startxchange.com,US,Americas,Northern America,United States of America,Arizona,,Phoenix
198.24.136.98,4,1,state-of-the-art-mailer.com,US,Americas,Northern America,United States of America,Arizona,,Phoenix
198.15.87.98,4,9,statowl.com,US,Americas,Northern America,United States of America,Arizona,,Phoenix
148.163.124.9,4,-225843,stealthdocuments.com,US,Americas,Northern America,United States of America,Arizona,,Phoenix
38.29.223.127,4,5,steampoweredfamily.com,US,Americas,Northern America,United States of America,Arizona,,Phoenix
38.29.223.187,4,8,steampoweredfamily.com,US,Americas,Northern America,United States of America,Arizona,,Phoenix
195.35.15.148,4,7,stevesforums.com,US,Americas,Northern America,United States of America,Arizona,,Phoenix
185.162.53.249,4,73,stgeorges.co.uk,US,Americas,Northern America,United States of America,Arizona,,Phoenix
106.0.62.73,4,7,stillntheclear.com,US,Americas,Northern America,United States of America,Arizona,,Phoenix
62.72.5.80,4,10,stockta.com,US,Americas,Northern America,United States of America,Arizona,,Phoenix
191.101.12.17,4,13,stonedepotus.com,US,Americas,Northern America,United States of America,Arizona,,Phoenix
148.163.99.14,4,-174246,storytellerspotlight.com,US,Americas,Northern America,United States of America,Arizona,,Phoenix
195.35.10.28,4,10,streann.com,US,Americas,Northern America,United States of America,Arizona,,Phoenix
184.164.79.218,4,26,strictly-financial.com,US,Americas,Northern America,United States of America,Arizona,,Phoenix
89.117.9.189,4,26,studioninja.co,US,Americas,Northern America,United States of America,Arizona,,Phoenix
190.92.148.15,4,-17,study-online.net,US,Americas,Northern America,United States of America,Arizona,,
217.196.55.161,4,3,styleshout.com,US,Americas,Northern America,United States of America,Arizona,,Phoenix
195.35.33.111,4,4,suchitasen.com,US,Americas,Northern America,United States of America,Arizona,,Phoenix
38.29.223.120,4,1,sugarspiceandglitter.com,US,Americas,Northern America,United States of America,Arizona,,Phoenix
38.29.223.50,4,0,sugarspiceandglitter.com,US,Americas,Northern America,United States of America,Arizona,,Phoenix
38.29.223.180,4,-2,sugarspiceandglitter.com,US,Americas,Northern America,United States of America,Arizona,,Phoenix
38.29.223.150,4,-1,sugarspiceandglitter.com,US,Americas,Northern America,United States of America,Arizona,,Phoenix
156.67.73.251,4,4,sunframefacade.com,US,Americas,Northern America,United States of America,Arizona,,Phoenix
208.94.118.131,4,-37,sunshineartist.com,US,Americas,Northern America,United States of America,Arizona,,Phoenix
45.137.159.18,4,11,sunshinestatenews.com,US,Americas,Northern America,United States of America,Arizona,,Phoenix
148.163.122.13,4,252886,superseventies.com,US,Americas,Northern America,United States of America,Arizona,,Phoenix
208.94.117.233,4,-11,suricrasia.online,US,Americas,Northern America,United States of America,Arizona,,Phoenix
156.67.75.18,4,10,svrtechnologies.com,US,Americas,Northern America,United States of America,Arizona,,Phoenix
85.31.226.6,4,9,sweetspicykitchen.com,US,Americas,Northern America,United States of America,Arizona,,Phoenix
66.85.154.42,4,6,swimmingvac.com,US,Americas,Northern America,United States of America,Arizona,,Phoenix
195.35.15.103,4,4,sydneygraffitiarchive.com.au,US,Americas,Northern America,United States of America,Arizona,,Phoenix
192.198.192.27,4,12,synnetintl.com,US,Americas,Northern America,United States of America,Arizona,,Phoenix
170.130.180.21,4,4,sz-srzs.com,US,Americas,Northern America,United States of America,Arizona,,Phoenix
195.35.10.155,4,6,takesapp.com,US,Americas,Northern America,United States of America,Arizona,,Phoenix
89.117.9.25,4,8,takethiscourse.net,US,Americas,Northern America,United States of America,Arizona,,Phoenix
191.101.79.210,4,4,talkradionews.com,US,Americas,Northern America,United States of America,Arizona,,Phoenix
82.180.138.154,4,4,tannerkesel.com,US,Americas,Northern America,United States of America,Arizona,,Phoenix
66.85.136.21,4,2,targetwoman.com,US,Americas,Northern America,United States of America,Arizona,,Phoenix
154.56.47.205,4,15,tastykitchen.online,US,Americas,Northern America,United States of America,Arizona,,Phoenix
195.35.33.204,4,10,tattoosfree.com,US,Americas,Northern America,United States of America,Arizona,,Phoenix
89.117.139.223,4,4,tbtinvest.com,US,Americas,Northern America,United States of America,Arizona,,Phoenix
156.67.69.96,4,7,tdbo.org,US,Americas,Northern America,United States of America,Arizona,,Phoenix
148.135.129.31,4,6,tdedchangair.com,US,Americas,Northern America,United States of America,Arizona,,Phoenix
66.85.167.30,4,792,teamexjute.com,US,Americas,Northern America,United States of America,Arizona,,Phoenix
185.212.71.206,4,25,techarin.com,US,Americas,Northern America,United States of America,Arizona,,Phoenix
195.35.39.221,4,4,techarp.co.uk,US,Americas,Northern America,United States of America,Arizona,,Phoenix
195.35.15.45,4,5,techbizpinnacle.com,US,Americas,Northern America,United States of America,Arizona,,Phoenix
89.117.9.139,4,4,techhunted.com,US,Americas,Northern America,United States of America,Arizona,,Phoenix
195.179.237.182,4,3,techicient.com,US,Americas,Northern America,United States of America,Arizona,,Phoenix
191.101.13.9,4,35,techktimes.de,US,Americas,Northern America,United States of America,Arizona,,Phoenix
195.35.15.6,4,6,techmonarchy.com,US,Americas,Northern America,United States of America,Arizona,,Phoenix
46.28.40.61,4,66,techmother.com,US,Americas,Northern America,United States of America,Arizona,,Phoenix
62.72.49.213,4,21,technwzs.com,US,Americas,Northern America,United States of America,Arizona,,Phoenix
62.72.25.235,4,43,techtired.com,US,Americas,Northern America,United States of America,Arizona,,Phoenix
208.94.116.117,4,15,techwontsave.us,US,Americas,Northern America,United States of America,Arizona,,Phoenix
69.64.84.200,4,10,tele-satellite.com,US,Americas,Northern America,United States of America,Arizona,,Phoenix
209.188.7.132,4,72,television.im,US,Americas,Northern America,United States of America,Arizona,,Phoenix
205.220.231.22,4,24,tempest.net,US,Americas,Northern America,United States of America,Arizona,,Phoenix
107.178.115.140,4,6,templatehouse.net,US,Americas,Northern America,United States of America,Arizona,,Phoenix
174.17.238.53,4,5,ten1919.com,US,Americas,Northern America,United States of America,Arizona,,San Tan Valley
195.179.236.72,4,76,teqnoworld.com,US,Americas,Northern America,United States of America,Arizona,,Phoenix
82.180.138.52,4,60,teriwall.com,US,Americas,Northern America,United States of America,Arizona,,Phoenix
77.37.58.50,4,3,terminalsguides.com,US,Americas,Northern America,United States of America,Arizona,,Phoenix
156.67.72.236,4,2,tetradigital.com.au,US,Americas,Northern America,United States of America,Arizona,,Phoenix
147.79.121.4,4,2,texturestudios.net,US,Americas,Northern America,United States of America,Arizona,,Phoenix
195.35.39.34,4,30,the-hidden-wiki.xyz,US,Americas,Northern America,United States of America,Arizona,,Phoenix
191.101.0.13,4,8,theamericanreporters.com,US,Americas,Northern America,United States of America,Arizona,,Phoenix
45.145.186.194,4,6,thebengalexpress.news,US,Americas,Northern America,United States of America,Arizona,,Phoenix
89.117.9.212,4,6,thebharatexpressnews.com,US,Americas,Northern America,United States of America,Arizona,,Phoenix
194.195.84.249,4,3,theblushyguide.com,US,Americas,Northern America,United States of America,Arizona,,Phoenix
191.101.13.166,4,32,thecalicompanyvape.co.uk,US,Americas,Northern America,United States of America,Arizona,,Phoenix
23.83.129.12,4,-15,thecanyon.com,US,Americas,Northern America,United States of America,Arizona,,Phoenix
131.153.11.251,4,2,thecarlyle.com,US,Americas,Northern America,United States of America,Arizona,,Phoenix
38.29.223.178,4,17,thechaosandtheclutter.com,US,Americas,Northern America,United States of America,Arizona,,Phoenix
185.162.52.119,4,42,thecookbook.pk,US,Americas,Northern America,United States of America,Arizona,,Phoenix
195.35.39.95,4,7,thecrazyprogrammer.com,US,Americas,Northern America,United States of America,Arizona,,Phoenix
184.171.164.246,4,22,thedentedhelmet.com,US,Americas,Northern America,United States of America,Arizona,,Phoenix
156.67.78.149,4,11,thefoxmagazine.com,US,Americas,Northern America,United States of America,Arizona,,Phoenix
82.180.175.33,4,23,thefucksites.com,US,Americas,Northern America,United States of America,Arizona,,Phoenix
148.135.131.113,4,35,thegailygrind.com,US,Americas,Northern America,United States of America,Arizona,,Phoenix
45.137.159.28,4,11,thegoaspotlight.com,US,Americas,Northern America,United States of America,Arizona,,Phoenix
195.179.236.172,4,25,thegoogleblog.com,US,Americas,Northern America,United States of America,Arizona,,Phoenix
217.21.76.246,4,8,thegully.com,US,Americas,Northern America,United States of America,Arizona,,Phoenix
156.67.74.159,4,59,thehealthandnutritioncoach.com,US,Americas,Northern America,United States of America,Arizona,,Phoenix
195.35.33.153,4,6,thehealthsciencejournal.com,US,Americas,Northern America,United States of America,Arizona,,Phoenix
156.67.75.99,4,8,thehum.info,US,Americas,Northern America,United States of America,Arizona,,Phoenix
89.117.9.134,4,3,theidproject.org,US,Americas,Northern America,United States of America,Arizona,,Phoenix
45.137.159.230,4,3,theinformationminister.com,US,Americas,Northern America,United States of America,Arizona,,Phoenix
38.29.223.133,4,0,theinspiredtreehouse.com,US,Americas,Northern America,United States of America,Arizona,,Phoenix
38.29.223.163,4,0,theinspiredtreehouse.com,US,Americas,Northern America,United States of America,Arizona,,Phoenix
38.29.223.193,4,0,theinspiredtreehouse.com,US,Americas,Northern America,United States of America,Arizona,,Phoenix
38.29.223.63,4,0,theinspiredtreehouse.com,US,Americas,Northern America,United States of America,Arizona,,Phoenix
38.29.223.179,4,16,thejennyevolution.com,US,Americas,Northern America,United States of America,Arizona,,Phoenix
38.29.223.149,4,9,thejennyevolution.com,US,Americas,Northern America,United States of America,Arizona,,Phoenix
38.29.223.49,4,0,thejennyevolution.com,US,Americas,Northern America,United States of America,Arizona,,Phoenix
185.164.109.144,4,96,thekeyphrase.com,US,Americas,Northern America,United States of America,Arizona,,Phoenix
38.29.223.175,4,36,thekindergartenconnection.com,US,Americas,Northern America,United States of America,Arizona,,Phoenix
38.29.223.145,4,17,thekindergartenconnection.com,US,Americas,Northern America,United States of America,Arizona,,Phoenix
38.29.223.45,4,-3,thekindergartenconnection.com,US,Americas,Northern America,United States of America,Arizona,,Phoenix
38.29.223.115,4,0,thekindergartenconnection.com,US,Americas,Northern America,United States of America,Arizona,,Phoenix
38.29.223.148,4,28,thelandings.com,US,Americas,Northern America,United States of America,Arizona,,Phoenix
38.29.223.118,4,0,thelandings.com,US,Americas,Northern America,United States of America,Arizona,,Phoenix
38.29.223.48,4,-2,thelandings.com,US,Americas,Northern America,United States of America,Arizona,,Phoenix
106.0.62.85,4,0,thelanguagedoctors.org,US,Americas,Northern America,United States of America,Arizona,,Phoenix
86.38.242.24,4,75,thembites.com,US,Americas,Northern America,United States of America,Arizona,,Phoenix
38.29.223.112,4,2,themeasuredmom.com,US,Americas,Northern America,United States of America,Arizona,,Phoenix
38.29.223.42,4,2,themeasuredmom.com,US,Americas,Northern America,United States of America,Arizona,,Phoenix
38.29.223.142,4,-2,themeasuredmom.com,US,Americas,Northern America,United States of America,Arizona,,Phoenix
38.29.223.172,4,-1,themeasuredmom.com,US,Americas,Northern America,United States of America,Arizona,,Phoenix
89.116.190.116,4,3,themenupage.com,US,Americas,Northern America,United States of America,Arizona,,Phoenix
156.67.75.109,4,25,themepoints.com,US,Americas,Northern America,United States of America,Arizona,,Phoenix
45.145.186.25,4,5,themepure.net,US,Americas,Northern America,United States of America,Arizona,,Phoenix
193.203.178.247,4,8,themewant.com,US,Americas,Northern America,United States of America,Arizona,,Phoenix
65.19.187.94,4,4,themilitarystandard.com,US,Americas,Northern America,United States of America,Arizona,,Prescott Valley
106.0.62.88,4,63,themomkind.com,US,Americas,Northern America,United States of America,Arizona,,Phoenix
106.0.62.91,4,0,themoneyalert.com,US,Americas,Northern America,United States of America,Arizona,,Phoenix
62.72.48.240,4,4,thenaturehero.com,US,Americas,Northern America,United States of America,Arizona,,Phoenix
38.29.223.165,4,7,theottoolbox.com,US,Americas,Northern America,United States of America,Arizona,,Phoenix
38.29.223.65,4,2,theottoolbox.com,US,Americas,Northern America,United States of America,Arizona,,Phoenix
38.29.223.135,4,0,theottoolbox.com,US,Americas,Northern America,United States of America,Arizona,,Phoenix
38.29.223.195,4,-1,theottoolbox.com,US,Americas,Northern America,United States of America,Arizona,,Phoenix
156.67.77.59,4,70,theoutsourcecompany.com,US,Americas,Northern America,United States of America,Arizona,,Phoenix
106.0.62.75,4,44,thepeoplewhoshare.com,US,Americas,Northern America,United States of America,Arizona,,Phoenix
38.29.223.157,4,-3,therealisticmama.com,US,Americas,Northern America,United States of America,Arizona,,Phoenix
38.29.223.57,4,0,therealisticmama.com,US,Americas,Northern America,United States of America,Arizona,,Phoenix
148.135.130.115,4,13,therooster.com,US,Americas,Northern America,United States of America,Arizona,,Phoenix
184.171.164.234,4,42,therpf.com,US,Americas,Northern America,United States of America,Arizona,,Phoenix
195.35.10.86,4,34,theseobacklink.com,US,Americas,Northern America,United States of America,Arizona,,Phoenix
217.21.78.234,4,4,thesharepage.com,US,Americas,Northern America,United States of America,Arizona,,Phoenix
38.29.223.55,4,2,thesoccermomblog.com,US,Americas,Northern America,United States of America,Arizona,,Phoenix
38.29.223.125,4,0,thesoccermomblog.com,US,Americas,Northern America,United States of America,Arizona,,Phoenix
38.29.223.185,4,17,thesoccermomblog.com,US,Americas,Northern America,United States of America,Arizona,,Phoenix
38.29.223.155,4,0,thesoccermomblog.com,US,Americas,Northern America,United States of America,Arizona,,Phoenix
38.29.223.59,4,-3,thespeechroomnews.com,US,Americas,Northern America,United States of America,Arizona,,Phoenix
38.29.223.189,4,-3,thespeechroomnews.com,US,Americas,Northern America,United States of America,Arizona,,Phoenix
38.29.223.159,4,10,thespeechroomnews.com,US,Americas,Northern America,United States of America,Arizona,,Phoenix
38.29.223.183,4,4,thestemlaboratory.com,US,Americas,Northern America,United States of America,Arizona,,Phoenix
38.29.223.53,4,0,thestemlaboratory.com,US,Americas,Northern America,United States of America,Arizona,,Phoenix
38.29.223.153,4,1,thestemlaboratory.com,US,Americas,Northern America,United States of America,Arizona,,Phoenix
38.29.223.123,4,-2,thestemlaboratory.com,US,Americas,Northern America,United States of America,Arizona,,Phoenix
217.196.55.159,4,7,thestorysiren.com,US,Americas,Northern America,United States of America,Arizona,,Phoenix
89.116.192.231,4,21,thetechwide.com,US,Americas,Northern America,United States of America,Arizona,,Phoenix
185.162.54.18,4,31,thevoicebw.com,US,Americas,Northern America,United States of America,Arizona,,Phoenix
195.35.10.232,4,8,thewallartfair.com,US,Americas,Northern America,United States of America,Arizona,,Phoenix
38.29.223.164,4,0,thewoodenspooneffect.com,US,Americas,Northern America,United States of America,Arizona,,Phoenix
38.29.223.134,4,6,thewoodenspooneffect.com,US,Americas,Northern America,United States of America,Arizona,,Phoenix
38.29.223.64,4,15,thewoodenspooneffect.com,US,Americas,Northern America,United States of America,Arizona,,Phoenix
38.29.223.194,4,2,thewoodenspooneffect.com,US,Americas,Northern America,United States of America,Arizona,,Phoenix
89.116.192.127,4,7,theworldorbust.com,US,Americas,Northern America,United States of America,Arizona,,Phoenix
77.37.94.112,4,3,theyoganomads.com,US,Americas,Northern America,United States of America,Arizona,,Phoenix
206.168.191.215,4,2,thierrylasry.com,US,Americas,Northern America,United States of America,Arizona,,Phoenix
45.137.159.121,4,40,thinkbomall.com,US,Americas,Northern America,United States of America,Arizona,,Phoenix
156.67.73.177,4,4,thinkcelestial.com,US,Americas,Northern America,United States of America,Arizona,,Phoenix
82.180.175.11,4,22,thinkup.me,US,Americas,Northern America,United States of America,Arizona,,Phoenix
62.72.54.24,4,5,thishawaiilife.com,US,Americas,Northern America,United States of America,Arizona,,Phoenix
156.67.77.132,4,31,thisiswhyyourejolly.com,US,Americas,Northern America,United States of America,Arizona,,Phoenix
38.29.223.160,4,3,thispilgrimlife.com,US,Americas,Northern America,United States of America,Arizona,,Phoenix
38.29.223.60,4,3,thispilgrimlife.com,US,Americas,Northern America,United States of America,Arizona,,Phoenix
38.29.223.190,4,19,thispilgrimlife.com,US,Americas,Northern America,United States of America,Arizona,,Phoenix
38.29.223.113,4,-1,thisreadingmama.com,US,Americas,Northern America,United States of America,Arizona,,Phoenix
38.29.223.173,4,1,thisreadingmama.com,US,Americas,Northern America,United States of America,Arizona,,Phoenix
38.29.223.43,4,4,thisreadingmama.com,US,Americas,Northern America,United States of America,Arizona,,Phoenix
38.29.223.143,4,16,thisreadingmama.com,US,Americas,Northern America,United States of America,Arizona,,Phoenix
208.94.116.46,4,-14,thomaspaine.org,US,Americas,Northern America,United States of America,Arizona,,Phoenix
217.196.55.24,4,6,thosegraces.com,US,Americas,Northern America,United States of America,Arizona,,Phoenix
107.167.81.178,4,6,threepanelsoul.com,US,Americas,Northern America,United States of America,Arizona,,Phoenix
38.29.223.147,4,20,thriftymommastips.com,US,Americas,Northern America,United States of America,Arizona,,Phoenix
38.29.223.47,4,4,thriftymommastips.com,US,Americas,Northern America,United States of America,Arizona,,Phoenix
195.35.39.41,4,4,tiaskitchen.com,US,Americas,Northern America,United States of America,Arizona,,Phoenix
195.35.33.43,4,59,tiktok-followers-buy.com,US,Americas,Northern America,United States of America,Arizona,,Phoenix
82.180.174.115,4,27,tiltshiftphotography.net,US,Americas,Northern America,United States of America,Arizona,,Phoenix
89.117.9.19,4,7,timepiececloset.com.au,US,Americas,Northern America,United States of America,Arizona,,Phoenix
86.38.202.205,4,5,tirthmehta.com,US,Americas,Northern America,United States of America,Arizona,,Phoenix
106.0.62.71,4,-11,titane.ca,US,Americas,Northern America,United States of America,Arizona,,Phoenix
62.72.54.99,4,4,tjsflooring.co.uk,US,Americas,Northern America,United States of America,Arizona,,Phoenix
195.35.15.226,4,3,tobaccoonline.co.uk,US,Americas,Northern America,United States of America,Arizona,,Phoenix
156.67.75.20,4,7,todmaffin.com,US,Americas,Northern America,United States of America,Arizona,,Phoenix
64.25.66.25,4,22,tonation-nsn.gov,US,Americas,Northern America,United States of America,Arizona,,Sells
194.195.84.241,4,22,topselfdispensary.com,US,Americas,Northern America,United States of America,Arizona,,Phoenix
195.35.33.62,4,24,topstarzone.com,US,Americas,Northern America,United States of America,Arizona,,Phoenix
38.29.223.44,4,0,totallythebomb.com,US,Americas,Northern America,United States of America,Arizona,,Phoenix
38.29.223.114,4,2,totallythebomb.com,US,Americas,Northern America,United States of America,Arizona,,Phoenix
38.29.223.144,4,5,totallythebomb.com,US,Americas,Northern America,United States of America,Arizona,,Phoenix
191.101.232.213,4,9,tradegroup.com,US,Americas,Northern America,United States of America,Arizona,,Phoenix
184.164.136.146,4,19,traffic-splash.com,US,Americas,Northern America,United States of America,Arizona,,Phoenix
107.178.105.10,4,10,trafficlawyerfairfaxva.com,US,Americas,Northern America,United States of America,Arizona,,Phoenix
156.67.73.197,4,15,trans2m.com,US,Americas,Northern America,United States of America,Arizona,,Phoenix
64.6.108.188,4,8,transterrestrial.com,US,Americas,Northern America,United States of America,Arizona,,Tempe
148.135.130.106,4,11,traveltween.com,US,Americas,Northern America,United States of America,Arizona,,Phoenix
38.29.223.192,4,25,travelwithaplan.com,US,Americas,Northern America,United States of America,Arizona,,Phoenix
38.29.223.162,4,28,travelwithaplan.com,US,Americas,Northern America,United States of America,Arizona,,Phoenix
86.38.202.169,4,24,travomojo.com,US,Americas,Northern America,United States of America,Arizona,,Phoenix
82.180.138.12,4,19,trendingsearchs.com,US,Americas,Northern America,United States of America,Arizona,,Phoenix
217.196.54.149,4,46,trendydigtal.com,US,Americas,Northern America,United States of America,Arizona,,Phoenix
195.35.39.124,4,6,tripguiderz.com,US,Americas,Northern America,United States of America,Arizona,,Phoenix
148.135.129.137,4,28,trueen.com,US,Americas,Northern America,United States of America,Arizona,,Phoenix
148.135.129.124,4,5,trumanroof.com,US,Americas,Northern America,United States of America,Arizona,,Phoenix
198.143.186.143,4,692,tuftsobserver.org,US,Americas,Northern America,United States of America,Arizona,,Phoenix
45.137.159.53,4,4,tunesbaby.com,US,Americas,Northern America,United States of America,Arizona,,Phoenix
192.110.161.108,4,20,turbochef.com,US,Americas,Northern America,United States of America,Arizona,,Phoenix
62.72.3.207,4,2,turbokits.com,US,Americas,Northern America,United States of America,Arizona,,Phoenix
62.72.7.198,4,16,turingpi.com,US,Americas,Northern America,United States of America,Arizona,,Phoenix
77.37.60.119,4,10,tweakbox.mobi,US,Americas,Northern America,United States of America,Arizona,,Phoenix
82.180.174.15,4,3,twinpickle.com,US,Americas,Northern America,United States of America,Arizona,,Phoenix
45.137.159.212,4,7,twotrees3d.com,US,Americas,Northern America,United States of America,Arizona,,Phoenix
217.21.77.215,4,5,ubm-corporate.com,US,Americas,Northern America,United States of America,Arizona,,Phoenix
148.135.129.3,4,3,ubuntulife.net,US,Americas,Northern America,United States of America,Arizona,,Phoenix
62.72.50.64,4,3,udenap.org,US,Americas,Northern America,United States of America,Arizona,,Phoenix
107.178.108.53,4,5560,uhostfull.com,US,Americas,Northern America,United States of America,Arizona,,Phoenix
62.72.48.207,4,3,ultractivation.com,US,Americas,Northern America,United States of America,Arizona,,Phoenix
108.170.16.147,4,1,unadri.ac.id,US,Americas,Northern America,United States of America,Arizona,,Phoenix
66.85.128.68,4,622,unae.edu.ec,US,Americas,Northern America,United States of America,Arizona,,Phoenix
208.94.117.12,4,3,underhanded-c.org,US,Americas,Northern America,United States of America,Arizona,,Phoenix
89.117.139.59,4,29,unfoldwp.com,US,Americas,Northern America,United States of America,Arizona,,Phoenix
86.38.202.238,4,6,uocalamity.site,US,Americas,Northern America,United States of America,Arizona,,Phoenix
185.162.54.30,4,18,uog.edu.et,US,Americas,Northern America,United States of America,Arizona,,Phoenix
89.117.139.87,4,4,up2dates.in,US,Americas,Northern America,United States of America,Arizona,,Phoenix
107.178.115.69,4,-6918,ur.my,US,Americas,Northern America,United States of America,Arizona,,Phoenix
156.67.73.22,4,4,urbanadventure.org,US,Americas,Northern America,United States of America,Arizona,,Phoenix
89.116.192.204,4,5,us-nnaganotonic.com,US,Americas,Northern America,United States of America,Arizona,,Phoenix
195.35.33.3,4,14,usafulnews.com,US,Americas,Northern America,United States of America,Arizona,,Phoenix
86.38.218.103,4,14,usbbog.edu.co,US,Americas,Northern America,United States of America,Arizona,,Phoenix
77.37.88.175,4,19,uscaacademy.com,US,Americas,Northern America,United States of America,Arizona,,Phoenix
195.35.39.226,4,41,usdailymagazine.com,US,Americas,Northern America,United States of America,Arizona,,Phoenix
62.72.50.102,4,4,usdwiki.com,US,Americas,Northern America,United States of America,Arizona,,Phoenix
208.94.117.191,4,-13,utf8everywhere.org,US,Americas,Northern America,United States of America,Arizona,,Phoenix
148.163.126.130,4,7989,uzreport.com,US,Americas,Northern America,United States of America,Arizona,,Phoenix
195.35.39.201,4,6,vacayla.com,US,Americas,Northern America,United States of America,Arizona,,Phoenix
64.6.98.185,4,18,validatorai.com,US,Americas,Northern America,United States of America,Arizona,,Tempe
82.180.138.141,4,30,validthemes.net,US,Americas,Northern America,United States of America,Arizona,,Phoenix
156.67.72.231,4,6,valuesi.com,US,Americas,Northern America,United States of America,Arizona,,Phoenix
89.116.192.151,4,50,vefeed.com,US,Americas,Northern America,United States of America,Arizona,,Phoenix
106.0.62.80,4,49,vegasadvantage.com,US,Americas,Northern America,United States of America,Arizona,,Phoenix
82.180.129.62,4,16,ventureoutsource.com,US,Americas,Northern America,United States of America,Arizona,,Phoenix
82.180.172.51,4,13,venuestoday.com,US,Americas,Northern America,United States of America,Arizona,,Phoenix
77.37.56.204,4,51,vestaron.com,US,Americas,Northern America,United States of America,Arizona,,Phoenix
82.180.128.199,4,20,vetshows.com,US,Americas,Northern America,United States of America,Arizona,,Phoenix
170.130.5.250,4,19,viagraaqwe.com,US,Americas,Northern America,United States of America,Arizona,,Glendale
174.138.160.50,4,0,vibrantskinbar.com,US,Americas,Northern America,United States of America,Arizona,,Phoenix
195.179.237.76,4,62,vidalistas.com,US,Americas,Northern America,United States of America,Arizona,,Phoenix
156.67.78.173,4,64,vielmetter.com,US,Americas,Northern America,United States of America,Arizona,,Phoenix
162.213.209.82,4,8039,vignelli.com,US,Americas,Northern America,United States of America,Arizona,,Phoenix
193.203.179.154,4,8,vinesresortandspa.com,US,Americas,Northern America,United States of America,Arizona,,Phoenix
195.35.10.184,4,12,virginiatruckee.com,US,Americas,Northern America,United States of America,Arizona,,Phoenix
82.180.175.160,4,5,virtuino.com,US,Americas,Northern America,United States of America,Arizona,,Phoenix
195.35.33.72,4,5,visasinformation.com,US,Americas,Northern America,United States of America,Arizona,,Phoenix
66.85.130.37,4,3,visionhelpdesk.com,US,Americas,Northern America,United States of America,Arizona,,Phoenix
195.35.10.200,4,4,visit-tirana.com,US,Americas,Northern America,United States of America,Arizona,,Phoenix
195.179.236.24,4,5,visitbigbend.com,US,Americas,Northern America,United States of America,Arizona,,Phoenix
89.117.9.156,4,3,visitguatemala.com,US,Americas,Northern America,United States of America,Arizona,,Phoenix
45.137.159.250,4,53,vistarmagazine.com,US,Americas,Northern America,United States of America,Arizona,,Phoenix
217.196.54.96,4,3,visuresolutions.com,US,Americas,Northern America,United States of America,Arizona,,Phoenix
191.101.13.4,4,4,vlarosa.com,US,Americas,Northern America,United States of America,Arizona,,Phoenix
195.35.15.161,4,69,vllg.com,US,Americas,Northern America,United States of America,Arizona,,Phoenix
107.178.108.45,4,5,vlsm.org,US,Americas,Northern America,United States of America,Arizona,,Phoenix
162.213.211.18,4,7993,voidlinux.eu,US,Americas,Northern America,United States of America,Arizona,,Phoenix
193.203.177.192,4,4,vorlane.com,US,Americas,Northern America,United States of America,Arizona,,Phoenix
156.67.66.72,4,3,votetags.com,US,Americas,Northern America,United States of America,Arizona,,Phoenix
82.180.175.199,4,3,voxy.co.nz,US,Americas,Northern America,United States of America,Arizona,,Phoenix
191.96.56.94,4,2,vrcapitalloans.com,US,Americas,Northern America,United States of America,Arizona,,Phoenix
195.35.15.123,4,4,vsoftware.org,US,Americas,Northern America,United States of America,Arizona,,Phoenix
66.85.131.234,4,6,w888thai.me,US,Americas,Northern America,United States of America,Arizona,,Phoenix
38.29.223.191,4,-2,wanderlustandwellness.org,US,Americas,Northern America,United States of America,Arizona,,Phoenix
38.29.223.61,4,-3,wanderlustandwellness.org,US,Americas,Northern America,United States of America,Arizona,,Phoenix
38.29.223.161,4,1,wanderlustandwellness.org,US,Americas,Northern America,United States of America,Arizona,,Phoenix
147.79.125.125,4,4,wanep.org,US,Americas,Northern America,United States of America,Arizona,,Phoenix
107.178.115.114,4,-5,washingtonjailroster.com,US,Americas,Northern America,United States of America,Arizona,,Phoenix
89.116.190.67,4,4,watermanaustralia.com,US,Americas,Northern America,United States of America,Arizona,,Phoenix
77.37.93.141,4,46,wealthypeeps.com,US,Americas,Northern America,United States of America,Arizona,,Phoenix
148.135.131.164,4,14,webinane.com,US,Americas,Northern America,United States of America,Arizona,,Phoenix
89.117.139.163,4,17,webmarketingspider.com,US,Americas,Northern America,United States of America,Arizona,,Phoenix
106.0.62.93,4,974,webtechspark.com,US,Americas,Northern America,United States of America,Arizona,,Phoenix
89.117.9.206,4,16,webypost.com,US,Americas,Northern America,United States of America,Arizona,,Phoenix
191.101.13.100,4,3,weeddeliveryaustralia.com,US,Americas,Northern America,United States of America,Arizona,,Phoenix
82.197.95.49,4,47,weedonlinestore.net,US,Americas,Northern America,United States of America,Arizona,,Phoenix
154.56.47.58,4,5,weightlasting.com,US,Americas,Northern America,United States of America,Arizona,,Phoenix
195.35.39.195,4,6,wellbudy.com,US,Americas,Northern America,United States of America,Arizona,,Phoenix
89.116.192.13,4,7,wellnesszing.com,US,Americas,Northern America,United States of America,Arizona,,Phoenix
86.38.202.65,4,5,wensolutions.com,US,Americas,Northern America,United States of America,Arizona,,Phoenix
156.67.74.63,4,4,weoxe.com,US,Americas,Northern America,United States of America,Arizona,,Phoenix
148.135.130.104,4,5,wepluz.com,US,Americas,Northern America,United States of America,Arizona,,Phoenix
154.56.47.109,4,4,westaustintrees.com,US,Americas,Northern America,United States of America,Arizona,,Phoenix
38.29.223.62,4,0,whatdowedoallday.com,US,Americas,Northern America,United States of America,Arizona,,Phoenix
195.35.10.76,4,4,whatmaster.com,US,Americas,Northern America,United States of America,Arizona,,Phoenix
38.29.223.58,4,2,whatmomslove.com,US,Americas,Northern America,United States of America,Arizona,,Phoenix
38.29.223.128,4,0,whatmomslove.com,US,Americas,Northern America,United States of America,Arizona,,Phoenix
38.29.223.158,4,4,whatmomslove.com,US,Americas,Northern America,United States of America,Arizona,,Phoenix
38.29.223.188,4,-3,whatmomslove.com,US,Americas,Northern America,United States of America,Arizona,,Phoenix
217.21.76.56,4,4,whenews.com,US,Americas,Northern America,United States of America,Arizona,,Phoenix
64.6.100.146,4,8,who-sells-it.com,US,Americas,Northern America,United States of America,Arizona,,Tempe
86.38.202.101,4,33,wikiandfact.com,US,Americas,Northern America,United States of America,Arizona,,Phoenix
156.67.67.9,4,18,wikibiostars.in,US,Americas,Northern America,United States of America,Arizona,,Phoenix
77.37.60.168,4,46,wikispouse.com,US,Americas,Northern America,United States of America,Arizona,,Phoenix
23.226.68.74,4,72,wildelifecomic.com,US,Americas,Northern America,United States of America,Arizona,,Phoenix
208.94.116.204,4,-11,wilfred.me.uk,US,Americas,Northern America,United States of America,Arizona,,Phoenix
82.180.174.249,4,5,williamstester.com,US,Americas,Northern America,United States of America,Arizona,,Phoenix
148.163.113.26,4,565,winesofchile.org,US,Americas,Northern America,United States of America,Arizona,,Phoenix
185.212.71.81,4,2,wiremeshfence.com,US,Americas,Northern America,United States of America,Arizona,,Phoenix
45.137.159.31,4,39,wisdomtavern.com,US,Americas,Northern America,United States of America,Arizona,,Phoenix
77.37.95.204,4,8,wisernotify.com,US,Americas,Northern America,United States of America,Arizona,,Phoenix
89.116.192.128,4,19,witspot.org,US,Americas,Northern America,United States of America,Arizona,,Phoenix
195.35.39.184,4,23,womenalliance.org,US,Americas,Northern America,United States of America,Arizona,,Phoenix
156.67.65.193,4,5,wonaconcept.com,US,Americas,Northern America,United States of America,Arizona,,Phoenix
185.162.54.1,4,3,woolentor.com,US,Americas,Northern America,United States of America,Arizona,,Phoenix
191.101.13.36,4,3,wordchumscheat.net,US,Americas,Northern America,United States of America,Arizona,,Phoenix
106.0.62.69,4,72,workaroundtc.com,US,Americas,Northern America,United States of America,Arizona,,Phoenix
106.0.62.84,4,39,workjoycoaching.com,US,Americas,Northern America,United States of America,Arizona,,Phoenix
192.110.165.170,4,9,worldflagcounter.com,US,Americas,Northern America,United States of America,Arizona,,Phoenix
195.35.15.49,4,4,worldwidefamilies.org,US,Americas,Northern America,United States of America,Arizona,,Phoenix
217.21.66.25,4,24,worldwidesciencestories.com,US,Americas,Northern America,United States of America,Arizona,,Phoenix
89.116.192.87,4,10,wowmedi.co.kr,US,Americas,Northern America,United States of America,Arizona,,Phoenix
185.164.108.190,4,4,wpfrank.com,US,Americas,Northern America,United States of America,Arizona,,Phoenix
148.135.131.252,4,9,wpriverthemes.com,US,Americas,Northern America,United States of America,Arizona,,Phoenix
156.67.74.78,4,18,writeforusfashion.com,US,Americas,Northern America,United States of America,Arizona,,Phoenix
38.29.223.152,4,6,writersinthestormblog.com,US,Americas,Northern America,United States of America,Arizona,,Phoenix
38.29.223.182,4,1,writersinthestormblog.com,US,Americas,Northern America,United States of America,Arizona,,Phoenix
38.29.223.122,4,4,writersinthestormblog.com,US,Americas,Northern America,United States of America,Arizona,,Phoenix
38.29.223.52,4,17,writersinthestormblog.com,US,Americas,Northern America,United States of America,Arizona,,Phoenix
89.116.50.139,4,16,www.gov.ai,US,Americas,Northern America,United States of America,Arizona,,Phoenix
193.203.176.199,4,4,xamly.com,US,Americas,Northern America,United States of America,Arizona,,Phoenix
208.94.117.105,4,-13,xanthir.com,US,Americas,Northern America,United States of America,Arizona,,Phoenix
107.178.118.71,4,2,xbeta.info,US,Americas,Northern America,United States of America,Arizona,,Phoenix
89.117.139.222,4,4,xiaomitoday.com,US,Americas,Northern America,United States of America,Arizona,,Phoenix
191.96.56.174,4,79,xn--80aaaallamnbdphbcj6aceiiak1ak0amz8b1hqf.com,US,Americas,Northern America,United States of America,Arizona,,Phoenix
185.212.71.148,4,16,xn--fhrerscheinanbieter-59b.com,US,Americas,Northern America,United States of America,Arizona,,Phoenix
156.67.73.77,4,31,xn--fhrerscheintv-kba-22bl.com,US,Americas,Northern America,United States of America,Arizona,,Phoenix
195.35.38.53,4,98,xn--kbekrekort-0cbd.com,US,Americas,Northern America,United States of America,Arizona,,Phoenix
89.117.139.47,4,54,xn--skandinaviskkrkort-p3b.com,US,Americas,Northern America,United States of America,Arizona,,Phoenix
82.180.174.150,4,11,xn--valdijogostvny-6gb3qqd.com,US,Americas,Northern America,United States of America,Arizona,,Phoenix
156.67.75.175,4,6,xn--w39aznzc537crsslsjvxl.kr,US,Americas,Northern America,United States of America,Arizona,,Phoenix
107.189.161.179,4,3,yankeehomestead.com,US,Americas,Northern America,United States of America,Arizona,,Phoenix
156.67.74.226,4,1,yellowstonejacketco.com,US,Americas,Northern America,United States of America,Arizona,,Phoenix
89.116.192.150,4,3,yesmovies9.com,US,Americas,Northern America,United States of America,Arizona,,Phoenix
66.37.3.138,4,416962,yesmyradio.com,US,Americas,Northern America,United States of America,Arizona,,Tempe
156.67.68.224,4,4,yhn777.com,US,Americas,Northern America,United States of America,Arizona,,Phoenix
82.180.162.20,4,12,yinraohair.com,US,Americas,Northern America,United States of America,Arizona,,Phoenix
191.101.79.207,4,3,yogascience.gr,US,Americas,Northern America,United States of America,Arizona,,Phoenix
216.17.105.150,4,8,youblisher.com,US,Americas,Northern America,United States of America,Arizona,,Tempe
64.120.124.8,4,205,youngcomposers.com,US,Americas,Northern America,United States of America,Arizona,,Scottsdale
82.180.175.68,4,4,youramazingbrain.org,US,Americas,Northern America,United States of America,Arizona,,Phoenix
195.35.10.147,4,31,yourbrandmanager.in,US,Americas,Northern America,United States of America,Arizona,,Phoenix
38.29.223.176,4,0,yourmoderndad.com,US,Americas,Northern America,United States of America,Arizona,,Phoenix
38.29.223.146,4,11,yourmoderndad.com,US,Americas,Northern America,United States of America,Arizona,,Phoenix
38.29.223.46,4,1,yourmoderndad.com,US,Americas,Northern America,United States of America,Arizona,,Phoenix
38.29.223.141,4,7,yourmodernfamily.com,US,Americas,Northern America,United States of America,Arizona,,Phoenix
38.29.223.171,4,1,yourmodernfamily.com,US,Americas,Northern America,United States of America,Arizona,,Phoenix
38.29.223.111,4,-3,yourmodernfamily.com,US,Americas,Northern America,United States of America,Arizona,,Phoenix
38.29.223.41,4,0,yourmodernfamily.com,US,Americas,Northern America,United States of America,Arizona,,Phoenix
148.163.93.106,4,2361,ythewait.com,US,Americas,Northern America,United States of America,Arizona,,Phoenix
156.67.75.7,4,4,yyyonghe.com,US,Americas,Northern America,United States of America,Arizona,,Phoenix
195.35.15.241,4,18,zagzine.com,US,Americas,Northern America,United States of America,Arizona,,Phoenix
89.117.139.107,4,17,zamilicious.com,US,Americas,Northern America,United States of America,Arizona,,Phoenix
195.35.38.57,4,22,zarias.com,US,Americas,Northern America,United States of America,Arizona,,Phoenix
191.96.234.223,4,5,zegaapparel.com,US,Americas,Northern America,United States of America,Arizona,,Phoenix
217.196.54.118,4,4,zenhealths.com,US,Americas,Northern America,United States of America,Arizona,,Phoenix
195.35.38.170,4,2,zenviagrok.com,US,Americas,Northern America,United States of America,Arizona,,Phoenix
156.67.66.140,4,4,zetarmold.com,US,Americas,Northern America,United States of America,Arizona,,Phoenix
