reflector_ip,ip_version,offset,description,country_code,region,sub_region,country_name,sub_division_1,sub_division_2,city
12.145.166.5,4,6,800ceoread.com,US,Americas,Northern America,United States of America,Wisconsin,,Milwaukee
24.196.82.225,4,387,ada-auth.org,US,Americas,Northern America,United States of America,Wisconsin,,Madison
162.217.86.217,4,9,audiofidelity.net,US,Americas,Northern America,United States of America,Wisconsin,,Franklin
139.60.100.49,4,-2,bogsfootwear.ca,US,Americas,Northern America,United States of America,Wisconsin,,Glendale
139.60.100.59,4,3,bogsfootwear.co.uk,US,Americas,Northern America,United States of America,Wisconsin,,Glendale
139.60.100.48,4,-7,bogsfootwear.com,US,Americas,Northern America,United States of America,Wisconsin,,Glendale
162.218.1.164,4,31,captel.com,US,Americas,Northern America,United States of America,Wisconsin,,Madison
38.39.182.20,4,16,chemicalforums.com,US,Americas,Northern America,United States of America,Wisconsin,,Milwaukee
4.4.81.123,4,7,codeweavers.com,US,Americas,Northern America,United States of America,Wisconsin,,Augusta
66.191.119.49,4,21935846,DNS Server: 066-191-119-049.biz.spectrum.com,US,Americas,Northern America,United States of America,Wisconsin,,Rice Lake
71.67.70.70,4,-2147219341,DNS Server: 071-067-070-070.biz.spectrum.com,US,Americas,Northern America,United States of America,Wisconsin,,Green Bay
65.27.67.206,4,3194,DNS Server: cpe-65-27-67-206.new.res.rr.com,US,Americas,Northern America,United States of America,Wisconsin,,Oshkosh
65.30.189.21,4,12444,DNS Server: gen-065-030-189-21.res.spectrum.com,US,Americas,Northern America,United States of America,Wisconsin,,Milwaukee
66.175.203.202,4,30123528,DNS Server: ip-66-175-203-202.dhcp.netwurx.net,US,Americas,Northern America,United States of America,Wisconsin,,Waterloo
205.171.3.66,4,220,DNS Server: redirect1.centurytel.net,US,Americas,Northern America,United States of America,Wisconsin,,Markesan
74.87.71.130,4,74,DNS Server: rrcs-74-87-71-130.west.biz.rr.com,US,Americas,Northern America,United States of America,Wisconsin,,Menomonee Falls
66.170.3.82,4,69,dorktower.com,US,Americas,Northern America,United States of America,Wisconsin,,Madison
162.248.233.6,4,18,falz.net,US,Americas,Northern America,United States of America,Wisconsin,,Madison
144.92.48.190,4,38,fiji.sc,US,Americas,Northern America,United States of America,Wisconsin,,Madison
139.60.100.41,4,-6,florsheim.com,US,Americas,Northern America,United States of America,Wisconsin,,Glendale
139.60.100.56,4,-6,forsake.com,US,Americas,Northern America,United States of America,Wisconsin,,Glendale
128.104.111.211,4,4,globalcryospherewatch.org,US,Americas,Northern America,United States of America,Wisconsin,,Madison
199.195.146.143,4,-2,ihomeschoolnetwork.com,US,Americas,Northern America,United States of America,Wisconsin,,Franklin
144.92.48.194,4,21,image.sc,US,Americas,Northern America,United States of America,Wisconsin,,Madison
144.92.48.180,4,5,imagej.net,US,Americas,Northern America,United States of America,Wisconsin,,Madison
66.180.160.33,4,303,kryon.com,US,Americas,Northern America,United States of America,Wisconsin,,Green Bay
66.180.170.56,4,4,linuxant.com,US,Americas,Northern America,United States of America,Wisconsin,,Green Bay
66.170.2.86,4,80,madisonchildrensmuseum.org,US,Americas,Northern America,United States of America,Wisconsin,,Madison
66.185.26.90,4,63,marionrecord.com,US,Americas,Northern America,United States of America,Wisconsin,,Franklin
209.23.12.138,4,80,markarian-nyc.com,US,Americas,Northern America,United States of America,Wisconsin,,Hales Corners
205.213.240.19,4,31,mcpl.us,US,Americas,Northern America,United States of America,Wisconsin,,New Richmond
144.92.226.95,4,113,mediahistoryproject.org,US,Americas,Northern America,United States of America,Wisconsin,,Madison
66.180.167.57,4,-3,mlordco.com,US,Americas,Northern America,United States of America,Wisconsin,,Green Bay
160.94.21.6,4,4,mndigital.org,US,Americas,Northern America,United States of America,Wisconsin,,Dresser
199.102.238.171,4,94,moderncities.com,US,Americas,Northern America,United States of America,Wisconsin,,Franklin
199.91.248.50,4,21,mononaterrace.com,US,Americas,Northern America,United States of America,Wisconsin,,Madison
74.62.73.2,4,61,mtpleasantwi.gov,US,Americas,Northern America,United States of America,Wisconsin,,Trevor
144.92.142.11,4,3,neos-guide.org,US,Americas,Northern America,United States of America,Wisconsin,,Madison
162.217.86.162,4,63,newenergyandfuel.com,US,Americas,Northern America,United States of America,Wisconsin,,Franklin
71.13.216.241,4,-10,nom.mom,US,Americas,Northern America,United States of America,Wisconsin,,Beloit
139.60.100.43,4,-13,nunnbush.com,US,Americas,Northern America,United States of America,Wisconsin,,Glendale
206.40.106.22,4,299,Ookla Speedtest Server 5309: speedtest.cellcom.com,US,Americas,Northern America,United States of America,Wisconsin,,Green Bay
162.248.234.62,4,440,Ookla Speedtest Server 12935: speedtest.as53597.net,US,Americas,Northern America,United States of America,Wisconsin,,Madison
66.185.19.12,4,130,Ookla Speedtest Server 17462: mke.hostingsupport.io,US,Americas,Northern America,United States of America,Wisconsin,,Franklin
23.171.0.112,4,260,Ookla Speedtest Server 51639: speedtest.wausausupply.com,US,Americas,Northern America,United States of America,Wisconsin,,Edgar
66.175.196.142,4,267,Ookla Speedtest Server 53540: speedtest.netwurx.net,US,Americas,Northern America,United States of America,Wisconsin,,Lake Mills
66.170.4.22,4,172,Ookla Speedtest Server: speedtest.supranet.net,US,Americas,Northern America,United States of America,Wisconsin,,Madison
144.92.142.12,4,33,optimization-online.org,US,Americas,Northern America,United States of America,Wisconsin,,Madison
38.39.182.41,4,21,paokworld.com,US,Americas,Northern America,United States of America,Wisconsin,,Milwaukee
67.52.45.38,4,9,pegasusautoracing.com,US,Americas,Northern America,United States of America,Wisconsin,,Milwaukee
66.185.18.237,4,41,planetsub.com,US,Americas,Northern America,United States of America,Wisconsin,,Franklin
209.242.230.149,4,5,protect-all.com,US,Americas,Northern America,United States of America,Wisconsin,,Iron Ridge
66.185.30.138,4,27,referee.com,US,Americas,Northern America,United States of America,Wisconsin,,Franklin
66.185.26.120,4,14,scafabtool.com,US,Americas,Northern America,United States of America,Wisconsin,,Franklin
12.148.217.37,4,1,sfbank.com,US,Americas,Northern America,United States of America,Wisconsin,,Orfordville
38.39.182.69,4,31,sksboards.com,US,Americas,Northern America,United States of America,Wisconsin,,Milwaukee
162.221.89.144,4,3,spiralstrategic.com,US,Americas,Northern America,United States of America,Wisconsin,,Franklin
139.60.100.42,4,22,stacyadams.com,US,Americas,Northern America,United States of America,Wisconsin,,Glendale
199.195.146.139,4,15,superiortrails.com,US,Americas,Northern America,United States of America,Wisconsin,,Franklin
216.165.179.168,4,5,tommybartlett.com,US,Americas,Northern America,United States of America,Wisconsin,,Middleton
162.221.89.153,4,6,twelvetribes.org,US,Americas,Northern America,United States of America,Wisconsin,,Franklin
181.215.197.17,4,9,unicartagena.edu.co,US,Americas,Northern America,United States of America,Wisconsin,,Milwaukee
161.38.17.253,4,35,vendetta-online.com,US,Americas,Northern America,United States of America,Wisconsin,,Milwaukee
162.217.86.213,4,57,volleyball.com,US,Americas,Northern America,United States of America,Wisconsin,,Franklin
139.60.100.40,4,-6,weycogroup.com,US,Americas,Northern America,United States of America,Wisconsin,,Glendale
4.4.81.124,4,8,winehq.com,US,Americas,Northern America,United States of America,Wisconsin,,Augusta
