reflector_ip,ip_version,offset,description,country_code,region,sub_region,country_name,sub_division_1,sub_division_2,city
68.233.247.193,4,8,1uptravel.com,US,Americas,Northern America,United States of America,Florida,,Tampa
69.46.29.73,4,8,2mhost.com,US,Americas,Northern America,United States of America,Florida,,Tampa
209.133.196.202,4,732,320press.com,US,Americas,Northern America,United States of America,Florida,,Tampa
23.92.75.226,4,6,970universal.com,US,Americas,Northern America,United States of America,Florida,,Tampa
169.197.124.30,4,4,abidingradio.org,US,Americas,Northern America,United States of America,Florida,,Miami
107.190.138.194,4,-176,aboutkensington.com,US,Americas,Northern America,United States of America,Florida,,Apopka
23.92.68.6,4,34,abyssandapex.com,US,Americas,Northern America,United States of America,Florida,,Tampa
209.133.192.77,4,33,acbar.org,US,Americas,Northern America,United States of America,Florida,,Tampa
207.246.117.167,4,12,accel-team.com,US,Americas,Northern America,United States of America,Florida,,Miami
192.155.108.148,4,3,aceboard.net,US,Americas,Northern America,United States of America,Florida,,Miami
23.61.60.235,4,3,acmoore.com,US,Americas,Northern America,United States of America,Florida,,Miami
207.246.114.51,4,6,addiction-treatment-services.com,US,Americas,Northern America,United States of America,Florida,,Miami
104.156.53.20,4,7,aihrc.org.af,US,Americas,Northern America,United States of America,Florida,,Tampa
23.111.183.42,4,5,akhlah.com,US,Americas,Northern America,United States of America,Florida,,Tampa
104.165.111.108,4,0,alhirschfeldfoundation.org,US,Americas,Northern America,United States of America,Florida,,Miami
172.233.187.56,4,56,alipr.com,US,Americas,Northern America,United States of America,Florida,,Miami
162.220.60.207,4,77,all-luxury-apartments.com,US,Americas,Northern America,United States of America,Florida,,Tampa
68.233.247.191,4,3,allrefer.com,US,Americas,Northern America,United States of America,Florida,,Tampa
66.206.11.114,4,302,almanaquesos.com,US,Americas,Northern America,United States of America,Florida,,Tampa
162.220.59.234,4,5,americanbluesscene.com,US,Americas,Northern America,United States of America,Florida,,Tampa
23.111.169.82,4,7,americanmint.com,US,Americas,Northern America,United States of America,Florida,,Tampa
162.220.59.106,4,7,americasfuneralflorist.com,US,Americas,Northern America,United States of America,Florida,,Tampa
64.251.14.134,4,4,ameu.org,US,Americas,Northern America,United States of America,Florida,,Miami
209.133.206.131,4,4,amgreatness.com,US,Americas,Northern America,United States of America,Florida,,Tampa
23.111.136.142,4,4,amle.org,US,Americas,Northern America,United States of America,Florida,,Tampa
199.167.29.57,4,5,amxl.com,US,Americas,Northern America,United States of America,Florida,,Pinellas Park
192.251.238.178,4,7,anthonylakes.com,US,Americas,Northern America,United States of America,Florida,,St. Cloud
45.77.95.48,4,66,arav.org,US,Americas,Northern America,United States of America,Florida,,Miami
154.27.80.47,4,14,arimaa.com,US,Americas,Northern America,United States of America,Florida,,West Palm Beach
209.133.198.234,4,21,artemisia.org.br,US,Americas,Northern America,United States of America,Florida,,Tampa
66.206.23.58,4,3,artisnaples.org,US,Americas,Northern America,United States of America,Florida,,Tampa
172.233.163.177,4,5,arturosandoval.com,US,Americas,Northern America,United States of America,Florida,,Miami
96.31.72.66,4,734,asmzine.net,US,Americas,Northern America,United States of America,Florida,,Tampa
23.111.168.178,4,23,astroclips.com,US,Americas,Northern America,United States of America,Florida,,Tampa
209.133.207.138,4,5,atariprotos.com,US,Americas,Northern America,United States of America,Florida,,Tampa
209.133.213.6,4,7141043,atozteacherstuff.com,US,Americas,Northern America,United States of America,Florida,,Tampa
107.190.140.55,4,23,atthetablepodcast.com,US,Americas,Northern America,United States of America,Florida,,Apopka
23.111.128.195,4,12,au.int,US,Americas,Northern America,United States of America,Florida,,Tampa
162.252.80.133,4,36,aullox.com,US,Americas,Northern America,United States of America,Florida,,Tampa
69.46.25.126,4,17,ausxip.com,US,Americas,Northern America,United States of America,Florida,,Tampa
104.167.197.6,4,15,authpro.com,US,Americas,Northern America,United States of America,Florida,,Miami
45.77.113.83,4,0,azbizlisting.com,US,Americas,Northern America,United States of America,Florida,,Miami
104.156.53.251,4,5,babyhazelgames.com,US,Americas,Northern America,United States of America,Florida,,Tampa
23.56.176.254,4,23,baccredomatic.com,US,Americas,Northern America,United States of America,Florida,,Miami
198.251.82.229,4,36,bae.st,US,Americas,Northern America,United States of America,Florida,,Miami
207.246.70.185,4,0,baluart.net,US,Americas,Northern America,United States of America,Florida,,Miami
205.196.81.84,4,87,beezzly.com,US,Americas,Northern America,United States of America,Florida,,Miami
199.231.166.178,4,9,bg.com.do,US,Americas,Northern America,United States of America,Florida,,Tampa
199.231.166.82,4,45,bharatiyaobcmahasabha.org,US,Americas,Northern America,United States of America,Florida,,Tampa
107.155.106.166,4,15,biblestudy.org,US,Americas,Northern America,United States of America,Florida,,Tampa
107.190.136.51,4,8,bigeyeagency.com,US,Americas,Northern America,United States of America,Florida,,Apopka
107.190.138.213,4,-172,bigmacktrucks.com,US,Americas,Northern America,United States of America,Florida,,Apopka
75.13.68.78,4,7,bikeshed.party,US,Americas,Northern America,United States of America,Florida,,Hollywood
23.111.183.74,4,7,bim.edu,US,Americas,Northern America,United States of America,Florida,,Tampa
172.93.110.65,4,60,bitforged.space,US,Americas,Northern America,United States of America,Florida,,Miami
45.32.166.247,4,2,blacklivesseattle.org,US,Americas,Northern America,United States of America,Florida,,Miami
64.251.25.216,4,6,bootdisk.com,US,Americas,Northern America,United States of America,Florida,,Miami
205.196.81.153,4,6,brigofamerica.com,US,Americas,Northern America,United States of America,Florida,,Miami
68.233.228.223,4,18,britishcarforum.com,US,Americas,Northern America,United States of America,Florida,,Tampa
23.92.71.42,4,7,broussards.com,US,Americas,Northern America,United States of America,Florida,,Tampa
104.165.110.2,4,39,budgetmom.com,US,Americas,Northern America,United States of America,Florida,,Miami
104.225.128.119,4,3,buycbdoilwalm.com,US,Americas,Northern America,United States of America,Florida,,Jacksonville
45.63.105.95,4,1,careerbrochure.com,US,Americas,Northern America,United States of America,Florida,,Miami
46.21.144.106,4,5,carepointhealth.org,US,Americas,Northern America,United States of America,Florida,,Tampa
23.111.136.182,4,10,caribetours.com.do,US,Americas,Northern America,United States of America,Florida,,Tampa
23.111.136.242,4,104,carry.website,US,Americas,Northern America,United States of America,Florida,,Tampa
23.111.181.37,4,7,cbcg.org,US,Americas,Northern America,United States of America,Florida,,Tampa
66.232.98.194,4,7,cceba.org.ar,US,Americas,Northern America,United States of America,Florida,,Tampa
173.241.204.202,4,8,cello.org,US,Americas,Northern America,United States of America,Florida,,Zephyrhills
209.208.2.116,4,4,cemeteryguide.com,US,Americas,Northern America,United States of America,Florida,,Orlando
107.155.116.126,4,24,census-online.com,US,Americas,Northern America,United States of America,Florida,,Tampa
199.231.166.226,4,5,ceub.edu.bo,US,Americas,Northern America,United States of America,Florida,,Tampa
207.246.112.247,4,6,checkupdown.com,US,Americas,Northern America,United States of America,Florida,,Miami
64.31.57.202,4,3,cheerfullyimperfect.com,US,Americas,Northern America,United States of America,Florida,,Miami
23.154.17.111,4,1147,classic-tv.com,US,Americas,Northern America,United States of America,Florida,,Tampa
149.28.107.171,4,13,climatescienceinternational.org,US,Americas,Northern America,United States of America,Florida,,Miami
23.111.175.212,4,15,cloud7.news,US,Americas,Northern America,United States of America,Florida,,Tampa
104.207.146.80,4,7,clpgh.org,US,Americas,Northern America,United States of America,Florida,,Miami
104.156.54.11,4,4,clubopal.in,US,Americas,Northern America,United States of America,Florida,,Tampa
198.178.120.146,4,67,clutchfans.net,US,Americas,Northern America,United States of America,Florida,,Tampa
192.155.108.155,4,1,cm-greeneryproperties.com,US,Americas,Northern America,United States of America,Florida,,Miami
128.227.73.139,4,-7,coastalplainplants.org,US,Americas,Northern America,United States of America,Florida,,Gainesville
23.111.161.86,4,2,codajic.org,US,Americas,Northern America,United States of America,Florida,,Tampa
104.238.205.89,4,2,colegiodentistas.org,US,Americas,Northern America,United States of America,Florida,,Miami
199.127.62.74,4,5,colibri.io,US,Americas,Northern America,United States of America,Florida,,Miami
23.111.175.170,4,43,colorsui.com,US,Americas,Northern America,United States of America,Florida,,Tampa
23.111.141.90,4,8,comunicarseweb.com,US,Americas,Northern America,United States of America,Florida,,Tampa
149.28.109.77,4,13,conformal.com,US,Americas,Northern America,United States of America,Florida,,Miami
72.29.81.246,4,586,consortia22.com,US,Americas,Northern America,United States of America,Florida,,Orlando
23.111.166.42,4,6,cookyaunty.com,US,Americas,Northern America,United States of America,Florida,,Tampa
199.193.116.54,4,32,copper3d.com,US,Americas,Northern America,United States of America,Florida,,Tampa
103.195.102.168,4,-1,critfc.org,US,Americas,Northern America,United States of America,Florida,,Miami
209.133.206.132,4,23,criticalrace.org,US,Americas,Northern America,United States of America,Florida,,Tampa
69.46.26.166,4,35,crower.com,US,Americas,Northern America,United States of America,Florida,,Tampa
107.190.132.130,4,18091,cruzroja.org.ar,US,Americas,Northern America,United States of America,Florida,,Apopka
144.172.76.66,4,18,cryptoforday.com,US,Americas,Northern America,United States of America,Florida,,Miami
209.133.208.202,4,7,csi-india.org,US,Americas,Northern America,United States of America,Florida,,Tampa
199.193.117.202,4,8,ctradio.com.br,US,Americas,Northern America,United States of America,Florida,,Tampa
162.219.208.9,4,18,cyberstreet.com,US,Americas,Northern America,United States of America,Florida,,North Fort Myers
154.27.78.213,4,14,dailyjustnow.com,US,Americas,Northern America,United States of America,Florida,,West Palm Beach
162.252.82.18,4,6,dcmembers.com,US,Americas,Northern America,United States of America,Florida,,Tampa
23.111.129.209,4,5,deconceptos.com,US,Americas,Northern America,United States of America,Florida,,Tampa
23.111.139.78,4,11,definicionabc.com,US,Americas,Northern America,United States of America,Florida,,Tampa
192.240.99.115,4,39,desdeparaguay.com,US,Americas,Northern America,United States of America,Florida,,Miami
172.233.186.160,4,2,diabetesmonitor.com,US,Americas,Northern America,United States of America,Florida,,Miami
208.115.236.222,4,4,diariolaregion.com,US,Americas,Northern America,United States of America,Florida,,Miami
23.111.169.74,4,4,digital-kaos.co.uk,US,Americas,Northern America,United States of America,Florida,,Tampa
64.135.68.126,4,4,diningguide.com,US,Americas,Northern America,United States of America,Florida,,Boca Raton
107.190.135.114,4,-162,dirttrackdigest.com,US,Americas,Northern America,United States of America,Florida,,Orlando
128.227.24.223,4,-299801,dloc.com,US,Americas,Northern America,United States of America,Florida,,Gainesville
128.227.18.113,4,-31945,dloc.com,US,Americas,Northern America,United States of America,Florida,,Gainesville
45.63.106.96,4,2,dmr-peru.net,US,Americas,Northern America,United States of America,Florida,,Miami
50.88.222.42,4,-135,DNS Server: 050-088-222-042.res.spectrum.com,US,Americas,Northern America,United States of America,Florida,,Orlando
71.46.217.125,4,13556641,DNS Server: 071-046-217-125.res.spectrum.com,US,Americas,Northern America,United States of America,Florida,,Orlando
72.238.118.17,4,58,DNS Server: 072-238-118-017.res.spectrum.com,US,Americas,Northern America,United States of America,Florida,,Winter Springs
107.130.51.137,4,1089,DNS Server: 107-130-51-137.lightspeed.miamfl.sbcglobal.net,US,Americas,Northern America,United States of America,Florida,,Miami
8.26.21.127,4,53,DNS Server: 127.21.26.8.serverpronto.com,US,Americas,Northern America,United States of America,Florida,,Miami
134.56.119.209,4,-12697751,DNS Server: 134.56.119.209.hwccustomers.com,US,Americas,Northern America,United States of America,Florida,,Naples
173.162.106.221,4,1892,DNS Server: 173-162-106-221-miami.hfc.comcastbusiness.net,US,Americas,Northern America,United States of America,Florida,,Miami
65.35.135.250,4,-11895,DNS Server: 65-35-135-250.res.bhn.net,US,Americas,Northern America,United States of America,Florida,,Tampa
70.88.50.197,4,2,DNS Server: 70-88-50-197-mobile-al.hfc.comcastbusiness.net,US,Americas,Northern America,United States of America,Florida,,Hialeah
74.93.61.233,4,57045,DNS Server: 74.93.61.233-BusName-fl.lakecnty.hfc.comcastbusiness.net,US,Americas,Northern America,United States of America,Florida,,Lady Lake
8.18.4.19,4,14539,DNS Server: 8-18-4-19.hwccustomers.com,US,Americas,Northern America,United States of America,Florida,,Miami Beach
8.18.4.20,4,46,DNS Server: 8-18-4-20.hwccustomers.com,US,Americas,Northern America,United States of America,Florida,,Miami Beach
8.26.226.30,4,43,DNS Server: 8-26-226-30.hwccustomers.com,US,Americas,Northern America,United States of America,Florida,,Coral Springs
8.30.101.114,4,15,DNS Server: 8-30-105-114.hwccustomers.com,US,Americas,Northern America,United States of America,Florida,,Naples
8.30.101.115,4,28,DNS Server: 8-30-105-115.hwccustomers.com,US,Americas,Northern America,United States of America,Florida,,Naples
8.30.101.117,4,80,DNS Server: 8-30-105-117.hwccustomers.com,US,Americas,Northern America,United States of America,Florida,,Naples
8.30.101.118,4,84,DNS Server: 8-30-105-118.hwccustomers.com,US,Americas,Northern America,United States of America,Florida,,Naples
8.30.101.123,4,39,DNS Server: 8-30-105-123.hwccustomers.com,US,Americas,Northern America,United States of America,Florida,,Naples
8.30.101.125,4,56,DNS Server: 8-30-105-125.hwccustomers.com,US,Americas,Northern America,United States of America,Florida,,Naples
8.30.101.126,4,15,DNS Server: 8-30-105-126.hwccustomers.com,US,Americas,Northern America,United States of America,Florida,,Naples
8.30.36.94,4,2015214,DNS Server: 8.30.36.94.hwccustomers.com,US,Americas,Northern America,United States of America,Florida,,Miami
8.30.39.35,4,-381635,DNS Server: 8.30.39.35.hwccustomers.com,US,Americas,Northern America,United States of America,Florida,,Miami
8.30.39.36,4,-381723,DNS Server: 8.30.39.36.hwccustomers.com,US,Americas,Northern America,United States of America,Florida,,Miami
8.30.39.37,4,-381727,DNS Server: 8.30.39.37.hwccustomers.com,US,Americas,Northern America,United States of America,Florida,,Miami
8.30.39.39,4,-381714,DNS Server: 8.30.39.39.hwccustomers.com,US,Americas,Northern America,United States of America,Florida,,Miami
8.30.39.40,4,-381717,DNS Server: 8.30.39.40.hwccustomers.com,US,Americas,Northern America,United States of America,Florida,,Miami
96.8.17.130,4,31,DNS Server: 96-8-17-130.hwccustomers.com,US,Americas,Northern America,United States of America,Florida,,Miami
96.8.17.131,4,0,DNS Server: 96-8-17-131.hwccustomers.com,US,Americas,Northern America,United States of America,Florida,,Miami
96.8.17.139,4,119,DNS Server: 96-8-17-139.hwccustomers.com,US,Americas,Northern America,United States of America,Florida,,Miami
96.8.17.142,4,178,DNS Server: 96-8-17-142.hwccustomers.com,US,Americas,Northern America,United States of America,Florida,,Miami
96.8.17.172,4,29528189,DNS Server: 96-8-17-172.hwccustomers.com,US,Americas,Northern America,United States of America,Florida,,Miami
96.83.148.217,4,3,DNS Server: 96-83-148-217-static.hfc.comcastbusiness.net,US,Americas,Northern America,United States of America,Florida,,Venice
71.196.117.127,4,10,DNS Server: c-71-196-117-127.hsd1.fl.comcast.net,US,Americas,Northern America,United States of America,Florida,,Fort Lauderdale
73.19.188.171,4,1172,DNS Server: c-73-19-188-171.hsd1.fl.comcast.net,US,Americas,Northern America,United States of America,Florida,,Crawfordville
98.192.130.123,4,5,DNS Server: c-98-192-130-123.hsd1.fl.comcast.net,US,Americas,Northern America,United States of America,Florida,,Tallahassee
207.244.166.111,4,14399138,DNS Server: d-207-244-166-111.fl.cpe.atlanticbb.net,US,Americas,Northern America,United States of America,Florida,,Miami Beach
92.38.133.221,4,64077,DNS Server: gsmpcu.com,US,Americas,Northern America,United States of America,Florida,,Miami
4.7.175.6,4,-454,DNS Server: ISLAND-COAS.ear1.Miami1.Level3.net,US,Americas,Northern America,United States of America,Florida,,Lake Worth
198.251.100.2,4,358767,DNS Server: ns1.net-com.com,US,Americas,Northern America,United States of America,Florida,,Pensacola
23.154.17.23,4,696,doityourselfchristmas.com,US,Americas,Northern America,United States of America,Florida,,Tampa
208.115.236.147,4,3,duranincorporate.com,US,Americas,Northern America,United States of America,Florida,,Miami
199.193.117.170,4,1,dzuca.com.br,US,Americas,Northern America,United States of America,Florida,,Tampa
46.21.149.90,4,5,earcos.org,US,Americas,Northern America,United States of America,Florida,,Tampa
190.124.47.78,4,201,easterneuropeanmovies.com,US,Americas,Northern America,United States of America,Florida,,Tampa
69.46.24.50,4,-12,eclassifieds4u.com,US,Americas,Northern America,United States of America,Florida,,Tampa
69.60.127.219,4,8,ecoport.org,US,Americas,Northern America,United States of America,Florida,,Miami
84.46.239.231,4,0,emeatribune.com,US,Americas,Northern America,United States of America,Florida,,Miami
162.252.83.218,4,10,empresores.com,US,Americas,Northern America,United States of America,Florida,,Tampa
162.252.84.154,4,5,emtlife.com,US,Americas,Northern America,United States of America,Florida,,Tampa
162.252.84.155,4,7,emtlife.com,US,Americas,Northern America,United States of America,Florida,,Tampa
23.111.165.50,4,7,enciclopedia.net,US,Americas,Northern America,United States of America,Florida,,Tampa
23.111.177.234,4,78,enromiosini.gr,US,Americas,Northern America,United States of America,Florida,,Tampa
23.111.166.251,4,6,escaner.cl,US,Americas,Northern America,United States of America,Florida,,Tampa
209.133.211.10,4,12,evangelicaloutreach.org,US,Americas,Northern America,United States of America,Florida,,Tampa
64.135.63.239,4,4,eventguide.com,US,Americas,Northern America,United States of America,Florida,,Deerfield Beach
209.133.214.166,4,14,exceltemplates.net,US,Americas,Northern America,United States of America,Florida,,Tampa
190.124.47.126,4,8,familytron.com,US,Americas,Northern America,United States of America,Florida,,Tampa
103.195.102.153,4,39,farmingmybackyard.com,US,Americas,Northern America,United States of America,Florida,,Miami
45.77.115.90,4,0,fashionandmash.com,US,Americas,Northern America,United States of America,Florida,,Miami
64.31.40.2,4,36,fealq.org.br,US,Americas,Northern America,United States of America,Florida,,Miami
23.111.160.229,4,7,federalgrantswire.com,US,Americas,Northern America,United States of America,Florida,,Tampa
72.29.91.210,4,-63,fernandezescobar.com,US,Americas,Northern America,United States of America,Florida,,Orlando
72.29.73.187,4,533,finestyachtcharter.com,US,Americas,Northern America,United States of America,Florida,,Orlando
23.111.160.227,4,26,finfit.com,US,Americas,Northern America,United States of America,Florida,,Tampa
104.225.128.78,4,7,fireplaceandstove.co.uk,US,Americas,Northern America,United States of America,Florida,,Jacksonville
209.133.210.90,4,12,firewall.cx,US,Americas,Northern America,United States of America,Florida,,Tampa
209.208.26.27,4,9,firgoscuracao.com,US,Americas,Northern America,United States of America,Florida,,Orlando
199.167.151.186,4,8,firstdiscoverers.co.uk,US,Americas,Northern America,United States of America,Florida,,Tampa
107.190.140.57,4,16,flavoursandfrosting.com,US,Americas,Northern America,United States of America,Florida,,Apopka
140.82.27.152,4,30,floridaoilspilllaw.com,US,Americas,Northern America,United States of America,Florida,,Miami
162.216.5.222,4,12,foecanada.org,US,Americas,Northern America,United States of America,Florida,,Tampa
198.45.114.194,4,3,fooddoz.com,US,Americas,Northern America,United States of America,Florida,,Tampa
45.77.94.64,4,26,fordsgarageusa.com,US,Americas,Northern America,United States of America,Florida,,Miami
23.111.185.234,4,19,fr-ee.org,US,Americas,Northern America,United States of America,Florida,,Tampa
104.156.58.173,4,24,franklinsheriff.com,US,Americas,Northern America,United States of America,Florida,,Tampa
172.110.191.170,4,8,freeadzforum.com,US,Americas,Northern America,United States of America,Florida,,St. Cloud
209.208.62.55,4,431,freelancinggig.com,US,Americas,Northern America,United States of America,Florida,,DeLand
104.238.205.21,4,7,freetexans.com,US,Americas,Northern America,United States of America,Florida,,Miami
162.220.61.65,4,21,gameofthronesrp.com,US,Americas,Northern America,United States of America,Florida,,Tampa
190.124.46.10,4,14,generationaldynamics.com,US,Americas,Northern America,United States of America,Florida,,Tampa
107.190.131.50,4,-158,getsmarttriad.com,US,Americas,Northern America,United States of America,Florida,,Apopka
190.124.47.85,4,6,girlboyfriend.com,US,Americas,Northern America,United States of America,Florida,,Tampa
209.133.197.94,4,11,glfc.org,US,Americas,Northern America,United States of America,Florida,,Tampa
23.111.148.61,4,27,gocustomboxes.co.uk,US,Americas,Northern America,United States of America,Florida,,Tampa
45.77.164.14,4,11,googlerankings.com,US,Americas,Northern America,United States of America,Florida,,Miami
216.134.212.200,4,4,greenshades.com,US,Americas,Northern America,United States of America,Florida,,Winter Park
23.111.129.74,4,52,grupodeapoyomutuo.org.gt,US,Americas,Northern America,United States of America,Florida,,Tampa
68.233.247.50,4,16,grupokybsrl.com.ar,US,Americas,Northern America,United States of America,Florida,,Tampa
209.133.196.180,4,-29,gulfcoastmag.org,US,Americas,Northern America,United States of America,Florida,,Tampa
23.111.166.10,4,30104,gunloads.com,US,Americas,Northern America,United States of America,Florida,,Tampa
103.195.103.97,4,2,hafiservices.com,US,Americas,Northern America,United States of America,Florida,,Miami
23.111.150.187,4,3,hdcarwallpapers.com,US,Americas,Northern America,United States of America,Florida,,Tampa
104.156.52.51,4,1051,headlineplanet.com,US,Americas,Northern America,United States of America,Florida,,Tampa
23.111.175.122,4,6,hi-pointfirearms.com,US,Americas,Northern America,United States of America,Florida,,Tampa
72.29.74.183,4,476,hipsterrunoff.com,US,Americas,Northern America,United States of America,Florida,,Orlando
199.167.148.197,4,879,hitescrow.com,US,Americas,Northern America,United States of America,Florida,,Tampa
96.31.72.107,4,748,hockeyprospect.com,US,Americas,Northern America,United States of America,Florida,,Tampa
190.124.47.72,4,31,home-care.co.ke,US,Americas,Northern America,United States of America,Florida,,Tampa
72.29.74.238,4,9,homesweetjones.com,US,Americas,Northern America,United States of America,Florida,,Orlando
64.44.164.200,4,22,hospitableending.com,US,Americas,Northern America,United States of America,Florida,,Jacksonville
64.135.62.38,4,18,hotelguide.net,US,Americas,Northern America,United States of America,Florida,,Deerfield Beach
205.196.80.40,4,3,housekeepingbay.com,US,Americas,Northern America,United States of America,Florida,,Miami
72.29.86.95,4,-299,hpmuseum.net,US,Americas,Northern America,United States of America,Florida,,Orlando
192.155.108.158,4,2,huongviettravel.com,US,Americas,Northern America,United States of America,Florida,,Miami
208.115.236.10,4,2,iadsr.edu.pk,US,Americas,Northern America,United States of America,Florida,,Miami
69.46.26.19,4,59,icelaglace.com,US,Americas,Northern America,United States of America,Florida,,Tampa
96.31.72.26,4,749,icestorm.com,US,Americas,Northern America,United States of America,Florida,,Tampa
128.227.246.162,4,10,idigbio.org,US,Americas,Northern America,United States of America,Florida,,Gainesville
162.252.82.215,4,16,idlehearts.com,US,Americas,Northern America,United States of America,Florida,,Tampa
64.31.40.18,4,18,idosi.org,US,Americas,Northern America,United States of America,Florida,,Miami
38.94.57.132,4,3,iglecrecimiento.org,US,Americas,Northern America,United States of America,Florida,,Boca Raton
209.133.205.130,4,-76,imagemarte.com.br,US,Americas,Northern America,United States of America,Florida,,Tampa
23.111.174.252,4,5,importancia.org,US,Americas,Northern America,United States of America,Florida,,Tampa
209.133.211.130,4,3583020,infojardin.com,US,Americas,Northern America,United States of America,Florida,,Tampa
192.251.238.162,4,0,inocar.mil.ec,US,Americas,Northern America,United States of America,Florida,,St. Cloud
162.220.61.50,4,6,inovacaotecnologica.com.br,US,Americas,Northern America,United States of America,Florida,,Tampa
192.155.108.150,4,4,intilinux.com,US,Americas,Northern America,United States of America,Florida,,Miami
192.155.108.151,4,3,iowntheworld.com,US,Americas,Northern America,United States of America,Florida,,Miami
69.28.93.42,4,4,issma.net,US,Americas,Northern America,United States of America,Florida,,Sanford
96.31.72.146,4,746,iuec.org,US,Americas,Northern America,United States of America,Florida,,Tampa
96.31.72.33,4,2,iz.rs,US,Americas,Northern America,United States of America,Florida,,Tampa
209.133.192.2,4,15,jagunet.com,US,Americas,Northern America,United States of America,Florida,,Tampa
69.46.22.74,4,6,jigsawplanet.com,US,Americas,Northern America,United States of America,Florida,,Tampa
68.233.253.141,4,24,joomlms.com,US,Americas,Northern America,United States of America,Florida,,Tampa
64.31.38.83,4,12,jornada.com.mx,US,Americas,Northern America,United States of America,Florida,,Miami
198.178.125.53,4,-13,justsomelyrics.com,US,Americas,Northern America,United States of America,Florida,,Tampa
216.182.241.140,4,3,keyshistory.org,US,Americas,Northern America,United States of America,Florida,,Key Largo
23.111.160.216,4,8,kingtutone.com,US,Americas,Northern America,United States of America,Florida,,Tampa
23.111.171.2,4,31,krisiun.com.br,US,Americas,Northern America,United States of America,Florida,,Tampa
107.190.136.2,4,8,labradoodle.nu,US,Americas,Northern America,United States of America,Florida,,Apopka
173.241.199.5,4,7156,larrycarlton.com,US,Americas,Northern America,United States of America,Florida,,Zephyrhills
173.45.169.114,4,3,larryflynt.com,US,Americas,Northern America,United States of America,Florida,,Stuart
205.196.80.165,4,8,layer7tech.com,US,Americas,Northern America,United States of America,Florida,,Miami
45.13.66.104,4,30,lemmy.moe,US,Americas,Northern America,United States of America,Florida,,Crestview
23.111.173.74,4,6,libertyhall.org,US,Americas,Northern America,United States of America,Florida,,Tampa
199.193.117.162,4,33,ligavpg.com,US,Americas,Northern America,United States of America,Florida,,Tampa
38.95.14.200,4,5,lionking.org,US,Americas,Northern America,United States of America,Florida,,Tampa
72.29.72.210,4,577,lissakay.com,US,Americas,Northern America,United States of America,Florida,,Orlando
209.133.211.102,4,6,liveforfilm.com,US,Americas,Northern America,United States of America,Florida,,Tampa
64.251.10.81,4,4,localconditions.com,US,Americas,Northern America,United States of America,Florida,,Miami
192.155.111.213,4,9,locatorinmate.com,US,Americas,Northern America,United States of America,Florida,,Miami
45.77.199.196,4,71,lordofwarthemovie.com,US,Americas,Northern America,United States of America,Florida,,Miami
198.178.125.55,4,-13,lyricsplugin.com,US,Americas,Northern America,United States of America,Florida,,Tampa
192.155.107.194,4,37,makedailyprofit.com,US,Americas,Northern America,United States of America,Florida,,Miami
23.111.138.114,4,-1,makr.com,US,Americas,Northern America,United States of America,Florida,,Tampa
64.31.47.106,4,19,malikmobile.com,US,Americas,Northern America,United States of America,Florida,,Miami
72.29.68.240,4,239,manetas.com,US,Americas,Northern America,United States of America,Florida,,Orlando
23.111.180.165,4,5,marineweather.net,US,Americas,Northern America,United States of America,Florida,,Tampa
23.111.161.94,4,6,maristasico.edu.sv,US,Americas,Northern America,United States of America,Florida,,Tampa
12.26.245.163,4,1016,marketwirenews.com,US,Americas,Northern America,United States of America,Florida,,Coconut Creek
45.77.117.221,4,10,maximumcompression.com,US,Americas,Northern America,United States of America,Florida,,Miami
66.206.22.19,4,4,mbpcgroup.com,US,Americas,Northern America,United States of America,Florida,,Tampa
23.111.161.5,4,21,mealtime.org,US,Americas,Northern America,United States of America,Florida,,Tampa
64.31.57.246,4,2,meaningslike.com,US,Americas,Northern America,United States of America,Florida,,Miami
192.155.108.149,4,6,mediagossips.com,US,Americas,Northern America,United States of America,Florida,,Miami
69.46.30.125,4,4,mediationtrainings.org,US,Americas,Northern America,United States of America,Florida,,Tampa
96.31.72.44,4,790,medicalmarijuana.com,US,Americas,Northern America,United States of America,Florida,,Tampa
74.50.103.57,4,11,megadriver.com.br,US,Americas,Northern America,United States of America,Florida,,Tampa
162.252.80.171,4,20,meganoticias.mx,US,Americas,Northern America,United States of America,Florida,,Tampa
199.127.60.238,4,56,metroflog.co,US,Americas,Northern America,United States of America,Florida,,Miami
23.111.148.244,4,-5,mfrural.com.br,US,Americas,Northern America,United States of America,Florida,,Tampa
172.110.191.210,4,0,mhsecure.com,US,Americas,Northern America,United States of America,Florida,,St. Cloud
207.246.76.144,4,14,miamibeach411.com,US,Americas,Northern America,United States of America,Florida,,Miami
69.46.29.138,4,103,mibba.com,US,Americas,Northern America,United States of America,Florida,,Tampa
205.196.80.9,4,47,miromind.com,US,Americas,Northern America,United States of America,Florida,,Miami
23.111.189.130,4,9,missosology.org,US,Americas,Northern America,United States of America,Florida,,Tampa
199.167.144.250,4,3,modelsbrasil.com,US,Americas,Northern America,United States of America,Florida,,Tampa
66.206.20.74,4,32,monumentalfm.com,US,Americas,Northern America,United States of America,Florida,,Tampa
65.111.173.118,4,288,moock.org,US,Americas,Northern America,United States of America,Florida,,Miami
64.31.57.195,4,13,moonatmidnight.com,US,Americas,Northern America,United States of America,Florida,,Miami
107.155.116.179,4,8,mosw.com,US,Americas,Northern America,United States of America,Florida,,Tampa
96.31.72.63,4,10,motorsportmemorial.org,US,Americas,Northern America,United States of America,Florida,,Tampa
45.63.105.52,4,9,mrfinancialindependence.com,US,Americas,Northern America,United States of America,Florida,,Miami
199.193.117.29,4,26,munciepower.com,US,Americas,Northern America,United States of America,Florida,,Tampa
172.96.172.148,4,2,munkyourself.com,US,Americas,Northern America,United States of America,Florida,,Miami
46.21.148.42,4,931,mxc.com.mx,US,Americas,Northern America,United States of America,Florida,,Tampa
184.175.206.4,4,2,my-estub.com,US,Americas,Northern America,United States of America,Florida,,Jacksonville
63.239.186.59,4,3971392,myautovaluestore.com,US,Americas,Northern America,United States of America,Florida,,Clearwater
63.239.186.60,4,27,myautovaluestore.com,US,Americas,Northern America,United States of America,Florida,,Clearwater
23.111.149.179,4,41,myboxpackaging.com,US,Americas,Northern America,United States of America,Florida,,Tampa
162.254.148.236,4,30,myniceprofile.com,US,Americas,Northern America,United States of America,Florida,,Tampa
199.167.29.183,4,3,mztweak.com,US,Americas,Northern America,United States of America,Florida,,Pinellas Park
46.21.148.58,4,33,nacanet.org,US,Americas,Northern America,United States of America,Florida,,Tampa
23.227.176.12,4,21,nahuelhuapi.gov.ar,US,Americas,Northern America,United States of America,Florida,,Tampa
23.111.161.2,4,4,nearshoreamericas.com,US,Americas,Northern America,United States of America,Florida,,Tampa
89.117.0.175,4,6,negiot-center.co.il,US,Americas,Northern America,United States of America,Florida,,Miami
103.195.102.250,4,0,neip.info,US,Americas,Northern America,United States of America,Florida,,Miami
12.206.48.10,4,-243639,netside.net,US,Americas,Northern America,United States of America,Florida,,Miami
12.206.49.10,4,-243648,netside.net,US,Americas,Northern America,United States of America,Florida,,Miami
107.190.138.58,4,-151,nirsoft.net,US,Americas,Northern America,United States of America,Florida,,Apopka
205.196.80.178,4,4,nk.org.ua,US,Americas,Northern America,United States of America,Florida,,Miami
23.111.168.66,4,10,nnw.org,US,Americas,Northern America,United States of America,Florida,,Tampa
23.111.143.130,4,5,nonprofitcareer.com,US,Americas,Northern America,United States of America,Florida,,Tampa
173.44.47.142,4,2489,notiactual.com,US,Americas,Northern America,United States of America,Florida,,Miami
104.156.52.202,4,368,npd-solutions.com,US,Americas,Northern America,United States of America,Florida,,Tampa
24.73.102.185,4,2,nshmba.org,US,Americas,Northern America,United States of America,Florida,,Tampa
104.156.51.181,4,6,nssm.cc,US,Americas,Northern America,United States of America,Florida,,Tampa
104.234.192.23,4,5,numerocinqmagazine.com,US,Americas,Northern America,United States of America,Florida,,Miami
172.235.157.124,4,46,nweon.com,US,Americas,Northern America,United States of America,Florida,,Miami
50.217.68.194,4,3,nwra.com,US,Americas,Northern America,United States of America,Florida,,Fort Myers
209.133.209.26,4,32,obj-sys.com,US,Americas,Northern America,United States of America,Florida,,Tampa
69.60.98.194,4,36,ocportal.com,US,Americas,Northern America,United States of America,Florida,,Miami
172.110.191.250,4,30,oklahomabaptists.org,US,Americas,Northern America,United States of America,Florida,,St. Cloud
107.155.116.178,4,32,old-games.com,US,Americas,Northern America,United States of America,Florida,,Tampa
64.251.28.130,4,5,omb100.com,US,Americas,Northern America,United States of America,Florida,,Miami
23.111.141.158,4,4,omnia.com.mx,US,Americas,Northern America,United States of America,Florida,,Tampa
81.181.106.192,4,1,onlineviagriabuy.com,US,Americas,Northern America,United States of America,Florida,,Miami
216.155.104.23,4,-1,onlygators.com,US,Americas,Northern America,United States of America,Florida,,Gainesville
209.84.253.4,4,426,Ookla Speedtest Server 1296: speedtestnet.rapidsys.com,US,Americas,Northern America,United States of America,Florida,,Tampa
50.7.64.4,4,295,Ookla Speedtest Server 6031: lg-mia.fdcservers.net,US,Americas,Northern America,United States of America,Florida,,Miami
96.8.1.19,4,198,Ookla Speedtest Server 6214: speedtestboca.gethotwired.com,US,Americas,Northern America,United States of America,Florida,,Miami Beach
172.99.36.49,4,311,Ookla Speedtest Server 14237: miami.fl.speedtest.frontier.com,US,Americas,Northern America,United States of America,Florida,,Palmetto
142.190.111.67,4,215,Ookla Speedtest Server 49333: speedtest10g.tpa.uniti.com,US,Americas,Northern America,United States of America,Florida,,Destin
134.195.28.238,4,199,Ookla Speedtest Server 53156: speedtest.myakka.com,US,Americas,Northern America,United States of America,Florida,,Myakka City
216.227.16.130,4,163,Ookla Speedtest Server 53481: speedtestbltnfl.consolidated.com,US,Americas,Northern America,United States of America,Florida,,Wewahitchka
208.89.99.246,4,102362,Ookla Speedtest Server 53543: speedtestfl.frantic.link,US,Americas,Northern America,United States of America,Florida,,Kissimmee
38.59.208.19,4,213,Ookla Speedtest Server 53885: st-tampa.sumofiber.com,US,Americas,Northern America,United States of America,Florida,,Spring Hill
139.138.74.35,4,281,Ookla Speedtest Server 57175: speedtest02.bluestreamfiber.net,US,Americas,Northern America,United States of America,Florida,,Tampa
209.71.0.18,4,378,Ookla Speedtest Server 58571: speed.cfec.com,US,Americas,Northern America,United States of America,Florida,,Trenton
23.175.112.27,4,303,Ookla Speedtest Server 60331: speedtest.simplysmartertechnology.com,US,Americas,Northern America,United States of America,Florida,,Panama City
38.188.200.3,4,15763,Ookla Speedtest Server 63723: speedtest.fiveninternet.com,US,Americas,Northern America,United States of America,Florida,,Miami
108.60.125.230,4,349,Ookla Speedtest Server 63776: tpataspeedtest.wiline.com,US,Americas,Northern America,United States of America,Florida,,Tampa
216.162.128.58,4,17,Ookla Speedtest Server: www.velocityonline.net,US,Americas,Northern America,United States of America,Florida,,Tallahassee
8.26.21.4,4,3,open-public-records.com,US,Americas,Northern America,United States of America,Florida,,Miami
107.190.137.66,4,-149,orlandoballet.org,US,Americas,Northern America,United States of America,Florida,,Apopka
45.77.162.138,4,63,orlandodatenightguide.com,US,Americas,Northern America,United States of America,Florida,,Miami
23.111.183.58,4,7,outervision.com,US,Americas,Northern America,United States of America,Florida,,Tampa
104.243.46.24,4,16,pandagon.net,US,Americas,Northern America,United States of America,Florida,,Miami
205.196.81.101,4,34,parkingnearairports.io,US,Americas,Northern America,United States of America,Florida,,Miami
205.196.81.121,4,85,passport-photo-software.com,US,Americas,Northern America,United States of America,Florida,,Miami
107.190.140.51,4,-6,paulmarina.com,US,Americas,Northern America,United States of America,Florida,,Apopka
69.60.110.180,4,10,pccables.com,US,Americas,Northern America,United States of America,Florida,,Miami
23.111.166.253,4,10,pcchile.cl,US,Americas,Northern America,United States of America,Florida,,Tampa
38.126.208.240,4,25,pdinfo.com,US,Americas,Northern America,United States of America,Florida,,Miami Beach
217.79.245.242,4,14,peshawarhighcourt.gov.pk,US,Americas,Northern America,United States of America,Florida,,Tampa
69.60.119.25,4,4,petpawtential.com,US,Americas,Northern America,United States of America,Florida,,Miami
172.110.191.14,4,33,phpfreaks.com,US,Americas,Northern America,United States of America,Florida,,St. Cloud
209.133.222.46,4,24,phrogz.net,US,Americas,Northern America,United States of America,Florida,,Tampa
72.29.94.131,4,1492,pixievacations.com,US,Americas,Northern America,United States of America,Florida,,Orlando
162.254.150.250,4,7,pjrc.com,US,Americas,Northern America,United States of America,Florida,,Tampa
66.129.123.4,4,16,pki.com,US,Americas,Northern America,United States of America,Florida,,
38.83.73.10,4,23,planisys.net,US,Americas,Northern America,United States of America,Florida,,Miami
96.31.72.25,4,216,plant-care.com,US,Americas,Northern America,United States of America,Florida,,Tampa
69.46.21.218,4,18,poetv.com,US,Americas,Northern America,United States of America,Florida,,Tampa
209.133.220.18,4,21,politics.ie,US,Americas,Northern America,United States of America,Florida,,Tampa
64.251.26.67,4,1850796,ponsonbynews.co.nz,US,Americas,Northern America,United States of America,Florida,,Miami
45.126.208.60,4,5,positiveparentingsolutions.com,US,Americas,Northern America,United States of America,Florida,,Miami
199.193.117.178,4,49,povocurioso.com,US,Americas,Northern America,United States of America,Florida,,Tampa
67.220.74.104,4,61,prator.life,US,Americas,Northern America,United States of America,Florida,,Miami
23.13.68.217,4,43,previred.com,US,Americas,Northern America,United States of America,Florida,,Miami
217.79.245.245,4,-88460,prime.edu.pk,US,Americas,Northern America,United States of America,Florida,,Tampa
192.211.56.74,4,22,profamilia.org.co,US,Americas,Northern America,United States of America,Florida,,Tampa
65.111.164.17,4,80,proimagenescolombia.com,US,Americas,Northern America,United States of America,Florida,,Miami
162.254.149.71,4,3800533,psnw.com,US,Americas,Northern America,United States of America,Florida,,Tampa
199.119.101.146,4,46,publicrecordcenter.com,US,Americas,Northern America,United States of America,Florida,,Tampa
107.190.136.114,4,-113,publimayo.com.co,US,Americas,Northern America,United States of America,Florida,,Apopka
23.111.163.10,4,60,pubrecords.com,US,Americas,Northern America,United States of America,Florida,,Tampa
96.31.72.53,4,-2,putnamsheriff.com,US,Americas,Northern America,United States of America,Florida,,Tampa
23.111.161.130,4,738,qtm.com,US,Americas,Northern America,United States of America,Florida,,Tampa
23.92.71.226,4,19,ramakrishnavivekananda.info,US,Americas,Northern America,United States of America,Florida,,Tampa
172.233.189.102,4,3,rawbloop.com,US,Americas,Northern America,United States of America,Florida,,Miami
72.29.95.80,4,-139,rdanderson.com,US,Americas,Northern America,United States of America,Florida,,Orlando
23.111.145.234,4,44,recipelink.com,US,Americas,Northern America,United States of America,Florida,,Tampa
208.115.225.138,4,2,reportscammedbitcoin.com,US,Americas,Northern America,United States of America,Florida,,Miami
23.92.75.227,4,593,republica.com.uy,US,Americas,Northern America,United States of America,Florida,,Tampa
104.156.247.183,4,44,revistafator.com.br,US,Americas,Northern America,United States of America,Florida,,Miami
69.60.109.247,4,51,ringsidenews.com,US,Americas,Northern America,United States of America,Florida,,Miami
217.79.244.170,4,5,roadback.org,US,Americas,Northern America,United States of America,Florida,,Tampa
107.190.140.88,4,-22,rocklandbakery.com,US,Americas,Northern America,United States of America,Florida,,Apopka
23.111.165.2,4,49,rockpaperpulp.com,US,Americas,Northern America,United States of America,Florida,,Tampa
199.167.29.6,4,20,rodriguezlopezproductions.com,US,Americas,Northern America,United States of America,Florida,,Pinellas Park
205.196.80.180,4,12,rome.us,US,Americas,Northern America,United States of America,Florida,,Miami
45.77.192.69,4,100,russian-slavicbrides.com,US,Americas,Northern America,United States of America,Florida,,Miami
94.72.164.196,4,21,sadi.org.ar,US,Americas,Northern America,United States of America,Florida,,Tampa
45.77.193.132,4,9,sangennaro.org,US,Americas,Northern America,United States of America,Florida,,Miami
46.21.148.50,4,2419,saopauloexpo.com.br,US,Americas,Northern America,United States of America,Florida,,Tampa
72.29.64.235,4,112,sapphyr.net,US,Americas,Northern America,United States of America,Florida,,Orlando
104.200.72.5,4,4,saveie6.com,US,Americas,Northern America,United States of America,Florida,,Miami
23.111.182.242,4,992,scope-art.com,US,Americas,Northern America,United States of America,Florida,,Tampa
205.196.81.104,4,18,sedecordlegame.org,US,Americas,Northern America,United States of America,Florida,,Miami
23.111.180.146,4,6,seefmall.com.bh,US,Americas,Northern America,United States of America,Florida,,Tampa
172.96.172.133,4,5,seogurubd.com,US,Americas,Northern America,United States of America,Florida,,Miami
66.232.105.242,4,93,seriousoffshore.com,US,Americas,Northern America,United States of America,Florida,,Tampa
209.133.214.31,4,55,setopati.com,US,Americas,Northern America,United States of America,Florida,,Tampa
23.111.149.130,4,15,sg.gov.lk,US,Americas,Northern America,United States of America,Florida,,Tampa
209.133.204.250,4,7,shaktitrails.com,US,Americas,Northern America,United States of America,Florida,,Tampa
144.202.39.118,4,0,shapebootstrap.net,US,Americas,Northern America,United States of America,Florida,,Miami
69.46.6.164,4,16,sheilaomalley.com,US,Americas,Northern America,United States of America,Florida,,Tampa
23.111.168.70,4,10,sheriffs.org,US,Americas,Northern America,United States of America,Florida,,Tampa
172.233.186.103,4,2,shortys.com,US,Americas,Northern America,United States of America,Florida,,Miami
23.111.174.253,4,39,significado.com,US,Americas,Northern America,United States of America,Florida,,Tampa
72.29.93.213,4,-137,siliconandhra.org,US,Americas,Northern America,United States of America,Florida,,Orlando
45.126.208.49,4,56,simonsezit.com,US,Americas,Northern America,United States of America,Florida,,Miami
107.190.140.60,4,-10,simplegreensoul.com,US,Americas,Northern America,United States of America,Florida,,Apopka
107.190.140.53,4,30,simplelivingrecipes.com,US,Americas,Northern America,United States of America,Florida,,Apopka
69.28.94.121,4,10,sipsych.org,US,Americas,Northern America,United States of America,Florida,,Sanford
69.60.110.7,4,49,skirmish.com,US,Americas,Northern America,United States of America,Florida,,Miami
64.251.15.49,4,15,skvacations.com,US,Americas,Northern America,United States of America,Florida,,Miami
217.79.243.138,4,5,slantfin.com,US,Americas,Northern America,United States of America,Florida,,Tampa
209.133.210.206,4,5,sleepforkids.org,US,Americas,Northern America,United States of America,Florida,,Tampa
23.111.173.4,4,9,slickremix.com,US,Americas,Northern America,United States of America,Florida,,Tampa
23.111.182.186,4,6,smallbusinessbrief.com,US,Americas,Northern America,United States of America,Florida,,Tampa
217.79.252.163,4,5,smart-gsm.com,US,Americas,Northern America,United States of America,Florida,,Tampa
216.238.148.84,4,10,smartflyer.com,US,Americas,Northern America,United States of America,Florida,,Jacksonville
162.255.138.254,4,-148428,smartpixl.com,US,Americas,Northern America,United States of America,Florida,,Miami
162.252.82.190,4,38,snowshoemag.com,US,Americas,Northern America,United States of America,Florida,,Tampa
23.111.148.122,4,5,sololiteratura.com,US,Americas,Northern America,United States of America,Florida,,Tampa
104.225.128.162,4,5,solveclimate.com,US,Americas,Northern America,United States of America,Florida,,Jacksonville
23.111.149.90,4,50,somacon.com,US,Americas,Northern America,United States of America,Florida,,Tampa
72.29.73.171,4,22,source.ie,US,Americas,Northern America,United States of America,Florida,,Orlando
140.82.26.103,4,25,southfloridakiteboarding.com,US,Americas,Northern America,United States of America,Florida,,Miami
23.111.179.26,4,3,southwesttimes.com,US,Americas,Northern America,United States of America,Florida,,Tampa
190.124.47.117,4,0,sovietmoviesonline.com,US,Americas,Northern America,United States of America,Florida,,Tampa
68.67.73.20,4,33,speedguide.net,US,Americas,Northern America,United States of America,Florida,,Fleming Island
46.21.148.2,4,52,speedsmart.net,US,Americas,Northern America,United States of America,Florida,,Tampa
23.111.164.12,4,22,spiritualmediablog.com,US,Americas,Northern America,United States of America,Florida,,Tampa
103.195.100.122,4,28,sportsdave.com,US,Americas,Northern America,United States of America,Florida,,Miami
23.111.167.173,4,471,sportsmanor.com,US,Americas,Northern America,United States of America,Florida,,Tampa
64.31.57.196,4,16,spreadlibertynews.com,US,Americas,Northern America,United States of America,Florida,,Miami
96.31.72.23,4,-2,springsmag.com,US,Americas,Northern America,United States of America,Florida,,Tampa
68.233.234.7,4,6,spyderlovers.com,US,Americas,Northern America,United States of America,Florida,,Tampa
162.254.144.155,4,6,squeegeeworld.com,US,Americas,Northern America,United States of America,Florida,,Tampa
23.92.75.170,4,6,ssnet.org,US,Americas,Northern America,United States of America,Florida,,Tampa
23.111.140.234,4,10,standaloneinstaller.com,US,Americas,Northern America,United States of America,Florida,,Tampa
66.206.21.162,4,58,stenoknight.com,US,Americas,Northern America,United States of America,Florida,,Tampa
209.133.195.116,4,35,stevetheump.com,US,Americas,Northern America,United States of America,Florida,,Tampa
92.38.133.38,4,3,stlucianow.com,US,Americas,Northern America,United States of America,Florida,,Miami
45.61.187.217,4,36,studybible.info,US,Americas,Northern America,United States of America,Florida,,Miami
199.119.103.178,4,4,style64.org,US,Americas,Northern America,United States of America,Florida,,Tampa
72.29.91.174,4,919,stylishtemplate.com,US,Americas,Northern America,United States of America,Florida,,Orlando
23.111.181.43,4,4,superbia.lgbt,US,Americas,Northern America,United States of America,Florida,,Tampa
40.128.126.221,4,15,supertalent.com,US,Americas,Northern America,United States of America,Florida,,Tallahassee
173.44.47.224,4,-1,sysprog.info,US,Americas,Northern America,United States of America,Florida,,Miami
209.133.209.202,4,5,syston.com.br,US,Americas,Northern America,United States of America,Florida,,Tampa
98.142.108.162,4,-80,tamimi-commercial.com,US,Americas,Northern America,United States of America,Florida,,Orlando
140.82.24.252,4,-1,tampabaydatenightguide.com,US,Americas,Northern America,United States of America,Florida,,Miami
144.202.45.146,4,5,tampabayparenting.com,US,Americas,Northern America,United States of America,Florida,,Miami
64.31.22.50,4,40,target-directory.com,US,Americas,Northern America,United States of America,Florida,,Miami
107.190.140.59,4,4,tasteloveandnourish.com,US,Americas,Northern America,United States of America,Florida,,Apopka
107.190.140.54,4,29,tastingwithtina.com,US,Americas,Northern America,United States of America,Florida,,Apopka
69.46.2.250,4,4,taxcollect.com,US,Americas,Northern America,United States of America,Florida,,Tampa
199.127.60.49,4,0,tbsdtv.com,US,Americas,Northern America,United States of America,Florida,,Miami
199.193.117.238,4,10,tdah.org.br,US,Americas,Northern America,United States of America,Florida,,Tampa
205.196.81.33,4,25,teachersmag.com,US,Americas,Northern America,United States of America,Florida,,Miami
69.28.88.7,4,2,team-dsm.com,US,Americas,Northern America,United States of America,Florida,,Sanford
23.111.166.234,4,30,teamphotoshop.com,US,Americas,Northern America,United States of America,Florida,,Tampa
64.31.43.178,4,2,techcrams.com,US,Americas,Northern America,United States of America,Florida,,Miami
64.31.22.58,4,2,techuck.com,US,Americas,Northern America,United States of America,Florida,,Miami
96.31.72.54,4,816,teflpedia.com,US,Americas,Northern America,United States of America,Florida,,Tampa
217.79.248.10,4,45,templateism.com,US,Americas,Northern America,United States of America,Florida,,Tampa
158.51.125.194,4,4,thaibaanpost.com,US,Americas,Northern America,United States of America,Florida,,Tampa
64.251.30.188,4,13,tharp.me,US,Americas,Northern America,United States of America,Florida,,Miami
208.115.236.166,4,10,theappsfirm.com,US,Americas,Northern America,United States of America,Florida,,Miami
107.190.140.52,4,-8,thebakingbeauties.com,US,Americas,Northern America,United States of America,Florida,,Apopka
209.133.204.74,4,5,thebeachcats.com,US,Americas,Northern America,United States of America,Florida,,Tampa
23.111.148.60,4,18,thecustomboxes.co.uk,US,Americas,Northern America,United States of America,Florida,,Tampa
23.111.168.43,4,35,thecustomboxes.com,US,Americas,Northern America,United States of America,Florida,,Tampa
23.111.148.62,4,24,thecustomboxes.com.au,US,Americas,Northern America,United States of America,Florida,,Tampa
104.238.137.121,4,0,thedawsonacademy.com,US,Americas,Northern America,United States of America,Florida,,Miami
104.156.244.74,4,8,thedisneychef.com,US,Americas,Northern America,United States of America,Florida,,Miami
172.233.176.34,4,11,theodore-roosevelt.com,US,Americas,Northern America,United States of America,Florida,,Miami
69.46.6.243,4,33,thepinetree.net,US,Americas,Northern America,United States of America,Florida,,Tampa
162.252.85.115,4,32,therailroadpark.com,US,Americas,Northern America,United States of America,Florida,,Tampa
23.111.171.172,4,6,thervatlas.com,US,Americas,Northern America,United States of America,Florida,,Tampa
64.31.49.205,4,9,theunboundedspirit.com,US,Americas,Northern America,United States of America,Florida,,Miami
217.79.244.154,4,478,thewidely.com,US,Americas,Northern America,United States of America,Florida,,Tampa
64.251.22.35,4,7,threeworldwars.com,US,Americas,Northern America,United States of America,Florida,,Miami
96.31.72.46,4,732,tizag.com,US,Americas,Northern America,United States of America,Florida,,Tampa
23.111.142.130,4,5,tmrzoo.com,US,Americas,Northern America,United States of America,Florida,,Tampa
96.31.72.45,4,210,toothfairy.org,US,Americas,Northern America,United States of America,Florida,,Tampa
144.202.36.91,4,10,toplang.com,US,Americas,Northern America,United States of America,Florida,,Miami
69.46.7.242,4,25,topmudsites.com,US,Americas,Northern America,United States of America,Florida,,Tampa
72.29.74.227,4,-38,topservicetur.com.br,US,Americas,Northern America,United States of America,Florida,,Orlando
104.156.54.157,4,481,totalpos.co.id,US,Americas,Northern America,United States of America,Florida,,Tampa
23.227.176.180,4,53,tour.com.ua,US,Americas,Northern America,United States of America,Florida,,Tampa
23.111.180.163,4,7,towndock.net,US,Americas,Northern America,United States of America,Florida,,Tampa
198.178.122.126,4,977,tradingpaints.com,US,Americas,Northern America,United States of America,Florida,,Tampa
208.64.64.108,4,7,traxsource.com,US,Americas,Northern America,United States of America,Florida,,Miami
23.111.129.138,4,49,trinidadweddings.com,US,Americas,Northern America,United States of America,Florida,,Tampa
199.127.62.219,4,46,trinituner.com,US,Americas,Northern America,United States of America,Florida,,Miami
66.232.106.130,4,21,trinitycollege.edu,US,Americas,Northern America,United States of America,Florida,,Tampa
172.93.111.22,4,3,tropicaltidbits.com,US,Americas,Northern America,United States of America,Florida,,Miami
107.190.140.58,4,7,turniptheoven.com,US,Americas,Northern America,United States of America,Florida,,Apopka
23.111.132.114,4,8,turtleforum.com,US,Americas,Northern America,United States of America,Florida,,Tampa
96.31.72.64,4,812,tuscaroras.com,US,Americas,Northern America,United States of America,Florida,,Tampa
45.61.184.135,4,1,tux.pizza,US,Americas,Northern America,United States of America,Florida,,Miami
209.133.209.251,4,3,twitchviral.com,US,Americas,Northern America,United States of America,Florida,,Tampa
23.111.179.42,4,8,tyndallreport.com,US,Americas,Northern America,United States of America,Florida,,Tampa
72.29.91.162,4,908,ukrainianinstitute.org,US,Americas,Northern America,United States of America,Florida,,Orlando
209.133.207.180,4,21,umsabadoqualquer.com,US,Americas,Northern America,United States of America,Florida,,Tampa
173.205.87.147,4,19,unaoc.org,US,Americas,Northern America,United States of America,Florida,,Miami
209.133.206.134,4,15,uni-watch.com,US,Americas,Northern America,United States of America,Florida,,Tampa
66.165.168.105,4,0,unitedworldtelecom.com,US,Americas,Northern America,United States of America,Florida,,Miami
69.46.29.10,4,577,unored.com,US,Americas,Northern America,United States of America,Florida,,Tampa
208.111.31.12,4,43,uscity.net,US,Americas,Northern America,United States of America,Florida,,Orlando
172.233.162.4,4,6,uscommbroward.com,US,Americas,Northern America,United States of America,Florida,,Miami
131.247.100.1,4,22,usf.edu,US,Americas,Northern America,United States of America,Florida,,Lutz
131.247.1.40,4,4,usf.edu,US,Americas,Northern America,United States of America,Florida,,Tampa
96.31.72.43,4,7,uzice.net,US,Americas,Northern America,United States of America,Florida,,Tampa
209.133.192.106,4,793,vancouverrowingclub.wiki,US,Americas,Northern America,United States of America,Florida,,Tampa
66.129.115.229,4,3534,vectorvest.com,US,Americas,Northern America,United States of America,Florida,,
23.227.176.27,4,39,vermenu.ar,US,Americas,Northern America,United States of America,Florida,,Tampa
86.38.216.41,4,1,vibratorshop.co.il,US,Americas,Northern America,United States of America,Florida,,Miami
199.167.147.66,4,758,viegecosmeticos.com.br,US,Americas,Northern America,United States of America,Florida,,Tampa
23.111.166.242,4,30,villapalmarcancun.com,US,Americas,Northern America,United States of America,Florida,,Tampa
23.111.140.75,4,4,vinylengine.com,US,Americas,Northern America,United States of America,Florida,,Tampa
149.28.107.160,4,2,viomundo.com.br,US,Americas,Northern America,United States of America,Florida,,Miami
209.133.218.114,4,51,virginiaestates.com,US,Americas,Northern America,United States of America,Florida,,Tampa
46.21.149.170,4,3,visionsciences.org,US,Americas,Northern America,United States of America,Florida,,Tampa
205.196.81.44,4,84,vivawoman.net,US,Americas,Northern America,United States of America,Florida,,Miami
72.29.81.201,4,151,vlsoftware.net,US,Americas,Northern America,United States of America,Florida,,Orlando
5.254.74.2,4,510,voxility.com,US,Americas,Northern America,United States of America,Florida,,Miami
45.13.66.103,4,-11,walledgarden.xyz,US,Americas,Northern America,United States of America,Florida,,Crestview
45.13.66.100,4,12,walledgarden.xyz,US,Americas,Northern America,United States of America,Florida,,Crestview
45.13.66.101,4,26163,walledgarden.xyz,US,Americas,Northern America,United States of America,Florida,,Crestview
45.13.66.102,4,26156,walledgarden.xyz,US,Americas,Northern America,United States of America,Florida,,Crestview
23.111.150.34,4,21,warnersbest.com,US,Americas,Northern America,United States of America,Florida,,Tampa
205.196.80.52,4,3,washingcodes.com,US,Americas,Northern America,United States of America,Florida,,Miami
198.178.121.206,4,7,wdwip.com,US,Americas,Northern America,United States of America,Florida,,Tampa
199.253.28.50,4,26,webdigitalonline.com,US,Americas,Northern America,United States of America,Florida,,Tampa
96.47.228.246,4,80,webhost.pro,US,Americas,Northern America,United States of America,Florida,,Miami
64.31.43.34,4,28,websexperts.com,US,Americas,Northern America,United States of America,Florida,,Miami
38.57.3.58,4,7,weiter-lesen.net,US,Americas,Northern America,United States of America,Florida,,Tampa
69.46.27.242,4,19,wellsboropa.com,US,Americas,Northern America,United States of America,Florida,,Tampa
199.167.151.242,4,8,werindia.com,US,Americas,Northern America,United States of America,Florida,,Tampa
146.201.215.81,4,-191618,wfsu.org,US,Americas,Northern America,United States of America,Florida,,Tallahassee
23.111.174.204,4,4,wgig.org,US,Americas,Northern America,United States of America,Florida,,Tampa
66.232.98.170,4,4,whmi.com,US,Americas,Northern America,United States of America,Florida,,Tampa
64.31.25.250,4,6,whow.com.br,US,Americas,Northern America,United States of America,Florida,,Miami
209.133.215.34,4,55,wikidegree.com,US,Americas,Northern America,United States of America,Florida,,Tampa
74.50.117.113,4,87,wikifeedz.com,US,Americas,Northern America,United States of America,Florida,,Tampa
96.31.72.36,4,431,wildfermentation.com,US,Americas,Northern America,United States of America,Florida,,Tampa
23.111.143.211,4,48,wilmington-nc.com,US,Americas,Northern America,United States of America,Florida,,Tampa
107.190.139.58,4,-129,windominica.gov.dm,US,Americas,Northern America,United States of America,Florida,,Apopka
23.111.178.178,4,91714,wiztreefree.com,US,Americas,Northern America,United States of America,Florida,,Tampa
144.202.38.39,4,19,womenindistress.org,US,Americas,Northern America,United States of America,Florida,,Miami
104.156.48.28,4,5,womenprisoners.org,US,Americas,Northern America,United States of America,Florida,,Tampa
172.233.190.208,4,3,wonderhero.io,US,Americas,Northern America,United States of America,Florida,,Miami
172.96.143.39,4,7,wordpresssupplies.com,US,Americas,Northern America,United States of America,Florida,,Miami
66.232.105.162,4,17,wrfalp.com,US,Americas,Northern America,United States of America,Florida,,Tampa
209.133.194.139,4,7,writersperhour.com,US,Americas,Northern America,United States of America,Florida,,Tampa
205.196.80.115,4,6,writtent.com,US,Americas,Northern America,United States of America,Florida,,Miami
162.254.200.130,4,2,wtso.net,US,Americas,Northern America,United States of America,Florida,,Miami
172.233.187.207,4,7,xlx-florida-link.com,US,Americas,Northern America,United States of America,Florida,,Miami
71.41.121.227,4,-1,xlxreflector.org,US,Americas,Northern America,United States of America,Florida,,Kissimmee
23.111.130.172,4,5,xmarksthescot.com,US,Americas,Northern America,United States of America,Florida,,Tampa
45.77.115.210,4,36,xn--idrottslskaren-cib.se,US,Americas,Northern America,United States of America,Florida,,Miami
45.77.196.175,4,-8,xn--sportogbevgelse-6lb.dk,US,Americas,Northern America,United States of America,Florida,,Miami
149.28.105.52,4,69,xn--tande-fra.se,US,Americas,Northern America,United States of America,Florida,,Miami
45.32.168.157,4,3,xn--vrfritid-9za.se,US,Americas,Northern America,United States of America,Florida,,Miami
192.251.239.34,4,-4,xoth.net,US,Americas,Northern America,United States of America,Florida,,St. Cloud
23.29.115.3,4,3,xucal.com,US,Americas,Northern America,United States of America,Florida,,Tampa
104.165.110.100,4,5,year2000.com,US,Americas,Northern America,United States of America,Florida,,Miami
64.251.22.31,4,2,yk.net,US,Americas,Northern America,United States of America,Florida,,Miami
66.232.106.11,4,18,yorkietalk.com,US,Americas,Northern America,United States of America,Florida,,Tampa
107.190.132.8,4,4,yousaypotatoes.com,US,Americas,Northern America,United States of America,Florida,,Apopka
107.190.132.13,4,3,yummymummykitchen.com,US,Americas,Northern America,United States of America,Florida,,Apopka
192.155.108.156,4,18,yurist-online.com,US,Americas,Northern America,United States of America,Florida,,Miami
4.7.39.101,4,-1,zradio.org,US,Americas,Northern America,United States of America,Florida,,Jacksonville
4.7.39.102,4,1,zradio.org,US,Americas,Northern America,United States of America,Florida,,Jacksonville
