reflector_ip,ip_version,offset,description,country_code,region,sub_region,country_name,sub_division_1,sub_division_2,city
69.9.47.136,4,-2,ameracorporation.com,US,Americas,Northern America,United States of America,Oklahoma,,Weatherford
156.110.192.58,4,5,cameron.edu,US,Americas,Northern America,United States of America,Oklahoma,,Bristow
209.66.102.82,4,6,cnnbcvideo.com,US,Americas,Northern America,United States of America,Oklahoma,,Norman
108.76.201.239,4,15,cook.gg,US,Americas,Northern America,United States of America,Oklahoma,,Edmond
140.82.142.242,4,43,DNS Server: 140.82.142.242.360broadband.net,US,Americas,Northern America,United States of America,Oklahoma,,Coalgate
64.19.105.113,4,-24329029,DNS Server: dynamic-dialup113-blk2.intelleqcom.net,US,Americas,Northern America,United States of America,Oklahoma,,Clinton
72.3.212.67,4,4,fcterc.gov.ng,US,Americas,Northern America,United States of America,Oklahoma,,Edmond
38.109.143.104,4,31,finduslocal.com,US,Americas,Northern America,United States of America,Oklahoma,,Tulsa
190.102.98.173,4,7,freeswitch.com,US,Americas,Northern America,United States of America,Oklahoma,,McAlester
190.102.98.172,4,-1,freeswitch.org,US,Americas,Northern America,United States of America,Oklahoma,,McAlester
216.226.16.152,4,18,galstar.com,US,Americas,Northern America,United States of America,Oklahoma,,Oklahoma City
139.78.194.20,4,7,ifsac.org,US,Americas,Northern America,United States of America,Oklahoma,,Stillwater
38.95.34.13,4,4,nbcaugusta.com,US,Americas,Northern America,United States of America,Oklahoma,,Oklahoma City
204.87.106.134,4,2823,okhistory.org,US,Americas,Northern America,United States of America,Oklahoma,,Oklahoma City
69.170.239.126,4,408282,Ookla Speedtest Server 8253: speedtest.ctsiok.com,US,Americas,Northern America,United States of America,Oklahoma,,Sulphur
164.58.96.254,4,125,Ookla Speedtest Server 17751: okc-speedtest.onenet.net,US,Americas,Northern America,United States of America,Oklahoma,,Muskogee
164.58.96.250,4,376,Ookla Speedtest Server 20013: tul-speedtest.onenet.net,US,Americas,Northern America,United States of America,Oklahoma,,Muskogee
38.131.52.8,4,345,Ookla Speedtest Server 20949: speedtest.chisholmbb.com,US,Americas,Northern America,United States of America,Oklahoma,,Enid
162.245.48.164,4,254,Ookla Speedtest Server 21200: speedtest.boltfiber.com,US,Americas,Northern America,United States of America,Oklahoma,,Grove
104.156.16.26,4,299,Ookla Speedtest Server 30663: speedtest.sstelco.com,US,Americas,Northern America,United States of America,Oklahoma,,Salina
207.66.81.8,4,363,Ookla Speedtest Server 42552: speedtest.mycvecfiber.com,US,Americas,Northern America,United States of America,Oklahoma,,Tecumseh
170.39.31.126,4,-31431,Ookla Speedtest Server: speedtest.resonancebroadband.com,US,Americas,Northern America,United States of America,Oklahoma,,Hartshorne
