reflector_ip,ip_version,offset,description,country_code,region,sub_region,country_name,sub_division_1,sub_division_2,city
23.208.37.67,4,6,acmoore.com,US,Americas,Northern America,United States of America,Pennsylvania,,Philadelphia
104.73.18.218,4,17,bartelldrugs.com,US,Americas,Northern America,United States of America,Pennsylvania,,Pittsburgh
38.123.137.149,4,21,british-trees.com,US,Americas,Northern America,United States of America,Pennsylvania,,Philadelphia
128.2.172.14,4,4,captcha.net,US,Americas,Northern America,United States of America,Pennsylvania,,Pittsburgh
104.90.65.246,4,2,caremark.com,US,Americas,Northern America,United States of America,Pennsylvania,,Philadelphia
50.174.239.243,4,70,cathedralphila.org,US,Americas,Northern America,United States of America,Pennsylvania,,Philadelphia
128.2.204.118,4,21,cranor.org,US,Americas,Northern America,United States of America,Pennsylvania,,Carnegie
68.65.121.105,4,31,creativewritingnews.com,US,Americas,Northern America,United States of America,Pennsylvania,,Mount Union
50.207.2.178,4,2,dcls.org,US,Americas,Northern America,United States of America,Pennsylvania,,Harrisburg
209.249.147.60,4,4170,diakon.org,US,Americas,Northern America,United States of America,Pennsylvania,,Wilkes-Barre
107.0.218.126,4,131,DNS Server: 107-0-218-126-ip-static.hfc.comcastbusiness.net,US,Americas,Northern America,United States of America,Pennsylvania,,Philadelphia
173.161.248.250,4,19,DNS Server: 173-161-248-250-Philadelphia.hfc.comcastbusiness.net,US,Americas,Northern America,United States of America,Pennsylvania,,Conshohocken
23.25.74.77,4,78554,DNS Server: 23-25-74-77-static.hfc.comcastbusiness.net,US,Americas,Northern America,United States of America,Pennsylvania,,Pittsburgh
24.102.185.164,4,6,DNS Server: 24.102.185.164.res-cmts.mlf.ptd.net,US,Americas,Northern America,United States of America,Pennsylvania,,Milford
64.121.65.187,4,5,DNS Server: 64-121-65-187.s697.c3-0.tlg-cbr2.atw-tlg.pa.cable.rcncustomer.com,US,Americas,Northern America,United States of America,Pennsylvania,,Emmaus
64.67.109.2,4,40,DNS Server: 64-67-109-2-static.cmts.dun.ptd.net,US,Americas,Northern America,United States of America,Pennsylvania,,Duncannon
70.33.151.122,4,66,DNS Server: 70-33-151-122.unassigned.ntelos.net,US,Americas,Northern America,United States of America,Pennsylvania,,Pittsburgh
70.91.6.205,4,61470,DNS Server: 70-91-6-205-gambrills-md.hfc.comcastbusiness.net,US,Americas,Northern America,United States of America,Pennsylvania,,Norristown
75.146.198.133,4,-2473806,DNS Server: 75-146-198-133-Philadelphia.hfc.comcastbusiness.net,US,Americas,Northern America,United States of America,Pennsylvania,,Drexel Hill
174.55.67.31,4,9,DNS Server: c-174-55-67-31.hsd1.pa.comcast.net,US,Americas,Northern America,United States of America,Pennsylvania,,Palmyra
71.224.160.110,4,-15694219,DNS Server: c-71-224-160-110.hsd1.pa.comcast.net,US,Americas,Northern America,United States of America,Pennsylvania,,Media
71.58.100.49,4,-90115,DNS Server: c-71-58-100-49.hsd1.pa.comcast.net,US,Americas,Northern America,United States of America,Pennsylvania,,State College
73.130.125.132,4,16,DNS Server: c-73-130-125-132.hsd1.pa.comcast.net,US,Americas,Northern America,United States of America,Pennsylvania,,Shippensburg
73.130.126.183,4,19714468,DNS Server: c-73-130-126-183.hsd1.pa.comcast.net,US,Americas,Northern America,United States of America,Pennsylvania,,Shippensburg
73.130.127.130,4,18000143,DNS Server: c-73-130-127-130.hsd1.pa.comcast.net,US,Americas,Northern America,United States of America,Pennsylvania,,Shippensburg
73.187.74.6,4,7,DNS Server: c-73-187-74-6.hsd1.pa.comcast.net,US,Americas,Northern America,United States of America,Pennsylvania,,East Berlin
73.81.214.238,4,10,DNS Server: c-73-81-214-238.hsd1.pa.comcast.net,US,Americas,Northern America,United States of America,Pennsylvania,,Philadelphia
24.154.107.247,4,192,DNS Server: dynamic-acs-24-154-107-247.zoominternet.net,US,Americas,Northern America,United States of America,Pennsylvania,,Cranberry Township
23.137.253.24,4,349,DoH server: abe01.dnscry.pt,US,Americas,Northern America,United States of America,Pennsylvania,,Allentown
128.2.220.145,4,5,flowrepository.org,US,Americas,Northern America,United States of America,Pennsylvania,,Carnegie
24.154.248.16,4,368,forwardlook.net,US,Americas,Northern America,United States of America,Pennsylvania,,Mars
128.2.207.20,4,93,gigapan.com,US,Americas,Northern America,United States of America,Pennsylvania,,Carnegie
128.2.220.74,4,6,gigapan.com,US,Americas,Northern America,United States of America,Pennsylvania,,Carnegie
128.2.220.77,4,11,gigapan.com,US,Americas,Northern America,United States of America,Pennsylvania,,Carnegie
70.20.232.102,4,48,goodwikiread.org,US,Americas,Northern America,United States of America,Pennsylvania,,Glenside
74.118.137.55,4,5,grnc.org,US,Americas,Northern America,United States of America,Pennsylvania,,Pittsburgh
198.199.154.14,4,28,healthpartnersplans.com,US,Americas,Northern America,United States of America,Pennsylvania,,Upper Darby
50.251.58.13,4,10,imagemagick.org,US,Americas,Northern America,United States of America,Pennsylvania,,Philadelphia
184.30.175.190,4,5,intelligence.gov,US,Americas,Northern America,United States of America,Pennsylvania,,Philadelphia
73.79.73.241,4,6,jumpdev.com,US,Americas,Northern America,United States of America,Pennsylvania,,McKees Rocks
104.120.138.144,4,7,juniata.edu,US,Americas,Northern America,United States of America,Pennsylvania,,Pittsburgh
74.118.137.12,4,3,lifetype.net,US,Americas,Northern America,United States of America,Pennsylvania,,Pittsburgh
208.53.33.98,4,2,linuxrocks.online,US,Americas,Northern America,United States of America,Pennsylvania,,Pittsburgh
148.59.62.104,4,5,lvzoo.org,US,Americas,Northern America,United States of America,Pennsylvania,,Wilkes-Barre
98.114.102.243,4,-723,membrane.com,US,Americas,Northern America,United States of America,Pennsylvania,,Philadelphia
209.249.147.71,4,1605,mohaaaa.co.uk,US,Americas,Northern America,United States of America,Pennsylvania,,Wilkes-Barre
72.94.173.45,4,11,momjian.us,US,Americas,Northern America,United States of America,Pennsylvania,,Royersford
128.2.25.48,4,3,ncatlab.org,US,Americas,Northern America,United States of America,Pennsylvania,,Pittsburgh
67.22.16.234,4,72,Ookla Speedtest Server 1624: speedtest.getwireless.net,US,Americas,Northern America,United States of America,Pennsylvania,,State College
204.186.253.198,4,189,Ookla Speedtest Server 16071: brd.speedtest.secv.com,US,Americas,Northern America,United States of America,Pennsylvania,,Allentown
204.186.255.2,4,115,Ookla Speedtest Server 16072: hzl.speedtest.secv.com,US,Americas,Northern America,United States of America,Pennsylvania,,Allentown
204.186.255.94,4,16,Ookla Speedtest Server 16078: pnt.speedtest.secv.com,US,Americas,Northern America,United States of America,Pennsylvania,,Allentown
209.195.128.11,4,105,Ookla Speedtest Server 17243: speedtest.pa.mycci.net,US,Americas,Northern America,United States of America,Pennsylvania,,Pittsburgh
148.59.62.22,4,387,Ookla Speedtest Server 21763: lsdspeed01.lsdops.net,US,Americas,Northern America,United States of America,Pennsylvania,,Wilkes-Barre
205.171.93.114,4,168,Ookla Speedtest Server 53385: carlisle.speedtest.brightspeed.com,US,Americas,Northern America,United States of America,Pennsylvania,,Carlisle
108.60.112.211,4,301,Ookla Speedtest Server 64580: phlph0001speedtestserver02.wiline.com,US,Americas,Northern America,United States of America,Pennsylvania,,Philadelphia
128.2.13.213,4,4,openafs.org,US,Americas,Northern America,United States of America,Pennsylvania,,Pittsburgh
50.227.194.164,4,-43340,opendental.com,US,Americas,Northern America,United States of America,Pennsylvania,,Philadelphia
38.123.137.201,4,31,opendylan.org,US,Americas,Northern America,United States of America,Pennsylvania,,Philadelphia
50.227.194.166,4,6919238,patientviewer.com,US,Americas,Northern America,United States of America,Pennsylvania,,Philadelphia
209.166.164.161,4,4,pghtech.org,US,Americas,Northern America,United States of America,Pennsylvania,,McKeesport
129.32.84.206,4,24,piconepress.com,US,Americas,Northern America,United States of America,Pennsylvania,,Philadelphia
208.53.40.40,4,64,proagentwebsites.com,US,Americas,Northern America,United States of America,Pennsylvania,,Pittsburgh
128.2.208.98,4,45,rangevoting.org,US,Americas,Northern America,United States of America,Pennsylvania,,Carnegie
66.59.109.165,4,40,realtornightmares.com,US,Americas,Northern America,United States of America,Pennsylvania,,Chambersburg
23.146.144.46,4,-7,ryo-currency.com,US,Americas,Northern America,United States of America,Pennsylvania,,Philadelphia
104.90.66.197,4,12,sandiegocounty.gov,US,Americas,Northern America,United States of America,Pennsylvania,,Philadelphia
74.118.137.70,4,4,sdiworld.org,US,Americas,Northern America,United States of America,Pennsylvania,,Pittsburgh
128.237.157.9,4,29,sigbovik.org,US,Americas,Northern America,United States of America,Pennsylvania,,Pittsburgh
128.237.157.10,4,43,sigbovik.org,US,Americas,Northern America,United States of America,Pennsylvania,,Pittsburgh
68.65.121.50,4,934,ska-studios.com,US,Americas,Northern America,United States of America,Pennsylvania,,Mount Union
68.65.121.23,4,1,tags.world,US,Americas,Northern America,United States of America,Pennsylvania,,Mount Union
128.2.24.68,4,9,talkbank.org,US,Americas,Northern America,United States of America,Pennsylvania,,Pittsburgh
128.237.157.242,4,152491,thetartan.org,US,Americas,Northern America,United States of America,Pennsylvania,,Pittsburgh
155.247.3.130,4,12,timetree.org,US,Americas,Northern America,United States of America,Pennsylvania,,Philadelphia
208.53.51.37,4,9,utahgateway.com,US,Americas,Northern America,United States of America,Pennsylvania,,Pittsburgh
66.211.211.66,4,201,velocity.net,US,Americas,Northern America,United States of America,Pennsylvania,,Erie
38.123.137.150,4,20,worldvisions.ca,US,Americas,Northern America,United States of America,Pennsylvania,,Philadelphia
128.2.24.199,4,7,wrct.org,US,Americas,Northern America,United States of America,Pennsylvania,,Pittsburgh
74.81.97.149,4,3,zitomedia.net,US,Americas,Northern America,United States of America,Pennsylvania,,Bradford
