reflector_ip,ip_version,offset,description,country_code,region,sub_region,country_name,sub_division_1,sub_division_2,city
149.28.8.15,4,0,157sf.com,US,Americas,Northern America,United States of America,Washington,,Kent
104.140.6.105,4,-3,17mya.com,US,Americas,Northern America,United States of America,Washington,,Seattle
192.3.251.24,4,10,2betantra.co.il,US,Americas,Northern America,United States of America,Washington,,Seattle
45.151.132.50,4,-4,423down.com,US,Americas,Northern America,United States of America,Washington,,Seattle
172.83.156.69,4,-4,5068.com,US,Americas,Northern America,United States of America,Washington,,Seattle
172.83.156.68,4,3,5156edu.com,US,Americas,Northern America,United States of America,Washington,,Seattle
45.142.158.79,4,23,52bdt.com,US,Americas,Northern America,United States of America,Washington,,Seattle
67.228.121.196,4,4,5kplayer.com,US,Americas,Northern America,United States of America,Washington,,Seattle
154.53.58.48,4,6,81cmiu.com,US,Americas,Northern America,United States of America,Washington,,Seattle
209.61.198.10,4,19,abyznewslinks.com,US,Americas,Northern America,United States of America,Washington,,Seattle
108.62.157.30,4,-20,academickids.com,US,Americas,Northern America,United States of America,Washington,,Seattle
198.57.47.9,4,14,adios-hola.org,US,Americas,Northern America,United States of America,Washington,,Seattle
67.228.126.170,4,1,aiarty.com,US,Americas,Northern America,United States of America,Washington,,Seattle
74.220.252.68,4,1074,airporter.com,US,Americas,Northern America,United States of America,Washington,,Bellingham
209.90.232.239,4,4,aiseducation.in,US,Americas,Northern America,United States of America,Washington,,Seattle
66.160.176.9,4,4,aka.org,US,Americas,Northern America,United States of America,Washington,,Kirkland
23.82.78.30,4,15,alaskawatchman.com,US,Americas,Northern America,United States of America,Washington,,Seattle
66.160.182.102,4,5,alembic.com,US,Americas,Northern America,United States of America,Washington,,Kirkland
66.160.181.146,4,14,amtaorg.com,US,Americas,Northern America,United States of America,Washington,,Kirkland
209.251.245.213,4,4,antifandom.com,US,Americas,Northern America,United States of America,Washington,,Seattle
67.228.97.221,4,16,anymp4.com,US,Americas,Northern America,United States of America,Washington,,Seattle
206.217.208.196,4,53,artsongcentral.com,US,Americas,Northern America,United States of America,Washington,,Seattle
206.217.208.187,4,6,askthemanager.com,US,Americas,Northern America,United States of America,Washington,,Seattle
209.61.198.9,4,13,athropolis.com,US,Americas,Northern America,United States of America,Washington,,Seattle
64.184.186.42,4,1,atu2.com,US,Americas,Northern America,United States of America,Washington,,Connell
151.101.20.239,4,8,backchannel.com,US,Americas,Northern America,United States of America,Washington,,Seattle
128.95.160.139,4,4,bakerlab.org,US,Americas,Northern America,United States of America,Washington,,Seattle
45.145.73.209,4,30,bc1668.com,US,Americas,Northern America,United States of America,Washington,,Seattle
85.239.233.168,4,1,bcrelx.com,US,Americas,Northern America,United States of America,Washington,,Seattle
89.117.22.227,4,3,bearfoxmarketing.com,US,Americas,Northern America,United States of America,Washington,,Seattle
192.119.108.10,4,3,bhabhi.net,US,Americas,Northern America,United States of America,Washington,,Seattle
144.202.90.197,4,6,bosslocallistings.com,US,Americas,Northern America,United States of America,Washington,,Kent
216.32.152.95,4,35461,buzztime.com,US,Americas,Northern America,United States of America,Washington,,
104.225.217.116,4,7,bz-associates.com,US,Americas,Northern America,United States of America,Washington,,Seattle
208.74.158.174,4,10,candelatech.com,US,Americas,Northern America,United States of America,Washington,,Everson
172.232.187.235,4,6,canlibahis.top,US,Americas,Northern America,United States of America,Washington,,Tukwila
67.228.82.107,4,1,carlossantana.com.br,US,Americas,Northern America,United States of America,Washington,,Seattle
209.61.197.156,4,72,carnivorousplants.org,US,Americas,Northern America,United States of America,Washington,,Seattle
206.63.224.3,4,11,cet.com,US,Americas,Northern America,United States of America,Washington,,Spokane
66.148.113.131,4,8,chaptercheats.com,US,Americas,Northern America,United States of America,Washington,,Seattle
128.208.3.117,4,13,checkerframework.org,US,Americas,Northern America,United States of America,Washington,,Seattle
167.88.113.156,4,4,circumlunar.space,US,Americas,Northern America,United States of America,Washington,,Seattle
144.48.107.74,4,16,clouddevs.com,US,Americas,Northern America,United States of America,Washington,,Seattle
23.82.78.21,4,2,cmnw.org,US,Americas,Northern America,United States of America,Washington,,Seattle
66.42.77.17,4,13,codingtechnologies.com,US,Americas,Northern America,United States of America,Washington,,Kent
66.114.33.182,4,1196,columbiagames.com,US,Americas,Northern America,United States of America,Washington,,Bellingham
172.232.168.173,4,1,columbian.com,US,Americas,Northern America,United States of America,Washington,,Tukwila
66.160.176.97,4,44,comfest.com,US,Americas,Northern America,United States of America,Washington,,Kirkland
128.95.248.39,4,44,communitydata.science,US,Americas,Northern America,United States of America,Washington,,Seattle
66.148.113.158,4,79,corneredcat.com,US,Americas,Northern America,United States of America,Washington,,Seattle
65.74.132.10,4,280,cpoa.org,US,Americas,Northern America,United States of America,Washington,,Seattle
66.94.114.231,4,6,crystalmixer.com,US,Americas,Northern America,United States of America,Washington,,Seattle
45.154.214.60,4,-4,cz01.vip,US,Americas,Northern America,United States of America,Washington,,Seattle
144.202.95.41,4,87,declinko.com,US,Americas,Northern America,United States of America,Washington,,Kent
67.228.201.252,4,68,delight.com,US,Americas,Northern America,United States of America,Washington,,Seattle
50.22.149.218,4,20,democracynow.org,US,Americas,Northern America,United States of America,Washington,,Seattle
67.228.192.94,4,41,democracynow.org,US,Americas,Northern America,United States of America,Washington,,Seattle
4.154.166.33,4,15,diamond-hill.com,US,Americas,Northern America,United States of America,Washington,,
209.160.32.137,4,24,diwanalarab.com,US,Americas,Northern America,United States of America,Washington,,Seattle
45.151.135.96,4,65025,djk123.net,US,Americas,Northern America,United States of America,Washington,,Seattle
24.216.227.74,4,12280831,DNS Server: 024-216-227-074.biz.spectrum.com,US,Americas,Northern America,United States of America,Washington,,Yakima
174.21.164.14,4,5,DNS Server: 174-21-164-14.tukw.qwest.net,US,Americas,Northern America,United States of America,Washington,,Seattle
162.247.183.205,4,6,DNS Server: 183-247-162-205.pogozone.net,US,Americas,Northern America,United States of America,Washington,,Ferndale
50.208.220.49,4,115,DNS Server: 50-208-220-49-static.hfc.comcastbusiness.net,US,Americas,Northern America,United States of America,Washington,,Auburn
64.119.7.226,4,25205914,DNS Server: 64-119-7-226.reserved.ric.network,US,Americas,Northern America,United States of America,Washington,,Friday Harbor
69.28.39.110,4,5086,DNS Server: 69-28-39-110.cust.ptera.net,US,Americas,Northern America,United States of America,Washington,,Cheney
74.220.244.105,4,2,DNS Server: 74.220.244-105.pogozone.net,US,Americas,Northern America,United States of America,Washington,,Bellingham
74.220.244.142,4,25570,DNS Server: 74.220.244-142.pogozone.net,US,Americas,Northern America,United States of America,Washington,,Bellingham
97.113.92.65,4,102,DNS Server: 97-113-92-65.tukw.qwest.net,US,Americas,Northern America,United States of America,Washington,,Seattle
204.9.109.57,4,221,DNS Server: baldybb.priestriver.air-pipe.com,US,Americas,Northern America,United States of America,Washington,,Newport
67.160.102.146,4,6,DNS Server: c-67-160-102-146.hsd1.wa.comcast.net,US,Americas,Northern America,United States of America,Washington,,Auburn
73.109.145.229,4,7,DNS Server: c-73-109-145-229.hsd1.wa.comcast.net,US,Americas,Northern America,United States of America,Washington,,Renton
73.11.194.87,4,-39619281,DNS Server: c-73-11-194-87.hsd1.wa.comcast.net,US,Americas,Northern America,United States of America,Washington,,Puyallup
73.193.50.167,4,8,DNS Server: c-73-193-50-167.hsd1.wa.comcast.net,US,Americas,Northern America,United States of America,Washington,,Marysville
73.83.242.149,4,67,DNS Server: c-73-83-242-149.hsd1.wa.comcast.net,US,Americas,Northern America,United States of America,Washington,,Lakewood
74.92.225.117,4,45,DNS Server: erebus.seawestproducts.com,US,Americas,Northern America,United States of America,Washington,,Seattle
170.39.180.34,4,46,DNS Server: ip-170-39-180-34.kpud.org,US,Americas,Northern America,United States of America,Washington,,Poulsbo
64.146.142.186,4,80,DNS Server: ip-64-146-142-186.kpud.net,US,Americas,Northern America,United States of America,Washington,,Bremerton
64.146.144.50,4,188,DNS Server: ip-64-146-144-50.kpud.net,US,Americas,Northern America,United States of America,Washington,,Bremerton
66.119.197.6,4,23988,DNS Server: ip-66-119-197-6.noanet.net,US,Americas,Northern America,United States of America,Washington,,Prosser
50.47.32.116,4,53896,DNS Server: mx16.everymailbox.com,US,Americas,Northern America,United States of America,Washington,,Redmond
72.10.3.46,4,108,DNS Server: pin-072-010-003-046.static.pocketinet.com,US,Americas,Northern America,United States of America,Washington,,Walla Walla
209.61.196.248,4,7,downtownmusicgallery.com,US,Americas,Northern America,United States of America,Washington,,Seattle
66.94.123.240,4,-25186889,driverseducationusa.com,US,Americas,Northern America,United States of America,Washington,,Seattle
38.143.66.236,4,7,dwarffortresswiki.org,US,Americas,Northern America,United States of America,Washington,,Seattle
193.221.95.57,4,-8,easy-sheds.com,US,Americas,Northern America,United States of America,Washington,,Seattle
89.117.17.69,4,7,eatorhours.org,US,Americas,Northern America,United States of America,Washington,,Seattle
104.168.22.112,4,19,ebook4car.com,US,Americas,Northern America,United States of America,Washington,,Seattle
216.176.176.239,4,1,echonyc.com,US,Americas,Northern America,United States of America,Washington,,Issaquah
70.103.40.40,4,170494,edgecs.com,US,Americas,Northern America,United States of America,Washington,,Spokane
209.61.199.9,4,19,editions-hache.com,US,Americas,Northern America,United States of America,Washington,,Seattle
216.32.152.189,4,35461,egames.com,US,Americas,Northern America,United States of America,Washington,,
67.228.96.212,4,665,everlightamericas.com,US,Americas,Northern America,United States of America,Washington,,Seattle
66.94.122.25,4,212,experiencethepub.com,US,Americas,Northern America,United States of America,Washington,,Seattle
45.154.214.100,4,-6,faceswapper.ai,US,Americas,Northern America,United States of America,Washington,,Seattle
172.232.172.177,4,14,federalwaywa.gov,US,Americas,Northern America,United States of America,Washington,,Tukwila
144.126.146.120,4,36,fijisun.com.fj,US,Americas,Northern America,United States of America,Washington,,Seattle
162.213.199.177,4,5,fogproject.org,US,Americas,Northern America,United States of America,Washington,,Seattle
45.77.211.118,4,11,freebythesea.com,US,Americas,Northern America,United States of America,Washington,,Kent
172.234.228.131,4,2,frostfriends.org,US,Americas,Northern America,United States of America,Washington,,Tukwila
209.61.196.65,4,21,funduc.com,US,Americas,Northern America,United States of America,Washington,,Seattle
66.119.213.131,4,1,getright.com,US,Americas,Northern America,United States of America,Washington,,Kennewick
74.209.160.248,4,16,girlscoutsww.org,US,Americas,Northern America,United States of America,Washington,,Edmonds
66.42.79.127,4,3,girlsinict.org,US,Americas,Northern America,United States of America,Washington,,Kent
66.42.72.168,4,-3,gnuradio.org,US,Americas,Northern America,United States of America,Washington,,Kent
66.160.183.126,4,3,good-ear.com,US,Americas,Northern America,United States of America,Washington,,Kirkland
45.151.135.88,4,65011,goxingfu8.com,US,Americas,Northern America,United States of America,Washington,,Seattle
67.228.112.52,4,138901,guioteca.com,US,Americas,Northern America,United States of America,Washington,,Seattle
206.63.68.162,4,3,halcyon.com,US,Americas,Northern America,United States of America,Washington,,Newport
209.61.196.13,4,15,haleonline.com,US,Americas,Northern America,United States of America,Washington,,Seattle
195.179.200.87,4,6,health.am,US,Americas,Northern America,United States of America,Washington,,Seattle
96.8.121.104,4,35,hermesbags.me.uk,US,Americas,Northern America,United States of America,Washington,,Seattle
23.82.243.185,4,2,hhjkjnxh.com,US,Americas,Northern America,United States of America,Washington,,Seattle
209.160.27.21,4,16,hhsc.org,US,Americas,Northern America,United States of America,Washington,,Seattle
45.145.72.155,4,-15,hhzlpower.com,US,Americas,Northern America,United States of America,Washington,,Seattle
45.154.214.9,4,-7,hhzlpower.com,US,Americas,Northern America,United States of America,Washington,,Seattle
144.126.146.4,4,2,hilaud.com,US,Americas,Northern America,United States of America,Washington,,Seattle
23.184.48.89,4,6,hizb-ut-tahrir.info,US,Americas,Northern America,United States of America,Washington,,Liberty Lake
104.96.203.34,4,1,hondoscenter.com,US,Americas,Northern America,United States of America,Washington,,Seattle
104.96.203.41,4,7,hondoscenter.com,US,Americas,Northern America,United States of America,Washington,,Seattle
140.107.88.213,4,7,hvtn.org,US,Americas,Northern America,United States of America,Washington,,Seattle
108.61.195.191,4,18,icoconverter.com,US,Americas,Northern America,United States of America,Washington,,Kent
50.125.114.46,4,6,ihoc.net,US,Americas,Northern America,United States of America,Washington,,Redmond
209.61.199.11,4,6,iif.edu,US,Americas,Northern America,United States of America,Washington,,Seattle
64.184.136.21,4,2,interceptradio.com,US,Americas,Northern America,United States of America,Washington,,Republic
209.61.196.11,4,23,internetmodeler.com,US,Americas,Northern America,United States of America,Washington,,Seattle
66.42.69.243,4,103,irlp.net,US,Americas,Northern America,United States of America,Washington,,Kent
23.213.175.184,4,3,is.com,US,Americas,Northern America,United States of America,Washington,,Seattle
207.115.64.106,4,4,issaquahhighlands.com,US,Americas,Northern America,United States of America,Washington,,Redmond
209.160.27.71,4,72,issihosts.com,US,Americas,Northern America,United States of America,Washington,,Seattle
128.208.119.153,4,32,iths.org,US,Americas,Northern America,United States of America,Washington,,Seattle
45.145.74.159,4,-10,iui.su,US,Americas,Northern America,United States of America,Washington,,Seattle
66.94.120.142,4,10,ixspy.com,US,Americas,Northern America,United States of America,Washington,,Seattle
85.239.238.144,4,2,jontaffer.com,US,Americas,Northern America,United States of America,Washington,,Seattle
52.183.15.150,4,4,kenwoodusa.com,US,Americas,Northern America,United States of America,Washington,,
98.142.98.8,4,-24,kitchengidget.com,US,Americas,Northern America,United States of America,Washington,,Seattle
104.207.159.182,4,-2,ktna.org,US,Americas,Northern America,United States of America,Washington,,Kent
209.61.197.227,4,6,kuntzfamily.com,US,Americas,Northern America,United States of America,Washington,,Seattle
45.150.227.77,4,2,lanxinrobotics.com,US,Americas,Northern America,United States of America,Washington,,Seattle
209.34.142.139,4,6,lewiscountywa.gov,US,Americas,Northern America,United States of America,Washington,,Centralia
66.78.40.181,4,4,libertarianfellowship.org,US,Americas,Northern America,United States of America,Washington,,
184.105.149.59,4,31495,lostigresdelnorte.com,US,Americas,Northern America,United States of America,Washington,,Oakesdale
38.72.128.94,4,3,lugosoft.com,US,Americas,Northern America,United States of America,Washington,,Tukwila
45.58.53.220,4,6,manke8.com,US,Americas,Northern America,United States of America,Washington,,Seattle
45.76.242.178,4,56,marriagedebate.com,US,Americas,Northern America,United States of America,Washington,,Kent
104.218.235.30,4,15,maruso-cn.com,US,Americas,Northern America,United States of America,Washington,,Seattle
216.243.32.14,4,6,maya.land,US,Americas,Northern America,United States of America,Washington,,Seattle
66.114.46.26,4,-337257,mcremo.com,US,Americas,Northern America,United States of America,Washington,,Bellingham
209.61.196.7,4,19,mec.edu,US,Americas,Northern America,United States of America,Washington,,Seattle
128.208.8.135,4,9,meme-suite.org,US,Americas,Northern America,United States of America,Washington,,Seattle
207.115.90.61,4,17,microsoftvolumelicensing.com,US,Americas,Northern America,United States of America,Washington,,Seattle
149.248.45.63,4,9,millfalls.com,US,Americas,Northern America,United States of America,Washington,,Kent
67.228.216.198,4,4,mini.net,US,Americas,Northern America,United States of America,Washington,,Seattle
149.248.39.147,4,-2,mobile2day.de,US,Americas,Northern America,United States of America,Washington,,Kent
209.147.127.200,4,10,myaestheticspro.com,US,Americas,Northern America,United States of America,Washington,,Tacoma
85.239.239.16,4,11,mybagsroom.info,US,Americas,Northern America,United States of America,Washington,,Seattle
66.160.181.92,4,5,myriadgardens.org,US,Americas,Northern America,United States of America,Washington,,Kirkland
104.140.6.247,4,9,naltrexonejusypi.com,US,Americas,Northern America,United States of America,Washington,,Seattle
128.208.234.164,4,7,nanoos.org,US,Americas,Northern America,United States of America,Washington,,Tacoma
66.113.102.199,4,-1563788,nar.org,US,Americas,Northern America,United States of America,Washington,,Enumclaw
67.228.238.227,4,25,nausicaa.net,US,Americas,Northern America,United States of America,Washington,,Seattle
209.160.27.45,4,13,necrc.org,US,Americas,Northern America,United States of America,Washington,,Seattle
94.72.120.53,4,17,netnewsreporter.com,US,Americas,Northern America,United States of America,Washington,,Seattle
23.94.212.185,4,44,newshop.co.il,US,Americas,Northern America,United States of America,Washington,,Seattle
67.228.207.22,4,4,nordicgroup.us,US,Americas,Northern America,United States of America,Washington,,Seattle
209.182.224.72,4,12,nwal.ca,US,Americas,Northern America,United States of America,Washington,,Seattle
107.191.112.45,4,-5,oalib.com,US,Americas,Northern America,United States of America,Washington,,Seattle
209.61.197.224,4,8,occupy-monsanto.com,US,Americas,Northern America,United States of America,Washington,,Seattle
85.239.237.14,4,5,ohmygoodness.com,US,Americas,Northern America,United States of America,Washington,,Seattle
209.61.197.28,4,49,olymbos.org,US,Americas,Northern America,United States of America,Washington,,Seattle
173.244.96.23,4,5,olypen.com,US,Americas,Northern America,United States of America,Washington,,Sequim
216.176.187.122,4,288,Ookla Speedtest Server 6199: speedtest01.wowrack.com,US,Americas,Northern America,United States of America,Washington,,Issaquah
64.146.170.163,4,139,Ookla Speedtest Server 17701: speedtest.columbiainet.com,US,Americas,Northern America,United States of America,Washington,,Pasco
170.39.207.166,4,204,Ookla Speedtest Server 21227: speedtest-p-0.infra.xytel.net,US,Americas,Northern America,United States of America,Washington,,Kennewick
23.176.224.19,4,342,Ookla Speedtest Server 30283: speedtest.ifn.net,US,Americas,Northern America,United States of America,Washington,,Palouse
72.10.25.106,4,313,Ookla Speedtest Server 39915: speedtest.pocketinet.com,US,Americas,Northern America,United States of America,Washington,,Walla Walla
69.10.208.6,4,256,Ookla Speedtest Server 45844: lightspeed.rainierconnect.com,US,Americas,Northern America,United States of America,Washington,,Puyallup
209.166.95.235,4,-74212,Ookla Speedtest Server 54406: ost02.whidbey.net,US,Americas,Northern America,United States of America,Washington,,Langley
23.132.224.7,4,315,Ookla Speedtest Server 57671: speedtest.advancedisp.com,US,Americas,Northern America,United States of America,Washington,,Yakima
64.184.145.3,4,335,Ookla Speedtest Server 58911: speedtest.nopdatacenters.com,US,Americas,Northern America,United States of America,Washington,,Port Townsend
208.76.152.210,4,258,Ookla Speedtest Server 60635: speedtest-wa.waveip.org,US,Americas,Northern America,United States of America,Washington,,Seattle
23.156.249.5,4,202,Ookla Speedtest Server 63445: ookla.spknwa.ardentnetworks.net,US,Americas,Northern America,United States of America,Washington,,Spokane
45.61.61.20,4,-17144,Ookla Speedtest Server 64151: speedtest.us-se.kamatera.com,US,Americas,Northern America,United States of America,Washington,,Seattle
206.130.130.27,4,307,Ookla Speedtest Server: speedtest.nwi.net,US,Americas,Northern America,United States of America,Washington,,Wenatchee
64.184.186.43,4,-3,owt.com,US,Americas,Northern America,United States of America,Washington,,Connell
85.239.237.123,4,-17,palmira.gov.co,US,Americas,Northern America,United States of America,Washington,,Seattle
206.217.208.254,4,40,palyul.org,US,Americas,Northern America,United States of America,Washington,,Seattle
149.248.33.161,4,59,paradigmtreatment.com,US,Americas,Northern America,United States of America,Washington,,Kent
154.53.57.19,4,6,parents-portal.com,US,Americas,Northern America,United States of America,Washington,,Seattle
154.12.241.176,4,15,patientportals-login.com,US,Americas,Northern America,United States of America,Washington,,Seattle
64.119.0.27,4,784,pelindaba.com,US,Americas,Northern America,United States of America,Washington,,Friday Harbor
137.220.37.46,4,20,php-editors.com,US,Americas,Northern America,United States of America,Washington,,Kent
66.160.181.94,4,3,pibuzz.com,US,Americas,Northern America,United States of America,Washington,,Kirkland
172.83.153.167,4,-10,ping0.cc,US,Americas,Northern America,United States of America,Washington,,Seattle
23.216.147.35,4,14,play4free.com,US,Americas,Northern America,United States of America,Washington,,Seattle
23.216.147.31,4,22,play4free.com,US,Americas,Northern America,United States of America,Washington,,Seattle
23.198.168.41,4,7,popcap.com,US,Americas,Northern America,United States of America,Washington,,Seattle
209.61.196.12,4,79,privatehand.com,US,Americas,Northern America,United States of America,Washington,,Seattle
209.182.224.202,4,73,privatementalhealthassessment.top,US,Americas,Northern America,United States of America,Washington,,Seattle
89.117.22.145,4,21,promoterkit.com,US,Americas,Northern America,United States of America,Washington,,Seattle
45.154.214.36,4,54,ptplasma.com.cn,US,Americas,Northern America,United States of America,Washington,,Seattle
209.147.122.141,4,-14,r3vlimited.com,US,Americas,Northern America,United States of America,Washington,,Tacoma
67.228.99.54,4,39,reality.com,US,Americas,Northern America,United States of America,Washington,,Seattle
98.142.98.7,4,-109,reallifedinner.com,US,Americas,Northern America,United States of America,Washington,,Seattle
209.61.197.169,4,30,red2000.com,US,Americas,Northern America,United States of America,Washington,,Seattle
184.105.146.139,4,8,redblink.net,US,Americas,Northern America,United States of America,Washington,,Oakesdale
66.160.181.224,4,45,republicbroadcasting.org,US,Americas,Northern America,United States of America,Washington,,Kirkland
67.228.121.130,4,57,revenuehits.com,US,Americas,Northern America,United States of America,Washington,,Seattle
206.124.128.99,4,10484163,roadsters.com,US,Americas,Northern America,United States of America,Washington,,Edmonds
192.119.108.101,4,14,rocknworld.com,US,Americas,Northern America,United States of America,Washington,,Seattle
38.175.201.208,4,94,rodithahotel.com,US,Americas,Northern America,United States of America,Washington,,Liberty Lake
50.78.160.173,4,29,romwnet.org,US,Americas,Northern America,United States of America,Washington,,Seattle
64.119.0.29,4,678,rosarioresort.com,US,Americas,Northern America,United States of America,Washington,,Friday Harbor
66.171.180.38,4,3,samurize.com,US,Americas,Northern America,United States of America,Washington,,Seattle
209.160.40.23,4,-2,sanildefonso.org.mx,US,Americas,Northern America,United States of America,Washington,,Seattle
209.61.197.26,4,24,sarracenia.com,US,Americas,Northern America,United States of America,Washington,,Seattle
107.191.112.44,4,-34941,scirp.org,US,Americas,Northern America,United States of America,Washington,,Seattle
67.228.230.235,4,20,searchamateur.com,US,Americas,Northern America,United States of America,Washington,,Seattle
107.161.18.183,4,15,seocxw.com,US,Americas,Northern America,United States of America,Washington,,Seattle
52.183.75.243,4,23,servingintel.com,US,Americas,Northern America,United States of America,Washington,,
94.72.123.120,4,16,skinlyaesthetics.com,US,Americas,Northern America,United States of America,Washington,,Seattle
139.64.179.24,4,15,solanohistory.org,US,Americas,Northern America,United States of America,Washington,,Seattle
154.12.247.156,4,7,sowaanerp.com,US,Americas,Northern America,United States of America,Washington,,Seattle
50.22.147.227,4,40,spellsofmagic.com,US,Americas,Northern America,United States of America,Washington,,Seattle
172.232.188.126,4,4,spokanetribe.com,US,Americas,Northern America,United States of America,Washington,,Tukwila
45.32.229.28,4,7,sportentusiasten.se,US,Americas,Northern America,United States of America,Washington,,Kent
209.61.197.6,4,9,sportsgeezer.com,US,Americas,Northern America,United States of America,Washington,,Seattle
139.64.179.23,4,18,spravkaru.net,US,Americas,Northern America,United States of America,Washington,,Seattle
63.214.15.74,4,50,sunprecautions.com,US,Americas,Northern America,United States of America,Washington,,Seattle
45.77.214.133,4,7,sunrisetheme.com,US,Americas,Northern America,United States of America,Washington,,Kent
209.147.116.199,4,17,surfandsunshine.com,US,Americas,Northern America,United States of America,Washington,,Enumclaw
98.142.98.12,4,-139,tantalisemytastebuds.com,US,Americas,Northern America,United States of America,Washington,,Seattle
206.53.160.39,4,54,telebyte.com,US,Americas,Northern America,United States of America,Washington,,Port Orchard
66.160.181.161,4,29,texairfilters.com,US,Americas,Northern America,United States of America,Washington,,Kirkland
66.160.182.104,4,-7,thebear.org,US,Americas,Northern America,United States of America,Washington,,Kirkland
216.9.9.158,4,1,thecircuitdetective.com,US,Americas,Northern America,United States of America,Washington,,Issaquah
70.35.112.83,4,25,thehousingbubbleblog.com,US,Americas,Northern America,United States of America,Washington,,Enumclaw
67.228.207.28,4,3,thelocalvoice.net,US,Americas,Northern America,United States of America,Washington,,Seattle
172.93.48.87,4,16,thewatchtowers.org,US,Americas,Northern America,United States of America,Washington,,Seattle
45.76.242.122,4,-1,tipstilhusoghave.dk,US,Americas,Northern America,United States of America,Washington,,Kent
66.148.112.151,4,2,toobnix.org,US,Americas,Northern America,United States of America,Washington,,Seattle
202.5.31.118,4,-32516,totolink.net,US,Americas,Northern America,United States of America,Washington,,Seattle
194.147.98.107,4,-1,tracyawheeler.com,US,Americas,Northern America,United States of America,Washington,,Seattle
65.74.132.6,4,6289,trailmeister.com,US,Americas,Northern America,United States of America,Washington,,Seattle
174.127.145.85,4,36,trashbrain.org,US,Americas,Northern America,United States of America,Washington,,Arlington
67.228.103.253,4,3,trawex.com,US,Americas,Northern America,United States of America,Washington,,Seattle
154.12.240.156,4,31,trivoo.net,US,Americas,Northern America,United States of America,Washington,,Seattle
75.172.112.26,4,4,trouble.org,US,Americas,Northern America,United States of America,Washington,,Seattle
69.10.200.134,4,31,trufax.org,US,Americas,Northern America,United States of America,Washington,,Eatonville
66.114.33.57,4,18,tunes.org,US,Americas,Northern America,United States of America,Washington,,Bellingham
104.237.1.85,4,37,tutpub.com,US,Americas,Northern America,United States of America,Washington,,Seattle
154.12.245.249,4,5,twodancingcrows.com,US,Americas,Northern America,United States of America,Washington,,Seattle
144.126.147.164,4,6,uabjb.edu.bo,US,Americas,Northern America,United States of America,Washington,,Seattle
209.61.197.172,4,60,uscurrencyauctions.com,US,Americas,Northern America,United States of America,Washington,,Seattle
38.175.200.183,4,21,vansshoesoutlet-store.com,US,Americas,Northern America,United States of America,Washington,,Liberty Lake
98.142.98.4,4,-81,veganyackattack.com,US,Americas,Northern America,United States of America,Washington,,Seattle
192.119.108.106,4,16,vicksburgnews.com,US,Americas,Northern America,United States of America,Washington,,Seattle
45.32.228.92,4,-3,victoriasqueen.com,US,Americas,Northern America,United States of America,Washington,,Kent
107.191.104.227,4,-5,viewsfromastepstool.com,US,Americas,Northern America,United States of America,Washington,,Seattle
66.94.127.127,4,6,viradasustentavel.org.br,US,Americas,Northern America,United States of America,Washington,,Seattle
50.194.60.252,4,-3539877,vk2zay.net,US,Americas,Northern America,United States of America,Washington,,Seattle
173.211.70.171,4,8,vnatexas.org,US,Americas,Northern America,United States of America,Washington,,Seattle
172.232.189.144,4,8,wallawalla.edu,US,Americas,Northern America,United States of America,Washington,,Tukwila
146.75.42.62,4,4,wellsvilledaily.com,US,Americas,Northern America,United States of America,Washington,,Seattle
146.75.41.124,4,7,westmusic.com,US,Americas,Northern America,United States of America,Washington,,Seattle
144.202.93.231,4,11,whichvoip.com,US,Americas,Northern America,United States of America,Washington,,Kent
67.228.127.233,4,1,winxdvd.com,US,Americas,Northern America,United States of America,Washington,,Seattle
154.53.58.149,4,8,witches.live,US,Americas,Northern America,United States of America,Washington,,Seattle
172.232.172.23,4,5,womensgolfday.com,US,Americas,Northern America,United States of America,Washington,,Tukwila
66.160.181.16,4,6,worldventure.com,US,Americas,Northern America,United States of America,Washington,,Kirkland
172.83.157.139,4,-8,wowgold.hk,US,Americas,Northern America,United States of America,Washington,,Seattle
23.108.152.130,4,5,wzcx998.com,US,Americas,Northern America,United States of America,Washington,,Seattle
45.142.158.102,4,-4,xjxgdbw.com,US,Americas,Northern America,United States of America,Washington,,Seattle
149.248.39.93,4,8,xn--kretips-q1a.dk,US,Americas,Northern America,United States of America,Washington,,Kent
45.63.34.71,4,22,xn--ptur-qoa.se,US,Americas,Northern America,United States of America,Washington,,Kent
45.32.230.185,4,-1,xn--sknhedogmode-wjb.dk,US,Americas,Northern America,United States of America,Washington,,Kent
194.147.101.86,4,-12,ylkmp.com,US,Americas,Northern America,United States of America,Washington,,Seattle
194.147.101.90,4,-11,youboy.com,US,Americas,Northern America,United States of America,Washington,,Seattle
45.154.215.162,4,-13,yzzrdq.com,US,Americas,Northern America,United States of America,Washington,,Seattle
45.154.215.150,4,3,yzzrdq.com,US,Americas,Northern America,United States of America,Washington,,Seattle
45.154.215.143,4,0,yzzrdq.com,US,Americas,Northern America,United States of America,Washington,,Seattle
66.148.113.214,4,7,zesty.ca,US,Americas,Northern America,United States of America,Washington,,Seattle
194.147.98.211,4,-4,zhifang.com,US,Americas,Northern America,United States of America,Washington,,Seattle
217.114.47.153,4,-9,zt-xc.com,US,Americas,Northern America,United States of America,Washington,,Seattle
45.63.37.223,4,-3,zubersoft.com,US,Americas,Northern America,United States of America,Washington,,Kent
172.83.154.35,4,-11,zzalq.com,US,Americas,Northern America,United States of America,Washington,,Seattle
