reflector_ip,ip_version,offset,description,country_code,region,sub_region,country_name,sub_division_1,sub_division_2,city
4.249.212.126,4,6,365retailmarkets.com,US,Americas,Northern America,United States of America,Iowa,,Des Moines
34.171.127.99,4,4,4over4.com,US,Americas,Northern America,United States of America,Iowa,,Council Bluffs
104.198.172.248,4,5,ab9il.net,US,Americas,Northern America,United States of America,Iowa,,Council Bluffs
35.224.141.184,4,6,aceleradordigitaldenegocios.com.mx,US,Americas,Northern America,United States of America,Iowa,,Council Bluffs
35.202.74.78,4,138,activecities.com,US,Americas,Northern America,United States of America,Iowa,,Council Bluffs
35.202.196.168,4,24,adfontesmedia.com,US,Americas,Northern America,United States of America,Iowa,,Council Bluffs
35.208.136.66,4,15,adlerplanetarium.org,US,Americas,Northern America,United States of America,Iowa,,Council Bluffs
35.188.163.135,4,4,adomonline.com,US,Americas,Northern America,United States of America,Iowa,,Council Bluffs
199.83.209.87,4,10,adventuresinpoortaste.com,US,Americas,Northern America,United States of America,Iowa,,Monticello
13.89.41.168,4,21,advocaredoctors.com,US,Americas,Northern America,United States of America,Iowa,,Des Moines
35.238.232.88,4,4,afwerx.com,US,Americas,Northern America,United States of America,Iowa,,Council Bluffs
146.148.44.59,4,4,ahamdir.com,US,Americas,Northern America,United States of America,Iowa,,Council Bluffs
35.223.206.134,4,9,aifittings.com,US,Americas,Northern America,United States of America,Iowa,,Council Bluffs
199.83.208.89,4,1132,airconditioner.com,US,Americas,Northern America,United States of America,Iowa,,Monticello
35.232.56.175,4,5,aitopics.org,US,Americas,Northern America,United States of America,Iowa,,Council Bluffs
35.209.219.198,4,5,akoustis.com,US,Americas,Northern America,United States of America,Iowa,,Council Bluffs
104.197.2.28,4,5,albertandp.ca,US,Americas,Northern America,United States of America,Iowa,,Council Bluffs
34.66.28.244,4,11,alllotto.com,US,Americas,Northern America,United States of America,Iowa,,Council Bluffs
34.135.196.132,4,4,alpineiq.com,US,Americas,Northern America,United States of America,Iowa,,Council Bluffs
34.46.211.96,4,4,altered.ai,US,Americas,Northern America,United States of America,Iowa,,Council Bluffs
34.30.34.188,4,47,amarchitrakatha.com,US,Americas,Northern America,United States of America,Iowa,,Council Bluffs
34.68.9.145,4,5,americares.org,US,Americas,Northern America,United States of America,Iowa,,Council Bluffs
34.41.234.3,4,5,amgoodsupply.com,US,Americas,Northern America,United States of America,Iowa,,Council Bluffs
129.186.90.78,4,-1,animalgenome.org,US,Americas,Northern America,United States of America,Iowa,,Ames
35.208.25.14,4,23,animextoon.com,US,Americas,Northern America,United States of America,Iowa,,Council Bluffs
35.193.68.104,4,5,applicantpool.com,US,Americas,Northern America,United States of America,Iowa,,Council Bluffs
34.67.51.133,4,10,apsva.us,US,Americas,Northern America,United States of America,Iowa,,Council Bluffs
199.83.212.200,4,92,architectaswin.com,US,Americas,Northern America,United States of America,Iowa,,Monticello
35.226.141.178,4,63,arizona-sunshine.com,US,Americas,Northern America,United States of America,Iowa,,Council Bluffs
35.232.81.141,4,3,arrestedresources.com,US,Americas,Northern America,United States of America,Iowa,,Council Bluffs
35.224.249.246,4,21,artshantyprojects.org,US,Americas,Northern America,United States of America,Iowa,,Council Bluffs
34.121.30.103,4,14,aspendiscovery.org,US,Americas,Northern America,United States of America,Iowa,,Council Bluffs
34.68.224.222,4,6,atncorp.com,US,Americas,Northern America,United States of America,Iowa,,Council Bluffs
199.83.210.95,4,13,attollo.com,US,Americas,Northern America,United States of America,Iowa,,Monticello
130.211.153.139,4,4,avic411.com,US,Americas,Northern America,United States of America,Iowa,,Council Bluffs
35.202.87.66,4,65,avspare.com,US,Americas,Northern America,United States of America,Iowa,,Council Bluffs
34.121.56.145,4,5,aylien.com,US,Americas,Northern America,United States of America,Iowa,,Council Bluffs
35.238.148.54,4,6,badgeandwallet.com,US,Americas,Northern America,United States of America,Iowa,,Council Bluffs
34.16.24.27,4,26,bahiana.edu.br,US,Americas,Northern America,United States of America,Iowa,,Council Bluffs
64.62.236.138,4,6,baldwinpage.com,US,Americas,Northern America,United States of America,Iowa,,Dike
35.239.55.10,4,2,banks-america.com,US,Americas,Northern America,United States of America,Iowa,,Council Bluffs
35.232.255.106,4,24,baulab.info,US,Americas,Northern America,United States of America,Iowa,,Council Bluffs
104.154.219.171,4,4,bestadvisor.com,US,Americas,Northern America,United States of America,Iowa,,Council Bluffs
34.69.233.177,4,56,bestclassicbands.com,US,Americas,Northern America,United States of America,Iowa,,Council Bluffs
35.184.21.202,4,4,bgprod.com,US,Americas,Northern America,United States of America,Iowa,,Council Bluffs
34.70.123.47,4,6,binaryhexconverter.com,US,Americas,Northern America,United States of America,Iowa,,Council Bluffs
34.136.207.224,4,3,binfire.com,US,Americas,Northern America,United States of America,Iowa,,Council Bluffs
104.154.200.251,4,5,bingoport.co.uk,US,Americas,Northern America,United States of America,Iowa,,Council Bluffs
34.135.170.127,4,4,biolink.website,US,Americas,Northern America,United States of America,Iowa,,Council Bluffs
104.197.212.102,4,8,biq.cloud,US,Americas,Northern America,United States of America,Iowa,,Council Bluffs
35.225.194.249,4,6,blackandmissinginc.com,US,Americas,Northern America,United States of America,Iowa,,Council Bluffs
35.224.192.121,4,-14108,bluecrown-fx.com,US,Americas,Northern America,United States of America,Iowa,,Council Bluffs
34.71.247.42,4,5,boards2go.com,US,Americas,Northern America,United States of America,Iowa,,Council Bluffs
104.198.202.155,4,11,bolthole.com,US,Americas,Northern America,United States of America,Iowa,,Council Bluffs
34.136.245.172,4,32,bookofmormoncentral.org,US,Americas,Northern America,United States of America,Iowa,,Council Bluffs
34.31.69.230,4,9,britam.com,US,Americas,Northern America,United States of America,Iowa,,Council Bluffs
35.238.213.180,4,5,brookshirebrothers.com,US,Americas,Northern America,United States of America,Iowa,,Council Bluffs
35.206.78.10,4,5,brutman.com,US,Americas,Northern America,United States of America,Iowa,,Council Bluffs
129.186.120.3,4,0,bugguide.net,US,Americas,Northern America,United States of America,Iowa,,Ames
35.209.227.98,4,5,buttermilkskypie.com,US,Americas,Northern America,United States of America,Iowa,,Council Bluffs
35.188.193.55,4,4,buyfags.moe,US,Americas,Northern America,United States of America,Iowa,,Council Bluffs
34.123.164.132,4,37,calculatorpro.com,US,Americas,Northern America,United States of America,Iowa,,Council Bluffs
34.123.116.239,4,5,camelotunchained.com,US,Americas,Northern America,United States of America,Iowa,,Council Bluffs
104.197.226.207,4,4,cameochina.com,US,Americas,Northern America,United States of America,Iowa,,Council Bluffs
35.223.93.11,4,15,carnegiescience.edu,US,Americas,Northern America,United States of America,Iowa,,Council Bluffs
34.69.42.95,4,29,cartt.ca,US,Americas,Northern America,United States of America,Iowa,,Council Bluffs
104.198.142.35,4,3,casciac.org,US,Americas,Northern America,United States of America,Iowa,,Council Bluffs
35.239.131.126,4,3,casebitcoin.com,US,Americas,Northern America,United States of America,Iowa,,Council Bluffs
162.247.129.90,4,5,cast-science.org,US,Americas,Northern America,United States of America,Iowa,,Story City
35.232.54.76,4,5,casur.cl,US,Americas,Northern America,United States of America,Iowa,,Council Bluffs
35.232.163.52,4,15,catenazapata.com,US,Americas,Northern America,United States of America,Iowa,,Council Bluffs
35.209.93.0,4,25,cel.com,US,Americas,Northern America,United States of America,Iowa,,Council Bluffs
35.193.170.57,4,3,championsschool.com,US,Americas,Northern America,United States of America,Iowa,,Council Bluffs
34.170.154.36,4,6,cheatlayer.com,US,Americas,Northern America,United States of America,Iowa,,Council Bluffs
199.102.45.113,4,4,chinafirewalltest.com,US,Americas,Northern America,United States of America,Iowa,,Monticello
34.72.225.166,4,3,chinimandi.com,US,Americas,Northern America,United States of America,Iowa,,Council Bluffs
35.222.127.179,4,4,chords-and-tabs.net,US,Americas,Northern America,United States of America,Iowa,,Council Bluffs
104.198.69.229,4,3,ciacsports.com,US,Americas,Northern America,United States of America,Iowa,,Council Bluffs
34.31.233.190,4,4,ciat.edu,US,Americas,Northern America,United States of America,Iowa,,Council Bluffs
35.239.241.219,4,3,ciw.edu,US,Americas,Northern America,United States of America,Iowa,,Council Bluffs
35.239.139.4,4,6,clearblade.com,US,Americas,Northern America,United States of America,Iowa,,Council Bluffs
35.184.255.107,4,3,cleverdialer.com,US,Americas,Northern America,United States of America,Iowa,,Council Bluffs
208.117.45.4,4,17,cloudlogin.co,US,Americas,Northern America,United States of America,Iowa,,Cedar Rapids
35.209.6.4,4,7,clube.fm,US,Americas,Northern America,United States of America,Iowa,,Council Bluffs
34.71.136.211,4,23,clubensayos.com,US,Americas,Northern America,United States of America,Iowa,,Council Bluffs
35.222.189.89,4,4,collegekickstart.com,US,Americas,Northern America,United States of America,Iowa,,Council Bluffs
34.71.220.233,4,9,color-hex.com,US,Americas,Northern America,United States of America,Iowa,,Council Bluffs
35.223.120.34,4,7,commandprompt.com,US,Americas,Northern America,United States of America,Iowa,,Council Bluffs
199.102.44.47,4,22,compucog.net,US,Americas,Northern America,United States of America,Iowa,,Monticello
34.135.190.236,4,3,conversion-metric.org,US,Americas,Northern America,United States of America,Iowa,,Council Bluffs
146.148.106.62,4,4,coparenter.com,US,Americas,Northern America,United States of America,Iowa,,Council Bluffs
34.29.16.27,4,4,craftholsters.com,US,Americas,Northern America,United States of America,Iowa,,Council Bluffs
34.67.23.74,4,9,cria.org.br,US,Americas,Northern America,United States of America,Iowa,,Council Bluffs
104.197.163.143,4,3,cvsa.org,US,Americas,Northern America,United States of America,Iowa,,Council Bluffs
34.66.63.11,4,4,dancingnumbers.com,US,Americas,Northern America,United States of America,Iowa,,Council Bluffs
146.148.44.2,4,32,davidrumsey.com,US,Americas,Northern America,United States of America,Iowa,,Council Bluffs
35.238.4.200,4,4,dfwmas.org,US,Americas,Northern America,United States of America,Iowa,,Council Bluffs
35.224.69.235,4,3,digdroid.com,US,Americas,Northern America,United States of America,Iowa,,Council Bluffs
208.117.45.217,4,11,digitaldamas.com,US,Americas,Northern America,United States of America,Iowa,,Cedar Rapids
35.208.206.244,4,5,disl.org,US,Americas,Northern America,United States of America,Iowa,,Council Bluffs
130.211.207.79,4,3,distancefromto.net,US,Americas,Northern America,United States of America,Iowa,,Council Bluffs
34.70.101.202,4,4,distroller.com,US,Americas,Northern America,United States of America,Iowa,,Council Bluffs
35.188.223.255,4,3,dmvhandbook.org,US,Americas,Northern America,United States of America,Iowa,,Council Bluffs
216.106.237.115,4,12,DNS Server: 115-237-106-216.alliancecom.net,US,Americas,Northern America,United States of America,Iowa,,Larchwood
35.224.7.246,4,156,DNS Server: 246.7.224.35.bc.googleusercontent.com,US,Americas,Northern America,United States of America,Iowa,,Council Bluffs
35.232.2.251,4,50,DNS Server: 251.2.232.35.bc.googleusercontent.com,US,Americas,Northern America,United States of America,Iowa,,Council Bluffs
34.66.89.80,4,6,DNS Server: 80.89.66.34.bc.googleusercontent.com,US,Americas,Northern America,United States of America,Iowa,,Council Bluffs
34.122.171.86,4,47,DNS Server: 86.171.122.34.bc.googleusercontent.com,US,Americas,Northern America,United States of America,Iowa,,Council Bluffs
50.96.204.165,4,16,DNS Server: h165.204.96.50.static.ip.windstream.net,US,Americas,Northern America,United States of America,Iowa,,New Hampton
50.96.204.17,4,14,DNS Server: h17.204.96.50.static.ip.windstream.net,US,Americas,Northern America,United States of America,Iowa,,New Hampton
35.192.221.176,4,9,documentshub.com,US,Americas,Northern America,United States of America,Iowa,,Council Bluffs
199.127.140.8,4,9,dreamstudies.org,US,Americas,Northern America,United States of America,Iowa,,Boone
104.155.129.6,4,43,ducatidogs.com,US,Americas,Northern America,United States of America,Iowa,,Council Bluffs
34.136.99.178,4,4,e-interiordesignstudio.com,US,Americas,Northern America,United States of America,Iowa,,Council Bluffs
146.148.80.106,4,27,eaobservatory.org,US,Americas,Northern America,United States of America,Iowa,,Council Bluffs
34.134.54.130,4,3,econodata.com.br,US,Americas,Northern America,United States of America,Iowa,,Council Bluffs
130.211.141.153,4,26,eightypercent.net,US,Americas,Northern America,United States of America,Iowa,,Council Bluffs
35.239.184.135,4,28,einblick.ai,US,Americas,Northern America,United States of America,Iowa,,Council Bluffs
104.197.100.237,4,5,elitetrader.com,US,Americas,Northern America,United States of America,Iowa,,Council Bluffs
35.224.110.4,4,7,emaze.com,US,Americas,Northern America,United States of America,Iowa,,Council Bluffs
107.178.220.127,4,10,empire.kred,US,Americas,Northern America,United States of America,Iowa,,Council Bluffs
107.178.218.56,4,3,empire.kred,US,Americas,Northern America,United States of America,Iowa,,Council Bluffs
146.148.99.138,4,5,endorphin.org,US,Americas,Northern America,United States of America,Iowa,,Council Bluffs
199.83.212.164,4,3,energyua.com,US,Americas,Northern America,United States of America,Iowa,,Monticello
34.29.79.75,4,42,enggcyclopedia.com,US,Americas,Northern America,United States of America,Iowa,,Council Bluffs
34.123.82.194,4,68,englishforums.com,US,Americas,Northern America,United States of America,Iowa,,Council Bluffs
34.70.4.171,4,3,eprotea.com,US,Americas,Northern America,United States of America,Iowa,,Council Bluffs
34.28.93.101,4,4,eprotea.com,US,Americas,Northern America,United States of America,Iowa,,Council Bluffs
35.239.82.41,4,375,esap.edu.co,US,Americas,Northern America,United States of America,Iowa,,Council Bluffs
35.225.131.198,4,4,esciencelabs.com,US,Americas,Northern America,United States of America,Iowa,,Council Bluffs
34.29.62.16,4,17,essaysforstudent.com,US,Americas,Northern America,United States of America,Iowa,,Council Bluffs
104.198.34.82,4,18,esss.co,US,Americas,Northern America,United States of America,Iowa,,Council Bluffs
104.197.91.217,4,4,everflowclient.io,US,Americas,Northern America,United States of America,Iowa,,Council Bluffs
35.202.193.86,4,3,eversend.co,US,Americas,Northern America,United States of America,Iowa,,Council Bluffs
34.42.173.126,4,18,eyedoctor.io,US,Americas,Northern America,United States of America,Iowa,,Council Bluffs
146.148.45.127,4,27,ezadtv.com,US,Americas,Northern America,United States of America,Iowa,,Council Bluffs
34.68.176.147,4,4,ezln.org.mx,US,Americas,Northern America,United States of America,Iowa,,Council Bluffs
104.197.71.239,4,5,farmfood360.ca,US,Americas,Northern America,United States of America,Iowa,,Council Bluffs
208.117.38.226,4,9,fawco.org,US,Americas,Northern America,United States of America,Iowa,,Cedar Rapids
34.30.153.244,4,36,featherflagnation.com,US,Americas,Northern America,United States of America,Iowa,,Council Bluffs
172.173.107.69,4,4,flexsin.com,US,Americas,Northern America,United States of America,Iowa,,Des Moines
35.209.36.198,4,7,flyaero.com,US,Americas,Northern America,United States of America,Iowa,,Council Bluffs
35.188.55.60,4,3,footfiles.com,US,Americas,Northern America,United States of America,Iowa,,Council Bluffs
35.239.158.15,4,-554,freedompartners.org,US,Americas,Northern America,United States of America,Iowa,,Council Bluffs
104.197.151.58,4,4,freelock.com,US,Americas,Northern America,United States of America,Iowa,,Council Bluffs
35.192.62.119,4,22,freightnet.com,US,Americas,Northern America,United States of America,Iowa,,Council Bluffs
107.178.218.143,4,5,frenchpastryschool.com,US,Americas,Northern America,United States of America,Iowa,,Council Bluffs
199.102.45.55,4,1276,frugalusenet.com,US,Americas,Northern America,United States of America,Iowa,,Monticello
35.222.138.213,4,4,fulafia.edu.ng,US,Americas,Northern America,United States of America,Iowa,,Council Bluffs
34.123.144.75,4,9,fundsnetservices.com,US,Americas,Northern America,United States of America,Iowa,,Council Bluffs
199.83.212.154,4,-626,fybush.com,US,Americas,Northern America,United States of America,Iowa,,Monticello
34.44.116.130,4,3,gca.org,US,Americas,Northern America,United States of America,Iowa,,Council Bluffs
35.238.10.140,4,3,gda.com,US,Americas,Northern America,United States of America,Iowa,,Council Bluffs
104.197.19.29,4,4,gdb-pur.com,US,Americas,Northern America,United States of America,Iowa,,Council Bluffs
34.123.147.128,4,50,gematrix.org,US,Americas,Northern America,United States of America,Iowa,,Council Bluffs
35.202.212.50,4,37,geneticgenie.org,US,Americas,Northern America,United States of America,Iowa,,Council Bluffs
35.232.143.66,4,31,geobytes.com,US,Americas,Northern America,United States of America,Iowa,,Council Bluffs
208.117.38.97,4,14,glitc.org,US,Americas,Northern America,United States of America,Iowa,,Cedar Rapids
208.71.34.181,4,17,glitterfy.com,US,Americas,Northern America,United States of America,Iowa,,Story City
104.197.113.232,4,5,gltr.io,US,Americas,Northern America,United States of America,Iowa,,Council Bluffs
34.68.126.233,4,4,goldenhorse.org.tw,US,Americas,Northern America,United States of America,Iowa,,Council Bluffs
34.67.193.251,4,3,golfcourseranking.com,US,Americas,Northern America,United States of America,Iowa,,Council Bluffs
35.226.92.231,4,3,greendropship.com,US,Americas,Northern America,United States of America,Iowa,,Council Bluffs
34.170.200.193,4,13,greenpeace.org.br,US,Americas,Northern America,United States of America,Iowa,,Council Bluffs
34.41.149.43,4,36,greenpeaceusa.org,US,Americas,Northern America,United States of America,Iowa,,Council Bluffs
104.197.25.227,4,19,grimremastered.com,US,Americas,Northern America,United States of America,Iowa,,Council Bluffs
146.148.102.37,4,27,grumet.net,US,Americas,Northern America,United States of America,Iowa,,Council Bluffs
34.71.224.183,4,4,guardian.bz,US,Americas,Northern America,United States of America,Iowa,,Council Bluffs
34.71.144.138,4,38,hackdash.org,US,Americas,Northern America,United States of America,Iowa,,Council Bluffs
35.209.35.22,4,4,harlothub.com,US,Americas,Northern America,United States of America,Iowa,,Council Bluffs
35.188.198.98,4,3,heavytruckparts.net,US,Americas,Northern America,United States of America,Iowa,,Council Bluffs
34.71.63.168,4,5,hebertrain.com,US,Americas,Northern America,United States of America,Iowa,,Council Bluffs
104.197.128.162,4,18,heritageofcare.com,US,Americas,Northern America,United States of America,Iowa,,Council Bluffs
35.184.75.52,4,6,hifisoundconnection.com,US,Americas,Northern America,United States of America,Iowa,,Council Bluffs
35.188.2.232,4,28,highschoolguide.org,US,Americas,Northern America,United States of America,Iowa,,Council Bluffs
104.154.128.144,4,17,hillwebcreations.com,US,Americas,Northern America,United States of America,Iowa,,Council Bluffs
104.154.216.226,4,4,hipgive.org,US,Americas,Northern America,United States of America,Iowa,,Council Bluffs
34.171.18.97,4,5,hoodox.com,US,Americas,Northern America,United States of America,Iowa,,Council Bluffs
104.154.243.188,4,2,houseinstitute.com,US,Americas,Northern America,United States of America,Iowa,,Council Bluffs
35.224.127.164,4,4,hyperise.com,US,Americas,Northern America,United States of America,Iowa,,Council Bluffs
35.208.115.166,4,29,iccaworld.com,US,Americas,Northern America,United States of America,Iowa,,Council Bluffs
35.202.97.186,4,5,ifoldsflip.com,US,Americas,Northern America,United States of America,Iowa,,Council Bluffs
34.123.76.163,4,18,iianalytics.com,US,Americas,Northern America,United States of America,Iowa,,Council Bluffs
34.72.67.128,4,13,imparcialoaxaca.mx,US,Americas,Northern America,United States of America,Iowa,,Council Bluffs
34.66.205.122,4,27,internationalscholarships.com,US,Americas,Northern America,United States of America,Iowa,,Council Bluffs
35.238.110.191,4,87,internationalstudent.com,US,Americas,Northern America,United States of America,Iowa,,Council Bluffs
130.211.120.170,4,7,iowaleague.org,US,Americas,Northern America,United States of America,Iowa,,Council Bluffs
35.208.19.97,4,20,ipo-edge.com,US,Americas,Northern America,United States of America,Iowa,,Council Bluffs
34.67.202.70,4,18,iran-e-azad.org,US,Americas,Northern America,United States of America,Iowa,,Council Bluffs
208.117.38.86,4,47,isitpacked.com,US,Americas,Northern America,United States of America,Iowa,,Cedar Rapids
34.66.179.72,4,43,isqi.org,US,Americas,Northern America,United States of America,Iowa,,Council Bluffs
104.197.45.241,4,3,israel-music.com,US,Americas,Northern America,United States of America,Iowa,,Council Bluffs
35.209.122.125,4,10,janisjoplin.net,US,Americas,Northern America,United States of America,Iowa,,Council Bluffs
34.67.175.200,4,21,jobma.com,US,Americas,Northern America,United States of America,Iowa,,Council Bluffs
34.133.104.50,4,4,kennedy24.com,US,Americas,Northern America,United States of America,Iowa,,Council Bluffs
208.117.38.170,4,2,kentsterling.com,US,Americas,Northern America,United States of America,Iowa,,Cedar Rapids
199.102.44.83,4,7,kickball.com,US,Americas,Northern America,United States of America,Iowa,,Monticello
35.194.2.96,4,28,knowridge.com,US,Americas,Northern America,United States of America,Iowa,,Council Bluffs
35.223.150.36,4,7,labchem.com,US,Americas,Northern America,United States of America,Iowa,,Council Bluffs
34.133.58.70,4,2,lanetech.org,US,Americas,Northern America,United States of America,Iowa,,Council Bluffs
34.123.203.227,4,5,lapaz.bo,US,Americas,Northern America,United States of America,Iowa,,Council Bluffs
35.193.74.144,4,4,latlong.net,US,Americas,Northern America,United States of America,Iowa,,Council Bluffs
35.192.14.241,4,3,lawatlas.org,US,Americas,Northern America,United States of America,Iowa,,Council Bluffs
104.198.207.12,4,8,lawschooli.com,US,Americas,Northern America,United States of America,Iowa,,Council Bluffs
12.2.169.165,4,75,leepfrog.com,US,Americas,Northern America,United States of America,Iowa,,Iowa City
34.123.81.255,4,7,leonardo.ai,US,Americas,Northern America,United States of America,Iowa,,Council Bluffs
35.193.245.145,4,5,libdex.com,US,Americas,Northern America,United States of America,Iowa,,Council Bluffs
35.226.197.234,4,6,licensee.io,US,Americas,Northern America,United States of America,Iowa,,Council Bluffs
104.154.209.223,4,50,lincolnfinancialfield.com,US,Americas,Northern America,United States of America,Iowa,,Council Bluffs
35.193.224.131,4,132,linux-laptop.net,US,Americas,Northern America,United States of America,Iowa,,Council Bluffs
35.202.175.215,4,68,linxup.com,US,Americas,Northern America,United States of America,Iowa,,Council Bluffs
34.67.60.201,4,5,littlealeinn.com,US,Americas,Northern America,United States of America,Iowa,,Council Bluffs
208.117.46.159,4,27,livestockkenya.com,US,Americas,Northern America,United States of America,Iowa,,Cedar Rapids
35.239.68.66,4,53,lumcon.edu,US,Americas,Northern America,United States of America,Iowa,,Council Bluffs
104.155.133.42,4,3,lumoslearning.com,US,Americas,Northern America,United States of America,Iowa,,Council Bluffs
34.41.96.28,4,8,macpac.gov,US,Americas,Northern America,United States of America,Iowa,,Council Bluffs
35.202.180.70,4,3,macro.market,US,Americas,Northern America,United States of America,Iowa,,Council Bluffs
35.222.12.159,4,3,manhattan.edu,US,Americas,Northern America,United States of America,Iowa,,Council Bluffs
34.71.116.27,4,35,mapline.com,US,Americas,Northern America,United States of America,Iowa,,Council Bluffs
104.197.49.77,4,49,mathhelp.com,US,Americas,Northern America,United States of America,Iowa,,Council Bluffs
35.192.140.155,4,27,mathscore.com,US,Americas,Northern America,United States of America,Iowa,,Council Bluffs
35.232.226.111,4,4,mbkseniorliving.com,US,Americas,Northern America,United States of America,Iowa,,Council Bluffs
104.154.83.18,4,3,medicarelist.com,US,Americas,Northern America,United States of America,Iowa,,Council Bluffs
35.202.139.31,4,3,medpac.gov,US,Americas,Northern America,United States of America,Iowa,,Council Bluffs
35.202.132.178,4,2,melevsreef.com,US,Americas,Northern America,United States of America,Iowa,,Council Bluffs
130.211.154.40,4,65,mentaltherapy.io,US,Americas,Northern America,United States of America,Iowa,,Council Bluffs
34.67.6.8,4,3,microbelift.com,US,Americas,Northern America,United States of America,Iowa,,Council Bluffs
35.192.91.213,4,3,mindgarden.com,US,Americas,Northern America,United States of America,Iowa,,Council Bluffs
35.226.33.96,4,6,ministry-to-children.com,US,Americas,Northern America,United States of America,Iowa,,Council Bluffs
52.176.179.103,4,22,missouriassessors.com,US,Americas,Northern America,United States of America,Iowa,,Des Moines
104.197.149.9,4,17,monkey.org,US,Americas,Northern America,United States of America,Iowa,,Council Bluffs
35.224.49.133,4,20,moosocial.com,US,Americas,Northern America,United States of America,Iowa,,Council Bluffs
208.117.46.32,4,36,morgancover.com,US,Americas,Northern America,United States of America,Iowa,,Cedar Rapids
23.236.56.174,4,14,moviemaps.org,US,Americas,Northern America,United States of America,Iowa,,Council Bluffs
107.178.223.15,4,4,mugtug.com,US,Americas,Northern America,United States of America,Iowa,,Council Bluffs
35.232.144.106,4,10,myagecalculator.com,US,Americas,Northern America,United States of America,Iowa,,Council Bluffs
34.136.43.167,4,3,nanocad.com,US,Americas,Northern America,United States of America,Iowa,,Council Bluffs
208.117.38.69,4,12,nationallaserinstitute.com,US,Americas,Northern America,United States of America,Iowa,,Cedar Rapids
75.162.164.250,4,1,nationjob.com,US,Americas,Northern America,United States of America,Iowa,,Des Moines
104.198.207.197,4,3,ncits.org,US,Americas,Northern America,United States of America,Iowa,,Council Bluffs
34.71.59.251,4,8,newgraham.com,US,Americas,Northern America,United States of America,Iowa,,Council Bluffs
35.223.28.232,4,3,newstrail.com,US,Americas,Northern America,United States of America,Iowa,,Council Bluffs
64.62.236.141,4,8,ninjaburger.com,US,Americas,Northern America,United States of America,Iowa,,Dike
35.209.184.179,4,2,niramai.com,US,Americas,Northern America,United States of America,Iowa,,Council Bluffs
34.66.39.119,4,2,nlanr.net,US,Americas,Northern America,United States of America,Iowa,,Council Bluffs
35.193.193.209,4,6,northmarket.org,US,Americas,Northern America,United States of America,Iowa,,Council Bluffs
35.188.28.166,4,29,notenoughtech.com,US,Americas,Northern America,United States of America,Iowa,,Council Bluffs
146.148.103.25,4,4,npino.com,US,Americas,Northern America,United States of America,Iowa,,Council Bluffs
34.72.149.73,4,27,nra.co.za,US,Americas,Northern America,United States of America,Iowa,,Council Bluffs
34.123.148.248,4,2,nyc-injury-attorneys.com,US,Americas,Northern America,United States of America,Iowa,,Council Bluffs
208.117.38.64,4,5,nzmuse.com,US,Americas,Northern America,United States of America,Iowa,,Cedar Rapids
34.123.113.88,4,4,oakalleyplantation.com,US,Americas,Northern America,United States of America,Iowa,,Council Bluffs
35.223.33.169,4,4,oberbrunner.com,US,Americas,Northern America,United States of America,Iowa,,Council Bluffs
108.59.85.198,4,3,occupywallst.org,US,Americas,Northern America,United States of America,Iowa,,Council Bluffs
34.132.213.9,4,12,oem.com.mx,US,Americas,Northern America,United States of America,Iowa,,Council Bluffs
104.197.242.163,4,3,ofb.net,US,Americas,Northern America,United States of America,Iowa,,Council Bluffs
23.236.55.84,4,39,offenderradar.com,US,Americas,Northern America,United States of America,Iowa,,Council Bluffs
35.209.158.207,4,12,ohsobrewery.com,US,Americas,Northern America,United States of America,Iowa,,Council Bluffs
35.226.48.165,4,2,oneupapp.io,US,Americas,Northern America,United States of America,Iowa,,Council Bluffs
199.83.215.7,4,1,onlinebuyessay.com,US,Americas,Northern America,United States of America,Iowa,,Monticello
104.154.176.64,4,6,onlineunitconversion.com,US,Americas,Northern America,United States of America,Iowa,,Council Bluffs
96.31.0.9,4,171,Ookla Speedtest Server 1582: speedtest.premieronline.net,US,Americas,Northern America,United States of America,Iowa,,Spirit Lake
167.142.168.6,4,-12892826,Ookla Speedtest Server 13527: speedtest.colotel.org,US,Americas,Northern America,United States of America,Iowa,,Otley
96.63.177.249,4,70,Ookla Speedtest Server 16819: speedtest.fibercomm.net,US,Americas,Northern America,United States of America,Iowa,,Sioux City
69.5.128.14,4,378,Ookla Speedtest Server 37733: speedtest10g.ics-llc.net,US,Americas,Northern America,United States of America,Iowa,,Ames
169.130.193.242,4,385,Ookla Speedtest Server 45705: ia02.speedtest.windstream.net,US,Americas,Northern America,United States of America,Iowa,,Grinnell
216.248.99.113,4,284,Ookla Speedtest Server: speedtest.cascadecomm.com,US,Americas,Northern America,United States of America,Iowa,,Brooklyn
167.142.224.197,4,295,Ookla Speedtest Server: speedtest.eastbuchanan.com,US,Americas,Northern America,United States of America,Iowa,,Decorah
199.102.208.16,4,200,Ookla Speedtest Server: speedtest.osage.net,US,Americas,Northern America,United States of America,Iowa,,Osage
216.248.111.33,4,178,Ookla Speedtest Server: speedtest.readlyntelco.com,US,Americas,Northern America,United States of America,Iowa,,Colo
35.209.59.13,4,25,openlighting.org,US,Americas,Northern America,United States of America,Iowa,,Council Bluffs
35.184.86.251,4,45,openreview.net,US,Americas,Northern America,United States of America,Iowa,,Council Bluffs
34.135.105.195,4,44,origamiusa.org,US,Americas,Northern America,United States of America,Iowa,,Council Bluffs
34.134.235.191,4,4,ovaciones.com,US,Americas,Northern America,United States of America,Iowa,,Council Bluffs
104.197.193.248,4,6,oversigma.com,US,Americas,Northern America,United States of America,Iowa,,Council Bluffs
34.67.163.52,4,11,paolajolley.com,US,Americas,Northern America,United States of America,Iowa,,Council Bluffs
34.27.186.153,4,27,pdaps.org,US,Americas,Northern America,United States of America,Iowa,,Council Bluffs
34.71.228.134,4,21,pigeon.org,US,Americas,Northern America,United States of America,Iowa,,Council Bluffs
104.154.182.91,4,4,plattecountylandmark.com,US,Americas,Northern America,United States of America,Iowa,,Council Bluffs
35.232.192.24,4,20,polac.edu.ng,US,Americas,Northern America,United States of America,Iowa,,Council Bluffs
34.69.135.100,4,31,pollfish.com,US,Americas,Northern America,United States of America,Iowa,,Council Bluffs
104.155.164.215,4,26,portsydneycoc.com,US,Americas,Northern America,United States of America,Iowa,,Council Bluffs
52.176.50.79,4,61,prakashinfotech.com,US,Americas,Northern America,United States of America,Iowa,,Des Moines
35.202.173.105,4,7,prb.org,US,Americas,Northern America,United States of America,Iowa,,Council Bluffs
34.69.245.236,4,77,prepareforyourcare.org,US,Americas,Northern America,United States of America,Iowa,,Council Bluffs
34.16.20.99,4,48,princevault.com,US,Americas,Northern America,United States of America,Iowa,,Council Bluffs
35.184.7.119,4,54,printaura.com,US,Americas,Northern America,United States of America,Iowa,,Council Bluffs
35.226.93.131,4,4,prisonhandbook.com,US,Americas,Northern America,United States of America,Iowa,,Council Bluffs
104.197.41.216,4,42,pro.com,US,Americas,Northern America,United States of America,Iowa,,Council Bluffs
35.184.55.230,4,69,programminghub.io,US,Americas,Northern America,United States of America,Iowa,,Council Bluffs
104.155.145.172,4,6,projectlocker.com,US,Americas,Northern America,United States of America,Iowa,,Council Bluffs
130.211.125.158,4,9,pure-gas.org,US,Americas,Northern America,United States of America,Iowa,,Council Bluffs
35.239.72.72,4,22,rammichael.com,US,Americas,Northern America,United States of America,Iowa,,Council Bluffs
208.117.38.223,4,282,reachfinancialindependence.com,US,Americas,Northern America,United States of America,Iowa,,Cedar Rapids
35.238.35.178,4,31,reallycolor.com,US,Americas,Northern America,United States of America,Iowa,,Council Bluffs
35.193.71.236,4,19,redbean.dev,US,Americas,Northern America,United States of America,Iowa,,Council Bluffs
104.198.239.28,4,53,regionaldirectory.us,US,Americas,Northern America,United States of America,Iowa,,Council Bluffs
35.193.20.139,4,10,relbanks.com,US,Americas,Northern America,United States of America,Iowa,,Council Bluffs
208.38.233.134,4,18,rescrf.com,US,Americas,Northern America,United States of America,Iowa,,Bettendorf
34.136.43.51,4,48,richr.com,US,Americas,Northern America,United States of America,Iowa,,Council Bluffs
104.155.134.41,4,33,ridgelandms.org,US,Americas,Northern America,United States of America,Iowa,,Council Bluffs
34.72.73.159,4,35,righttowarn.ai,US,Americas,Northern America,United States of America,Iowa,,Council Bluffs
104.198.44.7,4,3,risaralda.gov.co,US,Americas,Northern America,United States of America,Iowa,,Council Bluffs
35.202.185.28,4,24,robertfeder.com,US,Americas,Northern America,United States of America,Iowa,,Council Bluffs
34.121.195.114,4,74,romannumerals.org,US,Americas,Northern America,United States of America,Iowa,,Council Bluffs
208.117.45.111,4,40,russellbarkley.org,US,Americas,Northern America,United States of America,Iowa,,Cedar Rapids
35.188.143.34,4,4,sailusfood.com,US,Americas,Northern America,United States of America,Iowa,,Council Bluffs
35.184.172.94,4,27,salmagundi.org,US,Americas,Northern America,United States of America,Iowa,,Council Bluffs
35.239.76.90,4,5,sapa-project.org,US,Americas,Northern America,United States of America,Iowa,,Council Bluffs
208.117.38.43,4,3,sarahfit.com,US,Americas,Northern America,United States of America,Iowa,,Cedar Rapids
35.193.172.190,4,4,sarakurayama-cablecar.co.jp,US,Americas,Northern America,United States of America,Iowa,,Council Bluffs
35.222.85.250,4,5,savta.org,US,Americas,Northern America,United States of America,Iowa,,Council Bluffs
35.193.242.3,4,4,say.games,US,Americas,Northern America,United States of America,Iowa,,Council Bluffs
130.211.181.111,4,31,scienceleadership.org,US,Americas,Northern America,United States of America,Iowa,,Council Bluffs
104.198.142.62,4,2,scrum-institute.org,US,Americas,Northern America,United States of America,Iowa,,Council Bluffs
104.154.85.67,4,2,sddt.com,US,Americas,Northern America,United States of America,Iowa,,Council Bluffs
35.184.131.37,4,27,sellerapp.com,US,Americas,Northern America,United States of America,Iowa,,Council Bluffs
35.184.129.254,4,33,selly.store,US,Americas,Northern America,United States of America,Iowa,,Council Bluffs
35.232.30.26,4,5,semiconductors.org,US,Americas,Northern America,United States of America,Iowa,,Council Bluffs
34.66.36.192,4,9,semiwiki.com,US,Americas,Northern America,United States of America,Iowa,,Council Bluffs
104.198.36.248,4,1,shirleyjacksonawards.org,US,Americas,Northern America,United States of America,Iowa,,Council Bluffs
34.66.57.232,4,9,shopkoreaonline.com,US,Americas,Northern America,United States of America,Iowa,,Council Bluffs
162.222.181.247,4,1,shoreexcursioneer.com,US,Americas,Northern America,United States of America,Iowa,,Council Bluffs
146.148.85.166,4,9,sipfoundry.org,US,Americas,Northern America,United States of America,Iowa,,Council Bluffs
34.70.215.198,4,23,sitetrail.com,US,Americas,Northern America,United States of America,Iowa,,Council Bluffs
34.136.190.3,4,8,sito.org,US,Americas,Northern America,United States of America,Iowa,,Council Bluffs
34.133.153.96,4,9,skinmotion.com,US,Americas,Northern America,United States of America,Iowa,,Council Bluffs
34.71.203.58,4,9,sleepare.com,US,Americas,Northern America,United States of America,Iowa,,Council Bluffs
104.154.161.219,4,3,smarterselect.com,US,Americas,Northern America,United States of America,Iowa,,Council Bluffs
104.197.131.199,4,5,smileysapp.com,US,Americas,Northern America,United States of America,Iowa,,Council Bluffs
34.121.224.254,4,26,solarpaneltalk.com,US,Americas,Northern America,United States of America,Iowa,,Council Bluffs
35.209.123.28,4,7,sorghumcheckoff.com,US,Americas,Northern America,United States of America,Iowa,,Council Bluffs
104.197.51.231,4,3,spaceknow.com,US,Americas,Northern America,United States of America,Iowa,,Council Bluffs
35.208.53.13,4,3,spamresource.com,US,Americas,Northern America,United States of America,Iowa,,Council Bluffs
34.134.83.62,4,3,spi-inc.org,US,Americas,Northern America,United States of America,Iowa,,Council Bluffs
34.171.3.70,4,169,splitter.ai,US,Americas,Northern America,United States of America,Iowa,,Council Bluffs
35.209.166.139,4,5,standfortrees.org,US,Americas,Northern America,United States of America,Iowa,,Council Bluffs
34.67.159.232,4,31,stanthecaddy.com,US,Americas,Northern America,United States of America,Iowa,,Council Bluffs
35.193.152.222,4,87,statbureau.org,US,Americas,Northern America,United States of America,Iowa,,Council Bluffs
34.69.157.25,4,49,stemco.com,US,Americas,Northern America,United States of America,Iowa,,Council Bluffs
104.154.32.1,4,22,stock-analysis-on.net,US,Americas,Northern America,United States of America,Iowa,,Council Bluffs
34.67.222.20,4,4,subpac.com,US,Americas,Northern America,United States of America,Iowa,,Council Bluffs
104.198.64.25,4,4,summit.org,US,Americas,Northern America,United States of America,Iowa,,Council Bluffs
35.184.132.241,4,14,sweetservices.com,US,Americas,Northern America,United States of America,Iowa,,Council Bluffs
34.72.41.139,4,2,swftools.org,US,Americas,Northern America,United States of America,Iowa,,Council Bluffs
35.232.52.211,4,3,tamuct.edu,US,Americas,Northern America,United States of America,Iowa,,Council Bluffs
35.226.208.106,4,5,tappsgames.com,US,Americas,Northern America,United States of America,Iowa,,Council Bluffs
34.66.12.247,4,24,taxrpo.com,US,Americas,Northern America,United States of America,Iowa,,Council Bluffs
34.135.186.128,4,30,telecomramblings.com,US,Americas,Northern America,United States of America,Iowa,,Council Bluffs
34.30.71.0,4,3,telegram-apk.com,US,Americas,Northern America,United States of America,Iowa,,Council Bluffs
34.133.249.83,4,7,telescopius.com,US,Americas,Northern America,United States of America,Iowa,,Council Bluffs
35.208.127.125,4,41,tendrilinc.com,US,Americas,Northern America,United States of America,Iowa,,Council Bluffs
35.188.87.85,4,2,tenfield.com.uy,US,Americas,Northern America,United States of America,Iowa,,Council Bluffs
34.134.178.157,4,17,tenonedesign.com,US,Americas,Northern America,United States of America,Iowa,,Council Bluffs
34.68.172.162,4,5,text.design,US,Americas,Northern America,United States of America,Iowa,,Council Bluffs
35.225.25.14,4,8,thecannifornian.com,US,Americas,Northern America,United States of America,Iowa,,Council Bluffs
35.193.235.112,4,63,thecitymission.org,US,Americas,Northern America,United States of America,Iowa,,Council Bluffs
104.197.105.151,4,8428,thecookingdish.com,US,Americas,Northern America,United States of America,Iowa,,Council Bluffs
34.67.227.149,4,12,theindependentsf.com,US,Americas,Northern America,United States of America,Iowa,,Council Bluffs
34.121.133.79,4,5,theredx.com,US,Americas,Northern America,United States of America,Iowa,,Council Bluffs
208.117.38.13,4,23,thescooponbooch.com,US,Americas,Northern America,United States of America,Iowa,,Cedar Rapids
35.238.57.82,4,3,thunderranchinc.com,US,Americas,Northern America,United States of America,Iowa,,Council Bluffs
34.46.228.168,4,1,ticketsmate.com,US,Americas,Northern America,United States of America,Iowa,,Council Bluffs
104.197.157.76,4,13,ticketstorm.com,US,Americas,Northern America,United States of America,Iowa,,Council Bluffs
34.71.120.77,4,4,timecalculator.net,US,Americas,Northern America,United States of America,Iowa,,Council Bluffs
104.154.77.163,4,2,tipsfolder.com,US,Americas,Northern America,United States of America,Iowa,,Council Bluffs
104.155.168.189,4,7,titlecase.com,US,Americas,Northern America,United States of America,Iowa,,Council Bluffs
34.42.234.238,4,11,tnh1.com.br,US,Americas,Northern America,United States of America,Iowa,,Council Bluffs
35.224.228.205,4,36,top10onlinecolleges.org,US,Americas,Northern America,United States of America,Iowa,,Council Bluffs
199.83.208.247,4,67,topnikecanada.ca,US,Americas,Northern America,United States of America,Iowa,,Monticello
34.67.240.196,4,5,torontomike.com,US,Americas,Northern America,United States of America,Iowa,,Council Bluffs
107.178.210.107,4,2,totalphase.com,US,Americas,Northern America,United States of America,Iowa,,Council Bluffs
35.224.128.59,4,20,tribunadelabahia.com.mx,US,Americas,Northern America,United States of America,Iowa,,Council Bluffs
34.121.83.194,4,4,trueforexfunds.com,US,Americas,Northern America,United States of America,Iowa,,Council Bluffs
35.238.135.100,4,3,truetamplin.com,US,Americas,Northern America,United States of America,Iowa,,Council Bluffs
146.148.93.94,4,4,truismfitness.com,US,Americas,Northern America,United States of America,Iowa,,Council Bluffs
35.224.161.164,4,7,tudip.com,US,Americas,Northern America,United States of America,Iowa,,Council Bluffs
173.255.117.18,4,16,turn-to.com,US,Americas,Northern America,United States of America,Iowa,,Council Bluffs
35.202.201.166,4,10,tutorialforlinux.com,US,Americas,Northern America,United States of America,Iowa,,Council Bluffs
34.29.4.140,4,13,twiki.org,US,Americas,Northern America,United States of America,Iowa,,Council Bluffs
35.224.250.64,4,10,twoweeksincostarica.com,US,Americas,Northern America,United States of America,Iowa,,Council Bluffs
34.27.167.163,4,2,typemock.com,US,Americas,Northern America,United States of America,Iowa,,Council Bluffs
35.192.210.209,4,6,u7karsh.com,US,Americas,Northern America,United States of America,Iowa,,Council Bluffs
35.224.180.179,4,3,uiclap.com,US,Americas,Northern America,United States of America,Iowa,,Council Bluffs
35.209.142.91,4,-16,unach.mx,US,Americas,Northern America,United States of America,Iowa,,Council Bluffs
34.68.100.110,4,8,unahur.edu.ar,US,Americas,Northern America,United States of America,Iowa,,Council Bluffs
34.69.235.13,4,2,unicach.mx,US,Americas,Northern America,United States of America,Iowa,,Council Bluffs
35.192.183.203,4,17,unionpasadena.com,US,Americas,Northern America,United States of America,Iowa,,Council Bluffs
34.123.250.108,4,2,unt.edu.ar,US,Americas,Northern America,United States of America,Iowa,,Council Bluffs
34.67.27.80,4,3,upserve.com,US,Americas,Northern America,United States of America,Iowa,,Council Bluffs
104.197.28.157,4,4,usedcars.info,US,Americas,Northern America,United States of America,Iowa,,Council Bluffs
35.184.132.111,4,10,utctime.net,US,Americas,Northern America,United States of America,Iowa,,Council Bluffs
34.121.210.98,4,7,uxstyle.com,US,Americas,Northern America,United States of America,Iowa,,Council Bluffs
34.172.48.96,4,48,vansonleathers.com,US,Americas,Northern America,United States of America,Iowa,,Council Bluffs
34.132.0.81,4,13,veneziaautentica.com,US,Americas,Northern America,United States of America,Iowa,,Council Bluffs
23.251.146.157,4,3,vidarholen.net,US,Americas,Northern America,United States of America,Iowa,,Council Bluffs
35.223.250.33,4,14,videochums.com,US,Americas,Northern America,United States of America,Iowa,,Council Bluffs
35.208.214.25,4,6,viralhog.com,US,Americas,Northern America,United States of America,Iowa,,Council Bluffs
35.232.249.117,4,32,vistacriminallaw.com,US,Americas,Northern America,United States of America,Iowa,,Council Bluffs
34.68.115.68,4,43,voyagerplan.com,US,Americas,Northern America,United States of America,Iowa,,Council Bluffs
23.236.57.220,4,20,w4fe.com,US,Americas,Northern America,United States of America,Iowa,,Council Bluffs
35.209.194.201,4,30,webintoapp.com,US,Americas,Northern America,United States of America,Iowa,,Council Bluffs
35.209.153.202,4,9,webmo.net,US,Americas,Northern America,United States of America,Iowa,,Council Bluffs
34.172.255.225,4,8,weedist.com,US,Americas,Northern America,United States of America,Iowa,,Council Bluffs
130.211.127.248,4,7,weingartz.com,US,Americas,Northern America,United States of America,Iowa,,Council Bluffs
35.222.215.208,4,4,wesleyseminary.edu,US,Americas,Northern America,United States of America,Iowa,,Council Bluffs
130.211.185.243,4,4,westsideseattle.com,US,Americas,Northern America,United States of America,Iowa,,Council Bluffs
35.192.142.147,4,4,wildwoodcrest.org,US,Americas,Northern America,United States of America,Iowa,,Council Bluffs
35.202.254.160,4,15,wineverygame.com,US,Americas,Northern America,United States of America,Iowa,,Council Bluffs
146.148.68.96,4,3,wiretransfer.io,US,Americas,Northern America,United States of America,Iowa,,Council Bluffs
35.188.105.238,4,17,wolverinepodcast.com,US,Americas,Northern America,United States of America,Iowa,,Council Bluffs
34.30.183.18,4,4482799,worldtrans.org,US,Americas,Northern America,United States of America,Iowa,,Council Bluffs
35.208.65.102,4,19,worldwar2headquarters.com,US,Americas,Northern America,United States of America,Iowa,,Council Bluffs
107.178.217.23,4,19,wowonline.org,US,Americas,Northern America,United States of America,Iowa,,Council Bluffs
34.72.203.158,4,3,wppbaz.com,US,Americas,Northern America,United States of America,Iowa,,Council Bluffs
35.192.133.78,4,8,wrestlingclassics.com,US,Americas,Northern America,United States of America,Iowa,,Council Bluffs
130.211.120.151,4,3,x2crm.com,US,Americas,Northern America,United States of America,Iowa,,Council Bluffs
104.197.122.41,4,3,xstoday.net,US,Americas,Northern America,United States of America,Iowa,,Council Bluffs
35.224.33.165,4,2,yestostrength.com,US,Americas,Northern America,United States of America,Iowa,,Council Bluffs
208.117.38.4,4,6,yukonquest.com,US,Americas,Northern America,United States of America,Iowa,,Cedar Rapids
35.184.195.130,4,44,zespri.com,US,Americas,Northern America,United States of America,Iowa,,Council Bluffs
35.226.217.145,4,6,zingaya.com,US,Americas,Northern America,United States of America,Iowa,,Council Bluffs
146.148.83.112,4,2,zipmap.net,US,Americas,Northern America,United States of America,Iowa,,Council Bluffs
104.198.61.223,4,-2,zxing.org,US,Americas,Northern America,United States of America,Iowa,,Council Bluffs
