reflector_ip,ip_version,offset,description,country_code,region,sub_region,country_name,sub_division_1,sub_division_2,city
209.190.196.66,4,37,allcounted.com,US,Americas,Northern America,United States of America,Maryland,,Silver Spring
185.125.186.144,4,19,ants.com,US,Americas,Northern America,United States of America,Maryland,,Beltsville
71.127.45.110,4,19,applegeeks.com,US,Americas,Northern America,United States of America,Maryland,,Silver Spring
185.204.15.39,4,17,bulwarkpestcontrol.com,US,Americas,Northern America,United States of America,Maryland,,Beltsville
185.125.186.151,4,9,cbtrust.org,US,Americas,Northern America,United States of America,Maryland,,Beltsville
185.125.187.52,4,4,cdacouncil.org,US,Americas,Northern America,United States of America,Maryland,,Beltsville
216.230.115.87,4,4,chcoc.gov,US,Americas,Northern America,United States of America,Maryland,,Baltimore
128.8.127.15,4,3,childrenslibrary.org,US,Americas,Northern America,United States of America,Maryland,,College Park
128.8.132.49,4,6,ciml.info,US,Americas,Northern America,United States of America,Maryland,,College Park
207.114.32.23,4,8,comicshoplocator.com,US,Americas,Northern America,United States of America,Maryland,,Bel Air
208.58.85.84,4,26211,daftar.org,US,Americas,Northern America,United States of America,Maryland,,Silver Spring
216.127.154.135,4,45,delaplaine.org,US,Americas,Northern America,United States of America,Maryland,,Hagerstown
207.114.32.16,4,6,diamondcomics.com,US,Americas,Northern America,United States of America,Maryland,,Bel Air
96.70.191.213,4,-1652933,DNS Server: 96-70-191-213-static.hfc.comcastbusiness.net,US,Americas,Northern America,United States of America,Maryland,,Hyattsville
71.204.215.235,4,12,DNS Server: c-71-204-215-235.hsd1.md.comcast.net,US,Americas,Northern America,United States of America,Maryland,,Salisbury
76.21.162.221,4,-56889,DNS Server: c-76-21-162-221.hsd1.md.comcast.net,US,Americas,Northern America,United States of America,Maryland,,Cambridge
66.28.0.61,4,242,DNS Server: res2.dns.cogentco.com,US,Americas,Northern America,United States of America,Maryland,,Potomac
209.190.248.158,4,23,editorialexpress.com,US,Americas,Northern America,United States of America,Maryland,,Bethesda
207.244.110.4,4,1,fearofflying.com,US,Americas,Northern America,United States of America,Maryland,,Bowie
207.114.32.27,4,7,freecomicbookday.com,US,Americas,Northern America,United States of America,Maryland,,Bel Air
23.105.161.13,4,2,ga-institute.com,US,Americas,Northern America,United States of America,Maryland,,Silver Spring
207.114.32.28,4,5,hakes.com,US,Americas,Northern America,United States of America,Maryland,,Bel Air
207.114.32.14,4,45,halloweencomicfest.com,US,Americas,Northern America,United States of America,Maryland,,Bel Air
128.8.27.113,4,3,hawc-observatory.org,US,Americas,Northern America,United States of America,Maryland,,College Park
23.105.161.147,4,-2,herbiehancock.com,US,Americas,Northern America,United States of America,Maryland,,Silver Spring
129.2.15.43,4,21,iawn.net,US,Americas,Northern America,United States of America,Maryland,,College Park
104.156.85.247,4,17,indigoautogroup.com,US,Americas,Northern America,United States of America,Maryland,,Baltimore
104.156.81.247,4,4,indigoautogroup.com,US,Americas,Northern America,United States of America,Maryland,,Baltimore
128.8.149.19,4,3,intactforests.org,US,Americas,Northern America,United States of America,Maryland,,College Park
23.111.252.164,4,-1,interracialfantasyhouse.com,US,Americas,Northern America,United States of America,Maryland,,Silver Spring
216.127.154.142,4,44,mandalaprojects.com,US,Americas,Northern America,United States of America,Maryland,,Hagerstown
185.125.186.152,4,4,marylandhall.org,US,Americas,Northern America,United States of America,Maryland,,Beltsville
129.2.19.121,4,3,mdsoar.org,US,Americas,Northern America,United States of America,Maryland,,College Park
204.197.144.142,4,36768,Ookla Speedtest Server 13104: speedtest.digitalconnections.net,US,Americas,Northern America,United States of America,Maryland,,Oakland
23.105.171.66,4,36,passportinfoguide.com,US,Americas,Northern America,United States of America,Maryland,,Silver Spring
69.171.29.107,4,42,passportvisasexpress.com,US,Americas,Northern America,United States of America,Maryland,,Rockville
185.125.184.171,4,74,pergoladepot.com,US,Americas,Northern America,United States of America,Maryland,,Beltsville
64.26.65.87,4,8,prattlibrary.org,US,Americas,Northern America,United States of America,Maryland,,Cambridge
207.114.32.30,4,54,previewsworld.com,US,Americas,Northern America,United States of America,Maryland,,Bel Air
38.100.128.10,4,47,psi.net,US,Americas,Northern America,United States of America,Maryland,,Hyattsville
209.150.96.80,4,2,qis.net,US,Americas,Northern America,United States of America,Maryland,,Westminster
71.163.252.11,4,46,randi.org,US,Americas,Northern America,United States of America,Maryland,,Silver Spring
185.125.186.142,4,21,robotictechnologyinc.com,US,Americas,Northern America,United States of America,Maryland,,Beltsville
159.142.191.107,4,5,section508.gov,US,Americas,Northern America,United States of America,Maryland,,Baltimore
185.204.14.34,4,770,shapeup.org,US,Americas,Northern America,United States of America,Maryland,,Beltsville
205.134.188.162,4,39999,shmoo.com,US,Americas,Northern America,United States of America,Maryland,,Catonsville
216.127.145.74,4,6,spiceplace.com,US,Americas,Northern America,United States of America,Maryland,,Hagerstown
38.100.128.11,4,24,sprint.net,US,Americas,Northern America,United States of America,Maryland,,Hyattsville
185.125.186.141,4,3,thewomenscenter.org,US,Americas,Northern America,United States of America,Maryland,,Beltsville
23.105.160.250,4,0,tyadnetwork.com,US,Americas,Northern America,United States of America,Maryland,,Silver Spring
104.156.85.119,4,24,unequalscenes.com,US,Americas,Northern America,United States of America,Maryland,,Baltimore
71.245.171.35,4,4,vimm.net,US,Americas,Northern America,United States of America,Maryland,,Columbia
216.127.151.209,4,8,weatherstem.com,US,Americas,Northern America,United States of America,Maryland,,Hagerstown
216.127.153.139,4,5,wrightmfg.com,US,Americas,Northern America,United States of America,Maryland,,Hagerstown
23.111.252.129,4,1,wutdawut.com,US,Americas,Northern America,United States of America,Maryland,,Silver Spring
104.156.81.119,4,15,zimandzou.fr,US,Americas,Northern America,United States of America,Maryland,,Baltimore
104.156.81.229,4,3,zsr.org,US,Americas,Northern America,United States of America,Maryland,,Baltimore
