reflector_ip,ip_version,offset,description,country_code,region,sub_region,country_name,sub_division_1,sub_division_2,city
76.247.108.65,4,3,007re.net,US,Americas,Northern America,United States of America,Texas,,Houston
52.117.165.205,4,5,1000ventures.com,US,Americas,Northern America,United States of America,Texas,,Argyle
96.126.112.16,4,6,100forms.com,US,Americas,Northern America,United States of America,Texas,,Richardson
192.250.227.49,4,9,101lasttribes.com,US,Americas,Northern America,United States of America,Texas,,Dallas
104.238.147.1,4,3,120businesslisting.com,US,Americas,Northern America,United States of America,Texas,,Dallas
45.79.58.99,4,4,123teachme.com,US,Americas,Northern America,United States of America,Texas,,Richardson
104.238.145.57,4,4,1km1kt.net,US,Americas,Northern America,United States of America,Texas,,Dallas
72.14.187.124,4,12,20bits.com,US,Americas,Northern America,United States of America,Texas,,Richardson
45.33.119.177,4,4,3arts.org,US,Americas,Northern America,United States of America,Texas,,Richardson
216.245.212.212,4,5,3dgames.com.ar,US,Americas,Northern America,United States of America,Texas,,Dallas
38.83.106.84,4,186,3pw.net,US,Americas,Northern America,United States of America,Texas,,Richardson
38.83.106.85,4,347,3pw.net,US,Americas,Northern America,United States of America,Texas,,Richardson
52.117.244.15,4,-243,4sgm.com,US,Americas,Northern America,United States of America,Texas,,Argyle
198.252.100.200,4,3,5dogdigital.com,US,Americas,Northern America,United States of America,Texas,,
96.126.112.155,4,11,70sbig.com,US,Americas,Northern America,United States of America,Texas,,Richardson
23.236.180.254,4,-2,911parrotalert.com,US,Americas,Northern America,United States of America,Texas,,Dallas
174.36.71.106,4,5,abidjan.net,US,Americas,Northern America,United States of America,Texas,,Dallas
173.255.196.39,4,356835,abras.com.br,US,Americas,Northern America,United States of America,Texas,,Richardson
144.202.70.139,4,41,abroadeducation.com.np,US,Americas,Northern America,United States of America,Texas,,Dallas
207.148.5.154,4,10,absolutelyelitellc.org,US,Americas,Northern America,United States of America,Texas,,Dallas
170.130.40.51,4,5,abyssmedia.com,US,Americas,Northern America,United States of America,Texas,,Dallas
66.135.37.19,4,11,academicsearch.org,US,Americas,Northern America,United States of America,Texas,,San Antonio
50.116.23.83,4,5,acadia.org,US,Americas,Northern America,United States of America,Texas,,Richardson
104.156.237.201,4,2,accessstaffing.com,US,Americas,Northern America,United States of America,Texas,,Dallas
173.237.189.232,4,16,acls-pals-bls.com,US,Americas,Northern America,United States of America,Texas,,Dallas
192.138.210.104,4,4919426,actforlibraries.org,US,Americas,Northern America,United States of America,Texas,,Dallas
192.243.106.12,4,6,actualized.org,US,Americas,Northern America,United States of America,Texas,,Dallas
52.117.224.202,4,3,acunote.com,US,Americas,Northern America,United States of America,Texas,,Argyle
23.38.84.123,4,7,addthis.com,US,Americas,Northern America,United States of America,Texas,,Dallas
96.126.118.192,4,17,adoptionsbygladney.com,US,Americas,Northern America,United States of America,Texas,,Richardson
208.115.204.86,4,37,adspeed.com,US,Americas,Northern America,United States of America,Texas,,Dallas
69.164.205.223,4,70,afkmods.com,US,Americas,Northern America,United States of America,Texas,,Richardson
173.237.189.114,4,-2765,afrimma.com,US,Americas,Northern America,United States of America,Texas,,Dallas
173.255.192.145,4,20,agenciareleases.com,US,Americas,Northern America,United States of America,Texas,,Richardson
45.56.124.121,4,7,ai5nw.net,US,Americas,Northern America,United States of America,Texas,,Richardson
169.53.40.82,4,0,aihelp.net,US,Americas,Northern America,United States of America,Texas,,Dallas
194.195.223.35,4,5,airtory.com,US,Americas,Northern America,United States of America,Texas,,Richardson
173.237.185.157,4,7,alayahotels.com,US,Americas,Northern America,United States of America,Texas,,Dallas
172.93.50.103,4,-402534,alertra.com,US,Americas,Northern America,United States of America,Texas,,Dallas
198.252.105.123,4,50,alfintechcomputer.com,US,Americas,Northern America,United States of America,Texas,,Dallas
72.14.191.94,4,66,alliedworks.com,US,Americas,Northern America,United States of America,Texas,,Richardson
169.60.133.85,4,19,allretailjobs.com,US,Americas,Northern America,United States of America,Texas,,
107.174.239.38,4,-3,almoheet-travel.com,US,Americas,Northern America,United States of America,Texas,,Dallas
96.126.114.82,4,46,alotspace.com,US,Americas,Northern America,United States of America,Texas,,Richardson
107.155.93.242,4,607,alpha-sports.com,US,Americas,Northern America,United States of America,Texas,,Dallas
69.42.50.21,4,21951,alphavilleherald.com,US,Americas,Northern America,United States of America,Texas,,Dallas
205.251.145.41,4,2,alpinezone.com,US,Americas,Northern America,United States of America,Texas,,Houston
31.172.69.183,4,7,alumnius.net,US,Americas,Northern America,United States of America,Texas,,Dallas
69.162.124.20,4,28,amazeheaters.com,US,Americas,Northern America,United States of America,Texas,,Dallas
45.33.21.226,4,6,amcomm.network,US,Americas,Northern America,United States of America,Texas,,Richardson
23.29.117.34,4,593,americanhotels.co,US,Americas,Northern America,United States of America,Texas,,Dallas
72.14.189.90,4,-1891269,americanlastnames.us,US,Americas,Northern America,United States of America,Texas,,Richardson
69.162.86.46,4,2,ammonnews.net,US,Americas,Northern America,United States of America,Texas,,Dallas
45.33.13.104,4,11,ams02.org,US,Americas,Northern America,United States of America,Texas,,Richardson
45.79.51.137,4,27,analystforum.com,US,Americas,Northern America,United States of America,Texas,,Richardson
71.42.250.242,4,1264,anarduino.com,US,Americas,Northern America,United States of America,Texas,,Arlington
138.128.244.124,4,33,ancient-hebrew.org,US,Americas,Northern America,United States of America,Texas,,Dallas
45.79.43.184,4,18,animecubed.com,US,Americas,Northern America,United States of America,Texas,,Richardson
192.243.105.162,4,457,anvilfire.com,US,Americas,Northern America,United States of America,Texas,,Dallas
107.175.242.248,4,-3,aparoxil.com,US,Americas,Northern America,United States of America,Texas,,Dallas
198.58.96.19,4,11,appleseedinfo.org,US,Americas,Northern America,United States of America,Texas,,Richardson
169.60.145.42,4,130767,application-filing-service.com,US,Americas,Northern America,United States of America,Texas,,
169.60.152.181,4,804,apsense.com,US,Americas,Northern America,United States of America,Texas,,
170.130.40.160,4,4,archontology.org,US,Americas,Northern America,United States of America,Texas,,Dallas
45.33.25.50,4,65,arenapublica.com,US,Americas,Northern America,United States of America,Texas,,Richardson
45.79.47.228,4,22,areyouwatchingthis.com,US,Americas,Northern America,United States of America,Texas,,Richardson
172.96.136.145,4,-3,ashlynai.com,US,Americas,Northern America,United States of America,Texas,,Dallas
216.144.248.165,4,11,ashokafootwear.in,US,Americas,Northern America,United States of America,Texas,,Dallas
107.191.55.171,4,1,asianfucked.com,US,Americas,Northern America,United States of America,Texas,,Dallas
76.210.190.151,4,3,asonix.dog,US,Americas,Northern America,United States of America,Texas,,Austin
45.33.22.122,4,7,aspnix.com,US,Americas,Northern America,United States of America,Texas,,Richardson
74.63.237.22,4,14,assawsana.com,US,Americas,Northern America,United States of America,Texas,,Dallas
149.28.248.61,4,3,astrolibrary.org,US,Americas,Northern America,United States of America,Texas,,Dallas
69.162.95.26,4,11,atlanticotower.com.br,US,Americas,Northern America,United States of America,Texas,,Dallas
192.250.227.30,4,18,atlasofscience.org,US,Americas,Northern America,United States of America,Texas,,Dallas
169.48.178.40,4,5,attendize.com,US,Americas,Northern America,United States of America,Texas,,Dallas
45.79.4.99,4,8,audioblogger.com,US,Americas,Northern America,United States of America,Texas,,Richardson
45.79.5.212,4,35,aupr.edu,US,Americas,Northern America,United States of America,Texas,,Richardson
72.14.189.220,4,6,austincityguide.com,US,Americas,Northern America,United States of America,Texas,,Richardson
192.252.223.98,4,16,authorlink.com,US,Americas,Northern America,United States of America,Texas,,Dallas
64.235.35.114,4,9,autismone.org,US,Americas,Northern America,United States of America,Texas,,Dallas
74.81.89.30,4,839,automobile.com,US,Americas,Northern America,United States of America,Texas,,Houston
23.227.180.18,4,175,avatarmaker.com,US,Americas,Northern America,United States of America,Texas,,Dallas
198.252.100.147,4,13,avatars.cc,US,Americas,Northern America,United States of America,Texas,,
23.204.161.32,4,42,aviall.com,US,Americas,Northern America,United States of America,Texas,,Irving
52.117.100.171,4,23,avmaroc.com,US,Americas,Northern America,United States of America,Texas,,Argyle
155.138.254.229,4,4,awkwardtv.org,US,Americas,Northern America,United States of America,Texas,,Dallas
70.113.120.57,4,27,awpi.com,US,Americas,Northern America,United States of America,Texas,,Round Rock
104.200.17.190,4,7,awrswheelrepair.com,US,Americas,Northern America,United States of America,Texas,,Richardson
45.56.78.61,4,762992,backuptrans.com,US,Americas,Northern America,United States of America,Texas,,Richardson
151.101.181.193,4,3,bakerinstitute.org,US,Americas,Northern America,United States of America,Texas,,Houston
144.168.45.130,4,3743247,bankwithsouthern.com,US,Americas,Northern America,United States of America,Texas,,Dallas
155.138.242.193,4,3,barackobamaisyournewbicycle.com,US,Americas,Northern America,United States of America,Texas,,Dallas
107.173.125.129,4,-4,baragacounty.org,US,Americas,Northern America,United States of America,Texas,,Dallas
104.129.131.143,4,25,bareket-astro.com,US,Americas,Northern America,United States of America,Texas,,Dallas
45.79.40.163,4,7,batterystaplegames.com,US,Americas,Northern America,United States of America,Texas,,Richardson
184.105.130.104,4,62,baycongroup.com,US,Americas,Northern America,United States of America,Texas,,Dallas
45.33.11.156,4,24,bdstudiogames.com,US,Americas,Northern America,United States of America,Texas,,Richardson
45.32.196.45,4,45,behaviorismandmentalhealth.com,US,Americas,Northern America,United States of America,Texas,,Dallas
216.245.219.131,4,4,bellapierre.com,US,Americas,Northern America,United States of America,Texas,,Dallas
104.225.223.247,4,7,bellpolicy.org,US,Americas,Northern America,United States of America,Texas,,Dallas
72.14.179.41,4,181,bestfinancialmagazine.com,US,Americas,Northern America,United States of America,Texas,,Richardson
50.116.16.185,4,7,bettercapital.vc,US,Americas,Northern America,United States of America,Texas,,Richardson
192.243.105.158,4,1585,bfe.org,US,Americas,Northern America,United States of America,Texas,,Dallas
69.162.119.186,4,4,biblebrowser.com,US,Americas,Northern America,United States of America,Texas,,Dallas
192.169.83.211,4,9,biblehub.com,US,Americas,Northern America,United States of America,Texas,,Dallas
104.200.21.158,4,0,biblionix.com,US,Americas,Northern America,United States of America,Texas,,Richardson
72.14.187.7,4,541859,biggestuscities.com,US,Americas,Northern America,United States of America,Texas,,Richardson
45.33.21.108,4,1412,bikepics.com,US,Americas,Northern America,United States of America,Texas,,Richardson
23.227.169.87,4,5,biologyreference.com,US,Americas,Northern America,United States of America,Texas,,Dallas
184.105.130.70,4,60,blackalicious.com,US,Americas,Northern America,United States of America,Texas,,Dallas
192.46.219.197,4,5,blackjacktournaments.com,US,Americas,Northern America,United States of America,Texas,,Richardson
207.148.2.117,4,17,blendwithspices.com,US,Americas,Northern America,United States of America,Texas,,Dallas
96.126.116.218,4,25204,blincmagazine.com,US,Americas,Northern America,United States of America,Texas,,Richardson
23.29.123.122,4,32,blueletterbible.org,US,Americas,Northern America,United States of America,Texas,,Dallas
173.255.196.251,4,120624,boatparadise.com,US,Americas,Northern America,United States of America,Texas,,Richardson
45.56.76.84,4,478,bobcesca.com,US,Americas,Northern America,United States of America,Texas,,Richardson
192.227.249.200,4,11,boilingsteam.com,US,Americas,Northern America,United States of America,Texas,,Dallas
45.33.27.13,4,476236,boonex.com,US,Americas,Northern America,United States of America,Texas,,Richardson
74.81.95.179,4,26,borrett.id.au,US,Americas,Northern America,United States of America,Texas,,Houston
69.164.203.197,4,905011,boxoft.com,US,Americas,Northern America,United States of America,Texas,,Richardson
45.33.114.208,4,16,braceletbook.com,US,Americas,Northern America,United States of America,Texas,,Richardson
45.56.77.101,4,18,bragmybag.com,US,Americas,Northern America,United States of America,Texas,,Richardson
52.117.145.168,4,5,braid-game.com,US,Americas,Northern America,United States of America,Texas,,Argyle
169.48.74.197,4,24,brandreward.com,US,Americas,Northern America,United States of America,Texas,,
137.27.191.61,4,-1,brewhaus.com,US,Americas,Northern America,United States of America,Texas,,Keller
169.60.130.133,4,7,brikz.ma,US,Americas,Northern America,United States of America,Texas,,
71.42.236.91,4,13,broadband-hamnet.org,US,Americas,Northern America,United States of America,Texas,,Cedar Park
192.169.84.3,4,28,brodix.com,US,Americas,Northern America,United States of America,Texas,,Dallas
198.58.97.30,4,58,browsera.com,US,Americas,Northern America,United States of America,Texas,,Richardson
149.28.246.62,4,4,bubbasjunkremoval.com,US,Americas,Northern America,United States of America,Texas,,Dallas
192.250.227.150,4,6,budapest.com,US,Americas,Northern America,United States of America,Texas,,Dallas
199.181.238.254,4,25,buffaloairways.com,US,Americas,Northern America,United States of America,Texas,,Dallas
169.60.132.113,4,18,bushorchimp.com,US,Americas,Northern America,United States of America,Texas,,
104.225.141.39,4,29,caissa.com,US,Americas,Northern America,United States of America,Texas,,Dallas
45.79.52.198,4,21,calculateconvert.com,US,Americas,Northern America,United States of America,Texas,,Richardson
108.168.254.49,4,82,calendarwiz.com,US,Americas,Northern America,United States of America,Texas,,Dallas
52.117.212.13,4,2,camaro6.com,US,Americas,Northern America,United States of America,Texas,,Argyle
45.67.87.83,4,18,cambrian.social,US,Americas,Northern America,United States of America,Texas,,Dallas
107.155.84.230,4,14,camerabits.com,US,Americas,Northern America,United States of America,Texas,,Dallas
50.116.17.209,4,17,canonical.org,US,Americas,Northern America,United States of America,Texas,,Richardson
45.33.11.200,4,4,canonlawmadeeasy.com,US,Americas,Northern America,United States of America,Texas,,Richardson
45.56.77.163,4,3,cantabilesoftware.com,US,Americas,Northern America,United States of America,Texas,,Richardson
23.227.186.178,4,4,canyonchasers.net,US,Americas,Northern America,United States of America,Texas,,Dallas
137.220.48.171,4,9,careerlink.com,US,Americas,Northern America,United States of America,Texas,,Dallas
50.116.31.72,4,4,caretaker.org,US,Americas,Northern America,United States of America,Texas,,Richardson
104.200.19.45,4,623989,carsurvey.org,US,Americas,Northern America,United States of America,Texas,,Richardson
45.79.19.137,4,3,cartalkpodcast.com,US,Americas,Northern America,United States of America,Texas,,Richardson
198.58.104.123,4,3,carter.biz,US,Americas,Northern America,United States of America,Texas,,Richardson
74.81.95.98,4,49,casablancabridal.com,US,Americas,Northern America,United States of America,Texas,,Houston
98.142.105.26,4,-182,casastoantonio.com.br,US,Americas,Northern America,United States of America,Texas,,Dallas
192.154.227.174,4,2,catholicinsight.com,US,Americas,Northern America,United States of America,Texas,,Dallas
47.32.213.225,4,-3,cchtml.com,US,Americas,Northern America,United States of America,Texas,,Weatherford
107.181.135.18,4,8,cejamericas.org,US,Americas,Northern America,United States of America,Texas,,Dallas
63.143.45.210,4,171,celebrateyoga.org,US,Americas,Northern America,United States of America,Texas,,Dallas
169.60.242.85,4,4,cghr.org,US,Americas,Northern America,United States of America,Texas,,Dallas
45.79.61.207,4,8,champsorchumps.us,US,Americas,Northern America,United States of America,Texas,,Richardson
52.117.22.43,4,13,chasingthefrog.com,US,Americas,Northern America,United States of America,Texas,,Argyle
169.60.139.153,4,5,chemistry-labfurniture.com,US,Americas,Northern America,United States of America,Texas,,
23.227.169.78,4,4,chemistryexplained.com,US,Americas,Northern America,United States of America,Texas,,Dallas
72.14.191.156,4,810715,chessvideos.tv,US,Americas,Northern America,United States of America,Texas,,Richardson
192.250.227.11,4,6,chilebesttour.com,US,Americas,Northern America,United States of America,Texas,,Dallas
169.60.151.140,4,1,chinacomputerparts.com,US,Americas,Northern America,United States of America,Texas,,
147.124.213.100,4,5,chitgoks.com,US,Americas,Northern America,United States of America,Texas,,Dallas
169.60.164.238,4,2,chrishecker.com,US,Americas,Northern America,United States of America,Texas,,
72.14.182.167,4,6,ciaviaonline.us,US,Americas,Northern America,United States of America,Texas,,Richardson
104.237.135.222,4,6,cigardojo.com,US,Americas,Northern America,United States of America,Texas,,Richardson
72.14.191.42,4,8,circuitdigest.com,US,Americas,Northern America,United States of America,Texas,,Richardson
149.28.245.98,4,1,citationvault.com,US,Americas,Northern America,United States of America,Texas,,Dallas
198.58.103.59,4,1171986,clasificados.st,US,Americas,Northern America,United States of America,Texas,,Richardson
45.56.71.242,4,7,claverton-energy.com,US,Americas,Northern America,United States of America,Texas,,Richardson
184.105.130.90,4,118,clear-creek.co.us,US,Americas,Northern America,United States of America,Texas,,Dallas
194.195.218.104,4,29,clevelandinternships.net,US,Americas,Northern America,United States of America,Texas,,Richardson
198.58.121.212,4,9,climber.com,US,Americas,Northern America,United States of America,Texas,,Richardson
23.92.79.106,4,13,clipartof.com,US,Americas,Northern America,United States of America,Texas,,Dallas
45.33.113.176,4,6,clubdeluxe.co,US,Americas,Northern America,United States of America,Texas,,Richardson
205.251.150.91,4,3,cmll.com,US,Americas,Northern America,United States of America,Texas,,Houston
169.60.151.232,4,961,co.com,US,Americas,Northern America,United States of America,Texas,,
96.126.127.216,4,3,cocopah.com,US,Americas,Northern America,United States of America,Texas,,Richardson
107.155.112.214,4,7,codexcoder.com,US,Americas,Northern America,United States of America,Texas,,Dallas
198.58.102.185,4,49,collegefootballpoll.com,US,Americas,Northern America,United States of America,Texas,,Richardson
45.79.57.202,4,0,colorq.org,US,Americas,Northern America,United States of America,Texas,,Richardson
198.58.115.69,4,25,comancheclub.com,US,Americas,Northern America,United States of America,Texas,,Richardson
69.164.194.64,4,18,comfort-software.com,US,Americas,Northern America,United States of America,Texas,,Richardson
104.237.3.177,4,4,comfortinstitute.org,US,Americas,Northern America,United States of America,Texas,,Dallas
184.105.129.11,4,47,communitycurrency.org,US,Americas,Northern America,United States of America,Texas,,Dallas
45.33.30.40,4,14,confessionsofahomeschooler.com,US,Americas,Northern America,United States of America,Texas,,Richardson
66.228.53.67,4,6,conservativeinstitute.org,US,Americas,Northern America,United States of America,Texas,,Richardson
104.225.208.45,4,13,consumeractionlawgroup.com,US,Americas,Northern America,United States of America,Texas,,Dallas
23.150.248.43,4,12,conventioncalendar.com,US,Americas,Northern America,United States of America,Texas,,Dallas
96.126.114.156,4,47,coolrecordedit.com,US,Americas,Northern America,United States of America,Texas,,Richardson
45.79.38.209,4,19,corestreet.com,US,Americas,Northern America,United States of America,Texas,,Richardson
192.169.82.26,4,63,corksport.com,US,Americas,Northern America,United States of America,Texas,,Dallas
198.252.100.27,4,-4,cornwallfreenews.com,US,Americas,Northern America,United States of America,Texas,,
198.58.127.64,4,4,countreefood.net,US,Americas,Northern America,United States of America,Texas,,Richardson
169.60.135.217,4,686,countrycallingcodes.com,US,Americas,Northern America,United States of America,Texas,,
96.126.119.108,4,15,coursify.me,US,Americas,Northern America,United States of America,Texas,,Richardson
52.117.113.170,4,4,coyotelinux.com,US,Americas,Northern America,United States of America,Texas,,Argyle
173.237.189.241,4,5,cpiml.org,US,Americas,Northern America,United States of America,Texas,,Dallas
45.79.19.125,4,28,creativedecoratingideas.org,US,Americas,Northern America,United States of America,Texas,,Richardson
52.117.233.246,4,55,credit-card-logos.com,US,Americas,Northern America,United States of America,Texas,,Argyle
147.124.215.113,4,3,creedglobal.com,US,Americas,Northern America,United States of America,Texas,,Dallas
169.48.75.211,4,0,cuartoscuro.com,US,Americas,Northern America,United States of America,Texas,,
45.79.7.4,4,10,cue.io,US,Americas,Northern America,United States of America,Texas,,Richardson
38.86.32.67,4,30,culturedfocusnetwork.com,US,Americas,Northern America,United States of America,Texas,,Dallas
69.164.195.18,4,43,curiouscat.net,US,Americas,Northern America,United States of America,Texas,,Richardson
96.126.125.67,4,12,customerparadigm.com,US,Americas,Northern America,United States of America,Texas,,Richardson
151.101.112.133,4,4,czilla.cz,US,Americas,Northern America,United States of America,Texas,,Dallas
69.164.201.72,4,4,dachisgroup.com,US,Americas,Northern America,United States of America,Texas,,Richardson
192.46.218.170,4,6,dailybusinesspost.com,US,Americas,Northern America,United States of America,Texas,,Richardson
23.227.185.228,4,3,dailymom.com,US,Americas,Northern America,United States of America,Texas,,Dallas
38.147.122.84,4,0,darkmail.info,US,Americas,Northern America,United States of America,Texas,,Dallas
108.181.158.101,4,14,darkschemedirectory.com,US,Americas,Northern America,United States of America,Texas,,Dallas
50.116.17.43,4,55,david-smith.org,US,Americas,Northern America,United States of America,Texas,,Richardson
72.14.190.37,4,2,dayah.com,US,Americas,Northern America,United States of America,Texas,,Richardson
66.228.49.58,4,4,dcpartyrentalsupplies.com,US,Americas,Northern America,United States of America,Texas,,Richardson
198.58.122.92,4,4,ddfl.org,US,Americas,Northern America,United States of America,Texas,,Richardson
45.79.11.162,4,14,dealigg.com,US,Americas,Northern America,United States of America,Texas,,Richardson
96.126.120.24,4,64,debcb.com,US,Americas,Northern America,United States of America,Texas,,Richardson
205.251.155.191,4,3,decamiones.com,US,Americas,Northern America,United States of America,Texas,,Houston
172.96.189.4,4,27,deedeesblog.com,US,Americas,Northern America,United States of America,Texas,,
184.105.135.141,4,24,derechos.org,US,Americas,Northern America,United States of America,Texas,,Dallas
45.79.8.237,4,36,devdungeon.com,US,Americas,Northern America,United States of America,Texas,,Richardson
104.156.237.109,4,129,devhood.com,US,Americas,Northern America,United States of America,Texas,,Dallas
45.79.15.85,4,4,dietarious.com,US,Americas,Northern America,United States of America,Texas,,Richardson
192.3.231.193,4,-2,dig.do,US,Americas,Northern America,United States of America,Texas,,Dallas
198.58.109.76,4,111,digi-pr.com,US,Americas,Northern America,United States of America,Texas,,Richardson
50.116.24.128,4,5,digitalenvios.com,US,Americas,Northern America,United States of America,Texas,,Richardson
45.56.120.146,4,10,digitalnature.eu,US,Americas,Northern America,United States of America,Texas,,Richardson
198.58.120.193,4,1276,digitemb.com,US,Americas,Northern America,United States of America,Texas,,Richardson
45.79.55.233,4,13,digitemp.com,US,Americas,Northern America,United States of America,Texas,,Richardson
45.79.29.195,4,4,dirvish.org,US,Americas,Northern America,United States of America,Texas,,Richardson
194.195.221.160,4,2380529,discountautoparts.com,US,Americas,Northern America,United States of America,Texas,,Richardson
144.202.69.83,4,21,dixie-net.com,US,Americas,Northern America,United States of America,Texas,,Dallas
45.79.23.17,4,6,diybookcovers.com,US,Americas,Northern America,United States of America,Texas,,Richardson
198.58.115.225,4,7,diyindex.com,US,Americas,Northern America,United States of America,Texas,,Richardson
172.99.148.44,4,5,diyquickly.com,US,Americas,Northern America,United States of America,Texas,,Dallas
24.240.240.126,4,15,DNS Server: 024-240-240-126.biz.spectrum.com,US,Americas,Northern America,United States of America,Texas,,Waxahachie
35.135.168.42,4,0,DNS Server: 035-135-168-042.res.spectrum.com,US,Americas,Northern America,United States of America,Texas,,Fort Worth
47.4.84.33,4,-237,DNS Server: 047-004-084-033.res.spectrum.com,US,Americas,Northern America,United States of America,Texas,,Waxahachie
47.4.105.106,4,-40945,DNS Server: 047-004-105-106.res.spectrum.com,US,Americas,Northern America,United States of America,Texas,,Mansfield
47.51.243.50,4,-3,DNS Server: 047-051-243-050.biz.spectrum.com,US,Americas,Northern America,United States of America,Texas,,Fort Worth
72.131.200.190,4,4,DNS Server: 072-131-200-190.biz.spectrum.com,US,Americas,Northern America,United States of America,Texas,,San Antonio
72.133.93.252,4,-12548,DNS Server: 072-133-093-252.res.spectrum.com,US,Americas,Northern America,United States of America,Texas,,Elgin
72.176.240.245,4,5,DNS Server: 072-176-240-245.res.spectrum.com,US,Americas,Northern America,United States of America,Texas,,Carrollton
72.177.34.225,4,21604085,DNS Server: 072-177-034-225.res.spectrum.com,US,Americas,Northern America,United States of America,Texas,,Marble Falls
72.177.193.243,4,-5605,DNS Server: 072-177-193-243.res.spectrum.com,US,Americas,Northern America,United States of America,Texas,,San Antonio
72.180.196.167,4,2938,DNS Server: 072-180-196-167.res.spectrum.com,US,Americas,Northern America,United States of America,Texas,,Dallas
97.94.219.213,4,21589332,DNS Server: 097-094-219-213.biz.spectrum.com,US,Americas,Northern America,United States of America,Texas,,Fort Worth
97.99.67.22,4,24961,DNS Server: 097-099-067-022.res.spectrum.com,US,Americas,Northern America,United States of America,Texas,,Dallas
107.178.6.30,4,50,DNS Server: 107-178-6-30.ptr.nxlink.com,US,Americas,Northern America,United States of America,Texas,,Azle
128.92.222.227,4,1454407,DNS Server: 128-092-222-227.biz.spectrum.com,US,Americas,Northern America,United States of America,Texas,,Fort Worth
173.11.131.1,4,2710,DNS Server: 173-11-131-1-houston.txt.hfc.comcastbusiness.net,US,Americas,Northern America,United States of America,Texas,,Houston
69.162.95.18,4,5,DNS Server: 18-95-162-69.static.reverse.lstn.net,US,Americas,Northern America,United States of America,Texas,,Dallas
198.0.90.186,4,26158363,DNS Server: 198-0-90-186-static.hfc.comcastbusiness.net,US,Americas,Northern America,United States of America,Texas,,Houston
198.252.100.31,4,4,DNS Server: 198.252.100.31-static.reverse.arandomserver.com,US,Americas,Northern America,United States of America,Texas,,
204.57.109.160,4,25801,DNS Server: 204-57-109-160.static.ctl.one,US,Americas,Northern America,United States of America,Texas,,Cameron
204.57.109.171,4,5464,DNS Server: 204-57-109-171.static.ctl.one,US,Americas,Northern America,United States of America,Texas,,Cameron
204.57.109.206,4,7,DNS Server: 204-57-109-206.static.ctl.one,US,Americas,Northern America,United States of America,Texas,,Cameron
204.57.109.98,4,211,DNS Server: 204-57-109-98.static.ctl.one,US,Americas,Northern America,United States of America,Texas,,Cameron
208.185.189.15,4,129,DNS Server: 208.185.189.15.IPYX-071787-ZYO.above.net,US,Americas,Northern America,United States of America,Texas,,Amarillo
45.19.254.97,4,73,DNS Server: 45-19-254-97.lightspeed.rcsntx.sbcglobal.net,US,Americas,Northern America,United States of America,Texas,,Dallas
45.56.79.122,4,1187,DNS Server: 45-56-79-122.ip.linodeusercontent.com,US,Americas,Northern America,United States of America,Texas,,Richardson
68.89.132.250,4,21,DNS Server: 68-89-132-250.ded.swbell.net,US,Americas,Northern America,United States of America,Texas,,Laredo
96.126.127.69,4,30,DNS Server: 96-126-127-69.ip.linodeusercontent.com,US,Americas,Northern America,United States of America,Texas,,Richardson
96.85.8.185,4,5,DNS Server: 96-85-8-185-static.hfc.comcastbusiness.net,US,Americas,Northern America,United States of America,Texas,,Houston
99.92.207.51,4,6125687,DNS Server: 99-92-207-51.lightspeed.wtfdct.sbcglobal.net,US,Americas,Northern America,United States of America,Texas,,North Richland Hills
161.129.182.92,4,85,DNS Server: bloom.host,US,Americas,Northern America,United States of America,Texas,,Dallas
174.170.184.92,4,7,DNS Server: c-174-170-184-92.hsd1.tx.comcast.net,US,Americas,Northern America,United States of America,Texas,,Houston
73.166.113.63,4,6,DNS Server: c-73-166-113-63.hsd1.tx.comcast.net,US,Americas,Northern America,United States of America,Texas,,Houston
73.232.202.128,4,3,DNS Server: c-73-232-202-128.hsd1.tx.comcast.net,US,Americas,Northern America,United States of America,Texas,,Houston
73.232.203.176,4,1,DNS Server: c-73-232-203-176.hsd1.tx.comcast.net,US,Americas,Northern America,United States of America,Texas,,Houston
73.232.203.42,4,0,DNS Server: c-73-232-203-42.hsd1.tx.comcast.net,US,Americas,Northern America,United States of America,Texas,,Houston
73.232.203.5,4,2,DNS Server: c-73-232-203-5.hsd1.tx.comcast.net,US,Americas,Northern America,United States of America,Texas,,Houston
73.32.150.114,4,4,DNS Server: c-73-32-150-114.hsd1.tx.comcast.net,US,Americas,Northern America,United States of America,Texas,,Katy
73.6.19.32,4,4,DNS Server: c-73-6-19-32.hsd1.tx.comcast.net,US,Americas,Northern America,United States of America,Texas,,League City
73.6.233.87,4,21600109,DNS Server: c-73-6-233-87.hsd1.tx.comcast.net,US,Americas,Northern America,United States of America,Texas,,Spring
73.76.100.120,4,5,DNS Server: c-73-76-100-120.hsd1.tx.comcast.net,US,Americas,Northern America,United States of America,Texas,,Houston
73.76.100.123,4,7,DNS Server: c-73-76-100-123.hsd1.tx.comcast.net,US,Americas,Northern America,United States of America,Texas,,Houston
73.76.100.165,4,8,DNS Server: c-73-76-100-165.hsd1.tx.comcast.net,US,Americas,Northern America,United States of America,Texas,,Houston
73.76.100.17,4,83,DNS Server: c-73-76-100-17.hsd1.tx.comcast.net,US,Americas,Northern America,United States of America,Texas,,Houston
73.76.100.206,4,7,DNS Server: c-73-76-100-206.hsd1.tx.comcast.net,US,Americas,Northern America,United States of America,Texas,,Houston
73.76.101.17,4,5,DNS Server: c-73-76-101-17.hsd1.tx.comcast.net,US,Americas,Northern America,United States of America,Texas,,Houston
98.195.112.142,4,7,DNS Server: c-98-195-112-142.hsd1.tx.comcast.net,US,Americas,Northern America,United States of America,Texas,,League City
98.34.208.141,4,25,DNS Server: c-98-34-208-141.hsd1.tx.comcast.net,US,Americas,Northern America,United States of America,Texas,,Houston
63.246.63.142,4,72,DNS Server: cache1.geusnet.com,US,Americas,Northern America,United States of America,Texas,,Greenville
64.31.5.1,4,348552,DNS Server: cns1.lstn.net,US,Americas,Northern America,United States of America,Texas,,Dallas
4.34.207.138,4,-21415990,DNS Server: CONQUEST-WI.bear2.Houston1.Level3.net,US,Americas,Northern America,United States of America,Texas,,Mabank
207.70.165.154,4,-307,DNS Server: conr-adsl-johngandy.consolidated.net,US,Americas,Northern America,United States of America,Texas,,Conroe
173.172.130.121,4,-25169,DNS Server: cpe-173-172-130-121.tx.res.rr.com,US,Americas,Northern America,United States of America,Texas,,Dallas
24.162.122.25,4,21,DNS Server: cpe-24-162-122-25.hot.res.rr.com,US,Americas,Northern America,United States of America,Texas,,Copperas Cove
24.26.232.231,4,-2507,DNS Server: cpe-24-26-232-231.satx.res.rr.com,US,Americas,Northern America,United States of America,Texas,,San Antonio
24.26.246.126,4,-9379,DNS Server: cpe-24-26-246-126.satx.res.rr.com,US,Americas,Northern America,United States of America,Texas,,San Antonio
67.11.39.94,4,19661,DNS Server: cpe-67-11-39-94.satx.res.rr.com,US,Americas,Northern America,United States of America,Texas,,San Antonio
68.206.181.150,4,37,DNS Server: cpe-68-206-181-150.elp.res.rr.com,US,Americas,Northern America,United States of America,Texas,,El Paso
70.112.83.71,4,3364,DNS Server: cpe-70-112-83-71.austin.res.rr.com,US,Americas,Northern America,United States of America,Texas,,Allen
70.114.176.31,4,515,DNS Server: cpe-70-114-176-31.austin.res.rr.com,US,Americas,Northern America,United States of America,Texas,,Round Rock
70.114.18.4,4,204,DNS Server: cpe-70-114-18-4.satx.res.rr.com,US,Americas,Northern America,United States of America,Texas,,New Braunfels
70.121.105.46,4,-8,DNS Server: cpe-70-121-105-46.austin.res.rr.com,US,Americas,Northern America,United States of America,Texas,,Liberty Hill
70.94.177.13,4,-62466,DNS Server: cpe-70-94-177-13.satx.res.rr.com,US,Americas,Northern America,United States of America,Texas,,Bedford
76.183.1.236,4,2,DNS Server: cpe-76-183-1-236.tx.res.rr.com,US,Americas,Northern America,United States of America,Texas,,Dallas
76.183.126.116,4,344,DNS Server: cpe-76-183-126-116.tx.res.rr.com,US,Americas,Northern America,United States of America,Texas,,Cedar Park
76.183.3.54,4,3,DNS Server: cpe-76-183-3-54.tx.res.rr.com,US,Americas,Northern America,United States of America,Texas,,Dallas
97.75.67.214,4,28,DNS Server: cust214.telwestnet.net,US,Americas,Northern America,United States of America,Texas,,Richardson
209.55.111.68,4,70,DNS Server: dsl-209-55-111-68.centex.net,US,Americas,Northern America,United States of America,Texas,,Goldthwaite
24.242.26.112,4,-31559,DNS Server: gen-024-242-026-112.res.spectrum.com,US,Americas,Northern America,United States of America,Texas,,El Paso
40.134.174.233,4,17,DNS Server: h233.174.134.40.static.ip.windstream.net,US,Americas,Northern America,United States of America,Texas,,New Braunfels
4.15.47.222,4,8,DNS Server: HYPERCORE-N.ear3.Dallas1.Level3.net,US,Americas,Northern America,United States of America,Texas,,Dallas
207.70.138.246,4,41098,DNS Server: ktre-tv-server4.consolidated.net,US,Americas,Northern America,United States of America,Texas,,Lufkin
45.79.47.93,4,353,DNS Server: li1146-93.members.linode.com,US,Americas,Northern America,United States of America,Texas,,Richardson
198.58.103.205,4,1161065,DNS Server: li553-205.members.linode.com,US,Americas,Northern America,United States of America,Texas,,Richardson
45.56.121.226,4,348,DNS Server: li939-226.members.linode.com,US,Americas,Northern America,United States of America,Texas,,Richardson
204.57.109.130,4,93439,DNS Server: mail.foundcom.org,US,Americas,Northern America,United States of America,Texas,,Cameron
24.28.97.72,4,7669,DNS Server: mta-24-28-97-72.tx.rr.com,US,Americas,Northern America,United States of America,Texas,,Austin
70.120.157.245,4,-39445,DNS Server: mta-70-120-157-245.satx.rr.com,US,Americas,Northern America,United States of America,Texas,,Grand Prairie
104.237.130.221,4,180,DNS Server: mx.sendabout.com,US,Americas,Northern America,United States of America,Texas,,Richardson
74.193.27.160,4,-546035160,DNS Server: r74-193-27-160.tyrdcmta03.hnsntx.tl.dh.suddenlink.net,US,Americas,Northern America,United States of America,Texas,,Nacogdoches
198.12.71.224,4,294,DNS Server: rack198-12-71-224dal.dmzdns.com,US,Americas,Northern America,United States of America,Texas,,Dallas
24.227.222.89,4,1975962,DNS Server: rrcs-24-227-222-89.sw.biz.rr.com,US,Americas,Northern America,United States of America,Texas,,Austin
64.183.204.131,4,86,DNS Server: rrcs-64-183-204-131.sw.biz.rr.com,US,Americas,Northern America,United States of America,Texas,,Irving
71.40.38.34,4,83263,DNS Server: rrcs-71-40-38-34.sw.biz.rr.com,US,Americas,Northern America,United States of America,Texas,,Dallas
71.41.143.242,4,288,DNS Server: rrcs-71-41-143-242.sw.biz.rr.com,US,Americas,Northern America,United States of America,Texas,,El Paso
71.41.249.154,4,190,DNS Server: rrcs-71-41-249-154.sw.biz.rr.com,US,Americas,Northern America,United States of America,Texas,,San Antonio
71.42.222.242,4,-39020503,DNS Server: rrcs-71-42-222-242.sw.biz.rr.com,US,Americas,Northern America,United States of America,Texas,,Austin
71.78.187.34,4,63,DNS Server: rrcs-71-78-187-34.sw.biz.rr.com,US,Americas,Northern America,United States of America,Texas,,San Antonio
71.78.93.66,4,76,DNS Server: rrcs-71-78-93-66.sw.biz.rr.com,US,Americas,Northern America,United States of America,Texas,,Arlington
98.6.2.198,4,21441530,DNS Server: rrcs-98-6-2-198.sw.biz.rr.com,US,Americas,Northern America,United States of America,Texas,,Carrollton
108.181.102.202,4,2,dohtheme.com,US,Americas,Northern America,United States of America,Texas,,Dallas
192.154.229.2,4,-222,donsbulbs.com,US,Americas,Northern America,United States of America,Texas,,Dallas
50.116.26.157,4,2,doomworld.com,US,Americas,Northern America,United States of America,Texas,,Richardson
173.255.200.154,4,6,dotheton.com,US,Americas,Northern America,United States of America,Texas,,Richardson
192.3.160.104,4,1,dqbooks.com,US,Americas,Northern America,United States of America,Texas,,Dallas
45.33.22.134,4,39,drdteam.org,US,Americas,Northern America,United States of America,Texas,,Richardson
69.164.201.65,4,4,dresshead.com,US,Americas,Northern America,United States of America,Texas,,Richardson
23.239.27.234,4,30,drleemerritt.com,US,Americas,Northern America,United States of America,Texas,,Richardson
192.92.237.252,4,12546,dstarusers.org,US,Americas,Northern America,United States of America,Texas,,Dallas
96.126.124.112,4,7,dtmpower.net,US,Americas,Northern America,United States of America,Texas,,Richardson
170.39.213.144,4,-672,dutable.com,US,Americas,Northern America,United States of America,Texas,,Dallas
108.168.254.27,4,4,dwaynesphoto.com,US,Americas,Northern America,United States of America,Texas,,Dallas
198.58.116.195,4,5,e-affiliateclub.com,US,Americas,Northern America,United States of America,Texas,,Richardson
206.123.106.156,4,5,e-library.net,US,Americas,Northern America,United States of America,Texas,,Frisco
45.56.67.242,4,29,eaglesoftware.com.au,US,Americas,Northern America,United States of America,Texas,,Richardson
146.6.100.163,4,1171,earthdate.org,US,Americas,Northern America,United States of America,Texas,,Leander
169.60.148.120,4,519,easycutstudio.com,US,Americas,Northern America,United States of America,Texas,,
52.117.55.80,4,1,easysplashbuilder.net,US,Americas,Northern America,United States of America,Texas,,Argyle
198.58.103.13,4,3,easytourchina.com,US,Americas,Northern America,United States of America,Texas,,Richardson
23.145.80.19,4,2,eatingvibrantly.com,US,Americas,Northern America,United States of America,Texas,,Dallas
50.116.20.236,4,27,eatwell101.com,US,Americas,Northern America,United States of America,Texas,,Richardson
208.43.39.229,4,25,ebroadcast.com.au,US,Americas,Northern America,United States of America,Texas,,Dallas
169.61.148.178,4,5,ecer.com,US,Americas,Northern America,United States of America,Texas,,
23.95.92.5,4,134,ecoleagape.com,US,Americas,Northern America,United States of America,Texas,,Dallas
45.79.19.204,4,2,economicdevelopmentjobs.net,US,Americas,Northern America,United States of America,Texas,,Richardson
45.33.0.42,4,6,editthis.info,US,Americas,Northern America,United States of America,Texas,,Richardson
198.58.124.243,4,6,edoceo.com,US,Americas,Northern America,United States of America,Texas,,Richardson
139.144.227.32,4,2,education-website.com,US,Americas,Northern America,United States of America,Texas,,Richardson
45.79.41.207,4,7,eev.ee,US,Americas,Northern America,United States of America,Texas,,Richardson
69.164.203.207,4,3,ehd.org,US,Americas,Northern America,United States of America,Texas,,Richardson
205.251.153.191,4,33,ejnet.org,US,Americas,Northern America,United States of America,Texas,,Houston
66.187.76.140,4,3,electioncenter.org,US,Americas,Northern America,United States of America,Texas,,Houston
74.81.95.243,4,41,elmerproductions.com,US,Americas,Northern America,United States of America,Texas,,Houston
192.250.227.25,4,45,elmundo-eldia.com,US,Americas,Northern America,United States of America,Texas,,Dallas
45.33.22.22,4,115,emailsignatures.com,US,Americas,Northern America,United States of America,Texas,,Richardson
45.56.78.84,4,4,emailtuna.com,US,Americas,Northern America,United States of America,Texas,,Richardson
169.60.135.67,4,64,embalagemmarca.com.br,US,Americas,Northern America,United States of America,Texas,,
63.250.55.81,4,7,embeddedgurus.com,US,Americas,Northern America,United States of America,Texas,,Dallas
45.33.11.193,4,12,emereleases.com,US,Americas,Northern America,United States of America,Texas,,Richardson
64.44.157.149,4,39,emergencyroomnearme.org,US,Americas,Northern America,United States of America,Texas,,Dallas
45.56.72.21,4,61,emerilsrestaurants.com,US,Americas,Northern America,United States of America,Texas,,Richardson
144.202.78.16,4,1,emmaus.edu,US,Americas,Northern America,United States of America,Texas,,Dallas
69.164.207.206,4,9,energy-models.com,US,Americas,Northern America,United States of America,Texas,,Richardson
104.200.159.141,4,6,enewschannels.com,US,Americas,Northern America,United States of America,Texas,,Dallas
96.126.113.194,4,12,epbusinessjournal.com,US,Americas,Northern America,United States of America,Texas,,Richardson
146.6.162.200,4,4,eskeletons.org,US,Americas,Northern America,United States of America,Texas,,Austin
96.126.126.233,4,2399,esrawe.com,US,Americas,Northern America,United States of America,Texas,,Richardson
162.213.196.2,4,2,essaysservice.com,US,Americas,Northern America,United States of America,Texas,,Dallas
23.227.169.75,4,7,everyculture.com,US,Americas,Northern America,United States of America,Texas,,Dallas
45.33.113.214,4,6,everypony.com,US,Americas,Northern America,United States of America,Texas,,Richardson
45.33.22.186,4,8,exceljet.net,US,Americas,Northern America,United States of America,Texas,,Richardson
72.14.177.19,4,21,extstore.com,US,Americas,Northern America,United States of America,Texas,,Richardson
216.173.113.253,4,17,f1racing.net,US,Americas,Northern America,United States of America,Texas,,Dallas
144.202.75.132,4,2,fahrenheitmagazine.com,US,Americas,Northern America,United States of America,Texas,,Dallas
45.43.3.15,4,42,falstad.com,US,Americas,Northern America,United States of America,Texas,,Dallas
104.237.139.204,4,8,familyreading.net,US,Americas,Northern America,United States of America,Texas,,Richardson
173.237.190.193,4,-70699,fanciers.com,US,Americas,Northern America,United States of America,Texas,,Dallas
184.105.132.107,4,10,fanpop.com,US,Americas,Northern America,United States of America,Texas,,Dallas
199.231.164.68,4,6,faqs.org,US,Americas,Northern America,United States of America,Texas,,Dallas
104.237.133.125,4,18,fat64.net,US,Americas,Northern America,United States of America,Texas,,Richardson
209.58.150.131,4,472,fatfreekitchen.com,US,Americas,Northern America,United States of America,Texas,,Dallas
50.116.27.194,4,10,fens.me,US,Americas,Northern America,United States of America,Texas,,Richardson
45.56.122.179,4,2,ficwad.com,US,Americas,Northern America,United States of America,Texas,,Richardson
104.200.22.140,4,31,fieldagent.net,US,Americas,Northern America,United States of America,Texas,,Richardson
23.227.169.71,4,30,filmreference.com,US,Americas,Northern America,United States of America,Texas,,Dallas
96.126.118.172,4,27,filterforge.com,US,Americas,Northern America,United States of America,Texas,,Richardson
198.58.123.110,4,7,finedictionary.com,US,Americas,Northern America,United States of America,Texas,,Richardson
45.79.34.111,4,33,finishedresults.com,US,Americas,Northern America,United States of America,Texas,,Richardson
45.33.31.189,4,9,firewallguide.com,US,Americas,Northern America,United States of America,Texas,,Richardson
172.96.138.245,4,5,fison.com,US,Americas,Northern America,United States of America,Texas,,Dallas
174.37.18.97,4,5,flaglermuseum.us,US,Americas,Northern America,United States of America,Texas,,Dallas
172.83.152.141,4,7,flbook.com.cn,US,Americas,Northern America,United States of America,Texas,,Dallas
173.255.194.36,4,9,fluidapp.com,US,Americas,Northern America,United States of America,Texas,,Richardson
45.79.5.56,4,346,flyfrompti.com,US,Americas,Northern America,United States of America,Texas,,Richardson
104.237.131.125,4,13,fman.io,US,Americas,Northern America,United States of America,Texas,,Richardson
198.58.125.221,4,1,fmp.com,US,Americas,Northern America,United States of America,Texas,,Richardson
45.33.118.120,4,120788,fnd.to,US,Americas,Northern America,United States of America,Texas,,Richardson
23.227.169.90,4,68,foodbycountry.com,US,Americas,Northern America,United States of America,Texas,,Dallas
173.255.201.233,4,1,foodnotbombs.net,US,Americas,Northern America,United States of America,Texas,,Richardson
155.138.240.96,4,6,fordsix.com,US,Americas,Northern America,United States of America,Texas,,Dallas
23.92.79.38,4,-14240257,forgifs.com,US,Americas,Northern America,United States of America,Texas,,Dallas
173.255.203.129,4,12,formmail.com,US,Americas,Northern America,United States of America,Texas,,Richardson
50.116.19.234,4,738,fortpecktribes.org,US,Americas,Northern America,United States of America,Texas,,Richardson
52.117.255.164,4,-163726,frameiteasy.com,US,Americas,Northern America,United States of America,Texas,,Argyle
173.255.199.130,4,5,free-audio-editor.com,US,Americas,Northern America,United States of America,Texas,,Richardson
45.79.10.90,4,6,freeaudiovideosoft.com,US,Americas,Northern America,United States of America,Texas,,Richardson
45.79.19.217,4,4,freecarmagazines.net,US,Americas,Northern America,United States of America,Texas,,Richardson
104.254.129.131,4,15,freegames.ws,US,Americas,Northern America,United States of America,Texas,,Dallas
198.58.116.144,4,30,freenew.net,US,Americas,Northern America,United States of America,Texas,,Richardson
45.79.56.181,4,8,freerepublic.com,US,Americas,Northern America,United States of America,Texas,,Richardson
45.79.9.230,4,28,freesoundtrackmusic.com,US,Americas,Northern America,United States of America,Texas,,Richardson
45.56.122.5,4,16,frenchmarket.org,US,Americas,Northern America,United States of America,Texas,,Richardson
50.116.21.208,4,11,frenchquarter.com,US,Americas,Northern America,United States of America,Texas,,Richardson
181.215.49.64,4,26,frustratedgamers.com,US,Americas,Northern America,United States of America,Texas,,Dallas
45.41.52.101,4,4,fuck.markets,US,Americas,Northern America,United States of America,Texas,,Dallas
72.14.184.191,4,5,fugal.net,US,Americas,Northern America,United States of America,Texas,,Richardson
104.237.143.84,4,838,furry-paws.com,US,Americas,Northern America,United States of America,Texas,,Richardson
144.202.65.58,4,-177,fusionpbx.com,US,Americas,Northern America,United States of America,Texas,,Dallas
69.162.78.66,4,215,futaba.com,US,Americas,Northern America,United States of America,Texas,,Dallas
172.105.137.165,4,113799,fwweekly.com,US,Americas,Northern America,United States of America,Texas,,Richardson
23.227.161.186,4,2,gabrian.com,US,Americas,Northern America,United States of America,Texas,,Dallas
198.252.105.88,4,25,gadgetsin.com,US,Americas,Northern America,United States of America,Texas,,Dallas
31.172.79.124,4,3,gadwin.com,US,Americas,Northern America,United States of America,Texas,,Dallas
45.32.205.144,4,14,galacticsurf.com,US,Americas,Northern America,United States of America,Texas,,Dallas
66.206.18.218,4,866,galaxysites.org,US,Americas,Northern America,United States of America,Texas,,Dallas
198.252.105.92,4,2,galwayindependent.com,US,Americas,Northern America,United States of America,Texas,,Dallas
79.141.173.102,4,5,gambody.com,US,Americas,Northern America,United States of America,Texas,,Dallas
66.187.72.90,4,19,gamemakersgarage.com,US,Americas,Northern America,United States of America,Texas,,Stafford
107.155.71.110,4,24,gamesquad.com,US,Americas,Northern America,United States of America,Texas,,Dallas
45.33.126.107,4,6,gammatech.org,US,Americas,Northern America,United States of America,Texas,,Richardson
38.18.231.247,4,19,gawlah.com,US,Americas,Northern America,United States of America,Texas,,Dallas
45.79.41.85,4,2,gearlivegirl.com,US,Americas,Northern America,United States of America,Texas,,Richardson
69.164.203.77,4,1075,geekinheels.com,US,Americas,Northern America,United States of America,Texas,,Richardson
198.58.100.165,4,5,generasia.com,US,Americas,Northern America,United States of America,Texas,,Richardson
169.60.163.244,4,5,geometry.net,US,Americas,Northern America,United States of America,Texas,,
74.63.218.26,4,9,gerasanews.com,US,Americas,Northern America,United States of America,Texas,,Dallas
45.32.205.58,4,2,germany-christmas-market.org.uk,US,Americas,Northern America,United States of America,Texas,,Dallas
107.172.93.136,4,37,get77.mobi,US,Americas,Northern America,United States of America,Texas,,Dallas
198.58.121.225,4,30,getdigsy.com,US,Americas,Northern America,United States of America,Texas,,Richardson
198.252.100.213,4,29,getfluox.shop,US,Americas,Northern America,United States of America,Texas,,
50.116.28.162,4,74,getify.com,US,Americas,Northern America,United States of America,Texas,,Richardson
172.105.137.46,4,752,ghrr.com,US,Americas,Northern America,United States of America,Texas,,Richardson
107.155.71.140,4,-2,gigapros.com,US,Americas,Northern America,United States of America,Texas,,Dallas
139.144.46.134,4,27,gilchristsoames.com,US,Americas,Northern America,United States of America,Texas,,Richardson
169.60.149.182,4,0,gingermanraceway.com,US,Americas,Northern America,United States of America,Texas,,
155.94.253.100,4,38,giraffecenter.org,US,Americas,Northern America,United States of America,Texas,,Dallas
108.181.166.215,4,5,giurdanella.it,US,Americas,Northern America,United States of America,Texas,,Dallas
198.58.96.137,4,3,giveawaytools.com,US,Americas,Northern America,United States of America,Texas,,Richardson
45.33.4.126,4,2,gjspa.com,US,Americas,Northern America,United States of America,Texas,,Richardson
149.154.59.4,4,-1,gkg.net,US,Americas,Northern America,United States of America,Texas,,Bryan
198.252.100.246,4,26,glo-con.com,US,Americas,Northern America,United States of America,Texas,,
172.96.136.126,4,8,gmabrands.com,US,Americas,Northern America,United States of America,Texas,,Dallas
216.245.222.242,4,13,goallineblitz.com,US,Americas,Northern America,United States of America,Texas,,Dallas
169.48.76.229,4,7,goals365.com,US,Americas,Northern America,United States of America,Texas,,
192.211.60.181,4,21,gocar.gr,US,Americas,Northern America,United States of America,Texas,,Dallas
12.97.50.40,4,24,godish.com,US,Americas,Northern America,United States of America,Texas,,Dayton
198.58.106.108,4,13,gold.net,US,Americas,Northern America,United States of America,Texas,,Richardson
192.250.227.31,4,18,goldismoney2.com,US,Americas,Northern America,United States of America,Texas,,Dallas
45.79.46.115,4,19,golegend.com,US,Americas,Northern America,United States of America,Texas,,Richardson
198.252.105.78,4,3,gomontana.com,US,Americas,Northern America,United States of America,Texas,,Dallas
108.181.155.179,4,21,goobay.com,US,Americas,Northern America,United States of America,Texas,,Dallas
104.200.22.134,4,16,gooya.com,US,Americas,Northern America,United States of America,Texas,,Richardson
104.237.13.31,4,2,gotoassignmenthelp.com,US,Americas,Northern America,United States of America,Texas,,Dallas
45.33.15.233,4,7,gotostcroix.com,US,Americas,Northern America,United States of America,Texas,,Richardson
69.164.204.88,4,24,gourmetgarlicgardens.com,US,Americas,Northern America,United States of America,Texas,,Richardson
144.202.73.14,4,2,govhealthit.com,US,Americas,Northern America,United States of America,Texas,,Dallas
69.164.201.160,4,9,graciemag.com,US,Americas,Northern America,United States of America,Texas,,Richardson
50.116.29.67,4,26,gramlee.com,US,Americas,Northern America,United States of America,Texas,,Richardson
66.90.130.4,4,39,grandecom.net,US,Americas,Northern America,United States of America,Texas,,Buda
192.0.80.242,4,5,gravatar.com,US,Americas,Northern America,United States of America,Texas,,Dallas
192.0.80.239,4,4,gravatar.com,US,Americas,Northern America,United States of America,Texas,,Dallas
192.0.80.241,4,2,gravatar.com,US,Americas,Northern America,United States of America,Texas,,Dallas
192.0.80.240,4,4,gravatar.com,US,Americas,Northern America,United States of America,Texas,,Dallas
45.56.121.215,4,3,greatday.com,US,Americas,Northern America,United States of America,Texas,,Richardson
104.200.21.227,4,31,greenwoodsoftware.com,US,Americas,Northern America,United States of America,Texas,,Richardson
104.225.220.143,4,4,gsak.net,US,Americas,Northern America,United States of America,Texas,,Dallas
198.252.105.54,4,6,guidetoprofitablelivestock.com,US,Americas,Northern America,United States of America,Texas,,Dallas
192.250.227.37,4,20,guitarnick.com,US,Americas,Northern America,United States of America,Texas,,Dallas
169.60.186.74,4,3,gundogbreeders.com,US,Americas,Northern America,United States of America,Texas,,
64.250.0.133,4,1,gvec.org,US,Americas,Northern America,United States of America,Texas,,Gonzales
71.40.108.141,4,-2,gvovideo.com,US,Americas,Northern America,United States of America,Texas,,San Antonio
96.126.125.168,4,5,ha.lc,US,Americas,Northern America,United States of America,Texas,,Richardson
45.79.41.201,4,7,hackedonlinegames.com,US,Americas,Northern America,United States of America,Texas,,Richardson
107.155.71.139,4,6,halfoffdeal.com,US,Americas,Northern America,United States of America,Texas,,Dallas
72.14.184.243,4,9,hard-core-dx.com,US,Americas,Northern America,United States of America,Texas,,Richardson
4.151.246.80,4,14,harding.edu,US,Americas,Northern America,United States of America,Texas,,San Antonio
72.14.186.10,4,3,harnessracingforum.com,US,Americas,Northern America,United States of America,Texas,,Richardson
191.101.16.96,4,57,harpgallery.com,US,Americas,Northern America,United States of America,Texas,,Dallas
104.200.16.237,4,5,hartandcooley.com,US,Americas,Northern America,United States of America,Texas,,Richardson
173.237.185.111,4,1009,hashstudioz.com,US,Americas,Northern America,United States of America,Texas,,Dallas
172.93.50.137,4,2,hawkinsmotorcoach.com,US,Americas,Northern America,United States of America,Texas,,Dallas
169.60.153.61,4,4,hazegray.org,US,Americas,Northern America,United States of America,Texas,,
191.101.166.199,4,7,hdrams.com,US,Americas,Northern America,United States of America,Texas,,Dallas
23.239.26.119,4,4,healthandfitnessmagazine.co,US,Americas,Northern America,United States of America,Texas,,Richardson
198.58.115.180,4,3,healthfirstcolorado.com,US,Americas,Northern America,United States of America,Texas,,Richardson
23.227.169.81,4,13,healthofchildren.com,US,Americas,Northern America,United States of America,Texas,,Dallas
45.33.16.112,4,3,heartwormsociety.org,US,Americas,Northern America,United States of America,Texas,,Richardson
198.58.111.239,4,4,hermannpark.org,US,Americas,Northern America,United States of America,Texas,,Richardson
23.239.29.217,4,629,hesk.com,US,Americas,Northern America,United States of America,Texas,,Richardson
50.116.31.226,4,4,hesketh.com,US,Americas,Northern America,United States of America,Texas,,Richardson
169.53.30.11,4,1094,hidden-3d.com,US,Americas,Northern America,United States of America,Texas,,Dallas
45.56.68.188,4,17,highonandroid.com,US,Americas,Northern America,United States of America,Texas,,Richardson
45.56.122.29,4,252352,hillstonenet.com,US,Americas,Northern America,United States of America,Texas,,Richardson
45.56.77.63,4,0,himeuta.org,US,Americas,Northern America,United States of America,Texas,,Richardson
209.58.144.244,4,-4,hirerush.com,US,Americas,Northern America,United States of America,Texas,,Dallas
52.117.22.42,4,1,historyvshollywood.com,US,Americas,Northern America,United States of America,Texas,,Argyle
198.252.105.116,4,2,hl8b.com,US,Americas,Northern America,United States of America,Texas,,Dallas
45.79.17.106,4,5,hockeyshift.com,US,Americas,Northern America,United States of America,Texas,,Richardson
45.56.68.16,4,4,hockeyshift.com,US,Americas,Northern America,United States of America,Texas,,Richardson
192.169.81.155,4,23,holybible.com.cn,US,Americas,Northern America,United States of America,Texas,,Dallas
23.239.27.250,4,7,homeinspectionforum.net,US,Americas,Northern America,United States of America,Texas,,Richardson
172.245.228.227,4,29,homemediamagazine.com,US,Americas,Northern America,United States of America,Texas,,Dallas
45.79.9.85,4,7,hometech.social,US,Americas,Northern America,United States of America,Texas,,Richardson
74.63.241.27,4,4,hondatech.info,US,Americas,Northern America,United States of America,Texas,,Dallas
45.56.75.107,4,2,hondros.com,US,Americas,Northern America,United States of America,Texas,,Richardson
96.126.124.20,4,6,horsesidevetguide.com,US,Americas,Northern America,United States of America,Texas,,Richardson
45.56.66.75,4,20953,horseweb.com,US,Americas,Northern America,United States of America,Texas,,Richardson
23.227.169.79,4,6,hospital-data.com,US,Americas,Northern America,United States of America,Texas,,Dallas
198.58.106.231,4,175329,housedems.com,US,Americas,Northern America,United States of America,Texas,,Richardson
45.33.118.218,4,3,houstonfirst.com,US,Americas,Northern America,United States of America,Texas,,Richardson
198.58.101.76,4,10,howtostayfit.co,US,Americas,Northern America,United States of America,Texas,,Richardson
50.116.24.70,4,4,html-kit.com,US,Americas,Northern America,United States of America,Texas,,Richardson
107.173.122.229,4,-1,htmlcompressor.com,US,Americas,Northern America,United States of America,Texas,,Dallas
52.117.119.105,4,0,huananhai.net,US,Americas,Northern America,United States of America,Texas,,Argyle
69.162.127.7,4,4,humanas.cl,US,Americas,Northern America,United States of America,Texas,,Dallas
23.227.169.65,4,12,humanillnesses.com,US,Americas,Northern America,United States of America,Texas,,Dallas
104.237.129.192,4,15,hwtm.com,US,Americas,Northern America,United States of America,Texas,,Richardson
69.164.207.134,4,1153,hybridmlm.io,US,Americas,Northern America,United States of America,Texas,,Richardson
45.33.8.26,4,5872,i-mpr.com,US,Americas,Northern America,United States of America,Texas,,Richardson
172.104.192.204,4,12,iac.org,US,Americas,Northern America,United States of America,Texas,,Richardson
139.64.176.203,4,9,ianandwendy.com,US,Americas,Northern America,United States of America,Texas,,Dallas
108.168.254.192,4,-33059,ibm.biz,US,Americas,Northern America,United States of America,Texas,,Dallas
69.162.109.251,4,49,iceagefarmer.com,US,Americas,Northern America,United States of America,Texas,,Dallas
71.42.125.218,4,59,icequake.net,US,Americas,Northern America,United States of America,Texas,,Taft
198.46.227.221,4,28,icodeblog.com,US,Americas,Northern America,United States of America,Texas,,Dallas
50.116.19.43,4,1200,iconsolutions360.com,US,Americas,Northern America,United States of America,Texas,,Richardson
45.79.26.6,4,26,icopybot.com,US,Americas,Northern America,United States of America,Texas,,Richardson
107.155.64.20,4,16,icr.org,US,Americas,Northern America,United States of America,Texas,,Dallas
45.79.3.173,4,6,idealprotein.com,US,Americas,Northern America,United States of America,Texas,,Richardson
172.241.131.204,4,21,igcc.com.pe,US,Americas,Northern America,United States of America,Texas,,Dallas
169.60.135.222,4,951,igoldrush.com,US,Americas,Northern America,United States of America,Texas,,
107.155.71.142,4,3,ikfkickboxing.com,US,Americas,Northern America,United States of America,Texas,,Dallas
23.92.66.61,4,17,illusionsgallery.com,US,Americas,Northern America,United States of America,Texas,,Dallas
198.58.113.198,4,39,iloveuguys.org,US,Americas,Northern America,United States of America,Texas,,Richardson
198.58.122.160,4,8,imagemreleases.com,US,Americas,Northern America,United States of America,Texas,,Richardson
45.79.37.137,4,4,imagescape.com,US,Americas,Northern America,United States of America,Texas,,Richardson
45.33.26.63,4,13031,imperfectlyhappy.com,US,Americas,Northern America,United States of America,Texas,,Richardson
38.135.39.225,4,1,imperialvalleynews.com,US,Americas,Northern America,United States of America,Texas,,Dallas
192.53.166.203,4,23,imxsnd23.com,US,Americas,Northern America,United States of America,Texas,,Richardson
45.33.8.217,4,21,imxsnd24.com,US,Americas,Northern America,United States of America,Texas,,Richardson
69.164.195.223,4,78,imxsnd27.com,US,Americas,Northern America,United States of America,Texas,,Richardson
104.237.128.119,4,172,imxsnd28.com,US,Americas,Northern America,United States of America,Texas,,Richardson
45.79.55.253,4,4,imxsnd29.com,US,Americas,Northern America,United States of America,Texas,,Richardson
45.79.49.92,4,37,inclusiveschools.org,US,Americas,Northern America,United States of America,Texas,,Richardson
195.179.202.208,4,46,indianastrology2000.com,US,Americas,Northern America,United States of America,Texas,,Dallas
23.227.172.34,4,-6,indianfoodforever.com,US,Americas,Northern America,United States of America,Texas,,Dallas
45.56.73.44,4,7,indirect.com,US,Americas,Northern America,United States of America,Texas,,Richardson
192.250.227.59,4,3,indoretown.com,US,Americas,Northern America,United States of America,Texas,,Dallas
72.14.177.20,4,7,indypgh.org,US,Americas,Northern America,United States of America,Texas,,Richardson
137.220.50.205,4,4,indypolitics.org,US,Americas,Northern America,United States of America,Texas,,Dallas
45.33.29.71,4,1,innerchildfun.com,US,Americas,Northern America,United States of America,Texas,,Richardson
45.56.70.104,4,50,insfollowup.com,US,Americas,Northern America,United States of America,Texas,,Richardson
69.162.64.218,4,99,installatron.com,US,Americas,Northern America,United States of America,Texas,,Dallas
172.96.138.95,4,42,instantcashtime.com,US,Americas,Northern America,United States of America,Texas,,Dallas
74.63.241.28,4,46,insuranceguide.blog,US,Americas,Northern America,United States of America,Texas,,Dallas
50.116.28.67,4,35,intelliborn.com,US,Americas,Northern America,United States of America,Texas,,Richardson
69.162.65.146,4,18,interlinearbible.org,US,Americas,Northern America,United States of America,Texas,,Dallas
72.14.185.50,4,26,internet4classrooms.com,US,Americas,Northern America,United States of America,Texas,,Richardson
104.237.139.8,4,12,intrastar.net,US,Americas,Northern America,United States of America,Texas,,Richardson
45.33.14.14,4,3,io2technology.com,US,Americas,Northern America,United States of America,Texas,,Richardson
198.58.112.156,4,-2,is-programmer.com,US,Americas,Northern America,United States of America,Texas,,Richardson
107.155.112.233,4,91,islaurbana.org,US,Americas,Northern America,United States of America,Texas,,Dallas
136.62.35.46,4,16,isthisthingon.org,US,Americas,Northern America,United States of America,Texas,,Austin
45.56.72.88,4,27,jake2701.net.au,US,Americas,Northern America,United States of America,Texas,,Richardson
23.239.24.27,4,11,james-taylor.com,US,Americas,Northern America,United States of America,Texas,,Richardson
23.29.117.226,4,33,jamestabor.com,US,Americas,Northern America,United States of America,Texas,,Dallas
52.117.136.103,4,1,japan-guide.com,US,Americas,Northern America,United States of America,Texas,,Argyle
45.79.62.51,4,2,jckonline.com,US,Americas,Northern America,United States of America,Texas,,Richardson
52.117.75.100,4,1,jeansnow.net,US,Americas,Northern America,United States of America,Texas,,Argyle
198.37.123.45,4,7,jeepz.com,US,Americas,Northern America,United States of America,Texas,,Dallas
45.79.23.61,4,1,jeremiahproject.com,US,Americas,Northern America,United States of America,Texas,,Richardson
198.58.100.206,4,97,jerf.org,US,Americas,Northern America,United States of America,Texas,,Richardson
23.239.28.129,4,38455,jerseysbest.com,US,Americas,Northern America,United States of America,Texas,,Richardson
173.255.196.220,4,4,jessamyn.com,US,Americas,Northern America,United States of America,Texas,,Richardson
104.251.213.72,4,2,jmeter-plugins.org,US,Americas,Northern America,United States of America,Texas,,Dallas
50.116.18.242,4,2,jonasautocars.com,US,Americas,Northern America,United States of America,Texas,,Richardson
69.162.64.30,4,27,jordanzad.com,US,Americas,Northern America,United States of America,Texas,,Dallas
104.237.136.245,4,20,jorts.horse,US,Americas,Northern America,United States of America,Texas,,Richardson
72.14.177.241,4,6,jpollackphoto.com,US,Americas,Northern America,United States of America,Texas,,Richardson
94.72.166.58,4,3,jrustonapps.com,US,Americas,Northern America,United States of America,Texas,,Dallas
24.119.67.212,4,-338003,jump-gate.com,US,Americas,Northern America,United States of America,Texas,,Gregory
72.14.182.243,4,13,karaite-korner.org,US,Americas,Northern America,United States of America,Texas,,Richardson
104.200.20.169,4,0,kbeezie.com,US,Americas,Northern America,United States of America,Texas,,Richardson
23.239.31.192,4,4,kclibrary.org,US,Americas,Northern America,United States of America,Texas,,Richardson
130.250.7.26,4,4621464,kellerwilliams.com,US,Americas,Northern America,United States of America,Texas,,Austin
139.178.84.217,4,4348,kernel.org,US,Americas,Northern America,United States of America,Texas,,Dallas
173.255.200.232,4,23,ketoconnect.net,US,Americas,Northern America,United States of America,Texas,,Richardson
66.23.203.210,4,-6,keyway.ca,US,Americas,Northern America,United States of America,Texas,,Dallas
204.109.60.138,4,9,kfu.com,US,Americas,Northern America,United States of America,Texas,,Dallas
198.58.118.211,4,2,kickvick.com,US,Americas,Northern America,United States of America,Texas,,Richardson
69.164.205.41,4,4,kidrex.org,US,Americas,Northern America,United States of America,Texas,,Richardson
66.206.28.37,4,-1,kidsemail.org,US,Americas,Northern America,United States of America,Texas,,Dallas
45.33.120.97,4,8619,kingtowel.com,US,Americas,Northern America,United States of America,Texas,,Richardson
104.200.23.170,4,29,knitty.com,US,Americas,Northern America,United States of America,Texas,,Richardson
45.79.9.66,4,3,kombuchabrewers.org,US,Americas,Northern America,United States of America,Texas,,Richardson
45.33.119.141,4,58,kombuchakamp.com,US,Americas,Northern America,United States of America,Texas,,Richardson
74.81.95.219,4,15,kosherdelight.com,US,Americas,Northern America,United States of America,Texas,,Houston
104.225.208.38,4,0,kshumane.org,US,Americas,Northern America,United States of America,Texas,,Dallas
45.56.68.47,4,11,ksphy.org,US,Americas,Northern America,United States of America,Texas,,Richardson
52.117.206.147,4,4,l-tailor.ru,US,Americas,Northern America,United States of America,Texas,,Argyle
45.79.62.213,4,3,laclerksofcourt.org,US,Americas,Northern America,United States of America,Texas,,Richardson
96.44.188.234,4,-4,lanceandeskimo.com,US,Americas,Northern America,United States of America,Texas,,Dallas
198.58.109.243,4,18,landmarks-stl.org,US,Americas,Northern America,United States of America,Texas,,Richardson
198.58.125.233,4,5,larkmead.com,US,Americas,Northern America,United States of America,Texas,,Richardson
198.58.117.144,4,25,latestbingobonuses.com,US,Americas,Northern America,United States of America,Texas,,Richardson
38.147.122.66,4,22,lavabit.com,US,Americas,Northern America,United States of America,Texas,,Dallas
45.59.163.231,4,800,lavozdelosquesobran.cl,US,Americas,Northern America,United States of America,Texas,,Dallas
45.33.3.80,4,531451,lawnmowerforum.com,US,Americas,Northern America,United States of America,Texas,,Richardson
45.79.5.140,4,943177,lawschoolnumbers.com,US,Americas,Northern America,United States of America,Texas,,Richardson
50.116.23.192,4,4,lawterminology.net,US,Americas,Northern America,United States of America,Texas,,Richardson
205.251.153.71,4,10,lazosdeamormariano.net,US,Americas,Northern America,United States of America,Texas,,Houston
198.252.105.45,4,18,leafo.net,US,Americas,Northern America,United States of America,Texas,,Dallas
72.14.185.115,4,5,lemanmanhattan.org,US,Americas,Northern America,United States of America,Texas,,Richardson
76.241.26.223,4,51,lemmy.nexus,US,Americas,Northern America,United States of America,Texas,,Katy
45.33.23.198,4,12,lemmy.pub,US,Americas,Northern America,United States of America,Texas,,Richardson
173.255.205.40,4,2,lemmy.radio,US,Americas,Northern America,United States of America,Texas,,Richardson
66.232.124.173,4,53,lemmyland.com,US,Americas,Northern America,United States of America,Texas,,Dallas
198.58.118.245,4,2,lender411.com,US,Americas,Northern America,United States of America,Texas,,Richardson
45.56.78.173,4,5,letseat.at,US,Americas,Northern America,United States of America,Texas,,Richardson
72.14.179.17,4,54,leuksman.com,US,Americas,Northern America,United States of America,Texas,,Richardson
96.126.124.44,4,-22,levien.com,US,Americas,Northern America,United States of America,Texas,,Richardson
173.255.205.88,4,16,libraryhost.com,US,Americas,Northern America,United States of America,Texas,,Richardson
192.53.162.101,4,608802,libre.computer,US,Americas,Northern America,United States of America,Texas,,Richardson
216.128.142.246,4,7,lillarose.biz,US,Americas,Northern America,United States of America,Texas,,Dallas
64.31.0.43,4,4,limestonenetworks.com,US,Americas,Northern America,United States of America,Texas,,Dallas
72.14.182.205,4,3,lingro.com,US,Americas,Northern America,United States of America,Texas,,Richardson
38.107.250.212,4,5,linkz.us,US,Americas,Northern America,United States of America,Texas,,Dallas
149.28.249.172,4,19,littleastronomy.com,US,Americas,Northern America,United States of America,Texas,,Dallas
72.14.189.157,4,7,liveaboardvacation.com,US,Americas,Northern America,United States of America,Texas,,Richardson
45.33.18.240,4,56,livingwithbugs.com,US,Americas,Northern America,United States of America,Texas,,Richardson
72.14.183.224,4,2,loaches.com,US,Americas,Northern America,United States of America,Texas,,Richardson
45.33.30.181,4,28,localspins.com,US,Americas,Northern America,United States of America,Texas,,Richardson
50.116.27.112,4,38,lockwiki.com,US,Americas,Northern America,United States of America,Texas,,Richardson
23.227.169.73,4,4,lovetheoutdoors.com,US,Americas,Northern America,United States of America,Texas,,Dallas
198.58.123.78,4,8,lovetopivot.com,US,Americas,Northern America,United States of America,Texas,,Richardson
192.46.218.107,4,2,lovinah.com,US,Americas,Northern America,United States of America,Texas,,Richardson
205.251.155.182,4,15,lrrd.org,US,Americas,Northern America,United States of America,Texas,,Houston
198.58.113.99,4,6,lucknowescorts.co.in,US,Americas,Northern America,United States of America,Texas,,Richardson
104.237.128.32,4,35,lulzbot.com,US,Americas,Northern America,United States of America,Texas,,Richardson
104.237.141.246,4,1,m1911.org,US,Americas,Northern America,United States of America,Texas,,Richardson
192.3.235.12,4,-2,macappstore.org,US,Americas,Northern America,United States of America,Texas,,Dallas
45.79.13.155,4,20,macdroid.app,US,Americas,Northern America,United States of America,Texas,,Richardson
72.14.176.119,4,5,macopinion.com,US,Americas,Northern America,United States of America,Texas,,Richardson
45.33.17.119,4,0,macplay.com,US,Americas,Northern America,United States of America,Texas,,Richardson
45.79.44.16,4,34,magickitchen.com,US,Americas,Northern America,United States of America,Texas,,Richardson
198.58.101.194,4,827926,magikcommerce.com,US,Americas,Northern America,United States of America,Texas,,Richardson
172.93.51.149,4,1,mailnesia.com,US,Americas,Northern America,United States of America,Texas,,Dallas
205.251.153.75,4,1,maimonides.edu,US,Americas,Northern America,United States of America,Texas,,Houston
45.79.17.167,4,5,mainelse.org,US,Americas,Northern America,United States of America,Texas,,Richardson
45.56.127.172,4,3,majadahondamagazin.es,US,Americas,Northern America,United States of America,Texas,,Richardson
104.237.134.92,4,62,makedeb.org,US,Americas,Northern America,United States of America,Texas,,Richardson
198.58.125.170,4,8,mamalisa.com,US,Americas,Northern America,United States of America,Texas,,Richardson
74.81.90.155,4,420,mandiapple.com,US,Americas,Northern America,United States of America,Texas,,Houston
52.117.200.188,4,89,mandumah.com,US,Americas,Northern America,United States of America,Texas,,Argyle
216.251.81.29,4,414404,mante.com,US,Americas,Northern America,United States of America,Texas,,Laredo
192.169.94.4,4,42,marcozero.org,US,Americas,Northern America,United States of America,Texas,,Dallas
69.164.195.216,4,5,mario2020.com,US,Americas,Northern America,United States of America,Texas,,Richardson
66.228.48.61,4,5,markdownpad.com,US,Americas,Northern America,United States of America,Texas,,Richardson
66.228.54.174,4,7,markmaunder.com,US,Americas,Northern America,United States of America,Texas,,Richardson
45.76.234.156,4,13,marshag.ru,US,Americas,Northern America,United States of America,Texas,,Dallas
198.58.106.195,4,32,masterthenec.com,US,Americas,Northern America,United States of America,Texas,,Richardson
108.181.54.77,4,59,masthead.social,US,Americas,Northern America,United States of America,Texas,,Dallas
45.43.3.11,4,6,matazone.co.uk,US,Americas,Northern America,United States of America,Texas,,Dallas
45.79.240.90,4,5,matcherino.com,US,Americas,Northern America,United States of America,Texas,,Richardson
45.79.240.119,4,40,matcherino.com,US,Americas,Northern America,United States of America,Texas,,Richardson
45.79.242.58,4,18,matcherino.com,US,Americas,Northern America,United States of America,Texas,,Richardson
45.79.60.231,4,4,matcherino.com,US,Americas,Northern America,United States of America,Texas,,Richardson
198.58.121.243,4,12,matcherino.com,US,Americas,Northern America,United States of America,Texas,,Richardson
45.79.243.217,4,13,matcherino.com,US,Americas,Northern America,United States of America,Texas,,Richardson
45.79.242.64,4,13,matcherino.com,US,Americas,Northern America,United States of America,Texas,,Richardson
45.79.240.238,4,13,matcherino.com,US,Americas,Northern America,United States of America,Texas,,Richardson
45.79.241.90,4,1,matcherino.com,US,Americas,Northern America,United States of America,Texas,,Richardson
45.79.60.226,4,3,matcherino.com,US,Americas,Northern America,United States of America,Texas,,Richardson
45.79.61.126,4,4,matcherino.com,US,Americas,Northern America,United States of America,Texas,,Richardson
45.79.242.230,4,7,matcherino.com,US,Americas,Northern America,United States of America,Texas,,Richardson
45.79.60.202,4,2,matcherino.com,US,Americas,Northern America,United States of America,Texas,,Richardson
104.200.23.38,4,3,matcherino.com,US,Americas,Northern America,United States of America,Texas,,Richardson
45.79.60.68,4,5,matcherino.com,US,Americas,Northern America,United States of America,Texas,,Richardson
198.58.121.202,4,81,matcherino.com,US,Americas,Northern America,United States of America,Texas,,Richardson
45.79.61.87,4,3,matcherino.com,US,Americas,Northern America,United States of America,Texas,,Richardson
45.79.63.26,4,23,matcherino.com,US,Americas,Northern America,United States of America,Texas,,Richardson
45.79.240.112,4,2,matcherino.com,US,Americas,Northern America,United States of America,Texas,,Richardson
45.79.62.66,4,16,matcherino.com,US,Americas,Northern America,United States of America,Texas,,Richardson
198.58.126.97,4,30,mathmammoth.com,US,Americas,Northern America,United States of America,Texas,,Richardson
144.168.41.150,4,12,maxit.com.bd,US,Americas,Northern America,United States of America,Texas,,Dallas
45.79.15.252,4,343,mccartney.com,US,Americas,Northern America,United States of America,Texas,,Richardson
104.237.131.42,4,1,measurement-factory.com,US,Americas,Northern America,United States of America,Texas,,Richardson
45.33.13.14,4,3,mediasmartserver.net,US,Americas,Northern America,United States of America,Texas,,Richardson
198.58.96.208,4,7,medymesh.com,US,Americas,Northern America,United States of America,Texas,,Richardson
108.65.49.10,4,7,mega.nu,US,Americas,Northern America,United States of America,Texas,,Houston
172.245.243.62,4,17,melodika.net,US,Americas,Northern America,United States of America,Texas,,Dallas
104.237.128.92,4,154,merchantequip.com,US,Americas,Northern America,United States of America,Texas,,Richardson
72.14.188.201,4,13,mercopress.com,US,Americas,Northern America,United States of America,Texas,,Richardson
169.46.71.186,4,4,mercuriocalama.cl,US,Americas,Northern America,United States of America,Texas,,Irving
198.58.127.208,4,255,mercuryresearch.com,US,Americas,Northern America,United States of America,Texas,,Richardson
104.193.225.99,4,18,meridies.org,US,Americas,Northern America,United States of America,Texas,,Dallas
149.28.245.5,4,17,metaphilm.com,US,Americas,Northern America,United States of America,Texas,,Dallas
173.255.198.10,4,13,mgba.io,US,Americas,Northern America,United States of America,Texas,,Richardson
184.24.54.163,4,3,michaelscustomframing.com,US,Americas,Northern America,United States of America,Texas,,Irving
104.200.22.215,4,20,micro.blog,US,Americas,Northern America,United States of America,Texas,,Richardson
69.164.193.143,4,10,midwinter.com,US,Americas,Northern America,United States of America,Texas,,Richardson
23.227.169.76,4,7,minddisorders.com,US,Americas,Northern America,United States of America,Texas,,Dallas
45.33.31.25,4,5,missingremote.com,US,Americas,Northern America,United States of America,Texas,,Richardson
12.5.205.166,4,20,misterart.com,US,Americas,Northern America,United States of America,Texas,,Kingwood
45.56.69.245,4,7,moabmusicfest.org,US,Americas,Northern America,United States of America,Texas,,Richardson
66.232.124.26,4,8,mobiletechnews.com,US,Americas,Northern America,United States of America,Texas,,Dallas
107.155.68.68,4,12,momsview.com,US,Americas,Northern America,United States of America,Texas,,Dallas
38.68.135.120,4,-1,mondinion.com,US,Americas,Northern America,United States of America,Texas,,Dallas
69.42.51.8,4,170715,monstersinmotion.com,US,Americas,Northern America,United States of America,Texas,,Dallas
198.58.115.113,4,50,montanaangler.com,US,Americas,Northern America,United States of America,Texas,,Richardson
194.195.218.39,4,20,moodychurch.org,US,Americas,Northern America,United States of America,Texas,,Richardson
104.200.17.166,4,23,moregogiga.com,US,Americas,Northern America,United States of America,Texas,,Richardson
72.14.184.178,4,1878916,moreofit.com,US,Americas,Northern America,United States of America,Texas,,Richardson
104.225.220.14,4,8,morningstarsecurity.com,US,Americas,Northern America,United States of America,Texas,,Dallas
23.94.62.214,4,32,mosaiique.com,US,Americas,Northern America,United States of America,Texas,,Dallas
45.79.31.233,4,-7659,moserengineering.com,US,Americas,Northern America,United States of America,Texas,,Richardson
170.130.40.34,4,2,mp3joiner.org,US,Americas,Northern America,United States of America,Texas,,Dallas
172.93.51.67,4,7,mr2.com,US,Americas,Northern America,United States of America,Texas,,Dallas
66.187.76.40,4,10,msadams.com,US,Americas,Northern America,United States of America,Texas,,Houston
50.116.22.234,4,9,msu.ac.zw,US,Americas,Northern America,United States of America,Texas,,Richardson
97.77.46.57,4,2303502,msutexas.edu,US,Americas,Northern America,United States of America,Texas,,Wichita Falls
198.37.123.126,4,1605,much.pw,US,Americas,Northern America,United States of America,Texas,,Dallas
72.14.181.158,4,68,mudlet.org,US,Americas,Northern America,United States of America,Texas,,Richardson
198.252.100.132,4,0,mugshotsonline.com,US,Americas,Northern America,United States of America,Texas,,
199.231.164.70,4,5,musicbanter.com,US,Americas,Northern America,United States of America,Texas,,Dallas
205.251.145.43,4,63,mustangv8.com,US,Americas,Northern America,United States of America,Texas,,Houston
172.99.148.43,4,11,muzu.tv,US,Americas,Northern America,United States of America,Texas,,Dallas
72.14.176.142,4,2,mxdwn.com,US,Americas,Northern America,United States of America,Texas,,Richardson
23.92.76.43,4,18,mydollarplan.com,US,Americas,Northern America,United States of America,Texas,,Dallas
71.40.108.128,4,33,myownmeeting.net,US,Americas,Northern America,United States of America,Texas,,San Antonio
192.252.223.47,4,26,mysabah.com,US,Americas,Northern America,United States of America,Texas,,Dallas
23.227.169.69,4,9,mythencyclopedia.com,US,Americas,Northern America,United States of America,Texas,,Dallas
38.135.34.85,4,-477,mythosandlogos.com,US,Americas,Northern America,United States of America,Texas,,Dallas
198.58.97.164,4,26,myumi.ch,US,Americas,Northern America,United States of America,Texas,,Richardson
108.60.213.182,4,10,mywi-fiext.net,US,Americas,Northern America,United States of America,Texas,,Crowley
104.237.135.47,4,2,n5hme.net,US,Americas,Northern America,United States of America,Texas,,Richardson
198.58.106.10,4,185452,n9ink.net,US,Americas,Northern America,United States of America,Texas,,Richardson
50.201.93.60,4,3,na.edu,US,Americas,Northern America,United States of America,Texas,,Stafford
45.56.123.251,4,2964,nagios-plugins.org,US,Americas,Northern America,United States of America,Texas,,Richardson
198.58.120.98,4,-34063,nagios.com,US,Americas,Northern America,United States of America,Texas,,Richardson
45.79.21.111,4,488009,nagios.org,US,Americas,Northern America,United States of America,Texas,,Richardson
192.154.228.217,4,200,nat32.com,US,Americas,Northern America,United States of America,Texas,,Dallas
45.56.70.77,4,2,nationalpolicyinstitute.org,US,Americas,Northern America,United States of America,Texas,,Richardson
23.227.169.80,4,15,nationsencyclopedia.com,US,Americas,Northern America,United States of America,Texas,,Dallas
169.60.153.60,4,0,navsource.org,US,Americas,Northern America,United States of America,Texas,,
45.79.31.149,4,4,nbp.org,US,Americas,Northern America,United States of America,Texas,,Richardson
192.250.227.29,4,9,ndbcasinos.com,US,Americas,Northern America,United States of America,Texas,,Dallas
198.58.116.74,4,5,ndclean.com,US,Americas,Northern America,United States of America,Texas,,Richardson
45.33.24.195,4,2,neareast.org,US,Americas,Northern America,United States of America,Texas,,Richardson
198.58.121.174,4,5,neighborhoodlink.com,US,Americas,Northern America,United States of America,Texas,,Richardson
45.33.15.80,4,494955,neosportsinsiders.com,US,Americas,Northern America,United States of America,Texas,,Richardson
154.16.200.27,4,8,nerdvittles.com,US,Americas,Northern America,United States of America,Texas,,Dallas
45.33.118.110,4,5,netc.com,US,Americas,Northern America,United States of America,Texas,,Richardson
23.150.248.139,4,3,neuromatch.io,US,Americas,Northern America,United States of America,Texas,,Dallas
198.58.107.122,4,68,new2new.com,US,Americas,Northern America,United States of America,Texas,,Richardson
45.33.21.184,4,3,newgamenetwork.com,US,Americas,Northern America,United States of America,Texas,,Richardson
173.255.206.183,4,39,newocr.com,US,Americas,Northern America,United States of America,Texas,,Richardson
107.155.82.26,4,22,neworleansonline.com,US,Americas,Northern America,United States of America,Texas,,Dallas
104.237.129.73,4,2,nicfit.net,US,Americas,Northern America,United States of America,Texas,,Richardson
198.252.105.84,4,3,nikeshopjapan.com,US,Americas,Northern America,United States of America,Texas,,Dallas
129.116.119.41,4,3,nisod.org,US,Americas,Northern America,United States of America,Texas,,Pflugerville
45.33.17.69,4,4,nissansilvia.com,US,Americas,Northern America,United States of America,Texas,,Richardson
45.33.10.198,4,3,nixiediy.com,US,Americas,Northern America,United States of America,Texas,,Richardson
198.252.105.91,4,3,noah-health.org,US,Americas,Northern America,United States of America,Texas,,Dallas
173.255.202.68,4,-14701,nokanitile.com,US,Americas,Northern America,United States of America,Texas,,Richardson
66.232.124.250,4,-8,nondisclosureagreement.com,US,Americas,Northern America,United States of America,Texas,,Dallas
23.227.169.86,4,2,nonprofitfacts.com,US,Americas,Northern America,United States of America,Texas,,Dallas
192.154.224.175,4,27,northendwaterfront.com,US,Americas,Northern America,United States of America,Texas,,Dallas
45.56.122.98,4,2,northernsun.com,US,Americas,Northern America,United States of America,Texas,,Richardson
23.227.169.83,4,29,notablebiographies.com,US,Americas,Northern America,United States of America,Texas,,Dallas
45.56.71.66,4,20,novalauncher.com,US,Americas,Northern America,United States of America,Texas,,Richardson
208.115.200.90,4,5,nuc.edu.ng,US,Americas,Northern America,United States of America,Texas,,Dallas
66.206.19.58,4,-6,nuevaya.com.ni,US,Americas,Northern America,United States of America,Texas,,Dallas
74.81.94.139,4,862,numerologymasters.co,US,Americas,Northern America,United States of America,Texas,,Houston
208.86.167.34,4,2,nytsyn.com,US,Americas,Northern America,United States of America,Texas,,Dallas
216.230.233.12,4,3,oasisdesign.net,US,Americas,Northern America,United States of America,Texas,,Houston
50.116.27.244,4,1114552,oblong.com,US,Americas,Northern America,United States of America,Texas,,Richardson
198.58.102.38,4,668246,oblong.com,US,Americas,Northern America,United States of America,Texas,,Richardson
198.58.99.41,4,4,officialpsds.com,US,Americas,Northern America,United States of America,Texas,,Richardson
216.189.159.252,4,27,olegkikin.com,US,Americas,Northern America,United States of America,Texas,,Dallas
45.79.58.193,4,1,onelmon.com,US,Americas,Northern America,United States of America,Texas,,Richardson
45.79.21.66,4,6,onesaas.com,US,Americas,Northern America,United States of America,Texas,,Richardson
130.250.4.191,4,3,onlineagency.com,US,Americas,Northern America,United States of America,Texas,,Austin
192.3.236.5,4,-7,onlinesexshop.co.il,US,Americas,Northern America,United States of America,Texas,,Dallas
198.252.100.235,4,3,onlycutecats.com,US,Americas,Northern America,United States of America,Texas,,
205.251.145.62,4,1,onmason.com,US,Americas,Northern America,United States of America,Texas,,Houston
216.183.48.125,4,7739649,Ookla Speedtest Server 13361: st1.vtx1.net,US,Americas,Northern America,United States of America,Texas,,Brownsville
146.6.21.55,4,210,Ookla Speedtest Server 16089: speedtest.network.utexas.edu,US,Americas,Northern America,United States of America,Texas,,Austin
91.190.106.20,4,14,Ookla Speedtest Server 16259: speedtest.dallas.macarne.com,US,Americas,Northern America,United States of America,Texas,,Dallas
72.22.198.11,4,166,Ookla Speedtest Server 18387: speedtest.mblinktx.net,US,Americas,Northern America,United States of America,Texas,,Baytown
64.88.193.114,4,194,Ookla Speedtest Server 22118: spd1.sctel.co,US,Americas,Northern America,United States of America,Texas,,Brownsville
64.88.193.115,4,242,Ookla Speedtest Server 22119: spd2.sctel.co,US,Americas,Northern America,United States of America,Texas,,Brownsville
67.216.253.201,4,198,Ookla Speedtest Server 22488: ookla1.etex.net,US,Americas,Northern America,United States of America,Texas,,Gilmer
66.220.128.62,4,408,Ookla Speedtest Server 26472: speedtest.coloradovalley.com,US,Americas,Northern America,United States of America,Texas,,La Grange
97.64.66.101,4,373,Ookla Speedtest Server 45323: ookla.ceoetc.com,US,Americas,Northern America,United States of America,Texas,,College Station
206.220.163.250,4,212,Ookla Speedtest Server 47732: speedtest.cceca.net,US,Americas,Northern America,United States of America,Texas,,Tyler
38.104.165.235,4,174,Ookla Speedtest Server 48375: speedtest2.hctc.net,US,Americas,Northern America,United States of America,Texas,,San Antonio
205.171.31.10,4,194,Ookla Speedtest Server 53405: houston.speedtest.brightspeed.com,US,Americas,Northern America,United States of America,Texas,,Houston
205.171.225.70,4,263,Ookla Speedtest Server 53434: killeen.speedtest.brightspeed.com,US,Americas,Northern America,United States of America,Texas,,Killeen
38.122.30.28,4,150,Ookla Speedtest Server 54279: speedtest-dallas.swyftfiber.com,US,Americas,Northern America,United States of America,Texas,,Dallas
195.252.239.255,4,151,Ookla Speedtest Server 54983: speedtest.bryntxaa.metronetinc.com,US,Americas,Northern America,United States of America,Texas,,Bryan
2.56.188.136,4,323,Ookla Speedtest Server 57114: dal.speedtest.clouvider.net,US,Americas,Northern America,United States of America,Texas,,Dallas
184.105.91.3,4,373,Ookla Speedtest Server 58493: speedtest.centrallink.com,US,Americas,Northern America,United States of America,Texas,,Waco
64.209.212.36,4,275,Ookla Speedtest Server 60286: speedtest.brownsville.lit-fiber.com,US,Americas,Northern America,United States of America,Texas,,Weslaco
23.160.104.2,4,315,Ookla Speedtest Server 62460: speedtest.stratoone.com,US,Americas,Northern America,United States of America,Texas,,El Paso
205.201.54.243,4,164,Ookla Speedtest Server 62496: speedtest.smartburst.com,US,Americas,Northern America,United States of America,Texas,,Aubrey
38.172.115.250,4,254,Ookla Speedtest Server 63168: speedtestlrdo.vexusfiber.com,US,Americas,Northern America,United States of America,Texas,,Laredo
23.135.240.226,4,227,Ookla Speedtest Server 63281: sat.fast.nexstream.net,US,Americas,Northern America,United States of America,Texas,,Fredericksburg
104.141.245.94,4,5968,Ookla Speedtest Server 63637: akrd-speedtest.loni.org,US,Americas,Northern America,United States of America,Texas,,Dallas
67.219.122.218,4,298,Ookla Speedtest Server 63697: speedtest3.dal.nxlink.com,US,Americas,Northern America,United States of America,Texas,,Weatherford
134.195.6.33,4,331,Ookla Speedtest Server 64043: speedtest.cenosnetworks.net,US,Americas,Northern America,United States of America,Texas,,Dallas
67.207.122.203,4,299,Ookla Speedtest Server 64168: houho0001speedtestserver01.wiline.com,US,Americas,Northern America,United States of America,Texas,,Houston
200.25.89.119,4,327,Ookla Speedtest Server 64884: spt-dal1.edgeuno.com,US,Americas,Northern America,United States of America,Texas,,Dallas
24.155.96.97,4,319,Ookla Speedtest Server: aus-speedtest.grandecom.net,US,Americas,Northern America,United States of America,Texas,,Corpus Christi
66.90.130.107,4,296,Ookla Speedtest Server: speedtest.grandecom.net,US,Americas,Northern America,United States of America,Texas,,Buda
184.105.34.242,4,204,Ookla Speedtest Server: speedtest.ifnetwork.biz,US,Americas,Northern America,United States of America,Texas,,Axtell
207.70.171.85,4,170,Ookla Speedtest Server: speedtest.tx.mycci.net,US,Americas,Northern America,United States of America,Texas,,Splendora
208.180.43.202,4,141,Ookla Speedtest Server: speedtest01.suddenlink.net,US,Americas,Northern America,United States of America,Texas,,College Station
63.160.156.88,4,83469,Ookla Speedtest Server: speedtest1.nortex.com,US,Americas,Northern America,United States of America,Texas,,Dallas
66.76.75.98,4,26,Ookla Speedtest Server: speedtest23.suddenlink.net,US,Americas,Northern America,United States of America,Texas,,Breckenridge
69.164.202.174,4,930785,opalstack.com,US,Americas,Northern America,United States of America,Texas,,Richardson
52.117.149.155,4,4,opencroquet.org,US,Americas,Northern America,United States of America,Texas,,Argyle
216.245.197.134,4,31,openjournalsystems.com,US,Americas,Northern America,United States of America,Texas,,Dallas
23.239.29.5,4,59,openspeedtest.com,US,Americas,Northern America,United States of America,Texas,,Richardson
45.33.11.152,4,3,optimusfutures.com,US,Americas,Northern America,United States of America,Texas,,Richardson
45.79.38.232,4,14,orgasmicchef.com,US,Americas,Northern America,United States of America,Texas,,Richardson
192.169.82.226,4,27,osclaz.com,US,Americas,Northern America,United States of America,Texas,,Dallas
72.14.190.232,4,34,osdever.net,US,Americas,Northern America,United States of America,Texas,,Richardson
173.255.194.185,4,1044641,otakusoftware.com,US,Americas,Northern America,United States of America,Texas,,Richardson
148.153.88.162,4,23,ouku.com,US,Americas,Northern America,United States of America,Texas,,Dallas
216.245.210.34,4,5,ourgroceries.com,US,Americas,Northern America,United States of America,Texas,,Dallas
108.181.242.137,4,24,owink.com,US,Americas,Northern America,United States of America,Texas,,Dallas
74.81.95.251,4,28,ozebook.com,US,Americas,Northern America,United States of America,Texas,,Houston
104.225.218.133,4,-2,p-tweets.com,US,Americas,Northern America,United States of America,Texas,,Dallas
45.79.38.58,4,2,pad19.com,US,Americas,Northern America,United States of America,Texas,,Richardson
149.28.240.136,4,13,pagetutor.com,US,Americas,Northern America,United States of America,Texas,,Dallas
172.105.136.245,4,1186,paginaswebschile.com,US,Americas,Northern America,United States of America,Texas,,Richardson
52.117.212.210,4,69,palabravirtual.com,US,Americas,Northern America,United States of America,Texas,,Argyle
184.105.139.166,4,13,paparazziuav.org,US,Americas,Northern America,United States of America,Texas,,Dallas
198.58.106.71,4,17,papercraftsquare.com,US,Americas,Northern America,United States of America,Texas,,Richardson
139.64.135.204,4,5,papers-land.com,US,Americas,Northern America,United States of America,Texas,,Dallas
45.79.56.252,4,1507396,papersource.com,US,Americas,Northern America,United States of America,Texas,,Richardson
169.46.82.190,4,18,papertrailapp.com,US,Americas,Northern America,United States of America,Texas,,Irving
45.79.3.91,4,1102,paranoidproductions.com,US,Americas,Northern America,United States of America,Texas,,Richardson
50.116.28.149,4,11,parentingsquad.com,US,Americas,Northern America,United States of America,Texas,,Richardson
162.213.194.106,4,37,parlamentario.com,US,Americas,Northern America,United States of America,Texas,,Dallas
170.39.213.90,4,78,partidoverde.org.mx,US,Americas,Northern America,United States of America,Texas,,Dallas
192.250.227.130,4,38,partnersinternational.com,US,Americas,Northern America,United States of America,Texas,,Dallas
45.33.116.197,4,22,patternindy.com,US,Americas,Northern America,United States of America,Texas,,Richardson
198.58.96.217,4,7,pemachodronfoundation.org,US,Americas,Northern America,United States of America,Texas,,Richardson
69.164.197.216,4,47,pennherb.com,US,Americas,Northern America,United States of America,Texas,,Richardson
96.126.116.56,4,4,pentest-standard.org,US,Americas,Northern America,United States of America,Texas,,Richardson
144.202.78.196,4,13,pericom.com,US,Americas,Northern America,United States of America,Texas,,Dallas
173.255.196.65,4,58,perlmaven.com,US,Americas,Northern America,United States of America,Texas,,Richardson
50.116.19.197,4,25,persianfootball.com,US,Americas,Northern America,United States of America,Texas,,Richardson
45.79.49.240,4,17,personality-testing.info,US,Americas,Northern America,United States of America,Texas,,Richardson
192.250.227.35,4,8,petroservice-eg.com,US,Americas,Northern America,United States of America,Texas,,Dallas
107.174.236.19,4,6,pgg369.mobi,US,Americas,Northern America,United States of America,Texas,,Dallas
23.95.43.201,4,4,pgspin99.mobi,US,Americas,Northern America,United States of America,Texas,,Dallas
198.252.100.173,4,10,phatcode.net,US,Americas,Northern America,United States of America,Texas,,
45.33.25.170,4,1388,philipjohnsonglasshouse.org,US,Americas,Northern America,United States of America,Texas,,Richardson
172.96.189.106,4,13,pho777au.com,US,Americas,Northern America,United States of America,Texas,,
23.227.169.85,4,142,photo-dictionary.com,US,Americas,Northern America,United States of America,Texas,,Dallas
66.228.54.180,4,14,piauihoje.com,US,Americas,Northern America,United States of America,Texas,,Richardson
69.164.204.168,4,3,picbackman.com,US,Americas,Northern America,United States of America,Texas,,Richardson
72.14.182.189,4,42,pidplates.us,US,Americas,Northern America,United States of America,Texas,,Richardson
205.251.153.14,4,10,pikapp.org,US,Americas,Northern America,United States of America,Texas,,Houston
23.92.76.237,4,394,pinkertonsbarbecue.com,US,Americas,Northern America,United States of America,Texas,,Dallas
198.252.105.85,4,43,pitsirikos.net,US,Americas,Northern America,United States of America,Texas,,Dallas
108.181.242.138,4,3,playtrucos.com,US,Americas,Northern America,United States of America,Texas,,Dallas
192.250.227.27,4,9,plixsite.net,US,Americas,Northern America,United States of America,Texas,,Dallas
66.228.55.224,4,22,plover.net,US,Americas,Northern America,United States of America,Texas,,Richardson
205.251.153.33,4,4,pmms-online.com,US,Americas,Northern America,United States of America,Texas,,Houston
181.214.152.19,4,48,pogsof.com,US,Americas,Northern America,United States of America,Texas,,Dallas
23.92.79.58,4,15,pokerchipforum.com,US,Americas,Northern America,United States of America,Texas,,Dallas
23.227.169.93,4,69,pollutionissues.com,US,Americas,Northern America,United States of America,Texas,,Dallas
108.181.221.254,4,61,populardirectory.biz,US,Americas,Northern America,United States of America,Texas,,Dallas
136.49.119.86,4,42,possumpat.io,US,Americas,Northern America,United States of America,Texas,,Austin
104.237.136.195,4,44,postaltimes.com,US,Americas,Northern America,United States of America,Texas,,Richardson
66.228.49.60,4,48,postcount.net,US,Americas,Northern America,United States of America,Texas,,Richardson
107.191.44.239,4,46,postnuke.com,US,Americas,Northern America,United States of America,Texas,,Dallas
45.56.74.214,4,13,pr-agencia.com,US,Americas,Northern America,United States of America,Texas,,Richardson
66.135.62.211,4,1130222,premierwholesaler.com,US,Americas,Northern America,United States of America,Texas,,San Antonio
23.227.169.94,4,49,presidentprofiles.com,US,Americas,Northern America,United States of America,Texas,,Dallas
104.237.128.178,4,51,princessleia.com,US,Americas,Northern America,United States of America,Texas,,Richardson
50.116.24.184,4,7,printglobe.com,US,Americas,Northern America,United States of America,Texas,,Richardson
45.79.241.242,4,53,pristineauction.com,US,Americas,Northern America,United States of America,Texas,,Richardson
172.97.66.164,4,4,privacyparrot.com,US,Americas,Northern America,United States of America,Texas,,Dallas
198.58.124.137,4,7,productupload.com,US,Americas,Northern America,United States of America,Texas,,Richardson
72.14.190.203,4,85,profitablesites.net,US,Americas,Northern America,United States of America,Texas,,Richardson
198.58.125.43,4,2,prohockeyrumors.com,US,Americas,Northern America,United States of America,Texas,,Richardson
45.33.30.171,4,134,prolifedallas.org,US,Americas,Northern America,United States of America,Texas,,Richardson
169.60.133.82,4,15,purchasingjobs.com,US,Americas,Northern America,United States of America,Texas,,
45.33.124.34,4,10,pureintimacy.org,US,Americas,Northern America,United States of America,Texas,,Richardson
72.14.176.181,4,25,puremtgo.com,US,Americas,Northern America,United States of America,Texas,,Richardson
45.56.66.169,4,8,pvoutput.org,US,Americas,Northern America,United States of America,Texas,,Richardson
45.33.123.222,4,-19,pycrypto.org,US,Americas,Northern America,United States of America,Texas,,Richardson
96.126.125.117,4,4,pyropus.ca,US,Americas,Northern America,United States of America,Texas,,Richardson
104.237.143.20,4,8,pythonprogramming.net,US,Americas,Northern America,United States of America,Texas,,Richardson
45.32.197.163,4,2,qbtoolhub.com,US,Americas,Northern America,United States of America,Texas,,Dallas
34.174.206.164,4,4,qualitycarriers.com,US,Americas,Northern America,United States of America,Texas,,Dallas
45.33.11.26,4,17,quantifiedself.com,US,Americas,Northern America,United States of America,Texas,,Richardson
45.79.16.226,4,17,quickmeme.com,US,Americas,Northern America,United States of America,Texas,,Richardson
169.46.25.183,4,35,quilterscache.com,US,Americas,Northern America,United States of America,Texas,,Irving
72.14.177.30,4,3,qumsiyeh.org,US,Americas,Northern America,United States of America,Texas,,Richardson
64.132.6.140,4,1,quorumreport.com,US,Americas,Northern America,United States of America,Texas,,San Antonio
198.58.109.140,4,5,quotegarden.com,US,Americas,Northern America,United States of America,Texas,,Richardson
69.162.96.3,4,93,raidcontrol.com,US,Americas,Northern America,United States of America,Texas,,Dallas
104.200.20.56,4,9,rcherz.com,US,Americas,Northern America,United States of America,Texas,,Richardson
45.56.120.29,4,7,rcherz.com,US,Americas,Northern America,United States of America,Texas,,Richardson
104.200.16.210,4,5,rcwarshipcombat.com,US,Americas,Northern America,United States of America,Texas,,Richardson
23.227.169.64,4,28,readperiodicals.com,US,Americas,Northern America,United States of America,Texas,,Dallas
104.200.22.112,4,56,realtown.com,US,Americas,Northern America,United States of America,Texas,,Richardson
69.162.122.206,4,13,redingtongroup.com,US,Americas,Northern America,United States of America,Texas,,Dallas
104.237.130.189,4,23,redsymbol.net,US,Americas,Northern America,United States of America,Texas,,Richardson
45.79.240.21,4,7,redwoodartgroup.com,US,Americas,Northern America,United States of America,Texas,,Richardson
23.227.169.70,4,26,referenceforbusiness.com,US,Americas,Northern America,United States of America,Texas,,Dallas
174.34.133.199,4,-30,referralfrenzy.com,US,Americas,Northern America,United States of America,Texas,,Dallas
198.58.110.40,4,1019665,refleqtion.net,US,Americas,Northern America,United States of America,Texas,,Richardson
198.58.122.158,4,54,refreshthing.com,US,Americas,Northern America,United States of America,Texas,,Richardson
198.58.122.144,4,56,regulardream.com,US,Americas,Northern America,United States of America,Texas,,Richardson
69.164.203.135,4,56,reinisfischer.com,US,Americas,Northern America,United States of America,Texas,,Richardson
45.33.127.173,4,56,relationships.com.au,US,Americas,Northern America,United States of America,Texas,,Richardson
45.79.20.199,4,44,releasespress.com,US,Americas,Northern America,United States of America,Texas,,Richardson
192.154.228.20,4,7,relfe.com,US,Americas,Northern America,United States of America,Texas,,Dallas
104.237.134.152,4,16,remodelingmagazine.co,US,Americas,Northern America,United States of America,Texas,,Richardson
139.144.37.159,4,81,resourcesforclients.com,US,Americas,Northern America,United States of America,Texas,,Richardson
173.237.185.202,4,13,retiredbrains.com,US,Americas,Northern America,United States of America,Texas,,Dallas
173.255.202.211,4,-25,reusethisbag.com,US,Americas,Northern America,United States of America,Texas,,Richardson
185.106.241.55,4,7,revesoft.com,US,Americas,Northern America,United States of America,Texas,,Dallas
45.79.24.64,4,27,revistadelauniversidad.mx,US,Americas,Northern America,United States of America,Texas,,Richardson
94.72.176.101,4,16,reviveadservermod.com,US,Americas,Northern America,United States of America,Texas,,Dallas
169.60.149.197,4,22,rforge.net,US,Americas,Northern America,United States of America,Texas,,
23.227.169.91,4,3,richinstyle.com,US,Americas,Northern America,United States of America,Texas,,Dallas
174.136.11.74,4,9,rimuhosting.com,US,Americas,Northern America,United States of America,Texas,,Dallas
47.190.90.80,4,23,ringofsaturn.com,US,Americas,Northern America,United States of America,Texas,,Plano
66.228.50.132,4,48,rinkworks.com,US,Americas,Northern America,United States of America,Texas,,Richardson
45.56.120.189,4,6,rmconservancy.org,US,Americas,Northern America,United States of America,Texas,,Richardson
198.58.105.110,4,45,rocksdigital.com,US,Americas,Northern America,United States of America,Texas,,Richardson
45.56.68.133,4,35,roguefab.com,US,Americas,Northern America,United States of America,Texas,,Richardson
104.237.134.14,4,56,rudisbakery.com,US,Americas,Northern America,United States of America,Texas,,Richardson
45.79.18.30,4,111,rusa.org,US,Americas,Northern America,United States of America,Texas,,Richardson
45.33.25.10,4,1661,russiahousenews.info,US,Americas,Northern America,United States of America,Texas,,Richardson
45.79.45.29,4,13,sacramentostepsforward.org,US,Americas,Northern America,United States of America,Texas,,Richardson
173.255.197.238,4,585374,sadio.org.ar,US,Americas,Northern America,United States of America,Texas,,Richardson
45.56.121.171,4,33,safetyinfo.com,US,Americas,Northern America,United States of America,Texas,,Richardson
104.237.137.108,4,29,salesbacker.com,US,Americas,Northern America,United States of America,Texas,,Richardson
172.104.199.67,4,34,salsa.net,US,Americas,Northern America,United States of America,Texas,,Richardson
104.225.221.209,4,0,samurai.fm,US,Americas,Northern America,United States of America,Texas,,Dallas
74.63.240.170,4,11850,sarayanews.com,US,Americas,Northern America,United States of America,Texas,,Dallas
69.164.194.224,4,11,sarecycling.com,US,Americas,Northern America,United States of America,Texas,,Richardson
63.142.252.87,4,5,satisfyingeats.com,US,Americas,Northern America,United States of America,Texas,,Dallas
23.145.80.23,4,33,saudesulamericasa.com.br,US,Americas,Northern America,United States of America,Texas,,Dallas
72.14.182.240,4,8,savingseafood.org,US,Americas,Northern America,United States of America,Texas,,Richardson
216.245.198.186,4,5,sawaleif.com,US,Americas,Northern America,United States of America,Texas,,Dallas
74.81.90.59,4,472,scarletbuckeye.com,US,Americas,Northern America,United States of America,Texas,,Houston
192.154.229.6,4,-233,scarlettabakes.com,US,Americas,Northern America,United States of America,Texas,,Dallas
104.128.239.66,4,6,schoolrack.com,US,Americas,Northern America,United States of America,Texas,,Dallas
23.227.169.74,4,18,scienceclarified.com,US,Americas,Northern America,United States of America,Texas,,Dallas
74.63.245.138,4,2,scripturetext.com,US,Americas,Northern America,United States of America,Texas,,Dallas
71.40.108.23,4,53,searchusapeople.com,US,Americas,Northern America,United States of America,Texas,,San Antonio
205.251.155.83,4,20,sec.gov.ng,US,Americas,Northern America,United States of America,Texas,,Houston
50.210.208.210,4,5,secform4.com,US,Americas,Northern America,United States of America,Texas,,Houston
67.221.142.67,4,25,securitybase.com,US,Americas,Northern America,United States of America,Texas,,Mount Pleasant
72.14.185.244,4,12,sedition.com,US,Americas,Northern America,United States of America,Texas,,Richardson
207.210.245.134,4,4,selinuxproject.org,US,Americas,Northern America,United States of America,Texas,,Princeton
104.200.159.139,4,10,send2press.com,US,Americas,Northern America,United States of America,Texas,,Dallas
208.115.240.124,4,-12014556,seodigger.com,US,Americas,Northern America,United States of America,Texas,,Dallas
45.33.13.195,4,1,seolium.com,US,Americas,Northern America,United States of America,Texas,,Richardson
45.79.36.240,4,16,severestudios.com,US,Americas,Northern America,United States of America,Texas,,Richardson
198.58.106.246,4,2,shapeof.com,US,Americas,Northern America,United States of America,Texas,,Richardson
104.69.92.235,4,15,shoplocal.com,US,Americas,Northern America,United States of America,Texas,,Irving
104.200.22.101,4,12,shopwiki.com,US,Americas,Northern America,United States of America,Texas,,Richardson
107.155.113.122,4,3,shotgunlife.com,US,Americas,Northern America,United States of America,Texas,,Dallas
208.66.150.130,4,13,sidrichardsonmuseum.org,US,Americas,Northern America,United States of America,Texas,,Weatherford
45.56.64.120,4,1394,siebelinstitute.com,US,Americas,Northern America,United States of America,Texas,,Richardson
108.181.171.248,4,3089763,siftdesk.org,US,Americas,Northern America,United States of America,Texas,,Dallas
66.228.54.27,4,3,sijun.com,US,Americas,Northern America,United States of America,Texas,,Richardson
63.142.249.178,4,39,silverstemcannabis.com,US,Americas,Northern America,United States of America,Texas,,Dallas
65.75.209.136,4,14,simhaoka.com,US,Americas,Northern America,United States of America,Texas,,Dallas
65.75.209.210,4,45,simhaoka.com,US,Americas,Northern America,United States of America,Texas,,Dallas
65.75.209.146,4,45,simhaoka.com,US,Americas,Northern America,United States of America,Texas,,Dallas
192.0.84.247,4,2,simperium.com,US,Americas,Northern America,United States of America,Texas,,Dallas
198.58.122.131,4,22,simplyplantbasedkitchen.com,US,Americas,Northern America,United States of America,Texas,,Richardson
173.237.178.221,4,57826,sinaichapel.org,US,Americas,Northern America,United States of America,Texas,,Allen
108.181.214.212,4,47,site.com.br,US,Americas,Northern America,United States of America,Texas,,Dallas
66.187.76.7,4,2,sjra.net,US,Americas,Northern America,United States of America,Texas,,Houston
107.155.97.50,4,11,skepticforum.com,US,Americas,Northern America,United States of America,Texas,,Dallas
45.79.13.43,4,25,skiinghistory.org,US,Americas,Northern America,United States of America,Texas,,Richardson
173.255.193.248,4,41,skunkapegames.com,US,Americas,Northern America,United States of America,Texas,,Richardson
69.164.198.123,4,2,sleders.com,US,Americas,Northern America,United States of America,Texas,,Richardson
198.252.100.130,4,5,slopeunblocked.space,US,Americas,Northern America,United States of America,Texas,,
45.33.3.184,4,939,smarterhomemaker.com,US,Americas,Northern America,United States of America,Texas,,Richardson
173.255.205.66,4,5,smnetwork.org,US,Americas,Northern America,United States of America,Texas,,Richardson
69.162.84.114,4,802,snitchseeker.com,US,Americas,Northern America,United States of America,Texas,,Dallas
45.33.23.138,4,20,snook.ca,US,Americas,Northern America,United States of America,Texas,,Richardson
50.116.19.249,4,12,socialmediamarketing.net,US,Americas,Northern America,United States of America,Texas,,Richardson
52.117.222.8,4,24,socialwatch.org,US,Americas,Northern America,United States of America,Texas,,Argyle
198.252.105.119,4,20,soft14.com,US,Americas,Northern America,United States of America,Texas,,Dallas
169.48.189.138,4,17,sohtanaka.com,US,Americas,Northern America,United States of America,Texas,,Dallas
74.81.94.99,4,-676,solarwall.com,US,Americas,Northern America,United States of America,Texas,,Houston
72.14.189.204,4,14,solmar.com,US,Americas,Northern America,United States of America,Texas,,Richardson
23.26.55.64,4,27,soniyapanday.com,US,Americas,Northern America,United States of America,Texas,,Dallas
96.126.123.175,4,44,sosuave.com,US,Americas,Northern America,United States of America,Texas,,Richardson
169.48.161.181,4,3,spamarrest.com,US,Americas,Northern America,United States of America,Texas,,Dallas
146.6.162.203,4,4,spanishintexas.org,US,Americas,Northern America,United States of America,Texas,,Austin
154.29.75.3,4,2,speakfreelee.com,US,Americas,Northern America,United States of America,Texas,,Dallas
66.187.71.178,4,2,speeddemosarchive.com,US,Americas,Northern America,United States of America,Texas,,Stafford
192.250.227.36,4,44,speeduino.com,US,Americas,Northern America,United States of America,Texas,,Dallas
173.255.201.206,4,6,splitshire.com,US,Americas,Northern America,United States of America,Texas,,Richardson
169.46.123.202,4,5,spoongraphics.co.uk,US,Americas,Northern America,United States of America,Texas,,Irving
192.227.248.186,4,-4,sportsbazz.com,US,Americas,Northern America,United States of America,Texas,,Dallas
23.227.162.82,4,41,spread.org,US,Americas,Northern America,United States of America,Texas,,Dallas
169.60.164.236,4,4,spyparty.com,US,Americas,Northern America,United States of America,Texas,,
45.33.6.223,4,4,sqlite.org,US,Americas,Northern America,United States of America,Texas,,Richardson
198.58.109.35,4,11,st162.net,US,Americas,Northern America,United States of America,Texas,,Richardson
45.33.29.21,4,4,stackideas.com,US,Americas,Northern America,United States of America,Texas,,Richardson
129.116.119.38,4,49,starkcenter.org,US,Americas,Northern America,United States of America,Texas,,Pflugerville
192.211.48.98,4,36,starpowertalent.com,US,Americas,Northern America,United States of America,Texas,,Dallas
69.162.120.188,4,21,steadydemand.com,US,Americas,Northern America,United States of America,Texas,,Dallas
173.255.203.83,4,5,stepmania.com,US,Americas,Northern America,United States of America,Texas,,Richardson
104.200.18.250,4,21,sterba.com,US,Americas,Northern America,United States of America,Texas,,Richardson
192.53.161.222,4,43,stevenf.com,US,Americas,Northern America,United States of America,Texas,,Richardson
162.213.195.119,4,2,stirr.com,US,Americas,Northern America,United States of America,Texas,,Dallas
173.237.185.212,4,28,stlracing.com,US,Americas,Northern America,United States of America,Texas,,Dallas
23.239.31.108,4,15,stopitnow.org,US,Americas,Northern America,United States of America,Texas,,Richardson
38.135.49.11,4,9,storm2k.org,US,Americas,Northern America,United States of America,Texas,,Dallas
184.105.142.67,4,1,stormsurfing.com,US,Americas,Northern America,United States of America,Texas,,Dallas
45.33.0.39,4,14,streaksapp.com,US,Americas,Northern America,United States of America,Texas,,Richardson
149.28.254.222,4,18,streamhoster.com,US,Americas,Northern America,United States of America,Texas,,Dallas
50.116.19.46,4,0,streamingradioguide.com,US,Americas,Northern America,United States of America,Texas,,Richardson
192.169.84.211,4,83,strongsnumbers.com,US,Americas,Northern America,United States of America,Texas,,Dallas
74.63.248.118,4,6,studylight.org,US,Americas,Northern America,United States of America,Texas,,Dallas
139.144.33.102,4,21,subwiki.org,US,Americas,Northern America,United States of America,Texas,,Richardson
104.225.208.28,4,52,sugarandsparrow.com,US,Americas,Northern America,United States of America,Texas,,Dallas
169.61.34.79,4,4,sunnycareinc.com,US,Americas,Northern America,United States of America,Texas,,
96.126.119.56,4,19,superfeedr.com,US,Americas,Northern America,United States of America,Texas,,Richardson
23.239.28.6,4,4,supermechanical.com,US,Americas,Northern America,United States of America,Texas,,Richardson
23.227.169.88,4,20,surgeryencyclopedia.com,US,Americas,Northern America,United States of America,Texas,,Dallas
192.154.226.108,4,8,susangreenecopywriter.com,US,Americas,Northern America,United States of America,Texas,,Dallas
66.228.49.164,4,13,suzukiassociation.org,US,Americas,Northern America,United States of America,Texas,,Richardson
155.94.253.2,4,37,sv666.net,US,Americas,Northern America,United States of America,Texas,,Dallas
207.148.5.16,4,3,syntaur.com,US,Americas,Northern America,United States of America,Texas,,Dallas
45.79.20.235,4,30,talema.com,US,Americas,Northern America,United States of America,Texas,,Richardson
47.190.84.214,4,6,talkorigins.org,US,Americas,Northern America,United States of America,Texas,,Irving
45.56.67.107,4,0,tallbergfoundation.org,US,Americas,Northern America,United States of America,Texas,,Richardson
74.81.95.100,4,-3,tamiyausa.com,US,Americas,Northern America,United States of America,Texas,,Houston
69.162.127.5,4,1,taxdayteaparty.com,US,Americas,Northern America,United States of America,Texas,,Dallas
74.113.214.110,4,-7,taxnetusa.com,US,Americas,Northern America,United States of America,Texas,,Tyler
45.56.74.76,4,2,tbaggery.com,US,Americas,Northern America,United States of America,Texas,,Richardson
144.202.65.139,4,2,tbheritage.com,US,Americas,Northern America,United States of America,Texas,,Dallas
198.58.122.110,4,5,tcrf.net,US,Americas,Northern America,United States of America,Texas,,Richardson
104.237.128.185,4,9,teachercreated.com,US,Americas,Northern America,United States of America,Texas,,Richardson
72.249.74.31,4,8,teamgal.com,US,Americas,Northern America,United States of America,Texas,,Dallas
104.225.208.26,4,-480,teammarketing.com,US,Americas,Northern America,United States of America,Texas,,Dallas
45.33.113.45,4,6,teamuse.com,US,Americas,Northern America,United States of America,Texas,,Richardson
173.255.205.56,4,37,techamerica.org,US,Americas,Northern America,United States of America,Texas,,Richardson
69.162.109.146,4,43,techfily.com,US,Americas,Northern America,United States of America,Texas,,Dallas
45.79.58.52,4,484,techibhai.com,US,Americas,Northern America,United States of America,Texas,,Richardson
45.79.40.42,4,56,techjeny.org,US,Americas,Northern America,United States of America,Texas,,Richardson
104.225.221.25,4,61,techmen.net,US,Americas,Northern America,United States of America,Texas,,Dallas
104.200.22.214,4,84,technovia.co.uk,US,Americas,Northern America,United States of America,Texas,,Richardson
192.227.251.141,4,-3,techpally.com,US,Americas,Northern America,United States of America,Texas,,Dallas
139.64.176.238,4,16234,teknisi-indonesia.com,US,Americas,Northern America,United States of America,Texas,,Dallas
207.207.49.184,4,6,temtrack.com,US,Americas,Northern America,United States of America,Texas,,Austin
104.200.17.155,4,4,terminalreality.com,US,Americas,Northern America,United States of America,Texas,,Richardson
72.14.181.48,4,18,terpenesandtesting.com,US,Americas,Northern America,United States of America,Texas,,Richardson
146.6.162.220,4,42,texasbeyondhistory.net,US,Americas,Northern America,United States of America,Texas,,Austin
64.250.0.132,4,29,texasindians.com,US,Americas,Northern America,United States of America,Texas,,Gonzales
96.126.119.157,4,1,tfwiki.net,US,Americas,Northern America,United States of America,Texas,,Richardson
192.250.227.15,4,7,thcgummiesstore.com,US,Americas,Northern America,United States of America,Texas,,Dallas
169.55.251.74,4,5,the-witness.net,US,Americas,Northern America,United States of America,Texas,,
198.252.105.99,4,1,theagonistband.com,US,Americas,Northern America,United States of America,Texas,,Dallas
104.237.132.94,4,21,theautochannel.com,US,Americas,Northern America,United States of America,Texas,,Richardson
149.28.253.178,4,0,thebestbusinesslists.com,US,Americas,Northern America,United States of America,Texas,,Dallas
198.58.117.90,4,14,thebigfatindianwedding.com,US,Americas,Northern America,United States of America,Texas,,Richardson
107.155.77.186,4,2,theclickcommunity.com,US,Americas,Northern America,United States of America,Texas,,Dallas
63.142.249.33,4,35,thecustomizewindows.com,US,Americas,Northern America,United States of America,Texas,,Dallas
45.79.0.246,4,7,thedomainfo.com,US,Americas,Northern America,United States of America,Texas,,Richardson
208.115.197.171,4,14,theganggreen.com,US,Americas,Northern America,United States of America,Texas,,Dallas
23.227.169.82,4,4,thegardenhelper.com,US,Americas,Northern America,United States of America,Texas,,Dallas
181.215.47.239,4,14,thehawkeyeinitiative.com,US,Americas,Northern America,United States of America,Texas,,Dallas
50.116.21.196,4,4,theidiotboard.com,US,Americas,Northern America,United States of America,Texas,,Richardson
198.58.115.186,4,2,theitmom.com,US,Americas,Northern America,United States of America,Texas,,Richardson
72.249.27.85,4,2,thejuniper.com,US,Americas,Northern America,United States of America,Texas,,Dallas
72.14.187.203,4,75,thelpa.com,US,Americas,Northern America,United States of America,Texas,,Richardson
155.138.243.200,4,34,themecircle.net,US,Americas,Northern America,United States of America,Texas,,Dallas
69.42.49.141,4,3658,themediareport.com,US,Americas,Northern America,United States of America,Texas,,Dallas
192.250.227.80,4,8,themevs.com,US,Americas,Northern America,United States of America,Texas,,Dallas
207.148.6.125,4,1,thenailstop.net,US,Americas,Northern America,United States of America,Texas,,Dallas
155.94.253.223,4,3,theonepiece.co,US,Americas,Northern America,United States of America,Texas,,Dallas
23.239.29.245,4,29,theorica.net,US,Americas,Northern America,United States of America,Texas,,Richardson
45.33.16.57,4,2,theradavist.com,US,Americas,Northern America,United States of America,Texas,,Richardson
45.43.15.19,4,4,therangerstation.com,US,Americas,Northern America,United States of America,Texas,,Dallas
107.155.82.202,4,17,thesmilies.com,US,Americas,Northern America,United States of America,Texas,,Dallas
52.117.225.156,4,130744,thesoutherninstitute.com,US,Americas,Northern America,United States of America,Texas,,Argyle
207.200.49.5,4,5,thestoryoftexas.com,US,Americas,Northern America,United States of America,Texas,,Houston
198.58.115.138,4,20,thetruckersreport.com,US,Americas,Northern America,United States of America,Texas,,Richardson
174.136.1.63,4,5,think-async.com,US,Americas,Northern America,United States of America,Texas,,Dallas
198.58.116.172,4,2,thisissand.com,US,Americas,Northern America,United States of America,Texas,,Richardson
45.33.21.47,4,31,thisweekmagazine.net,US,Americas,Northern America,United States of America,Texas,,Richardson
192.46.216.86,4,15,thlib.org,US,Americas,Northern America,United States of America,Texas,,Richardson
45.33.120.245,4,2,thorlaser.com,US,Americas,Northern America,United States of America,Texas,,Richardson
107.155.71.103,4,13,threadworx.com,US,Americas,Northern America,United States of America,Texas,,Dallas
23.145.80.21,4,89,tieline.com,US,Americas,Northern America,United States of America,Texas,,Dallas
50.116.30.146,4,5,tiempo.com.mx,US,Americas,Northern America,United States of America,Texas,,Richardson
91.191.208.194,4,-6,tiltshiftmaker.com,US,Americas,Northern America,United States of America,Texas,,Dallas
45.79.4.50,4,33504,timba.com,US,Americas,Northern America,United States of America,Texas,,Richardson
170.75.254.245,4,58,timebomb2000.com,US,Americas,Northern America,United States of America,Texas,,Dallas
154.16.170.85,4,7,timepost.info,US,Americas,Northern America,United States of America,Texas,,Dallas
24.155.185.71,4,-2,tmlt.org,US,Americas,Northern America,United States of America,Texas,,Austin
23.205.249.201,4,1,tmobile.com,US,Americas,Northern America,United States of America,Texas,,Irving
169.60.148.123,4,494,tomdownload.com,US,Americas,Northern America,United States of America,Texas,,
173.237.185.51,4,754,tomfolio.com,US,Americas,Northern America,United States of America,Texas,,Dallas
173.255.196.131,4,12,tompreuss.com,US,Americas,Northern America,United States of America,Texas,,Richardson
23.95.110.190,4,-4,tomsriverhojos.com,US,Americas,Northern America,United States of America,Texas,,Dallas
192.250.227.23,4,5,tonatheme.com,US,Americas,Northern America,United States of America,Texas,,Dallas
104.225.208.40,4,2,toolstogrowot.com,US,Americas,Northern America,United States of America,Texas,,Dallas
181.214.133.201,4,19,topnews.in,US,Americas,Northern America,United States of America,Texas,,Dallas
96.126.123.222,4,33,toptensoftware.com,US,Americas,Northern America,United States of America,Texas,,Richardson
66.187.65.61,4,26,toptropicals.com,US,Americas,Northern America,United States of America,Texas,,Stafford
192.53.171.135,4,10,topwin-movie-maker.com,US,Americas,Northern America,United States of America,Texas,,Richardson
45.79.34.102,4,7,torremolinos.es,US,Americas,Northern America,United States of America,Texas,,Richardson
69.164.197.149,4,17,torrenteditor.com,US,Americas,Northern America,United States of America,Texas,,Richardson
45.79.61.219,4,12,toshiba.com,US,Americas,Northern America,United States of America,Texas,,Richardson
69.28.90.89,4,20,totalhealthmagazine.com,US,Americas,Northern America,United States of America,Texas,,Dallas
45.79.19.245,4,24,totallyfreecursors.com,US,Americas,Northern America,United States of America,Texas,,Richardson
172.104.198.30,4,24,tothepc.com,US,Americas,Northern America,United States of America,Texas,,Richardson
198.58.112.151,4,21,tourneyx.com,US,Americas,Northern America,United States of America,Texas,,Richardson
104.225.208.14,4,3,townecrier.com,US,Americas,Northern America,United States of America,Texas,,Dallas
198.58.121.38,4,2,townsendpress.com,US,Americas,Northern America,United States of America,Texas,,Richardson
66.135.63.168,4,-2,toynewsi.com,US,Americas,Northern America,United States of America,Texas,,San Antonio
198.58.113.87,4,5,trackscoreboard.com,US,Americas,Northern America,United States of America,Texas,,Richardson
45.33.14.183,4,8,tractorbynet.com,US,Americas,Northern America,United States of America,Texas,,Richardson
45.79.17.219,4,2,tradeboss.com,US,Americas,Northern America,United States of America,Texas,,Richardson
166.0.175.227,4,19,traditionsglobalnetwork.com,US,Americas,Northern America,United States of America,Texas,,Dallas
45.33.28.100,4,21,traffictravis.com,US,Americas,Northern America,United States of America,Texas,,Richardson
45.56.66.13,4,14,trailersfromhell.com,US,Americas,Northern America,United States of America,Texas,,Richardson
45.33.21.22,4,8,traqq.com,US,Americas,Northern America,United States of America,Texas,,Richardson
205.251.153.31,4,27,traversecityfilmfest.org,US,Americas,Northern America,United States of America,Texas,,Houston
216.128.128.54,4,19,trexgame.co,US,Americas,Northern America,United States of America,Texas,,Dallas
66.135.61.64,4,26,tripawds.com,US,Americas,Northern America,United States of America,Texas,,San Antonio
172.96.189.102,4,78,tritondivers.com,US,Americas,Northern America,United States of America,Texas,,
154.16.170.62,4,1051,trivita.com,US,Americas,Northern America,United States of America,Texas,,Dallas
172.99.148.46,4,31,troll.me,US,Americas,Northern America,United States of America,Texas,,Dallas
192.250.227.21,4,13,true-to-you.net,US,Americas,Northern America,United States of America,Texas,,Dallas
104.225.208.13,4,3,trustwomen.org,US,Americas,Northern America,United States of America,Texas,,Dallas
45.79.62.91,4,3,truthunity.net,US,Americas,Northern America,United States of America,Texas,,Richardson
45.79.6.168,4,4,trypyramid.com,US,Americas,Northern America,United States of America,Texas,,Richardson
216.144.240.154,4,1,tsunami.org,US,Americas,Northern America,United States of America,Texas,,Dallas
45.79.4.138,4,1,turtlapp.com,US,Americas,Northern America,United States of America,Texas,,Richardson
69.164.199.209,4,0,twitthis.com,US,Americas,Northern America,United States of America,Texas,,Richardson
107.155.81.11,4,-1,twobillsdrive.com,US,Americas,Northern America,United States of America,Texas,,Dallas
128.83.214.52,4,2,txarchives.org,US,Americas,Northern America,United States of America,Texas,,Austin
198.97.62.234,4,-1,txautism.net,US,Americas,Northern America,United States of America,Texas,,Weimar
192.250.227.12,4,10,txbf.org,US,Americas,Northern America,United States of America,Texas,,Dallas
45.33.112.20,4,4,txdirectory.com,US,Americas,Northern America,United States of America,Texas,,Richardson
23.239.27.39,4,4,txhighschoolbaseball.com,US,Americas,Northern America,United States of America,Texas,,Richardson
104.237.128.147,4,5,ubuntu-user.com,US,Americas,Northern America,United States of America,Texas,,Richardson
104.225.208.27,4,404,ucmj.us,US,Americas,Northern America,United States of America,Texas,,Dallas
169.55.197.189,4,1674890,ucn.cl,US,Americas,Northern America,United States of America,Texas,,
198.252.105.106,4,1,ufaslot345.com,US,Americas,Northern America,United States of America,Texas,,Dallas
104.249.63.34,4,36,uggscanadaugg.ca,US,Americas,Northern America,United States of America,Texas,,Dallas
192.250.227.24,4,7,uhura.com,US,Americas,Northern America,United States of America,Texas,,Dallas
146.6.100.162,4,330,uiltexas.org,US,Americas,Northern America,United States of America,Texas,,Leander
198.58.116.108,4,0,ukadslist.com,US,Americas,Northern America,United States of America,Texas,,Richardson
45.79.2.43,4,3,ukhour.com,US,Americas,Northern America,United States of America,Texas,,Richardson
45.33.29.10,4,7,umchohio.org,US,Americas,Northern America,United States of America,Texas,,Richardson
45.79.27.221,4,7,ump-attire.com,US,Americas,Northern America,United States of America,Texas,,Richardson
23.95.94.11,4,-2,undercover.com.au,US,Americas,Northern America,United States of America,Texas,,Dallas
23.227.169.68,4,31,unexplainedstuff.com,US,Americas,Northern America,United States of America,Texas,,Dallas
23.227.169.89,4,7,unit-conversion.info,US,Americas,Northern America,United States of America,Texas,,Dallas
31.172.69.20,4,8,us-business.info,US,Americas,Northern America,United States of America,Texas,,Dallas
192.154.225.152,4,8,usahitman.com,US,Americas,Northern America,United States of America,Texas,,Dallas
144.168.41.102,4,16,usaknifemaker.com,US,Americas,Northern America,United States of America,Texas,,Dallas
154.29.78.253,4,3,usanews.net,US,Americas,Northern America,United States of America,Texas,,Dallas
104.251.210.235,4,2,usbio.net,US,Americas,Northern America,United States of America,Texas,,Dallas
45.79.8.147,4,16,usdictionary.com,US,Americas,Northern America,United States of America,Texas,,Richardson
45.56.79.157,4,1,uswebsites.com,US,Americas,Northern America,United States of America,Texas,,Richardson
107.155.71.4,4,0,utpsyc.org,US,Americas,Northern America,United States of America,Texas,,Dallas
198.252.100.36,4,2,uwphotographyguide.com,US,Americas,Northern America,United States of America,Texas,,
45.79.43.199,4,8,vacuumstorage.org,US,Americas,Northern America,United States of America,Texas,,Richardson
173.255.203.101,4,4,vailhealth.org,US,Americas,Northern America,United States of America,Texas,,Richardson
192.250.227.100,4,16,vallegrande.com.bo,US,Americas,Northern America,United States of America,Texas,,Dallas
66.206.28.11,4,11,vanillafudge.com,US,Americas,Northern America,United States of America,Texas,,Dallas
65.75.211.12,4,17,vaping-vapor.com,US,Americas,Northern America,United States of America,Texas,,Dallas
69.164.195.86,4,4,varyingvagrantvagrants.org,US,Americas,Northern America,United States of America,Texas,,Richardson
23.194.89.179,4,1,vce.com,US,Americas,Northern America,United States of America,Texas,,Houston
169.46.52.166,4,1190,vedanta.org,US,Americas,Northern America,United States of America,Texas,,Irving
169.48.181.231,4,31,veetechnologies.com,US,Americas,Northern America,United States of America,Texas,,Dallas
169.46.108.5,4,99,velikorodnov.com,US,Americas,Northern America,United States of America,Texas,,Irving
169.60.132.217,4,23,verbatim.com,US,Americas,Northern America,United States of America,Texas,,
173.255.202.51,4,38,vergenet.net,US,Americas,Northern America,United States of America,Texas,,Richardson
96.126.114.227,4,5,veritablevegetable.com,US,Americas,Northern America,United States of America,Texas,,Richardson
45.33.126.113,4,22,vertebra.tech,US,Americas,Northern America,United States of America,Texas,,Richardson
52.117.85.52,4,276,veterancardonations.org,US,Americas,Northern America,United States of America,Texas,,Argyle
72.14.189.39,4,400,vhdl.org,US,Americas,Northern America,United States of America,Texas,,Richardson
198.252.100.10,4,11,viastreaming.net,US,Americas,Northern America,United States of America,Texas,,
23.239.28.75,4,10,vidalista.us,US,Americas,Northern America,United States of America,Texas,,Richardson
169.46.112.251,4,9,videoproc.com,US,Americas,Northern America,United States of America,Texas,,Irving
66.228.54.105,4,2,videosift.com,US,Americas,Northern America,United States of America,Texas,,Richardson
69.164.203.98,4,23,viejas.com,US,Americas,Northern America,United States of America,Texas,,Richardson
170.39.213.82,4,1257,vienna-unwrapped.com,US,Americas,Northern America,United States of America,Texas,,Dallas
198.58.121.248,4,15,viewshoot.com,US,Americas,Northern America,United States of America,Texas,,Richardson
45.79.25.59,4,19,viewvc.org,US,Americas,Northern America,United States of America,Texas,,Richardson
139.144.36.136,4,3,vigoritout.com,US,Americas,Northern America,United States of America,Texas,,Richardson
192.252.223.30,4,0,vintageguitar.com,US,Americas,Northern America,United States of America,Texas,,Dallas
52.117.105.100,4,26,vipbodyspa.com,US,Americas,Northern America,United States of America,Texas,,Argyle
45.76.57.243,4,1,virtualmin.com,US,Americas,Northern America,United States of America,Texas,,Dallas
209.58.153.170,4,16,visajourney.com,US,Americas,Northern America,United States of America,Texas,,Dallas
45.79.45.169,4,28,visitnc.com,US,Americas,Northern America,United States of America,Texas,,Richardson
147.124.212.31,4,33,voiceofdharma.org,US,Americas,Northern America,United States of America,Texas,,Dallas
74.81.95.187,4,75,voipsa.org,US,Americas,Northern America,United States of America,Texas,,Houston
216.245.192.178,4,2,volcanoartcenter.org,US,Americas,Northern America,United States of America,Texas,,Dallas
45.33.15.224,4,115,votechaseoliver.com,US,Americas,Northern America,United States of America,Texas,,Richardson
155.94.253.43,4,9,vualike.com,US,Americas,Northern America,United States of America,Texas,,Dallas
63.142.241.185,4,3,vujovich.com,US,Americas,Northern America,United States of America,Texas,,Dallas
50.116.26.83,4,1985,vulcantermite.com,US,Americas,Northern America,United States of America,Texas,,Richardson
155.94.253.119,4,18,vypoker.com,US,Americas,Northern America,United States of America,Texas,,Dallas
154.29.75.248,4,16,waappitalk.com,US,Americas,Northern America,United States of America,Texas,,Dallas
216.128.142.183,4,20,wacochamber.com,US,Americas,Northern America,United States of America,Texas,,Dallas
45.32.196.57,4,1,wacoheartoftexas.com,US,Americas,Northern America,United States of America,Texas,,Dallas
104.225.208.110,4,32,wahiduddin.net,US,Americas,Northern America,United States of America,Texas,,Dallas
52.117.100.166,4,0,wallnet.ma,US,Americas,Northern America,United States of America,Texas,,Argyle
216.74.247.24,4,11,wapsisquare.com,US,Americas,Northern America,United States of America,Texas,,Houston
45.79.47.151,4,3,watch-movies.net.in,US,Americas,Northern America,United States of America,Texas,,Richardson
23.227.169.67,4,9,waterencyclopedia.com,US,Americas,Northern America,United States of America,Texas,,Dallas
31.172.69.197,4,11,watermelondrrop.top,US,Americas,Northern America,United States of America,Texas,,Dallas
192.250.227.34,4,7,watershedcapitallimited.com,US,Americas,Northern America,United States of America,Texas,,Dallas
170.130.40.247,4,18,wave-editor.com,US,Americas,Northern America,United States of America,Texas,,Dallas
45.79.59.187,4,570,wavercard.com,US,Americas,Northern America,United States of America,Texas,,Richardson
74.81.94.123,4,-20,wazu.jp,US,Americas,Northern America,United States of America,Texas,,Houston
169.48.163.205,4,2,wdt.edu,US,Americas,Northern America,United States of America,Texas,,Dallas
107.155.97.58,4,117,weatherstreet.com,US,Americas,Northern America,United States of America,Texas,,Dallas
198.252.100.247,4,17,weblogswork.com,US,Americas,Northern America,United States of America,Texas,,
207.148.5.161,4,20,webpicturecreator.com,US,Americas,Northern America,United States of America,Texas,,Dallas
45.32.202.248,4,40,websitenotworking.com,US,Americas,Northern America,United States of America,Texas,,Dallas
52.117.215.88,4,25,websitepublisher.net,US,Americas,Northern America,United States of America,Texas,,Argyle
170.130.40.26,4,1,websiteresponsivetest.com,US,Americas,Northern America,United States of America,Texas,,Dallas
192.250.227.14,4,60,wedhawaii.com,US,Americas,Northern America,United States of America,Texas,,Dallas
23.239.24.138,4,106157,weightcrafters.com,US,Americas,Northern America,United States of America,Texas,,Richardson
69.162.127.6,4,3,welltraveledmile.com,US,Americas,Northern America,United States of America,Texas,,Dallas
96.126.126.33,4,2,wendycarlos.com,US,Americas,Northern America,United States of America,Texas,,Richardson
45.43.3.14,4,5,whatmegansmaking.com,US,Americas,Northern America,United States of America,Texas,,Dallas
198.252.105.28,4,4,wheelsjoint.com,US,Americas,Northern America,United States of America,Texas,,Dallas
209.58.150.129,4,331,whenparked.com,US,Americas,Northern America,United States of America,Texas,,Dallas
96.126.118.6,4,5,whilehewasnapping.com,US,Americas,Northern America,United States of America,Texas,,Richardson
199.71.214.27,4,-3,whitewolfpack.com,US,Americas,Northern America,United States of America,Texas,,Dallas
50.78.32.66,4,-1,whosaliveandwhosdead.com,US,Americas,Northern America,United States of America,Texas,,Houston
66.206.19.218,4,6,widdlytinks.com,US,Americas,Northern America,United States of America,Texas,,Dallas
148.153.135.244,4,6,wigsbuy.com,US,Americas,Northern America,United States of America,Texas,,Dallas
45.56.72.243,4,68,wikem.org,US,Americas,Northern America,United States of America,Texas,,Richardson
198.252.105.94,4,10,williamfuld.com,US,Americas,Northern America,United States of America,Texas,,Dallas
12.220.37.212,4,30,williamsauction.com,US,Americas,Northern America,United States of America,Texas,,Carrollton
104.225.208.23,4,14,wilsontenniscamps.com,US,Americas,Northern America,United States of America,Texas,,Dallas
166.0.175.228,4,7,winsomesourcing.com,US,Americas,Northern America,United States of America,Texas,,Dallas
173.255.192.109,4,1,winstall.app,US,Americas,Northern America,United States of America,Texas,,Richardson
45.56.123.165,4,19,wintec.cl,US,Americas,Northern America,United States of America,Texas,,Richardson
198.252.105.27,4,29,wintips.org,US,Americas,Northern America,United States of America,Texas,,Dallas
192.250.227.60,4,5,wirelessadvisor.com,US,Americas,Northern America,United States of America,Texas,,Dallas
209.58.144.214,4,9,wiserbrand.com,US,Americas,Northern America,United States of America,Texas,,Dallas
66.228.50.223,4,4,wizardofodds.com,US,Americas,Northern America,United States of America,Texas,,Richardson
198.58.125.129,4,5,wizardofvegas.com,US,Americas,Northern America,United States of America,Texas,,Richardson
104.225.208.18,4,2,woodshumanesociety.org,US,Americas,Northern America,United States of America,Texas,,Dallas
198.252.100.214,4,5,woosuite.com,US,Americas,Northern America,United States of America,Texas,,
45.79.21.110,4,915274,wordcounttool.com,US,Americas,Northern America,United States of America,Texas,,Richardson
72.14.176.73,4,4,worldcasinodirectory.com,US,Americas,Northern America,United States of America,Texas,,Richardson
170.130.40.14,4,16,worldcoinsinfo.com,US,Americas,Northern America,United States of America,Texas,,Dallas
107.155.70.182,4,5,worldofchristmas.net,US,Americas,Northern America,United States of America,Texas,,Dallas
96.126.112.91,4,10,worldtattooevents.com,US,Americas,Northern America,United States of America,Texas,,Richardson
169.60.143.162,4,148,worthingplace.com,US,Americas,Northern America,United States of America,Texas,,
45.56.65.198,4,2,wpamanuke.com,US,Americas,Northern America,United States of America,Texas,,Richardson
104.225.220.18,4,11,wpmultiverse.com,US,Americas,Northern America,United States of America,Texas,,Dallas
45.79.24.154,4,12,wpmyweb.com,US,Americas,Northern America,United States of America,Texas,,Richardson
45.79.8.94,4,10,wpthemes.info,US,Americas,Northern America,United States of America,Texas,,Richardson
45.56.127.148,4,7,writemyassignment.uk,US,Americas,Northern America,United States of America,Texas,,Richardson
45.33.11.114,4,2,x-callback-url.com,US,Americas,Northern America,United States of America,Texas,,Richardson
23.239.31.52,4,2,xbrl.org,US,Americas,Northern America,United States of America,Texas,,Richardson
45.79.7.94,4,4,xenaddons.com,US,Americas,Northern America,United States of America,Texas,,Richardson
192.250.227.20,4,6,xenbulletins.com,US,Americas,Northern America,United States of America,Texas,,Dallas
45.32.193.252,4,4,xgenstudios.com,US,Americas,Northern America,United States of America,Texas,,Dallas
155.138.240.161,4,66,xn--fritidfralla-bjb.se,US,Americas,Northern America,United States of America,Texas,,Dallas
144.202.65.157,4,27,xn--madnrderne-3cb.dk,US,Americas,Northern America,United States of America,Texas,,Dallas
45.76.236.210,4,46,xn--rrapsig-hxa3m.se,US,Americas,Northern America,United States of America,Texas,,Dallas
207.148.5.210,4,15,xn--sportnrden-jcb.se,US,Americas,Northern America,United States of America,Texas,,Dallas
50.116.30.97,4,8,xphomestation.com,US,Americas,Northern America,United States of America,Texas,,Richardson
207.210.240.150,4,5,xprogramming.com,US,Americas,Northern America,United States of America,Texas,,Princeton
169.60.133.236,4,2,xyelectron.com,US,Americas,Northern America,United States of America,Texas,,
108.181.166.80,4,1,yaarikut.com,US,Americas,Northern America,United States of America,Texas,,Dallas
50.116.16.213,4,1,yabstadigital.com,US,Americas,Northern America,United States of America,Texas,,Richardson
63.143.33.122,4,6,yaia.com,US,Americas,Northern America,United States of America,Texas,,Dallas
45.33.19.124,4,1,yapcna.org,US,Americas,Northern America,United States of America,Texas,,Richardson
38.107.250.238,4,4,yatu360.com,US,Americas,Northern America,United States of America,Texas,,Dallas
45.33.124.144,4,7084,yocantech.com,US,Americas,Northern America,United States of America,Texas,,Richardson
169.61.164.11,4,0,yogaspotny.com,US,Americas,Northern America,United States of America,Texas,,
174.127.114.16,4,-3,youbentmywookie.com,US,Americas,Northern America,United States of America,Texas,,Dallas
45.33.20.113,4,25,yourfavoritecrafts.com,US,Americas,Northern America,United States of America,Texas,,Richardson
66.249.108.93,4,1,ysearch.org,US,Americas,Northern America,United States of America,Texas,,Houston
45.33.122.82,4,725,yumachamber.org,US,Americas,Northern America,United States of America,Texas,,Richardson
147.124.221.167,4,2,yyets.com,US,Americas,Northern America,United States of America,Texas,,Dallas
71.40.108.167,4,377,z712moneysystem.com,US,Americas,Northern America,United States of America,Texas,,San Antonio
45.56.77.136,4,-361,zacklinedinst.com,US,Americas,Northern America,United States of America,Texas,,Richardson
69.164.198.18,4,12,zacsgarden.com,US,Americas,Northern America,United States of America,Texas,,Richardson
45.56.67.39,4,7,zandronum.com,US,Americas,Northern America,United States of America,Texas,,Richardson
205.251.153.15,4,636840,zbs.org,US,Americas,Northern America,United States of America,Texas,,Houston
23.239.25.127,4,11,zengobi.com,US,Americas,Northern America,United States of America,Texas,,Richardson
45.56.79.167,4,22,ziggymarley.com,US,Americas,Northern America,United States of America,Texas,,Richardson
139.64.176.4,4,-24156,ziplabel.com,US,Americas,Northern America,United States of America,Texas,,Dallas
192.250.227.28,4,11,zippileather.com,US,Americas,Northern America,United States of America,Texas,,Dallas
96.8.114.240,4,-2,zipthewilds.com,US,Americas,Northern America,United States of America,Texas,,Dallas
192.250.227.13,4,5,ziuma.com,US,Americas,Northern America,United States of America,Texas,,Dallas
45.43.3.16,4,3,zoller.lu,US,Americas,Northern America,United States of America,Texas,,Dallas
198.252.100.208,4,4,zoloft.monster,US,Americas,Northern America,United States of America,Texas,,
50.116.24.99,4,9,zona-militar.com,US,Americas,Northern America,United States of America,Texas,,Richardson
50.116.25.181,4,3,zophar.net,US,Americas,Northern America,United States of America,Texas,,Richardson
69.164.197.204,4,2,zork.net,US,Americas,Northern America,United States of America,Texas,,Richardson
52.117.158.188,4,2,zpost.com,US,Americas,Northern America,United States of America,Texas,,Argyle
66.228.55.6,4,3,zreomusic.com,US,Americas,Northern America,United States of America,Texas,,Richardson
45.79.19.196,4,3,zurkizoena.info,US,Americas,Northern America,United States of America,Texas,,Richardson
72.14.178.174,4,0,zurkizoena.info,US,Americas,Northern America,United States of America,Texas,,Richardson
72.14.185.43,4,5,zurkizoena.info,US,Americas,Northern America,United States of America,Texas,,Richardson
173.255.194.134,4,4,zurkizoena.info,US,Americas,Northern America,United States of America,Texas,,Richardson
45.33.18.44,4,4,zurkizoena.info,US,Americas,Northern America,United States of America,Texas,,Richardson
45.33.2.79,4,2,zurkizoena.info,US,Americas,Northern America,United States of America,Texas,,Richardson
45.56.79.23,4,3,zurkizoena.info,US,Americas,Northern America,United States of America,Texas,,Richardson
45.33.30.197,4,2,zurkizoena.info,US,Americas,Northern America,United States of America,Texas,,Richardson
45.33.20.235,4,3,zurkizoena.info,US,Americas,Northern America,United States of America,Texas,,Richardson
45.33.23.183,4,4,zurkizoena.info,US,Americas,Northern America,United States of America,Texas,,Richardson
198.58.118.167,4,0,zurkizoena.info,US,Americas,Northern America,United States of America,Texas,,Richardson
96.126.123.244,4,4,zurkizoena.info,US,Americas,Northern America,United States of America,Texas,,Richardson
