reflector_ip,ip_version,offset,description,country_code,region,sub_region,country_name,sub_division_1,sub_division_2,city
144.208.127.145,4,7,12bytes.org,US,Americas,Northern America,United States of America,New York,,New York
185.213.26.75,4,3,3planesoft.com,US,Americas,Northern America,United States of America,New York,,New York
45.55.101.66,4,4,54below.com,US,Americas,Northern America,United States of America,New York,,New York
179.61.232.222,4,2293,7go.pw,US,Americas,Northern America,United States of America,New York,,Buffalo
154.16.115.145,4,2289,7go.website,US,Americas,Northern America,United States of America,New York,,Buffalo
162.243.117.188,4,587268,abc.net,US,Americas,Northern America,United States of America,New York,,New York
31.220.102.14,4,8,abshire.info,US,Americas,Northern America,United States of America,New York,,Orangeburg
168.235.110.191,4,3,acdf.ca,US,Americas,Northern America,United States of America,New York,,
190.92.168.186,4,-1,ace4sure.com,US,Americas,Northern America,United States of America,New York,,Buffalo
65.181.111.161,4,2,acform.com,US,Americas,Northern America,United States of America,New York,,Buffalo
192.3.164.100,4,4,adztv.co.il,US,Americas,Northern America,United States of America,New York,,Buffalo
181.214.149.38,4,65,afana.com,US,Americas,Northern America,United States of America,New York,,Latham
192.210.151.170,4,125,africancircuitsafaris.com,US,Americas,Northern America,United States of America,New York,,Buffalo
181.214.142.172,4,2,africasciencenews.org,US,Americas,Northern America,United States of America,New York,,Buffalo
198.251.81.147,4,1122,agrimarketing.com,US,Americas,Northern America,United States of America,New York,,Staten Island
66.94.116.78,4,1,aibrt.org,US,Americas,Northern America,United States of America,New York,,Orangeburg
144.126.148.67,4,5,ajecr.org,US,Americas,Northern America,United States of America,New York,,Orangeburg
31.220.99.102,4,26,albfreeclassifiedsubmission.com,US,Americas,Northern America,United States of America,New York,,Orangeburg
184.153.67.36,4,18000593,alephnull.net,US,Americas,Northern America,United States of America,New York,,New York
104.114.72.200,4,86,alertsandiego.org,US,Americas,Northern America,United States of America,New York,,New York
104.114.72.195,4,12,alertsandiego.org,US,Americas,Northern America,United States of America,New York,,New York
192.241.167.71,4,3249916,alien8recordings.com,US,Americas,Northern America,United States of America,New York,,New York
198.20.167.150,4,38,allartclassic.com,US,Americas,Northern America,United States of America,New York,,Buffalo
198.144.188.142,4,3,allinterview.com,US,Americas,Northern America,United States of America,New York,,Buffalo
66.165.251.199,4,78,amahi.org,US,Americas,Northern America,United States of America,New York,,New York
45.55.102.98,4,4,americanshakespearecenter.com,US,Americas,Northern America,United States of America,New York,,New York
192.241.191.186,4,6,amnistia.org.mx,US,Americas,Northern America,United States of America,New York,,New York
162.243.13.227,4,318655,amodestfeast.com,US,Americas,Northern America,United States of America,New York,,New York
192.241.87.0,4,387,amoxicillinztab.com,US,Americas,Northern America,United States of America,New York,,Buffalo
65.181.111.251,4,7,ampi.org,US,Americas,Northern America,United States of America,New York,,Buffalo
198.23.253.90,4,28,amymedicalstaffing.com,US,Americas,Northern America,United States of America,New York,,Buffalo
154.16.114.250,4,25,anesi.com,US,Americas,Northern America,United States of America,New York,,Buffalo
62.146.226.235,4,15,anuaesthetics.com,US,Americas,Northern America,United States of America,New York,,Orangeburg
185.254.198.63,4,-1,apk-dl.com,US,Americas,Northern America,United States of America,New York,,New York
192.241.169.153,4,42,aras.org,US,Americas,Northern America,United States of America,New York,,New York
104.145.237.76,4,14,arbitragemauto.pt,US,Americas,Northern America,United States of America,New York,,Buffalo
74.101.171.117,4,51,arcanoae.com,US,Americas,Northern America,United States of America,New York,,Brooklyn
23.236.164.198,4,19,arch-teh.com,US,Americas,Northern America,United States of America,New York,,Buffalo
162.243.229.13,4,9,arena17.com,US,Americas,Northern America,United States of America,New York,,New York
38.117.134.17,4,0,astron.com,US,Americas,Northern America,United States of America,New York,,New York
173.198.197.59,4,4,atlasweb.cz,US,Americas,Northern America,United States of America,New York,,Latham
66.165.245.78,4,41,atyourbusiness.com,US,Americas,Northern America,United States of America,New York,,New York
65.98.90.66,4,1055,aural-innovations.com,US,Americas,Northern America,United States of America,New York,,New York
72.69.161.7,4,123,autono.net,US,Americas,Northern America,United States of America,New York,,Queens
65.181.111.159,4,60,avc.edu.lr,US,Americas,Northern America,United States of America,New York,,Buffalo
65.181.111.145,4,8,aviacionaldia.com,US,Americas,Northern America,United States of America,New York,,Buffalo
65.181.111.30,4,0,avoision.com,US,Americas,Northern America,United States of America,New York,,Buffalo
192.250.225.62,4,2,bash.org,US,Americas,Northern America,United States of America,New York,,Buffalo
146.71.86.38,4,9,bd-hyd.com,US,Americas,Northern America,United States of America,New York,,New York
162.243.32.35,4,11,beachcatcher.com,US,Americas,Northern America,United States of America,New York,,New York
38.170.62.210,4,514,behaviour-driven.org,US,Americas,Northern America,United States of America,New York,,Buffalo
162.243.225.163,4,369947,ben-kiki.org,US,Americas,Northern America,United States of America,New York,,New York
198.251.81.81,4,6,best4wp.com,US,Americas,Northern America,United States of America,New York,,Staten Island
169.61.107.251,4,8,bestshareware.net,US,Americas,Northern America,United States of America,New York,,Brooklyn
45.4.175.183,4,18,bigapplesoccer.com,US,Americas,Northern America,United States of America,New York,,Brooklyn
162.243.52.14,4,13,billstclair.com,US,Americas,Northern America,United States of America,New York,,New York
107.191.99.5,4,11,bitcoincore.org,US,Americas,Northern America,United States of America,New York,,New York
192.3.11.26,4,6,bitcoinknots.org,US,Americas,Northern America,United States of America,New York,,Buffalo
38.154.94.201,4,-1,biznewspost.com,US,Americas,Northern America,United States of America,New York,,Buffalo
89.117.72.28,4,6,bluemailmedia.com,US,Americas,Northern America,United States of America,New York,,Orangeburg
23.29.112.240,4,9,boardingschoolreview.com,US,Americas,Northern America,United States of America,New York,,New York
173.198.248.232,4,22,bookmybabes.co.in,US,Americas,Northern America,United States of America,New York,,Latham
66.94.103.134,4,65,bookprinting.ae,US,Americas,Northern America,United States of America,New York,,Orangeburg
173.198.205.252,4,9,bookyourgf.com,US,Americas,Northern America,United States of America,New York,,Latham
162.243.39.216,4,8,boxerlist.com,US,Americas,Northern America,United States of America,New York,,New York
69.9.32.204,4,-2792,bqinternet.com,US,Americas,Northern America,United States of America,New York,,The Bronx
192.186.132.118,4,-466,brainpulse.com,US,Americas,Northern America,United States of America,New York,,Buffalo
192.241.74.225,4,409,brisbaneorganicmarket.com,US,Americas,Northern America,United States of America,New York,,Buffalo
66.165.244.170,4,19,brothersgutters.com,US,Americas,Northern America,United States of America,New York,,New York
199.232.38.132,4,1,bso.org,US,Americas,Northern America,United States of America,New York,,New York
192.243.110.14,4,3,btoes.com,US,Americas,Northern America,United States of America,New York,,Buffalo
173.198.254.198,4,899,buffettworld.com,US,Americas,Northern America,United States of America,New York,,Latham
23.92.67.163,4,60,cablemod.com,US,Americas,Northern America,United States of America,New York,,New York
192.227.172.66,4,33,cahiralkshah.com,US,Americas,Northern America,United States of America,New York,,Buffalo
38.170.76.196,4,33,calresco.org,US,Americas,Northern America,United States of America,New York,,Buffalo
107.182.226.88,4,17,canadiancontent.net,US,Americas,Northern America,United States of America,New York,,New York
198.23.142.135,4,23,capcess.com,US,Americas,Northern America,United States of America,New York,,Buffalo
209.95.50.122,4,12,captioncall.com,US,Americas,Northern America,United States of America,New York,,New York
104.168.68.113,4,5,carl-jung.net,US,Americas,Northern America,United States of America,New York,,Buffalo
208.75.66.34,4,3,carlpalmer.com,US,Americas,Northern America,United States of America,New York,,Rochester
208.75.65.10,4,2,carolcassara.com,US,Americas,Northern America,United States of America,New York,,Rochester
179.61.137.164,4,-9,cars-data.com,US,Americas,Northern America,United States of America,New York,,Buffalo
192.227.220.181,4,-7,cavandoragh.org,US,Americas,Northern America,United States of America,New York,,Buffalo
163.182.174.254,4,4,cbtrends.com,US,Americas,Northern America,United States of America,New York,,Latham
5.226.171.41,4,16,celebsfacts.com,US,Americas,Northern America,United States of America,New York,,Buffalo
162.243.38.100,4,72,cenidh.org,US,Americas,Northern America,United States of America,New York,,New York
172.245.13.98,4,12,chadstonetabletennis.com,US,Americas,Northern America,United States of America,New York,,Buffalo
65.181.111.124,4,9,chanjingzx.com,US,Americas,Northern America,United States of America,New York,,Buffalo
23.236.167.43,4,393,chck.info,US,Americas,Northern America,United States of America,New York,,Buffalo
107.170.79.110,4,4,checnet.org,US,Americas,Northern America,United States of America,New York,,New York
198.245.64.196,4,-26,chemi-con.com,US,Americas,Northern America,United States of America,New York,,Buffalo
173.198.240.152,4,16,chessrivals.net,US,Americas,Northern America,United States of America,New York,,Latham
69.162.150.87,4,1836,chicagocac.org,US,Americas,Northern America,United States of America,New York,,Monroe
198.23.211.54,4,5,chicagovps.net,US,Americas,Northern America,United States of America,New York,,Buffalo
69.4.80.171,4,-228,chillspot1.com,US,Americas,Northern America,United States of America,New York,,Buffalo
23.95.102.154,4,1,chinemile.com,US,Americas,Northern America,United States of America,New York,,Buffalo
38.153.41.196,4,731,ciec.org,US,Americas,Northern America,United States of America,New York,,Buffalo
64.22.37.19,4,6,cios.org,US,Americas,Northern America,United States of America,New York,,Middleburgh
45.4.175.152,4,21,citact.org,US,Americas,Northern America,United States of America,New York,,Brooklyn
173.198.251.155,4,130,cityescortsdelhi.com,US,Americas,Northern America,United States of America,New York,,Latham
154.53.33.157,4,4,civicresearchinstitute.com,US,Americas,Northern America,United States of America,New York,,Orangeburg
38.170.72.192,4,912,clannada.org,US,Americas,Northern America,United States of America,New York,,Buffalo
216.120.237.52,4,0,claytoncramer.com,US,Americas,Northern America,United States of America,New York,,Clifton Park
154.38.176.242,4,5,codycrosssolutions.com,US,Americas,Northern America,United States of America,New York,,Orangeburg
23.95.12.147,4,1,colocrossing.com,US,Americas,Northern America,United States of America,New York,,Buffalo
23.95.9.155,4,10,comenalco.com,US,Americas,Northern America,United States of America,New York,,Buffalo
107.173.134.28,4,31,commune-bourre.com,US,Americas,Northern America,United States of America,New York,,Buffalo
23.29.112.242,4,52,communitycollegereview.com,US,Americas,Northern America,United States of America,New York,,New York
173.233.68.171,4,56,communityreachcenter.org,US,Americas,Northern America,United States of America,New York,,Latham
107.170.81.141,4,28,compraymudate.com,US,Americas,Northern America,United States of America,New York,,New York
66.165.246.164,4,6,configserver.com,US,Americas,Northern America,United States of America,New York,,New York
45.55.101.29,4,28,contemplativemind.org,US,Americas,Northern America,United States of America,New York,,New York
185.43.108.122,4,4,converses-outlet.com,US,Americas,Northern America,United States of America,New York,,New York
23.229.52.150,4,67,coronafm.net,US,Americas,Northern America,United States of America,New York,,Buffalo
173.198.245.247,4,5,correttoregrammaticale.top,US,Americas,Northern America,United States of America,New York,,Latham
23.95.164.196,4,1,corz.org,US,Americas,Northern America,United States of America,New York,,Buffalo
65.181.111.180,4,39,councilforeuropeanstudies.org,US,Americas,Northern America,United States of America,New York,,Buffalo
38.154.144.242,4,2848,couponswebdeal.com,US,Americas,Northern America,United States of America,New York,,Buffalo
162.243.243.115,4,2,cozilee.com,US,Americas,Northern America,United States of America,New York,,New York
173.233.70.215,4,2,crazydipika.com,US,Americas,Northern America,United States of America,New York,,Latham
198.20.175.106,4,18,crazzfiles.com,US,Americas,Northern America,United States of America,New York,,Buffalo
173.198.204.90,4,43,crc.org,US,Americas,Northern America,United States of America,New York,,Latham
38.86.171.137,4,-4,credit-land.com,US,Americas,Northern America,United States of America,New York,,New York
185.254.197.79,4,3011,cricfree.io,US,Americas,Northern America,United States of America,New York,,New York
45.45.219.29,4,5,csmedcenter.com,US,Americas,Northern America,United States of America,New York,,New York
45.45.219.30,4,5,csmedcenter.com,US,Americas,Northern America,United States of America,New York,,New York
198.12.64.202,4,1,ctstate.edu,US,Americas,Northern America,United States of America,New York,,Buffalo
104.206.204.144,4,9,culeague.com,US,Americas,Northern America,United States of America,New York,,New York
45.4.172.249,4,21,cvfmedical.com.br,US,Americas,Northern America,United States of America,New York,,Brooklyn
162.120.71.108,4,21,cybergirly.com,US,Americas,Northern America,United States of America,New York,,New York
45.43.19.225,4,33,cyborlink.com,US,Americas,Northern America,United States of America,New York,,Staten Island
181.214.142.230,4,-1,cyprusinstitutes.com,US,Americas,Northern America,United States of America,New York,,Buffalo
198.98.54.213,4,3,cyraxx.wiki,US,Americas,Northern America,United States of America,New York,,Staten Island
192.241.174.109,4,3,dabblet.com,US,Americas,Northern America,United States of America,New York,,New York
107.170.142.58,4,12,dangrover.com,US,Americas,Northern America,United States of America,New York,,New York
192.3.11.24,4,24,dashjr.org,US,Americas,Northern America,United States of America,New York,,Buffalo
192.3.11.20,4,40,dashjr.org,US,Americas,Northern America,United States of America,New York,,Buffalo
199.101.51.52,4,-627,davidbouley.com,US,Americas,Northern America,United States of America,New York,,Clifton Park
173.198.234.8,4,5,dchats.top,US,Americas,Northern America,United States of America,New York,,Latham
173.198.233.174,4,4,dealbranza.com,US,Americas,Northern America,United States of America,New York,,Latham
169.61.77.154,4,13,debanked.com,US,Americas,Northern America,United States of America,New York,,Brooklyn
192.241.253.233,4,0,deepundergroundpoetry.com,US,Americas,Northern America,United States of America,New York,,New York
173.233.66.91,4,31,delhi-call-girls.com,US,Americas,Northern America,United States of America,New York,,Latham
173.198.220.105,4,6,delhiescortsfun.com,US,Americas,Northern America,United States of America,New York,,Latham
66.109.20.101,4,10,designedcurated.com,US,Americas,Northern America,United States of America,New York,,Brooklyn
198.23.211.106,4,1118,dglassandmirror.com,US,Americas,Northern America,United States of America,New York,,Buffalo
162.243.99.166,4,35,diamondessays.com,US,Americas,Northern America,United States of America,New York,,New York
23.94.166.98,4,0,diannaobos.com,US,Americas,Northern America,United States of America,New York,,Buffalo
46.19.209.185,4,5,didww.com,US,Americas,Northern America,United States of America,New York,,New York
46.19.209.183,4,8,didww.com,US,Americas,Northern America,United States of America,New York,,New York
23.229.51.44,4,322,digiconegraphics.com,US,Americas,Northern America,United States of America,New York,,Buffalo
38.154.144.244,4,2832,digitalhikes.com,US,Americas,Northern America,United States of America,New York,,Buffalo
162.243.65.187,4,20,digitalhit.com,US,Americas,Northern America,United States of America,New York,,New York
66.11.130.216,4,4,dime.com,US,Americas,Northern America,United States of America,New York,,Stony Brook
173.198.238.58,4,3,dipikamehta.com,US,Americas,Northern America,United States of America,New York,,Latham
173.233.68.201,4,57,directoryvision.com,US,Americas,Northern America,United States of America,New York,,Latham
192.241.191.61,4,8,dirtymarkup.com,US,Americas,Northern America,United States of America,New York,,New York
192.241.248.55,4,6,distroscale.com,US,Americas,Northern America,United States of America,New York,,New York
45.55.100.124,4,32,dmuth.org,US,Americas,Northern America,United States of America,New York,,New York
68.191.13.129,4,-11139,DNS Server: 068-191-013-129.res.spectrum.com,US,Americas,Northern America,United States of America,New York,,Plattsburgh
104.168.122.188,4,-9,DNS Server: 104-168-122-188-host.colocrossing.com,US,Americas,Northern America,United States of America,New York,,Buffalo
107.173.114.102,4,21,DNS Server: 107-173-114-102-host.colocrossing.com,US,Americas,Northern America,United States of America,New York,,Buffalo
128.92.36.51,4,-24943009,DNS Server: 128-092-036-051.biz.spectrum.com,US,Americas,Northern America,United States of America,New York,,Keeseville
172.245.187.126,4,-37145,DNS Server: 172-245-187-126-host.colocrossing.com,US,Americas,Northern America,United States of America,New York,,Buffalo
173.242.108.5,4,304694,DNS Server: 173-242-108-5.static.firstlight.net,US,Americas,Northern America,United States of America,New York,,Plattsburgh
173.245.158.178,4,171,DNS Server: 178-158-245-173-cust.slic.com,US,Americas,Northern America,United States of America,New York,,
192.210.186.173,4,8,DNS Server: 192-210-186-173-host.colocrossing.com,US,Americas,Northern America,United States of America,New York,,Buffalo
192.3.165.102,4,2,DNS Server: 192-3-165-102-host.colocrossing.com,US,Americas,Northern America,United States of America,New York,,Buffalo
192.3.165.37,4,11,DNS Server: 192-3-165-37-host.colocrossing.com,US,Americas,Northern America,United States of America,New York,,Buffalo
52.119.88.204,4,-11170,DNS Server: 204.88.119.52.naturalwireless.com,US,Americas,Northern America,United States of America,New York,,Queens
217.79.254.130,4,4,DNS Server: 217-79-254-130.static.hvvc.us,US,Americas,Northern America,United States of America,New York,,New York
23.95.164.149,4,2,DNS Server: 23-95-164-149-host.colocrossing.com,US,Americas,Northern America,United States of America,New York,,Buffalo
5.61.27.148,4,235,DNS Server: 5-61-27-148.nrp.co,US,Americas,Northern America,United States of America,New York,,Buffalo
163.182.154.76,4,-14,DNS Server: 76.154.182.163.naturalwireless.com,US,Americas,Northern America,United States of America,New York,,New York
24.90.166.84,4,2954,DNS Server: cpe-24-90-166-84.nyc.res.rr.com,US,Americas,Northern America,United States of America,New York,,Queens
24.90.223.59,4,56,DNS Server: cpe-24-90-223-59.nyc.res.rr.com,US,Americas,Northern America,United States of America,New York,,Queens
66.65.164.188,4,1620,DNS Server: cpe-66-65-164-188.nyc.res.rr.com,US,Americas,Northern America,United States of America,New York,,New York
67.242.6.250,4,93,DNS Server: cpe-67-242-6-250.twcny.res.rr.com,US,Americas,Northern America,United States of America,New York,,Manlius
69.207.166.240,4,-51220,DNS Server: cpe-69-207-166-240.rochester.res.rr.com,US,Americas,Northern America,United States of America,New York,,Victor
74.67.129.64,4,87,DNS Server: cpe-74-67-129-64.rochester.res.rr.com,US,Americas,Northern America,United States of America,New York,,Walworth
74.68.57.71,4,16363,DNS Server: cpe-74-68-57-71.nj.res.rr.com,US,Americas,Northern America,United States of America,New York,,Brooklyn
74.69.130.174,4,-199,DNS Server: cpe-74-69-130-174.stny.res.rr.com,US,Americas,Northern America,United States of America,New York,,Ithaca
74.69.131.237,4,18006289,DNS Server: cpe-74-69-131-237.stny.res.rr.com,US,Americas,Northern America,United States of America,New York,,Ithaca
74.69.164.79,4,-44293,DNS Server: cpe-74-69-164-79.stny.res.rr.com,US,Americas,Northern America,United States of America,New York,,Ithaca
74.69.204.101,4,-12434,DNS Server: cpe-74-69-204-101.maine.res.rr.com,US,Americas,Northern America,United States of America,New York,,Ithaca
74.72.187.76,4,-25122,DNS Server: cpe-74-72-187-76.nyc.res.rr.com,US,Americas,Northern America,United States of America,New York,,Brooklyn
74.74.231.125,4,148,DNS Server: cpe-74-74-231-125.rochester.res.rr.com,US,Americas,Northern America,United States of America,New York,,Ontario
98.5.243.104,4,416,DNS Server: cpe-98-5-243-104.buffalo.res.rr.com,US,Americas,Northern America,United States of America,New York,,Buffalo
72.10.214.13,4,17,DNS Server: cust-static-ip.ny.us.midtel.net,US,Americas,Northern America,United States of America,New York,,Germantown
72.18.48.120,4,5,DNS Server: dns0.odssny.empacc.net,US,Americas,Northern America,United States of America,New York,,Dansville
64.80.255.240,4,4,DNS Server: dns2-roc.paetec.net,US,Americas,Northern America,United States of America,New York,,Albany
208.89.96.171,4,1174,DNS Server: exchange.traxi.com,US,Americas,Northern America,United States of America,New York,,New York
24.39.127.26,4,6955,DNS Server: gen-024-039-127-26.biz.spectrum.com,US,Americas,Northern America,United States of America,New York,,New York
40.131.39.197,4,12453,DNS Server: h197.39.131.40.static.ip.windstream.net,US,Americas,Northern America,United States of America,New York,,New York
154.12.250.50,4,285,DNS Server: midgard.dataservix.com,US,Americas,Northern America,United States of America,New York,,Orangeburg
98.7.37.185,4,8866,DNS Server: mta-98-7-37-185.nyc.rr.com,US,Americas,Northern America,United States of America,New York,,New York
75.99.29.5,4,119873,DNS Server: ool-4b631d05.static.optonline.net,US,Americas,Northern America,United States of America,New York,,Ronkonkoma
172.245.118.121,4,147,DNS Server: phole.allns.fr,US,Americas,Northern America,United States of America,New York,,Buffalo
107.173.114.10,4,123,DNS Server: pi.de4.xyz,US,Americas,Northern America,United States of America,New York,,Buffalo
96.249.1.153,4,14400460,DNS Server: pool-96-249-1-153.albyny.east.verizon.net,US,Americas,Northern America,United States of America,New York,,Clifton Park
184.74.156.51,4,8526,DNS Server: rrcs-184-74-156-51.nys.biz.rr.com,US,Americas,Northern America,United States of America,New York,,Middletown
23.246.82.186,4,216581,DNS Server: rrcs-23-246-82-186.nyc.biz.rr.com,US,Americas,Northern America,United States of America,New York,,Queens
72.45.180.250,4,21882638,DNS Server: rrcs-72-45-180-250.nys.biz.rr.com,US,Americas,Northern America,United States of America,New York,,Lancaster
96.246.89.243,4,2001558,DNS Server: static-96-246-89-243.nycmny.fios.verizon.net,US,Americas,Northern America,United States of America,New York,,Queens
216.107.137.50,4,17,dogsvets.com,US,Americas,Northern America,United States of America,New York,,New York
107.191.99.29,4,4,domaingang.com,US,Americas,Northern America,United States of America,New York,,New York
45.55.102.213,4,6,don-lindsay-archive.org,US,Americas,Northern America,United States of America,New York,,New York
173.233.94.191,4,6,downinspector.com,US,Americas,Northern America,United States of America,New York,,Latham
86.48.25.149,4,6,dracenafm.com,US,Americas,Northern America,United States of America,New York,,Orangeburg
162.243.97.37,4,9,dradis.com,US,Americas,Northern America,United States of America,New York,,New York
65.181.111.179,4,94,dsngrid.com,US,Americas,Northern America,United States of America,New York,,Buffalo
190.92.169.74,4,30,dumps4free.com,US,Americas,Northern America,United States of America,New York,,Buffalo
190.92.168.69,4,104,dumpsmate.com,US,Americas,Northern America,United States of America,New York,,Buffalo
192.250.231.89,4,0,dumpstool.com,US,Americas,Northern America,United States of America,New York,,Buffalo
45.4.172.170,4,-10,durhamsoftball.com,US,Americas,Northern America,United States of America,New York,,Brooklyn
66.248.241.160,4,93327,dusp.org,US,Americas,Northern America,United States of America,New York,,Buffalo
173.198.241.7,4,44,dveryoptom.com,US,Americas,Northern America,United States of America,New York,,Latham
192.243.110.3,4,16,earthquestion.com,US,Americas,Northern America,United States of America,New York,,Buffalo
45.4.173.42,4,4,eastlansinginfo.news,US,Americas,Northern America,United States of America,New York,,Brooklyn
23.19.225.56,4,28,ebimarketing.com,US,Americas,Northern America,United States of America,New York,,New York
104.145.235.231,4,-2,ecf.org.il,US,Americas,Northern America,United States of America,New York,,New York
45.4.173.19,4,3,ecigone.com,US,Americas,Northern America,United States of America,New York,,Brooklyn
38.105.232.185,4,29,edudorm.com,US,Americas,Northern America,United States of America,New York,,Orangeburg
191.96.165.203,4,73,eldoradocountyweather.com,US,Americas,Northern America,United States of America,New York,,Buffalo
107.170.169.199,4,10,email-guru.com,US,Americas,Northern America,United States of America,New York,,New York
173.198.209.123,4,1,embassyhomepage.com,US,Americas,Northern America,United States of America,New York,,Latham
192.241.172.58,4,14,emilyreviews.com,US,Americas,Northern America,United States of America,New York,,New York
66.165.246.170,4,34,enercon.com.ar,US,Americas,Northern America,United States of America,New York,,New York
162.243.0.196,4,28,envio.org.ni,US,Americas,Northern America,United States of America,New York,,New York
23.229.43.50,4,473,ereadcost.eu,US,Americas,Northern America,United States of America,New York,,Buffalo
198.20.179.190,4,384,esarch.info,US,Americas,Northern America,United States of America,New York,,Buffalo
66.11.130.210,4,32,esquirebank.com,US,Americas,Northern America,United States of America,New York,,Stony Brook
209.95.52.130,4,5,etatvasoft.com,US,Americas,Northern America,United States of America,New York,,New York
173.198.231.209,4,1,eurasiafuture.com,US,Americas,Northern America,United States of America,New York,,Latham
23.94.70.207,4,16,excel-egy.com,US,Americas,Northern America,United States of America,New York,,Buffalo
198.251.83.106,4,5,expertcomapny.com,US,Americas,Northern America,United States of America,New York,,Staten Island
69.4.80.74,4,-3,explaindio.com,US,Americas,Northern America,United States of America,New York,,Buffalo
23.29.118.197,4,-18,exportadoresbrasileiros.com.br,US,Americas,Northern America,United States of America,New York,,New York
65.181.111.167,4,1,face-and-emotion.com,US,Americas,Northern America,United States of America,New York,,Buffalo
192.241.181.89,4,3,faximum.com,US,Americas,Northern America,United States of America,New York,,New York
169.197.80.105,4,27,fictioneer.org,US,Americas,Northern America,United States of America,New York,,Staten Island
173.233.82.242,4,57,film.org,US,Americas,Northern America,United States of America,New York,,Latham
45.55.102.92,4,25,financialexpress-bd.com,US,Americas,Northern America,United States of America,New York,,New York
192.241.240.50,4,9,fitstopxp.com,US,Americas,Northern America,United States of America,New York,,New York
198.23.176.214,4,5,flashydubai.com,US,Americas,Northern America,United States of America,New York,,Buffalo
23.95.101.130,4,25,fleurieupeninsulavisitorguide.com.au,US,Americas,Northern America,United States of America,New York,,Buffalo
192.250.231.168,4,7,flexpointmarketing.com,US,Americas,Northern America,United States of America,New York,,Buffalo
184.174.114.13,4,4,flightlevel350.com,US,Americas,Northern America,United States of America,New York,,New York
65.98.103.122,4,3533706,flooble.com,US,Americas,Northern America,United States of America,New York,,New York
190.102.105.227,4,420,fonar.com,US,Americas,Northern America,United States of America,New York,,New York
107.170.141.33,4,114,fonts4free.net,US,Americas,Northern America,United States of America,New York,,New York
162.243.200.11,4,35,foodb.ca,US,Americas,Northern America,United States of America,New York,,New York
198.23.217.116,4,0,forbesmarket.net,US,Americas,Northern America,United States of America,New York,,Buffalo
162.243.227.8,4,1829,forgottenchicago.com,US,Americas,Northern America,United States of America,New York,,New York
181.214.31.161,4,24,fourthamendment.com,US,Americas,Northern America,United States of America,New York,,Buffalo
192.3.11.182,4,51,free-energy-info.co.uk,US,Americas,Northern America,United States of America,New York,,Buffalo
45.4.173.36,4,3,freetochoosenetwork.org,US,Americas,Northern America,United States of America,New York,,Brooklyn
192.3.137.70,4,27,freewareppc.com,US,Americas,Northern America,United States of America,New York,,Buffalo
23.229.1.32,4,6,fromthewilderness.com,US,Americas,Northern America,United States of America,New York,,Buffalo
168.235.110.113,4,-226730,fry.gs,US,Americas,Northern America,United States of America,New York,,
144.208.124.55,4,8,fuerteventura-forum.com,US,Americas,Northern America,United States of America,New York,,New York
23.94.156.241,4,16,fundacaolasalle.org.br,US,Americas,Northern America,United States of America,New York,,Buffalo
216.187.9.201,4,11,furnishedquarters.com,US,Americas,Northern America,United States of America,New York,,New York
216.120.237.195,4,2,gamecubicle.com,US,Americas,Northern America,United States of America,New York,,Clifton Park
38.135.122.210,4,2,gamehitzone.com,US,Americas,Northern America,United States of America,New York,,Brooklyn
65.181.111.241,4,10,gatheringofthevibes.com,US,Americas,Northern America,United States of America,New York,,Buffalo
173.233.83.90,4,2,gayhookups.net,US,Americas,Northern America,United States of America,New York,,Latham
66.216.5.146,4,-1092,gc-forever.com,US,Americas,Northern America,United States of America,New York,,Queens
168.235.88.148,4,-6,ghisler.com,US,Americas,Northern America,United States of America,New York,,New York
107.175.38.78,4,3,gifer.com,US,Americas,Northern America,United States of America,New York,,Buffalo
107.170.54.196,4,2437287,gl-advert-delivery.com,US,Americas,Northern America,United States of America,New York,,New York
23.29.118.141,4,-9,globalrights.org,US,Americas,Northern America,United States of America,New York,,New York
65.181.111.146,4,40,goldandgreentaxi.com,US,Americas,Northern America,United States of America,New York,,Buffalo
163.182.170.17,4,7,goodhouse.com.tw,US,Americas,Northern America,United States of America,New York,,Latham
169.61.106.129,4,2,goodwillcardonation.org,US,Americas,Northern America,United States of America,New York,,Brooklyn
192.3.201.45,4,35,gorillasafaritrails.com,US,Americas,Northern America,United States of America,New York,,Buffalo
23.92.78.216,4,3,govisithawaii.com,US,Americas,Northern America,United States of America,New York,,New York
62.146.227.72,4,41,gponperu.com,US,Americas,Northern America,United States of America,New York,,Orangeburg
208.123.116.74,4,16,granatcasino.com,US,Americas,Northern America,United States of America,New York,,New York
129.21.231.17,4,2,graphicsatlas.org,US,Americas,Northern America,United States of America,New York,,Rochester
181.214.142.78,4,42,greasylake.org,US,Americas,Northern America,United States of America,New York,,Buffalo
198.12.87.139,4,1039,gtjc.ca,US,Americas,Northern America,United States of America,New York,,Buffalo
154.16.115.226,4,-3,guiascostarica.com,US,Americas,Northern America,United States of America,New York,,Buffalo
216.120.228.16,4,14,gulfapex.com,US,Americas,Northern America,United States of America,New York,,Clifton Park
192.223.11.56,4,-858,gulfcoast.edu,US,Americas,Northern America,United States of America,New York,,Orangeburg
65.181.111.122,4,-8,guntherlee.com,US,Americas,Northern America,United States of America,New York,,Buffalo
107.172.18.180,4,-1,h17.ru,US,Americas,Northern America,United States of America,New York,,Buffalo
192.241.163.13,4,1164212,habariproject.org,US,Americas,Northern America,United States of America,New York,,New York
128.253.3.148,4,5,hackingdistributed.com,US,Americas,Northern America,United States of America,New York,,Ithaca
139.60.160.38,4,4,handyarchive.com,US,Americas,Northern America,United States of America,New York,,New York
104.145.235.88,4,1,harmj0y.net,US,Americas,Northern America,United States of America,New York,,New York
190.92.171.214,4,37,harvardfiltration.com,US,Americas,Northern America,United States of America,New York,,Buffalo
173.198.198.11,4,10,harvoni.space,US,Americas,Northern America,United States of America,New York,,Latham
107.170.59.87,4,48,healthpowerhouse.com,US,Americas,Northern America,United States of America,New York,,New York
173.198.196.93,4,3,heavenmumbai.com,US,Americas,Northern America,United States of America,New York,,Latham
107.175.37.167,4,1,henfred.me,US,Americas,Northern America,United States of America,New York,,Buffalo
173.231.40.34,4,8,henrythehand.com,US,Americas,Northern America,United States of America,New York,,New York
154.12.234.181,4,27,hermandadblanca.org,US,Americas,Northern America,United States of America,New York,,Orangeburg
107.170.21.112,4,8,heroicrelics.org,US,Americas,Northern America,United States of America,New York,,New York
23.229.29.112,4,488,hickoksports.com,US,Americas,Northern America,United States of America,New York,,Buffalo
209.208.110.86,4,301,hipermailer.com.ar,US,Americas,Northern America,United States of America,New York,,New York
71.167.140.140,4,-327979,hipguide.com,US,Americas,Northern America,United States of America,New York,,Port Washington
23.95.103.172,4,1457609,hiphop-network.com,US,Americas,Northern America,United States of America,New York,,Buffalo
23.105.128.11,4,67380,hofmann.org,US,Americas,Northern America,United States of America,New York,,New York
162.243.1.212,4,27,homeschoolon.com,US,Americas,Northern America,United States of America,New York,,New York
65.181.111.132,4,-2,hometutorbd.com,US,Americas,Northern America,United States of America,New York,,Buffalo
216.98.102.129,4,36,honda-ri.com,US,Americas,Northern America,United States of America,New York,,New York
173.198.223.227,4,9,hotishadubey.com,US,Americas,Northern America,United States of America,New York,,Latham
193.200.149.195,4,139,hylifesaving.com,US,Americas,Northern America,United States of America,New York,,
209.95.52.152,4,4,i-gifts.su,US,Americas,Northern America,United States of America,New York,,New York
198.46.141.179,4,12,icsf.net,US,Americas,Northern America,United States of America,New York,,Buffalo
107.174.144.26,4,-7,ictsd.net,US,Americas,Northern America,United States of America,New York,,Buffalo
107.170.160.49,4,4,identi.ca,US,Americas,Northern America,United States of America,New York,,New York
192.243.110.16,4,31,ifa.edu.pe,US,Americas,Northern America,United States of America,New York,,Buffalo
108.174.61.166,4,5,ifolder.ru,US,Americas,Northern America,United States of America,New York,,Buffalo
144.208.127.117,4,9,ijsn.net,US,Americas,Northern America,United States of America,New York,,New York
159.203.155.10,4,6,imrussia.org,US,Americas,Northern America,United States of America,New York,,New York
162.243.4.56,4,1420328,inclusion.co.ke,US,Americas,Northern America,United States of America,New York,,New York
199.232.39.7,4,8,indi.ca,US,Americas,Northern America,United States of America,New York,,New York
31.220.96.127,4,3,infoclutch.com,US,Americas,Northern America,United States of America,New York,,Orangeburg
162.243.47.94,4,65036,infomotions.com,US,Americas,Northern America,United States of America,New York,,New York
38.154.146.189,4,11,infopackets.com,US,Americas,Northern America,United States of America,New York,,Buffalo
192.250.231.1,4,0,instantdegrees.org,US,Americas,Northern America,United States of America,New York,,Buffalo
38.170.78.212,4,24,interestingprojects.com,US,Americas,Northern America,United States of America,New York,,Buffalo
107.170.164.113,4,89,internalpointers.com,US,Americas,Northern America,United States of America,New York,,New York
192.241.165.201,4,6,ioscallrecorder.net,US,Americas,Northern America,United States of America,New York,,New York
173.198.194.23,4,10,isajain.com,US,Americas,Northern America,United States of America,New York,,Latham
192.250.231.3,4,47,isastutter.org,US,Americas,Northern America,United States of America,New York,,Buffalo
199.195.250.19,4,4,j7hotel.com,US,Americas,Northern America,United States of America,New York,,Staten Island
45.55.103.11,4,2801,jacksonholetraveler.com,US,Americas,Northern America,United States of America,New York,,New York
162.243.7.132,4,35,jacksonimmuno.com,US,Americas,Northern America,United States of America,New York,,New York
190.92.168.151,4,1,jcf.gov.jm,US,Americas,Northern America,United States of America,New York,,Buffalo
173.198.233.55,4,3,jenakapoor.com,US,Americas,Northern America,United States of America,New York,,Latham
66.231.216.182,4,3,jfsowa.com,US,Americas,Northern America,United States of America,New York,,Fairport
104.131.200.142,4,5277377,jigsaw.org,US,Americas,Northern America,United States of America,New York,,New York
209.95.50.27,4,24,joomag.com,US,Americas,Northern America,United States of America,New York,,New York
64.44.41.10,4,3,jpaulmorrison.com,US,Americas,Northern America,United States of America,New York,,Buffalo
96.9.241.99,4,3,kathygriffin.net,US,Americas,Northern America,United States of America,New York,,Buffalo
173.233.75.27,4,2,kavyalamba.com,US,Americas,Northern America,United States of America,New York,,Latham
66.94.110.125,4,6,kboosting.com,US,Americas,Northern America,United States of America,New York,,Orangeburg
169.61.74.237,4,794,keson.com,US,Americas,Northern America,United States of America,New York,,Brooklyn
181.214.31.34,4,10,kev.store,US,Americas,Northern America,United States of America,New York,,Buffalo
162.245.85.194,4,3,khabarban.com,US,Americas,Northern America,United States of America,New York,,Buffalo
209.126.77.226,4,6,killerplayer.com,US,Americas,Northern America,United States of America,New York,,Orangeburg
216.120.231.250,4,29,knittingonthenet.com,US,Americas,Northern America,United States of America,New York,,Clifton Park
172.245.213.186,4,70,knowledgetimer.com,US,Americas,Northern America,United States of America,New York,,Buffalo
66.248.241.9,4,1,krotcinus.com,US,Americas,Northern America,United States of America,New York,,Buffalo
216.107.137.52,4,5,kyourc.com,US,Americas,Northern America,United States of America,New York,,New York
107.173.46.134,4,64,lacitybeat.com,US,Americas,Northern America,United States of America,New York,,Buffalo
192.241.183.225,4,2660778,ladyada.net,US,Americas,Northern America,United States of America,New York,,New York
65.181.111.173,4,-1,lascarelectronics.com,US,Americas,Northern America,United States of America,New York,,Buffalo
185.213.26.132,4,32,latinosdelmundo.com,US,Americas,Northern America,United States of America,New York,,New York
104.168.100.180,4,0,latterdaysaintartswiki.org,US,Americas,Northern America,United States of America,New York,,Buffalo
173.198.235.126,4,10,lavocedinewyork.com,US,Americas,Northern America,United States of America,New York,,Latham
173.233.82.50,4,3,lawprudentia.com,US,Americas,Northern America,United States of America,New York,,Latham
198.12.124.226,4,94,legalprofessionalsinc.org,US,Americas,Northern America,United States of America,New York,,Buffalo
192.198.104.235,4,378,lepetitchateauduvillard.com,US,Americas,Northern America,United States of America,New York,,Buffalo
104.131.213.144,4,23,lesbiemates.com,US,Americas,Northern America,United States of America,New York,,New York
38.153.47.134,4,941,lessframework.com,US,Americas,Northern America,United States of America,New York,,Buffalo
192.71.230.28,4,145033,lessing-photo.com,US,Americas,Northern America,United States of America,New York,,
69.36.182.72,4,25,letmegooglethat.com,US,Americas,Northern America,United States of America,New York,,New York
208.75.66.195,4,47,libraryweb.org,US,Americas,Northern America,United States of America,New York,,Rochester
162.243.54.214,4,1845207,librenix.com,US,Americas,Northern America,United States of America,New York,,New York
162.243.54.209,4,9536,likee.tw,US,Americas,Northern America,United States of America,New York,,New York
86.48.28.217,4,2,livecointrackers.com,US,Americas,Northern America,United States of America,New York,,Orangeburg
107.173.19.113,4,54,livingplacemarket.com,US,Americas,Northern America,United States of America,New York,,Buffalo
107.191.99.162,4,1,liwc.app,US,Americas,Northern America,United States of America,New York,,New York
107.182.225.67,4,0,lizardpoint.com,US,Americas,Northern America,United States of America,New York,,New York
209.95.50.105,4,1,lo4d.com,US,Americas,Northern America,United States of America,New York,,New York
192.241.244.137,4,4,loaris.app,US,Americas,Northern America,United States of America,New York,,New York
192.241.188.56,4,38,loganix.net,US,Americas,Northern America,United States of America,New York,,New York
173.233.68.249,4,62,logoorange.com,US,Americas,Northern America,United States of America,New York,,Latham
66.11.129.53,4,3,longislandmuseum.org,US,Americas,Northern America,United States of America,New York,,Stony Brook
45.4.175.204,4,3,lospromotores.net,US,Americas,Northern America,United States of America,New York,,Brooklyn
65.181.111.134,4,6,lostcrypt.com,US,Americas,Northern America,United States of America,New York,,Buffalo
173.198.218.135,4,13,lowescouponn.com,US,Americas,Northern America,United States of America,New York,,Latham
107.170.35.177,4,2410798,luvly.co,US,Americas,Northern America,United States of America,New York,,New York
154.12.235.31,4,31,luxurytoursagency.com,US,Americas,Northern America,United States of America,New York,,Orangeburg
65.254.1.162,4,4,macarthurairport.com,US,Americas,Northern America,United States of America,New York,,Brentwood
107.182.225.31,4,1,machutravelperu.com,US,Americas,Northern America,United States of America,New York,,New York
64.71.153.121,4,6,mailing-tube.com,US,Americas,Northern America,United States of America,New York,,White Plains
107.170.105.41,4,2,makeitpersonal.co,US,Americas,Northern America,United States of America,New York,,New York
192.227.150.111,4,-984984,manymoon.com,US,Americas,Northern America,United States of America,New York,,Buffalo
154.30.192.74,4,498,marsanomalyresearch.com,US,Americas,Northern America,United States of America,New York,,Buffalo
179.61.232.223,4,2342,med-top.net,US,Americas,Northern America,United States of America,New York,,Buffalo
162.243.76.245,4,54,media56.com,US,Americas,Northern America,United States of America,New York,,New York
72.69.161.14,4,96708,mediafilter.org,US,Americas,Northern America,United States of America,New York,,Queens
66.165.244.99,4,29,medieval-europe.eu,US,Americas,Northern America,United States of America,New York,,New York
107.172.88.134,4,4,meetbahim.co.il,US,Americas,Northern America,United States of America,New York,,Buffalo
104.225.216.213,4,16,megaleecher.net,US,Americas,Northern America,United States of America,New York,,New York
66.216.5.156,4,-1087,meish.org,US,Americas,Northern America,United States of America,New York,,Queens
23.29.119.99,4,6,melodyloops.com,US,Americas,Northern America,United States of America,New York,,New York
162.243.53.179,4,3,menshaircuts.com,US,Americas,Northern America,United States of America,New York,,New York
192.241.181.41,4,-1,merchline.com,US,Americas,Northern America,United States of America,New York,,New York
190.92.169.60,4,9,meteo.cw,US,Americas,Northern America,United States of America,New York,,Buffalo
64.31.24.186,4,8,metodoesolucoes.com.br,US,Americas,Northern America,United States of America,New York,,New York
168.235.110.103,4,-10,mex.tl,US,Americas,Northern America,United States of America,New York,,
23.94.26.82,4,12,miantextile.com,US,Americas,Northern America,United States of America,New York,,Buffalo
192.241.186.184,4,29,mikeash.com,US,Americas,Northern America,United States of America,New York,,New York
65.181.111.178,4,5,milcentro.pe,US,Americas,Northern America,United States of America,New York,,Buffalo
65.181.111.175,4,3,mineralsbase.com,US,Americas,Northern America,United States of America,New York,,Buffalo
190.92.169.161,4,-1,mitchellhamline.edu,US,Americas,Northern America,United States of America,New York,,Buffalo
173.233.64.158,4,13,modafiniludenrecept.space,US,Americas,Northern America,United States of America,New York,,Latham
179.61.137.114,4,9,modelboatmayhem.co.uk,US,Americas,Northern America,United States of America,New York,,Buffalo
173.198.254.162,4,28,monawalia.com,US,Americas,Northern America,United States of America,New York,,Latham
173.233.94.66,4,5,mpbusinessmag.com,US,Americas,Northern America,United States of America,New York,,Latham
173.198.197.213,4,3,msdipika.com,US,Americas,Northern America,United States of America,New York,,Latham
66.165.235.210,4,2,mtexpo.com.br,US,Americas,Northern America,United States of America,New York,,New York
154.16.147.142,4,573,muamat.com,US,Americas,Northern America,United States of America,New York,,Buffalo
162.243.214.85,4,-11740,multichain.com,US,Americas,Northern America,United States of America,New York,,New York
173.233.93.38,4,1,mumblit.com,US,Americas,Northern America,United States of America,New York,,Latham
65.181.111.156,4,3,musefree.com,US,Americas,Northern America,United States of America,New York,,Buffalo
192.241.166.166,4,89,musicforamerica.org,US,Americas,Northern America,United States of America,New York,,New York
198.23.213.226,4,-3,muslimyouth.ca,US,Americas,Northern America,United States of America,New York,,Buffalo
192.186.139.225,4,725,mutualist.org,US,Americas,Northern America,United States of America,New York,,Buffalo
23.95.97.34,4,12,myantispyware.com,US,Americas,Northern America,United States of America,New York,,Buffalo
65.181.111.240,4,-1,mycoast2coastprinter.com,US,Americas,Northern America,United States of America,New York,,Buffalo
66.165.234.106,4,2,myparishapp.com,US,Americas,Northern America,United States of America,New York,,New York
199.195.254.68,4,14,nadeko.net,US,Americas,Northern America,United States of America,New York,,Staten Island
45.4.173.115,4,3,namadr.com,US,Americas,Northern America,United States of America,New York,,Brooklyn
192.3.217.18,4,22,naturalpe.co.il,US,Americas,Northern America,United States of America,New York,,Buffalo
107.170.51.81,4,-121020,ncmonline.com,US,Americas,Northern America,United States of America,New York,,New York
154.16.115.99,4,35,ndtsventures.com,US,Americas,Northern America,United States of America,New York,,Buffalo
173.198.220.141,4,34,nehababe.com,US,Americas,Northern America,United States of America,New York,,Latham
173.198.246.109,4,4,nehamumbai.com,US,Americas,Northern America,United States of America,New York,,Latham
154.12.250.187,4,26,neo-trans.blog,US,Americas,Northern America,United States of America,New York,,Orangeburg
216.120.237.104,4,-1,neojaponisme.com,US,Americas,Northern America,United States of America,New York,,Clifton Park
104.131.222.197,4,4,newmediadenver.com,US,Americas,Northern America,United States of America,New York,,New York
198.251.81.49,4,20,newsdurhamregion.com,US,Americas,Northern America,United States of America,New York,,Staten Island
172.245.14.58,4,32,newsmakingnews.com,US,Americas,Northern America,United States of America,New York,,Buffalo
66.206.1.194,4,6,newyorkbyrail.com,US,Americas,Northern America,United States of America,New York,,New York
65.181.111.123,4,7,neystadt.org,US,Americas,Northern America,United States of America,New York,,Buffalo
65.181.111.131,4,-10,ngugiwathiongo.com,US,Americas,Northern America,United States of America,New York,,Buffalo
173.198.223.205,4,3,nitachopra.com,US,Americas,Northern America,United States of America,New York,,Latham
199.38.181.83,4,6,nobandwidth.net,US,Americas,Northern America,United States of America,New York,,New York
173.233.89.149,4,26,noidacallgirls.com,US,Americas,Northern America,United States of America,New York,,Latham
173.198.226.142,4,28,noidacallgirlservice.com,US,Americas,Northern America,United States of America,New York,,Latham
198.98.49.64,4,13,nomoreroominhell.com,US,Americas,Northern America,United States of America,New York,,Staten Island
172.245.161.131,4,857772,norvascamlodipinetce.com,US,Americas,Northern America,United States of America,New York,,Buffalo
192.241.246.48,4,63,norweco.com,US,Americas,Northern America,United States of America,New York,,New York
23.94.30.178,4,7,noteworthysoftware.com,US,Americas,Northern America,United States of America,New York,,Buffalo
65.181.111.136,4,2,novostit.com,US,Americas,Northern America,United States of America,New York,,Buffalo
24.38.103.6,4,5,nutleyschools.org,US,Americas,Northern America,United States of America,New York,,Queens
107.170.112.160,4,8,ocenaudio.com,US,Americas,Northern America,United States of America,New York,,New York
190.102.105.235,4,33,oeffentlicher-dienst.info,US,Americas,Northern America,United States of America,New York,,New York
198.46.140.66,4,-5,officialbroncosfootball.com,US,Americas,Northern America,United States of America,New York,,Buffalo
65.181.111.242,4,0,old-time.com,US,Americas,Northern America,United States of America,New York,,Buffalo
198.245.66.130,4,21,olddutchfoods.ca,US,Americas,Northern America,United States of America,New York,,Buffalo
170.39.214.101,4,24,oldnelsonfood.com,US,Americas,Northern America,United States of America,New York,,Staten Island
192.227.215.219,4,16,onegreenglobe.com,US,Americas,Northern America,United States of America,New York,,Buffalo
174.138.177.173,4,25,onlinedigitalbookmark.com,US,Americas,Northern America,United States of America,New York,,New York
172.96.145.109,4,357,Ookla Speedtest Server 7093: speedtest-syr.northland.net,US,Americas,Northern America,United States of America,New York,,Syracuse
67.216.14.109,4,331,Ookla Speedtest Server 8444: speedtest-utc.northland.net,US,Americas,Northern America,United States of America,New York,,Rome
158.106.210.217,4,2111256,Ookla Speedtest Server 13098: speedtest.pilotfiber.com,US,Americas,Northern America,United States of America,New York,,New York
129.21.171.72,4,366,Ookla Speedtest Server 14148: speedtest.rit.edu,US,Americas,Northern America,United States of America,New York,,Pittsford
23.151.137.21,4,200,Ookla Speedtest Server 15735: speedtest.nyc.macarne.com,US,Americas,Northern America,United States of America,New York,,New York
163.182.128.42,4,230,Ookla Speedtest Server 16888: speedtest.naturalwireless.com,US,Americas,Northern America,United States of America,New York,,Queens
24.29.97.13,4,148,Ookla Speedtest Server 16976: speedtest.nyc.rr.com,US,Americas,Northern America,United States of America,New York,,Yonkers
154.27.119.2,4,261,Ookla Speedtest Server 21016: speedtest-server-nyc.starry.com,US,Americas,Northern America,United States of America,New York,,New York
208.64.72.11,4,364,Ookla Speedtest Server 21480: mtcspeedtest.catskill.net,US,Americas,Northern America,United States of America,New York,,Margaretville
24.148.111.238,4,300,Ookla Speedtest Server 33195: speedtest.mhcable.com,US,Americas,Northern America,United States of America,New York,,Greenville
128.151.5.10,4,-55342,Ookla Speedtest Server 45389: speedtest1.net.rochester.edu,US,Americas,Northern America,United States of America,New York,,Rochester
160.202.167.59,4,286,Ookla Speedtest Server 46120: ny2.speedtest.gslnetworks.com,US,Americas,Northern America,United States of America,New York,,New York
64.185.225.129,4,246,Ookla Speedtest Server 51171: nyc1-speedtest.webnx.com,US,Americas,Northern America,United States of America,New York,,New York
38.43.0.255,4,238,Ookla Speedtest Server 56855: speedtest5.fybercom.net,US,Americas,Northern America,United States of America,New York,,Sherburne
23.226.86.245,4,312,Ookla Speedtest Server 57096: speedtest-binghamton.greenlightnetworks.com,US,Americas,Northern America,United States of America,New York,,Binghamton
207.66.70.10,4,281,Ookla Speedtest Server 59602: speed09.gonetspeed.com,US,Americas,Northern America,United States of America,New York,,Phelps
207.66.78.250,4,338,Ookla Speedtest Server 59672: speed08.gonetspeed.com,US,Americas,Northern America,United States of America,New York,,Buffalo
148.76.234.66,4,364,Ookla Speedtest Server 62090: speedtest03.srv.whplny.alticeusa.net,US,Americas,Northern America,United States of America,New York,,The Bronx
148.76.236.58,4,190,Ookla Speedtest Server 62092: speedtest02.srv.prnynj.alticeusa.net,US,Americas,Northern America,United States of America,New York,,The Bronx
162.0.160.23,4,318,Ookla Speedtest Server 62458: speedtest-buffalo.greenlightnetworks.com,US,Americas,Northern America,United States of America,New York,,Buffalo
148.76.232.210,4,303,Ookla Speedtest Server 62462: speedtest01.srv.hcvlny.alticeusa.net,US,Americas,Northern America,United States of America,New York,,Hicksville
162.0.180.27,4,356,Ookla Speedtest Server 62491: speedtest-albany.greenlightnetworks.com,US,Americas,Northern America,United States of America,New York,,Albany
204.14.56.16,4,151,Ookla Speedtest Server: ookla.delhitel.net,US,Americas,Northern America,United States of America,New York,,Delhi
107.170.63.163,4,10,openaps.org,US,Americas,Northern America,United States of America,New York,,New York
66.94.106.212,4,52,opencenter.org,US,Americas,Northern America,United States of America,New York,,Orangeburg
107.174.70.18,4,31,openphdguiding.org,US,Americas,Northern America,United States of America,New York,,Buffalo
65.181.120.52,4,270,orangesmile.com,US,Americas,Northern America,United States of America,New York,,New York
173.233.70.114,4,2,oraoman.com,US,Americas,Northern America,United States of America,New York,,Latham
216.120.231.113,4,3,orbitals.com,US,Americas,Northern America,United States of America,New York,,Clifton Park
185.43.108.134,4,37,orionfans.com,US,Americas,Northern America,United States of America,New York,,New York
181.214.142.2,4,15,orwelltoday.com,US,Americas,Northern America,United States of America,New York,,Buffalo
66.94.108.250,4,15,oshea-plumber.com,US,Americas,Northern America,United States of America,New York,,Orangeburg
173.233.84.226,4,2,otranation.com,US,Americas,Northern America,United States of America,New York,,Latham
179.61.192.103,4,2,ourcivilisation.com,US,Americas,Northern America,United States of America,New York,,Buffalo
23.229.26.23,4,699,ourcomments.org,US,Americas,Northern America,United States of America,New York,,Buffalo
66.248.241.17,4,735,outfm.org,US,Americas,Northern America,United States of America,New York,,Buffalo
162.243.214.163,4,159897,ozdeal.net,US,Americas,Northern America,United States of America,New York,,New York
65.181.111.230,4,2,packagingxpert.com,US,Americas,Northern America,United States of America,New York,,Buffalo
192.3.201.235,4,11,pajarojaguar.org,US,Americas,Northern America,United States of America,New York,,Buffalo
173.233.84.234,4,26,palestino.cl,US,Americas,Northern America,United States of America,New York,,Latham
45.55.101.192,4,45,paleycenter.org,US,Americas,Northern America,United States of America,New York,,New York
181.214.142.175,4,-269,pawsitesonline.com,US,Americas,Northern America,United States of America,New York,,Buffalo
162.243.240.67,4,2,pbfcomics.com,US,Americas,Northern America,United States of America,New York,,New York
154.16.114.85,4,6,pcetravel.com,US,Americas,Northern America,United States of America,New York,,Buffalo
154.16.115.51,4,5,peacefulwarrior.com,US,Americas,Northern America,United States of America,New York,,Buffalo
23.94.20.130,4,47,pequenasgrandescosas.com,US,Americas,Northern America,United States of America,New York,,Buffalo
5.61.27.125,4,40,persianseven.ir,US,Americas,Northern America,United States of America,New York,,Buffalo
31.220.98.112,4,1,persiapage.com,US,Americas,Northern America,United States of America,New York,,Orangeburg
198.251.81.14,4,37,pesticidepros.com,US,Americas,Northern America,United States of America,New York,,Staten Island
216.120.233.20,4,24,peterhirschberg.com,US,Americas,Northern America,United States of America,New York,,Clifton Park
173.198.220.153,4,22,petnetid.com,US,Americas,Northern America,United States of America,New York,,Latham
107.170.33.193,4,-149313,phenol-explorer.eu,US,Americas,Northern America,United States of America,New York,,New York
23.95.168.146,4,14,phpdelusions.net,US,Americas,Northern America,United States of America,New York,,Buffalo
173.233.65.46,4,34,pia.org,US,Americas,Northern America,United States of America,New York,,Latham
162.243.104.221,4,19151,pinklink.ca,US,Americas,Northern America,United States of America,New York,,New York
23.236.158.51,4,-6,pizanoschicago.com,US,Americas,Northern America,United States of America,New York,,Buffalo
139.60.161.59,4,28,planetcalc.com,US,Americas,Northern America,United States of America,New York,,New York
45.4.175.178,4,23,plantsg.com.sg,US,Americas,Northern America,United States of America,New York,,Brooklyn
184.174.114.158,4,3,playblackjack21.org,US,Americas,Northern America,United States of America,New York,,New York
45.4.175.101,4,9,plazacollege.edu,US,Americas,Northern America,United States of America,New York,,Brooklyn
91.237.143.103,4,3,plunge-in.at,US,Americas,Northern America,United States of America,New York,,New York
190.92.171.251,4,8,pmeasuring.com,US,Americas,Northern America,United States of America,New York,,Buffalo
67.85.59.166,4,3,poa.nyc,US,Americas,Northern America,United States of America,New York,,Brooklyn
162.243.244.88,4,-53053,poetryx.com,US,Americas,Northern America,United States of America,New York,,New York
104.192.218.19,4,47,politicalaffairs.net,US,Americas,Northern America,United States of America,New York,,New York
65.181.111.238,4,45,populardirectory.org,US,Americas,Northern America,United States of America,New York,,Buffalo
31.220.100.54,4,4,portalsaofrancisco.com.br,US,Americas,Northern America,United States of America,New York,,Orangeburg
107.155.100.118,4,17,poweredtemplates.com,US,Americas,Northern America,United States of America,New York,,New York
173.198.193.132,4,3,preetydesai.com,US,Americas,Northern America,United States of America,New York,,Latham
216.120.228.150,4,32,preromanbritain.com,US,Americas,Northern America,United States of America,New York,,Clifton Park
107.170.174.141,4,32,pricelabs.co,US,Americas,Northern America,United States of America,New York,,New York
216.120.231.252,4,0,pricelessware.org,US,Americas,Northern America,United States of America,New York,,Clifton Park
209.95.52.110,4,56,print-driver.com,US,Americas,Northern America,United States of America,New York,,New York
23.29.112.245,4,63,privateschoolreview.com,US,Americas,Northern America,United States of America,New York,,New York
65.181.111.181,4,23,procogs.com,US,Americas,Northern America,United States of America,New York,,Buffalo
65.181.111.232,4,29,procomme.com,US,Americas,Northern America,United States of America,New York,,Buffalo
89.117.79.12,4,17,promoteabhi.com,US,Americas,Northern America,United States of America,New York,,Orangeburg
162.243.228.214,4,23,prpbooks.com,US,Americas,Northern America,United States of America,New York,,New York
45.4.175.92,4,44,psdvault.com,US,Americas,Northern America,United States of America,New York,,Brooklyn
65.181.111.128,4,45,psychedelicswonderland.com,US,Americas,Northern America,United States of America,New York,,Buffalo
23.29.112.248,4,69,publicschoolreview.com,US,Americas,Northern America,United States of America,New York,,New York
65.181.111.250,4,52,puerto-lopez.com,US,Americas,Northern America,United States of America,New York,,Buffalo
144.208.125.231,4,26,puneescorts1.in,US,Americas,Northern America,United States of America,New York,,New York
154.38.184.146,4,7,purekonect.com,US,Americas,Northern America,United States of America,New York,,Orangeburg
70.23.27.203,4,107,pyleaudio.com,US,Americas,Northern America,United States of America,New York,,New York
144.126.150.240,4,3,qfautomation.com,US,Americas,Northern America,United States of America,New York,,Orangeburg
38.154.119.71,4,702,qinlingyouxuan.com,US,Americas,Northern America,United States of America,New York,,Buffalo
216.120.237.225,4,13,quickfound.net,US,Americas,Northern America,United States of America,New York,,Clifton Park
173.198.232.120,4,56,rachnarawat.com,US,Americas,Northern America,United States of America,New York,,Latham
199.232.39.10,4,76,raffles.com,US,Americas,Northern America,United States of America,New York,,New York
173.198.217.248,4,29,raipartygirl.com,US,Americas,Northern America,United States of America,New York,,Latham
173.233.85.39,4,10,ramyasen.com,US,Americas,Northern America,United States of America,New York,,Latham
163.182.170.165,4,19,rasnainternational.com,US,Americas,Northern America,United States of America,New York,,Latham
23.29.112.249,4,66,ratemyfishtank.com,US,Americas,Northern America,United States of America,New York,,New York
23.190.208.4,4,2,rcsdk12.org,US,Americas,Northern America,United States of America,New York,,Rochester
154.53.48.22,4,8,rdi.org,US,Americas,Northern America,United States of America,New York,,Orangeburg
162.243.64.59,4,29,re.cr,US,Americas,Northern America,United States of America,New York,,New York
65.181.111.151,4,10,reachoutmichigan.org,US,Americas,Northern America,United States of America,New York,,Buffalo
162.243.234.131,4,-98613,recallguide.org,US,Americas,Northern America,United States of America,New York,,New York
107.174.145.78,4,9,reddit-directory.com,US,Americas,Northern America,United States of America,New York,,Buffalo
190.92.169.113,4,8,redsymboltechnologies.com,US,Americas,Northern America,United States of America,New York,,Buffalo
162.120.71.87,4,15,remodelforums.com,US,Americas,Northern America,United States of America,New York,,New York
173.198.199.13,4,26,rentabeauties.com,US,Americas,Northern America,United States of America,New York,,Latham
173.233.66.106,4,2,rentyourbabes.com,US,Americas,Northern America,United States of America,New York,,Latham
198.98.48.235,4,26,repairmanjack.com,US,Americas,Northern America,United States of America,New York,,Staten Island
192.241.181.224,4,41,repoze.org,US,Americas,Northern America,United States of America,New York,,New York
89.187.179.215,4,54,restaurantguru.com,US,Americas,Northern America,United States of America,New York,,New York
38.86.171.145,4,217,rewardexpert.com,US,Americas,Northern America,United States of America,New York,,New York
169.61.126.5,4,30,rexfind.com,US,Americas,Northern America,United States of America,New York,,Brooklyn
198.251.81.97,4,3,reznorhvac.com,US,Americas,Northern America,United States of America,New York,,Staten Island
65.181.111.144,4,21,richupdates.com,US,Americas,Northern America,United States of America,New York,,Buffalo
162.243.24.125,4,21,ricmais.com.br,US,Americas,Northern America,United States of America,New York,,New York
173.198.215.17,4,8,riyabansal.com,US,Americas,Northern America,United States of America,New York,,Latham
173.198.246.75,4,3,riyabhatt.com,US,Americas,Northern America,United States of America,New York,,Latham
173.233.77.106,4,2,riyagarg.com,US,Americas,Northern America,United States of America,New York,,Latham
208.75.66.194,4,34,roccitylibrary.org,US,Americas,Northern America,United States of America,New York,,Rochester
190.92.172.246,4,39,rockandrollgarage.com,US,Americas,Northern America,United States of America,New York,,Buffalo
129.85.244.162,4,7,rockefeller.edu,US,Americas,Northern America,United States of America,New York,,New York
129.21.36.65,4,6,rocreflector.org,US,Americas,Northern America,United States of America,New York,,Rochester
163.182.174.250,4,41,rooms101.com,US,Americas,Northern America,United States of America,New York,,Latham
65.181.111.169,4,27,roovet.com,US,Americas,Northern America,United States of America,New York,,Buffalo
65.181.111.143,4,69,roscoevillage.com,US,Americas,Northern America,United States of America,New York,,Buffalo
198.98.61.35,4,6217,rpol.net,US,Americas,Northern America,United States of America,New York,,Staten Island
198.23.137.67,4,30,rrtt88.cn,US,Americas,Northern America,United States of America,New York,,Buffalo
192.241.183.221,4,4,rsjoomla.com,US,Americas,Northern America,United States of America,New York,,New York
162.243.20.169,4,2017848,rubyinside.com,US,Americas,Northern America,United States of America,New York,,New York
129.85.244.41,4,42,rucares.org,US,Americas,Northern America,United States of America,New York,,New York
151.101.45.91,4,10,rufflebutts.com,US,Americas,Northern America,United States of America,New York,,New York
194.140.198.197,4,57,rusnauka.com,US,Americas,Northern America,United States of America,New York,,Orangeburg
163.182.168.85,4,61,russianbeautiess.com,US,Americas,Northern America,United States of America,New York,,Latham
190.92.169.13,4,2,sabahtourism.com,US,Americas,Northern America,United States of America,New York,,Buffalo
192.186.132.73,4,393,saerch.info,US,Americas,Northern America,United States of America,New York,,Buffalo
173.198.244.45,4,4,sameerapatel.com,US,Americas,Northern America,United States of America,New York,,Latham
172.96.166.250,4,0,samefo.ge,US,Americas,Northern America,United States of America,New York,,New York
198.98.53.105,4,56,samiam.org,US,Americas,Northern America,United States of America,New York,,Staten Island
159.203.154.65,4,7,sanon.org,US,Americas,Northern America,United States of America,New York,,New York
23.94.66.195,4,-261,scducks.com,US,Americas,Northern America,United States of America,New York,,Buffalo
173.239.8.164,4,10,schematicheaven.com,US,Americas,Northern America,United States of America,New York,,New York
173.239.5.6,4,7,schematicheaven.com,US,Americas,Northern America,United States of America,New York,,New York
65.181.111.231,4,-3,schooltserovani3.edu.ge,US,Americas,Northern America,United States of America,New York,,Buffalo
107.170.117.143,4,14883,sclegacy.com,US,Americas,Northern America,United States of America,New York,,New York
216.120.229.123,4,11,scooterhelp.com,US,Americas,Northern America,United States of America,New York,,Clifton Park
162.243.229.151,4,13371,scottberkun.com,US,Americas,Northern America,United States of America,New York,,New York
192.241.172.73,4,8,scrumblr.ca,US,Americas,Northern America,United States of America,New York,,New York
104.114.72.201,4,1,sddac.com,US,Americas,Northern America,United States of America,New York,,New York
104.114.72.192,4,0,sddac.com,US,Americas,Northern America,United States of America,New York,,New York
104.168.56.229,4,1366,seniorsonly.club,US,Americas,Northern America,United States of America,New York,,Buffalo
173.198.216.242,4,8,sexydelhicityescorts.com,US,Americas,Northern America,United States of America,New York,,Latham
172.93.49.102,4,2,sgc-hosting.com,US,Americas,Northern America,United States of America,New York,,New York
172.241.166.202,4,8,shadowville.com,US,Americas,Northern America,United States of America,New York,,Garden City
173.198.234.59,4,2,shinaroy.com,US,Americas,Northern America,United States of America,New York,,Latham
65.181.111.9,4,3,shovelbums.org,US,Americas,Northern America,United States of America,New York,,Buffalo
129.250.47.99,4,-35138,shrubbery.net,US,Americas,Northern America,United States of America,New York,,New York
173.233.84.42,4,2,shrutiescort.com,US,Americas,Northern America,United States of America,New York,,Latham
192.243.110.5,4,1,sigmabattleroyale.com,US,Americas,Northern America,United States of America,New York,,Buffalo
65.181.111.239,4,7,sikhs.org,US,Americas,Northern America,United States of America,New York,,Buffalo
107.170.17.60,4,4,simsettlements.com,US,Americas,Northern America,United States of America,New York,,New York
65.181.111.157,4,2,simsfoundation.org,US,Americas,Northern America,United States of America,New York,,Buffalo
65.181.111.160,4,9,sireprinting.com,US,Americas,Northern America,United States of America,New York,,Buffalo
173.233.64.153,4,1,siyamathur.com,US,Americas,Northern America,United States of America,New York,,Latham
199.188.102.139,4,11,skycreatives.in,US,Americas,Northern America,United States of America,New York,,Buffalo
192.3.201.55,4,-5,sleepyjesus.net,US,Americas,Northern America,United States of America,New York,,Buffalo
173.198.250.234,4,13,slivki24.club,US,Americas,Northern America,United States of America,New York,,Latham
107.175.75.66,4,0,smallvideosoft.com,US,Americas,Northern America,United States of America,New York,,Buffalo
162.243.59.251,4,16,smarterthemes.com,US,Americas,Northern America,United States of America,New York,,New York
172.245.27.167,4,23,smartgardenhome.com,US,Americas,Northern America,United States of America,New York,,Buffalo
173.198.234.163,4,6,snehakaur.com,US,Americas,Northern America,United States of America,New York,,Latham
192.241.240.123,4,1036906,sni.org,US,Americas,Northern America,United States of America,New York,,New York
66.23.202.34,4,14,snoopreport.com,US,Americas,Northern America,United States of America,New York,,New York
162.243.18.32,4,372580,so-il.org,US,Americas,Northern America,United States of America,New York,,New York
198.251.81.188,4,3,socialhustle.co.uk,US,Americas,Northern America,United States of America,New York,,Staten Island
192.241.245.95,4,37,socialpsychology.org,US,Americas,Northern America,United States of America,New York,,New York
192.243.110.18,4,22,socialtic.org,US,Americas,Northern America,United States of America,New York,,Buffalo
38.152.116.144,4,10,softkey.info,US,Americas,Northern America,United States of America,New York,,Buffalo
162.243.116.64,4,26,softorbits.com,US,Americas,Northern America,United States of America,New York,,New York
168.235.91.80,4,56,somalispot.com,US,Americas,Northern America,United States of America,New York,,New York
38.153.40.132,4,737,somaly.org,US,Americas,Northern America,United States of America,New York,,Buffalo
173.198.226.229,4,68,sonamgarg.com,US,Americas,Northern America,United States of America,New York,,Latham
65.181.111.166,4,5,songwriterjunction.com,US,Americas,Northern America,United States of America,New York,,Buffalo
45.55.100.102,4,2,sopacnow.org,US,Americas,Northern America,United States of America,New York,,New York
198.251.83.217,4,4,sopeganit.in,US,Americas,Northern America,United States of America,New York,,Staten Island
66.216.5.157,4,3,soundtracker.org,US,Americas,Northern America,United States of America,New York,,Queens
173.198.245.253,4,2,southbeauties.com,US,Americas,Northern America,United States of America,New York,,Latham
181.214.31.79,4,67,spaceacademy.net.au,US,Americas,Northern America,United States of America,New York,,Buffalo
104.131.221.246,4,7,speeddater.co.uk,US,Americas,Northern America,United States of America,New York,,New York
208.123.116.78,4,51,spheralsolar.com,US,Americas,Northern America,United States of America,New York,,New York
65.181.111.125,4,1,sphinx-soft.com,US,Americas,Northern America,United States of America,New York,,Buffalo
23.94.81.123,4,-5,spicek2forsale.com,US,Americas,Northern America,United States of America,New York,,Buffalo
173.198.198.36,4,3,sportsnt.com.tw,US,Americas,Northern America,United States of America,New York,,Latham
190.92.171.96,4,59,sprintzeal.com,US,Americas,Northern America,United States of America,New York,,Buffalo
173.198.193.103,4,22,sprites-inc.co.uk,US,Americas,Northern America,United States of America,New York,,Latham
191.96.165.20,4,-7,sqlmaestro.com,US,Americas,Northern America,United States of America,New York,,Buffalo
23.95.197.29,4,13,st-torico.info,US,Americas,Northern America,United States of America,New York,,Buffalo
192.3.201.105,4,2,statisticsmaldives.gov.mv,US,Americas,Northern America,United States of America,New York,,Buffalo
181.214.31.165,4,-2,stdhkbp.ac.id,US,Americas,Northern America,United States of America,New York,,Buffalo
207.251.84.210,4,39,stealth.net,US,Americas,Northern America,United States of America,New York,,New York
199.232.37.124,4,144,stemcell.com,US,Americas,Northern America,United States of America,New York,,New York
45.4.173.79,4,56,stemcellresearch.org,US,Americas,Northern America,United States of America,New York,,Brooklyn
154.53.54.58,4,1,stemcelltreatmentnow.com,US,Americas,Northern America,United States of America,New York,,Orangeburg
128.59.241.85,4,8,stlr.org,US,Americas,Northern America,United States of America,New York,,New York
191.101.50.190,4,-1,streetswing.com,US,Americas,Northern America,United States of America,New York,,Buffalo
173.198.234.146,4,7,stromectolrf.online,US,Americas,Northern America,United States of America,New York,,Latham
128.59.16.27,4,-5,stroustrup.com,US,Americas,Northern America,United States of America,New York,,New York
173.198.196.58,4,60,stylishdipika.com,US,Americas,Northern America,United States of America,New York,,Latham
67.214.138.13,4,6755,suffolk.edu,US,Americas,Northern America,United States of America,New York,,Commack
104.131.241.32,4,541307,sunna.info,US,Americas,Northern America,United States of America,New York,,New York
65.181.111.28,4,11,sustainableindustries.com,US,Americas,Northern America,United States of America,New York,,Buffalo
45.4.175.142,4,5,svakom.net,US,Americas,Northern America,United States of America,New York,,Brooklyn
192.241.181.24,4,9,svn.com,US,Americas,Northern America,United States of America,New York,,New York
198.23.223.142,4,11,svsp.ru,US,Americas,Northern America,United States of America,New York,,Buffalo
173.233.89.66,4,3,swin55.online,US,Americas,Northern America,United States of America,New York,,Latham
65.181.111.129,4,1,szc-group.com,US,Americas,Northern America,United States of America,New York,,Buffalo
209.95.52.31,4,3,t1shopper.com,US,Americas,Northern America,United States of America,New York,,New York
107.170.114.201,4,0,t3db.ca,US,Americas,Northern America,United States of America,New York,,New York
65.181.111.185,4,0,taigtools.com,US,Americas,Northern America,United States of America,New York,,Buffalo
181.214.31.118,4,1,takemyonlineclassfast.com,US,Americas,Northern America,United States of America,New York,,Buffalo
173.198.205.144,4,7,tanyaahuja.com,US,Americas,Northern America,United States of America,New York,,Latham
173.198.221.167,4,4,tanyabansal.com,US,Americas,Northern America,United States of America,New York,,Latham
209.95.51.187,4,-1,tanzil.info,US,Americas,Northern America,United States of America,New York,,New York
162.243.74.95,4,2,tapiriik.com,US,Americas,Northern America,United States of America,New York,,New York
107.182.225.101,4,5,tatvasoft.co.uk,US,Americas,Northern America,United States of America,New York,,New York
65.181.111.229,4,-2,taught.info,US,Americas,Northern America,United States of America,New York,,Buffalo
107.191.99.131,4,41,teamfortress.tv,US,Americas,Northern America,United States of America,New York,,New York
138.199.40.9,4,26,techpowerup.com,US,Americas,Northern America,United States of America,New York,,New York
192.241.89.194,4,-14638461,teenhelp.org,US,Americas,Northern America,United States of America,New York,,Buffalo
23.92.78.214,4,3,templemount.org,US,Americas,Northern America,United States of America,New York,,New York
104.131.212.51,4,41,tenderbang.com,US,Americas,Northern America,United States of America,New York,,New York
162.243.24.7,4,3,tendermeets.com,US,Americas,Northern America,United States of America,New York,,New York
104.206.204.110,4,48,tents-bg.com,US,Americas,Northern America,United States of America,New York,,New York
66.94.96.60,4,2,terlikowskiart.com,US,Americas,Northern America,United States of America,New York,,Orangeburg
68.129.115.230,4,52,terrapin.com,US,Americas,Northern America,United States of America,New York,,Port Chester
181.214.31.82,4,23,tetrap.com,US,Americas,Northern America,United States of America,New York,,Buffalo
45.4.174.221,4,4,theacru.org,US,Americas,Northern America,United States of America,New York,,Brooklyn
192.241.244.192,4,990948,thebestcasescenario.com,US,Americas,Northern America,United States of America,New York,,New York
181.214.31.155,4,88,thehowlinwolf.com,US,Americas,Northern America,United States of America,New York,,Buffalo
162.243.49.164,4,30,themefuse.com,US,Americas,Northern America,United States of America,New York,,New York
65.181.111.23,4,4,themirch.com,US,Americas,Northern America,United States of America,New York,,Buffalo
192.169.88.62,4,1,themontserratreporter.com,US,Americas,Northern America,United States of America,New York,,New York
192.3.206.50,4,5,theopenpress.com,US,Americas,Northern America,United States of America,New York,,Buffalo
191.101.50.30,4,9,theosophy.org,US,Americas,Northern America,United States of America,New York,,Buffalo
168.235.110.25,4,53,thepatchboys.com,US,Americas,Northern America,United States of America,New York,,
192.3.201.145,4,-11,thesisleader.com,US,Americas,Northern America,United States of America,New York,,Buffalo
192.157.56.141,4,8,thespeedyspatula.com,US,Americas,Northern America,United States of America,New York,,Buffalo
192.157.56.139,4,0,thetype2experience.com,US,Americas,Northern America,United States of America,New York,,Buffalo
192.243.110.19,4,0,thewildhearts.com,US,Americas,Northern America,United States of America,New York,,Buffalo
154.38.181.126,4,10,thewillnigeria.com,US,Americas,Northern America,United States of America,New York,,Orangeburg
162.243.121.232,4,36,thisismyjam.com,US,Americas,Northern America,United States of America,New York,,New York
107.170.76.182,4,3,tickerforum.org,US,Americas,Northern America,United States of America,New York,,New York
107.174.36.159,4,37,timeforchangecounselling.com,US,Americas,Northern America,United States of America,New York,,Buffalo
45.55.100.46,4,806716,timelinetheatre.com,US,Americas,Northern America,United States of America,New York,,New York
173.233.67.240,4,29,tinaoberoi.in,US,Americas,Northern America,United States of America,New York,,Latham
179.61.192.250,4,7,tipradar.com,US,Americas,Northern America,United States of America,New York,,Buffalo
66.206.0.51,4,31,tomorrowsleep.com,US,Americas,Northern America,United States of America,New York,,New York
173.239.15.12,4,151458,totalproexpo.com,US,Americas,Northern America,United States of America,New York,,New York
23.95.206.13,4,560,toto365mania.com,US,Americas,Northern America,United States of America,New York,,Buffalo
198.46.204.28,4,570,toto365site.com,US,Americas,Northern America,United States of America,New York,,Buffalo
23.94.187.6,4,2,tousquimica.com,US,Americas,Northern America,United States of America,New York,,Buffalo
154.16.119.235,4,7,townandstyle.com,US,Americas,Northern America,United States of America,New York,,Buffalo
162.243.6.157,4,4815981,tpww.net,US,Americas,Northern America,United States of America,New York,,New York
169.61.113.184,4,173103,tracxpert.com,US,Americas,Northern America,United States of America,New York,,Brooklyn
173.198.198.251,4,8,tradefolios.com,US,Americas,Northern America,United States of America,New York,,Latham
169.61.126.45,4,16,trademark-clearinghouse.com,US,Americas,Northern America,United States of America,New York,,Brooklyn
209.95.52.18,4,3,tradesmeninternational.com,US,Americas,Northern America,United States of America,New York,,New York
65.181.111.32,4,10,transyasu.com,US,Americas,Northern America,United States of America,New York,,Buffalo
162.120.71.51,4,26,triketalk.com,US,Americas,Northern America,United States of America,New York,,New York
173.233.92.227,4,588,trsite.org,US,Americas,Northern America,United States of America,New York,,Latham
162.243.2.58,4,14,trueremedies.com,US,Americas,Northern America,United States of America,New York,,New York
209.95.52.135,4,-2,ts-market.com,US,Americas,Northern America,United States of America,New York,,New York
65.181.111.155,4,7,tucc.org,US,Americas,Northern America,United States of America,New York,,Buffalo
173.233.95.27,4,748,turnkeyinternet.net,US,Americas,Northern America,United States of America,New York,,Latham
23.92.78.34,4,4,tuxreports.com,US,Americas,Northern America,United States of America,New York,,New York
23.94.150.194,4,30,twinpinenetwork.com,US,Americas,Northern America,United States of America,New York,,Buffalo
198.20.164.178,4,3342,ultimatejobs.com,US,Americas,Northern America,United States of America,New York,,Buffalo
66.11.129.48,4,6,ultraviolet.com,US,Americas,Northern America,United States of America,New York,,Stony Brook
192.3.201.35,4,4,umat.edu.gh,US,Americas,Northern America,United States of America,New York,,Buffalo
66.147.232.50,4,137,un-wiredtv.com,US,Americas,Northern America,United States of America,New York,,Clifton Park
173.211.81.11,4,11,up-00.com,US,Americas,Northern America,United States of America,New York,,Buffalo
65.181.111.126,4,5,uptoscreen.com,US,Americas,Northern America,United States of America,New York,,Buffalo
65.181.111.163,4,3,urdu123.com,US,Americas,Northern America,United States of America,New York,,Buffalo
198.98.57.239,4,1,usefuls247.com,US,Americas,Northern America,United States of America,New York,,Staten Island
181.214.31.78,4,1,usessaywriter.com,US,Americas,Northern America,United States of America,New York,,Buffalo
173.233.84.149,4,7,usgcambodia.com,US,Americas,Northern America,United States of America,New York,,Latham
192.3.201.90,4,-2,usmchangout.com,US,Americas,Northern America,United States of America,New York,,Buffalo
192.241.184.110,4,3,ututo.org,US,Americas,Northern America,United States of America,New York,,New York
192.250.231.141,4,14,vanogroup.com,US,Americas,Northern America,United States of America,New York,,Buffalo
216.120.230.85,4,3,vb-helper.com,US,Americas,Northern America,United States of America,New York,,Clifton Park
192.241.162.251,4,-1088226,vcexperts.com,US,Americas,Northern America,United States of America,New York,,New York
162.120.71.227,4,11,vegasfanatics.com,US,Americas,Northern America,United States of America,New York,,New York
179.61.192.104,4,10,velvetrevolution.us,US,Americas,Northern America,United States of America,New York,,Buffalo
192.227.228.252,4,-1,venith.net,US,Americas,Northern America,United States of America,New York,,Buffalo
162.243.222.89,4,12,vgmusic.com,US,Americas,Northern America,United States of America,New York,,New York
216.107.137.48,4,2,viagramall.top,US,Americas,Northern America,United States of America,New York,,New York
162.243.206.165,4,769625,viewstl.com,US,Americas,Northern America,United States of America,New York,,New York
65.181.111.8,4,65,vintagenewsdaily.com,US,Americas,Northern America,United States of America,New York,,Buffalo
173.198.206.32,4,3,vipmodelshub.com,US,Americas,Northern America,United States of America,New York,,Latham
71.105.224.117,4,71,virusshare.com,US,Americas,Northern America,United States of America,New York,,Brooklyn
65.181.111.142,4,5,vocalbop.com,US,Americas,Northern America,United States of America,New York,,Buffalo
107.170.77.193,4,141707,voodoopad.com,US,Americas,Northern America,United States of America,New York,,New York
174.128.43.94,4,3,votersunite.org,US,Americas,Northern America,United States of America,New York,,New York
38.154.144.245,4,2809,vpnblade.com,US,Americas,Northern America,United States of America,New York,,Buffalo
23.95.169.115,4,2,vvfit.com,US,Americas,Northern America,United States of America,New York,,Buffalo
190.92.172.220,4,8,wadav.com,US,Americas,Northern America,United States of America,New York,,Buffalo
23.95.197.112,4,4,walhello.com,US,Americas,Northern America,United States of America,New York,,Buffalo
98.142.107.123,4,515,warlinks.com,US,Americas,Northern America,United States of America,New York,,New York
172.245.30.224,4,4,waterbuckpump.com,US,Americas,Northern America,United States of America,New York,,Buffalo
65.181.111.13,4,13,wattstowers.us,US,Americas,Northern America,United States of America,New York,,Buffalo
185.254.197.149,4,14,wavesense.info,US,Americas,Northern America,United States of America,New York,,New York
192.243.110.20,4,16,webbsleuths.org,US,Americas,Northern America,United States of America,New York,,Buffalo
198.20.171.232,4,10,webmoves.net,US,Americas,Northern America,United States of America,New York,,Buffalo
65.181.111.133,4,1,webronhost.com,US,Americas,Northern America,United States of America,New York,,Buffalo
192.3.201.85,4,10,webser.ca,US,Americas,Northern America,United States of America,New York,,Buffalo
38.154.144.243,4,2812,webtechcoupons.net,US,Americas,Northern America,United States of America,New York,,Buffalo
96.243.16.5,4,4,weeklyhoroscope.com,US,Americas,Northern America,United States of America,New York,,Buffalo
191.101.50.240,4,-1,werebuild.eu,US,Americas,Northern America,United States of America,New York,,Buffalo
199.97.121.27,4,7,westchesterlibraries.org,US,Americas,Northern America,United States of America,New York,,South Salem
154.53.51.247,4,9,whatdreammeans.com,US,Americas,Northern America,United States of America,New York,,Orangeburg
154.38.177.200,4,5,whatsnew2day.com,US,Americas,Northern America,United States of America,New York,,Orangeburg
172.93.49.252,4,16,wiby.org,US,Americas,Northern America,United States of America,New York,,New York
144.208.124.87,4,52,wikiality.com,US,Americas,Northern America,United States of America,New York,,New York
192.157.56.140,4,16,wikicorp.org,US,Americas,Northern America,United States of America,New York,,Buffalo
107.170.77.187,4,67,wikimapping.com,US,Americas,Northern America,United States of America,New York,,New York
107.170.28.205,4,58,willhackforsushi.com,US,Americas,Northern America,United States of America,New York,,New York
184.174.115.1,4,598,wiselivingjournal.com,US,Americas,Northern America,United States of America,New York,,New York
192.241.71.106,4,14277804,wordmodules.com,US,Americas,Northern America,United States of America,New York,,Buffalo
169.61.82.90,4,10,worldlexicon.org,US,Americas,Northern America,United States of America,New York,,Brooklyn
157.185.170.72,4,1,worldspinner.us,US,Americas,Northern America,United States of America,New York,,New York
157.185.170.108,4,3,worldspinner.us,US,Americas,Northern America,United States of America,New York,,New York
65.181.111.149,4,13,worldwindcentral.com,US,Americas,Northern America,United States of America,New York,,Buffalo
23.94.16.134,4,12,worthingcourtblog.com,US,Americas,Northern America,United States of America,New York,,Buffalo
194.113.75.227,4,7,wpcrafter.com,US,Americas,Northern America,United States of America,New York,,New York
173.198.220.36,4,3,wpsuo.com,US,Americas,Northern America,United States of America,New York,,Latham
181.214.31.81,4,-2,writer-elite.com,US,Americas,Northern America,United States of America,New York,,Buffalo
162.243.53.97,4,0,writerslabs.com,US,Americas,Northern America,United States of America,New York,,New York
64.31.53.154,4,47,writessay.org,US,Americas,Northern America,United States of America,New York,,New York
107.170.6.25,4,4,wrxatlanta.com,US,Americas,Northern America,United States of America,New York,,New York
198.46.188.124,4,-2,wwfanclub.com,US,Americas,Northern America,United States of America,New York,,Buffalo
191.96.133.217,4,3,www.ukassignmenthelp.uk,US,Americas,Northern America,United States of America,New York,,Buffalo
65.181.111.162,4,2,wwwhubs.com,US,Americas,Northern America,United States of America,New York,,Buffalo
147.75.40.150,4,5,wynnbet.com,US,Americas,Northern America,United States of America,New York,,New York
198.98.60.34,4,-24379,xcancel.com,US,Americas,Northern America,United States of America,New York,,Staten Island
38.154.157.3,4,465,xenotabs.com,US,Americas,Northern America,United States of America,New York,,Buffalo
162.243.7.180,4,4,xn--sr8hvo.ws,US,Americas,Northern America,United States of America,New York,,New York
162.243.225.159,4,1938949,yellowbarn.org,US,Americas,Northern America,United States of America,New York,,New York
192.241.160.113,4,-38782,youthhawk.co.uk,US,Americas,Northern America,United States of America,New York,,New York
192.241.161.86,4,18,zachman.com,US,Americas,Northern America,United States of America,New York,,New York
173.233.65.77,4,13,zaramirja.com,US,Americas,Northern America,United States of America,New York,,Latham
162.243.126.125,4,10,zipzapmac.com,US,Americas,Northern America,United States of America,New York,,New York
162.243.228.108,4,-48647,zlio.com,US,Americas,Northern America,United States of America,New York,,New York
65.181.111.152,4,2,zodipedia.com,US,Americas,Northern America,United States of America,New York,,Buffalo
23.19.225.43,4,0,zomi.net,US,Americas,Northern America,United States of America,New York,,New York
193.200.152.86,4,107,zrblog.net,US,Americas,Northern America,United States of America,New York,,
192.241.186.41,4,-1,zspc.com,US,Americas,Northern America,United States of America,New York,,New York
