reflector_ip,ip_version,offset,description,country_code,region,sub_region,country_name,sub_division_1,sub_division_2,city
34.154.211.151,4,21,abouna.org,IT,Europe,Southern Europe,Italy,Lombardy,Milan,Milan
158.58.168.51,4,32,acmepet.com,IT,Europe,Southern Europe,Italy,Lombardy,Milan,Milan
93.57.10.42,4,8,agriturismoripabottina.it,IT,Europe,Southern Europe,Italy,Lombardy,Milan,Milan
194.79.57.58,4,4,aiafood.com,IT,Europe,Southern Europe,Italy,Lombardy,Milan,Legnano
176.107.150.180,4,42,alvolante.it,IT,Europe,Southern Europe,Italy,Lombardy,Province of Bergamo,Ponte San Pietro
195.231.84.136,4,6,amathsdictionaryforkids.com,IT,Europe,Southern Europe,Italy,Lombardy,Province of Bergamo,Ponte San Pietro
95.110.232.137,4,13,asalink.net,IT,Europe,Southern Europe,Italy,Lombardy,Province of Bergamo,Ponte San Pietro
176.107.149.68,4,342,askanews.it,IT,Europe,Southern Europe,Italy,Lombardy,Province of Bergamo,Ponte San Pietro
62.212.5.250,4,21,asst-lariana.it,IT,Europe,Southern Europe,Italy,Lombardy,Milan,Milan
83.136.107.36,4,24,astronomia.com,IT,Europe,Southern Europe,Italy,Lombardy,Milan,Milan
62.149.172.216,4,296,basilicasannicola.it,IT,Europe,Southern Europe,Italy,Lombardy,Province of Bergamo,Ponte San Pietro
5.8.101.21,4,641,beta-tools.com,IT,Europe,Southern Europe,Italy,Lombardy,Milan,Milan
176.107.150.179,4,4,bimbisaniebelli.it,IT,Europe,Southern Europe,Italy,Lombardy,Province of Bergamo,Ponte San Pietro
173.222.106.174,4,31,bliz.com,IT,Europe,Southern Europe,Italy,Lombardy,Milan,Milan
62.149.171.87,4,1018,boffi.com,IT,Europe,Southern Europe,Italy,Lombardy,Province of Bergamo,Ponte San Pietro
37.9.228.227,4,3,botteroski.com,IT,Europe,Southern Europe,Italy,Lombardy,Milan,Milan
95.174.17.60,4,48,buonacausa.org,IT,Europe,Southern Europe,Italy,Lombardy,Milan,Milan
85.94.200.45,4,6,camperlife.it,IT,Europe,Southern Europe,Italy,Lombardy,Milan,Milan
66.22.43.88,4,6,cdp.it,IT,Europe,Southern Europe,Italy,Lombardy,Milan,Milan
66.22.43.101,4,10,cdpventurecapital.it,IT,Europe,Southern Europe,Italy,Lombardy,Milan,Milan
95.110.225.12,4,4,centrometeo.com,IT,Europe,Southern Europe,Italy,Lombardy,Province of Bergamo,Ponte San Pietro
195.231.74.56,4,6,chiesi.com,IT,Europe,Southern Europe,Italy,Lombardy,Province of Bergamo,Ponte San Pietro
212.35.217.55,4,87,cittadinanzattiva.it,IT,Europe,Southern Europe,Italy,Lombardy,Milan,Milan
95.110.202.143,4,4,cn24tv.it,IT,Europe,Southern Europe,Italy,Lombardy,Province of Bergamo,Ponte San Pietro
95.141.35.146,4,5,concorsi.it,IT,Europe,Southern Europe,Italy,Lombardy,Milan,Milan
66.22.43.21,4,23,cortecostituzionale.it,IT,Europe,Southern Europe,Italy,Lombardy,Milan,Milan
176.107.150.181,4,116,cosedicasa.com,IT,Europe,Southern Europe,Italy,Lombardy,Province of Bergamo,Ponte San Pietro
212.35.197.237,4,136,crowdfundme.it,IT,Europe,Southern Europe,Italy,Lombardy,Milan,Milan
85.94.202.95,4,6,dailyonline.it,IT,Europe,Southern Europe,Italy,Lombardy,Milan,Milan
84.17.59.115,4,5,dday.it,IT,Europe,Southern Europe,Italy,Lombardy,Milan,Milan
195.231.87.26,4,8,diariodelweb.it,IT,Europe,Southern Europe,Italy,Lombardy,Province of Bergamo,Ponte San Pietro
5.144.160.235,4,20,dieci.com,IT,Europe,Southern Europe,Italy,Lombardy,Milan,Milan
2.228.228.34,4,428233,DNS Server: 2-228-228-34.ip193.fastwebnet.it,IT,Europe,Southern Europe,Italy,Lombardy,Province of Brescia,Bari
2.229.85.92,4,4,DNS Server: 2-229-85-92.ip195.fastwebnet.it,IT,Europe,Southern Europe,Italy,Lombardy,Milan,Arconate
217.133.19.51,4,-7199529,DNS Server: 217-133-19-51.static.clienti.tiscali.it,IT,Europe,Southern Europe,Italy,Lombardy,Province of Bergamo,Monasterolo del Castello
185.145.246.3,4,1459,DNS Server: 3-246-145-185.sioplusnet.it,IT,Europe,Southern Europe,Italy,Lombardy,Milan,Milan
78.134.34.145,4,151,DNS Server: 78-134-34-145.static.eolo.it,IT,Europe,Southern Europe,Italy,Lombardy,,
78.134.68.101,4,20,DNS Server: 78-134-68-101.static.eolo.it,IT,Europe,Southern Europe,Italy,Lombardy,,
85.18.102.42,4,206,DNS Server: 85-18-102-42.ip.fastwebnet.it,IT,Europe,Southern Europe,Italy,Lombardy,Milan,Milan
89.96.49.60,4,290,DNS Server: 89-96-49-60.ip10.fastwebnet.it,IT,Europe,Southern Europe,Italy,Lombardy,Milan,Milan
93.38.118.205,4,92107,DNS Server: 93-38-118-205.ip70.fastwebnet.it,IT,Europe,Southern Europe,Italy,Lombardy,Province of Bergamo,Alm√®
93.39.79.221,4,-610,DNS Server: 93-39-79-221.ip74.fastwebnet.it,IT,Europe,Southern Europe,Italy,Lombardy,Milan,Milan
93.41.177.34,4,-400,DNS Server: 93-41-177-34.ip82.fastwebnet.it,IT,Europe,Southern Europe,Italy,Lombardy,Milan,Milan
93.42.199.134,4,-391,DNS Server: 93-42-199-134.ip88.fastwebnet.it,IT,Europe,Southern Europe,Italy,Lombardy,Milan,Milan
93.42.217.170,4,89,DNS Server: 93-42-217-170.ip88.fastwebnet.it,IT,Europe,Southern Europe,Italy,Lombardy,Province of Bergamo,Bergamo
93.42.219.133,4,-7250223,DNS Server: 93-42-219-133.ip88.fastwebnet.it,IT,Europe,Southern Europe,Italy,Lombardy,Province of Bergamo,Bergamo
93.43.7.68,4,22,DNS Server: 93-43-7-68.ip89.fastwebnet.it,IT,Europe,Southern Europe,Italy,Lombardy,Province of Brescia,Brescia
93.43.95.134,4,5,DNS Server: 93-43-95-134.ip91.fastwebnet.it,IT,Europe,Southern Europe,Italy,Lombardy,Milan,Milan
93.45.18.130,4,6,DNS Server: 93-45-18-130.ip100.fastwebnet.it,IT,Europe,Southern Europe,Italy,Lombardy,Milan,Milan
93.46.163.27,4,13,DNS Server: 93-46-163-27.ip108.fastwebnet.it,IT,Europe,Southern Europe,Italy,Lombardy,Milan,Milan
93.46.196.158,4,10,DNS Server: 93-46-196-158.ip109.fastwebnet.it,IT,Europe,Southern Europe,Italy,Lombardy,Province of Brescia,Rovato
93.46.199.34,4,4,DNS Server: 93-46-199-34.ip109.fastwebnet.it,IT,Europe,Southern Europe,Italy,Lombardy,Province of Brescia,Rovato
93.47.195.58,4,158,DNS Server: 93-47-195-58.ip114.fastwebnet.it,IT,Europe,Southern Europe,Italy,Lombardy,Milan,Milan
93.47.198.202,4,17,DNS Server: 93-47-198-202.ip114.fastwebnet.it,IT,Europe,Southern Europe,Italy,Lombardy,Milan,Milan
93.49.0.3,4,7255,DNS Server: 93-49-0-3.ip317.fastwebnet.it,IT,Europe,Southern Europe,Italy,Lombardy,Province of Pavia,Casorate Primo
93.51.228.251,4,52,DNS Server: 93-51-228-251.ip269.fastwebnet.it,IT,Europe,Southern Europe,Italy,Lombardy,Milan,Milan
93.51.238.170,4,15,DNS Server: 93-51-238-170.ip269.fastwebnet.it,IT,Europe,Southern Europe,Italy,Lombardy,Milan,Milan
93.56.11.92,4,70455,DNS Server: 93-56-11-92.ip287.fastwebnet.it,IT,Europe,Southern Europe,Italy,Lombardy,Monza Brianza,Giussano
213.203.161.143,4,30684343,DNS Server: adsl203-161-143.mclink.it,IT,Europe,Southern Europe,Italy,Lombardy,Milan,Milan
194.242.214.164,4,-7199333,DNS Server: adsl214-164.aknet.it,IT,Europe,Southern Europe,Italy,Lombardy,Milan,Milan
87.241.16.10,4,-4244992365,DNS Server: cpeit_mil001895.ia.colt.net,IT,Europe,Southern Europe,Italy,Lombardy,Milan,Milan
213.215.160.238,4,24141744,DNS Server: cpeit_mil008792.ia.colt.net,IT,Europe,Southern Europe,Italy,Lombardy,Milan,Milan
45.142.187.110,4,18798,DNS Server: h110-ipv4-45-142-187.mynet.it,IT,Europe,Southern Europe,Italy,Lombardy,Province of Mantua,Mantova
77.241.4.252,4,25,DNS Server: h252-ipv4-77-241-4.mynet.it,IT,Europe,Southern Europe,Italy,Lombardy,Province of Mantua,Bagnolo San Vito
119.12.45.8,4,337,DNS Server: h8-ipv4-119-12-45.mynet.it,IT,Europe,Southern Europe,Italy,Lombardy,Province of Mantua,Solferino
185.191.107.86,4,15,DNS Server: host-185-191-107-86.mywic.eu,IT,Europe,Southern Europe,Italy,Lombardy,Milan,Milan
213.26.25.3,4,-682012477,DNS Server: host-213-26-25-3.business.telecomitalia.it,IT,Europe,Southern Europe,Italy,Lombardy,Milan,Pantigliate
80.18.14.86,4,-2175091931,DNS Server: host-80-18-14-86.business.telecomitalia.it,IT,Europe,Southern Europe,Italy,Lombardy,Province of Varese,Castellanza
89.37.71.39,4,2887,DNS Server: host-89-37-71-39.mywic.eu,IT,Europe,Southern Europe,Italy,Lombardy,Milan,Milan
195.231.66.11,4,5,DNS Server: host11-66-231-195.serverdedicati.aruba.it,IT,Europe,Southern Europe,Italy,Lombardy,Province of Bergamo,Ponte San Pietro
195.231.70.110,4,34,DNS Server: host110-70-231-195.serverdedicati.aruba.it,IT,Europe,Southern Europe,Italy,Lombardy,Province of Bergamo,Ponte San Pietro
195.231.79.184,4,7,DNS Server: host184-79-231-195.serverdedicati.aruba.it,IT,Europe,Southern Europe,Italy,Lombardy,Province of Bergamo,Ponte San Pietro
95.110.225.187,4,6,DNS Server: host187-225-110-95.serverdedicati.aruba.it,IT,Europe,Southern Europe,Italy,Lombardy,Province of Bergamo,Ponte San Pietro
95.110.222.240,4,363529,DNS Server: host240-222-110-95.serverdedicati.aruba.it,IT,Europe,Southern Europe,Italy,Lombardy,Province of Bergamo,Ponte San Pietro
95.110.225.59,4,20,DNS Server: host59-225-110-95.serverdedicati.aruba.it,IT,Europe,Southern Europe,Italy,Lombardy,Province of Bergamo,Ponte San Pietro
217.133.24.120,4,-3378395,DNS Server: michelebruno.org,IT,Europe,Southern Europe,Italy,Lombardy,Province of Bergamo,Monasterolo del Castello
188.219.36.106,4,48638,DNS Server: net-188-219-36-106.cust.vodafonedsl.it,IT,Europe,Southern Europe,Italy,Lombardy,Milan,Milan
188.219.42.114,4,-69513,DNS Server: net-188-219-42-114.cust.vodafonedsl.it,IT,Europe,Southern Europe,Italy,Lombardy,Milan,Milan
2.32.159.122,4,114590,DNS Server: net-2-32-159-122.cust.dsl.teletu.it,IT,Europe,Southern Europe,Italy,Lombardy,Milan,Milan
2.40.119.162,4,-359,DNS Server: net-2-40-119-162.cust.vodafonedsl.it,IT,Europe,Southern Europe,Italy,Lombardy,Province of Pavia,Mortara
2.40.186.202,4,74,DNS Server: net-2-40-186-202.cust.vodafonedsl.it,IT,Europe,Southern Europe,Italy,Lombardy,Monza Brianza,Monza
2.40.187.99,4,-103123,DNS Server: net-2-40-187-99.cust.vodafonedsl.it,IT,Europe,Southern Europe,Italy,Lombardy,Monza Brianza,Monza
31.156.55.106,4,157,DNS Server: net-31-156-55-106.cust.vodafonedsl.it,IT,Europe,Southern Europe,Italy,Lombardy,Milan,Buccinasco
5.94.207.148,4,163,DNS Server: net-5-94-207-148.cust.vodafonedsl.it,IT,Europe,Southern Europe,Italy,Lombardy,Milan,Milan
93.145.178.206,4,63859,DNS Server: net-93-145-178-206.cust.vodafonedsl.it,IT,Europe,Southern Europe,Italy,Lombardy,Milan,Milan
93.64.47.86,4,-608,DNS Server: net-93-64-47-86.cust.vodafonedsl.it,IT,Europe,Southern Europe,Italy,Lombardy,Province of Brescia,Castenedolo
77.43.43.5,4,805,DNS Server: net77-43-4-005.mclink.it,IT,Europe,Southern Europe,Italy,Lombardy,Province of Bergamo,Bergamo
77.43.47.121,4,25015118,DNS Server: net77-43-47-121.mclink.it,IT,Europe,Southern Europe,Italy,Lombardy,Province of Bergamo,Bergamo
77.43.58.106,4,-4240948169,DNS Server: net77-43-58-106.mclink.it,IT,Europe,Southern Europe,Italy,Lombardy,Province of Bergamo,Torre Boldone
77.43.58.200,4,24591128,DNS Server: net77-43-58-200.mclink.it,IT,Europe,Southern Europe,Italy,Lombardy,Province of Bergamo,Torre Boldone
77.43.58.28,4,24196633,DNS Server: net77-43-58-28.mclink.it,IT,Europe,Southern Europe,Italy,Lombardy,Province of Bergamo,Torre Boldone
77.43.58.56,4,-4256539542,DNS Server: net77-43-58-56.mclink.it,IT,Europe,Southern Europe,Italy,Lombardy,Province of Bergamo,Torre Boldone
77.43.58.94,4,-7199256,DNS Server: net77-43-58-94.mclink.it,IT,Europe,Southern Europe,Italy,Lombardy,Province of Bergamo,Torre Boldone
77.43.59.121,4,8481,DNS Server: net77-43-59-121.mclink.it,IT,Europe,Southern Europe,Italy,Lombardy,Province of Bergamo,Torre Boldone
77.43.99.216,4,-4221461087,DNS Server: net77-43-99-216.mclink.it,IT,Europe,Southern Europe,Italy,Lombardy,Milan,Milan
77.43.99.5,4,-4223322821,DNS Server: net77-43-99-5.mclink.it,IT,Europe,Southern Europe,Italy,Lombardy,Milan,Milan
212.104.43.2,4,180,DNS Server: ns1.ignet.it,IT,Europe,Southern Europe,Italy,Lombardy,Province of Varese,Caronno Pertusella
195.231.50.139,4,431,donnapop.it,IT,Europe,Southern Europe,Italy,Lombardy,Province of Bergamo,Bonate Sopra
37.9.228.213,4,4,elettricitafutura.it,IT,Europe,Southern Europe,Italy,Lombardy,Milan,Milan
95.141.35.187,4,7,emdr-europe.org,IT,Europe,Southern Europe,Italy,Lombardy,Milan,Milan
172.232.208.150,4,87,enpap.it,IT,Europe,Southern Europe,Italy,Lombardy,Milan,Milan
194.185.40.25,4,948,esprinet.com,IT,Europe,Southern Europe,Italy,Lombardy,Milan,Milan
212.35.202.147,4,154,estra.it,IT,Europe,Southern Europe,Italy,Lombardy,Milan,Milan
195.182.210.27,4,4597,eticostat.it,IT,Europe,Southern Europe,Italy,Lombardy,Milan,Sesto San Giovanni
35.219.248.111,4,-24378,farmagalenica.it,IT,Europe,Southern Europe,Italy,Lombardy,Milan,Milan
83.103.59.127,4,12,favero.com,IT,Europe,Southern Europe,Italy,Lombardy,Province of Sondrio,Albosaggia
80.211.120.87,4,17,favicomatic.com,IT,Europe,Southern Europe,Italy,Lombardy,Province of Bergamo,Ponte San Pietro
185.145.193.3,4,-276,feedaty.com,IT,Europe,Southern Europe,Italy,Lombardy,Milan,Milan
212.35.216.193,4,10,ferrovie.info,IT,Europe,Southern Europe,Italy,Lombardy,Milan,Milan
82.180.47.169,4,7,fiamma.com,IT,Europe,Southern Europe,Italy,Lombardy,Province of Como,Bulgarograsso
158.58.173.6,4,32,fic.it,IT,Europe,Southern Europe,Italy,Lombardy,Milan,Milan
172.232.216.198,4,43,finestresullarte.info,IT,Europe,Southern Europe,Italy,Lombardy,Milan,Milan
195.231.73.80,4,14,fisco7.it,IT,Europe,Southern Europe,Italy,Lombardy,Province of Bergamo,Ponte San Pietro
212.35.204.71,4,6,flai.it,IT,Europe,Southern Europe,Italy,Lombardy,Milan,Milan
5.144.171.112,4,28,fondorepubblicadigitale.it,IT,Europe,Southern Europe,Italy,Lombardy,Milan,Milan
212.35.217.212,4,9,friendoftheearth.org,IT,Europe,Southern Europe,Italy,Lombardy,Milan,Milan
46.21.182.20,4,13,fruitbookmagazine.it,IT,Europe,Southern Europe,Italy,Lombardy,Province of Bergamo,Villongo
85.94.200.172,4,3,funghiitaliani.it,IT,Europe,Southern Europe,Italy,Lombardy,Milan,Milan
95.110.230.204,4,6,gardiol.org,IT,Europe,Southern Europe,Italy,Lombardy,Province of Bergamo,Ponte San Pietro
151.101.243.10,4,4,gfps.com,IT,Europe,Southern Europe,Italy,Lombardy,Milan,Milan
2.16.22.253,4,9,giustiziatributaria.gov.it,IT,Europe,Southern Europe,Italy,Lombardy,Milan,Milan
2.16.22.230,4,12,giustiziatributaria.gov.it,IT,Europe,Southern Europe,Italy,Lombardy,Milan,Milan
45.141.57.227,4,19,globalist.it,IT,Europe,Southern Europe,Italy,Lombardy,Milan,Milan
95.110.234.92,4,-1424933,goldenweb.it,IT,Europe,Southern Europe,Italy,Lombardy,Province of Bergamo,Ponte San Pietro
195.231.50.137,4,1186,greenbiz.it,IT,Europe,Southern Europe,Italy,Lombardy,Province of Bergamo,Bonate Sopra
195.231.50.133,4,943,greenme.it,IT,Europe,Southern Europe,Italy,Lombardy,Province of Bergamo,Bonate Sopra
172.232.216.141,4,8,gridforum.org,IT,Europe,Southern Europe,Italy,Lombardy,Milan,Milan
213.215.199.176,4,26,grom.it,IT,Europe,Southern Europe,Italy,Lombardy,Milan,Milan
2.18.254.211,4,20,gruppoequitalia.it,IT,Europe,Southern Europe,Italy,Lombardy,Milan,Milan
2.18.254.217,4,23,gruppoequitalia.it,IT,Europe,Southern Europe,Italy,Lombardy,Milan,Milan
2.16.22.98,4,23,gruppoequitalia.it,IT,Europe,Southern Europe,Italy,Lombardy,Milan,Milan
95.101.114.145,4,6,gse.it,IT,Europe,Southern Europe,Italy,Lombardy,Milan,Milan
2.22.248.27,4,11,gse.it,IT,Europe,Southern Europe,Italy,Lombardy,Milan,Milan
2.22.248.28,4,44,gse.it,IT,Europe,Southern Europe,Italy,Lombardy,Milan,Milan
95.101.114.11,4,41,gse.it,IT,Europe,Southern Europe,Italy,Lombardy,Milan,Milan
151.0.187.146,4,716,guerini.it,IT,Europe,Southern Europe,Italy,Lombardy,Milan,Milan
95.110.225.183,4,13,guidasicilia.it,IT,Europe,Southern Europe,Italy,Lombardy,Province of Bergamo,Ponte San Pietro
212.35.217.189,4,692,harken.com,IT,Europe,Southern Europe,Italy,Lombardy,Milan,Milan
209.227.216.12,4,6,hollywoodreporter.it,IT,Europe,Southern Europe,Italy,Lombardy,Province of Bergamo,Ponte San Pietro
85.94.197.210,4,24,horoscopofree.com,IT,Europe,Southern Europe,Italy,Lombardy,Milan,Milan
193.27.202.149,4,5,illibraio.it,IT,Europe,Southern Europe,Italy,Lombardy,Milan,Milan
95.110.222.153,4,31,ilpaesenuovo.it,IT,Europe,Southern Europe,Italy,Lombardy,Province of Bergamo,Ponte San Pietro
5.144.169.59,4,3,ilromanista.eu,IT,Europe,Southern Europe,Italy,Lombardy,Milan,Milan
45.147.250.86,4,11,imiglioricasinoonline.net,IT,Europe,Southern Europe,Italy,Lombardy,Milan,Milan
95.110.198.60,4,1492,indettaglio.it,IT,Europe,Southern Europe,Italy,Lombardy,Province of Bergamo,Ponte San Pietro
176.107.150.177,4,5,insella.it,IT,Europe,Southern Europe,Italy,Lombardy,Province of Bergamo,Ponte San Pietro
95.110.231.18,4,57856,insidemarketing.it,IT,Europe,Southern Europe,Italy,Lombardy,Province of Bergamo,Ponte San Pietro
34.154.111.100,4,86,interiors3d.it,IT,Europe,Southern Europe,Italy,Lombardy,Milan,Milan
159.122.160.247,4,22,iulm.it,IT,Europe,Southern Europe,Italy,Lombardy,Milan,Milan
172.232.206.251,4,5,jarumpiercing.it,IT,Europe,Southern Europe,Italy,Lombardy,Milan,Milan
217.61.55.229,4,1175,jkroma.com,IT,Europe,Southern Europe,Italy,Lombardy,Province of Bergamo,Ponte San Pietro
185.145.195.71,4,6,juzaphoto.com,IT,Europe,Southern Europe,Italy,Lombardy,Milan,Milan
173.222.105.61,4,10,lafeltrinelli.it,IT,Europe,Southern Europe,Italy,Lombardy,Milan,Milan
217.61.44.5,4,3,lakecomoschool.org,IT,Europe,Southern Europe,Italy,Lombardy,Province of Bergamo,Ponte San Pietro
176.107.149.201,4,30,lamarzocco.com,IT,Europe,Southern Europe,Italy,Lombardy,Province of Bergamo,Ponte San Pietro
95.110.227.104,4,32,lamilano.it,IT,Europe,Southern Europe,Italy,Lombardy,Province of Bergamo,Ponte San Pietro
212.35.194.214,4,3,lanotiziagiornale.it,IT,Europe,Southern Europe,Italy,Lombardy,Milan,Milan
81.208.42.104,4,8,lanotterosa.it,IT,Europe,Southern Europe,Italy,Lombardy,Milan,Pantigliate
195.231.75.111,4,25,laprovinciadibiella.it,IT,Europe,Southern Europe,Italy,Lombardy,Province of Bergamo,Ponte San Pietro
176.107.150.184,4,67,lefayresorts.com,IT,Europe,Southern Europe,Italy,Lombardy,Province of Bergamo,Ponte San Pietro
212.35.217.161,4,42,lega-pro.com,IT,Europe,Southern Europe,Italy,Lombardy,Milan,Milan
212.35.196.18,4,66,lestanzedelvetro.org,IT,Europe,Southern Europe,Italy,Lombardy,Milan,Milan
193.27.202.154,4,34,libraccio.it,IT,Europe,Southern Europe,Italy,Lombardy,Milan,Milan
93.56.6.135,4,42,libreriauniversitaria.it,IT,Europe,Southern Europe,Italy,Lombardy,Monza Brianza,Giussano
212.35.217.209,4,3,linkware.it,IT,Europe,Southern Europe,Italy,Lombardy,Milan,Milan
62.169.34.62,4,-5932,loa-cnr.it,IT,Europe,Southern Europe,Italy,Lombardy,Province of Brescia,Gavardo
195.231.67.171,4,336391,locandacipriani.com,IT,Europe,Southern Europe,Italy,Lombardy,Province of Bergamo,Ponte San Pietro
172.232.218.172,4,5,maxvalle.it,IT,Europe,Southern Europe,Italy,Lombardy,Milan,Milan
2.23.84.55,4,11,mbe.es,IT,Europe,Southern Europe,Italy,Lombardy,Milan,Milan
2.23.84.15,4,38,mbe.es,IT,Europe,Southern Europe,Italy,Lombardy,Milan,Milan
217.146.204.12,4,9,metalwork.it,IT,Europe,Southern Europe,Italy,Lombardy,Province of Cremona,Cremona
195.231.68.238,4,1680,ministeroturismo.gov.it,IT,Europe,Southern Europe,Italy,Lombardy,Province of Bergamo,Ponte San Pietro
85.94.193.150,4,45,missonihome.com,IT,Europe,Southern Europe,Italy,Lombardy,Milan,Milan
217.171.46.55,4,-97671,mitsubishielectric.it,IT,Europe,Southern Europe,Italy,Lombardy,Milan,Milan
95.141.32.27,4,6,mondo3.com,IT,Europe,Southern Europe,Italy,Lombardy,Milan,Milan
217.61.56.172,4,6,montebianco.com,IT,Europe,Southern Europe,Italy,Lombardy,Province of Bergamo,Ponte San Pietro
212.35.217.64,4,29,monzanet.it,IT,Europe,Southern Europe,Italy,Lombardy,Milan,Milan
212.35.217.2,4,17,mou-online.com,IT,Europe,Southern Europe,Italy,Lombardy,Milan,Milan
217.61.63.132,4,48,movimentolento.it,IT,Europe,Southern Europe,Italy,Lombardy,Province of Bergamo,Ponte San Pietro
109.168.97.34,4,387,mtmteatro.it,IT,Europe,Southern Europe,Italy,Lombardy,Milan,Milan
93.43.47.140,4,-310905,muoversiaroma.it,IT,Europe,Southern Europe,Italy,Lombardy,Milan,Milan
62.149.173.117,4,1084,museomontagna.org,IT,Europe,Southern Europe,Italy,Lombardy,Province of Bergamo,Ponte San Pietro
188.13.230.137,4,113,musicshoponline.com,IT,Europe,Southern Europe,Italy,Lombardy,Province of Varese,Marchirolo
95.110.224.120,4,656,mygladix.org,IT,Europe,Southern Europe,Italy,Lombardy,Province of Bergamo,Ponte San Pietro
195.231.66.243,4,7868,nigrizia.it,IT,Europe,Southern Europe,Italy,Lombardy,Province of Bergamo,Ponte San Pietro
194.185.40.90,4,958,nilox.com,IT,Europe,Southern Europe,Italy,Lombardy,Milan,Milan
195.231.60.33,4,12,notiziaoggi.it,IT,Europe,Southern Europe,Italy,Lombardy,Province of Bergamo,Bonate Sopra
81.208.42.66,4,788,novamont.com,IT,Europe,Southern Europe,Italy,Lombardy,Milan,Pantigliate
2.18.254.147,4,8,nuanceaudio.com,IT,Europe,Southern Europe,Italy,Lombardy,Milan,Milan
195.231.87.73,4,12,oasport.it,IT,Europe,Southern Europe,Italy,Lombardy,Province of Bergamo,Ponte San Pietro
192.71.245.69,4,31,odessa-daily.com.ua,IT,Europe,Southern Europe,Italy,Lombardy,Milan,Cologno Monzese
95.110.224.59,4,33,okpedia.it,IT,Europe,Southern Europe,Italy,Lombardy,Province of Bergamo,Ponte San Pietro
195.231.70.165,4,19,oltremare.org,IT,Europe,Southern Europe,Italy,Lombardy,Province of Bergamo,Ponte San Pietro
185.25.204.14,4,233,Ookla Speedtest Server 21272: test-mi.netoip.com,IT,Europe,Southern Europe,Italy,Lombardy,Milan,Milan
195.39.194.14,4,349,Ookla Speedtest Server 33953: speedtest.uania.cloud,IT,Europe,Southern Europe,Italy,Lombardy,Milan,Cinisello Balsamo
46.20.91.252,4,367,Ookla Speedtest Server 38731: dgtookla01.fibering.com,IT,Europe,Southern Europe,Italy,Lombardy,Milan,Truccazzano
217.61.40.76,4,435,Ookla Speedtest Server 40519: it3.speedtest.aruba.it,IT,Europe,Southern Europe,Italy,Lombardy,Province of Bergamo,Ponte San Pietro
45.130.85.29,4,365,Ookla Speedtest Server 42070: speedtestit.pvdatanet.com,IT,Europe,Southern Europe,Italy,Lombardy,Milan,Milan
113.30.150.12,4,5623,Ookla Speedtest Server 52556: speedtest.eu-ml.kamatera.com,IT,Europe,Southern Europe,Italy,Lombardy,Milan,Milan
185.40.215.2,4,318,Ookla Speedtest Server 63966: speedtest.mi.net.nhm.it,IT,Europe,Southern Europe,Italy,Lombardy,Milan,Milan
217.171.46.93,4,-4510,Ookla Speedtest Server: speedy.cdlan.net,IT,Europe,Southern Europe,Italy,Lombardy,Milan,Milan
217.61.43.22,4,3675,orologi-rolex.it,IT,Europe,Southern Europe,Italy,Lombardy,Province of Bergamo,Ponte San Pietro
2.16.22.200,4,17,palazzochigi.it,IT,Europe,Southern Europe,Italy,Lombardy,Milan,Milan
2.18.254.202,4,9,palazzochigi.it,IT,Europe,Southern Europe,Italy,Lombardy,Milan,Milan
80.88.161.202,4,484,palazzote.it,IT,Europe,Southern Europe,Italy,Lombardy,Province of Mantua,Mantova
85.94.203.210,4,-61,pgdue.com,IT,Europe,Southern Europe,Italy,Lombardy,Milan,Milan
158.58.172.4,4,50,pianetabambini.it,IT,Europe,Southern Europe,Italy,Lombardy,Milan,Milan
95.110.225.244,4,-54555,picamemag.com,IT,Europe,Southern Europe,Italy,Lombardy,Province of Bergamo,Ponte San Pietro
95.110.252.45,4,681,placetobet.net,IT,Europe,Southern Europe,Italy,Lombardy,Province of Bergamo,Ponte San Pietro
185.145.193.18,4,114,plpl.it,IT,Europe,Southern Europe,Italy,Lombardy,Milan,Milan
62.149.173.4,4,906,proiezionidiborsa.it,IT,Europe,Southern Europe,Italy,Lombardy,Province of Bergamo,Ponte San Pietro
185.25.204.83,4,12,quicosenza.it,IT,Europe,Southern Europe,Italy,Lombardy,Milan,Milan
95.141.32.204,4,91,raceskimagazine.it,IT,Europe,Southern Europe,Italy,Lombardy,Milan,Milan
95.110.222.131,4,6,ravaglioli.com,IT,Europe,Southern Europe,Italy,Lombardy,Province of Bergamo,Ponte San Pietro
91.193.5.232,4,692,reset-service.com,IT,Europe,Southern Europe,Italy,Lombardy,Milan,Milan
163.171.138.115,4,72,revenuenetwork.com,IT,Europe,Southern Europe,Italy,Lombardy,Milan,Milan
213.92.101.98,4,11,rikorda.it,IT,Europe,Southern Europe,Italy,Lombardy,Milan,Milan
217.61.55.228,4,1197,rivoire.it,IT,Europe,Southern Europe,Italy,Lombardy,Province of Bergamo,Ponte San Pietro
66.22.43.75,4,71,romamobilita.it,IT,Europe,Southern Europe,Italy,Lombardy,Milan,Milan
185.30.108.63,4,33,romasegreta.it,IT,Europe,Southern Europe,Italy,Lombardy,Milan,Milan
195.231.70.70,4,4,santamargherita.com,IT,Europe,Southern Europe,Italy,Lombardy,Province of Bergamo,Ponte San Pietro
185.30.109.158,4,1805,savimballaggi.it,IT,Europe,Southern Europe,Italy,Lombardy,Milan,Milan
217.61.51.45,4,18,secoloditalia.it,IT,Europe,Southern Europe,Italy,Lombardy,Province of Bergamo,Ponte San Pietro
83.136.106.237,4,12,sellesmp.com,IT,Europe,Southern Europe,Italy,Lombardy,Milan,Milan
213.215.155.44,4,18,sergiobonellieditore.it,IT,Europe,Southern Europe,Italy,Lombardy,Milan,Milan
217.73.228.2,4,-428,sibillini.net,IT,Europe,Southern Europe,Italy,Lombardy,Province of Bergamo,Ponte San Pietro
212.35.196.168,4,15,sicis.com,IT,Europe,Southern Europe,Italy,Lombardy,Milan,Milan
95.110.225.29,4,59,sitbusshuttle.com,IT,Europe,Southern Europe,Italy,Lombardy,Province of Bergamo,Ponte San Pietro
95.174.22.44,4,4,sive.it,IT,Europe,Southern Europe,Italy,Lombardy,Milan,Milan
195.231.65.68,4,8,soldioggi.it,IT,Europe,Southern Europe,Italy,Lombardy,Province of Bergamo,Ponte San Pietro
95.110.227.15,4,32,songstube.net,IT,Europe,Southern Europe,Italy,Lombardy,Province of Bergamo,Ponte San Pietro
212.35.205.45,4,6,sportando.basketball,IT,Europe,Southern Europe,Italy,Lombardy,Milan,Milan
5.144.162.82,4,29,sportando.com,IT,Europe,Southern Europe,Italy,Lombardy,Milan,Milan
51.38.165.157,4,66,startbeurs.nl,IT,Europe,Southern Europe,Italy,Lombardy,Milan,San Donato Milanese
78.159.220.46,4,9,stefanoricci.com,IT,Europe,Southern Europe,Italy,Lombardy,Milan,Milan
195.231.94.250,4,577,stradivarius.it,IT,Europe,Southern Europe,Italy,Lombardy,Province of Bergamo,Ponte San Pietro
37.247.54.93,4,11,sunbedbooster.com,IT,Europe,Southern Europe,Italy,Lombardy,Milan,Milan
109.168.101.126,4,17,supermoney.eu,IT,Europe,Southern Europe,Italy,Lombardy,Milan,Milan
95.110.200.21,4,5,szn.it,IT,Europe,Southern Europe,Italy,Lombardy,Province of Bergamo,Ponte San Pietro
80.211.123.197,4,37,tabbles.net,IT,Europe,Southern Europe,Italy,Lombardy,Province of Bergamo,Ponte San Pietro
193.27.202.147,4,17,tealibri.it,IT,Europe,Southern Europe,Italy,Lombardy,Milan,Milan
66.22.43.140,4,24,teamsystem.com,IT,Europe,Southern Europe,Italy,Lombardy,Milan,Milan
212.35.197.255,4,55,terratintagroup.com,IT,Europe,Southern Europe,Italy,Lombardy,Milan,Milan
212.35.194.138,4,3,tg24.info,IT,Europe,Southern Europe,Italy,Lombardy,Milan,Milan
176.223.88.130,4,-5327,theitalianreve.com,IT,Europe,Southern Europe,Italy,Lombardy,Province of Lecco,Merate
172.232.217.215,4,23,thisiscombo.com,IT,Europe,Southern Europe,Italy,Lombardy,Milan,Milan
151.101.241.124,4,6,thun.com,IT,Europe,Southern Europe,Italy,Lombardy,Milan,Milan
34.154.174.227,4,3,tigota.it,IT,Europe,Southern Europe,Italy,Lombardy,Milan,Milan
85.94.207.169,4,56,trasportoeuropa.it,IT,Europe,Southern Europe,Italy,Lombardy,Milan,Milan
95.141.32.225,4,9,turbolab.it,IT,Europe,Southern Europe,Italy,Lombardy,Milan,Milan
193.27.202.146,4,10,ubiklibri.it,IT,Europe,Southern Europe,Italy,Lombardy,Milan,Milan
109.168.97.32,4,15,uec.ch,IT,Europe,Southern Europe,Italy,Lombardy,Milan,Milan
80.211.125.123,4,17,ufoplast.com,IT,Europe,Southern Europe,Italy,Lombardy,Province of Bergamo,Ponte San Pietro
172.232.206.252,4,47,ultimouomo.com,IT,Europe,Southern Europe,Italy,Lombardy,Milan,Milan
185.11.152.8,4,-21923,unicattolica.it,IT,Europe,Southern Europe,Italy,Lombardy,Milan,Milan
89.96.212.248,4,22,uniecampus.it,IT,Europe,Southern Europe,Italy,Lombardy,Milan,Milan
212.104.53.7,4,3,unieuro.it,IT,Europe,Southern Europe,Italy,Lombardy,Milan,Cernusco sul Naviglio
85.18.101.33,4,3,unilink.it,IT,Europe,Southern Europe,Italy,Lombardy,Milan,Milan
5.8.111.82,4,32,unioncamerelombardia.it,IT,Europe,Southern Europe,Italy,Lombardy,Milan,Milan
35.152.60.177,4,6,unisannio.it,IT,Europe,Southern Europe,Italy,Lombardy,Milan,Milan
163.171.138.116,4,17,usafis.org,IT,Europe,Southern Europe,Italy,Lombardy,Milan,Milan
194.185.40.14,4,953,v-valley.com,IT,Europe,Southern Europe,Italy,Lombardy,Milan,Milan
195.231.75.213,4,21,valseriananews.it,IT,Europe,Southern Europe,Italy,Lombardy,Province of Bergamo,Ponte San Pietro
81.21.26.116,4,27,varesenews.it,IT,Europe,Southern Europe,Italy,Lombardy,Milan,Milan
81.21.26.117,4,8,varesenews.it,IT,Europe,Southern Europe,Italy,Lombardy,Milan,Milan
173.222.105.12,4,17,veniceairport.it,IT,Europe,Southern Europe,Italy,Lombardy,Milan,Milan
173.222.105.27,4,16,veniceairport.it,IT,Europe,Southern Europe,Italy,Lombardy,Milan,Milan
37.247.48.95,4,37,verexif.com,IT,Europe,Southern Europe,Italy,Lombardy,Milan,Milan
217.61.57.155,4,19,viefrancigene.org,IT,Europe,Southern Europe,Italy,Lombardy,Province of Bergamo,Ponte San Pietro
85.94.203.206,4,-7,visibleproject.org,IT,Europe,Southern Europe,Italy,Lombardy,Milan,Milan
95.174.12.69,4,2,visitferrara.eu,IT,Europe,Southern Europe,Italy,Lombardy,Milan,Milan
93.62.175.31,4,52,visitgenoa.it,IT,Europe,Southern Europe,Italy,Lombardy,Milan,Milan
217.171.39.158,4,155,webtic.it,IT,Europe,Southern Europe,Italy,Lombardy,Milan,Milan
104.104.52.27,4,10,wuz.it,IT,Europe,Southern Europe,Italy,Lombardy,Milan,Milan
104.166.169.132,4,5,xinhuanet.com,IT,Europe,Southern Europe,Italy,Lombardy,Milan,Milan
104.166.169.130,4,5,xinhuanet.com,IT,Europe,Southern Europe,Italy,Lombardy,Milan,Milan
172.232.208.181,4,6,yeppon.it,IT,Europe,Southern Europe,Italy,Lombardy,Milan,Milan
151.101.242.132,4,5,zg.ch,IT,Europe,Southern Europe,Italy,Lombardy,Milan,Milan
66.22.43.46,4,11,zucchetti.com,IT,Europe,Southern Europe,Italy,Lombardy,Milan,Milan
66.22.43.47,4,11,zucchetti.it,IT,Europe,Southern Europe,Italy,Lombardy,Milan,Milan
