reflector_ip,ip_version,offset,description,country_code,region,sub_region,country_name,sub_division_1,sub_division_2,city
94.137.135.228,4,48,bornholmsmuseum.dk,DK,Europe,Northern Europe,Denmark,Central Jutland,,Herning
46.30.121.230,4,68,cardealerplus.com,DK,Europe,Northern Europe,Denmark,Central Jutland,,Herning
46.30.126.230,4,15,conventus.dk,DK,Europe,Northern Europe,Denmark,Central Jutland,,Herning
46.30.127.85,4,3,e-pages.dk,DK,Europe,Northern Europe,Denmark,Central Jutland,,Herning
46.30.127.86,4,5,e-pages.dk,DK,Europe,Northern Europe,Denmark,Central Jutland,,Herning
46.30.127.83,4,8,e-pages.dk,DK,Europe,Northern Europe,Denmark,Central Jutland,,Herning
46.30.127.88,4,4,e-pages.dk,DK,Europe,Northern Europe,Denmark,Central Jutland,,Herning
46.30.126.155,4,2,e-pages.dk,DK,Europe,Northern Europe,Denmark,Central Jutland,,Herning
46.30.126.159,4,6,e-pages.dk,DK,Europe,Northern Europe,Denmark,Central Jutland,,Herning
46.30.126.143,4,5,e-pages.dk,DK,Europe,Northern Europe,Denmark,Central Jutland,,Herning
46.30.127.84,4,6,e-pages.dk,DK,Europe,Northern Europe,Denmark,Central Jutland,,Herning
46.30.126.135,4,9,e-pages.dk,DK,Europe,Northern Europe,Denmark,Central Jutland,,Herning
46.30.127.87,4,4,e-pages.dk,DK,Europe,Northern Europe,Denmark,Central Jutland,,Herning
46.30.126.156,4,12,e-pages.pub,DK,Europe,Northern Europe,Denmark,Central Jutland,,Herning
46.30.126.147,4,4,e-pages.pub,DK,Europe,Northern Europe,Denmark,Central Jutland,,Herning
46.30.121.150,4,10,heiring.com,DK,Europe,Northern Europe,Denmark,Central Jutland,,Herning
94.137.139.170,4,153,jesperhus.dk,DK,Europe,Northern Europe,Denmark,Central Jutland,,Herning
62.69.153.49,4,4,planway.com,DK,Europe,Northern Europe,Denmark,Central Jutland,,Herning
46.30.124.118,4,23,skatepro.nl,DK,Europe,Northern Europe,Denmark,Central Jutland,,Herning
46.30.124.187,4,2,tipsbladet.dk,DK,Europe,Northern Europe,Denmark,Central Jutland,,Herning
