reflector_ip,ip_version,offset,description,country_code,region,sub_region,country_name,sub_division_1,sub_division_2,city
157.7.94.66,4,1136,9199.jp,JP,Asia,Eastern Asia,Japan,Kanagawa,,Hiyoshi
160.251.6.110,4,21582,aidma-hd.jp,JP,Asia,Eastern Asia,Japan,Kanagawa,,Hiyoshi
49.212.206.86,4,20,aki-inomata.com,JP,Asia,Eastern Asia,Japan,Kanagawa,,Hiyoshi
162.43.94.178,4,17,anacrowneplaza-kanazawa.jp,JP,Asia,Eastern Asia,Japan,Kanagawa,,Hiyoshi
160.251.76.188,4,34,aneikankou.co.jp,JP,Asia,Eastern Asia,Japan,Kanagawa,,Hiyoshi
160.251.71.53,4,2,ath-j.com,JP,Asia,Eastern Asia,Japan,Kanagawa,,Hiyoshi
160.251.19.206,4,4,bluediamondturbineservices.com,JP,Asia,Eastern Asia,Japan,Kanagawa,,Hiyoshi
160.251.71.87,4,2,bokka.co.jp,JP,Asia,Eastern Asia,Japan,Kanagawa,,Hiyoshi
162.43.94.120,4,0,bokuaikimiai.jp,JP,Asia,Eastern Asia,Japan,Kanagawa,,Hiyoshi
162.43.94.88,4,-7,bpcj.or.jp,JP,Asia,Eastern Asia,Japan,Kanagawa,,Hiyoshi
162.43.94.43,4,3,bride-jp.com,JP,Asia,Eastern Asia,Japan,Kanagawa,,Hiyoshi
162.43.94.78,4,-17,calcal.net,JP,Asia,Eastern Asia,Japan,Kanagawa,,Hiyoshi
157.7.94.185,4,1135,ccd.cloud,JP,Asia,Eastern Asia,Japan,Kanagawa,,Hiyoshi
162.43.94.35,4,-14,chancurry.com,JP,Asia,Eastern Asia,Japan,Kanagawa,,Hiyoshi
157.7.94.92,4,1143,chibanippo.co.jp,JP,Asia,Eastern Asia,Japan,Kanagawa,,Hiyoshi
160.251.14.223,4,4,chizai-watch.com,JP,Asia,Eastern Asia,Japan,Kanagawa,,Hiyoshi
160.251.71.22,4,3,chrisspedding.com,JP,Asia,Eastern Asia,Japan,Kanagawa,,Hiyoshi
49.212.220.245,4,-1,ckworks.jp,JP,Asia,Eastern Asia,Japan,Kanagawa,,Hiyoshi
160.251.122.192,4,3,cl-system.jp,JP,Asia,Eastern Asia,Japan,Kanagawa,,Hiyoshi
162.43.94.23,4,-1,cosmetic-ingredients.org,JP,Asia,Eastern Asia,Japan,Kanagawa,,Hiyoshi
162.43.94.92,4,0,creationline.com,JP,Asia,Eastern Asia,Japan,Kanagawa,,Hiyoshi
160.251.123.76,4,0,cuarex.com,JP,Asia,Eastern Asia,Japan,Kanagawa,,Hiyoshi
162.43.94.201,4,2,e56.info,JP,Asia,Eastern Asia,Japan,Kanagawa,,Hiyoshi
160.251.73.147,4,3,elf-fan.club,JP,Asia,Eastern Asia,Japan,Kanagawa,,Hiyoshi
160.251.16.47,4,6,eplang.jp,JP,Asia,Eastern Asia,Japan,Kanagawa,,Hiyoshi
157.7.94.62,4,1138,eriones.com,JP,Asia,Eastern Asia,Japan,Kanagawa,,Hiyoshi
160.251.71.151,4,2,estive.net,JP,Asia,Eastern Asia,Japan,Kanagawa,,Hiyoshi
160.251.71.121,4,-9,exomagazine.com,JP,Asia,Eastern Asia,Japan,Kanagawa,,Hiyoshi
162.43.94.165,4,-14,fan-web.jp,JP,Asia,Eastern Asia,Japan,Kanagawa,,Hiyoshi
162.43.94.186,4,-12,first-produce.com,JP,Asia,Eastern Asia,Japan,Kanagawa,,Hiyoshi
160.251.71.152,4,5,flash-bucks.com,JP,Asia,Eastern Asia,Japan,Kanagawa,,Hiyoshi
162.43.94.154,4,-7,fudousan.info,JP,Asia,Eastern Asia,Japan,Kanagawa,,Hiyoshi
160.251.71.115,4,-5,fukui-mikuniya.jp,JP,Asia,Eastern Asia,Japan,Kanagawa,,Hiyoshi
219.94.251.16,4,-1323,fukushima-koutu.co.jp,JP,Asia,Eastern Asia,Japan,Kanagawa,,Hiyoshi
162.43.14.100,4,-7,genkisushi.co.jp,JP,Asia,Eastern Asia,Japan,Kanagawa,,Hiyoshi
160.251.71.20,4,-9,glafit.com,JP,Asia,Eastern Asia,Japan,Kanagawa,,Hiyoshi
49.212.211.99,4,6,gohome.org,JP,Asia,Eastern Asia,Japan,Kanagawa,,Hiyoshi
160.251.71.89,4,16,hakataza.co.jp,JP,Asia,Eastern Asia,Japan,Kanagawa,,Hiyoshi
162.43.94.77,4,-2,hiroyukichishiro.com,JP,Asia,Eastern Asia,Japan,Kanagawa,,Hiyoshi
160.251.71.157,4,-5,hitode-festival.com,JP,Asia,Eastern Asia,Japan,Kanagawa,,Hiyoshi
162.43.94.91,4,-2,hju.ac.jp,JP,Asia,Eastern Asia,Japan,Kanagawa,,Hiyoshi
160.251.71.60,4,-9,hqcialismht.com,JP,Asia,Eastern Asia,Japan,Kanagawa,,Hiyoshi
160.251.123.205,4,1,human.ac.jp,JP,Asia,Eastern Asia,Japan,Kanagawa,,Hiyoshi
162.43.94.185,4,2,humanbalance.net,JP,Asia,Eastern Asia,Japan,Kanagawa,,Hiyoshi
162.43.94.75,4,18,imation.co.jp,JP,Asia,Eastern Asia,Japan,Kanagawa,,Hiyoshi
162.43.94.68,4,-5,interior-kondo.co.jp,JP,Asia,Eastern Asia,Japan,Kanagawa,,Hiyoshi
49.212.196.226,4,3,jara.or.jp,JP,Asia,Eastern Asia,Japan,Kanagawa,,Hiyoshi
219.94.245.232,4,37,jeongjincns.com,JP,Asia,Eastern Asia,Japan,Kanagawa,,Hiyoshi
162.43.94.80,4,-12,jpnculture.net,JP,Asia,Eastern Asia,Japan,Kanagawa,,Hiyoshi
157.7.94.176,4,1138,jsndi.jp,JP,Asia,Eastern Asia,Japan,Kanagawa,,Hiyoshi
160.251.80.238,4,1,just-size.net,JP,Asia,Eastern Asia,Japan,Kanagawa,,Hiyoshi
162.43.94.9,4,3,k-solution.info,JP,Asia,Eastern Asia,Japan,Kanagawa,,Hiyoshi
160.251.71.84,4,24,kaihouz.jp,JP,Asia,Eastern Asia,Japan,Kanagawa,,Hiyoshi
160.251.75.138,4,7,kannabe.co.jp,JP,Asia,Eastern Asia,Japan,Kanagawa,,Hiyoshi
49.212.203.247,4,7,keiba.or.jp,JP,Asia,Eastern Asia,Japan,Kanagawa,,Hiyoshi
160.251.104.20,4,4,keisanki.me,JP,Asia,Eastern Asia,Japan,Kanagawa,,Hiyoshi
160.251.71.52,4,-3,kgb585.com,JP,Asia,Eastern Asia,Japan,Kanagawa,,Hiyoshi
160.251.71.90,4,1,kitchoan.co.jp,JP,Asia,Eastern Asia,Japan,Kanagawa,,Hiyoshi
49.212.211.254,4,3,ksrp.or.jp,JP,Asia,Eastern Asia,Japan,Kanagawa,,Hiyoshi
162.43.6.18,4,-14,ktarn.or.jp,JP,Asia,Eastern Asia,Japan,Kanagawa,,Hiyoshi
160.251.83.86,4,-2,kukky.com,JP,Asia,Eastern Asia,Japan,Kanagawa,,Hiyoshi
162.43.94.198,4,-11,kyusho.co.jp,JP,Asia,Eastern Asia,Japan,Kanagawa,,Hiyoshi
162.43.94.48,4,4,la-cime.com,JP,Asia,Eastern Asia,Japan,Kanagawa,,Hiyoshi
49.212.221.191,4,39,lesbernalines.com,JP,Asia,Eastern Asia,Japan,Kanagawa,,Hiyoshi
160.251.71.155,4,-8,lifehacking.jp,JP,Asia,Eastern Asia,Japan,Kanagawa,,Hiyoshi
49.212.192.164,4,4,loveruby.net,JP,Asia,Eastern Asia,Japan,Kanagawa,,Hiyoshi
162.43.94.191,4,-9,m-flo.com,JP,Asia,Eastern Asia,Japan,Kanagawa,,Hiyoshi
157.7.94.157,4,1135,magia.tokyo,JP,Asia,Eastern Asia,Japan,Kanagawa,,Hiyoshi
162.43.94.96,4,-18,marukyu-koyamaen.co.jp,JP,Asia,Eastern Asia,Japan,Kanagawa,,Hiyoshi
219.94.246.234,4,23,medios-de-uruguay.com,JP,Asia,Eastern Asia,Japan,Kanagawa,,Hiyoshi
160.251.71.150,4,-1,metaversesouken.com,JP,Asia,Eastern Asia,Japan,Kanagawa,,Hiyoshi
162.43.94.29,4,4,mikimoto-pearl-museum.co.jp,JP,Asia,Eastern Asia,Japan,Kanagawa,,Hiyoshi
160.251.71.118,4,37,mishimasha.com,JP,Asia,Eastern Asia,Japan,Kanagawa,,Hiyoshi
162.43.94.42,4,1,momaw.jp,JP,Asia,Eastern Asia,Japan,Kanagawa,,Hiyoshi
219.94.255.142,4,32,mse.co.jp,JP,Asia,Eastern Asia,Japan,Kanagawa,,Hiyoshi
160.251.71.156,4,1,muse-sannomiya.com,JP,Asia,Eastern Asia,Japan,Kanagawa,,Hiyoshi
162.43.94.150,4,16,nacsj.or.jp,JP,Asia,Eastern Asia,Japan,Kanagawa,,Hiyoshi
162.43.94.158,4,-17,naifix.com,JP,Asia,Eastern Asia,Japan,Kanagawa,,Hiyoshi
162.43.94.164,4,-10,nctimes.net,JP,Asia,Eastern Asia,Japan,Kanagawa,,Hiyoshi
162.43.94.70,4,-11,neoreader.com,JP,Asia,Eastern Asia,Japan,Kanagawa,,Hiyoshi
162.43.94.156,4,-10,nikke-tennis.jp,JP,Asia,Eastern Asia,Japan,Kanagawa,,Hiyoshi
162.43.94.103,4,-15,nippombashi.jp,JP,Asia,Eastern Asia,Japan,Kanagawa,,Hiyoshi
162.43.94.28,4,-14,nobi.com,JP,Asia,Eastern Asia,Japan,Kanagawa,,Hiyoshi
162.43.94.210,4,-11,nomad-saving.com,JP,Asia,Eastern Asia,Japan,Kanagawa,,Hiyoshi
162.43.94.145,4,2,oarai-isosakijinja.or.jp,JP,Asia,Eastern Asia,Japan,Kanagawa,,Hiyoshi
160.251.71.147,4,5,ogurayui.jp,JP,Asia,Eastern Asia,Japan,Kanagawa,,Hiyoshi
162.43.94.61,4,1,okonomi.co.jp,JP,Asia,Eastern Asia,Japan,Kanagawa,,Hiyoshi
49.212.199.213,4,2,oshiete-kun.net,JP,Asia,Eastern Asia,Japan,Kanagawa,,Hiyoshi
162.43.94.65,4,0,outlet-rera.com,JP,Asia,Eastern Asia,Japan,Kanagawa,,Hiyoshi
162.43.94.32,4,16,photock.jp,JP,Asia,Eastern Asia,Japan,Kanagawa,,Hiyoshi
162.43.94.58,4,-16,promax.co.jp,JP,Asia,Eastern Asia,Japan,Kanagawa,,Hiyoshi
49.212.210.79,4,0,researchbib.com,JP,Asia,Eastern Asia,Japan,Kanagawa,,Hiyoshi
160.251.104.56,4,24,runsystem.net,JP,Asia,Eastern Asia,Japan,Kanagawa,,Hiyoshi
162.43.25.115,4,-12,samurai-gamers.com,JP,Asia,Eastern Asia,Japan,Kanagawa,,Hiyoshi
162.43.94.44,4,9,sangyo-koryuten.tokyo,JP,Asia,Eastern Asia,Japan,Kanagawa,,Hiyoshi
160.251.71.19,4,-2,sbsmarketing.co.jp,JP,Asia,Eastern Asia,Japan,Kanagawa,,Hiyoshi
162.43.94.189,4,-3,shokupan-sakimoto.com,JP,Asia,Eastern Asia,Japan,Kanagawa,,Hiyoshi
162.43.94.167,4,-15,simulationgame.jp,JP,Asia,Eastern Asia,Japan,Kanagawa,,Hiyoshi
162.43.94.151,4,2,sky-links.net,JP,Asia,Eastern Asia,Japan,Kanagawa,,Hiyoshi
160.251.52.182,4,12,slime300-anime.com,JP,Asia,Eastern Asia,Japan,Kanagawa,,Hiyoshi
162.43.94.183,4,-14,sugawara.ac.jp,JP,Asia,Eastern Asia,Japan,Kanagawa,,Hiyoshi
162.43.94.196,4,0,sunpi-duo.com,JP,Asia,Eastern Asia,Japan,Kanagawa,,Hiyoshi
160.251.71.62,4,-2,sushinomidori.co.jp,JP,Asia,Eastern Asia,Japan,Kanagawa,,Hiyoshi
160.251.72.115,4,-71,suzaka-kankokyokai.jp,JP,Asia,Eastern Asia,Japan,Kanagawa,,Hiyoshi
157.7.94.93,4,1142,syokuryo.jp,JP,Asia,Eastern Asia,Japan,Kanagawa,,Hiyoshi
160.251.71.92,4,-4,tadalafilb.com,JP,Asia,Eastern Asia,Japan,Kanagawa,,Hiyoshi
219.94.255.70,4,1,taittsuu.com,JP,Asia,Eastern Asia,Japan,Kanagawa,,Hiyoshi
162.43.94.52,4,-16,tetsudo-shimbun.com,JP,Asia,Eastern Asia,Japan,Kanagawa,,Hiyoshi
162.43.94.184,4,-15,tgifridays.co.jp,JP,Asia,Eastern Asia,Japan,Kanagawa,,Hiyoshi
162.43.94.16,4,-3,theofficelegal.com,JP,Asia,Eastern Asia,Japan,Kanagawa,,Hiyoshi
162.43.94.169,4,2,tiktok-for-business.co.jp,JP,Asia,Eastern Asia,Japan,Kanagawa,,Hiyoshi
162.43.94.24,4,30,titan-net.co.jp,JP,Asia,Eastern Asia,Japan,Kanagawa,,Hiyoshi
162.43.94.4,4,14,tokeidai.co.jp,JP,Asia,Eastern Asia,Japan,Kanagawa,,Hiyoshi
162.43.94.116,4,-11,tsukuba-g.ac.jp,JP,Asia,Eastern Asia,Japan,Kanagawa,,Hiyoshi
49.212.214.86,4,19,tukaerusite.com,JP,Asia,Eastern Asia,Japan,Kanagawa,,Hiyoshi
162.43.94.31,4,3,wakasa-obama.jp,JP,Asia,Eastern Asia,Japan,Kanagawa,,Hiyoshi
162.43.94.7,4,6,webopixel.net,JP,Asia,Eastern Asia,Japan,Kanagawa,,Hiyoshi
162.43.94.33,4,-9,webst8.com,JP,Asia,Eastern Asia,Japan,Kanagawa,,Hiyoshi
160.251.101.109,4,26,websunday.net,JP,Asia,Eastern Asia,Japan,Kanagawa,,Hiyoshi
160.251.71.83,4,1,worx.jp,JP,Asia,Eastern Asia,Japan,Kanagawa,,Hiyoshi
162.43.94.66,4,-1,wxwindows.org,JP,Asia,Eastern Asia,Japan,Kanagawa,,Hiyoshi
160.251.71.123,4,52,xn--fdk2a6cj0427j.jp,JP,Asia,Eastern Asia,Japan,Kanagawa,,Hiyoshi
157.7.94.165,4,1141,young-machine.com,JP,Asia,Eastern Asia,Japan,Kanagawa,,Hiyoshi
162.43.94.95,4,5,zaikei.co.jp,JP,Asia,Eastern Asia,Japan,Kanagawa,,Hiyoshi
