reflector_ip,ip_version,offset,description,country_code,region,sub_region,country_name,sub_division_1,sub_division_2,city
3.130.210.153,4,7,180medical.com,US,Americas,Northern America,United States of America,Ohio,,Columbus
18.220.136.199,4,7,32acp.com,US,Americas,Northern America,United States of America,Ohio,,Columbus
3.19.95.36,4,55,activerelease.com,US,Americas,Northern America,United States of America,Ohio,,Columbus
3.16.250.218,4,6,adlatina.com,US,Americas,Northern America,United States of America,Ohio,,Columbus
3.138.130.18,4,47,advids.co,US,Americas,Northern America,United States of America,Ohio,,Columbus
18.220.42.202,4,8,agwa.name,US,Americas,Northern America,United States of America,Ohio,,Columbus
52.14.3.58,4,17,ais.org,US,Americas,Northern America,United States of America,Ohio,,Columbus
3.136.219.149,4,3,akroncantonairport.com,US,Americas,Northern America,United States of America,Ohio,,Columbus
18.118.232.36,4,70,allaboutlearningpress.net,US,Americas,Northern America,United States of America,Ohio,,Columbus
3.132.199.167,4,61,allaboutlearningpress.net,US,Americas,Northern America,United States of America,Ohio,,Columbus
18.219.176.242,4,52,allaboutlearningpress.net,US,Americas,Northern America,United States of America,Ohio,,Columbus
3.12.55.88,4,14,alttpr.com,US,Americas,Northern America,United States of America,Ohio,,Columbus
3.134.36.86,4,32,angeloni.com.br,US,Americas,Northern America,United States of America,Ohio,,Columbus
3.141.146.16,4,22,apellis.com,US,Americas,Northern America,United States of America,Ohio,,Columbus
3.137.118.22,4,34,apma.ca,US,Americas,Northern America,United States of America,Ohio,,Columbus
52.14.157.209,4,9,aspirationtech.org,US,Americas,Northern America,United States of America,Ohio,,Columbus
3.128.108.230,4,8,atsacoustics.com,US,Americas,Northern America,United States of America,Ohio,,Columbus
18.217.107.104,4,7,autobodynews.com,US,Americas,Northern America,United States of America,Ohio,,Columbus
18.221.219.175,4,21,autocartruck.com,US,Americas,Northern America,United States of America,Ohio,,Columbus
18.221.250.254,4,9,autocartruck.com,US,Americas,Northern America,United States of America,Ohio,,Columbus
18.220.87.89,4,11,autocartruck.com,US,Americas,Northern America,United States of America,Ohio,,Columbus
3.136.92.204,4,2,awpa.com,US,Americas,Northern America,United States of America,Ohio,,Columbus
52.14.32.40,4,43,bauersmiles.com,US,Americas,Northern America,United States of America,Ohio,,Columbus
18.189.56.192,4,8,behavioralsleep.org,US,Americas,Northern America,United States of America,Ohio,,Columbus
3.135.121.33,4,49,bigpicture.net,US,Americas,Northern America,United States of America,Ohio,,Columbus
3.130.137.99,4,9,biohavenpharma.com,US,Americas,Northern America,United States of America,Ohio,,Columbus
3.136.182.174,4,5,bordendairy.com,US,Americas,Northern America,United States of America,Ohio,,Columbus
3.20.82.158,4,-1285128,boxgroove.com,US,Americas,Northern America,United States of America,Ohio,,Columbus
13.59.116.126,4,24,buildipedia.com,US,Americas,Northern America,United States of America,Ohio,,Columbus
18.191.253.198,4,6,bw.org,US,Americas,Northern America,United States of America,Ohio,,Columbus
3.18.93.174,4,8,careermd.com,US,Americas,Northern America,United States of America,Ohio,,Columbus
3.133.61.249,4,11,carolinacountry.com,US,Americas,Northern America,United States of America,Ohio,,Columbus
99.50.89.186,4,5,ccl.net,US,Americas,Northern America,United States of America,Ohio,,Columbus
3.136.163.148,4,3,ccwsafe.com,US,Americas,Northern America,United States of America,Ohio,,Columbus
3.135.136.199,4,9,cedarrapids.org,US,Americas,Northern America,United States of America,Ohio,,Columbus
3.128.214.223,4,14,cedarrapids.org,US,Americas,Northern America,United States of America,Ohio,,Columbus
3.131.17.78,4,6,childserve.org,US,Americas,Northern America,United States of America,Ohio,,Columbus
3.130.75.7,4,2,choosechicago.com,US,Americas,Northern America,United States of America,Ohio,,Columbus
18.221.162.10,4,83,commloan.com,US,Americas,Northern America,United States of America,Ohio,,Columbus
3.133.191.110,4,41,condadotacos.com,US,Americas,Northern America,United States of America,Ohio,,Columbus
3.19.216.247,4,8,condadotacos.com,US,Americas,Northern America,United States of America,Ohio,,Columbus
3.15.133.8,4,7,condadotacos.com,US,Americas,Northern America,United States of America,Ohio,,Columbus
18.190.104.230,4,7,connectedsmartcities.com.br,US,Americas,Northern America,United States of America,Ohio,,Columbus
18.217.122.104,4,6,crma.org,US,Americas,Northern America,United States of America,Ohio,,Columbus
3.13.78.185,4,48,crma.org,US,Americas,Northern America,United States of America,Ohio,,Columbus
3.141.154.203,4,6,crma.org,US,Americas,Northern America,United States of America,Ohio,,Columbus
3.13.255.217,4,9,crossborderxpress.com,US,Americas,Northern America,United States of America,Ohio,,Columbus
3.21.216.87,4,7,curtin.edu.my,US,Americas,Northern America,United States of America,Ohio,,Columbus
3.132.202.202,4,7,dickens.com,US,Americas,Northern America,United States of America,Ohio,,Columbus
3.130.254.33,4,6,divebuddy.com,US,Americas,Northern America,United States of America,Ohio,,Columbus
3.19.3.225,4,7,divebuddy.com,US,Americas,Northern America,United States of America,Ohio,,Columbus
74.203.74.105,4,113,DNS Server: 74-203-74-105.brescobroadband.com,US,Americas,Northern America,United States of America,Ohio,,Columbus
184.57.52.25,4,9442,DNS Server: cpe-184-57-52-25.columbus.res.rr.com,US,Americas,Northern America,United States of America,Ohio,,Columbus
74.129.183.100,4,15529,DNS Server: cpe-74-129-183-100.kya.res.rr.com,US,Americas,Northern America,United States of America,Ohio,,Columbus
18.216.145.163,4,12,DNS Server: ec2-18-216-145-163.us-east-2.compute.amazonaws.com,US,Americas,Northern America,United States of America,Ohio,,Columbus
18.222.134.42,4,60,DNS Server: ec2-18-222-134-42.us-east-2.compute.amazonaws.com,US,Americas,Northern America,United States of America,Ohio,,Columbus
18.222.31.109,4,19,DNS Server: ec2-18-222-31-109.us-east-2.compute.amazonaws.com,US,Americas,Northern America,United States of America,Ohio,,Columbus
3.12.121.241,4,-1325922,DNS Server: ec2-3-12-121-241.us-east-2.compute.amazonaws.com,US,Americas,Northern America,United States of America,Ohio,,Columbus
3.14.242.170,4,66,DNS Server: ec2-3-14-242-170.us-east-2.compute.amazonaws.com,US,Americas,Northern America,United States of America,Ohio,,Columbus
52.14.184.88,4,6,DNS Server: ec2-52-14-184-88.us-east-2.compute.amazonaws.com,US,Americas,Northern America,United States of America,Ohio,,Columbus
18.217.77.64,4,4,domorewithyourdog.com,US,Americas,Northern America,United States of America,Ohio,,Columbus
3.143.200.150,4,1,drumhellermail.com,US,Americas,Northern America,United States of America,Ohio,,Columbus
3.132.46.100,4,3,dwci.edu,US,Americas,Northern America,United States of America,Ohio,,Columbus
3.143.75.139,4,9,dwci.edu,US,Americas,Northern America,United States of America,Ohio,,Columbus
3.128.121.195,4,3,ecomagazine.com,US,Americas,Northern America,United States of America,Ohio,,Columbus
3.17.239.255,4,49,ekal.org,US,Americas,Northern America,United States of America,Ohio,,Columbus
18.190.95.19,4,10,ekal.org,US,Americas,Northern America,United States of America,Ohio,,Columbus
24.106.248.90,4,3,eldar.org,US,Americas,Northern America,United States of America,Ohio,,Columbus
3.141.155.40,4,5,eocinstitute.org,US,Americas,Northern America,United States of America,Ohio,,Columbus
3.20.144.94,4,4,eocinstitute.org,US,Americas,Northern America,United States of America,Ohio,,Columbus
18.220.88.168,4,9,eocinstitute.org,US,Americas,Northern America,United States of America,Ohio,,Columbus
18.219.37.97,4,8,eradicopest.com,US,Americas,Northern America,United States of America,Ohio,,Columbus
3.22.67.23,4,8,eunq.com,US,Americas,Northern America,United States of America,Ohio,,Columbus
18.218.242.214,4,14,evoketechnologies.com,US,Americas,Northern America,United States of America,Ohio,,Columbus
18.216.19.103,4,53,flatstaffing.com,US,Americas,Northern America,United States of America,Ohio,,Columbus
18.117.1.24,4,6,flcancer.com,US,Americas,Northern America,United States of America,Ohio,,Columbus
18.116.210.70,4,8,flcancer.com,US,Americas,Northern America,United States of America,Ohio,,Columbus
3.131.204.68,4,92,foldingforum.org,US,Americas,Northern America,United States of America,Ohio,,Columbus
3.139.203.164,4,36,foodgatherers.org,US,Americas,Northern America,United States of America,Ohio,,Columbus
18.218.52.207,4,55,foodgatherers.org,US,Americas,Northern America,United States of America,Ohio,,Columbus
18.219.21.29,4,9,formpros.com,US,Americas,Northern America,United States of America,Ohio,,Columbus
18.189.90.244,4,139,forumancientcoins.com,US,Americas,Northern America,United States of America,Ohio,,Columbus
3.18.236.203,4,79,forumancientcoins.com,US,Americas,Northern America,United States of America,Ohio,,Columbus
3.136.94.7,4,39,galaxyproject.org,US,Americas,Northern America,United States of America,Ohio,,Columbus
18.118.71.63,4,12,glginsights.com,US,Americas,Northern America,United States of America,Ohio,,Columbus
52.15.80.128,4,4,glginsights.com,US,Americas,Northern America,United States of America,Ohio,,Columbus
18.118.124.148,4,9,glginsights.com,US,Americas,Northern America,United States of America,Ohio,,Columbus
3.139.43.79,4,22,gnosticteachings.org,US,Americas,Northern America,United States of America,Ohio,,Columbus
3.14.228.69,4,23,gnyha.org,US,Americas,Northern America,United States of America,Ohio,,Columbus
18.217.134.10,4,24,gnyha.org,US,Americas,Northern America,United States of America,Ohio,,Columbus
3.141.246.185,4,21,go-thassos.gr,US,Americas,Northern America,United States of America,Ohio,,Columbus
3.134.180.167,4,4,gohealthinsurance.com,US,Americas,Northern America,United States of America,Ohio,,Columbus
18.116.95.221,4,20,gohealthinsurance.com,US,Americas,Northern America,United States of America,Ohio,,Columbus
3.128.69.167,4,91,gotofail.com,US,Americas,Northern America,United States of America,Ohio,,Columbus
3.14.178.66,4,12,greenaction.org,US,Americas,Northern America,United States of America,Ohio,,Columbus
3.138.73.154,4,41,greenmarketreport.com,US,Americas,Northern America,United States of America,Ohio,,Columbus
3.13.228.146,4,32,havenlifestyles.com,US,Americas,Northern America,United States of America,Ohio,,Columbus
3.134.121.21,4,14,healthinaging.org,US,Americas,Northern America,United States of America,Ohio,,Columbus
18.191.81.1,4,35,healthlinemedia.com,US,Americas,Northern America,United States of America,Ohio,,Columbus
18.218.73.126,4,9,holocaustmemorialmiamibeach.org,US,Americas,Northern America,United States of America,Ohio,,Columbus
3.23.47.72,4,46,holocaustmemorialmiamibeach.org,US,Americas,Northern America,United States of America,Ohio,,Columbus
18.189.225.53,4,7,ibakeheshoots.com,US,Americas,Northern America,United States of America,Ohio,,Columbus
3.141.218.172,4,40,invaluable.com,US,Americas,Northern America,United States of America,Ohio,,Columbus
3.139.115.12,4,25,invaluable.com,US,Americas,Northern America,United States of America,Ohio,,Columbus
3.19.195.39,4,4,invaluable.com,US,Americas,Northern America,United States of America,Ohio,,Columbus
18.217.92.76,4,0,iosolutions.com,US,Americas,Northern America,United States of America,Ohio,,Columbus
18.224.216.243,4,104,isahalal.com,US,Americas,Northern America,United States of America,Ohio,,Columbus
3.136.200.149,4,2,isradiology.org,US,Americas,Northern America,United States of America,Ohio,,Columbus
18.218.19.43,4,8,israelforever.org,US,Americas,Northern America,United States of America,Ohio,,Columbus
3.140.26.183,4,52,israelforever.org,US,Americas,Northern America,United States of America,Ohio,,Columbus
64.186.7.220,4,7,iwaynet.net,US,Americas,Northern America,United States of America,Ohio,,Columbus
3.16.252.79,4,5,jewishcleveland.org,US,Americas,Northern America,United States of America,Ohio,,Columbus
3.19.105.85,4,2,jewishcleveland.org,US,Americas,Northern America,United States of America,Ohio,,Columbus
3.13.137.32,4,4,ketteringhealth.org,US,Americas,Northern America,United States of America,Ohio,,Columbus
13.58.112.24,4,4,kingfisherbay.com,US,Americas,Northern America,United States of America,Ohio,,Columbus
3.21.150.34,4,10,kingworldnews.com,US,Americas,Northern America,United States of America,Ohio,,Columbus
3.128.185.163,4,7,kitchensource.com,US,Americas,Northern America,United States of America,Ohio,,Columbus
3.134.208.111,4,7,kitchensource.com,US,Americas,Northern America,United States of America,Ohio,,Columbus
3.23.159.70,4,4,kochava.com,US,Americas,Northern America,United States of America,Ohio,,Columbus
18.190.165.35,4,4,lacatholics.org,US,Americas,Northern America,United States of America,Ohio,,Columbus
3.134.221.49,4,8,lacatholics.org,US,Americas,Northern America,United States of America,Ohio,,Columbus
13.59.63.102,4,7,lendingwise.com,US,Americas,Northern America,United States of America,Ohio,,Columbus
52.14.180.161,4,48137,letsgosolar.com,US,Americas,Northern America,United States of America,Ohio,,Columbus
3.129.175.41,4,56,lifelongadoptions.com,US,Americas,Northern America,United States of America,Ohio,,Columbus
3.142.115.91,4,41,lifenaut.com,US,Americas,Northern America,United States of America,Ohio,,Columbus
3.132.239.46,4,5,lnesc.org,US,Americas,Northern America,United States of America,Ohio,,Columbus
3.140.150.136,4,5,lnesc.org,US,Americas,Northern America,United States of America,Ohio,,Columbus
3.130.95.122,4,7,lordhair.com,US,Americas,Northern America,United States of America,Ohio,,Columbus
3.131.49.219,4,27,lulac.org,US,Americas,Northern America,United States of America,Ohio,,Columbus
18.116.11.89,4,4,lulac.org,US,Americas,Northern America,United States of America,Ohio,,Columbus
3.137.76.75,4,54,mainesnowmobileassociation.com,US,Americas,Northern America,United States of America,Ohio,,Columbus
18.116.58.152,4,8,maleexcel.com,US,Americas,Northern America,United States of America,Ohio,,Columbus
52.15.101.156,4,5,mallsinamerica.com,US,Americas,Northern America,United States of America,Ohio,,Columbus
3.20.231.123,4,50,managewp.com,US,Americas,Northern America,United States of America,Ohio,,Columbus
18.218.68.223,4,12,managewp.com,US,Americas,Northern America,United States of America,Ohio,,Columbus
18.116.192.239,4,487,marcachile.cl,US,Americas,Northern America,United States of America,Ohio,,Columbus
3.19.122.34,4,6,mcdonaldobservatory.org,US,Americas,Northern America,United States of America,Ohio,,Columbus
18.117.15.8,4,6,michigansugar.com,US,Americas,Northern America,United States of America,Ohio,,Columbus
67.219.151.10,4,4,mindworkshop.com,US,Americas,Northern America,United States of America,Ohio,,Columbus
18.189.209.225,4,95,mobap.edu,US,Americas,Northern America,United States of America,Ohio,,Columbus
52.14.242.232,4,6,morewinemaking.com,US,Americas,Northern America,United States of America,Ohio,,Columbus
18.220.20.217,4,6,mrqe.com,US,Americas,Northern America,United States of America,Ohio,,Columbus
3.16.185.181,4,22,mrqe.com,US,Americas,Northern America,United States of America,Ohio,,Columbus
18.224.160.85,4,11,mugglenet.com,US,Americas,Northern America,United States of America,Ohio,,Columbus
3.15.113.252,4,10,mugglenet.com,US,Americas,Northern America,United States of America,Ohio,,Columbus
52.14.219.6,4,113,mugglenet.com,US,Americas,Northern America,United States of America,Ohio,,Columbus
3.19.117.240,4,3,multiqos.com,US,Americas,Northern America,United States of America,Ohio,,Columbus
3.137.53.104,4,11,mxagproducts.com,US,Americas,Northern America,United States of America,Ohio,,Columbus
52.14.25.186,4,21,mycanyonlake.com,US,Americas,Northern America,United States of America,Ohio,,Columbus
3.134.218.181,4,25,myfloridahistory.org,US,Americas,Northern America,United States of America,Ohio,,Columbus
3.19.104.29,4,24,myvr.com,US,Americas,Northern America,United States of America,Ohio,,Columbus
3.134.132.239,4,5,myvr.com,US,Americas,Northern America,United States of America,Ohio,,Columbus
18.220.19.213,4,9,myvr.com,US,Americas,Northern America,United States of America,Ohio,,Columbus
18.116.243.229,4,15,naiglobal.com,US,Americas,Northern America,United States of America,Ohio,,Columbus
52.14.96.171,4,35,naiglobal.com,US,Americas,Northern America,United States of America,Ohio,,Columbus
13.58.206.193,4,40,natcheztracetravel.com,US,Americas,Northern America,United States of America,Ohio,,Columbus
3.18.240.95,4,31,naturalcomfortkitchen.com,US,Americas,Northern America,United States of America,Ohio,,Columbus
18.217.182.35,4,52,naturalcomfortkitchen.com,US,Americas,Northern America,United States of America,Ohio,,Columbus
3.20.124.162,4,5,ncbcp.org,US,Americas,Northern America,United States of America,Ohio,,Columbus
3.130.104.177,4,6,ncbcp.org,US,Americas,Northern America,United States of America,Ohio,,Columbus
3.128.252.71,4,8,newnybridge.com,US,Americas,Northern America,United States of America,Ohio,,Columbus
18.223.86.64,4,31,nifdi.org,US,Americas,Northern America,United States of America,Ohio,,Columbus
3.23.195.26,4,8,nld.org,US,Americas,Northern America,United States of America,Ohio,,Columbus
18.191.23.187,4,15,notabenoid.com,US,Americas,Northern America,United States of America,Ohio,,Columbus
3.128.100.100,4,5,nsastorage.com,US,Americas,Northern America,United States of America,Ohio,,Columbus
3.12.187.15,4,8,nsca.org,US,Americas,Northern America,United States of America,Ohio,,Columbus
3.134.120.225,4,5,nsca.org,US,Americas,Northern America,United States of America,Ohio,,Columbus
3.140.40.242,4,4,nsca.org,US,Americas,Northern America,United States of America,Ohio,,Columbus
3.23.40.1,4,34,oecs.int,US,Americas,Northern America,United States of America,Ohio,,Columbus
3.131.127.57,4,11,okok.org,US,Americas,Northern America,United States of America,Ohio,,Columbus
3.128.214.89,4,22,onaudience.com,US,Americas,Northern America,United States of America,Ohio,,Columbus
52.14.191.169,4,6,onesimcard.com,US,Americas,Northern America,United States of America,Ohio,,Columbus
69.58.127.61,4,291,Ookla Speedtest Server: speedtest.brescobroadband.com,US,Americas,Northern America,United States of America,Ohio,,Columbus
13.59.247.87,4,53,opencovidpledge.org,US,Americas,Northern America,United States of America,Ohio,,Columbus
18.189.144.247,4,83,openglam.org,US,Americas,Northern America,United States of America,Ohio,,Columbus
3.129.238.243,4,173,opposite-lock.com,US,Americas,Northern America,United States of America,Ohio,,Columbus
52.15.145.179,4,28,patsloan.com,US,Americas,Northern America,United States of America,Ohio,,Columbus
52.15.175.226,4,17,pdsa.org,US,Americas,Northern America,United States of America,Ohio,,Columbus
3.129.27.44,4,43,peopleofplay.com,US,Americas,Northern America,United States of America,Ohio,,Columbus
18.217.52.197,4,32,perfectpets.com.au,US,Americas,Northern America,United States of America,Ohio,,Columbus
18.220.251.6,4,51,philosophyonline.co.uk,US,Americas,Northern America,United States of America,Ohio,,Columbus
52.15.140.121,4,12,phonescoop.com,US,Americas,Northern America,United States of America,Ohio,,Columbus
3.18.147.226,4,53,phonescoop.com,US,Americas,Northern America,United States of America,Ohio,,Columbus
3.12.1.230,4,37,phonescoop.com,US,Americas,Northern America,United States of America,Ohio,,Columbus
3.22.215.199,4,13,pierce-arrow.com,US,Americas,Northern America,United States of America,Ohio,,Columbus
18.220.24.165,4,45,premiumaquatics.com,US,Americas,Northern America,United States of America,Ohio,,Columbus
3.130.182.32,4,79,proofreadnow.com,US,Americas,Northern America,United States of America,Ohio,,Columbus
3.135.43.179,4,18,publicgaming.com,US,Americas,Northern America,United States of America,Ohio,,Columbus
18.188.215.219,4,11,qualzz.com,US,Americas,Northern America,United States of America,Ohio,,Columbus
18.220.212.242,4,29,quectel.com,US,Americas,Northern America,United States of America,Ohio,,Columbus
3.134.203.109,4,21,ragan.com,US,Americas,Northern America,United States of America,Ohio,,Columbus
3.144.143.40,4,7,rananjayexports.in,US,Americas,Northern America,United States of America,Ohio,,Columbus
3.18.149.95,4,49,rankiq.app,US,Americas,Northern America,United States of America,Ohio,,Columbus
3.142.65.62,4,38,rankiq.app,US,Americas,Northern America,United States of America,Ohio,,Columbus
18.191.14.28,4,9,restorationmasterfinder.com,US,Americas,Northern America,United States of America,Ohio,,Columbus
3.141.64.108,4,34,richmondgear.com,US,Americas,Northern America,United States of America,Ohio,,Columbus
3.128.164.222,4,11,roadatlanta.com,US,Americas,Northern America,United States of America,Ohio,,Columbus
52.15.174.105,4,19,royal-holiday.com,US,Americas,Northern America,United States of America,Ohio,,Columbus
3.135.67.27,4,19,royal-holiday.com,US,Americas,Northern America,United States of America,Ohio,,Columbus
18.218.227.153,4,44,royal-holiday.com,US,Americas,Northern America,United States of America,Ohio,,Columbus
18.220.186.203,4,30,ru-bride.com,US,Americas,Northern America,United States of America,Ohio,,Columbus
18.189.75.26,4,4,salesenablement.pro,US,Americas,Northern America,United States of America,Ohio,,Columbus
3.138.252.11,4,25,salesenablement.pro,US,Americas,Northern America,United States of America,Ohio,,Columbus
18.217.199.162,4,35,seattlebsa.org,US,Americas,Northern America,United States of America,Ohio,,Columbus
18.188.122.178,4,4,sec8housing.org,US,Americas,Northern America,United States of America,Ohio,,Columbus
13.58.15.153,4,8,securesoftwareinfo.com,US,Americas,Northern America,United States of America,Ohio,,Columbus
3.140.77.119,4,15,segra.com,US,Americas,Northern America,United States of America,Ohio,,Columbus
3.12.53.53,4,17,sfbwmag.com,US,Americas,Northern America,United States of America,Ohio,,Columbus
3.12.2.128,4,8,shadehotel.com,US,Americas,Northern America,United States of America,Ohio,,Columbus
3.18.181.38,4,7,shannonassociates.com,US,Americas,Northern America,United States of America,Ohio,,Columbus
52.14.10.189,4,6,shannonassociates.com,US,Americas,Northern America,United States of America,Ohio,,Columbus
18.189.66.82,4,5,shannonassociates.com,US,Americas,Northern America,United States of America,Ohio,,Columbus
18.221.93.80,4,3,shepleybulfinch.com,US,Americas,Northern America,United States of America,Ohio,,Columbus
18.189.142.33,4,10,shiptacenter.org,US,Americas,Northern America,United States of America,Ohio,,Columbus
3.130.187.143,4,16,shiptacenter.org,US,Americas,Northern America,United States of America,Ohio,,Columbus
13.58.185.1,4,31,softconf.com,US,Americas,Northern America,United States of America,Ohio,,Columbus
3.133.217.140,4,29,southfloridaagentmagazine.com,US,Americas,Northern America,United States of America,Ohio,,Columbus
3.131.113.221,4,7,spectramedi.com,US,Americas,Northern America,United States of America,Ohio,,Columbus
3.13.126.254,4,11,speedybrand.io,US,Americas,Northern America,United States of America,Ohio,,Columbus
3.21.60.233,4,11,speedybrand.io,US,Americas,Northern America,United States of America,Ohio,,Columbus
18.218.125.163,4,3,spigit.com,US,Americas,Northern America,United States of America,Ohio,,Columbus
3.135.114.212,4,13,spigit.com,US,Americas,Northern America,United States of America,Ohio,,Columbus
3.13.147.49,4,10,spigit.com,US,Americas,Northern America,United States of America,Ohio,,Columbus
18.219.63.34,4,45,spiraldynamics.org,US,Americas,Northern America,United States of America,Ohio,,Columbus
3.141.84.212,4,2,sugarnutritionresource.org,US,Americas,Northern America,United States of America,Ohio,,Columbus
18.119.69.218,4,9,sullivanservice.com,US,Americas,Northern America,United States of America,Ohio,,Columbus
18.118.24.99,4,9,sully-movie.com,US,Americas,Northern America,United States of America,Ohio,,Columbus
3.131.62.133,4,17,superbetter.com,US,Americas,Northern America,United States of America,Ohio,,Columbus
3.12.214.102,4,6,superbetter.com,US,Americas,Northern America,United States of America,Ohio,,Columbus
3.140.91.195,4,17,surgipod.com,US,Americas,Northern America,United States of America,Ohio,,Columbus
52.15.203.158,4,72,telestial.com,US,Americas,Northern America,United States of America,Ohio,,Columbus
3.23.198.107,4,7,texasrealestate.com,US,Americas,Northern America,United States of America,Ohio,,Columbus
3.20.128.244,4,7,texasrealestate.com,US,Americas,Northern America,United States of America,Ohio,,Columbus
3.18.206.63,4,4,thebeautifulwomen.net,US,Americas,Northern America,United States of America,Ohio,,Columbus
3.20.179.9,4,33,thebl.tv,US,Americas,Northern America,United States of America,Ohio,,Columbus
18.189.126.194,4,10,theresumator.com,US,Americas,Northern America,United States of America,Ohio,,Columbus
3.16.238.11,4,6,theresumator.com,US,Americas,Northern America,United States of America,Ohio,,Columbus
18.191.75.97,4,7,theweddingdressproject.org,US,Americas,Northern America,United States of America,Ohio,,Columbus
52.14.222.163,4,20,thewordnetwork.org,US,Americas,Northern America,United States of America,Ohio,,Columbus
3.136.173.2,4,8,toadworld.com,US,Americas,Northern America,United States of America,Ohio,,Columbus
3.136.203.100,4,5,toadworld.com,US,Americas,Northern America,United States of America,Ohio,,Columbus
3.13.136.37,4,6,townoflogansport.com,US,Americas,Northern America,United States of America,Ohio,,Columbus
3.19.165.160,4,22,trektravel.com,US,Americas,Northern America,United States of America,Ohio,,Columbus
3.22.188.26,4,6,trukidsbrands.com,US,Americas,Northern America,United States of America,Ohio,,Columbus
18.116.171.3,4,13,tvmaniacos.com,US,Americas,Northern America,United States of America,Ohio,,Columbus
13.59.70.126,4,15,uglyhedgehog.com,US,Americas,Northern America,United States of America,Ohio,,Columbus
3.136.150.217,4,11,urpt.com,US,Americas,Northern America,United States of America,Ohio,,Columbus
3.135.162.51,4,11,usarugby.org,US,Americas,Northern America,United States of America,Ohio,,Columbus
3.139.226.203,4,13,v1tours.com,US,Americas,Northern America,United States of America,Ohio,,Columbus
3.130.177.175,4,67,vrtourhosts.com,US,Americas,Northern America,United States of America,Ohio,,Columbus
3.21.117.32,4,24,vsub.io,US,Americas,Northern America,United States of America,Ohio,,Columbus
18.218.194.8,4,8,waterfrontconcerts.com,US,Americas,Northern America,United States of America,Ohio,,Columbus
18.221.110.83,4,16,wetwillies.com,US,Americas,Northern America,United States of America,Ohio,,Columbus
3.15.248.132,4,8,wetwillies.com,US,Americas,Northern America,United States of America,Ohio,,Columbus
3.13.24.99,4,14,wetwillies.com,US,Americas,Northern America,United States of America,Ohio,,Columbus
3.18.78.224,4,6,wildlife-rescue.org,US,Americas,Northern America,United States of America,Ohio,,Columbus
3.129.191.79,4,6,winsightmedia.com,US,Americas,Northern America,United States of America,Ohio,,Columbus
3.137.128.143,4,5,winsightmedia.com,US,Americas,Northern America,United States of America,Ohio,,Columbus
3.12.16.150,4,6,wmfd.com,US,Americas,Northern America,United States of America,Ohio,,Columbus
3.16.249.84,4,10,wmfd.com,US,Americas,Northern America,United States of America,Ohio,,Columbus
3.137.20.195,4,9,worcester.edu,US,Americas,Northern America,United States of America,Ohio,,Columbus
3.142.175.248,4,6,world-schools.com,US,Americas,Northern America,United States of America,Ohio,,Columbus
3.18.155.123,4,9,worldwide101.com,US,Americas,Northern America,United States of America,Ohio,,Columbus
3.141.210.197,4,8,wrestlingnews.co,US,Americas,Northern America,United States of America,Ohio,,Columbus
3.13.223.60,4,8,writerslife.org,US,Americas,Northern America,United States of America,Ohio,,Columbus
3.143.91.123,4,7,wumpus-cave.net,US,Americas,Northern America,United States of America,Ohio,,Columbus
18.189.219.134,4,10,xcode.life,US,Americas,Northern America,United States of America,Ohio,,Columbus
3.140.211.86,4,7,ybouane.com,US,Americas,Northern America,United States of America,Ohio,,Columbus
3.21.68.157,4,10,yodersmokers.com,US,Americas,Northern America,United States of America,Ohio,,Columbus
3.141.188.206,4,14,yosemitepinesrv.com,US,Americas,Northern America,United States of America,Ohio,,Columbus
3.20.252.12,4,7,yourmarketingbff.com,US,Americas,Northern America,United States of America,Ohio,,Columbus
52.14.102.11,4,4,zus.network,US,Americas,Northern America,United States of America,Ohio,,Columbus
