reflector_ip,ip_version,offset,description,country_code,region,sub_region,country_name,sub_division_1,sub_division_2,city
195.179.239.79,4,4,119creatives.com,US,Americas,Northern America,United States of America,North Carolina,,Asheville
92.249.46.190,4,5,2giriscasinoslot.com,US,Americas,Northern America,United States of America,North Carolina,,Asheville
193.46.197.5,4,4,a2zlatestnews.com,US,Americas,Northern America,United States of America,North Carolina,,Asheville
212.1.208.58,4,89,abcparacontadores.com,US,Americas,Northern America,United States of America,North Carolina,,Asheville
92.249.46.11,4,5,abeso.org.br,US,Americas,Northern America,United States of America,North Carolina,,Asheville
193.46.196.7,4,4,abic.com.br,US,Americas,Northern America,United States of America,North Carolina,,Asheville
195.179.239.132,4,6,acosmin.com,US,Americas,Northern America,United States of America,North Carolina,,Asheville
92.249.46.59,4,124,africanrockart.org,US,Americas,Northern America,United States of America,North Carolina,,Asheville
45.132.243.71,4,10,afss.pk,US,Americas,Northern America,United States of America,North Carolina,,Asheville
151.106.97.70,4,10,ajudadireito.com.br,US,Americas,Northern America,United States of America,North Carolina,,Asheville
212.1.211.231,4,29,albertocomas.com,US,Americas,Northern America,United States of America,North Carolina,,Asheville
195.179.238.166,4,4,alchashop.com,US,Americas,Northern America,United States of America,North Carolina,,Asheville
31.170.160.155,4,6,alsaher.com.sa,US,Americas,Northern America,United States of America,North Carolina,,Asheville
193.160.64.217,4,3,amb.org.br,US,Americas,Northern America,United States of America,North Carolina,,Asheville
212.1.209.37,4,31,androiddata-recovery.com,US,Americas,Northern America,United States of America,North Carolina,,Asheville
2.57.91.131,4,71,androidgram.com,US,Americas,Northern America,United States of America,North Carolina,,Asheville
31.170.167.31,4,40,andyrutledge.com,US,Americas,Northern America,United States of America,North Carolina,,Asheville
195.179.238.15,4,5,artgalleryofmississauga.com,US,Americas,Northern America,United States of America,North Carolina,,Asheville
193.160.65.213,4,5,asabrasil.org.br,US,Americas,Northern America,United States of America,North Carolina,,Asheville
31.170.166.35,4,47,asafehaven.org,US,Americas,Northern America,United States of America,North Carolina,,Asheville
151.106.97.58,4,54,asami.mx,US,Americas,Northern America,United States of America,North Carolina,,Asheville
109.106.251.173,4,15,asesoriai.com,US,Americas,Northern America,United States of America,North Carolina,,Asheville
151.106.97.113,4,31,asildenshop.com,US,Americas,Northern America,United States of America,North Carolina,,Asheville
185.28.21.18,4,95,aviator-crash.org,US,Americas,Northern America,United States of America,North Carolina,,Asheville
149.62.39.22,4,3,azeshop.com.ar,US,Americas,Northern America,United States of America,North Carolina,,Asheville
31.170.166.73,4,71,baldwininternationalschool.net,US,Americas,Northern America,United States of America,North Carolina,,Asheville
45.80.155.166,4,7,bibleversesnow.com,US,Americas,Northern America,United States of America,North Carolina,,Asheville
31.170.161.141,4,4,bingaibike.com,US,Americas,Northern America,United States of America,North Carolina,,Asheville
45.13.134.55,4,6,biocurious.org,US,Americas,Northern America,United States of America,North Carolina,,Asheville
151.106.97.33,4,28,bloggeries.com,US,Americas,Northern America,United States of America,North Carolina,,Asheville
151.106.97.75,4,4,bluelotusimmigration.com,US,Americas,Northern America,United States of America,North Carolina,,Asheville
185.206.163.174,4,61,bourbono.com,US,Americas,Northern America,United States of America,North Carolina,,Asheville
151.106.111.232,4,7,bsabh.com,US,Americas,Northern America,United States of America,North Carolina,,Asheville
216.59.0.179,4,7,buenosaireswomen.com,US,Americas,Northern America,United States of America,North Carolina,,Asheville
151.106.106.123,4,47,businesslend.com,US,Americas,Northern America,United States of America,North Carolina,,Asheville
45.89.205.121,4,4,businessnewsthisweek.com,US,Americas,Northern America,United States of America,North Carolina,,Asheville
109.106.249.65,4,12,calibercorner.com,US,Americas,Northern America,United States of America,North Carolina,,Asheville
31.170.167.152,4,11,carbonmachete.com,US,Americas,Northern America,United States of America,North Carolina,,Asheville
195.179.239.217,4,11,carloworld.in,US,Americas,Northern America,United States of America,North Carolina,,Asheville
31.170.163.241,4,12,catbuzzy.com,US,Americas,Northern America,United States of America,North Carolina,,Asheville
195.179.239.234,4,5,cfshoecare.com,US,Americas,Northern America,United States of America,North Carolina,,Asheville
31.170.166.28,4,4,chalkdigital.com,US,Americas,Northern America,United States of America,North Carolina,,Asheville
151.106.97.249,4,7,champaknews.com,US,Americas,Northern America,United States of America,North Carolina,,Asheville
213.190.5.111,4,9,charliemonroe.net,US,Americas,Northern America,United States of America,North Carolina,,Asheville
31.170.160.56,4,12,clearinfo.in,US,Americas,Northern America,United States of America,North Carolina,,Asheville
195.179.239.85,4,7,climbersfamily.com,US,Americas,Northern America,United States of America,North Carolina,,Asheville
195.179.239.21,4,12,clubaindependiente.com,US,Americas,Northern America,United States of America,North Carolina,,Asheville
195.179.238.198,4,22,clubedomergulhador.com.br,US,Americas,Northern America,United States of America,North Carolina,,Asheville
195.179.238.98,4,26,clubhdtv.com,US,Americas,Northern America,United States of America,North Carolina,,Asheville
193.46.196.145,4,4,cognitivemarketresearch.com,US,Americas,Northern America,United States of America,North Carolina,,Asheville
109.106.248.225,4,37,colombiadiversa.org,US,Americas,Northern America,United States of America,North Carolina,,Asheville
31.170.167.112,4,89,colour-blindness.com,US,Americas,Northern America,United States of America,North Carolina,,Asheville
195.179.239.73,4,3,dealtikka.com,US,Americas,Northern America,United States of America,North Carolina,,Asheville
195.179.239.37,4,4,denotiz.com,US,Americas,Northern America,United States of America,North Carolina,,Asheville
31.170.166.116,4,3,digidev.com.br,US,Americas,Northern America,United States of America,North Carolina,,Asheville
31.170.166.67,4,5,digitalcrews.net,US,Americas,Northern America,United States of America,North Carolina,,Asheville
185.214.127.234,4,3,dnetsoft.com,US,Americas,Northern America,United States of America,North Carolina,,Asheville
212.1.212.180,4,5,donbassforum.net,US,Americas,Northern America,United States of America,North Carolina,,Asheville
195.179.239.205,4,12,dreamandthink.net,US,Americas,Northern America,United States of America,North Carolina,,Asheville
212.1.208.113,4,10,e-solar.tech,US,Americas,Northern America,United States of America,North Carolina,,Asheville
195.179.238.175,4,30,easysendy.com,US,Americas,Northern America,United States of America,North Carolina,,Asheville
195.179.238.121,4,14,emailsfix.com,US,Americas,Northern America,United States of America,North Carolina,,Asheville
193.42.137.222,4,5,encuentra.com,US,Americas,Northern America,United States of America,North Carolina,,Asheville
195.179.238.30,4,4,erahalati.com,US,Americas,Northern America,United States of America,North Carolina,,Asheville
31.170.166.12,4,6,escuelageneralisimo.edu.pe,US,Americas,Northern America,United States of America,North Carolina,,Asheville
67.23.166.136,4,33,essayelites.com,US,Americas,Northern America,United States of America,North Carolina,,Asheville
213.190.7.54,4,7,eugenia.in,US,Americas,Northern America,United States of America,North Carolina,,Asheville
31.170.166.250,4,19,everywomaneverychild.org,US,Americas,Northern America,United States of America,North Carolina,,Asheville
92.249.47.71,4,41,eximbankindia.com,US,Americas,Northern America,United States of America,North Carolina,,Asheville
185.206.162.139,4,4,explorationjunkie.com,US,Americas,Northern America,United States of America,North Carolina,,Asheville
31.170.166.146,4,36,factbites.com,US,Americas,Northern America,United States of America,North Carolina,,Asheville
195.179.238.209,4,9,factschronicle.com,US,Americas,Northern America,United States of America,North Carolina,,Asheville
31.170.167.155,4,26,familytreemakersupport.com,US,Americas,Northern America,United States of America,North Carolina,,Asheville
45.89.204.196,4,4,fastmr.com,US,Americas,Northern America,United States of America,North Carolina,,Asheville
31.170.167.164,4,13,featherandstyledesigns.com,US,Americas,Northern America,United States of America,North Carolina,,Asheville
195.179.238.157,4,3,ferg.org,US,Americas,Northern America,United States of America,North Carolina,,Asheville
145.14.147.64,4,8,fisconetcursos.com.br,US,Americas,Northern America,United States of America,North Carolina,,Asheville
195.179.239.159,4,18,flipelo.com.br,US,Americas,Northern America,United States of America,North Carolina,,Asheville
31.170.167.95,4,5,floraanco.com,US,Americas,Northern America,United States of America,North Carolina,,Asheville
185.206.162.209,4,4,fmales.com,US,Americas,Northern America,United States of America,North Carolina,,Asheville
191.96.144.219,4,5,foodnhealth.org,US,Americas,Northern America,United States of America,North Carolina,,Asheville
151.106.106.103,4,32,forex.zone,US,Americas,Northern America,United States of America,North Carolina,,Asheville
31.170.166.95,4,4,freedomfiles.org,US,Americas,Northern America,United States of America,North Carolina,,Asheville
212.1.211.247,4,40,galaxysoftwareinc.com,US,Americas,Northern America,United States of America,North Carolina,,Asheville
195.179.239.60,4,14,gamercenteronline.net,US,Americas,Northern America,United States of America,North Carolina,,Asheville
185.214.126.226,4,37,globalgurus.org,US,Americas,Northern America,United States of America,North Carolina,,Asheville
195.179.239.187,4,8,globelivemedia.com,US,Americas,Northern America,United States of America,North Carolina,,Asheville
151.106.97.104,4,3,godsmaterial.com,US,Americas,Northern America,United States of America,North Carolina,,Asheville
151.106.97.208,4,6,goldenantler.ca,US,Americas,Northern America,United States of America,North Carolina,,Asheville
191.101.104.235,4,41,goshujin.tk,US,Americas,Northern America,United States of America,North Carolina,,Asheville
195.179.239.138,4,7,grampianowners.com,US,Americas,Northern America,United States of America,North Carolina,,Asheville
212.1.211.230,4,5,grupocomum.org,US,Americas,Northern America,United States of America,North Carolina,,Asheville
45.89.206.7,4,3,gtacustomblinds.com,US,Americas,Northern America,United States of America,North Carolina,,Asheville
31.170.160.118,4,5,gunsforsalesusa.com,US,Americas,Northern America,United States of America,North Carolina,,Asheville
151.106.104.191,4,7,hastencatering.com,US,Americas,Northern America,United States of America,North Carolina,,Asheville
151.106.110.198,4,20,healthcare24hrs.com,US,Americas,Northern America,United States of America,North Carolina,,Asheville
45.93.103.77,4,12,helpinhomework.org,US,Americas,Northern America,United States of America,North Carolina,,Asheville
194.11.215.72,4,10,hinduismtoday.com,US,Americas,Northern America,United States of America,North Carolina,,Asheville
212.107.19.184,4,23,hollywire.com,US,Americas,Northern America,United States of America,North Carolina,,Asheville
212.1.208.158,4,43,homebriefings.com,US,Americas,Northern America,United States of America,North Carolina,,Asheville
45.90.111.152,4,4,hqts.com,US,Americas,Northern America,United States of America,North Carolina,,Asheville
195.35.60.157,4,5,hrtechcube.com,US,Americas,Northern America,United States of America,North Carolina,,Asheville
195.179.239.123,4,6,hunterhunts.com,US,Americas,Northern America,United States of America,North Carolina,,Asheville
195.35.60.125,4,12,iato.in,US,Americas,Northern America,United States of America,North Carolina,,Asheville
31.220.16.120,4,28,imiano.com,US,Americas,Northern America,United States of America,North Carolina,,Asheville
212.1.209.178,4,52,inderculturaputumayo.gov.co,US,Americas,Northern America,United States of America,North Carolina,,Asheville
212.107.18.20,4,4,instamixglobal.com,US,Americas,Northern America,United States of America,North Carolina,,Asheville
31.170.167.16,4,17,interartive.org,US,Americas,Northern America,United States of America,North Carolina,,Asheville
212.1.211.211,4,21,inverstheme.com,US,Americas,Northern America,United States of America,North Carolina,,Asheville
31.170.166.27,4,21,investincryptocoins.com,US,Americas,Northern America,United States of America,North Carolina,,Asheville
185.214.126.60,4,36,itechtalk.com,US,Americas,Northern America,United States of America,North Carolina,,Asheville
213.190.7.76,4,3,itrip.id,US,Americas,Northern America,United States of America,North Carolina,,Asheville
151.106.97.192,4,5,jacketshub.com,US,Americas,Northern America,United States of America,North Carolina,,Asheville
185.201.10.170,4,13,jasandv.com,US,Americas,Northern America,United States of America,North Carolina,,Asheville
195.179.238.20,4,13,javapassion.com,US,Americas,Northern America,United States of America,North Carolina,,Asheville
109.106.251.161,4,12,journalistjunction.com,US,Americas,Northern America,United States of America,North Carolina,,Asheville
45.89.206.200,4,3,justbevictorious.com,US,Americas,Northern America,United States of America,North Carolina,,Asheville
153.92.212.75,4,6,keepthetime.com,US,Americas,Northern America,United States of America,North Carolina,,Asheville
185.28.21.102,4,4,khanika.in,US,Americas,Northern America,United States of America,North Carolina,,Asheville
31.170.167.246,4,6,kitchenultimate.com,US,Americas,Northern America,United States of America,North Carolina,,Asheville
193.160.65.237,4,12,kodeksy-by.com,US,Americas,Northern America,United States of America,North Carolina,,Asheville
31.170.166.137,4,8,lapoderosa.org.ar,US,Americas,Northern America,United States of America,North Carolina,,Asheville
195.179.239.82,4,5,linkandthink.org,US,Americas,Northern America,United States of America,North Carolina,,Asheville
109.106.248.115,4,7,lucesdelsiglo.com,US,Americas,Northern America,United States of America,North Carolina,,Asheville
153.92.212.83,4,43,lukasgastronomiaelazer.com.br,US,Americas,Northern America,United States of America,North Carolina,,Asheville
151.106.107.195,4,6,madhumakshika.com,US,Americas,Northern America,United States of America,North Carolina,,Asheville
212.1.211.184,4,-154,magicworkstation.com,US,Americas,Northern America,United States of America,North Carolina,,Asheville
212.1.208.26,4,43,makeeasylife.com,US,Americas,Northern America,United States of America,North Carolina,,Asheville
31.170.166.154,4,46,masspoetry.org,US,Americas,Northern America,United States of America,North Carolina,,Asheville
31.170.167.2,4,4,mcqmate.com,US,Americas,Northern America,United States of America,North Carolina,,Asheville
193.42.137.208,4,4,menzone.ca,US,Americas,Northern America,United States of America,North Carolina,,Asheville
109.106.251.204,4,3,merkadobee.com,US,Americas,Northern America,United States of America,North Carolina,,Asheville
45.80.154.207,4,3,militaryreporters.org,US,Americas,Northern America,United States of America,North Carolina,,Asheville
185.214.127.81,4,4,minipcr.com,US,Americas,Northern America,United States of America,North Carolina,,Asheville
212.1.209.19,4,33,miprotesisdepierna.mx,US,Americas,Northern America,United States of America,North Carolina,,Asheville
31.220.58.135,4,17,mix.co.id,US,Americas,Northern America,United States of America,North Carolina,,Asheville
212.1.209.146,4,68,musicgallery.org,US,Americas,Northern America,United States of America,North Carolina,,Asheville
45.89.207.201,4,5,mxhqn.com,US,Americas,Northern America,United States of America,North Carolina,,Asheville
31.170.166.36,4,38,mygirlyspace.com,US,Americas,Northern America,United States of America,North Carolina,,Asheville
195.179.239.90,4,17,myshipleydonuts.com,US,Americas,Northern America,United States of America,North Carolina,,Asheville
93.188.160.135,4,77,networkbuildz.com,US,Americas,Northern America,United States of America,North Carolina,,Asheville
212.1.208.118,4,8,nevasoftai.com,US,Americas,Northern America,United States of America,North Carolina,,Asheville
31.170.161.149,4,6,newschronicles24.com,US,Americas,Northern America,United States of America,North Carolina,,Asheville
195.179.238.207,4,34,newsforshopping.com,US,Americas,Northern America,United States of America,North Carolina,,Asheville
195.179.239.111,4,34,newtrend.ae,US,Americas,Northern America,United States of America,North Carolina,,Asheville
195.179.238.212,4,3,nithaskitchen.com,US,Americas,Northern America,United States of America,North Carolina,,Asheville
31.170.166.25,4,23,noblequran.com,US,Americas,Northern America,United States of America,North Carolina,,Asheville
195.179.239.128,4,4,nyxtbig.com,US,Americas,Northern America,United States of America,North Carolina,,Asheville
195.179.239.125,4,33,okebiz.com,US,Americas,Northern America,United States of America,North Carolina,,Asheville
195.179.239.163,4,17,okhatrimaza.net,US,Americas,Northern America,United States of America,North Carolina,,Asheville
212.107.19.29,4,6,onlinenewsbuzz.com,US,Americas,Northern America,United States of America,North Carolina,,Asheville
31.170.166.227,4,3,onlinetechupdates.com,US,Americas,Northern America,United States of America,North Carolina,,Asheville
151.106.97.173,4,5,Ookla Speedtest Server: www.masternetrs.com.br,US,Americas,Northern America,United States of America,North Carolina,,Asheville
2.57.91.113,4,9,oportomesaycocina.com,US,Americas,Northern America,United States of America,North Carolina,,Asheville
195.179.239.38,4,4,oxoads.com,US,Americas,Northern America,United States of America,North Carolina,,Asheville
185.28.21.75,4,4,packersmoverscompany.in,US,Americas,Northern America,United States of America,North Carolina,,Asheville
185.214.127.17,4,0,palmettocarservice.com,US,Americas,Northern America,United States of America,North Carolina,,Asheville
185.28.21.158,4,4,pathgather.com,US,Americas,Northern America,United States of America,North Carolina,,Asheville
212.1.208.214,4,8,paulbowles.org,US,Americas,Northern America,United States of America,North Carolina,,Asheville
193.160.65.145,4,20,pillsforcare.com,US,Americas,Northern America,United States of America,North Carolina,,Asheville
31.170.160.158,4,31,populationu.com,US,Americas,Northern America,United States of America,North Carolina,,Asheville
67.23.166.56,4,57,populiser.com,US,Americas,Northern America,United States of America,North Carolina,,Asheville
93.188.161.226,4,69,progresstalk.com,US,Americas,Northern America,United States of America,North Carolina,,Asheville
151.106.98.21,4,53,projetosintegrados.com.br,US,Americas,Northern America,United States of America,North Carolina,,Asheville
195.179.239.107,4,27,promob.com,US,Americas,Northern America,United States of America,North Carolina,,Asheville
31.220.48.155,4,33,purrfectnpawesome.com,US,Americas,Northern America,United States of America,North Carolina,,Asheville
93.188.160.227,4,4,puzzlegamemaster.com,US,Americas,Northern America,United States of America,North Carolina,,Asheville
185.28.21.156,4,9,pvcbausystem.com,US,Americas,Northern America,United States of America,North Carolina,,Asheville
93.188.161.15,4,33,quokk.au,US,Americas,Northern America,United States of America,North Carolina,,Asheville
212.1.208.129,4,53,reportercapixaba.com.br,US,Americas,Northern America,United States of America,North Carolina,,Asheville
31.170.166.245,4,29,reviewslists.com,US,Americas,Northern America,United States of America,North Carolina,,Asheville
45.89.205.255,4,44,ridetoairport.ca,US,Americas,Northern America,United States of America,North Carolina,,Asheville
31.170.161.126,4,3,rivieranayarit.com,US,Americas,Northern America,United States of America,North Carolina,,Asheville
191.101.104.250,4,57,roulette-roulette.net,US,Americas,Northern America,United States of America,North Carolina,,Asheville
151.106.104.182,4,45,rpgplayground.com,US,Americas,Northern America,United States of America,North Carolina,,Asheville
185.28.21.55,4,25,runnerduck.com,US,Americas,Northern America,United States of America,North Carolina,,Asheville
195.179.239.86,4,10,santiagodiapordia.com.ar,US,Americas,Northern America,United States of America,North Carolina,,Asheville
212.1.208.92,4,9,saranyadental.ca,US,Americas,Northern America,United States of America,North Carolina,,Asheville
212.1.211.113,4,3,sargassummonitoring.com,US,Americas,Northern America,United States of America,North Carolina,,Asheville
195.179.238.35,4,4,sbuaa.org,US,Americas,Northern America,United States of America,North Carolina,,Asheville
45.89.205.189,4,3,scrappleface.com,US,Americas,Northern America,United States of America,North Carolina,,Asheville
31.170.166.220,4,9,seeresponse.com,US,Americas,Northern America,United States of America,North Carolina,,Asheville
195.179.238.245,4,4,seogbtools.com,US,Americas,Northern America,United States of America,North Carolina,,Asheville
191.96.144.240,4,37,seowatchdog.club,US,Americas,Northern America,United States of America,North Carolina,,Asheville
151.106.97.17,4,49,seriouslygolf.com,US,Americas,Northern America,United States of America,North Carolina,,Asheville
45.15.27.9,4,3,shtheme.com,US,Americas,Northern America,United States of America,North Carolina,,Asheville
212.107.19.106,4,36,sigloxxieditores.com.ar,US,Americas,Northern America,United States of America,North Carolina,,Asheville
93.188.164.190,4,-2,signl.online,US,Americas,Northern America,United States of America,North Carolina,,Asheville
195.179.238.201,4,37,simlogy.com,US,Americas,Northern America,United States of America,North Carolina,,Asheville
191.96.144.187,4,5,skelet-info.org,US,Americas,Northern America,United States of America,North Carolina,,Asheville
31.170.166.108,4,66,solutionsuggest.com,US,Americas,Northern America,United States of America,North Carolina,,Asheville
151.106.104.246,4,36,sonomafilmfest.org,US,Americas,Northern America,United States of America,North Carolina,,Asheville
31.170.166.79,4,12,srldrugs.com,US,Americas,Northern America,United States of America,North Carolina,,Asheville
195.179.239.46,4,13,ssbguru.com,US,Americas,Northern America,United States of America,North Carolina,,Asheville
31.170.160.109,4,11,startentrepreneureonline.com,US,Americas,Northern America,United States of America,North Carolina,,Asheville
31.170.160.161,4,6,stophavingaboringlife.com,US,Americas,Northern America,United States of America,North Carolina,,Asheville
212.1.211.183,4,-121,straitjackets.com,US,Americas,Northern America,United States of America,North Carolina,,Asheville
31.170.167.173,4,17,supremesearch.net,US,Americas,Northern America,United States of America,North Carolina,,Asheville
109.106.251.170,4,2,tananet.net,US,Americas,Northern America,United States of America,North Carolina,,Asheville
31.170.167.107,4,5,tangyauhoong.com,US,Americas,Northern America,United States of America,North Carolina,,Asheville
151.106.105.89,4,5,taruhangoal.com,US,Americas,Northern America,United States of America,North Carolina,,Asheville
195.179.238.197,4,48,techktimes.com,US,Americas,Northern America,United States of America,North Carolina,,Asheville
31.170.166.115,4,89,technoohub.com,US,Americas,Northern America,United States of America,North Carolina,,Asheville
193.42.137.246,4,3,tgrmcc.com,US,Americas,Northern America,United States of America,North Carolina,,Asheville
195.179.239.200,4,16,thefearofflying.com,US,Americas,Northern America,United States of America,North Carolina,,Asheville
45.89.204.137,4,2,theintelhub.com,US,Americas,Northern America,United States of America,North Carolina,,Asheville
45.82.74.230,4,5,themarkethink.com,US,Americas,Northern America,United States of America,North Carolina,,Asheville
216.59.0.190,4,5,themasterfilm.com,US,Americas,Northern America,United States of America,North Carolina,,Asheville
31.170.167.89,4,69,theodysseynews.com,US,Americas,Northern America,United States of America,North Carolina,,Asheville
92.249.47.61,4,4,theparentscircle.com,US,Americas,Northern America,United States of America,North Carolina,,Asheville
195.179.239.203,4,9,therecenttimes.com,US,Americas,Northern America,United States of America,North Carolina,,Asheville
212.1.212.12,4,5,thesiswritinghelp.com.pk,US,Americas,Northern America,United States of America,North Carolina,,Asheville
212.107.18.195,4,3,thriveflower.com,US,Americas,Northern America,United States of America,North Carolina,,Asheville
151.106.97.250,4,5,tizenhelp.com,US,Americas,Northern America,United States of America,North Carolina,,Asheville
31.220.54.76,4,20,totalsecureng.com,US,Americas,Northern America,United States of America,North Carolina,,Asheville
193.160.65.50,4,41,travelraval.com,US,Americas,Northern America,United States of America,North Carolina,,Asheville
45.80.155.174,4,12,tricitypropertysearches.com,US,Americas,Northern America,United States of America,North Carolina,,Asheville
195.179.239.106,4,77,tripolipost.com,US,Americas,Northern America,United States of America,North Carolina,,Asheville
31.220.61.228,4,4,try.monster,US,Americas,Northern America,United States of America,North Carolina,,Asheville
212.1.209.194,4,6,tutorchamps.com,US,Americas,Northern America,United States of America,North Carolina,,Asheville
195.179.239.199,4,29,uktimenews.com,US,Americas,Northern America,United States of America,North Carolina,,Asheville
31.170.161.110,4,9,upstemacademy.com,US,Americas,Northern America,United States of America,North Carolina,,Asheville
195.179.239.143,4,12,vdiscoverconsultancy.com,US,Americas,Northern America,United States of America,North Carolina,,Asheville
31.170.167.10,4,11,venetispizza.com,US,Americas,Northern America,United States of America,North Carolina,,Asheville
93.188.167.10,4,14,vetopharm-dz.com,US,Americas,Northern America,United States of America,North Carolina,,Asheville
185.206.162.98,4,3,viraltrench.com,US,Americas,Northern America,United States of America,North Carolina,,Asheville
31.170.166.248,4,3,visitmichoacan.com.mx,US,Americas,Northern America,United States of America,North Carolina,,Asheville
151.106.97.129,4,7,w3diary.com,US,Americas,Northern America,United States of America,North Carolina,,Asheville
195.179.238.4,4,26,web-strategist.com,US,Americas,Northern America,United States of America,North Carolina,,Asheville
195.179.238.184,4,5,wecareyou.uk,US,Americas,Northern America,United States of America,North Carolina,,Asheville
151.106.98.35,4,22,wesclark.com,US,Americas,Northern America,United States of America,North Carolina,,Asheville
151.106.110.97,4,3,whisklaundry.com,US,Americas,Northern America,United States of America,North Carolina,,Asheville
109.106.251.239,4,19,worldnewsfox.com,US,Americas,Northern America,United States of America,North Carolina,,Asheville
151.106.97.87,4,13,worldpeaceyogaschool.com,US,Americas,Northern America,United States of America,North Carolina,,Asheville
109.106.251.189,4,8,xosq.shop,US,Americas,Northern America,United States of America,North Carolina,,Asheville
31.170.160.24,4,17,youthmotivator4life.com,US,Americas,Northern America,United States of America,North Carolina,,Asheville
31.170.167.114,4,8,yuristjournal.uz,US,Americas,Northern America,United States of America,North Carolina,,Asheville
212.1.208.7,4,0,zeeracusine.com,US,Americas,Northern America,United States of America,North Carolina,,Asheville
31.170.166.139,4,2,zz.vc,US,Americas,Northern America,United States of America,North Carolina,,Asheville
