reflector_ip,ip_version,offset,description,country_code,region,sub_region,country_name,sub_division_1,sub_division_2,city
46.105.120.132,4,5,acteurspublics.fr,GB,Europe,Northern Europe,United Kingdom,England,Waltham Forest,Waltham Forest
46.105.102.174,4,19,addic7ed.com,GB,Europe,Northern Europe,United Kingdom,England,Waltham Forest,Waltham Forest
46.105.75.253,4,4,akammak.com,GB,Europe,Northern Europe,United Kingdom,England,Waltham Forest,Waltham Forest
46.105.72.39,4,60,alliance-habitat.com,GB,Europe,Northern Europe,United Kingdom,England,Waltham Forest,Waltham Forest
46.105.120.77,4,3,annexx.com,GB,Europe,Northern Europe,United Kingdom,England,Waltham Forest,Waltham Forest
46.105.72.78,4,28,apiculture.net,GB,Europe,Northern Europe,United Kingdom,England,Waltham Forest,Waltham Forest
46.105.102.78,4,-808899,cacaoweb.org,GB,Europe,Northern Europe,United Kingdom,England,Waltham Forest,Waltham Forest
46.105.102.16,4,-136,campingo.com,GB,Europe,Northern Europe,United Kingdom,England,Waltham Forest,Waltham Forest
46.105.72.229,4,223779,cartonmarket.fr,GB,Europe,Northern Europe,United Kingdom,England,Waltham Forest,Waltham Forest
46.105.114.219,4,29,cenon.fr,GB,Europe,Northern Europe,United Kingdom,England,Waltham Forest,Waltham Forest
46.105.75.14,4,5,cfpsecurite.com,GB,Europe,Northern Europe,United Kingdom,England,Waltham Forest,Waltham Forest
46.105.85.71,4,3,cink.es,GB,Europe,Northern Europe,United Kingdom,England,Waltham Forest,Waltham Forest
46.105.101.70,4,8,clickintext.net,GB,Europe,Northern Europe,United Kingdom,England,Waltham Forest,Waltham Forest
46.105.97.105,4,819197,closeriedeslilas.fr,GB,Europe,Northern Europe,United Kingdom,England,Waltham Forest,Waltham Forest
46.105.72.151,4,9,cloture-discount.fr,GB,Europe,Northern Europe,United Kingdom,England,Waltham Forest,Waltham Forest
46.105.114.92,4,44,coucoucircus.org,GB,Europe,Northern Europe,United Kingdom,England,Waltham Forest,Waltham Forest
46.105.111.223,4,5,digitrade.pro,GB,Europe,Northern Europe,United Kingdom,England,Waltham Forest,Waltham Forest
80.194.118.138,4,20,DNS Server: host-80-194-118-138.static.cable.virginmedia.com,GB,Europe,Northern Europe,United Kingdom,England,Waltham Forest,Waltham Forest
46.105.101.212,4,5,dreambeach.es,GB,Europe,Northern Europe,United Kingdom,England,Waltham Forest,Waltham Forest
46.105.120.31,4,3,dusportif.fr,GB,Europe,Northern Europe,United Kingdom,England,Waltham Forest,Waltham Forest
46.105.104.203,4,96,editeurjavascript.com,GB,Europe,Northern Europe,United Kingdom,England,Waltham Forest,Waltham Forest
46.105.111.121,4,6,email-validator.net,GB,Europe,Northern Europe,United Kingdom,England,Waltham Forest,Waltham Forest
46.105.107.126,4,139,esc-clermont.fr,GB,Europe,Northern Europe,United Kingdom,England,Waltham Forest,Waltham Forest
46.105.85.151,4,72,esc-larochelle.fr,GB,Europe,Northern Europe,United Kingdom,England,Waltham Forest,Waltham Forest
46.105.117.67,4,43,etablissements-laroche.fr,GB,Europe,Northern Europe,United Kingdom,England,Waltham Forest,Waltham Forest
46.105.121.141,4,3,eumed.net,GB,Europe,Northern Europe,United Kingdom,England,Waltham Forest,Waltham Forest
46.105.117.179,4,-6542978,fishingcactus.com,GB,Europe,Northern Europe,United Kingdom,England,Waltham Forest,Waltham Forest
46.105.124.43,4,29,heroesfan.cz,GB,Europe,Northern Europe,United Kingdom,England,Waltham Forest,Waltham Forest
46.105.101.77,4,32,iellogames.com,GB,Europe,Northern Europe,United Kingdom,England,Waltham Forest,Waltham Forest
46.105.100.158,4,65,insep.fr,GB,Europe,Northern Europe,United Kingdom,England,Waltham Forest,Waltham Forest
46.105.75.39,4,62,iphoneaddict.fr,GB,Europe,Northern Europe,United Kingdom,England,Waltham Forest,Waltham Forest
46.105.110.179,4,5,jobviewtrack.com,GB,Europe,Northern Europe,United Kingdom,England,Waltham Forest,Waltham Forest
46.105.99.203,4,7,journalduhacker.net,GB,Europe,Northern Europe,United Kingdom,England,Waltham Forest,Waltham Forest
46.105.107.22,4,3,kidsvacances.fr,GB,Europe,Northern Europe,United Kingdom,England,Waltham Forest,Waltham Forest
46.105.114.154,4,2,kla.tv,GB,Europe,Northern Europe,United Kingdom,England,Waltham Forest,Waltham Forest
46.105.78.23,4,146,kopeksatis.com,GB,Europe,Northern Europe,United Kingdom,England,Waltham Forest,Waltham Forest
46.105.82.13,4,-2252608,krn.pl,GB,Europe,Northern Europe,United Kingdom,England,Waltham Forest,Waltham Forest
217.146.104.147,4,5,lastminutemusicians.com,GB,Europe,Northern Europe,United Kingdom,England,Waltham Forest,Waltham Forest
213.1.214.233,4,5186,maldonsalt.co.uk,GB,Europe,Northern Europe,United Kingdom,England,Waltham Forest,Waltham Forest
46.105.110.110,4,28,manteslajolie.fr,GB,Europe,Northern Europe,United Kingdom,England,Waltham Forest,Waltham Forest
46.105.77.243,4,2,mitls.org,GB,Europe,Northern Europe,United Kingdom,England,Waltham Forest,Waltham Forest
46.105.127.143,4,1,mpegtv.com,GB,Europe,Northern Europe,United Kingdom,England,Waltham Forest,Waltham Forest
46.105.100.220,4,7,niviuk.com,GB,Europe,Northern Europe,United Kingdom,England,Waltham Forest,Waltham Forest
185.252.80.233,4,460,Ookla Speedtest Server 31953: sp1.mtechsystems.co.uk,GB,Europe,Northern Europe,United Kingdom,England,Waltham Forest,Waltham Forest
80.79.131.10,4,764,pensionsage.com,GB,Europe,Northern Europe,United Kingdom,England,Waltham Forest,Waltham Forest
46.105.127.31,4,48,phytoma.com,GB,Europe,Northern Europe,United Kingdom,England,Waltham Forest,Waltham Forest
46.105.127.186,4,39,popiszmy.pl,GB,Europe,Northern Europe,United Kingdom,England,Waltham Forest,Waltham Forest
46.105.89.122,4,116626,quickanded.com,GB,Europe,Northern Europe,United Kingdom,England,Waltham Forest,Waltham Forest
46.105.76.54,4,58,radio-vatikana-esperanto.org,GB,Europe,Northern Europe,United Kingdom,England,Waltham Forest,Waltham Forest
46.105.97.116,4,-71205,regionguadeloupe.fr,GB,Europe,Northern Europe,United Kingdom,England,Waltham Forest,Waltham Forest
46.105.78.101,4,41,reseau-e2c.fr,GB,Europe,Northern Europe,United Kingdom,England,Waltham Forest,Waltham Forest
80.79.131.11,4,761,retail-systems.com,GB,Europe,Northern Europe,United Kingdom,England,Waltham Forest,Waltham Forest
46.105.113.21,4,2,santiagoturismo.com,GB,Europe,Northern Europe,United Kingdom,England,Waltham Forest,Waltham Forest
46.105.123.109,4,6,saynoto0870.com,GB,Europe,Northern Europe,United Kingdom,England,Waltham Forest,Waltham Forest
217.146.104.150,4,46,scoreexchange.com,GB,Europe,Northern Europe,United Kingdom,England,Waltham Forest,Waltham Forest
46.105.77.250,4,38,startpallet.nl,GB,Europe,Northern Europe,United Kingdom,England,Waltham Forest,Waltham Forest
46.105.115.39,4,80,stellar-impact.com,GB,Europe,Northern Europe,United Kingdom,England,Waltham Forest,Waltham Forest
46.105.85.67,4,58,stylelovely.com,GB,Europe,Northern Europe,United Kingdom,England,Waltham Forest,Waltham Forest
46.105.104.51,4,3,sylhetboard.gov.bd,GB,Europe,Northern Europe,United Kingdom,England,Waltham Forest,Waltham Forest
46.105.70.165,4,27,tecnoandroid.it,GB,Europe,Northern Europe,United Kingdom,England,Waltham Forest,Waltham Forest
46.105.99.23,4,38,tinycp.com,GB,Europe,Northern Europe,United Kingdom,England,Waltham Forest,Waltham Forest
46.105.97.89,4,5,tolkiendil.com,GB,Europe,Northern Europe,United Kingdom,England,Waltham Forest,Waltham Forest
213.1.214.237,4,11037,trixiemattel.com,GB,Europe,Northern Europe,United Kingdom,England,Waltham Forest,Waltham Forest
46.105.109.104,4,1,unmondevegan.com,GB,Europe,Northern Europe,United Kingdom,England,Waltham Forest,Waltham Forest
46.105.123.202,4,-79217,wkraj.pl,GB,Europe,Northern Europe,United Kingdom,England,Waltham Forest,Waltham Forest
46.105.85.25,4,1253,xow.me,GB,Europe,Northern Europe,United Kingdom,England,Waltham Forest,Waltham Forest
