reflector_ip,ip_version,offset,description,country_code,region,sub_region,country_name,sub_division_1,sub_division_2,city
181.49.136.162,4,-20,barranquilla.gov.co,CO,Americas,Latin America and the Caribbean,Colombia,Bogota D.C.,,Bogotá
190.248.57.62,4,3,barranquilla.gov.co,CO,Americas,Latin America and the Caribbean,Colombia,Bogota D.C.,,Bogotá
190.60.110.144,4,19957,cerlalc.org,CO,Americas,Latin America and the Caribbean,Colombia,Bogota D.C.,,Bogotá
186.30.115.137,4,-47179,cinematecadebogota.gov.co,CO,Americas,Latin America and the Caribbean,Colombia,Bogota D.C.,,Bogotá
186.28.238.155,4,3,desarrolloeconomico.gov.co,CO,Americas,Latin America and the Caribbean,Colombia,Bogota D.C.,,Bogotá
190.60.103.101,4,55,DNS Server: 101.103.60.190.static.host.ifxnetworks.com,CO,Americas,Latin America and the Caribbean,Colombia,Bogota D.C.,,Bogotá
186.194.160.118,4,-12017,DNS Server: 118-160-194-186.static-col.telenetdigital.net.co,CO,Americas,Latin America and the Caribbean,Colombia,Bogota D.C.,,Bogotá
45.162.84.162,4,15656491,DNS Server: 162-84-162-45.static-col.wifaocolombia.com,CO,Americas,Latin America and the Caribbean,Colombia,Bogota D.C.,,Bogotá
190.217.28.197,4,76,DNS Server: 190-217-28-197.centurylink.com.co,CO,Americas,Latin America and the Caribbean,Colombia,Bogota D.C.,,Bogotá
190.217.28.198,4,90,DNS Server: 190-217-28-198.centurylink.com.co,CO,Americas,Latin America and the Caribbean,Colombia,Bogota D.C.,,Bogotá
190.217.28.200,4,-2172,DNS Server: 190-217-28-200.centurylink.com.co,CO,Americas,Latin America and the Caribbean,Colombia,Bogota D.C.,,Bogotá
190.217.28.204,4,251,DNS Server: 190-217-28-204.centurylink.com.co,CO,Americas,Latin America and the Caribbean,Colombia,Bogota D.C.,,Bogotá
190.217.29.177,4,46,DNS Server: 190-217-29-177.centurylink.com.co,CO,Americas,Latin America and the Caribbean,Colombia,Bogota D.C.,,Bogotá
190.217.31.74,4,2130,DNS Server: 190-217-31-74.centurylink.com.co,CO,Americas,Latin America and the Caribbean,Colombia,Bogota D.C.,,Bogotá
200.31.19.203,4,32,DNS Server: 200.31.19-203.static.impsat.com.co,CO,Americas,Latin America and the Caribbean,Colombia,Bogota D.C.,,Bogotá
200.31.19.204,4,37,DNS Server: 200.31.19-204.static.impsat.com.co,CO,Americas,Latin America and the Caribbean,Colombia,Bogota D.C.,,Bogotá
200.41.77.85,4,19174548,DNS Server: 200.41.77-85.static.impsat.com.co,CO,Americas,Latin America and the Caribbean,Colombia,Bogota D.C.,,Bogotá
201.234.67.138,4,123,DNS Server: 201.234.67-138.static.impsat.com.co,CO,Americas,Latin America and the Caribbean,Colombia,Bogota D.C.,,Bogotá
204.199.122.250,4,-6679,DNS Server: 204-199-122-250.dia.static.centurylink.com.co,CO,Americas,Latin America and the Caribbean,Colombia,Bogota D.C.,,Bogotá
204.199.98.107,4,-2090,DNS Server: 204-199-98-107.dia.static.centurylink.com.co,CO,Americas,Latin America and the Caribbean,Colombia,Bogota D.C.,,Bogotá
190.60.36.220,4,5457,DNS Server: 220-36-60-190.ufinet.com.co,CO,Americas,Latin America and the Caribbean,Colombia,Bogota D.C.,,Bogotá
181.78.24.228,4,-110854,DNS Server: 228.24.78.181.ufinet.com.co,CO,Americas,Latin America and the Caribbean,Colombia,Bogota D.C.,,Bogotá
190.60.84.243,4,111,DNS Server: 243.84.60.190.static.host.ifxnetworks.com,CO,Americas,Latin America and the Caribbean,Colombia,Bogota D.C.,,Bogotá
198.49.129.61,4,64,DNS Server: 61-129-49-198.static-col.kuatro.net.co,CO,Americas,Latin America and the Caribbean,Colombia,Bogota D.C.,,Bogotá
8.242.215.91,4,1253,DNS Server: 8-242-215-91.dia.static.level3.net,CO,Americas,Latin America and the Caribbean,Colombia,Bogota D.C.,,Bogotá
8.242.215.93,4,9649,DNS Server: 8-242-215-93.dia.static.level3.net,CO,Americas,Latin America and the Caribbean,Colombia,Bogota D.C.,,Bogotá
177.93.44.64,4,130786,DNS Server: azteca-comunicaciones.com,CO,Americas,Latin America and the Caribbean,Colombia,Bogota D.C.,,Bogotá
200.93.166.136,4,593,DNS Server: clientes_corpor_datamundo93166-136.etb.net.co,CO,Americas,Latin America and the Caribbean,Colombia,Bogota D.C.,,Bogotá
190.144.36.118,4,29,DNS Server: correo.alphaseguridad.com.co,CO,Americas,Latin America and the Caribbean,Colombia,Bogota D.C.,,Bogotá
186.29.173.186,4,490,DNS Server: dynamic-186-29-173-186.dynamic.etb.net.co,CO,Americas,Latin America and the Caribbean,Colombia,Bogota D.C.,,Bogotá
186.86.209.55,4,18000222,DNS Server: dynamic-ip-1868620955.cable.net.co,CO,Americas,Latin America and the Caribbean,Colombia,Bogota D.C.,,Bogotá
186.155.196.56,4,914,DNS Server: static-186-155-196-56.static.etb.net.co,CO,Americas,Latin America and the Caribbean,Colombia,Bogota D.C.,,Bogotá
190.25.241.210,4,397,DNS Server: static-190-25-241-210.static.etb.net.co,CO,Americas,Latin America and the Caribbean,Colombia,Bogota D.C.,,Bogotá
181.204.147.243,4,128017,DNS Server: Static-BA-181-204-147-243.tigoune.com.co,CO,Americas,Latin America and the Caribbean,Colombia,Bogota D.C.,,Bogotá
181.204.229.114,4,2842,DNS Server: Static-BA-181-204-229-114.tigoune.com.co,CO,Americas,Latin America and the Caribbean,Colombia,Bogota D.C.,,Bogotá
181.204.232.2,4,19213,DNS Server: Static-BA-181-204-232-2.tigoune.com.co,CO,Americas,Latin America and the Caribbean,Colombia,Bogota D.C.,,Bogotá
45.239.88.68,4,1,escuelaing.edu.co,CO,Americas,Latin America and the Caribbean,Colombia,Bogota D.C.,,Bogotá
186.31.70.38,4,-3,fesfa.co,CO,Americas,Latin America and the Caribbean,Colombia,Bogota D.C.,,Bogotá
190.85.135.226,4,-337917,galotrans.com,CO,Americas,Latin America and the Caribbean,Colombia,Bogota D.C.,,Bogotá
45.173.7.100,4,-2,i3campus.co,CO,Americas,Latin America and the Caribbean,Colombia,Bogota D.C.,,Bogotá
191.102.232.99,4,317,Ookla Speedtest Server 14393: speedtest.directv.com.co,CO,Americas,Latin America and the Caribbean,Colombia,Bogota D.C.,,Bogotá
201.217.220.34,4,121,Ookla Speedtest Server 19537: speedtest-ifx-co.ifxcorp.com,CO,Americas,Latin America and the Caribbean,Colombia,Bogota D.C.,,Bogotá
181.48.254.78,4,380,Ookla Speedtest Server 44095: speedtestbog01.claro.net.co,CO,Americas,Latin America and the Caribbean,Colombia,Bogota D.C.,,Bogotá
201.234.78.114,4,-1648091,Ookla Speedtest Server 55026: bogota.speedtest.ciriontechnologies.com,CO,Americas,Latin America and the Caribbean,Colombia,Bogota D.C.,,Bogotá
200.41.79.225,4,256,Ookla Speedtest Server 62075: speedtest.technetsas.com,CO,Americas,Latin America and the Caribbean,Colombia,Bogota D.C.,,Bogotá
204.199.120.28,4,173963,Ookla Speedtest Server: test.stbdecolombia.com,CO,Americas,Latin America and the Caribbean,Colombia,Bogota D.C.,,Bogotá
200.91.233.66,4,-637,unicolmayor.edu.co,CO,Americas,Latin America and the Caribbean,Colombia,Bogota D.C.,,Bogotá
