reflector_ip,ip_version,offset,description,country_code,region,sub_region,country_name,sub_division_1,sub_division_2,city
49.0.1.58,4,6,aka.ac.id,ID,Asia,South-eastern Asia,Indonesia,West Java,,Bogor
111.223.252.151,4,-3,boozet.org,ID,Asia,South-eastern Asia,Indonesia,West Java,,Bandung
36.67.73.9,4,10,bunghatta.ac.id,ID,Asia,South-eastern Asia,Indonesia,West Java,,Bekasi
202.146.241.33,4,1,centrin.net.id,ID,Asia,South-eastern Asia,Indonesia,West Java,,Bandung
114.5.199.219,4,-29464,DNS Server: 114-5-199-219.resources.indosat.com,ID,Asia,South-eastern Asia,Indonesia,West Java,,West Java
182.16.171.164,4,5981,DNS Server: 164.171.16.182.in-addr.arpa,ID,Asia,South-eastern Asia,Indonesia,West Java,,Depok
119.252.160.210,4,25,DNS Server: 210.160.iconpln.net.id,ID,Asia,South-eastern Asia,Indonesia,West Java,,Bekasi
103.164.104.221,4,919,DNS Server: 221.104.164.103.net.iforte.net.id,ID,Asia,South-eastern Asia,Indonesia,West Java,,Bekasi
103.164.105.37,4,645,DNS Server: 37.105.164.103.net.iforte.net.id,ID,Asia,South-eastern Asia,Indonesia,West Java,,Bekasi
202.150.152.108,4,79062,DNS Server: host108.subnet152.comnet.net.id,ID,Asia,South-eastern Asia,Indonesia,West Java,,Bandung
202.150.146.130,4,152,DNS Server: host130.subnet146.comnet.net.id,ID,Asia,South-eastern Asia,Indonesia,West Java,,Bandung
202.150.146.133,4,-25199101,DNS Server: host133.subnet146.comnet.net.id,ID,Asia,South-eastern Asia,Indonesia,West Java,,Bandung
202.150.153.186,4,102629,DNS Server: host186.subnet153.comnet.net.id,ID,Asia,South-eastern Asia,Indonesia,West Java,,Bandung
202.150.155.214,4,10,DNS Server: host214.subnet155.comnet.net.id,ID,Asia,South-eastern Asia,Indonesia,West Java,,Bandung
114.141.49.51,4,-63713,DNS Server: host49-51.cyberplus.net.id,ID,Asia,South-eastern Asia,Indonesia,West Java,,Bekasi
103.247.22.120,4,50,DNS Server: ip-sub-22-120.wifian.id,ID,Asia,South-eastern Asia,Indonesia,West Java,,Bekasi
27.123.0.114,4,4262,DNS Server: mail.excellent.co.id,ID,Asia,South-eastern Asia,Indonesia,West Java,,Bekasi
103.171.182.205,4,209,DNS Server: resolver-2.hayat.net.id,ID,Asia,South-eastern Asia,Indonesia,West Java,,Bogor
103.151.226.42,4,83,DNS Server: s226-42.urbanaccess.net,ID,Asia,South-eastern Asia,Indonesia,West Java,,Bandung
103.10.171.230,4,27335,DNS Server: vmw230.transtech.co.id,ID,Asia,South-eastern Asia,Indonesia,West Java,,Bandung
182.16.179.20,4,2345,DNS Server: webserver.bdksurabaya-kemenag.id,ID,Asia,South-eastern Asia,Indonesia,West Java,,Depok
103.80.238.132,4,12,gunadarma.ac.id,ID,Asia,South-eastern Asia,Indonesia,West Java,,Bogor
119.235.250.57,4,4,lion-industrial-park.com,ID,Asia,South-eastern Asia,Indonesia,West Java,,Depok
103.162.36.14,4,62,onsa-sipilunwim.ac.id,ID,Asia,South-eastern Asia,Indonesia,West Java,,Bandung
103.162.63.63,4,-18314,Ookla Speedtest Server 15189: wonogiri.suryagirimedia.my.id,ID,Asia,South-eastern Asia,Indonesia,West Java,,Tasikmalaya
103.214.187.17,4,271,Ookla Speedtest Server 16267: speedtest.theconnect.net.id,ID,Asia,South-eastern Asia,Indonesia,West Java,,Depok
103.11.97.134,4,190,Ookla Speedtest Server 20264: speedtest-jkt1.skyline.net.id,ID,Asia,South-eastern Asia,Indonesia,West Java,,Arjuna
103.242.104.93,4,114408,Ookla Speedtest Server 31925: speedtest1.lintas.net.id,ID,Asia,South-eastern Asia,Indonesia,West Java,,Sukabumi
103.161.164.162,4,-25513,Ookla Speedtest Server 43664: speedtest.gms.net.id,ID,Asia,South-eastern Asia,Indonesia,West Java,,Panumbangan
103.148.113.13,4,309,Ookla Speedtest Server 43885: speedtest.sid.net.id,ID,Asia,South-eastern Asia,Indonesia,West Java,,Babakangarut
103.155.169.45,4,-24751877,Ookla Speedtest Server 44790: speedtest.abys.net.id,ID,Asia,South-eastern Asia,Indonesia,West Java,,Karawang
103.162.62.202,4,223,Ookla Speedtest Server 56425: jogja.speedtest.ring.net.id,ID,Asia,South-eastern Asia,Indonesia,West Java,,Tasikmalaya
103.115.20.3,4,184,Ookla Speedtest Server 56845: djb.swnetwork.id,ID,Asia,South-eastern Asia,Indonesia,West Java,,Subang
103.189.110.22,4,2072,Ookla Speedtest Server 58480: ookla.morizt.id,ID,Asia,South-eastern Asia,Indonesia,West Java,,Bandung
202.138.224.16,4,6736,Ookla Speedtest Server 58481: speedtest-bdg.melsa.net.id,ID,Asia,South-eastern Asia,Indonesia,West Java,,Bandung
120.89.91.22,4,245,Ookla Speedtest Server 59489: testspeed.gigainternet.my.id,ID,Asia,South-eastern Asia,Indonesia,West Java,,Cianjur
103.165.157.185,4,308,Ookla Speedtest Server 61325: speedtest.bks.megadata.net.id,ID,Asia,South-eastern Asia,Indonesia,West Java,,Bekasi
103.152.232.11,4,241,Ookla Speedtest Server 62258: speedtest.kingpolah.net,ID,Asia,South-eastern Asia,Indonesia,West Java,,Subang
103.166.158.60,4,295,Ookla Speedtest Server 62340: speedtest.timorlintas.net.id,ID,Asia,South-eastern Asia,Indonesia,West Java,,Bekasi
103.248.9.7,4,327,Ookla Speedtest Server 62439: speedtest.flashnetid.com,ID,Asia,South-eastern Asia,Indonesia,West Java,,Babakangarut
103.164.235.250,4,230,Ookla Speedtest Server 63662: tesinternet.bantani.net.id,ID,Asia,South-eastern Asia,Indonesia,West Java,,Bandung
103.242.106.113,4,255,Ookla Speedtest Server 63945: manyar.lintasnet.my.id,ID,Asia,South-eastern Asia,Indonesia,West Java,,Sukabumi
103.180.198.248,4,279,Ookla Speedtest Server 64111: speedtest.sawarga.net,ID,Asia,South-eastern Asia,Indonesia,West Java,,Sukabumi
160.19.146.38,4,293,Ookla Speedtest Server 64571: speedtest1.taskasarananusantara.net,ID,Asia,South-eastern Asia,Indonesia,West Java,,Tasikmalaya
103.39.51.10,4,328,Ookla Speedtest Server: kuningan.megahub.id,ID,Asia,South-eastern Asia,Indonesia,West Java,,Kuningan
103.191.197.6,4,277,Ookla Speedtest Server: ookla-imy.palindo.id,ID,Asia,South-eastern Asia,Indonesia,West Java,,Indramayu
103.163.111.34,4,315,Ookla Speedtest Server: speedtest.gas.net.id,ID,Asia,South-eastern Asia,Indonesia,West Java,,Tasikmalaya
160.19.146.65,4,185,Ookla Speedtest Server: speedtest2.taskasarananusantara.net,ID,Asia,South-eastern Asia,Indonesia,West Java,,Tasikmalaya
103.242.104.86,4,113555,Ookla Speedtest Server: speedtest5.lintas.net.id,ID,Asia,South-eastern Asia,Indonesia,West Java,,Sukabumi
103.75.101.58,4,15317,stikesmitrakeluarga.ac.id,ID,Asia,South-eastern Asia,Indonesia,West Java,,Bandung
36.91.69.171,4,-11,uinfasbengkulu.ac.id,ID,Asia,South-eastern Asia,Indonesia,West Java,,Depok
36.91.91.194,4,10190,umb.ac.id,ID,Asia,South-eastern Asia,Indonesia,West Java,,Depok
36.88.21.22,4,1,umsu.ac.id,ID,Asia,South-eastern Asia,Indonesia,West Java,,Purwakarta
103.184.53.210,4,1567,unla.ac.id,ID,Asia,South-eastern Asia,Indonesia,West Java,,Bekasi
119.235.251.146,4,26,unmuha.ac.id,ID,Asia,South-eastern Asia,Indonesia,West Java,,Depok
111.223.252.99,4,7,unpad.ac.id,ID,Asia,South-eastern Asia,Indonesia,West Java,,Bandung
103.169.193.80,4,22,unpak.ac.id,ID,Asia,South-eastern Asia,Indonesia,West Java,,Bogor
103.35.152.149,4,24,unuja.ac.id,ID,Asia,South-eastern Asia,Indonesia,West Java,,Depok
103.23.244.116,4,4,upi.edu,ID,Asia,South-eastern Asia,Indonesia,West Java,,Bandung
