reflector_ip,ip_version,offset,description,country_code,region,sub_region,country_name,sub_division_1,sub_division_2,city
34.125.101.239,4,13,aerobasegroup.com,US,Americas,Northern America,United States of America,Nevada,,Las Vegas
205.185.124.167,4,51,allcasino.org,US,Americas,Northern America,United States of America,Nevada,,Las Vegas
209.170.211.179,4,44378,apexawards.com,US,Americas,Northern America,United States of America,Nevada,,Las Vegas
198.102.63.4,4,26,arcgis.app,US,Americas,Northern America,United States of America,Nevada,,Las Vegas
45.42.212.90,4,52,avahost.net,US,Americas,Northern America,United States of America,Nevada,,Las Vegas
45.42.212.207,4,4,b-westerns.com,US,Americas,Northern America,United States of America,Nevada,,Las Vegas
45.42.212.219,4,105,biotopics.co.uk,US,Americas,Northern America,United States of America,Nevada,,Las Vegas
72.46.128.21,4,1234,burathanews.com,US,Americas,Northern America,United States of America,Nevada,,Las Vegas
209.141.51.160,4,2,cawfee.club,US,Americas,Northern America,United States of America,Nevada,,Las Vegas
45.42.212.155,4,2,caymannewsservice.com,US,Americas,Northern America,United States of America,Nevada,,Las Vegas
72.46.128.38,4,25,chevytalk.org,US,Americas,Northern America,United States of America,Nevada,,Las Vegas
34.125.241.83,4,5,clean-group.com.au,US,Americas,Northern America,United States of America,Nevada,,Las Vegas
45.42.212.203,4,34,countdowntopregnancy.com,US,Americas,Northern America,United States of America,Nevada,,Las Vegas
209.141.55.231,4,3,dairiki.org,US,Americas,Northern America,United States of America,Nevada,,Las Vegas
72.46.129.210,4,105,datacenterpost.com,US,Americas,Northern America,United States of America,Nevada,,Las Vegas
198.102.28.187,4,6,digitaltransactions.net,US,Americas,Northern America,United States of America,Nevada,,Las Vegas
71.222.15.59,4,7,DNS Server: 71-222-15-59.lsv2.qwest.net,US,Americas,Northern America,United States of America,Nevada,,Las Vegas
205.185.127.3,4,245106,DNS Server: ajsdklja.asdsajk.com,US,Americas,Northern America,United States of America,Nevada,,Las Vegas
148.170.65.125,4,52,DNS Server: ip-148-170-65-125.lv.net,US,Americas,Northern America,United States of America,Nevada,,Las Vegas
199.248.62.97,4,6,docsports.com,US,Americas,Northern America,United States of America,Nevada,,Las Vegas
45.42.212.111,4,20083460,donkeymails.com,US,Americas,Northern America,United States of America,Nevada,,Las Vegas
76.164.194.178,4,9,draglist.com,US,Americas,Northern America,United States of America,Nevada,,Las Vegas
45.42.212.147,4,2,easyarea.com,US,Americas,Northern America,United States of America,Nevada,,Las Vegas
34.125.71.178,4,51,eitanbernath.com,US,Americas,Northern America,United States of America,Nevada,,Las Vegas
209.141.38.60,4,10,endchan.net,US,Americas,Northern America,United States of America,Nevada,,Las Vegas
204.77.9.207,4,19,epcorcentre.org,US,Americas,Northern America,United States of America,Nevada,,Las Vegas
45.42.212.141,4,76,fawc.org,US,Americas,Northern America,United States of America,Nevada,,Las Vegas
192.228.101.9,4,295,firequest.com,US,Americas,Northern America,United States of America,Nevada,,Las Vegas
209.141.36.213,4,3,firpe.cn,US,Americas,Northern America,United States of America,Nevada,,Las Vegas
65.117.180.113,4,52,floridarealtors.org,US,Americas,Northern America,United States of America,Nevada,,Las Vegas
45.42.212.99,4,2,fn-multimanagement.ch,US,Americas,Northern America,United States of America,Nevada,,Las Vegas
205.185.112.55,4,246160,frantech.ca,US,Americas,Northern America,United States of America,Nevada,,Las Vegas
45.42.212.204,4,-2,healthtechinsider.com,US,Americas,Northern America,United States of America,Nevada,,Las Vegas
45.42.212.128,4,3,hotelcafe.com,US,Americas,Northern America,United States of America,Nevada,,Las Vegas
192.228.101.165,4,7,iheartpublix.com,US,Americas,Northern America,United States of America,Nevada,,Las Vegas
205.185.115.233,4,0,k.vu,US,Americas,Northern America,United States of America,Nevada,,Las Vegas
136.179.17.132,4,6,kyocera-wireless.com,US,Americas,Northern America,United States of America,Nevada,,Las Vegas
34.16.178.244,4,24,libtiff.org,US,Americas,Northern America,United States of America,Nevada,,Las Vegas
209.141.33.78,4,129,lumex.com,US,Americas,Northern America,United States of America,Nevada,,Las Vegas
45.42.212.144,4,48,manhattanshort.com,US,Americas,Northern America,United States of America,Nevada,,Las Vegas
45.42.212.220,4,-1,modernracer.com,US,Americas,Northern America,United States of America,Nevada,,Las Vegas
45.42.212.201,4,26,moonexpress.com,US,Americas,Northern America,United States of America,Nevada,,Las Vegas
176.111.222.87,4,476,mpc-install.com,US,Americas,Northern America,United States of America,Nevada,,Las Vegas
45.42.212.121,4,627734,myfreeshares.com,US,Americas,Northern America,United States of America,Nevada,,Las Vegas
69.160.187.255,4,24642,Ookla Speedtest Server 56008: lasvegas-speedtest.commnetbroadband.com,US,Americas,Northern America,United States of America,Nevada,,Las Vegas
192.77.190.148,4,225,Ookla Speedtest Server 59970: lsv11-speedtest01.as15108.com,US,Americas,Northern America,United States of America,Nevada,,Las Vegas
45.42.212.151,4,13,orleanshub.com,US,Americas,Northern America,United States of America,Nevada,,Las Vegas
34.16.131.100,4,65,paraibatotal.com.br,US,Americas,Northern America,United States of America,Nevada,,Las Vegas
205.185.124.2,4,36,pickywallpapers.com,US,Americas,Northern America,United States of America,Nevada,,Las Vegas
45.42.212.95,4,12,picswiss.ch,US,Americas,Northern America,United States of America,Nevada,,Las Vegas
5.182.50.134,4,6,psywww.com,US,Americas,Northern America,United States of America,Nevada,,Las Vegas
209.141.43.93,4,10115,quickat.com,US,Americas,Northern America,United States of America,Nevada,,Las Vegas
209.141.60.244,4,41,ratingperson.com,US,Americas,Northern America,United States of America,Nevada,,Las Vegas
199.19.225.3,4,64,raymii.org,US,Americas,Northern America,United States of America,Nevada,,Las Vegas
209.141.52.143,4,211,roadraceengineering.com,US,Americas,Northern America,United States of America,Nevada,,Las Vegas
209.141.38.228,4,49,rpgwriting.com,US,Americas,Northern America,United States of America,Nevada,,Las Vegas
209.141.42.91,4,7,samiam.org,US,Americas,Northern America,United States of America,Nevada,,Las Vegas
209.170.211.182,4,4,securechkout.com,US,Americas,Northern America,United States of America,Nevada,,Las Vegas
45.42.212.210,4,1,serendipitybeads.co.nz,US,Americas,Northern America,United States of America,Nevada,,Las Vegas
34.125.9.164,4,13,soloseo.com,US,Americas,Northern America,United States of America,Nevada,,Las Vegas
45.42.212.206,4,6,suefoley.com,US,Americas,Northern America,United States of America,Nevada,,Las Vegas
45.42.212.212,4,-3,tallboyshort.com,US,Americas,Northern America,United States of America,Nevada,,Las Vegas
34.125.40.219,4,2,thelostherbs.com,US,Americas,Northern America,United States of America,Nevada,,Las Vegas
198.102.28.80,4,4,theworldguru.com,US,Americas,Northern America,United States of America,Nevada,,Las Vegas
209.141.48.142,4,30,underscore.world,US,Americas,Northern America,United States of America,Nevada,,Las Vegas
45.42.212.137,4,28,wearecb.com,US,Americas,Northern America,United States of America,Nevada,,Las Vegas
209.141.39.168,4,8,xiaopian.com,US,Americas,Northern America,United States of America,Nevada,,Las Vegas
45.42.212.218,4,-4,xr2.org,US,Americas,Northern America,United States of America,Nevada,,Las Vegas
207.254.40.213,4,-2,yellowdeli.com,US,Americas,Northern America,United States of America,Nevada,,Las Vegas
45.42.212.208,4,2,yowusa.com,US,Americas,Northern America,United States of America,Nevada,,Las Vegas
209.141.38.71,4,7,znodog.com,US,Americas,Northern America,United States of America,Nevada,,Las Vegas
