reflector_ip,ip_version,offset,description,country_code,region,sub_region,country_name,sub_division_1,sub_division_2,city
15.165.6.205,4,11,catholictimes.org,KR,Asia,Eastern Asia,South Korea,Incheon,,Incheon
3.35.112.104,4,6,catholictimes.org,KR,Asia,Eastern Asia,South Korea,Incheon,,Incheon
3.36.233.253,4,33,catholictimes.org,KR,Asia,Eastern Asia,South Korea,Incheon,,Incheon
13.209.239.32,4,19,coronatoto.com,KR,Asia,Eastern Asia,South Korea,Incheon,,Incheon
43.203.21.179,4,0,coronatoto.com,KR,Asia,Eastern Asia,South Korea,Incheon,,Incheon
3.39.46.129,4,7,coronatoto.com,KR,Asia,Eastern Asia,South Korea,Incheon,,Incheon
3.35.96.11,4,5,deepx.ai,KR,Asia,Eastern Asia,South Korea,Incheon,,Incheon
15.165.52.36,4,11,koreamife.com,KR,Asia,Eastern Asia,South Korea,Incheon,,Incheon
15.164.110.83,4,16,koreamife.com,KR,Asia,Eastern Asia,South Korea,Incheon,,Incheon
3.38.71.5,4,17,maxmsang.com,KR,Asia,Eastern Asia,South Korea,Incheon,,Incheon
43.200.75.159,4,4,maxmsang.com,KR,Asia,Eastern Asia,South Korea,Incheon,,Incheon
15.164.14.164,4,14,minutesuites.com,KR,Asia,Eastern Asia,South Korea,Incheon,,Incheon
43.200.140.8,4,5,newstapa.org,KR,Asia,Eastern Asia,South Korea,Incheon,,Incheon
3.34.231.92,4,-2,newstapa.org,KR,Asia,Eastern Asia,South Korea,Incheon,,Incheon
3.39.88.132,4,6,newsya.kr,KR,Asia,Eastern Asia,South Korea,Incheon,,Incheon
43.202.226.166,4,46,newsya.kr,KR,Asia,Eastern Asia,South Korea,Incheon,,Incheon
13.209.145.126,4,8,newsya.kr,KR,Asia,Eastern Asia,South Korea,Incheon,,Incheon
43.201.249.20,4,-2,sinkmassage.com,KR,Asia,Eastern Asia,South Korea,Incheon,,Incheon
3.36.158.121,4,0,tjmbc.co.kr,KR,Asia,Eastern Asia,South Korea,Incheon,,Incheon
3.37.240.160,4,2,tjmbc.co.kr,KR,Asia,Eastern Asia,South Korea,Incheon,,Incheon
43.200.111.0,4,26,topdaily.kr,KR,Asia,Eastern Asia,South Korea,Incheon,,Incheon
43.200.204.222,4,4,topdaily.kr,KR,Asia,Eastern Asia,South Korea,Incheon,,Incheon
3.39.161.208,4,-2,zotsangso.com,KR,Asia,Eastern Asia,South Korea,Incheon,,Incheon
