reflector_ip,ip_version,offset,description,country_code,region,sub_region,country_name,sub_division_1,sub_division_2,city
190.14.231.58,4,163,ada-aero.com,CO,Americas,Latin America and the Caribbean,Colombia,Antioquia,,Medellín
200.122.217.234,4,12,ada-aero.com,CO,Americas,Latin America and the Caribbean,Colombia,Antioquia,,Medellín
179.50.14.235,4,52,antillana.com.co,CO,Americas,Latin America and the Caribbean,Colombia,Antioquia,,Medellín
181.78.15.137,4,128,DNS Server: 137-15-78-181.ufinet.com.co,CO,Americas,Latin America and the Caribbean,Colombia,Antioquia,,Medellín
190.107.19.170,4,-2145041796,DNS Server: 19010719170.ip60.static.mediacommerce.com.co,CO,Americas,Latin America and the Caribbean,Colombia,Antioquia,,Medellín
190.107.25.170,4,-494,DNS Server: 19010725170.ip66.static.mediacommerce.com.co,CO,Americas,Latin America and the Caribbean,Colombia,Antioquia,,Medellín
190.60.37.226,4,-23186,DNS Server: 226-37-60-190.ufinet.com.co,CO,Americas,Latin America and the Caribbean,Colombia,Antioquia,,Medellín
181.129.10.70,4,106978,DNS Server: adsl-181-129-10-70.une.net.co,CO,Americas,Latin America and the Caribbean,Colombia,Antioquia,,Medellín
181.129.223.226,4,48,DNS Server: adsl-181-129-223-226.une.net.co,CO,Americas,Latin America and the Caribbean,Colombia,Antioquia,,Medellín
181.129.36.242,4,3239,DNS Server: adsl-181-129-36-242.une.net.co,CO,Americas,Latin America and the Caribbean,Colombia,Antioquia,,Medellín
181.129.48.10,4,73137,DNS Server: adsl-181-129-48-10.une.net.co,CO,Americas,Latin America and the Caribbean,Colombia,Antioquia,,Medellín
181.129.5.98,4,2549,DNS Server: adsl-181-129-5-98.une.net.co,CO,Americas,Latin America and the Caribbean,Colombia,Antioquia,,Medellín
181.129.57.146,4,3106,DNS Server: adsl-181-129-57-146.une.net.co,CO,Americas,Latin America and the Caribbean,Colombia,Antioquia,,Medellín
190.71.63.18,4,-12618478,DNS Server: adsl190-71-63-18.epm.net.co,CO,Americas,Latin America and the Caribbean,Colombia,Antioquia,,Medellín
181.129.138.155,4,191,DNS Server: agrinsa.com.co,CO,Americas,Latin America and the Caribbean,Colombia,Antioquia,,Medellín
201.184.253.122,4,-210056516,DNS Server: beepinshoes.com.co,CO,Americas,Latin America and the Caribbean,Colombia,Antioquia,,Medellín
190.248.67.206,4,-3,DNS Server: cable190-248-67-206.une.net.co,CO,Americas,Latin America and the Caribbean,Colombia,Antioquia,,Medellín
190.249.158.58,4,-2496,DNS Server: cable190-249-158-58.epm.net.co,CO,Americas,Latin America and the Caribbean,Colombia,Antioquia,,Medellín
190.249.168.212,4,2022,DNS Server: cable190-249-168-212.epm.net.co,CO,Americas,Latin America and the Caribbean,Colombia,Antioquia,,Medellín
190.249.170.32,4,23962,DNS Server: cable190-249-170-32.epm.net.co,CO,Americas,Latin America and the Caribbean,Colombia,Antioquia,,Medellín
200.116.135.169,4,40996,DNS Server: cable200-116-135-169.epm.net.co,CO,Americas,Latin America and the Caribbean,Colombia,Antioquia,,Medellín
200.116.110.39,4,2534,DNS Server: conm200-116-110-39.epm.net.co,CO,Americas,Latin America and the Caribbean,Colombia,Antioquia,,Medellín
181.205.127.82,4,31306172,DNS Server: Dinamic-Tigo-181-205-127-82.tigo.com.co,CO,Americas,Latin America and the Caribbean,Colombia,Antioquia,,Medellín
181.205.139.194,4,-537884794,DNS Server: Dinamic-Tigo-181-205-139-194.tigo.com.co,CO,Americas,Latin America and the Caribbean,Colombia,Antioquia,,Medellín
181.205.180.114,4,91,DNS Server: Dinamic-Tigo-181-205-180-114.tigo.com.co,CO,Americas,Latin America and the Caribbean,Colombia,Antioquia,,Medellín
181.205.196.114,4,9357,DNS Server: Dinamic-Tigo-181-205-196-114.tigo.com.co,CO,Americas,Latin America and the Caribbean,Colombia,Antioquia,,Medellín
181.205.206.162,4,16832314,DNS Server: Dinamic-Tigo-181-205-206-162.tigo.com.co,CO,Americas,Latin America and the Caribbean,Colombia,Antioquia,,Medellín
181.205.21.146,4,-136819,DNS Server: Dinamic-Tigo-181-205-21-146.tigo.com.co,CO,Americas,Latin America and the Caribbean,Colombia,Antioquia,,Medellín
181.205.224.98,4,12072,DNS Server: Dinamic-Tigo-181-205-224-98.tigo.com.co,CO,Americas,Latin America and the Caribbean,Colombia,Antioquia,,Medellín
181.205.241.34,4,3235,DNS Server: Dinamic-Tigo-181-205-241-34.tigo.com.co,CO,Americas,Latin America and the Caribbean,Colombia,Antioquia,,Medellín
181.205.252.242,4,2474,DNS Server: Dinamic-Tigo-181-205-252-242.tigo.com.co,CO,Americas,Latin America and the Caribbean,Colombia,Antioquia,,Medellín
181.205.28.162,4,1865,DNS Server: Dinamic-Tigo-181-205-28-162.tigo.com.co,CO,Americas,Latin America and the Caribbean,Colombia,Antioquia,,Medellín
181.205.3.34,4,5654,DNS Server: Dinamic-Tigo-181-205-3-34.tigo.com.co,CO,Americas,Latin America and the Caribbean,Colombia,Antioquia,,Medellín
181.205.36.114,4,71785,DNS Server: Dinamic-Tigo-181-205-36-114.tigo.com.co,CO,Americas,Latin America and the Caribbean,Colombia,Antioquia,,Medellín
181.205.47.219,4,87998,DNS Server: Dinamic-Tigo-181-205-47-219.tigo.com.co,CO,Americas,Latin America and the Caribbean,Colombia,Antioquia,,Medellín
181.205.49.234,4,8247,DNS Server: Dinamic-Tigo-181-205-49-234.tigo.com.co,CO,Americas,Latin America and the Caribbean,Colombia,Antioquia,,Medellín
181.205.60.162,4,7,DNS Server: Dinamic-Tigo-181-205-60-162.tigo.com.co,CO,Americas,Latin America and the Caribbean,Colombia,Antioquia,,Medellín
181.205.61.122,4,9820,DNS Server: Dinamic-Tigo-181-205-61-122.tigo.com.co,CO,Americas,Latin America and the Caribbean,Colombia,Antioquia,,Medellín
181.205.65.93,4,40227,DNS Server: Dinamic-Tigo-181-205-65-93.tigo.com.co,CO,Americas,Latin America and the Caribbean,Colombia,Antioquia,,Medellín
186.97.156.82,4,-2771,DNS Server: Dinamic-Tigo186-97-156-82.tigo.com.co,CO,Americas,Latin America and the Caribbean,Colombia,Antioquia,,Medellín
186.97.157.218,4,9659,DNS Server: Dinamic-Tigo186-97-157-218.tigo.com.co,CO,Americas,Latin America and the Caribbean,Colombia,Antioquia,,Medellín
186.97.167.210,4,-3,DNS Server: Dinamic-Tigo186-97-167-210.tigo.com.co,CO,Americas,Latin America and the Caribbean,Colombia,Antioquia,,Medellín
186.97.192.138,4,2,DNS Server: Dinamic-Tigo186-97-192-138.tigo.com.co,CO,Americas,Latin America and the Caribbean,Colombia,Antioquia,,Medellín
186.97.194.162,4,442,DNS Server: Dinamic-Tigo186-97-194-162.tigo.com.co,CO,Americas,Latin America and the Caribbean,Colombia,Antioquia,,Medellín
186.97.195.122,4,10706,DNS Server: Dinamic-Tigo186-97-195-122.tigo.com.co,CO,Americas,Latin America and the Caribbean,Colombia,Antioquia,,Medellín
186.97.197.26,4,777,DNS Server: Dinamic-Tigo186-97-197-26.tigo.com.co,CO,Americas,Latin America and the Caribbean,Colombia,Antioquia,,Medellín
186.97.208.162,4,11692,DNS Server: Dinamic-Tigo186-97-208-162.tigo.com.co,CO,Americas,Latin America and the Caribbean,Colombia,Antioquia,,Medellín
186.97.208.18,4,25032,DNS Server: Dinamic-Tigo186-97-208-18.tigo.com.co,CO,Americas,Latin America and the Caribbean,Colombia,Antioquia,,Medellín
186.97.218.42,4,-4778,DNS Server: Dinamic-Tigo186-97-218-42.tigo.com.co,CO,Americas,Latin America and the Caribbean,Colombia,Antioquia,,Medellín
186.97.229.138,4,-246315,DNS Server: Dinamic-Tigo186-97-229-138.tigo.com.co,CO,Americas,Latin America and the Caribbean,Colombia,Antioquia,,Medellín
186.97.229.178,4,42997,DNS Server: Dinamic-Tigo186-97-229-178.tigo.com.co,CO,Americas,Latin America and the Caribbean,Colombia,Antioquia,,Medellín
186.97.246.178,4,27338,DNS Server: Dinamic-Tigo186-97-246-178.tigo.com.co,CO,Americas,Latin America and the Caribbean,Colombia,Antioquia,,Medellín
186.97.98.18,4,-392967966,DNS Server: Dinamic-Tigo186-97-98-18.tigo.com.co,CO,Americas,Latin America and the Caribbean,Colombia,Antioquia,,Medellín
201.184.145.29,4,3522,DNS Server: ingentar.com,CO,Americas,Latin America and the Caribbean,Colombia,Antioquia,,Medellín
201.184.128.50,4,30769,DNS Server: mundiutil.com,CO,Americas,Latin America and the Caribbean,Colombia,Antioquia,,Medellín
181.129.121.42,4,385,DNS Server: static-181-129-121-42.une.net.co,CO,Americas,Latin America and the Caribbean,Colombia,Antioquia,,Medellín
181.129.69.226,4,22693,DNS Server: static-181-129-69-226.une.net.co,CO,Americas,Latin America and the Caribbean,Colombia,Antioquia,,Medellín
190.0.32.94,4,24414,DNS Server: Static-BAFibra190-0-32-94.epm.net.co,CO,Americas,Latin America and the Caribbean,Colombia,Antioquia,,Medellín
190.0.35.234,4,3917,DNS Server: Static-BAFibra190-0-35-234.epm.net.co,CO,Americas,Latin America and the Caribbean,Colombia,Antioquia,,Medellín
179.50.60.20,4,391327,funlam.edu.co,CO,Americas,Latin America and the Caribbean,Colombia,Antioquia,,Medellín
190.85.250.66,4,5,jep.gov.co,CO,Americas,Latin America and the Caribbean,Colombia,Antioquia,,Medellín
200.13.249.233,4,329,Ookla Speedtest Server 15017: speedtestmed1.tigo.com.co,CO,Americas,Latin America and the Caribbean,Colombia,Antioquia,,Medellín
181.48.254.74,4,356,Ookla Speedtest Server 44096: speedtestmed01.claro.net.co,CO,Americas,Latin America and the Caribbean,Colombia,Antioquia,,Medellín
206.84.80.245,4,296,Ookla Speedtest Server 52729: speed.somosinternet.co,CO,Americas,Latin America and the Caribbean,Colombia,Antioquia,,Medellín
181.78.65.218,4,-9463,Ookla Speedtest Server 58684: speedtest.befast.com.co,CO,Americas,Latin America and the Caribbean,Colombia,Antioquia,,Medellín
45.191.234.66,4,277,Ookla Speedtest Server 60287: speedtest.wirelesscolombia.com,CO,Americas,Latin America and the Caribbean,Colombia,Antioquia,,Medellín
179.50.16.128,4,0,ucatolicaluisamigo.edu.co,CO,Americas,Latin America and the Caribbean,Colombia,Antioquia,,Medellín
