reflector_ip,ip_version,offset,description,country_code,region,sub_region,country_name,sub_division_1,sub_division_2,city
130.185.87.209,4,8,3ces.pt,PT,Europe,Southern Europe,Portugal,Lisbon,,Lisbon
109.71.43.210,4,8,4800bps.com,PT,Europe,Southern Europe,Portugal,Lisbon,,Lisbon
213.58.130.233,4,1042,4cmedica.com,PT,Europe,Southern Europe,Portugal,Lisbon,,Lisbon
185.15.20.191,4,68,abreu.pt,PT,Europe,Southern Europe,Portugal,Lisbon,,Lisbon
94.126.169.176,4,17,acad-ciencias.pt,PT,Europe,Southern Europe,Portugal,Lisbon,,Lisbon
213.146.202.161,4,32,adecco.pt,PT,Europe,Southern Europe,Portugal,Lisbon,,Lisbon
5.154.174.233,4,70,akmediahosting.com,PT,Europe,Southern Europe,Portugal,Lisbon,,Lisbon
109.71.43.203,4,10,amd-export.com,PT,Europe,Southern Europe,Portugal,Lisbon,,Lisbon
109.71.40.14,4,30,anesaportugal.org,PT,Europe,Southern Europe,Portugal,Lisbon,,Lisbon
62.28.14.57,4,9,anmp.pt,PT,Europe,Southern Europe,Portugal,Lisbon,,Lisbon
130.185.83.99,4,1876,artecapital.net,PT,Europe,Southern Europe,Portugal,Lisbon,,Lisbon
130.185.87.66,4,13,arteriae.net,PT,Europe,Southern Europe,Portugal,Lisbon,,Lisbon
130.185.83.150,4,905,aulp.org,PT,Europe,Southern Europe,Portugal,Lisbon,,Lisbon
109.71.40.220,4,-331,barrocal.pt,PT,Europe,Southern Europe,Portugal,Lisbon,,Lisbon
94.126.169.152,4,17,bikeinterra.com,PT,Europe,Southern Europe,Portugal,Lisbon,,Lisbon
94.126.169.162,4,4,bluelabeltransfers.com,PT,Europe,Southern Europe,Portugal,Lisbon,,Lisbon
94.126.169.245,4,3,campeaoprovincias.pt,PT,Europe,Southern Europe,Portugal,Lisbon,,Lisbon
130.185.81.216,4,5,cin.com,PT,Europe,Southern Europe,Portugal,Lisbon,,Lisbon
195.22.25.130,4,5,Claranet Limited,PT,Europe,Southern Europe,Portugal,Lisbon,,Lisbon
130.185.84.237,4,29,clubeslotcartrofa.com,PT,Europe,Southern Europe,Portugal,Lisbon,,Lisbon
194.65.92.189,4,29,cm-aveiro.pt,PT,Europe,Southern Europe,Portugal,Lisbon,,Lisbon
89.26.253.27,4,5,cm-lagoa.pt,PT,Europe,Southern Europe,Portugal,Lisbon,,Lisbon
148.69.221.178,4,4,cm-nazare.pt,PT,Europe,Southern Europe,Portugal,Lisbon,,Lisbon
130.185.83.18,4,878,consumoalgarve.pt,PT,Europe,Southern Europe,Portugal,Lisbon,,Lisbon
213.58.130.231,4,678,cpidt.pt,PT,Europe,Southern Europe,Portugal,Lisbon,,Lisbon
94.23.74.209,4,1034,directlenderloans.org,PT,Europe,Southern Europe,Portugal,Lisbon,,Lisbon
5.249.101.107,4,97,DNS Server: 107.101.249.5.rev.vodafone.pt,PT,Europe,Southern Europe,Portugal,Lisbon,,Lisbon
5.249.100.12,4,69,DNS Server: 12.100.249.5.rev.vodafone.pt,PT,Europe,Southern Europe,Portugal,Lisbon,,Lisbon
89.114.155.129,4,165,DNS Server: 129.155.114.89.rev.vodafone.pt,PT,Europe,Southern Europe,Portugal,Lisbon,,Lisbon
5.249.96.140,4,4,DNS Server: 140.96.249.5.rev.vodafone.pt,PT,Europe,Southern Europe,Portugal,Lisbon,,Lisbon
5.249.101.181,4,84,DNS Server: 181.101.249.5.rev.vodafone.pt,PT,Europe,Southern Europe,Portugal,Lisbon,,Lisbon
5.249.101.184,4,10,DNS Server: 184.101.249.5.rev.vodafone.pt,PT,Europe,Southern Europe,Portugal,Lisbon,,Lisbon
89.115.242.195,4,181,DNS Server: 195.242.115.89.rev.vodafone.pt,PT,Europe,Southern Europe,Portugal,Lisbon,,Lisbon
5.249.101.208,4,26,DNS Server: 208.101.249.5.rev.vodafone.pt,PT,Europe,Southern Europe,Portugal,Lisbon,,Lisbon
5.249.101.210,4,4,DNS Server: 210.101.249.5.rev.vodafone.pt,PT,Europe,Southern Europe,Portugal,Lisbon,,Lisbon
5.249.101.217,4,36,DNS Server: 217.101.249.5.rev.vodafone.pt,PT,Europe,Southern Europe,Portugal,Lisbon,,Lisbon
5.249.100.3,4,-29,DNS Server: 3.100.249.5.rev.vodafone.pt,PT,Europe,Southern Europe,Portugal,Lisbon,,Lisbon
88.157.98.214,4,7732,DNS Server: a88-157-98-214.static.cpe.netcabo.pt,PT,Europe,Southern Europe,Portugal,Lisbon,,Lisbon
85.241.19.107,4,391,DNS Server: bl8-19-107.dsl.telepac.pt,PT,Europe,Southern Europe,Portugal,Lisbon,,Lisbon
81.84.246.187,4,292,DNS Server: mail.alfa-beta.pt,PT,Europe,Southern Europe,Portugal,Lisbon,,Lisbon
5.206.228.37,4,268,DNS Server: mgarces2.evolute.pt,PT,Europe,Southern Europe,Portugal,Lisbon,,Lisbon
94.126.169.3,4,19,dominios.pt,PT,Europe,Southern Europe,Portugal,Lisbon,,Lisbon
185.15.23.121,4,5,doutorfinancas.pt,PT,Europe,Southern Europe,Portugal,Lisbon,,Lisbon
213.58.230.133,4,600,eapn.pt,PT,Europe,Southern Europe,Portugal,Lisbon,,Lisbon
94.23.74.221,4,1028,edinburghshogmanay.org,PT,Europe,Southern Europe,Portugal,Lisbon,,Lisbon
94.126.169.125,4,21,estorilpraia.pt,PT,Europe,Southern Europe,Portugal,Lisbon,,Lisbon
130.185.87.163,4,245,eugosto.pt,PT,Europe,Southern Europe,Portugal,Lisbon,,Lisbon
185.15.20.167,4,6,europacolon.pt,PT,Europe,Southern Europe,Portugal,Lisbon,,Lisbon
130.185.84.151,4,9,fabiopedro.pt,PT,Europe,Southern Europe,Portugal,Lisbon,,Lisbon
195.22.14.187,4,4,farmaciasdeservico.net,PT,Europe,Southern Europe,Portugal,Lisbon,,Lisbon
109.71.43.207,4,7,farol.com.pt,PT,Europe,Southern Europe,Portugal,Lisbon,,Lisbon
185.15.20.151,4,6,forum.pt,PT,Europe,Southern Europe,Portugal,Lisbon,,Lisbon
5.206.228.11,4,6,fpa.pt,PT,Europe,Southern Europe,Portugal,Lisbon,,Lisbon
130.185.84.7,4,983,fpo.pt,PT,Europe,Southern Europe,Portugal,Lisbon,,Lisbon
185.32.37.76,4,17,fundoambiental.pt,PT,Europe,Southern Europe,Portugal,Lisbon,,Lisbon
94.126.169.159,4,6,gaiacablecar.com,PT,Europe,Southern Europe,Portugal,Lisbon,,Lisbon
2.16.65.43,4,-29,grandvision.it,PT,Europe,Southern Europe,Portugal,Lisbon,,Lisbon
2.16.65.82,4,-24,grandvision.it,PT,Europe,Southern Europe,Portugal,Lisbon,,Lisbon
188.208.143.125,4,10,growlforwindows.com,PT,Europe,Southern Europe,Portugal,Lisbon,,Lisbon
94.126.169.196,4,9,icsg.org,PT,Europe,Southern Europe,Portugal,Lisbon,,Lisbon
94.126.169.148,4,32,inaltor.com,PT,Europe,Southern Europe,Portugal,Lisbon,,Lisbon
130.185.84.171,4,19,inebur.com,PT,Europe,Southern Europe,Portugal,Lisbon,,Lisbon
146.193.32.4,4,46,inesc-id.pt,PT,Europe,Southern Europe,Portugal,Lisbon,,Lisbon
195.23.41.129,4,70,infarmed.pt,PT,Europe,Southern Europe,Portugal,Lisbon,,Lisbon
93.108.226.5,4,31,ipn.pt,PT,Europe,Southern Europe,Portugal,Lisbon,,Lisbon
193.136.189.102,4,13,iscte.pt,PT,Europe,Southern Europe,Portugal,Lisbon,,Lisbon
130.185.81.108,4,342,ketafoods.com,PT,Europe,Southern Europe,Portugal,Lisbon,,Lisbon
94.23.75.76,4,3,ku4amala.ru,PT,Europe,Southern Europe,Portugal,Lisbon,,Lisbon
185.15.23.215,4,18,leffest.com,PT,Europe,Southern Europe,Portugal,Lisbon,,Lisbon
213.63.186.11,4,6,leme.pt,PT,Europe,Southern Europe,Portugal,Lisbon,,Lisbon
199.16.243.10,4,71240,lemmy.pt,PT,Europe,Southern Europe,Portugal,Lisbon,,Lisbon
94.23.76.235,4,8,librarianinblack.net,PT,Europe,Southern Europe,Portugal,Lisbon,,Lisbon
94.126.174.10,4,-817,lifecooler.com,PT,Europe,Southern Europe,Portugal,Lisbon,,Lisbon
185.15.20.223,4,6,lisboa.pt,PT,Europe,Southern Europe,Portugal,Lisbon,,Lisbon
109.71.43.190,4,24,ltek.pt,PT,Europe,Southern Europe,Portugal,Lisbon,,Lisbon
109.71.40.88,4,447,madeiraallyear.com,PT,Europe,Southern Europe,Portugal,Lisbon,,Lisbon
94.23.73.76,4,50,marcar.it,PT,Europe,Southern Europe,Portugal,Lisbon,,Lisbon
62.28.83.111,4,17,modalisboa.pt,PT,Europe,Southern Europe,Portugal,Lisbon,,Lisbon
130.185.87.195,4,211,monstrafestival.com,PT,Europe,Southern Europe,Portugal,Lisbon,,Lisbon
185.15.20.143,4,9,motelx.org,PT,Europe,Southern Europe,Portugal,Lisbon,,Lisbon
195.22.25.138,4,74,motorguia.net,PT,Europe,Southern Europe,Portugal,Lisbon,,Lisbon
94.126.169.145,4,25,museuarqueologicodocarmo.pt,PT,Europe,Southern Europe,Portugal,Lisbon,,Lisbon
109.71.44.169,4,4,museuberardo.pt,PT,Europe,Southern Europe,Portugal,Lisbon,,Lisbon
89.26.243.107,4,2,museudodouro.pt,PT,Europe,Southern Europe,Portugal,Lisbon,,Lisbon
94.126.171.155,4,934,mygutfeeling.eu,PT,Europe,Southern Europe,Portugal,Lisbon,,Lisbon
130.185.83.104,4,185,nit.pt,PT,Europe,Southern Europe,Portugal,Lisbon,,Lisbon
130.185.81.219,4,356,nit.pt,PT,Europe,Southern Europe,Portugal,Lisbon,,Lisbon
130.185.82.219,4,7,nit.pt,PT,Europe,Southern Europe,Portugal,Lisbon,,Lisbon
109.71.41.51,4,869,nunonunes-ferreira.com,PT,Europe,Southern Europe,Portugal,Lisbon,,Lisbon
94.23.75.211,4,4,observatorioinmobiliario.es,PT,Europe,Southern Europe,Portugal,Lisbon,,Lisbon
185.113.142.188,4,205899,Ookla Speedtest Server 44427: speedtest.innov4web.pt,PT,Europe,Southern Europe,Portugal,Lisbon,,Lisbon
94.46.175.12,4,89,passadicosdopaiva.pt,PT,Europe,Southern Europe,Portugal,Lisbon,,Lisbon
130.185.84.99,4,15,portugalfilm.org,PT,Europe,Southern Europe,Portugal,Lisbon,,Lisbon
94.23.78.94,4,24,portugalio.com,PT,Europe,Southern Europe,Portugal,Lisbon,,Lisbon
185.15.20.127,4,42,ptisp.pt,PT,Europe,Southern Europe,Portugal,Lisbon,,Lisbon
185.15.23.234,4,16,ptisp.pt,PT,Europe,Southern Europe,Portugal,Lisbon,,Lisbon
185.15.23.200,4,17,ptisp.pt,PT,Europe,Southern Europe,Portugal,Lisbon,,Lisbon
185.15.23.235,4,10,ptisp.pt,PT,Europe,Southern Europe,Portugal,Lisbon,,Lisbon
94.23.74.13,4,10,pulsepeak.top,PT,Europe,Southern Europe,Portugal,Lisbon,,Lisbon
89.26.249.46,4,26,rededoempresario.pt,PT,Europe,Southern Europe,Portugal,Lisbon,,Lisbon
213.63.186.146,4,23,reorganiza.pt,PT,Europe,Southern Europe,Portugal,Lisbon,,Lisbon
130.185.83.78,4,1164042,rioavefc.pt,PT,Europe,Southern Europe,Portugal,Lisbon,,Lisbon
130.185.87.191,4,28,rippa.pt,PT,Europe,Southern Europe,Portugal,Lisbon,,Lisbon
213.63.232.221,4,12960,sanahotels.com,PT,Europe,Southern Europe,Portugal,Lisbon,,Lisbon
213.58.130.252,4,3,spea.pt,PT,Europe,Southern Europe,Portugal,Lisbon,,Lisbon
94.23.75.84,4,2,spq.pt,PT,Europe,Southern Europe,Portugal,Lisbon,,Lisbon
109.71.43.54,4,7,startupmadeira.eu,PT,Europe,Southern Europe,Portugal,Lisbon,,Lisbon
130.185.82.106,4,18,surftotal.com,PT,Europe,Southern Europe,Portugal,Lisbon,,Lisbon
94.23.73.16,4,37,tacchini.it,PT,Europe,Southern Europe,Portugal,Lisbon,,Lisbon
213.63.189.60,4,2128,tecnicadovolante.com,PT,Europe,Southern Europe,Portugal,Lisbon,,Lisbon
94.23.78.122,4,3,thankyoustephencolbert.org,PT,Europe,Southern Europe,Portugal,Lisbon,,Lisbon
94.126.169.90,4,1158,tnsc.pt,PT,Europe,Southern Europe,Portugal,Lisbon,,Lisbon
94.126.169.132,4,9,torredosclerigos.pt,PT,Europe,Southern Europe,Portugal,Lisbon,,Lisbon
94.126.171.1,4,49,touristicroutes.com,PT,Europe,Southern Europe,Portugal,Lisbon,,Lisbon
94.126.171.2,4,3,touristicroutes.com,PT,Europe,Southern Europe,Portugal,Lisbon,,Lisbon
213.63.232.43,4,57440,uab.pt,PT,Europe,Southern Europe,Portugal,Lisbon,,Lisbon
94.23.75.243,4,16,vidaimobiliaria.com,PT,Europe,Southern Europe,Portugal,Lisbon,,Lisbon
185.15.20.121,4,6,vilagale.pt,PT,Europe,Southern Europe,Portugal,Lisbon,,Lisbon
94.23.74.31,4,22,vxm.pl,PT,Europe,Southern Europe,Portugal,Lisbon,,Lisbon
