reflector_ip,ip_version,offset,description,country_code,region,sub_region,country_name,sub_division_1,sub_division_2,city
52.51.56.8,4,4,123roulement.com,IE,Europe,Northern Europe,Ireland,Leinster,,Dublin
34.248.56.221,4,4,123roulement.com,IE,Europe,Northern Europe,Ireland,Leinster,,Dublin
108.129.43.124,4,8,123roulement.com,IE,Europe,Northern Europe,Ireland,Leinster,,Dublin
54.76.238.225,4,4,360totalsecurity.com,IE,Europe,Northern Europe,Ireland,Leinster,,Dublin
52.208.189.44,4,4,3dprima.com,IE,Europe,Northern Europe,Ireland,Leinster,,Dublin
91.210.235.24,4,131,6moons.com,IE,Europe,Northern Europe,Ireland,Leinster,,Dublin
63.35.106.120,4,49,a-bank.com.ua,IE,Europe,Northern Europe,Ireland,Leinster,,Dublin
52.213.44.19,4,5,a-bank.com.ua,IE,Europe,Northern Europe,Ireland,Leinster,,Dublin
52.211.75.69,4,7,accord.ie,IE,Europe,Northern Europe,Ireland,Leinster,,Dublin
54.72.80.124,4,6,ad360.media,IE,Europe,Northern Europe,Ireland,Leinster,,Dublin
54.154.173.251,4,6,ad360.media,IE,Europe,Northern Europe,Ireland,Leinster,,Dublin
3.248.173.93,4,35,adzuna.fr,IE,Europe,Northern Europe,Ireland,Leinster,,Dublin
52.16.181.71,4,4,adzuna.fr,IE,Europe,Northern Europe,Ireland,Leinster,,Dublin
52.208.198.40,4,5,adzuna.fr,IE,Europe,Northern Europe,Ireland,Leinster,,Dublin
81.17.241.212,4,880,ahead.ie,IE,Europe,Northern Europe,Ireland,Leinster,,Dublin
78.153.218.31,4,8,aillweecave.ie,IE,Europe,Northern Europe,Ireland,Leinster,,Dublin
54.217.252.82,4,7,ajol.info,IE,Europe,Northern Europe,Ireland,Leinster,,Dublin
176.34.188.124,4,5,allyou.net,IE,Europe,Northern Europe,Ireland,Leinster,,Dublin
79.125.25.109,4,39,anaivanovic.com,IE,Europe,Northern Europe,Ireland,Leinster,,Dublin
54.216.172.103,4,16,anf.es,IE,Europe,Northern Europe,Ireland,Leinster,,Dublin
34.247.25.22,4,55,annunci.net,IE,Europe,Northern Europe,Ireland,Leinster,,Dublin
52.31.147.121,4,9,aplaceforeverything.co.uk,IE,Europe,Northern Europe,Ireland,Leinster,,Dublin
3.248.13.17,4,24,aplaceforeverything.co.uk,IE,Europe,Northern Europe,Ireland,Leinster,,Dublin
34.250.161.12,4,49,arkivdigital.se,IE,Europe,Northern Europe,Ireland,Leinster,,Dublin
34.252.54.114,4,34,arkivdigital.se,IE,Europe,Northern Europe,Ireland,Leinster,,Dublin
18.203.35.75,4,28,arkivdigital.se,IE,Europe,Northern Europe,Ireland,Leinster,,Dublin
54.194.255.133,4,-337625,arthistorynews.com,IE,Europe,Northern Europe,Ireland,Leinster,,Dublin
78.153.218.69,4,71,artinliverpool.com,IE,Europe,Northern Europe,Ireland,Leinster,,Dublin
52.50.27.241,4,-112911,asociacion3e.org,IE,Europe,Northern Europe,Ireland,Leinster,,Dublin
78.153.209.28,4,58,atheist.ie,IE,Europe,Northern Europe,Ireland,Leinster,,Dublin
52.212.51.252,4,-6195,aytotarifa.com,IE,Europe,Northern Europe,Ireland,Leinster,,Dublin
78.153.213.4,4,4,bai.ie,IE,Europe,Northern Europe,Ireland,Leinster,,Dublin
78.153.216.68,4,9,bannister.org,IE,Europe,Northern Europe,Ireland,Leinster,,Dublin
91.210.235.218,4,-42,bantryhouse.com,IE,Europe,Northern Europe,Ireland,Leinster,,Dublin
54.220.137.165,4,3,bc3research.org,IE,Europe,Northern Europe,Ireland,Leinster,,Dublin
190.180.145.59,4,4,bcr.org,IE,Europe,Northern Europe,Ireland,Leinster,,Dublin
185.224.198.7,4,6,bilaterals.org,IE,Europe,Northern Europe,Ireland,Leinster,,Dublin
52.208.230.44,4,4,billetto.se,IE,Europe,Northern Europe,Ireland,Leinster,,Dublin
34.251.95.163,4,12,billetto.se,IE,Europe,Northern Europe,Ireland,Leinster,,Dublin
63.33.185.127,4,3,billetto.se,IE,Europe,Northern Europe,Ireland,Leinster,,Dublin
54.171.5.169,4,20,birchbox.fr,IE,Europe,Northern Europe,Ireland,Leinster,,Dublin
54.220.160.125,4,73,birchbox.fr,IE,Europe,Northern Europe,Ireland,Leinster,,Dublin
99.81.101.35,4,5,bitrixsoft.com,IE,Europe,Northern Europe,Ireland,Leinster,,Dublin
81.17.242.118,4,-56261,blacknight.com,IE,Europe,Northern Europe,Ireland,Leinster,,Dublin
78.153.214.25,4,53,blather.net,IE,Europe,Northern Europe,Ireland,Leinster,,Dublin
52.208.230.91,4,27,boolino.es,IE,Europe,Northern Europe,Ireland,Leinster,,Dublin
52.17.1.235,4,6,boyum-solutions.com,IE,Europe,Northern Europe,Ireland,Leinster,,Dublin
91.210.235.90,4,317,brazenhead.com,IE,Europe,Northern Europe,Ireland,Leinster,,Dublin
78.153.213.19,4,4,bricin.ie,IE,Europe,Northern Europe,Ireland,Leinster,,Dublin
34.240.187.24,4,6,btc.ac.uk,IE,Europe,Northern Europe,Ireland,Leinster,,Dublin
54.72.245.199,4,5,bua.io,IE,Europe,Northern Europe,Ireland,Leinster,,Dublin
54.155.112.58,4,52,captify.co.uk,IE,Europe,Northern Europe,Ireland,Leinster,,Dublin
78.153.213.5,4,4,carlowbrewing.com,IE,Europe,Northern Europe,Ireland,Leinster,,Dublin
23.38.217.116,4,37,carnival.com,IE,Europe,Northern Europe,Ireland,Leinster,,Dublin
78.153.214.9,4,10,carrowkeel.com,IE,Europe,Northern Europe,Ireland,Leinster,,Dublin
54.194.197.129,4,36,cartell.ie,IE,Europe,Northern Europe,Ireland,Leinster,,Dublin
78.153.218.34,4,4,cearta.ie,IE,Europe,Northern Europe,Ireland,Leinster,,Dublin
34.240.162.207,4,40,chaser.nl,IE,Europe,Northern Europe,Ireland,Leinster,,Dublin
52.209.79.248,4,2,chateaudepommard.com,IE,Europe,Northern Europe,Ireland,Leinster,,Dublin
54.75.246.32,4,14,chelwest.nhs.uk,IE,Europe,Northern Europe,Ireland,Leinster,,Dublin
54.72.184.238,4,10,clearbooks.co.uk,IE,Europe,Northern Europe,Ireland,Leinster,,Dublin
52.208.248.147,4,6,clearbooks.co.uk,IE,Europe,Northern Europe,Ireland,Leinster,,Dublin
185.224.198.92,4,9,coffeemania.ie,IE,Europe,Northern Europe,Ireland,Leinster,,Dublin
78.153.209.19,4,7,cogg.ie,IE,Europe,Northern Europe,Ireland,Leinster,,Dublin
63.33.213.149,4,4,colorifix.com,IE,Europe,Northern Europe,Ireland,Leinster,,Dublin
54.75.73.191,4,30,comitedesfamilles.net,IE,Europe,Northern Europe,Ireland,Leinster,,Dublin
185.224.198.16,4,66,communitybikerides.ie,IE,Europe,Northern Europe,Ireland,Leinster,,Dublin
159.134.187.29,4,7,constitution.ie,IE,Europe,Northern Europe,Ireland,Leinster,,Dublin
54.77.7.30,4,60,cornerstone.co.uk,IE,Europe,Northern Europe,Ireland,Leinster,,Dublin
54.76.135.24,4,82,cornerstone.co.uk,IE,Europe,Northern Europe,Ireland,Leinster,,Dublin
95.164.44.251,4,5,cryptoruble.biz,IE,Europe,Northern Europe,Ireland,Leinster,,Dublin
217.115.113.28,4,28,daddycow.com,IE,Europe,Northern Europe,Ireland,Leinster,,Dublin
52.17.130.86,4,3,dailytonic.com,IE,Europe,Northern Europe,Ireland,Leinster,,Dublin
81.17.254.65,4,6,davidhunt.ie,IE,Europe,Northern Europe,Ireland,Leinster,,Dublin
54.170.180.44,4,4,deparade.nl,IE,Europe,Northern Europe,Ireland,Leinster,,Dublin
3.251.23.4,4,8,digicollect.nl,IE,Europe,Northern Europe,Ireland,Leinster,,Dublin
52.211.187.249,4,22,digicollect.nl,IE,Europe,Northern Europe,Ireland,Leinster,,Dublin
78.153.213.253,4,75,dinnri.com,IE,Europe,Northern Europe,Ireland,Leinster,,Dublin
188.141.14.51,4,76380,DNS Server: 188-141-14-51.dynamic.upc.ie,IE,Europe,Northern Europe,Ireland,Leinster,,Dublin
54.229.171.243,4,6,DNS Server: ec2-54-229-171-243.eu-west-1.compute.amazonaws.com,IE,Europe,Northern Europe,Ireland,Leinster,,Dublin
108.128.74.181,4,5,dssmove.co.uk,IE,Europe,Northern Europe,Ireland,Leinster,,Dublin
217.115.123.27,4,4,dublincoach.ie,IE,Europe,Northern Europe,Ireland,Leinster,,Dublin
52.30.132.225,4,4,e-katanalotis.gov.gr,IE,Europe,Northern Europe,Ireland,Leinster,,Dublin
54.229.133.46,4,7,ecards.co.uk,IE,Europe,Northern Europe,Ireland,Leinster,,Dublin
108.128.212.140,4,2,ecards.co.uk,IE,Europe,Northern Europe,Ireland,Leinster,,Dublin
46.137.114.66,4,22152,eigenlabs.com,IE,Europe,Northern Europe,Ireland,Leinster,,Dublin
3.250.251.107,4,8,emirates247.com,IE,Europe,Northern Europe,Ireland,Leinster,,Dublin
52.209.97.228,4,10,endian.com,IE,Europe,Northern Europe,Ireland,Leinster,,Dublin
78.153.209.12,4,20,envecon.eu,IE,Europe,Northern Europe,Ireland,Leinster,,Dublin
54.228.228.251,4,4,epreselec.com,IE,Europe,Northern Europe,Ireland,Leinster,,Dublin
78.153.220.135,4,5,erc.ie,IE,Europe,Northern Europe,Ireland,Leinster,,Dublin
52.209.2.106,4,2,erecruit.co,IE,Europe,Northern Europe,Ireland,Leinster,,Dublin
52.18.152.93,4,4,erecruit.co,IE,Europe,Northern Europe,Ireland,Leinster,,Dublin
52.19.118.183,4,63,esadealumni.net,IE,Europe,Northern Europe,Ireland,Leinster,,Dublin
54.154.94.68,4,10,esquiades.com,IE,Europe,Northern Europe,Ireland,Leinster,,Dublin
52.208.210.20,4,23,esquiades.com,IE,Europe,Northern Europe,Ireland,Leinster,,Dublin
217.115.113.198,4,4,etbi.ie,IE,Europe,Northern Europe,Ireland,Leinster,,Dublin
52.210.241.150,4,5,etgworld.com,IE,Europe,Northern Europe,Ireland,Leinster,,Dublin
91.210.235.238,4,34,etp4hpc.eu,IE,Europe,Northern Europe,Ireland,Leinster,,Dublin
78.153.216.18,4,18,eusprig.org,IE,Europe,Northern Europe,Ireland,Leinster,,Dublin
99.80.219.110,4,18,ev-volumes.com,IE,Europe,Northern Europe,Ireland,Leinster,,Dublin
34.242.69.234,4,23,ev-volumes.com,IE,Europe,Northern Europe,Ireland,Leinster,,Dublin
81.17.255.243,4,16,eva.ie,IE,Europe,Northern Europe,Ireland,Leinster,,Dublin
78.153.209.16,4,12,everymancork.com,IE,Europe,Northern Europe,Ireland,Leinster,,Dublin
54.246.67.40,4,3,experiencedays.co.uk,IE,Europe,Northern Europe,Ireland,Leinster,,Dublin
54.155.56.224,4,2,experiencedays.co.uk,IE,Europe,Northern Europe,Ireland,Leinster,,Dublin
78.153.218.45,4,3,fadestreetsocial.com,IE,Europe,Northern Europe,Ireland,Leinster,,Dublin
34.255.77.102,4,24,fatso.ma,IE,Europe,Northern Europe,Ireland,Leinster,,Dublin
54.171.235.75,4,17,fatso.ma,IE,Europe,Northern Europe,Ireland,Leinster,,Dublin
34.242.241.42,4,2,fatso.ma,IE,Europe,Northern Europe,Ireland,Leinster,,Dublin
52.51.10.248,4,4,feedmeonline.co.uk,IE,Europe,Northern Europe,Ireland,Leinster,,Dublin
52.51.158.64,4,7,feedmeonline.co.uk,IE,Europe,Northern Europe,Ireland,Leinster,,Dublin
34.253.103.230,4,6,feedmeonline.co.uk,IE,Europe,Northern Europe,Ireland,Leinster,,Dublin
81.17.254.14,4,65,festihutireland.com,IE,Europe,Northern Europe,Ireland,Leinster,,Dublin
91.210.232.245,4,18,fft.ie,IE,Europe,Northern Europe,Ireland,Leinster,,Dublin
52.208.6.70,4,32,fibo.guru,IE,Europe,Northern Europe,Ireland,Leinster,,Dublin
34.246.27.236,4,19,filmhuisdenhaag.nl,IE,Europe,Northern Europe,Ireland,Leinster,,Dublin
78.153.210.8,4,78,filmireland.net,IE,Europe,Northern Europe,Ireland,Leinster,,Dublin
81.17.254.28,4,4,firestation.ie,IE,Europe,Northern Europe,Ireland,Leinster,,Dublin
78.153.201.162,4,4,fleadhcheoil.ie,IE,Europe,Northern Europe,Ireland,Leinster,,Dublin
54.74.251.184,4,13,flyer.be,IE,Europe,Northern Europe,Ireland,Leinster,,Dublin
54.77.14.57,4,3,flymaster.net,IE,Europe,Northern Europe,Ireland,Leinster,,Dublin
52.50.200.74,4,129,foodweb.it,IE,Europe,Northern Europe,Ireland,Leinster,,Dublin
52.16.158.28,4,80,foodweb.it,IE,Europe,Northern Europe,Ireland,Leinster,,Dublin
79.125.88.164,4,52,foodweb.it,IE,Europe,Northern Europe,Ireland,Leinster,,Dublin
54.77.33.189,4,14,freeads.co.uk,IE,Europe,Northern Europe,Ireland,Leinster,,Dublin
78.153.213.9,4,24,from-ireland.net,IE,Europe,Northern Europe,Ireland,Leinster,,Dublin
34.252.191.229,4,5,fundernation.eu,IE,Europe,Northern Europe,Ireland,Leinster,,Dublin
18.202.109.234,4,7,fundernation.eu,IE,Europe,Northern Europe,Ireland,Leinster,,Dublin
78.153.220.143,4,32,gaietytheatre.ie,IE,Europe,Northern Europe,Ireland,Leinster,,Dublin
78.153.200.90,4,340,galway-ireland.ie,IE,Europe,Northern Europe,Ireland,Leinster,,Dublin
52.17.155.91,4,3,galwaybaybrewery.com,IE,Europe,Northern Europe,Ireland,Leinster,,Dublin
217.115.112.200,4,4,galwayheatingplumbing.ie,IE,Europe,Northern Europe,Ireland,Leinster,,Dublin
95.100.98.121,4,28,gasnetworks.ie,IE,Europe,Northern Europe,Ireland,Leinster,,Dublin
95.100.98.122,4,35,gasnetworks.ie,IE,Europe,Northern Europe,Ireland,Leinster,,Dublin
2.19.176.96,4,32,generalion.es,IE,Europe,Northern Europe,Ireland,Leinster,,Dublin
2.19.176.83,4,14,generalion.es,IE,Europe,Northern Europe,Ireland,Leinster,,Dublin
54.228.183.169,4,62,giacomini.com,IE,Europe,Northern Europe,Ireland,Leinster,,Dublin
52.48.41.66,4,29,giga.global,IE,Europe,Northern Europe,Ireland,Leinster,,Dublin
91.210.235.187,4,92,giy.ie,IE,Europe,Northern Europe,Ireland,Leinster,,Dublin
52.209.47.154,4,8,globehunters.com,IE,Europe,Northern Europe,Ireland,Leinster,,Dublin
54.229.72.157,4,22,globehunters.com,IE,Europe,Northern Europe,Ireland,Leinster,,Dublin
54.217.181.243,4,17,glue.work,IE,Europe,Northern Europe,Ireland,Leinster,,Dublin
185.224.197.130,4,6,gocar.ie,IE,Europe,Northern Europe,Ireland,Leinster,,Dublin
54.194.215.249,4,6,goedkopevliegtickets.nl,IE,Europe,Northern Europe,Ireland,Leinster,,Dublin
185.224.197.133,4,36,goldenplec.com,IE,Europe,Northern Europe,Ireland,Leinster,,Dublin
91.210.235.112,4,-2,greennews.ie,IE,Europe,Northern Europe,Ireland,Leinster,,Dublin
34.245.99.7,4,24,growthdevil.com,IE,Europe,Northern Europe,Ireland,Leinster,,Dublin
54.195.149.122,4,20,habitissimo.com.mx,IE,Europe,Northern Europe,Ireland,Leinster,,Dublin
18.203.176.9,4,66,habitissimo.es,IE,Europe,Northern Europe,Ireland,Leinster,,Dublin
52.18.69.138,4,75,habitissimo.it,IE,Europe,Northern Europe,Ireland,Leinster,,Dublin
54.246.6.252,4,3,haraj.io,IE,Europe,Northern Europe,Ireland,Leinster,,Dublin
34.252.131.117,4,32,haraj.io,IE,Europe,Northern Europe,Ireland,Leinster,,Dublin
54.195.211.215,4,19,heembouw.nl,IE,Europe,Northern Europe,Ireland,Leinster,,Dublin
54.220.72.229,4,10,herozerogame.com,IE,Europe,Northern Europe,Ireland,Leinster,,Dublin
34.249.179.132,4,8,herozerogame.com,IE,Europe,Northern Europe,Ireland,Leinster,,Dublin
54.217.34.182,4,29,highstakesdb.com,IE,Europe,Northern Europe,Ireland,Leinster,,Dublin
185.224.198.153,4,3,historyireland.com,IE,Europe,Northern Europe,Ireland,Leinster,,Dublin
78.153.200.64,4,464,hivireland.ie,IE,Europe,Northern Europe,Ireland,Leinster,,Dublin
190.180.145.36,4,4,hollythehedgehog.blog,IE,Europe,Northern Europe,Ireland,Leinster,,Dublin
54.76.40.173,4,47,homeopathy-soh.org,IE,Europe,Northern Europe,Ireland,Leinster,,Dublin
91.210.235.10,4,-423,horgans.com,IE,Europe,Northern Europe,Ireland,Leinster,,Dublin
99.80.124.148,4,21,hughes.co.uk,IE,Europe,Northern Europe,Ireland,Leinster,,Dublin
52.18.244.199,4,3,hughes.co.uk,IE,Europe,Northern Europe,Ireland,Leinster,,Dublin
54.171.237.196,4,6,humanrights.is,IE,Europe,Northern Europe,Ireland,Leinster,,Dublin
91.210.235.55,4,4,iaba.ie,IE,Europe,Northern Europe,Ireland,Leinster,,Dublin
212.126.59.52,4,13,iadh.org,IE,Europe,Northern Europe,Ireland,Leinster,,Dublin
52.18.224.23,4,4,iart.ch,IE,Europe,Northern Europe,Ireland,Leinster,,Dublin
5.149.175.98,4,16,ibat.ie,IE,Europe,Northern Europe,Ireland,Leinster,,Dublin
54.76.32.59,4,6,icelandairhotels.com,IE,Europe,Northern Europe,Ireland,Leinster,,Dublin
34.250.109.148,4,32,icsu.org,IE,Europe,Northern Europe,Ireland,Leinster,,Dublin
52.209.3.224,4,28,idrinks.hu,IE,Europe,Northern Europe,Ireland,Leinster,,Dublin
34.251.3.54,4,-264949,iebalearics.org,IE,Europe,Northern Europe,Ireland,Leinster,,Dublin
217.115.113.32,4,11,ifta.ie,IE,Europe,Northern Europe,Ireland,Leinster,,Dublin
91.210.235.28,4,5,ika.ie,IE,Europe,Northern Europe,Ireland,Leinster,,Dublin
78.153.209.14,4,67,ilfdublin.com,IE,Europe,Northern Europe,Ireland,Leinster,,Dublin
63.33.226.71,4,4,infinix.club,IE,Europe,Northern Europe,Ireland,Leinster,,Dublin
54.170.203.160,4,33,infinix.club,IE,Europe,Northern Europe,Ireland,Leinster,,Dublin
78.153.210.16,4,4,insidergrowth.com,IE,Europe,Northern Europe,Ireland,Leinster,,Dublin
52.49.125.110,4,9,internationaldrivingpermit.org,IE,Europe,Northern Europe,Ireland,Leinster,,Dublin
54.246.183.96,4,3,ipxe.org,IE,Europe,Northern Europe,Ireland,Leinster,,Dublin
217.115.115.168,4,73,ireland-guide.com,IE,Europe,Northern Europe,Ireland,Leinster,,Dublin
217.115.123.31,4,4,irishbuildingmagazine.ie,IE,Europe,Northern Europe,Ireland,Leinster,,Dublin
81.17.241.90,4,-284,irisheconomy.ie,IE,Europe,Northern Europe,Ireland,Leinster,,Dublin
23.72.36.34,4,111,ironsrc.com,IE,Europe,Northern Europe,Ireland,Leinster,,Dublin
54.76.181.149,4,2,isero.nl,IE,Europe,Northern Europe,Ireland,Leinster,,Dublin
54.77.180.215,4,11,itel-mobile.com,IE,Europe,Northern Europe,Ireland,Leinster,,Dublin
34.242.92.222,4,11,itel-mobile.com,IE,Europe,Northern Europe,Ireland,Leinster,,Dublin
52.31.176.192,4,3,itel-mobile.com,IE,Europe,Northern Europe,Ireland,Leinster,,Dublin
91.210.235.12,4,203,iwdg.ie,IE,Europe,Northern Europe,Ireland,Leinster,,Dublin
91.210.235.245,4,23,jameswhelanbutchers.com,IE,Europe,Northern Europe,Ireland,Leinster,,Dublin
185.224.198.6,4,23,johnsiskandson.com,IE,Europe,Northern Europe,Ireland,Leinster,,Dublin
78.153.220.6,4,3,justbeecc.ie,IE,Europe,Northern Europe,Ireland,Leinster,,Dublin
52.19.215.217,4,3,keadventure.com,IE,Europe,Northern Europe,Ireland,Leinster,,Dublin
52.51.2.65,4,32,keepcool.fr,IE,Europe,Northern Europe,Ireland,Leinster,,Dublin
34.248.222.161,4,4,keepcool.fr,IE,Europe,Northern Europe,Ireland,Leinster,,Dublin
54.75.5.221,4,5,keepcool.fr,IE,Europe,Northern Europe,Ireland,Leinster,,Dublin
78.153.201.104,4,4,kennys.ie,IE,Europe,Northern Europe,Ireland,Leinster,,Dublin
54.194.111.33,4,2,kenyabuzz.com,IE,Europe,Northern Europe,Ireland,Leinster,,Dublin
63.32.142.77,4,2,kenyabuzz.com,IE,Europe,Northern Europe,Ireland,Leinster,,Dublin
54.229.81.96,4,1,kenyabuzz.com,IE,Europe,Northern Europe,Ireland,Leinster,,Dublin
52.212.194.224,4,3,kidneynews.org,IE,Europe,Northern Europe,Ireland,Leinster,,Dublin
54.216.97.103,4,3,kidneynews.org,IE,Europe,Northern Europe,Ireland,Leinster,,Dublin
3.248.20.194,4,20,knockshrine.ie,IE,Europe,Northern Europe,Ireland,Leinster,,Dublin
81.17.255.244,4,3,kwopticians.ie,IE,Europe,Northern Europe,Ireland,Leinster,,Dublin
91.210.235.234,4,15,lahinchartgallery.com,IE,Europe,Northern Europe,Ireland,Leinster,,Dublin
212.126.59.70,4,6,lakeland.ie,IE,Europe,Northern Europe,Ireland,Leinster,,Dublin
78.153.200.129,4,1179,laois.ie,IE,Europe,Northern Europe,Ireland,Leinster,,Dublin
78.153.209.13,4,21,leitrimtourism.com,IE,Europe,Northern Europe,Ireland,Leinster,,Dublin
34.246.86.216,4,122,lesterrassesduport.com,IE,Europe,Northern Europe,Ireland,Leinster,,Dublin
18.200.105.160,4,4,lhg.is,IE,Europe,Northern Europe,Ireland,Leinster,,Dublin
99.81.124.250,4,6,lhg.is,IE,Europe,Northern Europe,Ireland,Leinster,,Dublin
91.210.235.142,4,-19,limetreetheatre.ie,IE,Europe,Northern Europe,Ireland,Leinster,,Dublin
54.171.172.148,4,37,lojapm.pt,IE,Europe,Northern Europe,Ireland,Leinster,,Dublin
34.255.150.36,4,18,lolmarkt.hu,IE,Europe,Northern Europe,Ireland,Leinster,,Dublin
52.31.211.235,4,74,lowcostairlines.nl,IE,Europe,Northern Europe,Ireland,Leinster,,Dublin
190.180.145.98,4,7,lpg.ie,IE,Europe,Northern Europe,Ireland,Leinster,,Dublin
52.19.190.108,4,115,luettelomedia.fi,IE,Europe,Northern Europe,Ireland,Leinster,,Dublin
63.32.235.49,4,12,ma-web.nl,IE,Europe,Northern Europe,Ireland,Leinster,,Dublin
91.210.232.110,4,-189,mackers.com,IE,Europe,Northern Europe,Ireland,Leinster,,Dublin
91.210.235.8,4,284,maguireelectrical.ie,IE,Europe,Northern Europe,Ireland,Leinster,,Dublin
54.155.196.188,4,37,mamchenkov.net,IE,Europe,Northern Europe,Ireland,Leinster,,Dublin
91.210.235.23,4,32,mariner.ie,IE,Europe,Northern Europe,Ireland,Leinster,,Dublin
78.153.214.30,4,45,marykelledy.com,IE,Europe,Northern Europe,Ireland,Leinster,,Dublin
190.180.145.29,4,7,mathaware.org,IE,Europe,Northern Europe,Ireland,Leinster,,Dublin
54.76.241.244,4,6,mattmillman.com,IE,Europe,Northern Europe,Ireland,Leinster,,Dublin
78.153.218.36,4,8,mcnamee.ie,IE,Europe,Northern Europe,Ireland,Leinster,,Dublin
81.17.241.121,4,-221,megalithicireland.com,IE,Europe,Northern Europe,Ireland,Leinster,,Dublin
18.202.96.220,4,3,melkweg.nl,IE,Europe,Northern Europe,Ireland,Leinster,,Dublin
34.247.202.247,4,4,melkweg.nl,IE,Europe,Northern Europe,Ireland,Leinster,,Dublin
78.153.200.107,4,19,mhc.ie,IE,Europe,Northern Europe,Ireland,Leinster,,Dublin
34.247.20.49,4,25,micolet.com,IE,Europe,Northern Europe,Ireland,Leinster,,Dublin
52.213.32.224,4,24,micolet.com,IE,Europe,Northern Europe,Ireland,Leinster,,Dublin
34.254.169.68,4,11,micolet.com,IE,Europe,Northern Europe,Ireland,Leinster,,Dublin
54.229.50.225,4,38,mitsuba-renderer.org,IE,Europe,Northern Europe,Ireland,Leinster,,Dublin
78.153.200.108,4,1238,monaghan.ie,IE,Europe,Northern Europe,Ireland,Leinster,,Dublin
91.210.235.165,4,237,moneyguideireland.com,IE,Europe,Northern Europe,Ireland,Leinster,,Dublin
52.19.134.54,4,10,moneytrans.eu,IE,Europe,Northern Europe,Ireland,Leinster,,Dublin
52.18.12.119,4,19,mostphotos.com,IE,Europe,Northern Europe,Ireland,Leinster,,Dublin
34.248.109.244,4,6,mostphotos.com,IE,Europe,Northern Europe,Ireland,Leinster,,Dublin
54.216.122.129,4,8,mostphotos.com,IE,Europe,Northern Europe,Ireland,Leinster,,Dublin
78.153.201.228,4,2,motorcheck.ie,IE,Europe,Northern Europe,Ireland,Leinster,,Dublin
52.31.8.231,4,12,mountainduck.io,IE,Europe,Northern Europe,Ireland,Leinster,,Dublin
78.153.209.22,4,1,movies.ie,IE,Europe,Northern Europe,Ireland,Leinster,,Dublin
78.153.214.29,4,6,mulley.net,IE,Europe,Northern Europe,Ireland,Leinster,,Dublin
91.210.232.155,4,33,munster-express.ie,IE,Europe,Northern Europe,Ireland,Leinster,,Dublin
34.252.137.227,4,24,museeherge.com,IE,Europe,Northern Europe,Ireland,Leinster,,Dublin
54.228.17.197,4,2,museumpassmusees.be,IE,Europe,Northern Europe,Ireland,Leinster,,Dublin
63.33.251.114,4,23,museumpassmusees.be,IE,Europe,Northern Europe,Ireland,Leinster,,Dublin
52.215.228.249,4,33,museumpassmusees.be,IE,Europe,Northern Europe,Ireland,Leinster,,Dublin
91.210.232.190,4,-836,musicmadeeasy.ie,IE,Europe,Northern Europe,Ireland,Leinster,,Dublin
18.201.1.130,4,60,myjetbrains.com,IE,Europe,Northern Europe,Ireland,Leinster,,Dublin
185.224.196.112,4,32,mytown.ie,IE,Europe,Northern Europe,Ireland,Leinster,,Dublin
54.171.50.95,4,10,n8.nl,IE,Europe,Northern Europe,Ireland,Leinster,,Dublin
54.229.216.29,4,4,nachtvandevluchteling.nl,IE,Europe,Northern Europe,Ireland,Leinster,,Dublin
54.228.150.58,4,47,naturetrek.co.uk,IE,Europe,Northern Europe,Ireland,Leinster,,Dublin
52.49.255.120,4,10,newengineer.com,IE,Europe,Northern Europe,Ireland,Leinster,,Dublin
217.115.115.25,4,9,newgrange.com,IE,Europe,Northern Europe,Ireland,Leinster,,Dublin
78.153.220.132,4,3,nigerianelections2019.com,IE,Europe,Northern Europe,Ireland,Leinster,,Dublin
108.129.42.33,4,14,nlr.no,IE,Europe,Northern Europe,Ireland,Leinster,,Dublin
78.153.205.97,4,21,ntma.ie,IE,Europe,Northern Europe,Ireland,Leinster,,Dublin
217.115.119.179,4,5,nua.ie,IE,Europe,Northern Europe,Ireland,Leinster,,Dublin
52.19.84.177,4,8,oceanr.co,IE,Europe,Northern Europe,Ireland,Leinster,,Dublin
176.34.128.201,4,4,onreg.com,IE,Europe,Northern Europe,Ireland,Leinster,,Dublin
99.80.51.114,4,36,onweb.it,IE,Europe,Northern Europe,Ireland,Leinster,,Dublin
78.153.202.36,4,317,Ookla Speedtest Server 4604: speedtest1.blacknight.ie,IE,Europe,Northern Europe,Ireland,Leinster,,Dublin
185.159.51.40,4,161,Ookla Speedtest Server 55324: dub.speedtest.warian.net,IE,Europe,Northern Europe,Ireland,Leinster,,Dublin
159.134.235.66,4,331,Ookla Speedtest Server 58482: speedtest1.eir.ie,IE,Europe,Northern Europe,Ireland,Leinster,,Dublin
54.155.194.80,4,71,openbookpublishers.com,IE,Europe,Northern Europe,Ireland,Leinster,,Dublin
52.210.78.67,4,3,openbookpublishers.com,IE,Europe,Northern Europe,Ireland,Leinster,,Dublin
99.81.238.190,4,4,openbravo.com,IE,Europe,Northern Europe,Ireland,Leinster,,Dublin
52.214.151.240,4,3,optical-center.fr,IE,Europe,Northern Europe,Ireland,Leinster,,Dublin
34.246.177.209,4,27,oraimo.com,IE,Europe,Northern Europe,Ireland,Leinster,,Dublin
34.249.63.169,4,66,orbitvu.co,IE,Europe,Northern Europe,Ireland,Leinster,,Dublin
54.194.164.119,4,1,orbitvu.co,IE,Europe,Northern Europe,Ireland,Leinster,,Dublin
54.73.144.46,4,4,ornitologia.org,IE,Europe,Northern Europe,Ireland,Leinster,,Dublin
52.210.65.254,4,3,ornitologia.org,IE,Europe,Northern Europe,Ireland,Leinster,,Dublin
78.153.220.140,4,37,osullivanengineeringandfabrication.com,IE,Europe,Northern Europe,Ireland,Leinster,,Dublin
34.254.71.233,4,3,outplayed.com,IE,Europe,Northern Europe,Ireland,Leinster,,Dublin
46.51.129.25,4,2,outplayed.com,IE,Europe,Northern Europe,Ireland,Leinster,,Dublin
52.215.141.185,4,3,outplayed.com,IE,Europe,Northern Europe,Ireland,Leinster,,Dublin
63.32.100.99,4,3,paddywagontours.com,IE,Europe,Northern Europe,Ireland,Leinster,,Dublin
54.195.139.60,4,20,palisis.com,IE,Europe,Northern Europe,Ireland,Leinster,,Dublin
52.209.249.52,4,83,partmaster.co.uk,IE,Europe,Northern Europe,Ireland,Leinster,,Dublin
34.249.56.0,4,46,patchplants.com,IE,Europe,Northern Europe,Ireland,Leinster,,Dublin
54.217.121.172,4,46,patchplants.com,IE,Europe,Northern Europe,Ireland,Leinster,,Dublin
18.202.185.250,4,3,pearselyonsdistillery.com,IE,Europe,Northern Europe,Ireland,Leinster,,Dublin
52.30.255.149,4,3,personal-loans.info,IE,Europe,Northern Europe,Ireland,Leinster,,Dublin
78.153.220.139,4,3,pexlify.com,IE,Europe,Northern Europe,Ireland,Leinster,,Dublin
52.16.228.43,4,23,phe.es,IE,Europe,Northern Europe,Ireland,Leinster,,Dublin
52.16.160.11,4,5,physicsweb.org,IE,Europe,Northern Europe,Ireland,Leinster,,Dublin
63.32.67.138,4,13,pietroichino.it,IE,Europe,Northern Europe,Ireland,Leinster,,Dublin
78.153.213.58,4,11,poetryireland.ie,IE,Europe,Northern Europe,Ireland,Leinster,,Dublin
34.243.200.131,4,-652,ponroy.com,IE,Europe,Northern Europe,Ireland,Leinster,,Dublin
3.248.38.24,4,16,pow.io,IE,Europe,Northern Europe,Ireland,Leinster,,Dublin
63.33.173.191,4,16,pow.io,IE,Europe,Northern Europe,Ireland,Leinster,,Dublin
54.77.111.185,4,66,primoevents.com,IE,Europe,Northern Europe,Ireland,Leinster,,Dublin
78.153.219.16,4,31,princeaugust.ie,IE,Europe,Northern Europe,Ireland,Leinster,,Dublin
52.19.148.205,4,3,proprioo.fr,IE,Europe,Northern Europe,Ireland,Leinster,,Dublin
52.214.5.162,4,55,proprioo.fr,IE,Europe,Northern Europe,Ireland,Leinster,,Dublin
52.210.157.24,4,14,proprioo.fr,IE,Europe,Northern Europe,Ireland,Leinster,,Dublin
34.246.164.131,4,7,propstore.com,IE,Europe,Northern Europe,Ireland,Leinster,,Dublin
54.154.69.129,4,43,propstore.com,IE,Europe,Northern Europe,Ireland,Leinster,,Dublin
54.72.249.82,4,51,publons.com,IE,Europe,Northern Europe,Ireland,Leinster,,Dublin
91.210.232.135,4,3,puckfair.ie,IE,Europe,Northern Europe,Ireland,Leinster,,Dublin
91.210.232.100,4,-99,queenoftarts.ie,IE,Europe,Northern Europe,Ireland,Leinster,,Dublin
54.154.185.246,4,3,railtrack.co.uk,IE,Europe,Northern Europe,Ireland,Leinster,,Dublin
52.48.165.109,4,47,railtrack.co.uk,IE,Europe,Northern Europe,Ireland,Leinster,,Dublin
54.154.122.174,4,40,rannis.is,IE,Europe,Northern Europe,Ireland,Leinster,,Dublin
54.72.105.112,4,43,rannis.is,IE,Europe,Northern Europe,Ireland,Leinster,,Dublin
34.255.74.215,4,29,ravpage.co.il,IE,Europe,Northern Europe,Ireland,Leinster,,Dublin
54.73.233.135,4,11,ray.fi,IE,Europe,Northern Europe,Ireland,Leinster,,Dublin
46.137.152.112,4,7,ray.fi,IE,Europe,Northern Europe,Ireland,Leinster,,Dublin
78.153.210.11,4,5,rdfs.org,IE,Europe,Northern Europe,Ireland,Leinster,,Dublin
81.17.255.144,4,9,redflymarketing.com,IE,Europe,Northern Europe,Ireland,Leinster,,Dublin
34.247.212.185,4,32,reflexshop.hu,IE,Europe,Northern Europe,Ireland,Leinster,,Dublin
78.153.213.18,4,10,restaurantpatrickguilbaud.ie,IE,Europe,Northern Europe,Ireland,Leinster,,Dublin
52.214.16.105,4,2,roadtoielts.com,IE,Europe,Northern Europe,Ireland,Leinster,,Dublin
54.216.80.170,4,17,roadtoielts.com,IE,Europe,Northern Europe,Ireland,Leinster,,Dublin
52.51.162.56,4,18,roadtoielts.com,IE,Europe,Northern Europe,Ireland,Leinster,,Dublin
79.125.9.132,4,6,safecreative.org,IE,Europe,Northern Europe,Ireland,Leinster,,Dublin
78.153.214.22,4,23,safeireland.ie,IE,Europe,Northern Europe,Ireland,Leinster,,Dublin
54.228.80.64,4,4,saint-maclou.com,IE,Europe,Northern Europe,Ireland,Leinster,,Dublin
81.17.254.41,4,7,salmonpoetry.com,IE,Europe,Northern Europe,Ireland,Leinster,,Dublin
52.213.218.248,4,3,sara.it,IE,Europe,Northern Europe,Ireland,Leinster,,Dublin
52.210.139.221,4,21,sara.it,IE,Europe,Northern Europe,Ireland,Leinster,,Dublin
52.50.80.126,4,3,saysomethingin.com,IE,Europe,Northern Europe,Ireland,Leinster,,Dublin
78.153.205.98,4,4,sbci.gov.ie,IE,Europe,Northern Europe,Ireland,Leinster,,Dublin
52.214.234.153,4,16,scalefree.net,IE,Europe,Northern Europe,Ireland,Leinster,,Dublin
52.31.25.12,4,8770,schoeningh.de,IE,Europe,Northern Europe,Ireland,Leinster,,Dublin
46.51.207.231,4,7,schooljotter.com,IE,Europe,Northern Europe,Ireland,Leinster,,Dublin
52.17.143.238,4,45,schwacke.de,IE,Europe,Northern Europe,Ireland,Leinster,,Dublin
52.215.26.102,4,2,schwacke.de,IE,Europe,Northern Europe,Ireland,Leinster,,Dublin
52.213.137.166,4,5,screenweek.it,IE,Europe,Northern Europe,Ireland,Leinster,,Dublin
13.74.80.76,4,3,secowarwick.com,IE,Europe,Northern Europe,Ireland,Leinster,,Dublin
52.31.227.103,4,2,seikan.cz,IE,Europe,Northern Europe,Ireland,Leinster,,Dublin
78.153.200.32,4,7,sensationalkids.ie,IE,Europe,Northern Europe,Ireland,Leinster,,Dublin
78.153.214.16,4,2,shopforbusiness.net,IE,Europe,Northern Europe,Ireland,Leinster,,Dublin
78.153.216.15,4,12,showbizireland.com,IE,Europe,Northern Europe,Ireland,Leinster,,Dublin
91.210.235.240,4,117,siamsatire.com,IE,Europe,Northern Europe,Ireland,Leinster,,Dublin
34.246.70.232,4,6,sigbi.org,IE,Europe,Northern Europe,Ireland,Leinster,,Dublin
78.153.213.17,4,2,sioc-project.org,IE,Europe,Northern Europe,Ireland,Leinster,,Dublin
54.72.172.58,4,2,siteheart.com,IE,Europe,Northern Europe,Ireland,Leinster,,Dublin
52.215.130.185,4,2,siteheart.com,IE,Europe,Northern Europe,Ireland,Leinster,,Dublin
54.216.112.33,4,3,siteheart.com,IE,Europe,Northern Europe,Ireland,Leinster,,Dublin
185.224.198.131,4,0,smartdublin.ie,IE,Europe,Northern Europe,Ireland,Leinster,,Dublin
38.180.21.182,4,-30,smixer.ru,IE,Europe,Northern Europe,Ireland,Leinster,,Dublin
78.153.200.49,4,236,southeastradio.ie,IE,Europe,Northern Europe,Ireland,Leinster,,Dublin
54.228.135.159,4,4,spectrum.life,IE,Europe,Northern Europe,Ireland,Leinster,,Dublin
52.164.210.13,4,8,spyro-soft.com,IE,Europe,Northern Europe,Ireland,Leinster,,Dublin
78.153.205.203,4,10,srdefenders.org,IE,Europe,Northern Europe,Ireland,Leinster,,Dublin
81.17.255.248,4,5,st-patricks-day.com,IE,Europe,Northern Europe,Ireland,Leinster,,Dublin
78.153.220.142,4,95,staffordbonded.com,IE,Europe,Northern Europe,Ireland,Leinster,,Dublin
78.153.210.27,4,24,stepasidemedical.com,IE,Europe,Northern Europe,Ireland,Leinster,,Dublin
78.153.216.219,4,22,stovespareparts.ie,IE,Europe,Northern Europe,Ireland,Leinster,,Dublin
91.210.232.210,4,27,stpatsfc.com,IE,Europe,Northern Europe,Ireland,Leinster,,Dublin
63.33.83.119,4,3,street.co.uk,IE,Europe,Northern Europe,Ireland,Leinster,,Dublin
63.35.173.191,4,3,street.co.uk,IE,Europe,Northern Europe,Ireland,Leinster,,Dublin
63.34.41.170,4,34,street.co.uk,IE,Europe,Northern Europe,Ireland,Leinster,,Dublin
52.50.121.213,4,14,streetspotr.com,IE,Europe,Northern Europe,Ireland,Leinster,,Dublin
23.216.154.178,4,12,supersonic.com,IE,Europe,Northern Europe,Ireland,Leinster,,Dublin
78.153.218.32,4,14,supremefoaminsulation.ie,IE,Europe,Northern Europe,Ireland,Leinster,,Dublin
52.30.129.243,4,34,sva.nl,IE,Europe,Northern Europe,Ireland,Leinster,,Dublin
78.153.218.39,4,4,svp.ie,IE,Europe,Northern Europe,Ireland,Leinster,,Dublin
54.73.193.74,4,3,t37.net,IE,Europe,Northern Europe,Ireland,Leinster,,Dublin
81.17.255.246,4,7,taichiclassescork.com,IE,Europe,Northern Europe,Ireland,Leinster,,Dublin
78.153.200.144,4,688,taoglas.com,IE,Europe,Northern Europe,Ireland,Leinster,,Dublin
34.250.223.226,4,4,tapperfuneralservice.co.uk,IE,Europe,Northern Europe,Ireland,Leinster,,Dublin
52.214.64.70,4,6,teamdeck.io,IE,Europe,Northern Europe,Ireland,Leinster,,Dublin
63.32.40.86,4,20,teamdeck.io,IE,Europe,Northern Europe,Ireland,Leinster,,Dublin
34.248.0.136,4,109,tecno.com,IE,Europe,Northern Europe,Ireland,Leinster,,Dublin
63.34.148.57,4,4,tecno.com,IE,Europe,Northern Europe,Ireland,Leinster,,Dublin
52.18.199.202,4,58,tecno.com,IE,Europe,Northern Europe,Ireland,Leinster,,Dublin
52.213.51.60,4,30,teleroute.com,IE,Europe,Northern Europe,Ireland,Leinster,,Dublin
185.224.196.140,4,2,thechurch.ie,IE,Europe,Northern Europe,Ireland,Leinster,,Dublin
78.153.210.24,4,7,thedailyspud.com,IE,Europe,Northern Europe,Ireland,Leinster,,Dublin
81.17.254.13,4,4,thefumbally.ie,IE,Europe,Northern Europe,Ireland,Leinster,,Dublin
78.153.220.133,4,3,thegeocachingjunkie.com,IE,Europe,Northern Europe,Ireland,Leinster,,Dublin
185.224.197.37,4,1,thelettervsixtim.es,IE,Europe,Northern Europe,Ireland,Leinster,,Dublin
52.208.26.7,4,2,thiememeulenhoff.nl,IE,Europe,Northern Europe,Ireland,Leinster,,Dublin
78.153.220.10,4,3,tht.ie,IE,Europe,Northern Europe,Ireland,Leinster,,Dublin
190.180.145.25,4,14,tichytaleproductions.com,IE,Europe,Northern Europe,Ireland,Leinster,,Dublin
52.209.73.119,4,37,tintin.com,IE,Europe,Northern Europe,Ireland,Leinster,,Dublin
91.210.235.171,4,4,titanicexperiencecobh.ie,IE,Europe,Northern Europe,Ireland,Leinster,,Dublin
54.229.66.10,4,9,tonecor.com,IE,Europe,Northern Europe,Ireland,Leinster,,Dublin
34.254.115.109,4,13,tourduals.nl,IE,Europe,Northern Europe,Ireland,Leinster,,Dublin
3.251.102.218,4,21,tourduals.nl,IE,Europe,Northern Europe,Ireland,Leinster,,Dublin
34.251.221.236,4,46,tourduals.nl,IE,Europe,Northern Europe,Ireland,Leinster,,Dublin
52.210.63.243,4,3,trabajo.org,IE,Europe,Northern Europe,Ireland,Leinster,,Dublin
63.32.194.65,4,3,trabajo.org,IE,Europe,Northern Europe,Ireland,Leinster,,Dublin
34.253.98.26,4,7,traceparts.com,IE,Europe,Northern Europe,Ireland,Leinster,,Dublin
194.26.213.222,4,3,trafalgar.com.hk,IE,Europe,Northern Europe,Ireland,Leinster,,Dublin
99.81.108.230,4,6,trakm8.com,IE,Europe,Northern Europe,Ireland,Leinster,,Dublin
52.30.114.147,4,38,trendstop.com,IE,Europe,Northern Europe,Ireland,Leinster,,Dublin
78.153.218.29,4,19,tribune.ie,IE,Europe,Northern Europe,Ireland,Leinster,,Dublin
54.247.121.205,4,43,trilithium.com,IE,Europe,Northern Europe,Ireland,Leinster,,Dublin
52.209.21.20,4,3,ue.no,IE,Europe,Northern Europe,Ireland,Leinster,,Dublin
3.248.14.99,4,4,uitinvlaanderen.be,IE,Europe,Northern Europe,Ireland,Leinster,,Dublin
34.253.252.53,4,3,uitinvlaanderen.be,IE,Europe,Northern Europe,Ireland,Leinster,,Dublin
54.77.103.243,4,4,uitinvlaanderen.be,IE,Europe,Northern Europe,Ireland,Leinster,,Dublin
54.220.231.169,4,37,ukcrimestats.com,IE,Europe,Northern Europe,Ireland,Leinster,,Dublin
184.27.108.137,4,16,unicredit.eu,IE,Europe,Northern Europe,Ireland,Leinster,,Dublin
23.38.172.136,4,8,unicredit.it,IE,Europe,Northern Europe,Ireland,Leinster,,Dublin
52.30.124.11,4,13,unisa-europa.com,IE,Europe,Northern Europe,Ireland,Leinster,,Dublin
78.153.210.28,4,3,upperchurchns.ie,IE,Europe,Northern Europe,Ireland,Leinster,,Dublin
185.224.198.163,4,4,usi.ie,IE,Europe,Northern Europe,Ireland,Leinster,,Dublin
34.246.212.120,4,50,vectra.pl,IE,Europe,Northern Europe,Ireland,Leinster,,Dublin
52.18.98.69,4,30,velo-antwerpen.be,IE,Europe,Northern Europe,Ireland,Leinster,,Dublin
18.203.216.19,4,5,veniam.com,IE,Europe,Northern Europe,Ireland,Leinster,,Dublin
52.209.81.188,4,2,vestmannaeyjar.is,IE,Europe,Northern Europe,Ireland,Leinster,,Dublin
52.48.55.82,4,2,vestmannaeyjar.is,IE,Europe,Northern Europe,Ireland,Leinster,,Dublin
34.240.248.244,4,11,vewd.com,IE,Europe,Northern Europe,Ireland,Leinster,,Dublin
34.246.217.250,4,18,villapardoes.nl,IE,Europe,Northern Europe,Ireland,Leinster,,Dublin
54.76.215.13,4,12,vincentsheppard.com,IE,Europe,Northern Europe,Ireland,Leinster,,Dublin
54.194.146.68,4,50,virtueelplatform.nl,IE,Europe,Northern Europe,Ireland,Leinster,,Dublin
52.19.46.82,4,127,visitakureyri.is,IE,Europe,Northern Europe,Ireland,Leinster,,Dublin
34.247.134.18,4,26,volt.io,IE,Europe,Northern Europe,Ireland,Leinster,,Dublin
79.125.11.224,4,65,volt.io,IE,Europe,Northern Europe,Ireland,Leinster,,Dublin
52.209.103.113,4,62,voltairediamonds.ie,IE,Europe,Northern Europe,Ireland,Leinster,,Dublin
52.16.233.139,4,17,webcamp.fr,IE,Europe,Northern Europe,Ireland,Leinster,,Dublin
217.115.112.25,4,17,webworld.ie,IE,Europe,Northern Europe,Ireland,Leinster,,Dublin
34.248.51.63,4,5,wellcome.org,IE,Europe,Northern Europe,Ireland,Leinster,,Dublin
52.49.138.181,4,3,westfjords.is,IE,Europe,Northern Europe,Ireland,Leinster,,Dublin
78.153.200.141,4,1015,wexfordcoco.ie,IE,Europe,Northern Europe,Ireland,Leinster,,Dublin
81.17.241.75,4,-605,wexfordparade.com,IE,Europe,Northern Europe,Ireland,Leinster,,Dublin
63.33.140.162,4,6,whatclinic.com,IE,Europe,Northern Europe,Ireland,Leinster,,Dublin
63.33.7.121,4,6,whatsup.es,IE,Europe,Northern Europe,Ireland,Leinster,,Dublin
78.153.209.15,4,4,wholesomeireland.com,IE,Europe,Northern Europe,Ireland,Leinster,,Dublin
52.17.209.228,4,1,wia.io,IE,Europe,Northern Europe,Ireland,Leinster,,Dublin
91.210.235.37,4,-224,wicklowway.com,IE,Europe,Northern Europe,Ireland,Leinster,,Dublin
34.255.133.217,4,42,williamgrant.com,IE,Europe,Northern Europe,Ireland,Leinster,,Dublin
52.31.128.125,4,3,williamgrant.com,IE,Europe,Northern Europe,Ireland,Leinster,,Dublin
54.76.26.212,4,5,williamgrant.com,IE,Europe,Northern Europe,Ireland,Leinster,,Dublin
80.93.17.176,4,6,winemax.ie,IE,Europe,Northern Europe,Ireland,Leinster,,Dublin
91.210.232.97,4,3,winterval.ie,IE,Europe,Northern Europe,Ireland,Leinster,,Dublin
78.153.209.32,4,2,workmall.com,IE,Europe,Northern Europe,Ireland,Leinster,,Dublin
52.210.164.252,4,3,world-airport-codes.com,IE,Europe,Northern Europe,Ireland,Leinster,,Dublin
54.76.220.123,4,14,world-airport-codes.com,IE,Europe,Northern Europe,Ireland,Leinster,,Dublin
52.48.171.69,4,4,world-airport-codes.com,IE,Europe,Northern Europe,Ireland,Leinster,,Dublin
52.16.238.141,4,9,worldbenchmarkingalliance.org,IE,Europe,Northern Europe,Ireland,Leinster,,Dublin
78.153.212.172,4,1176922,writersmuseum.com,IE,Europe,Northern Europe,Ireland,Leinster,,Dublin
54.77.33.4,4,2,xplace.com,IE,Europe,Northern Europe,Ireland,Leinster,,Dublin
52.211.222.89,4,3,xplace.com,IE,Europe,Northern Europe,Ireland,Leinster,,Dublin
52.51.100.62,4,3,xplace.com,IE,Europe,Northern Europe,Ireland,Leinster,,Dublin
52.164.206.56,4,2,zuneinsider.com,IE,Europe,Northern Europe,Ireland,Leinster,,Dublin
