reflector_ip,ip_version,offset,description,country_code,region,sub_region,country_name,sub_division_1,sub_division_2,city
136.144.254.47,4,68,abrahamart.com,NL,Europe,Western Europe,Netherlands,South Holland,,The Hague
136.144.243.115,4,5,afvalcontainerbestellen.nl,NL,Europe,Western Europe,Netherlands,South Holland,,The Hague
136.144.239.229,4,6,ambulancewens.nl,NL,Europe,Western Europe,Netherlands,South Holland,,The Hague
136.144.251.254,4,46,asrbouw.nl,NL,Europe,Western Europe,Netherlands,South Holland,,The Hague
136.144.251.236,4,7,atuna.com,NL,Europe,Western Europe,Netherlands,South Holland,,The Hague
136.144.227.56,4,14,beautyspot.nl,NL,Europe,Western Europe,Netherlands,South Holland,,The Hague
136.144.236.234,4,23,biografieportaal.nl,NL,Europe,Western Europe,Netherlands,South Holland,,The Hague
136.144.242.54,4,77,bisdom-roermond.nl,NL,Europe,Western Europe,Netherlands,South Holland,,The Hague
136.144.242.239,4,10,coolmark.nl,NL,Europe,Western Europe,Netherlands,South Holland,,The Hague
136.144.239.121,4,33,cyberpoli.nl,NL,Europe,Western Europe,Netherlands,South Holland,,The Hague
46.21.166.148,4,6,cyclingfever.com,NL,Europe,Western Europe,Netherlands,South Holland,,The Hague
217.100.187.236,4,5807,DNS Server: D964BBEC.static.ziggozakelijk.nl,NL,Europe,Western Europe,Netherlands,South Holland,,The Hague
46.21.171.193,4,52,DNS Server: no-record-set.datafiber.nl,NL,Europe,Western Europe,Netherlands,South Holland,,The Hague
136.144.235.253,4,3,ekbouwadvies.nl,NL,Europe,Western Europe,Netherlands,South Holland,,The Hague
136.144.242.224,4,72,ellisfaas.com,NL,Europe,Western Europe,Netherlands,South Holland,,The Hague
136.144.254.178,4,21,emble.nl,NL,Europe,Western Europe,Netherlands,South Holland,,The Hague
136.144.240.222,4,3,eoq.org,NL,Europe,Western Europe,Netherlands,South Holland,,The Hague
136.144.231.56,4,5,firenzecard.it,NL,Europe,Western Europe,Netherlands,South Holland,,The Hague
136.144.250.14,4,64,graszoden.nl,NL,Europe,Western Europe,Netherlands,South Holland,,The Hague
136.144.248.8,4,2,grys.it,NL,Europe,Western Europe,Netherlands,South Holland,,The Hague
136.144.246.7,4,2,ha-marketing.nl,NL,Europe,Western Europe,Netherlands,South Holland,,The Hague
136.144.238.186,4,4,haarlemmermeer.nl,NL,Europe,Western Europe,Netherlands,South Holland,,The Hague
136.144.229.215,4,40,horoscoop.nl,NL,Europe,Western Europe,Netherlands,South Holland,,The Hague
46.21.164.170,4,32,ipass.com,NL,Europe,Western Europe,Netherlands,South Holland,,The Hague
136.144.228.187,4,3,jlgrealestate.com,NL,Europe,Western Europe,Netherlands,South Holland,,The Hague
136.144.231.45,4,40,kinderfeestjes.nl,NL,Europe,Western Europe,Netherlands,South Holland,,The Hague
136.144.245.252,4,2,koppejanautomotive.nl,NL,Europe,Western Europe,Netherlands,South Holland,,The Hague
136.144.237.8,4,23,letselpro.nl,NL,Europe,Western Europe,Netherlands,South Holland,,The Hague
85.17.249.196,4,4,make-upstudio.com,NL,Europe,Western Europe,Netherlands,South Holland,,The Hague
136.144.241.225,4,17,mdfs.net,NL,Europe,Western Europe,Netherlands,South Holland,,The Hague
136.144.247.166,4,74,multatuli-museum.nl,NL,Europe,Western Europe,Netherlands,South Holland,,The Hague
136.144.226.139,4,18,nieman.nl,NL,Europe,Western Europe,Netherlands,South Holland,,The Hague
136.144.226.23,4,1,onepage.website,NL,Europe,Western Europe,Netherlands,South Holland,,The Hague
136.144.240.220,4,7,onl.nl,NL,Europe,Western Europe,Netherlands,South Holland,,The Hague
136.144.247.38,4,84,onlinebestrating.nl,NL,Europe,Western Europe,Netherlands,South Holland,,The Hague
136.144.248.48,4,14,opthoog.nl,NL,Europe,Western Europe,Netherlands,South Holland,,The Hague
136.144.248.41,4,12,puzzel.org,NL,Europe,Western Europe,Netherlands,South Holland,,The Hague
136.144.247.143,4,27,quantes.nl,NL,Europe,Western Europe,Netherlands,South Holland,,The Hague
136.144.241.88,4,16,rijndam.nl,NL,Europe,Western Europe,Netherlands,South Holland,,The Hague
136.144.251.144,4,17,rondomwerk.nl,NL,Europe,Western Europe,Netherlands,South Holland,,The Hague
136.144.252.110,4,18,rps.nl,NL,Europe,Western Europe,Netherlands,South Holland,,The Hague
136.144.231.146,4,3,schorembarbier.nl,NL,Europe,Western Europe,Netherlands,South Holland,,The Hague
136.144.237.132,4,6,sneeuwsport.info,NL,Europe,Western Europe,Netherlands,South Holland,,The Hague
136.144.248.181,4,73,speedtalk.com,NL,Europe,Western Europe,Netherlands,South Holland,,The Hague
136.144.231.213,4,6,studenthelpr.com,NL,Europe,Western Europe,Netherlands,South Holland,,The Hague
136.144.247.101,4,31,superknjizara.hr,NL,Europe,Western Europe,Netherlands,South Holland,,The Hague
136.144.245.195,4,16,telenord.it,NL,Europe,Western Europe,Netherlands,South Holland,,The Hague
136.144.232.173,4,3,treant.nl,NL,Europe,Western Europe,Netherlands,South Holland,,The Hague
136.144.250.174,4,3,trouweninnoordbrabant.nl,NL,Europe,Western Europe,Netherlands,South Holland,,The Hague
136.144.241.174,4,4,tx-keur.nl,NL,Europe,Western Europe,Netherlands,South Holland,,The Hague
136.144.235.38,4,3,vanleersum.nl,NL,Europe,Western Europe,Netherlands,South Holland,,The Hague
136.144.244.45,4,4,wereldwinkels.nl,NL,Europe,Western Europe,Netherlands,South Holland,,The Hague
136.144.238.168,4,12,wij.nl,NL,Europe,Western Europe,Netherlands,South Holland,,The Hague
136.144.239.104,4,7,zamsierbestrating.nl,NL,Europe,Western Europe,Netherlands,South Holland,,The Hague
