reflector_ip,ip_version,offset,description,country_code,region,sub_region,country_name,sub_division_1,sub_division_2,city
62.204.42.125,4,5,242.md,NL,Europe,Western Europe,Netherlands,South Holland,,Naaldwijk
185.18.52.85,4,8,aaa-logo.com,NL,Europe,Western Europe,Netherlands,South Holland,,Naaldwijk
185.177.127.96,4,8,anycount.com,NL,Europe,Western Europe,Netherlands,South Holland,,Naaldwijk
185.191.3.124,4,59,appsignal.com,NL,Europe,Western Europe,Netherlands,South Holland,,Naaldwijk
185.132.178.214,4,6,autentik.net,NL,Europe,Western Europe,Netherlands,South Holland,,Naaldwijk
185.183.33.9,4,86,aviationmegastore.com,NL,Europe,Western Europe,Netherlands,South Holland,,Naaldwijk
212.8.243.80,4,10,bbsradio.com,NL,Europe,Western Europe,Netherlands,South Holland,,Naaldwijk
80.79.6.142,4,80,bitedition.io,NL,Europe,Western Europe,Netherlands,South Holland,,Naaldwijk
217.23.10.94,4,17,bl3p.eu,NL,Europe,Western Europe,Netherlands,South Holland,,Naaldwijk
212.8.249.233,4,6,bloghub.com,NL,Europe,Western Europe,Netherlands,South Holland,,Naaldwijk
93.190.136.191,4,27,bookmate.com,NL,Europe,Western Europe,Netherlands,South Holland,,Naaldwijk
93.190.136.192,4,51,bookmate.com,NL,Europe,Western Europe,Netherlands,South Holland,,Naaldwijk
109.236.89.42,4,5,bronx.com,NL,Europe,Western Europe,Netherlands,South Holland,,Naaldwijk
93.190.140.87,4,3,byclickdownloader.com,NL,Europe,Western Europe,Netherlands,South Holland,,Naaldwijk
185.191.3.3,4,6,cannenburg.nl,NL,Europe,Western Europe,Netherlands,South Holland,,Naaldwijk
109.236.89.136,4,4,ccmixter.org,NL,Europe,Western Europe,Netherlands,South Holland,,Naaldwijk
190.2.133.122,4,54,checkra.in,NL,Europe,Western Europe,Netherlands,South Holland,,Naaldwijk
109.236.91.4,4,8,citywalls.ru,NL,Europe,Western Europe,Netherlands,South Holland,,Naaldwijk
185.173.160.143,4,4,cryptobrowser.site,NL,Europe,Western Europe,Netherlands,South Holland,,Naaldwijk
185.173.160.139,4,0,cryptobrowser.site,NL,Europe,Western Europe,Netherlands,South Holland,,Naaldwijk
185.173.160.142,4,0,cryptobrowser.site,NL,Europe,Western Europe,Netherlands,South Holland,,Naaldwijk
31.210.170.12,4,17,cy-pr.com,NL,Europe,Western Europe,Netherlands,South Holland,,Naaldwijk
23.137.249.99,4,-27944629,digdeeper.club,NL,Europe,Western Europe,Netherlands,South Holland,,Naaldwijk
217.23.5.10,4,-1,digits.net,NL,Europe,Western Europe,Netherlands,South Holland,,Naaldwijk
185.183.34.105,4,16,dimenno.nl,NL,Europe,Western Europe,Netherlands,South Holland,,Naaldwijk
91.232.105.138,4,0,DNS Server: 91-232-105-138.hosted-by-worldstream.net,NL,Europe,Western Europe,Netherlands,South Holland,,Naaldwijk
217.23.9.2,4,10,downloadvideosfrom.com,NL,Europe,Western Europe,Netherlands,South Holland,,Naaldwijk
212.8.242.16,4,17,eduke32.com,NL,Europe,Western Europe,Netherlands,South Holland,,Naaldwijk
91.229.23.135,4,49,ejmanager.com,NL,Europe,Western Europe,Netherlands,South Holland,,Naaldwijk
93.190.138.175,4,3,fabrica-vika.com.ua,NL,Europe,Western Europe,Netherlands,South Holland,,Naaldwijk
190.2.130.169,4,40,freecaptchabypass.com,NL,Europe,Western Europe,Netherlands,South Holland,,Naaldwijk
92.119.156.24,4,0,fryspotpeoria.com,NL,Europe,Western Europe,Netherlands,South Holland,,Naaldwijk
89.39.107.229,4,6,gloria.tv,NL,Europe,Western Europe,Netherlands,South Holland,,Naaldwijk
92.119.156.50,4,25,greek-movies.com,NL,Europe,Western Europe,Netherlands,South Holland,,Naaldwijk
185.177.126.122,4,5,haje.nu,NL,Europe,Western Europe,Netherlands,South Holland,,Naaldwijk
109.236.89.55,4,4,hatecrimesheartland.com,NL,Europe,Western Europe,Netherlands,South Holland,,Naaldwijk
109.236.92.46,4,2,hmpnp.pk,NL,Europe,Western Europe,Netherlands,South Holland,,Naaldwijk
217.23.14.218,4,109,issr-journals.org,NL,Europe,Western Europe,Netherlands,South Holland,,Naaldwijk
185.180.222.212,4,17,knmo.nl,NL,Europe,Western Europe,Netherlands,South Holland,,Naaldwijk
185.18.53.217,4,82,kremen.today,NL,Europe,Western Europe,Netherlands,South Holland,,Naaldwijk
31.210.173.8,4,3,ksovd.ru,NL,Europe,Western Europe,Netherlands,South Holland,,Naaldwijk
194.36.191.196,4,59,labtestedthc.com,NL,Europe,Western Europe,Netherlands,South Holland,,Naaldwijk
185.185.49.237,4,34,luxafor.com,NL,Europe,Western Europe,Netherlands,South Holland,,Naaldwijk
31.172.74.145,4,1,luxelive.net,NL,Europe,Western Europe,Netherlands,South Holland,,Naaldwijk
190.2.130.42,4,28,mangohost.net,NL,Europe,Western Europe,Netherlands,South Holland,,Naaldwijk
185.182.193.246,4,79,misteragri.com,NL,Europe,Western Europe,Netherlands,South Holland,,Naaldwijk
185.162.11.100,4,-24481,moemesto.ru,NL,Europe,Western Europe,Netherlands,South Holland,,Naaldwijk
109.236.81.81,4,29,myescort.network,NL,Europe,Western Europe,Netherlands,South Holland,,Naaldwijk
185.2.81.156,4,36,myfashionwriter.com,NL,Europe,Western Europe,Netherlands,South Holland,,Naaldwijk
185.165.243.130,4,23,mywallop.com,NL,Europe,Western Europe,Netherlands,South Holland,,Naaldwijk
31.210.170.52,4,113,novospress.ru,NL,Europe,Western Europe,Netherlands,South Holland,,Naaldwijk
190.2.150.35,4,6,nttb.nl,NL,Europe,Western Europe,Netherlands,South Holland,,Naaldwijk
185.182.195.78,4,400,Ookla Speedtest Server 6554: speedtest.worldstream.nl,NL,Europe,Western Europe,Netherlands,South Holland,,Naaldwijk
185.191.0.8,4,38,orchidee.nl,NL,Europe,Western Europe,Netherlands,South Holland,,Naaldwijk
217.23.12.233,4,41,outcampaign.org,NL,Europe,Western Europe,Netherlands,South Holland,,Naaldwijk
109.236.91.25,4,22,picgifs.com,NL,Europe,Western Europe,Netherlands,South Holland,,Naaldwijk
185.177.125.56,4,54,premium-hookahs.nl,NL,Europe,Western Europe,Netherlands,South Holland,,Naaldwijk
185.182.193.65,4,74431,protemos.com,NL,Europe,Western Europe,Netherlands,South Holland,,Naaldwijk
109.236.81.246,4,21,proxmark.org,NL,Europe,Western Europe,Netherlands,South Holland,,Naaldwijk
109.236.84.35,4,2,qwertyoruiop.com,NL,Europe,Western Europe,Netherlands,South Holland,,Naaldwijk
190.2.153.21,4,42,radioparadise.com,NL,Europe,Western Europe,Netherlands,South Holland,,Naaldwijk
185.165.242.247,4,57,radioveseliafolclor.com,NL,Europe,Western Europe,Netherlands,South Holland,,Naaldwijk
31.10.5.231,4,54,receptsamogona.ru,NL,Europe,Western Europe,Netherlands,South Holland,,Naaldwijk
185.165.241.224,4,15,redacted.ch,NL,Europe,Western Europe,Netherlands,South Holland,,Naaldwijk
178.132.2.45,4,6,rivierenland-radio.nl,NL,Europe,Western Europe,Netherlands,South Holland,,Naaldwijk
79.132.137.64,4,26,rockisfest.ru,NL,Europe,Western Europe,Netherlands,South Holland,,Naaldwijk
31.210.173.110,4,19,ruclips.net,NL,Europe,Western Europe,Netherlands,South Holland,,Naaldwijk
185.191.2.2,4,-1,samdesign.nl,NL,Europe,Western Europe,Netherlands,South Holland,,Naaldwijk
185.191.1.2,4,6,samonlinemarketing.nl,NL,Europe,Western Europe,Netherlands,South Holland,,Naaldwijk
185.132.179.45,4,4,satbeams.com,NL,Europe,Western Europe,Netherlands,South Holland,,Naaldwijk
185.165.240.149,4,10,scopemed.org,NL,Europe,Western Europe,Netherlands,South Holland,,Naaldwijk
185.173.161.25,4,13,seepje.nl,NL,Europe,Western Europe,Netherlands,South Holland,,Naaldwijk
190.2.146.62,4,35,seotips4u.com,NL,Europe,Western Europe,Netherlands,South Holland,,Naaldwijk
217.23.14.136,4,3,sjifactor.com,NL,Europe,Western Europe,Netherlands,South Holland,,Naaldwijk
185.132.179.211,4,28,somehide.org,NL,Europe,Western Europe,Netherlands,South Holland,,Naaldwijk
185.183.34.114,4,3,sovet-ingenera.com,NL,Europe,Western Europe,Netherlands,South Holland,,Naaldwijk
31.210.173.103,4,-1,th-cam.com,NL,Europe,Western Europe,Netherlands,South Holland,,Naaldwijk
185.191.2.3,4,18,topslotenmaker.nl,NL,Europe,Western Europe,Netherlands,South Holland,,Naaldwijk
109.236.86.186,4,-1998,toutes-les-couleurs.com,NL,Europe,Western Europe,Netherlands,South Holland,,Naaldwijk
185.165.241.252,4,4,turpoisk.com.ua,NL,Europe,Western Europe,Netherlands,South Holland,,Naaldwijk
185.191.0.9,4,5,uwverandaspecialist.nl,NL,Europe,Western Europe,Netherlands,South Holland,,Naaldwijk
185.191.0.14,4,-2,vanderpigge.nl,NL,Europe,Western Europe,Netherlands,South Holland,,Naaldwijk
45.14.135.100,4,18,vgtimes.ru,NL,Europe,Western Europe,Netherlands,South Holland,,Naaldwijk
185.18.54.76,4,2,vitannya.info,NL,Europe,Western Europe,Netherlands,South Holland,,Naaldwijk
93.190.143.74,4,12,welspun.com,NL,Europe,Western Europe,Netherlands,South Holland,,Naaldwijk
185.191.0.3,4,38,wijkopenhuizen.nl,NL,Europe,Western Europe,Netherlands,South Holland,,Naaldwijk
80.79.5.44,4,11,wisenederland.nl,NL,Europe,Western Europe,Netherlands,South Holland,,Naaldwijk
185.183.35.88,4,4,worldofjohancruyff.com,NL,Europe,Western Europe,Netherlands,South Holland,,Naaldwijk
185.21.63.36,4,14,worldstream.com,NL,Europe,Western Europe,Netherlands,South Holland,,Naaldwijk
185.18.52.211,4,8,z-pryvitannyamy.com.ua,NL,Europe,Western Europe,Netherlands,South Holland,,Naaldwijk
31.210.171.188,4,7,zerkallo-1xbet.ru,NL,Europe,Western Europe,Netherlands,South Holland,,Naaldwijk
93.88.74.105,4,0,zhkhplus.ru,NL,Europe,Western Europe,Netherlands,South Holland,,Naaldwijk
185.182.193.41,4,-2,zubrit.com,NL,Europe,Western Europe,Netherlands,South Holland,,Naaldwijk
