reflector_ip,ip_version,offset,description,country_code,region,sub_region,country_name,sub_division_1,sub_division_2,city
178.218.164.80,4,5,360dubrovnik.com,HR,Europe,Southern Europe,Croatia,City of Zagreb,,Zagreb
185.58.73.21,4,3,3lhd.com,HR,Europe,Southern Europe,Croatia,,,
185.58.73.239,4,8,aacihealthcare.com,HR,Europe,Southern Europe,Croatia,,,
185.46.34.36,4,7,adriagate.com,HR,Europe,Southern Europe,Croatia,,,
213.147.113.66,4,21,adriatic.hr,HR,Europe,Southern Europe,Croatia,City of Zagreb,,Zagreb
195.29.236.66,4,4,adriatic.hr,HR,Europe,Southern Europe,Croatia,Šibenik-Knin County,,Betina
31.147.206.174,4,8,agr.hr,HR,Europe,Southern Europe,Croatia,Koprivnica-Križevci County,,Križevci
178.218.165.202,4,46,autoskola-barbara.hr,HR,Europe,Southern Europe,Croatia,City of Zagreb,,Zagreb
185.58.73.6,4,2,avalon.hr,HR,Europe,Southern Europe,Croatia,,,
185.58.73.131,4,1,biochemia-medica.com,HR,Europe,Southern Europe,Croatia,,,
178.218.166.8,4,4,bitno.net,HR,Europe,Southern Europe,Croatia,City of Zagreb,,Zagreb
185.58.73.5,4,2,biz.hr,HR,Europe,Southern Europe,Croatia,,,
176.62.8.133,4,-16587,bloger.hr,HR,Europe,Southern Europe,Croatia,City of Zagreb,,Zagreb
178.218.165.103,4,-2,blue-world.org,HR,Europe,Southern Europe,Croatia,City of Zagreb,,Zagreb
195.78.33.112,4,633,bol.hr,HR,Europe,Southern Europe,Croatia,,,
161.53.185.6,4,14,botanic.hr,HR,Europe,Southern Europe,Croatia,Zadar County,,Zadar
178.218.165.205,4,12,brodportal.hr,HR,Europe,Southern Europe,Croatia,City of Zagreb,,Zagreb
193.198.252.44,4,18,carnet.hr,HR,Europe,Southern Europe,Croatia,City of Zagreb,,Zagreb
161.53.114.143,4,14,cert.hr,HR,Europe,Southern Europe,Croatia,City of Zagreb,,Zagreb
178.218.163.127,4,2,cinephiliabeyond.org,HR,Europe,Southern Europe,Croatia,,,
213.202.101.150,4,4,copyservis.hr,HR,Europe,Southern Europe,Croatia,City of Zagreb,,Zagreb
178.218.164.30,4,17,danica.hr,HR,Europe,Southern Europe,Croatia,City of Zagreb,,Zagreb
178.218.166.214,4,0,dizajn.hr,HR,Europe,Southern Europe,Croatia,City of Zagreb,,Zagreb
78.134.212.19,4,50,DNS Server: 78.134.212.19-dsl.net.metronet.hr,HR,Europe,Southern Europe,Croatia,City of Zagreb,,Zagreb
78.134.212.20,4,15,DNS Server: 78.134.212.20-dsl.net.metronet.hr,HR,Europe,Southern Europe,Croatia,City of Zagreb,,Zagreb
78.134.212.21,4,14,DNS Server: 78.134.212.21-dsl.net.metronet.hr,HR,Europe,Southern Europe,Croatia,City of Zagreb,,Zagreb
78.134.213.172,4,9,DNS Server: 78.134.213.172-dsl.net.metronet.hr,HR,Europe,Southern Europe,Croatia,City of Zagreb,,Zagreb
78.134.223.17,4,62,DNS Server: 78.134.223.17-dsl.net.metronet.hr,HR,Europe,Southern Europe,Croatia,City of Zagreb,,Zagreb
89.201.137.2,4,-13,DNS Server: 89-201-137-2.static.optinet.hr,HR,Europe,Southern Europe,Croatia,City of Zagreb,,Zagreb
195.29.34.149,4,31094649,DNS Server: ao3-m149.net.t-com.hr,HR,Europe,Southern Europe,Croatia,County of Osijek-Baranja,,Osijek
82.214.100.214,4,79,DNS Server: c82-214-100-214.loc.akton.net,HR,Europe,Southern Europe,Croatia,City of Zagreb,,Zagreb
185.46.34.49,4,45,DNS Server: cl49.db-informatika.hr,HR,Europe,Southern Europe,Croatia,,,
83.131.0.7,4,74,DNS Server: IPL537203.net.t-com.hr,HR,Europe,Southern Europe,Croatia,Zadar County,,Biograd na Moru
83.131.4.217,4,-27115226,DNS Server: IPL552809.net.t-com.hr,HR,Europe,Southern Europe,Croatia,Zadar County,,Biograd na Moru
83.131.0.211,4,188,DNS Server: IPL569099.net.t-com.hr,HR,Europe,Southern Europe,Croatia,Zadar County,,Biograd na Moru
83.131.4.177,4,-26900998,DNS Server: IPL573020.net.t-com.hr,HR,Europe,Southern Europe,Croatia,Zadar County,,Biograd na Moru
195.29.55.101,4,88,DNS Server: IPL573748.net.t-com.hr,HR,Europe,Southern Europe,Croatia,County of Osijek-Baranja,,Osijek
195.29.104.73,4,49,DNS Server: IPL579746.net.t-com.hr,HR,Europe,Southern Europe,Croatia,Split-Dalmatia County,,Split
195.29.15.107,4,-27227437,DNS Server: IW542147.acc.t-com.hr,HR,Europe,Southern Europe,Croatia,County of Osijek-Baranja,,Osijek
83.131.1.81,4,106,DNS Server: IW567864.slam.t-com.hr,HR,Europe,Southern Europe,Croatia,Zadar County,,Biograd na Moru
83.131.1.49,4,-28940447,DNS Server: IW568761.net.t-com.hr,HR,Europe,Southern Europe,Croatia,Zadar County,,Biograd na Moru
83.131.1.83,4,101,DNS Server: SIW567864.slam.t-com.hr,HR,Europe,Southern Europe,Croatia,Zadar County,,Biograd na Moru
83.131.1.51,4,-28758620,DNS Server: SIW568761.slam.t-com.hr,HR,Europe,Southern Europe,Croatia,Zadar County,,Biograd na Moru
213.191.131.59,4,-793,DNS Server: smssaat.iskon.hr,HR,Europe,Southern Europe,Croatia,Split-Dalmatia County,,Split
31.45.232.154,4,14093,DNS Server: srv-31-45-232-154.static.a1.hr,HR,Europe,Southern Europe,Croatia,City of Zagreb,,
94.250.130.250,4,-7227628,DNS Server: srv-94-250-130-250.static.a1.hr,HR,Europe,Southern Europe,Croatia,City of Zagreb,,Zagreb
89.164.69.146,4,13113,DNS Server: wr-lama.cpe.iskon.hr,HR,Europe,Southern Europe,Croatia,City of Zagreb,,Zagreb
161.53.160.55,4,7,domene.hr,HR,Europe,Southern Europe,Croatia,Split-Dalmatia County,,Split
195.29.165.2,4,1137,dubrovnik.hr,HR,Europe,Southern Europe,Croatia,City of Zagreb,,Zagreb
178.218.166.45,4,19,dubrovniknet.hr,HR,Europe,Southern Europe,Croatia,City of Zagreb,,Zagreb
185.103.217.55,4,60,ecpc.org,HR,Europe,Southern Europe,Croatia,,,
178.218.165.214,4,6,ecrgroup.eu,HR,Europe,Southern Europe,Croatia,City of Zagreb,,Zagreb
213.186.6.145,4,168,ele-math.com,HR,Europe,Southern Europe,Croatia,City of Zagreb,,Zagreb
178.218.166.39,4,26,eloda.hr,HR,Europe,Southern Europe,Croatia,City of Zagreb,,Zagreb
185.58.73.15,4,50,enil.eu,HR,Europe,Southern Europe,Croatia,,,
178.218.166.140,4,2,esf.hr,HR,Europe,Southern Europe,Croatia,City of Zagreb,,Zagreb
161.53.167.47,4,10,fesb.hr,HR,Europe,Southern Europe,Croatia,Split-Dalmatia County,,Split
161.53.204.33,4,15,ffos.hr,HR,Europe,Southern Europe,Croatia,City of Zagreb,,Zagreb
31.147.206.218,4,8,fkit.hr,HR,Europe,Southern Europe,Croatia,Koprivnica-Križevci County,,Križevci
213.202.101.170,4,23,franck.eu,HR,Europe,Southern Europe,Croatia,City of Zagreb,,Zagreb
161.53.116.12,4,6,fsb.hr,HR,Europe,Southern Europe,Croatia,City of Zagreb,,Zagreb
185.46.34.10,4,6,fscg.me,HR,Europe,Southern Europe,Croatia,,,
185.58.73.18,4,1,ftb.com.hr,HR,Europe,Southern Europe,Croatia,,,
85.10.51.135,4,534,fudzilla.com,HR,Europe,Southern Europe,Croatia,,,
185.98.14.180,4,7,gdi.net,HR,Europe,Southern Europe,Croatia,,,
178.218.166.216,4,12,gkd.hr,HR,Europe,Southern Europe,Croatia,City of Zagreb,,Zagreb
178.218.165.134,4,5,gong.hr,HR,Europe,Southern Europe,Croatia,City of Zagreb,,Zagreb
161.53.50.3,4,7,grad.hr,HR,Europe,Southern Europe,Croatia,City of Zagreb,,Zagreb
185.58.73.26,4,8,gtm.hr,HR,Europe,Southern Europe,Croatia,,,
178.23.184.114,4,4,hayat.ba,HR,Europe,Southern Europe,Croatia,,,
185.58.73.30,4,6,hdlu.hr,HR,Europe,Southern Europe,Croatia,,,
185.58.73.86,4,1,hkdrustvo.hr,HR,Europe,Southern Europe,Croatia,,,
213.186.1.223,4,6,hnd.hr,HR,Europe,Southern Europe,Croatia,City of Zagreb,,Zagreb
185.58.73.245,4,3,hnk-zajc.hr,HR,Europe,Southern Europe,Croatia,,,
178.218.165.44,4,4,hnkvz.hr,HR,Europe,Southern Europe,Croatia,City of Zagreb,,Zagreb
31.147.207.51,4,10,hrzz.hr,HR,Europe,Southern Europe,Croatia,Koprivnica-Križevci County,,Križevci
193.198.184.70,4,10,hsin.hr,HR,Europe,Southern Europe,Croatia,City of Zagreb,,Zagreb
80.80.59.103,4,5,hvar.hr,HR,Europe,Southern Europe,Croatia,,,
185.58.73.132,4,2,hzjz.hr,HR,Europe,Southern Europe,Croatia,,,
178.218.166.10,4,8,hznet.hr,HR,Europe,Southern Europe,Croatia,City of Zagreb,,Zagreb
185.58.73.14,4,20,ief.hr,HR,Europe,Southern Europe,Croatia,,,
91.234.46.210,4,16,igrice-igre.biz,HR,Europe,Southern Europe,Croatia,,,
31.45.233.210,4,5,ika.hr,HR,Europe,Southern Europe,Croatia,City of Zagreb,,
178.218.164.4,4,13,imc-cim.org,HR,Europe,Southern Europe,Croatia,City of Zagreb,,Zagreb
161.53.108.3,4,10,imi.hr,HR,Europe,Southern Europe,Croatia,City of Zagreb,,Zagreb
31.147.207.9,4,6,irmo.hr,HR,Europe,Southern Europe,Croatia,Koprivnica-Križevci County,,Križevci
178.218.165.140,4,3,iro.hr,HR,Europe,Southern Europe,Croatia,City of Zagreb,,Zagreb
213.191.133.163,4,60,iskon.hr,HR,Europe,Southern Europe,Croatia,Split-Dalmatia County,,Split
178.218.166.7,4,4,istarski.hr,HR,Europe,Southern Europe,Croatia,City of Zagreb,,Zagreb
213.202.102.46,4,-1,istra-istria.hr,HR,Europe,Southern Europe,Croatia,City of Zagreb,,Zagreb
178.218.165.38,4,21,jergovic.com,HR,Europe,Southern Europe,Croatia,City of Zagreb,,Zagreb
178.218.162.112,4,6,kastela.org,HR,Europe,Southern Europe,Croatia,,,
185.155.226.217,4,1656,koncar.hr,HR,Europe,Southern Europe,Croatia,City of Zagreb,,Zagreb
91.234.46.217,4,6,konektira.hr,HR,Europe,Southern Europe,Croatia,,,
178.218.166.54,4,78,kongres-magazine.eu,HR,Europe,Southern Europe,Croatia,City of Zagreb,,Zagreb
178.218.165.119,4,3,kontejner.org,HR,Europe,Southern Europe,Croatia,City of Zagreb,,Zagreb
178.218.166.220,4,41,krilo.hr,HR,Europe,Southern Europe,Croatia,City of Zagreb,,Zagreb
194.56.74.63,4,12,ks.hr,HR,Europe,Southern Europe,Croatia,,,
178.218.165.42,4,3,ktabkbih.net,HR,Europe,Southern Europe,Croatia,City of Zagreb,,Zagreb
178.218.165.41,4,86,kulturpunkt.hr,HR,Europe,Southern Europe,Croatia,City of Zagreb,,Zagreb
194.152.247.144,4,1,laudato.hr,HR,Europe,Southern Europe,Croatia,Istria County,,Pula
193.198.212.57,4,5,linux.hr,HR,Europe,Southern Europe,Croatia,Primorje-Gorski Kotar County,,Rijeka
178.218.166.201,4,11,lokrum.hr,HR,Europe,Southern Europe,Croatia,City of Zagreb,,Zagreb
161.53.245.3,4,7,lzmk.hr,HR,Europe,Southern Europe,Croatia,City of Zagreb,,Zagreb
178.218.164.164,4,53,maratz.com,HR,Europe,Southern Europe,Croatia,City of Zagreb,,Zagreb
185.58.73.17,4,2,marketing-odjel.com,HR,Europe,Southern Europe,Croatia,,,
178.218.167.86,4,55,medijskapismenost.hr,HR,Europe,Southern Europe,Croatia,City of Zagreb,,Zagreb
195.29.178.8,4,22,medjimurska-zupanija.hr,HR,Europe,Southern Europe,Croatia,City of Zagreb,,Zagreb
185.58.73.29,4,4,mestrovic.hr,HR,Europe,Southern Europe,Croatia,,,
91.234.46.209,4,0,meteo-info.hr,HR,Europe,Southern Europe,Croatia,,,
178.218.162.14,4,15,mingo.hr,HR,Europe,Southern Europe,Croatia,,,
185.220.27.150,4,32,mojsite.com,HR,Europe,Southern Europe,Croatia,,,
185.58.73.36,4,0,mok.hr,HR,Europe,Southern Europe,Croatia,,,
89.201.175.234,4,31,motovunfilmfestival.com,HR,Europe,Southern Europe,Croatia,Zadar County,,Privlaka
194.152.248.44,4,0,multilink.hr,HR,Europe,Southern Europe,Croatia,,,
178.218.162.241,4,2,mzoip.hr,HR,Europe,Southern Europe,Croatia,,,
178.218.166.211,4,4,nbaknights.com,HR,Europe,Southern Europe,Croatia,City of Zagreb,,Zagreb
185.58.73.254,4,1,nk-slaven-belupo.hr,HR,Europe,Southern Europe,Croatia,,,
185.58.73.248,4,7,np-kornati.hr,HR,Europe,Southern Europe,Croatia,,,
185.58.73.38,4,6,np-paklenica.hr,HR,Europe,Southern Europe,Croatia,,,
185.58.73.251,4,1,np-sjeverni-velebit.hr,HR,Europe,Southern Europe,Croatia,,,
178.218.165.138,4,8,npkrka.hr,HR,Europe,Southern Europe,Croatia,City of Zagreb,,Zagreb
178.218.165.196,4,70,okud-istra.hr,HR,Europe,Southern Europe,Croatia,City of Zagreb,,Zagreb
176.62.0.58,4,324,Ookla Speedtest Server 5708: observium.terrakom.hr,HR,Europe,Southern Europe,Croatia,City of Zagreb,,Zagreb
185.166.252.233,4,142,Ookla Speedtest Server 16233: speedtest.econet.hr,HR,Europe,Southern Europe,Croatia,Varaždin County,,Sračinec
178.17.127.202,4,265,Ookla Speedtest Server 31004: speedtest.btnet.hr,HR,Europe,Southern Europe,Croatia,City of Zagreb,,Zagreb
213.186.1.81,4,232,Ookla Speedtest Server 45571: speedtest.omonia.net,HR,Europe,Southern Europe,Croatia,City of Zagreb,,Zagreb
195.29.4.226,4,817022,Ookla Speedtest Server 54211: speedtestri.ht.hr,HR,Europe,Southern Europe,Croatia,County of Osijek-Baranja,,Osijek
193.198.203.170,4,143,Ookla Speedtest Server 55191: speedtest.carnet.hr,HR,Europe,Southern Europe,Croatia,City of Zagreb,,Zagreb
185.168.40.107,4,278,Ookla Speedtest Server 56288: ookla.4tel.hr,HR,Europe,Southern Europe,Croatia,Zagreb County,,Samobor
185.244.92.71,4,224,Ookla Speedtest Server 61952: speedtest.franz-net.hr,HR,Europe,Southern Europe,Croatia,,,
195.29.4.150,4,126637,Ookla Speedtest Server: speedtest.t-com.hr,HR,Europe,Southern Europe,Croatia,County of Osijek-Baranja,,Osijek
91.234.46.31,4,41,opcina-jajce.ba,HR,Europe,Southern Europe,Croatia,,,
185.46.34.60,4,7,osijek-airport.hr,HR,Europe,Southern Europe,Croatia,,,
185.71.238.17,4,-4,otpbanka.hr,HR,Europe,Southern Europe,Croatia,,,
178.218.165.61,4,58,otvoreni.hr,HR,Europe,Southern Europe,Croatia,City of Zagreb,,Zagreb
178.218.165.124,4,1,ozujsko.com,HR,Europe,Southern Europe,Croatia,City of Zagreb,,Zagreb
185.58.73.40,4,3,paklenica.hr,HR,Europe,Southern Europe,Croatia,,,
178.218.165.218,4,16,pdkrndija.hr,HR,Europe,Southern Europe,Croatia,City of Zagreb,,Zagreb
178.218.165.132,4,4,plesoprijevoz.hr,HR,Europe,Southern Europe,Croatia,City of Zagreb,,Zagreb
91.234.46.207,4,47,poandpo.com,HR,Europe,Southern Europe,Croatia,,,
194.56.74.55,4,17,poliklinika-djeca.hr,HR,Europe,Southern Europe,Croatia,,,
185.46.34.56,4,53,poslovniforum.hr,HR,Europe,Southern Europe,Croatia,,,
195.78.33.62,4,35,posluh.hr,HR,Europe,Southern Europe,Croatia,,,
185.58.73.241,4,22,pp-lonjsko-polje.hr,HR,Europe,Southern Europe,Croatia,,,
194.56.74.99,4,3,pp-medvednica.hr,HR,Europe,Southern Europe,Croatia,,,
185.58.73.146,4,64,pp-telascica.hr,HR,Europe,Southern Europe,Croatia,,,
31.147.206.190,4,73,pravo.hr,HR,Europe,Southern Europe,Croatia,Koprivnica-Križevci County,,Križevci
185.58.73.238,4,61,prijatelji-zivotinja.hr,HR,Europe,Southern Europe,Croatia,,,
178.218.163.134,4,4,pulainfo.hr,HR,Europe,Southern Europe,Croatia,,,
185.58.73.13,4,67,radioslavonija.hr,HR,Europe,Southern Europe,Croatia,,,
178.218.170.47,4,59,regionalexpress.hr,HR,Europe,Southern Europe,Croatia,,,
178.218.165.203,4,20,researchleap.com,HR,Europe,Southern Europe,Croatia,City of Zagreb,,Zagreb
178.218.165.207,4,19,restaurant-era.com,HR,Europe,Southern Europe,Croatia,City of Zagreb,,Zagreb
178.218.163.6,4,5,rijekadanas.com,HR,Europe,Southern Europe,Croatia,,,
193.198.212.7,4,6,rot13.org,HR,Europe,Southern Europe,Croatia,Primorje-Gorski Kotar County,,Rijeka
178.218.166.16,4,58,rtvusk.ba,HR,Europe,Southern Europe,Croatia,City of Zagreb,,Zagreb
185.58.73.236,4,6,s-box.biz,HR,Europe,Southern Europe,Croatia,,,
178.218.166.35,4,16,sbonline.net,HR,Europe,Southern Europe,Croatia,City of Zagreb,,Zagreb
185.58.73.54,4,8,seebiz.eu,HR,Europe,Southern Europe,Croatia,,,
185.58.73.232,4,10,sibenik-tourism.hr,HR,Europe,Southern Europe,Croatia,,,
185.58.73.81,4,0,sibenik.hr,HR,Europe,Southern Europe,Croatia,,,
193.198.252.45,4,15,skole.hr,HR,Europe,Southern Europe,Croatia,City of Zagreb,,Zagreb
213.186.7.74,4,-3774,smartcode.eu,HR,Europe,Southern Europe,Croatia,City of Zagreb,,Zagreb
178.218.174.100,4,13,snv.hr,HR,Europe,Southern Europe,Croatia,,,
91.234.46.205,4,67,starpointgemini.com,HR,Europe,Southern Europe,Croatia,,,
176.62.8.184,4,34,stotinka.hr,HR,Europe,Southern Europe,Croatia,City of Zagreb,,Zagreb
213.186.1.188,4,121,studentski.hr,HR,Europe,Southern Europe,Croatia,City of Zagreb,,Zagreb
185.58.73.22,4,45,tehnoservis.net,HR,Europe,Southern Europe,Croatia,,,
89.201.175.200,4,3,terminal.hr,HR,Europe,Southern Europe,Croatia,Zadar County,,Privlaka
91.234.46.58,4,2,thebrm.co.uk,HR,Europe,Southern Europe,Croatia,,,
91.234.46.40,4,15,thedubrovniktimes.com,HR,Europe,Southern Europe,Croatia,,,
185.46.34.53,4,6,tvs.hr,HR,Europe,Southern Europe,Croatia,,,
195.78.33.109,4,21,unicath.hr,HR,Europe,Southern Europe,Croatia,,,
193.198.63.12,4,9,unin.hr,HR,Europe,Southern Europe,Croatia,Split-Dalmatia County,,Split
31.147.206.15,4,4,unipu.hr,HR,Europe,Southern Europe,Croatia,Koprivnica-Križevci County,,Križevci
178.218.165.139,4,3,utp.hr,HR,Europe,Southern Europe,Croatia,City of Zagreb,,Zagreb
178.218.166.149,4,22,valalta.hr,HR,Europe,Southern Europe,Croatia,City of Zagreb,,Zagreb
178.218.165.40,4,7,varazdinska-zupanija.hr,HR,Europe,Southern Europe,Croatia,City of Zagreb,,Zagreb
178.218.165.52,4,26,vcz.hr,HR,Europe,Southern Europe,Croatia,City of Zagreb,,Zagreb
178.218.166.33,4,30,verbum.hr,HR,Europe,Southern Europe,Croatia,City of Zagreb,,Zagreb
85.94.73.235,4,16,vidi.hr,HR,Europe,Southern Europe,Croatia,City of Zagreb,,Zagreb
91.234.46.203,4,25,villa-julian.com,HR,Europe,Southern Europe,Croatia,,,
195.29.178.20,4,3,visitkorcula.eu,HR,Europe,Southern Europe,Croatia,City of Zagreb,,Zagreb
185.58.73.211,4,91,visitrijeka.hr,HR,Europe,Southern Europe,Croatia,,,
178.218.165.105,4,3,vitalis.hr,HR,Europe,Southern Europe,Croatia,City of Zagreb,,Zagreb
194.152.213.19,4,37,voda.hr,HR,Europe,Southern Europe,Croatia,City of Zagreb,,Zagreb
178.218.174.68,4,1,voxfeminae.net,HR,Europe,Southern Europe,Croatia,,,
193.198.184.121,4,29,vrijeme.hr,HR,Europe,Southern Europe,Croatia,City of Zagreb,,Zagreb
185.58.73.135,4,4,vukovar.hr,HR,Europe,Southern Europe,Croatia,,,
185.155.224.42,4,26873,xenon-forte.hr,HR,Europe,Southern Europe,Croatia,,,
185.58.73.134,4,54,zadarska-zupanija.hr,HR,Europe,Southern Europe,Croatia,,,
178.218.170.22,4,8,zena.hr,HR,Europe,Southern Europe,Croatia,,,
185.58.73.48,4,20,zoo.hr,HR,Europe,Southern Europe,Croatia,,,
178.218.165.76,4,1,zsem.hr,HR,Europe,Southern Europe,Croatia,City of Zagreb,,Zagreb
