reflector_ip,ip_version,offset,description,country_code,region,sub_region,country_name,sub_division_1,sub_division_2,city
84.54.49.51,4,2,24gr.gr,GR,Europe,Southern Europe,Greece,Central Macedonia,Thessaloniki,Thessaloniki
185.138.42.162,4,29,acci.gr,GR,Europe,Southern Europe,Greece,,,
62.38.6.105,4,3,acscourier.net,GR,Europe,Southern Europe,Greece,Crete,Chania,Chania
212.251.12.177,4,2,acscourier.net,GR,Europe,Southern Europe,Greece,Attica,,Athens
62.103.124.49,4,8,adman.gr,GR,Europe,Southern Europe,Greece,Attica,,Acharnes
195.251.134.153,4,-10619,aegean.gr,GR,Europe,Southern Europe,Greece,,,
185.138.42.36,4,5,aegeussociety.org,GR,Europe,Southern Europe,Greece,,,
93.174.127.41,4,574200,afs.edu.gr,GR,Europe,Southern Europe,Greece,,,
93.174.125.21,4,195,agora-antikes.gr,GR,Europe,Southern Europe,Greece,,,
93.174.125.44,4,82927,all4yachting.com,GR,Europe,Southern Europe,Greece,,,
185.25.22.126,4,87,allaboutpellet.com,GR,Europe,Southern Europe,Greece,,,
31.22.113.44,4,19,anaptixiaki.gr,GR,Europe,Southern Europe,Greece,,,
62.217.73.154,4,19,asfa.gr,GR,Europe,Southern Europe,Greece,,,
2.21.69.136,4,-29,atcom.gr,GR,Europe,Southern Europe,Greece,Attica,,Athens
2.19.51.54,4,-30,atcom.gr,GR,Europe,Southern Europe,Greece,Attica,,Athens
77.69.35.118,4,43,athenianbrewery.gr,GR,Europe,Southern Europe,Greece,Thessaly,Nomós Larísis,Larissa
185.29.27.2,4,41,athensplants.gr,GR,Europe,Southern Europe,Greece,,,
212.251.12.163,4,0,athensvoice.gr,GR,Europe,Southern Europe,Greece,Attica,,Athens
62.38.6.106,4,2,athensvoice.gr,GR,Europe,Southern Europe,Greece,Crete,Chania,Chania
143.233.187.150,4,37,aua.gr,GR,Europe,Southern Europe,Greece,Attica,,Korydallos
195.251.255.156,4,18,aueb.gr,GR,Europe,Southern Europe,Greece,Attica,,Athens
62.103.124.4,4,13,bestprice.gr,GR,Europe,Southern Europe,Greece,Attica,,Acharnes
185.4.133.15,4,54,bill-coo-hotel.com,GR,Europe,Southern Europe,Greece,,,
31.22.112.110,4,-1,bsbfashion.com,GR,Europe,Southern Europe,Greece,,,
193.186.200.59,4,21,cityofathens.gr,GR,Europe,Southern Europe,Greece,Attica,,Athens
62.38.6.75,4,35,civilprotection.gr,GR,Europe,Southern Europe,Greece,Crete,Chania,Chania
62.38.6.40,4,5,civilprotection.gr,GR,Europe,Southern Europe,Greece,Crete,Chania,Chania
62.217.125.138,4,14,corallia.org,GR,Europe,Southern Europe,Greece,,,
192.135.166.110,4,27,cretaquarium.gr,GR,Europe,Southern Europe,Greece,,,
212.205.77.145,4,46,culture.gov.gr,GR,Europe,Southern Europe,Greece,Attica,,Athens
185.138.42.78,4,4,d-waste.com,GR,Europe,Southern Europe,Greece,,,
185.4.132.85,4,237,dah-journal.com,GR,Europe,Southern Europe,Greece,,,
194.177.211.216,4,8,debian.com,GR,Europe,Southern Europe,Greece,,,
84.54.49.201,4,31,diatrofi.gr,GR,Europe,Southern Europe,Greece,Central Macedonia,Thessaloniki,Thessaloniki
185.138.42.24,4,30,digi4equality.eu,GR,Europe,Southern Europe,Greece,,,
185.29.24.6,4,1642,digicirc.eu,GR,Europe,Southern Europe,Greece,,,
83.235.44.103,4,-2146228101,DNS Server: 103.44.235.83.static.otenet.gr,GR,Europe,Southern Europe,Greece,Attica,,Kypseli
149.210.64.96,4,388,DNS Server: 149-210-64-96.mobile.ren.cosmote.net,GR,Europe,Southern Europe,Greece,,,
149.210.88.227,4,-672,DNS Server: 149-210-88-227.mobile.ren.cosmote.net,GR,Europe,Southern Europe,Greece,,,
85.74.242.182,4,77270,DNS Server: 182.242.74.85.static.otenet.gr,GR,Europe,Southern Europe,Greece,South Aegean,Nomós Kykládon,Paros
194.177.200.245,4,5,DNS Server: 194-177-200-245.uth.gr,GR,Europe,Southern Europe,Greece,,,
79.131.108.227,4,48631,DNS Server: 227.108.131.79.static.otenet.gr,GR,Europe,Southern Europe,Greece,Attica,,Athens
83.235.105.234,4,158,DNS Server: 234.105.235.83.static.otenet.gr,GR,Europe,Southern Europe,Greece,Central Macedonia,Pella,Giannitsá
85.73.73.246,4,17,DNS Server: 246.73.73.85.static.otenet.gr,GR,Europe,Southern Europe,Greece,South Aegean,Nomós Kykládon,Fira
94.68.84.250,4,2801,DNS Server: 250.84.68.94.static.otenet.gr,GR,Europe,Southern Europe,Greece,West Macedonia,Kozani,Ptolemaida
212.205.159.4,4,12023,DNS Server: 4.159.205.212.static.otenet.gr,GR,Europe,Southern Europe,Greece,Attica,,Athens
85.74.255.42,4,263,DNS Server: 42.255.74.85.static.otenet.gr,GR,Europe,Southern Europe,Greece,Attica,,Athens
46.12.62.169,4,-181867,DNS Server: 46.12.62.169.dsl.dyn.forthnet.gr,GR,Europe,Southern Europe,Greece,Central Macedonia,Thessaloniki,Thessaloniki
2.85.180.50,4,42847,DNS Server: 50.180.85.2.static.otenet.gr,GR,Europe,Southern Europe,Greece,North Aegean,Lesbos,Mytilene
94.64.161.6,4,5,DNS Server: 6.161.64.94.static.otenet.gr,GR,Europe,Southern Europe,Greece,Attica,,Athens
62.103.109.97,4,6,DNS Server: 97.109.103.62.static.otenet.gr,GR,Europe,Southern Europe,Greece,Attica,,Acharnes
84.254.51.145,4,59893,DNS Server: adsl-145.84.254.51.tellas.gr,GR,Europe,Southern Europe,Greece,Attica,,Athens
84.254.63.214,4,215960,DNS Server: adsl-214.84.254.63.tellas.gr,GR,Europe,Southern Europe,Greece,Attica,,Athens
79.129.2.87,4,89,DNS Server: apsi501.static.otenet.gr,GR,Europe,Southern Europe,Greece,Attica,,Athens
79.129.2.75,4,61,DNS Server: apsi530.static.otenet.gr,GR,Europe,Southern Europe,Greece,Attica,,Athens
79.129.2.77,4,5,DNS Server: apsi590.static.otenet.gr,GR,Europe,Southern Europe,Greece,Attica,,Athens
80.107.225.59,4,112,DNS Server: athe10ks-l100.otenet.net,GR,Europe,Southern Europe,Greece,Attica,,Athens
87.202.171.109,4,426,DNS Server: athedsl-369528.home.otenet.gr,GR,Europe,Southern Europe,Greece,Central Macedonia,Thessaloniki,Thessaloniki
94.70.67.175,4,548,DNS Server: athedsl-4552615.home.otenet.gr,GR,Europe,Southern Europe,Greece,South Aegean,Nomós Kykládon,Naxos
94.70.104.58,4,360,DNS Server: athedsl-4561970.home.otenet.gr,GR,Europe,Southern Europe,Greece,Attica,,Nikaia
212.251.68.204,4,-18823086,DNS Server: campingkaymakis.ath.forthnet.gr,GR,Europe,Southern Europe,Greece,Attica,Attica,Piraeus
188.117.197.78,4,-11524370,DNS Server: dhcp-188-117-197-78.cm.hcn.gr,GR,Europe,Southern Europe,Greece,Central Macedonia,Thessaloniki,Thessaloniki
85.72.32.180,4,545,DNS Server: dimark.static.otenet.gr,GR,Europe,Southern Europe,Greece,Attica,,Athens
62.74.159.221,4,14895,DNS Server: dumy221.panafonet.gr,GR,Europe,Southern Europe,Greece,,,
85.72.141.81,4,-659,DNS Server: gate.dltsyrou.gr,GR,Europe,Southern Europe,Greece,Peloponnese,Argolida,Argos
79.129.102.118,4,45,DNS Server: hell18.static.otenet.gr,GR,Europe,Southern Europe,Greece,Attica,,Athens
85.72.141.131,4,925,DNS Server: host3.ikaria.ondsl.gr,GR,Europe,Southern Europe,Greece,Peloponnese,Argolida,Argos
84.254.29.161,4,468,DNS Server: ipa161.29.tellas.gr,GR,Europe,Southern Europe,Greece,Attica,,Marousi
94.71.88.32,4,8251,DNS Server: lime75.static.otenet.gr,GR,Europe,Southern Europe,Greece,Attica,,Chaïdári
80.106.194.173,4,60809,DNS Server: net269.static.otenet.gr,GR,Europe,Southern Europe,Greece,Attica,,Athens
185.243.214.17,4,68,DNS Server: no-reverse-yet.local,GR,Europe,Southern Europe,Greece,Attica,,Athens
79.129.10.169,4,68430,DNS Server: o0k6im.static.otenet.gr,GR,Europe,Southern Europe,Greece,Attica,,Athens
79.129.58.166,4,-2146957046,DNS Server: o17rvr.static.otenet.gr,GR,Europe,Southern Europe,Greece,Attica,,Athens
85.72.149.158,4,184,DNS Server: o2m4nv.static.otenet.gr,GR,Europe,Southern Europe,Greece,Attica,,Athens
79.129.55.28,4,138,DNS Server: o3g6pt.static.otenet.gr,GR,Europe,Southern Europe,Greece,Attica,,Athens
79.129.29.39,4,-8745,DNS Server: obveav.static.otenet.gr,GR,Europe,Southern Europe,Greece,Attica,,Athens
94.71.0.225,4,208,DNS Server: ocrtzw.static.otenet.gr,GR,Europe,Southern Europe,Greece,Attica,,Athens
85.72.57.79,4,-2137840364,DNS Server: ofe5ja.static.otenet.gr,GR,Europe,Southern Europe,Greece,Attica,,Athens
79.131.182.173,4,164,DNS Server: oj36bi.static.otenet.gr,GR,Europe,Southern Europe,Greece,Attica,,Athens
80.106.85.168,4,-2117743618,DNS Server: olltbt.static.otenet.gr,GR,Europe,Southern Europe,Greece,Attica,,Athens
94.70.166.191,4,171,DNS Server: ory2ve.static.otenet.gr,GR,Europe,Southern Europe,Greece,Attica,,Athens
195.167.123.245,4,29310,DNS Server: otgicj.static.otenet.gr,GR,Europe,Southern Europe,Greece,Attica,,Athens
2.84.38.146,4,-143545,DNS Server: ov0pvx.static.otenet.gr,GR,Europe,Southern Europe,Greece,Attica,Attica,Piraeus
94.66.237.222,4,187,DNS Server: owgzel.static.otenet.gr,GR,Europe,Southern Europe,Greece,Central Macedonia,Thessaloniki,Thessaloniki
2.84.158.131,4,969,DNS Server: ppp-2-84-158-131.home.otenet.gr,GR,Europe,Southern Europe,Greece,Attica,,Athens
2.85.93.224,4,1375,DNS Server: ppp-2-85-93-224.home.otenet.gr,GR,Europe,Southern Europe,Greece,Ionian Islands,Nomós Kerkýras,Corfu
2.86.250.64,4,-150,DNS Server: ppp-2-86-250-64.home.otenet.gr,GR,Europe,Southern Europe,Greece,Attica,,Athens
2.86.33.153,4,634,DNS Server: ppp-2-86-33-153.home.otenet.gr,GR,Europe,Southern Europe,Greece,Thessaly,Nomós Kardhítsas,Agios Nikolaos
2.87.132.158,4,643,DNS Server: ppp-2-87-132-158.home.otenet.gr,GR,Europe,Southern Europe,Greece,Attica,,Athens
94.65.50.72,4,653,DNS Server: ppp-94-65-50-72.home.otenet.gr,GR,Europe,Southern Europe,Greece,Central Greece,Nomós Voiotías,Livadeia
94.66.212.148,4,1314,DNS Server: ppp-94-66-212-148.home.otenet.gr,GR,Europe,Southern Europe,Greece,Peloponnese,Laconia,Sparti
94.68.89.84,4,1252,DNS Server: ppp-94-68-89-84.home.otenet.gr,GR,Europe,Southern Europe,Greece,Central Macedonia,Sérres,Serres
194.30.254.138,4,1122,DNS Server: ppp194030254138.access.hol.gr,GR,Europe,Southern Europe,Greece,Attica,,Athens
79.129.62.230,4,97553,DNS Server: serial.aigialeia.gov.gr,GR,Europe,Southern Europe,Greece,Attica,,Athens
85.73.92.103,4,347,DNS Server: sm247.static.otenet.gr,GR,Europe,Southern Europe,Greece,West Greece,Aitoloakarnania,Messolonghi
83.212.108.245,4,194,DNS Server: snf-882282.vm.okeanos.grnet.gr,GR,Europe,Southern Europe,Greece,,,
91.138.229.242,4,279,DNS Server: static091138229242.access.hol.gr,GR,Europe,Southern Europe,Greece,Attica,,Athens
195.47.208.42,4,-3,drive.gr,GR,Europe,Southern Europe,Greece,,,
185.25.23.155,4,6,e-kafstires.gr,GR,Europe,Southern Europe,Greece,,,
213.16.175.115,4,4,e-kyklades.gr,GR,Europe,Southern Europe,Greece,Attica,,Athens
95.129.46.107,4,1725,ecigarette-research.com,GR,Europe,Southern Europe,Greece,,,
62.1.105.166,4,5,efa.gr,GR,Europe,Southern Europe,Greece,Attica,,Athens
185.78.220.30,4,3,efthimioumed.gr,GR,Europe,Southern Europe,Greece,,,
185.138.42.184,4,17,egejsko-makedonskosonceradio.com,GR,Europe,Southern Europe,Greece,,,
62.217.127.93,4,24,elevategreece.gov.gr,GR,Europe,Southern Europe,Greece,,,
83.212.171.7,4,29,ellak.gr,GR,Europe,Southern Europe,Greece,,,
185.158.223.9,4,5,elpedison.gr,GR,Europe,Southern Europe,Greece,Attica,,Athens
185.158.223.48,4,7,elta.gr,GR,Europe,Southern Europe,Greece,Attica,,Athens
185.78.220.126,4,31,emathisi.gr,GR,Europe,Southern Europe,Greece,,,
185.4.132.167,4,476,eom.gr,GR,Europe,Southern Europe,Greece,,,
62.1.45.202,4,8590,esake.gr,GR,Europe,Southern Europe,Greece,Attica,,Athens
84.54.49.43,4,16,escortsingreece.gr,GR,Europe,Southern Europe,Greece,Central Macedonia,Thessaloniki,Thessaloniki
83.212.4.116,4,50,eudoxus.gr,GR,Europe,Southern Europe,Greece,Attica,,Athens
185.25.23.154,4,4,fleming.gr,GR,Europe,Southern Europe,Greece,,,
185.25.23.165,4,7,flogarecords.com,GR,Europe,Southern Europe,Greece,,,
185.78.221.201,4,1,foodexpo.gr,GR,Europe,Southern Europe,Greece,,,
83.212.170.182,4,24,gak.gr,GR,Europe,Southern Europe,Greece,,,
185.29.25.27,4,5,gamos-guide.gr,GR,Europe,Southern Europe,Greece,,,
83.212.115.131,4,18446,geodata.gov.gr,GR,Europe,Southern Europe,Greece,,,
185.138.41.101,4,3,gnest.org,GR,Europe,Southern Europe,Greece,,,
185.138.42.121,4,8,gnhm.gr,GR,Europe,Southern Europe,Greece,,,
31.22.115.180,4,1133,goulandris.gr,GR,Europe,Southern Europe,Greece,,,
185.78.220.246,4,-4,greeking.me,GR,Europe,Southern Europe,Greece,,,
185.138.42.100,4,6,greeklanguage.gr,GR,Europe,Southern Europe,Greece,,,
62.217.85.159,4,60,grnet.gr,GR,Europe,Southern Europe,Greece,,,
88.197.28.202,4,18,gunet.gr,GR,Europe,Southern Europe,Greece,Attica,,Athens
93.174.125.124,4,1,gvcworld.eu,GR,Europe,Southern Europe,Greece,,,
185.134.113.167,4,-1,hamogelo.gr,GR,Europe,Southern Europe,Greece,,,
176.119.210.191,4,4,haniotika-nea.gr,GR,Europe,Southern Europe,Greece,,,
185.138.42.148,4,4,hcaa-eleng.gr,GR,Europe,Southern Europe,Greece,,,
185.78.220.203,4,1150,helapco.gr,GR,Europe,Southern Europe,Greece,,,
185.78.221.75,4,14,horecaexpo.gr,GR,Europe,Southern Europe,Greece,,,
78.108.40.230,4,8,i2dealer.gr,GR,Europe,Southern Europe,Greece,Central Macedonia,Thessaloniki,Thessaloniki
83.212.10.167,4,29,ihu.edu.gr,GR,Europe,Southern Europe,Greece,Attica,,Athens
83.212.10.166,4,4,ihu.gr,GR,Europe,Southern Europe,Greece,Attica,,Athens
62.217.72.62,4,28,iky.gr,GR,Europe,Southern Europe,Greece,,,
194.177.217.209,4,-3558097,ilsp.gr,GR,Europe,Southern Europe,Greece,,,
185.157.208.38,4,-5,imegsevee.gr,GR,Europe,Southern Europe,Greece,Attica,,Athens
185.78.221.199,4,30,isathens.gr,GR,Europe,Southern Europe,Greece,,,
93.174.125.80,4,368,isomat.gr,GR,Europe,Southern Europe,Greece,,,
83.212.168.227,4,6,jceps.com,GR,Europe,Southern Europe,Greece,,,
185.138.42.141,4,29,kalamatadancefestival.gr,GR,Europe,Southern Europe,Greece,,,
185.138.42.30,4,4,kemea.gr,GR,Europe,Southern Europe,Greece,,,
93.174.121.31,4,-2062494,kourdistoportocali.com,GR,Europe,Southern Europe,Greece,Attica,,Agía Varvára
188.164.200.40,4,-20360,ktelattikis.gr,GR,Europe,Southern Europe,Greece,,,
185.138.42.137,4,24,lastdaydeaf.com,GR,Europe,Southern Europe,Greece,,,
93.174.121.80,4,3653,lesvossolidarity.org,GR,Europe,Southern Europe,Greece,Attica,,Agía Varvára
79.129.83.76,4,2,line.gr,GR,Europe,Southern Europe,Greece,Attica,,Athens
185.162.236.195,4,12,livanis.gr,GR,Europe,Southern Europe,Greece,Attica,,Athens
193.162.7.179,4,-32,live24.gr,GR,Europe,Southern Europe,Greece,,,
185.201.254.86,4,29,logodiatrofis.gr,GR,Europe,Southern Europe,Greece,,,
185.25.23.58,4,136,macedonian-heritage.gr,GR,Europe,Southern Europe,Greece,,,
193.218.36.5,4,8,maich.gr,GR,Europe,Southern Europe,Greece,,,
62.38.6.97,4,69,makeleio.gr,GR,Europe,Southern Europe,Greece,Crete,Chania,Chania
185.25.23.99,4,3,maritimecyprus.com,GR,Europe,Southern Europe,Greece,,,
185.36.235.26,4,7,mednutrition.gr,GR,Europe,Southern Europe,Greece,,,
185.78.221.41,4,-430907,messinialive.gr,GR,Europe,Southern Europe,Greece,,,
185.138.42.60,4,39,metadrasi.org,GR,Europe,Southern Europe,Greece,,,
185.78.221.73,4,14,mic.gr,GR,Europe,Southern Europe,Greece,,,
84.54.49.200,4,10,modoffice.gr,GR,Europe,Southern Europe,Greece,Central Macedonia,Thessaloniki,Thessaloniki
185.70.76.198,4,859,musicheaven.gr,GR,Europe,Southern Europe,Greece,Attica,,Athens
185.25.20.72,4,93,musiclexis.com,GR,Europe,Southern Europe,Greece,,,
185.25.23.66,4,13,mygem.gr,GR,Europe,Southern Europe,Greece,,,
185.134.112.158,4,36,mykonos.gr,GR,Europe,Southern Europe,Greece,,,
31.22.115.162,4,4,myphone.gr,GR,Europe,Southern Europe,Greece,,,
185.109.19.166,4,8,myriobiblos.gr,GR,Europe,Southern Europe,Greece,Attica,,Athens
2.19.51.137,4,-31,nbg.gr,GR,Europe,Southern Europe,Greece,Attica,,Athens
2.19.51.162,4,-32,nbg.gr,GR,Europe,Southern Europe,Greece,Attica,,Athens
185.138.42.82,4,4,neaodos.gr,GR,Europe,Southern Europe,Greece,,,
185.138.42.154,4,52,nicholasrossis.me,GR,Europe,Southern Europe,Greece,,,
147.102.224.101,4,56,ntua.gr,GR,Europe,Southern Europe,Greece,Attica,,Keratea
185.138.42.76,4,-2,oanagnostis.gr,GR,Europe,Southern Europe,Greece,,,
31.22.113.54,4,1112,oasa.gr,GR,Europe,Southern Europe,Greece,,,
188.164.200.35,4,-20378,oasth.gr,GR,Europe,Southern Europe,Greece,,,
185.138.42.54,4,3,omhksea.org,GR,Europe,Southern Europe,Greece,,,
62.217.126.171,4,138,Ookla Speedtest Server 1727: speedtest.gr-ix.gr,GR,Europe,Southern Europe,Greece,,,
31.22.112.100,4,815707,Ookla Speedtest Server 5377: speedtest.hyperhosting.gr,GR,Europe,Southern Europe,Greece,,,
31.177.57.52,4,-28448,Ookla Speedtest Server 15251: ookla.iphost.net,GR,Europe,Southern Europe,Greece,Attica,,Athens
185.4.132.50,4,78692,Ookla Speedtest Server 21326: speedtest.top.host,GR,Europe,Southern Europe,Greece,,,
185.4.132.122,4,343,Ookla Speedtest Server 25306: skoultsos.eu,GR,Europe,Southern Europe,Greece,Thessaly,Magnesia,Argalastí
91.218.22.237,4,188,Ookla Speedtest Server 54045: ookla1.fast.gr,GR,Europe,Southern Europe,Greece,Attica,,Athens
185.106.37.16,4,355,Ookla Speedtest Server 60798: speedtest.patrasbroadband.gr,GR,Europe,Southern Europe,Greece,,,
154.57.15.243,4,23638,Ookla Speedtest Server 61909: speedtest.novelcomm.gr,GR,Europe,Southern Europe,Greece,Crete,Heraklion Regional Unit,Metamórfosi
193.186.200.12,4,329,Ookla Speedtest Server 63761: speedtest.cityofathens.gr,GR,Europe,Southern Europe,Greece,Attica,,Athens
185.138.42.92,4,3,opi.gr,GR,Europe,Southern Europe,Greece,,,
93.174.121.149,4,7167,ortodossia.it,GR,Europe,Southern Europe,Greece,Attica,,Agía Varvára
185.138.42.188,4,27,osarena.net,GR,Europe,Southern Europe,Greece,,,
194.177.218.20,4,6,panteion.gr,GR,Europe,Southern Europe,Greece,,,
84.54.49.203,4,41,paramarketing.gr,GR,Europe,Southern Europe,Greece,Central Macedonia,Thessaloniki,Thessaloniki
91.220.131.240,4,20,paros.gr,GR,Europe,Southern Europe,Greece,,,
185.138.42.170,4,9,parthenonfrieze.gr,GR,Europe,Southern Europe,Greece,,,
83.212.173.236,4,43,pasteur.gr,GR,Europe,Southern Europe,Greece,,,
62.103.124.7,4,13,pathfinder.gr,GR,Europe,Southern Europe,Greece,Attica,,Acharnes
185.25.23.55,4,4,physics4u.gr,GR,Europe,Southern Europe,Greece,,,
185.25.23.68,4,4,polimatidisbros.gr,GR,Europe,Southern Europe,Greece,,,
5.172.194.135,4,6,pomida.gr,GR,Europe,Southern Europe,Greece,Central Macedonia,Thessaloniki,Thessaloniki
185.25.23.230,4,72,progressus.gr,GR,Europe,Southern Europe,Greece,,,
185.78.220.136,4,196453,protoporia.gr,GR,Europe,Southern Europe,Greece,,,
185.138.42.135,4,91,radio1.gr,GR,Europe,Southern Europe,Greece,,,
178.21.171.195,4,2,rthess.gr,GR,Europe,Southern Europe,Greece,Central Macedonia,Thessaloniki,Thessaloniki
87.203.233.9,4,3700808,santorini.com,GR,Europe,Southern Europe,Greece,Central Macedonia,Thessaloniki,Thessaloniki
83.212.169.122,4,28,satnogs.org,GR,Europe,Southern Europe,Greece,,,
185.138.42.90,4,38,sete.gr,GR,Europe,Southern Europe,Greece,,,
93.174.127.20,4,2191,seve.gr,GR,Europe,Southern Europe,Greece,,,
84.54.49.41,4,22,sexyaggelies.gr,GR,Europe,Southern Europe,Greece,Central Macedonia,Thessaloniki,Thessaloniki
185.138.42.175,4,5,shiatsugr.gr,GR,Europe,Southern Europe,Greece,,,
185.157.208.41,4,0,sinidisi.gr,GR,Europe,Southern Europe,Greece,Attica,,Athens
83.212.173.158,4,12,spinellis.gr,GR,Europe,Southern Europe,Greece,,,
194.177.218.66,4,12,squat.gr,GR,Europe,Southern Europe,Greece,,,
185.138.43.36,4,37,star.gr,GR,Europe,Southern Europe,Greece,,,
185.134.113.163,4,35,starbulk.com,GR,Europe,Southern Europe,Greece,,,
185.138.42.143,4,35,studyingreece.edu.gr,GR,Europe,Southern Europe,Greece,,,
195.130.72.1,4,2,teiep.gr,GR,Europe,Southern Europe,Greece,,,
194.177.210.107,4,-28817,teiion.gr,GR,Europe,Southern Europe,Greece,,,
195.251.124.93,4,10,teilar.gr,GR,Europe,Southern Europe,Greece,Central Macedonia,Thessaloniki,Thessaloniki
150.140.209.3,4,61,teimes.gr,GR,Europe,Southern Europe,Greece,West Greece,Achaea,Pátrai
185.4.133.228,4,-7,theclumsies.gr,GR,Europe,Southern Europe,Greece,,,
185.138.42.44,4,2,themargi.gr,GR,Europe,Southern Europe,Greece,,,
5.172.196.245,4,1806,thessalonikifair.gr,GR,Europe,Southern Europe,Greece,Central Macedonia,Thessaloniki,Thessaloniki
178.21.171.218,4,8,thessnews.gr,GR,Europe,Southern Europe,Greece,Central Macedonia,Thessaloniki,Thessaloniki
185.138.42.22,4,10,theuncomfortable.com,GR,Europe,Southern Europe,Greece,,,
185.25.23.240,4,4,thmphoto.gr,GR,Europe,Southern Europe,Greece,,,
185.78.220.222,4,4,travelcenter.gr,GR,Europe,Southern Europe,Greece,,,
147.52.80.1,4,5,uoc.gr,GR,Europe,Southern Europe,Greece,Crete,Heraklion Regional Unit,Heraklion
83.212.171.14,4,12,uowm.gr,GR,Europe,Southern Europe,Greece,,,
194.177.200.132,4,13,uth.gr,GR,Europe,Southern Europe,Greece,,,
195.230.102.99,4,27,velti.com,GR,Europe,Southern Europe,Greece,,,
185.138.42.86,4,7,venetsanoswinery.com,GR,Europe,Southern Europe,Greece,,,
185.25.23.56,4,8,venizelos-foundation.gr,GR,Europe,Southern Europe,Greece,,,
31.22.115.178,4,826,vikoswater.gr,GR,Europe,Southern Europe,Greece,,,
185.4.134.37,4,21,visitmeteora.travel,GR,Europe,Southern Europe,Greece,,,
77.69.37.68,4,43,Vodafone-Panafon Hellenic Telecommunications Company SA Thessaloniki,GR,Europe,Southern Europe,Greece,Thessaly,Nomós Larísis,Larissa
83.212.168.30,4,49,void.gr,GR,Europe,Southern Europe,Greece,,,
185.25.23.138,4,49,volospress.gr,GR,Europe,Southern Europe,Greece,,,
185.4.134.125,4,403212,vstar.gr,GR,Europe,Southern Europe,Greece,,,
62.217.85.154,4,8,wallet.gov.gr,GR,Europe,Southern Europe,Greece,,,
185.138.42.48,4,5,yeshotels.gr,GR,Europe,Southern Europe,Greece,,,
212.205.77.225,4,0,ypes.gr,GR,Europe,Southern Europe,Greece,Attica,,Athens
212.205.77.210,4,3,ypes.gr,GR,Europe,Southern Europe,Greece,Attica,,Athens
62.38.6.112,4,1,ypes.gr,GR,Europe,Southern Europe,Greece,Crete,Chania,Chania
62.38.6.90,4,1,ypes.gr,GR,Europe,Southern Europe,Greece,Crete,Chania,Chania
62.38.6.99,4,6,ypes.gr,GR,Europe,Southern Europe,Greece,Crete,Chania,Chania
