reflector_ip,ip_version,offset,description,country_code,region,sub_region,country_name,sub_division_1,sub_division_2,city
130.185.87.209,4,8,3ces.pt,PT,Europe,Southern Europe,Portugal,Lisbon,,Lisbon
109.71.43.210,4,8,4800bps.com,PT,Europe,Southern Europe,Portugal,Lisbon,,Lisbon
213.58.130.233,4,1042,4cmedica.com,PT,Europe,Southern Europe,Portugal,Lisbon,,Lisbon
185.31.158.101,4,3,abeltronica.com,PT,Europe,Southern Europe,Portugal,,,
94.46.161.200,4,85,abreu.pt,PT,Europe,Southern Europe,Portugal,,,
185.15.20.191,4,68,abreu.pt,PT,Europe,Southern Europe,Portugal,Lisbon,,Lisbon
94.126.169.176,4,17,acad-ciencias.pt,PT,Europe,Southern Europe,Portugal,Lisbon,,Lisbon
213.146.202.161,4,32,adecco.pt,PT,Europe,Southern Europe,Portugal,Lisbon,,Lisbon
195.170.168.61,4,24,aeiou.pt,PT,Europe,Southern Europe,Portugal,,,
185.12.116.220,4,866,aen2elvas.com,PT,Europe,Southern Europe,Portugal,,,
83.240.239.145,4,13,aima.gov.pt,PT,Europe,Southern Europe,Portugal,Lisbon,,Prior Velho
94.46.169.95,4,38,airfree.com,PT,Europe,Southern Europe,Portugal,,,
5.154.174.233,4,70,akmediahosting.com,PT,Europe,Southern Europe,Portugal,Lisbon,,Lisbon
94.46.180.78,4,8,algarve-portal.com,PT,Europe,Southern Europe,Portugal,,,
185.90.59.212,4,3,almalisboa.pt,PT,Europe,Southern Europe,Portugal,,,
194.65.138.21,4,12,alticelabs.com,PT,Europe,Southern Europe,Portugal,Porto,,Porto
62.233.41.47,4,455,alvamater.com,PT,Europe,Southern Europe,Portugal,,,
94.46.170.232,4,7,ambitur.pt,PT,Europe,Southern Europe,Portugal,,,
109.71.43.203,4,10,amd-export.com,PT,Europe,Southern Europe,Portugal,Lisbon,,Lisbon
94.46.160.66,4,9,anacom-consumidor.pt,PT,Europe,Southern Europe,Portugal,,,
185.32.190.7,4,-542,anam.pt,PT,Europe,Southern Europe,Portugal,,,
109.71.40.14,4,30,anesaportugal.org,PT,Europe,Southern Europe,Portugal,Lisbon,,Lisbon
62.28.14.57,4,9,anmp.pt,PT,Europe,Southern Europe,Portugal,Lisbon,,Lisbon
185.99.234.75,4,8,antartica.com.pt,PT,Europe,Southern Europe,Portugal,,,
94.46.173.48,4,30,apcergroup.com,PT,Europe,Southern Europe,Portugal,,,
185.90.57.136,4,1087,apda.pt,PT,Europe,Southern Europe,Portugal,,,
185.118.114.199,4,157,apdp.pt,PT,Europe,Southern Europe,Portugal,,,
195.200.252.208,4,36014,aroucageopark.pt,PT,Europe,Southern Europe,Portugal,,,
91.209.16.215,4,18,arquivopessoa.net,PT,Europe,Southern Europe,Portugal,,,
130.185.83.99,4,1876,artecapital.net,PT,Europe,Southern Europe,Portugal,Lisbon,,Lisbon
130.185.87.66,4,13,arteriae.net,PT,Europe,Southern Europe,Portugal,Lisbon,,Lisbon
176.61.150.121,4,133,asbeiras.pt,PT,Europe,Southern Europe,Portugal,,,
185.32.189.192,4,436,assisdrive.pt,PT,Europe,Southern Europe,Portugal,,,
185.12.116.102,4,832,aterratreme.pt,PT,Europe,Southern Europe,Portugal,,,
94.46.22.142,4,335,atlantic-cargo.pt,PT,Europe,Southern Europe,Portugal,Viseu,,Palma
130.185.83.150,4,905,aulp.org,PT,Europe,Southern Europe,Portugal,Lisbon,,Lisbon
185.32.190.127,4,45,autonoma.pt,PT,Europe,Southern Europe,Portugal,,,
94.46.135.179,4,381,autoreno.pt,PT,Europe,Southern Europe,Portugal,,,
94.46.176.92,4,88,avidaportuguesa.com,PT,Europe,Southern Europe,Portugal,,,
94.46.181.1,4,-560,balflex.com,PT,Europe,Southern Europe,Portugal,,,
5.253.182.100,4,55,balflex.de,PT,Europe,Southern Europe,Portugal,,,
109.71.40.220,4,-331,barrocal.pt,PT,Europe,Southern Europe,Portugal,Lisbon,,Lisbon
94.46.181.59,4,4,bengoji.pt,PT,Europe,Southern Europe,Portugal,,,
94.126.169.152,4,17,bikeinterra.com,PT,Europe,Southern Europe,Portugal,Lisbon,,Lisbon
185.31.158.118,4,870,bloco.org,PT,Europe,Southern Europe,Portugal,,,
94.126.169.162,4,4,bluelabeltransfers.com,PT,Europe,Southern Europe,Portugal,Lisbon,,Lisbon
193.137.201.84,4,3,boaventuradesousasantos.pt,PT,Europe,Southern Europe,Portugal,Coimbra,,Coimbra
185.99.235.6,4,59,bocadolobo.com,PT,Europe,Southern Europe,Portugal,,,
185.99.235.116,4,18,brabbu.com,PT,Europe,Southern Europe,Portugal,,,
185.31.158.102,4,5,briefing.pt,PT,Europe,Southern Europe,Portugal,,,
94.126.169.245,4,3,campeaoprovincias.pt,PT,Europe,Southern Europe,Portugal,Lisbon,,Lisbon
94.46.22.40,4,4,campopequeno.com,PT,Europe,Southern Europe,Portugal,Viseu,,Palma
185.90.58.143,4,96,carpilux.com,PT,Europe,Southern Europe,Portugal,,,
94.46.22.222,4,257,casadechadaboanova.pt,PT,Europe,Southern Europe,Portugal,Viseu,,Palma
185.12.116.233,4,713,casino-lisboa.pt,PT,Europe,Southern Europe,Portugal,,,
185.118.115.209,4,1155,ccip.pt,PT,Europe,Southern Europe,Portugal,,,
185.90.56.56,4,991,chapito.org,PT,Europe,Southern Europe,Portugal,,,
185.240.248.101,4,627,ciab.pt,PT,Europe,Southern Europe,Portugal,,,
185.240.248.155,4,1855,ciaiq.org,PT,Europe,Southern Europe,Portugal,,,
94.46.183.134,4,2474,cicap.pt,PT,Europe,Southern Europe,Portugal,,,
94.46.15.240,4,7,cidaliaferreira.com,PT,Europe,Southern Europe,Portugal,Lisbon,,Algés
94.46.135.94,4,-6,cimpas.pt,PT,Europe,Southern Europe,Portugal,,,
130.185.81.216,4,5,cin.com,PT,Europe,Southern Europe,Portugal,Lisbon,,Lisbon
185.99.235.118,4,14,circu.net,PT,Europe,Southern Europe,Portugal,,,
94.46.168.109,4,6,citi.pt,PT,Europe,Southern Europe,Portugal,,,
195.22.25.130,4,5,Claranet Limited,PT,Europe,Southern Europe,Portugal,Lisbon,,Lisbon
94.46.23.114,4,42,clonlara.org,PT,Europe,Southern Europe,Portugal,Viseu,,Palma
130.185.84.237,4,29,clubeslotcartrofa.com,PT,Europe,Southern Europe,Portugal,Lisbon,,Lisbon
194.65.92.189,4,29,cm-aveiro.pt,PT,Europe,Southern Europe,Portugal,Lisbon,,Lisbon
5.253.181.199,4,9,cm-gondomar.pt,PT,Europe,Southern Europe,Portugal,,,
213.228.152.94,4,-13414490,cm-grandola.pt,PT,Europe,Southern Europe,Portugal,,,
62.48.167.85,4,172,cm-ilhavo.pt,PT,Europe,Southern Europe,Portugal,Aveiro,,Aveiro
89.26.253.27,4,5,cm-lagoa.pt,PT,Europe,Southern Europe,Portugal,Lisbon,,Lisbon
148.69.221.178,4,4,cm-nazare.pt,PT,Europe,Southern Europe,Portugal,Lisbon,,Lisbon
62.28.196.253,4,8,cm-sintra.pt,PT,Europe,Southern Europe,Portugal,Porto,,Canelas
94.46.165.141,4,22,cm-tvedras.pt,PT,Europe,Southern Europe,Portugal,,,
195.23.69.164,4,3,cne.pt,PT,Europe,Southern Europe,Portugal,Aveiro,,Avanca
185.31.158.211,4,4,cniacc.pt,PT,Europe,Southern Europe,Portugal,,,
94.46.180.200,4,1395,cnm.com.pt,PT,Europe,Southern Europe,Portugal,,,
185.32.189.167,4,18,comunidadeculturaearte.com,PT,Europe,Southern Europe,Portugal,,,
94.46.180.217,4,1737,confeitarianacional.com,PT,Europe,Southern Europe,Portugal,,,
130.185.83.18,4,878,consumoalgarve.pt,PT,Europe,Southern Europe,Portugal,Lisbon,,Lisbon
94.46.135.14,4,18,correiodominho.pt,PT,Europe,Southern Europe,Portugal,,,
94.46.169.41,4,50,countrybrandingwiki.org,PT,Europe,Southern Europe,Portugal,,,
185.99.235.120,4,31,covetedition.com,PT,Europe,Southern Europe,Portugal,,,
185.99.235.112,4,2,covethouse.eu,PT,Europe,Southern Europe,Portugal,,,
213.58.130.231,4,678,cpidt.pt,PT,Europe,Southern Europe,Portugal,Lisbon,,Lisbon
94.46.135.81,4,4,criticalmanufacturing.com,PT,Europe,Southern Europe,Portugal,,,
185.90.57.129,4,12,cruzvermelha.pt,PT,Europe,Southern Europe,Portugal,,,
185.169.99.111,4,48,cufa.org.br,PT,Europe,Southern Europe,Portugal,,,
94.46.26.155,4,19,culturanorte.gov.pt,PT,Europe,Southern Europe,Portugal,Viseu,,Palma
176.221.32.30,4,60,curtas.pt,PT,Europe,Southern Europe,Portugal,,,
185.12.116.64,4,141,darkskyalqueva.com,PT,Europe,Southern Europe,Portugal,,,
185.99.235.108,4,9,delightfull.eu,PT,Europe,Southern Europe,Portugal,,,
94.23.74.209,4,1034,directlenderloans.org,PT,Europe,Southern Europe,Portugal,Lisbon,,Lisbon
5.249.101.107,4,97,DNS Server: 107.101.249.5.rev.vodafone.pt,PT,Europe,Southern Europe,Portugal,Lisbon,,Lisbon
5.249.100.12,4,69,DNS Server: 12.100.249.5.rev.vodafone.pt,PT,Europe,Southern Europe,Portugal,Lisbon,,Lisbon
89.114.155.129,4,165,DNS Server: 129.155.114.89.rev.vodafone.pt,PT,Europe,Southern Europe,Portugal,Lisbon,,Lisbon
5.249.96.140,4,4,DNS Server: 140.96.249.5.rev.vodafone.pt,PT,Europe,Southern Europe,Portugal,Lisbon,,Lisbon
94.61.250.150,4,3095,DNS Server: 150.250.61.94.rev.vodafone.pt,PT,Europe,Southern Europe,Portugal,Braga,,Vila Nova de Famalicão
5.249.101.181,4,84,DNS Server: 181.101.249.5.rev.vodafone.pt,PT,Europe,Southern Europe,Portugal,Lisbon,,Lisbon
5.249.101.184,4,10,DNS Server: 184.101.249.5.rev.vodafone.pt,PT,Europe,Southern Europe,Portugal,Lisbon,,Lisbon
89.115.242.195,4,181,DNS Server: 195.242.115.89.rev.vodafone.pt,PT,Europe,Southern Europe,Portugal,Lisbon,,Lisbon
5.249.101.208,4,26,DNS Server: 208.101.249.5.rev.vodafone.pt,PT,Europe,Southern Europe,Portugal,Lisbon,,Lisbon
5.249.101.210,4,4,DNS Server: 210.101.249.5.rev.vodafone.pt,PT,Europe,Southern Europe,Portugal,Lisbon,,Lisbon
213.205.80.82,4,2775314,DNS Server: 213-205-80-82.net.novis.pt,PT,Europe,Southern Europe,Portugal,Braga,,Prazins
5.249.101.217,4,36,DNS Server: 217.101.249.5.rev.vodafone.pt,PT,Europe,Southern Europe,Portugal,Lisbon,,Lisbon
94.60.88.252,4,202,DNS Server: 252.88.60.94.rev.vodafone.pt,PT,Europe,Southern Europe,Portugal,Porto,,Porto
5.249.100.3,4,-29,DNS Server: 3.100.249.5.rev.vodafone.pt,PT,Europe,Southern Europe,Portugal,Lisbon,,Lisbon
78.130.64.95,4,-24,DNS Server: 78-130-64-95.static.net.novis.pt,PT,Europe,Southern Europe,Portugal,,,
78.130.51.53,4,-3890729199,DNS Server: 78.130.51.53.rev.optimus.pt,PT,Europe,Southern Europe,Portugal,,,
88.210.101.130,4,84,DNS Server: 88.210.101.130.rev.optimus.pt,PT,Europe,Southern Europe,Portugal,Porto,,Sobrosa
88.157.113.175,4,-40181,DNS Server: a88-157-113-175.static.cpe.netcabo.pt,PT,Europe,Southern Europe,Portugal,Braga,,Vila Nova de Famalicão
88.157.145.54,4,50,DNS Server: a88-157-145-54.static.cpe.netcabo.pt,PT,Europe,Southern Europe,Portugal,Porto,,Porto
88.157.154.134,4,-125118413,DNS Server: a88-157-154-134.static.cpe.netcabo.pt,PT,Europe,Southern Europe,Portugal,Braga,,Caldelas
88.157.98.214,4,7732,DNS Server: a88-157-98-214.static.cpe.netcabo.pt,PT,Europe,Southern Europe,Portugal,Lisbon,,Lisbon
89.154.1.233,4,22316861,DNS Server: a89-154-1-233.static.cpe.netcabo.pt,PT,Europe,Southern Europe,Portugal,Lisbon,,Oeiras
85.243.48.77,4,545,DNS Server: bl10-48-77.dsl.telepac.pt,PT,Europe,Southern Europe,Portugal,Faro,,Albufeira
85.244.80.220,4,151,DNS Server: bl11-80-220.dsl.telepac.pt,PT,Europe,Southern Europe,Portugal,Setúbal,,Pinhal Novo
85.245.51.190,4,390,DNS Server: bl12-51-190.dsl.telepac.pt,PT,Europe,Southern Europe,Portugal,Azores,,Angra do Heroísmo
85.247.21.35,4,666,DNS Server: bl14-21-35.dsl.telepac.pt,PT,Europe,Southern Europe,Portugal,Faro,,Tavira
188.80.70.237,4,633,DNS Server: bl15-70-237.dsl.telepac.pt,PT,Europe,Southern Europe,Portugal,Braga,,Vieira do Minho
188.81.200.105,4,449,DNS Server: bl16-200-105.dsl.telepac.pt,PT,Europe,Southern Europe,Portugal,Viseu,,Viseu
2.80.4.81,4,259,DNS Server: bl19-4-81.dsl.telepac.pt,PT,Europe,Southern Europe,Portugal,Viana do Castelo,,Viana do Castelo
2.81.59.121,4,-228,DNS Server: bl20-59-121.dsl.telepac.pt,PT,Europe,Southern Europe,Portugal,Porto,,Penafiel
2.81.63.254,4,183,DNS Server: bl20-63-254.dsl.telepac.pt,PT,Europe,Southern Europe,Portugal,Porto,,Penafiel
2.83.244.68,4,223,DNS Server: bl22-244-68.dsl.telepac.pt,PT,Europe,Southern Europe,Portugal,Braga,,Braga
2.83.250.179,4,-223,DNS Server: bl22-250-179.dsl.telepac.pt,PT,Europe,Southern Europe,Portugal,Leiria,,Marinha Grande
82.155.125.231,4,644,DNS Server: bl6-125-231.dsl.telepac.pt,PT,Europe,Southern Europe,Portugal,Leiria,,Atouguia da Baleia
82.155.91.243,4,18,DNS Server: bl6-91-243.dsl.telepac.pt,PT,Europe,Southern Europe,Portugal,Porto,,Amarante
85.241.19.107,4,391,DNS Server: bl8-19-107.dsl.telepac.pt,PT,Europe,Southern Europe,Portugal,Lisbon,,Lisbon
85.242.208.15,4,399,DNS Server: bl9-208-15.dsl.telepac.pt,PT,Europe,Southern Europe,Portugal,Faro,,Parchal
85.242.56.159,4,424,DNS Server: bl9-56-159.dsl.telepac.pt,PT,Europe,Southern Europe,Portugal,Lisbon,,Amadora
81.84.246.187,4,292,DNS Server: mail.alfa-beta.pt,PT,Europe,Southern Europe,Portugal,Lisbon,,Lisbon
5.206.228.37,4,268,DNS Server: mgarces2.evolute.pt,PT,Europe,Southern Europe,Portugal,Lisbon,,Lisbon
62.28.65.186,4,-2136545554,DNS Server: static-wan-bl3-65-186.rev.webside.pt,PT,Europe,Southern Europe,Portugal,Lisbon,,Pontinha
94.126.169.3,4,19,dominios.pt,PT,Europe,Southern Europe,Portugal,Lisbon,,Lisbon
62.28.195.86,4,-234971,douroacima.pt,PT,Europe,Southern Europe,Portugal,Porto,,Canelas
185.15.23.121,4,5,doutorfinancas.pt,PT,Europe,Southern Europe,Portugal,Lisbon,,Lisbon
185.11.166.85,4,13,dstar-portugal.pt,PT,Europe,Southern Europe,Portugal,,,
176.61.150.11,4,3,e-cultura.pt,PT,Europe,Southern Europe,Portugal,,,
94.46.251.77,4,7,e-goi.com,PT,Europe,Southern Europe,Portugal,Porto,,Matosinhos Municipality
213.58.230.133,4,600,eapn.pt,PT,Europe,Southern Europe,Portugal,Lisbon,,Lisbon
94.46.13.70,4,43,ecclesia.pt,PT,Europe,Southern Europe,Portugal,Lisbon,,Algés
94.23.74.221,4,1028,edinburghshogmanay.org,PT,Europe,Southern Europe,Portugal,Lisbon,,Lisbon
185.79.226.156,4,7,egoi.page,PT,Europe,Southern Europe,Portugal,Porto,,Matosinhos Municipality
185.240.248.69,4,656,electrika-shop-portugal.com,PT,Europe,Southern Europe,Portugal,,,
94.46.180.50,4,43,epws.org,PT,Europe,Southern Europe,Portugal,,,
185.12.116.231,4,3037,erasmusmais.pt,PT,Europe,Southern Europe,Portugal,,,
185.12.116.117,4,727,esoterica.pt,PT,Europe,Southern Europe,Portugal,,,
185.41.117.229,4,23,espad.org,PT,Europe,Southern Europe,Portugal,,,
185.99.235.107,4,29,essentialhome.eu,PT,Europe,Southern Europe,Portugal,,,
94.126.169.125,4,21,estorilpraia.pt,PT,Europe,Southern Europe,Portugal,Lisbon,,Lisbon
94.46.169.84,4,6,eucnc.eu,PT,Europe,Southern Europe,Portugal,,,
130.185.87.163,4,245,eugosto.pt,PT,Europe,Southern Europe,Portugal,Lisbon,,Lisbon
185.32.189.108,4,2,euroatlantic.pt,PT,Europe,Southern Europe,Portugal,,,
185.15.20.167,4,6,europacolon.pt,PT,Europe,Southern Europe,Portugal,Lisbon,,Lisbon
185.32.190.128,4,1,eusou.pt,PT,Europe,Southern Europe,Portugal,,,
185.12.116.55,4,33,eva-bus.com,PT,Europe,Southern Europe,Portugal,,,
130.185.84.151,4,9,fabiopedro.pt,PT,Europe,Southern Europe,Portugal,Lisbon,,Lisbon
185.32.190.4,4,-12,faialdigital.com,PT,Europe,Southern Europe,Portugal,,,
195.22.14.187,4,4,farmaciasdeservico.net,PT,Europe,Southern Europe,Portugal,Lisbon,,Lisbon
109.71.43.207,4,7,farol.com.pt,PT,Europe,Southern Europe,Portugal,Lisbon,,Lisbon
94.46.23.119,4,625,fjuventude.pt,PT,Europe,Southern Europe,Portugal,Viseu,,Palma
185.11.166.138,4,14024,flora-on.pt,PT,Europe,Southern Europe,Portugal,,,
94.46.168.230,4,44,foradhoras.com.pt,PT,Europe,Southern Europe,Portugal,,,
185.15.20.151,4,6,forum.pt,PT,Europe,Southern Europe,Portugal,Lisbon,,Lisbon
5.206.228.11,4,6,fpa.pt,PT,Europe,Southern Europe,Portugal,Lisbon,,Lisbon
94.46.135.82,4,31,fpg.pt,PT,Europe,Southern Europe,Portugal,,,
130.185.84.7,4,983,fpo.pt,PT,Europe,Southern Europe,Portugal,Lisbon,,Lisbon
82.154.19.76,4,843,freegamedev.net,PT,Europe,Southern Europe,Portugal,Azores,,Ponta Delgada
94.46.25.128,4,2,frutafeia.pt,PT,Europe,Southern Europe,Portugal,Viseu,,Palma
185.32.37.76,4,17,fundoambiental.pt,PT,Europe,Southern Europe,Portugal,Lisbon,,Lisbon
94.126.169.159,4,6,gaiacablecar.com,PT,Europe,Southern Europe,Portugal,Lisbon,,Lisbon
94.46.15.39,4,4,garagesale.es,PT,Europe,Southern Europe,Portugal,Lisbon,,Algés
94.46.13.82,4,8,garrafeiranacional.com,PT,Europe,Southern Europe,Portugal,Lisbon,,Algés
185.12.116.62,4,-43,gaudela.net,PT,Europe,Southern Europe,Portugal,,,
94.46.182.83,4,3,geira.pt,PT,Europe,Southern Europe,Portugal,,,
185.32.190.163,4,5,gerador.eu,PT,Europe,Southern Europe,Portugal,,,
194.65.141.201,4,53,gesadco.pt,PT,Europe,Southern Europe,Portugal,Porto,,Porto
94.46.172.37,4,15,goparity.com,PT,Europe,Southern Europe,Portugal,,,
185.32.188.24,4,1148,gorreana.pt,PT,Europe,Southern Europe,Portugal,,,
2.16.65.43,4,-29,grandvision.it,PT,Europe,Southern Europe,Portugal,Lisbon,,Lisbon
2.16.65.82,4,-24,grandvision.it,PT,Europe,Southern Europe,Portugal,Lisbon,,Lisbon
144.64.138.244,4,33,grisenergia.pt,PT,Europe,Southern Europe,Portugal,Setúbal,,Corroios
176.61.148.153,4,36556,groupsdr.com,PT,Europe,Southern Europe,Portugal,,,
188.208.143.125,4,10,growlforwindows.com,PT,Europe,Southern Europe,Portugal,Lisbon,,Lisbon
94.46.26.156,4,15,grupoift.pt,PT,Europe,Southern Europe,Portugal,Viseu,,Palma
94.46.181.206,4,13,guiadacidade.pt,PT,Europe,Southern Europe,Portugal,,,
185.240.248.77,4,723,heartofavagabond.com,PT,Europe,Southern Europe,Portugal,,,
193.136.192.231,4,0,iave.pt,PT,Europe,Southern Europe,Portugal,Coimbra,,Coimbra
185.32.189.33,4,704,ibizaclubpt.com,PT,Europe,Southern Europe,Portugal,,,
94.126.169.196,4,9,icsg.org,PT,Europe,Southern Europe,Portugal,Lisbon,,Lisbon
194.180.32.210,4,6,imageporter.com,PT,Europe,Southern Europe,Portugal,,,
94.126.169.148,4,32,inaltor.com,PT,Europe,Southern Europe,Portugal,Lisbon,,Lisbon
94.46.22.171,4,92,incat.pt,PT,Europe,Southern Europe,Portugal,Viseu,,Palma
130.185.84.171,4,19,inebur.com,PT,Europe,Southern Europe,Portugal,Lisbon,,Lisbon
146.193.32.4,4,46,inesc-id.pt,PT,Europe,Southern Europe,Portugal,Lisbon,,Lisbon
94.46.14.145,4,106,inesc.pt,PT,Europe,Southern Europe,Portugal,Lisbon,,Algés
194.117.27.125,4,2,inescporto.pt,PT,Europe,Southern Europe,Portugal,,,
195.23.41.129,4,70,infarmed.pt,PT,Europe,Southern Europe,Portugal,Lisbon,,Lisbon
185.240.248.57,4,1684,inova.business,PT,Europe,Southern Europe,Portugal,,,
185.32.189.182,4,-7413,ipiaget.org,PT,Europe,Southern Europe,Portugal,,,
192.104.48.74,4,27,ipl.pt,PT,Europe,Southern Europe,Portugal,,,
93.108.226.5,4,31,ipn.pt,PT,Europe,Southern Europe,Portugal,Lisbon,,Lisbon
94.46.25.14,4,2,ipopi.org,PT,Europe,Southern Europe,Portugal,Viseu,,Palma
193.136.58.74,4,36,ipp.pt,PT,Europe,Southern Europe,Portugal,Porto,,Porto
193.137.229.205,4,30,ipportalegre.pt,PT,Europe,Southern Europe,Portugal,Guarda,,Guarda
193.136.189.102,4,13,iscte.pt,PT,Europe,Southern Europe,Portugal,Lisbon,,Lisbon
185.240.248.27,4,1196,iseki-food.net,PT,Europe,Southern Europe,Portugal,,,
94.46.180.72,4,14,ivotavares.net,PT,Europe,Southern Europe,Portugal,,,
185.12.116.98,4,1249,jf-orvalho.pt,PT,Europe,Southern Europe,Portugal,,,
94.46.181.160,4,30,jogoresponsavel.pt,PT,Europe,Southern Europe,Portugal,,,
195.170.168.54,4,6,jornaldeleiria.pt,PT,Europe,Southern Europe,Portugal,,,
185.32.188.146,4,485,jornaleconomico.pt,PT,Europe,Southern Europe,Portugal,,,
130.185.81.108,4,342,ketafoods.com,PT,Europe,Southern Europe,Portugal,Lisbon,,Lisbon
176.61.146.198,4,13,kit-alojamento-local.pt,PT,Europe,Southern Europe,Portugal,,,
94.23.75.76,4,3,ku4amala.ru,PT,Europe,Southern Europe,Portugal,Lisbon,,Lisbon
185.15.23.215,4,18,leffest.com,PT,Europe,Southern Europe,Portugal,Lisbon,,Lisbon
94.46.167.95,4,56,leiriprensa.pt,PT,Europe,Southern Europe,Portugal,,,
213.63.186.11,4,6,leme.pt,PT,Europe,Southern Europe,Portugal,Lisbon,,Lisbon
199.16.243.10,4,71240,lemmy.pt,PT,Europe,Southern Europe,Portugal,Lisbon,,Lisbon
195.246.238.106,4,8,leya.com,PT,Europe,Southern Europe,Portugal,,,
195.246.238.181,4,5,leyaonline.com,PT,Europe,Southern Europe,Portugal,,,
94.23.76.235,4,8,librarianinblack.net,PT,Europe,Southern Europe,Portugal,Lisbon,,Lisbon
94.126.174.10,4,-817,lifecooler.com,PT,Europe,Southern Europe,Portugal,Lisbon,,Lisbon
176.61.149.153,4,448,liftech.pt,PT,Europe,Southern Europe,Portugal,,,
94.46.170.191,4,2,ligacontracancro.pt,PT,Europe,Southern Europe,Portugal,,,
80.172.227.16,4,591,lighthouse3d.com,PT,Europe,Southern Europe,Portugal,Porto,,Porto
185.12.116.235,4,1198,linktoleaders.com,PT,Europe,Southern Europe,Portugal,,,
185.15.20.223,4,6,lisboa.pt,PT,Europe,Southern Europe,Portugal,Lisbon,,Lisbon
94.46.22.122,4,34,loopdesignawards.com,PT,Europe,Southern Europe,Portugal,Viseu,,Palma
185.12.116.146,4,707,lovehappensmag.com,PT,Europe,Southern Europe,Portugal,,,
62.233.41.51,4,5,lovetiles.com,PT,Europe,Southern Europe,Portugal,,,
195.170.168.32,4,9,lpfp.pt,PT,Europe,Southern Europe,Portugal,,,
109.71.43.190,4,24,ltek.pt,PT,Europe,Southern Europe,Portugal,Lisbon,,Lisbon
94.46.12.196,4,7,luban.pt,PT,Europe,Southern Europe,Portugal,Lisbon,,Algés
94.46.15.205,4,3,lxfactory.com,PT,Europe,Southern Europe,Portugal,Lisbon,,Algés
109.71.40.88,4,447,madeiraallyear.com,PT,Europe,Southern Europe,Portugal,Lisbon,,Lisbon
185.32.188.54,4,5,maistrafego.pt,PT,Europe,Southern Europe,Portugal,,,
94.23.73.76,4,50,marcar.it,PT,Europe,Southern Europe,Portugal,Lisbon,,Lisbon
195.200.252.144,4,323,margemfrio.pt,PT,Europe,Southern Europe,Portugal,,,
194.39.124.53,4,41,marketeer.pt,PT,Europe,Southern Europe,Portugal,Setúbal,,Montijo
194.39.84.143,4,9,mattel.de,PT,Europe,Southern Europe,Portugal,,,
94.46.183.10,4,2332,medinamica.com,PT,Europe,Southern Europe,Portugal,,,
185.12.116.108,4,314,miguelclaro.com,PT,Europe,Southern Europe,Portugal,,,
185.32.191.188,4,12,mintysquare.com,PT,Europe,Southern Europe,Portugal,,,
62.28.83.111,4,17,modalisboa.pt,PT,Europe,Southern Europe,Portugal,Lisbon,,Lisbon
130.185.87.195,4,211,monstrafestival.com,PT,Europe,Southern Europe,Portugal,Lisbon,,Lisbon
185.15.20.143,4,9,motelx.org,PT,Europe,Southern Europe,Portugal,Lisbon,,Lisbon
195.22.25.138,4,74,motorguia.net,PT,Europe,Southern Europe,Portugal,Lisbon,,Lisbon
94.46.183.37,4,2266,moveis-casa-jardim.com,PT,Europe,Southern Europe,Portugal,,,
94.126.169.145,4,25,museuarqueologicodocarmo.pt,PT,Europe,Southern Europe,Portugal,Lisbon,,Lisbon
109.71.44.169,4,4,museuberardo.pt,PT,Europe,Southern Europe,Portugal,Lisbon,,Lisbon
89.26.243.107,4,2,museudodouro.pt,PT,Europe,Southern Europe,Portugal,Lisbon,,Lisbon
94.46.26.17,4,3,musicboxlisboa.com,PT,Europe,Southern Europe,Portugal,Viseu,,Palma
94.126.171.155,4,934,mygutfeeling.eu,PT,Europe,Southern Europe,Portugal,Lisbon,,Lisbon
193.136.192.180,4,35,nau.edu.pt,PT,Europe,Southern Europe,Portugal,Coimbra,,Coimbra
185.90.57.128,4,5,newsmuseum.pt,PT,Europe,Southern Europe,Portugal,,,
94.46.176.14,4,-83662,nexx-helmets.com,PT,Europe,Southern Europe,Portugal,,,
94.46.135.219,4,7,nit.pt,PT,Europe,Southern Europe,Portugal,,,
130.185.83.104,4,185,nit.pt,PT,Europe,Southern Europe,Portugal,Lisbon,,Lisbon
130.185.81.219,4,356,nit.pt,PT,Europe,Southern Europe,Portugal,Lisbon,,Lisbon
130.185.82.219,4,7,nit.pt,PT,Europe,Southern Europe,Portugal,Lisbon,,Lisbon
109.71.41.51,4,869,nunonunes-ferreira.com,PT,Europe,Southern Europe,Portugal,Lisbon,,Lisbon
94.46.183.147,4,2368,nutrimento.pt,PT,Europe,Southern Europe,Portugal,,,
94.46.168.60,4,-129,obidos.pt,PT,Europe,Southern Europe,Portugal,,,
94.23.75.211,4,4,observatorioinmobiliario.es,PT,Europe,Southern Europe,Portugal,Lisbon,,Lisbon
94.46.14.48,4,-688,odisseia-gps.com,PT,Europe,Southern Europe,Portugal,Lisbon,,Algés
94.46.183.20,4,1226,oikos.pt,PT,Europe,Southern Europe,Portugal,,,
91.209.16.147,4,3,oitaven.pt,PT,Europe,Southern Europe,Portugal,,,
185.83.248.141,4,829314,online.pt,PT,Europe,Southern Europe,Portugal,,,
213.190.194.242,4,432,Ookla Speedtest Server 5874: speedtest.nosmadeira.com,PT,Europe,Southern Europe,Portugal,Madeira,,Funchal
89.31.231.4,4,205,Ookla Speedtest Server 19253: speed.lazertelecom.com,PT,Europe,Southern Europe,Portugal,Faro,,Almancil
185.113.142.188,4,205899,Ookla Speedtest Server 44427: speedtest.innov4web.pt,PT,Europe,Southern Europe,Portugal,Lisbon,,Lisbon
185.31.158.52,4,240,Ookla Speedtest Server 54525: speedtest.webhs.pt,PT,Europe,Southern Europe,Portugal,,,
176.221.37.115,4,336,ordemdosmedicos.pt,PT,Europe,Southern Europe,Portugal,,,
176.61.151.107,4,2,ordemdospsicologos.pt,PT,Europe,Southern Europe,Portugal,,,
94.46.180.220,4,8,osbelenenses.com,PT,Europe,Southern Europe,Portugal,,,
94.46.177.23,4,9,padraoepadrao.com,PT,Europe,Southern Europe,Portugal,,,
94.46.135.161,4,22,palaciodabolsa.com,PT,Europe,Southern Europe,Portugal,,,
94.46.175.12,4,89,passadicosdopaiva.pt,PT,Europe,Southern Europe,Portugal,Lisbon,,Lisbon
185.12.116.107,4,1236,paulogomeslda.com,PT,Europe,Southern Europe,Portugal,,,
94.46.173.40,4,24,pestanagolf.com,PT,Europe,Southern Europe,Portugal,,,
94.46.168.148,4,9,pizzeriacasavostra.com,PT,Europe,Southern Europe,Portugal,,,
185.32.188.4,4,208,portal-energia.com,PT,Europe,Southern Europe,Portugal,,,
185.90.56.209,4,4,portaldasnacoes.pt,PT,Europe,Southern Europe,Portugal,,,
94.46.13.75,4,1210,portimonense.pt,PT,Europe,Southern Europe,Portugal,Lisbon,,Algés
185.101.179.130,4,-4,portodigital.pt,PT,Europe,Southern Europe,Portugal,Porto,,Porto
130.185.84.99,4,15,portugalfilm.org,PT,Europe,Southern Europe,Portugal,Lisbon,,Lisbon
94.23.78.94,4,24,portugalio.com,PT,Europe,Southern Europe,Portugal,Lisbon,,Lisbon
176.61.151.92,4,33,portugalventures.pt,PT,Europe,Southern Europe,Portugal,,,
185.90.59.130,4,84,ppbi.pt,PT,Europe,Southern Europe,Portugal,,,
185.12.116.232,4,3461,presstur.com,PT,Europe,Southern Europe,Portugal,,,
194.39.124.145,4,36,priberam.com,PT,Europe,Southern Europe,Portugal,Setúbal,,Montijo
94.46.180.29,4,72,produtoresflorestais.pt,PT,Europe,Southern Europe,Portugal,,,
94.46.30.95,4,28,provedor-jus.pt,PT,Europe,Southern Europe,Portugal,Viseu,,Palma
176.61.149.217,4,27,psicologia.pt,PT,Europe,Southern Europe,Portugal,,,
185.15.20.127,4,42,ptisp.pt,PT,Europe,Southern Europe,Portugal,Lisbon,,Lisbon
185.15.23.234,4,16,ptisp.pt,PT,Europe,Southern Europe,Portugal,Lisbon,,Lisbon
185.15.23.200,4,17,ptisp.pt,PT,Europe,Southern Europe,Portugal,Lisbon,,Lisbon
185.15.23.235,4,10,ptisp.pt,PT,Europe,Southern Europe,Portugal,Lisbon,,Lisbon
193.136.192.211,4,13,ptspace.pt,PT,Europe,Southern Europe,Portugal,Coimbra,,Coimbra
94.23.74.13,4,10,pulsepeak.top,PT,Europe,Southern Europe,Portugal,Lisbon,,Lisbon
188.93.227.81,4,9,quercus.pt,PT,Europe,Southern Europe,Portugal,,,
194.39.126.76,4,1,quintadaslagrimas.pt,PT,Europe,Southern Europe,Portugal,Setúbal,,Montijo
185.90.56.148,4,7,quintadoportal.com,PT,Europe,Southern Europe,Portugal,,,
185.90.57.238,4,3,quintadovallado.com,PT,Europe,Southern Europe,Portugal,,,
83.240.239.180,4,116,radiopopular.pt,PT,Europe,Southern Europe,Portugal,Lisbon,,Prior Velho
176.61.151.13,4,17,rainbow-europe.org,PT,Europe,Southern Europe,Portugal,,,
185.32.188.58,4,25,razaoautomovel.com,PT,Europe,Southern Europe,Portugal,,,
89.26.249.46,4,26,rededoempresario.pt,PT,Europe,Southern Europe,Portugal,Lisbon,,Lisbon
185.12.116.124,4,167,redemunicipiossaudaveis.com,PT,Europe,Southern Europe,Portugal,,,
194.39.124.134,4,18,reefforum.net,PT,Europe,Southern Europe,Portugal,Setúbal,,Montijo
213.63.186.146,4,23,reorganiza.pt,PT,Europe,Southern Europe,Portugal,Lisbon,,Lisbon
185.12.116.247,4,1119,resistir.info,PT,Europe,Southern Europe,Portugal,,,
130.185.83.78,4,1164042,rioavefc.pt,PT,Europe,Southern Europe,Portugal,Lisbon,,Lisbon
185.90.59.22,4,13,riolisboa.com,PT,Europe,Southern Europe,Portugal,,,
130.185.87.191,4,28,rippa.pt,PT,Europe,Southern Europe,Portugal,Lisbon,,Lisbon
94.46.177.62,4,8,rna.ao,PT,Europe,Southern Europe,Portugal,,,
185.240.248.55,4,1053,rodotour.com,PT,Europe,Southern Europe,Portugal,,,
62.28.183.22,4,61,rotadoromanico.com,PT,Europe,Southern Europe,Portugal,Porto,,Paços de Ferreira
94.46.175.222,4,511,rpn.pt,PT,Europe,Southern Europe,Portugal,,,
185.99.235.115,4,11,rugsociety.eu,PT,Europe,Southern Europe,Portugal,,,
94.46.168.7,4,9,sam.pt,PT,Europe,Southern Europe,Portugal,,,
213.63.232.221,4,12960,sanahotels.com,PT,Europe,Southern Europe,Portugal,Lisbon,,Lisbon
185.31.158.117,4,3,santuario-fatima.pt,PT,Europe,Southern Europe,Portugal,,,
185.90.59.68,4,37,seepmode.es,PT,Europe,Southern Europe,Portugal,,,
176.221.32.160,4,29,sequenciais.pt,PT,Europe,Southern Europe,Portugal,,,
185.31.158.72,4,2,shifter.pt,PT,Europe,Southern Europe,Portugal,,,
176.61.151.12,4,2858,slidesplash.com,PT,Europe,Southern Europe,Portugal,,,
62.28.233.153,4,-1465646310,smtuc.pt,PT,Europe,Southern Europe,Portugal,Lisbon,,Barcarena
94.46.183.98,4,653,snpcultura.org,PT,Europe,Southern Europe,Portugal,,,
94.46.135.54,4,35,sograpevinhos.com,PT,Europe,Southern Europe,Portugal,,,
213.58.130.252,4,3,spea.pt,PT,Europe,Southern Europe,Portugal,Lisbon,,Lisbon
94.46.170.245,4,2,spi.pt,PT,Europe,Southern Europe,Portugal,,,
185.11.166.94,4,513,spm.pt,PT,Europe,Southern Europe,Portugal,,,
94.23.75.84,4,2,spq.pt,PT,Europe,Southern Europe,Portugal,Lisbon,,Lisbon
185.90.57.190,4,42345,starsinsider.com,PT,Europe,Southern Europe,Portugal,,,
109.71.43.54,4,7,startupmadeira.eu,PT,Europe,Southern Europe,Portugal,Lisbon,,Lisbon
62.28.133.32,4,1295,supertrade.pt,PT,Europe,Southern Europe,Portugal,Porto,,Porto
130.185.82.106,4,18,surftotal.com,PT,Europe,Southern Europe,Portugal,Lisbon,,Lisbon
94.23.73.16,4,37,tacchini.it,PT,Europe,Southern Europe,Portugal,Lisbon,,Lisbon
94.46.30.99,4,22,taylor.pt,PT,Europe,Southern Europe,Portugal,Viseu,,Palma
185.12.116.91,4,-171,teatromunicipaldoporto.pt,PT,Europe,Southern Europe,Portugal,,,
176.61.151.122,4,1366,teatrosaoluiz.pt,PT,Europe,Southern Europe,Portugal,,,
213.63.189.60,4,2128,tecnicadovolante.com,PT,Europe,Southern Europe,Portugal,Lisbon,,Lisbon
94.46.26.55,4,4,terracell.pt,PT,Europe,Southern Europe,Portugal,Viseu,,Palma
213.205.79.58,4,5,terranova.pt,PT,Europe,Southern Europe,Portugal,Porto,,Porto
94.23.78.122,4,3,thankyoustephencolbert.org,PT,Europe,Southern Europe,Portugal,Lisbon,,Lisbon
94.46.175.134,4,22,theportuguesewine.com,PT,Europe,Southern Europe,Portugal,,,
94.126.169.90,4,1158,tnsc.pt,PT,Europe,Southern Europe,Portugal,Lisbon,,Lisbon
94.126.169.132,4,9,torredosclerigos.pt,PT,Europe,Southern Europe,Portugal,Lisbon,,Lisbon
94.126.171.1,4,49,touristicroutes.com,PT,Europe,Southern Europe,Portugal,Lisbon,,Lisbon
94.126.171.2,4,3,touristicroutes.com,PT,Europe,Southern Europe,Portugal,Lisbon,,Lisbon
185.99.235.40,4,38,trendesignbook.com,PT,Europe,Southern Europe,Portugal,,,
185.240.248.137,4,925,trienaldelisboa.com,PT,Europe,Southern Europe,Portugal,,,
185.12.116.202,4,490,turim-hotels.com,PT,Europe,Southern Europe,Portugal,,,
94.46.183.45,4,2764,turismodocentro.pt,PT,Europe,Southern Europe,Portugal,,,
213.63.232.43,4,57440,uab.pt,PT,Europe,Southern Europe,Portugal,Lisbon,,Lisbon
193.136.224.33,4,13,ualg.pt,PT,Europe,Southern Europe,Portugal,Azores,,Ponta Delgada
94.46.167.115,4,880,ubiwhere.com,PT,Europe,Southern Europe,Portugal,,,
185.12.116.101,4,650,universalmotors.pt,PT,Europe,Southern Europe,Portugal,,,
185.32.188.252,4,48,vfc.pt,PT,Europe,Southern Europe,Portugal,,,
94.46.173.30,4,20,vidagopalace.com,PT,Europe,Southern Europe,Portugal,,,
94.23.75.243,4,16,vidaimobiliaria.com,PT,Europe,Southern Europe,Portugal,Lisbon,,Lisbon
185.15.20.121,4,6,vilagale.pt,PT,Europe,Southern Europe,Portugal,Lisbon,,Lisbon
185.90.59.180,4,4,vinhosdoalentejo.pt,PT,Europe,Southern Europe,Portugal,,,
185.17.230.19,4,9,visitazores.com,PT,Europe,Southern Europe,Portugal,Lisbon,,Funchal
185.98.250.164,4,6,visitportoandnorth.travel,PT,Europe,Southern Europe,Portugal,,,
185.118.114.242,4,6,vitoriasc.pt,PT,Europe,Southern Europe,Portugal,,,
94.46.176.11,4,37,viveirosrego.com,PT,Europe,Southern Europe,Portugal,,,
94.46.15.224,4,65,vozdaplanicie.pt,PT,Europe,Southern Europe,Portugal,Lisbon,,Algés
94.23.74.31,4,22,vxm.pl,PT,Europe,Southern Europe,Portugal,Lisbon,,Lisbon
94.46.175.70,4,9,wicanders.com,PT,Europe,Southern Europe,Portugal,,,
94.46.183.40,4,2566,zedosbois.org,PT,Europe,Southern Europe,Portugal,,,
213.58.163.246,4,5,zero.ong,PT,Europe,Southern Europe,Portugal,Madeira,,Funchal
185.90.58.192,4,13,zoo.pt,PT,Europe,Southern Europe,Portugal,,,
94.46.180.124,4,284,zoomarine.pt,PT,Europe,Southern Europe,Portugal,,,
