reflector_ip,ip_version,offset,description,country_code,region,sub_region,country_name,sub_division_1,sub_division_2,city
185.123.204.78,4,6,43folder.com,ES,Europe,Southern Europe,Spain,Valencia,Valencia,Valencia
5.2.89.15,4,348848,a3exp.com,ES,Europe,Southern Europe,Spain,,,
185.47.244.35,4,18,abadiadesilos.es,ES,Europe,Southern Europe,Spain,,,
46.16.59.123,4,7,academianutricionydietetica.org,ES,Europe,Southern Europe,Spain,,,
87.98.229.200,4,26,acantilado.es,ES,Europe,Southern Europe,Spain,,,
185.129.248.202,4,-191295,accessibilitas.es,ES,Europe,Southern Europe,Spain,,,
82.223.3.143,4,17,aceiteslamatilla.com,ES,Europe,Southern Europe,Spain,,,
81.184.3.19,4,55,acm.cat,ES,Europe,Southern Europe,Spain,Catalonia,Barcelona,Badalona
212.92.50.58,4,6,acontracorrientefilms.com,ES,Europe,Southern Europe,Spain,,,
81.25.126.32,4,28,acpv.cat,ES,Europe,Southern Europe,Spain,,,
82.223.26.214,4,4,actasanitaria.com,ES,Europe,Southern Europe,Spain,,,
185.186.169.202,4,6,adicciones.es,ES,Europe,Southern Europe,Spain,,,
95.100.117.49,4,45,admanmedia.com,ES,Europe,Southern Europe,Spain,Madrid,Madrid,Madrid
185.23.70.8,4,5,adolescenciasema.org,ES,Europe,Southern Europe,Spain,,,
185.136.91.5,4,20,adolphesax.com,ES,Europe,Southern Europe,Spain,,,
193.84.177.61,4,6,adqaejecuciondeproyectos.com,ES,Europe,Southern Europe,Spain,,,
178.33.117.252,4,6,aebioetica.org,ES,Europe,Southern Europe,Spain,,,
185.222.157.149,4,51,aecpa.es,ES,Europe,Southern Europe,Spain,,,
185.37.231.211,4,47,aedem.org,ES,Europe,Southern Europe,Spain,,,
31.200.244.7,4,28,aefundraising.org,ES,Europe,Southern Europe,Spain,,,
185.34.193.63,4,36,aeropuertobarcelona-elprat.com,ES,Europe,Southern Europe,Spain,,,
46.29.48.6,4,-48926,afanias.org,ES,Europe,Southern Europe,Spain,,,
134.0.8.120,4,5,afasiaarchzine.com,ES,Europe,Southern Europe,Spain,,,
5.135.232.227,4,1097,aff1688.bet,ES,Europe,Southern Europe,Spain,,,
51.178.111.100,4,3,agenda21culture.net,ES,Europe,Southern Europe,Spain,,,
178.33.5.208,4,5,agendapublica.es,ES,Europe,Southern Europe,Spain,Madrid,Madrid,Madrid
185.234.224.57,4,13,agroecologia.net,ES,Europe,Southern Europe,Spain,,,
217.71.204.119,4,1124,agronegocios.es,ES,Europe,Southern Europe,Spain,Catalonia,Barcelona,Barcelona
46.16.58.23,4,7,agropopular.com,ES,Europe,Southern Europe,Spain,,,
85.208.102.102,4,4,aguasresiduales.info,ES,Europe,Southern Europe,Spain,,,
88.148.3.209,4,4,agustinoszaragoza.com,ES,Europe,Southern Europe,Spain,Andalusia,Almeria,El Pilar
188.165.132.78,4,4,airbusmilitary.com,ES,Europe,Southern Europe,Spain,,,
185.186.169.192,4,5,airebardenas.com,ES,Europe,Southern Europe,Spain,,,
188.165.128.136,4,3,aladi.org,ES,Europe,Southern Europe,Spain,,,
213.4.38.212,4,57,albalearning.com,ES,Europe,Southern Europe,Spain,Catalonia,Barcelona,Barcelona
213.227.44.40,4,20,albalearning.com,ES,Europe,Southern Europe,Spain,Andalusia,Huelva,La Antilla
178.33.164.163,4,62,albasolar.es,ES,Europe,Southern Europe,Spain,Madrid,Madrid,Madrid
185.255.22.15,4,62,alcalalareal.es,ES,Europe,Southern Europe,Spain,,,
217.116.16.252,4,-1,alcazardesanjuan.es,ES,Europe,Southern Europe,Spain,,,
164.138.208.173,4,17,alcazardesegovia.com,ES,Europe,Southern Europe,Spain,,,
82.194.72.52,4,1846,alcazarsevilla.org,ES,Europe,Southern Europe,Spain,,,
77.227.201.23,4,-21,alcoi.org,ES,Europe,Southern Europe,Spain,Aragon,Saragossa,Zaragoza
87.98.227.17,4,4,aldeasabandonadas.com,ES,Europe,Southern Europe,Spain,,,
185.118.56.167,4,-2,aldeasinfantiles.es,ES,Europe,Southern Europe,Spain,,,
154.58.198.208,4,53,alejandradeargos.com,ES,Europe,Southern Europe,Spain,Madrid,Madrid,Madrid
178.211.133.32,4,6,alexrovira.com,ES,Europe,Southern Europe,Spain,Madrid,Madrid,Madrid
178.33.112.157,4,8,alimarket.es,ES,Europe,Southern Europe,Spain,,,
5.39.9.234,4,13,alimmenta.com,ES,Europe,Southern Europe,Spain,,,
185.47.244.178,4,5,allforpadel.com,ES,Europe,Southern Europe,Spain,,,
185.18.198.82,4,-2432,almeria360.com,ES,Europe,Southern Europe,Spain,,,
178.33.167.74,4,39,alojamientosenpamplona.com,ES,Europe,Southern Europe,Spain,Madrid,Madrid,Madrid
185.23.70.100,4,7,alphadecay.org,ES,Europe,Southern Europe,Spain,,,
154.53.132.86,4,3222,altamiraweb.net,ES,Europe,Southern Europe,Spain,Madrid,Madrid,Madrid
164.138.208.187,4,5,alzfae.org,ES,Europe,Southern Europe,Spain,,,
51.38.169.100,4,5,amarehotels.com,ES,Europe,Southern Europe,Spain,Galicia,Lugo,Lugo
134.0.9.176,4,4,amigosdelosmayores.org,ES,Europe,Southern Europe,Spain,,,
185.66.175.77,4,42,amigosmuseoreinasofia.org,ES,Europe,Southern Europe,Spain,,,
185.165.3.35,4,5,anaaweb.org,ES,Europe,Southern Europe,Spain,,,
185.23.69.152,4,100,anabad.org,ES,Europe,Southern Europe,Spain,,,
185.92.244.178,4,52,andaluciarustica.com,ES,Europe,Southern Europe,Spain,Andalusia,Almeria,Almería
185.156.219.10,4,13,anipedia.net,ES,Europe,Southern Europe,Spain,,,
178.211.133.28,4,5,annestokes.com,ES,Europe,Southern Europe,Spain,Madrid,Madrid,Madrid
46.16.59.206,4,26,anocolympic.org,ES,Europe,Southern Europe,Spain,,,
91.226.177.122,4,6,anticapitalistas.org,ES,Europe,Southern Europe,Spain,,,
94.23.81.82,4,21,antispywarecoalition.org,ES,Europe,Southern Europe,Spain,,,
188.95.114.158,4,5,apamamalaga.es,ES,Europe,Southern Europe,Spain,,,
161.22.47.203,4,24,apdhcro.org,ES,Europe,Southern Europe,Spain,Catalonia,Barcelona,Barcelona
185.68.108.200,4,420,apegrupo.com,ES,Europe,Southern Europe,Spain,,,
188.213.5.124,4,83,aperturas.org,ES,Europe,Southern Europe,Spain,Madrid,Madrid,Madrid
87.98.230.84,4,26,aplust.net,ES,Europe,Southern Europe,Spain,,,
134.0.9.57,4,18,apmusicales.com,ES,Europe,Southern Europe,Spain,,,
185.186.169.194,4,11,apostilladodelahaya.com,ES,Europe,Southern Europe,Spain,,,
51.210.207.118,4,6,aprenderfotografia.online,ES,Europe,Southern Europe,Spain,Galicia,Lugo,Lugo
46.231.3.201,4,-56,aquaclean.com,ES,Europe,Southern Europe,Spain,,,
185.118.56.46,4,1,aquariumss.com,ES,Europe,Southern Europe,Spain,,,
185.118.57.33,4,-1,ar-racking.com,ES,Europe,Southern Europe,Spain,,,
185.5.124.41,4,94,aragonesasi.com,ES,Europe,Southern Europe,Spain,,,
80.240.126.18,4,35,aralleida.cat,ES,Europe,Southern Europe,Spain,Catalonia,Barcelona,Barcelona
194.30.25.10,4,89,ararteko.eus,ES,Europe,Southern Europe,Spain,Basque Country,Gipuzkoa,Eibar
185.23.69.231,4,22,arcdesantmarti.com,ES,Europe,Southern Europe,Spain,,,
188.164.194.94,4,67,archidiocesisgranada.es,ES,Europe,Southern Europe,Spain,,,
178.211.133.65,4,23,archivoshistoria.com,ES,Europe,Southern Europe,Spain,Madrid,Madrid,Madrid
46.16.62.251,4,53,ardeola.org,ES,Europe,Southern Europe,Spain,,,
188.165.130.76,4,53,arenysdemar.cat,ES,Europe,Southern Europe,Spain,,,
31.14.255.81,4,-1181,argentaceramica.com,ES,Europe,Southern Europe,Spain,Madrid,Madrid,Madrid
89.248.96.85,4,464,arguments.es,ES,Europe,Southern Europe,Spain,,,
82.194.74.43,4,2435262,arkeero.com,ES,Europe,Southern Europe,Spain,,,
195.192.255.150,4,61,arquitecturayempresa.es,ES,Europe,Southern Europe,Spain,Valencia,Alicante,Orihuela
150.214.104.61,4,54,arqus-alliance.eu,ES,Europe,Southern Europe,Spain,Andalusia,Jaen,Jaén
178.211.133.33,4,29,artesaniaviana.com,ES,Europe,Southern Europe,Spain,Madrid,Madrid,Madrid
134.0.9.80,4,13,artjust.org,ES,Europe,Southern Europe,Spain,,,
185.34.194.22,4,108,asadorelgordo.com,ES,Europe,Southern Europe,Spain,,,
193.70.117.88,4,19,ascun.org.co,ES,Europe,Southern Europe,Spain,,,
185.161.98.43,4,43,aslan.es,ES,Europe,Southern Europe,Spain,Madrid,Madrid,Madrid
85.208.102.133,4,42,asociacionanse.org,ES,Europe,Southern Europe,Spain,,,
188.164.197.109,4,76,aspaym.org,ES,Europe,Southern Europe,Spain,,,
46.29.49.11,4,67,asperger.es,ES,Europe,Southern Europe,Spain,,,
51.254.5.64,4,0,asturias.com,ES,Europe,Southern Europe,Spain,,,
5.135.40.73,4,-160,atalaya-golf.com,ES,Europe,Southern Europe,Spain,Andalusia,Granada,Granada
178.33.118.110,4,66,ate.org.ar,ES,Europe,Southern Europe,Spain,,,
93.189.88.219,4,8,ati.es,ES,Europe,Southern Europe,Spain,Catalonia,Barcelona,Barcelona
164.138.208.95,4,5,atinservices.com,ES,Europe,Southern Europe,Spain,,,
91.142.212.236,4,51,atlantacongress.org,ES,Europe,Southern Europe,Spain,,,
185.195.98.213,4,-4804,attac.es,ES,Europe,Southern Europe,Spain,Madrid,Madrid,Madrid
217.71.206.173,4,4,auditori.cat,ES,Europe,Southern Europe,Spain,Catalonia,Barcelona,Barcelona
82.223.37.149,4,28,auditoriodetenerife.com,ES,Europe,Southern Europe,Spain,,,
46.226.45.211,4,664,aulaclinic.cat,ES,Europe,Southern Europe,Spain,,,
178.33.115.89,4,12,aulacm.com,ES,Europe,Southern Europe,Spain,,,
87.98.227.122,4,21,ausigeti.es,ES,Europe,Southern Europe,Spain,,,
51.254.23.71,4,24,autismo.org.es,ES,Europe,Southern Europe,Spain,Galicia,Lugo,Lugo
212.170.49.16,4,31,autoprin.com,ES,Europe,Southern Europe,Spain,Madrid,Madrid,Madrid
80.240.126.98,4,98,aventura-amazonia.com,ES,Europe,Southern Europe,Spain,Catalonia,Barcelona,Barcelona
46.29.49.20,4,5,avepa.org,ES,Europe,Southern Europe,Spain,,,
185.75.244.93,4,79,avilareizen.nl,ES,Europe,Southern Europe,Spain,,,
195.55.43.170,4,73,aviles.es,ES,Europe,Southern Europe,Spain,Valencia,Alicante,Alicante
5.57.227.251,4,380460,awwwards.com,ES,Europe,Southern Europe,Spain,Madrid,Madrid,Madrid
31.24.152.166,4,11,axarnet.es,ES,Europe,Southern Europe,Spain,,,
31.200.246.66,4,9,axn.es,ES,Europe,Southern Europe,Spain,,,
37.230.86.240,4,156862,aytoloja.org,ES,Europe,Southern Europe,Spain,,,
213.4.63.165,4,-17452,aytosalamanca.es,ES,Europe,Southern Europe,Spain,Catalonia,Barcelona,Barcelona
79.137.45.1,4,5,ayudaleyprotecciondatos.es,ES,Europe,Southern Europe,Spain,Galicia,Lugo,Lugo
164.138.209.57,4,12,ayudatpymes.com,ES,Europe,Southern Europe,Spain,,,
185.195.98.157,4,2,ayuntamientoboadilladelmonte.org,ES,Europe,Southern Europe,Spain,Madrid,Madrid,Madrid
185.118.57.152,4,0,azkunazentroa.eus,ES,Europe,Southern Europe,Spain,,,
5.2.88.61,4,11082,azkware.net,ES,Europe,Southern Europe,Spain,,,
154.56.135.244,4,-834,azteca.es,ES,Europe,Southern Europe,Spain,Madrid,Madrid,Madrid
194.30.34.64,4,103,azurmendi.biz,ES,Europe,Southern Europe,Spain,Basque Country,Biscay,Bermeo
87.98.226.77,4,380,bae-solutions.com,ES,Europe,Southern Europe,Spain,,,
31.24.41.104,4,57,balneariomondariz.es,ES,Europe,Southern Europe,Spain,,,
185.23.70.9,4,4,banquete.org,ES,Europe,Southern Europe,Spain,,,
81.46.196.210,4,-1,barakaldo.org,ES,Europe,Southern Europe,Spain,Valencia,Castellon,Chilches
146.255.98.94,4,27,baratz.es,ES,Europe,Southern Europe,Spain,,,
46.183.117.187,4,9,barcelona-on-line.es,ES,Europe,Southern Europe,Spain,Catalonia,Barcelona,Barcelona
195.235.110.13,4,62,barcelonactiva.cat,ES,Europe,Southern Europe,Spain,Catalonia,Barcelona,Barcelona
185.34.194.199,4,7,barnalegal.com,ES,Europe,Southern Europe,Spain,,,
81.46.216.115,4,846,baskonia.com,ES,Europe,Southern Europe,Spain,Valencia,Castellon,Chilches
178.33.119.193,4,47,batallador.es,ES,Europe,Southern Europe,Spain,,,
91.134.246.73,4,22,beauhansen.top,ES,Europe,Southern Europe,Spain,,,
195.76.176.61,4,-330,beep.es,ES,Europe,Southern Europe,Spain,Catalonia,,
212.85.38.24,4,467,bellezapura.com,ES,Europe,Southern Europe,Spain,,,
84.88.75.239,4,745,bellvitgehospital.cat,ES,Europe,Southern Europe,Spain,Catalonia,Barcelona,L'Hospitalet de Llobregat
185.129.251.248,4,-260233,benimar.es,ES,Europe,Southern Europe,Spain,,,
51.254.80.220,4,53,bestmetronome.com,ES,Europe,Southern Europe,Spain,,,
178.33.119.234,4,7,betrendymykid.com,ES,Europe,Southern Europe,Spain,,,
178.211.133.51,4,37,biblogtecarios.es,ES,Europe,Southern Europe,Spain,Madrid,Madrid,Madrid
185.55.249.68,4,4,bilib.es,ES,Europe,Southern Europe,Spain,,,
82.223.8.226,4,3,bimbo.es,ES,Europe,Southern Europe,Spain,,,
185.186.170.105,4,17,bind40.com,ES,Europe,Southern Europe,Spain,,,
178.33.118.79,4,4,bioecoactual.com,ES,Europe,Southern Europe,Spain,,,
82.223.64.172,4,6,biografias.es,ES,Europe,Southern Europe,Spain,,,
185.129.251.218,4,1,bitnova.es,ES,Europe,Southern Europe,Spain,,,
91.134.193.184,4,8,bitworks.co.nz,ES,Europe,Southern Europe,Spain,,,
185.186.170.113,4,45,blogbyt.es,ES,Europe,Southern Europe,Spain,,,
178.60.29.64,4,365436,blogdefarmacia.com,ES,Europe,Southern Europe,Spain,Galicia,Pontevedra,Vigo
185.176.9.120,4,-1627916,blogoteca.com,ES,Europe,Southern Europe,Spain,,,
31.214.178.48,4,25,bloguismo.com,ES,Europe,Southern Europe,Spain,Balearic Islands,Balearic Islands,Ibiza Town
195.192.255.158,4,17,blume.net,ES,Europe,Southern Europe,Spain,Valencia,Alicante,Orihuela
213.0.77.134,4,29,bmwmotos.com,ES,Europe,Southern Europe,Spain,Basque Country,Gipuzkoa,Donostia / San Sebastian
164.138.211.69,4,29,bodegasmuga.com,ES,Europe,Southern Europe,Spain,,,
134.0.9.203,4,9,bodegasramonbilbao.es,ES,Europe,Southern Europe,Spain,,,
185.177.153.254,4,5,bombasgens.com,ES,Europe,Southern Europe,Spain,,,
217.71.200.239,4,31,bonart.cat,ES,Europe,Southern Europe,Spain,Catalonia,Barcelona,Barcelona
185.68.110.59,4,3158,bonousa.com,ES,Europe,Southern Europe,Spain,,,
31.24.158.11,4,119,bookitit.com,ES,Europe,Southern Europe,Spain,,,
46.16.63.95,4,25,boqueria.info,ES,Europe,Southern Europe,Spain,,,
185.50.45.33,4,11,bostak.org,ES,Europe,Southern Europe,Spain,,,
79.143.95.46,4,33,bound4blue.com,ES,Europe,Southern Europe,Spain,Catalonia,Barcelona,Barcelona
185.213.173.254,4,53,bouwbestel.nl,ES,Europe,Southern Europe,Spain,,,
178.156.41.236,4,31,brandmeister.network,ES,Europe,Southern Europe,Spain,Murcia,Murcia,Mula
188.164.196.60,4,4,bricolemar.com,ES,Europe,Southern Europe,Spain,,,
81.46.207.250,4,13,bullpadel.com,ES,Europe,Southern Europe,Spain,Valencia,Castellon,Chilches
94.23.83.34,4,-841,buscorestaurantes.com,ES,Europe,Southern Europe,Spain,,,
86.109.107.71,4,10,cadiz.es,ES,Europe,Southern Europe,Spain,,,
31.214.178.62,4,12,cafecentralmadrid.com,ES,Europe,Southern Europe,Spain,Balearic Islands,Balearic Islands,Ibiza Town
185.23.69.184,4,13,cafemamboibiza.com,ES,Europe,Southern Europe,Spain,,,
188.165.134.200,4,3,caganer.com,ES,Europe,Southern Europe,Spain,,,
84.236.133.121,4,6,calatayud.es,ES,Europe,Southern Europe,Spain,Murcia,Murcia,Murcia
178.33.119.56,4,60,camaradesevilla.com,ES,Europe,Southern Europe,Spain,,,
31.200.243.41,4,157,camaraminera.org,ES,Europe,Southern Europe,Spain,,,
188.93.77.4,4,11,caminosantiago.com,ES,Europe,Southern Europe,Spain,,,
185.67.208.17,4,-7199237,campaners.com,ES,Europe,Southern Europe,Spain,Valencia,Valencia,Valencia
185.34.194.141,4,11,campobaeza.com,ES,Europe,Southern Europe,Spain,,,
78.136.73.164,4,12,campoborja.net,ES,Europe,Southern Europe,Spain,Extremadura,Badajoz,Usagre
178.255.229.41,4,8,canalextremadura.es,ES,Europe,Southern Europe,Spain,Valencia,Valencia,Paterna
178.255.229.40,4,1,canalextremadura.es,ES,Europe,Southern Europe,Spain,Valencia,Valencia,Paterna
154.46.42.13,4,-30,canalfeb.tv,ES,Europe,Southern Europe,Spain,Valencia,,
185.34.194.77,4,16,canalpda.com,ES,Europe,Southern Europe,Spain,,,
94.23.85.210,4,9,cancerinfantil.org,ES,Europe,Southern Europe,Spain,,,
185.129.249.142,4,-79448,candanchu.com,ES,Europe,Southern Europe,Spain,,,
185.34.194.70,4,10,canjubany.com,ES,Europe,Southern Europe,Spain,,,
194.30.34.103,4,9,cantabrialabs.es,ES,Europe,Southern Europe,Spain,Basque Country,Biscay,Bermeo
195.248.231.74,4,63,carmenthyssenmalaga.org,ES,Europe,Southern Europe,Spain,Andalusia,Malaga,Málaga
164.138.211.172,4,72,carnavaldecadiz.com,ES,Europe,Southern Europe,Spain,,,
200.234.237.23,4,2,casaarabe.es,ES,Europe,Southern Europe,Spain,Catalonia,Barcelona,Barcelona
178.255.225.167,4,7,casacochecurro.com,ES,Europe,Southern Europe,Spain,Valencia,Valencia,Paterna
87.98.228.62,4,4,casafrica.es,ES,Europe,Southern Europe,Spain,,,
94.23.85.128,4,5,casaldelsinfants.org,ES,Europe,Southern Europe,Spain,,,
51.255.30.104,4,22,casamuseolopedevega.org,ES,Europe,Southern Europe,Spain,,,
51.38.21.102,4,8,casasilva.cl,ES,Europe,Southern Europe,Spain,,,
82.223.3.55,4,21,casinos-online.es,ES,Europe,Southern Europe,Spain,,,
5.196.164.65,4,30,casinounique.es,ES,Europe,Southern Europe,Spain,Madrid,Madrid,Madrid
5.56.58.36,4,35,catedralbcn.org,ES,Europe,Southern Europe,Spain,,,
31.214.178.28,4,47,catedralprimada.es,ES,Europe,Southern Europe,Spain,Balearic Islands,Balearic Islands,Ibiza Town
178.32.226.81,4,5,catlike.es,ES,Europe,Southern Europe,Spain,Galicia,Lugo,Lugo
62.151.183.108,4,3,cbdonline.global,ES,Europe,Southern Europe,Spain,,,
188.130.247.39,4,145,cdan.es,ES,Europe,Southern Europe,Spain,Valencia,Valencia,Valencia
185.50.45.94,4,4,cdsantodomingo.com,ES,Europe,Southern Europe,Spain,,,
185.47.244.31,4,10,cea.es,ES,Europe,Southern Europe,Spain,,,
185.23.69.163,4,5,ceafa.es,ES,Europe,Southern Europe,Spain,,,
217.182.235.38,4,23,cedd.net,ES,Europe,Southern Europe,Spain,,,
217.111.175.25,4,89,cedro.org,ES,Europe,Southern Europe,Spain,Madrid,Madrid,Madrid
217.18.161.20,4,4,cegal.es,ES,Europe,Southern Europe,Spain,,,
89.46.88.240,4,18,ceipsantisimatrinidad.es,ES,Europe,Southern Europe,Spain,,,
134.0.9.154,4,6,celebra.cat,ES,Europe,Southern Europe,Spain,,,
178.33.188.161,4,4,centrojuliafarre.es,ES,Europe,Southern Europe,Spain,,,
164.138.211.93,4,5,centropanda.com,ES,Europe,Southern Europe,Spain,,,
185.23.70.110,4,3,ceoma.org,ES,Europe,Southern Europe,Spain,,,
37.153.91.149,4,7,cerotec.net,ES,Europe,Southern Europe,Spain,Catalonia,Barcelona,Badalona
146.255.100.177,4,3,cesabadell.cat,ES,Europe,Southern Europe,Spain,,,
195.16.153.36,4,1,cesabadellfc.com,ES,Europe,Southern Europe,Spain,Madrid,Madrid,Madrid
89.17.195.101,4,32,cesurformacion.com,ES,Europe,Southern Europe,Spain,,,
46.226.45.27,4,77783,cevagraf.coop,ES,Europe,Southern Europe,Spain,,,
185.118.57.2,4,0,cfisiomad.org,ES,Europe,Southern Europe,Spain,,,
178.60.29.107,4,394428,cgcop.es,ES,Europe,Southern Europe,Spain,Galicia,Pontevedra,Vigo
94.23.85.112,4,6,chachachakids.com,ES,Europe,Southern Europe,Spain,,,
195.234.61.100,4,5,chathispano.com,ES,Europe,Southern Europe,Spain,,,
195.234.61.79,4,1183651,chathispano.com,ES,Europe,Southern Europe,Spain,,,
195.234.61.75,4,1183662,chathispano.com,ES,Europe,Southern Europe,Spain,,,
195.234.61.70,4,490249,chathispano.com,ES,Europe,Southern Europe,Spain,,,
195.234.61.108,4,17,chathispano.com,ES,Europe,Southern Europe,Spain,,,
195.234.61.101,4,5,chathispano.com,ES,Europe,Southern Europe,Spain,,,
195.234.61.71,4,1183659,chathispano.com,ES,Europe,Southern Europe,Spain,,,
195.234.61.104,4,3,chathispano.com,ES,Europe,Southern Europe,Spain,,,
195.234.61.78,4,490231,chathispano.com,ES,Europe,Southern Europe,Spain,,,
195.234.61.77,4,1183650,chathispano.com,ES,Europe,Southern Europe,Spain,,,
195.234.61.74,4,490240,chathispano.com,ES,Europe,Southern Europe,Spain,,,
195.234.61.106,4,4,chathispano.com,ES,Europe,Southern Europe,Spain,,,
195.234.61.76,4,490228,chathispano.com,ES,Europe,Southern Europe,Spain,,,
195.234.61.102,4,6,chathispano.com,ES,Europe,Southern Europe,Spain,,,
195.234.61.73,4,1183662,chathispano.com,ES,Europe,Southern Europe,Spain,,,
195.234.61.105,4,10,chathispano.com,ES,Europe,Southern Europe,Spain,,,
195.234.61.107,4,3,chathispano.com,ES,Europe,Southern Europe,Spain,,,
195.234.61.72,4,490229,chathispano.com,ES,Europe,Southern Europe,Spain,,,
195.234.61.103,4,4,chathispano.com,ES,Europe,Southern Europe,Spain,,,
195.234.61.109,4,12,chathispano.com,ES,Europe,Southern Europe,Spain,,,
94.23.87.46,4,1062,cheapnfljerseys17.com,ES,Europe,Southern Europe,Spain,,,
185.226.232.103,4,3,chiemihara.com,ES,Europe,Southern Europe,Spain,,,
51.255.97.84,4,4,chiquipedia.com,ES,Europe,Southern Europe,Spain,,,
91.142.209.5,4,-54301,chrysallis.org.es,ES,Europe,Southern Europe,Spain,,,
178.211.133.30,4,6,ciarglobal.com,ES,Europe,Southern Europe,Spain,Madrid,Madrid,Madrid
78.136.73.37,4,15,cibervoluntarios.org,ES,Europe,Southern Europe,Spain,Extremadura,Badajoz,Usagre
51.75.233.73,4,13,ciclo21.com,ES,Europe,Southern Europe,Spain,Galicia,Lugo,Lugo
51.178.111.15,4,8,cideu.org,ES,Europe,Southern Europe,Spain,,,
46.231.3.34,4,-562,ciencia-ficcion.com,ES,Europe,Southern Europe,Spain,,,
164.138.210.150,4,-11,cientificosaficionados.com,ES,Europe,Southern Europe,Spain,,,
79.99.213.106,4,26,cinfa.com,ES,Europe,Southern Europe,Spain,Aragon,Saragossa,Zaragoza
195.77.22.50,4,5,cipf.es,ES,Europe,Southern Europe,Spain,Valencia,Valencia,Valencia
51.38.169.87,4,5,cise.es,ES,Europe,Southern Europe,Spain,Galicia,Lugo,Lugo
94.23.85.44,4,6,ciudadano2cero.com,ES,Europe,Southern Europe,Spain,Madrid,Madrid,Madrid
185.2.151.134,4,514672,ciudadreal.es,ES,Europe,Southern Europe,Spain,Madrid,Madrid,Madrid
95.60.250.151,4,-14634,cixug.es,ES,Europe,Southern Europe,Spain,Andalusia,Seville,Seville
149.62.173.10,4,141,claseshistoria.com,ES,Europe,Southern Europe,Spain,,,
178.211.133.9,4,111,claudioinacio.com,ES,Europe,Southern Europe,Spain,Madrid,Madrid,Madrid
46.16.62.166,4,9,clc.cat,ES,Europe,Southern Europe,Spain,,,
91.226.177.102,4,16,climatica.coop,ES,Europe,Southern Europe,Spain,,,
31.214.178.53,4,28,clinicadelpiesanjuan.com,ES,Europe,Southern Europe,Spain,Balearic Islands,Balearic Islands,Ibiza Town
54.37.168.114,4,19,clinicaferrusbratos.com,ES,Europe,Southern Europe,Spain,Galicia,Lugo,Lugo
51.255.151.87,4,11,clinicamenorca.com,ES,Europe,Southern Europe,Spain,Galicia,Lugo,Lugo
193.147.107.22,4,25,cliplab.org,ES,Europe,Southern Europe,Spain,Madrid,Madrid,Madrid
89.248.99.62,4,34,clubatleticodemadrid.com,ES,Europe,Southern Europe,Spain,,,
5.135.40.74,4,-115,clubdegolfaloha.com,ES,Europe,Southern Europe,Spain,Andalusia,Granada,Granada
46.29.49.111,4,4,clubslotalmatriche.com,ES,Europe,Southern Europe,Spain,,,
82.223.18.63,4,6,clubsostenibilidad.org,ES,Europe,Southern Europe,Spain,,,
95.100.105.146,4,8,cmpco.com,ES,Europe,Southern Europe,Spain,Madrid,Madrid,Madrid
95.100.105.145,4,11,cmpco.com,ES,Europe,Southern Europe,Spain,Madrid,Madrid,Madrid
212.145.232.169,4,97122,cmtbc.es,ES,Europe,Southern Europe,Spain,Valencia,Valencia,Valencia
149.202.147.243,4,7,cnse.es,ES,Europe,Southern Europe,Spain,Madrid,Madrid,Madrid
31.47.76.124,4,6,cnta.es,ES,Europe,Southern Europe,Spain,,,
185.129.248.150,4,746,cocemfe.es,ES,Europe,Southern Europe,Spain,,,
185.129.249.176,4,225125,colgadosporelfutbol.com,ES,Europe,Southern Europe,Spain,,,
94.23.86.171,4,22,colmenarviejo.com,ES,Europe,Southern Europe,Spain,,,
91.226.177.97,4,15,colombiainforma.info,ES,Europe,Southern Europe,Spain,,,
217.182.6.181,4,3,coloriuris.net,ES,Europe,Southern Europe,Spain,,,
188.165.132.45,4,4,colorker.com,ES,Europe,Southern Europe,Spain,,,
62.97.123.107,4,-29512859,COLT Technology Services Group Limited,ES,Europe,Southern Europe,Spain,Madrid,Madrid,Madrid
51.255.97.81,4,101,cometography.com,ES,Europe,Southern Europe,Spain,,,
185.34.194.73,4,18,comfortvilla.com,ES,Europe,Southern Europe,Spain,,,
5.135.88.24,4,5,compac.es,ES,Europe,Southern Europe,Spain,Valencia,Valencia,Valencia
185.219.59.6,4,17,comsa.com,ES,Europe,Southern Europe,Spain,Catalonia,Lleida,Torrelameu
185.140.32.61,4,80,comuniate.com,ES,Europe,Southern Europe,Spain,,,
178.255.230.196,4,14,comunitatvalenciana.com,ES,Europe,Southern Europe,Spain,Valencia,Valencia,Paterna
178.211.133.14,4,3,concentrico.es,ES,Europe,Southern Europe,Spain,Madrid,Madrid,Madrid
87.106.229.184,4,62,confortpet.es,ES,Europe,Southern Europe,Spain,,,
194.68.87.145,4,16,congrex.nl,ES,Europe,Southern Europe,Spain,,,
217.116.20.251,4,9,consejogeneralenfermeria.org,ES,Europe,Southern Europe,Spain,,,
94.23.84.41,4,5,conservatoriliceu.es,ES,Europe,Southern Europe,Spain,,,
94.23.83.112,4,3,contaminacionacustica.net,ES,Europe,Southern Europe,Spain,Madrid,Madrid,Madrid
94.23.83.55,4,5,cookbookfair.com,ES,Europe,Southern Europe,Spain,,,
54.36.27.124,4,8,coolcoalition.org,ES,Europe,Southern Europe,Spain,,,
185.34.194.41,4,15,cooperacionespanola.es,ES,Europe,Southern Europe,Spain,,,
200.234.229.172,4,22,cooperativa.cat,ES,Europe,Southern Europe,Spain,Catalonia,Barcelona,Barcelona
212.81.213.147,4,3,copmadrid.org,ES,Europe,Southern Europe,Spain,Basque Country,Gipuzkoa,Eibar
213.192.239.168,4,8,cossetania.com,ES,Europe,Southern Europe,Spain,Catalonia,Barcelona,Barcelona
5.135.88.29,4,48,cotec.es,ES,Europe,Southern Europe,Spain,Valencia,Valencia,Valencia
87.98.228.32,4,14,countries.ru,ES,Europe,Southern Europe,Spain,,,
185.176.8.250,4,470,crackstv.com,ES,Europe,Southern Europe,Spain,,,
212.92.50.102,4,11,crealogix.com,ES,Europe,Southern Europe,Spain,,,
46.183.115.7,4,7,creativopublicitaria.com,ES,Europe,Southern Europe,Spain,Catalonia,Barcelona,Barcelona
84.88.66.231,4,3,crg.es,ES,Europe,Southern Europe,Spain,Catalonia,Barcelona,Barcelona
46.231.3.130,4,15,cristaleriajara.com,ES,Europe,Southern Europe,Spain,,,
134.0.9.135,4,51,cristianismeijusticia.net,ES,Europe,Southern Europe,Spain,,,
82.194.91.20,4,-109948,cristobalbalenciagamuseoa.com,ES,Europe,Southern Europe,Spain,,,
31.214.178.80,4,265,crowdlending.es,ES,Europe,Southern Europe,Spain,Balearic Islands,Balearic Islands,Ibiza Town
212.227.229.94,4,8,ctfc.cat,ES,Europe,Southern Europe,Spain,,,
195.248.230.149,4,20,cudeca.org,ES,Europe,Southern Europe,Spain,Andalusia,Malaga,Málaga
193.144.42.56,4,9,culturagalega.gal,ES,Europe,Southern Europe,Spain,Galicia,A Coruña,Teo
146.255.102.94,4,26,culturageneral.net,ES,Europe,Southern Europe,Spain,,,
178.32.28.37,4,54,curiosfera-historia.com,ES,Europe,Southern Europe,Spain,Galicia,Lugo,Lugo
5.135.40.23,4,26,curiosoando.com,ES,Europe,Southern Europe,Spain,Andalusia,Granada,Granada
195.78.228.88,4,-641,dailygames.com,ES,Europe,Southern Europe,Spain,Andalusia,Seville,Seville
212.92.50.181,4,4,danone.es,ES,Europe,Southern Europe,Spain,,,
178.211.133.72,4,23,dantealighieriasturias.es,ES,Europe,Southern Europe,Spain,Madrid,Madrid,Madrid
46.16.58.173,4,10,danzaballet.com,ES,Europe,Southern Europe,Spain,,,
86.109.178.146,4,12,davidhammerstein.org,ES,Europe,Southern Europe,Spain,,,
178.211.133.68,4,44,deautonomos.com,ES,Europe,Southern Europe,Spain,Madrid,Madrid,Madrid
46.231.5.145,4,129,decorablog.com,ES,Europe,Southern Europe,Spain,,,
34.175.177.228,4,91,decoratrix.com,ES,Europe,Southern Europe,Spain,Madrid,Madrid,Madrid
185.213.175.236,4,29,deepgreenresistance.org,ES,Europe,Southern Europe,Spain,,,
185.186.169.177,4,17,deepskycolors.com,ES,Europe,Southern Europe,Spain,,,
5.196.170.81,4,4,democraciarealya.es,ES,Europe,Southern Europe,Spain,Galicia,Lugo,Lugo
51.254.53.105,4,3,dentalsegria.com,ES,Europe,Southern Europe,Spain,,,
149.202.105.244,4,-276589,deporsite.net,ES,Europe,Southern Europe,Spain,,,
185.18.197.134,4,63,derechoshumanos.pe,ES,Europe,Southern Europe,Spain,,,
91.146.100.125,4,13,dermatologomiguelgallego.com,ES,Europe,Southern Europe,Spain,Valencia,Alicante,Orihuela
178.33.113.107,4,39,desafiohosting.com,ES,Europe,Southern Europe,Spain,,,
178.33.167.50,4,82,descobreixmenorca.com,ES,Europe,Southern Europe,Spain,Madrid,Madrid,Madrid
85.208.102.209,4,30,despertaferro-ediciones.com,ES,Europe,Southern Europe,Spain,,,
194.30.12.152,4,-85600,deusto-publicaciones.es,ES,Europe,Southern Europe,Spain,Basque Country,Biscay,Getxo
54.36.27.95,4,6,devilishgames.com,ES,Europe,Southern Europe,Spain,,,
178.211.133.8,4,4,dexway.com,ES,Europe,Southern Europe,Spain,Madrid,Madrid,Madrid
141.94.57.155,4,5,dgmingenieria.es,ES,Europe,Southern Europe,Spain,Galicia,Lugo,Lugo
91.142.214.46,4,82108,dhaktari.com,ES,Europe,Southern Europe,Spain,,,
46.16.63.69,4,5,diadellibro.eu,ES,Europe,Southern Europe,Spain,,,
91.226.177.88,4,5,diagonalperiodico.net,ES,Europe,Southern Europe,Spain,,,
91.226.177.153,4,38,diagonalperiodico.net,ES,Europe,Southern Europe,Spain,,,
178.211.133.34,4,15,diamundialautismo.com,ES,Europe,Southern Europe,Spain,Madrid,Madrid,Madrid
185.37.226.43,4,26,diariobahiadecadiz.com,ES,Europe,Southern Europe,Spain,Madrid,Madrid,Madrid
91.146.101.133,4,6,diarioenfermero.es,ES,Europe,Southern Europe,Spain,Valencia,Alicante,Orihuela
185.18.17.61,4,7,diariofinanciero.com,ES,Europe,Southern Europe,Spain,,,
34.175.78.19,4,54,diariomotor.com,ES,Europe,Southern Europe,Spain,Madrid,Madrid,Madrid
185.47.245.165,4,4,diariosanitario.com,ES,Europe,Southern Europe,Spain,,,
178.33.115.137,4,-460812,dibujos.net,ES,Europe,Southern Europe,Spain,,,
164.138.209.113,4,4,diegocoquillat.com,ES,Europe,Southern Europe,Spain,,,
87.98.228.190,4,8,difusion.com,ES,Europe,Southern Europe,Spain,,,
51.75.233.83,4,5,digitaldeleon.com,ES,Europe,Southern Europe,Spain,Galicia,Lugo,Lugo
195.248.230.141,4,45,digitales.es,ES,Europe,Southern Europe,Spain,Andalusia,Malaga,Málaga
185.74.81.29,4,4,dincat.cat,ES,Europe,Southern Europe,Spain,,,
134.0.9.160,4,22,diocesismalaga.es,ES,Europe,Southern Europe,Spain,,,
176.28.114.107,4,316,dipsoria.es,ES,Europe,Southern Europe,Spain,,,
195.76.233.36,4,2,dipta.cat,ES,Europe,Southern Europe,Spain,Catalonia,Barcelona,Sant Just Desvern
194.179.98.48,4,-214222,diputaciolleida.cat,ES,Europe,Southern Europe,Spain,Madrid,Madrid,Madrid
185.34.194.152,4,22,dircom.org,ES,Europe,Southern Europe,Spain,,,
91.146.97.111,4,5,directoressociales.com,ES,Europe,Southern Europe,Spain,Valencia,Alicante,Orihuela
178.255.228.84,4,4,disfrazzes.com,ES,Europe,Southern Europe,Spain,Valencia,Valencia,Paterna
46.231.3.232,4,409,dlacalle.com,ES,Europe,Southern Europe,Spain,,,
185.95.125.1,4,-36,DNS Server: 1.125.95.185.dynamic.electronicamartinez.es,ES,Europe,Southern Europe,Spain,Murcia,Murcia,Cartagena
81.42.234.1,4,22937,DNS Server: 1.red-81-42-234.staticip.rima-tde.net,ES,Europe,Southern Europe,Spain,Madrid,Madrid,Madrid
5.83.75.10,4,12,DNS Server: 10-75-83-5-red-servicios.onlycable.es,ES,Europe,Southern Europe,Spain,Andalusia,Seville,Osuna
2.143.89.10,4,-748,DNS Server: 10.red-2-143-89.dynamicip.rima-tde.net,ES,Europe,Southern Europe,Spain,Madrid,Madrid,Coslada
85.62.132.100,4,69,DNS Server: 100.pool85-62-132.dynamic.orange.es,ES,Europe,Southern Europe,Spain,Andalusia,Granada,Granada
95.124.245.102,4,-3596695,DNS Server: 102.red-95-124-245.staticip.rima-tde.net,ES,Europe,Southern Europe,Spain,Catalonia,Tarragona,Cambrils
88.28.220.105,4,70,DNS Server: 105.red-88-28-220.staticip.rima-tde.net,ES,Europe,Southern Europe,Spain,Madrid,Madrid,Madrid
5.205.134.107,4,1883,DNS Server: 107.red-5-205-134.dynamicip.rima-tde.net,ES,Europe,Southern Europe,Spain,Valencia,Alicante,Petrel
92.53.196.111,4,-29577347,DNS Server: 111.196.53.92.dynamic.reverse-mundo-r.com,ES,Europe,Southern Europe,Spain,,,
45.13.209.112,4,6,DNS Server: 112.red-45.13.209.ip-estatica.aureamotriz.net,ES,Europe,Southern Europe,Spain,Basque Country,Biscay,Zierbena
95.22.2.114,4,809,DNS Server: 114.pool95-22-2.dynamic.orange.es,ES,Europe,Southern Europe,Spain,Madrid,Madrid,Madrid
85.51.13.115,4,-17786,DNS Server: 115.pool85-51-13.static.orange.es,ES,Europe,Southern Europe,Spain,Valencia,Valencia,Valencia
85.51.224.115,4,-209,DNS Server: 115.pool85-51-224.static.orange.es,ES,Europe,Southern Europe,Spain,Catalonia,Barcelona,Sabadell
81.45.138.117,4,13352,DNS Server: 117.red-81-45-138.staticip.rima-tde.net,ES,Europe,Southern Europe,Spain,Catalonia,Barcelona,Barcelona
45.8.12.126,4,34652,DNS Server: 126.red-45-8-12.static.citelia.es,ES,Europe,Southern Europe,Spain,Navarre,Navarre,Cizur Menor
2.143.32.128,4,-1509,DNS Server: 128.red-2-143-32.dynamicip.rima-tde.net,ES,Europe,Southern Europe,Spain,Castille and León,Valladolid,Villanueva de la Condesa
134.255.241.185,4,-22412934,DNS Server: 134.255.241.185.ftth.inforcelra.net,ES,Europe,Southern Europe,Spain,Catalonia,Girona,Palafrugell
5.83.75.137,4,6,DNS Server: 137-75-83-5-red-servicios.onlycable.es,ES,Europe,Southern Europe,Spain,Andalusia,Seville,Osuna
178.60.25.141,4,8040,DNS Server: 141.25.60.178.unassigned.reverse-mundo-r.com,ES,Europe,Southern Europe,Spain,Galicia,Pontevedra,Vigo
46.37.64.143,4,-10594990,DNS Server: 143.red.64.37.46.procono.es,ES,Europe,Southern Europe,Spain,Andalusia,Malaga,Málaga
195.53.237.146,4,130,DNS Server: 146.red-195-53-237.customer.static.ccgg.telefonica.net,ES,Europe,Southern Europe,Spain,,,
92.190.147.147,4,-2894939,DNS Server: 147.pool92-190-147.dynamic.orange.es,ES,Europe,Southern Europe,Spain,Valencia,Alicante,Alicante
83.48.43.148,4,59194,DNS Server: 148.red-83-48-43.staticip.rima-tde.net,ES,Europe,Southern Europe,Spain,,,
85.54.189.149,4,946,DNS Server: 149.pool85-54-189.dynamic.orange.es,ES,Europe,Southern Europe,Spain,Andalusia,Jaen,Guarromán
90.77.249.152,4,16411,DNS Server: 152.pool90-77-249.dynamic.orange.es,ES,Europe,Southern Europe,Spain,Murcia,Murcia,Murcia
2.140.161.158,4,-211,DNS Server: 158.red-2-140-161.dynamicip.rima-tde.net,ES,Europe,Southern Europe,Spain,Andalusia,Cadiz,Grazalema
80.27.0.158,4,211,DNS Server: 158.red-80-27-0.staticip.rima-tde.net,ES,Europe,Southern Europe,Spain,Madrid,Madrid,Madrid
84.78.169.160,4,77,DNS Server: 160.pool84-78-169.dynamic.orange.es,ES,Europe,Southern Europe,Spain,Valencia,Alicante,Javea
85.62.190.161,4,128,DNS Server: 161.pool85-62-190.dynamic.orange.es,ES,Europe,Southern Europe,Spain,Castille and León,Leon,León
80.27.0.161,4,-3890725959,DNS Server: 161.red-80-27-0.staticip.rima-tde.net,ES,Europe,Southern Europe,Spain,Madrid,Madrid,Madrid
83.48.7.163,4,2951,DNS Server: 163.red-83-48-7.staticip.rima-tde.net,ES,Europe,Southern Europe,Spain,Madrid,Madrid,Madrid
5.205.159.165,4,496,DNS Server: 165.red-5-205-159.dynamicip.rima-tde.net,ES,Europe,Southern Europe,Spain,Aragon,Huesca,Albalate de Cinca
92.53.204.166,4,463,DNS Server: 166.204.53.92.dynamic.reverse-mundo-r.com,ES,Europe,Southern Europe,Spain,,,
92.186.209.183,4,-5343651,DNS Server: 183.pool92-186-209.dynamic.orange.es,ES,Europe,Southern Europe,Spain,Andalusia,Seville,Brenes
185.15.148.53,4,92,DNS Server: 185.15.148.53.user.fibwi.com,ES,Europe,Southern Europe,Spain,Balearic Islands,Balearic Islands,Palma
88.28.192.185,4,937,DNS Server: 185.red-88-28-192.staticip.rima-tde.net,ES,Europe,Southern Europe,Spain,Madrid,Madrid,Madrid
83.48.108.186,4,4006,DNS Server: 186.red-83-48-108.staticip.rima-tde.net,ES,Europe,Southern Europe,Spain,Madrid,Madrid,Madrid
85.58.37.194,4,102750,DNS Server: 194.pool85-58-37.dynamic.orange.es,ES,Europe,Southern Europe,Spain,Murcia,Murcia,Murcia
85.50.0.195,4,15,DNS Server: 195.pool85-50-0.static.orange.es,ES,Europe,Southern Europe,Spain,Valencia,Valencia,Valencia
149.74.252.196,4,5,DNS Server: 196.pool149-74-252.dynamic.orange.es,ES,Europe,Southern Europe,Spain,Castille and León,Leon,León
185.219.11.198,4,19,DNS Server: 198.11.219.185.clientes.netcan.es,ES,Europe,Southern Europe,Spain,Cantabria,Cantabria,Bárcena de Cicero
84.79.235.2,4,-1540433,DNS Server: 2.pool84-79-235.dynamic.orange.es,ES,Europe,Southern Europe,Spain,Andalusia,Seville,Seville
195.55.212.2,4,17,DNS Server: 2.red-195-55-212.customer.static.ccgg.telefonica.net,ES,Europe,Southern Europe,Spain,Madrid,Madrid,Pinto
88.28.222.20,4,-3890707098,DNS Server: 20.red-88-28-222.staticip.rima-tde.net,ES,Europe,Southern Europe,Spain,Madrid,Madrid,Madrid
185.219.11.201,4,204,DNS Server: 201.11.219.185.clientes.netcan.es,ES,Europe,Southern Europe,Spain,Cantabria,Cantabria,Bárcena de Cicero
185.219.11.205,4,21,DNS Server: 205.11.219.185.clientes.netcan.es,ES,Europe,Southern Europe,Spain,Cantabria,Cantabria,Bárcena de Cicero
2.143.34.207,4,-3598569,DNS Server: 207.red-2-143-34.dynamicip.rima-tde.net,ES,Europe,Southern Europe,Spain,Castille and León,Valladolid,Villanueva de la Condesa
88.98.110.21,4,-445910,DNS Server: 21.110.98.88-avatel.es,ES,Europe,Southern Europe,Spain,,,
89.128.26.211,4,21110,DNS Server: 211.pool89-128-26.dynamic.orange.es,ES,Europe,Southern Europe,Spain,Madrid,Madrid,Madrid
212.81.199.79,4,221146,DNS Server: 212_81_199_79_DOIS0001.GigBi_adsl_za_bi.ips.sarenet.es,ES,Europe,Southern Europe,Spain,Basque Country,Biscay,Bilbao
85.61.75.220,4,-36062,DNS Server: 220.pool85-61-75.dynamic.orange.es,ES,Europe,Southern Europe,Spain,Madrid,Madrid,Villaviciosa de Odón
80.27.2.221,4,11731,DNS Server: 221.red-80-27-2.staticip.rima-tde.net,ES,Europe,Southern Europe,Spain,Madrid,Madrid,Madrid
80.27.2.222,4,16071,DNS Server: 222.red-80-27-2.staticip.rima-tde.net,ES,Europe,Southern Europe,Spain,Madrid,Madrid,Madrid
80.58.157.223,4,24447,DNS Server: 223.red-80-58-157.staticip.rima-tde.net,ES,Europe,Southern Europe,Spain,Catalonia,,
85.51.202.225,4,29,DNS Server: 225.pool85-51-202.static.orange.es,ES,Europe,Southern Europe,Spain,Canary Islands,Santa Cruz de Tenerife,Santa Cruz de Tenerife
88.28.203.228,4,11,DNS Server: 228.red-88-28-203.staticip.rima-tde.net,ES,Europe,Southern Europe,Spain,Madrid,Madrid,Madrid
83.48.80.229,4,0,DNS Server: 229.red-83-48-80.staticip.rima-tde.net,ES,Europe,Southern Europe,Spain,Madrid,Madrid,Madrid
2.136.81.230,4,44,DNS Server: 230.red-2-136-81.staticip.rima-tde.net,ES,Europe,Southern Europe,Spain,Madrid,Madrid,Madrid
88.30.32.241,4,109,DNS Server: 241.red-88-30-32.staticip.rima-tde.net,ES,Europe,Southern Europe,Spain,,,
2.136.49.243,4,3842943,DNS Server: 243.red-2-136-49.staticip.rima-tde.net,ES,Europe,Southern Europe,Spain,,,
89.130.140.246,4,765,DNS Server: 246.pool89-130-140.static.orange.es,ES,Europe,Southern Europe,Spain,Principality of Asturias,Asturias,Arriondas
95.124.247.252,4,-44505765,DNS Server: 252.red-95-124-247.staticip.rima-tde.net,ES,Europe,Southern Europe,Spain,Catalonia,Tarragona,Cambrils
5.83.92.254,4,80,DNS Server: 254-92-83-5-red-servicios.onlycable.es,ES,Europe,Southern Europe,Spain,Andalusia,Seville,La Puebla de Cazalla
85.50.124.34,4,10076,DNS Server: 34.pool85-50-124.static.orange.es,ES,Europe,Southern Europe,Spain,Catalonia,Barcelona,Gavà
92.56.61.34,4,12605,DNS Server: 34.pool92-56-61.dynamic.orange.es,ES,Europe,Southern Europe,Spain,Valencia,Alicante,El Campello
37.10.74.152,4,12003,DNS Server: 37.10.74.152.user.conectabalear.com,ES,Europe,Southern Europe,Spain,Balearic Islands,Balearic Islands,Palma
5.205.129.39,4,-148,DNS Server: 39.red-5-205-129.dynamicip.rima-tde.net,ES,Europe,Southern Europe,Spain,Valencia,Alicante,Petrel
85.217.158.4,4,33,DNS Server: 4.158.217.85-avatel.es,ES,Europe,Southern Europe,Spain,,,
185.69.9.4,4,27753792,DNS Server: 4.9-69-185.static-ip.ftth-tor.tvt-datos.es,ES,Europe,Southern Europe,Spain,Valencia,Alicante,Torrevieja
185.219.11.45,4,15018,DNS Server: 45.11.219.185.clientes.netcan.es,ES,Europe,Southern Europe,Spain,Cantabria,Cantabria,Bárcena de Cicero
84.78.176.47,4,30300340,DNS Server: 47.pool84-78-176.dynamic.orange.es,ES,Europe,Southern Europe,Spain,Andalusia,Cordoba,Córdoba
80.27.7.47,4,3581,DNS Server: 47.red-80-27-7.staticip.rima-tde.net,ES,Europe,Southern Europe,Spain,Madrid,Madrid,Madrid
2.136.37.48,4,176,DNS Server: 48.red-2-136-37.staticip.rima-tde.net,ES,Europe,Southern Europe,Spain,Catalonia,,
85.60.12.49,4,70,DNS Server: 49.pool85-60-12.dynamic.orange.es,ES,Europe,Southern Europe,Spain,Valencia,Alicante,Elda
37.13.100.49,4,-294,DNS Server: 49.red-37-13-100.dynamicip.rima-tde.net,ES,Europe,Southern Europe,Spain,Galicia,A Coruña,Noia
5.10.206.251,4,-13438976,DNS Server: 5-10-206-251-ebrecom.ip4.guifi.net,ES,Europe,Southern Europe,Spain,Catalonia,Tarragona,Tortosa
5.134.36.15,4,145,DNS Server: 5-134-43-15.ipdinamica.dinfotec.com,ES,Europe,Southern Europe,Spain,Andalusia,Jaen,Alcalá la Real
5.183.222.62,4,23,DNS Server: 5-183-222-62-ip4.iguana.cat,ES,Europe,Southern Europe,Spain,Catalonia,Barcelona,Sant Joan de Vilatorrada
5.40.80.1,4,104396,DNS Server: 5.40.80.1.static.user.ono.com,ES,Europe,Southern Europe,Spain,,,
80.27.3.5,4,-11230,DNS Server: 5.red-80-27-3.staticip.rima-tde.net,ES,Europe,Southern Europe,Spain,Madrid,Madrid,Madrid
80.58.155.54,4,-280,DNS Server: 54.red-80-58-155.staticip.rima-tde.net,ES,Europe,Southern Europe,Spain,Catalonia,,
95.20.216.56,4,-7208297,DNS Server: 56.216.20.95.dynamic.jazztel.es,ES,Europe,Southern Europe,Spain,,,
92.59.185.58,4,6,DNS Server: 58.pool92-59-185.dynamic.orange.es,ES,Europe,Southern Europe,Spain,Balearic Islands,Balearic Islands,Palma
85.51.14.59,4,29042,DNS Server: 59.pool85-51-14.static.orange.es,ES,Europe,Southern Europe,Spain,Valencia,Valencia,L'Alcúdia
195.55.212.6,4,10,DNS Server: 6.red-195-55-212.customer.static.ccgg.telefonica.net,ES,Europe,Southern Europe,Spain,Madrid,Madrid,Pinto
85.62.158.60,4,5,DNS Server: 60.pool85-62-158.dynamic.orange.es,ES,Europe,Southern Europe,Spain,Andalusia,Seville,Guadalcanal
62.37.140.235,4,12,DNS Server: 62.37.140.235.static.abi.uni2.es,ES,Europe,Southern Europe,Spain,Castille and León,Valladolid,Valladolid
90.161.226.63,4,26,DNS Server: 63.pool90-161-226.static.orange.es,ES,Europe,Southern Europe,Spain,Valencia,Valencia,Torrent
90.163.132.67,4,2,DNS Server: 67.pool90-163-132.dynamic.orange.es,ES,Europe,Southern Europe,Spain,Canary Islands,Las Palmas,Vecindario
90.170.174.67,4,5685,DNS Server: 67.pool90-170-174.dynamic.orange.es,ES,Europe,Southern Europe,Spain,Canary Islands,Las Palmas,Puerto del Rosario
80.27.3.71,4,-3344,DNS Server: 71.red-80-27-3.staticip.rima-tde.net,ES,Europe,Southern Europe,Spain,Madrid,Madrid,Madrid
77.73.41.121,4,-83922,DNS Server: 77-73-41-121-static.telelorca.com,ES,Europe,Southern Europe,Spain,Murcia,Murcia,Lorca
81.45.47.78,4,509,DNS Server: 78.red-81-45-47.staticip.rima-tde.net,ES,Europe,Southern Europe,Spain,,,
90.162.246.79,4,42,DNS Server: 79.pool90-162-246.dynamic.orange.es,ES,Europe,Southern Europe,Spain,Canary Islands,Las Palmas,Las Palmas de Gran Canaria
83.48.48.80,4,-17,DNS Server: 80.red-83-48-48.staticip.rima-tde.net,ES,Europe,Southern Europe,Spain,Catalonia,Barcelona,Barcelona
212.225.218.80,4,-1230,DNS Server: 80.red.218.225.212.procono.es,ES,Europe,Southern Europe,Spain,Andalusia,Malaga,Málaga
92.59.28.81,4,76337,DNS Server: 81.pool92-59-28.dynamic.orange.es,ES,Europe,Southern Europe,Spain,Castille-La Mancha,Ciudad Real,Herencia
85.48.234.82,4,13778,DNS Server: 82.pool85-48-234.static.orange.es,ES,Europe,Southern Europe,Spain,Castille-La Mancha,Ciudad Real,Alcázar de San Juan
84.124.45.207,4,62,DNS Server: 84.124.45.207.static.user.ono.com,ES,Europe,Southern Europe,Spain,Andalusia,Almeria,Adra
85.62.216.201,4,60,DNS Server: 85-62-216-201.static.orange.es,ES,Europe,Southern Europe,Spain,Valencia,Alicante,Agost
85.62.13.83,4,-3136,DNS Server: 85.62.13.83.static.abi.uni2.es,ES,Europe,Southern Europe,Spain,Madrid,Madrid,Madrid
77.26.5.87,4,7,DNS Server: 87.5.26.77.dynamic.reverse-mundo-r.com,ES,Europe,Southern Europe,Spain,Galicia,A Coruña,A Coruña
80.103.159.9,4,29,DNS Server: 9.pool80-103-159.dynamic.orange.es,ES,Europe,Southern Europe,Spain,Catalonia,Barcelona,Cerdanyola del Vallès
85.50.253.9,4,17,DNS Server: 9.pool85-50-253.static.orange.es,ES,Europe,Southern Europe,Spain,Navarre,Navarre,Pamplona
213.0.111.9,4,11,DNS Server: 9.red-213-0-111.customer.static.ccgg.telefonica.net,ES,Europe,Southern Europe,Spain,Valencia,Alicante,Crevillent
85.62.78.92,4,50,DNS Server: 92.pool85-62-78.static.orange.es,ES,Europe,Southern Europe,Spain,Castille-La Mancha,Albacete,Albacete
80.103.33.94,4,-39,DNS Server: 94.pool80-103-33.dynamic.orange.es,ES,Europe,Southern Europe,Spain,Andalusia,Cadiz,Arcos de la Frontera
83.48.75.94,4,3,DNS Server: 94.red-83-48-75.staticip.rima-tde.net,ES,Europe,Southern Europe,Spain,Catalonia,,
92.190.137.96,4,205,DNS Server: 96.pool92-190-137.dynamic.orange.es,ES,Europe,Southern Europe,Spain,Castille and León,Leon,León
85.50.113.98,4,16221,DNS Server: 98.pool85-50-113.static.orange.es,ES,Europe,Southern Europe,Spain,Valencia,Alicante,Benissa
185.226.168.32,4,42,DNS Server: ad01.aduriz.es,ES,Europe,Southern Europe,Spain,Castille and León,Burgos,Medina de Pomar
77.26.214.15,4,35021,DNS Server: asaingenieros.es,ES,Europe,Southern Europe,Spain,Galicia,Pontevedra,Vigo
91.126.45.150,4,-43065678,DNS Server: cli-5b7e2d96.wholesale.adamo.es,ES,Europe,Southern Europe,Spain,,,
91.126.94.112,4,33625,DNS Server: cli-5b7e5e70.wholesale.adamo.es,ES,Europe,Southern Europe,Spain,Cantabria,Cantabria,Sarón
91.126.94.114,4,37,DNS Server: cli-5b7e5e72.wholesale.adamo.es,ES,Europe,Southern Europe,Spain,Cantabria,Cantabria,Sarón
91.126.187.228,4,-7584,DNS Server: cli-5b7ebbe4.bcn.adamo.es,ES,Europe,Southern Europe,Spain,Catalonia,Girona,Caldes de Malavella
89.29.199.116,4,-5059119,DNS Server: cliente117.triunfotel.es,ES,Europe,Southern Europe,Spain,La Rioja,La Rioja,Arnedo
89.29.200.132,4,-5059248,DNS Server: cliente133.triunfotel.es,ES,Europe,Southern Europe,Spain,La Rioja,La Rioja,Arnedo
89.29.199.136,4,-5059215,DNS Server: cliente137.triunfotel.es,ES,Europe,Southern Europe,Spain,La Rioja,La Rioja,Arnedo
89.29.197.192,4,-5059219,DNS Server: cliente193.triunfotel.es,ES,Europe,Southern Europe,Spain,La Rioja,La Rioja,Arnedo
89.29.198.198,4,-5059247,DNS Server: cliente199.triunfotel.es,ES,Europe,Southern Europe,Spain,La Rioja,La Rioja,Arnedo
89.29.198.203,4,-5059238,DNS Server: cliente204.triunfotel.es,ES,Europe,Southern Europe,Spain,La Rioja,La Rioja,Arnedo
89.29.200.50,4,-5059365,DNS Server: cliente51.triunfotel.es,ES,Europe,Southern Europe,Spain,La Rioja,La Rioja,Arnedo
89.29.199.95,4,2329140,DNS Server: cliente96.triunfotel.es,ES,Europe,Southern Europe,Spain,La Rioja,La Rioja,Arnedo
82.223.43.108,4,5,DNS Server: cloud01.vspain.net,ES,Europe,Southern Europe,Spain,,,
82.223.115.77,4,34,DNS Server: consultoriass.online,ES,Europe,Southern Europe,Spain,,,
87.235.231.212,4,14,DNS Server: din-212-231-235-87.ipcom.comunitel.net,ES,Europe,Southern Europe,Spain,Catalonia,Barcelona,Barcelona
87.235.231.213,4,18,DNS Server: din-213-231-235-87.ipcom.comunitel.net,ES,Europe,Southern Europe,Spain,Catalonia,Barcelona,Barcelona
77.231.171.44,4,6,DNS Server: din-44-171-231-77.ipcom.comunitel.net,ES,Europe,Southern Europe,Spain,Basque Country,Biscay,Barakaldo
77.241.112.23,4,5,DNS Server: dns1.epresaenergia.es,ES,Europe,Southern Europe,Spain,Andalusia,Cadiz,Puerto Real
77.241.112.24,4,7,DNS Server: dns2.epresaenergia.es,ES,Europe,Southern Europe,Spain,Andalusia,Cadiz,Puerto Real
213.140.41.194,4,1,DNS Server: gsemadpe1.net.telefonicaglobalsolutions.com,ES,Europe,Southern Europe,Spain,,,
91.215.65.184,4,15,DNS Server: GSF-MADDC01-DIA01,ES,Europe,Southern Europe,Spain,Madrid,Madrid,Madrid
194.224.216.170,4,142,DNS Server: info170.xpress.es,ES,Europe,Southern Europe,Spain,Madrid,Madrid,Madrid
87.98.230.98,4,294,DNS Server: kvm1.srvdr.com,ES,Europe,Southern Europe,Spain,,,
85.50.252.66,4,392,DNS Server: mail.ziraba.com,ES,Europe,Southern Europe,Spain,Navarre,Navarre,Pamplona
5.1.32.211,4,68,DNS Server: ns-p-ep-b.raclus.net,ES,Europe,Southern Europe,Spain,Catalonia,Girona,l'Escala
212.230.255.1,4,-80710,DNS Server: ns2.xtratelecom.es,ES,Europe,Southern Europe,Spain,,,
5.1.38.155,4,263,DNS Server: pn-38.155.prisconetworks.com,ES,Europe,Southern Europe,Spain,Catalonia,Girona,l'Escala
5.1.38.63,4,300,DNS Server: pn-38.63.prisconetworks.com,ES,Europe,Southern Europe,Spain,Catalonia,Girona,l'Escala
95.60.135.1,4,325,DNS Server: static-1-135-60-95.ipcom.comunitel.net,ES,Europe,Southern Europe,Spain,Balearic Islands,Balearic Islands,Palma
89.7.235.170,4,-20358824,DNS Server: static-170-235-7-89.ipcom.comunitel.net,ES,Europe,Southern Europe,Spain,Madrid,Madrid,Madrid
77.230.66.172,4,368,DNS Server: static-172-66-230-77.ipcom.comunitel.net,ES,Europe,Southern Europe,Spain,Madrid,Madrid,Madrid
77.225.175.37,4,472,DNS Server: static-37-175-225-77.ipcom.comunitel.net,ES,Europe,Southern Europe,Spain,Catalonia,Barcelona,Badalona
77.225.175.38,4,-3814090,DNS Server: static-38-175-225-77.ipcom.comunitel.net,ES,Europe,Southern Europe,Spain,Catalonia,Barcelona,Badalona
77.225.175.39,4,473,DNS Server: static-39-175-225-77.ipcom.comunitel.net,ES,Europe,Southern Europe,Spain,Catalonia,Barcelona,Badalona
77.228.75.54,4,280,DNS Server: static-54-75-228-77.ipcom.comunitel.net,ES,Europe,Southern Europe,Spain,Basque Country,Biscay,Bilbao
139.47.10.8,4,-3599036,DNS Server: static.masmovil.com,ES,Europe,Southern Europe,Spain,,,
185.93.3.163,4,375,DNS Server: unn-185-93-3-163.datapacket.com,ES,Europe,Southern Europe,Spain,Madrid,Madrid,Madrid
212.4.121.10,4,400319,DNS Server: var010-121.gnet.es,ES,Europe,Southern Europe,Spain,Madrid,Madrid,Getafe
91.209.108.63,4,43,docenotas.com,ES,Europe,Southern Europe,Spain,,,
185.34.194.69,4,26,docomomoiberico.com,ES,Europe,Southern Europe,Spain,,,
217.116.8.52,4,599,doctormusic.com,ES,Europe,Southern Europe,Spain,,,
31.24.44.210,4,79,dolmeneditorial.com,ES,Europe,Southern Europe,Spain,,,
46.16.63.49,4,50,dominion-global.com,ES,Europe,Southern Europe,Spain,,,
213.96.244.209,4,4760,donbalon.com,ES,Europe,Southern Europe,Spain,Castille and León,Valladolid,Arroyo de la Encomienda
185.66.173.231,4,496917,doncomos.com,ES,Europe,Southern Europe,Spain,,,
82.194.90.122,4,2,dondeestamicasa.com,ES,Europe,Southern Europe,Spain,,,
37.152.88.156,4,16,dondominio.com,ES,Europe,Southern Europe,Spain,Balearic Islands,Balearic Islands,Porreres
185.45.72.126,4,239,doriasbaixas.com,ES,Europe,Southern Europe,Spain,,,
185.129.250.83,4,-268945,dosmanzanas.com,ES,Europe,Southern Europe,Spain,,,
185.186.169.75,4,3,dosxtremos.com,ES,Europe,Southern Europe,Spain,,,
91.134.212.239,4,11,down21.org,ES,Europe,Southern Europe,Spain,,,
184.24.14.126,4,12,download.lenovo.com,ES,Europe,Southern Europe,Spain,Madrid,Madrid,Madrid
23.36.127.75,4,13,download.oracle.com,ES,Europe,Southern Europe,Spain,Madrid,Madrid,Madrid
185.136.91.228,4,17,downmadrid.org,ES,Europe,Southern Europe,Spain,,,
46.175.128.40,4,14,doyugames.com,ES,Europe,Southern Europe,Spain,,,
46.29.48.79,4,65261,dreamsandadventures.com,ES,Europe,Southern Europe,Spain,,,
185.34.194.202,4,5,drymartiniorg.com,ES,Europe,Southern Europe,Spain,,,
217.61.208.162,4,8,dsalud.com,ES,Europe,Southern Europe,Spain,,,
31.214.178.22,4,12,dstageconcept.com,ES,Europe,Southern Europe,Spain,Balearic Islands,Balearic Islands,Ibiza Town
91.209.108.147,4,3,dykinson.com,ES,Europe,Southern Europe,Spain,,,
213.192.239.108,4,10,dynamo.video,ES,Europe,Southern Europe,Spain,Catalonia,Barcelona,Barcelona
185.2.150.213,4,121,eapn.es,ES,Europe,Southern Europe,Spain,Madrid,Madrid,Madrid
94.24.114.125,4,4,ecccomics.com,ES,Europe,Southern Europe,Spain,Catalonia,Barcelona,Gelida
94.24.114.42,4,13,eccediciones.com,ES,Europe,Southern Europe,Spain,Catalonia,Barcelona,Gelida
185.176.9.62,4,762,ecoforest.com,ES,Europe,Southern Europe,Spain,,,
185.91.108.41,4,106,ecohappystore.com,ES,Europe,Southern Europe,Spain,,,
200.234.224.64,4,1,economipedia.com,ES,Europe,Southern Europe,Spain,Catalonia,Barcelona,Barcelona
154.56.135.128,4,6435,ecopilas.es,ES,Europe,Southern Europe,Spain,Madrid,Madrid,Madrid
87.98.230.60,4,4,ecoseed.org,ES,Europe,Southern Europe,Spain,,,
149.202.147.245,4,117,ecuador.travel,ES,Europe,Southern Europe,Spain,Madrid,Madrid,Madrid
82.223.152.162,4,29,edinumen.es,ES,Europe,Southern Europe,Spain,,,
217.61.208.52,4,8,educaborras.com,ES,Europe,Southern Europe,Spain,,,
51.75.233.98,4,7,educalingo.com,ES,Europe,Southern Europe,Spain,Galicia,Lugo,Lugo
195.55.75.244,4,5,educared.org,ES,Europe,Southern Europe,Spain,,,
213.32.50.186,4,7,efisioterapia.net,ES,Europe,Southern Europe,Spain,,,
185.47.245.162,4,5,efti.es,ES,Europe,Southern Europe,Spain,,,
194.30.42.188,4,-42,egamaster.com,ES,Europe,Southern Europe,Spain,Basque Country,Biscay,Bermeo
178.211.133.46,4,14,eictv.org,ES,Europe,Southern Europe,Spain,Madrid,Madrid,Madrid
178.33.115.247,4,211,eivissa.es,ES,Europe,Southern Europe,Spain,,,
164.138.212.238,4,93,eladerezo.com,ES,Europe,Southern Europe,Spain,,,
5.196.239.38,4,123,elapuron.com,ES,Europe,Southern Europe,Spain,Galicia,Lugo,Lugo
91.209.108.177,4,98,elargonauta.com,ES,Europe,Southern Europe,Spain,,,
46.27.132.14,4,-2497707642,elbaixllobregat.cat,ES,Europe,Southern Europe,Spain,Andalusia,Malaga,Málaga
185.18.16.83,4,215,elblogdecineespanol.com,ES,Europe,Southern Europe,Spain,,,
185.136.91.137,4,5806,elbullifoundation.com,ES,Europe,Southern Europe,Spain,,,
217.13.88.8,4,4,elche.es,ES,Europe,Southern Europe,Spain,,,
151.101.134.133,4,187,elcorreoweb.es,ES,Europe,Southern Europe,Spain,Madrid,Madrid,Madrid
51.255.120.213,4,156,elcosmonauta.es,ES,Europe,Southern Europe,Spain,Galicia,Lugo,Lugo
77.240.116.197,4,4,eldeseo.es,ES,Europe,Southern Europe,Spain,,,
5.56.166.5,4,31,elecnor-deimos.com,ES,Europe,Southern Europe,Spain,,,
31.214.178.54,4,17,electronicid.eu,ES,Europe,Southern Europe,Spain,Balearic Islands,Balearic Islands,Ibiza Town
178.211.133.61,4,9,elejandria.com,ES,Europe,Southern Europe,Spain,Madrid,Madrid,Madrid
217.182.28.232,4,44,elfarodeceuta.es,ES,Europe,Southern Europe,Spain,,,
217.182.28.228,4,49,elfarodigital.es,ES,Europe,Southern Europe,Spain,,,
188.165.132.18,4,19,elforodeceuta.es,ES,Europe,Southern Europe,Spain,,,
54.37.122.180,4,6,elgranero.com,ES,Europe,Southern Europe,Spain,,,
80.32.132.157,4,2936,elhierro.es,ES,Europe,Southern Europe,Spain,Balearic Islands,Balearic Islands,Ibiza Town
178.33.116.103,4,16,eliberico.com,ES,Europe,Southern Europe,Spain,,,
188.93.79.68,4,49,elindependientedegranada.es,ES,Europe,Southern Europe,Spain,,,
185.176.9.46,4,-548,elitedentalvallehermoso.es,ES,Europe,Southern Europe,Spain,,,
212.64.160.50,4,17,elmuseocanario.com,ES,Europe,Southern Europe,Spain,Canary Islands,Las Palmas,Las Palmas de Gran Canaria
151.101.133.124,4,10,elnaturalista.com,ES,Europe,Southern Europe,Spain,Madrid,Madrid,Madrid
195.78.228.226,4,22,elotrolado.net,ES,Europe,Southern Europe,Spain,Andalusia,Seville,Seville
178.33.164.236,4,64,elparadordelgarraf.com,ES,Europe,Southern Europe,Spain,Madrid,Madrid,Madrid
5.2.88.65,4,137246,elperiodicodecanarias.es,ES,Europe,Southern Europe,Spain,,,
185.177.154.112,4,283,elplacerdelalectura.com,ES,Europe,Southern Europe,Spain,,,
86.109.170.64,4,-43427,elrastro.org,ES,Europe,Southern Europe,Spain,,,
164.138.210.111,4,91,elrinconcillo.es,ES,Europe,Southern Europe,Spain,,,
79.137.116.48,4,-454900,eltamiz.com,ES,Europe,Southern Europe,Spain,,,
188.165.128.188,4,6,ematejo.com,ES,Europe,Southern Europe,Spain,,,
212.89.14.133,4,21,empleaverde.es,ES,Europe,Southern Europe,Spain,Principality of Asturias,Asturias,Oviedo
51.255.107.199,4,5,empresaactual.com,ES,Europe,Southern Europe,Spain,,,
185.156.219.9,4,3,empresasyproductos.com,ES,Europe,Southern Europe,Spain,,,
213.149.235.19,4,2,enae.es,ES,Europe,Southern Europe,Spain,,,
31.24.44.103,4,2,enate.es,ES,Europe,Southern Europe,Spain,,,
82.223.2.77,4,7,encomix.es,ES,Europe,Southern Europe,Spain,,,
185.161.98.69,4,4,enertic.org,ES,Europe,Southern Europe,Spain,Madrid,Madrid,Madrid
31.24.41.157,4,156,enfermeriacomunitaria.org,ES,Europe,Southern Europe,Spain,,,
188.164.199.34,4,21,enriquesrestaurantepizzeria.com,ES,Europe,Southern Europe,Spain,,,
213.4.63.68,4,518,entradasinaem.es,ES,Europe,Southern Europe,Spain,Catalonia,Barcelona,Barcelona
94.23.83.50,4,30,epss.org,ES,Europe,Southern Europe,Spain,,,
82.194.90.15,4,-1,esclerosismultiple.com,ES,Europe,Southern Europe,Spain,,,
46.16.58.75,4,5,escofet.com,ES,Europe,Southern Europe,Spain,,,
46.16.62.50,4,6,escuderia.com,ES,Europe,Southern Europe,Spain,,,
46.16.59.152,4,14,escueladeescritores.com,ES,Europe,Southern Europe,Spain,,,
27.0.173.4,4,3,escueladiaconia.es,ES,Europe,Southern Europe,Spain,Catalonia,Barcelona,Barcelona
149.202.128.253,4,18,esdi.es,ES,Europe,Southern Europe,Spain,Madrid,Madrid,Madrid
84.88.68.2,4,36,esmuc.cat,ES,Europe,Southern Europe,Spain,Catalonia,Barcelona,Barcelona
80.64.47.138,4,40,espa.com,ES,Europe,Southern Europe,Spain,Catalonia,Girona,Cassà de la Selva
82.223.222.155,4,118,espacioschillout.es,ES,Europe,Southern Europe,Spain,,,
185.23.69.189,4,42,esparadis.com,ES,Europe,Southern Europe,Spain,,,
46.29.49.101,4,73,esperanzadeavila.com,ES,Europe,Southern Europe,Spain,,,
62.36.228.50,4,1944,estamosrodando.com,ES,Europe,Southern Europe,Spain,Madrid,Madrid,Madrid
212.92.51.123,4,4,estiber.com,ES,Europe,Southern Europe,Spain,,,
46.231.1.56,4,9,estudioherreros.com,ES,Europe,Southern Europe,Spain,,,
90.161.69.226,4,52,etra-id.com,ES,Europe,Southern Europe,Spain,Catalonia,Barcelona,Sant Cugat del Vallès
85.208.102.23,4,4,eulawlive.com,ES,Europe,Southern Europe,Spain,,,
34.175.128.105,4,3,euqulraqia.com,ES,Europe,Southern Europe,Spain,Madrid,Madrid,Madrid
46.16.58.91,4,8,eurolympic.org,ES,Europe,Southern Europe,Spain,,,
185.101.227.178,4,530,euroquimicadistribucion.com,ES,Europe,Southern Europe,Spain,,,
51.38.169.95,4,343,euroresidentes.es,ES,Europe,Southern Europe,Spain,Galicia,Lugo,Lugo
185.68.111.170,4,1615,euskaraplanak.net,ES,Europe,Southern Europe,Spain,,,
185.232.41.135,4,4,evwind.com,ES,Europe,Southern Europe,Spain,,,
185.123.204.163,4,2,exceltur.org,ES,Europe,Southern Europe,Spain,Valencia,Valencia,Valencia
51.254.79.115,4,14,exitoysuperacionpersonal.com,ES,Europe,Southern Europe,Spain,,,
185.23.117.226,4,694,expertoslopd.es,ES,Europe,Southern Europe,Spain,,,
54.37.97.14,4,41,extradigital.es,ES,Europe,Southern Europe,Spain,,,
46.16.62.65,4,5,fad.cat,ES,Europe,Southern Europe,Spain,,,
54.37.122.197,4,75,fageda.com,ES,Europe,Southern Europe,Spain,,,
185.23.69.203,4,2,familiaysalud.es,ES,Europe,Southern Europe,Spain,,,
91.146.103.142,4,8,famma.org,ES,Europe,Southern Europe,Spain,Valencia,Alicante,Orihuela
185.34.192.57,4,8,fape.es,ES,Europe,Southern Europe,Spain,,,
185.118.52.47,4,21,farantube.com,ES,Europe,Southern Europe,Spain,,,
85.208.102.151,4,10,farmaforum.es,ES,Europe,Southern Europe,Spain,,,
82.223.108.196,4,5,fazioli.com,ES,Europe,Southern Europe,Spain,,,
81.19.161.36,4,-13017,fdmvalencia.es,ES,Europe,Southern Europe,Spain,,,
178.33.117.109,4,15,fecaza.com,ES,Europe,Southern Europe,Spain,,,
5.39.109.84,4,36,fedele.org,ES,Europe,Southern Europe,Spain,,,
37.153.95.84,4,8,fenercom.com,ES,Europe,Southern Europe,Spain,Catalonia,Barcelona,Badalona
5.181.46.170,4,4740,feriavalladolid.com,ES,Europe,Southern Europe,Spain,,,
185.253.153.104,4,-11,ferrater.com,ES,Europe,Southern Europe,Spain,Catalonia,Barcelona,Barcelona
154.56.135.111,4,-19,ferrofi.com,ES,Europe,Southern Europe,Spain,Madrid,Madrid,Madrid
178.33.161.23,4,62,ferugby.es,ES,Europe,Southern Europe,Spain,Madrid,Madrid,Madrid
178.33.113.220,4,3,fesbal.org,ES,Europe,Southern Europe,Spain,,,
82.223.108.111,4,1097,festivaldemalaga.com,ES,Europe,Southern Europe,Spain,,,
31.200.242.144,4,10,festivaldemerida.es,ES,Europe,Southern Europe,Spain,,,
188.93.75.46,4,6,fgua.es,ES,Europe,Southern Europe,Spain,,,
81.46.216.10,4,3,fiapas.es,ES,Europe,Southern Europe,Spain,Valencia,Castellon,Chilches
185.162.171.134,4,44,fichajes.net,ES,Europe,Southern Europe,Spain,,,
94.23.82.179,4,2,filmanova.com,ES,Europe,Southern Europe,Spain,,,
85.208.102.144,4,52,filmax.com,ES,Europe,Southern Europe,Spain,,,
185.125.78.203,4,17,finantarraco.com,ES,Europe,Southern Europe,Spain,,,
185.186.169.193,4,20,fism.org,ES,Europe,Southern Europe,Spain,,,
188.93.73.118,4,36,flamencoexport.com,ES,Europe,Southern Europe,Spain,,,
194.126.225.169,4,38,flg.es,ES,Europe,Southern Europe,Spain,,,
195.149.119.69,4,54,flib.nl,ES,Europe,Southern Europe,Spain,,,
89.248.97.232,4,12,flixole.com,ES,Europe,Southern Europe,Spain,,,
51.210.87.162,4,19,fly-news.es,ES,Europe,Southern Europe,Spain,Galicia,Lugo,Lugo
176.58.10.208,4,35285,fomentosansebastian.eus,ES,Europe,Southern Europe,Spain,Galicia,A Coruña,A Coruña
34.175.118.85,4,55,foodfinder.us,ES,Europe,Southern Europe,Spain,Madrid,Madrid,Madrid
109.69.10.222,4,-29,footballia.net,ES,Europe,Southern Europe,Spain,Valencia,Alicante,Javea
87.98.228.59,4,42,forbes.es,ES,Europe,Southern Europe,Spain,,,
5.39.109.133,4,3,formaciononline.eu,ES,Europe,Southern Europe,Spain,Galicia,Lugo,Lugo
5.135.40.102,4,790,formentera.es,ES,Europe,Southern Europe,Spain,Andalusia,Granada,Granada
188.95.114.244,4,42119,forodecharla.com,ES,Europe,Southern Europe,Spain,,,
185.45.72.204,4,45,forodetalles.com,ES,Europe,Southern Europe,Spain,,,
178.33.118.6,4,5,foronuclear.org,ES,Europe,Southern Europe,Spain,,,
91.226.176.130,4,30,foroporlamemoria.info,ES,Europe,Southern Europe,Spain,,,
31.24.154.63,4,-32,forosupervivientescancer.es,ES,Europe,Southern Europe,Spain,,,
93.95.208.22,4,3,forumlibertas.com,ES,Europe,Southern Europe,Spain,Madrid,Madrid,Madrid
208.85.17.238,4,9,fpdeseo.org,ES,Europe,Southern Europe,Spain,Madrid,Madrid,Madrid
185.118.56.105,4,44,fpmaragall.org,ES,Europe,Southern Europe,Spain,,,
176.31.1.197,4,42,freepussyriot.org,ES,Europe,Southern Europe,Spain,,,
89.40.80.100,4,16,frenalacurva.net,ES,Europe,Southern Europe,Spain,Catalonia,Barcelona,Barcelona
185.23.69.190,4,14,frenkit.es,ES,Europe,Southern Europe,Spain,,,
178.33.161.97,4,2,fronterad.com,ES,Europe,Southern Europe,Spain,Madrid,Madrid,Madrid
193.84.177.212,4,5,fthemes.com,ES,Europe,Southern Europe,Spain,,,
86.109.178.166,4,3,fuenterrebollo.com,ES,Europe,Southern Europe,Spain,,,
147.135.225.234,4,3,fuertehoteles.com,ES,Europe,Southern Europe,Spain,Galicia,Lugo,Lugo
80.28.51.242,4,47,fuhem.es,ES,Europe,Southern Europe,Spain,Madrid,Madrid,Madrid
212.89.14.130,4,9,fundacion-biodiversidad.es,ES,Europe,Southern Europe,Spain,Principality of Asturias,Asturias,Oviedo
185.232.41.100,4,6,fundacion-jrj.es,ES,Europe,Southern Europe,Spain,,,
91.199.120.8,4,21,fundacioncajaruraldecheste.es,ES,Europe,Southern Europe,Spain,,,
5.39.109.75,4,1,fundacioncnse.org,ES,Europe,Southern Europe,Spain,,,
154.56.134.69,4,-1220,fundaciondelcorazon.com,ES,Europe,Southern Europe,Spain,Madrid,Madrid,Madrid
150.214.1.36,4,10,fundaciondescubre.es,ES,Europe,Southern Europe,Spain,Andalusia,Seville,Seville
86.109.107.222,4,4,fundacionfaes.org,ES,Europe,Southern Europe,Spain,,,
85.208.102.145,4,66,fundaciongoyaenaragon.es,ES,Europe,Southern Europe,Spain,,,
95.100.105.187,4,28,fundacioniberdrolaespana.org,ES,Europe,Southern Europe,Spain,Madrid,Madrid,Madrid
149.62.173.217,4,-274,fundacionmona.org,ES,Europe,Southern Europe,Spain,,,
31.200.243.214,4,0,fundacionstarlight.org,ES,Europe,Southern Europe,Spain,,,
185.37.226.87,4,26,fundaciovilacasas.com,ES,Europe,Southern Europe,Spain,Madrid,Madrid,Madrid
46.231.5.226,4,-481,fundssociety.com,ES,Europe,Southern Europe,Spain,,,
46.226.148.106,4,19,futbolfantasy.com,ES,Europe,Southern Europe,Spain,,,
31.214.178.82,4,9,fxinteractive.com,ES,Europe,Southern Europe,Spain,Balearic Islands,Balearic Islands,Ibiza Town
51.38.254.172,4,28,galiciamaxica.eu,ES,Europe,Southern Europe,Spain,,,
51.254.23.70,4,32,game-learn.com,ES,Europe,Southern Europe,Spain,Galicia,Lugo,Lugo
185.231.23.237,4,950,gandiablasco.com,ES,Europe,Southern Europe,Spain,,,
87.98.227.69,4,36,garnica.one,ES,Europe,Southern Europe,Spain,,,
185.34.192.85,4,8,gastroteca.cat,ES,Europe,Southern Europe,Spain,,,
185.70.94.16,4,27,gatitarosa.com,ES,Europe,Southern Europe,Spain,,,
91.146.97.74,4,7,geacron.com,ES,Europe,Southern Europe,Spain,Valencia,Alicante,Orihuela
85.208.20.158,4,76,genderdatalab.org,ES,Europe,Southern Europe,Spain,Catalonia,Barcelona,Barcelona
185.34.194.187,4,65,genderportal.eu,ES,Europe,Southern Europe,Spain,,,
212.0.126.250,4,4,genebre.es,ES,Europe,Southern Europe,Spain,Catalonia,Barcelona,Barcelona
37.59.249.2,4,3,generalsforum.biz,ES,Europe,Southern Europe,Spain,,,
5.39.11.40,4,30,geografiainfinita.com,ES,Europe,Southern Europe,Spain,,,
185.99.184.231,4,5,getafe.es,ES,Europe,Southern Europe,Spain,Madrid,Madrid,Madrid
178.211.133.19,4,5,getuplead.com,ES,Europe,Southern Europe,Spain,Madrid,Madrid,Madrid
134.0.9.45,4,8,getxophoto.com,ES,Europe,Southern Europe,Spain,,,
46.16.58.201,4,24,geyseco.es,ES,Europe,Southern Europe,Spain,,,
31.214.178.118,4,24,gifmania.com,ES,Europe,Southern Europe,Spain,Balearic Islands,Balearic Islands,Ibiza Town
5.57.226.44,4,47,giftcampaign.es,ES,Europe,Southern Europe,Spain,Madrid,Madrid,Madrid
5.57.226.43,4,8,giftcampaign.fr,ES,Europe,Southern Europe,Spain,Madrid,Madrid,Madrid
193.46.238.183,4,31,gigantes.com,ES,Europe,Southern Europe,Spain,,,
94.23.84.205,4,5,gijon.es,ES,Europe,Southern Europe,Spain,,,
5.134.116.16,4,713,ginernet.com,ES,Europe,Southern Europe,Spain,Madrid,Madrid,Madrid
185.195.96.114,4,3,ginferreradv.com,ES,Europe,Southern Europe,Spain,Madrid,Madrid,Madrid
195.248.231.166,4,26,giochipreziosi.it,ES,Europe,Southern Europe,Spain,Andalusia,Malaga,Málaga
83.175.202.179,4,3,gira.net,ES,Europe,Southern Europe,Spain,,,
145.239.121.48,4,6,gironanoticies.com,ES,Europe,Southern Europe,Spain,,,
188.165.133.105,4,3,gisela.com,ES,Europe,Southern Europe,Spain,,,
188.93.73.159,4,20,globalia.net,ES,Europe,Southern Europe,Spain,,,
46.105.87.109,4,12,globalnegotiator.com,ES,Europe,Southern Europe,Spain,,,
164.132.112.197,4,4,globalsu.net,ES,Europe,Southern Europe,Spain,,,
185.103.37.138,4,10,gocco.es,ES,Europe,Southern Europe,Spain,Madrid,Madrid,Madrid
82.194.91.22,4,11,golem.es,ES,Europe,Southern Europe,Spain,,,
87.98.228.153,4,13,golfinspain.com,ES,Europe,Southern Europe,Spain,,,
194.164.175.29,4,13,golfnuevoportil.com,ES,Europe,Southern Europe,Spain,,,
5.135.40.51,4,-56,golfsotogrande.com,ES,Europe,Southern Europe,Spain,Andalusia,Granada,Granada
185.18.17.116,4,3,golsmedia.com,ES,Europe,Southern Europe,Spain,,,
154.56.134.55,4,3861,gominolasdepetroleo.com,ES,Europe,Southern Europe,Spain,Madrid,Madrid,Madrid
164.138.209.127,4,18,granadadirect.com,ES,Europe,Southern Europe,Spain,,,
94.23.80.104,4,35,grandesmedios.com,ES,Europe,Southern Europe,Spain,,,
2.17.211.217,4,13,grandvision.it,ES,Europe,Southern Europe,Spain,Madrid,Madrid,Madrid
2.17.211.186,4,45,grandvision.it,ES,Europe,Southern Europe,Spain,Madrid,Madrid,Madrid
188.164.198.143,4,75645,granhotelingles.com,ES,Europe,Southern Europe,Spain,,,
178.33.165.201,4,38,granvelada.com,ES,Europe,Southern Europe,Spain,Madrid,Madrid,Madrid
79.143.93.162,4,13,grao.com,ES,Europe,Southern Europe,Spain,Catalonia,Barcelona,Barcelona
194.62.96.252,4,3,grasmeregingerbread.co.uk,ES,Europe,Southern Europe,Spain,,,
185.129.251.73,4,900,grespania.com,ES,Europe,Southern Europe,Spain,,,
51.75.233.104,4,6,growbarato.net,ES,Europe,Southern Europe,Spain,Galicia,Lugo,Lugo
51.77.2.63,4,6,grupoextredist.com,ES,Europe,Southern Europe,Spain,,,
217.130.24.17,4,5,grupoplasticosferro.com,ES,Europe,Southern Europe,Spain,Aragon,Huesca,Binaced
86.109.161.202,4,-1716365,guadalajaradiario.es,ES,Europe,Southern Europe,Spain,,,
185.209.61.55,4,5,guaguas.com,ES,Europe,Southern Europe,Spain,,,
185.118.56.213,4,14,guggenheim-bilbao.eus,ES,Europe,Southern Europe,Spain,,,
185.140.32.104,4,92,guiafantasy.com,ES,Europe,Southern Europe,Spain,,,
91.146.102.104,4,3,guiatelefonicadeempresas.com,ES,Europe,Southern Europe,Spain,Valencia,Alicante,Orihuela
109.69.8.5,4,61080,guifi.net,ES,Europe,Southern Europe,Spain,Valencia,Alicante,Javea
194.179.98.47,4,266,guissona.cat,ES,Europe,Southern Europe,Spain,Madrid,Madrid,Madrid
134.0.8.149,4,10,guixe.com,ES,Europe,Southern Europe,Spain,,,
178.33.162.193,4,9,h-oda.com,ES,Europe,Southern Europe,Spain,Madrid,Madrid,Madrid
185.70.94.200,4,303,habilidadsocial.com,ES,Europe,Southern Europe,Spain,,,
178.211.133.23,4,32,hace.es,ES,Europe,Southern Europe,Spain,Madrid,Madrid,Madrid
109.69.8.21,4,-25,hamacaonline.net,ES,Europe,Southern Europe,Spain,Valencia,Alicante,Javea
109.69.8.20,4,-39,hangar.org,ES,Europe,Southern Europe,Spain,Valencia,Alicante,Javea
45.136.196.44,4,3,hcneftekhimik.ru,ES,Europe,Southern Europe,Spain,,,
188.210.216.129,4,0,hefame.es,ES,Europe,Southern Europe,Spain,Madrid,Madrid,Madrid
81.25.125.234,4,37,heritageforpeace.org,ES,Europe,Southern Europe,Spain,,,
185.177.155.88,4,570,hevia.es,ES,Europe,Southern Europe,Spain,,,
185.34.192.129,4,7,heystudio.es,ES,Europe,Southern Europe,Spain,,,
164.138.208.48,4,5,himoinsa.com,ES,Europe,Southern Europe,Spain,,,
84.246.210.163,4,-277425,hisense.es,ES,Europe,Southern Europe,Spain,,,
155.133.195.122,4,27,hislibris.com,ES,Europe,Southern Europe,Spain,Valencia,Valencia,Valencia
87.98.229.67,4,19,hispasonic.com,ES,Europe,Southern Europe,Spain,,,
178.211.133.22,4,34,historiasdeluz.es,ES,Europe,Southern Europe,Spain,Madrid,Madrid,Madrid
134.0.9.244,4,41,hopmancup.com,ES,Europe,Southern Europe,Spain,,,
195.248.230.230,4,35,horajaen.com,ES,Europe,Southern Europe,Spain,Andalusia,Malaga,Málaga
193.84.177.214,4,6,hostingvictory.com,ES,Europe,Southern Europe,Spain,,,
46.16.59.125,4,9,hotelavenidarequena.es,ES,Europe,Southern Europe,Spain,,,
91.142.220.19,4,19,hotelcostanarejos.com,ES,Europe,Southern Europe,Spain,,,
213.192.239.97,4,9,hotelfloridabarcelona.com,ES,Europe,Southern Europe,Spain,Catalonia,Barcelona,Barcelona
212.92.47.203,4,0,hotelstheone.com,ES,Europe,Southern Europe,Spain,,,
188.164.197.233,4,3,hpvcentre.net,ES,Europe,Southern Europe,Spain,,,
81.46.218.226,4,-401,hyundai.es,ES,Europe,Southern Europe,Spain,Valencia,Castellon,Chilches
82.194.90.83,4,-1,iated.org,ES,Europe,Southern Europe,Spain,,,
95.100.105.194,4,33,iberdrola.com,ES,Europe,Southern Europe,Spain,Madrid,Madrid,Madrid
95.100.105.188,4,11,iberdrola.com,ES,Europe,Southern Europe,Spain,Madrid,Madrid,Madrid
95.100.105.193,4,32,iberdrola.es,ES,Europe,Southern Europe,Spain,Madrid,Madrid,Madrid
95.100.105.175,4,39,iberdrola.es,ES,Europe,Southern Europe,Spain,Madrid,Madrid,Madrid
95.100.105.179,4,5,iberdrola.es,ES,Europe,Southern Europe,Spain,Madrid,Madrid,Madrid
95.100.105.177,4,15,iberdrola.es,ES,Europe,Southern Europe,Spain,Madrid,Madrid,Madrid
95.100.105.154,4,12,iberdrola.es,ES,Europe,Southern Europe,Spain,Madrid,Madrid,Madrid
95.100.105.163,4,22,iberdrola.es,ES,Europe,Southern Europe,Spain,Madrid,Madrid,Madrid
95.100.105.132,4,20,iberdrola.es,ES,Europe,Southern Europe,Spain,Madrid,Madrid,Madrid
85.208.102.125,4,11,iberianpress.es,ES,Europe,Southern Europe,Spain,,,
5.175.45.34,4,671,ibertren.es,ES,Europe,Southern Europe,Spain,,,
82.223.23.147,4,-601,ibiza.travel,ES,Europe,Southern Europe,Spain,,,
185.161.98.65,4,24,icamalaga.es,ES,Europe,Southern Europe,Spain,Madrid,Madrid,Madrid
134.0.8.155,4,27,icn2.cat,ES,Europe,Southern Europe,Spain,,,
85.208.102.8,4,37,icom-ce.org,ES,Europe,Southern Europe,Spain,,,
80.94.4.201,4,34146,icp.cat,ES,Europe,Southern Europe,Spain,Catalonia,Barcelona,Llinars del Vallès
185.136.91.136,4,5,icra.cat,ES,Europe,Southern Europe,Spain,,,
91.142.212.247,4,188,icrcat.com,ES,Europe,Southern Europe,Spain,,,
83.247.152.144,4,63,idescat.cat,ES,Europe,Southern Europe,Spain,Catalonia,Barcelona,Barcelona
46.16.62.205,4,20,ieemadrid.es,ES,Europe,Southern Europe,Spain,,,
51.210.207.94,4,5,iepp.es,ES,Europe,Southern Europe,Spain,Galicia,Lugo,Lugo
46.231.5.124,4,33,ifef.es,ES,Europe,Southern Europe,Spain,,,
31.24.44.93,4,56,igcat.org,ES,Europe,Southern Europe,Spain,,,
217.76.154.10,4,4,ihcantabria.com,ES,Europe,Southern Europe,Spain,,,
5.102.135.66,4,3,iis.es,ES,Europe,Southern Europe,Spain,,,
212.222.42.101,4,30,ikuska.com,ES,Europe,Southern Europe,Spain,Madrid,Madrid,Madrid
185.18.17.19,4,31,ileon.com,ES,Europe,Southern Europe,Spain,,,
185.34.192.51,4,6,imagine.cc,ES,Europe,Southern Europe,Spain,,,
188.165.132.204,4,8,imcoinsa.es,ES,Europe,Southern Europe,Spain,,,
185.195.99.30,4,3343,imdea.org,ES,Europe,Southern Europe,Spain,Madrid,Madrid,Madrid
89.140.230.74,4,-3852,imedhospitales.com,ES,Europe,Southern Europe,Spain,Andalusia,Granada,Granada
46.183.112.160,4,2,imprentaonline24.es,ES,Europe,Southern Europe,Spain,Catalonia,Barcelona,Barcelona
212.36.83.78,4,1448042,impresionesweb.com,ES,Europe,Southern Europe,Spain,Catalonia,Barcelona,L'Hospitalet de Llobregat
46.231.3.156,4,20,inatega.com,ES,Europe,Southern Europe,Spain,,,
84.232.101.7,4,-71358,inclass.es,ES,Europe,Southern Europe,Spain,Andalusia,Cordoba,Montoro
178.33.162.164,4,2,incyde.org,ES,Europe,Southern Europe,Spain,Madrid,Madrid,Madrid
188.165.132.144,4,95,index-of.es,ES,Europe,Southern Europe,Spain,,,
195.76.31.30,4,48,inescop.es,ES,Europe,Southern Europe,Spain,,,
46.231.5.204,4,64,infad.eu,ES,Europe,Southern Europe,Spain,,,
200.234.238.36,4,-1,infoautonomos.com,ES,Europe,Southern Europe,Spain,Catalonia,Barcelona,Barcelona
46.226.45.50,4,42,infoidiomas.com,ES,Europe,Southern Europe,Spain,,,
86.109.167.76,4,35,infotossa.com,ES,Europe,Southern Europe,Spain,,,
46.16.58.211,4,8,innovaspain.com,ES,Europe,Southern Europe,Spain,,,
86.109.170.251,4,-43350,inscripcionesweb.es,ES,Europe,Southern Europe,Spain,,,
212.227.229.218,4,37,instagramers.com,ES,Europe,Southern Europe,Spain,,,
31.24.155.30,4,3,institutobernabeu.com,ES,Europe,Southern Europe,Spain,,,
188.164.197.114,4,59,institutofranklin.net,ES,Europe,Southern Europe,Spain,,,
87.98.229.97,4,25,interdisciplines.org,ES,Europe,Southern Europe,Spain,,,
212.222.42.94,4,54,interhotel.com,ES,Europe,Southern Europe,Spain,Madrid,Madrid,Madrid
217.116.18.114,4,2,internautas.org,ES,Europe,Southern Europe,Spain,,,
54.37.168.193,4,74,internetrepublica.com,ES,Europe,Southern Europe,Spain,Galicia,Lugo,Lugo
109.234.71.183,4,18,intras.es,ES,Europe,Southern Europe,Spain,,,
149.202.147.247,4,5,inventario.pro,ES,Europe,Southern Europe,Spain,Madrid,Madrid,Madrid
213.0.69.132,4,119,ipv6tf.org,ES,Europe,Southern Europe,Spain,Madrid,Madrid,Villanueva de la Cañada
5.39.109.87,4,29,irbarcelona.org,ES,Europe,Southern Europe,Spain,Madrid,Madrid,Madrid
164.138.211.143,4,1,isabelperez.com,ES,Europe,Southern Europe,Spain,,,
185.250.203.168,4,59,isanidad.com,ES,Europe,Southern Europe,Spain,,,
37.153.91.249,4,51,isde.es,ES,Europe,Southern Europe,Spain,Catalonia,Barcelona,Badalona
193.144.226.5,4,54,ita.es,ES,Europe,Southern Europe,Spain,Cantabria,Cantabria,Santander
85.62.139.100,4,46,itec.es,ES,Europe,Southern Europe,Spain,Catalonia,Girona,Girona
161.22.44.97,4,12,itene.com,ES,Europe,Southern Europe,Spain,Catalonia,Barcelona,Barcelona
176.28.114.157,4,0,itevelesa.com,ES,Europe,Southern Europe,Spain,,,
176.58.9.126,4,360,ithotelero.com,ES,Europe,Southern Europe,Spain,Galicia,A Coruña,A Coruña
5.22.218.121,4,56400,iucncongress2020.org,ES,Europe,Southern Europe,Spain,Madrid,Madrid,Madrid
46.29.50.62,4,3,iugs-geoheritage.org,ES,Europe,Southern Europe,Spain,,,
195.149.119.81,4,9,iwnederland.nl,ES,Europe,Southern Europe,Spain,,,
91.146.98.235,4,10,jamonarium.com,ES,Europe,Southern Europe,Spain,Valencia,Alicante,Orihuela
46.16.58.47,4,20,janeeckhout.com,ES,Europe,Southern Europe,Spain,,,
5.56.58.85,4,4,javipas.com,ES,Europe,Southern Europe,Spain,,,
164.138.208.204,4,13,javirecetas.com,ES,Europe,Southern Europe,Spain,,,
178.33.113.57,4,6,jazzarenys.cat,ES,Europe,Southern Europe,Spain,,,
178.33.165.67,4,4,jeanleon.com,ES,Europe,Southern Europe,Spain,Madrid,Madrid,Madrid
161.22.40.71,4,2,jeanologia.com,ES,Europe,Southern Europe,Spain,Catalonia,Barcelona,Barcelona
213.0.33.12,4,20,jerez.es,ES,Europe,Southern Europe,Spain,Madrid,Madrid,Madrid
82.223.55.213,4,-3289,jesuitas.es,ES,Europe,Southern Europe,Spain,,,
178.211.133.15,4,14,jesushuertadesoto.com,ES,Europe,Southern Europe,Spain,Madrid,Madrid,Madrid
31.214.178.57,4,11,jha.ac,ES,Europe,Southern Europe,Spain,Balearic Islands,Balearic Islands,Ibiza Town
178.33.161.178,4,3,joaquin-rodrigo.com,ES,Europe,Southern Europe,Spain,Madrid,Madrid,Madrid
188.95.113.122,4,6,jofemar.com,ES,Europe,Southern Europe,Spain,,,
46.231.5.14,4,3119,jordirocas.com,ES,Europe,Southern Europe,Spain,,,
5.135.120.106,4,2,josefacchin.com,ES,Europe,Southern Europe,Spain,Galicia,Lugo,Lugo
134.0.9.152,4,6,josehevia.es,ES,Europe,Southern Europe,Spain,,,
86.109.170.6,4,-120341,joserodriguez.info,ES,Europe,Southern Europe,Spain,,,
92.222.183.34,4,1,joyfillednourishment.com,ES,Europe,Southern Europe,Spain,,,
5.196.170.84,4,6,juancmejia.com,ES,Europe,Southern Europe,Spain,Galicia,Lugo,Lugo
154.58.198.161,4,5,juanrevenga.com,ES,Europe,Southern Europe,Spain,Madrid,Madrid,Madrid
200.234.236.241,4,2,juantorreslopez.com,ES,Europe,Southern Europe,Spain,Catalonia,Barcelona,Barcelona
185.195.98.34,4,2,juegosadn.es,ES,Europe,Southern Europe,Spain,Madrid,Madrid,Madrid
195.57.137.3,4,25,juegosonce.es,ES,Europe,Southern Europe,Spain,Cantabria,Cantabria,Vioño
188.165.130.109,4,4,juguetilandia.com,ES,Europe,Southern Europe,Spain,,,
185.105.223.23,4,4,k-tuin.com,ES,Europe,Southern Europe,Spain,,,
185.105.223.62,4,7,k-tuin.com,ES,Europe,Southern Europe,Spain,,,
188.95.113.140,4,4,kafeantzokia.eus,ES,Europe,Southern Europe,Spain,,,
82.194.91.220,4,2,kaiku.es,ES,Europe,Southern Europe,Spain,,,
185.45.73.70,4,31,kaktoosbrand.com,ES,Europe,Southern Europe,Spain,,,
46.16.59.68,4,6,karmafilms.es,ES,Europe,Southern Europe,Spain,,,
178.211.133.63,4,12,kedin.es,ES,Europe,Southern Europe,Spain,Madrid,Madrid,Madrid
31.24.155.167,4,-36198,kelme.com,ES,Europe,Southern Europe,Spain,,,
213.162.208.91,4,5,kenayhome.com,ES,Europe,Southern Europe,Spain,,,
145.239.189.33,4,22,kernpharma.com,ES,Europe,Southern Europe,Spain,,,
134.0.9.147,4,6,kilianjornet.cat,ES,Europe,Southern Europe,Spain,,,
54.38.122.184,4,19,kriptopolis.org,ES,Europe,Southern Europe,Spain,,,
185.34.192.103,4,142,kursaal.eus,ES,Europe,Southern Europe,Spain,,,
185.45.75.101,4,-30,labordatma.com,ES,Europe,Southern Europe,Spain,,,
91.146.97.112,4,4,lacasica.es,ES,Europe,Southern Europe,Spain,Valencia,Alicante,Orihuela
51.210.207.87,4,76,lacastafiore.es,ES,Europe,Southern Europe,Spain,Galicia,Lugo,Lugo
77.246.191.101,4,717,lacestitadelbebe.es,ES,Europe,Southern Europe,Spain,Catalonia,Barcelona,Igualada
188.164.197.129,4,83826,lacontradejaen.com,ES,Europe,Southern Europe,Spain,,,
185.14.58.210,4,10,lacriaturacreativa.com,ES,Europe,Southern Europe,Spain,,,
85.208.102.225,4,74,lacronicadesalamanca.com,ES,Europe,Southern Europe,Spain,,,
185.5.125.46,4,113,lacunza.net,ES,Europe,Southern Europe,Spain,,,
185.129.250.197,4,-1,lahiguera.net,ES,Europe,Southern Europe,Spain,,,
85.208.102.100,4,4,lahuertinadetoni.es,ES,Europe,Southern Europe,Spain,,,
91.226.177.33,4,5,lamarea.com,ES,Europe,Southern Europe,Spain,,,
91.226.177.150,4,5,lamarea.com,ES,Europe,Southern Europe,Spain,,,
217.116.2.81,4,4,lamela.com,ES,Europe,Southern Europe,Spain,,,
137.74.235.70,4,3,lancelotdigital.com,ES,Europe,Southern Europe,Spain,,,
188.95.113.62,4,2,lanocheenvivo.com,ES,Europe,Southern Europe,Spain,,,
185.57.173.156,4,44296,lanzadigital.com,ES,Europe,Southern Europe,Spain,,,
89.248.101.13,4,7,lanzanos.com,ES,Europe,Southern Europe,Spain,,,
185.156.219.124,4,16,laparadeta.com,ES,Europe,Southern Europe,Spain,,,
213.192.239.75,4,-356,lapedrera.com,ES,Europe,Southern Europe,Spain,Catalonia,Barcelona,Barcelona
185.123.206.29,4,-2,lapepica.com,ES,Europe,Southern Europe,Spain,Valencia,Valencia,Valencia
51.75.233.71,4,5,lapreferente.com,ES,Europe,Southern Europe,Spain,Galicia,Lugo,Lugo
185.177.155.211,4,1,lareserva.com,ES,Europe,Southern Europe,Spain,,,
145.239.189.1,4,3,lasegundaguerra.com,ES,Europe,Southern Europe,Spain,,,
185.34.194.127,4,8,lasetmana.cat,ES,Europe,Southern Europe,Spain,,,
158.255.238.28,4,37,lasguias.com,ES,Europe,Southern Europe,Spain,,,
164.138.212.228,4,36,lasnoticiasdecuenca.es,ES,Europe,Southern Europe,Spain,,,
195.57.239.187,4,76,laspalmasgc.es,ES,Europe,Southern Europe,Spain,Balearic Islands,Balearic Islands,Palma
87.236.222.133,4,1321,lasrozas.es,ES,Europe,Southern Europe,Spain,,,
185.23.70.112,4,4,latabacalera.net,ES,Europe,Southern Europe,Spain,,,
217.13.94.225,4,11,latabernadelpuerto.com,ES,Europe,Southern Europe,Spain,,,
82.223.243.25,4,51,latorredelsol.com,ES,Europe,Southern Europe,Spain,,,
79.116.179.133,4,-3,latrans.cloud,ES,Europe,Southern Europe,Spain,,,
91.226.176.137,4,4,lauraagustin.com,ES,Europe,Southern Europe,Spain,,,
185.23.118.242,4,28,laxarxa.cat,ES,Europe,Southern Europe,Spain,Madrid,Madrid,Madrid
178.33.115.203,4,3,lazarorosaviolan.com,ES,Europe,Southern Europe,Spain,,,
193.162.14.166,4,32,lemmy.eus,ES,Europe,Southern Europe,Spain,Basque Country,Gipuzkoa,Zumaia
212.34.157.157,4,-1029,lessthanonekbyte.com,ES,Europe,Southern Europe,Spain,,,
34.175.201.153,4,5700,lestergrow.es,ES,Europe,Southern Europe,Spain,Madrid,Madrid,Madrid
94.23.84.129,4,43,leukeinfo.nl,ES,Europe,Southern Europe,Spain,,,
178.211.133.29,4,2,lhardy.com,ES,Europe,Southern Europe,Spain,Madrid,Madrid,Madrid
91.209.108.181,4,64,libreriadesnivel.com,ES,Europe,Southern Europe,Spain,,,
51.254.23.88,4,38,librosdelzorrorojo.com,ES,Europe,Southern Europe,Spain,Galicia,Lugo,Lugo
185.129.251.243,4,90701,librosyliteratura.es,ES,Europe,Southern Europe,Spain,,,
46.231.3.184,4,21597,lilla.com,ES,Europe,Southern Europe,Spain,,,
217.61.209.186,4,7,linguacop.eu,ES,Europe,Southern Europe,Spain,,,
5.196.173.71,4,2,linuxhispano.net,ES,Europe,Southern Europe,Spain,,,
178.211.133.35,4,22,listarojapatrimonio.org,ES,Europe,Southern Europe,Spain,Madrid,Madrid,Madrid
31.214.178.32,4,9,lleonardmuntanereditor.cat,ES,Europe,Southern Europe,Spain,Balearic Islands,Balearic Islands,Ibiza Town
46.16.59.85,4,5,lloretdemar.org,ES,Europe,Southern Europe,Spain,,,
91.146.96.124,4,7,llucmajor.org,ES,Europe,Southern Europe,Spain,Valencia,Alicante,Orihuela
91.146.96.100,4,3,loading.es,ES,Europe,Southern Europe,Spain,Valencia,Alicante,Orihuela
194.53.148.143,4,-1,locomalito.com,ES,Europe,Southern Europe,Spain,,,
31.214.178.31,4,64,logrono24.com,ES,Europe,Southern Europe,Spain,Balearic Islands,Balearic Islands,Ibiza Town
91.199.120.17,4,13,lomasdelaweb.com,ES,Europe,Southern Europe,Spain,,,
91.142.222.33,4,58129,lomejordelagastronomia.com,ES,Europe,Southern Europe,Spain,,,
164.138.209.164,4,4,lovegranada.com,ES,Europe,Southern Europe,Spain,,,
185.93.3.244,4,66,loverfans.com,ES,Europe,Southern Europe,Spain,Madrid,Madrid,Madrid
185.22.92.179,4,19887,lowfestival.es,ES,Europe,Southern Europe,Spain,Madrid,Madrid,Madrid
84.79.2.129,4,-9478,lowtechmagazine.com,ES,Europe,Southern Europe,Spain,Catalonia,Barcelona,Cardedeu
85.208.102.78,4,5,luciamipediatra.com,ES,Europe,Southern Europe,Spain,,,
164.138.210.249,4,55,lugaresdenieve.com,ES,Europe,Southern Europe,Spain,,,
94.23.86.225,4,56,lugocamino.com,ES,Europe,Southern Europe,Spain,,,
195.170.172.117,4,2,lurkmore.com,ES,Europe,Southern Europe,Spain,,,
212.142.224.19,4,11,lurraldebus.eus,ES,Europe,Southern Europe,Spain,Basque Country,Gipuzkoa,Pasai San Pedro
217.61.143.49,4,9,lustau.es,ES,Europe,Southern Europe,Spain,Andalusia,Seville,Seville
89.44.32.57,4,-62,lyricsgaps.com,ES,Europe,Southern Europe,Spain,,,
188.165.129.194,4,4,macrocenter.nl,ES,Europe,Southern Europe,Spain,,,
185.232.41.167,4,3,madridesteatro.com,ES,Europe,Southern Europe,Spain,,,
149.202.105.250,4,106,madridhifi.com,ES,Europe,Southern Europe,Spain,,,
134.0.8.167,4,51,madrina.org,ES,Europe,Southern Europe,Spain,,,
178.211.133.53,4,73,magicolom.com,ES,Europe,Southern Europe,Spain,Madrid,Madrid,Madrid
94.23.84.141,4,13,maidertomasena.com,ES,Europe,Southern Europe,Spain,,,
154.58.16.185,4,640,majadahonda.org,ES,Europe,Southern Europe,Spain,Principality of Asturias,Asturias,Santa Cruz de Llanera
213.0.77.132,4,79,majorcabritish.com,ES,Europe,Southern Europe,Spain,Basque Country,Gipuzkoa,Donostia / San Sebastian
91.142.210.45,4,-2906,makingideasbusiness.com,ES,Europe,Southern Europe,Spain,,,
51.83.94.56,4,45,makma.net,ES,Europe,Southern Europe,Spain,,,
51.38.169.80,4,143,makutizanzibar.com,ES,Europe,Southern Europe,Spain,Galicia,Lugo,Lugo
82.223.2.78,4,3,malta.com,ES,Europe,Southern Europe,Spain,,,
2.139.249.93,4,47,manterolmorocco.com,ES,Europe,Southern Europe,Spain,Catalonia,Barcelona,Barcelona
164.138.209.40,4,54,manzanares.es,ES,Europe,Southern Europe,Spain,,,
91.209.108.41,4,-162836,marcialpons.es,ES,Europe,Southern Europe,Spain,,,
176.58.8.119,4,1129,mardeons.es,ES,Europe,Southern Europe,Spain,Galicia,A Coruña,A Coruña
149.62.173.235,4,43,marenconsulting.es,ES,Europe,Southern Europe,Spain,,,
137.74.217.28,4,8,marinacenter.com,ES,Europe,Southern Europe,Spain,,,
178.33.160.204,4,51,marinador.com,ES,Europe,Southern Europe,Spain,Madrid,Madrid,Madrid
178.211.133.69,4,41,mariomarini.es,ES,Europe,Southern Europe,Spain,Madrid,Madrid,Madrid
185.125.78.218,4,52,mariposariodebenalmadena.com,ES,Europe,Southern Europe,Spain,,,
82.194.91.155,4,39071,mariskalrock.com,ES,Europe,Southern Europe,Spain,,,
178.211.133.11,4,39,marketingandweb.es,ES,Europe,Southern Europe,Spain,Madrid,Madrid,Madrid
188.165.132.38,4,10,marketingguerrilla.es,ES,Europe,Southern Europe,Spain,,,
5.39.16.169,4,7,marko.net,ES,Europe,Southern Europe,Spain,Galicia,Lugo,Lugo
178.33.119.112,4,21,marmotte.net,ES,Europe,Southern Europe,Spain,,,
85.208.102.55,4,38,marquesdecaceres.com,ES,Europe,Southern Europe,Spain,,,
134.0.9.170,4,47,martinazua.com,ES,Europe,Southern Europe,Spain,,,
178.255.230.25,4,29,martincodax.com,ES,Europe,Southern Europe,Spain,Valencia,Valencia,Paterna
178.255.230.24,4,86,martincodax.com,ES,Europe,Southern Europe,Spain,Valencia,Valencia,Paterna
134.0.9.113,4,6,martinmillersgin.com,ES,Europe,Southern Europe,Spain,,,
87.98.225.168,4,2,masquemedicos.com,ES,Europe,Southern Europe,Spain,,,
147.135.147.130,4,61,massresources.org,ES,Europe,Southern Europe,Spain,Galicia,Lugo,Lugo
147.156.223.81,4,12,mclibre.org,ES,Europe,Southern Europe,Spain,Valencia,Valencia,Valencia
85.208.102.195,4,30,meam.es,ES,Europe,Southern Europe,Spain,,,
193.146.122.106,4,168,medaid-h2020.eu,ES,Europe,Southern Europe,Spain,Aragon,Saragossa,Zaragoza
54.38.228.132,4,62,medcruise.com,ES,Europe,Southern Europe,Spain,,,
91.199.120.12,4,11,medicinaoral.com,ES,Europe,Southern Europe,Spain,,,
5.2.91.54,4,12984,medicusmundi.es,ES,Europe,Southern Europe,Spain,,,
31.214.178.56,4,7,megabrass.com,ES,Europe,Southern Europe,Spain,Balearic Islands,Balearic Islands,Ibiza Town
54.36.145.173,4,30,megacentereurope.es,ES,Europe,Southern Europe,Spain,,,
195.149.119.22,4,6,melechesh.com,ES,Europe,Southern Europe,Spain,,,
91.146.97.66,4,414,mensajerosdelapaz.com,ES,Europe,Southern Europe,Spain,Valencia,Alicante,Orihuela
89.248.97.214,4,6,menudoscorazones.org,ES,Europe,Southern Europe,Spain,,,
134.0.8.145,4,34,mercabarna.es,ES,Europe,Southern Europe,Spain,,,
51.254.53.112,4,2,mercadocolon.es,ES,Europe,Southern Europe,Spain,,,
31.214.178.18,4,8,mercadodesanildefonso.com,ES,Europe,Southern Europe,Spain,Balearic Islands,Balearic Islands,Ibiza Town
185.23.69.153,4,82,mercadosocial.net,ES,Europe,Southern Europe,Spain,,,
185.22.92.131,4,18411,mercasa.es,ES,Europe,Southern Europe,Spain,Madrid,Madrid,Madrid
51.254.152.102,4,3,mesondecandido.es,ES,Europe,Southern Europe,Spain,,,
93.95.208.8,4,3,metalocus.es,ES,Europe,Southern Europe,Spain,Madrid,Madrid,Madrid
51.178.144.79,4,34,metropolis.org,ES,Europe,Southern Europe,Spain,,,
185.34.192.249,4,19,mialias.net,ES,Europe,Southern Europe,Spain,,,
185.186.169.199,4,18,miapuestadeportiva.com,ES,Europe,Southern Europe,Spain,,,
51.255.107.196,4,17,micof.es,ES,Europe,Southern Europe,Spain,,,
185.161.98.86,4,15,microteatro.es,ES,Europe,Southern Europe,Spain,Madrid,Madrid,Madrid
31.24.41.81,4,7,midietacojea.com,ES,Europe,Southern Europe,Spain,,,
151.80.177.219,4,22,migualdad.es,ES,Europe,Southern Europe,Spain,Galicia,Lugo,Lugo
185.156.219.144,4,4,migueljara.com,ES,Europe,Southern Europe,Spain,,,
85.208.102.80,4,63,miniglu.es,ES,Europe,Southern Europe,Spain,,,
54.37.172.161,4,3,miradormadrid.com,ES,Europe,Southern Europe,Spain,Madrid,Madrid,Madrid
62.97.82.34,4,26,mitula.us,ES,Europe,Southern Europe,Spain,Madrid,Madrid,Madrid
185.209.60.50,4,6,mmb.cat,ES,Europe,Southern Europe,Spain,,,
212.36.83.77,4,1913702,mobusi.com,ES,Europe,Southern Europe,Spain,Catalonia,Barcelona,L'Hospitalet de Llobregat
149.202.147.244,4,-1,mochileandoporelmundo.com,ES,Europe,Southern Europe,Spain,Madrid,Madrid,Madrid
62.97.84.20,4,5,moduslaborandi.com,ES,Europe,Southern Europe,Spain,Madrid,Madrid,Madrid
54.38.122.217,4,3,monasteriopiedra.com,ES,Europe,Southern Europe,Spain,,,
91.117.125.200,4,10,monbus.es,ES,Europe,Southern Europe,Spain,Galicia,A Coruña,Santa Uxía de Ribeira
213.192.239.180,4,-650,monkeyweek.org,ES,Europe,Southern Europe,Spain,Catalonia,Barcelona,Barcelona
82.194.91.140,4,18,monteigueldo.es,ES,Europe,Southern Europe,Spain,,,
178.33.118.56,4,53,mooc.es,ES,Europe,Southern Europe,Spain,,,
104.83.80.230,4,12,morganstanley.com,ES,Europe,Southern Europe,Spain,Madrid,Madrid,Madrid
91.146.103.139,4,1,morlaesculturas.com,ES,Europe,Southern Europe,Spain,Valencia,Alicante,Orihuela
31.214.178.70,4,6,movilfrio.com,ES,Europe,Southern Europe,Spain,Balearic Islands,Balearic Islands,Ibiza Town
185.232.41.40,4,46,movilidadelectrica.com,ES,Europe,Southern Europe,Spain,,,
82.194.91.193,4,506,mraos.com,ES,Europe,Southern Europe,Spain,,,
178.33.115.51,4,4,mujerysalud.es,ES,Europe,Southern Europe,Spain,,,
185.57.173.112,4,72312,mundodvd.com,ES,Europe,Southern Europe,Spain,,,
178.33.116.4,4,112,mundogamers.com,ES,Europe,Southern Europe,Spain,,,
46.231.3.144,4,15,mundojuridico.info,ES,Europe,Southern Europe,Spain,,,
195.182.205.50,4,292809,mundoprimaria.com,ES,Europe,Southern Europe,Spain,,,
46.16.62.19,4,158,mundubat.org,ES,Europe,Southern Europe,Spain,,,
91.142.222.54,4,5838,municion.org,ES,Europe,Southern Europe,Spain,,,
109.70.130.184,4,16,museo8bits.com,ES,Europe,Southern Europe,Spain,,,
94.23.82.214,4,2,museocasanataldecervantes.org,ES,Europe,Southern Europe,Spain,,,
85.208.102.137,4,3,museodelasidra.com,ES,Europe,Southern Europe,Spain,,,
109.70.38.102,4,-3,mutuamadridopen.com,ES,Europe,Southern Europe,Spain,,,
77.246.181.245,4,8,muyinteresante.es,ES,Europe,Southern Europe,Spain,Catalonia,Barcelona,Igualada
178.32.150.211,4,6,n-t.org,ES,Europe,Southern Europe,Spain,Galicia,Lugo,Lugo
178.255.225.39,4,22,nanoge.org,ES,Europe,Southern Europe,Spain,Valencia,Valencia,Paterna
86.109.170.198,4,40,natureduca.com,ES,Europe,Southern Europe,Spain,,,
82.223.203.72,4,11,naviboard.de,ES,Europe,Southern Europe,Spain,,,
185.118.56.80,4,-3,neiker.eus,ES,Europe,Southern Europe,Spain,,,
62.97.82.44,4,2,nestoria.co.uk,ES,Europe,Southern Europe,Spain,Madrid,Madrid,Madrid
51.210.200.45,4,5,nevasport.com,ES,Europe,Southern Europe,Spain,,,
82.194.91.133,4,1160,newlink.es,ES,Europe,Southern Europe,Spain,,,
188.164.198.117,4,6,nextaway.com,ES,Europe,Southern Europe,Spain,,,
94.23.86.11,4,10,nikcub.com,ES,Europe,Southern Europe,Spain,,,
91.226.176.254,4,2,nodo50.org,ES,Europe,Southern Europe,Spain,,,
185.34.195.62,4,50,nordicalibros.com,ES,Europe,Southern Europe,Spain,,,
212.85.38.228,4,-319,nova.es,ES,Europe,Southern Europe,Spain,,,
185.18.197.251,4,45,novaciencia.es,ES,Europe,Southern Europe,Spain,,,
185.195.97.101,4,-629,novagob.org,ES,Europe,Southern Europe,Spain,Madrid,Madrid,Madrid
213.32.34.161,4,6,nr1start.nl,ES,Europe,Southern Europe,Spain,,,
149.202.147.246,4,2,nuestropsicologoenmadrid.com,ES,Europe,Southern Europe,Spain,Madrid,Madrid,Madrid
185.161.98.3,4,4,nutfruit.org,ES,Europe,Southern Europe,Spain,Madrid,Madrid,Madrid
178.33.160.224,4,4,oafifoundation.com,ES,Europe,Southern Europe,Spain,Madrid,Madrid,Madrid
194.164.174.180,4,13,objetivocastillalamancha.es,ES,Europe,Southern Europe,Spain,,,
31.214.178.44,4,9,observatoriosostenibilidad.com,ES,Europe,Southern Europe,Spain,Balearic Islands,Balearic Islands,Ibiza Town
31.214.178.88,4,9,observatoriosostenibilidad.org,ES,Europe,Southern Europe,Spain,Balearic Islands,Balearic Islands,Ibiza Town
212.92.47.202,4,1,oceanhotels.net,ES,Europe,Southern Europe,Spain,,,
176.31.149.104,4,3,oceansatlas.com,ES,Europe,Southern Europe,Spain,,,
178.33.118.15,4,19,ocmjerez.org,ES,Europe,Southern Europe,Spain,,,
86.109.160.92,4,528,ocptecnology.com,ES,Europe,Southern Europe,Spain,,,
188.165.133.150,4,4,official.fm,ES,Europe,Southern Europe,Spain,,,
94.23.83.240,4,3,ogallagher.link,ES,Europe,Southern Europe,Spain,,,
194.30.34.170,4,9,ojd.es,ES,Europe,Southern Europe,Spain,Basque Country,Biscay,Bermeo
194.30.34.171,4,5,ojdinteractiva.es,ES,Europe,Southern Europe,Spain,Basque Country,Biscay,Bermeo
164.138.211.147,4,4,oleand.es,ES,Europe,Southern Europe,Spain,,,
91.213.30.22,4,242,Ookla Speedtest Server 2254: speedtest.catnix.cat,ES,Europe,Southern Europe,Spain,,,
31.214.178.123,4,280,Ookla Speedtest Server 4988: speedtest.conectabalear.com,ES,Europe,Southern Europe,Spain,Balearic Islands,Balearic Islands,Ibiza Town
147.156.200.174,4,227,Ookla Speedtest Server 5481: speedtest.uv.es,ES,Europe,Southern Europe,Spain,Valencia,Valencia,Valencia
92.118.251.78,4,158385,Ookla Speedtest Server 5804: speedtest.flexa.tv,ES,Europe,Southern Europe,Spain,,,
89.29.128.162,4,378,Ookla Speedtest Server 6495: speedtest.almatelecom.es,ES,Europe,Southern Europe,Spain,Castille-La Mancha,Albacete,Caudete
185.29.68.21,4,347,Ookla Speedtest Server 6632: sp1.tvt-datos.es,ES,Europe,Southern Europe,Spain,Valencia,Alicante,Torrevieja
93.114.159.254,4,366,Ookla Speedtest Server 6903: test1.velocable.com,ES,Europe,Southern Europe,Spain,Andalusia,Malaga,Málaga
185.151.208.11,4,361,Ookla Speedtest Server 9395: speedtest.airsip.net,ES,Europe,Southern Europe,Spain,Valencia,Valencia,Catadau
50.7.31.242,4,143,Ookla Speedtest Server 9933: lg-mad.fdcservers.net,ES,Europe,Southern Europe,Spain,Madrid,Madrid,Madrid
185.59.51.126,4,439,Ookla Speedtest Server 12548: speedtest.ontitel.com,ES,Europe,Southern Europe,Spain,Valencia,Valencia,Ontinyent
88.148.8.109,4,441,Ookla Speedtest Server 12785: speedtest.telfy.com,ES,Europe,Southern Europe,Spain,Valencia,Alicante,Catral
185.158.171.8,4,325,Ookla Speedtest Server 13110: speedtest.fibra365.net,ES,Europe,Southern Europe,Spain,Catalonia,Girona,Platja d'Aro
185.133.99.162,4,145492,Ookla Speedtest Server 13707: testvelocidad.ibersontel.com,ES,Europe,Southern Europe,Spain,Castille-La Mancha,Ciudad Real,Ciudad Real
62.87.67.36,4,379,Ookla Speedtest Server 14449: speedtestbarcelona2.vodafone.es,ES,Europe,Southern Europe,Spain,Valencia,Valencia,Valencia
62.87.67.34,4,781015,Ookla Speedtest Server 14539: speedtestmadrid2.vodafone.es,ES,Europe,Southern Europe,Spain,Valencia,Valencia,Valencia
217.130.4.215,4,25872685,Ookla Speedtest Server 14543: speedtestgrancanaria.vodafone.es,ES,Europe,Southern Europe,Spain,Aragon,Huesca,Binaced
185.118.189.26,4,391,Ookla Speedtest Server 14616: stwibermad.mismenet.net,ES,Europe,Southern Europe,Spain,Andalusia,Granada,Granada
185.210.244.3,4,3419,Ookla Speedtest Server 15199: speedtest.meswifi.com,ES,Europe,Southern Europe,Spain,Catalonia,Barcelona,Barcelona
185.213.84.15,4,5,Ookla Speedtest Server 15939: speedtest1.fibratown.com,ES,Europe,Southern Europe,Spain,Castille-La Mancha,Albacete,Casas Ibáñez
185.90.211.158,4,263,Ookla Speedtest Server 16860: speedtest.wirered.es,ES,Europe,Southern Europe,Spain,Valencia,Valencia,Vallada
185.49.156.79,4,390,Ookla Speedtest Server 17797: st.dvblab.com,ES,Europe,Southern Europe,Spain,Valencia,Alicante,Torrevieja
78.41.80.11,4,214,Ookla Speedtest Server 18815: speedtest1.biartel.es,ES,Europe,Southern Europe,Spain,Valencia,Alicante,Biar
185.205.252.30,4,105473,Ookla Speedtest Server 19125: speedtest.fion.es,ES,Europe,Southern Europe,Spain,Andalusia,Malaga,Casarabonela
185.87.188.5,4,141,Ookla Speedtest Server 19146: speedtest.iguana.cat,ES,Europe,Southern Europe,Spain,Catalonia,Girona,Sant Joan de les Abadesses
93.90.30.66,4,200,Ookla Speedtest Server 19911: speedtest.csr-online.net,ES,Europe,Southern Europe,Spain,,,
46.253.47.208,4,357,Ookla Speedtest Server 20416: speedtest.anxanet.com,ES,Europe,Southern Europe,Spain,Catalonia,Barcelona,Vilanova i la Geltrú
185.86.11.34,4,330,Ookla Speedtest Server 20672: msibitnap.apfutura.net,ES,Europe,Southern Europe,Spain,Catalonia,Barcelona,L'Hospitalet de Llobregat
217.150.209.11,4,262,Ookla Speedtest Server 21318: lg.bcn1.es.everywan.com,ES,Europe,Southern Europe,Spain,,,
78.136.107.51,4,256,Ookla Speedtest Server 21349: nets-mad01.servihosting.net,ES,Europe,Southern Europe,Spain,,,
193.37.66.41,4,357,Ookla Speedtest Server 21356: speedtestpalafrugell.infocelra.com,ES,Europe,Southern Europe,Spain,Catalonia,Barcelona,Viladecavalls
212.230.175.202,4,99394,Ookla Speedtest Server 21378: speedtest-mad.masmovil.com,ES,Europe,Southern Europe,Spain,Andalusia,Malaga,Málaga
188.214.241.247,4,383,Ookla Speedtest Server 21394: st1alguazas.borecom.com,ES,Europe,Southern Europe,Spain,Murcia,Murcia,Ceuti
212.230.175.203,4,-1545117,Ookla Speedtest Server 21516: speedtest-bcn.masmovil.com,ES,Europe,Southern Europe,Spain,Andalusia,Malaga,Málaga
193.37.66.46,4,413,Ookla Speedtest Server 25836: speedtestestartit.infocelra.com,ES,Europe,Southern Europe,Spain,Catalonia,Barcelona,Viladecavalls
185.19.188.1,4,390,Ookla Speedtest Server 29481: speedtest.scansat.tv,ES,Europe,Southern Europe,Spain,Valencia,Alicante,Torrevieja
89.140.122.27,4,403,Ookla Speedtest Server 30999: speedtest1.avatel.es,ES,Europe,Southern Europe,Spain,Canary Islands,Santa Cruz de Tenerife,Santa Cruz de Tenerife
45.67.151.1,4,366,Ookla Speedtest Server 31702: speedtest.cinglescomunicacions.com,ES,Europe,Southern Europe,Spain,Catalonia,Barcelona,Caldes de Montbui
185.249.208.28,4,344,Ookla Speedtest Server 35379: speed.telecablecartaya.es,ES,Europe,Southern Europe,Spain,,,
77.81.115.252,4,451,Ookla Speedtest Server 35992: speedtest.differnet.es,ES,Europe,Southern Europe,Spain,Andalusia,Seville,Seville
217.70.240.142,4,-31216,Ookla Speedtest Server 38016: speedtest.dragonet.es,ES,Europe,Southern Europe,Spain,Valencia,Alicante,l'Alfàs del Pi
212.81.140.37,4,372,Ookla Speedtest Server 40135: speedmad.sarenet.es,ES,Europe,Southern Europe,Spain,Madrid,Madrid,Madrid
185.239.228.14,4,372,Ookla Speedtest Server 42137: speedtest1.movitel.tv,ES,Europe,Southern Europe,Spain,Valencia,Alicante,Castalla
185.190.100.27,4,377,Ookla Speedtest Server 44255: speedtest.citelia.es,ES,Europe,Southern Europe,Spain,Aragon,Saragossa,Zaragoza
193.37.66.42,4,159,Ookla Speedtest Server 44396: speedtestpals.infocelra.com,ES,Europe,Southern Europe,Spain,Catalonia,Barcelona,Viladecavalls
92.118.251.21,4,233,Ookla Speedtest Server 45063: speedtestvegafibra.com,ES,Europe,Southern Europe,Spain,,,
62.122.228.135,4,227,Ookla Speedtest Server 45282: speedmurcia.fibranet.tv,ES,Europe,Southern Europe,Spain,Murcia,Murcia,Murcia
45.15.117.127,4,254,Ookla Speedtest Server 45317: speedtest.beconet.es,ES,Europe,Southern Europe,Spain,Andalusia,Cordoba,Bujalance
185.47.212.26,4,320,Ookla Speedtest Server 48936: speedtest26.csisp.info,ES,Europe,Southern Europe,Spain,Canary Islands,Las Palmas,Arguineguín
5.180.228.39,4,305,Ookla Speedtest Server 48942: st.mad.spainwisp.net,ES,Europe,Southern Europe,Spain,,,
188.26.221.10,4,303,Ookla Speedtest Server 51486: speedtest5.digimobil.es,ES,Europe,Southern Europe,Spain,Catalonia,Barcelona,Barcelona
185.120.142.21,4,266,Ookla Speedtest Server 51795: speedtest.colera.jctecnics.net,ES,Europe,Southern Europe,Spain,Catalonia,Girona,Figueres
185.120.142.22,4,257,Ookla Speedtest Server 51796: speedtest.roses.jctecnics.net,ES,Europe,Southern Europe,Spain,Catalonia,Girona,Figueres
185.120.142.23,4,243,Ookla Speedtest Server 51797: speedtest.santlloren.jctecnics.net,ES,Europe,Southern Europe,Spain,Catalonia,Girona,Figueres
85.208.114.221,4,231,Ookla Speedtest Server 52295: speedtest.ohz.es,ES,Europe,Southern Europe,Spain,Madrid,Madrid,Madrid
176.10.65.6,4,175,Ookla Speedtest Server 54549: h2speedtest.cablexnet.net,ES,Europe,Southern Europe,Spain,Extremadura,Badajoz,Badajoz
185.210.244.10,4,214,Ookla Speedtest Server 55993: speedtest10.meswifi.com,ES,Europe,Southern Europe,Spain,Catalonia,Barcelona,Barcelona
185.228.126.12,4,-885417,Ookla Speedtest Server 56355: speedtest.excom.net,ES,Europe,Southern Europe,Spain,Andalusia,Cadiz,Olvera
154.58.4.6,4,293,Ookla Speedtest Server 58641: speedtest.fibraverde.es,ES,Europe,Southern Europe,Spain,Principality of Asturias,Asturias,Gijón
193.38.246.59,4,292,Ookla Speedtest Server 58897: speedtest.bcn.byfi.tech,ES,Europe,Southern Europe,Spain,Catalonia,Barcelona,Molins de Rei
80.91.75.8,4,290,Ookla Speedtest Server 59341: speedtest.conecta-t.es,ES,Europe,Southern Europe,Spain,Principality of Asturias,Asturias,Gijón
80.66.112.8,4,-3235052,Ookla Speedtest Server 59488: speed1.laurban.eu,ES,Europe,Southern Europe,Spain,Valencia,Alicante,La Zenia
185.49.170.126,4,283,Ookla Speedtest Server 63147: ookla.olin.es,ES,Europe,Southern Europe,Spain,Andalusia,Malaga,Marbella
185.152.166.37,4,355,Ookla Speedtest Server 63918: speedtest.kouten.barcelona,ES,Europe,Southern Europe,Spain,,,
176.56.119.11,4,377,Ookla Speedtest Server: speedtest-val.avanzafibra.net,ES,Europe,Southern Europe,Spain,Murcia,Murcia,San Javier
185.219.120.7,4,215,Ookla Speedtest Server: speedtest.fibra-amg.com,ES,Europe,Southern Europe,Spain,Andalusia,Granada,Granada
185.118.188.97,4,27494,Ookla Speedtest Server: speedtest.mismenet.net,ES,Europe,Southern Europe,Spain,Andalusia,Granada,Híjar
149.12.216.5,4,14,Ookla Speedtest Server: speedtest.oxon3.net,ES,Europe,Southern Europe,Spain,Principality of Asturias,Asturias,Gijón
84.232.1.8,4,78,Ookla Speedtest Server: speedtest.servihosting.es,ES,Europe,Southern Europe,Spain,Murcia,Murcia,Caravaca
176.98.220.26,4,6,Ookla Speedtest Server: svrveltest.lyntia.com,ES,Europe,Southern Europe,Spain,,,
88.148.103.98,4,66049,Ookla Speedtest Server: test1.telitel.org,ES,Europe,Southern Europe,Spain,,,
149.202.147.248,4,22,operaliacompetition.org,ES,Europe,Southern Europe,Spain,Madrid,Madrid,Madrid
62.151.176.209,4,9,opportimes.com,ES,Europe,Southern Europe,Spain,,,
213.192.239.59,4,11,ordesa.es,ES,Europe,Southern Europe,Spain,Catalonia,Barcelona,Barcelona
185.93.182.243,4,2,ourfuturerailway.hk,ES,Europe,Southern Europe,Spain,Madrid,Madrid,Madrid
51.38.162.120,4,3,ovguide.com,ES,Europe,Southern Europe,Spain,,,
51.68.24.95,4,3,padelstar.es,ES,Europe,Southern Europe,Spain,,,
185.45.72.68,4,285,paguerasportregion.com,ES,Europe,Southern Europe,Spain,,,
178.211.133.58,4,26,paisajetransversal.org,ES,Europe,Southern Europe,Spain,Madrid,Madrid,Madrid
178.33.113.184,4,29,palaciofestivales.com,ES,Europe,Southern Europe,Spain,,,
80.64.32.177,4,-644556,palafrugell.cat,ES,Europe,Southern Europe,Spain,Catalonia,Girona,Cassà de la Selva
51.254.152.100,4,21,palermonline.com.ar,ES,Europe,Southern Europe,Spain,,,
46.231.5.185,4,14,palexmedical.com,ES,Europe,Southern Europe,Spain,,,
85.208.23.62,4,22,palmaaquarium.com,ES,Europe,Southern Europe,Spain,Catalonia,Barcelona,Barcelona
87.98.230.43,4,47,pando.es,ES,Europe,Southern Europe,Spain,,,
45.150.186.209,4,19,pangea.org,ES,Europe,Southern Europe,Spain,Catalonia,Barcelona,Barcelona
213.60.254.217,4,46,parador.es,ES,Europe,Southern Europe,Spain,Galicia,Ourense,Vilariño
54.36.4.27,4,36,paralalibertad.org,ES,Europe,Southern Europe,Spain,,,
178.33.115.215,4,41,paresbalta.com,ES,Europe,Southern Europe,Spain,,,
185.136.89.73,4,96,parquenacionalpicoseuropa.es,ES,Europe,Southern Europe,Spain,,,
54.38.30.72,4,16,parquenacionalsierraguadarrama.es,ES,Europe,Southern Europe,Spain,Andalusia,Granada,Granada
178.33.119.137,4,50,pasosonline.org,ES,Europe,Southern Europe,Spain,,,
164.138.208.185,4,35,pequeocio.com,ES,Europe,Southern Europe,Spain,,,
185.5.124.52,4,33,perforacionesjocal.com,ES,Europe,Southern Europe,Spain,,,
178.211.133.64,4,9,periodismociudadano.com,ES,Europe,Southern Europe,Spain,Madrid,Madrid,Madrid
91.200.116.48,4,23,pesa.net,ES,Europe,Southern Europe,Spain,Basque Country,Gipuzkoa,Donostia / San Sebastian
89.248.97.69,4,84,pesca.com,ES,Europe,Southern Europe,Spain,,,
178.211.133.47,4,31,petdarling.com,ES,Europe,Southern Europe,Spain,Madrid,Madrid,Madrid
217.13.114.4,4,751,pgacatalunya.com,ES,Europe,Southern Europe,Spain,,,
82.194.91.99,4,-182,phantomsnet.net,ES,Europe,Southern Europe,Spain,,,
164.138.209.203,4,62,phpbb-es.com,ES,Europe,Southern Europe,Spain,,,
185.118.56.232,4,30,picoseuropa.net,ES,Europe,Southern Europe,Spain,,,
185.186.169.189,4,32,pielframa.com,ES,Europe,Southern Europe,Spain,,,
85.208.102.26,4,20,pinup-casino-bet.in,ES,Europe,Southern Europe,Spain,,,
188.165.132.201,4,46,pistoconwebo.net,ES,Europe,Southern Europe,Spain,,,
81.46.227.124,4,7,placeandsee.com,ES,Europe,Southern Europe,Spain,,,
85.208.102.239,4,36,planetachatbot.com,ES,Europe,Southern Europe,Spain,,,
134.0.9.118,4,5,plataforma-llengua.cat,ES,Europe,Southern Europe,Spain,,,
134.0.9.78,4,49,plataformadeartecontemporaneo.com,ES,Europe,Southern Europe,Spain,,,
54.37.168.24,4,7,plataformasinc.es,ES,Europe,Southern Europe,Spain,Galicia,Lugo,Lugo
31.214.178.46,4,24,plateamagazine.com,ES,Europe,Southern Europe,Spain,Balearic Islands,Balearic Islands,Ibiza Town
51.68.67.95,4,3,playfortunas.ru,ES,Europe,Southern Europe,Spain,,,
84.246.211.167,4,-869,plazayvaldes.es,ES,Europe,Southern Europe,Spain,,,
82.223.10.81,4,14,pocketnavigation.de,ES,Europe,Southern Europe,Spain,,,
46.16.59.130,4,12,policonomics.com,ES,Europe,Southern Europe,Spain,,,
178.255.225.204,4,44,politicaexterior.com,ES,Europe,Southern Europe,Spain,Valencia,Valencia,Paterna
217.18.163.114,4,36,popularlibros.com,ES,Europe,Southern Europe,Spain,,,
54.37.122.168,4,22,portalalba.org,ES,Europe,Southern Europe,Spain,,,
51.254.53.100,4,19,portalclasico.com,ES,Europe,Southern Europe,Spain,,,
93.189.38.112,4,40,portalesmedicos.com,ES,Europe,Southern Europe,Spain,,,
178.211.133.50,4,29,portalparados.es,ES,Europe,Southern Europe,Spain,Madrid,Madrid,Madrid
82.194.87.199,4,11553,portalprogramas.com,ES,Europe,Southern Europe,Spain,,,
185.209.60.126,4,37,ppmadrid.es,ES,Europe,Southern Europe,Spain,,,
84.88.71.7,4,-2,prbb.org,ES,Europe,Southern Europe,Spain,Catalonia,Barcelona,Barcelona
51.210.207.103,4,13,pre-textos.com,ES,Europe,Southern Europe,Spain,Galicia,Lugo,Lugo
178.33.117.62,4,7,precisiontimeeurope.com,ES,Europe,Southern Europe,Spain,,,
164.138.209.124,4,34,pridebarcelona.org,ES,Europe,Southern Europe,Spain,,,
94.23.81.76,4,31,proexca.es,ES,Europe,Southern Europe,Spain,,,
31.214.178.25,4,30,profust.com,ES,Europe,Southern Europe,Spain,Balearic Islands,Balearic Islands,Ibiza Town
38.180.53.107,4,54,profvibor.ru,ES,Europe,Southern Europe,Spain,Madrid,Madrid,Madrid
185.103.39.249,4,72,programacion.com,ES,Europe,Southern Europe,Spain,Madrid,Madrid,Madrid
46.16.58.134,4,76,programaibermedia.com,ES,Europe,Southern Europe,Spain,,,
178.33.117.119,4,33,programarfacil.com,ES,Europe,Southern Europe,Spain,,,
185.177.154.195,4,204,promocionmusical.es,ES,Europe,Southern Europe,Spain,,,
178.33.115.115,4,22,protecciondatos-lopd.com,ES,Europe,Southern Europe,Spain,,,
188.213.5.160,4,43,protegeles.com,ES,Europe,Southern Europe,Spain,Madrid,Madrid,Madrid
185.254.205.55,4,31,proyectolibera.org,ES,Europe,Southern Europe,Spain,Catalonia,Barcelona,Barcelona
85.208.102.83,4,25,psicocode.com,ES,Europe,Southern Europe,Spain,,,
200.234.225.4,4,36,psicologiamadrid.es,ES,Europe,Southern Europe,Spain,Catalonia,Barcelona,Barcelona
82.194.90.28,4,2,psiquiatria.com,ES,Europe,Southern Europe,Spain,,,
86.109.166.203,4,38,psp.es,ES,Europe,Southern Europe,Spain,,,
31.14.255.129,4,192,pta.es,ES,Europe,Southern Europe,Spain,Madrid,Madrid,Madrid
91.142.214.246,4,3,publicatalogue.com,ES,Europe,Southern Europe,Spain,,,
188.165.135.230,4,23,publiguia.net,ES,Europe,Southern Europe,Spain,,,
85.208.102.76,4,67,publisuites.com,ES,Europe,Southern Europe,Spain,,,
46.183.119.113,4,-154,puertasmcm.es,ES,Europe,Southern Europe,Spain,Catalonia,Barcelona,Barcelona
149.62.172.125,4,512136,puertaspuyma.es,ES,Europe,Southern Europe,Spain,,,
153.92.42.58,4,66,puerto-banus.com,ES,Europe,Southern Europe,Spain,,,
45.8.13.163,4,0,puertollano.es,ES,Europe,Southern Europe,Spain,Navarre,Navarre,Cizur Menor
185.186.169.236,4,24,puntmobles.com,ES,Europe,Southern Europe,Spain,,,
185.125.78.79,4,12,puntodebreak.com,ES,Europe,Southern Europe,Spain,,,
46.226.47.16,4,3,puntoyrayafestival.com,ES,Europe,Southern Europe,Spain,,,
51.68.7.206,4,10,quebrantahuesos.org,ES,Europe,Southern Europe,Spain,,,
37.59.246.201,4,25,quescrem.es,ES,Europe,Southern Europe,Spain,Galicia,Lugo,Lugo
54.36.201.42,4,12,queviure.cat,ES,Europe,Southern Europe,Spain,,,
46.175.128.200,4,11,quienfue.click,ES,Europe,Southern Europe,Spain,,,
178.33.115.23,4,34,quieropostre.com,ES,Europe,Southern Europe,Spain,,,
178.33.165.11,4,10,quincenamusical.eus,ES,Europe,Southern Europe,Spain,Madrid,Madrid,Madrid
5.188.183.186,4,7,qxinfo.in,ES,Europe,Southern Europe,Spain,Madrid,Madrid,Madrid
134.0.8.135,4,126,radiobalaguer.cat,ES,Europe,Southern Europe,Spain,,,
88.2.143.240,4,3947,radiopasionlatina.com,ES,Europe,Southern Europe,Spain,Catalonia,Barcelona,Sant Esteve Sesrovires
82.194.91.24,4,103,radioteletaxi.com,ES,Europe,Southern Europe,Spain,,,
46.16.63.53,4,68,rafabasa.com,ES,Europe,Southern Europe,Spain,,,
54.36.88.181,4,60,rafapal.com,ES,Europe,Southern Europe,Spain,,,
91.132.103.5,4,29,raiolanetworks.es,ES,Europe,Southern Europe,Spain,Madrid,Madrid,Madrid
164.132.61.213,4,31,rakeingrass.com,ES,Europe,Southern Europe,Spain,Castille and León,Valladolid,Valladolid
5.102.128.8,4,54,raphaelnet.com,ES,Europe,Southern Europe,Spain,,,
84.246.211.168,4,65,raspeig.es,ES,Europe,Southern Europe,Spain,,,
212.227.110.190,4,32,rastersoft.com,ES,Europe,Southern Europe,Spain,,,
185.34.192.135,4,5,rcpolo.com,ES,Europe,Southern Europe,Spain,,,
62.97.84.197,4,12,rcsmm.eu,ES,Europe,Southern Europe,Spain,Madrid,Madrid,Madrid
54.38.234.251,4,4,realfooding.com,ES,Europe,Southern Europe,Spain,,,
84.232.4.8,4,3,realmaestranza.com,ES,Europe,Southern Europe,Spain,Murcia,Murcia,Caravaca
185.70.92.233,4,522,realovirtual.com,ES,Europe,Southern Europe,Spain,,,
84.88.183.28,4,1,recercasantpau.cat,ES,Europe,Southern Europe,Spain,Catalonia,Barcelona,Barcelona
54.37.168.127,4,4,recetasdeescandalo.com,ES,Europe,Southern Europe,Spain,Galicia,Lugo,Lugo
217.182.148.110,4,33,recetasurbanas.net,ES,Europe,Southern Europe,Spain,,,
212.80.128.4,4,4890801,recoletos.es,ES,Europe,Southern Europe,Spain,,,
62.82.128.4,4,288628,recorda.net,ES,Europe,Southern Europe,Spain,Navarre,Navarre,Noáin
46.105.250.118,4,23,redescristianas.net,ES,Europe,Southern Europe,Spain,,,
91.226.176.136,4,15,redrentabasica.org,ES,Europe,Southern Europe,Spain,,,
178.211.133.10,4,39,reds-sdsn.es,ES,Europe,Southern Europe,Spain,Madrid,Madrid,Madrid
178.211.133.16,4,20,reformasfarol.com,ES,Europe,Southern Europe,Spain,Madrid,Madrid,Madrid
185.156.219.153,4,35,reformasintegraleszaragoza.net,ES,Europe,Southern Europe,Spain,,,
178.33.114.202,4,66,reformaspisoszaragoza.es,ES,Europe,Southern Europe,Spain,,,
185.232.41.138,4,22,regatacopadelrey.com,ES,Europe,Southern Europe,Spain,,,
164.138.212.88,4,56,reglasdeortografia.com,ES,Europe,Southern Europe,Spain,,,
178.33.114.154,4,26,remax.es,ES,Europe,Southern Europe,Spain,,,
185.232.41.6,4,7,renewableenergymagazine.com,ES,Europe,Southern Europe,Spain,,,
91.146.98.114,4,17,renovetec.com,ES,Europe,Southern Europe,Spain,Valencia,Alicante,Orihuela
185.92.244.76,4,14,representacionesluislopez.com,ES,Europe,Southern Europe,Spain,Andalusia,Almeria,Almería
149.202.105.228,4,43,residuosprofesional.com,ES,Europe,Southern Europe,Spain,,,
178.211.133.40,4,38,restauranteelkano.com,ES,Europe,Southern Europe,Spain,Madrid,Madrid,Madrid
164.138.209.244,4,30,restaurantemaitena.es,ES,Europe,Southern Europe,Spain,,,
185.34.194.165,4,43,restaurantlasarte.com,ES,Europe,Southern Europe,Spain,,,
95.100.132.47,4,4,retabet.es,ES,Europe,Southern Europe,Spain,Madrid,Madrid,Madrid
188.93.78.192,4,498,retema.es,ES,Europe,Southern Europe,Spain,,,
213.162.197.1,4,14,revistadehistoria.es,ES,Europe,Southern Europe,Spain,Valencia,Valencia,Pedralba
54.36.45.184,4,7,revistaempresarial.com,ES,Europe,Southern Europe,Spain,,,
94.23.113.106,4,36,revistaganamas.com.pe,ES,Europe,Southern Europe,Spain,Madrid,Madrid,Madrid
46.231.5.42,4,53,revistaiberica.com,ES,Europe,Southern Europe,Spain,,,
80.28.149.10,4,5,revistalatinacs.org,ES,Europe,Southern Europe,Spain,Balearic Islands,Balearic Islands,Palma
85.208.102.154,4,18,revistasculturales.com,ES,Europe,Southern Europe,Spain,,,
212.85.39.85,4,19,revistavanityfair.es,ES,Europe,Southern Europe,Spain,,,
31.24.41.152,4,21,rfess.es,ES,Europe,Southern Europe,Spain,,,
54.38.165.224,4,10,rfev.es,ES,Europe,Southern Europe,Spain,,,
95.100.105.150,4,33,rge.com,ES,Europe,Southern Europe,Spain,Madrid,Madrid,Madrid
95.100.105.190,4,13,rge.com,ES,Europe,Southern Europe,Spain,Madrid,Madrid,Madrid
185.176.9.192,4,424980,ribeirasacra.org,ES,Europe,Southern Europe,Spain,,,
62.36.229.31,4,59,richmediastudio.com,ES,Europe,Southern Europe,Spain,Madrid,Madrid,Madrid
94.23.84.46,4,531336,right2city.org,ES,Europe,Southern Europe,Spain,,,
185.18.197.22,4,21,rigourpapers.com,ES,Europe,Southern Europe,Spain,,,
31.214.178.6,4,-15,rinace.net,ES,Europe,Southern Europe,Spain,Balearic Islands,Balearic Islands,Ibiza Town
51.254.111.187,4,2,rinconeducativo.org,ES,Europe,Southern Europe,Spain,,,
185.47.247.171,4,14,riosafari.com,ES,Europe,Southern Europe,Spain,,,
185.165.3.55,4,-4,rivasciudad.es,ES,Europe,Southern Europe,Spain,,,
134.0.8.125,4,77,robertofonseca.com,ES,Europe,Southern Europe,Spain,,,
176.58.12.112,4,1105,robertoverino.com,ES,Europe,Southern Europe,Spain,Galicia,A Coruña,A Coruña
217.61.208.158,4,32,robotnik.eu,ES,Europe,Southern Europe,Spain,,,
188.93.79.92,4,8,rocambolesc.com,ES,Europe,Southern Europe,Spain,,,
85.208.102.81,4,14,rockfestbarcelona.com,ES,Europe,Southern Europe,Spain,,,
79.137.116.49,4,7,rondasomontano.com,ES,Europe,Southern Europe,Spain,,,
51.210.164.149,4,24,rosagres.com,ES,Europe,Southern Europe,Spain,Galicia,Lugo,Lugo
46.16.58.100,4,20,rosalia.com,ES,Europe,Southern Europe,Spain,,,
82.223.103.44,4,26,rovi.es,ES,Europe,Southern Europe,Spain,,,
31.24.154.143,4,-1013,rrhhdigital.com,ES,Europe,Southern Europe,Spain,,,
178.33.119.231,4,7,rrhhpress.com,ES,Europe,Southern Europe,Spain,,,
178.211.133.42,4,5,rsce.es,ES,Europe,Southern Europe,Spain,Madrid,Madrid,Madrid
185.125.78.117,4,24,rseq.org,ES,Europe,Southern Europe,Spain,,,
85.208.23.238,4,992,rsf-es.org,ES,Europe,Southern Europe,Spain,Catalonia,Barcelona,Barcelona
145.239.53.149,4,3,rsxclass.com,ES,Europe,Southern Europe,Spain,,,
82.165.3.169,4,4,rtpa.es,ES,Europe,Southern Europe,Spain,,,
87.98.226.211,4,92,rtvvilafranca.cat,ES,Europe,Southern Europe,Spain,,,
164.132.29.96,4,3,sabersinfin.com,ES,Europe,Southern Europe,Spain,,,
46.29.49.51,4,5,salagalileogalilei.com,ES,Europe,Southern Europe,Spain,,,
212.227.144.226,4,28,salimar.it,ES,Europe,Southern Europe,Spain,,,
5.56.58.34,4,9,salou.cat,ES,Europe,Southern Europe,Spain,,,
94.23.82.122,4,29,saltaconmigo.com,ES,Europe,Southern Europe,Spain,,,
193.84.177.247,4,13,saludalia.com,ES,Europe,Southern Europe,Spain,,,
5.56.60.182,4,3,sangakoo.com,ES,Europe,Southern Europe,Spain,,,
185.14.58.201,4,3,sanjavier.es,ES,Europe,Southern Europe,Spain,,,
31.24.41.113,4,20,sanroqueclub.com,ES,Europe,Southern Europe,Spain,,,
51.210.87.131,4,4,sansebastianturismoa.eus,ES,Europe,Southern Europe,Spain,Galicia,Lugo,Lugo
94.23.84.202,4,8,santceloni.cat,ES,Europe,Southern Europe,Spain,,,
212.92.50.68,4,25,santfeliu.cat,ES,Europe,Southern Europe,Spain,,,
84.88.183.12,4,483,santpau.cat,ES,Europe,Southern Europe,Spain,Catalonia,Barcelona,Barcelona
134.0.9.68,4,3,santpaubarcelona.org,ES,Europe,Southern Europe,Spain,,,
51.75.189.205,4,2,santpol.edu.es,ES,Europe,Southern Europe,Spain,,,
188.165.131.134,4,6,santsadurni.cat,ES,Europe,Southern Europe,Spain,,,
95.100.105.183,4,37,scottishpower.co.uk,ES,Europe,Southern Europe,Spain,Madrid,Madrid,Madrid
95.100.105.149,4,9,scottishpower.co.uk,ES,Europe,Southern Europe,Spain,Madrid,Madrid,Madrid
95.100.105.138,4,57,scottishpower.com,ES,Europe,Southern Europe,Spain,Madrid,Madrid,Madrid
95.100.105.139,4,16,scottishpower.com,ES,Europe,Southern Europe,Spain,Madrid,Madrid,Madrid
95.100.105.134,4,4,scottishpowerrenewables.com,ES,Europe,Southern Europe,Spain,Madrid,Madrid,Madrid
95.100.105.180,4,30,scottishpowerrenewables.com,ES,Europe,Southern Europe,Spain,Madrid,Madrid,Madrid
185.136.91.168,4,8,scrummanager.com,ES,Europe,Southern Europe,Spain,,,
91.134.246.94,4,9,sea-astronomia.es,ES,Europe,Southern Europe,Spain,,,
88.148.108.102,4,12,sea-entomologia.org,ES,Europe,Southern Europe,Spain,Murcia,Murcia,Aljucer
217.61.210.26,4,68,sedo.es,ES,Europe,Southern Europe,Spain,,,
178.211.133.7,4,17,sedolor.es,ES,Europe,Southern Europe,Spain,Madrid,Madrid,Madrid
178.211.133.36,4,18,seepidemiologia.es,ES,Europe,Southern Europe,Spain,Madrid,Madrid,Madrid
178.211.133.60,4,20,seff.es,ES,Europe,Southern Europe,Spain,Madrid,Madrid,Madrid
185.176.9.12,4,-183,segoviaudaz.es,ES,Europe,Southern Europe,Spain,,,
176.28.100.20,4,4,seguraviudas.com,ES,Europe,Southern Europe,Spain,,,
185.47.245.164,4,3,seis.es,ES,Europe,Southern Europe,Spain,,,
185.34.192.67,4,20,seo.org,ES,Europe,Southern Europe,Spain,,,
185.34.194.232,4,47,sepa.es,ES,Europe,Southern Europe,Spain,,,
82.194.91.239,4,73,sepd.es,ES,Europe,Southern Europe,Spain,,,
134.0.9.91,4,15,seqc.es,ES,Europe,Southern Europe,Spain,,,
185.73.178.56,4,41,sermef.es,ES,Europe,Southern Europe,Spain,,,
164.138.212.80,4,3,sernauto.es,ES,Europe,Southern Europe,Spain,,,
185.162.171.100,4,6,serpinco.com,ES,Europe,Southern Europe,Spain,,,
185.70.95.150,4,1692,sespas.es,ES,Europe,Southern Europe,Spain,,,
185.66.40.63,4,40,sespm-cadiz2018.com,ES,Europe,Southern Europe,Spain,,,
87.98.230.47,4,2,seveballesteros.com,ES,Europe,Southern Europe,Spain,,,
31.214.178.9,4,23,sevillanadelimpieza.com,ES,Europe,Southern Europe,Spain,Balearic Islands,Balearic Islands,Ibiza Town
194.165.60.27,4,1,sge.org,ES,Europe,Southern Europe,Spain,,,
31.214.178.110,4,22,shadowfist.com,ES,Europe,Southern Europe,Spain,Balearic Islands,Balearic Islands,Ibiza Town
178.33.167.92,4,3,sharemusic.es,ES,Europe,Southern Europe,Spain,Madrid,Madrid,Madrid
178.33.116.125,4,2,shomei.tv,ES,Europe,Southern Europe,Spain,,,
81.172.9.104,4,-3,shurcondicionados.cf,ES,Europe,Southern Europe,Spain,Principality of Asturias,Asturias,Gijón
178.211.133.26,4,44,siberzone.es,ES,Europe,Southern Europe,Spain,Madrid,Madrid,Madrid
93.189.94.117,4,1,sibetrans.com,ES,Europe,Southern Europe,Spain,Catalonia,Barcelona,Barcelona
217.18.162.37,4,31,sigloxxieditores.com,ES,Europe,Southern Europe,Spain,,,
185.5.125.220,4,2216,signus.es,ES,Europe,Southern Europe,Spain,,,
188.165.128.80,4,21,sigre.es,ES,Europe,Southern Europe,Spain,,,
82.194.71.5,4,0,siis.net,ES,Europe,Southern Europe,Spain,,,
213.32.58.27,4,6,siliconnews.es,ES,Europe,Southern Europe,Spain,Galicia,Lugo,Lugo
147.156.222.187,4,54,silknow.org,ES,Europe,Southern Europe,Spain,Valencia,Valencia,Valencia
193.147.87.25,4,5,sing-group.org,ES,Europe,Southern Europe,Spain,Galicia,Pontevedra,Vigo
91.226.176.148,4,6,sinpermiso.info,ES,Europe,Southern Europe,Spain,,,
85.208.21.122,4,0,sips.barcelona,ES,Europe,Southern Europe,Spain,Catalonia,Barcelona,Barcelona
185.165.0.51,4,18,skal.org,ES,Europe,Southern Europe,Spain,,,
91.134.236.236,4,4,smashcast.tv,ES,Europe,Southern Europe,Spain,,,
185.118.57.80,4,69,soccernews.com,ES,Europe,Southern Europe,Spain,,,
149.202.12.71,4,38,socialancer.com,ES,Europe,Southern Europe,Spain,Galicia,Lugo,Lugo
46.183.118.110,4,27,socialpubli.com,ES,Europe,Southern Europe,Spain,Catalonia,Barcelona,Barcelona
178.32.150.78,4,4,sociedadgeologica.es,ES,Europe,Southern Europe,Spain,Madrid,Madrid,Madrid
193.144.12.15,4,22,softcatala.org,ES,Europe,Southern Europe,Spain,Catalonia,Lleida,Lleida
217.13.93.44,4,-22845,softwarevalencia.com,ES,Europe,Southern Europe,Spain,,,
90.160.60.180,4,345504,soib.es,ES,Europe,Southern Europe,Spain,Madrid,Madrid,Madrid
94.23.80.226,4,3,solohijos.com,ES,Europe,Southern Europe,Spain,,,
178.33.118.246,4,470,solvetic.com,ES,Europe,Southern Europe,Spain,,,
185.195.96.254,4,-3028,somosmalasana.com,ES,Europe,Southern Europe,Spain,Madrid,Madrid,Madrid
5.196.175.242,4,8,sonbrull.com,ES,Europe,Southern Europe,Spain,,,
178.33.117.204,4,28,sonorama-aranda.com,ES,Europe,Southern Europe,Spain,,,
217.18.166.136,4,13,sophosenlinea.com,ES,Europe,Southern Europe,Spain,,,
178.33.167.117,4,4,sosracisme.org,ES,Europe,Southern Europe,Spain,Madrid,Madrid,Madrid
185.222.157.104,4,1587,sotanobdsm.com,ES,Europe,Southern Europe,Spain,,,
85.208.102.203,4,2,soycomocomo.es,ES,Europe,Southern Europe,Spain,,,
212.81.188.206,4,1,soydemadrid.com,ES,Europe,Southern Europe,Spain,Navarre,Navarre,Pamplona
65.20.98.252,4,13,soyunperro.com,ES,Europe,Southern Europe,Spain,Madrid,Madrid,Madrid
94.23.84.5,4,2,spainsif.es,ES,Europe,Southern Europe,Spain,Madrid,Madrid,Madrid
95.100.105.155,4,36,spenergynetworks.co.uk,ES,Europe,Southern Europe,Spain,Madrid,Madrid,Madrid
95.100.105.142,4,19,spenergynetworks.co.uk,ES,Europe,Southern Europe,Spain,Madrid,Madrid,Madrid
54.36.248.140,4,60,sportec.es,ES,Europe,Southern Europe,Spain,Galicia,Lugo,Lugo
5.57.226.105,4,7,stackscale.com,ES,Europe,Southern Europe,Spain,Madrid,Madrid,Madrid
5.57.226.103,4,12,stackscale.com,ES,Europe,Southern Europe,Spain,Madrid,Madrid,Madrid
137.74.67.12,4,30,startpalace.nl,ES,Europe,Southern Europe,Spain,,,
178.33.119.160,4,3,startwall.be,ES,Europe,Southern Europe,Spain,,,
185.23.69.181,4,49,step.es,ES,Europe,Southern Europe,Spain,,,
5.39.13.89,4,48,strategyprotect.com,ES,Europe,Southern Europe,Spain,,,
31.214.178.12,4,70,stratos-ad.com,ES,Europe,Southern Europe,Spain,Balearic Islands,Balearic Islands,Ibiza Town
185.23.71.245,4,38,studiobananathings.com,ES,Europe,Southern Europe,Spain,,,
185.123.204.80,4,13,subdownloader.net,ES,Europe,Southern Europe,Spain,Valencia,Valencia,Valencia
185.129.251.222,4,26,sucarpinteria.com,ES,Europe,Southern Europe,Spain,,,
51.75.233.110,4,8,sup.es,ES,Europe,Southern Europe,Spain,Galicia,Lugo,Lugo
51.38.169.115,4,33,supercurioso.com,ES,Europe,Southern Europe,Spain,Galicia,Lugo,Lugo
51.68.98.212,4,19,superlativewatches.es,ES,Europe,Southern Europe,Spain,,,
188.165.131.237,4,3,superprof.es,ES,Europe,Southern Europe,Spain,,,
178.60.29.219,4,130437,suplments.com,ES,Europe,Southern Europe,Spain,Galicia,Pontevedra,Vigo
178.211.133.44,4,18,surfingtheplanet.com,ES,Europe,Southern Europe,Spain,Madrid,Madrid,Madrid
185.13.76.55,4,0,surtdecasa.cat,ES,Europe,Southern Europe,Spain,Catalonia,Tarragona,Jesús
46.29.48.118,4,9,swingmaniacs.com,ES,Europe,Southern Europe,Spain,,,
194.35.43.21,4,444,sydkusten.es,ES,Europe,Southern Europe,Spain,,,
178.33.165.168,4,2,tablaolosgallos.com,ES,Europe,Southern Europe,Spain,Madrid,Madrid,Madrid
93.189.36.78,4,0,tablondeanuncios.com,ES,Europe,Southern Europe,Spain,,,
5.196.239.36,4,8,taiarts.com,ES,Europe,Southern Europe,Spain,Galicia,Lugo,Lugo
45.84.208.140,4,7,taiga.io,ES,Europe,Southern Europe,Spain,,,
51.178.170.113,4,19,talavera.es,ES,Europe,Southern Europe,Spain,,,
46.226.45.233,4,74,talentsearchpeople.com,ES,Europe,Southern Europe,Spain,,,
87.98.227.60,4,28,tapasmagazine.es,ES,Europe,Southern Europe,Spain,,,
31.24.44.69,4,5,tarragona21.com,ES,Europe,Southern Europe,Spain,,,
185.254.205.53,4,80,tarragonaradio.cat,ES,Europe,Southern Europe,Spain,Catalonia,Barcelona,Barcelona
213.32.37.233,4,63,tatelrestaurants.com,ES,Europe,Southern Europe,Spain,,,
185.79.128.16,4,-3,tcu.es,ES,Europe,Southern Europe,Spain,,,
193.46.238.177,4,16,teatrocampos.com,ES,Europe,Southern Europe,Spain,,,
217.61.209.184,4,44,teatrolara.com,ES,Europe,Southern Europe,Spain,,,
185.118.57.46,4,26,tecnalia.com,ES,Europe,Southern Europe,Spain,,,
5.175.45.81,4,48,tecnidus.es,ES,Europe,Southern Europe,Spain,,,
178.255.231.122,4,57,tecnobits.com,ES,Europe,Southern Europe,Spain,Valencia,Valencia,Paterna
178.255.231.121,4,9,tecnobits.com,ES,Europe,Southern Europe,Spain,Valencia,Valencia,Paterna
212.92.50.137,4,27,teleadhesivo.com,ES,Europe,Southern Europe,Spain,,,
46.16.62.197,4,10,telefericodebarcelona.com,ES,Europe,Southern Europe,Spain,,,
31.214.178.39,4,70,teleline.es,ES,Europe,Southern Europe,Spain,Balearic Islands,Balearic Islands,Ibiza Town
5.255.145.26,4,6,telemadrid.es,ES,Europe,Southern Europe,Spain,,,
162.213.66.130,4,147824,temporada-alta.com,ES,Europe,Southern Europe,Spain,Catalonia,Barcelona,Mataró
193.46.238.184,4,62,tendam.es,ES,Europe,Southern Europe,Spain,,,
46.16.59.90,4,22,tepsa.eu,ES,Europe,Southern Europe,Spain,,,
178.33.117.202,4,3,tercersector.cat,ES,Europe,Southern Europe,Spain,,,
178.211.133.59,4,13,terzas.es,ES,Europe,Southern Europe,Spain,Madrid,Madrid,Madrid
86.109.178.106,4,28,texticruz.com,ES,Europe,Southern Europe,Spain,,,
185.66.40.108,4,6,the-eshow.com,ES,Europe,Southern Europe,Spain,,,
188.241.60.178,4,-8371005,thefalltheplay.com,ES,Europe,Southern Europe,Spain,Catalonia,Barcelona,Barcelona
217.61.209.177,4,2,thefamilywatch.org,ES,Europe,Southern Europe,Spain,,,
85.208.102.200,4,43,themetalcircus.com,ES,Europe,Southern Europe,Spain,,,
178.33.163.4,4,33,themystica.com,ES,Europe,Southern Europe,Spain,Madrid,Madrid,Madrid
31.214.178.55,4,9,thepower.education,ES,Europe,Southern Europe,Spain,Balearic Islands,Balearic Islands,Ibiza Town
213.32.58.41,4,10,thepowermba.com,ES,Europe,Southern Europe,Spain,Galicia,Lugo,Lugo
94.23.87.86,4,20,thesmartcityjournal.com,ES,Europe,Southern Europe,Spain,,,
51.255.30.108,4,20,thinkwasabi.com,ES,Europe,Southern Europe,Spain,,,
51.75.233.97,4,11,tides4fishing.com,ES,Europe,Southern Europe,Spain,Galicia,Lugo,Lugo
178.211.133.38,4,4,tiempodenegocios.com,ES,Europe,Southern Europe,Spain,Madrid,Madrid,Madrid
188.95.248.71,4,416,tierrahotelera.es,ES,Europe,Southern Europe,Spain,,,
91.209.108.200,4,-129626,tiposinfames.com,ES,Europe,Southern Europe,Spain,,,
37.59.249.159,4,4,titandesert.com,ES,Europe,Southern Europe,Spain,,,
217.148.137.81,4,173,tivoli.es,ES,Europe,Southern Europe,Spain,,,
185.92.245.252,4,3,tlaxcala.es,ES,Europe,Southern Europe,Spain,Andalusia,Almeria,Almería
178.211.133.21,4,35,todoababor.es,ES,Europe,Southern Europe,Spain,Madrid,Madrid,Madrid
46.16.62.219,4,4,todofichajes.com,ES,Europe,Southern Europe,Spain,,,
178.211.133.49,4,15,todoindie.com,ES,Europe,Southern Europe,Spain,Madrid,Madrid,Madrid
94.23.87.96,4,29,todopapas.com,ES,Europe,Southern Europe,Spain,,,
31.214.178.3,4,30,todoscontraelcanon.es,ES,Europe,Southern Europe,Spain,Balearic Islands,Balearic Islands,Ibiza Town
217.18.162.120,4,11,todostuslibros.com,ES,Europe,Southern Europe,Spain,,,
27.0.175.51,4,2,todotransporte.com,ES,Europe,Southern Europe,Spain,Catalonia,Barcelona,Barcelona
45.84.210.132,4,4,tokioschool.com,ES,Europe,Southern Europe,Spain,,,
178.33.57.246,4,7,tomavistasfestival.com,ES,Europe,Southern Europe,Spain,,,
82.223.32.210,4,-7127,tommymels.com,ES,Europe,Southern Europe,Spain,,,
146.59.171.107,4,77,topciment.com,ES,Europe,Southern Europe,Spain,Galicia,Lugo,Lugo
51.254.16.237,4,14,toplinkjes.nl,ES,Europe,Southern Europe,Spain,,,
195.53.250.153,4,8,torrecid.com,ES,Europe,Southern Europe,Spain,,,
89.6.107.233,4,13,torrecid.com,ES,Europe,Southern Europe,Spain,Andalusia,Cordoba,Cabra
85.208.102.50,4,8,tr3sdland.com,ES,Europe,Southern Europe,Spain,,,
178.33.114.185,4,740,trabajosdisponibles.info,ES,Europe,Southern Europe,Spain,,,
94.127.187.167,4,2,transcerealescruz.com,ES,Europe,Southern Europe,Spain,,,
148.56.25.28,4,-7199996,transformers.com.es,ES,Europe,Southern Europe,Spain,Catalonia,Barcelona,Barcelona
178.211.133.62,4,29,transparencia.org.es,ES,Europe,Southern Europe,Spain,Madrid,Madrid,Madrid
86.109.178.104,4,6,transporteslaplata.com,ES,Europe,Southern Europe,Spain,,,
149.202.106.53,4,3,trap.it,ES,Europe,Southern Europe,Spain,Galicia,Lugo,Lugo
87.98.226.180,4,6,trea.es,ES,Europe,Southern Europe,Spain,,,
134.0.9.215,4,13,tremedica.org,ES,Europe,Southern Europe,Spain,,,
217.116.2.111,4,13,trendesoller.com,ES,Europe,Southern Europe,Spain,,,
217.125.151.21,4,2256,tresgriferia.com,ES,Europe,Southern Europe,Spain,Catalonia,Barcelona,Barcelona
5.135.93.116,4,3164,trianarts.com,ES,Europe,Southern Europe,Spain,Andalusia,Granada,Granada
51.254.152.94,4,4,triatlon.org,ES,Europe,Southern Europe,Spain,,,
51.254.154.206,4,24,tribunafeminista.org,ES,Europe,Southern Europe,Spain,,,
178.33.118.198,4,21,tribunasalamanca.com,ES,Europe,Southern Europe,Spain,,,
46.183.116.78,4,46,triptico.com,ES,Europe,Southern Europe,Spain,Catalonia,Barcelona,Barcelona
188.165.131.251,4,13,tristanelosegui.com,ES,Europe,Southern Europe,Spain,,,
95.60.241.227,4,70,troa.es,ES,Europe,Southern Europe,Spain,Murcia,Murcia,Lorca
91.209.108.34,4,141063,trotta.es,ES,Europe,Southern Europe,Spain,,,
193.84.177.175,4,5,trucoslondres.com,ES,Europe,Southern Europe,Spain,,,
87.98.230.129,4,220,trucoswindows.net,ES,Europe,Southern Europe,Spain,,,
82.223.30.89,4,10,tuctuc.com,ES,Europe,Southern Europe,Spain,,,
185.140.32.25,4,9,tui.gal,ES,Europe,Southern Europe,Spain,,,
212.222.42.100,4,4,turincon.com,ES,Europe,Southern Europe,Spain,Madrid,Madrid,Madrid
178.33.166.103,4,8,turismodemurcia.es,ES,Europe,Southern Europe,Spain,Madrid,Madrid,Madrid
213.0.33.71,4,43,turismojerez.com,ES,Europe,Southern Europe,Spain,Madrid,Madrid,Madrid
217.61.208.134,4,3,turismolanzarote.com,ES,Europe,Southern Europe,Spain,,,
89.17.218.170,4,30,turismomerida.org,ES,Europe,Southern Europe,Spain,Navarre,Navarre,Tafalla
217.71.201.37,4,-4981,turisvalencia.es,ES,Europe,Southern Europe,Spain,Catalonia,Barcelona,Barcelona
82.223.242.46,4,45,turlt.com,ES,Europe,Southern Europe,Spain,,,
155.133.195.93,4,40,turronesydulces.com,ES,Europe,Southern Europe,Spain,Valencia,Valencia,Valencia
185.23.69.155,4,3,txalaparta.eus,ES,Europe,Southern Europe,Spain,,,
91.142.210.241,4,1,txorierrivalley.com,ES,Europe,Southern Europe,Spain,,,
178.33.115.165,4,9,uam.edu.ni,ES,Europe,Southern Europe,Spain,,,
178.255.231.115,4,7,ubunlog.com,ES,Europe,Southern Europe,Spain,Valencia,Valencia,Paterna
178.255.231.116,4,3,ubunlog.com,ES,Europe,Southern Europe,Spain,Valencia,Valencia,Paterna
150.214.80.210,4,5,uca.es,ES,Europe,Southern Europe,Spain,Andalusia,Seville,Tomares
51.254.16.36,4,3,ucbclub.org,ES,Europe,Southern Europe,Spain,,,
150.214.110.212,4,16,uco.es,ES,Europe,Southern Europe,Spain,Andalusia,Jaen,Jaén
91.146.98.10,4,5,udguia.es,ES,Europe,Southern Europe,Spain,Valencia,Alicante,Orihuela
213.27.150.201,4,3,udima.es,ES,Europe,Southern Europe,Spain,Madrid,Madrid,Madrid
195.235.183.14,4,1,udllibros.com,ES,Europe,Southern Europe,Spain,,,
89.17.195.226,4,712,ugt.es,ES,Europe,Southern Europe,Spain,,,
195.16.147.111,4,14,ulma.com,ES,Europe,Southern Europe,Spain,Madrid,Madrid,Madrid
194.224.110.188,4,-28274,ultimahora.es,ES,Europe,Southern Europe,Spain,Catalonia,Tarragona,Castellvell del Camp
185.18.198.93,4,9,unaf.org,ES,Europe,Southern Europe,Spain,,,
188.165.128.107,4,-171183,uncomo.com,ES,Europe,Southern Europe,Spain,,,
93.90.30.243,4,-52,uneatlantico.es,ES,Europe,Southern Europe,Spain,,,
37.59.203.111,4,5,unef.es,ES,Europe,Southern Europe,Spain,,,
188.165.129.145,4,86,unevoczentroa.eus,ES,Europe,Southern Europe,Spain,,,
51.255.97.83,4,6,unideusto.org,ES,Europe,Southern Europe,Spain,,,
194.15.236.231,4,9841,uninoovo.com,ES,Europe,Southern Europe,Spain,Andalusia,Granada,Motril
147.135.161.74,4,802,unionespanola.cl,ES,Europe,Southern Europe,Spain,Galicia,Lugo,Lugo
45.150.186.207,4,21,unionromani.org,ES,Europe,Southern Europe,Spain,Catalonia,Barcelona,Barcelona
156.35.33.98,4,2,unioviedo.es,ES,Europe,Southern Europe,Spain,Principality of Asturias,Asturias,Mieres
178.33.113.138,4,12,unique-casino.es,ES,Europe,Southern Europe,Spain,,,
46.231.3.19,4,126443,universalmusic.es,ES,Europe,Southern Europe,Spain,,,
94.23.80.208,4,69,universidad.edu.co,ES,Europe,Southern Europe,Spain,,,
193.84.177.252,4,6,universodeanimes.es,ES,Europe,Southern Europe,Spain,,,
193.146.156.243,4,3,upsa.es,ES,Europe,Southern Europe,Spain,Madrid,Madrid,Madrid
46.16.59.133,4,5,urcm.net,ES,Europe,Southern Europe,Spain,,,
193.146.32.200,4,5,uvigo.es,ES,Europe,Southern Europe,Spain,Galicia,Pontevedra,Vigo
178.211.133.17,4,4,vacunas.org,ES,Europe,Southern Europe,Spain,Madrid,Madrid,Madrid
5.135.40.72,4,1253,valderrama.com,ES,Europe,Southern Europe,Spain,Andalusia,Granada,Granada
193.70.101.153,4,35,valenciabonita.es,ES,Europe,Southern Europe,Spain,,,
185.118.190.159,4,-36119,valencianoticias.com,ES,Europe,Southern Europe,Spain,Andalusia,Granada,Granada
5.56.60.221,4,3,valentinhotels.com,ES,Europe,Southern Europe,Spain,,,
178.211.133.54,4,7,vatiometro.com,ES,Europe,Southern Europe,Spain,Madrid,Madrid,Madrid
195.149.119.92,4,3,vbent.org,ES,Europe,Southern Europe,Spain,,,
82.223.107.169,4,16,vedicfoundationhungary.com,ES,Europe,Southern Europe,Spain,,,
86.109.166.208,4,50,vedoque.com,ES,Europe,Southern Europe,Spain,,,
164.138.208.148,4,8,velocidadcuchara.com,ES,Europe,Southern Europe,Spain,,,
31.24.44.6,4,12,veritasint.com,ES,Europe,Southern Europe,Spain,,,
176.31.46.161,4,8,vero4travel.com,ES,Europe,Southern Europe,Spain,,,
37.59.249.205,4,24,verzamelgids.nl,ES,Europe,Southern Europe,Spain,,,
91.149.243.116,4,31,vestalfamily.com,ES,Europe,Southern Europe,Spain,Madrid,Madrid,Madrid
161.22.46.43,4,1,vetustamorla.com,ES,Europe,Southern Europe,Spain,Catalonia,Barcelona,Barcelona
185.34.192.205,4,26,vhio.net,ES,Europe,Southern Europe,Spain,,,
85.208.102.105,4,9,viajablog.com,ES,Europe,Southern Europe,Spain,,,
85.208.102.130,4,17,viajaporlibre.com,ES,Europe,Southern Europe,Spain,,,
94.23.85.82,4,8,viajeros30.com,ES,Europe,Southern Europe,Spain,,,
164.132.29.101,4,66,viajeroscallejeros.com,ES,Europe,Southern Europe,Spain,,,
92.60.32.12,4,21,viamedsalud.com,ES,Europe,Southern Europe,Spain,,,
185.45.72.197,4,38,vicentegandia.es,ES,Europe,Southern Europe,Spain,,,
46.105.173.2,4,14,victormartinp.com,ES,Europe,Southern Europe,Spain,Catalonia,Barcelona,Barcelona
178.255.231.119,4,5,vidabytes.com,ES,Europe,Southern Europe,Spain,Valencia,Valencia,Paterna
178.255.231.118,4,5,vidabytes.com,ES,Europe,Southern Europe,Spain,Valencia,Valencia,Paterna
89.17.193.183,4,1002,villanueva.edu,ES,Europe,Southern Europe,Spain,,,
185.104.152.230,4,859,virtualwareco.com,ES,Europe,Southern Europe,Spain,,,
164.138.210.152,4,3,visitasevilla.es,ES,Europe,Southern Europe,Spain,,,
46.231.1.124,4,748,visitcadaques.org,ES,Europe,Southern Europe,Spain,,,
145.239.189.112,4,3,visitlgbtq.com,ES,Europe,Southern Europe,Spain,,,
46.18.43.16,4,18,visitmenorca.com,ES,Europe,Southern Europe,Spain,Balearic Islands,Balearic Islands,Mahon
185.209.60.88,4,-5733,visitpalafrugell.cat,ES,Europe,Southern Europe,Spain,,,
164.138.210.95,4,73,visitvaldaran.com,ES,Europe,Southern Europe,Spain,,,
45.95.197.161,4,3,vitaldent.com,ES,Europe,Southern Europe,Spain,,,
164.138.209.229,4,60,vivancoculturadevino.es,ES,Europe,Southern Europe,Spain,,,
185.195.98.40,4,6,vivecamino.com,ES,Europe,Southern Europe,Spain,Madrid,Madrid,Madrid
77.240.112.10,4,45,viviendasaludable.es,ES,Europe,Southern Europe,Spain,,,
5.134.119.90,4,28,vivirsinplastico.com,ES,Europe,Southern Europe,Spain,Madrid,Madrid,Madrid
185.177.153.226,4,9678,vivood.com,ES,Europe,Southern Europe,Spain,,,
82.194.91.215,4,18,vnavarro.org,ES,Europe,Southern Europe,Spain,,,
89.248.107.79,4,5,voicesofleaders.com,ES,Europe,Southern Europe,Spain,,,
54.37.116.112,4,80,voluntaris.cat,ES,Europe,Southern Europe,Spain,Andalusia,Granada,Granada
82.223.118.209,4,4,vondom.com,ES,Europe,Southern Europe,Spain,,,
46.16.62.112,4,4,vozbcn.com,ES,Europe,Southern Europe,Spain,,,
185.156.219.140,4,3,vpnparadise.com,ES,Europe,Southern Europe,Spain,,,
87.98.230.241,4,2,wallinside.com,ES,Europe,Southern Europe,Spain,,,
195.12.50.18,4,12,warninglabelgenerator.com,ES,Europe,Southern Europe,Spain,Madrid,Madrid,Madrid
185.47.245.224,4,3,waterandnature.org,ES,Europe,Southern Europe,Spain,,,
188.93.75.52,4,26,waterworld.es,ES,Europe,Southern Europe,Spain,,,
134.0.9.174,4,7,wavesfactory.com,ES,Europe,Southern Europe,Spain,,,
94.23.85.232,4,2,wearefreshlovers.com,ES,Europe,Southern Europe,Spain,,,
5.175.47.188,4,4,weathercloud.net,ES,Europe,Southern Europe,Spain,,,
178.33.112.81,4,8,weatherin.org,ES,Europe,Southern Europe,Spain,,,
94.23.87.253,4,20,web-directory.be,ES,Europe,Southern Europe,Spain,,,
185.125.78.54,4,5,webapuestas.com,ES,Europe,Southern Europe,Spain,,,
31.24.44.94,4,14,webcatolicodejavier.org,ES,Europe,Southern Europe,Spain,,,
188.95.113.211,4,11,webpsilon.com,ES,Europe,Southern Europe,Spain,,,
51.254.80.248,4,8,wellbeing-project.org,ES,Europe,Southern Europe,Spain,,,
45.150.186.215,4,89,wikimedia.cat,ES,Europe,Southern Europe,Spain,Catalonia,Barcelona,Barcelona
145.239.53.248,4,5,wilfried.top,ES,Europe,Southern Europe,Spain,,,
217.182.10.18,4,5,wkf.net,ES,Europe,Southern Europe,Spain,Madrid,Madrid,Madrid
87.98.229.251,4,5,wordpresstemporal.com,ES,Europe,Southern Europe,Spain,,,
65.20.98.20,4,11,worldwaronecolorphotos.com,ES,Europe,Southern Europe,Spain,Madrid,Madrid,Madrid
185.140.33.40,4,-6385,woutick.es,ES,Europe,Southern Europe,Spain,,,
137.74.67.23,4,70,xn----7sbnbdfyi0adbadgcre6gsb7f.xn--p1ai,ES,Europe,Southern Europe,Spain,,,
185.2.150.214,4,6,xsolidaria.org,ES,Europe,Southern Europe,Spain,Madrid,Madrid,Madrid
83.247.151.214,4,1,xtec.cat,ES,Europe,Southern Europe,Spain,Catalonia,Barcelona,Barcelona
185.14.57.223,4,2,xtreemmusic.com,ES,Europe,Southern Europe,Spain,,,
164.138.210.254,4,1,xutgol.com,ES,Europe,Southern Europe,Spain,,,
82.223.24.244,4,13,yacf.co.uk,ES,Europe,Southern Europe,Spain,,,
81.25.125.211,4,14,yeeply.com,ES,Europe,Southern Europe,Spain,,,
178.33.162.250,4,4,yllana.com,ES,Europe,Southern Europe,Spain,Madrid,Madrid,Madrid
94.23.85.85,4,11,yoriento.com,ES,Europe,Southern Europe,Spain,,,
178.33.5.216,4,3,yoseomarketing.com,ES,Europe,Southern Europe,Spain,Madrid,Madrid,Madrid
178.33.167.168,4,8,youbarcelona.com,ES,Europe,Southern Europe,Spain,Madrid,Madrid,Madrid
185.22.92.19,4,-19504,yumas.com,ES,Europe,Southern Europe,Spain,Madrid,Madrid,Madrid
94.23.85.110,4,19,zacatecasonline.com.mx,ES,Europe,Southern Europe,Spain,,,
146.255.98.160,4,38,zafirohotels.com,ES,Europe,Southern Europe,Spain,,,
185.50.45.154,4,55,zelmer.pl,ES,Europe,Southern Europe,Spain,,,
31.24.154.237,4,-12411,zendalibros.com,ES,Europe,Southern Europe,Spain,,,
82.194.90.41,4,2,zennio.com,ES,Europe,Southern Europe,Spain,,,
51.178.254.4,4,27,zeroforum.com,ES,Europe,Southern Europe,Spain,,,
185.80.7.13,4,11,ziaie.biz,ES,Europe,Southern Europe,Spain,,,
89.46.88.184,4,-162,zkteco.eu,ES,Europe,Southern Europe,Spain,,,
164.138.209.136,4,2,zonaretiro.com,ES,Europe,Southern Europe,Spain,,,
178.33.5.215,4,6,zooportraits.com,ES,Europe,Southern Europe,Spain,Madrid,Madrid,Madrid
82.194.91.64,4,-109992,zorraquino.com,ES,Europe,Southern Europe,Spain,,,
178.33.162.182,4,0,zurichmaratobarcelona.es,ES,Europe,Southern Europe,Spain,Madrid,Madrid,Madrid
