reflector_ip,ip_version,offset,description,country_code,region,sub_region,country_name,sub_division_1,sub_division_2,city
213.225.201.14,4,5,01ilpolicentro.it,IT,Europe,Southern Europe,Italy,,,
185.2.4.130,4,6,2020incentivos.pt,IT,Europe,Southern Europe,Italy,,,
149.3.144.224,4,5,21luglio.org,IT,Europe,Southern Europe,Italy,,,
185.31.65.91,4,3,24orenews.it,IT,Europe,Southern Europe,Italy,,,
86.107.36.27,4,7,2duerighe.com,IT,Europe,Southern Europe,Italy,,,
46.252.158.176,4,1,3x3.it,IT,Europe,Southern Europe,Italy,,,
213.171.185.158,4,5,500clubitalia.it,IT,Europe,Southern Europe,Italy,Lazio,Province of Frosinone,Frosinone
89.40.173.233,4,531,77games.io,IT,Europe,Southern Europe,Italy,Abruzzo,Province of Pescara,Pescara
185.81.4.127,4,7,a21italy.it,IT,Europe,Southern Europe,Italy,Lazio,Rome,Rome
213.158.94.129,4,4,aache.com,IT,Europe,Southern Europe,Italy,,,
80.88.87.206,4,777,abbigliamentotrestelle.it,IT,Europe,Southern Europe,Italy,Tuscany,Province of Arezzo,Arezzo
86.107.36.116,4,13052,abitarearoma.it,IT,Europe,Southern Europe,Italy,,,
5.134.122.207,4,3,ablaweb.com,IT,Europe,Southern Europe,Italy,,,
45.154.75.56,4,60,abn.ru,IT,Europe,Southern Europe,Italy,,,
34.154.211.151,4,21,abouna.org,IT,Europe,Southern Europe,Italy,Lombardy,Milan,Milan
185.31.66.122,4,367,abruzzoweb.it,IT,Europe,Southern Europe,Italy,,,
185.2.4.100,4,39,ac-jete.it,IT,Europe,Southern Europe,Italy,,,
213.158.93.49,4,8,acmeitalia.org,IT,Europe,Southern Europe,Italy,,,
158.58.168.51,4,32,acmepet.com,IT,Europe,Southern Europe,Italy,Lombardy,Milan,Milan
94.177.177.233,4,-21591498,acri.it,IT,Europe,Southern Europe,Italy,Tuscany,Province of Arezzo,Arezzo
178.255.74.54,4,876,across.it,IT,Europe,Southern Europe,Italy,,,
46.252.150.94,4,27,ad-theme.com,IT,Europe,Southern Europe,Italy,,,
46.254.34.176,4,24,adbpo.it,IT,Europe,Southern Europe,Italy,Lazio,Rome,Rome
94.177.48.8,4,604,addiopizzo.org,IT,Europe,Southern Europe,Italy,,,
194.76.116.212,4,1101,admo.it,IT,Europe,Southern Europe,Italy,,,
217.194.10.101,4,37,aemmedi.it,IT,Europe,Southern Europe,Italy,Lazio,Province of Frosinone,Frosinone
149.62.189.224,4,39,aeroportidipuglia.it,IT,Europe,Southern Europe,Italy,,,
185.23.29.136,4,6,aeroportoditorino.it,IT,Europe,Southern Europe,Italy,,,
213.158.94.229,4,38,afdigitale.it,IT,Europe,Southern Europe,Italy,,,
185.221.172.76,4,7,agapedesign.it,IT,Europe,Southern Europe,Italy,,,
46.28.4.120,4,6,agenparl.eu,IT,Europe,Southern Europe,Italy,Lazio,Rome,Rome
46.37.26.28,4,7,agipronews.it,IT,Europe,Southern Europe,Italy,Tuscany,Province of Arezzo,Arezzo
93.186.249.115,4,6,agricolapiano.com,IT,Europe,Southern Europe,Italy,Tuscany,Province of Arezzo,Arezzo
93.57.10.42,4,8,agriturismoripabottina.it,IT,Europe,Southern Europe,Italy,Lombardy,Milan,Milan
194.79.57.58,4,4,aiafood.com,IT,Europe,Southern Europe,Italy,Lombardy,Milan,Legnano
77.39.208.70,4,9,aicel.org,IT,Europe,Southern Europe,Italy,,,
213.158.94.136,4,16,aiju.es,IT,Europe,Southern Europe,Italy,,,
86.107.36.84,4,4360,aiom.it,IT,Europe,Southern Europe,Italy,,,
46.252.150.201,4,19,aipd.it,IT,Europe,Southern Europe,Italy,,,
213.187.10.117,4,29,aiti.org,IT,Europe,Southern Europe,Italy,Veneto,Province of Vicenza,Albettone
80.88.87.204,4,49,albanesecerchi.it,IT,Europe,Southern Europe,Italy,Tuscany,Province of Arezzo,Arezzo
217.118.8.130,4,9,alcantara.com,IT,Europe,Southern Europe,Italy,,,
85.159.150.38,4,11,alde.eu,IT,Europe,Southern Europe,Italy,,,
86.107.36.26,4,6,alfredoallascrofa.com,IT,Europe,Southern Europe,Italy,,,
93.186.249.202,4,186,alguer.it,IT,Europe,Southern Europe,Italy,Tuscany,Province of Arezzo,Arezzo
80.88.87.200,4,359,alke.com,IT,Europe,Southern Europe,Italy,Tuscany,Province of Arezzo,Arezzo
95.110.186.221,4,6,altagamma.it,IT,Europe,Southern Europe,Italy,Lazio,Rome,Rome
149.62.185.217,4,23,altromercato.it,IT,Europe,Southern Europe,Italy,,,
176.107.150.180,4,42,alvolante.it,IT,Europe,Southern Europe,Italy,Lombardy,Province of Bergamo,Ponte San Pietro
5.249.135.26,4,20,alvolante.it,IT,Europe,Southern Europe,Italy,Tuscany,Province of Arezzo,Arezzo
195.231.84.136,4,6,amathsdictionaryforkids.com,IT,Europe,Southern Europe,Italy,Lombardy,Province of Bergamo,Ponte San Pietro
185.148.116.235,4,98,ambientediritto.it,IT,Europe,Southern Europe,Italy,,,
80.88.87.160,4,177,ambrogiorobot.com,IT,Europe,Southern Europe,Italy,Tuscany,Province of Arezzo,Arezzo
81.29.215.110,4,9,amcham.it,IT,Europe,Southern Europe,Italy,,,
89.40.174.116,4,9,amicidellaterra.it,IT,Europe,Southern Europe,Italy,Abruzzo,Province of Pescara,Pescara
185.170.139.172,4,7,amicodelpopolo.it,IT,Europe,Southern Europe,Italy,Veneto,Province of Belluno,Longarone
94.177.184.22,4,5,amnotizie.it,IT,Europe,Southern Europe,Italy,Tuscany,Province of Arezzo,Arezzo
77.39.212.66,4,9,amref.it,IT,Europe,Southern Europe,Italy,,,
77.39.211.174,4,8,anci.it,IT,Europe,Southern Europe,Italy,,,
89.40.172.201,4,189,andindi.it,IT,Europe,Southern Europe,Italy,Abruzzo,Province of Pescara,Pescara
185.201.65.215,4,43,andrologia-online.it,IT,Europe,Southern Europe,Italy,,,
80.88.87.232,4,176,anev.org,IT,Europe,Southern Europe,Italy,Tuscany,Province of Arezzo,Arezzo
37.156.244.103,4,36,anfia.it,IT,Europe,Southern Europe,Italy,Sicily,Province of Palermo,Palermo
151.2.101.57,4,2935,anica.it,IT,Europe,Southern Europe,Italy,,,
185.2.4.118,4,28,anipi-italia.org,IT,Europe,Southern Europe,Italy,,,
84.33.1.29,4,20,antherica.com,IT,Europe,Southern Europe,Italy,,,
185.221.175.25,4,993,anticofornoroscioli.it,IT,Europe,Southern Europe,Italy,,,
149.62.189.157,4,26,antimafiaduemila.com,IT,Europe,Southern Europe,Italy,,,
213.171.184.206,4,48,antoniolupi.it,IT,Europe,Southern Europe,Italy,Lazio,Province of Frosinone,Frosinone
192.188.248.218,4,4,aogoi.it,IT,Europe,Southern Europe,Italy,,,
194.76.118.226,4,1097,apc.it,IT,Europe,Southern Europe,Italy,,,
185.96.206.212,4,17,apg23.org,IT,Europe,Southern Europe,Italy,,,
217.70.146.134,4,11,appenninobianco.it,IT,Europe,Southern Europe,Italy,,,
147.78.184.93,4,12,appiani.it,IT,Europe,Southern Europe,Italy,,,
185.142.154.214,4,-82,apricaonline.com,IT,Europe,Southern Europe,Italy,,,
86.107.36.107,4,4512,archeoares.it,IT,Europe,Southern Europe,Italy,,,
80.88.87.239,4,686,archiviodistatovenezia.it,IT,Europe,Southern Europe,Italy,Tuscany,Province of Arezzo,Arezzo
195.14.102.127,4,22,areasciencepark.it,IT,Europe,Southern Europe,Italy,Friuli Venezia Giulia,Trieste,Trieste
213.212.133.250,4,30,ari-rivarolo.org,IT,Europe,Southern Europe,Italy,,,
151.8.40.20,4,72,ariete.net,IT,Europe,Southern Europe,Italy,Sicily,Province of Trapani,Trapani
89.40.173.157,4,58,armandoalpantheon.it,IT,Europe,Southern Europe,Italy,Abruzzo,Province of Pescara,Pescara
185.205.41.116,4,20,artapartofculture.net,IT,Europe,Southern Europe,Italy,,,
185.221.173.93,4,782,artbonus.gov.it,IT,Europe,Southern Europe,Italy,,,
85.159.145.37,4,58,artceram.it,IT,Europe,Southern Europe,Italy,,,
46.252.151.94,4,3,artelagunaprize.com,IT,Europe,Southern Europe,Italy,,,
95.110.232.137,4,13,asalink.net,IT,Europe,Southern Europe,Italy,Lombardy,Province of Bergamo,Ponte San Pietro
86.107.32.14,4,35,asgi.it,IT,Europe,Southern Europe,Italy,,,
213.158.94.227,4,32,asifed.it,IT,Europe,Southern Europe,Italy,,,
77.39.208.216,4,8,asinazionale.it,IT,Europe,Southern Europe,Italy,,,
176.107.149.68,4,342,askanews.it,IT,Europe,Southern Europe,Italy,Lombardy,Province of Bergamo,Ponte San Pietro
156.54.202.233,4,7,asmel.eu,IT,Europe,Southern Europe,Italy,,,
156.54.202.232,4,66,asmenet.it,IT,Europe,Southern Europe,Italy,,,
185.2.4.134,4,3,aspide.it,IT,Europe,Southern Europe,Italy,,,
185.81.6.197,4,82,assaeroporti.com,IT,Europe,Southern Europe,Italy,Lazio,Rome,Rome
46.252.158.143,4,69,assocalciatori.it,IT,Europe,Southern Europe,Italy,,,
46.254.36.110,4,5,associazionelucacoscioni.it,IT,Europe,Southern Europe,Italy,Lazio,Rome,Rome
93.95.216.221,4,79,assoenologi.it,IT,Europe,Southern Europe,Italy,Lazio,Rome,Rome
185.221.175.31,4,41,assosoftware.it,IT,Europe,Southern Europe,Italy,,,
93.186.242.194,4,-38944,assosrlservizi.it,IT,Europe,Southern Europe,Italy,Tuscany,Province of Arezzo,Arezzo
62.212.5.250,4,21,asst-lariana.it,IT,Europe,Southern Europe,Italy,Lombardy,Milan,Milan
83.136.107.36,4,24,astronomia.com,IT,Europe,Southern Europe,Italy,Lombardy,Milan,Milan
149.3.145.80,4,16,atipica.org,IT,Europe,Southern Europe,Italy,,,
213.158.94.147,4,18,atlasofthefuture.org,IT,Europe,Southern Europe,Italy,,,
89.46.226.125,4,7,audioglobe.it,IT,Europe,Southern Europe,Italy,,,
212.45.144.247,4,81,auditel.it,IT,Europe,Southern Europe,Italy,Piedmont,Turin,Turin
94.177.223.60,4,12,autobelle.it,IT,Europe,Southern Europe,Italy,Tuscany,Province of Arezzo,Arezzo
46.252.157.154,4,4,autodromogiannideluca.it,IT,Europe,Southern Europe,Italy,,,
213.174.182.1,4,6,autodromoimola.com,IT,Europe,Southern Europe,Italy,Emilia-Romagna,Province of Ravenna,Cotignola
185.2.4.38,4,36,autonovamilano.it,IT,Europe,Southern Europe,Italy,,,
195.231.7.13,4,101,averoprint.com,IT,Europe,Southern Europe,Italy,,,
94.177.174.58,4,1205,avmagazine.it,IT,Europe,Southern Europe,Italy,Tuscany,Province of Arezzo,Arezzo
46.252.151.157,4,12,avsportingteam.com,IT,Europe,Southern Europe,Italy,,,
46.252.144.52,4,2495,avvisopubblico.it,IT,Europe,Southern Europe,Italy,,,
80.88.84.235,4,29,avvocatodistrada.it,IT,Europe,Southern Europe,Italy,Tuscany,Province of Arezzo,Arezzo
193.238.136.120,4,1709,axera.it,IT,Europe,Southern Europe,Italy,Veneto,Province of Vicenza,Vicenza
86.107.36.122,4,-9241,b-line.it,IT,Europe,Southern Europe,Italy,,,
46.30.244.134,4,8,bagnidibormio.it,IT,Europe,Southern Europe,Italy,,,
46.252.153.165,4,13,barpompi.it,IT,Europe,Southern Europe,Italy,,,
195.231.8.205,4,287297,basilicasanclemente.com,IT,Europe,Southern Europe,Italy,,,
62.149.172.216,4,296,basilicasannicola.it,IT,Europe,Southern Europe,Italy,Lombardy,Province of Bergamo,Ponte San Pietro
89.40.174.152,4,6,battiato.it,IT,Europe,Southern Europe,Italy,Abruzzo,Province of Pescara,Pescara
80.211.68.172,4,8,bcin.ca,IT,Europe,Southern Europe,Italy,Tuscany,Province of Arezzo,Arezzo
185.2.4.75,4,7,bdsm.cat,IT,Europe,Southern Europe,Italy,,,
149.62.185.142,4,12,bellunopress.it,IT,Europe,Southern Europe,Italy,,,
89.40.173.177,4,11,bennybenassi.com,IT,Europe,Southern Europe,Italy,Abruzzo,Province of Pescara,Pescara
213.158.94.249,4,11,benseny.cat,IT,Europe,Southern Europe,Italy,,,
93.95.216.49,4,20,berberepizza.it,IT,Europe,Southern Europe,Italy,Lazio,Rome,Rome
5.8.101.21,4,641,beta-tools.com,IT,Europe,Southern Europe,Italy,Lombardy,Milan,Milan
185.81.2.183,4,9,bgeek.it,IT,Europe,Southern Europe,Italy,Lazio,Rome,Rome
86.107.36.62,4,602,biancolavoro.it,IT,Europe,Southern Europe,Italy,,,
185.2.4.123,4,40,bicerin.it,IT,Europe,Southern Europe,Italy,,,
80.88.84.222,4,39,biennaledemocrazia.it,IT,Europe,Southern Europe,Italy,Tuscany,Province of Arezzo,Arezzo
62.149.192.178,4,15,bigliettoveloce.it,IT,Europe,Southern Europe,Italy,Tuscany,Province of Arezzo,Arezzo
5.249.135.25,4,7,bimbisaniebelli.it,IT,Europe,Southern Europe,Italy,Tuscany,Province of Arezzo,Arezzo
176.107.150.179,4,4,bimbisaniebelli.it,IT,Europe,Southern Europe,Italy,Lombardy,Province of Bergamo,Ponte San Pietro
93.186.249.113,4,58,bimfilm.com,IT,Europe,Southern Europe,Italy,Tuscany,Province of Arezzo,Arezzo
185.17.107.33,4,3670,biondisanti.it,IT,Europe,Southern Europe,Italy,,,
95.110.154.135,4,-40,bioversityinternational.org,IT,Europe,Southern Europe,Italy,Tuscany,Province of Arezzo,Arezzo
93.186.249.105,4,40,bistrotdevenise.com,IT,Europe,Southern Europe,Italy,Tuscany,Province of Arezzo,Arezzo
89.40.173.198,4,613,bitesforfoodies.com,IT,Europe,Southern Europe,Italy,Abruzzo,Province of Pescara,Pescara
185.2.4.132,4,2,bjcem.org,IT,Europe,Southern Europe,Italy,,,
212.97.32.174,4,8,blastingnews.com,IT,Europe,Southern Europe,Italy,Emilia-Romagna,Bologna,Casalecchio di Reno
173.222.106.174,4,31,bliz.com,IT,Europe,Southern Europe,Italy,Lombardy,Milan,Milan
213.158.90.28,4,4,bluepalace.gr,IT,Europe,Southern Europe,Italy,,,
37.99.252.9,4,2,bmsu.ac.ir,IT,Europe,Southern Europe,Italy,Campania,Province of Salerno,Castellabate
62.149.171.87,4,1018,boffi.com,IT,Europe,Southern Europe,Italy,Lombardy,Province of Bergamo,Ponte San Pietro
193.42.165.169,4,6,bol.it,IT,Europe,Southern Europe,Italy,,,
212.237.47.33,4,229767,bolina.it,IT,Europe,Southern Europe,Italy,Tuscany,Province of Arezzo,Arezzo
185.100.16.20,4,28,bollettinoadapt.it,IT,Europe,Southern Europe,Italy,,,
37.156.244.62,4,38,bolognafiere.it,IT,Europe,Southern Europe,Italy,Sicily,Province of Palermo,Palermo
31.14.141.127,4,365,boltongroup.net,IT,Europe,Southern Europe,Italy,Tuscany,Province of Arezzo,Arezzo
86.107.36.25,4,14,bonci.it,IT,Europe,Southern Europe,Italy,,,
80.88.87.168,4,111,bonex.it,IT,Europe,Southern Europe,Italy,Tuscany,Province of Arezzo,Arezzo
93.186.242.128,4,69639,borghipiubelliditalia.it,IT,Europe,Southern Europe,Italy,Tuscany,Province of Arezzo,Arezzo
185.2.5.52,4,19,borgosantandrea.it,IT,Europe,Southern Europe,Italy,,,
149.62.187.250,4,30,borgosantopietro.com,IT,Europe,Southern Europe,Italy,,,
37.9.228.227,4,3,botteroski.com,IT,Europe,Southern Europe,Italy,Lombardy,Milan,Milan
80.88.87.218,4,802,bozzetto.com,IT,Europe,Southern Europe,Italy,Tuscany,Province of Arezzo,Arezzo
46.252.152.156,4,4,btobaby.it,IT,Europe,Southern Europe,Italy,,,
95.174.17.60,4,48,buonacausa.org,IT,Europe,Southern Europe,Italy,Lombardy,Milan,Milan
185.2.5.14,4,51,buongustoabruzzo.it,IT,Europe,Southern Europe,Italy,,,
46.252.147.232,4,19,burdu976.com,IT,Europe,Southern Europe,Italy,,,
85.235.159.251,4,357,cagliaricalcio.com,IT,Europe,Southern Europe,Italy,Tuscany,Province of Arezzo,Arezzo
94.177.211.15,4,44,cairoeditore.it,IT,Europe,Southern Europe,Italy,Tuscany,Province of Arezzo,Arezzo
194.76.118.100,4,974,calabriadirettanews.com,IT,Europe,Southern Europe,Italy,,,
46.254.34.54,4,9,calcioefinanza.it,IT,Europe,Southern Europe,Italy,Lazio,Rome,Rome
84.33.193.242,4,46,calciomercato.it,IT,Europe,Southern Europe,Italy,,,
5.249.153.98,4,54,calcionapoli24.it,IT,Europe,Southern Europe,Italy,Tuscany,Province of Arezzo,Arezzo
212.237.21.39,4,-44,caliaitalia.com,IT,Europe,Southern Europe,Italy,Tuscany,Province of Arezzo,Arezzo
85.235.130.71,4,34,calibersrl.it,IT,Europe,Southern Europe,Italy,Tuscany,Province of Arezzo,Arezzo
46.252.149.84,4,191,camaldoli.it,IT,Europe,Southern Europe,Italy,,,
93.186.249.62,4,47,camar.it,IT,Europe,Southern Europe,Italy,Tuscany,Province of Arezzo,Arezzo
85.94.200.45,4,6,camperlife.it,IT,Europe,Southern Europe,Italy,Lombardy,Milan,Milan
109.233.124.209,4,3,camperonline.it,IT,Europe,Southern Europe,Italy,Piedmont,Turin,Turin
93.186.242.203,4,5,canaleitalia.it,IT,Europe,Southern Europe,Italy,Tuscany,Province of Arezzo,Arezzo
46.252.150.104,4,6,cantalamessa.org,IT,Europe,Southern Europe,Italy,,,
94.177.171.238,4,29,cantierino.it,IT,Europe,Southern Europe,Italy,Tuscany,Province of Arezzo,Arezzo
93.186.242.142,4,17,cantinachitarra.it,IT,Europe,Southern Europe,Italy,Tuscany,Province of Arezzo,Arezzo
89.40.173.130,4,18,cantinamoricollizugna.it,IT,Europe,Southern Europe,Italy,Abruzzo,Province of Pescara,Pescara
185.221.175.16,4,-182,cantinanegrar.it,IT,Europe,Southern Europe,Italy,,,
185.81.0.24,4,29,caorle.eu,IT,Europe,Southern Europe,Italy,Lazio,Rome,Rome
185.2.5.67,4,6,capritiberiopalace.it,IT,Europe,Southern Europe,Italy,,,
86.107.36.93,4,3326,carbon-ti.com,IT,Europe,Southern Europe,Italy,,,
86.107.32.62,4,7,caritasroma.it,IT,Europe,Southern Europe,Italy,,,
185.17.107.89,4,804,carmelitaniscalzi.com,IT,Europe,Southern Europe,Italy,,,
185.2.6.11,4,6,carmelites.ie,IT,Europe,Southern Europe,Italy,,,
185.81.2.87,4,36,carnisostenibili.it,IT,Europe,Southern Europe,Italy,Lazio,Rome,Rome
85.94.210.106,4,25,carocci.it,IT,Europe,Southern Europe,Italy,Lazio,Province of Frosinone,Frosinone
80.88.87.229,4,276,carpentecnica.com,IT,Europe,Southern Europe,Italy,Tuscany,Province of Arezzo,Arezzo
195.62.190.247,4,1,carpidiem.it,IT,Europe,Southern Europe,Italy,Emilia-Romagna,Province of Parma,Parma
87.248.33.248,4,10,carpinet.it,IT,Europe,Southern Europe,Italy,,,
185.2.4.54,4,39,casabresciani.it,IT,Europe,Southern Europe,Italy,,,
185.142.154.190,4,131,casadelcinema.it,IT,Europe,Southern Europe,Italy,,,
185.25.207.54,4,32,case1euro.it,IT,Europe,Southern Europe,Italy,,,
185.81.6.13,4,15,casea1euro.it,IT,Europe,Southern Europe,Italy,Lazio,Rome,Rome
80.241.141.53,4,39,casinoonlineaams.com,IT,Europe,Southern Europe,Italy,,,
185.201.65.222,4,3,castellodirivoli.org,IT,Europe,Southern Europe,Italy,,,
185.25.206.39,4,26,castelvetranoselinunte.it,IT,Europe,Southern Europe,Italy,,,
94.198.98.75,4,5,cattedralereggiocalabria.it,IT,Europe,Southern Europe,Italy,,,
89.190.181.195,4,16,cavit.it,IT,Europe,Southern Europe,Italy,Veneto,Province of Treviso,Vittorio Veneto
46.16.91.62,4,9,cbmitalia.org,IT,Europe,Southern Europe,Italy,Lazio,Rome,Rome
86.105.14.181,4,2,cdcraee.it,IT,Europe,Southern Europe,Italy,Sicily,Province of Palermo,Palermo
66.22.43.88,4,6,cdp.it,IT,Europe,Southern Europe,Italy,Lombardy,Milan,Milan
66.22.43.101,4,10,cdpventurecapital.it,IT,Europe,Southern Europe,Italy,Lombardy,Milan,Milan
185.31.65.219,4,4,cdrf.it,IT,Europe,Southern Europe,Italy,,,
185.31.66.31,4,183,cefaonlus.it,IT,Europe,Southern Europe,Italy,,,
149.3.144.190,4,8,cellteklab.it,IT,Europe,Southern Europe,Italy,,,
81.31.149.112,4,45,centrofisioterapicocittadisassuolo.it,IT,Europe,Southern Europe,Italy,,,
95.110.225.12,4,4,centrometeo.com,IT,Europe,Southern Europe,Italy,Lombardy,Province of Bergamo,Ponte San Pietro
185.201.65.61,4,30,centropuccini.it,IT,Europe,Southern Europe,Italy,,,
80.17.31.108,4,7,cepell.it,IT,Europe,Southern Europe,Italy,Lazio,Rome,Rome
149.3.145.41,4,4,ceramicaflaminia.it,IT,Europe,Southern Europe,Italy,,,
194.76.118.48,4,357,cerasa.it,IT,Europe,Southern Europe,Italy,,,
185.81.2.67,4,31,cercofabbroamilano.it,IT,Europe,Southern Europe,Italy,Lazio,Rome,Rome
212.19.118.114,4,12,cesar.it,IT,Europe,Southern Europe,Italy,Tuscany,Province of Florence,Empoli
46.252.149.69,4,5,cesie.org,IT,Europe,Southern Europe,Italy,,,
86.107.36.86,4,3425,cgfmanet.org,IT,Europe,Southern Europe,Italy,,,
178.255.74.137,4,31,chetariffa.it,IT,Europe,Southern Europe,Italy,,,
93.95.216.35,4,10,chiarapassion.com,IT,Europe,Southern Europe,Italy,Lazio,Rome,Rome
217.73.238.52,4,9,chiariglione.org,IT,Europe,Southern Europe,Italy,Tuscany,Province of Arezzo,Arezzo
93.191.241.111,4,-2780,chieri.info,IT,Europe,Southern Europe,Italy,,,
195.231.74.56,4,6,chiesi.com,IT,Europe,Southern Europe,Italy,Lombardy,Province of Bergamo,Ponte San Pietro
46.254.39.158,4,11,chioggia.org,IT,Europe,Southern Europe,Italy,Lazio,Rome,Rome
86.107.36.138,4,67,chiostrisanteustorgio.it,IT,Europe,Southern Europe,Italy,,,
94.177.205.6,4,1195,cibo360.it,IT,Europe,Southern Europe,Italy,Tuscany,Province of Arezzo,Arezzo
80.88.87.219,4,507,ciclotte.com,IT,Europe,Southern Europe,Italy,Tuscany,Province of Arezzo,Arezzo
62.149.192.226,4,173,cidim.it,IT,Europe,Southern Europe,Italy,Tuscany,Province of Arezzo,Arezzo
46.252.146.13,4,2,cilentoediano.it,IT,Europe,Southern Europe,Italy,,,
217.169.104.197,4,23,cinefile.biz,IT,Europe,Southern Europe,Italy,Lazio,Rome,Rome
185.81.2.188,4,7,cinellicolombini.it,IT,Europe,Southern Europe,Italy,Lazio,Rome,Rome
89.46.226.52,4,5,cinetecadibologna.it,IT,Europe,Southern Europe,Italy,,,
46.37.31.175,4,26,cinquequotidiano.it,IT,Europe,Southern Europe,Italy,Tuscany,Province of Arezzo,Arezzo
46.252.144.49,4,64,cir.it,IT,Europe,Southern Europe,Italy,,,
93.191.242.19,4,2115,circololavela.org,IT,Europe,Southern Europe,Italy,,,
80.88.87.188,4,714,cislscuolavibovalentia.it,IT,Europe,Southern Europe,Italy,Tuscany,Province of Arezzo,Arezzo
213.158.94.167,4,3,cittadelvino.com,IT,Europe,Southern Europe,Italy,,,
212.35.217.55,4,87,cittadinanzattiva.it,IT,Europe,Southern Europe,Italy,Lombardy,Milan,Milan
85.18.173.126,4,8,cittametropolitanaroma.it,IT,Europe,Southern Europe,Italy,Lazio,Rome,Rome
93.186.248.94,4,145,clal.it,IT,Europe,Southern Europe,Italy,Tuscany,Province of Arezzo,Arezzo
94.177.176.33,4,61,climalteranti.it,IT,Europe,Southern Europe,Italy,Tuscany,Province of Arezzo,Arezzo
194.124.73.18,4,3,clipperz.is,IT,Europe,Southern Europe,Italy,,,
83.211.227.158,4,21,clouditalia.com,IT,Europe,Southern Europe,Italy,Tuscany,Province of Arezzo,Pieve al Toppo
185.2.5.40,4,3,clubtriatloncoruna.org,IT,Europe,Southern Europe,Italy,,,
95.110.202.143,4,4,cn24tv.it,IT,Europe,Southern Europe,Italy,Lombardy,Province of Bergamo,Ponte San Pietro
185.247.212.193,4,4,cna.it,IT,Europe,Southern Europe,Italy,,,
95.110.158.83,4,17286,cnos-fap.it,IT,Europe,Southern Europe,Italy,Tuscany,Province of Arezzo,Arezzo
46.254.38.78,4,6,codemotionworld.com,IT,Europe,Southern Europe,Italy,Lazio,Rome,Rome
185.81.4.196,4,4,comitatoleonardo.it,IT,Europe,Southern Europe,Italy,Lazio,Rome,Rome
84.38.57.4,4,5,comunesbt.it,IT,Europe,Southern Europe,Italy,The Marches,Province of Ancona,Ancona
213.171.164.42,4,4,comunicati.net,IT,Europe,Southern Europe,Italy,Lazio,Province of Frosinone,Frosinone
88.49.250.34,4,-2,comunicazioni.it,IT,Europe,Southern Europe,Italy,Lazio,Rome,Rome
95.141.35.146,4,5,concorsi.it,IT,Europe,Southern Europe,Italy,Lombardy,Milan,Milan
185.19.186.65,4,6,concorsiawn.it,IT,Europe,Southern Europe,Italy,,,
37.156.244.108,4,71,confronti.net,IT,Europe,Southern Europe,Italy,Sicily,Province of Palermo,Palermo
131.1.221.88,4,5,consiglioveneto.it,IT,Europe,Southern Europe,Italy,,,
194.76.118.23,4,1108,consorziobrunellodimontalcino.it,IT,Europe,Southern Europe,Italy,,,
46.30.245.238,4,2,consulenzalegaleitalia.it,IT,Europe,Southern Europe,Italy,,,
185.56.218.181,4,79,cookprocessor.com,IT,Europe,Southern Europe,Italy,,,
77.39.212.183,4,104,corrieredellacalabria.it,IT,Europe,Southern Europe,Italy,,,
81.31.156.148,4,66,corrieresalentino.it,IT,Europe,Southern Europe,Italy,,,
66.22.43.21,4,23,cortecostituzionale.it,IT,Europe,Southern Europe,Italy,Lombardy,Milan,Milan
31.3.182.7,4,10,cortonamaec.org,IT,Europe,Southern Europe,Italy,Emilia-Romagna,Province of Forlì-Cesena,Cesena
5.249.135.27,4,93,cosedicasa.com,IT,Europe,Southern Europe,Italy,Tuscany,Province of Arezzo,Arezzo
176.107.150.181,4,116,cosedicasa.com,IT,Europe,Southern Europe,Italy,Lombardy,Province of Bergamo,Ponte San Pietro
194.76.119.30,4,289,cosmed.com,IT,Europe,Southern Europe,Italy,,,
89.40.174.166,4,20,cosoni.net,IT,Europe,Southern Europe,Italy,Abruzzo,Province of Pescara,Pescara
185.2.4.143,4,45,craniosacral.co.uk,IT,Europe,Southern Europe,Italy,,,
213.158.94.174,4,23,cresme.it,IT,Europe,Southern Europe,Italy,,,
213.158.90.39,4,3,cretansailingcenter.com,IT,Europe,Southern Europe,Italy,,,
93.95.216.173,4,14,crmpulizie.it,IT,Europe,Southern Europe,Italy,Lazio,Rome,Rome
95.110.184.149,4,-3387,cronachemaceratesi.it,IT,Europe,Southern Europe,Italy,Lazio,Rome,Rome
212.35.197.237,4,136,crowdfundme.it,IT,Europe,Southern Europe,Italy,Lombardy,Milan,Milan
194.116.72.219,4,4,csp.it,IT,Europe,Southern Europe,Italy,Piedmont,Turin,Turin
185.2.5.10,4,4,cspnogueira.pt,IT,Europe,Southern Europe,Italy,,,
185.201.65.177,4,14,csreinnovazionesociale.it,IT,Europe,Southern Europe,Italy,,,
81.31.158.38,4,57,curamagazine.com,IT,Europe,Southern Europe,Italy,,,
185.116.60.222,4,6,currentaffairsquestion.com,IT,Europe,Southern Europe,Italy,,,
46.254.39.144,4,28,curreriviaggi.it,IT,Europe,Southern Europe,Italy,Lazio,Rome,Rome
86.107.36.143,4,7584,cybercruises.com,IT,Europe,Southern Europe,Italy,,,
146.48.123.9,4,1,d4science.org,IT,Europe,Southern Europe,Italy,Tuscany,Province of Pisa,Cascina
62.149.215.178,4,821,dagtur.it,IT,Europe,Southern Europe,Italy,Tuscany,Province of Arezzo,Arezzo
192.121.191.142,4,12,dailymobile.se,IT,Europe,Southern Europe,Italy,Lazio,Rome,Rome
85.94.202.95,4,6,dailyonline.it,IT,Europe,Southern Europe,Italy,Lombardy,Milan,Milan
89.40.227.248,4,3254,dallicardillospa.com,IT,Europe,Southern Europe,Italy,,,
185.58.192.249,4,6,dalpescatore.com,IT,Europe,Southern Europe,Italy,Tuscany,Province of Arezzo,Arezzo
195.231.20.212,4,18,danteonline.it,IT,Europe,Southern Europe,Italy,,,
93.95.216.123,4,5,dariosalvelli.com,IT,Europe,Southern Europe,Italy,Lazio,Rome,Rome
194.49.76.189,4,3,databitsrl.it,IT,Europe,Southern Europe,Italy,Piedmont,Province of Biella,Biella
185.2.4.60,4,182,datalinktechnologies.org,IT,Europe,Southern Europe,Italy,,,
93.42.2.140,4,13,datamountaincmcastelli.it,IT,Europe,Southern Europe,Italy,Piedmont,Turin,Turin
212.237.16.219,4,34,davinotti.com,IT,Europe,Southern Europe,Italy,Tuscany,Province of Arezzo,Arezzo
185.19.185.68,4,12,dcentproject.eu,IT,Europe,Southern Europe,Italy,,,
84.17.59.115,4,5,dday.it,IT,Europe,Southern Europe,Italy,Lombardy,Milan,Milan
185.2.4.128,4,38,deboliceramiche.it,IT,Europe,Southern Europe,Italy,,,
195.231.25.172,4,96,decora.it,IT,Europe,Southern Europe,Italy,,,
37.9.239.217,4,17,deghi.it,IT,Europe,Southern Europe,Italy,,,
37.9.239.218,4,5,deghi.it,IT,Europe,Southern Europe,Italy,,,
5.249.144.124,4,14,dehoniane.it,IT,Europe,Southern Europe,Italy,Tuscany,Province of Arezzo,Arezzo
46.252.158.28,4,47,delcambio.it,IT,Europe,Southern Europe,Italy,,,
95.110.189.211,4,8258,delphina.it,IT,Europe,Southern Europe,Italy,Lazio,Rome,Rome
149.62.185.222,4,25,denaro.it,IT,Europe,Southern Europe,Italy,,,
46.16.90.152,4,27,diabolik.it,IT,Europe,Southern Europe,Italy,Lazio,Rome,Rome
195.231.87.26,4,8,diariodelweb.it,IT,Europe,Southern Europe,Italy,Lombardy,Province of Bergamo,Ponte San Pietro
185.251.127.222,4,88084,diblasi.co.uk,IT,Europe,Southern Europe,Italy,Sicily,Syracuse,Francofonte
5.144.160.235,4,20,dieci.com,IT,Europe,Southern Europe,Italy,Lombardy,Milan,Milan
185.127.239.122,4,633,difesapopolo.it,IT,Europe,Southern Europe,Italy,,,
185.81.4.25,4,6,dnaconcerti.com,IT,Europe,Southern Europe,Italy,Lazio,Rome,Rome
185.110.20.144,4,27,DNS Server: 0144.extnet.it,IT,Europe,Southern Europe,Italy,Apulia,Bari,Altamura
5.150.132.10,4,169,DNS Server: 10.132.150.5.dsl.static.ip.kpnqwest.it,IT,Europe,Southern Europe,Italy,Veneto,Venice,Venice
185.110.21.52,4,220,DNS Server: 1052.extnet.it,IT,Europe,Southern Europe,Italy,Apulia,Bari,Altamura
185.110.21.66,4,87,DNS Server: 1066.extnet.it,IT,Europe,Southern Europe,Italy,Apulia,Bari,Altamura
185.110.21.73,4,95,DNS Server: 1073.extnet.it,IT,Europe,Southern Europe,Italy,Apulia,Bari,Altamura
185.110.21.76,4,63,DNS Server: 1076.extnet.it,IT,Europe,Southern Europe,Italy,Apulia,Bari,Altamura
185.110.21.91,4,62,DNS Server: 1091.extnet.it,IT,Europe,Southern Europe,Italy,Apulia,Bari,Altamura
185.110.21.173,4,113,DNS Server: 1173.extnet.it,IT,Europe,Southern Europe,Italy,Apulia,Bari,Altamura
128.116.241.37,4,32309257,DNS Server: 128-116-241-37.dyn.eolo.it,IT,Europe,Southern Europe,Italy,,,
94.156.72.130,4,4,DNS Server: 130.lan-za1-2.static.rozabg.com,IT,Europe,Southern Europe,Italy,,,
151.0.153.122,4,-30415,DNS Server: 151-0-153-122.ip281.fastwebnet.it,IT,Europe,Southern Europe,Italy,Tuscany,Province of Pistoia,Pescia
178.255.191.166,4,7435,DNS Server: 166.block-191.ipv4.avanzati.it,IT,Europe,Southern Europe,Italy,Piedmont,Turin,Giaveno
2.228.228.34,4,428233,DNS Server: 2-228-228-34.ip193.fastwebnet.it,IT,Europe,Southern Europe,Italy,Lombardy,Province of Brescia,Bari
2.229.72.225,4,181,DNS Server: 2-229-72-225.ip195.fastwebnet.it,IT,Europe,Southern Europe,Italy,Lazio,Rome,Rome
2.229.85.92,4,4,DNS Server: 2-229-85-92.ip195.fastwebnet.it,IT,Europe,Southern Europe,Italy,Lombardy,Milan,Arconate
185.204.85.208,4,-16,DNS Server: 208.85.204.185.in-addr.arpa,IT,Europe,Southern Europe,Italy,Lazio,Rome,Nettuno
185.110.22.120,4,9,DNS Server: 2120.extnet.it,IT,Europe,Southern Europe,Italy,Apulia,Bari,Altamura
217.133.19.51,4,-7199529,DNS Server: 217-133-19-51.static.clienti.tiscali.it,IT,Europe,Southern Europe,Italy,Lombardy,Province of Bergamo,Monasterolo del Castello
185.110.22.200,4,11,DNS Server: 2200.extnet.it,IT,Europe,Southern Europe,Italy,Apulia,Bari,Altamura
185.110.22.242,4,111,DNS Server: 2242.extnet.it,IT,Europe,Southern Europe,Italy,Apulia,Bari,Altamura
185.110.22.253,4,-3,DNS Server: 2253.extnet.it,IT,Europe,Southern Europe,Italy,Apulia,Bari,Altamura
185.145.246.3,4,1459,DNS Server: 3-246-145-185.sioplusnet.it,IT,Europe,Southern Europe,Italy,Lombardy,Milan,Milan
185.110.23.32,4,17,DNS Server: 3032.extnet.it,IT,Europe,Southern Europe,Italy,Apulia,Bari,Altamura
185.110.23.84,4,-545,DNS Server: 3084.extnet.it,IT,Europe,Southern Europe,Italy,Apulia,Bari,Altamura
185.110.23.88,4,9,DNS Server: 3088.extnet.it,IT,Europe,Southern Europe,Italy,Apulia,Bari,Altamura
185.110.23.127,4,15,DNS Server: 3127.extnet.it,IT,Europe,Southern Europe,Italy,Apulia,Bari,Altamura
185.110.23.134,4,148,DNS Server: 3134.extnet.it,IT,Europe,Southern Europe,Italy,Apulia,Bari,Altamura
185.110.23.135,4,12,DNS Server: 3135.extnet.it,IT,Europe,Southern Europe,Italy,Apulia,Bari,Altamura
185.110.23.145,4,18,DNS Server: 3145.extnet.it,IT,Europe,Southern Europe,Italy,Apulia,Bari,Altamura
185.110.23.244,4,2,DNS Server: 3244.extnet.it,IT,Europe,Southern Europe,Italy,Apulia,Bari,Altamura
134.19.171.67,4,462,DNS Server: 67-171.19.134.wirteksrl.it,IT,Europe,Southern Europe,Italy,The Marches,Province of Macerata,Matelica
77.108.8.210,4,117,DNS Server: 77-108-8-210-static.bbbell.com,IT,Europe,Southern Europe,Italy,Piedmont,Province of Cuneo,Savigliano
77.72.24.233,4,78,DNS Server: 77-72-24-233.ip-space.tesene.it,IT,Europe,Southern Europe,Italy,,,
77.72.24.240,4,71,DNS Server: 77-72-24-240.ip-space.tesene.it,IT,Europe,Southern Europe,Italy,,,
78.134.34.145,4,151,DNS Server: 78-134-34-145.static.eolo.it,IT,Europe,Southern Europe,Italy,Lombardy,,
78.134.68.101,4,20,DNS Server: 78-134-68-101.static.eolo.it,IT,Europe,Southern Europe,Italy,Lombardy,,
81.174.34.23,4,108755,DNS Server: 81-174-34-23.static.eolo.it,IT,Europe,Southern Europe,Italy,,,
84.18.136.217,4,637632,DNS Server: 84-18-136-217.ip.bkom.it,IT,Europe,Southern Europe,Italy,Trentino-Alto Adige,South Tyrol,Bolzano
84.18.156.119,4,637527,DNS Server: 84-18-156-119.ip.bkom.it,IT,Europe,Southern Europe,Italy,Trentino-Alto Adige,South Tyrol,Urtijëi
84.33.125.140,4,-2145541260,DNS Server: 84-33-125-140.static.eolo.it,IT,Europe,Southern Europe,Italy,,,
84.33.97.60,4,2,DNS Server: 84-33-97-60.static.eolo.it,IT,Europe,Southern Europe,Italy,,,
85.18.102.42,4,206,DNS Server: 85-18-102-42.ip.fastwebnet.it,IT,Europe,Southern Europe,Italy,Lombardy,Milan,Milan
109.168.65.86,4,29,DNS Server: 86.65.168.109.cust.ip.kpnqwest.it,IT,Europe,Southern Europe,Italy,Veneto,Province of Vicenza,Dueville
88.147.105.242,4,-128,DNS Server: 88-147-105-242.static.eolo.it,IT,Europe,Southern Europe,Italy,,,
88.147.109.203,4,30,DNS Server: 88-147-109-203.static.eolo.it,IT,Europe,Southern Europe,Italy,,,
88.149.135.77,4,54,DNS Server: 88-149-135-77.static.eolo.it,IT,Europe,Southern Europe,Italy,,,
88.149.182.137,4,23,DNS Server: 88-149-182-137.static.eolo.it,IT,Europe,Southern Europe,Italy,,,
88.149.203.60,4,86566,DNS Server: 88-149-203-60.static.eolo.it,IT,Europe,Southern Europe,Italy,,,
88.149.205.195,4,23196,DNS Server: 88-149-205-195.static.eolo.it,IT,Europe,Southern Europe,Italy,,,
88.149.248.201,4,5,DNS Server: 88-149-248-201.static.eolo.it,IT,Europe,Southern Europe,Italy,,,
88.87.99.130,4,21947,DNS Server: 88-87-99-130-static.bbbell.com,IT,Europe,Southern Europe,Italy,Piedmont,Province of Alessandria,Alessandria
89.96.49.60,4,290,DNS Server: 89-96-49-60.ip10.fastwebnet.it,IT,Europe,Southern Europe,Italy,Lombardy,Milan,Milan
91.231.164.112,4,3,DNS Server: 91-231-164-112.libradsl.it,IT,Europe,Southern Europe,Italy,Campania,Province of Caserta,Casapulla
91.231.164.16,4,661204,DNS Server: 91-231-164-16.libradsl.it,IT,Europe,Southern Europe,Italy,Campania,Province of Caserta,Casapulla
93.34.4.222,4,2,DNS Server: 93-34-4-222.ip47.fastwebnet.it,IT,Europe,Southern Europe,Italy,Emilia-Romagna,Province of Ferrara,Cento
93.38.118.205,4,92107,DNS Server: 93-38-118-205.ip70.fastwebnet.it,IT,Europe,Southern Europe,Italy,Lombardy,Province of Bergamo,Almè
93.39.79.221,4,-610,DNS Server: 93-39-79-221.ip74.fastwebnet.it,IT,Europe,Southern Europe,Italy,Lombardy,Milan,Milan
93.39.84.234,4,38,DNS Server: 93-39-84-234.ip75.fastwebnet.it,IT,Europe,Southern Europe,Italy,Sardinia,Province of Cagliari,Cagliari
93.41.177.34,4,-400,DNS Server: 93-41-177-34.ip82.fastwebnet.it,IT,Europe,Southern Europe,Italy,Lombardy,Milan,Milan
93.42.199.134,4,-391,DNS Server: 93-42-199-134.ip88.fastwebnet.it,IT,Europe,Southern Europe,Italy,Lombardy,Milan,Milan
93.42.217.170,4,89,DNS Server: 93-42-217-170.ip88.fastwebnet.it,IT,Europe,Southern Europe,Italy,Lombardy,Province of Bergamo,Bergamo
93.42.219.133,4,-7250223,DNS Server: 93-42-219-133.ip88.fastwebnet.it,IT,Europe,Southern Europe,Italy,Lombardy,Province of Bergamo,Bergamo
93.43.7.68,4,22,DNS Server: 93-43-7-68.ip89.fastwebnet.it,IT,Europe,Southern Europe,Italy,Lombardy,Province of Brescia,Brescia
93.43.95.134,4,5,DNS Server: 93-43-95-134.ip91.fastwebnet.it,IT,Europe,Southern Europe,Italy,Lombardy,Milan,Milan
93.44.165.8,4,24,DNS Server: 93-44-165-8.ip98.fastwebnet.it,IT,Europe,Southern Europe,Italy,Lazio,Rome,Fiumicino
93.45.18.130,4,6,DNS Server: 93-45-18-130.ip100.fastwebnet.it,IT,Europe,Southern Europe,Italy,Lombardy,Milan,Milan
93.45.98.196,4,398,DNS Server: 93-45-98-196.ip101.fastwebnet.it,IT,Europe,Southern Europe,Italy,Campania,Province of Salerno,Pellezzano
93.45.98.222,4,12,DNS Server: 93-45-98-222.ip101.fastwebnet.it,IT,Europe,Southern Europe,Italy,Campania,Province of Salerno,Pellezzano
93.46.104.161,4,1283,DNS Server: 93-46-104-161.ip107.fastwebnet.it,IT,Europe,Southern Europe,Italy,Liguria,Province of Genoa,Genoa
93.46.163.27,4,13,DNS Server: 93-46-163-27.ip108.fastwebnet.it,IT,Europe,Southern Europe,Italy,Lombardy,Milan,Milan
93.46.196.158,4,10,DNS Server: 93-46-196-158.ip109.fastwebnet.it,IT,Europe,Southern Europe,Italy,Lombardy,Province of Brescia,Rovato
93.46.199.34,4,4,DNS Server: 93-46-199-34.ip109.fastwebnet.it,IT,Europe,Southern Europe,Italy,Lombardy,Province of Brescia,Rovato
93.47.195.58,4,158,DNS Server: 93-47-195-58.ip114.fastwebnet.it,IT,Europe,Southern Europe,Italy,Lombardy,Milan,Milan
93.47.198.202,4,17,DNS Server: 93-47-198-202.ip114.fastwebnet.it,IT,Europe,Southern Europe,Italy,Lombardy,Milan,Milan
93.49.0.3,4,7255,DNS Server: 93-49-0-3.ip317.fastwebnet.it,IT,Europe,Southern Europe,Italy,Lombardy,Province of Pavia,Casorate Primo
93.51.133.138,4,5,DNS Server: 93-51-133-138.ip267.fastwebnet.it,IT,Europe,Southern Europe,Italy,Trentino-Alto Adige,Province of Trente,Trento
93.51.228.251,4,52,DNS Server: 93-51-228-251.ip269.fastwebnet.it,IT,Europe,Southern Europe,Italy,Lombardy,Milan,Milan
93.51.238.170,4,15,DNS Server: 93-51-238-170.ip269.fastwebnet.it,IT,Europe,Southern Europe,Italy,Lombardy,Milan,Milan
93.51.241.141,4,58,DNS Server: 93-51-241-141.ip269.fastwebnet.it,IT,Europe,Southern Europe,Italy,Lazio,Rome,Rome
93.56.11.92,4,70455,DNS Server: 93-56-11-92.ip287.fastwebnet.it,IT,Europe,Southern Europe,Italy,Lombardy,Monza Brianza,Giussano
93.57.245.117,4,6,DNS Server: 93-57-245-117.ip167.fastwebnet.it,IT,Europe,Southern Europe,Italy,Tuscany,Province of Livorno,Livorno
93.62.185.101,4,14,DNS Server: 93-62-185-101.ip23.fastwebnet.it,IT,Europe,Southern Europe,Italy,Piedmont,Turin,Rivoli
93.62.185.102,4,13,DNS Server: 93-62-185-102.ip23.fastwebnet.it,IT,Europe,Southern Europe,Italy,Piedmont,Turin,Rivoli
93.62.185.99,4,14,DNS Server: 93-62-185-99.ip23.fastwebnet.it,IT,Europe,Southern Europe,Italy,Piedmont,Turin,Rivoli
93.63.229.132,4,-7677254,DNS Server: 93-63-229-132.ip29.fastwebnet.it,IT,Europe,Southern Europe,Italy,Lazio,Rome,Rome
93.89.59.25,4,-91,DNS Server: 93-89-59-25.ip.bkom.it,IT,Europe,Southern Europe,Italy,Trentino-Alto Adige,South Tyrol,Kastelruth
213.203.161.143,4,30684343,DNS Server: adsl203-161-143.mclink.it,IT,Europe,Southern Europe,Italy,Lombardy,Milan,Milan
194.242.214.164,4,-7199333,DNS Server: adsl214-164.aknet.it,IT,Europe,Southern Europe,Italy,Lombardy,Milan,Milan
212.237.4.162,4,85,DNS Server: arna.bio,IT,Europe,Southern Europe,Italy,Tuscany,Province of Arezzo,Arezzo
93.43.67.193,4,168,DNS Server: borderone.masconet.it,IT,Europe,Southern Europe,Italy,Calabria,Province of Reggio Calabria,Locri
195.32.50.15,4,8,DNS Server: c-50-15.cust.wadsl.it,IT,Europe,Southern Europe,Italy,Piedmont,Turin,Marentino
94.230.78.117,4,2,DNS Server: cpe-0117.lessinianet.net,IT,Europe,Southern Europe,Italy,Veneto,Province of Verona,Roverè Veronese
87.241.16.10,4,-4244992365,DNS Server: cpeit_mil001895.ia.colt.net,IT,Europe,Southern Europe,Italy,Lombardy,Milan,Milan
213.215.160.238,4,24141744,DNS Server: cpeit_mil008792.ia.colt.net,IT,Europe,Southern Europe,Italy,Lombardy,Milan,Milan
87.241.4.34,4,-4258964962,DNS Server: cpeit_rom000733.ia.colt.net,IT,Europe,Southern Europe,Italy,Lazio,Rome,Rome
83.149.178.26,4,159,DNS Server: esvacloud.security-mail.org,IT,Europe,Southern Europe,Italy,Tuscany,Provincia di Prato,Prato
83.103.38.74,4,-109,DNS Server: fastweb74.ietnet.net,IT,Europe,Southern Europe,Italy,Piedmont,Turin,Turin
93.43.67.197,4,34,DNS Server: gundam.masco.it,IT,Europe,Southern Europe,Italy,Calabria,Province of Reggio Calabria,Locri
45.142.187.110,4,18798,DNS Server: h110-ipv4-45-142-187.mynet.it,IT,Europe,Southern Europe,Italy,Lombardy,Province of Mantua,Mantova
84.247.236.210,4,3827,DNS Server: h210-ipv4-84-247-236.mynet.it,IT,Europe,Southern Europe,Italy,Veneto,Province of Verona,Valeggio sul Mincio
77.241.4.252,4,25,DNS Server: h252-ipv4-77-241-4.mynet.it,IT,Europe,Southern Europe,Italy,Lombardy,Province of Mantua,Bagnolo San Vito
119.12.45.8,4,337,DNS Server: h8-ipv4-119-12-45.mynet.it,IT,Europe,Southern Europe,Italy,Lombardy,Province of Mantua,Solferino
185.191.107.86,4,15,DNS Server: host-185-191-107-86.mywic.eu,IT,Europe,Southern Europe,Italy,Lombardy,Milan,Milan
194.4.41.36,4,37,DNS Server: host-194-4-41-36.net.intranetwifi.it,IT,Europe,Southern Europe,Italy,Veneto,Padua,Boara Pisani
195.31.72.234,4,722871,DNS Server: host-195-31-72-234.business.telecomitalia.it,IT,Europe,Southern Europe,Italy,Veneto,Venice,Chioggia
2.113.76.38,4,23,DNS Server: host-2-113-76-38.business.telecomitalia.it,IT,Europe,Southern Europe,Italy,Veneto,Province of Vicenza,Conco
2.114.91.193,4,-2518548684,DNS Server: host-2-114-91-193.business.telecomitalia.it,IT,Europe,Southern Europe,Italy,Emilia-Romagna,Bologna,Bologna
2.119.131.34,4,-59,DNS Server: host-2-119-131-34.business.telecomitalia.it,IT,Europe,Southern Europe,Italy,Campania,Naples,Naples
213.26.25.3,4,-682012477,DNS Server: host-213-26-25-3.business.telecomitalia.it,IT,Europe,Southern Europe,Italy,Lombardy,Milan,Pantigliate
31.7.148.5,4,-1332,DNS Server: host-31-7-148-5.positivonet.it,IT,Europe,Southern Europe,Italy,Campania,Province of Salerno,Salerno
5.96.198.66,4,3207,DNS Server: host-5-96-198-66.business.telecomitalia.it,IT,Europe,Southern Europe,Italy,Liguria,Province of Genoa,Genoa
5.97.219.246,4,-3916847554,DNS Server: host-5-97-219-246.business.telecomitalia.it,IT,Europe,Southern Europe,Italy,Campania,Province of Caserta,Caserta
5.98.128.5,4,-2470269,DNS Server: host-5-98-128-5.business.telecomitalia.it,IT,Europe,Southern Europe,Italy,Tuscany,Province of Pisa,San Miniato Basso
77.238.23.128,4,-712726,DNS Server: host-77-238-23-128.business.telecomitalia.it,IT,Europe,Southern Europe,Italy,Emilia-Romagna,Bologna,Zola Predosa
77.242.130.102,4,36,DNS Server: host-77-242-130-102.mywic.eu,IT,Europe,Southern Europe,Italy,Piedmont,Province of Vercelli,Quarona
77.242.138.149,4,-9854,DNS Server: host-77-242-138-149.mywic.eu,IT,Europe,Southern Europe,Italy,Piedmont,Province of Vercelli,Quarona
79.0.73.35,4,5,DNS Server: host-79-0-73-35.business.telecomitalia.it,IT,Europe,Southern Europe,Italy,Emilia-Romagna,Province of Ferrara,Ferrara
79.61.138.153,4,-363,DNS Server: host-79-61-138-153.business.telecomitalia.it,IT,Europe,Southern Europe,Italy,Lazio,Rome,Rome
80.18.14.86,4,-2175091931,DNS Server: host-80-18-14-86.business.telecomitalia.it,IT,Europe,Southern Europe,Italy,Lombardy,Province of Varese,Castellanza
80.20.95.250,4,-39,DNS Server: host-80-20-95-250.business.telecomitalia.it,IT,Europe,Southern Europe,Italy,Veneto,Padua,Padova
89.37.71.39,4,2887,DNS Server: host-89-37-71-39.mywic.eu,IT,Europe,Southern Europe,Italy,Lombardy,Milan,Milan
95.255.67.120,4,21924181,DNS Server: host-95-255-67-120.business.telecomitalia.it,IT,Europe,Southern Europe,Italy,,,
81.201.4.1,4,8,DNS Server: host001-pool081201004.albedo.it,IT,Europe,Southern Europe,Italy,Piedmont,Turin,Cumiana
81.201.0.61,4,6,DNS Server: host061-pool081201000.albedo.it,IT,Europe,Southern Europe,Italy,Piedmont,Turin,Cumiana
81.201.10.90,4,66,DNS Server: host090-pool081201010.albedo.it,IT,Europe,Southern Europe,Italy,Piedmont,Turin,Cumiana
195.231.66.11,4,5,DNS Server: host11-66-231-195.serverdedicati.aruba.it,IT,Europe,Southern Europe,Italy,Lombardy,Province of Bergamo,Ponte San Pietro
195.231.70.110,4,34,DNS Server: host110-70-231-195.serverdedicati.aruba.it,IT,Europe,Southern Europe,Italy,Lombardy,Province of Bergamo,Ponte San Pietro
89.21.204.117,4,3,DNS Server: host117-204-21-89.convergenze.it,IT,Europe,Southern Europe,Italy,Campania,Province of Salerno,Capaccio
80.211.179.15,4,13,DNS Server: host15-179-211-80.serverdedicati.aruba.it,IT,Europe,Southern Europe,Italy,Tuscany,Province of Arezzo,Arezzo
185.152.45.158,4,66,DNS Server: host158-45-152-185.dimensionesrl.eu,IT,Europe,Southern Europe,Italy,Molise,Province of Campobasso,Campobasso
5.249.157.17,4,114,DNS Server: host17-157-249-5.serverdedicati.aruba.it,IT,Europe,Southern Europe,Italy,Tuscany,Province of Arezzo,Arezzo
81.201.6.182,4,14,DNS Server: host182-pool081201006.albedo.it,IT,Europe,Southern Europe,Italy,Piedmont,Turin,Cumiana
195.231.79.184,4,7,DNS Server: host184-79-231-195.serverdedicati.aruba.it,IT,Europe,Southern Europe,Italy,Lombardy,Province of Bergamo,Ponte San Pietro
95.110.225.187,4,6,DNS Server: host187-225-110-95.serverdedicati.aruba.it,IT,Europe,Southern Europe,Italy,Lombardy,Province of Bergamo,Ponte San Pietro
31.14.133.196,4,63,DNS Server: host196-133-14-31.serverdedicati.aruba.it,IT,Europe,Southern Europe,Italy,Tuscany,Province of Arezzo,Arezzo
81.201.4.221,4,9142729,DNS Server: host221-pool081201004.albedo.it,IT,Europe,Southern Europe,Italy,Piedmont,Turin,Cumiana
95.110.222.240,4,363529,DNS Server: host240-222-110-95.serverdedicati.aruba.it,IT,Europe,Southern Europe,Italy,Lombardy,Province of Bergamo,Ponte San Pietro
95.110.185.241,4,-354,DNS Server: host241-185-110-95.serverdedicati.aruba.it,IT,Europe,Southern Europe,Italy,Lazio,Rome,Rome
5.61.218.245,4,0,DNS Server: host245-218-61-5.customer.netoip.com,IT,Europe,Southern Europe,Italy,The Marches,Province of Ancona,Ancona
94.101.54.44,4,-7,DNS Server: host44-54-101-94.convergenze.it,IT,Europe,Southern Europe,Italy,Campania,Province of Salerno,Albanella
95.110.225.59,4,20,DNS Server: host59-225-110-95.serverdedicati.aruba.it,IT,Europe,Southern Europe,Italy,Lombardy,Province of Bergamo,Ponte San Pietro
83.211.16.130,4,8781,DNS Server: ip-16-130.sn2.clouditalia.com,IT,Europe,Southern Europe,Italy,Veneto,Province of Treviso,Roncade
62.94.195.107,4,3223,DNS Server: ip-195-107.sn1.clouditalia.com,IT,Europe,Southern Europe,Italy,Lazio,Rome,Rome
95.157.69.2,4,59,DNS Server: ip-2-69.157.95.cdlan.net,IT,Europe,Southern Europe,Italy,,,
92.246.96.218,4,189,DNS Server: ip-218.96.246.92.interplanet.it,IT,Europe,Southern Europe,Italy,Veneto,Province of Vicenza,Montecchio Maggiore
83.211.248.17,4,22,DNS Server: ip-248-17.sn2.clouditalia.com,IT,Europe,Southern Europe,Italy,Abruzzo,Province of Pescara,Manoppello
83.211.248.20,4,70,DNS Server: ip-248-20.sn2.clouditalia.com,IT,Europe,Southern Europe,Italy,Abruzzo,Province of Pescara,Manoppello
83.211.248.38,4,-8,DNS Server: ip-248-38.sn2.clouditalia.com,IT,Europe,Southern Europe,Italy,Abruzzo,Province of Pescara,Manoppello
193.57.73.32,4,17958,DNS Server: ip-73-32.webfi.it,IT,Europe,Southern Europe,Italy,Apulia,Bari,Corato
83.211.85.27,4,32,DNS Server: ip-85-27.sn2.clouditalia.com,IT,Europe,Southern Europe,Italy,Piedmont,Province of Novara,Cameri
83.211.93.248,4,-12,DNS Server: ip-93-248.sn2.clouditalia.com,IT,Europe,Southern Europe,Italy,Piedmont,Province of Novara,Cameri
89.189.33.44,4,43,DNS Server: ip.89.189.33.44.telemar.it,IT,Europe,Southern Europe,Italy,Veneto,Province of Vicenza,Asiago
45.142.134.100,4,8,DNS Server: ip100-134.dinamic.retail.az.witel.it,IT,Europe,Southern Europe,Italy,Abruzzo,Province of L'Aquila,Avezzano
80.86.157.100,4,332,DNS Server: mail.arbloc.com,IT,Europe,Southern Europe,Italy,Veneto,Province of Treviso,Vazzola
46.231.36.86,4,43564,DNS Server: marte1-086.alida.it,IT,Europe,Southern Europe,Italy,Campania,Naples,Naples
217.133.24.120,4,-3378395,DNS Server: michelebruno.org,IT,Europe,Southern Europe,Italy,Lombardy,Province of Bergamo,Monasterolo del Castello
93.63.130.2,4,201,DNS Server: mx01.beautyitpro.com,IT,Europe,Southern Europe,Italy,Emilia-Romagna,Province of Ferrara,Ostellato
109.117.16.197,4,213,DNS Server: net-109-117-16-197.cust.vodafonedsl.it,IT,Europe,Southern Europe,Italy,Lazio,Rome,Rome
130.0.184.10,4,188,DNS Server: net-130-0-184-10.cust.vodafonedsl.it,IT,Europe,Southern Europe,Italy,Apulia,Province of Barletta-Andria-Trani,Bisceglie
188.219.36.106,4,48638,DNS Server: net-188-219-36-106.cust.vodafonedsl.it,IT,Europe,Southern Europe,Italy,Lombardy,Milan,Milan
188.219.42.114,4,-69513,DNS Server: net-188-219-42-114.cust.vodafonedsl.it,IT,Europe,Southern Europe,Italy,Lombardy,Milan,Milan
2.32.159.122,4,114590,DNS Server: net-2-32-159-122.cust.dsl.teletu.it,IT,Europe,Southern Europe,Italy,Lombardy,Milan,Milan
2.40.119.162,4,-359,DNS Server: net-2-40-119-162.cust.vodafonedsl.it,IT,Europe,Southern Europe,Italy,Lombardy,Province of Pavia,Mortara
2.40.186.202,4,74,DNS Server: net-2-40-186-202.cust.vodafonedsl.it,IT,Europe,Southern Europe,Italy,Lombardy,Monza Brianza,Monza
2.40.187.99,4,-103123,DNS Server: net-2-40-187-99.cust.vodafonedsl.it,IT,Europe,Southern Europe,Italy,Lombardy,Monza Brianza,Monza
2.40.201.116,4,-40632,DNS Server: net-2-40-201-116.cust.vodafonedsl.it,IT,Europe,Southern Europe,Italy,Piedmont,Province of Novara,Cerano
2.40.201.118,4,-27135,DNS Server: net-2-40-201-118.cust.vodafonedsl.it,IT,Europe,Southern Europe,Italy,Piedmont,Province of Novara,Cerano
2.47.138.139,4,46,DNS Server: net-2-47-138-139.cust.vodafonedsl.it,IT,Europe,Southern Europe,Italy,Lazio,Rome,Rome
31.156.55.106,4,157,DNS Server: net-31-156-55-106.cust.vodafonedsl.it,IT,Europe,Southern Europe,Italy,Lombardy,Milan,Buccinasco
5.88.153.94,4,114295,DNS Server: net-5-88-153-94.cust.vodafonedsl.it,IT,Europe,Southern Europe,Italy,Lazio,Rome,Rome
5.88.178.216,4,-1395379506,DNS Server: net-5-88-178-216.cust.vodafonedsl.it,IT,Europe,Southern Europe,Italy,Veneto,Province of Verona,Verona
5.94.207.148,4,163,DNS Server: net-5-94-207-148.cust.vodafonedsl.it,IT,Europe,Southern Europe,Italy,Lombardy,Milan,Milan
91.81.60.206,4,45,DNS Server: net-91-81-60-206.cust.vodafonedsl.it,IT,Europe,Southern Europe,Italy,Trentino-Alto Adige,South Tyrol,Barbiano
93.145.138.138,4,182,DNS Server: net-93-145-138-138.cust.vodafonedsl.it,IT,Europe,Southern Europe,Italy,Emilia-Romagna,Bologna,Castel Maggiore
93.145.156.210,4,106,DNS Server: net-93-145-156-210.cust.vodafonedsl.it,IT,Europe,Southern Europe,Italy,Lazio,Rome,Rome
93.145.178.206,4,63859,DNS Server: net-93-145-178-206.cust.vodafonedsl.it,IT,Europe,Southern Europe,Italy,Lombardy,Milan,Milan
93.145.22.2,4,-6640,DNS Server: net-93-145-22-2.cust.vodafonedsl.it,IT,Europe,Southern Europe,Italy,Lazio,Rome,Civitavecchia
93.145.246.134,4,110,DNS Server: net-93-145-246-134.cust.vodafonedsl.it,IT,Europe,Southern Europe,Italy,Lazio,Rome,Rome
93.147.164.56,4,89,DNS Server: net-93-147-164-56.cust.vodafonedsl.it,IT,Europe,Southern Europe,Italy,Lazio,Rome,Rome
93.150.23.67,4,4924,DNS Server: net-93-150-23-67.cust.vodafonedsl.it,IT,Europe,Southern Europe,Italy,Lazio,Rome,Rome
93.150.45.238,4,118,DNS Server: net-93-150-45-238.cust.vodafonedsl.it,IT,Europe,Southern Europe,Italy,Campania,Province of Salerno,Eboli
93.64.222.78,4,174,DNS Server: net-93-64-222-78.cust.vodafonedsl.it,IT,Europe,Southern Europe,Italy,Apulia,Bari,Santeramo in Colle
93.64.229.30,4,10645,DNS Server: net-93-64-229-30.cust.vodafonedsl.it,IT,Europe,Southern Europe,Italy,Apulia,Bari,Noicattaro
93.64.47.86,4,-608,DNS Server: net-93-64-47-86.cust.vodafonedsl.it,IT,Europe,Southern Europe,Italy,Lombardy,Province of Brescia,Castenedolo
77.43.43.5,4,805,DNS Server: net77-43-4-005.mclink.it,IT,Europe,Southern Europe,Italy,Lombardy,Province of Bergamo,Bergamo
77.43.47.121,4,25015118,DNS Server: net77-43-47-121.mclink.it,IT,Europe,Southern Europe,Italy,Lombardy,Province of Bergamo,Bergamo
77.43.58.106,4,-4240948169,DNS Server: net77-43-58-106.mclink.it,IT,Europe,Southern Europe,Italy,Lombardy,Province of Bergamo,Torre Boldone
77.43.58.200,4,24591128,DNS Server: net77-43-58-200.mclink.it,IT,Europe,Southern Europe,Italy,Lombardy,Province of Bergamo,Torre Boldone
77.43.58.28,4,24196633,DNS Server: net77-43-58-28.mclink.it,IT,Europe,Southern Europe,Italy,Lombardy,Province of Bergamo,Torre Boldone
77.43.58.56,4,-4256539542,DNS Server: net77-43-58-56.mclink.it,IT,Europe,Southern Europe,Italy,Lombardy,Province of Bergamo,Torre Boldone
77.43.58.94,4,-7199256,DNS Server: net77-43-58-94.mclink.it,IT,Europe,Southern Europe,Italy,Lombardy,Province of Bergamo,Torre Boldone
77.43.59.121,4,8481,DNS Server: net77-43-59-121.mclink.it,IT,Europe,Southern Europe,Italy,Lombardy,Province of Bergamo,Torre Boldone
77.43.73.228,4,19453429,DNS Server: net77-43-73-228.mclink.it,IT,Europe,Southern Europe,Italy,Lazio,Rome,Rome
77.43.99.216,4,-4221461087,DNS Server: net77-43-99-216.mclink.it,IT,Europe,Southern Europe,Italy,Lombardy,Milan,Milan
77.43.99.5,4,-4223322821,DNS Server: net77-43-99-5.mclink.it,IT,Europe,Southern Europe,Italy,Lombardy,Milan,Milan
84.253.140.132,4,-36748,DNS Server: net84-253-140-132.mclink.it,IT,Europe,Southern Europe,Italy,Lazio,Rome,Rome
84.253.144.3,4,19940942,DNS Server: net84-253-144-003.mclink.it,IT,Europe,Southern Europe,Italy,Lazio,Rome,Rome
84.253.157.251,4,14002648,DNS Server: net84-253-157-251.mclink.it,IT,Europe,Southern Europe,Italy,Lazio,Rome,Rome
212.104.43.2,4,180,DNS Server: ns1.ignet.it,IT,Europe,Southern Europe,Italy,Lombardy,Province of Varese,Caronno Pertusella
80.83.162.11,4,241,DNS Server: ns1.media.it,IT,Europe,Southern Europe,Italy,Apulia,Bari,Putignano
80.83.162.8,4,141,DNS Server: ns1.onlineitalia.com,IT,Europe,Southern Europe,Italy,Apulia,Bari,Putignano
213.61.204.110,4,-4256308149,DNS Server: port-213-61-204-110.ham.dial.de.colt.net,IT,Europe,Southern Europe,Italy,Lazio,Rome,Rome
213.61.204.134,4,21423424,DNS Server: port-213-61-204-134.ham.dial.de.colt.net,IT,Europe,Southern Europe,Italy,Lazio,Rome,Rome
93.46.21.230,4,356,DNS Server: posta.ctovet.com,IT,Europe,Southern Europe,Italy,Emilia-Romagna,Bologna,Bologna
77.242.186.206,4,81287,DNS Server: posta.easyprofit.it,IT,Europe,Southern Europe,Italy,Piedmont,Province of Biella,Biella
92.245.191.253,4,-1717,DNS Server: RT_F205.consultarea.net,IT,Europe,Southern Europe,Italy,Sardinia,Province of Cagliari,Cagliari
54.37.220.84,4,24,doc-diy.net,IT,Europe,Southern Europe,Italy,Sicily,Province of Trapani,Paceco
185.2.5.28,4,71,dolcevitacliffresort.com,IT,Europe,Southern Europe,Italy,,,
86.107.36.124,4,-8940,dolomitiunesco.info,IT,Europe,Southern Europe,Italy,,,
185.205.40.169,4,75,domenicocataniadentista.it,IT,Europe,Southern Europe,Italy,,,
81.31.156.162,4,9,donantoniopizza.com,IT,Europe,Southern Europe,Italy,,,
195.231.50.139,4,431,donnapop.it,IT,Europe,Southern Europe,Italy,Lombardy,Province of Bergamo,Bonate Sopra
149.62.185.55,4,5,dossierimmigrazione.it,IT,Europe,Southern Europe,Italy,,,
86.107.36.12,4,28,dottorini.com,IT,Europe,Southern Europe,Italy,,,
86.107.32.140,4,303,drogbaster.it,IT,Europe,Southern Europe,Italy,,,
85.235.148.58,4,-99183,dronet.org,IT,Europe,Southern Europe,Italy,Tuscany,Province of Arezzo,Arezzo
93.186.242.38,4,41,ducadalba.net,IT,Europe,Southern Europe,Italy,Tuscany,Province of Arezzo,Arezzo
80.88.87.207,4,244,duomofirenze.it,IT,Europe,Southern Europe,Italy,Tuscany,Province of Arezzo,Arezzo
81.31.156.141,4,13,e-duesse.it,IT,Europe,Southern Europe,Italy,,,
46.28.4.50,4,37,eastjournal.net,IT,Europe,Southern Europe,Italy,Lazio,Rome,Rome
185.17.107.7,4,2470,ebiemme.it,IT,Europe,Southern Europe,Italy,,,
77.81.236.22,4,28866,ecnews.it,IT,Europe,Southern Europe,Italy,Tuscany,Province of Arezzo,Arezzo
193.31.248.3,4,5,ecoaltomolise.net,IT,Europe,Southern Europe,Italy,Umbria,Province of Terni,San Venanzo
185.2.5.16,4,4,ecomobile.it,IT,Europe,Southern Europe,Italy,,,
86.107.36.149,4,-2916,economicswebinstitute.org,IT,Europe,Southern Europe,Italy,,,
84.33.51.102,4,571,ecoo.it,IT,Europe,Southern Europe,Italy,,,
217.64.198.218,4,3730,ecovicentino.it,IT,Europe,Southern Europe,Italy,Lazio,Province of Frosinone,Frosinone
62.149.182.56,4,6,ecsc.eu,IT,Europe,Southern Europe,Italy,Tuscany,Province of Arezzo,Arezzo
2.228.12.135,4,558575,edc-online.org,IT,Europe,Southern Europe,Italy,Lazio,Rome,Ardea
178.255.74.172,4,1026,ediscom.it,IT,Europe,Southern Europe,Italy,,,
185.81.4.137,4,39,edizionialegre.it,IT,Europe,Southern Europe,Italy,Lazio,Rome,Rome
95.110.184.104,4,14,edotto.com,IT,Europe,Southern Europe,Italy,Lazio,Rome,Rome
195.231.18.13,4,5753,educazionedigitale.it,IT,Europe,Southern Europe,Italy,,,
185.2.4.58,4,36,eduopen.org,IT,Europe,Southern Europe,Italy,,,
62.149.215.139,4,820,effedieffe.com,IT,Europe,Southern Europe,Italy,Tuscany,Province of Arezzo,Arezzo
81.31.149.110,4,6,effimera.org,IT,Europe,Southern Europe,Italy,,,
78.26.127.115,4,88,efpfanfic.net,IT,Europe,Southern Europe,Italy,,,
185.2.4.137,4,112,eglises.org,IT,Europe,Southern Europe,Italy,,,
80.88.87.234,4,100,egoluce.com,IT,Europe,Southern Europe,Italy,Tuscany,Province of Arezzo,Arezzo
79.98.45.44,4,8,ehiweb.it,IT,Europe,Southern Europe,Italy,Emilia-Romagna,Bologna,Imola
95.110.130.25,4,89,elbareport.it,IT,Europe,Southern Europe,Italy,Tuscany,Province of Arezzo,Arezzo
37.9.228.213,4,4,elettricitafutura.it,IT,Europe,Southern Europe,Italy,Lombardy,Milan,Milan
185.81.4.68,4,18,elodea.it,IT,Europe,Southern Europe,Italy,Lazio,Rome,Rome
213.158.90.7,4,43,elrig.org,IT,Europe,Southern Europe,Italy,,,
93.95.216.129,4,7,elvenking.net,IT,Europe,Southern Europe,Italy,Lazio,Rome,Rome
64.64.96.30,4,50,emailaddresses.com,IT,Europe,Southern Europe,Italy,,,
46.28.2.13,4,60,emaily.it,IT,Europe,Southern Europe,Italy,Lazio,Rome,Rome
95.141.35.187,4,7,emdr-europe.org,IT,Europe,Southern Europe,Italy,Lombardy,Milan,Milan
185.81.2.125,4,6,emfscientist.org,IT,Europe,Southern Europe,Italy,Lazio,Rome,Rome
93.47.109.135,4,-14,emi.it,IT,Europe,Southern Europe,Italy,Sicily,Province of Agrigento,Palma di Montechiaro
77.81.236.107,4,5936,emu.it,IT,Europe,Southern Europe,Italy,Tuscany,Province of Arezzo,Arezzo
185.78.67.218,4,145,enic-naric.net,IT,Europe,Southern Europe,Italy,,,
46.252.149.126,4,110,enit.it,IT,Europe,Southern Europe,Italy,,,
212.25.183.195,4,6,enniomorricone.it,IT,Europe,Southern Europe,Italy,Lazio,Province of Frosinone,Frosinone
185.2.4.26,4,7,enotecapinchiorri.it,IT,Europe,Southern Europe,Italy,,,
185.78.65.74,4,35,enpa.it,IT,Europe,Southern Europe,Italy,,,
172.232.208.150,4,87,enpap.it,IT,Europe,Southern Europe,Italy,Lombardy,Milan,Milan
149.3.144.101,4,8,enzodalmonte.it,IT,Europe,Southern Europe,Italy,,,
93.191.242.15,4,2044,erbeofficinali.org,IT,Europe,Southern Europe,Italy,,,
149.3.145.156,4,4,ergonet.it,IT,Europe,Southern Europe,Italy,,,
86.105.14.64,4,77,ermeshotels.com,IT,Europe,Southern Europe,Italy,Sicily,Province of Palermo,Palermo
85.159.148.143,4,27,esaote.com,IT,Europe,Southern Europe,Italy,,,
185.201.65.59,4,45,espcar.it,IT,Europe,Southern Europe,Italy,,,
89.31.200.13,4,12,esprimo.com,IT,Europe,Southern Europe,Italy,,,
194.185.40.25,4,948,esprinet.com,IT,Europe,Southern Europe,Italy,Lombardy,Milan,Milan
212.35.202.147,4,154,estra.it,IT,Europe,Southern Europe,Italy,Lombardy,Milan,Milan
195.182.210.27,4,4597,eticostat.it,IT,Europe,Southern Europe,Italy,Lombardy,Milan,Sesto San Giovanni
93.186.250.105,4,15697,etnosemiotica.it,IT,Europe,Southern Europe,Italy,Tuscany,Province of Arezzo,Arezzo
89.40.173.176,4,3,eufcn.com,IT,Europe,Southern Europe,Italy,Abruzzo,Province of Pescara,Pescara
89.40.174.228,4,3,eurispes.eu,IT,Europe,Southern Europe,Italy,Abruzzo,Province of Pescara,Pescara
149.3.144.47,4,4,eurocomunicazione.com,IT,Europe,Southern Europe,Italy,,,
85.235.137.200,4,5,euroinfosicilia.it,IT,Europe,Southern Europe,Italy,Tuscany,Province of Arezzo,Arezzo
178.20.73.109,4,81,euromedaudiovisuel.net,IT,Europe,Southern Europe,Italy,Emilia-Romagna,Province of Modena,Marano sul Panaro
146.48.123.22,4,39,europeanfilmgateway.eu,IT,Europe,Southern Europe,Italy,Tuscany,Province of Pisa,Cascina
80.211.70.27,4,-9781,europeangodatabase.eu,IT,Europe,Southern Europe,Italy,Tuscany,Province of Arezzo,Arezzo
185.205.40.105,4,3,europeanpapers.eu,IT,Europe,Southern Europe,Italy,,,
93.95.216.40,4,29,europeanreview.org,IT,Europe,Southern Europe,Italy,Lazio,Rome,Rome
77.43.14.82,4,19,eurotexts.com,IT,Europe,Southern Europe,Italy,Lazio,Rome,Rome
86.107.36.126,4,-17812,euroweb.com,IT,Europe,Southern Europe,Italy,,,
46.252.158.76,4,52,eutanasialegale.it,IT,Europe,Southern Europe,Italy,,,
213.215.222.107,4,16,eutekne.it,IT,Europe,Southern Europe,Italy,Piedmont,Turin,Turin
213.158.93.3,4,13,evecalls.net,IT,Europe,Southern Europe,Italy,,,
185.241.64.138,4,1046,eventiesagre.it,IT,Europe,Southern Europe,Italy,,,
35.219.248.111,4,-24378,farmagalenica.it,IT,Europe,Southern Europe,Italy,Lombardy,Milan,Milan
31.14.132.60,4,1078,farmina.com,IT,Europe,Southern Europe,Italy,Tuscany,Province of Arezzo,Arezzo
147.78.184.42,4,37,fastspa.com,IT,Europe,Southern Europe,Italy,,,
77.39.208.94,4,18,fattoriadeibarbi.it,IT,Europe,Southern Europe,Italy,,,
83.103.59.127,4,12,favero.com,IT,Europe,Southern Europe,Italy,Lombardy,Province of Sondrio,Albosaggia
80.211.120.87,4,17,favicomatic.com,IT,Europe,Southern Europe,Italy,Lombardy,Province of Bergamo,Ponte San Pietro
46.28.2.140,4,33,favini.com,IT,Europe,Southern Europe,Italy,Lazio,Rome,Rome
93.95.216.113,4,21,favinks.com,IT,Europe,Southern Europe,Italy,Lazio,Rome,Rome
213.254.1.31,4,2,fctp.it,IT,Europe,Southern Europe,Italy,Piedmont,Province of Cuneo,Borgo San Dalmazzo
89.40.173.154,4,317,fdossena.com,IT,Europe,Southern Europe,Italy,Abruzzo,Province of Pescara,Pescara
80.88.87.165,4,221,federalists.eu,IT,Europe,Southern Europe,Italy,Tuscany,Province of Arezzo,Arezzo
89.46.227.18,4,30,federciclismo.it,IT,Europe,Southern Europe,Italy,,,
94.177.181.213,4,42,federicofellini.it,IT,Europe,Southern Europe,Italy,Tuscany,Province of Arezzo,Arezzo
46.16.91.20,4,-4370,federscherma.it,IT,Europe,Southern Europe,Italy,Lazio,Rome,Rome
213.212.130.31,4,61,federturismo.it,IT,Europe,Southern Europe,Italy,,,
185.145.193.3,4,-276,feedaty.com,IT,Europe,Southern Europe,Italy,Lombardy,Milan,Milan
149.62.185.18,4,29,feeldesain.com,IT,Europe,Southern Europe,Italy,,,
159.213.236.60,4,29,feelflorence.it,IT,Europe,Southern Europe,Italy,Tuscany,Province of Florence,Florence
185.17.107.11,4,3,felsina.it,IT,Europe,Southern Europe,Italy,,,
93.95.221.194,4,6,ferpress.it,IT,Europe,Southern Europe,Italy,Lazio,Rome,Rome
212.35.216.193,4,10,ferrovie.info,IT,Europe,Southern Europe,Italy,Lombardy,Milan,Milan
213.158.94.134,4,-3,ff2p.fr,IT,Europe,Southern Europe,Italy,,,
213.21.160.90,4,146333,fiab-onlus.it,IT,Europe,Southern Europe,Italy,Trentino-Alto Adige,Province of Trente,Levico Terme
185.221.175.186,4,19,fiabilandia.it,IT,Europe,Southern Europe,Italy,,,
46.16.95.158,4,40,fiabitalia.it,IT,Europe,Southern Europe,Italy,Lazio,Rome,Rome
82.180.47.169,4,7,fiamma.com,IT,Europe,Southern Europe,Italy,Lombardy,Province of Como,Bulgarograsso
195.130.253.192,4,7,fibrosicistica.it,IT,Europe,Southern Europe,Italy,,,
158.58.173.6,4,32,fic.it,IT,Europe,Southern Europe,Italy,Lombardy,Milan,Milan
5.249.157.113,4,7,fico.it,IT,Europe,Southern Europe,Italy,Tuscany,Province of Arezzo,Arezzo
46.254.34.215,4,71,fieracavalli.it,IT,Europe,Southern Europe,Italy,Lazio,Rome,Rome
91.142.143.88,4,46,fierapordenone.it,IT,Europe,Southern Europe,Italy,,,
149.3.145.128,4,80,fifaultimateteam.it,IT,Europe,Southern Europe,Italy,,,
46.254.39.37,4,38,filastrocche.it,IT,Europe,Southern Europe,Italy,Lazio,Rome,Rome
213.158.94.131,4,-2,filippominelli.com,IT,Europe,Southern Europe,Italy,,,
85.235.157.114,4,32,filtriindustriali.it,IT,Europe,Southern Europe,Italy,Tuscany,Province of Arezzo,Arezzo
91.212.246.84,4,822,financiarul.ro,IT,Europe,Southern Europe,Italy,,,
172.232.216.198,4,43,finestresullarte.info,IT,Europe,Southern Europe,Italy,Lombardy,Milan,Milan
86.105.14.100,4,12,fioranese.it,IT,Europe,Southern Europe,Italy,Sicily,Province of Palermo,Palermo
46.28.4.48,4,20,fip.it,IT,Europe,Southern Europe,Italy,Lazio,Rome,Rome
86.107.36.59,4,8,firenzemarathon.it,IT,Europe,Southern Europe,Italy,,,
46.16.94.68,4,16,firenzepost.it,IT,Europe,Southern Europe,Italy,Lazio,Rome,Rome
80.88.84.228,4,12,firriato.it,IT,Europe,Southern Europe,Italy,Tuscany,Province of Arezzo,Arezzo
195.231.73.80,4,14,fisco7.it,IT,Europe,Southern Europe,Italy,Lombardy,Province of Bergamo,Ponte San Pietro
147.78.184.16,4,11,flagsonline.it,IT,Europe,Southern Europe,Italy,,,
212.35.204.71,4,6,flai.it,IT,Europe,Southern Europe,Italy,Lombardy,Milan,Milan
195.62.190.71,4,5,flashgiovani.it,IT,Europe,Southern Europe,Italy,Emilia-Romagna,Province of Parma,Parma
46.252.157.207,4,61,flowerburger.it,IT,Europe,Southern Europe,Italy,,,
46.254.36.111,4,4,fnovi.it,IT,Europe,Southern Europe,Italy,Lazio,Rome,Rome
2.228.12.137,4,99092,focolare.org,IT,Europe,Southern Europe,Italy,Lazio,Rome,Ardea
77.39.208.78,4,11,focsiv.it,IT,Europe,Southern Europe,Italy,,,
89.40.172.171,4,2,fondazionebasso.it,IT,Europe,Southern Europe,Italy,Abruzzo,Province of Pescara,Pescara
185.96.204.189,4,98,fondazionedelmonte.it,IT,Europe,Southern Europe,Italy,,,
62.149.192.166,4,21,fondazionedisardegna.it,IT,Europe,Southern Europe,Italy,Tuscany,Province of Arezzo,Arezzo
46.252.148.232,4,7,fondazionenicolatrussardi.com,IT,Europe,Southern Europe,Italy,,,
213.158.93.44,4,7,fondazionesvilupposostenibile.org,IT,Europe,Southern Europe,Italy,,,
77.39.208.185,4,50,fondimpresa.it,IT,Europe,Southern Europe,Italy,,,
185.71.9.43,4,112,fondoest.it,IT,Europe,Southern Europe,Italy,,,
5.144.171.112,4,28,fondorepubblicadigitale.it,IT,Europe,Southern Europe,Italy,Lombardy,Milan,Milan
185.81.4.167,4,37,fontanarosaserigrafia.it,IT,Europe,Southern Europe,Italy,Lazio,Rome,Rome
46.252.158.180,4,70,fontodi.com,IT,Europe,Southern Europe,Italy,,,
46.254.37.229,4,42,foodsovereignty.org,IT,Europe,Southern Europe,Italy,Lazio,Rome,Rome
46.254.37.153,4,16,formalms.org,IT,Europe,Southern Europe,Italy,Lazio,Rome,Rome
89.40.173.57,4,221,formazionenautilus.it,IT,Europe,Southern Europe,Italy,Abruzzo,Province of Pescara,Pescara
46.252.150.241,4,-11177,formu1a.uno,IT,Europe,Southern Europe,Italy,,,
80.88.87.198,4,278,fornopasticceriasarti.it,IT,Europe,Southern Europe,Italy,Tuscany,Province of Arezzo,Arezzo
81.31.147.49,4,5,foroeuropeo.it,IT,Europe,Southern Europe,Italy,,,
80.88.87.211,4,69,forumdipace.org,IT,Europe,Southern Europe,Italy,Tuscany,Province of Arezzo,Arezzo
86.107.36.134,4,-377,forumdisuguaglianzediversita.org,IT,Europe,Southern Europe,Italy,,,
46.252.146.98,4,52,fotografi.org,IT,Europe,Southern Europe,Italy,,,
149.3.145.33,4,3,fqts2020.it,IT,Europe,Southern Europe,Italy,,,
195.231.16.177,4,36,francescodisilvestre.it,IT,Europe,Southern Europe,Italy,,,
46.254.39.130,4,74,fratellifrancia.it,IT,Europe,Southern Europe,Italy,Lazio,Rome,Rome
213.158.94.170,4,52,frenchie-restaurant.com,IT,Europe,Southern Europe,Italy,,,
185.2.5.5,4,44,frenchiecoventgarden.com,IT,Europe,Southern Europe,Italy,,,
212.35.217.212,4,9,friendoftheearth.org,IT,Europe,Southern Europe,Italy,Lombardy,Milan,Milan
80.88.95.65,4,5842443,friulanapanini.com,IT,Europe,Southern Europe,Italy,Tuscany,Province of Arezzo,Arezzo
185.17.106.251,4,27,friulioggi.it,IT,Europe,Southern Europe,Italy,,,
185.2.6.21,4,3,fromthemurkydepths.co.uk,IT,Europe,Southern Europe,Italy,,,
46.21.182.20,4,13,fruitbookmagazine.it,IT,Europe,Southern Europe,Italy,Lombardy,Province of Bergamo,Villongo
185.2.4.57,4,3,fsm.it,IT,Europe,Southern Europe,Italy,,,
85.94.200.172,4,3,funghiitaliani.it,IT,Europe,Southern Europe,Italy,Lombardy,Milan,Milan
93.186.242.56,4,11,fuoriluogo.it,IT,Europe,Southern Europe,Italy,Tuscany,Province of Arezzo,Arezzo
185.71.8.63,4,12,fuorisalone.it,IT,Europe,Southern Europe,Italy,,,
185.116.60.197,4,5,futuroprossimo.it,IT,Europe,Southern Europe,Italy,,,
185.2.4.81,4,22,gaber.it,IT,Europe,Southern Europe,Italy,,,
89.40.173.153,4,333,gabrielegalimberti.com,IT,Europe,Southern Europe,Italy,Abruzzo,Province of Pescara,Pescara
176.221.51.116,4,46,gaggia.com,IT,Europe,Southern Europe,Italy,Piedmont,Turin,Turin
195.231.20.209,4,12,gaia-gis.it,IT,Europe,Southern Europe,Italy,,,
185.31.67.114,4,6,gaia-onlus.org,IT,Europe,Southern Europe,Italy,,,
46.30.241.101,4,5,gaiaitalia.com,IT,Europe,Southern Europe,Italy,Lazio,Rome,Rome
151.11.50.223,4,17,galleriacontinua.com,IT,Europe,Southern Europe,Italy,,,
62.149.199.218,4,732,galluccifaibano.com,IT,Europe,Southern Europe,Italy,Tuscany,Province of Arezzo,Arezzo
194.76.116.37,4,23,galluraoggi.it,IT,Europe,Southern Europe,Italy,,,
85.235.146.241,4,7,gangemieditore.com,IT,Europe,Southern Europe,Italy,Tuscany,Province of Arezzo,Arezzo
195.231.17.51,4,17,garanteinfanzia.org,IT,Europe,Southern Europe,Italy,,,
95.110.230.204,4,6,gardiol.org,IT,Europe,Southern Europe,Italy,Lombardy,Province of Bergamo,Ponte San Pietro
80.88.87.210,4,-464,gbcitalia.org,IT,Europe,Southern Europe,Italy,Tuscany,Province of Arezzo,Arezzo
185.2.4.42,4,3,gdvajra.it,IT,Europe,Southern Europe,Italy,,,
81.31.149.111,4,7,gekoproject.com,IT,Europe,Southern Europe,Italy,,,
188.213.169.243,4,87,genderbender.it,IT,Europe,Southern Europe,Italy,Tuscany,Province of Arezzo,Arezzo
81.31.147.64,4,54,genoacfc.it,IT,Europe,Southern Europe,Italy,,,
46.37.17.32,4,6,gessi.it,IT,Europe,Southern Europe,Italy,Tuscany,Province of Arezzo,Arezzo
81.31.158.23,4,12,gfcstudio.it,IT,Europe,Southern Europe,Italy,,,
151.101.243.10,4,4,gfps.com,IT,Europe,Southern Europe,Italy,Lombardy,Milan,Milan
46.254.34.61,4,17,ghislieri.it,IT,Europe,Southern Europe,Italy,Lazio,Rome,Rome
185.81.0.25,4,44,giallorossi.net,IT,Europe,Southern Europe,Italy,Lazio,Rome,Rome
89.46.227.54,4,21,gianlucagimini.it,IT,Europe,Southern Europe,Italy,,,
185.2.4.127,4,13,giardinidivillamelzi.it,IT,Europe,Southern Europe,Italy,,,
85.235.146.211,4,27,giglionews.it,IT,Europe,Southern Europe,Italy,Tuscany,Province of Arezzo,Arezzo
151.1.210.216,4,24,gimatic.com,IT,Europe,Southern Europe,Italy,,,
194.76.116.40,4,23,gioca-responsabile.it,IT,Europe,Southern Europe,Italy,,,
89.40.173.248,4,20,gioielleriagalli.it,IT,Europe,Southern Europe,Italy,Abruzzo,Province of Pescara,Pescara
185.81.4.186,4,23,giolitti.it,IT,Europe,Southern Europe,Italy,Lazio,Rome,Rome
84.33.37.195,4,14,giorgiomoroder.com,IT,Europe,Southern Europe,Italy,,,
149.3.148.172,4,11,giorgionadaeditore.it,IT,Europe,Southern Europe,Italy,,,
159.213.160.19,4,6,giovanisi.it,IT,Europe,Southern Europe,Italy,Tuscany,Province of Florence,Vicchio
185.221.175.53,4,1485,girlgeekdinnersmilano.com,IT,Europe,Southern Europe,Italy,,,
89.40.173.246,4,1,giuspen.com,IT,Europe,Southern Europe,Italy,Abruzzo,Province of Pescara,Pescara
2.16.22.253,4,9,giustiziatributaria.gov.it,IT,Europe,Southern Europe,Italy,Lombardy,Milan,Milan
2.16.22.230,4,12,giustiziatributaria.gov.it,IT,Europe,Southern Europe,Italy,Lombardy,Milan,Milan
185.31.65.181,4,384,glg-doors.com,IT,Europe,Southern Europe,Italy,,,
195.130.247.171,4,21,globalgeografia.com,IT,Europe,Southern Europe,Italy,,,
45.141.57.227,4,19,globalist.it,IT,Europe,Southern Europe,Italy,Lombardy,Milan,Milan
94.177.48.5,4,1573,glomex.it,IT,Europe,Southern Europe,Italy,,,
185.2.4.148,4,26,go-vespa.pt,IT,Europe,Southern Europe,Italy,,,
46.37.25.190,4,288,go2.it,IT,Europe,Southern Europe,Italy,Tuscany,Province of Arezzo,Arezzo
95.110.234.92,4,-1424933,goldenweb.it,IT,Europe,Southern Europe,Italy,Lombardy,Province of Bergamo,Ponte San Pietro
93.186.242.107,4,5,gonews.it,IT,Europe,Southern Europe,Italy,Tuscany,Province of Arezzo,Arezzo
62.149.227.100,4,13791099,gotoandplay.biz,IT,Europe,Southern Europe,Italy,Tuscany,Province of Arezzo,Arezzo
89.40.173.60,4,133,gradara.org,IT,Europe,Southern Europe,Italy,Abruzzo,Province of Pescara,Pescara
185.221.174.14,4,559,grancaffegambrinus.com,IT,Europe,Southern Europe,Italy,,,
46.254.34.201,4,28,grandenapoli.it,IT,Europe,Southern Europe,Italy,Lazio,Rome,Rome
151.11.83.19,4,39,grandhotelnizza.it,IT,Europe,Southern Europe,Italy,Tuscany,Province of Pistoia,Chiesina Uzzanese
89.46.76.253,4,860,grandhotelparkers.it,IT,Europe,Southern Europe,Italy,Tuscany,Province of Arezzo,Arezzo
5.134.124.25,4,14,grandpriximola.it,IT,Europe,Southern Europe,Italy,,,
80.211.143.106,4,41,gratis.it,IT,Europe,Southern Europe,Italy,Tuscany,Province of Arezzo,Arezzo
195.231.50.137,4,1186,greenbiz.it,IT,Europe,Southern Europe,Italy,Lombardy,Province of Bergamo,Bonate Sopra
93.95.216.125,4,63,greenedgecycling.com,IT,Europe,Southern Europe,Italy,Lazio,Rome,Rome
195.231.50.133,4,943,greenme.it,IT,Europe,Southern Europe,Italy,Lombardy,Province of Bergamo,Bonate Sopra
93.186.242.145,4,27,greenreport.it,IT,Europe,Southern Europe,Italy,Tuscany,Province of Arezzo,Arezzo
185.2.4.61,4,7,gresiniracing.com,IT,Europe,Southern Europe,Italy,,,
172.232.216.141,4,8,gridforum.org,IT,Europe,Southern Europe,Italy,Lombardy,Milan,Milan
195.130.247.104,4,-90283,grnet.it,IT,Europe,Southern Europe,Italy,,,
213.215.199.176,4,26,grom.it,IT,Europe,Southern Europe,Italy,Lombardy,Milan,Milan
2.18.254.211,4,20,gruppoequitalia.it,IT,Europe,Southern Europe,Italy,Lombardy,Milan,Milan
2.18.254.217,4,23,gruppoequitalia.it,IT,Europe,Southern Europe,Italy,Lombardy,Milan,Milan
2.16.22.98,4,23,gruppoequitalia.it,IT,Europe,Southern Europe,Italy,Lombardy,Milan,Milan
95.101.114.145,4,6,gse.it,IT,Europe,Southern Europe,Italy,Lombardy,Milan,Milan
2.22.248.27,4,11,gse.it,IT,Europe,Southern Europe,Italy,Lombardy,Milan,Milan
2.22.248.28,4,44,gse.it,IT,Europe,Southern Europe,Italy,Lombardy,Milan,Milan
95.101.114.11,4,41,gse.it,IT,Europe,Southern Europe,Italy,Lombardy,Milan,Milan
151.0.187.146,4,716,guerini.it,IT,Europe,Southern Europe,Italy,Lombardy,Milan,Milan
93.95.216.216,4,24,guidaconsumatore.com,IT,Europe,Southern Europe,Italy,Lazio,Rome,Rome
95.110.225.183,4,13,guidasicilia.it,IT,Europe,Southern Europe,Italy,Lombardy,Province of Bergamo,Ponte San Pietro
178.255.74.135,4,752,gustissimo.it,IT,Europe,Southern Europe,Italy,,,
178.255.74.133,4,642,gustissimo.it,IT,Europe,Southern Europe,Italy,,,
178.255.74.104,4,669,gustissimo.it,IT,Europe,Southern Europe,Italy,,,
77.242.128.141,4,2,halservice.it,IT,Europe,Southern Europe,Italy,Piedmont,Province of Vercelli,Quarona
93.95.216.58,4,5,hano.it,IT,Europe,Southern Europe,Italy,Lazio,Rome,Rome
46.254.38.69,4,7,har-cert.com,IT,Europe,Southern Europe,Italy,Lazio,Rome,Rome
212.35.217.189,4,692,harken.com,IT,Europe,Southern Europe,Italy,Lombardy,Milan,Milan
80.88.87.209,4,467,hcconsultingsrl.com,IT,Europe,Southern Europe,Italy,Tuscany,Province of Arezzo,Arezzo
86.107.36.91,4,-16888,healthdesk.it,IT,Europe,Southern Europe,Italy,,,
86.107.36.99,4,-24171,healthyseas.org,IT,Europe,Southern Europe,Italy,,,
86.107.36.113,4,5982,helpconsumatori.it,IT,Europe,Southern Europe,Italy,,,
195.88.4.7,4,28,highhopes.com,IT,Europe,Southern Europe,Italy,,,
95.110.158.208,4,8,hiho.it,IT,Europe,Southern Europe,Italy,Tuscany,Province of Arezzo,Arezzo
195.72.197.4,4,4,hitparadeitalia.it,IT,Europe,Southern Europe,Italy,Piedmont,Province of Novara,Landiona
209.227.216.12,4,6,hollywoodreporter.it,IT,Europe,Southern Europe,Italy,Lombardy,Province of Bergamo,Ponte San Pietro
85.94.197.210,4,24,horoscopofree.com,IT,Europe,Southern Europe,Italy,Lombardy,Milan,Milan
185.31.67.105,4,55,hostinggratis.it,IT,Europe,Southern Europe,Italy,,,
81.31.149.100,4,13,hostingtalk.it,IT,Europe,Southern Europe,Italy,,,
80.88.87.184,4,936,hotel-montecarlo.it,IT,Europe,Southern Europe,Italy,Tuscany,Province of Arezzo,Arezzo
85.235.159.231,4,5,hotelbaglioni.it,IT,Europe,Southern Europe,Italy,Tuscany,Province of Arezzo,Arezzo
213.158.94.160,4,20,hotelmachiavelli.it,IT,Europe,Southern Europe,Italy,,,
5.252.44.200,4,255,hotelsclick.com,IT,Europe,Southern Europe,Italy,,,
86.107.36.135,4,-3,hotelvillacimbrone.com,IT,Europe,Southern Europe,Italy,,,
94.177.223.110,4,5,humanativaspa.it,IT,Europe,Southern Europe,Italy,Tuscany,Province of Arezzo,Arezzo
46.252.148.143,4,4,i-com.it,IT,Europe,Southern Europe,Italy,,,
213.158.90.20,4,13,i-m-patron.gr,IT,Europe,Southern Europe,Italy,,,
213.158.90.33,4,24,i-smartcloud.com,IT,Europe,Southern Europe,Italy,,,
185.184.136.203,4,54,i-ticket.it,IT,Europe,Southern Europe,Italy,Abruzzo,Province of L'Aquila,Avezzano
195.231.24.247,4,28,iamcalcio.it,IT,Europe,Southern Europe,Italy,,,
85.235.137.192,4,24,ianseo.net,IT,Europe,Southern Europe,Italy,Tuscany,Province of Arezzo,Arezzo
93.95.221.24,4,8,iapb.it,IT,Europe,Southern Europe,Italy,Lazio,Rome,Rome
213.158.90.14,4,6,iatriko.gr,IT,Europe,Southern Europe,Italy,,,
93.186.242.121,4,26,ibreviary.com,IT,Europe,Southern Europe,Italy,Tuscany,Province of Arezzo,Arezzo
185.121.38.19,4,9,iccrom.org,IT,Europe,Southern Europe,Italy,,,
85.94.221.211,4,6,iceman.it,IT,Europe,Southern Europe,Italy,Lazio,Province of Frosinone,Frosinone
46.30.247.142,4,10,icems.eu,IT,Europe,Southern Europe,Italy,,,
89.40.175.82,4,23,ideaginger.it,IT,Europe,Southern Europe,Italy,Abruzzo,Province of Pescara,Pescara
93.186.242.32,4,7,iiscecchi.edu.it,IT,Europe,Southern Europe,Italy,Tuscany,Province of Arezzo,Arezzo
90.147.26.120,4,4,iit.it,IT,Europe,Southern Europe,Italy,Emilia-Romagna,Bologna,Budrio
185.2.4.80,4,80,iklectikartlab.com,IT,Europe,Southern Europe,Italy,,,
89.31.200.14,4,72,ilbustese.it,IT,Europe,Southern Europe,Italy,,,
217.194.3.217,4,22,ilcambiamento.it,IT,Europe,Southern Europe,Italy,Lazio,Province of Frosinone,Frosinone
89.46.226.202,4,14,ilcinemaritrovato.it,IT,Europe,Southern Europe,Italy,,,
84.33.192.146,4,-310,ilcorrieredellacitta.com,IT,Europe,Southern Europe,Italy,,,
93.95.216.60,4,59,ilcortileshop.com,IT,Europe,Southern Europe,Italy,Lazio,Rome,Rome
185.116.60.77,4,54,ildenaro.it,IT,Europe,Southern Europe,Italy,,,
86.107.98.137,4,12287,ildispaccio.it,IT,Europe,Southern Europe,Italy,Abruzzo,Province of Pescara,Pescara
185.19.184.186,4,43,ilgiornaledelcibo.it,IT,Europe,Southern Europe,Italy,,,
185.205.41.21,4,67,ilgrandecolibri.com,IT,Europe,Southern Europe,Italy,,,
83.158.240.200,4,23,iliad.it,IT,Europe,Southern Europe,Italy,,,
86.107.36.114,4,7084,illatini.com,IT,Europe,Southern Europe,Italy,,,
193.27.202.149,4,5,illibraio.it,IT,Europe,Southern Europe,Italy,Lombardy,Milan,Milan
62.149.199.117,4,751,ilnarratore.com,IT,Europe,Southern Europe,Italy,Tuscany,Province of Arezzo,Arezzo
86.107.32.42,4,33,ilnuovodiario.com,IT,Europe,Southern Europe,Italy,,,
95.110.222.153,4,31,ilpaesenuovo.it,IT,Europe,Southern Europe,Italy,Lombardy,Province of Bergamo,Ponte San Pietro
213.158.94.145,4,31,ilpuntomedicosportivo.it,IT,Europe,Southern Europe,Italy,,,
188.213.169.251,4,6,ilquotidiano.it,IT,Europe,Southern Europe,Italy,Tuscany,Province of Arezzo,Arezzo
93.95.216.91,4,50,ilriformista.it,IT,Europe,Southern Europe,Italy,Lazio,Rome,Rome
5.144.169.59,4,3,ilromanista.eu,IT,Europe,Southern Europe,Italy,Lombardy,Milan,Milan
185.81.6.11,4,8,iltamtam.it,IT,Europe,Southern Europe,Italy,Lazio,Rome,Rome
185.56.168.188,4,16,iltorinese.it,IT,Europe,Southern Europe,Italy,,,
93.186.244.85,4,27,ilturista.info,IT,Europe,Southern Europe,Italy,Tuscany,Province of Arezzo,Arezzo
89.31.200.153,4,6,ilvibonese.it,IT,Europe,Southern Europe,Italy,,,
86.107.32.37,4,34,imgrum.org,IT,Europe,Southern Europe,Italy,,,
45.147.250.86,4,11,imiglioricasinoonline.net,IT,Europe,Southern Europe,Italy,Lombardy,Milan,Milan
185.2.4.62,4,3,immaginarioscientifico.it,IT,Europe,Southern Europe,Italy,,,
85.159.148.127,4,3,imq.it,IT,Europe,Southern Europe,Italy,,,
86.107.32.78,4,5,inas.it,IT,Europe,Southern Europe,Italy,,,
149.62.189.95,4,15,inca.it,IT,Europe,Southern Europe,Italy,,,
194.76.118.119,4,-235,incinqueterre.com,IT,Europe,Southern Europe,Italy,,,
95.110.198.60,4,1492,indettaglio.it,IT,Europe,Southern Europe,Italy,Lombardy,Province of Bergamo,Ponte San Pietro
193.22.139.131,4,79,indomio.es,IT,Europe,Southern Europe,Italy,,,
89.46.70.24,4,215,inewsletter.cloud,IT,Europe,Southern Europe,Italy,Tuscany,Province of Arezzo,Arezzo
81.31.147.46,4,24,infezmed.it,IT,Europe,Southern Europe,Italy,,,
185.31.67.99,4,1843,infinitidesign.it,IT,Europe,Southern Europe,Italy,,,
46.252.147.120,4,-3,infinitoedizioni.it,IT,Europe,Southern Europe,Italy,,,
193.206.84.44,4,25,infn.it,IT,Europe,Southern Europe,Italy,Lazio,Rome,Rome
81.31.147.40,4,23,infoans.org,IT,Europe,Southern Europe,Italy,,,
86.107.36.89,4,-1985,infobuildproducts.com,IT,Europe,Southern Europe,Italy,,,
195.88.7.207,4,4,informazionecorretta.com,IT,Europe,Southern Europe,Italy,,,
185.2.4.77,4,4,infos-jeunes.fr,IT,Europe,Southern Europe,Italy,,,
86.107.36.14,4,5,ingenere.it,IT,Europe,Southern Europe,Italy,,,
193.42.165.102,4,23,inmondadori.it,IT,Europe,Southern Europe,Italy,,,
5.249.135.23,4,9,insella.it,IT,Europe,Southern Europe,Italy,Tuscany,Province of Arezzo,Arezzo
176.107.150.177,4,5,insella.it,IT,Europe,Southern Europe,Italy,Lombardy,Province of Bergamo,Ponte San Pietro
95.110.231.18,4,57856,insidemarketing.it,IT,Europe,Southern Europe,Italy,Lombardy,Province of Bergamo,Ponte San Pietro
62.149.215.208,4,783,interferenza.com,IT,Europe,Southern Europe,Italy,Tuscany,Province of Arezzo,Arezzo
34.154.111.100,4,86,interiors3d.it,IT,Europe,Southern Europe,Italy,Lombardy,Milan,Milan
79.98.45.14,4,5,interlex.it,IT,Europe,Southern Europe,Italy,Emilia-Romagna,Bologna,Imola
84.33.193.99,4,435,interlive.it,IT,Europe,Southern Europe,Italy,,,
84.33.2.209,4,1607,interris.it,IT,Europe,Southern Europe,Italy,,,
86.107.32.148,4,40,intersos.org,IT,Europe,Southern Europe,Italy,,,
193.33.99.173,4,6,intravino.com,IT,Europe,Southern Europe,Italy,,,
212.115.64.5,4,1,irisfmg.com,IT,Europe,Southern Europe,Italy,,,
77.39.212.86,4,7,irlandando.it,IT,Europe,Southern Europe,Italy,,,
185.81.2.44,4,116,irpinianews.it,IT,Europe,Southern Europe,Italy,Lazio,Rome,Rome
93.42.238.31,4,1282,ischia.it,IT,Europe,Southern Europe,Italy,Campania,Naples,Casoria
185.221.175.3,4,497,ischiaonline.it,IT,Europe,Southern Europe,Italy,,,
89.46.227.155,4,4,isiafaenza.it,IT,Europe,Southern Europe,Italy,,,
81.31.149.125,4,3,isoladiburano.it,IT,Europe,Southern Europe,Italy,,,
185.2.4.102,4,14,istruttorecinofilo.it,IT,Europe,Southern Europe,Italy,,,
46.255.86.125,4,99,istruzioneer.it,IT,Europe,Southern Europe,Italy,Emilia-Romagna,Bologna,Bologna
87.250.73.232,4,10,istruzionepiemonte.it,IT,Europe,Southern Europe,Italy,Piedmont,Province of Novara,Novara
93.186.242.78,4,136,istruzioneveneto.gov.it,IT,Europe,Southern Europe,Italy,Tuscany,Province of Arezzo,Arezzo
86.107.32.108,4,19,italamp.com,IT,Europe,Southern Europe,Italy,,,
81.31.147.104,4,8,italdesign.it,IT,Europe,Southern Europe,Italy,,,
46.28.2.60,4,1752,italia24.tv,IT,Europe,Southern Europe,Italy,Lazio,Rome,Rome
94.177.174.192,4,15,italiachiamaitalia.it,IT,Europe,Southern Europe,Italy,Tuscany,Province of Arezzo,Arezzo
86.107.36.15,4,34,italiadonna.it,IT,Europe,Southern Europe,Italy,,,
194.113.88.123,4,86,italiafruit.net,IT,Europe,Southern Europe,Italy,,,
46.252.149.216,4,54,italianbark.com,IT,Europe,Southern Europe,Italy,,,
185.221.174.72,4,1375,italiani.coop,IT,Europe,Southern Europe,Italy,,,
149.3.148.83,4,28,italianieuropei.it,IT,Europe,Southern Europe,Italy,,,
185.81.2.164,4,8,italiaregina.it,IT,Europe,Southern Europe,Italy,Lazio,Rome,Rome
151.1.181.119,4,69427,italylawyer.net,IT,Europe,Southern Europe,Italy,,,
46.16.91.40,4,41,itsweb.org,IT,Europe,Southern Europe,Italy,Lazio,Rome,Rome
159.122.160.247,4,22,iulm.it,IT,Europe,Southern Europe,Italy,Lombardy,Milan,Milan
86.107.36.96,4,-9037,iuss.org,IT,Europe,Southern Europe,Italy,,,
93.147.174.5,4,2,izslt.it,IT,Europe,Southern Europe,Italy,Lazio,Rome,Rome
217.19.153.5,4,-876968,jacabook.it,IT,Europe,Southern Europe,Italy,,,
86.107.36.80,4,23,jacobinitalia.it,IT,Europe,Southern Europe,Italy,,,
185.2.4.90,4,6,japanstory.co.uk,IT,Europe,Southern Europe,Italy,,,
172.232.206.251,4,5,jarumpiercing.it,IT,Europe,Southern Europe,Italy,Lombardy,Milan,Milan
185.2.4.136,4,5,jdata.it,IT,Europe,Southern Europe,Italy,,,
217.61.55.229,4,1175,jkroma.com,IT,Europe,Southern Europe,Italy,Lombardy,Province of Bergamo,Ponte San Pietro
194.76.118.158,4,1534,jollyb.it,IT,Europe,Southern Europe,Italy,,,
80.88.87.240,4,430,journal-of-nuclear-physics.com,IT,Europe,Southern Europe,Italy,Tuscany,Province of Arezzo,Arezzo
185.2.4.70,4,3,judgejules.net,IT,Europe,Southern Europe,Italy,,,
86.107.32.29,4,3,julskitchen.com,IT,Europe,Southern Europe,Italy,,,
213.158.94.248,4,9,jung-yeunjang.ch,IT,Europe,Southern Europe,Italy,,,
185.145.195.71,4,6,juzaphoto.com,IT,Europe,Southern Europe,Italy,Lombardy,Milan,Milan
80.211.178.185,4,4,keats-shelley-house.org,IT,Europe,Southern Europe,Italy,Tuscany,Province of Arezzo,Arezzo
185.17.106.200,4,1,keliweb.it,IT,Europe,Southern Europe,Italy,,,
185.81.2.127,4,13,khatod.com,IT,Europe,Southern Europe,Italy,Lazio,Rome,Rome
80.211.96.104,4,7,killedbymicrosoft.info,IT,Europe,Southern Europe,Italy,Tuscany,Province of Arezzo,Arezzo
5.178.43.81,4,8,kotsovolos.gr,IT,Europe,Southern Europe,Italy,,,
86.107.36.46,4,4,kyotoclub.org,IT,Europe,Southern Europe,Italy,,,
94.177.211.90,4,10,la7.tv,IT,Europe,Southern Europe,Italy,Tuscany,Province of Arezzo,Arezzo
188.213.165.221,4,12,labottegadiparigi.com,IT,Europe,Southern Europe,Italy,Tuscany,Province of Arezzo,Arezzo
185.205.41.52,4,54,laboutiquedellacornice.com,IT,Europe,Southern Europe,Italy,,,
46.252.146.45,4,396,lacarrara.it,IT,Europe,Southern Europe,Italy,,,
173.222.105.61,4,10,lafeltrinelli.it,IT,Europe,Southern Europe,Italy,Lombardy,Milan,Milan
62.149.199.208,4,706,lagallerianazionale.com,IT,Europe,Southern Europe,Italy,Tuscany,Province of Arezzo,Arezzo
217.61.44.5,4,3,lakecomoschool.org,IT,Europe,Southern Europe,Italy,Lombardy,Province of Bergamo,Ponte San Pietro
85.235.131.246,4,2590,lakegarda.com,IT,Europe,Southern Europe,Italy,Tuscany,Province of Arezzo,Arezzo
176.107.149.201,4,30,lamarzocco.com,IT,Europe,Southern Europe,Italy,Lombardy,Province of Bergamo,Ponte San Pietro
95.110.227.104,4,32,lamilano.it,IT,Europe,Southern Europe,Italy,Lombardy,Province of Bergamo,Ponte San Pietro
93.42.238.94,4,23,lamortella.org,IT,Europe,Southern Europe,Italy,Campania,Naples,Casoria
212.35.194.214,4,3,lanotiziagiornale.it,IT,Europe,Southern Europe,Italy,Lombardy,Milan,Milan
81.208.42.104,4,8,lanotterosa.it,IT,Europe,Southern Europe,Italy,Lombardy,Milan,Pantigliate
86.107.36.111,4,21362,lanuova.net,IT,Europe,Southern Europe,Italy,,,
93.95.221.23,4,3,lanuovaecologia.it,IT,Europe,Southern Europe,Italy,Lazio,Rome,Rome
95.110.132.193,4,15,lanuovaprovincia.it,IT,Europe,Southern Europe,Italy,Tuscany,Province of Arezzo,Arezzo
195.231.75.111,4,25,laprovinciadibiella.it,IT,Europe,Southern Europe,Italy,Lombardy,Province of Bergamo,Ponte San Pietro
80.88.87.175,4,559,larioenergy.net,IT,Europe,Southern Europe,Italy,Tuscany,Province of Arezzo,Arezzo
185.2.4.116,4,57,lasalona.es,IT,Europe,Southern Europe,Italy,,,
89.40.175.77,4,22,lavalledeitempli.it,IT,Europe,Southern Europe,Italy,Abruzzo,Province of Pescara,Pescara
185.221.173.196,4,24,lavalnerina.com,IT,Europe,Southern Europe,Italy,,,
89.31.200.25,4,3,lavocedialba.it,IT,Europe,Southern Europe,Italy,,,
89.31.200.26,4,2,lavocediasti.it,IT,Europe,Southern Europe,Italy,,,
149.3.145.20,4,2,lavocedivenezia.it,IT,Europe,Southern Europe,Italy,,,
194.76.118.24,4,3629,lavoroculturale.org,IT,Europe,Southern Europe,Italy,,,
46.30.247.188,4,4,lazzaris.com,IT,Europe,Southern Europe,Italy,,,
185.2.5.1,4,2,lebeccherie.it,IT,Europe,Southern Europe,Italy,,,
77.39.213.15,4,66,leccesette.it,IT,Europe,Southern Europe,Italy,,,
217.64.197.6,4,32,lecconotizie.com,IT,Europe,Southern Europe,Italy,Lazio,Province of Frosinone,Frosinone
85.235.139.116,4,13,ledicoladelsud.it,IT,Europe,Southern Europe,Italy,Tuscany,Province of Arezzo,Arezzo
176.107.150.184,4,67,lefayresorts.com,IT,Europe,Southern Europe,Italy,Lombardy,Province of Bergamo,Ponte San Pietro
5.249.135.96,4,114,lefayresorts.com,IT,Europe,Southern Europe,Italy,Tuscany,Province of Arezzo,Arezzo
212.35.217.161,4,42,lega-pro.com,IT,Europe,Southern Europe,Italy,Lombardy,Milan,Milan
46.252.153.202,4,35,legalweeddelivery.it,IT,Europe,Southern Europe,Italy,,,
80.88.84.244,4,695,legambiente.com,IT,Europe,Southern Europe,Italy,Tuscany,Province of Arezzo,Arezzo
80.211.115.101,4,1014,leganavale.it,IT,Europe,Southern Europe,Italy,Tuscany,Province of Arezzo,Arezzo
193.42.14.146,4,43,legatumoribg.it,IT,Europe,Southern Europe,Italy,,,
95.110.191.122,4,12,legavolleyfemminile.it,IT,Europe,Southern Europe,Italy,Lazio,Rome,Rome
80.88.87.192,4,112,lellaverde.it,IT,Europe,Southern Europe,Italy,Tuscany,Province of Arezzo,Arezzo
195.231.20.198,4,51,lentepubblica.it,IT,Europe,Southern Europe,Italy,,,
185.81.2.54,4,7,leonardo.it,IT,Europe,Southern Europe,Italy,Lazio,Rome,Rome
149.62.185.28,4,10,lercio.it,IT,Europe,Southern Europe,Italy,,,
212.35.196.18,4,66,lestanzedelvetro.org,IT,Europe,Southern Europe,Italy,Lombardy,Milan,Milan
84.33.9.3,4,-370,lettoquotidiano.it,IT,Europe,Southern Europe,Italy,,,
213.158.94.250,4,20,levitbuybest.com,IT,Europe,Southern Europe,Italy,,,
86.107.36.48,4,602,liberopensiero.eu,IT,Europe,Southern Europe,Italy,,,
46.252.147.218,4,3,libertasicilia.it,IT,Europe,Southern Europe,Italy,,,
193.27.202.154,4,34,libraccio.it,IT,Europe,Southern Europe,Italy,Lombardy,Milan,Milan
77.72.24.58,4,27,libraweb.net,IT,Europe,Southern Europe,Italy,,,
93.56.6.135,4,42,libreriauniversitaria.it,IT,Europe,Southern Europe,Italy,Lombardy,Monza Brianza,Giussano
84.33.1.189,4,2354,lice.it,IT,Europe,Southern Europe,Italy,,,
46.252.148.148,4,54,lifebeyondtourism.org,IT,Europe,Southern Europe,Italy,,,
194.76.116.135,4,1364,lifeintravel.it,IT,Europe,Southern Europe,Italy,,,
89.46.227.10,4,2,lifewolfalps.eu,IT,Europe,Southern Europe,Italy,,,
185.116.60.162,4,5,lindipendente.online,IT,Europe,Southern Europe,Italy,,,
185.116.60.161,4,6,lindipendente.online,IT,Europe,Southern Europe,Italy,,,
82.112.214.171,4,18,lineapelle-fair.it,IT,Europe,Southern Europe,Italy,Piedmont,Turin,Turin
212.35.217.209,4,3,linkware.it,IT,Europe,Southern Europe,Italy,Lombardy,Milan,Milan
213.254.12.150,4,21,linuxday.it,IT,Europe,Southern Europe,Italy,Piedmont,Province of Cuneo,Borgo San Dalmazzo
185.205.41.31,4,5,lisolachenoncera.it,IT,Europe,Southern Europe,Italy,,,
46.37.14.18,4,15,live-score.it,IT,Europe,Southern Europe,Italy,Tuscany,Province of Arezzo,Arezzo
195.96.198.22,4,5,liveticket.it,IT,Europe,Southern Europe,Italy,The Marches,Province of Ancona,Iesi
185.81.4.203,4,8,livornocalcio.it,IT,Europe,Southern Europe,Italy,Lazio,Rome,Rome
62.169.34.62,4,-5932,loa-cnr.it,IT,Europe,Southern Europe,Italy,Lombardy,Province of Brescia,Gavardo
86.107.32.153,4,615,localaromas.com,IT,Europe,Southern Europe,Italy,,,
149.62.185.88,4,7,localistorici.it,IT,Europe,Southern Europe,Italy,,,
195.231.67.171,4,336391,locandacipriani.com,IT,Europe,Southern Europe,Italy,Lombardy,Province of Bergamo,Ponte San Pietro
86.107.36.128,4,248,loccidentale.it,IT,Europe,Southern Europe,Italy,,,
46.252.147.230,4,68,lofficinadelsapere.it,IT,Europe,Southern Europe,Italy,,,
89.40.174.140,4,35,loremipzum.com,IT,Europe,Southern Europe,Italy,Abruzzo,Province of Pescara,Pescara
185.19.185.54,4,18,lospicchiodaglio.it,IT,Europe,Southern Europe,Italy,,,
193.42.14.120,4,6,lovatoelectric.com,IT,Europe,Southern Europe,Italy,,,
84.33.193.171,4,13,lpr.it,IT,Europe,Southern Europe,Italy,,,
185.2.4.64,4,6,ls2helmets.com,IT,Europe,Southern Europe,Italy,,,
185.81.2.105,4,5,lucartgroup.com,IT,Europe,Southern Europe,Italy,Lazio,Rome,Rome
185.186.95.30,4,746,luccacomicsandgames.com,IT,Europe,Southern Europe,Italy,,,
213.158.93.27,4,4,luceplan.com,IT,Europe,Southern Europe,Italy,,,
5.249.145.231,4,5,ludomedia.it,IT,Europe,Southern Europe,Italy,Tuscany,Province of Arezzo,Arezzo
81.31.156.113,4,78,luinonotizie.it,IT,Europe,Southern Europe,Italy,,,
217.194.2.54,4,4,lumsa.it,IT,Europe,Southern Europe,Italy,Lazio,Province of Frosinone,Frosinone
95.110.158.77,4,320052,lunarossachallenge.com,IT,Europe,Southern Europe,Italy,Tuscany,Province of Arezzo,Arezzo
188.213.164.165,4,75,macrolibrarsi.it,IT,Europe,Southern Europe,Italy,Tuscany,Province of Arezzo,Arezzo
185.2.4.45,4,2,madeirasightcasting.com,IT,Europe,Southern Europe,Italy,,,
89.40.173.113,4,537,magazineubcfumetti.com,IT,Europe,Southern Europe,Italy,Abruzzo,Province of Pescara,Pescara
85.235.130.60,4,12,magenta-mm.com,IT,Europe,Southern Europe,Italy,Tuscany,Province of Arezzo,Arezzo
213.215.222.200,4,35,magnetimarelli.com,IT,Europe,Southern Europe,Italy,Piedmont,Turin,Turin
94.177.199.235,4,117,mailmaster.it,IT,Europe,Southern Europe,Italy,Tuscany,Province of Arezzo,Arezzo
185.228.39.66,4,57,mailtrack.me,IT,Europe,Southern Europe,Italy,,,
149.3.148.56,4,76,malpensa24.it,IT,Europe,Southern Europe,Italy,,,
195.231.19.235,4,15,mann-napoli.it,IT,Europe,Southern Europe,Italy,,,
86.107.36.17,4,31,mantellini.it,IT,Europe,Southern Europe,Italy,,,
79.98.45.31,4,73,marconiexpress.it,IT,Europe,Southern Europe,Italy,Emilia-Romagna,Bologna,Imola
46.16.91.56,4,8,marisacuomo.com,IT,Europe,Southern Europe,Italy,Lazio,Rome,Rome
86.107.36.88,4,11472,masseriatorrecoccaro.com,IT,Europe,Southern Europe,Italy,,,
188.213.170.205,4,623,mastroberardino.com,IT,Europe,Southern Europe,Italy,Tuscany,Province of Arezzo,Arezzo
46.252.150.252,4,77,matera-basilicata2019.it,IT,Europe,Southern Europe,Italy,,,
93.95.221.77,4,32,materioteca.it,IT,Europe,Southern Europe,Italy,Lazio,Rome,Rome
213.158.93.6,4,11,mathcurve.com,IT,Europe,Southern Europe,Italy,,,
172.232.218.172,4,5,maxvalle.it,IT,Europe,Southern Europe,Italy,Lombardy,Milan,Milan
2.23.84.55,4,11,mbe.es,IT,Europe,Southern Europe,Italy,Lombardy,Milan,Milan
2.23.84.15,4,38,mbe.es,IT,Europe,Southern Europe,Italy,Lombardy,Milan,Milan
185.205.41.113,4,17,mediciperidirittiumani.org,IT,Europe,Southern Europe,Italy,,,
86.107.36.146,4,-9979,medieval.it,IT,Europe,Southern Europe,Italy,,,
89.40.173.145,4,-15,mediltech.com,IT,Europe,Southern Europe,Italy,Abruzzo,Province of Pescara,Pescara
95.110.134.48,4,107525,megamodo.com,IT,Europe,Southern Europe,Italy,Tuscany,Province of Arezzo,Arezzo
89.46.227.168,4,5,meiweb.it,IT,Europe,Southern Europe,Italy,,,
46.252.150.114,4,9,meltemieditore.it,IT,Europe,Southern Europe,Italy,,,
86.107.32.132,4,558,meridiananotizie.it,IT,Europe,Southern Europe,Italy,,,
89.40.172.227,4,8,meridionaltecna.it,IT,Europe,Southern Europe,Italy,Abruzzo,Province of Pescara,Pescara
109.233.129.156,4,39,messagenet.com,IT,Europe,Southern Europe,Italy,,,
217.146.204.12,4,9,metalwork.it,IT,Europe,Southern Europe,Italy,Lombardy,Province of Cremona,Cremona
178.255.79.71,4,-1247,metanoauto.com,IT,Europe,Southern Europe,Italy,,,
213.183.128.99,4,4,meteofuno.it,IT,Europe,Southern Europe,Italy,,,
80.88.87.249,4,383,meteopiateda.it,IT,Europe,Southern Europe,Italy,Tuscany,Province of Arezzo,Arezzo
89.46.225.101,4,10,metropolitanmagazine.it,IT,Europe,Southern Europe,Italy,,,
185.142.154.160,4,-273,miamarket.it,IT,Europe,Southern Europe,Italy,,,
86.107.36.45,4,946,micfaenza.org,IT,Europe,Southern Europe,Italy,,,
185.81.4.147,4,29,michelechiarlo.it,IT,Europe,Southern Europe,Italy,Lazio,Rome,Rome
46.252.158.108,4,4,microcredito.gov.it,IT,Europe,Southern Europe,Italy,,,
84.33.193.13,4,1117,milanlive.it,IT,Europe,Southern Europe,Italy,,,
185.19.185.57,4,4,milanoweekend.it,IT,Europe,Southern Europe,Italy,,,
46.252.146.26,4,3,milanowineweek.com,IT,Europe,Southern Europe,Italy,,,
185.2.4.82,4,29,milux.it,IT,Europe,Southern Europe,Italy,,,
46.252.155.48,4,33677,minimaetmoralia.it,IT,Europe,Southern Europe,Italy,,,
195.231.68.238,4,1680,ministeroturismo.gov.it,IT,Europe,Southern Europe,Italy,Lombardy,Province of Bergamo,Ponte San Pietro
77.39.213.148,4,21,miolegale.it,IT,Europe,Southern Europe,Italy,,,
149.3.145.252,4,34,mipel.com,IT,Europe,Southern Europe,Italy,,,
109.168.74.70,4,4,mirabileweb.it,IT,Europe,Southern Europe,Italy,Veneto,Province of Vicenza,Dueville
149.3.148.51,4,68,misna.org,IT,Europe,Southern Europe,Italy,,,
86.105.14.101,4,4,missoc.org,IT,Europe,Southern Europe,Italy,Sicily,Province of Palermo,Palermo
85.94.193.150,4,45,missonihome.com,IT,Europe,Southern Europe,Italy,Lombardy,Milan,Milan
217.171.46.55,4,-97671,mitsubishielectric.it,IT,Europe,Southern Europe,Italy,Lombardy,Milan,Milan
213.158.94.133,4,53,mittelfest.org,IT,Europe,Southern Europe,Italy,,,
81.31.158.18,4,8,mkportal.it,IT,Europe,Southern Europe,Italy,,,
46.254.38.21,4,7,mmbf.it,IT,Europe,Southern Europe,Italy,Lazio,Rome,Rome
185.2.4.114,4,5,mobile-security-ticketing.pt,IT,Europe,Southern Europe,Italy,,,
195.250.236.136,4,2,modellismo.it,IT,Europe,Southern Europe,Italy,Lazio,Rome,Rome
195.250.236.135,4,2,modellismo.net,IT,Europe,Southern Europe,Italy,Lazio,Rome,Rome
185.2.4.105,4,10,modenafc.net,IT,Europe,Southern Europe,Italy,,,
46.254.39.87,4,4,mohd.it,IT,Europe,Southern Europe,Italy,Lazio,Rome,Rome
95.110.145.91,4,16,moked.it,IT,Europe,Southern Europe,Italy,Tuscany,Province of Arezzo,Arezzo
80.211.237.85,4,27,molinari.it,IT,Europe,Southern Europe,Italy,Tuscany,Province of Arezzo,Arezzo
77.39.209.58,4,15,momo.it,IT,Europe,Southern Europe,Italy,,,
193.33.99.134,4,6,mondino.it,IT,Europe,Southern Europe,Italy,,,
95.141.32.27,4,6,mondo3.com,IT,Europe,Southern Europe,Italy,Lombardy,Milan,Milan
194.79.204.96,4,131,mondodigitale.org,IT,Europe,Southern Europe,Italy,Lazio,Rome,Rome
46.16.90.77,4,3901,mondomobileweb.it,IT,Europe,Southern Europe,Italy,Lazio,Rome,Rome
5.134.124.83,4,298,monferraglia.it,IT,Europe,Southern Europe,Italy,,,
176.221.51.67,4,18,monini.com,IT,Europe,Southern Europe,Italy,Piedmont,Turin,Turin
217.61.56.172,4,6,montebianco.com,IT,Europe,Southern Europe,Italy,Lombardy,Province of Bergamo,Ponte San Pietro
86.107.36.36,4,959,monumentiaperti.com,IT,Europe,Southern Europe,Italy,,,
212.35.217.64,4,29,monzanet.it,IT,Europe,Southern Europe,Italy,Lombardy,Milan,Milan
46.252.155.41,4,33639,morellinieditore.it,IT,Europe,Southern Europe,Italy,,,
80.88.88.240,4,61402,motoclub-tingavert.it,IT,Europe,Southern Europe,Italy,Tuscany,Province of Arezzo,Arezzo
46.254.39.108,4,-2,mototrial.it,IT,Europe,Southern Europe,Italy,Lazio,Rome,Rome
212.35.217.2,4,17,mou-online.com,IT,Europe,Southern Europe,Italy,Lombardy,Milan,Milan
217.61.63.132,4,48,movimentolento.it,IT,Europe,Southern Europe,Italy,Lombardy,Province of Bergamo,Ponte San Pietro
91.203.220.120,4,4,mpmarredamenti.it,IT,Europe,Southern Europe,Italy,,,
86.107.32.45,4,5,mr-pc.it,IT,Europe,Southern Europe,Italy,,,
93.95.216.171,4,7,mrwebmaster.it,IT,Europe,Southern Europe,Italy,Lazio,Rome,Rome
85.94.220.144,4,3,msf.it,IT,Europe,Southern Europe,Italy,Lazio,Province of Frosinone,Frosinone
109.168.97.34,4,387,mtmteatro.it,IT,Europe,Southern Europe,Italy,Lombardy,Milan,Milan
185.228.39.61,4,49,mtrack.me,IT,Europe,Southern Europe,Italy,,,
81.31.156.160,4,170,mulinocaputo.it,IT,Europe,Southern Europe,Italy,,,
93.43.47.140,4,-310905,muoversiaroma.it,IT,Europe,Southern Europe,Italy,Lombardy,Milan,Milan
185.2.4.113,4,60,museitrieste.it,IT,Europe,Southern Europe,Italy,,,
185.2.4.48,4,2,museoarcheologiconapoli.it,IT,Europe,Southern Europe,Italy,,,
86.107.36.13,4,6,museoauto.com,IT,Europe,Southern Europe,Italy,,,
86.107.36.109,4,533,museoauto.it,IT,Europe,Southern Europe,Italy,,,
77.39.209.51,4,8,museocanova.it,IT,Europe,Southern Europe,Italy,,,
86.107.32.150,4,-9728,museodelviolino.org,IT,Europe,Southern Europe,Italy,,,
193.206.220.200,4,6,museogalileo.it,IT,Europe,Southern Europe,Italy,Lazio,Rome,Rome
209.227.233.39,4,8,museoman.it,IT,Europe,Southern Europe,Italy,Lazio,Rome,Rome
62.149.173.117,4,1084,museomontagna.org,IT,Europe,Southern Europe,Italy,Lombardy,Province of Bergamo,Ponte San Pietro
93.186.244.80,4,8,museosetacomo.com,IT,Europe,Southern Europe,Italy,Tuscany,Province of Arezzo,Arezzo
212.237.20.226,4,2,museowow.it,IT,Europe,Southern Europe,Italy,Tuscany,Province of Arezzo,Arezzo
213.158.93.22,4,13,museumladin.it,IT,Europe,Southern Europe,Italy,,,
188.13.230.137,4,113,musicshoponline.com,IT,Europe,Southern Europe,Italy,Lombardy,Province of Varese,Marchirolo
185.81.4.132,4,21,mybestplace.com,IT,Europe,Southern Europe,Italy,Lazio,Rome,Rome
95.110.224.120,4,656,mygladix.org,IT,Europe,Southern Europe,Italy,Lombardy,Province of Bergamo,Ponte San Pietro
86.107.36.129,4,-15704,mysocialweb.it,IT,Europe,Southern Europe,Italy,,,
46.254.34.179,4,31,myweddy.it,IT,Europe,Southern Europe,Italy,Lazio,Rome,Rome
85.158.241.254,4,18,mywishlist.ru,IT,Europe,Southern Europe,Italy,,,
84.33.1.6,4,1167,nanopress.it,IT,Europe,Southern Europe,Italy,,,
62.149.215.190,4,721,napoli.com,IT,Europe,Southern Europe,Italy,Tuscany,Province of Arezzo,Arezzo
80.88.87.248,4,-390,nautorswan.com,IT,Europe,Southern Europe,Italy,Tuscany,Province of Arezzo,Arezzo
89.40.172.111,4,20,netsons.org,IT,Europe,Southern Europe,Italy,Abruzzo,Province of Pescara,Pescara
185.56.169.152,4,1490,neuromed.it,IT,Europe,Southern Europe,Italy,,,
149.62.187.144,4,102,nevecosmetics.it,IT,Europe,Southern Europe,Italy,,,
159.253.217.169,4,29,newburghgazette.com,IT,Europe,Southern Europe,Italy,,,
195.36.2.41,4,4,nexodigital.it,IT,Europe,Southern Europe,Italy,,,
46.28.2.29,4,5,nibirumail.com,IT,Europe,Southern Europe,Italy,Lazio,Rome,Rome
192.12.192.40,4,4168,nic.it,IT,Europe,Southern Europe,Italy,,,
185.221.174.147,4,1105,nienteansia.it,IT,Europe,Southern Europe,Italy,,,
195.231.66.243,4,7868,nigrizia.it,IT,Europe,Southern Europe,Italy,Lombardy,Province of Bergamo,Ponte San Pietro
194.185.40.90,4,958,nilox.com,IT,Europe,Southern Europe,Italy,Lombardy,Milan,Milan
176.111.173.132,4,310364,ninux.org,IT,Europe,Southern Europe,Italy,,,
95.110.131.16,4,7,nobili.it,IT,Europe,Southern Europe,Italy,Tuscany,Province of Arezzo,Arezzo
93.186.244.136,4,16,noidonne.org,IT,Europe,Southern Europe,Italy,Tuscany,Province of Arezzo,Arezzo
89.40.174.68,4,95,noifias.it,IT,Europe,Southern Europe,Italy,Abruzzo,Province of Pescara,Pescara
185.19.185.86,4,4,nomisma.it,IT,Europe,Southern Europe,Italy,,,
46.16.91.54,4,76,nonnapaperina.it,IT,Europe,Southern Europe,Italy,Lazio,Rome,Rome
95.110.159.30,4,1,nonsolocap.it,IT,Europe,Southern Europe,Italy,Tuscany,Province of Arezzo,Arezzo
185.78.66.122,4,8,nonsprecare.it,IT,Europe,Southern Europe,Italy,,,
185.17.106.190,4,927,noortravels.it,IT,Europe,Southern Europe,Italy,,,
93.95.216.64,4,33,notebookitalia.it,IT,Europe,Southern Europe,Italy,Lazio,Rome,Rome
195.231.60.33,4,12,notiziaoggi.it,IT,Europe,Southern Europe,Italy,Lombardy,Province of Bergamo,Bonate Sopra
81.208.42.66,4,788,novamont.com,IT,Europe,Southern Europe,Italy,Lombardy,Milan,Pantigliate
93.95.216.131,4,5,novobox.it,IT,Europe,Southern Europe,Italy,Lazio,Rome,Rome
62.94.74.180,4,17,ntr24.tv,IT,Europe,Southern Europe,Italy,Liguria,Province of La Spezia,Sarzana
2.18.254.147,4,8,nuanceaudio.com,IT,Europe,Southern Europe,Italy,Lombardy,Milan,Milan
80.88.87.178,4,558,nuovadirezionedidatticavasto.edu.it,IT,Europe,Southern Europe,Italy,Tuscany,Province of Arezzo,Arezzo
95.110.185.242,4,80141,nuovavimaplast.it,IT,Europe,Southern Europe,Italy,Lazio,Rome,Rome
46.16.91.115,4,11,nuovincontri.org,IT,Europe,Southern Europe,Italy,Lazio,Rome,Rome
81.31.158.39,4,27,nuoviprofili.com,IT,Europe,Southern Europe,Italy,,,
195.231.87.73,4,12,oasport.it,IT,Europe,Southern Europe,Italy,Lombardy,Province of Bergamo,Ponte San Pietro
185.56.218.202,4,-100,occhionotizie.it,IT,Europe,Southern Europe,Italy,,,
195.231.4.64,4,7,oceanreefgroup.com,IT,Europe,Southern Europe,Italy,,,
213.158.93.10,4,35,odeith.com,IT,Europe,Southern Europe,Italy,,,
192.71.245.69,4,31,odessa-daily.com.ua,IT,Europe,Southern Europe,Italy,Lombardy,Milan,Cologno Monzese
195.231.19.217,4,6,officinagrandi.it,IT,Europe,Southern Europe,Italy,,,
80.88.87.189,4,-84,officinalagana.it,IT,Europe,Southern Europe,Italy,Tuscany,Province of Arezzo,Arezzo
93.95.216.175,4,4,ofm.org,IT,Europe,Southern Europe,Italy,Lazio,Rome,Rome
93.95.216.102,4,13,oglioponews.it,IT,Europe,Southern Europe,Italy,Lazio,Rome,Rome
185.91.240.65,4,7,oikos.it,IT,Europe,Southern Europe,Italy,,,
95.110.224.59,4,33,okpedia.it,IT,Europe,Southern Europe,Italy,Lombardy,Province of Bergamo,Ponte San Pietro
195.231.70.165,4,19,oltremare.org,IT,Europe,Southern Europe,Italy,Lombardy,Province of Bergamo,Ponte San Pietro
94.177.195.150,4,121,omnimoto.it,IT,Europe,Southern Europe,Italy,Tuscany,Province of Arezzo,Arezzo
46.28.0.25,4,6,ondanews.it,IT,Europe,Southern Europe,Italy,Lazio,Rome,Rome
93.186.247.18,4,29,ondarock.it,IT,Europe,Southern Europe,Italy,Tuscany,Province of Arezzo,Arezzo
213.212.133.252,4,12,onuitalia.it,IT,Europe,Southern Europe,Italy,,,
195.96.192.202,4,358,Ookla Speedtest Server 1324: speedtest.fastnet.it,IT,Europe,Southern Europe,Italy,The Marches,Province of Ancona,Iesi
212.66.97.26,4,327,Ookla Speedtest Server 2275: speedtest.panservice.it,IT,Europe,Southern Europe,Italy,Lazio,Provincia di Latina,Latina
194.116.76.88,4,376,Ookla Speedtest Server 2316: speedtest1.top-ix.org,IT,Europe,Southern Europe,Italy,Piedmont,Turin,Turin
46.234.238.142,4,-876543,Ookla Speedtest Server 3284: speedtest.brennercom.net,IT,Europe,Southern Europe,Italy,Trentino-Alto Adige,South Tyrol,Cornedo All'Isarco
109.73.80.190,4,302,Ookla Speedtest Server 3301: speedtest.connesi.it,IT,Europe,Southern Europe,Italy,Umbria,Province of Perugia,Foligno
46.141.33.186,4,383,Ookla Speedtest Server 3998: speedtest.wolnet.it,IT,Europe,Southern Europe,Italy,Veneto,Province of Verona,Villafranca di Verona
213.212.129.36,4,224,Ookla Speedtest Server 4564: speedtest.itgate.net,IT,Europe,Southern Europe,Italy,,,
185.26.198.132,4,248,Ookla Speedtest Server 5914: speedtest.4isp.it,IT,Europe,Southern Europe,Italy,,,
62.102.152.34,4,345,Ookla Speedtest Server 6129: st1.admmax.com,IT,Europe,Southern Europe,Italy,Lazio,Rome,Guidonia Montecelio
185.44.215.252,4,349,Ookla Speedtest Server 6339: speedtest.3psystem.net,IT,Europe,Southern Europe,Italy,Veneto,Venice,Fiesso d'Artico
185.40.212.20,4,386,Ookla Speedtest Server 7020: speedtest.net.nhm.it,IT,Europe,Southern Europe,Italy,Campania,Province of Caserta,Aversa
185.124.180.2,4,461,Ookla Speedtest Server 7347: speedtestsalerno.wirlabtlc.com,IT,Europe,Southern Europe,Italy,Campania,Naples,Boscoreale
185.167.112.21,4,378,Ookla Speedtest Server 8289: speedtest.flynet.it,IT,Europe,Southern Europe,Italy,Veneto,Province of Vicenza,Rosà
185.109.24.10,4,318,Ookla Speedtest Server 8651: speedtest1.siriustec.it,IT,Europe,Southern Europe,Italy,Tuscany,Province of Pistoia,Pistoia
185.30.112.254,4,348,Ookla Speedtest Server 9967: st3.admmax.com,IT,Europe,Southern Europe,Italy,Lazio,Rome,San Cesareo
178.255.116.57,4,450,Ookla Speedtest Server 12799: speedtest.teleimpiantisrl.net,IT,Europe,Southern Europe,Italy,,,
185.49.249.129,4,-9025250,Ookla Speedtest Server 14671: rm.speedtest.warian.net,IT,Europe,Southern Europe,Italy,Molise,Province of Campobasso,San Massimo
185.100.33.18,4,18471,Ookla Speedtest Server 15920: speedtest1.interfibra.it,IT,Europe,Southern Europe,Italy,Molise,Province of Isernia,Isernia
185.215.140.10,4,205,Ookla Speedtest Server 17155: speedtest1.farecom.it,IT,Europe,Southern Europe,Italy,Campania,Province of Salerno,Campagna
185.231.208.12,4,-790622,Ookla Speedtest Server 17277: st1.connetta.it,IT,Europe,Southern Europe,Italy,Lazio,Province of Frosinone,Sora
185.144.120.34,4,189,Ookla Speedtest Server 17928: serverookla.wishnet.it,IT,Europe,Southern Europe,Italy,Sicily,Province of Agrigento,Sambuca di Sicilia
195.32.96.11,4,170,Ookla Speedtest Server 18697: ookla.navigaliberamente.it,IT,Europe,Southern Europe,Italy,Sicily,Province of Messina,Mistretta
185.251.127.208,4,141,Ookla Speedtest Server 19079: speedtest.microservizi.com,IT,Europe,Southern Europe,Italy,Sicily,Syracuse,Francofonte
176.58.82.65,4,196718,Ookla Speedtest Server 19953: na.speedtest.warian.net,IT,Europe,Southern Europe,Italy,Campania,Naples,Nola
46.37.230.50,4,322,Ookla Speedtest Server 20680: speedtest.iptelecom.it,IT,Europe,Southern Europe,Italy,The Marches,Ascoli Piceno,Ascoli Piceno
37.200.80.18,4,279,Ookla Speedtest Server 20809: speedtest.freecomsrl.com,IT,Europe,Southern Europe,Italy,Sicily,Province of Ragusa,Comiso
185.26.64.36,4,278,Ookla Speedtest Server 20937: speedtest-1.apvinvestimenti.it,IT,Europe,Southern Europe,Italy,,,
5.61.220.239,4,230,Ookla Speedtest Server 21160: test.netoip.com,IT,Europe,Southern Europe,Italy,The Marches,Province of Ancona,Ancona
185.25.204.14,4,233,Ookla Speedtest Server 21272: test-mi.netoip.com,IT,Europe,Southern Europe,Italy,Lombardy,Milan,Milan
194.36.75.14,4,330,Ookla Speedtest Server 22857: srv-st03.arcolink.it,IT,Europe,Southern Europe,Italy,Tuscany,Province of Florence,Empoli
185.110.20.18,4,241,Ookla Speedtest Server 24175: speedtest.extnet.it,IT,Europe,Southern Europe,Italy,Apulia,Bari,Altamura
194.36.75.88,4,300,Ookla Speedtest Server 29947: srv-st07.arcolink.it,IT,Europe,Southern Europe,Italy,Tuscany,Province of Florence,Empoli
194.36.75.6,4,353,Ookla Speedtest Server 29953: srv-st08.arcolink.it,IT,Europe,Southern Europe,Italy,Tuscany,Province of Florence,Empoli
178.255.116.52,4,328,Ookla Speedtest Server 31496: speedcisterna.teleimpiantisrl.net,IT,Europe,Southern Europe,Italy,,,
178.255.116.54,4,353,Ookla Speedtest Server 31497: speednettuno.teleimpiantisrl.net,IT,Europe,Southern Europe,Italy,,,
178.255.116.53,4,313,Ookla Speedtest Server 31498: speedcori.teleimpiantisrl.net,IT,Europe,Southern Europe,Italy,,,
178.255.116.56,4,425,Ookla Speedtest Server 31499: speedsabaudia.teleimpiantisrl.net,IT,Europe,Southern Europe,Italy,,,
178.255.116.55,4,407,Ookla Speedtest Server 31500: speedpriverno.teleimpiantisrl.net,IT,Europe,Southern Europe,Italy,,,
178.255.116.58,4,315,Ookla Speedtest Server 31502: speedvelletri.teleimpiantisrl.net,IT,Europe,Southern Europe,Italy,,,
91.231.164.108,4,365,Ookla Speedtest Server 31610: speedtest.libradsl.it,IT,Europe,Southern Europe,Italy,Campania,Province of Caserta,Casapulla
185.96.128.58,4,327,Ookla Speedtest Server 31718: speedtest.aircomservice.net,IT,Europe,Southern Europe,Italy,Emilia-Romagna,Province of Rimini,Montefiore Conca
195.39.194.14,4,349,Ookla Speedtest Server 33953: speedtest.uania.cloud,IT,Europe,Southern Europe,Italy,Lombardy,Milan,Cinisello Balsamo
185.82.225.142,4,342,Ookla Speedtest Server 38037: speed.mylinkfd.it,IT,Europe,Southern Europe,Italy,Veneto,Province of Verona,Vigasio
194.156.190.3,4,331,Ookla Speedtest Server 38595: speedtest.ets-sistemi.it,IT,Europe,Southern Europe,Italy,Calabria,Province of Crotone,Crotone
46.20.91.252,4,367,Ookla Speedtest Server 38731: dgtookla01.fibering.com,IT,Europe,Southern Europe,Italy,Lombardy,Milan,Truccazzano
82.85.56.164,4,356,Ookla Speedtest Server 39178: ookla-rm.tech.tiscali.it,IT,Europe,Southern Europe,Italy,Calabria,Province of Reggio Calabria,Caulonia
31.14.130.68,4,434,Ookla Speedtest Server 40515: it1.speedtest.aruba.it,IT,Europe,Southern Europe,Italy,Tuscany,Province of Arezzo,Arezzo
217.61.40.76,4,435,Ookla Speedtest Server 40519: it3.speedtest.aruba.it,IT,Europe,Southern Europe,Italy,Lombardy,Province of Bergamo,Ponte San Pietro
45.130.85.29,4,365,Ookla Speedtest Server 42070: speedtestit.pvdatanet.com,IT,Europe,Southern Europe,Italy,Lombardy,Milan,Milan
91.227.109.99,4,406,Ookla Speedtest Server 42512: speedtest.antennadsl.com,IT,Europe,Southern Europe,Italy,Lazio,Province of Viterbo,Viterbo
91.227.109.98,4,321,Ookla Speedtest Server 42544: speedtest-vt.antennadsl.com,IT,Europe,Southern Europe,Italy,Lazio,Province of Viterbo,Viterbo
185.148.101.2,4,402,Ookla Speedtest Server 45482: speed1.techdigital.it,IT,Europe,Southern Europe,Italy,Apulia,Bari,Altamura
185.77.49.39,4,212,Ookla Speedtest Server 48938: st1.globalcombasilicata.it,IT,Europe,Southern Europe,Italy,Basilicate,Province of Potenza,Lauria
113.30.150.12,4,5623,Ookla Speedtest Server 52556: speedtest.eu-ml.kamatera.com,IT,Europe,Southern Europe,Italy,Lombardy,Milan,Milan
82.85.147.132,4,233,Ookla Speedtest Server 53173: ookla-ca.tech.tiscali.it,IT,Europe,Southern Europe,Italy,Sardinia,Province of Oristano,Simaxis
46.28.121.114,4,239,Ookla Speedtest Server 54292: speedtest-vi.wifiweb.it,IT,Europe,Southern Europe,Italy,Veneto,Province of Vicenza,Villaverla
46.28.121.118,4,180,Ookla Speedtest Server 54323: speedtest-pd.wifiweb.it,IT,Europe,Southern Europe,Italy,Veneto,Province of Vicenza,Villaverla
176.126.175.76,4,252,Ookla Speedtest Server 54347: fiber23.it,IT,Europe,Southern Europe,Italy,Lazio,Rome,Rome
89.21.196.251,4,124,Ookla Speedtest Server 55199: speedtest.convergenze.it,IT,Europe,Southern Europe,Italy,Campania,Province of Salerno,Capaccio
94.126.12.11,4,144,Ookla Speedtest Server 55373: speedtest-valdagno.wifiweb.it,IT,Europe,Southern Europe,Italy,Veneto,Province of Vicenza,Recoaro Terme
46.28.121.115,4,148,Ookla Speedtest Server 55457: speedtest-sossano.wifiweb.it,IT,Europe,Southern Europe,Italy,Veneto,Province of Vicenza,Villaverla
46.28.121.117,4,260,Ookla Speedtest Server 55459: speedtest-brendola.wifiweb.it,IT,Europe,Southern Europe,Italy,Veneto,Province of Vicenza,Villaverla
185.178.9.244,4,305,Ookla Speedtest Server 56269: speedtest.unicasmart.it,IT,Europe,Southern Europe,Italy,Campania,Province of Avellino,Ariano Irpino
31.185.23.6,4,297,Ookla Speedtest Server 57465: speedtestmi001pg.tecnoadsl.it,IT,Europe,Southern Europe,Italy,Umbria,Province of Perugia,Perugia
185.19.140.119,4,426,Ookla Speedtest Server 58728: speedtest2.baleno.it,IT,Europe,Southern Europe,Italy,Calabria,Province of Catanzaro,Serrastretta
31.185.23.10,4,331,Ookla Speedtest Server 60382: speedtestri.mi002.tecnoadsl.it,IT,Europe,Southern Europe,Italy,Umbria,Province of Perugia,Perugia
95.231.252.179,4,2529,Ookla Speedtest Server 62611: speedtest2.premierenet.it,IT,Europe,Southern Europe,Italy,,,
185.240.106.30,4,331,Ookla Speedtest Server 62651: speedtestonetek.premierenet.it,IT,Europe,Southern Europe,Italy,Calabria,Province of Cosenza,Santa Maria del Cedro
185.40.215.2,4,318,Ookla Speedtest Server 63966: speedtest.mi.net.nhm.it,IT,Europe,Southern Europe,Italy,Lombardy,Milan,Milan
176.58.82.73,4,3886103,Ookla Speedtest Server: bri.speedtest.warian.net,IT,Europe,Southern Europe,Italy,Campania,Naples,Nola
194.183.16.174,4,352,Ookla Speedtest Server: speed.unidata.it,IT,Europe,Southern Europe,Italy,Lazio,Rome,Rome
217.112.96.250,4,-4222589,Ookla Speedtest Server: speedtest.ivoweb.it,IT,Europe,Southern Europe,Italy,Tuscany,Province of Siena,Siena
31.7.144.154,4,10,Ookla Speedtest Server: speedtest.positivonet.it,IT,Europe,Southern Europe,Italy,Campania,Province of Salerno,Salerno
85.116.135.230,4,52,Ookla Speedtest Server: speedtest.teknonet.it,IT,Europe,Southern Europe,Italy,The Marches,Ascoli Piceno,San Benedetto del Tronto
62.69.131.4,4,43,Ookla Speedtest Server: speedtest.wicity.it,IT,Europe,Southern Europe,Italy,Apulia,Provincia di Lecce,Cavallino
185.171.36.10,4,174,Ookla Speedtest Server: speedtestmm01.interplanet.it,IT,Europe,Southern Europe,Italy,Veneto,Province of Verona,San Bonifacio
217.171.46.93,4,-4510,Ookla Speedtest Server: speedy.cdlan.net,IT,Europe,Southern Europe,Italy,Lombardy,Milan,Milan
5.134.122.118,4,8,opbyte.it,IT,Europe,Southern Europe,Italy,,,
80.211.139.78,4,38,opencaching.us,IT,Europe,Southern Europe,Italy,Tuscany,Province of Arezzo,Arezzo
185.205.41.249,4,-10,operapadrepio.it,IT,Europe,Southern Europe,Italy,,,
185.81.6.28,4,73,ordineavvocatimilano.it,IT,Europe,Southern Europe,Italy,Lazio,Rome,Rome
194.183.4.19,4,22,originalmarines.com,IT,Europe,Southern Europe,Italy,Lazio,Rome,Rome
194.183.4.26,4,8,originalmarines.com,IT,Europe,Southern Europe,Italy,Lazio,Rome,Rome
84.33.192.13,4,-459,orizzontenergia.it,IT,Europe,Southern Europe,Italy,,,
217.61.43.22,4,3675,orologi-rolex.it,IT,Europe,Southern Europe,Italy,Lombardy,Province of Bergamo,Ponte San Pietro
178.255.74.101,4,430,oroscopissimi.it,IT,Europe,Southern Europe,Italy,,,
80.88.84.220,4,5,orvietonews.it,IT,Europe,Southern Europe,Italy,Tuscany,Province of Arezzo,Arezzo
86.107.36.145,4,169,ospedaleniguarda.it,IT,Europe,Southern Europe,Italy,,,
194.132.31.85,4,219,ossuary.eu,IT,Europe,Southern Europe,Italy,Lazio,Rome,Rome
185.81.4.109,4,56,osteriamelograno.it,IT,Europe,Southern Europe,Italy,Lazio,Rome,Rome
46.252.148.242,4,260,other-news.info,IT,Europe,Southern Europe,Italy,,,
89.40.174.184,4,20,oubliettemagazine.com,IT,Europe,Southern Europe,Italy,Abruzzo,Province of Pescara,Pescara
80.88.87.243,4,656,pablos.it,IT,Europe,Southern Europe,Italy,Tuscany,Province of Arezzo,Arezzo
86.107.36.11,4,12,pacinieditore.it,IT,Europe,Southern Europe,Italy,,,
185.56.218.127,4,1073,padelfip.com,IT,Europe,Southern Europe,Italy,,,
185.221.174.49,4,906,pagina99.it,IT,Europe,Southern Europe,Italy,,,
93.186.242.179,4,4,paginainizio.com,IT,Europe,Southern Europe,Italy,Tuscany,Province of Arezzo,Arezzo
217.64.197.245,4,33,paginemediche.it,IT,Europe,Southern Europe,Italy,Lazio,Province of Frosinone,Frosinone
212.237.7.166,4,70,palazzoblu.it,IT,Europe,Southern Europe,Italy,Tuscany,Province of Arezzo,Arezzo
2.16.22.200,4,17,palazzochigi.it,IT,Europe,Southern Europe,Italy,Lombardy,Milan,Milan
2.18.254.202,4,9,palazzochigi.it,IT,Europe,Southern Europe,Italy,Lombardy,Milan,Milan
185.221.174.12,4,268,palazzomediciriccardi.it,IT,Europe,Southern Europe,Italy,,,
89.46.228.62,4,74,palazzorealedinapoli.org,IT,Europe,Southern Europe,Italy,,,
213.158.93.18,4,61,palazzoroverella.com,IT,Europe,Southern Europe,Italy,,,
185.221.172.182,4,730,palazzostrozzi.org,IT,Europe,Southern Europe,Italy,,,
80.88.161.202,4,484,palazzote.it,IT,Europe,Southern Europe,Italy,Lombardy,Province of Mantua,Mantova
194.76.116.191,4,2846,palermitanoscacchi.it,IT,Europe,Southern Europe,Italy,,,
86.107.32.147,4,33,palombaserafini.com,IT,Europe,Southern Europe,Italy,,,
185.56.218.212,4,340412,pambianconews.com,IT,Europe,Southern Europe,Italy,,,
46.252.153.118,4,5,pandorarivista.it,IT,Europe,Southern Europe,Italy,,,
80.88.87.215,4,410,panevinomilano.com,IT,Europe,Southern Europe,Italy,Tuscany,Province of Arezzo,Arezzo
86.107.36.101,4,-9267,pangeaonlus.org,IT,Europe,Southern Europe,Italy,,,
212.66.96.16,4,308,panservice.it,IT,Europe,Southern Europe,Italy,Lazio,Provincia di Latina,Latina
86.107.36.117,4,10053,paolinocapri.com,IT,Europe,Southern Europe,Italy,,,
213.158.94.135,4,15,parcoarcheologicoappiaantica.it,IT,Europe,Southern Europe,Italy,,,
185.19.184.178,4,58,parcoartevivente.it,IT,Europe,Southern Europe,Italy,,,
46.252.151.232,4,3,parcoetna.it,IT,Europe,Southern Europe,Italy,,,
185.169.25.5,4,3,parconaturaviva.it,IT,Europe,Southern Europe,Italy,,,
195.231.22.127,4,4,parcosila.it,IT,Europe,Southern Europe,Italy,,,
185.205.41.143,4,69,paroledascoprire.it,IT,Europe,Southern Europe,Italy,,,
213.158.93.17,4,75,pascualserrano.net,IT,Europe,Southern Europe,Italy,,,
62.149.215.60,4,743,pasta-garofalo.com,IT,Europe,Southern Europe,Italy,Tuscany,Province of Arezzo,Arezzo
62.149.215.39,4,660,pastagarofalo.it,IT,Europe,Southern Europe,Italy,Tuscany,Province of Arezzo,Arezzo
185.2.5.60,4,9,pastarummo.it,IT,Europe,Southern Europe,Italy,,,
185.25.207.58,4,9,peach.cool,IT,Europe,Southern Europe,Italy,,,
46.252.150.103,4,27,peeta.net,IT,Europe,Southern Europe,Italy,,,
46.254.38.64,4,1,pelatelli.com,IT,Europe,Southern Europe,Italy,Lazio,Rome,Rome
213.158.93.36,4,87,pensionurkia.com,IT,Europe,Southern Europe,Italy,,,
93.191.241.47,4,4935,percorsiconibambini.it,IT,Europe,Southern Europe,Italy,,,
195.231.27.4,4,38,periodismohumano.com,IT,Europe,Southern Europe,Italy,,,
80.88.84.232,4,52,perlapace.it,IT,Europe,Southern Europe,Italy,Tuscany,Province of Arezzo,Arezzo
46.252.150.62,4,39,permanentpeoplestribunal.org,IT,Europe,Southern Europe,Italy,,,
212.39.9.98,4,542436,perugiatiming.com,IT,Europe,Southern Europe,Italy,Umbria,Province of Perugia,Foligno
85.94.203.210,4,-61,pgdue.com,IT,Europe,Southern Europe,Italy,Lombardy,Milan,Milan
217.70.144.247,4,-1110,pharmastar.it,IT,Europe,Southern Europe,Italy,,,
89.40.174.137,4,37,photobasement.com,IT,Europe,Southern Europe,Italy,Abruzzo,Province of Pescara,Pescara
77.43.91.48,4,29042,photocity.it,IT,Europe,Southern Europe,Italy,Lazio,Rome,Rome
89.40.173.56,4,464,photographers.it,IT,Europe,Southern Europe,Italy,Abruzzo,Province of Pescara,Pescara
158.58.172.4,4,50,pianetabambini.it,IT,Europe,Southern Europe,Italy,Lombardy,Milan,Milan
84.33.192.223,4,-448,pianetacellulare.it,IT,Europe,Southern Europe,Italy,,,
94.177.174.140,4,2229912,piattaformasolidale.it,IT,Europe,Southern Europe,Italy,Tuscany,Province of Arezzo,Arezzo
193.33.99.113,4,12,piazzaduomoalba.it,IT,Europe,Southern Europe,Italy,,,
46.37.14.19,4,25,piazze.it,IT,Europe,Southern Europe,Italy,Tuscany,Province of Arezzo,Arezzo
95.110.225.244,4,-54555,picamemag.com,IT,Europe,Southern Europe,Italy,Lombardy,Province of Bergamo,Ponte San Pietro
5.134.126.114,4,11,pink-floyd.org,IT,Europe,Southern Europe,Italy,,,
185.2.4.72,4,4,pinko.it,IT,Europe,Southern Europe,Italy,,,
93.95.216.128,4,17,piossasco5stelle.it,IT,Europe,Southern Europe,Italy,Lazio,Rome,Rome
77.39.210.216,4,11,piscinecastiglione.it,IT,Europe,Southern Europe,Italy,,,
95.110.252.45,4,681,placetobet.net,IT,Europe,Southern Europe,Italy,Lombardy,Province of Bergamo,Ponte San Pietro
149.3.148.209,4,12,pleinair.it,IT,Europe,Southern Europe,Italy,,,
84.33.193.9,4,19,plose.org,IT,Europe,Southern Europe,Italy,,,
185.145.193.18,4,114,plpl.it,IT,Europe,Southern Europe,Italy,Lombardy,Milan,Milan
185.201.65.124,4,6,plumen.com,IT,Europe,Southern Europe,Italy,,,
217.194.6.170,4,14,pluto.it,IT,Europe,Southern Europe,Italy,Lazio,Province of Frosinone,Frosinone
188.164.128.231,4,24,poems-and-quotes.com,IT,Europe,Southern Europe,Italy,,,
80.211.129.70,4,-6209,polistampa.com,IT,Europe,Southern Europe,Italy,Tuscany,Province of Arezzo,Arezzo
185.2.5.11,4,4,polkascan.org,IT,Europe,Southern Europe,Italy,,,
185.114.108.108,4,101,polovw.it,IT,Europe,Southern Europe,Italy,,,
46.252.146.202,4,224,ponderosa.it,IT,Europe,Southern Europe,Italy,,,
185.81.2.16,4,19,porte-legno-massello.it,IT,Europe,Southern Europe,Italy,Lazio,Rome,Rome
46.28.0.26,4,31,portoantico.it,IT,Europe,Southern Europe,Italy,Lazio,Rome,Rome
86.107.32.26,4,68,porziuncola.org,IT,Europe,Southern Europe,Italy,,,
93.186.242.84,4,72,powersoft-audio.com,IT,Europe,Southern Europe,Italy,Tuscany,Province of Arezzo,Arezzo
185.2.4.144,4,80,praiseworthyprize.org,IT,Europe,Southern Europe,Italy,,,
151.11.81.26,4,-1066,pramac.com,IT,Europe,Southern Europe,Italy,Tuscany,Province of Pistoia,Chiesina Uzzanese
46.37.14.16,4,57,prestitoweb.it,IT,Europe,Southern Europe,Italy,Tuscany,Province of Arezzo,Arezzo
46.37.14.11,4,18,previsionideltempo.it,IT,Europe,Southern Europe,Italy,Tuscany,Province of Arezzo,Arezzo
64.64.109.18,4,18,primedissertations.com,IT,Europe,Southern Europe,Italy,,,
185.2.5.21,4,26,primefitness.it,IT,Europe,Southern Europe,Italy,,,
185.2.4.103,4,39,printedita.it,IT,Europe,Southern Europe,Italy,,,
185.205.41.118,4,104,progettoelisa.it,IT,Europe,Southern Europe,Italy,,,
86.107.32.157,4,192,progettomatrimonio.it,IT,Europe,Southern Europe,Italy,,,
81.31.149.128,4,7,progrip.com,IT,Europe,Southern Europe,Italy,,,
62.149.173.4,4,906,proiezionidiborsa.it,IT,Europe,Southern Europe,Italy,Lombardy,Province of Bergamo,Ponte San Pietro
195.88.4.79,4,23,prometeus.net,IT,Europe,Southern Europe,Italy,,,
81.29.208.212,4,14357444,prosciuttodiparma.com,IT,Europe,Southern Europe,Italy,,,
80.88.87.247,4,715,prosecco.it,IT,Europe,Southern Europe,Italy,Tuscany,Province of Arezzo,Arezzo
185.205.41.27,4,49,protecgroup.it,IT,Europe,Southern Europe,Italy,,,
46.252.149.88,4,220,publicpolicy.it,IT,Europe,Southern Europe,Italy,,,
46.37.14.40,4,58,publinord.com,IT,Europe,Southern Europe,Italy,Tuscany,Province of Arezzo,Arezzo
86.107.36.55,4,429,puccinifestival.it,IT,Europe,Southern Europe,Italy,,,
185.201.65.36,4,25,puccinimuseum.org,IT,Europe,Southern Europe,Italy,,,
194.76.118.188,4,5,pugliapress.org,IT,Europe,Southern Europe,Italy,,,
185.81.4.118,4,18,puntarellarossa.it,IT,Europe,Southern Europe,Italy,Lazio,Rome,Rome
185.2.6.27,4,4,purecork.ie,IT,Europe,Southern Europe,Italy,,,
93.191.241.251,4,570,pusc.it,IT,Europe,Southern Europe,Italy,,,
2.228.72.55,4,558,python.it,IT,Europe,Southern Europe,Italy,Apulia,Bari,Corato
185.81.4.119,4,3,qdpnews.it,IT,Europe,Southern Europe,Italy,Lazio,Rome,Rome
185.25.207.29,4,11,qualivita.it,IT,Europe,Southern Europe,Italy,,,
46.252.152.246,4,8,quayola.com,IT,Europe,Southern Europe,Italy,,,
85.94.215.61,4,11,questionegiustizia.it,IT,Europe,Southern Europe,Italy,Lazio,Province of Frosinone,Frosinone
185.25.204.83,4,12,quicosenza.it,IT,Europe,Southern Europe,Italy,Lombardy,Milan,Milan
46.252.150.121,4,13,quiky.it,IT,Europe,Southern Europe,Italy,,,
86.107.36.105,4,2013,quinlan.it,IT,Europe,Southern Europe,Italy,,,
185.221.174.15,4,0,quotidianodelsud.it,IT,Europe,Southern Europe,Italy,,,
149.62.191.181,4,5,quotidianodiragusa.it,IT,Europe,Southern Europe,Italy,,,
95.141.32.204,4,91,raceskimagazine.it,IT,Europe,Southern Europe,Italy,Lombardy,Milan,Milan
185.2.4.125,4,67,radiocaroline.co.uk,IT,Europe,Southern Europe,Italy,,,
94.177.174.183,4,68,radiocittaperta.it,IT,Europe,Southern Europe,Italy,Tuscany,Province of Arezzo,Arezzo
46.254.36.218,4,134,radiocolonna.it,IT,Europe,Southern Europe,Italy,Lazio,Rome,Rome
185.201.65.169,4,-6,radiolaquila1.it,IT,Europe,Southern Europe,Italy,,,
46.37.24.63,4,37,radionovelli.it,IT,Europe,Southern Europe,Italy,Tuscany,Province of Arezzo,Arezzo
80.88.84.242,4,1044,radiopico.it,IT,Europe,Southern Europe,Italy,Tuscany,Province of Arezzo,Arezzo
212.237.29.67,4,22150,radiopuntonuovo.it,IT,Europe,Southern Europe,Italy,Tuscany,Province of Arezzo,Arezzo
89.40.174.32,4,18,raduni.org,IT,Europe,Southern Europe,Italy,Abruzzo,Province of Pescara,Pescara
94.177.202.112,4,20,railfaneurope.net,IT,Europe,Southern Europe,Italy,Tuscany,Province of Arezzo,Arezzo
93.95.221.133,4,57,ramazzotti.com,IT,Europe,Southern Europe,Italy,Lazio,Rome,Rome
95.110.222.131,4,6,ravaglioli.com,IT,Europe,Southern Europe,Italy,Lombardy,Province of Bergamo,Ponte San Pietro
212.66.96.20,4,9,ravellofestival.com,IT,Europe,Southern Europe,Italy,Lazio,Provincia di Latina,Latina
213.209.214.8,4,53,ravennamosaici.it,IT,Europe,Southern Europe,Italy,Emilia-Romagna,Province of Ferrara,Ferrara
80.211.96.38,4,27,raymii.org,IT,Europe,Southern Europe,Italy,Tuscany,Province of Arezzo,Arezzo
213.158.94.168,4,8,rbe.it,IT,Europe,Southern Europe,Italy,,,
185.221.175.17,4,627,rcrevolution.net,IT,Europe,Southern Europe,Italy,,,
193.43.199.117,4,33,rdueb.it,IT,Europe,Southern Europe,Italy,Emilia-Romagna,Province of Forlì-Cesena,Forlì
185.2.4.122,4,26,rebelnews.ie,IT,Europe,Southern Europe,Italy,,,
86.107.36.38,4,585,recommon.org,IT,Europe,Southern Europe,Italy,,,
80.88.84.240,4,945,redcircuits.com,IT,Europe,Southern Europe,Italy,Tuscany,Province of Arezzo,Arezzo
213.158.94.184,4,32,reggianacalcio.it,IT,Europe,Southern Europe,Italy,,,
185.2.4.44,4,49,reginachain.net,IT,Europe,Southern Europe,Italy,,,
94.177.182.121,4,104,registri-tumori.it,IT,Europe,Southern Europe,Italy,Tuscany,Province of Arezzo,Arezzo
86.107.32.163,4,7,rema-eemn.net,IT,Europe,Southern Europe,Italy,,,
89.40.173.242,4,192,remothered.com,IT,Europe,Southern Europe,Italy,Abruzzo,Province of Pescara,Pescara
77.81.230.185,4,30,repetidora.ar,IT,Europe,Southern Europe,Italy,Tuscany,Province of Arezzo,Arezzo
46.252.157.33,4,60,reportdifesa.it,IT,Europe,Southern Europe,Italy,,,
93.186.242.185,4,6,reportergourmet.com,IT,Europe,Southern Europe,Italy,Tuscany,Province of Arezzo,Arezzo
149.3.148.145,4,4,reportpistoia.com,IT,Europe,Southern Europe,Italy,,,
185.2.6.17,4,2,repromart.com,IT,Europe,Southern Europe,Italy,,,
185.2.5.30,4,16,reseau-cotravaux.org,IT,Europe,Southern Europe,Italy,,,
93.95.216.132,4,43,reseauvoltaire.net,IT,Europe,Southern Europe,Italy,Lazio,Rome,Rome
91.193.5.232,4,692,reset-service.com,IT,Europe,Southern Europe,Italy,Lombardy,Milan,Milan
46.252.158.43,4,20,residencemareo.com,IT,Europe,Southern Europe,Italy,,,
89.46.225.93,4,51,restructura.com,IT,Europe,Southern Europe,Italy,,,
86.107.99.182,4,19,retegas.org,IT,Europe,Southern Europe,Italy,Abruzzo,Province of Pescara,Pescara
163.171.138.115,4,72,revenuenetwork.com,IT,Europe,Southern Europe,Italy,Lombardy,Milan,Milan
86.107.32.169,4,166,rexadesign.it,IT,Europe,Southern Europe,Italy,,,
81.31.153.77,4,6,ricambiperauto.biz,IT,Europe,Southern Europe,Italy,,,
85.235.131.222,4,1543,ricasoli.it,IT,Europe,Southern Europe,Italy,Tuscany,Province of Arezzo,Arezzo
195.225.169.197,4,2450,riccoeneri.com,IT,Europe,Southern Europe,Italy,Tuscany,Province of Arezzo,Arezzo
185.25.207.130,4,5,ricetta.it,IT,Europe,Southern Europe,Italy,,,
84.33.192.94,4,220,ricettasprint.it,IT,Europe,Southern Europe,Italy,,,
185.205.40.139,4,38,riff.it,IT,Europe,Southern Europe,Italy,,,
217.72.102.107,4,195937,rifondazione.it,IT,Europe,Southern Europe,Italy,Lazio,Rome,Rome
80.88.87.230,4,428,rifugioburigone.it,IT,Europe,Southern Europe,Italy,Tuscany,Province of Arezzo,Arezzo
185.2.4.96,4,15,rifugiolagazuoi.com,IT,Europe,Southern Europe,Italy,,,
213.92.101.98,4,11,rikorda.it,IT,Europe,Southern Europe,Italy,Lombardy,Milan,Milan
46.252.148.20,4,15,ristorantealcovo.com,IT,Europe,Southern Europe,Italy,,,
85.235.157.118,4,1728,ristoranteyuri2.com,IT,Europe,Southern Europe,Italy,Tuscany,Province of Arezzo,Arezzo
185.81.0.142,4,7,riva1920.it,IT,Europe,Southern Europe,Italy,Lazio,Rome,Rome
149.3.145.98,4,8,rivistanatura.com,IT,Europe,Southern Europe,Italy,,,
217.61.55.228,4,1197,rivoire.it,IT,Europe,Southern Europe,Italy,Lombardy,Province of Bergamo,Ponte San Pietro
195.88.4.88,4,6,rmc2.net,IT,Europe,Southern Europe,Italy,,,
86.107.32.137,4,906,rockon.it,IT,Europe,Southern Europe,Italy,,,
46.252.152.20,4,282,rolfing.org,IT,Europe,Southern Europe,Italy,,,
149.62.191.247,4,19,romagiallorossa.it,IT,Europe,Southern Europe,Italy,,,
66.22.43.75,4,71,romamobilita.it,IT,Europe,Southern Europe,Italy,Lombardy,Milan,Milan
185.2.4.146,4,3,romaostia.it,IT,Europe,Southern Europe,Italy,,,
185.30.108.63,4,33,romasegreta.it,IT,Europe,Southern Europe,Italy,Lombardy,Milan,Milan
93.95.216.222,4,107,romasette.it,IT,Europe,Southern Europe,Italy,Lazio,Rome,Rome
185.2.5.51,4,8,rotutech.com,IT,Europe,Southern Europe,Italy,,,
185.17.106.195,4,30,rsvp-parrucchieri.it,IT,Europe,Southern Europe,Italy,,,
93.95.216.194,4,4,rubinosrl.it,IT,Europe,Southern Europe,Italy,Lazio,Rome,Rome
46.252.158.36,4,23,rutulicantores.it,IT,Europe,Southern Europe,Italy,,,
185.2.4.23,4,1,rvnld.com.br,IT,Europe,Southern Europe,Italy,,,
152.89.170.41,4,4,s0.world,IT,Europe,Southern Europe,Italy,Lazio,Rome,Pomezia
93.95.216.213,4,44,sacrobosco.eu,IT,Europe,Southern Europe,Italy,Lazio,Rome,Rome
185.2.4.88,4,20,safaripark.it,IT,Europe,Southern Europe,Italy,,,
185.19.184.188,4,17,salcheto.it,IT,Europe,Southern Europe,Italy,,,
185.81.0.95,4,4,salonedelrestauro.com,IT,Europe,Southern Europe,Italy,Lazio,Rome,Rome
81.31.147.195,4,17,salonenautico.com,IT,Europe,Southern Europe,Italy,,,
185.127.134.109,4,1,samo.it,IT,Europe,Southern Europe,Italy,,,
77.39.213.188,4,31,sanandamaitreya.com,IT,Europe,Southern Europe,Italy,,,
93.95.216.160,4,13,sandiodato.it,IT,Europe,Southern Europe,Italy,Lazio,Rome,Rome
194.76.118.58,4,2742,sannicolac5.it,IT,Europe,Southern Europe,Italy,,,
89.40.175.232,4,159,sansirostadium.com,IT,Europe,Southern Europe,Italy,Abruzzo,Province of Pescara,Pescara
195.231.70.70,4,4,santamargherita.com,IT,Europe,Southern Europe,Italy,Lombardy,Province of Bergamo,Ponte San Pietro
46.254.34.104,4,6,santanna.it,IT,Europe,Southern Europe,Italy,Lazio,Rome,Rome
46.254.34.166,4,4,santeustachioilcaffe.it,IT,Europe,Southern Europe,Italy,Lazio,Rome,Rome
213.171.167.46,4,7,santodelgiorno.it,IT,Europe,Southern Europe,Italy,Lazio,Province of Frosinone,Frosinone
185.114.109.135,4,27,sanvitolocapoweb.co.uk,IT,Europe,Southern Europe,Italy,,,
91.213.7.139,4,20,sardegnadigitallibrary.it,IT,Europe,Southern Europe,Italy,Sardinia,Province of Nuoro,Orgosolo
62.149.201.153,4,23,sardegnalive.net,IT,Europe,Southern Europe,Italy,Tuscany,Province of Arezzo,Arezzo
185.221.174.204,4,38,sassarioggi.it,IT,Europe,Southern Europe,Italy,,,
185.30.109.158,4,1805,savimballaggi.it,IT,Europe,Southern Europe,Italy,Lombardy,Milan,Milan
80.88.87.196,4,337,scaleinlegnosrl.com,IT,Europe,Southern Europe,Italy,Tuscany,Province of Arezzo,Arezzo
193.42.14.130,4,23,scame.com,IT,Europe,Southern Europe,Italy,,,
185.81.4.99,4,4,scaturchio.it,IT,Europe,Southern Europe,Italy,Lazio,Rome,Rome
85.235.130.70,4,795,scfelettrotecnica.it,IT,Europe,Southern Europe,Italy,Tuscany,Province of Arezzo,Arezzo
149.3.148.179,4,4,schiratti.com,IT,Europe,Southern Europe,Italy,,,
46.28.2.30,4,10,scienzavegetariana.it,IT,Europe,Southern Europe,Italy,Lazio,Rome,Rome
195.231.39.105,4,30,scienzenotizie.it,IT,Europe,Southern Europe,Italy,Lazio,Rome,Rome
79.98.40.52,4,5,scs-europe.net,IT,Europe,Southern Europe,Italy,Emilia-Romagna,Bologna,Imola
86.107.36.137,4,-30,scuolacomics.com,IT,Europe,Southern Europe,Italy,,,
81.31.147.32,4,4,scuolaleonardo.com,IT,Europe,Southern Europe,Italy,,,
80.88.84.233,4,11,secolo-trentino.com,IT,Europe,Southern Europe,Italy,Tuscany,Province of Arezzo,Arezzo
217.61.51.45,4,18,secoloditalia.it,IT,Europe,Southern Europe,Italy,Lombardy,Province of Bergamo,Ponte San Pietro
37.9.239.140,4,7,seeweb.it,IT,Europe,Southern Europe,Italy,,,
93.186.242.177,4,5,seilbahnensulden.it,IT,Europe,Southern Europe,Italy,Tuscany,Province of Arezzo,Arezzo
83.136.106.237,4,12,sellesmp.com,IT,Europe,Southern Europe,Italy,Lombardy,Milan,Milan
185.31.67.111,4,6,sentina.it,IT,Europe,Southern Europe,Italy,,,
95.110.129.222,4,45,seozoom.it,IT,Europe,Southern Europe,Italy,Tuscany,Province of Arezzo,Arezzo
213.215.155.44,4,18,sergiobonellieditore.it,IT,Europe,Southern Europe,Italy,Lombardy,Milan,Milan
212.237.48.35,4,-577,sermig.org,IT,Europe,Southern Europe,Italy,Tuscany,Province of Arezzo,Arezzo
185.228.39.88,4,36,serversmtp.com,IT,Europe,Southern Europe,Italy,,,
213.158.90.18,4,46,sev.org.gr,IT,Europe,Southern Europe,Italy,,,
93.186.247.194,4,5,sferisterio.it,IT,Europe,Southern Europe,Italy,Tuscany,Province of Arezzo,Arezzo
185.2.4.46,4,5,sfsp.fr,IT,Europe,Southern Europe,Italy,,,
80.247.66.109,4,3,shantisrl.com,IT,Europe,Southern Europe,Italy,,,
185.56.9.37,4,755,sharebot.it,IT,Europe,Southern Europe,Italy,Tuscany,Province of Arezzo,Arezzo
185.206.86.71,4,5,shiny.net,IT,Europe,Southern Europe,Italy,,,
185.206.85.84,4,17,shinystat.com,IT,Europe,Southern Europe,Italy,,,
185.206.85.88,4,18,shinystat.it,IT,Europe,Southern Europe,Italy,,,
46.252.146.100,4,44,shopbrandbelts.com,IT,Europe,Southern Europe,Italy,,,
185.243.193.47,4,575,siad.com,IT,Europe,Southern Europe,Italy,,,
217.73.228.2,4,-428,sibillini.net,IT,Europe,Southern Europe,Italy,Lombardy,Province of Bergamo,Ponte San Pietro
185.81.4.199,4,6,sicilianmagpie.com,IT,Europe,Southern Europe,Italy,Lazio,Rome,Rome
86.107.36.102,4,8890,siciliareport.it,IT,Europe,Southern Europe,Italy,,,
212.35.196.168,4,15,sicis.com,IT,Europe,Southern Europe,Italy,Lombardy,Milan,Milan
176.221.51.72,4,13,sicomunicaweb.it,IT,Europe,Southern Europe,Italy,Piedmont,Turin,Turin
46.30.241.69,4,62,sicurauto.it,IT,Europe,Southern Europe,Italy,Lazio,Rome,Rome
194.76.118.34,4,-214,sicvenezia.it,IT,Europe,Southern Europe,Italy,,,
95.110.129.212,4,3,sidemast.org,IT,Europe,Southern Europe,Italy,Tuscany,Province of Arezzo,Arezzo
149.3.148.19,4,22,sienafree.it,IT,Europe,Southern Europe,Italy,,,
86.107.32.128,4,505,sienajazz.it,IT,Europe,Southern Europe,Italy,,,
93.191.241.183,4,35127,sigo.it,IT,Europe,Southern Europe,Italy,,,
213.209.214.11,4,40,simas.it,IT,Europe,Southern Europe,Italy,Emilia-Romagna,Province of Ferrara,Ferrara
62.48.39.93,4,1552,simplebooking.it,IT,Europe,Southern Europe,Italy,,,
149.3.145.203,4,8,sinistrainrete.info,IT,Europe,Southern Europe,Italy,,,
86.107.32.53,4,16,sipotra.it,IT,Europe,Southern Europe,Italy,,,
93.186.242.31,4,6,siracusanews.it,IT,Europe,Southern Europe,Italy,Tuscany,Province of Arezzo,Arezzo
185.17.106.173,4,2678,siriobluevision.it,IT,Europe,Southern Europe,Italy,,,
185.221.175.32,4,387,sistemapenale.it,IT,Europe,Southern Europe,Italy,,,
95.110.225.29,4,59,sitbusshuttle.com,IT,Europe,Southern Europe,Italy,Lombardy,Province of Bergamo,Ponte San Pietro
46.37.14.27,4,4,siti.it,IT,Europe,Southern Europe,Italy,Tuscany,Province of Arezzo,Arezzo
37.156.244.118,4,12,sitiscommesse.com,IT,Europe,Southern Europe,Italy,Sicily,Province of Palermo,Palermo
95.174.22.44,4,4,sive.it,IT,Europe,Southern Europe,Italy,Lombardy,Milan,Milan
85.235.142.21,4,26,skills4u.it,IT,Europe,Southern Europe,Italy,Tuscany,Province of Arezzo,Arezzo
46.252.148.189,4,77,slacky.eu,IT,Europe,Southern Europe,Italy,,,
89.40.175.78,4,33,slope.it,IT,Europe,Southern Europe,Italy,Abruzzo,Province of Pescara,Pescara
77.39.213.180,4,16,snewsonline.com,IT,Europe,Southern Europe,Italy,,,
46.252.149.129,4,9,socialstreet.it,IT,Europe,Southern Europe,Italy,,,
89.36.209.120,4,34,softpointer.com,IT,Europe,Southern Europe,Italy,Tuscany,Province of Arezzo,Arezzo
195.231.65.68,4,8,soldioggi.it,IT,Europe,Southern Europe,Italy,Lombardy,Province of Bergamo,Ponte San Pietro
31.3.182.17,4,45,soleluna.com,IT,Europe,Southern Europe,Italy,Emilia-Romagna,Province of Forlì-Cesena,Cesena
46.16.95.7,4,3,soleviola.it,IT,Europe,Southern Europe,Italy,Lazio,Rome,Rome
80.88.87.205,4,338,soluzionidarredosrl.it,IT,Europe,Southern Europe,Italy,Tuscany,Province of Arezzo,Arezzo
185.201.65.137,4,30,sonda.it,IT,Europe,Southern Europe,Italy,,,
95.110.227.15,4,32,songstube.net,IT,Europe,Southern Europe,Italy,Lombardy,Province of Bergamo,Ponte San Pietro
93.186.242.28,4,15,soprintendenzaspecialeroma.it,IT,Europe,Southern Europe,Italy,Tuscany,Province of Arezzo,Arezzo
213.158.94.132,4,18,sos-wp.it,IT,Europe,Southern Europe,Italy,,,
185.2.4.79,4,12,sovet.com,IT,Europe,Southern Europe,Italy,,,
93.191.243.63,4,-1042,spanottica.it,IT,Europe,Southern Europe,Italy,,,
31.3.182.1,4,26,spazio38.com,IT,Europe,Southern Europe,Italy,Emilia-Romagna,Province of Forlì-Cesena,Cesena
185.81.1.60,4,58,spazioreale.com,IT,Europe,Southern Europe,Italy,Lazio,Rome,Rome
62.48.49.169,4,1372,speziacalcio.com,IT,Europe,Southern Europe,Italy,,,
212.35.205.45,4,6,sportando.basketball,IT,Europe,Southern Europe,Italy,Lombardy,Milan,Milan
5.144.162.82,4,29,sportando.com,IT,Europe,Southern Europe,Italy,Lombardy,Milan,Milan
89.40.175.151,4,74,sportflash24.it,IT,Europe,Southern Europe,Italy,Abruzzo,Province of Pescara,Pescara
89.40.175.203,4,192,sportsnutrition.org,IT,Europe,Southern Europe,Italy,Abruzzo,Province of Pescara,Pescara
185.2.4.10,4,35,sprezzatura.it,IT,Europe,Southern Europe,Italy,,,
89.40.227.242,4,7,sr-m.it,IT,Europe,Southern Europe,Italy,,,
213.158.93.30,4,0,ssef.ch,IT,Europe,Southern Europe,Italy,,,
193.205.80.99,4,6,sssup.it,IT,Europe,Southern Europe,Italy,Tuscany,Province of Pisa,Pisa
185.205.41.114,4,9,stampalternativa.it,IT,Europe,Southern Europe,Italy,,,
185.31.65.104,4,58,stampaprint.net,IT,Europe,Southern Europe,Italy,,,
80.211.239.100,4,50,stanzeinaffitto.com,IT,Europe,Southern Europe,Italy,Tuscany,Province of Arezzo,Arezzo
80.211.66.83,4,155,starcomics.com,IT,Europe,Southern Europe,Italy,Tuscany,Province of Arezzo,Arezzo
46.28.0.61,4,74,starpool.com,IT,Europe,Southern Europe,Italy,Lazio,Rome,Rome
51.38.165.157,4,66,startbeurs.nl,IT,Europe,Southern Europe,Italy,Lombardy,Milan,San Donato Milanese
77.39.212.131,4,10,startromagna.it,IT,Europe,Southern Europe,Italy,,,
89.40.174.206,4,133,startupeuropepartnership.eu,IT,Europe,Southern Europe,Italy,Abruzzo,Province of Pescara,Pescara
93.95.216.19,4,26,statoquotidiano.it,IT,Europe,Southern Europe,Italy,Lazio,Rome,Rome
185.2.5.46,4,3,steelonthenet.com,IT,Europe,Southern Europe,Italy,,,
78.159.220.46,4,9,stefanoricci.com,IT,Europe,Southern Europe,Italy,Lombardy,Milan,Milan
185.2.4.49,4,15,stelviopark.it,IT,Europe,Southern Europe,Italy,,,
149.3.148.200,4,4,storejextensions.org,IT,Europe,Southern Europe,Italy,,,
195.231.94.250,4,577,stradivarius.it,IT,Europe,Southern Europe,Italy,Lombardy,Province of Bergamo,Ponte San Pietro
86.107.32.130,4,688,stresafestival.eu,IT,Europe,Southern Europe,Italy,,,
185.116.60.165,4,32,strettoweb.com,IT,Europe,Southern Europe,Italy,,,
185.2.4.27,4,38,studioitaliadesign.com,IT,Europe,Southern Europe,Italy,,,
185.2.4.121,4,64,studiolegalebodo.it,IT,Europe,Southern Europe,Italy,,,
80.88.87.203,4,732,studiolegaleterrazzano.it,IT,Europe,Southern Europe,Italy,Tuscany,Province of Arezzo,Arezzo
46.252.151.223,4,33,studiomassaro.net,IT,Europe,Southern Europe,Italy,,,
46.254.34.70,4,29,studiometaengineering.it,IT,Europe,Southern Europe,Italy,Lazio,Rome,Rome
93.95.216.37,4,96,stupormundi.it,IT,Europe,Southern Europe,Italy,Lazio,Rome,Rome
213.158.94.179,4,22,suddelmondo.it,IT,Europe,Southern Europe,Italy,,,
195.36.1.104,4,38,summagallicana.it,IT,Europe,Southern Europe,Italy,,,
93.186.242.249,4,12,summer-festival.com,IT,Europe,Southern Europe,Italy,Tuscany,Province of Arezzo,Arezzo
37.247.54.93,4,11,sunbedbooster.com,IT,Europe,Southern Europe,Italy,Lombardy,Milan,Milan
109.168.101.126,4,17,supermoney.eu,IT,Europe,Southern Europe,Italy,Lombardy,Milan,Milan
46.252.157.168,4,241,superstudiogroup.com,IT,Europe,Southern Europe,Italy,,,
94.177.162.87,4,6,surfcorner.it,IT,Europe,Southern Europe,Italy,Tuscany,Province of Arezzo,Arezzo
147.78.184.86,4,5,sustainable-bus.com,IT,Europe,Southern Europe,Italy,,,
86.107.36.97,4,-2507,sviluppoperleuropa.it,IT,Europe,Southern Europe,Italy,,,
62.108.242.113,4,31,synergie-italia.it,IT,Europe,Southern Europe,Italy,,,
46.252.150.123,4,30,synesthesia.it,IT,Europe,Southern Europe,Italy,,,
95.110.200.21,4,5,szn.it,IT,Europe,Southern Europe,Italy,Lombardy,Province of Bergamo,Ponte San Pietro
80.211.123.197,4,37,tabbles.net,IT,Europe,Southern Europe,Italy,Lombardy,Province of Bergamo,Ponte San Pietro
46.252.150.61,4,1,taormina.it,IT,Europe,Southern Europe,Italy,,,
89.31.200.24,4,65,targatocn.it,IT,Europe,Southern Europe,Italy,,,
195.231.38.174,4,45,tartarugando.it,IT,Europe,Southern Europe,Italy,Lazio,Rome,Rome
86.107.36.41,4,1012,taxidrivers.it,IT,Europe,Southern Europe,Italy,,,
185.221.172.121,4,477,tazionuvolari.it,IT,Europe,Southern Europe,Italy,,,
217.27.76.154,4,13,tcvi.it,IT,Europe,Southern Europe,Italy,Friuli Venezia Giulia,Province of Pordenone,Villotta
193.27.202.147,4,17,tealibri.it,IT,Europe,Southern Europe,Italy,Lombardy,Milan,Milan
66.22.43.140,4,24,teamsystem.com,IT,Europe,Southern Europe,Italy,Lombardy,Milan,Milan
46.252.149.127,4,44,teatrobellini.it,IT,Europe,Southern Europe,Italy,,,
85.235.159.226,4,-1906,teatrodellatoscana.it,IT,Europe,Southern Europe,Italy,Tuscany,Province of Arezzo,Arezzo
213.204.11.14,4,4,teatrodellatosse.it,IT,Europe,Southern Europe,Italy,,,
195.62.190.67,4,63,teatrogalli.it,IT,Europe,Southern Europe,Italy,Emilia-Romagna,Province of Parma,Parma
62.149.194.73,4,108,teatroliricodicagliari.it,IT,Europe,Southern Europe,Italy,Tuscany,Province of Arezzo,Arezzo
185.201.65.117,4,1,teatropubblicopugliese.it,IT,Europe,Southern Europe,Italy,,,
86.107.36.140,4,1823,teatrosocialecomo.it,IT,Europe,Southern Europe,Italy,,,
46.30.244.53,4,70,teatrovascello.it,IT,Europe,Southern Europe,Italy,,,
195.231.15.132,4,16,techadron.com,IT,Europe,Southern Europe,Italy,,,
185.2.5.19,4,70,techearthblog.it,IT,Europe,Southern Europe,Italy,,,
46.252.153.241,4,50,teleambiente.it,IT,Europe,Southern Europe,Italy,,,
95.110.149.199,4,106,telefonino.net,IT,Europe,Southern Europe,Italy,Tuscany,Province of Arezzo,Arezzo
185.81.6.73,4,9,telepace.it,IT,Europe,Southern Europe,Italy,Lazio,Rome,Rome
95.110.132.79,4,4,teleradiopadrepio.it,IT,Europe,Southern Europe,Italy,Tuscany,Province of Arezzo,Arezzo
185.25.206.13,4,61,tennisitaliano.it,IT,Europe,Southern Europe,Italy,,,
213.158.94.146,4,73,tenutamaranna.it,IT,Europe,Southern Europe,Italy,,,
85.159.150.190,4,51,termedeipapi.it,IT,Europe,Southern Europe,Italy,,,
185.81.1.27,4,60,termemontecatini.it,IT,Europe,Southern Europe,Italy,Lazio,Rome,Rome
212.35.197.255,4,55,terratintagroup.com,IT,Europe,Southern Europe,Italy,Lombardy,Milan,Milan
195.62.190.245,4,70,terredargine.it,IT,Europe,Southern Europe,Italy,Emilia-Romagna,Province of Parma,Parma
194.76.118.57,4,1914,terredipisa.it,IT,Europe,Southern Europe,Italy,,,
89.46.227.159,4,24,terzobinario.it,IT,Europe,Southern Europe,Italy,,,
212.35.194.138,4,3,tg24.info,IT,Europe,Southern Europe,Italy,Lombardy,Milan,Milan
46.252.155.35,4,34961,theholyrosary.org,IT,Europe,Southern Europe,Italy,,,
176.223.88.130,4,-5327,theitalianreve.com,IT,Europe,Southern Europe,Italy,Lombardy,Province of Lecco,Merate
86.107.36.51,4,1045,themeinprogress.com,IT,Europe,Southern Europe,Italy,,,
86.107.36.132,4,5891,thewaymagazine.it,IT,Europe,Southern Europe,Italy,,,
172.232.217.215,4,23,thisiscombo.com,IT,Europe,Southern Europe,Italy,Lombardy,Milan,Milan
151.101.241.124,4,6,thun.com,IT,Europe,Southern Europe,Italy,Lombardy,Milan,Milan
81.29.213.29,4,4,ticketlandia.com,IT,Europe,Southern Europe,Italy,,,
34.154.174.227,4,3,tigota.it,IT,Europe,Southern Europe,Italy,Lombardy,Milan,Milan
89.40.172.136,4,15,tipoteca.it,IT,Europe,Southern Europe,Italy,Abruzzo,Province of Pescara,Pescara
86.107.36.139,4,-9076,tiramisuworldcup.com,IT,Europe,Southern Europe,Italy,,,
185.81.4.38,4,4,tlon.it,IT,Europe,Southern Europe,Italy,Lazio,Rome,Rome
77.39.208.11,4,2,todis.it,IT,Europe,Southern Europe,Italy,,,
89.46.224.69,4,-4722,tomstardust.com,IT,Europe,Southern Europe,Italy,,,
93.95.216.56,4,6,tonite.eu,IT,Europe,Southern Europe,Italy,Lazio,Rome,Rome
194.116.72.20,4,4,top-ix.org,IT,Europe,Southern Europe,Italy,Piedmont,Turin,Turin
185.116.60.70,4,48,topcampings.com,IT,Europe,Southern Europe,Italy,,,
94.177.211.60,4,7,torinofc.it,IT,Europe,Southern Europe,Italy,Tuscany,Province of Arezzo,Arezzo
89.31.200.23,4,6,torinoggi.it,IT,Europe,Southern Europe,Italy,,,
95.110.186.60,4,6,tormaresca.it,IT,Europe,Southern Europe,Italy,Lazio,Rome,Rome
77.39.212.127,4,6,toro.it,IT,Europe,Southern Europe,Italy,,,
185.127.236.35,4,10,toscanaoggi.it,IT,Europe,Southern Europe,Italy,Lazio,Rome,Rome
185.56.171.36,4,41,totallympics.com,IT,Europe,Southern Europe,Italy,,,
185.2.4.117,4,7,totumbuild.com,IT,Europe,Southern Europe,Italy,,,
151.2.40.146,4,47,traghetti.com,IT,Europe,Southern Europe,Italy,,,
81.31.151.44,4,6,traghettionline.net,IT,Europe,Southern Europe,Italy,,,
81.31.157.10,4,5,traghettiper-sicilia.it,IT,Europe,Southern Europe,Italy,,,
46.252.152.44,4,26,transdairy.net,IT,Europe,Southern Europe,Italy,,,
77.81.235.10,4,68,transportonline.com,IT,Europe,Southern Europe,Italy,Tuscany,Province of Arezzo,Arezzo
46.252.152.22,4,281,trapanishuttle.com,IT,Europe,Southern Europe,Italy,,,
46.16.90.124,4,8,trapizzino.it,IT,Europe,Southern Europe,Italy,Lazio,Rome,Rome
85.94.207.169,4,56,trasportoeuropa.it,IT,Europe,Southern Europe,Italy,Lombardy,Milan,Milan
185.81.1.75,4,10,travelquotidiano.com,IT,Europe,Southern Europe,Italy,Lazio,Rome,Rome
86.107.36.52,4,195,trcgiornale.it,IT,Europe,Southern Europe,Italy,,,
109.205.108.254,4,31,trentinosviluppo.it,IT,Europe,Southern Europe,Italy,Trentino-Alto Adige,Province of Trente,Frassilongo
185.2.4.91,4,2,triave.pt,IT,Europe,Southern Europe,Italy,,,
80.211.13.81,4,768,trivenetogoal.it,IT,Europe,Southern Europe,Italy,Tuscany,Province of Arezzo,Arezzo
37.156.244.102,4,5,truffa.net,IT,Europe,Southern Europe,Italy,Sicily,Province of Palermo,Palermo
95.141.32.225,4,9,turbolab.it,IT,Europe,Southern Europe,Italy,Lombardy,Milan,Milan
86.107.36.64,4,6,turismoforlivese.it,IT,Europe,Southern Europe,Italy,,,
89.40.172.168,4,15,turismoitalianews.it,IT,Europe,Southern Europe,Italy,Abruzzo,Province of Pescara,Pescara
93.95.216.143,4,5,tuscany-agriturismo.it,IT,Europe,Southern Europe,Italy,Lazio,Rome,Rome
95.110.159.180,4,25,tuttitalia.it,IT,Europe,Southern Europe,Italy,Tuscany,Province of Arezzo,Arezzo
185.100.16.18,4,7,tuttoambiente.it,IT,Europe,Southern Europe,Italy,,,
195.78.199.247,4,6,tuttobiciweb.it,IT,Europe,Southern Europe,Italy,,,
195.78.199.246,4,3,tuttobiciweb.it,IT,Europe,Southern Europe,Italy,,,
46.16.91.125,4,9,tuttocalciatori.net,IT,Europe,Southern Europe,Italy,Lazio,Rome,Rome
89.40.173.61,4,-28,tuttoperglianimali.com,IT,Europe,Southern Europe,Italy,Abruzzo,Province of Pescara,Pescara
185.127.236.30,4,1,tv2000.it,IT,Europe,Southern Europe,Italy,Lazio,Rome,Rome
185.2.5.96,4,2,twinfactory.co.uk,IT,Europe,Southern Europe,Italy,,,
193.27.202.146,4,10,ubiklibri.it,IT,Europe,Southern Europe,Italy,Lombardy,Milan,Milan
89.46.227.70,4,35,ubitennis.com,IT,Europe,Southern Europe,Italy,,,
46.28.4.93,4,6,uccronline.it,IT,Europe,Southern Europe,Italy,Lazio,Rome,Rome
109.168.97.32,4,15,uec.ch,IT,Europe,Southern Europe,Italy,Lombardy,Milan,Milan
185.205.40.30,4,11,ufficiovisti.com,IT,Europe,Southern Europe,Italy,,,
185.205.40.216,4,3,ufficiovisti.it,IT,Europe,Southern Europe,Italy,,,
85.94.218.130,4,9,ufficioweb.com,IT,Europe,Southern Europe,Italy,Lazio,Province of Frosinone,Frosinone
80.211.125.123,4,17,ufoplast.com,IT,Europe,Southern Europe,Italy,Lombardy,Province of Bergamo,Ponte San Pietro
81.31.145.134,4,7,ugg--australia.it,IT,Europe,Southern Europe,Italy,,,
172.232.206.252,4,47,ultimouomo.com,IT,Europe,Southern Europe,Italy,Lombardy,Milan,Milan
185.201.65.29,4,3,umbriajournal.com,IT,Europe,Southern Europe,Italy,,,
93.95.216.137,4,4,unadonna.it,IT,Europe,Southern Europe,Italy,Lazio,Rome,Rome
185.2.4.21,4,8,undesa.it,IT,Europe,Southern Europe,Italy,,,
81.88.62.2,4,16,undo.net,IT,Europe,Southern Europe,Italy,,,
185.221.175.4,4,1497,uni-med.net,IT,Europe,Southern Europe,Italy,,,
93.95.216.161,4,48,uniamo.org,IT,Europe,Southern Europe,Italy,Lazio,Rome,Rome
185.81.6.171,4,15,unicalag.it,IT,Europe,Southern Europe,Italy,Lazio,Rome,Rome
185.11.152.8,4,-21923,unicattolica.it,IT,Europe,Southern Europe,Italy,Lombardy,Milan,Milan
89.96.212.248,4,22,uniecampus.it,IT,Europe,Southern Europe,Italy,Lombardy,Milan,Milan
212.104.53.7,4,3,unieuro.it,IT,Europe,Southern Europe,Italy,Lombardy,Milan,Cernusco sul Naviglio
192.167.219.48,4,22,unife.it,IT,Europe,Southern Europe,Italy,Emilia-Romagna,Province of Ferrara,Ferrara
150.217.3.39,4,-13,unifi.it,IT,Europe,Southern Europe,Italy,Tuscany,Province of Florence,Florence
140.105.46.210,4,16,unijos.edu.ng,IT,Europe,Southern Europe,Italy,Friuli Venezia Giulia,Trieste,Trieste
85.18.101.33,4,3,unilink.it,IT,Europe,Southern Europe,Italy,Lombardy,Milan,Milan
5.8.111.82,4,32,unioncamerelombardia.it,IT,Europe,Southern Europe,Italy,Lombardy,Milan,Milan
185.31.65.69,4,-10,unionemonregalese.it,IT,Europe,Southern Europe,Italy,,,
131.114.73.85,4,87,unipi.it,IT,Europe,Southern Europe,Italy,Tuscany,Province of Pisa,Pisa
35.152.60.177,4,6,unisannio.it,IT,Europe,Southern Europe,Italy,Lombardy,Milan,Milan
77.39.210.22,4,-526,unita.it,IT,Europe,Southern Europe,Italy,,,
46.252.146.55,4,312,universalsitebusiness.com,IT,Europe,Southern Europe,Italy,,,
213.171.168.211,4,3,unponteper.it,IT,Europe,Southern Europe,Italy,Lazio,Province of Frosinone,Frosinone
185.81.4.85,4,6,urbanfile.org,IT,Europe,Southern Europe,Italy,Lazio,Rome,Rome
46.254.38.227,4,4,urbanphotoawards.com,IT,Europe,Southern Europe,Italy,Lazio,Rome,Rome
86.107.32.160,4,1167,urdesignmag.com,IT,Europe,Southern Europe,Italy,,,
77.39.213.110,4,6,urgnano.eu,IT,Europe,Southern Europe,Italy,,,
163.171.138.116,4,17,usafis.org,IT,Europe,Southern Europe,Italy,Lombardy,Milan,Milan
151.1.210.142,4,33,usag.it,IT,Europe,Southern Europe,Italy,,,
93.45.105.73,4,3198,usb.it,IT,Europe,Southern Europe,Italy,Piedmont,Turin,Turin
178.250.66.212,4,5,usound.com,IT,Europe,Southern Europe,Italy,,,
46.252.158.165,4,2,ussalernitana1919.it,IT,Europe,Southern Europe,Italy,,,
194.185.40.14,4,953,v-valley.com,IT,Europe,Southern Europe,Italy,Lombardy,Milan,Milan
80.88.87.159,4,848,vaielettrico.it,IT,Europe,Southern Europe,Italy,Tuscany,Province of Arezzo,Arezzo
185.221.172.128,4,627,valdarnopost.it,IT,Europe,Southern Europe,Italy,,,
95.110.154.27,4,5,valigiablu.it,IT,Europe,Southern Europe,Italy,Tuscany,Province of Arezzo,Arezzo
195.231.75.213,4,21,valseriananews.it,IT,Europe,Southern Europe,Italy,Lombardy,Province of Bergamo,Ponte San Pietro
93.186.244.190,4,19,valtline.it,IT,Europe,Southern Europe,Italy,Tuscany,Province of Arezzo,Arezzo
81.21.26.116,4,27,varesenews.it,IT,Europe,Southern Europe,Italy,Lombardy,Milan,Milan
81.21.26.117,4,8,varesenews.it,IT,Europe,Southern Europe,Italy,Lombardy,Milan,Milan
89.31.200.21,4,2,varesenoi.it,IT,Europe,Southern Europe,Italy,,,
185.25.206.18,4,16,varesesport.com,IT,Europe,Southern Europe,Italy,,,
95.110.157.51,4,1224,vedetta.org,IT,Europe,Southern Europe,Italy,Tuscany,Province of Arezzo,Arezzo
185.78.65.72,4,55,vegaengineering.com,IT,Europe,Southern Europe,Italy,,,
80.169.109.163,4,18,venice-tourism.com,IT,Europe,Southern Europe,Italy,Piedmont,Turin,Turin
173.222.105.12,4,17,veniceairport.it,IT,Europe,Southern Europe,Italy,Lombardy,Milan,Milan
173.222.105.27,4,16,veniceairport.it,IT,Europe,Southern Europe,Italy,Lombardy,Milan,Milan
185.19.184.144,4,5,veno.it,IT,Europe,Southern Europe,Italy,,,
37.247.48.95,4,37,verexif.com,IT,Europe,Southern Europe,Italy,Lombardy,Milan,Milan
46.37.24.203,4,11,veritaeaffari.it,IT,Europe,Southern Europe,Italy,Tuscany,Province of Arezzo,Arezzo
185.221.175.221,4,30,veronaoggi.it,IT,Europe,Southern Europe,Italy,,,
185.2.4.129,4,26,verrazzano.com,IT,Europe,Southern Europe,Italy,,,
77.39.213.104,4,11,vhernier.com,IT,Europe,Southern Europe,Italy,,,
185.2.5.15,4,19,viaferrata-fr.net,IT,Europe,Southern Europe,Italy,,,
138.66.64.221,4,407,viaggiareinpuglia.it,IT,Europe,Southern Europe,Italy,,,
185.221.175.249,4,1,viasatonline.it,IT,Europe,Southern Europe,Italy,,,
62.149.128.72,4,17,vicenzae.org,IT,Europe,Southern Europe,Italy,Tuscany,Province of Arezzo,Arezzo
62.149.128.74,4,27,vicenzae.org,IT,Europe,Southern Europe,Italy,Tuscany,Province of Arezzo,Arezzo
62.149.128.163,4,33,vicenzae.org,IT,Europe,Southern Europe,Italy,Tuscany,Province of Arezzo,Arezzo
95.110.149.200,4,113,videogame.it,IT,Europe,Southern Europe,Italy,Tuscany,Province of Arezzo,Arezzo
46.37.14.14,4,11,videoitaliaproduction.com,IT,Europe,Southern Europe,Italy,Tuscany,Province of Arezzo,Arezzo
217.61.57.155,4,19,viefrancigene.org,IT,Europe,Southern Europe,Italy,Lombardy,Province of Bergamo,Ponte San Pietro
213.158.93.43,4,17,vietti.com,IT,Europe,Southern Europe,Italy,,,
80.88.84.231,4,5,vigezzinacentovalli.com,IT,Europe,Southern Europe,Italy,Tuscany,Province of Arezzo,Arezzo
89.46.197.35,4,61,vigilfuoco.tv,IT,Europe,Southern Europe,Italy,Tuscany,Province of Arezzo,Arezzo
86.107.36.81,4,8269,vignaclarablog.it,IT,Europe,Southern Europe,Italy,,,
86.107.32.138,4,560,villabardini.it,IT,Europe,Southern Europe,Italy,,,
93.186.242.141,4,-12467,villacarlotta.it,IT,Europe,Southern Europe,Italy,Tuscany,Province of Arezzo,Arezzo
37.156.244.112,4,51,villacrespi.it,IT,Europe,Southern Europe,Italy,Sicily,Province of Palermo,Palermo
46.37.26.82,4,35,villadeicedri.it,IT,Europe,Southern Europe,Italy,Tuscany,Province of Arezzo,Arezzo
193.206.236.9,4,355,villafarnesina.it,IT,Europe,Southern Europe,Italy,Campania,Naples,Naples
185.221.175.52,4,2659,villaitacamenorca.com,IT,Europe,Southern Europe,Italy,,,
185.17.107.43,4,9,villatoscana-pi.it,IT,Europe,Southern Europe,Italy,,,
80.211.147.57,4,95,virtus.it,IT,Europe,Southern Europe,Italy,Tuscany,Province of Arezzo,Arezzo
85.94.203.206,4,-7,visibleproject.org,IT,Europe,Southern Europe,Italy,Lombardy,Milan,Milan
81.31.156.192,4,15,visionbiz.it,IT,Europe,Southern Europe,Italy,,,
86.107.36.121,4,-12248,visitdolomites.com,IT,Europe,Southern Europe,Italy,,,
95.174.12.69,4,2,visitferrara.eu,IT,Europe,Southern Europe,Italy,Lombardy,Milan,Milan
93.62.175.31,4,52,visitgenoa.it,IT,Europe,Southern Europe,Italy,Lombardy,Milan,Milan
185.81.4.101,4,8,visitrovereto.it,IT,Europe,Southern Europe,Italy,Lazio,Rome,Rome
185.2.4.93,4,21,vislab.it,IT,Europe,Southern Europe,Italy,,,
185.127.236.22,4,1,vitatrentina.it,IT,Europe,Southern Europe,Italy,Lazio,Rome,Rome
149.3.145.169,4,21,viterbonews24.it,IT,Europe,Southern Europe,Italy,,,
46.252.151.14,4,4,vivaldiroberto.com,IT,Europe,Southern Europe,Italy,,,
46.254.38.33,4,41,viversano.net,IT,Europe,Southern Europe,Italy,Lazio,Rome,Rome
46.28.2.33,4,7,vocedinapoli.it,IT,Europe,Southern Europe,Italy,Lazio,Rome,Rome
213.158.93.4,4,26,vrtvingt.fr,IT,Europe,Southern Europe,Italy,,,
185.2.4.104,4,6,waataa.pt,IT,Europe,Southern Europe,Italy,,,
213.158.94.130,4,9,wako.sport,IT,Europe,Southern Europe,Italy,,,
86.107.36.16,4,8,webaccessibile.org,IT,Europe,Southern Europe,Italy,,,
185.221.175.62,4,499,webbyslot.com,IT,Europe,Southern Europe,Italy,,,
86.107.32.164,4,22,webdomus.net,IT,Europe,Southern Europe,Italy,,,
95.110.149.207,4,119,webnews.it,IT,Europe,Southern Europe,Italy,Tuscany,Province of Arezzo,Arezzo
94.177.167.178,4,45,webratio.com,IT,Europe,Southern Europe,Italy,Tuscany,Province of Arezzo,Arezzo
217.171.39.158,4,155,webtic.it,IT,Europe,Southern Europe,Italy,Lombardy,Milan,Milan
185.81.6.118,4,11,welovefur.com,IT,Europe,Southern Europe,Italy,Lazio,Rome,Rome
86.107.32.166,4,3,wetterprognose.it,IT,Europe,Southern Europe,Italy,,,
77.39.210.75,4,3,weworld.it,IT,Europe,Southern Europe,Italy,,,
217.118.241.198,4,6,wfp.org,IT,Europe,Southern Europe,Italy,Lazio,Rome,Rome
185.201.65.73,4,41,wikio.it,IT,Europe,Southern Europe,Italy,,,
95.110.149.204,4,34,wintricks.it,IT,Europe,Southern Europe,Italy,Tuscany,Province of Arezzo,Arezzo
93.95.216.107,4,6,women.it,IT,Europe,Southern Europe,Italy,Lazio,Rome,Rome
185.31.67.113,4,6,womenews.net,IT,Europe,Southern Europe,Italy,,,
185.2.5.88,4,26,worldeconomicsassociation.org,IT,Europe,Southern Europe,Italy,,,
185.31.67.115,4,6,wunderkammern.net,IT,Europe,Southern Europe,Italy,,,
104.104.52.27,4,10,wuz.it,IT,Europe,Southern Europe,Italy,Lombardy,Milan,Milan
85.94.210.102,4,4,wwf.it,IT,Europe,Southern Europe,Italy,Lazio,Province of Frosinone,Frosinone
90.147.112.50,4,10,xenon1t.org,IT,Europe,Southern Europe,Italy,Campania,Naples,Naples
104.166.169.132,4,5,xinhuanet.com,IT,Europe,Southern Europe,Italy,Lombardy,Milan,Milan
104.166.169.130,4,5,xinhuanet.com,IT,Europe,Southern Europe,Italy,Lombardy,Milan,Milan
62.149.128.166,4,11,xylexpo.com,IT,Europe,Southern Europe,Italy,Tuscany,Province of Arezzo,Arezzo
79.98.45.12,4,5,yamamay.com,IT,Europe,Southern Europe,Italy,Emilia-Romagna,Bologna,Imola
89.40.227.142,4,4,yamarashi.it,IT,Europe,Southern Europe,Italy,,,
172.232.208.181,4,6,yeppon.it,IT,Europe,Southern Europe,Italy,Lombardy,Milan,Milan
194.76.118.11,4,3933,youfriend.it,IT,Europe,Southern Europe,Italy,,,
185.2.4.83,4,63,zaditaly.com,IT,Europe,Southern Europe,Italy,,,
185.201.65.118,4,5,zenato.it,IT,Europe,Southern Europe,Italy,,,
46.254.38.117,4,42,zeroemission.eu,IT,Europe,Southern Europe,Italy,Lazio,Rome,Rome
151.101.242.132,4,5,zg.ch,IT,Europe,Southern Europe,Italy,Lombardy,Milan,Milan
46.252.148.188,4,73,zipgenius.com,IT,Europe,Southern Europe,Italy,,,
185.114.108.117,4,-24,zivillica.it,IT,Europe,Southern Europe,Italy,,,
185.81.1.161,4,6,zizzi.org,IT,Europe,Southern Europe,Italy,Lazio,Rome,Rome
195.231.5.24,4,1514,zoodipistoia.it,IT,Europe,Southern Europe,Italy,,,
149.62.185.242,4,6,zoosafari.it,IT,Europe,Southern Europe,Italy,,,
62.149.128.157,4,3,zucchero.it,IT,Europe,Southern Europe,Italy,Tuscany,Province of Arezzo,Arezzo
62.149.128.160,4,3,zucchero.it,IT,Europe,Southern Europe,Italy,Tuscany,Province of Arezzo,Arezzo
62.149.128.154,4,1,zucchero.it,IT,Europe,Southern Europe,Italy,Tuscany,Province of Arezzo,Arezzo
62.149.128.151,4,2,zucchero.it,IT,Europe,Southern Europe,Italy,Tuscany,Province of Arezzo,Arezzo
66.22.43.46,4,11,zucchetti.com,IT,Europe,Southern Europe,Italy,Lombardy,Milan,Milan
66.22.43.47,4,11,zucchetti.it,IT,Europe,Southern Europe,Italy,Lombardy,Milan,Milan
213.158.93.53,4,3,zumex.com,IT,Europe,Southern Europe,Italy,,,
