reflector_ip,ip_version,offset,description,country_code,region,sub_region,country_name,sub_division_1,sub_division_2,city
150.230.199.96,4,11,adfwebmagazine.jp,JP,Asia,Eastern Asia,Japan,Chiba,,Inzai
150.230.192.239,4,3,alafista.com,JP,Asia,Eastern Asia,Japan,Chiba,,Inzai
131.186.61.83,4,51,anibu.jp,JP,Asia,Eastern Asia,Japan,Chiba,,Inzai
131.186.35.85,4,0,correc.co.jp,JP,Asia,Eastern Asia,Japan,Chiba,,Inzai
158.101.143.5,4,-1,cybergadget.co.jp,JP,Asia,Eastern Asia,Japan,Chiba,,Inzai
152.70.99.40,4,20,eigeki.com,JP,Asia,Eastern Asia,Japan,Chiba,,Inzai
131.186.56.176,4,3,eroanimelg.com,JP,Asia,Eastern Asia,Japan,Chiba,,Inzai
131.186.62.237,4,6,fmyamato.co.jp,JP,Asia,Eastern Asia,Japan,Chiba,,Inzai
138.3.223.229,4,3,garow.me,JP,Asia,Eastern Asia,Japan,Chiba,,Inzai
152.70.111.31,4,15,gaw.cc,JP,Asia,Eastern Asia,Japan,Chiba,,Inzai
141.147.171.28,4,1,homedrama-ch.com,JP,Asia,Eastern Asia,Japan,Chiba,,Inzai
155.248.168.113,4,17,ito-marinetown.co.jp,JP,Asia,Eastern Asia,Japan,Chiba,,Inzai
155.248.164.105,4,11,leavesongs.com,JP,Asia,Eastern Asia,Japan,Chiba,,Inzai
132.226.8.129,4,30,mirai-kougaku.jp,JP,Asia,Eastern Asia,Japan,Chiba,,Inzai
158.101.91.62,4,9,novac.co.jp,JP,Asia,Eastern Asia,Japan,Chiba,,Inzai
150.230.202.222,4,5,o-dan.net,JP,Asia,Eastern Asia,Japan,Chiba,,Inzai
168.138.216.239,4,27,plathome.co.jp,JP,Asia,Eastern Asia,Japan,Chiba,,Inzai
155.248.187.121,4,9,podzinger.com,JP,Asia,Eastern Asia,Japan,Chiba,,Inzai
138.2.9.241,4,-1,reportitle.com,JP,Asia,Eastern Asia,Japan,Chiba,,Inzai
155.248.179.52,4,0,rlegsoftware.com,JP,Asia,Eastern Asia,Japan,Chiba,,Inzai
152.70.111.188,4,4,salon-de-maalish.com,JP,Asia,Eastern Asia,Japan,Chiba,,Inzai
155.248.166.136,4,52,schoolnetwork.jp,JP,Asia,Eastern Asia,Japan,Chiba,,Inzai
155.248.171.112,4,11,smartpharmrx.com,JP,Asia,Eastern Asia,Japan,Chiba,,Inzai
132.226.2.19,4,5,tailblog.com,JP,Asia,Eastern Asia,Japan,Chiba,,Inzai
141.147.170.44,4,43,tenshoku-base.com,JP,Asia,Eastern Asia,Japan,Chiba,,Inzai
140.83.34.244,4,25,toradolcuwiso.com,JP,Asia,Eastern Asia,Japan,Chiba,,Inzai
106.186.93.49,4,6,toshiba.co.jp,JP,Asia,Eastern Asia,Japan,Chiba,,Inzai
150.230.102.139,4,4,uchiagehanabi.jp,JP,Asia,Eastern Asia,Japan,Chiba,,Inzai
158.101.87.136,4,4,ushigyu.net,JP,Asia,Eastern Asia,Japan,Chiba,,Inzai
138.2.21.2,4,1,viagraocns.com,JP,Asia,Eastern Asia,Japan,Chiba,,Inzai
141.147.168.132,4,15,wakasaimo.com,JP,Asia,Eastern Asia,Japan,Chiba,,Inzai
132.226.2.111,4,3,wasedajg.ed.jp,JP,Asia,Eastern Asia,Japan,Chiba,,Inzai
150.230.216.75,4,-1,xhamster.toys,JP,Asia,Eastern Asia,Japan,Chiba,,Inzai
138.2.25.124,4,1,yamashin-grp.co.jp,JP,Asia,Eastern Asia,Japan,Chiba,,Inzai
150.230.194.151,4,5,yuming.co.jp,JP,Asia,Eastern Asia,Japan,Chiba,,Inzai
