reflector_ip,ip_version,offset,description,country_code,region,sub_region,country_name,sub_division_1,sub_division_2,city
31.214.178.48,4,25,bloguismo.com,ES,Europe,Southern Europe,Spain,Balearic Islands,Balearic Islands,Ibiza Town
31.214.178.62,4,12,cafecentralmadrid.com,ES,Europe,Southern Europe,Spain,Balearic Islands,Balearic Islands,Ibiza Town
31.214.178.28,4,47,catedralprimada.es,ES,Europe,Southern Europe,Spain,Balearic Islands,Balearic Islands,Ibiza Town
31.214.178.53,4,28,clinicadelpiesanjuan.com,ES,Europe,Southern Europe,Spain,Balearic Islands,Balearic Islands,Ibiza Town
31.214.178.80,4,265,crowdlending.es,ES,Europe,Southern Europe,Spain,Balearic Islands,Balearic Islands,Ibiza Town
31.214.178.22,4,12,dstageconcept.com,ES,Europe,Southern Europe,Spain,Balearic Islands,Balearic Islands,Ibiza Town
31.214.178.54,4,17,electronicid.eu,ES,Europe,Southern Europe,Spain,Balearic Islands,Balearic Islands,Ibiza Town
80.32.132.157,4,2936,elhierro.es,ES,Europe,Southern Europe,Spain,Balearic Islands,Balearic Islands,Ibiza Town
31.214.178.82,4,9,fxinteractive.com,ES,Europe,Southern Europe,Spain,Balearic Islands,Balearic Islands,Ibiza Town
31.214.178.118,4,24,gifmania.com,ES,Europe,Southern Europe,Spain,Balearic Islands,Balearic Islands,Ibiza Town
31.214.178.57,4,11,jha.ac,ES,Europe,Southern Europe,Spain,Balearic Islands,Balearic Islands,Ibiza Town
31.214.178.32,4,9,lleonardmuntanereditor.cat,ES,Europe,Southern Europe,Spain,Balearic Islands,Balearic Islands,Ibiza Town
31.214.178.31,4,64,logrono24.com,ES,Europe,Southern Europe,Spain,Balearic Islands,Balearic Islands,Ibiza Town
31.214.178.56,4,7,megabrass.com,ES,Europe,Southern Europe,Spain,Balearic Islands,Balearic Islands,Ibiza Town
31.214.178.18,4,8,mercadodesanildefonso.com,ES,Europe,Southern Europe,Spain,Balearic Islands,Balearic Islands,Ibiza Town
31.214.178.70,4,6,movilfrio.com,ES,Europe,Southern Europe,Spain,Balearic Islands,Balearic Islands,Ibiza Town
31.214.178.44,4,9,observatoriosostenibilidad.com,ES,Europe,Southern Europe,Spain,Balearic Islands,Balearic Islands,Ibiza Town
31.214.178.88,4,9,observatoriosostenibilidad.org,ES,Europe,Southern Europe,Spain,Balearic Islands,Balearic Islands,Ibiza Town
31.214.178.123,4,280,Ookla Speedtest Server 4988: speedtest.conectabalear.com,ES,Europe,Southern Europe,Spain,Balearic Islands,Balearic Islands,Ibiza Town
31.214.178.46,4,24,plateamagazine.com,ES,Europe,Southern Europe,Spain,Balearic Islands,Balearic Islands,Ibiza Town
31.214.178.25,4,30,profust.com,ES,Europe,Southern Europe,Spain,Balearic Islands,Balearic Islands,Ibiza Town
31.214.178.6,4,-15,rinace.net,ES,Europe,Southern Europe,Spain,Balearic Islands,Balearic Islands,Ibiza Town
31.214.178.9,4,23,sevillanadelimpieza.com,ES,Europe,Southern Europe,Spain,Balearic Islands,Balearic Islands,Ibiza Town
31.214.178.110,4,22,shadowfist.com,ES,Europe,Southern Europe,Spain,Balearic Islands,Balearic Islands,Ibiza Town
31.214.178.12,4,70,stratos-ad.com,ES,Europe,Southern Europe,Spain,Balearic Islands,Balearic Islands,Ibiza Town
31.214.178.39,4,70,teleline.es,ES,Europe,Southern Europe,Spain,Balearic Islands,Balearic Islands,Ibiza Town
31.214.178.55,4,9,thepower.education,ES,Europe,Southern Europe,Spain,Balearic Islands,Balearic Islands,Ibiza Town
31.214.178.3,4,30,todoscontraelcanon.es,ES,Europe,Southern Europe,Spain,Balearic Islands,Balearic Islands,Ibiza Town
