reflector_ip,ip_version,offset,description,country_code,region,sub_region,country_name,sub_division_1,sub_division_2,city
188.165.40.162,4,31,abondance.com,GB,Europe,Northern Europe,United Kingdom,England,Birmingham,Birmingham
188.165.54.161,4,10,aime.co,GB,Europe,Northern Europe,United Kingdom,England,Birmingham,Birmingham
188.165.24.158,4,19,amoxicillino.com,GB,Europe,Northern Europe,United Kingdom,England,Birmingham,Birmingham
188.165.23.58,4,11,anwis.pl,GB,Europe,Northern Europe,United Kingdom,England,Birmingham,Birmingham
188.165.46.1,4,500188,archive-host.com,GB,Europe,Northern Europe,United Kingdom,England,Birmingham,Birmingham
188.165.37.170,4,-22673,argences.com,GB,Europe,Northern Europe,United Kingdom,England,Birmingham,Birmingham
188.165.29.126,4,38,audruvissporthorses.lt,GB,Europe,Northern Europe,United Kingdom,England,Birmingham,Birmingham
188.165.39.171,4,59,baby-confort.com,GB,Europe,Northern Europe,United Kingdom,England,Birmingham,Birmingham
188.165.1.100,4,-8144,betapolitique.fr,GB,Europe,Northern Europe,United Kingdom,England,Birmingham,Birmingham
188.165.5.70,4,36,binancebot.com,GB,Europe,Northern Europe,United Kingdom,England,Birmingham,Birmingham
188.165.51.99,4,4,bioalaune.com,GB,Europe,Northern Europe,United Kingdom,England,Birmingham,Birmingham
188.165.37.107,4,65,biranger.jp,GB,Europe,Northern Europe,United Kingdom,England,Birmingham,Birmingham
188.165.0.60,4,17,bloggspace.se,GB,Europe,Northern Europe,United Kingdom,England,Birmingham,Birmingham
188.165.17.82,4,6,blogx.pl,GB,Europe,Northern Europe,United Kingdom,England,Birmingham,Birmingham
188.165.26.64,4,-825451,cablexconsulting.com,GB,Europe,Northern Europe,United Kingdom,England,Birmingham,Birmingham
188.165.39.58,4,16,carreartmusee.com,GB,Europe,Northern Europe,United Kingdom,England,Birmingham,Birmingham
188.165.49.251,4,12,casino2000.lu,GB,Europe,Northern Europe,United Kingdom,England,Birmingham,Birmingham
188.165.60.58,4,-1953,clinisciences.com,GB,Europe,Northern Europe,United Kingdom,England,Birmingham,Birmingham
188.165.53.150,4,15,comptoir-irlandais.com,GB,Europe,Northern Europe,United Kingdom,England,Birmingham,Birmingham
188.165.54.211,4,7,danneo.com,GB,Europe,Northern Europe,United Kingdom,England,Birmingham,Birmingham
188.165.17.31,4,52,darla.top,GB,Europe,Northern Europe,United Kingdom,England,Birmingham,Birmingham
188.165.41.177,4,7,dioceseparis.fr,GB,Europe,Northern Europe,United Kingdom,England,Birmingham,Birmingham
94.30.26.142,4,-4242640428,DNS Server: 94-30-26-142.xdsl.murphx.net,GB,Europe,Northern Europe,United Kingdom,England,Birmingham,Birmingham
81.178.72.30,4,3539,DNS Server: host-81-178-72-30.static.as13285.net,GB,Europe,Northern Europe,United Kingdom,England,Birmingham,Birmingham
188.165.20.24,4,185,easy-surfshop.com,GB,Europe,Northern Europe,United Kingdom,England,Birmingham,Birmingham
188.165.34.206,4,5,ecagroup.com,GB,Europe,Northern Europe,United Kingdom,England,Birmingham,Birmingham
188.165.17.214,4,51743,eko.org.pl,GB,Europe,Northern Europe,United Kingdom,England,Birmingham,Birmingham
188.165.2.88,4,1048,embrios.org,GB,Europe,Northern Europe,United Kingdom,England,Birmingham,Birmingham
188.165.2.8,4,34,et20.com,GB,Europe,Northern Europe,United Kingdom,England,Birmingham,Birmingham
188.165.34.244,4,13,everlastgenerators.com,GB,Europe,Northern Europe,United Kingdom,England,Birmingham,Birmingham
188.165.46.189,4,7,gggminternational.org,GB,Europe,Northern Europe,United Kingdom,England,Birmingham,Birmingham
188.165.17.178,4,66,giacomo.pl,GB,Europe,Northern Europe,United Kingdom,England,Birmingham,Birmingham
188.165.54.213,4,22,global-chance.org,GB,Europe,Northern Europe,United Kingdom,England,Birmingham,Birmingham
188.165.53.20,4,4,h1n.ru,GB,Europe,Northern Europe,United Kingdom,England,Birmingham,Birmingham
188.165.18.210,4,21,hostuje.net,GB,Europe,Northern Europe,United Kingdom,England,Birmingham,Birmingham
188.165.1.16,4,1030,hypestyleco.net,GB,Europe,Northern Europe,United Kingdom,England,Birmingham,Birmingham
188.165.39.198,4,9,inklineglobal.net,GB,Europe,Northern Europe,United Kingdom,England,Birmingham,Birmingham
188.165.32.16,4,1334,ipduh.com,GB,Europe,Northern Europe,United Kingdom,England,Birmingham,Birmingham
188.165.23.19,4,60,ipolmex.com,GB,Europe,Northern Europe,United Kingdom,England,Birmingham,Birmingham
188.165.50.3,4,3,jawg.io,GB,Europe,Northern Europe,United Kingdom,England,Birmingham,Birmingham
188.165.16.12,4,8,jbzd.com.pl,GB,Europe,Northern Europe,United Kingdom,England,Birmingham,Birmingham
188.165.16.245,4,3,jbzd.com.pl,GB,Europe,Northern Europe,United Kingdom,England,Birmingham,Birmingham
188.165.6.20,4,37,jordans.pt,GB,Europe,Northern Europe,United Kingdom,England,Birmingham,Birmingham
188.165.43.237,4,8,kartoo.com,GB,Europe,Northern Europe,United Kingdom,England,Birmingham,Birmingham
188.165.1.248,4,3,kosmetichka74.ru,GB,Europe,Northern Europe,United Kingdom,England,Birmingham,Birmingham
188.165.32.75,4,4,ktel.org,GB,Europe,Northern Europe,United Kingdom,England,Birmingham,Birmingham
188.165.35.204,4,1751,lebonprint.com,GB,Europe,Northern Europe,United Kingdom,England,Birmingham,Birmingham
188.165.19.189,4,-49558,lodzkie.eu,GB,Europe,Northern Europe,United Kingdom,England,Birmingham,Birmingham
188.165.30.42,4,5,lucky-jetcash.com,GB,Europe,Northern Europe,United Kingdom,England,Birmingham,Birmingham
188.165.60.93,4,2,m0k.org,GB,Europe,Northern Europe,United Kingdom,England,Birmingham,Birmingham
188.165.14.16,4,16120,mediavacances.com,GB,Europe,Northern Europe,United Kingdom,England,Birmingham,Birmingham
188.165.37.84,4,2415,millau.fr,GB,Europe,Northern Europe,United Kingdom,England,Birmingham,Birmingham
188.165.50.64,4,2,natron.fr,GB,Europe,Northern Europe,United Kingdom,England,Birmingham,Birmingham
188.165.49.155,4,19,neozone.org,GB,Europe,Northern Europe,United Kingdom,England,Birmingham,Birmingham
188.165.42.17,4,20,netoo.com,GB,Europe,Northern Europe,United Kingdom,England,Birmingham,Birmingham
188.165.33.98,4,7,nouslib.com,GB,Europe,Northern Europe,United Kingdom,England,Birmingham,Birmingham
188.165.26.22,4,101,onlinecustomessays.com,GB,Europe,Northern Europe,United Kingdom,England,Birmingham,Birmingham
188.165.17.23,4,3,onnetwork.tv,GB,Europe,Northern Europe,United Kingdom,England,Birmingham,Birmingham
194.163.224.66,4,293,Ookla Speedtest Server 59135: speedtestmnc.grainconnect.com,GB,Europe,Northern Europe,United Kingdom,England,Birmingham,Birmingham
188.165.55.220,4,19,pharmashopdiscount.com,GB,Europe,Northern Europe,United Kingdom,England,Birmingham,Birmingham
188.165.1.75,4,9,pinetreeweb.com,GB,Europe,Northern Europe,United Kingdom,England,Birmingham,Birmingham
188.165.41.129,4,22,powellflutes.com,GB,Europe,Northern Europe,United Kingdom,England,Birmingham,Birmingham
188.165.33.44,4,-16,priice.net,GB,Europe,Northern Europe,United Kingdom,England,Birmingham,Birmingham
188.165.2.51,4,8,probk76.ru,GB,Europe,Northern Europe,United Kingdom,England,Birmingham,Birmingham
188.165.62.197,4,1247,provelo.org,GB,Europe,Northern Europe,United Kingdom,England,Birmingham,Birmingham
188.165.36.173,4,56,reflex-boutique.fr,GB,Europe,Northern Europe,United Kingdom,England,Birmingham,Birmingham
188.165.45.34,4,18,reseaucompost.org,GB,Europe,Northern Europe,United Kingdom,England,Birmingham,Birmingham
188.165.57.39,4,35,salondelamariee.com,GB,Europe,Northern Europe,United Kingdom,England,Birmingham,Birmingham
188.165.0.70,4,4,scdhec.net,GB,Europe,Northern Europe,United Kingdom,England,Birmingham,Birmingham
188.165.0.143,4,87,scottishdisabilitysport.com,GB,Europe,Northern Europe,United Kingdom,England,Birmingham,Birmingham
188.165.53.184,4,31,searchdomainhere.com,GB,Europe,Northern Europe,United Kingdom,England,Birmingham,Birmingham
188.165.1.160,4,4,shariah.top,GB,Europe,Northern Europe,United Kingdom,England,Birmingham,Birmingham
188.165.34.239,4,19,stade-rennais-online.com,GB,Europe,Northern Europe,United Kingdom,England,Birmingham,Birmingham
188.165.59.95,4,26,stara.fi,GB,Europe,Northern Europe,United Kingdom,England,Birmingham,Birmingham
188.165.17.195,4,2,startpalace.be,GB,Europe,Northern Europe,United Kingdom,England,Birmingham,Birmingham
188.165.44.188,4,-424801,temposvegasicilia.com,GB,Europe,Northern Europe,United Kingdom,England,Birmingham,Birmingham
188.165.25.208,4,1039,terminalbrewhouse.com,GB,Europe,Northern Europe,United Kingdom,England,Birmingham,Birmingham
188.165.42.135,4,8,tglcreation.com,GB,Europe,Northern Europe,United Kingdom,England,Birmingham,Birmingham
188.165.1.58,4,9,thatlevelagain.ru,GB,Europe,Northern Europe,United Kingdom,England,Birmingham,Birmingham
188.165.28.12,4,-44652,theundersigned.net,GB,Europe,Northern Europe,United Kingdom,England,Birmingham,Birmingham
188.165.27.218,4,5,toryburchsale.com.co,GB,Europe,Northern Europe,United Kingdom,England,Birmingham,Birmingham
188.165.49.11,4,25,tourisme-obernai.fr,GB,Europe,Northern Europe,United Kingdom,England,Birmingham,Birmingham
188.165.45.254,4,9,toute-la-franchise.com,GB,Europe,Northern Europe,United Kingdom,England,Birmingham,Birmingham
188.165.55.221,4,7,tpa.fr,GB,Europe,Northern Europe,United Kingdom,England,Birmingham,Birmingham
188.165.55.179,4,2310575,twenga.com,GB,Europe,Northern Europe,United Kingdom,England,Birmingham,Birmingham
188.165.61.82,4,4,urbasense.fr,GB,Europe,Northern Europe,United Kingdom,England,Birmingham,Birmingham
188.165.16.173,4,-20,v10.pl,GB,Europe,Northern Europe,United Kingdom,England,Birmingham,Birmingham
188.165.54.204,4,7,visitfrenchwine.com,GB,Europe,Northern Europe,United Kingdom,England,Birmingham,Birmingham
188.165.5.107,4,4,w4games.com,GB,Europe,Northern Europe,United Kingdom,England,Birmingham,Birmingham
188.165.3.40,4,7,web100.org,GB,Europe,Northern Europe,United Kingdom,England,Birmingham,Birmingham
188.165.2.224,4,4,websitecentrum.nl,GB,Europe,Northern Europe,United Kingdom,England,Birmingham,Birmingham
188.165.28.73,4,12,werbe-lexikon.info,GB,Europe,Northern Europe,United Kingdom,England,Birmingham,Birmingham
188.165.20.150,4,182,wiocha.pl,GB,Europe,Northern Europe,United Kingdom,England,Birmingham,Birmingham
188.165.53.185,4,16,womeningamesfrance.org,GB,Europe,Northern Europe,United Kingdom,England,Birmingham,Birmingham
188.165.21.8,4,7,wsb2.pl,GB,Europe,Northern Europe,United Kingdom,England,Birmingham,Birmingham
188.165.23.216,4,3,www.ferncooper.uk,GB,Europe,Northern Europe,United Kingdom,England,Birmingham,Birmingham
188.165.6.35,4,3,wwwcanadagoose-jacketsuk.com.co,GB,Europe,Northern Europe,United Kingdom,England,Birmingham,Birmingham
188.165.24.131,4,4,younggogetter.com,GB,Europe,Northern Europe,United Kingdom,England,Birmingham,Birmingham
