reflector_ip,ip_version,offset,description,country_code,region,sub_region,country_name,sub_division_1,sub_division_2,city
183.181.86.2,4,2,1111piano.com,JP,Asia,Eastern Asia,Japan,Okayama,,Seikibashi
183.181.81.28,4,-12,1chan.blog,JP,Asia,Eastern Asia,Japan,Okayama,,Seikibashi
183.181.90.161,4,0,551horai.co.jp,JP,Asia,Eastern Asia,Japan,Okayama,,Seikibashi
183.181.88.15,4,-13,88shikokuhenro.jp,JP,Asia,Eastern Asia,Japan,Okayama,,Seikibashi
183.181.88.68,4,7,abemonjuin.or.jp,JP,Asia,Eastern Asia,Japan,Okayama,,Seikibashi
183.181.86.132,4,5,aidemy.net,JP,Asia,Eastern Asia,Japan,Okayama,,Seikibashi
183.181.89.133,4,2,akicomp.com,JP,Asia,Eastern Asia,Japan,Okayama,,Seikibashi
183.181.84.13,4,3,aktlink.com,JP,Asia,Eastern Asia,Japan,Okayama,,Seikibashi
183.181.84.116,4,36,anabuki-enter.jp,JP,Asia,Eastern Asia,Japan,Okayama,,Seikibashi
183.181.94.6,4,349,aomori-airport.co.jp,JP,Asia,Eastern Asia,Japan,Okayama,,Seikibashi
183.181.89.20,4,0,aots.jp,JP,Asia,Eastern Asia,Japan,Okayama,,Seikibashi
183.181.90.46,4,18,arcj.org,JP,Asia,Eastern Asia,Japan,Okayama,,Seikibashi
183.181.88.76,4,6,bio-antiageing.co.jp,JP,Asia,Eastern Asia,Japan,Okayama,,Seikibashi
183.181.89.6,4,0,biome.co.jp,JP,Asia,Eastern Asia,Japan,Okayama,,Seikibashi
183.181.86.15,4,-4,birukan.jp,JP,Asia,Eastern Asia,Japan,Okayama,,Seikibashi
183.181.85.19,4,-15,bittimes.net,JP,Asia,Eastern Asia,Japan,Okayama,,Seikibashi
183.181.91.135,4,7,biwakokisen.co.jp,JP,Asia,Eastern Asia,Japan,Okayama,,Seikibashi
183.181.90.73,4,-14,blackrockshooter.jp,JP,Asia,Eastern Asia,Japan,Okayama,,Seikibashi
183.181.91.22,4,-10,blogzine.jp,JP,Asia,Eastern Asia,Japan,Okayama,,Seikibashi
183.181.90.92,4,-13,bonus-track.net,JP,Asia,Eastern Asia,Japan,Okayama,,Seikibashi
183.181.90.99,4,-10,books-ogaki.co.jp,JP,Asia,Eastern Asia,Japan,Okayama,,Seikibashi
183.181.84.117,4,16,brgsw719.com,JP,Asia,Eastern Asia,Japan,Okayama,,Seikibashi
183.181.88.9,4,13,bruru.jp,JP,Asia,Eastern Asia,Japan,Okayama,,Seikibashi
183.181.84.101,4,17,bslabo.org,JP,Asia,Eastern Asia,Japan,Okayama,,Seikibashi
183.181.91.127,4,-15,buzzap.jp,JP,Asia,Eastern Asia,Japan,Okayama,,Seikibashi
183.181.86.147,4,3,cambridgebarrel.com,JP,Asia,Eastern Asia,Japan,Okayama,,Seikibashi
183.181.82.143,4,-16,carweb.tokyo,JP,Asia,Eastern Asia,Japan,Okayama,,Seikibashi
183.181.89.76,4,4,chademo.com,JP,Asia,Eastern Asia,Japan,Okayama,,Seikibashi
183.181.84.68,4,-7,cinemotions.com,JP,Asia,Eastern Asia,Japan,Okayama,,Seikibashi
183.181.84.120,4,4,classe-hotel.com,JP,Asia,Eastern Asia,Japan,Okayama,,Seikibashi
183.181.90.115,4,-11,coachandfour.ne.jp,JP,Asia,Eastern Asia,Japan,Okayama,,Seikibashi
183.181.84.149,4,-11,comhbo.net,JP,Asia,Eastern Asia,Japan,Okayama,,Seikibashi
183.181.89.88,4,-15,cscblog.jp,JP,Asia,Eastern Asia,Japan,Okayama,,Seikibashi
183.181.84.94,4,-15,d1gp.co.jp,JP,Asia,Eastern Asia,Japan,Okayama,,Seikibashi
183.181.90.69,4,-16,dainyu.or.jp,JP,Asia,Eastern Asia,Japan,Okayama,,Seikibashi
183.181.84.25,4,-1,direngrey.co.jp,JP,Asia,Eastern Asia,Japan,Okayama,,Seikibashi
183.181.91.137,4,-2,dmhcj.or.jp,JP,Asia,Eastern Asia,Japan,Okayama,,Seikibashi
211.129.155.175,4,163,DNS Server: p12175-ipbffx02sapodori.hokkaido.ocn.ne.jp,JP,Asia,Eastern Asia,Japan,Okayama,,Kurashiki
183.181.81.122,4,2,dream-seed.com,JP,Asia,Eastern Asia,Japan,Okayama,,Seikibashi
183.181.83.20,4,-16,duesselnet.com,JP,Asia,Eastern Asia,Japan,Okayama,,Seikibashi
183.181.88.143,4,-14,e-otomo.co.jp,JP,Asia,Eastern Asia,Japan,Okayama,,Seikibashi
183.181.90.16,4,-13,e-reikinet.jp,JP,Asia,Eastern Asia,Japan,Okayama,,Seikibashi
183.181.91.77,4,91,eccart.jp,JP,Asia,Eastern Asia,Japan,Okayama,,Seikibashi
183.181.85.72,4,27,elekit.co.jp,JP,Asia,Eastern Asia,Japan,Okayama,,Seikibashi
183.181.90.157,4,-9,en-hotel.com,JP,Asia,Eastern Asia,Japan,Okayama,,Seikibashi
183.181.90.26,4,-12,en-musubi-yukari.com,JP,Asia,Eastern Asia,Japan,Okayama,,Seikibashi
183.181.91.65,4,-11,expo70.or.jp,JP,Asia,Eastern Asia,Japan,Okayama,,Seikibashi
183.181.83.19,4,1,f-kankou.jp,JP,Asia,Eastern Asia,Japan,Okayama,,Seikibashi
183.181.83.161,4,2,fairytail.jp,JP,Asia,Eastern Asia,Japan,Okayama,,Seikibashi
183.181.90.25,4,-12,firesidestove.com,JP,Asia,Eastern Asia,Japan,Okayama,,Seikibashi
183.181.83.24,4,8,fitnessgym-reset.com,JP,Asia,Eastern Asia,Japan,Okayama,,Seikibashi
183.181.90.53,4,-1,fqmagazine.jp,JP,Asia,Eastern Asia,Japan,Okayama,,Seikibashi
183.181.82.159,4,-7,freealltheme.com,JP,Asia,Eastern Asia,Japan,Okayama,,Seikibashi
183.181.91.48,4,4,fukuoka-navi.jp,JP,Asia,Eastern Asia,Japan,Okayama,,Seikibashi
183.181.88.86,4,1,fukuyama-u.ac.jp,JP,Asia,Eastern Asia,Japan,Okayama,,Seikibashi
183.181.90.98,4,-9,furanobus.jp,JP,Asia,Eastern Asia,Japan,Okayama,,Seikibashi
183.181.88.93,4,-15,fx231023.com,JP,Asia,Eastern Asia,Japan,Okayama,,Seikibashi
183.181.82.147,4,-16,gankagarou.com,JP,Asia,Eastern Asia,Japan,Okayama,,Seikibashi
183.181.81.21,4,14,gaprise.com,JP,Asia,Eastern Asia,Japan,Okayama,,Seikibashi
183.181.84.59,4,-2,gardening.co.jp,JP,Asia,Eastern Asia,Japan,Okayama,,Seikibashi
183.181.90.72,4,3,gear.ac,JP,Asia,Eastern Asia,Japan,Okayama,,Seikibashi
183.181.88.39,4,4,global-vision.org,JP,Asia,Eastern Asia,Japan,Okayama,,Seikibashi
183.181.91.60,4,10,gogen-yurai.jp,JP,Asia,Eastern Asia,Japan,Okayama,,Seikibashi
183.181.82.113,4,21,gpad.tv,JP,Asia,Eastern Asia,Japan,Okayama,,Seikibashi
183.181.82.16,4,-9,grandecorp.jp,JP,Asia,Eastern Asia,Japan,Okayama,,Seikibashi
183.181.81.72,4,-15,grandvrio-hotelresort.com,JP,Asia,Eastern Asia,Japan,Okayama,,Seikibashi
183.181.88.5,4,-16,hachiojibunka.or.jp,JP,Asia,Eastern Asia,Japan,Okayama,,Seikibashi
183.181.82.13,4,-11,hadalove.jp,JP,Asia,Eastern Asia,Japan,Okayama,,Seikibashi
183.181.94.89,4,3,hama1-cl.jp,JP,Asia,Eastern Asia,Japan,Okayama,,Seikibashi
183.181.82.132,4,2,hassin.net,JP,Asia,Eastern Asia,Japan,Okayama,,Seikibashi
183.181.89.39,4,-14,hexanft.com,JP,Asia,Eastern Asia,Japan,Okayama,,Seikibashi
183.181.86.75,4,-4,hongu.jp,JP,Asia,Eastern Asia,Japan,Okayama,,Seikibashi
183.181.91.46,4,0,hpranking.com,JP,Asia,Eastern Asia,Japan,Okayama,,Seikibashi
183.181.88.79,4,-1,hyotan-onsen.com,JP,Asia,Eastern Asia,Japan,Okayama,,Seikibashi
183.181.89.90,4,-12,ikutajinja.or.jp,JP,Asia,Eastern Asia,Japan,Okayama,,Seikibashi
183.181.91.72,4,0,inh.co.jp,JP,Asia,Eastern Asia,Japan,Okayama,,Seikibashi
183.181.84.36,4,1,iroha-seikotsu.com,JP,Asia,Eastern Asia,Japan,Okayama,,Seikibashi
183.181.84.158,4,-13,ishigaki-airport.co.jp,JP,Asia,Eastern Asia,Japan,Okayama,,Seikibashi
183.181.81.71,4,-11,ishimura.co.jp,JP,Asia,Eastern Asia,Japan,Okayama,,Seikibashi
183.181.83.68,4,2,item-get.com,JP,Asia,Eastern Asia,Japan,Okayama,,Seikibashi
183.181.89.32,4,-10,itojisan.xyz,JP,Asia,Eastern Asia,Japan,Okayama,,Seikibashi
183.181.94.152,4,6,jacom.or.jp,JP,Asia,Eastern Asia,Japan,Okayama,,Seikibashi
183.181.86.96,4,-10,japa.org,JP,Asia,Eastern Asia,Japan,Okayama,,Seikibashi
183.181.88.27,4,-9,jhsnet.net,JP,Asia,Eastern Asia,Japan,Okayama,,Seikibashi
183.181.85.108,4,-16,jiichiro.com,JP,Asia,Eastern Asia,Japan,Okayama,,Seikibashi
183.181.85.129,4,0,jluggage.com,JP,Asia,Eastern Asia,Japan,Okayama,,Seikibashi
183.181.91.96,4,3,jma-hcj.com,JP,Asia,Eastern Asia,Japan,Okayama,,Seikibashi
183.181.91.102,4,-11,jr-soccer.jp,JP,Asia,Eastern Asia,Japan,Okayama,,Seikibashi
183.181.86.14,4,-1,jsise.org,JP,Asia,Eastern Asia,Japan,Okayama,,Seikibashi
183.181.83.147,4,-4,jsprs.or.jp,JP,Asia,Eastern Asia,Japan,Okayama,,Seikibashi
183.181.91.154,4,-2,jtame.jp,JP,Asia,Eastern Asia,Japan,Okayama,,Seikibashi
183.181.82.77,4,4,judo.or.jp,JP,Asia,Eastern Asia,Japan,Okayama,,Seikibashi
183.181.85.98,4,11,k12ltsp.org,JP,Asia,Eastern Asia,Japan,Okayama,,Seikibashi
183.181.90.132,4,-12,kamikochi.org,JP,Asia,Eastern Asia,Japan,Okayama,,Seikibashi
183.181.82.62,4,20,kasugataisha.or.jp,JP,Asia,Eastern Asia,Japan,Okayama,,Seikibashi
183.181.90.90,4,-11,kawasaki-ac.jp,JP,Asia,Eastern Asia,Japan,Okayama,,Seikibashi
183.181.81.11,4,-15,ketto.com,JP,Asia,Eastern Asia,Japan,Okayama,,Seikibashi
183.181.83.69,4,-10,keyplayers.jp,JP,Asia,Eastern Asia,Japan,Okayama,,Seikibashi
183.181.82.22,4,-29,kibitsuhiko.or.jp,JP,Asia,Eastern Asia,Japan,Okayama,,Seikibashi
183.181.89.71,4,-17,kiddyland.co.jp,JP,Asia,Eastern Asia,Japan,Okayama,,Seikibashi
183.181.85.69,4,-12,kisai-green-golf.jp,JP,Asia,Eastern Asia,Japan,Okayama,,Seikibashi
183.181.84.115,4,5,kiseiju.com,JP,Asia,Eastern Asia,Japan,Okayama,,Seikibashi
183.181.85.50,4,-2,kjmonet.jp,JP,Asia,Eastern Asia,Japan,Okayama,,Seikibashi
183.181.90.18,4,32,kobewinery.or.jp,JP,Asia,Eastern Asia,Japan,Okayama,,Seikibashi
183.181.90.156,4,2,kousokuwiki.org,JP,Asia,Eastern Asia,Japan,Okayama,,Seikibashi
183.181.86.102,4,2,kozosushi.co.jp,JP,Asia,Eastern Asia,Japan,Okayama,,Seikibashi
183.181.86.130,4,0,kumamoto-airport.co.jp,JP,Asia,Eastern Asia,Japan,Okayama,,Seikibashi
183.181.89.19,4,3,kumazawa.jp,JP,Asia,Eastern Asia,Japan,Okayama,,Seikibashi
183.181.86.93,4,-4,kyodo-pr.co.jp,JP,Asia,Eastern Asia,Japan,Okayama,,Seikibashi
183.181.88.4,4,4,ladonna-co.net,JP,Asia,Eastern Asia,Japan,Okayama,,Seikibashi
183.181.83.142,4,-16,lme.jp,JP,Asia,Eastern Asia,Japan,Okayama,,Seikibashi
183.181.83.109,4,-14,lmg.jp,JP,Asia,Eastern Asia,Japan,Okayama,,Seikibashi
183.181.81.143,4,0,lovetonana.com,JP,Asia,Eastern Asia,Japan,Okayama,,Seikibashi
183.181.83.66,4,54,lv2-cheat.com,JP,Asia,Eastern Asia,Japan,Okayama,,Seikibashi
183.181.90.102,4,22,maoujo-anime.com,JP,Asia,Eastern Asia,Japan,Okayama,,Seikibashi
183.181.94.194,4,-1497,metamoji.com,JP,Asia,Eastern Asia,Japan,Okayama,,Seikibashi
183.181.86.66,4,19,mikasasports.co.jp,JP,Asia,Eastern Asia,Japan,Okayama,,Seikibashi
183.181.88.13,4,0,mile-sensei.com,JP,Asia,Eastern Asia,Japan,Okayama,,Seikibashi
183.181.81.136,4,45,mitaka.or.jp,JP,Asia,Eastern Asia,Japan,Okayama,,Seikibashi
183.181.83.23,4,-12,mitera.org,JP,Asia,Eastern Asia,Japan,Okayama,,Seikibashi
183.181.91.25,4,-13,mitok.info,JP,Asia,Eastern Asia,Japan,Okayama,,Seikibashi
183.181.94.10,4,331,miyagi-kankou.or.jp,JP,Asia,Eastern Asia,Japan,Okayama,,Seikibashi
183.181.82.81,4,-12,miyashikai.jp,JP,Asia,Eastern Asia,Japan,Okayama,,Seikibashi
183.181.86.41,4,-15,moka-railway.co.jp,JP,Asia,Eastern Asia,Japan,Okayama,,Seikibashi
183.181.84.23,4,-3,monja.gr.jp,JP,Asia,Eastern Asia,Japan,Okayama,,Seikibashi
183.181.91.44,4,0,ms-cotton.com,JP,Asia,Eastern Asia,Japan,Okayama,,Seikibashi
183.181.88.102,4,-17,mt-heavens.com,JP,Asia,Eastern Asia,Japan,Okayama,,Seikibashi
183.181.90.56,4,-3,munetsuguhall.com,JP,Asia,Eastern Asia,Japan,Okayama,,Seikibashi
183.181.94.143,4,33,murakamifarm.com,JP,Asia,Eastern Asia,Japan,Okayama,,Seikibashi
183.181.83.137,4,19,n-folder.com,JP,Asia,Eastern Asia,Japan,Okayama,,Seikibashi
183.181.84.22,4,-4,nanbubijin.co.jp,JP,Asia,Eastern Asia,Japan,Okayama,,Seikibashi
183.181.91.47,4,-8,nasu-gardenoutlet.com,JP,Asia,Eastern Asia,Japan,Okayama,,Seikibashi
183.181.86.64,4,2,neco-republic.jp,JP,Asia,Eastern Asia,Japan,Okayama,,Seikibashi
183.181.91.141,4,-11,negitaku.org,JP,Asia,Eastern Asia,Japan,Okayama,,Seikibashi
183.181.91.134,4,5,nendo.jp,JP,Asia,Eastern Asia,Japan,Okayama,,Seikibashi
183.181.84.33,4,-12,neweurasia.net,JP,Asia,Eastern Asia,Japan,Okayama,,Seikibashi
183.181.94.218,4,-9,nicola.jp,JP,Asia,Eastern Asia,Japan,Okayama,,Seikibashi
183.181.84.112,4,-3,nikko-kumamoto.co.jp,JP,Asia,Eastern Asia,Japan,Okayama,,Seikibashi
183.181.94.207,4,4,nishinihonjrbus.co.jp,JP,Asia,Eastern Asia,Japan,Okayama,,Seikibashi
183.181.85.29,4,11,nishiokanko.com,JP,Asia,Eastern Asia,Japan,Okayama,,Seikibashi
183.181.84.55,4,0,npf.or.jp,JP,Asia,Eastern Asia,Japan,Okayama,,Seikibashi
183.181.86.38,4,-10,o-a-o.jp,JP,Asia,Eastern Asia,Japan,Okayama,,Seikibashi
183.181.83.115,4,-13,obusekanko.jp,JP,Asia,Eastern Asia,Japan,Okayama,,Seikibashi
183.181.90.153,4,1,olive-pk.jp,JP,Asia,Eastern Asia,Japan,Okayama,,Seikibashi
183.181.89.27,4,-18,orientechnologies.com,JP,Asia,Eastern Asia,Japan,Okayama,,Seikibashi
183.181.88.149,4,6,origami.gr.jp,JP,Asia,Eastern Asia,Japan,Okayama,,Seikibashi
183.181.86.63,4,-12,osakacastlepark.jp,JP,Asia,Eastern Asia,Japan,Okayama,,Seikibashi
183.181.88.31,4,-2,osundefender.org,JP,Asia,Eastern Asia,Japan,Okayama,,Seikibashi
183.181.82.136,4,-9,peace-forum.com,JP,Asia,Eastern Asia,Japan,Okayama,,Seikibashi
183.181.83.96,4,6,pearlgakki.com,JP,Asia,Eastern Asia,Japan,Okayama,,Seikibashi
183.181.81.93,4,-12,plamosoku.com,JP,Asia,Eastern Asia,Japan,Okayama,,Seikibashi
183.181.85.80,4,43,poupelle.com,JP,Asia,Eastern Asia,Japan,Okayama,,Seikibashi
183.181.82.107,4,-13,progrit.co.jp,JP,Asia,Eastern Asia,Japan,Okayama,,Seikibashi
183.181.84.12,4,2,prsj.or.jp,JP,Asia,Eastern Asia,Japan,Okayama,,Seikibashi
183.181.82.26,4,-23,pweditor.com,JP,Asia,Eastern Asia,Japan,Okayama,,Seikibashi
183.181.88.25,4,-14,realforce.co.jp,JP,Asia,Eastern Asia,Japan,Okayama,,Seikibashi
183.181.83.60,4,6,ringringroad.com,JP,Asia,Eastern Asia,Japan,Okayama,,Seikibashi
183.181.89.46,4,5,rio-hotels.co.jp,JP,Asia,Eastern Asia,Japan,Okayama,,Seikibashi
183.181.89.123,4,12,roumu.com,JP,Asia,Eastern Asia,Japan,Okayama,,Seikibashi
183.181.85.111,4,1,ryukyuasteeda.jp,JP,Asia,Eastern Asia,Japan,Okayama,,Seikibashi
183.181.86.47,4,-2,ryumeikan-tokyo.jp,JP,Asia,Eastern Asia,Japan,Okayama,,Seikibashi
183.181.91.87,4,-12,sailor.co.jp,JP,Asia,Eastern Asia,Japan,Okayama,,Seikibashi
183.181.84.150,4,-3,salvationarmy.or.jp,JP,Asia,Eastern Asia,Japan,Okayama,,Seikibashi
183.181.82.109,4,-1,sasafune.co.jp,JP,Asia,Eastern Asia,Japan,Okayama,,Seikibashi
183.181.83.4,4,21,segadirect.jp,JP,Asia,Eastern Asia,Japan,Okayama,,Seikibashi
183.181.85.107,4,-13,sheraton-kobe.co.jp,JP,Asia,Eastern Asia,Japan,Okayama,,Seikibashi
183.181.88.159,4,3,shonai-airport.co.jp,JP,Asia,Eastern Asia,Japan,Okayama,,Seikibashi
183.181.82.148,4,3,shoshinsha.com,JP,Asia,Eastern Asia,Japan,Okayama,,Seikibashi
183.181.89.59,4,-14,sigisan.or.jp,JP,Asia,Eastern Asia,Japan,Okayama,,Seikibashi
183.181.91.4,4,-12,singyesterday.com,JP,Asia,Eastern Asia,Japan,Okayama,,Seikibashi
183.181.81.42,4,-15,sinkinkousoku.com,JP,Asia,Eastern Asia,Japan,Okayama,,Seikibashi
183.181.90.41,4,18,slism.jp,JP,Asia,Eastern Asia,Japan,Okayama,,Seikibashi
183.181.90.38,4,9,smf.or.jp,JP,Asia,Eastern Asia,Japan,Okayama,,Seikibashi
183.181.88.108,4,26,solarjournal.jp,JP,Asia,Eastern Asia,Japan,Okayama,,Seikibashi
183.181.84.26,4,14,sompo-museum.org,JP,Asia,Eastern Asia,Japan,Okayama,,Seikibashi
183.181.89.109,4,36,spectee.co.jp,JP,Asia,Eastern Asia,Japan,Okayama,,Seikibashi
183.181.91.132,4,-8,springin.org,JP,Asia,Eastern Asia,Japan,Okayama,,Seikibashi
183.181.85.115,4,-3,sprintusers.com,JP,Asia,Eastern Asia,Japan,Okayama,,Seikibashi
183.181.86.39,4,-15,suberouclub.com,JP,Asia,Eastern Asia,Japan,Okayama,,Seikibashi
183.181.94.199,4,-9,suisyun.jp,JP,Asia,Eastern Asia,Japan,Okayama,,Seikibashi
183.181.85.132,4,3,sumika-official.com,JP,Asia,Eastern Asia,Japan,Okayama,,Seikibashi
183.181.82.83,4,1,suntears.info,JP,Asia,Eastern Asia,Japan,Okayama,,Seikibashi
183.181.84.104,4,11,suzutera.or.jp,JP,Asia,Eastern Asia,Japan,Okayama,,Seikibashi
183.181.90.19,4,-9,sva.or.jp,JP,Asia,Eastern Asia,Japan,Okayama,,Seikibashi
183.181.89.120,4,20,sweetcotton.com,JP,Asia,Eastern Asia,Japan,Okayama,,Seikibashi
183.181.89.40,4,9,syufu-log.info,JP,Asia,Eastern Asia,Japan,Okayama,,Seikibashi
183.181.82.3,4,-12,takano.jp,JP,Asia,Eastern Asia,Japan,Okayama,,Seikibashi
183.181.81.69,4,3,takashima-kanko.jp,JP,Asia,Eastern Asia,Japan,Okayama,,Seikibashi
183.181.86.116,4,-2,talex.co.jp,JP,Asia,Eastern Asia,Japan,Okayama,,Seikibashi
183.181.91.110,4,-4,tamagawa-hanabi.com,JP,Asia,Eastern Asia,Japan,Okayama,,Seikibashi
183.181.88.100,4,-1,tatenokawa.com,JP,Asia,Eastern Asia,Japan,Okayama,,Seikibashi
183.181.94.154,4,-4,tau-hiroshima.jp,JP,Asia,Eastern Asia,Japan,Okayama,,Seikibashi
183.181.84.124,4,-16,techsider.net,JP,Asia,Eastern Asia,Japan,Okayama,,Seikibashi
183.181.81.63,4,-18,thailandelite.net,JP,Asia,Eastern Asia,Japan,Okayama,,Seikibashi
183.181.88.57,4,9,thehelpmovie.com,JP,Asia,Eastern Asia,Japan,Okayama,,Seikibashi
183.181.84.155,4,-11,tjokayama.jp,JP,Asia,Eastern Asia,Japan,Okayama,,Seikibashi
183.181.84.87,4,-9,tokyo-icc.jp,JP,Asia,Eastern Asia,Japan,Okayama,,Seikibashi
183.181.86.43,4,-5,tonooka-kagu.net,JP,Asia,Eastern Asia,Japan,Okayama,,Seikibashi
183.181.88.127,4,4,toshin-house.com,JP,Asia,Eastern Asia,Japan,Okayama,,Seikibashi
183.181.89.154,4,-2,ts-dance.jp,JP,Asia,Eastern Asia,Japan,Okayama,,Seikibashi
183.181.83.8,4,-8,tsm.ac.jp,JP,Asia,Eastern Asia,Japan,Okayama,,Seikibashi
183.181.89.127,4,-15,tsuruokakanko.com,JP,Asia,Eastern Asia,Japan,Okayama,,Seikibashi
183.181.88.63,4,-2,tuku-c.jp,JP,Asia,Eastern Asia,Japan,Okayama,,Seikibashi
183.181.81.102,4,6,ucc.or.jp,JP,Asia,Eastern Asia,Japan,Okayama,,Seikibashi
183.181.91.23,4,1,univ-journal.jp,JP,Asia,Eastern Asia,Japan,Okayama,,Seikibashi
183.181.82.38,4,-23,varesearch.com,JP,Asia,Eastern Asia,Japan,Okayama,,Seikibashi
183.181.88.30,4,0,velet.jp,JP,Asia,Eastern Asia,Japan,Okayama,,Seikibashi
183.181.89.126,4,-14,videolab.jp,JP,Asia,Eastern Asia,Japan,Okayama,,Seikibashi
183.181.89.81,4,-4,waic.jp,JP,Asia,Eastern Asia,Japan,Okayama,,Seikibashi
183.181.89.100,4,9,wakearipro.com,JP,Asia,Eastern Asia,Japan,Okayama,,Seikibashi
183.181.82.114,4,-13,wardrecords.com,JP,Asia,Eastern Asia,Japan,Okayama,,Seikibashi
183.181.88.120,4,0,wataya.co.jp,JP,Asia,Eastern Asia,Japan,Okayama,,Seikibashi
183.181.85.119,4,14,wine.or.jp,JP,Asia,Eastern Asia,Japan,Okayama,,Seikibashi
183.181.91.73,4,-7,world-note.com,JP,Asia,Eastern Asia,Japan,Okayama,,Seikibashi
183.181.88.147,4,-12,worldcosplaysummit.jp,JP,Asia,Eastern Asia,Japan,Okayama,,Seikibashi
183.181.81.98,4,-8,xenologos.com,JP,Asia,Eastern Asia,Japan,Okayama,,Seikibashi
183.181.86.53,4,-9,y-mainichi.co.jp,JP,Asia,Eastern Asia,Japan,Okayama,,Seikibashi
183.181.88.59,4,-1,yamakita.net,JP,Asia,Eastern Asia,Japan,Okayama,,Seikibashi
183.181.81.109,4,-1,yofukashi-no-uta.com,JP,Asia,Eastern Asia,Japan,Okayama,,Seikibashi
183.181.88.82,4,16,yudetaro.jp,JP,Asia,Eastern Asia,Japan,Okayama,,Seikibashi
183.181.82.64,4,-13,z-z.jp,JP,Asia,Eastern Asia,Japan,Okayama,,Seikibashi
183.181.83.136,4,10,zasshi.tv,JP,Asia,Eastern Asia,Japan,Okayama,,Seikibashi
183.181.83.71,4,30,zenyuseki.or.jp,JP,Asia,Eastern Asia,Japan,Okayama,,Seikibashi
