reflector_ip,ip_version,offset,description,country_code,region,sub_region,country_name,sub_division_1,sub_division_2,city
150.230.199.96,4,11,adfwebmagazine.jp,JP,Asia,Eastern Asia,Japan,Chiba,,Inzai
153.125.128.53,4,10,af-original.com,JP,Asia,Eastern Asia,Japan,Chiba,,Shiroi
39.110.232.162,4,1,aivy.co.jp,JP,Asia,Eastern Asia,Japan,Chiba,,Ichikawa
150.230.192.239,4,3,alafista.com,JP,Asia,Eastern Asia,Japan,Chiba,,Inzai
153.125.137.87,4,1,all-senmonka.jp,JP,Asia,Eastern Asia,Japan,Chiba,,Shiroi
131.186.61.83,4,51,anibu.jp,JP,Asia,Eastern Asia,Japan,Chiba,,Inzai
133.242.252.188,4,14,aprecio.co.jp,JP,Asia,Eastern Asia,Japan,Chiba,,Honchō
221.114.106.147,4,12,atmark-techno.com,JP,Asia,Eastern Asia,Japan,Chiba,,Honchō
39.110.226.219,4,13,atype.jp,JP,Asia,Eastern Asia,Japan,Chiba,,Ichikawa
131.186.35.85,4,0,correc.co.jp,JP,Asia,Eastern Asia,Japan,Chiba,,Inzai
158.101.143.5,4,-1,cybergadget.co.jp,JP,Asia,Eastern Asia,Japan,Chiba,,Inzai
116.91.79.48,4,-4,DNS Server: 116-91-79-48.chiba.fdn.vectant.ne.jp,JP,Asia,Eastern Asia,Japan,Chiba,,Matsudo
222.228.191.242,4,649,DNS Server: 222-228-191-242.chiba.fdn.vectant.ne.jp,JP,Asia,Eastern Asia,Japan,Chiba,,Yachiyo
39.110.226.206,4,-2149681480,DNS Server: rtxsn.univcoop.or.jp,JP,Asia,Eastern Asia,Japan,Chiba,,Ichikawa
133.242.243.167,4,3,dtbn.jp,JP,Asia,Eastern Asia,Japan,Chiba,,Honchō
133.242.241.52,4,-1,ec-cube.net,JP,Asia,Eastern Asia,Japan,Chiba,,Honchō
152.70.99.40,4,20,eigeki.com,JP,Asia,Eastern Asia,Japan,Chiba,,Inzai
131.186.56.176,4,3,eroanimelg.com,JP,Asia,Eastern Asia,Japan,Chiba,,Inzai
131.186.62.237,4,6,fmyamato.co.jp,JP,Asia,Eastern Asia,Japan,Chiba,,Inzai
138.3.223.229,4,3,garow.me,JP,Asia,Eastern Asia,Japan,Chiba,,Inzai
152.70.111.31,4,15,gaw.cc,JP,Asia,Eastern Asia,Japan,Chiba,,Inzai
141.147.171.28,4,1,homedrama-ch.com,JP,Asia,Eastern Asia,Japan,Chiba,,Inzai
202.239.239.11,4,37,iga-younet.co.jp,JP,Asia,Eastern Asia,Japan,Chiba,,Chiba
155.248.168.113,4,17,ito-marinetown.co.jp,JP,Asia,Eastern Asia,Japan,Chiba,,Inzai
153.125.144.77,4,5,j-server.com,JP,Asia,Eastern Asia,Japan,Chiba,,Shiroi
153.125.146.96,4,0,kaiten-heiten.com,JP,Asia,Eastern Asia,Japan,Chiba,,Shiroi
58.12.124.150,4,-4093386,kidslink.jp,JP,Asia,Eastern Asia,Japan,Chiba,,Urayasu
133.242.255.199,4,18,koikeya.co.jp,JP,Asia,Eastern Asia,Japan,Chiba,,Honchō
202.209.187.145,4,6,ksu.ac.jp,JP,Asia,Eastern Asia,Japan,Chiba,,Kurosunadai
153.125.128.162,4,-2,kyoto-station-building.co.jp,JP,Asia,Eastern Asia,Japan,Chiba,,Shiroi
155.248.164.105,4,11,leavesongs.com,JP,Asia,Eastern Asia,Japan,Chiba,,Inzai
39.110.231.221,4,38,medicomtoy.co.jp,JP,Asia,Eastern Asia,Japan,Chiba,,Ichikawa
132.226.8.129,4,30,mirai-kougaku.jp,JP,Asia,Eastern Asia,Japan,Chiba,,Inzai
158.101.91.62,4,9,novac.co.jp,JP,Asia,Eastern Asia,Japan,Chiba,,Inzai
150.230.202.222,4,5,o-dan.net,JP,Asia,Eastern Asia,Japan,Chiba,,Inzai
153.125.128.79,4,1,okuta.com,JP,Asia,Eastern Asia,Japan,Chiba,,Shiroi
202.229.142.188,4,73,pet-keizu.net,JP,Asia,Eastern Asia,Japan,Chiba,,Myōden
168.138.216.239,4,27,plathome.co.jp,JP,Asia,Eastern Asia,Japan,Chiba,,Inzai
155.248.187.121,4,9,podzinger.com,JP,Asia,Eastern Asia,Japan,Chiba,,Inzai
138.2.9.241,4,-1,reportitle.com,JP,Asia,Eastern Asia,Japan,Chiba,,Inzai
155.248.179.52,4,0,rlegsoftware.com,JP,Asia,Eastern Asia,Japan,Chiba,,Inzai
133.242.252.20,4,29,rotten-g.com,JP,Asia,Eastern Asia,Japan,Chiba,,Honchō
152.70.111.188,4,4,salon-de-maalish.com,JP,Asia,Eastern Asia,Japan,Chiba,,Inzai
155.248.166.136,4,52,schoolnetwork.jp,JP,Asia,Eastern Asia,Japan,Chiba,,Inzai
133.242.252.22,4,2,shimizuonsen.com,JP,Asia,Eastern Asia,Japan,Chiba,,Honchō
155.248.171.112,4,11,smartpharmrx.com,JP,Asia,Eastern Asia,Japan,Chiba,,Inzai
153.125.128.36,4,9,snowmiku.com,JP,Asia,Eastern Asia,Japan,Chiba,,Shiroi
132.226.2.19,4,5,tailblog.com,JP,Asia,Eastern Asia,Japan,Chiba,,Inzai
141.147.170.44,4,43,tenshoku-base.com,JP,Asia,Eastern Asia,Japan,Chiba,,Inzai
140.83.34.244,4,25,toradolcuwiso.com,JP,Asia,Eastern Asia,Japan,Chiba,,Inzai
106.186.93.49,4,6,toshiba.co.jp,JP,Asia,Eastern Asia,Japan,Chiba,,Inzai
150.230.102.139,4,4,uchiagehanabi.jp,JP,Asia,Eastern Asia,Japan,Chiba,,Inzai
164.70.3.98,4,14,univpress.co.jp,JP,Asia,Eastern Asia,Japan,Chiba,,Sakura
164.70.10.141,4,51,univpress.co.jp,JP,Asia,Eastern Asia,Japan,Chiba,,Sakura
158.101.87.136,4,4,ushigyu.net,JP,Asia,Eastern Asia,Japan,Chiba,,Inzai
138.2.21.2,4,1,viagraocns.com,JP,Asia,Eastern Asia,Japan,Chiba,,Inzai
141.147.168.132,4,15,wakasaimo.com,JP,Asia,Eastern Asia,Japan,Chiba,,Inzai
132.226.2.111,4,3,wasedajg.ed.jp,JP,Asia,Eastern Asia,Japan,Chiba,,Inzai
150.230.216.75,4,-1,xhamster.toys,JP,Asia,Eastern Asia,Japan,Chiba,,Inzai
138.2.25.124,4,1,yamashin-grp.co.jp,JP,Asia,Eastern Asia,Japan,Chiba,,Inzai
150.230.194.151,4,5,yuming.co.jp,JP,Asia,Eastern Asia,Japan,Chiba,,Inzai
