reflector_ip,ip_version,offset,description,country_code,region,sub_region,country_name,sub_division_1,sub_division_2,city
133.167.35.214,4,4,012grp.co.jp,JP,Asia,Eastern Asia,Japan,Osaka,,Osaka
133.18.168.226,4,10,365money.jp,JP,Asia,Eastern Asia,Japan,Osaka,,Osaka
172.233.88.177,4,6,4dagu.com,JP,Asia,Eastern Asia,Japan,Osaka,,Osaka
202.229.40.156,4,2,89team.jp,JP,Asia,Eastern Asia,Japan,Osaka,,Osaka
23.1.190.186,4,1,aichi-toyota.jp,JP,Asia,Eastern Asia,Japan,Osaka,,Ibaraki
133.18.197.24,4,57646,asignaturamilenio.com,JP,Asia,Eastern Asia,Japan,Osaka,,Osaka
202.214.51.149,4,-2,atelier-ps3.jp,JP,Asia,Eastern Asia,Japan,Osaka,,Osaka
133.167.83.49,4,65,bbforum.net,JP,Asia,Eastern Asia,Japan,Osaka,,Osaka
121.83.250.94,4,-430,bellclassic.co.jp,JP,Asia,Eastern Asia,Japan,Osaka,,Osaka
219.122.63.230,4,-173,belle.ac.jp,JP,Asia,Eastern Asia,Japan,Osaka,,Ōtemae
58.191.153.40,4,4,boku-sui.net,JP,Asia,Eastern Asia,Japan,Osaka,,Kanaokachō
210.165.36.182,4,8,bookhousecafe.jp,JP,Asia,Eastern Asia,Japan,Osaka,,Osaka
133.18.169.245,4,35,catmocha.jp,JP,Asia,Eastern Asia,Japan,Osaka,,Osaka
133.167.68.70,4,32,cheapjordans18.com,JP,Asia,Eastern Asia,Japan,Osaka,,Osaka
153.126.132.63,4,0,clear-code.com,JP,Asia,Eastern Asia,Japan,Osaka,,Osaka
133.167.114.34,4,21,computersimpleblog.org,JP,Asia,Eastern Asia,Japan,Osaka,,Osaka
210.251.99.151,4,3,daitobank.co.jp,JP,Asia,Eastern Asia,Japan,Osaka,,Fukushima
183.180.2.134,4,12,DNS Server: 183-180-2-134.osaka.fdn.vectant.ne.jp,JP,Asia,Eastern Asia,Japan,Osaka,,Osaka
133.167.118.41,4,4,DNS Server: cms.his.gr.jp,JP,Asia,Eastern Asia,Japan,Osaka,,Osaka
92.203.123.235,4,36,DNS Server: fs5ccb7beb.kytj001.ap.nuro.jp,JP,Asia,Eastern Asia,Japan,Osaka,,Osaka
92.203.123.237,4,96,DNS Server: fs5ccb7bed.kytj001.ap.nuro.jp,JP,Asia,Eastern Asia,Japan,Osaka,,Osaka
151.101.89.55,4,3,doclasse.com,JP,Asia,Eastern Asia,Japan,Osaka,,Osaka
133.167.71.34,4,37,dretec.co.jp,JP,Asia,Eastern Asia,Japan,Osaka,,Osaka
160.86.253.18,4,3,eizandensha.co.jp,JP,Asia,Eastern Asia,Japan,Osaka,,Osaka
153.126.130.118,4,86,englishfactor.jp,JP,Asia,Eastern Asia,Japan,Osaka,,Osaka
133.18.168.113,4,-248174,ersuhir.com,JP,Asia,Eastern Asia,Japan,Osaka,,Osaka
104.245.9.3,4,0,felixc.at,JP,Asia,Eastern Asia,Japan,Osaka,,Osaka
212.50.253.63,4,2,fir.im,JP,Asia,Eastern Asia,Japan,Osaka,,Osaka
133.167.85.150,4,18,fmplapla.com,JP,Asia,Eastern Asia,Japan,Osaka,,Osaka
133.167.109.241,4,-3,fmplapla.com,JP,Asia,Eastern Asia,Japan,Osaka,,Osaka
133.167.97.181,4,16,fmplapla.com,JP,Asia,Eastern Asia,Japan,Osaka,,Osaka
133.167.101.44,4,18,fmplapla.com,JP,Asia,Eastern Asia,Japan,Osaka,,Osaka
133.167.124.79,4,2,fmplapla.com,JP,Asia,Eastern Asia,Japan,Osaka,,Osaka
133.167.32.112,4,0,fmplapla.com,JP,Asia,Eastern Asia,Japan,Osaka,,Osaka
210.233.117.2,4,62,fureai.or.jp,JP,Asia,Eastern Asia,Japan,Osaka,,Sakai
202.214.51.232,4,17,gamecity.ne.jp,JP,Asia,Eastern Asia,Japan,Osaka,,Osaka
153.126.142.47,4,11,goko.go.jp,JP,Asia,Eastern Asia,Japan,Osaka,,Osaka
133.18.175.173,4,1713954,gshdesign.com,JP,Asia,Eastern Asia,Japan,Osaka,,Osaka
153.126.131.237,4,5,hamamatsu-cci.or.jp,JP,Asia,Eastern Asia,Japan,Osaka,,Osaka
58.191.153.24,4,8,haru.gs,JP,Asia,Eastern Asia,Japan,Osaka,,Kanaokachō
133.167.86.182,4,16,himeji-machishin.jp,JP,Asia,Eastern Asia,Japan,Osaka,,Osaka
58.191.153.23,4,2,hmix.net,JP,Asia,Eastern Asia,Japan,Osaka,,Kanaokachō
133.167.90.29,4,21,hotelwbf.com,JP,Asia,Eastern Asia,Japan,Osaka,,Osaka
153.126.136.74,4,0,hou-nattoku.com,JP,Asia,Eastern Asia,Japan,Osaka,,Osaka
219.122.37.114,4,223,izumi.coop,JP,Asia,Eastern Asia,Japan,Osaka,,Ibaraki
58.191.153.129,4,5,japro.com,JP,Asia,Eastern Asia,Japan,Osaka,,Kanaokachō
122.211.138.243,4,0,jiqoo.jp,JP,Asia,Eastern Asia,Japan,Osaka,,Osaka
133.167.46.31,4,5,jpao.jp,JP,Asia,Eastern Asia,Japan,Osaka,,Osaka
153.126.137.120,4,8,jus.or.jp,JP,Asia,Eastern Asia,Japan,Osaka,,Osaka
133.167.127.20,4,24,kamotsuru.jp,JP,Asia,Eastern Asia,Japan,Osaka,,Osaka
210.150.11.208,4,1437,keizaireport.com,JP,Asia,Eastern Asia,Japan,Osaka,,Osaka
133.167.88.66,4,3,kikunoi.jp,JP,Asia,Eastern Asia,Japan,Osaka,,Osaka
133.167.125.187,4,-2,kirameki-monzen.jp,JP,Asia,Eastern Asia,Japan,Osaka,,Osaka
121.83.250.37,4,1616,kobeymca.org,JP,Asia,Eastern Asia,Japan,Osaka,,Osaka
219.117.250.43,4,14,komoro.org,JP,Asia,Eastern Asia,Japan,Osaka,,Osaka
153.126.135.171,4,18,konami-pes2013.com,JP,Asia,Eastern Asia,Japan,Osaka,,Osaka
133.167.122.75,4,7,kutsuwa.co.jp,JP,Asia,Eastern Asia,Japan,Osaka,,Osaka
121.95.101.97,4,0,kyoto-np.co.jp,JP,Asia,Eastern Asia,Japan,Osaka,,Nagasecho
23.59.132.192,4,6,lexus-int.com,JP,Asia,Eastern Asia,Japan,Osaka,,Ibaraki
133.18.222.17,4,3,libcon.co.jp,JP,Asia,Eastern Asia,Japan,Osaka,,Osaka
121.83.250.72,4,-436,livedo.jp,JP,Asia,Eastern Asia,Japan,Osaka,,Osaka
133.167.120.143,4,2,madoka.org,JP,Asia,Eastern Asia,Japan,Osaka,,Osaka
14.0.43.163,4,14,mamaworks.jp,JP,Asia,Eastern Asia,Japan,Osaka,,Osaka
133.167.72.217,4,56,mattland.net,JP,Asia,Eastern Asia,Japan,Osaka,,Osaka
122.213.191.146,4,2,megasoft.co.jp,JP,Asia,Eastern Asia,Japan,Osaka,,Osaka
59.190.141.38,4,320,meidensha.co.jp,JP,Asia,Eastern Asia,Japan,Osaka,,Sakai
133.167.122.13,4,18,midland-square.com,JP,Asia,Eastern Asia,Japan,Osaka,,Osaka
133.167.109.36,4,4,minatogawajinja.or.jp,JP,Asia,Eastern Asia,Japan,Osaka,,Osaka
133.167.101.60,4,1,mindistortion.net,JP,Asia,Eastern Asia,Japan,Osaka,,Osaka
133.167.102.251,4,-3,minyingjiancai.com,JP,Asia,Eastern Asia,Japan,Osaka,,Osaka
121.83.250.64,4,2807,mjnet.ne.jp,JP,Asia,Eastern Asia,Japan,Osaka,,Osaka
153.126.141.195,4,0,moglid.com,JP,Asia,Eastern Asia,Japan,Osaka,,Osaka
138.2.63.51,4,1,mottainaihonpo.com,JP,Asia,Eastern Asia,Japan,Osaka,,Osaka
133.167.36.68,4,2,mr-analizer.com,JP,Asia,Eastern Asia,Japan,Osaka,,Osaka
121.83.251.145,4,-252,mtg-jp.com,JP,Asia,Eastern Asia,Japan,Osaka,,Osaka
210.150.7.233,4,1516,muse-park.com,JP,Asia,Eastern Asia,Japan,Osaka,,Osaka
133.167.119.113,4,7,myblogs.jp,JP,Asia,Eastern Asia,Japan,Osaka,,Osaka
133.167.75.120,4,8,myht.org,JP,Asia,Eastern Asia,Japan,Osaka,,Osaka
133.167.92.155,4,1,neko-jirushi.com,JP,Asia,Eastern Asia,Japan,Osaka,,Osaka
180.42.98.131,4,9,ohgaki.net,JP,Asia,Eastern Asia,Japan,Osaka,,Shinkitajima
133.167.79.57,4,16,oimf.jp,JP,Asia,Eastern Asia,Japan,Osaka,,Osaka
133.167.73.73,4,2,onlinecasino-like.com,JP,Asia,Eastern Asia,Japan,Osaka,,Osaka
153.126.128.207,4,12,os-1.jp,JP,Asia,Eastern Asia,Japan,Osaka,,Osaka
133.167.81.174,4,4,pceasyblog.org,JP,Asia,Eastern Asia,Japan,Osaka,,Osaka
153.126.140.224,4,13,petoffice.co.jp,JP,Asia,Eastern Asia,Japan,Osaka,,Osaka
153.126.133.163,4,42,pitecan.com,JP,Asia,Eastern Asia,Japan,Osaka,,Osaka
133.167.87.242,4,16,planetvids.com,JP,Asia,Eastern Asia,Japan,Osaka,,Osaka
133.167.79.37,4,72,pressance.co.jp,JP,Asia,Eastern Asia,Japan,Osaka,,Osaka
133.18.177.38,4,3,r-s.co.jp,JP,Asia,Eastern Asia,Japan,Osaka,,Osaka
23.199.225.31,4,21,rakuten-sec.co.jp,JP,Asia,Eastern Asia,Japan,Osaka,,Osaka
159.28.120.71,4,49,rasysa.com,JP,Asia,Eastern Asia,Japan,Osaka,,Kikawahigashi
58.156.129.155,4,1461,rcmx.net,JP,Asia,Eastern Asia,Japan,Osaka,,Sakuragawa
133.167.127.53,4,8,refle.info,JP,Asia,Eastern Asia,Japan,Osaka,,Osaka
58.191.153.30,4,3,road.jp,JP,Asia,Eastern Asia,Japan,Osaka,,Kanaokachō
168.138.38.199,4,20,sankarahotel-spa.com,JP,Asia,Eastern Asia,Japan,Osaka,,Osaka
66.11.63.186,4,13,satotekkou.co.jp,JP,Asia,Eastern Asia,Japan,Osaka,,Osaka
133.167.118.118,4,4,sdjiaoban.com,JP,Asia,Eastern Asia,Japan,Osaka,,Osaka
153.126.134.148,4,13,seolaboratory.jp,JP,Asia,Eastern Asia,Japan,Osaka,,Osaka
133.167.97.32,4,1,sevendreamers.com,JP,Asia,Eastern Asia,Japan,Osaka,,Osaka
153.126.133.187,4,5,shinsaibashi.or.jp,JP,Asia,Eastern Asia,Japan,Osaka,,Osaka
153.126.141.166,4,3,shokusan.or.jp,JP,Asia,Eastern Asia,Japan,Osaka,,Osaka
113.37.28.245,4,8,sk-kaken.co.jp,JP,Asia,Eastern Asia,Japan,Osaka,,Minoh
64.176.46.187,4,32,slottok.net,JP,Asia,Eastern Asia,Japan,Osaka,,Osaka
60.237.228.66,4,9,solofield.net,JP,Asia,Eastern Asia,Japan,Osaka,,Osaka
133.167.118.213,4,3,somethingfun.co.jp,JP,Asia,Eastern Asia,Japan,Osaka,,Osaka
212.50.233.217,4,13,sooyuu.com,JP,Asia,Eastern Asia,Japan,Osaka,,Osaka
133.167.121.77,4,8,taittsuu.com,JP,Asia,Eastern Asia,Japan,Osaka,,Osaka
133.167.118.237,4,-2,taittsuu.com,JP,Asia,Eastern Asia,Japan,Osaka,,Osaka
133.167.33.151,4,2,taittsuu.com,JP,Asia,Eastern Asia,Japan,Osaka,,Osaka
133.167.99.104,4,5,taittsuu.com,JP,Asia,Eastern Asia,Japan,Osaka,,Osaka
178.157.60.45,4,2,telegrampx.com,JP,Asia,Eastern Asia,Japan,Osaka,,Osaka
133.167.103.121,4,4,thekingsolomonburke.com,JP,Asia,Eastern Asia,Japan,Osaka,,Osaka
133.167.42.113,4,28,thescriptkiddie.com,JP,Asia,Eastern Asia,Japan,Osaka,,Osaka
151.101.90.225,4,35,tirepit.jp,JP,Asia,Eastern Asia,Japan,Osaka,,Osaka
133.167.97.121,4,16,tmtm.org,JP,Asia,Eastern Asia,Japan,Osaka,,Osaka
133.167.82.240,4,9,trx.jp,JP,Asia,Eastern Asia,Japan,Osaka,,Osaka
133.167.88.46,4,4,tsubakimoto.jp,JP,Asia,Eastern Asia,Japan,Osaka,,Osaka
153.126.139.86,4,4,ukiyoe-ota-muse.jp,JP,Asia,Eastern Asia,Japan,Osaka,,Osaka
121.83.250.105,4,1224,wakaisangyo.co.jp,JP,Asia,Eastern Asia,Japan,Osaka,,Osaka
153.126.136.167,4,6,web-box.jp,JP,Asia,Eastern Asia,Japan,Osaka,,Osaka
133.18.200.180,4,165491,wkx21c.org,JP,Asia,Eastern Asia,Japan,Osaka,,Osaka
153.126.142.229,4,3,xenoma.com,JP,Asia,Eastern Asia,Japan,Osaka,,Osaka
58.191.153.27,4,1,yado.co.jp,JP,Asia,Eastern Asia,Japan,Osaka,,Kanaokachō
153.126.131.202,4,-3,yokotekamakura.com,JP,Asia,Eastern Asia,Japan,Osaka,,Osaka
172.234.95.224,4,1,yumeijinhensachi.com,JP,Asia,Eastern Asia,Japan,Osaka,,Osaka
133.167.35.116,4,2,yygdsw.com,JP,Asia,Eastern Asia,Japan,Osaka,,Osaka
210.251.251.104,4,-335,zent.co.jp,JP,Asia,Eastern Asia,Japan,Osaka,,Osaka
133.167.67.65,4,3,zjwuxin.com,JP,Asia,Eastern Asia,Japan,Osaka,,Osaka
