reflector_ip,ip_version,offset,description,country_code,region,sub_region,country_name,sub_division_1,sub_division_2,city
174.142.221.53,4,5,2718281828.com,CA,Americas,Northern America,Canada,Quebec,,Westmount
174.142.201.166,4,46,alcolockusa.com,CA,Americas,Northern America,Canada,Quebec,,Westmount
174.142.186.174,4,18,alwatan.sy,CA,Americas,Northern America,Canada,Quebec,,Westmount
174.142.186.176,4,3,alwatanonline.com,CA,Americas,Northern America,Canada,Quebec,,Westmount
174.142.95.85,4,4,amdh.org.ma,CA,Americas,Northern America,Canada,Quebec,,Westmount
174.142.199.243,4,53,astronomerstelegram.org,CA,Americas,Northern America,Canada,Quebec,,Westmount
174.142.230.64,4,3,cfa-fca.ca,CA,Americas,Northern America,Canada,Quebec,,Westmount
174.142.214.50,4,3,corporateknights.com,CA,Americas,Northern America,Canada,Quebec,,Westmount
174.142.221.58,4,4,ecuafutbol.org,CA,Americas,Northern America,Canada,Quebec,,Westmount
174.142.200.104,4,8,educativa.com,CA,Americas,Northern America,Canada,Quebec,,Westmount
174.142.60.85,4,9,eventsinamerica.com,CA,Americas,Northern America,Canada,Quebec,,Westmount
174.142.203.132,4,1,filecart.com,CA,Americas,Northern America,Canada,Quebec,,Westmount
174.142.205.80,4,3,futbolete.com,CA,Americas,Northern America,Canada,Quebec,,Westmount
174.142.221.60,4,32,galaxy.ps,CA,Americas,Northern America,Canada,Quebec,,Westmount
174.142.230.61,4,5,gosselindesign.com,CA,Americas,Northern America,Canada,Quebec,,Westmount
174.142.205.18,4,31,icanblink.com,CA,Americas,Northern America,Canada,Quebec,,Westmount
174.142.221.59,4,1,make-it-your-own.com,CA,Americas,Northern America,Canada,Quebec,,Westmount
174.142.129.94,4,21,manpower.com.ng,CA,Americas,Northern America,Canada,Quebec,,Westmount
174.142.97.209,4,34,myislandbistrokitchen.com,CA,Americas,Northern America,Canada,Quebec,,Westmount
174.142.48.106,4,2,nch.ca,CA,Americas,Northern America,Canada,Quebec,,Westmount
174.142.242.81,4,1,netvasco.com.br,CA,Americas,Northern America,Canada,Quebec,,Westmount
174.142.46.57,4,2,onesky.ca,CA,Americas,Northern America,Canada,Quebec,,Westmount
174.142.195.152,4,813,pasmag.com,CA,Americas,Northern America,Canada,Quebec,,Westmount
174.142.55.129,4,26,pheeds.com,CA,Americas,Northern America,Canada,Quebec,,Westmount
174.142.222.210,4,120,protravelnetwork.com,CA,Americas,Northern America,Canada,Quebec,,Westmount
174.142.125.32,4,8,secretcityrecords.com,CA,Americas,Northern America,Canada,Quebec,,Westmount
174.142.144.119,4,3,stlyrics.com,CA,Americas,Northern America,Canada,Quebec,,Westmount
174.142.247.185,4,501,sustainablewaterlooregion.ca,CA,Americas,Northern America,Canada,Quebec,,Westmount
174.142.230.53,4,19,textosl.com,CA,Americas,Northern America,Canada,Quebec,,Westmount
174.142.148.32,4,2,thebricspost.com,CA,Americas,Northern America,Canada,Quebec,,Westmount
174.142.205.102,4,15,timesmojo.com,CA,Americas,Northern America,Canada,Quebec,,Westmount
174.142.119.36,4,20,trendelfindelmundo.com.ar,CA,Americas,Northern America,Canada,Quebec,,Westmount
174.142.8.164,4,4,wfsj.org,CA,Americas,Northern America,Canada,Quebec,,Westmount
174.142.230.74,4,102,zpag.net,CA,Americas,Northern America,Canada,Quebec,,Westmount
