reflector_ip,ip_version,offset,description,country_code,region,sub_region,country_name,sub_division_1,sub_division_2,city
91.108.118.110,4,15,abanico-chocolat.com,ID,Asia,South-eastern Asia,Indonesia,Jakarta,,Jakarta
77.37.78.179,4,2,akbara.ac.id,ID,Asia,South-eastern Asia,Indonesia,Jakarta,,Jakarta
103.247.8.209,4,855,akperkebonjati.ac.id,ID,Asia,South-eastern Asia,Indonesia,Jakarta,,Jakarta
103.177.94.83,4,14,aktual.com,ID,Asia,South-eastern Asia,Indonesia,Jakarta,,Jakarta
153.92.8.18,4,100,aldhifajar.com,ID,Asia,South-eastern Asia,Indonesia,Jakarta,,Jakarta
34.128.118.176,4,8,alexanderhanff.com,ID,Asia,South-eastern Asia,Indonesia,Jakarta,,Jakarta
153.92.10.167,4,119,alexandria.co.id,ID,Asia,South-eastern Asia,Indonesia,Jakarta,,Jakarta
91.108.116.111,4,12,alfatah.com.pk,ID,Asia,South-eastern Asia,Indonesia,Jakarta,,Jakarta
8.215.26.147,4,3,Alibaba.com Singapore E-Commerce Private Limited,ID,Asia,South-eastern Asia,Indonesia,Jakarta,,Jakarta
103.247.8.17,4,566,another-ro.com,ID,Asia,South-eastern Asia,Indonesia,Jakarta,,Jakarta
101.255.89.92,4,8,antikorupsi.org,ID,Asia,South-eastern Asia,Indonesia,Jakarta,,Jakarta
91.108.116.69,4,7427,apirintismas.co.id,ID,Asia,South-eastern Asia,Indonesia,Jakarta,,Jakarta
153.92.9.203,4,18,arcprodigital.com,ID,Asia,South-eastern Asia,Indonesia,Jakarta,,Jakarta
154.62.111.54,4,11,artisanhotel.com,ID,Asia,South-eastern Asia,Indonesia,Jakarta,,Jakarta
119.2.43.210,4,5,asrojournal-sttal.ac.id,ID,Asia,South-eastern Asia,Indonesia,Jakarta,,Jakarta
153.92.10.166,4,14,astradaihatsuyogyakarta.com,ID,Asia,South-eastern Asia,Indonesia,Jakarta,,Jakarta
108.137.99.91,4,-20,atlasbeachfest.com,ID,Asia,South-eastern Asia,Indonesia,Jakarta,,Jakarta
153.92.11.160,4,63,aviator-spribe.online,ID,Asia,South-eastern Asia,Indonesia,Jakarta,,Jakarta
149.129.215.78,4,7,baliutd.com,ID,Asia,South-eastern Asia,Indonesia,Jakarta,,Jakarta
103.247.8.184,4,1620,bandungtrends.com,ID,Asia,South-eastern Asia,Indonesia,Jakarta,,Jakarta
77.37.78.139,4,7453,batikorganik.id,ID,Asia,South-eastern Asia,Indonesia,Jakarta,,Jakarta
185.124.139.65,4,7434,bikepromech.in,ID,Asia,South-eastern Asia,Indonesia,Jakarta,,Jakarta
8.215.38.81,4,7,bojongsari.id,ID,Asia,South-eastern Asia,Indonesia,Jakarta,,Jakarta
91.108.118.78,4,24,borobudur.ac.id,ID,Asia,South-eastern Asia,Indonesia,Jakarta,,Jakarta
103.247.11.191,4,11,bristcomhrconsultants.com,ID,Asia,South-eastern Asia,Indonesia,Jakarta,,Jakarta
103.247.8.96,4,1,bsi.ac.id,ID,Asia,South-eastern Asia,Indonesia,Jakarta,,Jakarta
153.92.9.211,4,16,budiluhur.ac.id,ID,Asia,South-eastern Asia,Indonesia,Jakarta,,Jakarta
153.92.8.192,4,45,canadagoosestorevip.com,ID,Asia,South-eastern Asia,Indonesia,Jakarta,,Jakarta
153.92.11.60,4,13,cartaportugues.com,ID,Asia,South-eastern Asia,Indonesia,Jakarta,,Jakarta
153.92.9.103,4,9,chinoartelengua.com,ID,Asia,South-eastern Asia,Indonesia,Jakarta,,Jakarta
153.92.8.198,4,10,chroniclesofpassion.com,ID,Asia,South-eastern Asia,Indonesia,Jakarta,,Jakarta
153.92.9.230,4,8,cnprotective.net,ID,Asia,South-eastern Asia,Indonesia,Jakarta,,Jakarta
103.247.11.89,4,760,cryptonews.co.id,ID,Asia,South-eastern Asia,Indonesia,Jakarta,,Jakarta
153.92.11.79,4,9,crystalix.fun,ID,Asia,South-eastern Asia,Indonesia,Jakarta,,Jakarta
185.124.136.155,4,11,cusser.net,ID,Asia,South-eastern Asia,Indonesia,Jakarta,,Jakarta
153.92.8.1,4,8,decoraconceptstore.com,ID,Asia,South-eastern Asia,Indonesia,Jakarta,,Jakarta
103.165.131.140,4,8,dephut.net,ID,Asia,South-eastern Asia,Indonesia,Jakarta,,Jakarta
147.139.209.214,4,3,desaganra.id,ID,Asia,South-eastern Asia,Indonesia,Jakarta,,Jakarta
8.215.7.245,4,5,desasempayang.id,ID,Asia,South-eastern Asia,Indonesia,Jakarta,,Jakarta
103.247.8.203,4,7,difluca.com,ID,Asia,South-eastern Asia,Indonesia,Jakarta,,Jakarta
210.210.178.200,4,-6409040,dinomarket.com,ID,Asia,South-eastern Asia,Indonesia,Jakarta,,Jakarta
153.92.8.45,4,9,dmkpark2fly.com,ID,Asia,South-eastern Asia,Indonesia,Jakarta,,Jakarta
103.105.52.6,4,11756,DNS Server: 103-105-52-6.megadata.net.id,ID,Asia,South-eastern Asia,Indonesia,Jakarta,,Jakarta
34.128.119.117,4,128929,DNS Server: 117.119.128.34.bc.googleusercontent.com,ID,Asia,South-eastern Asia,Indonesia,Jakarta,,Jakarta
223.27.153.124,4,48,DNS Server: 124.153.27.223.cni.net.id,ID,Asia,South-eastern Asia,Indonesia,Jakarta,,Jakarta
103.164.221.19,4,-26130731,DNS Server: 19.221.164.103.net.iforte.net.id,ID,Asia,South-eastern Asia,Indonesia,Jakarta,,Jakarta
183.81.153.194,4,332,DNS Server: 194.sub-153-81-183.hanastar.net.id,ID,Asia,South-eastern Asia,Indonesia,Jakarta,,Jakarta
183.81.152.2,4,-8,DNS Server: 2.sub-152-81-183.hanastar.net.id,ID,Asia,South-eastern Asia,Indonesia,Jakarta,,Jakarta
210.210.168.203,4,2795,DNS Server: 210.210.168.203.cbn.net.id,ID,Asia,South-eastern Asia,Indonesia,Jakarta,,Jakarta
103.164.222.212,4,10,DNS Server: 212.222.164.103.net.iforte.net.id,ID,Asia,South-eastern Asia,Indonesia,Jakarta,,Jakarta
119.110.71.221,4,9315,DNS Server: 221.71.110.119.maxindo.net,ID,Asia,South-eastern Asia,Indonesia,Jakarta,,Jakarta
103.175.156.39,4,-543401,DNS Server: 39.156.ip.myarsyilaindonesia.co.id,ID,Asia,South-eastern Asia,Indonesia,Jakarta,,Jakarta
34.101.232.79,4,93,DNS Server: 79.232.101.34.bc.googleusercontent.com,ID,Asia,South-eastern Asia,Indonesia,Jakarta,,Jakarta
202.51.119.42,4,46,DNS Server: gateway-dkp.go.id,ID,Asia,South-eastern Asia,Indonesia,Jakarta,,Jakarta
123.255.207.30,4,8,DNS Server: ip-123-255-207-30.datautama.net.id,ID,Asia,South-eastern Asia,Indonesia,Jakarta,,Jakarta
103.119.146.46,4,194,DNS Server: ip-146-46.balifiber.id,ID,Asia,South-eastern Asia,Indonesia,Jakarta,,Jakarta
118.151.221.18,4,33390,DNS Server: ip-151-221-18.fastel.co.id,ID,Asia,South-eastern Asia,Indonesia,Jakarta,,Jakarta
43.225.65.154,4,132,DNS Server: ip-154.65.hsp.net.id,ID,Asia,South-eastern Asia,Indonesia,Jakarta,,Jakarta
103.177.176.139,4,178,DNS Server: ip-177-176-139.milenetwork.co.id,ID,Asia,South-eastern Asia,Indonesia,Jakarta,,Jakarta
202.158.13.122,4,65183,DNS Server: ip13-122.cbn.net.id,ID,Asia,South-eastern Asia,Indonesia,Jakarta,,Jakarta
202.158.13.124,4,65154,DNS Server: ip13-124.cbn.net.id,ID,Asia,South-eastern Asia,Indonesia,Jakarta,,Jakarta
202.158.15.146,4,-48512061,DNS Server: ip15-146.cbn.net.id,ID,Asia,South-eastern Asia,Indonesia,Jakarta,,Jakarta
103.119.146.89,4,-117172,DNS Server: mymail.ptbks.co.id,ID,Asia,South-eastern Asia,Indonesia,Jakarta,,Jakarta
117.54.131.125,4,233,DNS Server: rev-117-54-131-125.indo.net.id,ID,Asia,South-eastern Asia,Indonesia,Jakarta,,Jakarta
117.54.3.237,4,-297973,DNS Server: rev-237-3-54.117.indo.net.id,ID,Asia,South-eastern Asia,Indonesia,Jakarta,,Jakarta
202.51.104.2,4,179,DNS Server: smtptrust.iforte.net.id,ID,Asia,South-eastern Asia,Indonesia,Jakarta,,Jakarta
103.227.252.251,4,852,dreamers.id,ID,Asia,South-eastern Asia,Indonesia,Jakarta,,Jakarta
153.92.11.134,4,9,easylegal.id,ID,Asia,South-eastern Asia,Indonesia,Jakarta,,Jakarta
34.101.224.24,4,31,ecomobi.com,ID,Asia,South-eastern Asia,Indonesia,Jakarta,,Jakarta
77.37.79.118,4,8,ee88.fit,ID,Asia,South-eastern Asia,Indonesia,Jakarta,,Jakarta
153.92.11.42,4,13,elcomblus.com,ID,Asia,South-eastern Asia,Indonesia,Jakarta,,Jakarta
153.92.9.213,4,30,ellisontransport.com,ID,Asia,South-eastern Asia,Indonesia,Jakarta,,Jakarta
34.128.86.0,4,2,emporioarchitect.com,ID,Asia,South-eastern Asia,Indonesia,Jakarta,,Jakarta
103.5.51.67,4,3,erlangga.co.id,ID,Asia,South-eastern Asia,Indonesia,Jakarta,,Jakarta
178.16.134.179,4,7420,feg.world,ID,Asia,South-eastern Asia,Indonesia,Jakarta,,Jakarta
153.92.11.175,4,11,ferretstyle.com,ID,Asia,South-eastern Asia,Indonesia,Jakarta,,Jakarta
149.129.249.150,4,4,forclime.org,ID,Asia,South-eastern Asia,Indonesia,Jakarta,,Jakarta
153.92.9.87,4,9,freebbble.com,ID,Asia,South-eastern Asia,Indonesia,Jakarta,,Jakarta
202.145.0.86,4,3259,ftii.id,ID,Asia,South-eastern Asia,Indonesia,Jakarta,,Jakarta
93.127.220.236,4,9,fumida.co.id,ID,Asia,South-eastern Asia,Indonesia,Jakarta,,Jakarta
153.92.9.86,4,9,gangnam-dk.com,ID,Asia,South-eastern Asia,Indonesia,Jakarta,,Jakarta
34.101.248.254,4,3,gardaoto.com,ID,Asia,South-eastern Asia,Indonesia,Jakarta,,Jakarta
36.91.170.3,4,7,gbk.id,ID,Asia,South-eastern Asia,Indonesia,Jakarta,,Jakarta
202.67.14.118,4,45,goldfrance.com,ID,Asia,South-eastern Asia,Indonesia,Jakarta,,Jakarta
93.127.220.76,4,23,google-info.org,ID,Asia,South-eastern Asia,Indonesia,Jakarta,,Jakarta
149.129.220.206,4,2,guesehat.com,ID,Asia,South-eastern Asia,Indonesia,Jakarta,,Jakarta
153.92.10.48,4,10,harddiescargo.co.id,ID,Asia,South-eastern Asia,Indonesia,Jakarta,,Jakarta
77.37.78.143,4,10,hello88vina.org,ID,Asia,South-eastern Asia,Indonesia,Jakarta,,Jakarta
153.92.8.169,4,18,herbanit.net,ID,Asia,South-eastern Asia,Indonesia,Jakarta,,Jakarta
108.136.82.80,4,6,herminahospitals.com,ID,Asia,South-eastern Asia,Indonesia,Jakarta,,Jakarta
108.137.192.173,4,-22,herminahospitals.com,ID,Asia,South-eastern Asia,Indonesia,Jakarta,,Jakarta
108.136.121.95,4,-27,herminahospitals.com,ID,Asia,South-eastern Asia,Indonesia,Jakarta,,Jakarta
153.92.11.173,4,11,hervent.co.id,ID,Asia,South-eastern Asia,Indonesia,Jakarta,,Jakarta
103.181.182.134,4,10,hipwee.com,ID,Asia,South-eastern Asia,Indonesia,Jakarta,,Jakarta
153.92.9.102,4,24,hollisterclothingstore.org,ID,Asia,South-eastern Asia,Indonesia,Jakarta,,Jakarta
150.129.18.20,4,7,hondaikmciledug.co.id,ID,Asia,South-eastern Asia,Indonesia,Jakarta,,Jakarta
153.92.10.191,4,1,hotelristorantegenziana.com,ID,Asia,South-eastern Asia,Indonesia,Jakarta,,Jakarta
180.178.102.3,4,-12,hypernet.co.id,ID,Asia,South-eastern Asia,Indonesia,Jakarta,,Jakarta
36.93.7.181,4,6,iain-manado.ac.id,ID,Asia,South-eastern Asia,Indonesia,Jakarta,,Jakarta
103.247.8.47,4,25,ibmasmi.ac.id,ID,Asia,South-eastern Asia,Indonesia,Jakarta,,Jakarta
108.136.63.59,4,-19,ibunda.id,ID,Asia,South-eastern Asia,Indonesia,Jakarta,,Jakarta
153.92.11.141,4,24,idean21.com,ID,Asia,South-eastern Asia,Indonesia,Jakarta,,Jakarta
119.110.79.78,4,22,idws.id,ID,Asia,South-eastern Asia,Indonesia,Jakarta,,Jakarta
153.92.11.199,4,12,iibr.org,ID,Asia,South-eastern Asia,Indonesia,Jakarta,,Jakarta
149.129.222.175,4,4,iienetwork.org,ID,Asia,South-eastern Asia,Indonesia,Jakarta,,Jakarta
117.54.5.10,4,787,indo.net.id,ID,Asia,South-eastern Asia,Indonesia,Jakarta,,Jakarta
103.247.10.113,4,2046,infoseni.id,ID,Asia,South-eastern Asia,Indonesia,Jakarta,,Jakarta
153.92.8.171,4,11,institutpendidikan.ac.id,ID,Asia,South-eastern Asia,Indonesia,Jakarta,,Jakarta
153.92.11.223,4,8,ipts.ac.id,ID,Asia,South-eastern Asia,Indonesia,Jakarta,,Jakarta
45.112.125.201,4,62,istn.ac.id,ID,Asia,South-eastern Asia,Indonesia,Jakarta,,Jakarta
36.89.132.146,4,13,itp.ac.id,ID,Asia,South-eastern Asia,Indonesia,Jakarta,,Jakarta
153.92.11.132,4,8,jambimandiri.id,ID,Asia,South-eastern Asia,Indonesia,Jakarta,,Jakarta
153.92.10.83,4,48,janabadra.ac.id,ID,Asia,South-eastern Asia,Indonesia,Jakarta,,Jakarta
91.108.116.141,4,7,jeanyvesnau.com,ID,Asia,South-eastern Asia,Indonesia,Jakarta,,Jakarta
110.239.68.51,4,8,jne.co.id,ID,Asia,South-eastern Asia,Indonesia,Jakarta,,Jakarta
193.203.173.99,4,11,journalfactor.org,ID,Asia,South-eastern Asia,Indonesia,Jakarta,,Jakarta
103.247.8.190,4,8,journals.id,ID,Asia,South-eastern Asia,Indonesia,Jakarta,,Jakarta
153.92.9.51,4,8,jusceritoto.com,ID,Asia,South-eastern Asia,Indonesia,Jakarta,,Jakarta
202.152.42.99,4,19,kampusmelayu.ac.id,ID,Asia,South-eastern Asia,Indonesia,Jakarta,,Jakarta
202.6.235.131,4,-1193,karuniamedicalclinic.com,ID,Asia,South-eastern Asia,Indonesia,Jakarta,,Jakarta
153.92.10.47,4,11,kebijakankesehatanindonesia.net,ID,Asia,South-eastern Asia,Indonesia,Jakarta,,Jakarta
153.92.8.78,4,44,knl-es.com,ID,Asia,South-eastern Asia,Indonesia,Jakarta,,Jakarta
153.92.10.21,4,12,kobebryant-jersey.us,ID,Asia,South-eastern Asia,Indonesia,Jakarta,,Jakarta
195.35.55.79,4,11,kokanoodles.com,ID,Asia,South-eastern Asia,Indonesia,Jakarta,,Jakarta
93.127.220.251,4,7420,kspods.com,ID,Asia,South-eastern Asia,Indonesia,Jakarta,,Jakarta
91.108.117.98,4,8,lapasiondegabriel.com,ID,Asia,South-eastern Asia,Indonesia,Jakarta,,Jakarta
153.92.10.87,4,29,legalist.id,ID,Asia,South-eastern Asia,Indonesia,Jakarta,,Jakarta
153.92.10.84,4,8,lg.com.vn,ID,Asia,South-eastern Asia,Indonesia,Jakarta,,Jakarta
153.92.8.53,4,134,lin1988.online,ID,Asia,South-eastern Asia,Indonesia,Jakarta,,Jakarta
153.92.11.156,4,8,lisboas.online,ID,Asia,South-eastern Asia,Indonesia,Jakarta,,Jakarta
153.92.9.170,4,8,listcry.com,ID,Asia,South-eastern Asia,Indonesia,Jakarta,,Jakarta
43.133.158.170,4,13,lister.co.id,ID,Asia,South-eastern Asia,Indonesia,Jakarta,,Jakarta
202.169.54.194,4,4,livoltek.id,ID,Asia,South-eastern Asia,Indonesia,Jakarta,,Jakarta
153.92.8.203,4,30,lolgifs.net,ID,Asia,South-eastern Asia,Indonesia,Jakarta,,Jakarta
153.92.11.147,4,8,mail-order-brides-reviews.com,ID,Asia,South-eastern Asia,Indonesia,Jakarta,,Jakarta
103.247.8.134,4,-4,mainole.com,ID,Asia,South-eastern Asia,Indonesia,Jakarta,,Jakarta
153.92.9.181,4,62,manusport.com,ID,Asia,South-eastern Asia,Indonesia,Jakarta,,Jakarta
43.218.127.41,4,-21,mcdonalds.co.id,ID,Asia,South-eastern Asia,Indonesia,Jakarta,,Jakarta
153.92.13.228,4,7,megaxo.net,ID,Asia,South-eastern Asia,Indonesia,Jakarta,,Jakarta
43.218.177.107,4,-11,mifx.com,ID,Asia,South-eastern Asia,Indonesia,Jakarta,,Jakarta
108.137.160.127,4,-22,mifx.com,ID,Asia,South-eastern Asia,Indonesia,Jakarta,,Jakarta
153.92.13.237,4,25,motorola-club.net,ID,Asia,South-eastern Asia,Indonesia,Jakarta,,Jakarta
153.92.9.192,4,8,mpescort.com,ID,Asia,South-eastern Asia,Indonesia,Jakarta,,Jakarta
77.37.80.85,4,11,mtpulisi.net,ID,Asia,South-eastern Asia,Indonesia,Jakarta,,Jakarta
34.101.48.158,4,6,myrepublic.co.id,ID,Asia,South-eastern Asia,Indonesia,Jakarta,,Jakarta
103.247.11.107,4,13,naavagreen.com,ID,Asia,South-eastern Asia,Indonesia,Jakarta,,Jakarta
8.215.27.215,4,1,nagarilawang.id,ID,Asia,South-eastern Asia,Indonesia,Jakarta,,Jakarta
153.92.8.165,4,9,nattime.com,ID,Asia,South-eastern Asia,Indonesia,Jakarta,,Jakarta
139.0.6.84,4,-28,netmedia.co.id,ID,Asia,South-eastern Asia,Indonesia,Jakarta,,Jakarta
35.219.73.198,4,69,netralnews.com,ID,Asia,South-eastern Asia,Indonesia,Jakarta,,Jakarta
103.247.11.165,4,323,ngidam.id,ID,Asia,South-eastern Asia,Indonesia,Jakarta,,Jakarta
153.92.11.121,4,15,niceindonesia.id,ID,Asia,South-eastern Asia,Indonesia,Jakarta,,Jakarta
153.92.9.148,4,13,niketn-pascher.fr,ID,Asia,South-eastern Asia,Indonesia,Jakarta,,Jakarta
154.62.111.4,4,14,nowjakarta.co.id,ID,Asia,South-eastern Asia,Indonesia,Jakarta,,Jakarta
36.66.195.44,4,3,nusamandiri.ac.id,ID,Asia,South-eastern Asia,Indonesia,Jakarta,,Jakarta
35.219.43.86,4,-11,oaktech-nusantara.com,ID,Asia,South-eastern Asia,Indonesia,Jakarta,,Jakarta
93.127.219.206,4,7441,ojs.co.id,ID,Asia,South-eastern Asia,Indonesia,Jakarta,,Jakarta
223.255.230.94,4,328,Ookla Speedtest Server 14325: corecgk2.tri.co.id,ID,Asia,South-eastern Asia,Indonesia,Jakarta,,Jakarta
179.61.140.2,4,298,Ookla Speedtest Server 15698: garuda.speedtest.kvm.systems,ID,Asia,South-eastern Asia,Indonesia,Jakarta,,Jakarta
103.44.149.44,4,241,Ookla Speedtest Server 25149: speedtest.sti-group.co.id,ID,Asia,South-eastern Asia,Indonesia,Jakarta,,Jakarta
103.5.51.42,4,353,Ookla Speedtest Server 44337: sp01-jkt.cloudraya.com,ID,Asia,South-eastern Asia,Indonesia,Jakarta,,Jakarta
103.236.188.44,4,149,Ookla Speedtest Server 48237: speedtest.victory.net.id,ID,Asia,South-eastern Asia,Indonesia,Jakarta,,Jakarta
103.105.52.100,4,221,Ookla Speedtest Server 49557: speedtest.jkt.megadata.net.id,ID,Asia,South-eastern Asia,Indonesia,Jakarta,,Jakarta
150.129.18.12,4,267,Ookla Speedtest Server 54598: ookla.maxindo.net.id,ID,Asia,South-eastern Asia,Indonesia,Jakarta,,Jakarta
103.11.134.6,4,186,Ookla Speedtest Server 54663: speedtest.swin.net.id,ID,Asia,South-eastern Asia,Indonesia,Jakarta,,Jakarta
103.157.78.138,4,173,Ookla Speedtest Server 54900: ookla.smi.net.id,ID,Asia,South-eastern Asia,Indonesia,Jakarta,,Jakarta
103.186.35.42,4,339,Ookla Speedtest Server 57663: speedtest.viberlink.net.id,ID,Asia,South-eastern Asia,Indonesia,Jakarta,,Jakarta
157.10.254.29,4,234,Ookla Speedtest Server 62504: speedtest.risteknetworks.net.id,ID,Asia,South-eastern Asia,Indonesia,Jakarta,,Jakarta
182.253.188.154,4,566,Ookla Speedtest Server 63021: tkjspeed.smkn2kediri.sch.id,ID,Asia,South-eastern Asia,Indonesia,Jakarta,,Jakarta
103.174.66.37,4,75795,Ookla Speedtest Server 63223: speedtest.bogor.act.net.id,ID,Asia,South-eastern Asia,Indonesia,Jakarta,,Jakarta
116.0.4.126,4,148371,Ookla Speedtest Server 64184: speedtest.wifiku.net.id,ID,Asia,South-eastern Asia,Indonesia,Jakarta,,Jakarta
178.16.133.158,4,15,oriskin.co.id,ID,Asia,South-eastern Asia,Indonesia,Jakarta,,Jakarta
195.35.54.183,4,10,ozstudies.com,ID,Asia,South-eastern Asia,Indonesia,Jakarta,,Jakarta
153.92.8.86,4,24,phidji.com,ID,Asia,South-eastern Asia,Indonesia,Jakarta,,Jakarta
154.62.111.57,4,14,plarealtalk.com,ID,Asia,South-eastern Asia,Indonesia,Jakarta,,Jakarta
153.92.11.235,4,31,plotistan.pk,ID,Asia,South-eastern Asia,Indonesia,Jakarta,,Jakarta
103.247.9.242,4,41,polines.ac.id,ID,Asia,South-eastern Asia,Indonesia,Jakarta,,Jakarta
36.91.26.132,4,37,politanikoe.ac.id,ID,Asia,South-eastern Asia,Indonesia,Jakarta,,Jakarta
36.92.22.174,4,2,poltekkes-banjarmasin.ac.id,ID,Asia,South-eastern Asia,Indonesia,Jakarta,,Jakarta
103.75.137.30,4,11,poltekkes-mataram.ac.id,ID,Asia,South-eastern Asia,Indonesia,Jakarta,,Jakarta
118.97.164.21,4,582,poltekkes-medan.ac.id,ID,Asia,South-eastern Asia,Indonesia,Jakarta,,Jakarta
149.129.224.134,4,10,poltekkes-mks.ac.id,ID,Asia,South-eastern Asia,Indonesia,Jakarta,,Jakarta
103.247.10.229,4,35,poltekkesdepkes-sby.ac.id,ID,Asia,South-eastern Asia,Indonesia,Jakarta,,Jakarta
91.108.116.216,4,9,poltekkespalu.ac.id,ID,Asia,South-eastern Asia,Indonesia,Jakarta,,Jakarta
27.123.220.59,4,1177,polteknaker.ac.id,ID,Asia,South-eastern Asia,Indonesia,Jakarta,,Jakarta
103.53.79.24,4,7,poltekpel-sby.ac.id,ID,Asia,South-eastern Asia,Indonesia,Jakarta,,Jakarta
153.92.9.202,4,12,postpa.id,ID,Asia,South-eastern Asia,Indonesia,Jakarta,,Jakarta
149.129.217.203,4,1,prasetiyamulya.ac.id,ID,Asia,South-eastern Asia,Indonesia,Jakarta,,Jakarta
153.92.9.209,4,36,privacy-cd.org,ID,Asia,South-eastern Asia,Indonesia,Jakarta,,Jakarta
153.92.11.221,4,28,programhamil.id,ID,Asia,South-eastern Asia,Indonesia,Jakarta,,Jakarta
172.232.226.146,4,-41,ptats.co.id,ID,Asia,South-eastern Asia,Indonesia,Jakarta,,Jakarta
216.244.94.22,4,25,ptpn12.com,ID,Asia,South-eastern Asia,Indonesia,Jakarta,,Jakarta
34.101.234.103,4,28,pupuk-indonesia.com,ID,Asia,South-eastern Asia,Indonesia,Jakarta,,Jakarta
34.101.192.54,4,122,radicalacademy.com,ID,Asia,South-eastern Asia,Indonesia,Jakarta,,Jakarta
185.124.136.31,4,55,revaustinmiles.com,ID,Asia,South-eastern Asia,Indonesia,Jakarta,,Jakarta
77.37.80.2,4,31,rihaana.co.in,ID,Asia,South-eastern Asia,Indonesia,Jakarta,,Jakarta
153.92.10.78,4,49,rochateider.com,ID,Asia,South-eastern Asia,Indonesia,Jakarta,,Jakarta
153.92.13.242,4,28,sabun-aryanz.com,ID,Asia,South-eastern Asia,Indonesia,Jakarta,,Jakarta
153.92.11.101,4,13,sapporovn.com,ID,Asia,South-eastern Asia,Indonesia,Jakarta,,Jakarta
153.92.9.208,4,31,satisfashion.org,ID,Asia,South-eastern Asia,Indonesia,Jakarta,,Jakarta
34.101.131.234,4,41,sinarmas.co.id,ID,Asia,South-eastern Asia,Indonesia,Jakarta,,Jakarta
178.16.133.219,4,7,soccer-links.com,ID,Asia,South-eastern Asia,Indonesia,Jakarta,,Jakarta
153.92.9.197,4,11,socialproofd.com,ID,Asia,South-eastern Asia,Indonesia,Jakarta,,Jakarta
172.232.238.42,4,-42,spectreofcommunism.boo,ID,Asia,South-eastern Asia,Indonesia,Jakarta,,Jakarta
153.92.10.164,4,87,stempelwarna.com,ID,Asia,South-eastern Asia,Indonesia,Jakarta,,Jakarta
153.92.10.11,4,8,stieamm.ac.id,ID,Asia,South-eastern Asia,Indonesia,Jakarta,,Jakarta
103.247.11.88,4,804,stiecirebon.ac.id,ID,Asia,South-eastern Asia,Indonesia,Jakarta,,Jakarta
103.247.8.174,4,20,stiedewantara.ac.id,ID,Asia,South-eastern Asia,Indonesia,Jakarta,,Jakarta
103.247.10.176,4,939,stikes-ghs.ac.id,ID,Asia,South-eastern Asia,Indonesia,Jakarta,,Jakarta
103.181.182.82,4,64,stikes-mataram.ac.id,ID,Asia,South-eastern Asia,Indonesia,Jakarta,,Jakarta
103.247.11.133,4,70,stikestulungagung.ac.id,ID,Asia,South-eastern Asia,Indonesia,Jakarta,,Jakarta
153.92.10.77,4,71,stikpartoraja.ac.id,ID,Asia,South-eastern Asia,Indonesia,Jakarta,,Jakarta
34.101.102.27,4,65,streamlinemusicblog.com,ID,Asia,South-eastern Asia,Indonesia,Jakarta,,Jakarta
103.16.139.10,4,52,studykarona.com,ID,Asia,South-eastern Asia,Indonesia,Jakarta,,Jakarta
153.92.10.184,4,7,taiwansouji.com.tw,ID,Asia,South-eastern Asia,Indonesia,Jakarta,,Jakarta
153.92.8.21,4,8,tak.ru,ID,Asia,South-eastern Asia,Indonesia,Jakarta,,Jakarta
119.2.43.40,4,-25186343,tamanrasuna.id,ID,Asia,South-eastern Asia,Indonesia,Jakarta,,Jakarta
153.92.11.140,4,56,techking.id,ID,Asia,South-eastern Asia,Indonesia,Jakarta,,Jakarta
108.137.105.174,4,-4,tempo.co,ID,Asia,South-eastern Asia,Indonesia,Jakarta,,Jakarta
108.137.111.117,4,27,tempo.co,ID,Asia,South-eastern Asia,Indonesia,Jakarta,,Jakarta
103.247.8.185,4,1601,teralink.net.id,ID,Asia,South-eastern Asia,Indonesia,Jakarta,,Jakarta
153.92.9.68,4,10,tonecvision.com,ID,Asia,South-eastern Asia,Indonesia,Jakarta,,Jakarta
153.92.13.215,4,25,triumphstudio.com.au,ID,Asia,South-eastern Asia,Indonesia,Jakarta,,Jakarta
153.92.10.98,4,12,truediamond.co.uk,ID,Asia,South-eastern Asia,Indonesia,Jakarta,,Jakarta
153.92.13.206,4,16,truereligionjeans.org.uk,ID,Asia,South-eastern Asia,Indonesia,Jakarta,,Jakarta
119.235.210.188,4,4,ubharajaya.ac.id,ID,Asia,South-eastern Asia,Indonesia,Jakarta,,Jakarta
103.247.11.106,4,3,ubpkarawang.ac.id,ID,Asia,South-eastern Asia,Indonesia,Jakarta,,Jakarta
103.165.239.201,4,28564781,uisu.ac.id,ID,Asia,South-eastern Asia,Indonesia,Jakarta,,Jakarta
103.247.11.180,4,21,ukipaulus.ac.id,ID,Asia,South-eastern Asia,Indonesia,Jakarta,,Jakarta
153.92.11.103,4,13,umberau.ac.id,ID,Asia,South-eastern Asia,Indonesia,Jakarta,,Jakarta
116.197.133.193,4,3,umpr.ac.id,ID,Asia,South-eastern Asia,Indonesia,Jakarta,,Jakarta
103.247.11.100,4,10,umsb.ac.id,ID,Asia,South-eastern Asia,Indonesia,Jakarta,,Jakarta
8.215.8.140,4,19,undipa.ac.id,ID,Asia,South-eastern Asia,Indonesia,Jakarta,,Jakarta
103.247.10.119,4,2,unidha.ac.id,ID,Asia,South-eastern Asia,Indonesia,Jakarta,,Jakarta
103.247.10.242,4,-15,univefarina.ac.id,ID,Asia,South-eastern Asia,Indonesia,Jakarta,,Jakarta
103.154.90.35,4,15,unmas.ac.id,ID,Asia,South-eastern Asia,Indonesia,Jakarta,,Jakarta
182.253.188.77,4,-29,unpkediri.ac.id,ID,Asia,South-eastern Asia,Indonesia,Jakarta,,Jakarta
91.108.118.175,4,7424,unsam.ac.id,ID,Asia,South-eastern Asia,Indonesia,Jakarta,,Jakarta
118.97.208.182,4,11,untag-smd.ac.id,ID,Asia,South-eastern Asia,Indonesia,Jakarta,,Jakarta
103.247.10.238,4,-12,unulampung.ac.id,ID,Asia,South-eastern Asia,Indonesia,Jakarta,,Jakarta
103.165.232.131,4,23578,unw.ac.id,ID,Asia,South-eastern Asia,Indonesia,Jakarta,,Jakarta
153.92.8.168,4,10,usatimemagazine.com,ID,Asia,South-eastern Asia,Indonesia,Jakarta,,Jakarta
153.92.8.43,4,17,usdentistsdirectory.com,ID,Asia,South-eastern Asia,Indonesia,Jakarta,,Jakarta
77.37.78.119,4,7420,verona-qatar.com,ID,Asia,South-eastern Asia,Indonesia,Jakarta,,Jakarta
178.16.134.188,4,9,vgrsild100.com,ID,Asia,South-eastern Asia,Indonesia,Jakarta,,Jakarta
108.136.35.152,4,-27,visionplus.id,ID,Asia,South-eastern Asia,Indonesia,Jakarta,,Jakarta
108.137.43.84,4,-24,visionplus.id,ID,Asia,South-eastern Asia,Indonesia,Jakarta,,Jakarta
108.137.160.232,4,-24,visionplus.id,ID,Asia,South-eastern Asia,Indonesia,Jakarta,,Jakarta
117.54.3.13,4,7,wahana.com,ID,Asia,South-eastern Asia,Indonesia,Jakarta,,Jakarta
153.92.9.172,4,8,wak.co.id,ID,Asia,South-eastern Asia,Indonesia,Jakarta,,Jakarta
153.92.9.252,4,16,wartaboyolali.id,ID,Asia,South-eastern Asia,Indonesia,Jakarta,,Jakarta
172.232.252.233,4,30,webarq.com,ID,Asia,South-eastern Asia,Indonesia,Jakarta,,Jakarta
153.92.8.46,4,7,whitemenwithblackwomen.com,ID,Asia,South-eastern Asia,Indonesia,Jakarta,,Jakarta
103.247.11.162,4,15,whn.ac.id,ID,Asia,South-eastern Asia,Indonesia,Jakarta,,Jakarta
103.78.211.175,4,11,widyatama.ac.id,ID,Asia,South-eastern Asia,Indonesia,Jakarta,,Jakarta
185.124.139.124,4,7420,winix.id,ID,Asia,South-eastern Asia,Indonesia,Jakarta,,Jakarta
153.92.10.88,4,9,wuhuhotel.net,ID,Asia,South-eastern Asia,Indonesia,Jakarta,,Jakarta
93.127.220.239,4,78,xn--b3c4a1ba3c.guru,ID,Asia,South-eastern Asia,Indonesia,Jakarta,,Jakarta
139.255.58.233,4,36,yarsi.ac.id,ID,Asia,South-eastern Asia,Indonesia,Jakarta,,Jakarta
117.54.238.74,4,5,yasunli.co.id,ID,Asia,South-eastern Asia,Indonesia,Jakarta,,Jakarta
153.92.11.109,4,11,yuanhang0519.com,ID,Asia,South-eastern Asia,Indonesia,Jakarta,,Jakarta
