reflector_ip,ip_version,offset,description,country_code,region,sub_region,country_name,sub_division_1,sub_division_2,city
103.138.150.6,4,1283,ajkalbazar.xyz,BD,Asia,Southern Asia,Bangladesh,,,
14.128.14.5,4,109,allfreead.com,BD,Asia,Southern Asia,Bangladesh,,,
103.159.36.162,4,44,allresultbd.com,BD,Asia,Southern Asia,Bangladesh,,,
103.187.22.94,4,10,bankofinfo.com,BD,Asia,Southern Asia,Bangladesh,,,
115.187.18.121,4,579,bestwpware.com,BD,Asia,Southern Asia,Bangladesh,,,
103.125.255.23,4,7,biqri.com,BD,Asia,Southern Asia,Bangladesh,,,
103.157.135.49,4,2027,brur.ac.bd,BD,Asia,Southern Asia,Bangladesh,,,
114.130.240.178,4,-390479,bsmmu.edu.bd,BD,Asia,Southern Asia,Bangladesh,,,
103.157.135.123,4,-54,bup.edu.bd,BD,Asia,Southern Asia,Bangladesh,,,
114.130.119.166,4,-9,comilla.gov.bd,BD,Asia,Southern Asia,Bangladesh,,,
103.29.180.14,4,2,dainikamadershomoy.com,BD,Asia,Southern Asia,Bangladesh,,,
203.26.151.73,4,2,dainiksokalerbarta.com,BD,Asia,Southern Asia,Bangladesh,,,
203.190.11.3,4,-157,dic.edu.bd,BD,Asia,Southern Asia,Bangladesh,Dhaka Division,Dhaka,Dhaka
103.101.197.171,4,598,DNS Server: 103-101-197-171.Dhaka.carnival.com.bd,BD,Asia,Southern Asia,Bangladesh,Dhaka Division,Dhaka,Dhaka
103.112.54.34,4,-18390989,DNS Server: 103-112-54-34.Dhaka.carnival.com.bd,BD,Asia,Southern Asia,Bangladesh,Dhaka Division,Dhaka,Dhaka
103.147.162.37,4,26,DNS Server: 103-147-162-37.Dhaka.carnival.com.bd,BD,Asia,Southern Asia,Bangladesh,,,
103.251.245.89,4,4809,DNS Server: 103-251-245-89-tuhinenterprise.com,BD,Asia,Southern Asia,Bangladesh,Dhaka Division,Dhaka,Dhaka
115.127.191.18,4,3863,DNS Server: 115.127.191.18.bracnet.net,BD,Asia,Southern Asia,Bangladesh,Dhaka Division,Dhaka,Dhaka
123.200.18.198,4,5901,DNS Server: 18.198.aries.link3.net,BD,Asia,Southern Asia,Bangladesh,,,
180.148.211.214,4,1189,DNS Server: 180.148.211.214.stargatecommunications.com,BD,Asia,Southern Asia,Bangladesh,Dhaka Division,Dhaka,Dhaka
180.148.214.181,4,-2690,DNS Server: 180.148.214.181.stargatecommunications.com,BD,Asia,Southern Asia,Bangladesh,Dhaka Division,Dhaka,Dhaka
45.125.222.97,4,15495,DNS Server: 45-125-222-97.dhaka.carnival.com.bd,BD,Asia,Southern Asia,Bangladesh,Dhaka Division,Dhaka,Dhaka
103.117.195.217,4,12220389,DNS Server: ASSIGNED-FOR-CLIENT.mimebd.com,BD,Asia,Southern Asia,Bangladesh,Dhaka Division,Tangail,T훮ng훮il
120.50.22.130,4,893,DNS Server: caip.telnet.net.bd,BD,Asia,Southern Asia,Bangladesh,Dhaka Division,Dhaka,Dhaka
103.109.97.177,4,148,DNS Server: client-103-109-97-177.digijadoo.net,BD,Asia,Southern Asia,Bangladesh,Dhaka Division,Dhaka,Dhaka
180.149.234.13,4,3283526,DNS Server: client-180-149-234-13.digijadoo.net,BD,Asia,Southern Asia,Bangladesh,Dhaka Division,,
180.149.234.219,4,27,DNS Server: client-180-149-234-219.digijadoo.net,BD,Asia,Southern Asia,Bangladesh,Dhaka Division,,
113.212.110.22,4,1,DNS Server: host-11022.maxhub.net.bd,BD,Asia,Southern Asia,Bangladesh,Dhaka Division,Dhaka,Dhaka
202.91.41.53,4,2902,DNS Server: host-39-53.cityonlinebd.net,BD,Asia,Southern Asia,Bangladesh,Dhaka Division,Dhaka,Dhaka
103.130.113.129,4,21,DNS Server: host1.the-potato.net,BD,Asia,Southern Asia,Bangladesh,Dhaka Division,Dhaka,M훮tuail
202.91.40.139,4,-21071465,DNS Server: host139.cityonlinebd.net,BD,Asia,Southern Asia,Bangladesh,Dhaka Division,Dhaka,Dhaka
103.145.164.141,4,894,DNS Server: host141.lixbd.net.net,BD,Asia,Southern Asia,Bangladesh,Dhaka Division,Dhaka,Tejgaon
103.145.164.18,4,10,DNS Server: host18.lixbd.net.net,BD,Asia,Southern Asia,Bangladesh,Dhaka Division,Dhaka,Tejgaon
119.148.103.182,4,32,DNS Server: host182.maishabd.net,BD,Asia,Southern Asia,Bangladesh,Dhaka Division,Dhaka,Dhaka
103.145.164.203,4,19112765,DNS Server: host203.lixbd.net.net,BD,Asia,Southern Asia,Bangladesh,Dhaka Division,Dhaka,Tejgaon
202.91.40.24,4,8683,DNS Server: host24.cityonlinebd.net,BD,Asia,Southern Asia,Bangladesh,Dhaka Division,Dhaka,Dhaka
103.192.157.27,4,3292,DNS Server: host27.cityonlinebd.net,BD,Asia,Southern Asia,Bangladesh,Dhaka Division,Gazipur,Gazipur
113.212.108.54,4,-7088,DNS Server: host54.cityonlinebd.net,BD,Asia,Southern Asia,Bangladesh,Dhaka Division,Dhaka,Dhaka
113.212.111.66,4,1370,DNS Server: host66.cityonlinebd.net,BD,Asia,Southern Asia,Bangladesh,Dhaka Division,Dhaka,Dhaka
103.87.212.10,4,60813,DNS Server: ns.basnetbd.com,BD,Asia,Southern Asia,Bangladesh,Dhaka Division,Dhaka,Dhaka
180.211.137.55,4,4166818,dpe.gov.bd,BD,Asia,Southern Asia,Bangladesh,,,
103.148.14.50,4,1,drhealthbd.com,BD,Asia,Southern Asia,Bangladesh,,,
103.221.255.104,4,3681201,du.ac.bd,BD,Asia,Southern Asia,Bangladesh,,,
43.229.14.111,4,-14,ecs.gov.bd,BD,Asia,Southern Asia,Bangladesh,,,
103.16.74.246,4,37,ekushey-tv.com,BD,Asia,Southern Asia,Bangladesh,,,
14.128.15.140,4,977,expressengineersbd.com,BD,Asia,Southern Asia,Bangladesh,,,
103.204.80.147,4,1153,finlandtimes.fi,BD,Asia,Southern Asia,Bangladesh,,,
163.53.149.2,4,3372,flynovoair.com,BD,Asia,Southern Asia,Bangladesh,,,
103.48.17.57,4,-456,forms.gov.bd,BD,Asia,Southern Asia,Bangladesh,,,
103.209.40.212,4,-9,gdslbd.com,BD,Asia,Southern Asia,Bangladesh,,,
103.29.180.42,4,32,hathazarisangbad.com,BD,Asia,Southern Asia,Bangladesh,,,
103.29.180.37,4,17,hostseba.com,BD,Asia,Southern Asia,Bangladesh,,,
103.157.135.91,4,-52,iau.edu.bd,BD,Asia,Southern Asia,Bangladesh,,,
103.159.36.116,4,8,iercbd.com,BD,Asia,Southern Asia,Bangladesh,,,
203.80.191.57,4,7,iiuc.ac.bd,BD,Asia,Southern Asia,Bangladesh,,,
203.80.191.56,4,17,iiuc.ac.bd,BD,Asia,Southern Asia,Bangladesh,,,
103.48.17.195,4,2986394,incometax.gov.bd,BD,Asia,Southern Asia,Bangladesh,,,
103.84.175.197,4,1350,incometunes.com,BD,Asia,Southern Asia,Bangladesh,,,
103.174.51.5,4,2981484,infoaway.com,BD,Asia,Southern Asia,Bangladesh,,,
202.74.244.9,4,1530,infoexbd.com,BD,Asia,Southern Asia,Bangladesh,Dhaka Division,Dhaka,Dhaka
103.108.140.55,4,299,iubat.edu,BD,Asia,Southern Asia,Bangladesh,Dhaka Division,Dhaka,Dhaka
103.82.173.186,4,-15,iutoic-dhaka.edu,BD,Asia,Southern Asia,Bangladesh,,,
103.84.175.200,4,1350,jibonpata.com,BD,Asia,Southern Asia,Bangladesh,,,
103.174.153.245,4,-9096,jugantor.com,BD,Asia,Southern Asia,Bangladesh,,,
103.28.121.122,4,-16,just.edu.bd,BD,Asia,Southern Asia,Bangladesh,,,
103.174.50.245,4,66,lekhoni.info,BD,Asia,Southern Asia,Bangladesh,,,
103.163.246.17,4,17,linkeei.com,BD,Asia,Southern Asia,Bangladesh,,,
103.163.247.98,4,12,mainitbd.com,BD,Asia,Southern Asia,Bangladesh,,,
14.128.13.2,4,1012,mediserveapotek.com,BD,Asia,Southern Asia,Bangladesh,,,
103.174.50.11,4,2589,metrothemes.me,BD,Asia,Southern Asia,Bangladesh,,,
182.16.156.10,4,-10,mnrbd.com,BD,Asia,Southern Asia,Bangladesh,Dhaka Division,Dhaka,Dhaka
103.29.180.10,4,4,mobiledokan.com,BD,Asia,Southern Asia,Bangladesh,,,
115.187.18.73,4,1073,modinatheme.com,BD,Asia,Southern Asia,Bangladesh,,,
103.174.50.14,4,-91771,muktipotro.com,BD,Asia,Southern Asia,Bangladesh,,,
43.229.14.122,4,-15,nbr.gov.bd,BD,Asia,Southern Asia,Bangladesh,,,
14.128.15.148,4,19088,needy.info,BD,Asia,Southern Asia,Bangladesh,,,
123.49.56.13,4,1229113,nothi.gov.bd,BD,Asia,Southern Asia,Bangladesh,Dhaka Division,Dhaka,Dhaka
123.49.56.17,4,1229113,nothi.gov.bd,BD,Asia,Southern Asia,Bangladesh,Dhaka Division,Dhaka,Dhaka
116.206.56.211,4,1371,obsidian.com.bd,BD,Asia,Southern Asia,Bangladesh,,,
103.209.173.150,4,187,Ookla Speedtest Server 15887: speedtest.r3isp.net,BD,Asia,Southern Asia,Bangladesh,,,
103.170.137.210,4,228,Ookla Speedtest Server 16774: speedtest.touhed.net,BD,Asia,Southern Asia,Bangladesh,,,
203.76.99.30,4,-858264,Ookla Speedtest Server 20144: st.link3.net,BD,Asia,Southern Asia,Bangladesh,Dhaka Division,,
103.134.125.250,4,254,Ookla Speedtest Server 44366: speedtest.amrnetbd.com,BD,Asia,Southern Asia,Bangladesh,Chittagong,Chittagong,Chittagong
103.79.182.242,4,265,Ookla Speedtest Server 46849: speednetkhulna.online,BD,Asia,Southern Asia,Bangladesh,Khulna Division,Khulna,Khulna
103.103.89.18,4,-21441748,Ookla Speedtest Server 52701: speedtest.easyctg.net,BD,Asia,Southern Asia,Bangladesh,,,
103.185.24.234,4,264,Ookla Speedtest Server 53118: ns3.connect3.net.bd,BD,Asia,Southern Asia,Bangladesh,Chittagong,Chittagong,Chittagong
103.99.180.34,4,201,Ookla Speedtest Server 53587: speedtest.unicommultisystem.net,BD,Asia,Southern Asia,Bangladesh,Rajshahi Division,Pabna,P훮bna
103.103.239.10,4,285,Ookla Speedtest Server 53930: speedtest.epnetbd.com,BD,Asia,Southern Asia,Bangladesh,,,
103.143.235.18,4,180,Ookla Speedtest Server 55384: speedtest.gonicommunication.com,BD,Asia,Southern Asia,Bangladesh,,,
103.244.12.94,4,-28827223,Ookla Speedtest Server 59620: speedtest4.banglalink.net,BD,Asia,Southern Asia,Bangladesh,Chittagong,Comilla,Comilla
43.230.123.66,4,316,Ookla Speedtest Server 61760: speedtest.exordonline.com,BD,Asia,Southern Asia,Bangladesh,,,
116.58.207.102,4,108742,Ookla Speedtest Server 62134: speedtest5.banglalink.net,BD,Asia,Southern Asia,Bangladesh,Mymensingh Division,Mymensingh,Mymensingh
103.145.113.3,4,185540,Ookla Speedtest Server 62376: speedtest.scnbd.net,BD,Asia,Southern Asia,Bangladesh,Rajshahi Division,Bogra,Bogra
103.85.182.22,4,339,Ookla Speedtest Server 64725: speedtest.smartonlinebd.net,BD,Asia,Southern Asia,Bangladesh,,,
160.22.214.250,4,290,Ookla Speedtest Server 64743: speedtest.akborpowernet.xyz,BD,Asia,Southern Asia,Bangladesh,,,
103.43.148.67,4,45,Ookla Speedtest Server: speedtest.xpress.ltd,BD,Asia,Southern Asia,Bangladesh,Dhaka Division,Dhaka,Dhaka
36.255.68.111,4,7,purplepatch.online,BD,Asia,Southern Asia,Bangladesh,,,
43.229.15.121,4,15,rakub.org.bd,BD,Asia,Southern Asia,Bangladesh,,,
202.40.176.34,4,1171,rankspowertech.com,BD,Asia,Southern Asia,Bangladesh,Dhaka Division,Dhaka,Dhaka
103.79.117.77,4,1,ru.ac.bd,BD,Asia,Southern Asia,Bangladesh,,,
103.157.135.60,4,1891,ruet.ac.bd,BD,Asia,Southern Asia,Bangladesh,,,
103.205.133.96,4,455,sarabangla.net,BD,Asia,Southern Asia,Bangladesh,Dhaka Division,Dhaka,Dhaka
103.157.135.180,4,-9,sau.edu.bd,BD,Asia,Southern Asia,Bangladesh,,,
202.59.135.13,4,3188,squarepharma.com.bd,BD,Asia,Southern Asia,Bangladesh,,,
103.80.1.2,4,-142068,SS Online,BD,Asia,Southern Asia,Bangladesh,Dhaka Division,Dhaka,Dhaka
103.84.159.5,4,-5173,sust.edu,BD,Asia,Southern Asia,Bangladesh,,,
103.163.210.191,4,11,teachers.gov.bd,BD,Asia,Southern Asia,Bangladesh,,,
103.29.180.82,4,80,techmix.xyz,BD,Asia,Southern Asia,Bangladesh,,,
115.187.18.122,4,581,themesvila.com,BD,Asia,Southern Asia,Bangladesh,,,
103.245.204.118,4,-21,xiclassadmission.gov.bd,BD,Asia,Southern Asia,Bangladesh,,,
