reflector_ip,ip_version,offset,description,country_code,region,sub_region,country_name,sub_division_1,sub_division_2,city
65.20.76.97,4,-13,3nions.com,IN,Asia,Southern Asia,India,Maharashtra,,Mumbai
217.21.84.56,4,-32,44phone.com,IN,Asia,Southern Asia,India,Maharashtra,,Mumbai
159.89.160.208,4,-4,4seohelp.com,IN,Asia,Southern Asia,India,Karnataka,,Bengaluru
27.0.235.36,4,3,727895.com,IN,Asia,Southern Asia,India,Uttar Pradesh,,Noida
27.0.235.55,4,10,727895.com,IN,Asia,Southern Asia,India,Uttar Pradesh,,Noida
27.0.235.160,4,0,727895.com,IN,Asia,Southern Asia,India,Uttar Pradesh,,Noida
27.0.235.49,4,11,727895.com,IN,Asia,Southern Asia,India,Uttar Pradesh,,Noida
143.110.250.44,4,-14,7chakrasyogaschool.com,IN,Asia,Southern Asia,India,Karnataka,,Bengaluru
154.41.234.88,4,-22,7eventzz.com,IN,Asia,Southern Asia,India,Maharashtra,,Mumbai
103.13.113.50,4,-36,82bet.online,IN,Asia,Southern Asia,India,Maharashtra,,Panvel
157.173.216.33,4,-24,82lottery.in,IN,Asia,Southern Asia,India,Maharashtra,,Mumbai
165.232.179.213,4,-13,888starz.in,IN,Asia,Southern Asia,India,Karnataka,,Bengaluru
13.126.165.67,4,-2,91-cdn.com,IN,Asia,Southern Asia,India,Maharashtra,,Mumbai
103.63.31.132,4,4,97win.fyi,IN,Asia,Southern Asia,India,National Capital Territory of Delhi,,New Delhi
178.16.136.98,4,-22,988betvn.net,IN,Asia,Southern Asia,India,Maharashtra,,Mumbai
143.110.185.91,4,-1,99employee.com,IN,Asia,Southern Asia,India,Karnataka,,Bengaluru
101.53.148.136,4,974,99pandit.com,IN,Asia,Southern Asia,India,,,
3.108.140.77,4,-2,aaft.com,IN,Asia,Southern Asia,India,Maharashtra,,Mumbai
82.112.228.17,4,-23,aahanagroups.com,IN,Asia,Southern Asia,India,Maharashtra,,Mumbai
165.232.181.197,4,-1,aamaadmiparty.org,IN,Asia,Southern Asia,India,Karnataka,,Bengaluru
139.84.167.159,4,-15,aapc.org,IN,Asia,Southern Asia,India,Uttar Pradesh,,Noida
217.21.85.119,4,-22,abcrnews.com,IN,Asia,Southern Asia,India,Maharashtra,,Mumbai
93.127.208.100,4,-21,abhira.in,IN,Asia,Southern Asia,India,Maharashtra,,Mumbai
91.108.107.75,4,-21,abookmarking.com,IN,Asia,Southern Asia,India,Maharashtra,,Mumbai
143.244.135.64,4,-5,accurategraphics.net,IN,Asia,Southern Asia,India,Karnataka,,Bengaluru
103.74.54.30,4,6,aceinternational.edu.in,IN,Asia,Southern Asia,India,,,
103.171.180.105,4,-20,acharya.ac.in,IN,Asia,Southern Asia,India,,,
89.117.157.92,4,-8,acharyamarathecollege.in,IN,Asia,Southern Asia,India,Maharashtra,,Mumbai
180.179.213.201,4,5722,achrweb.org,IN,Asia,Southern Asia,India,,,
144.126.255.89,4,-8,acma.in,IN,Asia,Southern Asia,India,Karnataka,,Bengaluru
89.117.245.193,4,-15,actascientific.com,IN,Asia,Southern Asia,India,Maharashtra,,Mumbai
82.112.232.32,4,-20,actlings.com,IN,Asia,Southern Asia,India,Maharashtra,,Mumbai
114.143.200.242,4,-187104,actrec.gov.in,IN,Asia,Southern Asia,India,Maharashtra,,Mumbai
14.139.127.177,4,-187134,actrec.gov.in,IN,Asia,Southern Asia,India,Maharashtra,,Mumbai
13.234.95.152,4,-7,adgully.com,IN,Asia,Southern Asia,India,Maharashtra,,Mumbai
103.159.84.51,4,-18,adigitalblogger.com,IN,Asia,Southern Asia,India,,,
193.203.185.56,4,-14,adityaravishankar.com,IN,Asia,Southern Asia,India,Maharashtra,,Mumbai
103.20.212.17,4,24,adrpublications.in,IN,Asia,Southern Asia,India,Haryana,,Faridabad
89.117.188.220,4,11,ads2day.in,IN,Asia,Southern Asia,India,Maharashtra,,Mumbai
217.21.95.120,4,10,adswel.com,IN,Asia,Southern Asia,India,Maharashtra,,Mumbai
103.180.163.120,4,-26,aegisinfoways.com,IN,Asia,Southern Asia,India,Maharashtra,,Panvel
216.10.243.81,4,1415,agarwalpackers.com,IN,Asia,Southern Asia,India,,,
103.174.102.178,4,-18,agilecoach.in,IN,Asia,Southern Asia,India,,,
103.224.246.33,4,-18,aglasiangranito.com,IN,Asia,Southern Asia,India,,,
139.84.171.47,4,-2,agtcouae.co,IN,Asia,Southern Asia,India,Uttar Pradesh,,Noida
82.112.239.138,4,-21,aifpa.net,IN,Asia,Southern Asia,India,Maharashtra,,Mumbai
203.115.96.82,4,-15,aiims.edu,IN,Asia,Southern Asia,India,Uttar Pradesh,,Greater Noida
117.239.163.130,4,-22,aiimsjodhpur.edu.in,IN,Asia,Southern Asia,India,Kerala,,Kochi
117.236.175.52,4,205599,aiimsnagpur.edu.in,IN,Asia,Southern Asia,India,,,
139.59.38.88,4,-3,aileensoul.com,IN,Asia,Southern Asia,India,Karnataka,,Bengaluru
89.117.157.223,4,-14,ainetx.com,IN,Asia,Southern Asia,India,Maharashtra,,Mumbai
193.203.186.77,4,-20,airlinerpro.com,IN,Asia,Southern Asia,India,Maharashtra,,Mumbai
159.89.164.149,4,-14,aiuweb.org,IN,Asia,Southern Asia,India,Karnataka,,Bengaluru
91.108.107.244,4,-24,ajankari.com,IN,Asia,Southern Asia,India,Maharashtra,,Mumbai
49.50.81.199,4,28,ajer.org,IN,Asia,Southern Asia,India,,,
154.61.76.78,4,-33,akclinics.org,IN,Asia,Southern Asia,India,,,
103.187.238.15,4,-22,akshayapatra.org,IN,Asia,Southern Asia,India,,,
103.20.212.67,4,5,aliah.ac.in,IN,Asia,Southern Asia,India,Haryana,,Faridabad
103.73.188.189,4,-17,allduniv.ac.in,IN,Asia,Southern Asia,India,,,
89.117.157.12,4,1,alletec.com,IN,Asia,Southern Asia,India,Maharashtra,,Mumbai
86.38.243.233,4,-21,allindiaescort.com,IN,Asia,Southern Asia,India,Maharashtra,,Mumbai
103.115.19.90,4,-30,allindiajobalerts.in,IN,Asia,Southern Asia,India,Maharashtra,,Mumbai
217.21.87.117,4,-13434,allsocialpannal.com,IN,Asia,Southern Asia,India,Maharashtra,,Mumbai
43.204.245.114,4,35,altbalaji.com,IN,Asia,Southern Asia,India,Maharashtra,,Mumbai
194.195.112.127,4,74,altnews.in,IN,Asia,Southern Asia,India,Maharashtra,,Mumbai
82.112.228.22,4,-25,amodinisystems.com,IN,Asia,Southern Asia,India,Maharashtra,,Mumbai
148.113.20.118,4,-6,amrapalijewels.com,IN,Asia,Southern Asia,India,Maharashtra,,Mumbai
157.173.216.90,4,-18,amrutdistilleries.com,IN,Asia,Southern Asia,India,Maharashtra,,Mumbai
202.191.132.133,4,321,amul.com,IN,Asia,Southern Asia,India,,,
13.235.204.31,4,26,analyticssteps.com,IN,Asia,Southern Asia,India,Maharashtra,,Mumbai
82.180.143.156,4,-4,anandgholap.net,IN,Asia,Southern Asia,India,Maharashtra,,Mumbai
139.59.87.96,4,21,anandology.com,IN,Asia,Southern Asia,India,Karnataka,,Bengaluru
143.110.254.71,4,-14,andamanhotels.in,IN,Asia,Southern Asia,India,Karnataka,,Bengaluru
216.10.249.163,4,-24,andamanworldtravels.com,IN,Asia,Southern Asia,India,,,
217.21.89.159,4,26,androidnations.com,IN,Asia,Southern Asia,India,Maharashtra,,Mumbai
216.10.251.12,4,-19,annexpublishers.com,IN,Asia,Southern Asia,India,,,
219.90.67.45,4,82,apac.edu.au,IN,Asia,Southern Asia,India,,,
3.7.88.134,4,-165,appaswamy.com,IN,Asia,Southern Asia,India,Maharashtra,,Mumbai
217.21.83.139,4,-18,appdividend.com,IN,Asia,Southern Asia,India,National Capital Territory of Delhi,,New Delhi
3.6.24.4,4,14,appicial.com,IN,Asia,Southern Asia,India,Maharashtra,,Mumbai
82.112.229.14,4,-20,apressthemes.com,IN,Asia,Southern Asia,India,Maharashtra,,Mumbai
68.233.114.111,4,-13,aqi.in,IN,Asia,Southern Asia,India,Telangana,,Hyderabad
165.22.216.116,4,-4,arabiangambler.com,IN,Asia,Southern Asia,India,Karnataka,,Bengaluru
88.222.246.98,4,-23,archiesonline.com,IN,Asia,Southern Asia,India,Maharashtra,,Mumbai
103.191.208.89,4,22,arnin.in,IN,Asia,Southern Asia,India,,,
89.117.188.207,4,-16,aromasofcoorg.com,IN,Asia,Southern Asia,India,Maharashtra,,Mumbai
178.16.136.234,4,-21,aroomittal.in,IN,Asia,Southern Asia,India,Maharashtra,,Mumbai
82.112.229.222,4,-14,arshadjamalchairmanmau.com,IN,Asia,Southern Asia,India,Maharashtra,,Mumbai
217.21.87.228,4,18928,artsspecial.com,IN,Asia,Southern Asia,India,Maharashtra,,Mumbai
143.110.252.13,4,-32,arus-diplomi24.ru,IN,Asia,Southern Asia,India,Karnataka,,Bengaluru
82.112.229.218,4,-22,ashokkilam.com,IN,Asia,Southern Asia,India,Maharashtra,,Mumbai
13.234.134.134,4,-3,asianclinic.in,IN,Asia,Southern Asia,India,Maharashtra,,Mumbai
103.205.66.29,4,-38,asiatradehub.com,IN,Asia,Southern Asia,India,,,
154.41.233.179,4,-18,askcorran.com,IN,Asia,Southern Asia,India,Maharashtra,,Mumbai
64.227.183.234,4,6,askmalai.com,IN,Asia,Southern Asia,India,Karnataka,,Bengaluru
65.254.95.18,4,6,asrc.org.au,IN,Asia,Southern Asia,India,,,
103.27.120.57,4,20,astralpipes.com,IN,Asia,Southern Asia,India,,,
82.180.143.75,4,-25,astrologyswami.com,IN,Asia,Southern Asia,India,Maharashtra,,Mumbai
3.6.187.241,4,0,astrotalk.com,IN,Asia,Southern Asia,India,Maharashtra,,Mumbai
3.111.205.155,4,1,astrotalk.com,IN,Asia,Southern Asia,India,Maharashtra,,Mumbai
77.37.46.250,4,-9,astrovalue.com,IN,Asia,Southern Asia,India,Maharashtra,,Mumbai
119.18.52.208,4,-23,asus.in,IN,Asia,Southern Asia,India,,,
103.174.10.43,4,-17,asvika.com,IN,Asia,Southern Asia,India,,,
89.117.188.242,4,-18,atellier.in,IN,Asia,Southern Asia,India,Maharashtra,,Mumbai
46.28.45.89,4,-20,atmaaims.com,IN,Asia,Southern Asia,India,Maharashtra,,Mumbai
88.222.247.235,4,-26,atoallinks.com,IN,Asia,Southern Asia,India,Maharashtra,,Mumbai
103.159.84.241,4,-23,atompower.in,IN,Asia,Southern Asia,India,,,
195.35.44.215,4,-19,attarwale.com,IN,Asia,Southern Asia,India,Maharashtra,,Mumbai
103.25.130.150,4,8,aud.ac.in,IN,Asia,Southern Asia,India,,,
202.154.165.240,4,12,aurobindo.com,IN,Asia,Southern Asia,India,,,
103.39.133.73,4,-22,automationinsurat.com,IN,Asia,Southern Asia,India,,,
210.16.103.226,4,-28,automony.in,IN,Asia,Southern Asia,India,,,
13.234.157.62,4,-4,autox.com,IN,Asia,Southern Asia,India,Maharashtra,,Mumbai
82.112.232.155,4,-22,avapro24.com,IN,Asia,Southern Asia,India,Maharashtra,,Mumbai
103.194.242.18,4,-8,avinuty.ac.in,IN,Asia,Southern Asia,India,Tamil Nadu,,Tirupur
217.21.94.24,4,-16,axenontech.com,IN,Asia,Southern Asia,India,Maharashtra,,Mumbai
148.113.8.71,4,-2,ayurastroyoga.com,IN,Asia,Southern Asia,India,Maharashtra,,Mumbai
103.25.128.94,4,-1,azurepower.com,IN,Asia,Southern Asia,India,,,
93.127.207.2,4,-23,babynamemeaningz.com,IN,Asia,Southern Asia,India,Maharashtra,,Mumbai
103.48.50.177,4,4,bachpanglobal.com,IN,Asia,Southern Asia,India,,,
82.180.143.216,4,-13,backlinktrap.com,IN,Asia,Southern Asia,India,Maharashtra,,Mumbai
62.72.59.82,4,-15,backtooriginal.com,IN,Asia,Southern Asia,India,Maharashtra,,Mumbai
34.47.156.204,4,12,badabusiness.com,IN,Asia,Southern Asia,India,Maharashtra,,Mumbai
103.83.81.97,4,-5554,bagulamukhijyotishtantra.com,IN,Asia,Southern Asia,India,,,
159.65.158.232,4,23,banbanjara.com,IN,Asia,Southern Asia,India,Karnataka,,Bengaluru
154.41.233.44,4,-21,bangalorenyt.in,IN,Asia,Southern Asia,India,Maharashtra,,Mumbai
14.98.71.37,4,78,bareactslive.com,IN,Asia,Southern Asia,India,Uttar Pradesh,,Noida
91.108.107.163,4,-21,basicinfohub.com,IN,Asia,Southern Asia,India,Maharashtra,,Mumbai
14.139.230.99,4,-531403,bcetgsp.ac.in,IN,Asia,Southern Asia,India,Haryana,,Faridabad
103.133.215.103,4,377331,bclara.com,IN,Asia,Southern Asia,India,,,
139.59.55.151,4,-6,bdstall.com,IN,Asia,Southern Asia,India,Karnataka,,Bengaluru
193.203.185.217,4,-12,beadandbutton.com,IN,Asia,Southern Asia,India,Maharashtra,,Mumbai
103.211.217.180,4,-23,becomingias.com,IN,Asia,Southern Asia,India,Maharashtra,,Mumbai
139.59.30.201,4,-13,beingtheparent.com,IN,Asia,Southern Asia,India,Karnataka,,Bengaluru
89.117.188.189,4,-20,belgaumonline.com,IN,Asia,Southern Asia,India,Maharashtra,,Mumbai
103.83.194.132,4,1082,benmoonpharma.com,IN,Asia,Southern Asia,India,Maharashtra,,Pune
202.65.131.182,4,-16,bestbus.in,IN,Asia,Southern Asia,India,Telangana,,Hyderabad
103.145.50.54,4,-11,bestcardiologistnashik.in,IN,Asia,Southern Asia,India,,,
35.244.60.162,4,19,betaout.com,IN,Asia,Southern Asia,India,Maharashtra,,Mumbai
89.117.157.102,4,-14,bhaijiworks.com,IN,Asia,Southern Asia,India,Maharashtra,,Mumbai
103.14.99.44,4,-20,bharatbook.com,IN,Asia,Southern Asia,India,Maharashtra,,Mumbai
164.52.215.40,4,3,bharatforge.com,IN,Asia,Southern Asia,India,,,
103.1.115.65,4,-28,bharatividyapeeth.edu,IN,Asia,Southern Asia,India,,,
216.10.247.73,4,802,bhojnalaya.com,IN,Asia,Southern Asia,India,,,
117.203.160.230,4,-29794539,biharboardonline.com,IN,Asia,Southern Asia,India,Jharkhand,,Bokaro
88.222.241.87,4,-23,biharhelp.in,IN,Asia,Southern Asia,India,Maharashtra,,Mumbai
13.201.223.132,4,199064,bikaji.com,IN,Asia,Southern Asia,India,Maharashtra,,Mumbai
101.53.155.230,4,4,bikes4sale.in,IN,Asia,Southern Asia,India,,,
217.21.85.161,4,-21,bioguru.in,IN,Asia,Southern Asia,India,Maharashtra,,Mumbai
154.56.54.107,4,-20,biospectrumasia.com,IN,Asia,Southern Asia,India,Maharashtra,,Mumbai
62.72.14.51,4,-18,biospectrumindia.com,IN,Asia,Southern Asia,India,Maharashtra,,Mumbai
82.112.238.215,4,-4,birdsnbees.co.id,IN,Asia,Southern Asia,India,Maharashtra,,Mumbai
89.117.27.67,4,-13,birlatrimayaa.in,IN,Asia,Southern Asia,India,Maharashtra,,Mumbai
172.105.57.49,4,86194,bisleri.com,IN,Asia,Southern Asia,India,Maharashtra,,Mumbai
119.18.52.133,4,535435,bitaacademy.com,IN,Asia,Southern Asia,India,,,
141.148.211.159,4,-19,bits-pilani.ac.in,IN,Asia,Southern Asia,India,Maharashtra,,Mumbai
103.216.146.165,4,-28,bizpluscrm.in,IN,Asia,Southern Asia,India,,,
190.92.174.92,4,-28,bizwireexpress.com,IN,Asia,Southern Asia,India,Maharashtra,,Navi Mumbai
46.28.47.25,4,-24,bizz4me.com,IN,Asia,Southern Asia,India,Maharashtra,,Mumbai
154.41.233.12,4,-19,bizzeonline.com,IN,Asia,Southern Asia,India,Maharashtra,,Mumbai
148.113.26.11,4,-155449,blisswebservices.com,IN,Asia,Southern Asia,India,Maharashtra,,Mumbai
68.183.247.6,4,46,blocksentinels.com,IN,Asia,Southern Asia,India,Karnataka,,Bengaluru
193.203.185.96,4,-15,blogbursts.in,IN,Asia,Southern Asia,India,Maharashtra,,Mumbai
154.41.255.152,4,-22,blogdu.de,IN,Asia,Southern Asia,India,Maharashtra,,Mumbai
89.117.157.160,4,-16,blogearns.com,IN,Asia,Southern Asia,India,Maharashtra,,Mumbai
193.203.185.193,4,15,blogsflu.com,IN,Asia,Southern Asia,India,Maharashtra,,Mumbai
142.93.220.242,4,22,blogtobollywood.com,IN,Asia,Southern Asia,India,Karnataka,,Bengaluru
89.117.27.20,4,-23,blueweaveconsulting.com,IN,Asia,Southern Asia,India,Maharashtra,,Mumbai
139.84.138.200,4,-4,bmsce.ac.in,IN,Asia,Southern Asia,India,Karnataka,,Bengaluru
3.110.246.34,4,0,bmu.edu.in,IN,Asia,Southern Asia,India,Maharashtra,,Mumbai
223.31.220.84,4,29,boat-srp.com,IN,Asia,Southern Asia,India,,,
109.73.164.82,4,-6,bombaysamachar.com,IN,Asia,Southern Asia,India,National Capital Territory of Delhi,,New Delhi
157.173.216.30,4,7,bongroup.org,IN,Asia,Southern Asia,India,Maharashtra,,Mumbai
164.52.206.110,4,66,bookchor.com,IN,Asia,Southern Asia,India,,,
101.53.133.242,4,36,bookeventz.com,IN,Asia,Southern Asia,India,,,
45.79.123.93,4,-20,bookmein.in,IN,Asia,Southern Asia,India,Maharashtra,,Mumbai
46.28.45.79,4,33,bookviewzine.com,IN,Asia,Southern Asia,India,Maharashtra,,Mumbai
35.200.215.198,4,13,bounceinfinity.com,IN,Asia,Southern Asia,India,Maharashtra,,Mumbai
14.0.60.118,4,-10,bouncingball8-bd.com,IN,Asia,Southern Asia,India,Maharashtra,,Mumbai
139.59.24.31,4,-9,boxertechnology.info,IN,Asia,Southern Asia,India,Karnataka,,Bengaluru
89.117.188.234,4,-23,braceportdentistry.com,IN,Asia,Southern Asia,India,Maharashtra,,Mumbai
172.105.40.71,4,-21,brandknewmag.com,IN,Asia,Southern Asia,India,Maharashtra,,Mumbai
45.79.124.115,4,-14,brazzilmag.com,IN,Asia,Southern Asia,India,Maharashtra,,Mumbai
86.38.243.120,4,-17,breakout.in,IN,Asia,Southern Asia,India,Maharashtra,,Mumbai
89.117.27.66,4,-21,breezedecorators.com,IN,Asia,Southern Asia,India,Maharashtra,,Mumbai
103.117.180.2,4,-25,brightcominvestors.com,IN,Asia,Southern Asia,India,,,
154.56.52.204,4,-24,browntape.com,IN,Asia,Southern Asia,India,Maharashtra,,Mumbai
103.145.51.41,4,2880,bruceleevideos.org,IN,Asia,Southern Asia,India,,,
141.226.255.249,4,40,bsesdelhi.com,IN,Asia,Southern Asia,India,Tamil Nadu,,Chennai
218.248.240.19,4,-265852,bsnl.co.in,IN,Asia,Southern Asia,India,,,
82.112.232.166,4,-23,bubblyhub.in,IN,Asia,Southern Asia,India,Maharashtra,,Mumbai
103.39.135.18,4,931,budgettravelbuff.com,IN,Asia,Southern Asia,India,,,
3.6.57.174,4,10,buildnext.in,IN,Asia,Southern Asia,India,Maharashtra,,Mumbai
15.206.119.39,4,6,businessmarketinsights.com,IN,Asia,Southern Asia,India,Maharashtra,,Mumbai
89.117.188.104,4,-25,businessnewsblog.net,IN,Asia,Southern Asia,India,Maharashtra,,Mumbai
68.183.88.9,4,8,businessofcinema.com,IN,Asia,Southern Asia,India,Karnataka,,Bengaluru
103.212.121.208,4,177,businessraja.com,IN,Asia,Southern Asia,India,,,
154.41.233.140,4,-25,buyertimes.co.in,IN,Asia,Southern Asia,India,Maharashtra,,Mumbai
103.143.46.252,4,-25,buylehengaonline.com,IN,Asia,Southern Asia,India,,,
103.86.177.54,4,-27,buyyoutubesubscribers.in,IN,Asia,Southern Asia,India,,,
217.21.85.164,4,-19,buyyoutubeviewsindia.in,IN,Asia,Southern Asia,India,Maharashtra,,Mumbai
103.211.217.43,4,-19,bylancer.com,IN,Asia,Southern Asia,India,Maharashtra,,Mumbai
3.111.254.110,4,20,cabsat.com,IN,Asia,Southern Asia,India,Maharashtra,,Mumbai
194.238.17.151,4,-9,callgirlanytimes.com,IN,Asia,Southern Asia,India,Maharashtra,,Mumbai
62.72.28.242,4,19,callgirljodhpur.in,IN,Asia,Southern Asia,India,Maharashtra,,Mumbai
82.112.239.203,4,-18,callgirlsinnoida247.com,IN,Asia,Southern Asia,India,Maharashtra,,Mumbai
62.72.28.230,4,-19,callgirlvaranasi.in,IN,Asia,Southern Asia,India,Maharashtra,,Mumbai
89.117.157.225,4,-15,callmaya.in,IN,Asia,Southern Asia,India,Maharashtra,,Mumbai
159.89.168.28,4,8,candor.in,IN,Asia,Southern Asia,India,Karnataka,,Bengaluru
217.21.90.100,4,-24,canvaslock.com,IN,Asia,Southern Asia,India,Maharashtra,,Mumbai
89.117.27.190,4,-23,carboncopy.info,IN,Asia,Southern Asia,India,Maharashtra,,Mumbai
217.21.91.152,4,-20,careerswami.com,IN,Asia,Southern Asia,India,Maharashtra,,Mumbai
45.249.111.79,4,-25,carehospitals.com,IN,Asia,Southern Asia,India,,,
157.173.216.222,4,-14,casinogrowthx.com,IN,Asia,Southern Asia,India,Maharashtra,,Mumbai
89.117.188.213,4,51,catchflame.com,IN,Asia,Southern Asia,India,Maharashtra,,Mumbai
217.21.80.250,4,-18,cbd-news.org,IN,Asia,Southern Asia,India,National Capital Territory of Delhi,,New Delhi
172.105.39.27,4,-25,cdhfinechemical.com,IN,Asia,Southern Asia,India,Maharashtra,,Mumbai
159.89.168.215,4,-7,celebsnetworthwiki.com,IN,Asia,Southern Asia,India,Karnataka,,Bengaluru
199.232.107.10,4,-24,cepheid.com,IN,Asia,Southern Asia,India,Telangana,,Hyderabad
43.240.67.90,4,508654,cetcell.net,IN,Asia,Southern Asia,India,,,
159.89.174.206,4,-9,cgeduversity.in,IN,Asia,Southern Asia,India,Karnataka,,Bengaluru
164.52.201.94,4,1316,cgisf.gov.in,IN,Asia,Southern Asia,India,,,
82.112.232.90,4,-26,chandaokelle.com,IN,Asia,Southern Asia,India,Maharashtra,,Mumbai
142.93.222.128,4,-4,charcha.cc,IN,Asia,Southern Asia,India,Karnataka,,Bengaluru
89.116.133.145,4,-18,cheapciali.com,IN,Asia,Southern Asia,India,Maharashtra,,Mumbai
154.56.53.18,4,21,cheesehouse.com,IN,Asia,Southern Asia,India,Maharashtra,,Mumbai
123.253.10.49,4,-32,chekkup.in,IN,Asia,Southern Asia,India,,,
119.31.249.62,4,106,chengbu.gov.cn,IN,Asia,Southern Asia,India,Telangana,,Hyderabad
86.38.243.40,4,-25,chinamarket.lk,IN,Asia,Southern Asia,India,Maharashtra,,Mumbai
89.117.188.187,4,-3,chromadent.com,IN,Asia,Southern Asia,India,Maharashtra,,Mumbai
103.102.234.202,4,-33,ciphertalks.com,IN,Asia,Southern Asia,India,,,
68.183.245.131,4,-21,circleofcricket.com,IN,Asia,Southern Asia,India,Karnataka,,Bengaluru
89.117.188.132,4,-26,circularsawsindia.com,IN,Asia,Southern Asia,India,Maharashtra,,Mumbai
82.112.229.228,4,-10,civilnoteppt.com,IN,Asia,Southern Asia,India,Maharashtra,,Mumbai
193.202.45.16,4,-24,civilsir.com,IN,Asia,Southern Asia,India,Maharashtra,,Mumbai
148.113.1.196,4,6,cknaircollege.com,IN,Asia,Southern Asia,India,Maharashtra,,Mumbai
217.21.84.247,4,-19,classchalo.com,IN,Asia,Southern Asia,India,Maharashtra,,Mumbai
94.136.188.144,4,-23,classifiedsgulf.com,IN,Asia,Southern Asia,India,Maharashtra,,Mumbai
46.28.47.235,4,-17,classyescortschennai.com,IN,Asia,Southern Asia,India,Maharashtra,,Mumbai
82.112.232.230,4,30,claverfox.com,IN,Asia,Southern Asia,India,Maharashtra,,Mumbai
13.127.198.123,4,0,clickastro.com,IN,Asia,Southern Asia,India,Maharashtra,,Mumbai
3.7.132.19,4,-3,clickastro.com,IN,Asia,Southern Asia,India,Maharashtra,,Mumbai
43.204.182.139,4,-3,clickastro.com,IN,Asia,Southern Asia,India,Maharashtra,,Mumbai
205.147.110.194,4,16,clickindia.com,IN,Asia,Southern Asia,India,Haryana,,Faridabad
43.204.18.143,4,6,clinicspots.com,IN,Asia,Southern Asia,India,Maharashtra,,Mumbai
206.1.14.84,4,416,cloud4c.com,IN,Asia,Southern Asia,India,Telangana,,Hyderabad
216.10.243.191,4,1093,cms.com,IN,Asia,Southern Asia,India,,,
103.205.64.54,4,-2,cobrapost.com,IN,Asia,Southern Asia,India,,,
178.16.136.189,4,-15,coderduck.com,IN,Asia,Southern Asia,India,Maharashtra,,Mumbai
103.212.120.133,4,1781,codersource.net,IN,Asia,Southern Asia,India,,,
91.108.107.18,4,-20,codingeek.com,IN,Asia,Southern Asia,India,Maharashtra,,Mumbai
174.138.122.221,4,15,colorsinspo.com,IN,Asia,Southern Asia,India,Karnataka,,Bengaluru
217.21.87.253,4,18964,comalhandicraftleatherbag.com,IN,Asia,Southern Asia,India,Maharashtra,,Mumbai
119.18.62.56,4,28,constrofacilitator.com,IN,Asia,Southern Asia,India,,,
103.39.132.30,4,615,constructionworld.in,IN,Asia,Southern Asia,India,,,
103.171.180.61,4,-30,consumerhelpindia.com,IN,Asia,Southern Asia,India,,,
217.21.94.46,4,-26,content-whale.com,IN,Asia,Southern Asia,India,Maharashtra,,Mumbai
157.173.216.160,4,-16,controlf5.in,IN,Asia,Southern Asia,India,Maharashtra,,Mumbai
82.180.142.109,4,-13,coolbreezelaundry.ae,IN,Asia,Southern Asia,India,Maharashtra,,Mumbai
146.88.25.171,4,-53161,cotginanalytics.in,IN,Asia,Southern Asia,India,,,
194.61.31.157,4,5,countryclubmembership.in,IN,Asia,Southern Asia,India,Maharashtra,,Mumbai
89.116.133.51,4,-22,cpx-traffic.com,IN,Asia,Southern Asia,India,Maharashtra,,Mumbai
89.116.134.215,4,-17,craftyartapp.com,IN,Asia,Southern Asia,India,Maharashtra,,Mumbai
103.48.51.132,4,4,crazyforstudy.com,IN,Asia,Southern Asia,India,,,
103.90.241.91,4,870,creationinfoways.com,IN,Asia,Southern Asia,India,,,
103.104.73.19,4,0,creatorshala.com,IN,Asia,Southern Asia,India,,,
93.127.167.229,4,-22,croozi.com,IN,Asia,Southern Asia,India,Maharashtra,,Mumbai
86.38.243.201,4,-24,crvat.com,IN,Asia,Southern Asia,India,Maharashtra,,Mumbai
82.112.239.202,4,-23,cryptoalertscam.com,IN,Asia,Southern Asia,India,Maharashtra,,Mumbai
62.72.31.111,4,-22,cryptoknowmics.com,IN,Asia,Southern Asia,India,Maharashtra,,Mumbai
146.88.24.134,4,6,csmvs.in,IN,Asia,Southern Asia,India,,,
89.117.188.58,4,-20,ctgarl.com,IN,Asia,Southern Asia,India,Maharashtra,,Mumbai
103.16.146.197,4,-16,ctpublicschooljal.com,IN,Asia,Southern Asia,India,Punjab,,Jalandhar
35.244.58.167,4,13,cureskin.com,IN,Asia,Southern Asia,India,Maharashtra,,Mumbai
103.195.184.152,4,697,cus.ac.in,IN,Asia,Southern Asia,India,,,
216.10.249.148,4,95,cusb.ac.in,IN,Asia,Southern Asia,India,,,
103.117.212.223,4,1380,cutetusy.cc,IN,Asia,Southern Asia,India,,,
103.193.75.250,4,699,cuts-international.org,IN,Asia,Southern Asia,India,Maharashtra,,Panvel
143.244.130.139,4,7,cvnkalari.com,IN,Asia,Southern Asia,India,Karnataka,,Bengaluru
103.152.79.133,4,-30,cvowl.com,IN,Asia,Southern Asia,India,,,
148.113.20.155,4,-30,cyanogenmods.org,IN,Asia,Southern Asia,India,Maharashtra,,Mumbai
91.108.107.92,4,-21,cyberpandit.org,IN,Asia,Southern Asia,India,Maharashtra,,Mumbai
20.198.80.43,4,25,daiict.ac.in,IN,Asia,Southern Asia,India,Maharashtra,,Pune
175.176.186.26,4,-16,dailypost.in,IN,Asia,Southern Asia,India,,,
65.254.95.60,4,17,daleysfruit.com.au,IN,Asia,Southern Asia,India,,,
217.21.83.207,4,-4,damangames.app,IN,Asia,Southern Asia,India,National Capital Territory of Delhi,,New Delhi
82.112.228.8,4,-18,dangalgym.com,IN,Asia,Southern Asia,India,Maharashtra,,Mumbai
172.232.103.123,4,102,dappsfirm.com,IN,Asia,Southern Asia,India,Tamil Nadu,,Chennai
217.21.84.253,4,165,dassurgicals.com,IN,Asia,Southern Asia,India,Maharashtra,,Mumbai
103.174.10.14,4,-20,datasouk.ai,IN,Asia,Southern Asia,India,,,
103.187.238.41,4,-31,davangereuniversity.ac.in,IN,Asia,Southern Asia,India,,,
213.210.21.50,4,-20,dealsshutter.com,IN,Asia,Southern Asia,India,Maharashtra,,Mumbai
139.59.51.55,4,-6,defencenews.in,IN,Asia,Southern Asia,India,Karnataka,,Bengaluru
103.170.3.5,4,1106,defindia.org,IN,Asia,Southern Asia,India,,,
45.79.122.222,4,-29,delhi-escorts.in,IN,Asia,Southern Asia,India,Maharashtra,,Mumbai
82.180.142.134,4,-13,delhiescortss.com,IN,Asia,Southern Asia,India,Maharashtra,,Mumbai
195.35.22.161,4,-21,delhimazza.com,IN,Asia,Southern Asia,India,Maharashtra,,Mumbai
89.117.157.244,4,-2,delhinyt.in,IN,Asia,Southern Asia,India,Maharashtra,,Mumbai
89.117.27.2,4,-20,delhitechnicalcampus.com,IN,Asia,Southern Asia,India,Maharashtra,,Mumbai
134.209.157.193,4,-5,deliciaecakes.com,IN,Asia,Southern Asia,India,Karnataka,,Bengaluru
69.57.172.41,4,-35,delnet.in,IN,Asia,Southern Asia,India,Maharashtra,,Navi Mumbai
86.38.243.116,4,31,desertthemes.com,IN,Asia,Southern Asia,India,Maharashtra,,Mumbai
13.234.151.91,4,25,deshabhimani.com,IN,Asia,Southern Asia,India,Maharashtra,,Mumbai
164.52.206.3,4,-5,deshgujarat.com,IN,Asia,Southern Asia,India,,,
45.79.127.53,4,-12,devalt.org,IN,Asia,Southern Asia,India,Maharashtra,,Mumbai
89.116.133.125,4,-18,devbhoomimedia.com,IN,Asia,Southern Asia,India,Maharashtra,,Mumbai
82.112.232.244,4,-26,devdigitalmedia.com,IN,Asia,Southern Asia,India,Maharashtra,,Mumbai
103.255.134.35,4,-28,devtopics.com,IN,Asia,Southern Asia,India,,,
93.127.198.174,4,-22,dewabalak66.blog,IN,Asia,Southern Asia,India,Maharashtra,,Mumbai
172.105.55.23,4,-22,dhakachamber.com,IN,Asia,Southern Asia,India,Maharashtra,,Mumbai
103.120.178.236,4,-12,dhartivikas.com,IN,Asia,Southern Asia,India,,,
125.21.186.102,4,831,dhbvn.org.in,IN,Asia,Southern Asia,India,National Capital Territory of Delhi,,New Delhi
59.145.197.151,4,8,dhbvn.org.in,IN,Asia,Southern Asia,India,Karnataka,,Bengaluru
82.112.229.238,4,-16,dianaescorts.in,IN,Asia,Southern Asia,India,Maharashtra,,Mumbai
89.117.157.109,4,-18,digeefy.com,IN,Asia,Southern Asia,India,Maharashtra,,Mumbai
149.100.147.116,4,-19,digiperform.com,IN,Asia,Southern Asia,India,Maharashtra,,Mumbai
82.180.143.96,4,41,digitallycrowd.com,IN,Asia,Southern Asia,India,Maharashtra,,Mumbai
82.112.232.79,4,-24,digitalsmagazine.com,IN,Asia,Southern Asia,India,Maharashtra,,Mumbai
43.230.201.143,4,-28,digitaltrainee.com,IN,Asia,Southern Asia,India,Maharashtra,,Panvel
193.203.185.128,4,-22,digitalvishnuacademy.in,IN,Asia,Southern Asia,India,Maharashtra,,Mumbai
103.148.156.216,4,-3,directdumps.com,IN,Asia,Southern Asia,India,,,
45.64.105.11,4,26784,distromedkutchh.com,IN,Asia,Southern Asia,India,Maharashtra,,Pune
219.90.65.112,4,-28,divyayoga.com,IN,Asia,Southern Asia,India,,,
156.67.105.170,4,-21,dmcalumniaus.org,IN,Asia,Southern Asia,India,Maharashtra,,Mumbai
89.117.157.116,4,-19,dmsdiagnostics.com,IN,Asia,Southern Asia,India,Maharashtra,,Mumbai
154.56.53.29,4,-18,dnaforensics.in,IN,Asia,Southern Asia,India,Maharashtra,,Mumbai
116.68.126.100,4,-4,DNS Server: 100.126.68.116.asianet.co.in,IN,Asia,Southern Asia,India,Kerala,,Kochi
103.154.246.146,4,23,DNS Server: 103.154.246.146.gigatel.info,IN,Asia,Southern Asia,India,Uttar Pradesh,,Noida
103.27.48.10,4,110351,DNS Server: 103.27.48.10.balajibroadband.com,IN,Asia,Southern Asia,India,Maharashtra,,Mumbai
203.187.253.106,4,3366,DNS Server: 106-253-187-203.static.youbroadband.in,IN,Asia,Southern Asia,India,,,
202.164.153.108,4,1105,DNS Server: 108.153.164.202.asianet.co.in,IN,Asia,Southern Asia,India,Kerala,,Kochi
115.240.14.242,4,127967,DNS Server: 115.240.14.242.static.jio.com,IN,Asia,Southern Asia,India,West Bengal,,Kolkata
115.240.220.45,4,-33,DNS Server: 115.240.220.45.static.jio.com,IN,Asia,Southern Asia,India,Tamil Nadu,,Chennai
115.243.147.169,4,-46,DNS Server: 115.243.147.169.static.jio.com,IN,Asia,Southern Asia,India,,,
136.233.51.81,4,-993826947,DNS Server: 136.233.51.81.static.jio.com,IN,Asia,Southern Asia,India,,,
103.209.144.140,4,-528822,DNS Server: 140-144-209-103.microhost.com,IN,Asia,Southern Asia,India,,,
27.0.56.150,4,19720847,DNS Server: 150-56-0-27.vasaicable.co.in,IN,Asia,Southern Asia,India,Maharashtra,,Mumbai
123.201.247.161,4,138,DNS Server: 161-247-201-123.static.youbroadband.in,IN,Asia,Southern Asia,India,Maharashtra,,Pune
175.101.8.251,4,189,DNS Server: 175.101.8.251.static.excellmedia.net,IN,Asia,Southern Asia,India,Telangana,,Hyderabad
183.177.126.186,4,10,DNS Server: 183.177.126.186.orangeinfocom.in,IN,Asia,Southern Asia,India,Maharashtra,,Nagpur
183.82.107.220,4,347,DNS Server: 183.82.107.220.actcorp.in,IN,Asia,Southern Asia,India,Telangana,,Hyderabad
183.87.161.86,4,32795,DNS Server: 183.87.161.86.server.jprdigital.net,IN,Asia,Southern Asia,India,Maharashtra,,Mumbai
202.122.21.225,4,35032,DNS Server: 202.122.21.225.convergentindia.com,IN,Asia,Southern Asia,India,Karnataka,,Bengaluru
111.92.85.233,4,1270,DNS Server: 233.85.92.111.asianet.co.in,IN,Asia,Southern Asia,India,Kerala,,Kochi
150.129.248.115,4,-945746987,DNS Server: 248.129.150.in-addr.tripleplay.in,IN,Asia,Southern Asia,India,,,
202.164.140.31,4,-23395625,DNS Server: 31.140.164.202.asianet.co.in,IN,Asia,Southern Asia,India,Kerala,,Kochi
111.92.105.39,4,562,DNS Server: 39.105.92.111.asianet.co.in,IN,Asia,Southern Asia,India,Kerala,,Kochi
103.91.16.47,4,20542875,DNS Server: 47.16.91.103-sigaramnet.com,IN,Asia,Southern Asia,India,,,
49.207.36.81,4,168,DNS Server: 49.207.36.81.actcorp.in,IN,Asia,Southern Asia,India,Tamil Nadu,,Chennai
111.92.96.51,4,-43828600,DNS Server: 51.96.92.111.asianet.co.in,IN,Asia,Southern Asia,India,Kerala,,Kochi
111.92.100.55,4,-23404074,DNS Server: 55.100.92.111.asianet.co.in,IN,Asia,Southern Asia,India,Kerala,,Kochi
115.69.240.6,4,203,DNS Server: 6-240-69-115.vasaicable.co.in,IN,Asia,Southern Asia,India,Maharashtra,,Mumbai
111.92.96.66,4,-1987,DNS Server: 66.96.92.111.asianet.co.in,IN,Asia,Southern Asia,India,Kerala,,Kochi
111.92.63.75,4,1140,DNS Server: 75.63.92.111.asianet.co.in,IN,Asia,Southern Asia,India,Kerala,,Thiruvananthapuram
103.165.4.82,4,73999,DNS Server: 82-4-165-103.vayuonline.in,IN,Asia,Southern Asia,India,,,
202.164.153.87,4,760,DNS Server: 87.153.164.202.asianet.co.in,IN,Asia,Southern Asia,India,Kerala,,Kochi
182.70.125.244,4,369,DNS Server: abts-mum-static-244.125.70.182.airtelbroadband.in,IN,Asia,Southern Asia,India,Maharashtra,,Mumbai
61.247.224.195,4,-1356627408,DNS Server: abts-north-static-195.224.247.61.airtelbroadband.in,IN,Asia,Southern Asia,India,Haryana,,Gurugram
59.144.177.217,4,-70485110,DNS Server: abts-north-static-217.177.144.59.airtelbroadband.in,IN,Asia,Southern Asia,India,,,
103.157.162.33,4,137842,DNS Server: as138737.gateway.aitcpl.com,IN,Asia,Southern Asia,India,,,
106.51.129.231,4,-3771290742,DNS Server: broadband.actcorp.in,IN,Asia,Southern Asia,India,Karnataka,,Bengaluru
124.40.246.69,4,-29,DNS Server: deltaraj.bbnl.in,IN,Asia,Southern Asia,India,Karnataka,,Bengaluru
203.192.219.21,4,242,DNS Server: dhcp-192-219-21.in2cable.com,IN,Asia,Southern Asia,India,Maharashtra,,Maharashtra
103.133.122.148,4,1041,DNS Server: dynamic.radinet.in,IN,Asia,Southern Asia,India,Rajasthan,,Kota
35.154.249.83,4,52,DNS Server: ec2-35-154-249-83.ap-south-1.compute.amazonaws.com,IN,Asia,Southern Asia,India,Maharashtra,,Mumbai
157.245.97.6,4,83,DNS Server: erp.carapaceinfra.in,IN,Asia,Southern Asia,India,Karnataka,,Bengaluru
157.245.102.141,4,23,DNS Server: erp.hpautomation.in,IN,Asia,Southern Asia,India,Karnataka,,Bengaluru
49.249.9.177,4,84,DNS Server: g00.kinara.ai,IN,Asia,Southern Asia,India,Karnataka,,Bengaluru
203.88.155.222,4,56,DNS Server: ice.155.client222.youtele.com,IN,Asia,Southern Asia,India,,,
61.246.33.46,4,245,DNS Server: mai.interactiveshades.com,IN,Asia,Southern Asia,India,,,
103.99.150.10,4,163,DNS Server: ns1.skylinkfibernet.com,IN,Asia,Southern Asia,India,Tamil Nadu,,Coimbatore
122.185.236.138,4,-462413726,DNS Server: nsg-corporate-138.236.185.122.airtel.in,IN,Asia,Southern Asia,India,Karnataka,,Bengaluru
122.185.112.188,4,-1333274593,DNS Server: nsg-corporate-188.112.185.122.airtel.in,IN,Asia,Southern Asia,India,Karnataka,,Bengaluru
122.185.251.225,4,-751804285,DNS Server: nsg-corporate-225.251.185.122.airtel.in,IN,Asia,Southern Asia,India,Karnataka,,Bengaluru
122.185.113.244,4,-4205568604,DNS Server: nsg-corporate-244.113.185.122.airtel.in,IN,Asia,Southern Asia,India,Karnataka,,Bengaluru
122.186.120.249,4,185,DNS Server: nsg-corporate-249.120.186.122.airtel.in,IN,Asia,Southern Asia,India,Haryana,,Faridabad
122.185.99.78,4,-648633585,DNS Server: nsg-corporate-78.99.185.122.airtel.in,IN,Asia,Southern Asia,India,Karnataka,,Bengaluru
182.72.232.135,4,-1664437171,DNS Server: nsg-static-135.232.72.182.airtel.in,IN,Asia,Southern Asia,India,Uttar Pradesh,,Noida
182.71.145.153,4,-3617350313,DNS Server: nsg-static-153.145.71.182.airtel.in,IN,Asia,Southern Asia,India,Maharashtra,,Mumbai
182.75.185.225,4,231,DNS Server: nsg-static-225.185.75.182-airtel.com,IN,Asia,Southern Asia,India,National Capital Territory of Delhi,,New Delhi
182.75.224.239,4,-1017651642,DNS Server: nsg-static-239.224.75.182-airtel.com,IN,Asia,Southern Asia,India,National Capital Territory of Delhi,,New Delhi
182.75.172.255,4,-2494991167,DNS Server: nsg-static-255.172.75.182-airtel.com,IN,Asia,Southern Asia,India,National Capital Territory of Delhi,,New Delhi
122.252.241.166,4,-33573,DNS Server: ws166-241-252-122.rcil.gov.in,IN,Asia,Southern Asia,India,,,
202.140.128.41,4,-7770303,DNS Server: ws41-128.140.202.rcil.gov.in,IN,Asia,Southern Asia,India,,,
13.126.61.105,4,21,doceree.com,IN,Asia,Southern Asia,India,Maharashtra,,Mumbai
52.66.98.88,4,38,doceree.com,IN,Asia,Southern Asia,India,Maharashtra,,Mumbai
193.203.161.179,4,-22,dostally.com,IN,Asia,Southern Asia,India,Maharashtra,,Mumbai
103.12.211.187,4,21,dostguru.com,IN,Asia,Southern Asia,India,Maharashtra,,Pune
148.113.24.31,4,961,dragracingonline.com,IN,Asia,Southern Asia,India,Maharashtra,,Mumbai
217.21.87.187,4,-6,dralthaidi.com,IN,Asia,Southern Asia,India,Maharashtra,,Mumbai
180.179.2.73,4,4,drbatras.com,IN,Asia,Southern Asia,India,,,
82.180.164.145,4,29,drchonkarclinic.com,IN,Asia,Southern Asia,India,Maharashtra,,Mumbai
178.16.136.59,4,-37,drddvichitra.com,IN,Asia,Southern Asia,India,Maharashtra,,Mumbai
93.127.208.32,4,10,dreamzplacement.com,IN,Asia,Southern Asia,India,Maharashtra,,Mumbai
82.112.232.185,4,-4,dricki.com,IN,Asia,Southern Asia,India,Maharashtra,,Mumbai
103.158.54.202,4,-19,dropin.in,IN,Asia,Southern Asia,India,,,
103.92.113.42,4,-402,drrmlims.ac.in,IN,Asia,Southern Asia,India,,,
192.177.75.159,4,-30,dsrvsindia.ac.in,IN,Asia,Southern Asia,India,Maharashtra,,Mumbai
103.90.242.212,4,3,dssimage.com,IN,Asia,Southern Asia,India,,,
103.149.68.47,4,5,dtcexpress.in,IN,Asia,Southern Asia,India,,,
103.133.215.160,4,251246,dubaihummerlimo.com,IN,Asia,Southern Asia,India,,,
13.127.33.231,4,-4,ducatindia.com,IN,Asia,Southern Asia,India,Maharashtra,,Mumbai
35.154.148.223,4,27,ducatindia.com,IN,Asia,Southern Asia,India,Maharashtra,,Mumbai
216.10.247.124,4,250,dynamic-tm.com,IN,Asia,Southern Asia,India,,,
82.180.166.103,4,-24,dynamichealthstaff.com,IN,Asia,Southern Asia,India,Maharashtra,,Mumbai
172.105.59.136,4,-27,dynamitenews.com,IN,Asia,Southern Asia,India,Maharashtra,,Mumbai
46.28.47.141,4,-23,e-startupindia.com,IN,Asia,Southern Asia,India,Maharashtra,,Mumbai
190.92.174.38,4,-33,eaglevisionit.com,IN,Asia,Southern Asia,India,Maharashtra,,Navi Mumbai
194.195.112.221,4,-27,eaitsm.org,IN,Asia,Southern Asia,India,Maharashtra,,Mumbai
157.173.216.144,4,4,earthcycle.io,IN,Asia,Southern Asia,India,Maharashtra,,Mumbai
138.128.180.58,4,-3476,eastern.in,IN,Asia,Southern Asia,India,Kerala,,Thiruvananthapuram
103.209.147.49,4,-21,ebizneeds.com,IN,Asia,Southern Asia,India,,,
165.232.177.34,4,55,ecoleglobale.com,IN,Asia,Southern Asia,India,Karnataka,,Bengaluru
93.127.208.208,4,-24,ecoprotection.in,IN,Asia,Southern Asia,India,Maharashtra,,Mumbai
82.180.143.188,4,20,edchart.com,IN,Asia,Southern Asia,India,Maharashtra,,Mumbai
139.59.17.228,4,-4,edtech.in,IN,Asia,Southern Asia,India,Karnataka,,Bengaluru
164.52.200.118,4,5,educationaboveall.org,IN,Asia,Southern Asia,India,,,
103.25.131.161,4,59,educationrecruitmentboard.com,IN,Asia,Southern Asia,India,,,
139.84.162.224,4,-15,edufever.com,IN,Asia,Southern Asia,India,Uttar Pradesh,,Noida
82.180.142.139,4,-7,eduindianews.com,IN,Asia,Southern Asia,India,Maharashtra,,Mumbai
163.53.76.136,4,47,ekartlogistics.com,IN,Asia,Southern Asia,India,,,
82.180.166.250,4,-13,elen.in,IN,Asia,Southern Asia,India,Maharashtra,,Mumbai
93.127.208.221,4,-5,elitecools.com,IN,Asia,Southern Asia,India,Maharashtra,,Mumbai
178.16.136.247,4,20,eliteias.in,IN,Asia,Southern Asia,India,Maharashtra,,Mumbai
103.50.163.248,4,701,elle.in,IN,Asia,Southern Asia,India,,,
216.10.247.127,4,-654,elledecor.in,IN,Asia,Southern Asia,India,,,
172.105.33.197,4,-26,elthelpline.com,IN,Asia,Southern Asia,India,Maharashtra,,Mumbai
217.21.84.2,4,-33,emailscrunch.com,IN,Asia,Southern Asia,India,Maharashtra,,Mumbai
103.249.112.18,4,29,embdesign.in,IN,Asia,Southern Asia,India,Chhattisgarh,,Raipur
3.6.158.92,4,-3,emiprotechnologies.com,IN,Asia,Southern Asia,India,Maharashtra,,Mumbai
103.74.54.144,4,-26,emperorconstructions.com,IN,Asia,Southern Asia,India,,,
82.180.164.172,4,15,empirenewswire.com,IN,Asia,Southern Asia,India,Maharashtra,,Mumbai
103.239.138.71,4,-22,energyinfratech.com,IN,Asia,Southern Asia,India,,,
103.20.215.24,4,1517,enggpro.com,IN,Asia,Southern Asia,India,Haryana,,Faridabad
86.38.243.105,4,-18,enjoydelhi.in,IN,Asia,Southern Asia,India,Maharashtra,,Mumbai
89.117.188.110,4,-22,enrichingjourneys.com,IN,Asia,Southern Asia,India,Maharashtra,,Mumbai
129.226.35.231,4,0,epicmilling.com,IN,Asia,Southern Asia,India,Maharashtra,,Mumbai
68.233.117.137,4,-12,equitasbank.com,IN,Asia,Southern Asia,India,Telangana,,Hyderabad
3.109.255.192,4,0,equitypandit.com,IN,Asia,Southern Asia,India,Maharashtra,,Mumbai
103.93.16.142,4,-32,equizone.in,IN,Asia,Southern Asia,India,,,
195.35.4.132,4,1,eurodoor.in,IN,Asia,Southern Asia,India,Maharashtra,,Mumbai
3.110.34.161,4,41,euroschoolindia.com,IN,Asia,Southern Asia,India,Maharashtra,,Mumbai
143.110.184.255,4,-7,evidyarthi.in,IN,Asia,Southern Asia,India,Karnataka,,Bengaluru
62.72.28.123,4,-22,evts.co.in,IN,Asia,Southern Asia,India,Maharashtra,,Mumbai
139.59.86.141,4,9,ewebguru.com,IN,Asia,Southern Asia,India,Karnataka,,Bengaluru
192.46.209.114,4,-5,exceldatapro.com,IN,Asia,Southern Asia,India,Maharashtra,,Mumbai
103.174.103.143,4,-26,expertsphp.com,IN,Asia,Southern Asia,India,,,
172.105.63.144,4,-22,exploreyourcities.com,IN,Asia,Southern Asia,India,Maharashtra,,Mumbai
82.112.232.148,4,-18,ezine-articles.com,IN,Asia,Southern Asia,India,Maharashtra,,Mumbai
89.116.133.132,4,-23,ezineblog.org,IN,Asia,Southern Asia,India,Maharashtra,,Mumbai
52.183.142.165,4,44,factohr.com,IN,Asia,Southern Asia,India,Maharashtra,,Mumbai
65.20.85.51,4,9,famousastrologycentre.com,IN,Asia,Southern Asia,India,Maharashtra,,Mumbai
154.41.233.201,4,-20,farf.in,IN,Asia,Southern Asia,India,Maharashtra,,Mumbai
86.38.243.38,4,-20,farmfruitbasket.com,IN,Asia,Southern Asia,India,Maharashtra,,Mumbai
139.59.15.225,4,-12,fbrushes.com,IN,Asia,Southern Asia,India,Karnataka,,Bengaluru
3.108.158.195,4,20,fddiindia.com,IN,Asia,Southern Asia,India,Maharashtra,,Mumbai
103.211.217.67,4,1790,felixhospital.com,IN,Asia,Southern Asia,India,Maharashtra,,Mumbai
103.212.120.39,4,-28,fergusson.edu,IN,Asia,Southern Asia,India,,,
93.127.208.104,4,-23,financeninsurance.com,IN,Asia,Southern Asia,India,Maharashtra,,Mumbai
82.112.232.216,4,-28,financewalk.com,IN,Asia,Southern Asia,India,Maharashtra,,Mumbai
103.146.177.90,4,-1295,findeasy.in,IN,Asia,Southern Asia,India,,,
193.203.185.179,4,-11,fitnessfire.in,IN,Asia,Southern Asia,India,Maharashtra,,Mumbai
103.243.32.63,4,10,fkrt.it,IN,Asia,Southern Asia,India,,,
103.76.250.134,4,-20,fleetguard-filtrum.com,IN,Asia,Southern Asia,India,,,
91.108.108.225,4,-14,flickonclick.com,IN,Asia,Southern Asia,India,Maharashtra,,Mumbai
103.191.209.39,4,1055,flightsaviour.com,IN,Asia,Southern Asia,India,,,
103.243.32.90,4,81,flipkart.com,IN,Asia,Southern Asia,India,,,
82.180.144.57,4,66,fliptrip.in,IN,Asia,Southern Asia,India,Maharashtra,,Mumbai
164.52.207.88,4,1,flyrobe.com,IN,Asia,Southern Asia,India,,,
217.21.88.23,4,-26,followerbar.com,IN,Asia,Southern Asia,India,Maharashtra,,Mumbai
103.48.50.241,4,4002,folomojo.com,IN,Asia,Southern Asia,India,,,
103.87.174.45,4,-22,forcempower.com,IN,Asia,Southern Asia,India,Maharashtra,,Panvel
3.111.70.160,4,-2,forestessentialsindia.com,IN,Asia,Southern Asia,India,Maharashtra,,Mumbai
13.235.35.81,4,3,forestessentialsindia.com,IN,Asia,Southern Asia,India,Maharashtra,,Mumbai
103.117.180.204,4,495776,formonline.net,IN,Asia,Southern Asia,India,,,
217.21.84.216,4,8,franticpro.com,IN,Asia,Southern Asia,India,Maharashtra,,Mumbai
52.66.208.50,4,-1,frappe.io,IN,Asia,Southern Asia,India,Maharashtra,,Mumbai
13.200.157.65,4,-1,frappeframework.com,IN,Asia,Southern Asia,India,Maharashtra,,Mumbai
43.254.30.10,4,-10,freeserversupport.com,IN,Asia,Southern Asia,India,Madhya Pradesh,,Indore
178.16.136.228,4,-22,functional.co.nz,IN,Asia,Southern Asia,India,Maharashtra,,Mumbai
170.187.250.235,4,2,fundoodata.com,IN,Asia,Southern Asia,India,Maharashtra,,Mumbai
82.180.143.43,4,-20,futureforyou.co,IN,Asia,Southern Asia,India,Maharashtra,,Mumbai
43.230.201.10,4,-35,gadgetslaunch.com,IN,Asia,Southern Asia,India,Maharashtra,,Panvel
82.112.227.228,4,-25,gadvasu.in,IN,Asia,Southern Asia,India,Maharashtra,,Mumbai
195.35.5.147,4,-20,gaonconnection.com,IN,Asia,Southern Asia,India,Maharashtra,,Mumbai
203.190.128.146,4,-1474,gbpuat.ac.in,IN,Asia,Southern Asia,India,,,
103.145.50.32,4,-31,gcbproject.com,IN,Asia,Southern Asia,India,,,
139.59.26.170,4,-12,getatoz.com,IN,Asia,Southern Asia,India,Karnataka,,Bengaluru
65.20.75.56,4,-2,gethow.org,IN,Asia,Southern Asia,India,Maharashtra,,Mumbai
101.53.148.60,4,0,getitsms.com,IN,Asia,Southern Asia,India,,,
193.203.185.22,4,-23,getsethappy.com,IN,Asia,Southern Asia,India,Maharashtra,,Mumbai
82.112.229.240,4,-25,gettoplists.com,IN,Asia,Southern Asia,India,Maharashtra,,Mumbai
36.255.3.138,4,-26,gibl.in,IN,Asia,Southern Asia,India,,,
103.119.239.23,4,-27,gim.ac.in,IN,Asia,Southern Asia,India,,,
45.113.138.108,4,33,gionee.co.in,IN,Asia,Southern Asia,India,,,
65.1.204.51,4,-2,giveindia.org,IN,Asia,Southern Asia,India,Maharashtra,,Mumbai
15.207.182.181,4,-3,giveindia.org,IN,Asia,Southern Asia,India,Maharashtra,,Mumbai
103.117.212.145,4,2568,gk-tricks.com,IN,Asia,Southern Asia,India,,,
103.50.163.158,4,-58,gkexams.com,IN,Asia,Southern Asia,India,,,
139.84.137.103,4,12,gkfooddiary.com,IN,Asia,Southern Asia,India,Karnataka,,Bengaluru
185.124.111.174,4,-24,gkv.ac.in,IN,Asia,Southern Asia,India,Maharashtra,,Mumbai
103.174.103.52,4,-5,globalexcellenceawards.org,IN,Asia,Southern Asia,India,,,
217.21.87.86,4,5,globalizewealth.com,IN,Asia,Southern Asia,India,Maharashtra,,Mumbai
103.104.73.69,4,-23,globalmarch.org,IN,Asia,Southern Asia,India,,,
89.117.188.133,4,-20,globalsocialbookmarks.com,IN,Asia,Southern Asia,India,Maharashtra,,Mumbai
103.24.202.135,4,4131,globaltree.in,IN,Asia,Southern Asia,India,Telangana,,Hyderabad
216.10.250.223,4,221,gmdcltd.com,IN,Asia,Southern Asia,India,,,
103.13.114.136,4,-28,gmdcollege.in,IN,Asia,Southern Asia,India,Maharashtra,,Panvel
46.28.45.199,4,-20,gmxdesign.com,IN,Asia,Southern Asia,India,Maharashtra,,Mumbai
175.176.187.102,4,-7,gndec.ac.in,IN,Asia,Southern Asia,India,,,
172.105.252.75,4,13,go4expert.com,IN,Asia,Southern Asia,India,Maharashtra,,Mumbai
89.117.157.164,4,-22,goanyt.in,IN,Asia,Southern Asia,India,Maharashtra,,Mumbai
178.16.136.195,4,-13,goasexescort.co.in,IN,Asia,Southern Asia,India,Maharashtra,,Mumbai
164.52.205.245,4,3,godrejproperties.com,IN,Asia,Southern Asia,India,,,
82.180.166.208,4,-5,golocad.com,IN,Asia,Southern Asia,India,Maharashtra,,Mumbai
217.21.91.19,4,-21,goodlightscraps.com,IN,Asia,Southern Asia,India,Maharashtra,,Mumbai
89.117.157.87,4,-20,googlecrowdsource.com,IN,Asia,Southern Asia,India,Maharashtra,,Mumbai
185.199.53.64,4,-22,gosocial.co.id,IN,Asia,Southern Asia,India,Maharashtra,,Mumbai
205.147.111.116,4,19,gospeljunction.net,IN,Asia,Southern Asia,India,Haryana,,Faridabad
165.232.176.51,4,-1,govtschemes.in,IN,Asia,Southern Asia,India,Karnataka,,Bengaluru
159.89.165.150,4,-11,gpatindia.com,IN,Asia,Southern Asia,India,Karnataka,,Bengaluru
217.21.84.151,4,3,greenaryworld.com,IN,Asia,Southern Asia,India,Maharashtra,,Mumbai
93.127.208.176,4,-17,greencleanguide.com,IN,Asia,Southern Asia,India,Maharashtra,,Mumbai
93.127.208.47,4,-14,greenpropertybd.com,IN,Asia,Southern Asia,India,Maharashtra,,Mumbai
217.21.91.110,4,-2,greenshield.life,IN,Asia,Southern Asia,India,Maharashtra,,Mumbai
103.191.209.38,4,18,grewalkennels.com,IN,Asia,Southern Asia,India,,,
3.108.219.70,4,22,gromo.in,IN,Asia,Southern Asia,India,Maharashtra,,Mumbai
193.202.44.207,4,-26,grotechminds.com,IN,Asia,Southern Asia,India,Maharashtra,,Mumbai
172.105.48.7,4,1,groupda.com,IN,Asia,Southern Asia,India,Maharashtra,,Mumbai
3.7.213.176,4,-2,gsebeservice.com,IN,Asia,Southern Asia,India,Maharashtra,,Mumbai
3.108.179.105,4,-5,gsebeservice.com,IN,Asia,Southern Asia,India,Maharashtra,,Mumbai
154.41.233.230,4,-18,gsrt.co.in,IN,Asia,Southern Asia,India,Maharashtra,,Mumbai
182.237.8.34,4,-24,gtpl.net,IN,Asia,Southern Asia,India,Gujarat,,Ahmedabad
62.72.28.36,4,-21,guestpostvalley.com,IN,Asia,Southern Asia,India,Maharashtra,,Mumbai
35.200.171.190,4,13,gulflinkoverseas.com,IN,Asia,Southern Asia,India,Maharashtra,,Mumbai
157.173.216.45,4,-21,gullybet.info,IN,Asia,Southern Asia,India,Maharashtra,,Mumbai
91.108.107.29,4,-18,gurugram.wiki,IN,Asia,Southern Asia,India,Maharashtra,,Mumbai
103.20.213.86,4,133648,gyanvihar.org,IN,Asia,Southern Asia,India,Haryana,,Faridabad
139.59.69.162,4,4,hakunamatatatech.com,IN,Asia,Southern Asia,India,Karnataka,,Bengaluru
220.227.38.163,4,-19052255,hal-india.co.in,IN,Asia,Southern Asia,India,,,
115.112.149.173,4,-19052254,hal-india.co.in,IN,Asia,Southern Asia,India,Maharashtra,,Mumbai
103.119.171.215,4,-24,hal-india.com,IN,Asia,Southern Asia,India,,,
172.105.43.192,4,2482,hamstech.com,IN,Asia,Southern Asia,India,Maharashtra,,Mumbai
149.100.146.85,4,-23,hankook-mart.com,IN,Asia,Southern Asia,India,Maharashtra,,Mumbai
164.52.193.33,4,-21,happyho.in,IN,Asia,Southern Asia,India,,,
103.171.180.155,4,-34,happylandtvm.com,IN,Asia,Southern Asia,India,,,
195.35.44.132,4,-20,happytechnews.com,IN,Asia,Southern Asia,India,Maharashtra,,Mumbai
89.116.136.11,4,-17,haryanajobs.in,IN,Asia,Southern Asia,India,Maharashtra,,Mumbai
66.22.97.208,4,6,hathway.com,IN,Asia,Southern Asia,India,Tamil Nadu,,Chennai
119.18.55.24,4,202,hccindia.com,IN,Asia,Southern Asia,India,,,
194.195.113.17,4,-23,hellomahi.com,IN,Asia,Southern Asia,India,Maharashtra,,Mumbai
205.147.110.185,4,-6,hellotravel.com,IN,Asia,Southern Asia,India,Haryana,,Faridabad
91.108.107.32,4,7,helthynews.com,IN,Asia,Southern Asia,India,Maharashtra,,Mumbai
216.48.183.72,4,3,hicare.in,IN,Asia,Southern Asia,India,,,
103.211.217.77,4,-14,highstreetgirls.com,IN,Asia,Southern Asia,India,Maharashtra,,Mumbai
62.72.28.130,4,-26,himsoftech.com,IN,Asia,Southern Asia,India,Maharashtra,,Mumbai
139.84.175.124,4,4,hindiblogger.com,IN,Asia,Southern Asia,India,Uttar Pradesh,,Noida
148.113.0.136,4,-16,hindustanuniv.ac.in,IN,Asia,Southern Asia,India,Maharashtra,,Mumbai
82.180.142.145,4,-19,homecareshoppe.com,IN,Asia,Southern Asia,India,Maharashtra,,Mumbai
195.35.44.219,4,-14,hopinfirst.com,IN,Asia,Southern Asia,India,Maharashtra,,Mumbai
217.21.84.10,4,-13,hospistore.in,IN,Asia,Southern Asia,India,Maharashtra,,Mumbai
134.209.158.166,4,30,hostitsmart.com,IN,Asia,Southern Asia,India,Karnataka,,Bengaluru
103.149.165.94,4,5,hostnetindia.com,IN,Asia,Southern Asia,India,,,
217.21.81.148,4,-22,hotbookmarking.com,IN,Asia,Southern Asia,India,National Capital Territory of Delhi,,New Delhi
91.108.107.147,4,4,hotdl.in,IN,Asia,Southern Asia,India,Maharashtra,,Mumbai
89.116.133.58,4,-18,hotgirlsindelhi.com,IN,Asia,Southern Asia,India,Maharashtra,,Mumbai
217.21.90.35,4,-18,hotsuratescort.com,IN,Asia,Southern Asia,India,Maharashtra,,Mumbai
103.227.62.61,4,-25,hpsmachines.com,IN,Asia,Southern Asia,India,,,
120.59.19.118,4,-829,hudco.org,IN,Asia,Southern Asia,India,National Capital Territory of Delhi,,New Delhi
103.92.235.25,4,68944,hum-lucknow.org,IN,Asia,Southern Asia,India,,,
190.92.174.88,4,-29,humanescorts.com,IN,Asia,Southern Asia,India,Maharashtra,,Navi Mumbai
103.212.120.159,4,-33,hurl.net.in,IN,Asia,Southern Asia,India,,,
82.112.230.1,4,-22,huyenbi.net,IN,Asia,Southern Asia,India,Maharashtra,,Mumbai
89.116.133.119,4,-23,hyperverge.co,IN,Asia,Southern Asia,India,Maharashtra,,Mumbai
82.180.142.98,4,-25,hytechcommunications.com,IN,Asia,Southern Asia,India,Maharashtra,,Mumbai
172.105.42.59,4,106,i-scholar.in,IN,Asia,Southern Asia,India,Maharashtra,,Mumbai
103.25.130.147,4,14,i2k2.com,IN,Asia,Southern Asia,India,,,
103.191.208.225,4,-23,iacteducation.com,IN,Asia,Southern Asia,India,,,
103.117.156.52,4,7,ianslife.in,IN,Asia,Southern Asia,India,,,
137.59.201.77,4,-7,iare.ac.in,IN,Asia,Southern Asia,India,,,
14.139.153.19,4,298653,ias.ac.in,IN,Asia,Southern Asia,India,Karnataka,,Bengaluru
103.26.206.138,4,1,iasbaba.com,IN,Asia,Southern Asia,India,Maharashtra,,Pune
101.53.137.137,4,90175,iasexamportal.com,IN,Asia,Southern Asia,India,,,
3.7.181.174,4,-3,iasscore.in,IN,Asia,Southern Asia,India,Maharashtra,,Mumbai
15.206.57.100,4,11,iasscore.in,IN,Asia,Southern Asia,India,Maharashtra,,Mumbai
15.206.76.16,4,9,iasscore.in,IN,Asia,Southern Asia,India,Maharashtra,,Mumbai
164.52.216.11,4,15,ibtenglish.in,IN,Asia,Southern Asia,India,,,
101.53.141.131,4,22,ibtoverseas.com,IN,Asia,Southern Asia,India,,,
89.116.133.242,4,-1,iconicrealty.in,IN,Asia,Southern Asia,India,Maharashtra,,Mumbai
77.37.46.115,4,-12,idealstudyabroad.com,IN,Asia,Southern Asia,India,Maharashtra,,Mumbai
202.140.136.43,4,2238251,idsa.in,IN,Asia,Southern Asia,India,,,
89.116.133.156,4,-22,ieltsdeal.com,IN,Asia,Southern Asia,India,Maharashtra,,Mumbai
66.22.97.202,4,25,iexindia.com,IN,Asia,Southern Asia,India,Tamil Nadu,,Chennai
103.27.86.240,4,1896,ifciltd.com,IN,Asia,Southern Asia,India,,,
89.117.157.77,4,2,ifuture.co.in,IN,Asia,Southern Asia,India,Maharashtra,,Mumbai
103.127.30.148,4,-24,igu.ac.in,IN,Asia,Southern Asia,India,,,
190.92.174.86,4,-29,ihra.net,IN,Asia,Southern Asia,India,Maharashtra,,Navi Mumbai
117.250.240.131,4,7,iiitkottayam.ac.in,IN,Asia,Southern Asia,India,Kerala,,Thrissur
3.7.44.65,4,-9,iimaventures.com,IN,Asia,Southern Asia,India,Maharashtra,,Mumbai
35.154.4.90,4,5,iimnagpur.ac.in,IN,Asia,Southern Asia,India,Maharashtra,,Mumbai
109.73.164.242,4,-174,iimtrichy.ac.in,IN,Asia,Southern Asia,India,National Capital Territory of Delhi,,New Delhi
64.227.142.150,4,2,iimu.ac.in,IN,Asia,Southern Asia,India,Karnataka,,Bengaluru
93.127.208.174,4,-19,iisdet.com,IN,Asia,Southern Asia,India,Maharashtra,,Mumbai
210.212.36.73,4,-15,iisermohali.ac.in,IN,Asia,Southern Asia,India,Chandigarh,,Chandigarh
139.59.92.110,4,-7,iisuniv.ac.in,IN,Asia,Southern Asia,India,Karnataka,,Bengaluru
103.147.138.100,4,-40,iitbhilai.ac.in,IN,Asia,Southern Asia,India,,,
103.27.9.24,4,-28,iitd.ac.in,IN,Asia,Southern Asia,India,National Capital Territory of Delhi,,New Delhi
119.18.48.101,4,-23,iite.ac.in,IN,Asia,Southern Asia,India,,,
14.139.174.52,4,-39,iitpkd.ac.in,IN,Asia,Southern Asia,India,Kerala,,Palakkad
217.21.95.65,4,-24,ijcrr.com,IN,Asia,Southern Asia,India,Maharashtra,,Mumbai
103.83.81.50,4,-5193,ijiset.com,IN,Asia,Southern Asia,India,,,
82.180.143.33,4,-26,ijpbs.net,IN,Asia,Southern Asia,India,Maharashtra,,Mumbai
89.117.188.239,4,-22,ijrap.net,IN,Asia,Southern Asia,India,Maharashtra,,Mumbai
119.18.52.39,4,941,ijraset.com,IN,Asia,Southern Asia,India,,,
103.154.185.173,4,-18,ili.ac.in,IN,Asia,Southern Asia,India,,,
202.0.103.51,4,-19,imobdevtech.com,IN,Asia,Southern Asia,India,,,
65.2.19.42,4,3,imsindia.com,IN,Asia,Southern Asia,India,Maharashtra,,Mumbai
139.59.16.197,4,-5,inae.in,IN,Asia,Southern Asia,India,Karnataka,,Bengaluru
103.111.115.21,4,-42,india-1xbet.in,IN,Asia,Southern Asia,India,Maharashtra,,Mumbai
34.100.254.150,4,11,indiabix.com,IN,Asia,Southern Asia,India,Maharashtra,,Mumbai
216.10.250.30,4,1005,indiablooms.com,IN,Asia,Southern Asia,India,,,
103.90.242.181,4,11,indiacarnews.com,IN,Asia,Southern Asia,India,,,
180.179.212.63,4,9,indiaenvironmentportal.org.in,IN,Asia,Southern Asia,India,,,
143.244.140.149,4,22,indiafantasy.com,IN,Asia,Southern Asia,India,Karnataka,,Bengaluru
45.79.122.63,4,-17,indiainternets.com,IN,Asia,Southern Asia,India,Maharashtra,,Mumbai
43.239.192.74,4,-6,indianchamber.org,IN,Asia,Southern Asia,India,,,
103.120.178.208,4,-23,indiandost.com,IN,Asia,Southern Asia,India,,,
182.18.176.183,4,-6,indianpowerliftingfederation.com,IN,Asia,Southern Asia,India,Telangana,,Hyderabad
35.200.158.232,4,15,indianyellowpages.com,IN,Asia,Southern Asia,India,Maharashtra,,Mumbai
103.168.173.234,4,117,indiapress.org,IN,Asia,Southern Asia,India,,,
101.53.155.122,4,0,indiaspend.com,IN,Asia,Southern Asia,India,,,
103.195.184.106,4,395,indiatechonline.com,IN,Asia,Southern Asia,India,,,
103.195.184.190,4,-105,indiavideo.org,IN,Asia,Southern Asia,India,,,
103.246.106.167,4,-44,indicwiki.in,IN,Asia,Southern Asia,India,,,
190.92.174.37,4,-31,indoclassified.com,IN,Asia,Southern Asia,India,Maharashtra,,Navi Mumbai
103.76.248.202,4,-22,indoreindira.com,IN,Asia,Southern Asia,India,,,
154.41.233.63,4,5,indorenyt.in,IN,Asia,Southern Asia,India,Maharashtra,,Mumbai
46.28.45.145,4,16,infaeon.com,IN,Asia,Southern Asia,India,Maharashtra,,Mumbai
13.201.198.31,4,31,infinixmobiles.in,IN,Asia,Southern Asia,India,Maharashtra,,Mumbai
192.46.215.189,4,-14,informalnewz.com,IN,Asia,Southern Asia,India,Maharashtra,,Mumbai
172.105.55.76,4,-12,informaticsglobal.com,IN,Asia,Southern Asia,India,Maharashtra,,Mumbai
217.21.87.224,4,19005,infosharingspace.com,IN,Asia,Southern Asia,India,Maharashtra,,Mumbai
172.105.33.133,4,-20,infostans.com,IN,Asia,Southern Asia,India,Maharashtra,,Mumbai
82.112.225.238,4,32,infotechlead.com,IN,Asia,Southern Asia,India,Maharashtra,,Mumbai
154.56.52.227,4,-13,inhawellness.com,IN,Asia,Southern Asia,India,Maharashtra,,Mumbai
217.21.91.89,4,27,inition.co.uk,IN,Asia,Southern Asia,India,Maharashtra,,Mumbai
134.209.144.200,4,-5,insertbiz.com,IN,Asia,Southern Asia,India,Karnataka,,Bengaluru
103.13.115.250,4,-32,insomniacs.in,IN,Asia,Southern Asia,India,Maharashtra,,Ghansoli
103.92.235.85,4,66708,inspiredtraveller.in,IN,Asia,Southern Asia,India,,,
82.112.232.187,4,-24,instantguestpost.com,IN,Asia,Southern Asia,India,Maharashtra,,Mumbai
217.21.85.71,4,-24,instantinkhub.in,IN,Asia,Southern Asia,India,Maharashtra,,Mumbai
43.231.124.117,4,-12,instantliveyourpost.com,IN,Asia,Southern Asia,India,,,
101.53.136.145,4,-3,intellecap.com,IN,Asia,Southern Asia,India,,,
82.112.224.201,4,47,internationalnewsandviews.com,IN,Asia,Southern Asia,India,Maharashtra,,Mumbai
154.56.53.130,4,-18,intlbm.com,IN,Asia,Southern Asia,India,Maharashtra,,Mumbai
3.6.212.146,4,-2,investmentguruindia.com,IN,Asia,Southern Asia,India,Maharashtra,,Mumbai
141.226.103.44,4,5,iob.in,IN,Asia,Southern Asia,India,Tamil Nadu,,Chennai
103.73.191.228,4,-23,ipfonline.com,IN,Asia,Southern Asia,India,,,
139.59.7.105,4,-12,irfca.org,IN,Asia,Southern Asia,India,Karnataka,,Bengaluru
103.205.64.56,4,-4,irsofficersonline.gov.in,IN,Asia,Southern Asia,India,,,
217.21.88.145,4,-24,ishabasu.com,IN,Asia,Southern Asia,India,Maharashtra,,Mumbai
14.139.226.51,4,-29,isid.ac.in,IN,Asia,Southern Asia,India,Haryana,,Gurugram
52.66.185.92,4,-3,itel-india.com,IN,Asia,Southern Asia,India,Maharashtra,,Mumbai
3.108.145.151,4,-5,itel-india.com,IN,Asia,Southern Asia,India,Maharashtra,,Mumbai
13.126.246.212,4,-3,itel-india.com,IN,Asia,Southern Asia,India,Maharashtra,,Mumbai
43.254.42.216,4,-14,itforchange.net,IN,Asia,Southern Asia,India,,,
82.180.142.116,4,-27,itglwf.org,IN,Asia,Southern Asia,India,Maharashtra,,Mumbai
3.108.138.142,4,-2,itm.edu,IN,Asia,Southern Asia,India,Maharashtra,,Mumbai
65.1.41.194,4,1,itm.edu,IN,Asia,Southern Asia,India,Maharashtra,,Mumbai
190.92.174.91,4,-32,itnewsonline.com,IN,Asia,Southern Asia,India,Maharashtra,,Navi Mumbai
103.170.132.26,4,-16,itsblockchain.com,IN,Asia,Southern Asia,India,,,
217.21.84.70,4,-27,itsgroups.in,IN,Asia,Southern Asia,India,Maharashtra,,Mumbai
89.117.157.234,4,-21,jaanuescorts.com,IN,Asia,Southern Asia,India,Maharashtra,,Mumbai
89.117.27.142,4,-4,jadebrush.ca,IN,Asia,Southern Asia,India,Maharashtra,,Mumbai
136.232.79.162,4,260479,jaduniv.edu.in,IN,Asia,Southern Asia,India,West Bengal,,Kolkata
15.207.248.105,4,-3,jagvimal.com,IN,Asia,Southern Asia,India,Maharashtra,,Mumbai
3.6.192.128,4,2,jaipuria.ac.in,IN,Asia,Southern Asia,India,Maharashtra,,Mumbai
103.35.121.49,4,1866,jammuuniversity.ac.in,IN,Asia,Southern Asia,India,,,
82.180.143.224,4,-7,jaspital.com,IN,Asia,Southern Asia,India,Maharashtra,,Mumbai
217.21.91.64,4,-25,jaunpurnews24.com,IN,Asia,Southern Asia,India,Maharashtra,,Mumbai
157.173.217.189,4,-17,javatutoring.com,IN,Asia,Southern Asia,India,Maharashtra,,Mumbai
103.20.127.188,4,3,jdmagicbox.com,IN,Asia,Southern Asia,India,,,
82.112.229.160,4,-23,jharaphula.com,IN,Asia,Southern Asia,India,Maharashtra,,Mumbai
103.175.163.195,4,5,jininimifashion.in,IN,Asia,Southern Asia,India,,,
14.139.190.10,4,-52,jipmer.edu.in,IN,Asia,Southern Asia,India,Union Territory of Puducherry,,Puducherry
103.205.66.13,4,-38,jnkvv.org,IN,Asia,Southern Asia,India,,,
139.59.95.108,4,-8,jntua.ac.in,IN,Asia,Southern Asia,India,Karnataka,,Bengaluru
14.139.82.142,4,177233,jntuh.ac.in,IN,Asia,Southern Asia,India,Telangana,,Hyderabad
134.209.148.74,4,-20,jothishi.com,IN,Asia,Southern Asia,India,Karnataka,,Bengaluru
101.53.148.50,4,0,journalogi.com,IN,Asia,Southern Asia,India,,,
103.93.17.148,4,-37,journalrepository.org,IN,Asia,Southern Asia,India,,,
111.118.214.21,4,63,jpsc.gov.in,IN,Asia,Southern Asia,India,,,
217.21.91.118,4,-26,jptbioacademy.com,IN,Asia,Southern Asia,India,Maharashtra,,Mumbai
216.10.242.215,4,1031,jscholaronline.org,IN,Asia,Southern Asia,India,,,
167.71.230.153,4,1,jsitor.com,IN,Asia,Southern Asia,India,Karnataka,,Bengaluru
139.59.59.84,4,-5,jthemes.com,IN,Asia,Southern Asia,India,Karnataka,,Bengaluru
15.206.87.142,4,8,jubilantbiosys.com,IN,Asia,Southern Asia,India,Maharashtra,,Mumbai
217.21.90.104,4,-24,justtravo.com,IN,Asia,Southern Asia,India,Maharashtra,,Mumbai
178.16.136.230,4,-22,justwords.in,IN,Asia,Southern Asia,India,Maharashtra,,Mumbai
93.127.208.238,4,-19,kaartal.com,IN,Asia,Southern Asia,India,Maharashtra,,Mumbai
82.112.229.116,4,-23,kaeron.in,IN,Asia,Southern Asia,India,Maharashtra,,Mumbai
154.56.52.148,4,-10,kalaari.com,IN,Asia,Southern Asia,India,Maharashtra,,Mumbai
164.52.211.137,4,11,kalpakriticonsultants.com,IN,Asia,Southern Asia,India,,,
13.234.68.42,4,29,kamair.com,IN,Asia,Southern Asia,India,Maharashtra,,Mumbai
193.203.186.173,4,-5,kamakoti.org,IN,Asia,Southern Asia,India,Maharashtra,,Mumbai
103.90.241.163,4,995,kamleshyadav.com,IN,Asia,Southern Asia,India,,,
165.232.181.84,4,-10,kanakkupillai.com,IN,Asia,Southern Asia,India,Karnataka,,Bengaluru
62.72.29.156,4,-20,kannattu.com,IN,Asia,Southern Asia,India,Maharashtra,,Mumbai
35.244.35.106,4,6,kaplindia.com,IN,Asia,Southern Asia,India,Maharashtra,,Mumbai
34.93.254.118,4,13,kapturecrm.com,IN,Asia,Southern Asia,India,Maharashtra,,Mumbai
202.78.251.217,4,-342052,karvykra.com,IN,Asia,Southern Asia,India,,,
157.173.216.6,4,11,karyesh.com,IN,Asia,Southern Asia,India,Maharashtra,,Mumbai
91.108.107.96,4,18,kashidigital.in,IN,Asia,Southern Asia,India,Maharashtra,,Mumbai
103.172.151.230,4,-907,kashmirstore.in,IN,Asia,Southern Asia,India,Maharashtra,,Panvel
14.139.185.58,4,19781473,kau.in,IN,Asia,Southern Asia,India,Union Territory of Puducherry,,Puducherry
195.35.5.7,4,-25,kdu.ac.lk,IN,Asia,Southern Asia,India,Maharashtra,,Mumbai
43.204.62.111,4,71,kei-ind.com,IN,Asia,Southern Asia,India,Maharashtra,,Mumbai
148.113.8.154,4,4,kelaza.com,IN,Asia,Southern Asia,India,Maharashtra,,Mumbai
88.222.246.167,4,-20,kerala.com,IN,Asia,Southern Asia,India,Maharashtra,,Mumbai
195.35.4.220,4,-26,ketanchemicals.com,IN,Asia,Southern Asia,India,Maharashtra,,Mumbai
103.13.112.8,4,-31,khaskhabar.com,IN,Asia,Southern Asia,India,Maharashtra,,Ghansoli
45.64.104.141,4,-20,kiskertek.com,IN,Asia,Southern Asia,India,Maharashtra,,Pune
185.124.111.2,4,-22,kitchenequip.in,IN,Asia,Southern Asia,India,Maharashtra,,Mumbai
103.13.112.160,4,-21,kityfeed.com,IN,Asia,Southern Asia,India,Maharashtra,,Ghansoli
103.205.66.71,4,-26,kletech.ac.in,IN,Asia,Southern Asia,India,,,
103.211.217.242,4,288,klippd.in,IN,Asia,Southern Asia,India,Maharashtra,,Mumbai
216.48.180.210,4,53,knimbus.com,IN,Asia,Southern Asia,India,,,
170.187.250.130,4,1353,knottyknitters.in,IN,Asia,Southern Asia,India,Maharashtra,,Mumbai
188.241.62.232,4,1,knowledgebase-script.com,IN,Asia,Southern Asia,India,Maharashtra,,Panvel
43.204.50.64,4,482924,kokuyocamlin.com,IN,Asia,Southern Asia,India,Maharashtra,,Mumbai
178.16.136.12,4,-17,kolkatacallgirlservices.com,IN,Asia,Southern Asia,India,Maharashtra,,Mumbai
193.202.45.215,4,10,konnectinsights.com,IN,Asia,Southern Asia,India,Maharashtra,,Mumbai
35.154.140.107,4,16,kpscrecruitment.in,IN,Asia,Southern Asia,India,Maharashtra,,Mumbai
148.113.4.243,4,-8,krish-recruitment.com,IN,Asia,Southern Asia,India,Maharashtra,,Mumbai
217.21.87.94,4,9,krishsoftsol.com,IN,Asia,Southern Asia,India,Maharashtra,,Mumbai
206.189.143.159,4,-2,ksdc.in,IN,Asia,Southern Asia,India,Karnataka,,Bengaluru
103.120.177.150,4,1226,ktmcollege.org,IN,Asia,Southern Asia,India,,,
103.171.181.149,4,-30,ktrcycleworld.com,IN,Asia,Southern Asia,India,,,
103.211.202.188,4,-28,kud.ac.in,IN,Asia,Southern Asia,India,Karnataka,,Bengaluru
103.160.107.138,4,-18,kurishupally.org,IN,Asia,Southern Asia,India,,,
216.10.250.144,4,-25,kvch.in,IN,Asia,Southern Asia,India,,,
43.240.67.38,4,-23,kviconline.gov.in,IN,Asia,Southern Asia,India,,,
89.117.157.230,4,-21,kyrion.in,IN,Asia,Southern Asia,India,Maharashtra,,Mumbai
185.124.110.172,4,-26,lakhanisolution.com,IN,Asia,Southern Asia,India,Maharashtra,,Mumbai
157.173.216.210,4,24,larryjordan.biz,IN,Asia,Southern Asia,India,Maharashtra,,Mumbai
89.116.122.142,4,22,latbangbkkbnjatim.com,IN,Asia,Southern Asia,India,Maharashtra,,Mumbai
101.53.148.157,4,50,latikamittal.com,IN,Asia,Southern Asia,India,,,
149.100.147.32,4,-12,laylyt.com,IN,Asia,Southern Asia,India,Maharashtra,,Mumbai
46.28.45.246,4,18,leedobd.org,IN,Asia,Southern Asia,India,Maharashtra,,Mumbai
101.53.158.204,4,56,legallyindia.com,IN,Asia,Southern Asia,India,,,
159.65.146.51,4,18,legalwiz.in,IN,Asia,Southern Asia,India,Karnataka,,Bengaluru
52.66.43.1,4,-5,lepassagetoindia.com,IN,Asia,Southern Asia,India,Maharashtra,,Mumbai
217.21.87.78,4,-32,letscrawlnews.com,IN,Asia,Southern Asia,India,Maharashtra,,Mumbai
93.127.208.25,4,-26,letsnurture.com,IN,Asia,Southern Asia,India,Maharashtra,,Mumbai
103.250.186.101,4,451,levitraz.com,IN,Asia,Southern Asia,India,Maharashtra,,Pune
103.171.180.10,4,-21,lifebook.co.in,IN,Asia,Southern Asia,India,,,
103.13.242.121,4,912,lifecarehll.com,IN,Asia,Southern Asia,India,National Capital Territory of Delhi,,New Delhi
182.76.57.237,4,-13,lifepositive.com,IN,Asia,Southern Asia,India,Haryana,,Gurugram
139.59.30.194,4,59,lilacinfotech.com,IN,Asia,Southern Asia,India,Karnataka,,Bengaluru
111.93.163.108,4,2,lincoln.edu.my,IN,Asia,Southern Asia,India,West Bengal,,Kolkata
203.115.100.194,4,-184002,linux-delhi.org,IN,Asia,Southern Asia,India,Uttar Pradesh,,Greater Noida
82.180.142.238,4,-7,lisadsouza.com,IN,Asia,Southern Asia,India,Maharashtra,,Mumbai
103.97.210.18,4,8,livedastak.com,IN,Asia,Southern Asia,India,,,
103.25.130.37,4,16,liveindia.com,IN,Asia,Southern Asia,India,,,
103.159.85.204,4,-22,livetechspot.com,IN,Asia,Southern Asia,India,,,
3.109.107.210,4,23,livofy.com,IN,Asia,Southern Asia,India,Maharashtra,,Mumbai
13.127.35.145,4,-3,livofy.com,IN,Asia,Southern Asia,India,Maharashtra,,Mumbai
217.21.91.113,4,-25,lnainews.com,IN,Asia,Southern Asia,India,Maharashtra,,Mumbai
103.234.116.155,4,30,logodesignteam.com,IN,Asia,Southern Asia,India,,,
193.203.185.103,4,-24,logritha.com,IN,Asia,Southern Asia,India,Maharashtra,,Mumbai
165.22.212.63,4,-14,lolimbeer.com,IN,Asia,Southern Asia,India,Karnataka,,Bengaluru
119.18.48.136,4,1046,lostfoundglobal.com,IN,Asia,Southern Asia,India,,,
172.105.56.115,4,1351,luckydice.in,IN,Asia,Southern Asia,India,Maharashtra,,Mumbai
69.57.172.15,4,-33,ludhianalive.com,IN,Asia,Southern Asia,India,Maharashtra,,Navi Mumbai
103.127.31.126,4,-31,luvas.edu.in,IN,Asia,Southern Asia,India,,,
101.53.133.103,4,1,luxebook.in,IN,Asia,Southern Asia,India,,,
148.113.1.235,4,-32,lyn65.com,IN,Asia,Southern Asia,India,Maharashtra,,Mumbai
119.18.48.133,4,1299,magadhuniversity.ac.in,IN,Asia,Southern Asia,India,,,
115.124.96.153,4,-865769,mahacet.org,IN,Asia,Southern Asia,India,,,
148.113.16.60,4,-8,maidan.org.ua,IN,Asia,Southern Asia,India,Maharashtra,,Mumbai
203.200.188.4,4,-9,makautwb.ac.in,IN,Asia,Southern Asia,India,Karnataka,,Bengaluru
103.191.209.64,4,-20,makintelligent.com,IN,Asia,Southern Asia,India,,,
103.83.81.148,4,-24,malappuramclassifieds.com,IN,Asia,Southern Asia,India,,,
190.92.174.49,4,-31,managementnote.com,IN,Asia,Southern Asia,India,Maharashtra,,Navi Mumbai
43.231.124.140,4,110,mangalorean.com,IN,Asia,Southern Asia,India,,,
14.139.155.116,4,-25,mangaloreuniversity.ac.in,IN,Asia,Southern Asia,India,Karnataka,,Bengaluru
194.195.118.183,4,3,manglorechemical.com,IN,Asia,Southern Asia,India,Maharashtra,,Mumbai
217.21.84.49,4,-27,manojkumar.online,IN,Asia,Southern Asia,India,Maharashtra,,Mumbai
164.52.212.119,4,6,mapmytalent.in,IN,Asia,Southern Asia,India,,,
172.105.62.200,4,61,maroc.net,IN,Asia,Southern Asia,India,Maharashtra,,Mumbai
34.93.49.158,4,23,marvelous90s.com,IN,Asia,Southern Asia,India,Maharashtra,,Mumbai
82.112.232.203,4,26,masalabox.com,IN,Asia,Southern Asia,India,Maharashtra,,Mumbai
103.47.148.122,4,54,matagujrischool.com,IN,Asia,Southern Asia,India,,,
45.127.102.180,4,65,matchfinder.in,IN,Asia,Southern Asia,India,,,
35.244.59.151,4,34,matrimonialsindia.com,IN,Asia,Southern Asia,India,Maharashtra,,Mumbai
35.154.82.2,4,15,maxbhi.com,IN,Asia,Southern Asia,India,Maharashtra,,Mumbai
103.86.177.206,4,-18,maxblizz.com,IN,Asia,Southern Asia,India,,,
217.21.81.147,4,-11,maxicert.com,IN,Asia,Southern Asia,India,National Capital Territory of Delhi,,New Delhi
3.7.94.121,4,-4,maxlab.co.in,IN,Asia,Southern Asia,India,Maharashtra,,Mumbai
103.117.212.73,4,-32,mbaguide.in,IN,Asia,Southern Asia,India,,,
210.89.42.17,4,1740,mbarendezvous.com,IN,Asia,Southern Asia,India,,,
194.195.116.172,4,-16,mbauniverse.com,IN,Asia,Southern Asia,India,Maharashtra,,Mumbai
65.1.59.246,4,-5,mcc.edu.in,IN,Asia,Southern Asia,India,Maharashtra,,Mumbai
217.21.81.131,4,-16,measuringmart.com,IN,Asia,Southern Asia,India,National Capital Territory of Delhi,,New Delhi
148.113.20.146,4,-5,medex.com.bd,IN,Asia,Southern Asia,India,Maharashtra,,Mumbai
164.52.201.167,4,13,mediaoneonline.com,IN,Asia,Southern Asia,India,,,
190.92.174.45,4,-43,mediosindependientes.org,IN,Asia,Southern Asia,India,Maharashtra,,Navi Mumbai
157.119.40.201,4,-31,mehfeel.net,IN,Asia,Southern Asia,India,Maharashtra,,Panvel
213.210.21.94,4,-23,mehrangarh.org,IN,Asia,Southern Asia,India,Maharashtra,,Mumbai
157.173.217.212,4,-23,memes.co.in,IN,Asia,Southern Asia,India,Maharashtra,,Mumbai
172.232.106.238,4,8,men-tsee-khang.org,IN,Asia,Southern Asia,India,Tamil Nadu,,Chennai
142.79.230.190,4,2,merck-foundation.com,IN,Asia,Southern Asia,India,,,
93.127.169.136,4,-11,meridean.org,IN,Asia,Southern Asia,India,Maharashtra,,Mumbai
193.203.187.229,4,-18,meshhoney.com,IN,Asia,Southern Asia,India,Maharashtra,,Mumbai
223.31.220.103,4,17,mhrdnats.gov.in,IN,Asia,Southern Asia,India,,,
157.173.216.19,4,-4,micom.net,IN,Asia,Southern Asia,India,Maharashtra,,Mumbai
66.22.93.235,4,24,midcindia.org,IN,Asia,Southern Asia,India,Tamil Nadu,,Chennai
178.16.136.225,4,-17,mightpost.com,IN,Asia,Southern Asia,India,Maharashtra,,Mumbai
154.41.255.27,4,-26,milanrasoi.com,IN,Asia,Southern Asia,India,Maharashtra,,Mumbai
103.191.208.201,4,-22,milesweb.in,IN,Asia,Southern Asia,India,,,
164.52.196.218,4,-21,millenniumpost.in,IN,Asia,Southern Asia,India,,,
89.117.157.247,4,-22,millenniumtech.co.za,IN,Asia,Southern Asia,India,Maharashtra,,Mumbai
103.174.10.79,4,756,minnambalam.com,IN,Asia,Southern Asia,India,,,
89.117.157.176,4,-23,mirroreternally.com,IN,Asia,Southern Asia,India,Maharashtra,,Mumbai
82.112.232.129,4,-21,miska.co.in,IN,Asia,Southern Asia,India,Maharashtra,,Mumbai
14.141.64.227,4,-5119,mitsubishielectric.in,IN,Asia,Southern Asia,India,Uttar Pradesh,,Noida
103.83.194.100,4,487,mkchocolatebars.com,IN,Asia,Southern Asia,India,Maharashtra,,Pune
195.35.44.61,4,-17,mlbjerseyscheap.us,IN,Asia,Southern Asia,India,Maharashtra,,Mumbai
89.116.133.232,4,-19,mlmonline.in,IN,Asia,Southern Asia,India,Maharashtra,,Mumbai
172.105.50.239,4,-20,mockers.in,IN,Asia,Southern Asia,India,Maharashtra,,Mumbai
82.180.164.159,4,-19,mohalicallgirls.com,IN,Asia,Southern Asia,India,Maharashtra,,Mumbai
91.108.109.208,4,-25,mohtawaco.com,IN,Asia,Southern Asia,India,Maharashtra,,Mumbai
103.127.29.132,4,-19,moksh16.com,IN,Asia,Southern Asia,India,,,
139.59.15.228,4,1,motorbeam.com,IN,Asia,Southern Asia,India,Karnataka,,Bengaluru
89.117.27.74,4,-8,mountainkidsschool.com,IN,Asia,Southern Asia,India,Maharashtra,,Mumbai
45.248.63.212,4,-3,movingsolutions.in,IN,Asia,Southern Asia,India,,,
139.59.19.120,4,-28,movinnza.in,IN,Asia,Southern Asia,India,Karnataka,,Bengaluru
46.28.44.212,4,-25,mpett.com,IN,Asia,Southern Asia,India,Maharashtra,,Mumbai
103.212.120.103,4,-35,mrdustbin.com,IN,Asia,Southern Asia,India,,,
217.21.80.126,4,-18,mrignayanikolkata.com,IN,Asia,Southern Asia,India,National Capital Territory of Delhi,,New Delhi
139.59.62.19,4,-11,msgjob.in,IN,Asia,Southern Asia,India,Karnataka,,Bengaluru
62.72.58.114,4,7,mudrafoods.in,IN,Asia,Southern Asia,India,Maharashtra,,Mumbai
154.41.233.66,4,-10,mumbaicricketacademy.com,IN,Asia,Southern Asia,India,Maharashtra,,Mumbai
35.200.242.62,4,-1,mumbailive.com,IN,Asia,Southern Asia,India,Maharashtra,,Mumbai
154.56.54.195,4,-25,musvcs.com,IN,Asia,Southern Asia,India,Maharashtra,,Mumbai
103.86.176.216,4,-33,myadsite.in,IN,Asia,Southern Asia,India,,,
35.200.184.129,4,17,mycity4kids.com,IN,Asia,Southern Asia,India,Maharashtra,,Mumbai
65.20.70.207,4,-32,mydukaan.io,IN,Asia,Southern Asia,India,Maharashtra,,Mumbai
45.79.117.218,4,-10,myfinal11.in,IN,Asia,Southern Asia,India,Maharashtra,,Mumbai
82.180.144.174,4,438,myglobalhost.in,IN,Asia,Southern Asia,India,Maharashtra,,Mumbai
103.171.180.104,4,-7,myhoteltrip.com,IN,Asia,Southern Asia,India,,,
64.227.147.251,4,42,mymoneysouq.com,IN,Asia,Southern Asia,India,Karnataka,,Bengaluru
82.180.142.29,4,-27,myndscope.com,IN,Asia,Southern Asia,India,Maharashtra,,Mumbai
103.195.186.216,4,-1093,mynextexam.com,IN,Asia,Southern Asia,India,,,
103.139.81.165,4,12,mypapers.in,IN,Asia,Southern Asia,India,,,
35.244.13.147,4,2,myraah.io,IN,Asia,Southern Asia,India,Maharashtra,,Mumbai
103.93.17.10,4,-127810,mysarthi.com,IN,Asia,Southern Asia,India,,,
148.113.1.176,4,3,myselfie.co.za,IN,Asia,Southern Asia,India,Maharashtra,,Mumbai
217.21.93.20,4,-9,myshadicards.com,IN,Asia,Southern Asia,India,Maharashtra,,Mumbai
46.28.47.21,4,-15,mysterioustrip.com,IN,Asia,Southern Asia,India,Maharashtra,,Mumbai
82.180.140.143,4,-20,n-gage.com,IN,Asia,Southern Asia,India,Maharashtra,,Mumbai
89.117.27.132,4,-27,nadiastrologys.com,IN,Asia,Southern Asia,India,Maharashtra,,Mumbai
103.171.180.156,4,-26,nakamichi.co.in,IN,Asia,Southern Asia,India,,,
62.72.42.152,4,-8,nakodadcs.com,IN,Asia,Southern Asia,India,Maharashtra,,Mumbai
64.227.136.209,4,3,nalandaopenuniversity.com,IN,Asia,Southern Asia,India,Karnataka,,Bengaluru
82.180.142.14,4,-26,nammatrip.in,IN,Asia,Southern Asia,India,Maharashtra,,Mumbai
82.112.239.47,4,-14,nancychopra.net,IN,Asia,Southern Asia,India,Maharashtra,,Mumbai
89.117.27.247,4,-26,nandsweets.com,IN,Asia,Southern Asia,India,Maharashtra,,Mumbai
82.180.142.168,4,-19,nanorealm.net,IN,Asia,Southern Asia,India,Maharashtra,,Mumbai
103.7.64.177,4,-107957,natboard.edu.in,IN,Asia,Southern Asia,India,,,
120.138.8.108,4,-25,natcopharma.co.in,IN,Asia,Southern Asia,India,,,
103.101.58.6,4,-419,naukriguru.com,IN,Asia,Southern Asia,India,,,
154.61.74.172,4,-27,navhindtimes.in,IN,Asia,Southern Asia,India,Maharashtra,,Thne
185.124.111.180,4,-17,nayaindia.com,IN,Asia,Southern Asia,India,Maharashtra,,Mumbai
89.117.27.38,4,-20,naybhadrahealthcare.com,IN,Asia,Southern Asia,India,Maharashtra,,Mumbai
217.21.82.108,4,-23,nbhcindia.com,IN,Asia,Southern Asia,India,National Capital Territory of Delhi,,New Delhi
103.120.176.124,4,-31,ncrcallgirls.com,IN,Asia,Southern Asia,India,,,
178.16.139.96,4,-16,needlover.in,IN,Asia,Southern Asia,India,Maharashtra,,Mumbai
154.41.232.15,4,-13,neoito.com,IN,Asia,Southern Asia,India,Maharashtra,,Mumbai
157.66.191.8,4,-21,nesbedcollege.com,IN,Asia,Southern Asia,India,,,
103.160.128.51,4,-30,nestexam.in,IN,Asia,Southern Asia,India,,,
103.90.242.88,4,798,nestogroup.com,IN,Asia,Southern Asia,India,,,
217.21.87.177,4,-22,networkhunt.com,IN,Asia,Southern Asia,India,Maharashtra,,Mumbai
13.233.183.33,4,5,neuroon.com,IN,Asia,Southern Asia,India,Maharashtra,,Mumbai
64.227.141.151,4,-17,newsintervention.com,IN,Asia,Southern Asia,India,Karnataka,,Bengaluru
190.92.174.24,4,-29,newskeeda.com,IN,Asia,Southern Asia,India,Maharashtra,,Navi Mumbai
217.21.80.238,4,-3,newsncr.com,IN,Asia,Southern Asia,India,National Capital Territory of Delhi,,New Delhi
157.173.216.38,4,37,newspostonline.com,IN,Asia,Southern Asia,India,Maharashtra,,Mumbai
164.52.209.96,4,6,newstap.in,IN,Asia,Southern Asia,India,,,
172.105.49.120,4,53490,newstracklive.com,IN,Asia,Southern Asia,India,Maharashtra,,Mumbai
103.172.92.27,4,-39,newtrendings.com,IN,Asia,Southern Asia,India,Maharashtra,,Mumbai
217.21.90.164,4,-28,nextgenbiz.in,IN,Asia,Southern Asia,India,Maharashtra,,Mumbai
103.35.123.142,4,249267,nhsrcindia.org,IN,Asia,Southern Asia,India,,,
165.232.176.124,4,20,nicesnippets.com,IN,Asia,Southern Asia,India,Karnataka,,Bengaluru
103.24.200.159,4,9,nid.edu,IN,Asia,Southern Asia,India,,,
89.117.188.122,4,-14,nidhipradhan.com,IN,Asia,Southern Asia,India,Maharashtra,,Mumbai
164.52.200.116,4,5,niet.co.in,IN,Asia,Southern Asia,India,,,
216.10.250.246,4,-20,nif.org.in,IN,Asia,Southern Asia,India,,,
117.239.177.100,4,-48,nihfw.ac.in,IN,Asia,Southern Asia,India,Kerala,,Kochi
103.162.73.2,4,-81756,nimhans.ac.in,IN,Asia,Southern Asia,India,,,
89.117.188.47,4,-19,nirogherbs.com,IN,Asia,Southern Asia,India,Maharashtra,,Mumbai
103.160.128.52,4,-40415,niser.ac.in,IN,Asia,Southern Asia,India,,,
14.139.221.27,4,194776,nitdgp.ac.in,IN,Asia,Southern Asia,India,West Bengal,,Kolkata
202.168.87.80,4,-19,nitjsr.ac.in,IN,Asia,Southern Asia,India,Jharkhand,,Jamshedpur
103.229.25.252,4,30,nitplrrc.com,IN,Asia,Southern Asia,India,Maharashtra,,Nagpur
14.139.208.87,4,-19,nitrkl.ac.in,IN,Asia,Southern Asia,India,Odisha,,Bhubaneswar
210.212.2.142,4,-12,nitrkl.ac.in,IN,Asia,Southern Asia,India,,,
117.203.169.10,4,8,nitrkl.ac.in,IN,Asia,Southern Asia,India,Jharkhand,,Bokaro
220.158.183.130,4,12,nitrkl.ac.in,IN,Asia,Southern Asia,India,,,
103.20.213.62,4,1,nitsikkim.ac.in,IN,Asia,Southern Asia,India,Haryana,,Faridabad
103.48.51.198,4,-4,nitte.edu.in,IN,Asia,Southern Asia,India,,,
14.139.191.163,4,-29,nitttrc.ac.in,IN,Asia,Southern Asia,India,Union Territory of Puducherry,,Puducherry
103.249.97.200,4,-19423404,nixi.in,IN,Asia,Southern Asia,India,,,
103.191.208.90,4,-27,nliu.ac.in,IN,Asia,Southern Asia,India,,,
117.239.23.234,4,6,nmlindia.org,IN,Asia,Southern Asia,India,Andhra Pradesh,,Vaddangi
195.35.44.155,4,-14,nobofeed.com,IN,Asia,Southern Asia,India,Maharashtra,,Mumbai
89.117.27.54,4,-17,nohatespeechmovement.org,IN,Asia,Southern Asia,India,Maharashtra,,Mumbai
103.117.212.186,4,1291,noorindiaholidays.in,IN,Asia,Southern Asia,India,,,
150.242.14.236,4,-30,npcindia.gov.in,IN,Asia,Southern Asia,India,,,
190.92.174.31,4,-24,ntnc.org.np,IN,Asia,Southern Asia,India,Maharashtra,,Navi Mumbai
141.226.103.3,4,11,ntpc.co.in,IN,Asia,Southern Asia,India,Tamil Nadu,,Chennai
217.21.87.218,4,18917,nuddely.in,IN,Asia,Southern Asia,India,Maharashtra,,Mumbai
103.14.99.124,4,-23,nujs.edu,IN,Asia,Southern Asia,India,Maharashtra,,Mumbai
209.182.232.108,4,-28,nyamansahu.in,IN,Asia,Southern Asia,India,Maharashtra,,Mumbai
103.212.121.137,4,-38,nyoooz.com,IN,Asia,Southern Asia,India,,,
146.88.24.75,4,3,oasis.gov.in,IN,Asia,Southern Asia,India,,,
62.72.28.198,4,-26,obiyaninfotech.com,IN,Asia,Southern Asia,India,Maharashtra,,Mumbai
52.66.96.70,4,6,odishabytes.com,IN,Asia,Southern Asia,India,Maharashtra,,Mumbai
43.205.52.233,4,4,odishabytes.com,IN,Asia,Southern Asia,India,Maharashtra,,Mumbai
103.39.133.20,4,-21,ogeninfo.com,IN,Asia,Southern Asia,India,,,
143.110.177.193,4,-45,oliveboard.in,IN,Asia,Southern Asia,India,Karnataka,,Bengaluru
93.127.208.18,4,-23,oncaonecenter.com,IN,Asia,Southern Asia,India,Maharashtra,,Mumbai
103.172.92.164,4,-1,oneworldnews.com,IN,Asia,Southern Asia,India,Maharashtra,,Mumbai
45.79.120.145,4,-41,onlineinterviewquestions.com,IN,Asia,Southern Asia,India,Maharashtra,,Mumbai
103.224.247.222,4,1198,onlinekaroo.com,IN,Asia,Southern Asia,India,,,
103.129.97.166,4,1514,onlinepokersource.com,IN,Asia,Southern Asia,India,,,
103.92.235.230,4,195332,onlineregistrationforms.com,IN,Asia,Southern Asia,India,,,
165.22.209.90,4,6,onlinerti.com,IN,Asia,Southern Asia,India,Karnataka,,Bengaluru
101.53.145.254,4,-24,onohosting.com,IN,Asia,Southern Asia,India,,,
103.109.222.2,4,5,Ookla Speedtest Server 1649: speedtest02.fab5network.com,IN,Asia,Southern Asia,India,,,
103.173.50.244,4,197,Ookla Speedtest Server 1761: speedtest.graceway.co.in,IN,Asia,Southern Asia,India,Maharashtra,,Pune
202.88.157.3,4,2608443,Ookla Speedtest Server 4663: bangspeed.hathway.com,IN,Asia,Southern Asia,India,,,
210.212.129.101,4,330,Ookla Speedtest Server 5812: bsnlooklaahb.mywire.org,IN,Asia,Southern Asia,India,Gujarat,,Ahmedabad
123.108.200.142,4,337,Ookla Speedtest Server 5991: speedtest1.vbctv.in,IN,Asia,Southern Asia,India,,,
203.187.215.35,4,203,Ookla Speedtest Server 6404: sp1-pune.youbroadband.in,IN,Asia,Southern Asia,India,,,
203.109.88.226,4,271,Ookla Speedtest Server 6451: sp1-viz.youbroadband.in,IN,Asia,Southern Asia,India,Maharashtra,,Mumbai
203.187.244.13,4,361,Ookla Speedtest Server 6455: sp1-chn.youbroadband.in,IN,Asia,Southern Asia,India,,,
103.248.85.14,4,281,Ookla Speedtest Server 8795: speedtestnoida.tripleplay.in,IN,Asia,Southern Asia,India,,,
103.151.114.122,4,-1097655,Ookla Speedtest Server 9134: speed.pinkbroadband.co.in,IN,Asia,Southern Asia,India,,,
202.62.64.175,4,229,Ookla Speedtest Server 9153: hydspeedtest.cityonlines.in,IN,Asia,Southern Asia,India,Telangana,,Hyderabad
203.192.246.4,4,-22026546,Ookla Speedtest Server 9282: bangalorespeedtest.onebroadband.in,IN,Asia,Southern Asia,India,Karnataka,,Bengaluru
103.210.29.211,4,318,Ookla Speedtest Server 9364: sp.renubroadband.com,IN,Asia,Southern Asia,India,Uttar Pradesh,,Kanpur
103.234.94.131,4,120,Ookla Speedtest Server 9433: elxer.net,IN,Asia,Southern Asia,India,,,
103.57.80.172,4,318,Ookla Speedtest Server 9966: speedtest3.allnet.co.in,IN,Asia,Southern Asia,India,Karnataka,,Bengaluru
157.10.92.9,4,-58890,Ookla Speedtest Server 13575: speedtest.speedhex.co.in,IN,Asia,Southern Asia,India,West Bengal,,Kolkata
119.235.52.86,4,-6809715,Ookla Speedtest Server 13785: speedhyd.dvpl.in,IN,Asia,Southern Asia,India,Telangana,,Hyderabad
103.30.224.6,4,334,Ookla Speedtest Server 14058: sp1.kutchtelelink.com,IN,Asia,Southern Asia,India,Gujarat,,Bhuj
123.176.37.64,4,334,Ookla Speedtest Server 14340: speedtest.actcorp.in,IN,Asia,Southern Asia,India,Telangana,,Hyderabad
203.147.88.6,4,-149188,Ookla Speedtest Server 14342: speedtest.meghbelabroadband.in,IN,Asia,Southern Asia,India,,,
103.86.137.243,4,230,Ookla Speedtest Server 15042: sp1.airnet360.com,IN,Asia,Southern Asia,India,Madhya Pradesh,,Indore
202.53.72.5,4,-31519,Ookla Speedtest Server 15125: baservers.nettlinx.com,IN,Asia,Southern Asia,India,Telangana,,Hyderabad
202.131.120.4,4,334,Ookla Speedtest Server 15224: st.blazenet.co,IN,Asia,Southern Asia,India,Gujarat,,Ahmedabad
43.231.56.6,4,366,Ookla Speedtest Server 15328: speedtest-del01.gtpl.net,IN,Asia,Southern Asia,India,National Capital Territory of Delhi,,New Delhi
103.245.188.34,4,186,Ookla Speedtest Server 15535: speed.blss.in,IN,Asia,Southern Asia,India,,,
103.60.103.60,4,261,Ookla Speedtest Server 15694: ld1.vayutel.net,IN,Asia,Southern Asia,India,Punjab,,Ludhiana
103.243.54.38,4,171,Ookla Speedtest Server 16191: st.surajnetwork.com,IN,Asia,Southern Asia,India,,,
182.237.8.50,4,-15,Ookla Speedtest Server 16273: speedtest-abd01.gtpl.net,IN,Asia,Southern Asia,India,Gujarat,,Ahmedabad
103.91.78.243,4,58,Ookla Speedtest Server 16357: speedtest.miplhr.com,IN,Asia,Southern Asia,India,Haryana,,Jnd
103.228.32.12,4,231,Ookla Speedtest Server 16487: speedtest.infonetonline.in,IN,Asia,Southern Asia,India,Telangana,,Attapur
45.248.57.122,4,553,Ookla Speedtest Server 16531: speedtest.zenithbroadband.in,IN,Asia,Southern Asia,India,West Bengal,,Kolkata
103.78.165.146,4,-1,Ookla Speedtest Server 16674: speedtest.c32broadband.com,IN,Asia,Southern Asia,India,Tamil Nadu,,Chennai
103.119.76.246,4,174,Ookla Speedtest Server 16723: speedtest.stplnet.com,IN,Asia,Southern Asia,India,Rajasthan,,Jaipur
103.249.82.82,4,146,Ookla Speedtest Server 17054: speedtest.pulse.in,IN,Asia,Southern Asia,India,,,
103.127.185.138,4,187,Ookla Speedtest Server 17275: speedtest.winux.co.in,IN,Asia,Southern Asia,India,Madhya Pradesh,,Bhopal
103.91.80.21,4,215,Ookla Speedtest Server 17365: speedtest.theisp.in,IN,Asia,Southern Asia,India,,,
43.254.29.178,4,97,Ookla Speedtest Server 17469: speedtest.rackbank.com,IN,Asia,Southern Asia,India,Madhya Pradesh,,Indore
103.210.132.14,4,102,Ookla Speedtest Server 17600: blrspeed.antbroadband.com,IN,Asia,Southern Asia,India,Karnataka,,Bengaluru
103.107.254.254,4,183,Ookla Speedtest Server 17816: sp1.hustel.net,IN,Asia,Southern Asia,India,West Bengal,,Haldia
162.216.142.255,4,126,Ookla Speedtest Server 18446: speedkovai.cherrinet.in,IN,Asia,Southern Asia,India,Tamil Nadu,,Coimbatore
103.104.211.254,4,171,Ookla Speedtest Server 18463: st1.airtechbroadband.com,IN,Asia,Southern Asia,India,,,
103.121.116.10,4,87,Ookla Speedtest Server 18635: speedtest.oxynet.co.in,IN,Asia,Southern Asia,India,West Bengal,,Kolkata
103.206.226.7,4,150,Ookla Speedtest Server 18678: adcpl.net,IN,Asia,Southern Asia,India,Uttar Pradesh,,Ayodhya
103.219.61.78,4,-177425,Ookla Speedtest Server 18686: speedtest.siqesnet.com,IN,Asia,Southern Asia,India,,,
103.106.23.102,4,117,Ookla Speedtest Server 18782: speedtest.oceanicnet.in,IN,Asia,Southern Asia,India,Gujarat,,Ahmedabad
122.169.240.154,4,266,Ookla Speedtest Server 18977: speedtesthyd.airtelbroadband.in,IN,Asia,Southern Asia,India,Telangana,,Hyderabad
103.176.234.82,4,74,Ookla Speedtest Server 19171: sp1.opto.net.in,IN,Asia,Southern Asia,India,Karnataka,,Bengaluru
103.181.16.3,4,231,Ookla Speedtest Server 19178: sp1.tanishbroadband.com,IN,Asia,Southern Asia,India,Maharashtra,,Yavatmal
103.93.38.66,4,-21778328,Ookla Speedtest Server 19274: speedtest.ngcbroadband.com,IN,Asia,Southern Asia,India,,,
103.224.156.193,4,204,Ookla Speedtest Server 20867: sp1.hireachbroadband.com,IN,Asia,Southern Asia,India,Telangana,,Hyderabad
125.17.50.50,4,363,Ookla Speedtest Server 21885: shahabad.gulbarganet.in,IN,Asia,Southern Asia,India,,,
103.178.45.243,4,395,Ookla Speedtest Server 21936: speedtest.theorangefibernet.com,IN,Asia,Southern Asia,India,Andhra Pradesh,,Vizianagaram
203.192.209.3,4,277,Ookla Speedtest Server 22709: kolkataspeedtest.onebroadband.in,IN,Asia,Southern Asia,India,Maharashtra,,Navi Mumbai
45.249.120.67,4,352,Ookla Speedtest Server 22796: che-speedtest.airconnectindia.com,IN,Asia,Southern Asia,India,Tamil Nadu,,Ooty
112.79.47.1,4,331,Ookla Speedtest Server 22967: ooklatestjaipur.live.vodafone.in,IN,Asia,Southern Asia,India,Rajasthan,,Jaipur
202.53.4.255,4,384,Ookla Speedtest Server 23315: speedten.cherrinet.in,IN,Asia,Southern Asia,India,Tamil Nadu,,Tirunelveli
103.75.163.12,4,192,Ookla Speedtest Server 23462: speedtest.speednetkolkata.com,IN,Asia,Southern Asia,India,West Bengal,,Kolkata
103.91.96.3,4,331,Ookla Speedtest Server 29608: korbast.isolnet.in,IN,Asia,Southern Asia,India,Chhattisgarh,,Ambikpur
103.207.13.10,4,245,Ookla Speedtest Server 30231: speed.ultimate.net.in,IN,Asia,Southern Asia,India,,,
103.159.66.26,4,321,Ookla Speedtest Server 33370: st3.hbsnetwork.net,IN,Asia,Southern Asia,India,Uttar Pradesh,,Ghaziabad
103.145.168.38,4,343,Ookla Speedtest Server 33379: speedtest.nikhilnetworksolution.in,IN,Asia,Southern Asia,India,National Capital Territory of Delhi,,Delhi
103.208.69.233,4,375,Ookla Speedtest Server 33603: speedtestpune.tataplayfiber.co.in,IN,Asia,Southern Asia,India,Maharashtra,,Pune
103.66.224.20,4,621254,Ookla Speedtest Server 33718: speedtest.dakshbroadband.com,IN,Asia,Southern Asia,India,,,
103.231.46.251,4,-27756642,Ookla Speedtest Server 33729: speedtest.auspice.in,IN,Asia,Southern Asia,India,,,
103.140.17.243,4,313,Ookla Speedtest Server 34198: speedtest.keralavisionbroadband.com,IN,Asia,Southern Asia,India,Kerala,,Thrissur
103.105.100.26,4,301,Ookla Speedtest Server 36778: speedtest.hitechbroadband.in,IN,Asia,Southern Asia,India,Telangana,,Hyderabad
103.158.230.250,4,294,Ookla Speedtest Server 38610: serv2.a2jdata.com,IN,Asia,Southern Asia,India,Uttar Pradesh,,Ghazpur
103.154.234.234,4,328,Ookla Speedtest Server 38622: speedtest.bst.fabnet.in,IN,Asia,Southern Asia,India,West Bengal,,Kolkata
103.153.167.50,4,361,Ookla Speedtest Server 38843: speedtest.connectspacelink.com,IN,Asia,Southern Asia,India,Maharashtra,,Pune
103.156.144.6,4,384,Ookla Speedtest Server 39959: speedtest.treelink.in,IN,Asia,Southern Asia,India,Gujarat,,Gandhinagar
103.80.60.6,4,322,Ookla Speedtest Server 41071: speedtest.jollybroadband.net,IN,Asia,Southern Asia,India,Uttar Pradesh,,Lucknow
103.59.132.4,4,302,Ookla Speedtest Server 41867: speedtest.widecom.in,IN,Asia,Southern Asia,India,Tamil Nadu,,Erode
103.148.183.202,4,348,Ookla Speedtest Server 42547: speedtest.flixnetworks.com,IN,Asia,Southern Asia,India,West Bengal,,Durgapur
103.181.168.206,4,368,Ookla Speedtest Server 42811: speedtest.mrkr.in,IN,Asia,Southern Asia,India,Tamil Nadu,,Madurai
103.136.44.6,4,398,Ookla Speedtest Server 43074: speedtest.3jglobalservices.com,IN,Asia,Southern Asia,India,Maharashtra,,Navi Mumbai
103.52.210.34,4,321,Ookla Speedtest Server 43465: speedtestsk.airjaldi.net,IN,Asia,Southern Asia,India,Sikkim,,Rangpo
45.249.49.9,4,283,Ookla Speedtest Server 43558: speedtest.e-net.in,IN,Asia,Southern Asia,India,Andhra Pradesh,,Vijayawada
103.206.172.25,4,-33885,Ookla Speedtest Server 43845: speed10.aitspl.in,IN,Asia,Southern Asia,India,,,
103.170.7.7,4,351,Ookla Speedtest Server 44400: speedtest.netfirst.in,IN,Asia,Southern Asia,India,,,
103.210.204.12,4,23373431,Ookla Speedtest Server 44453: speedtest.bluenetisp.in,IN,Asia,Southern Asia,India,,,
103.27.48.82,4,369,Ookla Speedtest Server 44963: speedtest.balajibroadband.com,IN,Asia,Southern Asia,India,Maharashtra,,Mumbai
112.133.224.34,4,337,Ookla Speedtest Server 45023: gwh.speedtest.railtel.in,IN,Asia,Southern Asia,India,,,
103.86.1.1,4,218,Ookla Speedtest Server 45702: speedtest.airwir.com,IN,Asia,Southern Asia,India,Karnataka,,Bengaluru
103.134.134.21,4,313,Ookla Speedtest Server 45923: speedtest1.shinebroadband.com,IN,Asia,Southern Asia,India,Kerala,,Thiruvananthapuram
45.119.31.233,4,-18601399,Ookla Speedtest Server 45938: speedtestnoida.tataplayfiber.co.in,IN,Asia,Southern Asia,India,Uttar Pradesh,,Noida
103.160.72.66,4,182,Ookla Speedtest Server 46057: mausp.renubroadband.com,IN,Asia,Southern Asia,India,Uttar Pradesh,,Ballia
103.189.102.3,4,331,Ookla Speedtest Server 46192: node1.sndcbroadband.com,IN,Asia,Southern Asia,India,West Bengal,,Contai
103.175.28.139,4,91806,Ookla Speedtest Server 46373: speedtest.mnetplus.in,IN,Asia,Southern Asia,India,,,
110.172.151.58,4,358,Ookla Speedtest Server 46446: speedtest.vedanetworks.in,IN,Asia,Southern Asia,India,Tamil Nadu,,Thanjavur
103.88.238.122,4,22400848,Ookla Speedtest Server 46614: speedtest.skinternetservices.co.in,IN,Asia,Southern Asia,India,Telangana,,Hyderabad
122.185.181.122,4,326,Ookla Speedtest Server 46660: speedtestguw1.airtel.in,IN,Asia,Southern Asia,India,Assam,,Guwahati
103.171.124.251,4,273,Ookla Speedtest Server 46824: speedtest.akdnet.net,IN,Asia,Southern Asia,India,West Bengal,,Belgharia
103.148.122.2,4,210,Ookla Speedtest Server 46965: speedtest.barodabroadband.com,IN,Asia,Southern Asia,India,Gujarat,,Vadodara
45.123.0.122,4,2257622,Ookla Speedtest Server 47141: erode.blss.in,IN,Asia,Southern Asia,India,,,
203.189.255.98,4,279,Ookla Speedtest Server 47144: speedtest-noida.fusionnet.in,IN,Asia,Southern Asia,India,National Capital Territory of Delhi,,New Delhi
103.172.10.14,4,347,Ookla Speedtest Server 47663: speedtest.dwipl.com,IN,Asia,Southern Asia,India,Gujarat,,
49.248.192.204,4,156,Ookla Speedtest Server 47668: stmum.tatatelebusiness.com,IN,Asia,Southern Asia,India,Maharashtra,,Pune
103.70.164.10,4,169,Ookla Speedtest Server 47827: sp2.unpl.co.in,IN,Asia,Southern Asia,India,Haryana,,Bahadurgarh
103.82.159.245,4,95,Ookla Speedtest Server 47879: speedtest-birpara.galaxynet.in,IN,Asia,Southern Asia,India,West Bengal,,Siliguri
202.140.60.118,4,190,Ookla Speedtest Server 48124: smetest.dvois.com,IN,Asia,Southern Asia,India,,,
202.142.117.66,4,309,Ookla Speedtest Server 48561: gorakhpur.sitibroadband.co.in,IN,Asia,Southern Asia,India,Uttar Pradesh,,Gorakhpur
113.30.176.59,4,-31723295,Ookla Speedtest Server 48639: speedtest.aristotelenet.net,IN,Asia,Southern Asia,India,Tamil Nadu,,Chennai
103.140.26.11,4,181,Ookla Speedtest Server 48746: speedtest001.ssstpl.in,IN,Asia,Southern Asia,India,Maharashtra,,Mumbai
103.163.100.43,4,298,Ookla Speedtest Server 48764: speedtest.entirebroadband.com,IN,Asia,Southern Asia,India,,,
103.18.74.6,4,284,Ookla Speedtest Server 48779: bspeedtest.candorsolution.com,IN,Asia,Southern Asia,India,Uttar Pradesh,,Mordbd
103.172.145.2,4,268,Ookla Speedtest Server 48941: speedtest.gigafibernet.co.in,IN,Asia,Southern Asia,India,,,
103.102.123.245,4,1312605,Ookla Speedtest Server 50416: speedtest.sanhatibroadband.com,IN,Asia,Southern Asia,India,West Bengal,,Durgapur
103.126.169.98,4,7723,Ookla Speedtest Server 51375: speedtest.prefixinfotech.in,IN,Asia,Southern Asia,India,National Capital Territory of Delhi,,Delhi
103.51.26.254,4,2514426,Ookla Speedtest Server 51683: sipl.speedtest.sukaininfoway.com,IN,Asia,Southern Asia,India,Maharashtra,,Mumbai
103.142.163.3,4,248,Ookla Speedtest Server 51701: bhuj-padmnet.isp.krutarth.network,IN,Asia,Southern Asia,India,,,
103.176.64.6,4,320,Ookla Speedtest Server 51746: sp1.worldfibernet.com,IN,Asia,Southern Asia,India,National Capital Territory of Delhi,,New Delhi
103.84.71.74,4,307440,Ookla Speedtest Server 51752: speedujn.skynetmp.com,IN,Asia,Southern Asia,India,,,
103.221.79.244,4,-1342771,Ookla Speedtest Server 51805: speedtestdelhi.digiwaynet.com,IN,Asia,Southern Asia,India,,,
103.176.243.7,4,294,Ookla Speedtest Server 51843: speedtest.pathcom.online,IN,Asia,Southern Asia,India,Karnataka,,Bengaluru
124.123.126.10,4,326,Ookla Speedtest Server 51969: speedtestahmd.actcorp.in,IN,Asia,Southern Asia,India,Gujarat,,Ahmedabad
61.246.208.226,4,81009,Ookla Speedtest Server 52216: speedtestwfd1.airtel.in,IN,Asia,Southern Asia,India,Karnataka,,Bengaluru
103.221.211.118,4,254,Ookla Speedtest Server 52451: dh.ipnetbroadband.com,IN,Asia,Southern Asia,India,,,
103.69.44.163,4,317,Ookla Speedtest Server 52468: stkumhari.navyug.net,IN,Asia,Southern Asia,India,Chhattisgarh,,Bhilai
103.161.57.245,4,300,Ookla Speedtest Server 52512: speedtest.vijw.excitel.in,IN,Asia,Southern Asia,India,National Capital Territory of Delhi,,Delhi
103.69.44.162,4,319,Ookla Speedtest Server 52689: stkawardha.navyug.net,IN,Asia,Southern Asia,India,Chhattisgarh,,Bhilai
103.163.95.30,4,246,Ookla Speedtest Server 52928: speedtest.interjet.in,IN,Asia,Southern Asia,India,Union Territory of Puducherry,,Puducherry
103.167.72.22,4,243,Ookla Speedtest Server 52964: speed.lazygone.in,IN,Asia,Southern Asia,India,,,
103.61.243.250,4,-18576440,Ookla Speedtest Server 53148: st1.onetouchitservices.in,IN,Asia,Southern Asia,India,Uttarakhand,,Bhagwnpur
106.77.174.68,4,195,Ookla Speedtest Server 53340: ooklatestnoida.live.vodafone.in,IN,Asia,Southern Asia,India,Uttar Pradesh,,Noida
103.89.64.3,4,-136752,Ookla Speedtest Server 53346: speedtest.rathnaaspectra.com,IN,Asia,Southern Asia,India,Tamil Nadu,,Coimbatore
103.155.234.26,4,185,Ookla Speedtest Server 53557: speedtest.bbrgcommunication.in,IN,Asia,Southern Asia,India,,,
103.157.186.167,4,139,Ookla Speedtest Server 53617: speedtest.hightecnetwork.in,IN,Asia,Southern Asia,India,Maharashtra,,Navi Mumbai
103.159.155.254,4,996340,Ookla Speedtest Server 53625: st1.madhesiyainternet.in,IN,Asia,Southern Asia,India,,,
103.162.132.2,4,65873,Ookla Speedtest Server 53649: speedtest.consamtelecom.com,IN,Asia,Southern Asia,India,,,
45.252.79.242,4,169,Ookla Speedtest Server 53654: speedtestknp.digiwaynet.com,IN,Asia,Southern Asia,India,Bihar,,Patna
103.68.126.202,4,98284,Ookla Speedtest Server 53716: speedtest.globnet.in,IN,Asia,Southern Asia,India,West Bengal,,Kolkata
45.120.58.58,4,149,Ookla Speedtest Server 53770: speedtest.onenetfiber.com,IN,Asia,Southern Asia,India,,,
103.149.21.186,4,157,Ookla Speedtest Server 53873: sn.ipnetbroadband.com,IN,Asia,Southern Asia,India,Uttarakhand,,Srnagar
157.119.200.150,4,197,Ookla Speedtest Server 54091: speedtest4.fastfortechnologies.com,IN,Asia,Southern Asia,India,Maharashtra,,Mumbai
103.99.111.242,4,233,Ookla Speedtest Server 54296: speedtest.srbroadband.net,IN,Asia,Southern Asia,India,Telangana,,Hyderabad
103.175.2.231,4,204,Ookla Speedtest Server 54647: speedtestknr.keralavisionisp.com,IN,Asia,Southern Asia,India,Kerala,,Kannur
103.210.28.22,4,214,Ookla Speedtest Server 54806: oraisp.renubroadband.com,IN,Asia,Southern Asia,India,Uttar Pradesh,,Kanpur
103.213.222.254,4,19998023,Ookla Speedtest Server 55023: speedtest.geenet.co.in,IN,Asia,Southern Asia,India,,,
103.105.177.13,4,223,Ookla Speedtest Server 55051: speedtest1.reachbroadband.co.in,IN,Asia,Southern Asia,India,Telangana,,Hyderabad
103.195.72.42,4,134,Ookla Speedtest Server 55054: speedtestbhp.cloudskybroadband.in,IN,Asia,Southern Asia,India,West Bengal,,Nabadwip
103.38.53.2,4,223,Ookla Speedtest Server 55109: vadodara.kwm.org.in,IN,Asia,Southern Asia,India,,,
103.118.171.226,4,250,Ookla Speedtest Server 55171: st.royalconnect.net,IN,Asia,Southern Asia,India,Rajasthan,,Jaipur
103.172.153.5,4,205,Ookla Speedtest Server 55301: speed.binodan.net,IN,Asia,Southern Asia,India,West Bengal,,Ghtl
103.171.73.10,4,247,Ookla Speedtest Server 55319: speedtest.sbsystem.in,IN,Asia,Southern Asia,India,Tamil Nadu,,Thanjavur
45.123.15.6,4,-23910,Ookla Speedtest Server 55370: speedtestversatile.meghbelabroadband.in,IN,Asia,Southern Asia,India,West Bengal,,Darjeeling
103.160.163.66,4,237,Ookla Speedtest Server 55419: speedtest.sujosinfotech.com,IN,Asia,Southern Asia,India,,,
163.53.87.170,4,65,Ookla Speedtest Server 55593: st1.anonet.in,IN,Asia,Southern Asia,India,Uttar Pradesh,,Ghaziabad
103.184.107.65,4,-39025,Ookla Speedtest Server 55697: speedtest-paramathivelur.stackbit.in,IN,Asia,Southern Asia,India,Tamil Nadu,,Karur
103.162.120.82,4,202,Ookla Speedtest Server 55788: sp1.bacbpl.in,IN,Asia,Southern Asia,India,,,
103.134.101.14,4,284,Ookla Speedtest Server 55911: sp1.clickiannetwork.com,IN,Asia,Southern Asia,India,Uttar Pradesh,,Ghaziabad
103.112.22.252,4,181,Ookla Speedtest Server 55987: spnoida.protoactnetworks.com,IN,Asia,Southern Asia,India,Jharkhand,,Ranchi
103.139.200.6,4,48,Ookla Speedtest Server 56050: speedtest.winnet.in,IN,Asia,Southern Asia,India,West Bengal,,Galsi
103.94.115.122,4,191,Ookla Speedtest Server 56174: speedtest2.honeybroadband.com,IN,Asia,Southern Asia,India,Uttar Pradesh,,Bareilly
14.194.64.150,4,159,Ookla Speedtest Server 56195: stdel.tatatelebusiness.com,IN,Asia,Southern Asia,India,Karnataka,,
103.162.164.5,4,219,Ookla Speedtest Server 56310: speedtestblr1.yuvacommunications.com,IN,Asia,Southern Asia,India,,,
103.177.234.7,4,20154607,Ookla Speedtest Server 56643: speedtestb.fastcablenet.com,IN,Asia,Southern Asia,India,Karnataka,,Bengaluru
103.168.167.14,4,278,Ookla Speedtest Server 56737: speednet.udaanisp.com,IN,Asia,Southern Asia,India,,,
103.134.132.5,4,250,Ookla Speedtest Server 56744: nms.skyrocketnet.com,IN,Asia,Southern Asia,India,National Capital Territory of Delhi,,New Delhi
103.76.118.178,4,331,Ookla Speedtest Server 57013: sp1.wsnet.in,IN,Asia,Southern Asia,India,Gujarat,,Deesa
103.48.70.99,4,200526,Ookla Speedtest Server 57117: speedtest.countryonline.co.in,IN,Asia,Southern Asia,India,Telangana,,Hyderabad
103.38.182.106,4,261,Ookla Speedtest Server 57134: rkdigital.pimoony.com,IN,Asia,Southern Asia,India,,,
103.233.119.78,4,25212059,Ookla Speedtest Server 57231: speedtestkasganj.zeonet.co.in,IN,Asia,Southern Asia,India,National Capital Territory of Delhi,,New Delhi
182.78.249.222,4,98380,Ookla Speedtest Server 57312: speedtestkhd1.airtel.in,IN,Asia,Southern Asia,India,National Capital Territory of Delhi,,New Delhi
103.126.43.254,4,328,Ookla Speedtest Server 57366: chennai.dvpl.in,IN,Asia,Southern Asia,India,Tamil Nadu,,Chennai
103.163.202.8,4,39276,Ookla Speedtest Server 57521: speed2.quickvision.in,IN,Asia,Southern Asia,India,West Bengal,,Bardhaman
103.98.3.5,4,348,Ookla Speedtest Server 57590: speedtest.aymaninternet.in,IN,Asia,Southern Asia,India,,,
103.81.26.3,4,278,Ookla Speedtest Server 58083: speedtest01.qualitynet.in,IN,Asia,Southern Asia,India,National Capital Territory of Delhi,,Delhi
125.23.239.182,4,79244,Ookla Speedtest Server 58188: speedtestmrt1.airtel.in,IN,Asia,Southern Asia,India,,,
125.21.30.206,4,43333,Ookla Speedtest Server 58189: speedtestbha1.airtel.in,IN,Asia,Southern Asia,India,Uttar Pradesh,,Ghaziabad
43.225.214.244,4,342,Ookla Speedtest Server 58486: speed.upcspl.com,IN,Asia,Southern Asia,India,,,
103.179.111.4,4,-245133,Ookla Speedtest Server 58611: chennai-speedtest.ishancloud.com,IN,Asia,Southern Asia,India,,,
43.228.167.83,4,357,Ookla Speedtest Server 58736: speedtest.nettechcommunication.in,IN,Asia,Southern Asia,India,,,
103.216.146.203,4,307,Ookla Speedtest Server 58834: speedtestpune.intechonline.net,IN,Asia,Southern Asia,India,,,
103.221.239.6,4,323,Ookla Speedtest Server 58977: speedtest.sphatiknetwork.in,IN,Asia,Southern Asia,India,Gujarat,,Jogan
202.134.168.254,4,297,Ookla Speedtest Server 59146: gbs.netfiltered.net,IN,Asia,Southern Asia,India,,,
103.5.112.250,4,208,Ookla Speedtest Server 59224: speed.bluwifi.in,IN,Asia,Southern Asia,India,Tamil Nadu,,Coimbatore
103.12.117.4,4,261,Ookla Speedtest Server 59723: speedtest.zyetel.net,IN,Asia,Southern Asia,India,Telangana,,Hyderabad
103.188.236.227,4,325,Ookla Speedtest Server 59784: speedtest.pacelinknetwork.com,IN,Asia,Southern Asia,India,,,
103.101.101.114,4,254,Ookla Speedtest Server 60016: speedtest.utgbroadband.co.in,IN,Asia,Southern Asia,India,Haryana,,Gurugram
223.29.197.147,4,309759,Ookla Speedtest Server 60080: speedtestbwn.meghbelabroadband.in,IN,Asia,Southern Asia,India,West Bengal,,Kolkata
150.242.196.27,4,250,Ookla Speedtest Server 60085: speedtest001.dnainfotel.com,IN,Asia,Southern Asia,India,Maharashtra,,Vasai
103.163.193.254,4,285,Ookla Speedtest Server 60120: speedtest.csfibernet.in,IN,Asia,Southern Asia,India,Assam,,Bsugaon
103.167.102.37,4,292,Ookla Speedtest Server 60141: speedtest1.intercityfibernetworks.com,IN,Asia,Southern Asia,India,Maharashtra,,Dombivali
103.175.173.254,4,296,Ookla Speedtest Server 60253: speedtest03.radinet.in,IN,Asia,Southern Asia,India,,,
103.200.59.231,4,362,Ookla Speedtest Server 60352: speedtest.iristel.in,IN,Asia,Southern Asia,India,,,
103.182.132.6,4,327,Ookla Speedtest Server 60360: ns1.fybrg.in,IN,Asia,Southern Asia,India,National Capital Territory of Delhi,,Delhi
103.156.100.7,4,311,Ookla Speedtest Server 60569: speed02.hifisurf.com,IN,Asia,Southern Asia,India,Tamil Nadu,,Kramadai
45.127.123.10,4,285,Ookla Speedtest Server 60730: speedtestnagpur1.intechonline.net,IN,Asia,Southern Asia,India,Maharashtra,,Pune
103.181.148.18,4,326,Ookla Speedtest Server 60936: speedtest.mdnetwork.in,IN,Asia,Southern Asia,India,Tamil Nadu,,Erode
43.248.58.12,4,316,Ookla Speedtest Server 61130: mrbspl1.multireachbroadband.in,IN,Asia,Southern Asia,India,,,
103.103.92.12,4,291,Ookla Speedtest Server 61237: speedtest.xdnetwork.co.in,IN,Asia,Southern Asia,India,,,
103.139.66.20,4,271,Ookla Speedtest Server 61670: speedtest.viratnetwork.in,IN,Asia,Southern Asia,India,Uttar Pradesh,,Hthras
103.54.29.251,4,-109596,Ookla Speedtest Server 61918: speed1.sakshamtel.com,IN,Asia,Southern Asia,India,Rajasthan,,Alwar
113.192.4.10,4,306,Ookla Speedtest Server 62010: speedtest.weonebroadband.com,IN,Asia,Southern Asia,India,Kerala,,Kochi
103.98.3.3,4,336,Ookla Speedtest Server 62046: speed1.aymaninternet.in,IN,Asia,Southern Asia,India,,,
103.173.136.127,4,276,Ookla Speedtest Server 62200: blrbras.bigventuresmedia.com,IN,Asia,Southern Asia,India,Karnataka,,Bengaluru
122.252.238.6,4,171,Ookla Speedtest Server 62223: adi.speedtest.railtel.in,IN,Asia,Southern Asia,India,,,
103.147.38.10,4,910062,Ookla Speedtest Server 62252: speedtest1.airiconbroadband.com,IN,Asia,Southern Asia,India,,,
103.183.80.254,4,210,Ookla Speedtest Server 62282: speedtest.vortexinfocom.com,IN,Asia,Southern Asia,India,Maharashtra,,Nashik
157.10.240.20,4,161,Ookla Speedtest Server 62329: speedtestjoy.joycomputers.in,IN,Asia,Southern Asia,India,Jharkhand,,Bokaro
103.131.248.13,4,155,Ookla Speedtest Server 62370: speedtest.netzshreeramsolution.co.in,IN,Asia,Southern Asia,India,Maharashtra,,Nashik
103.52.37.122,4,213,Ookla Speedtest Server 62440: speedtest1.inetbb.in,IN,Asia,Southern Asia,India,Telangana,,Hyderabad
43.249.55.184,4,171,Ookla Speedtest Server 62552: speedtest.sky1net.in,IN,Asia,Southern Asia,India,,,
160.20.106.20,4,127,Ookla Speedtest Server 62634: speedtest.starnetwork.net.in,IN,Asia,Southern Asia,India,Tamil Nadu,,Krishnagiri
157.15.10.254,4,213,Ookla Speedtest Server 62776: stchn.tactcom.in,IN,Asia,Southern Asia,India,Tamil Nadu,,Chennai
182.76.80.158,4,262,Ookla Speedtest Server 62966: speedtestblrhsr1.airtel.in,IN,Asia,Southern Asia,India,Uttar Pradesh,,Noida
103.171.188.66,4,213,Ookla Speedtest Server 62983: speedtestmum.mahabalnet.in,IN,Asia,Southern Asia,India,Maharashtra,,Navi Mumbai
103.165.108.141,4,200,Ookla Speedtest Server 62984: selu.skybiznet.com,IN,Asia,Southern Asia,India,,,
114.69.225.150,4,171,Ookla Speedtest Server 62987: spt1.divycommunication.com,IN,Asia,Southern Asia,India,Haryana,,Mnesar
103.174.77.76,4,214,Ookla Speedtest Server 63019: speedtest.flitzenbroadband.in,IN,Asia,Southern Asia,India,,,
103.243.232.118,4,152,Ookla Speedtest Server 63121: srmakspeed.hostycare.in,IN,Asia,Southern Asia,India,Maharashtra,,Mumbai
103.191.112.114,4,242,Ookla Speedtest Server 63128: speed16.mymetanet.in,IN,Asia,Southern Asia,India,Uttar Pradesh,,Ghaziabad
103.170.176.8,4,219,Ookla Speedtest Server 63134: speedtest.sundarambroadband.in,IN,Asia,Southern Asia,India,West Bengal,,Memri
103.189.147.5,4,189,Ookla Speedtest Server 63139: speedtest1.stgscloud.com,IN,Asia,Southern Asia,India,Uttar Pradesh,,Noida
103.133.231.162,4,293,Ookla Speedtest Server 63145: speed1.wyrisnetworks.com,IN,Asia,Southern Asia,India,Maharashtra,,Pune
157.10.248.13,4,274,Ookla Speedtest Server 63153: speedtest.swiftify.in,IN,Asia,Southern Asia,India,National Capital Territory of Delhi,,New Delhi
103.170.69.255,4,205,Ookla Speedtest Server 63188: speedtest04.radinet.in,IN,Asia,Southern Asia,India,Rajasthan,,Ajmer
103.168.239.203,4,301,Ookla Speedtest Server 63207: speedtest.khushibroadband.in,IN,Asia,Southern Asia,India,Maharashtra,,Maharashtra
103.109.45.62,4,196,Ookla Speedtest Server 63233: chithambaram.cfnet.in,IN,Asia,Southern Asia,India,Union Territory of Puducherry,,Puducherry
103.157.53.50,4,142525,Ookla Speedtest Server 63235: speedtestgenx.zeonet.co.in,IN,Asia,Southern Asia,India,National Capital Territory of Delhi,,New Delhi
103.145.54.206,4,159,Ookla Speedtest Server 63341: jjbjain.pimoony.com,IN,Asia,Southern Asia,India,Uttar Pradesh,,Bareilly
103.53.112.22,4,313953,Ookla Speedtest Server 63400: speedtest.nageshwarbroadband.com,IN,Asia,Southern Asia,India,Bihar,,Goplganj
103.138.185.2,4,295,Ookla Speedtest Server 63556: speedtest01.mahrthinternetservices.in,IN,Asia,Southern Asia,India,,,
103.209.214.6,4,287,Ookla Speedtest Server 63737: speedtest.kpinfratel.in,IN,Asia,Southern Asia,India,Gujarat,,Botad
103.85.181.202,4,302,Ookla Speedtest Server 63753: speedtest01.dataexpress.co.in,IN,Asia,Southern Asia,India,Maharashtra,,Mumbai
103.140.2.162,4,272,Ookla Speedtest Server 63780: speedtestgurugram.angelbroadband.com,IN,Asia,Southern Asia,India,Haryana,,Gurugram
160.22.252.10,4,277,Ookla Speedtest Server 64089: speedtest.scifyweb.com,IN,Asia,Southern Asia,India,Jharkhand,,Ranchi
103.75.163.3,4,246,Ookla Speedtest Server 64211: basirhat-speedtest.speednetkolkata.com,IN,Asia,Southern Asia,India,West Bengal,,Kolkata
103.75.163.4,4,359,Ookla Speedtest Server 64214: habra-speedtest.speednetkolkata.com,IN,Asia,Southern Asia,India,West Bengal,,Kolkata
103.185.107.2,4,355,Ookla Speedtest Server 64334: speed.immortalbroadband.com,IN,Asia,Southern Asia,India,Bihar,,Bettiah
103.110.236.2,4,1577175,Ookla Speedtest Server 64381: erdspt.hyperband.in,IN,Asia,Southern Asia,India,Tamil Nadu,,Erode
152.52.30.118,4,221,Ookla Speedtest Server 64426: speedtestshm1.airtel.in,IN,Asia,Southern Asia,India,Tamil Nadu,,Chennai
152.52.190.90,4,-28635774,Ookla Speedtest Server 64428: speedtestinf.airtel.in,IN,Asia,Southern Asia,India,West Bengal,,Kolkata
182.79.233.98,4,332,Ookla Speedtest Server 64429: speedtestspc1.airtel.in,IN,Asia,Southern Asia,India,Maharashtra,,Mumbai
103.148.39.138,4,238,Ookla Speedtest Server 64486: speedtest2.broadwaycommunication.co.in,IN,Asia,Southern Asia,India,Karnataka,,Bengaluru
103.154.35.6,4,-89089,Ookla Speedtest Server 64491: tprsts.quickfibernet.in,IN,Asia,Southern Asia,India,Tamil Nadu,,Tirupur
103.89.59.59,4,338,Ookla Speedtest Server 64558: spraibareli.adribroadband.in,IN,Asia,Southern Asia,India,Uttar Pradesh,,Raebareli
152.52.142.2,4,-28551982,Ookla Speedtest Server 64572: speedtestptn1.airtel.in,IN,Asia,Southern Asia,India,Bihar,,Patna
103.182.107.40,4,355,Ookla Speedtest Server 64617: barasat.zitatel.com,IN,Asia,Southern Asia,India,West Bengal,,Kolkata
103.181.233.34,4,272,Ookla Speedtest Server 64772: speedtest1.vscndigital.com.padumcomputers.in,IN,Asia,Southern Asia,India,Andhra Pradesh,,Tanuku
14.1.116.34,4,305,Ookla Speedtest Server 64776: speedtest1.orangecityinternet.co.in,IN,Asia,Southern Asia,India,,,
103.161.30.2,4,271710,Ookla Speedtest Server 64787: speedtest2.vsipl.in.padumcomputers.in,IN,Asia,Southern Asia,India,,,
206.1.31.226,4,137022,Ookla Speedtest Server 65368: bangalorespeedtest.pioneeronline.com,IN,Asia,Southern Asia,India,Karnataka,,Bengaluru
45.114.247.26,4,205642,Ookla Speedtest Server 65369: patnaspeedtest.pioneeronline.com,IN,Asia,Southern Asia,India,Bihar,,Patna
117.250.238.251,4,321,Ookla Speedtest Server: bsnlooklachn.ddnsfree.com,IN,Asia,Southern Asia,India,Tamil Nadu,,Chennai
117.250.238.209,4,297,Ookla Speedtest Server: bsnlooklaekm.mywire.org,IN,Asia,Southern Asia,India,Kerala,,Kochi
103.179.114.246,4,284,Ookla Speedtest Server: cwp.zippynet.in,IN,Asia,Southern Asia,India,Uttar Pradesh,,Agra
49.45.64.86,4,410,Ookla Speedtest Server: kmrjooklaspeed1.jioconnect.com,IN,Asia,Southern Asia,India,Gujarat,,Surat
103.179.21.3,4,135,Ookla Speedtest Server: ookla1.hightechbroadband.net,IN,Asia,Southern Asia,India,Kerala,,Thrissur
1.39.83.205,4,138,Ookla Speedtest Server: ooklatestmadurai.live.vodafone.in,IN,Asia,Southern Asia,India,Tamil Nadu,,Madurai
103.59.209.3,4,170,Ookla Speedtest Server: ranchi-speedtest.ishancloud.com,IN,Asia,Southern Asia,India,,,
103.153.227.38,4,-95352,Ookla Speedtest Server: serv13.a2jdata.com,IN,Asia,Southern Asia,India,Haryana,,Ballabgarh
103.173.136.75,4,256,Ookla Speedtest Server: skynetbras.bigventuresmedia.com,IN,Asia,Southern Asia,India,Karnataka,,Kushlnagar
103.99.216.14,4,265,Ookla Speedtest Server: southnet1.kingsbroadband.net,IN,Asia,Southern Asia,India,Tamil Nadu,,Salem
103.245.68.84,4,151,Ookla Speedtest Server: sp1.dnabroadband.com,IN,Asia,Southern Asia,India,,,
103.83.8.117,4,171,Ookla Speedtest Server: speed.ddbroadband.in,IN,Asia,Southern Asia,India,,,
103.167.52.86,4,308,Ookla Speedtest Server: speed.speedwaybroadband.co.in,IN,Asia,Southern Asia,India,Gujarat,,Porbandar
103.183.47.2,4,285,Ookla Speedtest Server: speedrnet.ridsys.in,IN,Asia,Southern Asia,India,Union Territory of Puducherry,,Puducherry
27.116.50.98,4,265,Ookla Speedtest Server: speedtest-brd01.gtpl.net,IN,Asia,Southern Asia,India,,,
103.155.208.33,4,276,Ookla Speedtest Server: speedtest-ghaziabad.vmps.co.in,IN,Asia,Southern Asia,India,Uttar Pradesh,,Meerut
103.249.120.11,4,-10828,Ookla Speedtest Server: speedtest-val.qcpl.in,IN,Asia,Southern Asia,India,Gujarat,,Valsd
103.88.126.123,4,-28515377,Ookla Speedtest Server: speedtest.fiberstory.in,IN,Asia,Southern Asia,India,,,
103.91.96.2,4,278,Ookla Speedtest Server: speedtest.isolnet.in,IN,Asia,Southern Asia,India,Chhattisgarh,,Ambikpur
103.170.146.14,4,158,Ookla Speedtest Server: speedtest.jetair.net.in,IN,Asia,Southern Asia,India,Uttar Pradesh,,Sahranpur
103.177.5.254,4,178,Ookla Speedtest Server: speedtest.mahalaxmicommunication.com,IN,Asia,Southern Asia,India,Gujarat,,Valsd
103.158.147.250,4,136,Ookla Speedtest Server: speedtest.netfoxnetworks.in,IN,Asia,Southern Asia,India,Maharashtra,,Thne
43.255.133.130,4,-24898,Ookla Speedtest Server: speedtest.qcpl.in,IN,Asia,Southern Asia,India,,,
103.170.88.148,4,155,Ookla Speedtest Server: speedtest.quicklinknetworks.in,IN,Asia,Southern Asia,India,Gujarat,,Dahej
103.203.224.36,4,14,Ookla Speedtest Server: speedtest.r2net.bhaukaalbaba.com,IN,Asia,Southern Asia,India,Haryana,,Gurugram
103.177.182.18,4,67,Ookla Speedtest Server: speedtest.rigindiaconnect.com,IN,Asia,Southern Asia,India,Kerala,,Kozhikode
103.139.117.18,4,-17,Ookla Speedtest Server: speedtest.segva.charotarbroadband.in,IN,Asia,Southern Asia,India,Gujarat,,Anand
103.108.56.26,4,261,Ookla Speedtest Server: speedtest.skyfibernet.in,IN,Asia,Southern Asia,India,Karnataka,,Belgaum
103.145.18.234,4,129,Ookla Speedtest Server: speedtest.speedostar.in,IN,Asia,Southern Asia,India,Maharashtra,,Mumbai
103.113.213.13,4,132,Ookla Speedtest Server: speedtest.speedster.co.in,IN,Asia,Southern Asia,India,,,
103.144.172.22,4,-19785647,Ookla Speedtest Server: speedtest.stromnet.co.in,IN,Asia,Southern Asia,India,West Bengal,,Kolkata
103.212.141.6,4,28,Ookla Speedtest Server: speedtest.surat.vortexnetsol.com,IN,Asia,Southern Asia,India,Maharashtra,,Mumbai
103.252.4.30,4,0,Ookla Speedtest Server: speedtest.threesainfoway.net,IN,Asia,Southern Asia,India,Maharashtra,,Thne
103.88.76.26,4,247,Ookla Speedtest Server: speedtest.ticfiber.in,IN,Asia,Southern Asia,India,Tamil Nadu,,Chennai
103.142.112.22,4,21,Ookla Speedtest Server: speedtest.ticpl.in,IN,Asia,Southern Asia,India,Tamil Nadu,,Tiruchirappalli
103.148.97.18,4,283,Ookla Speedtest Server: speedtest.ultrawave.in,IN,Asia,Southern Asia,India,,,
103.165.4.250,4,-8890,Ookla Speedtest Server: speedtest.vayuonline.in,IN,Asia,Southern Asia,India,,,
103.171.202.5,4,45,Ookla Speedtest Server: speedtest.vonefibernet.com,IN,Asia,Southern Asia,India,Karnataka,,Davangere
103.170.152.98,4,11,Ookla Speedtest Server: speedtest.wifilogin.in,IN,Asia,Southern Asia,India,Haryana,,Gurugram
43.241.127.139,4,-98685,Ookla Speedtest Server: speedtest1.bhaveshinternet.com,IN,Asia,Southern Asia,India,Maharashtra,,Neral
111.90.168.122,4,-17,Ookla Speedtest Server: speedtest1.ishangroup.com,IN,Asia,Southern Asia,India,,,
122.187.99.102,4,-157486,Ookla Speedtest Server: speedtestcal1.airtelbroadband.in,IN,Asia,Southern Asia,India,Tamil Nadu,,Chennai
103.94.136.38,4,260,Ookla Speedtest Server: speedtestcokkl.alliancebroadband.in,IN,Asia,Southern Asia,India,Kerala,,Malappuram
103.182.220.63,4,-21,Ookla Speedtest Server: speedtestgoa02.bigventuresmedia.com,IN,Asia,Southern Asia,India,Goa,,Mormugao
103.245.20.36,4,1088972,Ookla Speedtest Server: speedtesthaldia.meghbelabroadband.in,IN,Asia,Southern Asia,India,West Bengal,,Kolkata
103.245.2.19,4,-1169718,Ookla Speedtest Server: speedtestmalda.meghbelabroadband.in,IN,Asia,Southern Asia,India,West Bengal,,Kolkata
43.247.157.122,4,38597,Ookla Speedtest Server: speedtestmlr.bbnl.in,IN,Asia,Southern Asia,India,Karnataka,,Bengaluru
103.16.71.218,4,19773612,Ookla Speedtest Server: speedtestsmg.ginternet.in,IN,Asia,Southern Asia,India,Karnataka,,Shimoga
103.196.220.102,4,7,Ookla Speedtest Server: spghz.pcpli.net,IN,Asia,Southern Asia,India,,,
103.157.167.3,4,-3,Ookla Speedtest Server: st-ekm.extranet.co.in,IN,Asia,Southern Asia,India,Kerala,,Kollam
27.109.5.214,4,30092,Ookla Speedtest Server: st.blazenet.biz,IN,Asia,Southern Asia,India,Gujarat,,Vadodara
103.168.213.254,4,670,Ookla Speedtest Server: stest.fibermax.in,IN,Asia,Southern Asia,India,Uttar Pradesh,,Mathura
103.254.247.250,4,7,Ookla Speedtest Server: stgnd.blazenet.biz,IN,Asia,Southern Asia,India,Gujarat,,Ahmedabad
103.123.235.219,4,-28,Ookla Speedtest Server: stmum.estointernet.in,IN,Asia,Southern Asia,India,Maharashtra,,Mumbai
103.182.164.11,4,-30,Ookla Speedtest Server: surat-snetta.isp.krutarth.network,IN,Asia,Southern Asia,India,Gujarat,,Surat
103.187.198.26,4,11,Ookla Speedtest Server: test.shriraminternet.co.in,IN,Asia,Southern Asia,India,,,
103.194.232.11,4,36917,Ookla Speedtest Server: test1.jetspotspeed.com,IN,Asia,Southern Asia,India,,,
36.255.159.130,4,-35,Ookla Speedtest Server: vapi.dishawaves.com,IN,Asia,Southern Asia,India,,,
13.126.110.37,4,3,oorwin.com,IN,Asia,Southern Asia,India,Maharashtra,,Mumbai
13.127.76.250,4,21,oorwin.com,IN,Asia,Southern Asia,India,Maharashtra,,Mumbai
89.116.133.78,4,-16,openaimaster.com,IN,Asia,Southern Asia,India,Maharashtra,,Mumbai
34.93.180.162,4,4,opendesignsin.com,IN,Asia,Southern Asia,India,Maharashtra,,Mumbai
128.199.28.113,4,37,openjs.com,IN,Asia,Southern Asia,India,Karnataka,,Bengaluru
103.212.120.214,4,-34,optimainsights.org,IN,Asia,Southern Asia,India,,,
103.86.176.121,4,-127317,orbisresearch.com,IN,Asia,Southern Asia,India,,,
89.117.188.244,4,-14,orgointeriors.in,IN,Asia,Southern Asia,India,Maharashtra,,Mumbai
164.52.192.168,4,-24,oshoworld.com,IN,Asia,Southern Asia,India,,,
62.72.28.96,4,-22,osminteriors.com,IN,Asia,Southern Asia,India,Maharashtra,,Mumbai
65.20.83.198,4,7,osou.ac.in,IN,Asia,Southern Asia,India,Maharashtra,,Mumbai
103.139.75.129,4,12,oureducation.in,IN,Asia,Southern Asia,India,,,
217.21.92.136,4,12,ovenc.com,IN,Asia,Southern Asia,India,Maharashtra,,Mumbai
139.59.81.177,4,-3,ozassignments.com,IN,Asia,Southern Asia,India,Karnataka,,Bengaluru
190.92.174.28,4,-27,packzia.in,IN,Asia,Southern Asia,India,Maharashtra,,Navi Mumbai
217.21.95.119,4,-25,padmansha.com,IN,Asia,Southern Asia,India,Maharashtra,,Mumbai
65.20.71.86,4,-12,pagepakistan.com,IN,Asia,Southern Asia,India,Maharashtra,,Mumbai
45.79.127.55,4,44,palscity.com,IN,Asia,Southern Asia,India,Maharashtra,,Mumbai
103.120.179.146,4,1,paradisepackers.in,IN,Asia,Southern Asia,India,,,
34.131.228.21,4,35,paruluniversity.ac.in,IN,Asia,Southern Asia,India,National Capital Territory of Delhi,,New Delhi
192.177.75.15,4,-2,paskolavalue.com,IN,Asia,Southern Asia,India,Maharashtra,,Mumbai
202.38.172.174,4,-107631,pcmcindia.gov.in,IN,Asia,Southern Asia,India,,,
146.88.25.73,4,5216,pcubelive.com,IN,Asia,Southern Asia,India,,,
103.160.107.147,4,-30,peacefulqode.com,IN,Asia,Southern Asia,India,,,
82.180.142.121,4,-24,pencis.com,IN,Asia,Southern Asia,India,Maharashtra,,Mumbai
3.111.59.62,4,2,periyaruniversity.ac.in,IN,Asia,Southern Asia,India,Maharashtra,,Mumbai
14.139.56.210,4,-18,pgimer.edu.in,IN,Asia,Southern Asia,India,National Capital Territory of Delhi,,New Delhi
182.18.139.68,4,-19,pharmexcil.com,IN,Asia,Southern Asia,India,Telangana,,Hyderabad
82.112.234.29,4,-23,photofrnd.com,IN,Asia,Southern Asia,India,Maharashtra,,Mumbai
157.66.191.12,4,-6,phs1267.com,IN,Asia,Southern Asia,India,,,
103.83.194.130,4,1075,planahost.com,IN,Asia,Southern Asia,India,Maharashtra,,Pune
103.247.19.119,4,44,planetayurveda.com,IN,Asia,Southern Asia,India,,,
115.187.17.95,4,-14,platform-mag.com,IN,Asia,Southern Asia,India,Telangana,,Hyderabad
172.105.253.87,4,-11,plurance.com,IN,Asia,Southern Asia,India,Maharashtra,,Mumbai
89.117.188.91,4,-18,pmbausa.com,IN,Asia,Southern Asia,India,Maharashtra,,Mumbai
119.18.55.196,4,21,pockethrms.com,IN,Asia,Southern Asia,India,,,
103.76.249.10,4,-30,polackalkudumbam.com,IN,Asia,Southern Asia,India,,,
203.112.144.181,4,68,polycab.com,IN,Asia,Southern Asia,India,,,
89.117.27.232,4,-19,poojascookery.com,IN,Asia,Southern Asia,India,Maharashtra,,Mumbai
150.107.103.17,4,-316946,posoco.in,IN,Asia,Southern Asia,India,,,
59.176.177.81,4,-316953,posoco.in,IN,Asia,Southern Asia,India,,,
103.117.212.30,4,58362,postmirror.com,IN,Asia,Southern Asia,India,,,
86.38.243.67,4,-20,prabhatsahara.com,IN,Asia,Southern Asia,India,Maharashtra,,Mumbai
157.173.222.229,4,4,pragativadi.com,IN,Asia,Southern Asia,India,Maharashtra,,Mumbai
66.22.93.103,4,54,praj.net,IN,Asia,Southern Asia,India,Tamil Nadu,,Chennai
82.112.232.217,4,28,pratham.org,IN,Asia,Southern Asia,India,Maharashtra,,Mumbai
192.46.215.214,4,20,prestigesouthernstar.info,IN,Asia,Southern Asia,India,Maharashtra,,Mumbai
170.187.237.104,4,20,prestigesparkgrove.in,IN,Asia,Southern Asia,India,Maharashtra,,Mumbai
164.52.200.40,4,46,primeabgb.com,IN,Asia,Southern Asia,India,,,
167.71.233.49,4,4,privacypolicies.in,IN,Asia,Southern Asia,India,Karnataka,,Bengaluru
157.173.216.92,4,-11,procol.io,IN,Asia,Southern Asia,India,Maharashtra,,Mumbai
103.180.120.77,4,676,proglobalbusinesssolutions.com,IN,Asia,Southern Asia,India,,,
93.127.208.53,4,19,prosportsleague.com,IN,Asia,Southern Asia,India,Maharashtra,,Mumbai
64.227.145.49,4,27,providentbotanico.org.in,IN,Asia,Southern Asia,India,Karnataka,,Bengaluru
14.97.18.42,4,6,prudentcorporate.com,IN,Asia,Southern Asia,India,Karnataka,,
93.127.207.94,4,49,pscoenergy.com,IN,Asia,Southern Asia,India,Maharashtra,,Mumbai
15.207.39.28,4,11,ptinews.com,IN,Asia,Southern Asia,India,Maharashtra,,Mumbai
139.59.34.173,4,1,pujatravels.com,IN,Asia,Southern Asia,India,Karnataka,,Bengaluru
103.187.238.8,4,-25,puravankara.com,IN,Asia,Southern Asia,India,,,
193.203.185.130,4,-24,qainfinity.com,IN,Asia,Southern Asia,India,Maharashtra,,Mumbai
13.126.131.36,4,-4,qcin.org,IN,Asia,Southern Asia,India,Maharashtra,,Mumbai
103.68.40.44,4,8,qssindia.com,IN,Asia,Southern Asia,India,Rajasthan,,Skar
139.59.17.41,4,28,questglt.com,IN,Asia,Southern Asia,India,Karnataka,,Bengaluru
89.117.188.54,4,-1,quickbookstoolhub.co,IN,Asia,Southern Asia,India,Maharashtra,,Mumbai
103.117.212.254,4,58346,quivercare.com,IN,Asia,Southern Asia,India,,,
217.21.81.134,4,-20,r3itsolutions.com.au,IN,Asia,Southern Asia,India,National Capital Territory of Delhi,,New Delhi
217.21.94.166,4,24,raddix.in,IN,Asia,Southern Asia,India,Maharashtra,,Mumbai
111.119.15.130,4,39,radiocity.in,IN,Asia,Southern Asia,India,Maharashtra,,Mumbai
3.111.101.65,4,9,railrecipe.com,IN,Asia,Southern Asia,India,Maharashtra,,Mumbai
62.72.13.113,4,25,rajasthancab.com,IN,Asia,Southern Asia,India,Maharashtra,,Mumbai
154.41.234.48,4,-14,rajasthandirect.com,IN,Asia,Southern Asia,India,Maharashtra,,Mumbai
190.92.174.30,4,-16,ramada-alleppey.com,IN,Asia,Southern Asia,India,Maharashtra,,Navi Mumbai
89.117.27.51,4,40,rasayanjournal.co.in,IN,Asia,Southern Asia,India,Maharashtra,,Mumbai
103.63.31.142,4,40,rasbhari.com,IN,Asia,Southern Asia,India,National Capital Territory of Delhi,,New Delhi
128.199.18.35,4,49,raubikaner.org,IN,Asia,Southern Asia,India,Karnataka,,Bengaluru
89.117.157.61,4,-14,readnewsblog.com,IN,Asia,Southern Asia,India,Maharashtra,,Mumbai
103.159.84.10,4,-13,readyescort.com,IN,Asia,Southern Asia,India,,,
178.16.136.248,4,-10,realbookmarking.com,IN,Asia,Southern Asia,India,Maharashtra,,Mumbai
82.112.224.169,4,-25,realmicentral.com,IN,Asia,Southern Asia,India,Maharashtra,,Mumbai
103.186.185.15,4,-3,recipemantra.com,IN,Asia,Southern Asia,India,,,
62.72.28.182,4,6,recruitmentresult.com,IN,Asia,Southern Asia,India,Maharashtra,,Mumbai
143.110.245.70,4,-2,recruitopen.com,IN,Asia,Southern Asia,India,Karnataka,,Bengaluru
154.41.233.188,4,17,reikiandastrologypredictions.com,IN,Asia,Southern Asia,India,Maharashtra,,Mumbai
103.234.187.230,4,-1,reisentours.com,IN,Asia,Southern Asia,India,,,
69.57.172.37,4,3,relakhs.com,IN,Asia,Southern Asia,India,Maharashtra,,Navi Mumbai
66.22.97.74,4,68,relianceada.com,IN,Asia,Southern Asia,India,Tamil Nadu,,Chennai
216.10.251.183,4,863,repcobank.com,IN,Asia,Southern Asia,India,,,
101.53.144.201,4,-19,repcohome.com,IN,Asia,Southern Asia,India,,,
148.113.20.198,4,17,reportingaccounts.com,IN,Asia,Southern Asia,India,Maharashtra,,Mumbai
216.48.190.199,4,12,researchmatters.in,IN,Asia,Southern Asia,India,,,
193.203.185.13,4,17,revivezone.com,IN,Asia,Southern Asia,India,Maharashtra,,Mumbai
82.112.229.167,4,-2,revoada.net,IN,Asia,Southern Asia,India,Maharashtra,,Mumbai
103.50.161.89,4,-33,rgukt.in,IN,Asia,Southern Asia,India,,,
82.112.229.155,4,-24,richaescorts.com,IN,Asia,Southern Asia,India,Maharashtra,,Mumbai
190.92.175.37,4,-5,riemysore.ac.in,IN,Asia,Southern Asia,India,Maharashtra,,Navi Mumbai
66.22.93.110,4,13,rinfra.com,IN,Asia,Southern Asia,India,Tamil Nadu,,Chennai
103.39.134.182,4,-5,ringmybiz.com,IN,Asia,Southern Asia,India,,,
154.41.255.34,4,-20,ripplehire.com,IN,Asia,Southern Asia,India,Maharashtra,,Mumbai
154.41.232.242,4,-19,rishikulyogshala.org,IN,Asia,Southern Asia,India,Maharashtra,,Mumbai
14.143.45.231,4,59,riya.travel,IN,Asia,Southern Asia,India,Maharashtra,,Mumbai
103.190.54.12,4,7,rjcontractingllc.com,IN,Asia,Southern Asia,India,,,
65.254.95.247,4,3,rjmprogramming.com.au,IN,Asia,Southern Asia,India,,,
82.180.142.106,4,-23,rloan.in,IN,Asia,Southern Asia,India,Maharashtra,,Mumbai
94.136.185.244,4,-32,robonepal.com,IN,Asia,Southern Asia,India,Maharashtra,,Mumbai
103.83.81.254,4,900267,rooptex.com,IN,Asia,Southern Asia,India,,,
82.180.167.169,4,-6,roseatehotels.com,IN,Asia,Southern Asia,India,Maharashtra,,Mumbai
195.35.44.189,4,-20,roshnikhanna.in,IN,Asia,Southern Asia,India,Maharashtra,,Mumbai
89.117.157.212,4,-15,rosymalhotra.com,IN,Asia,Southern Asia,India,Maharashtra,,Mumbai
86.38.243.102,4,-22,royalangels.in,IN,Asia,Southern Asia,India,Maharashtra,,Mumbai
103.74.54.38,4,39031,rrcjaipur.in,IN,Asia,Southern Asia,India,,,
216.10.242.50,4,-17,rsisinternational.org,IN,Asia,Southern Asia,India,,,
15.207.183.91,4,7,rummypassion.com,IN,Asia,Southern Asia,India,Maharashtra,,Mumbai
3.6.211.250,4,1,rummypassion.com,IN,Asia,Southern Asia,India,Maharashtra,,Mumbai
3.7.128.152,4,-4,rummypassion.com,IN,Asia,Southern Asia,India,Maharashtra,,Mumbai
103.231.43.164,4,12,ruraluniv.ac.in,IN,Asia,Southern Asia,India,,,
143.110.178.35,4,62,russa24-attestats.com,IN,Asia,Southern Asia,India,Karnataka,,Bengaluru
139.59.48.241,4,0,rvce.edu.in,IN,Asia,Southern Asia,India,Karnataka,,Bengaluru
219.90.65.155,4,-36,ryaannace.com,IN,Asia,Southern Asia,India,,,
3.6.57.17,4,-5,sacnilk.com,IN,Asia,Southern Asia,India,Maharashtra,,Mumbai
195.35.44.20,4,-19,sadhana-india.org,IN,Asia,Southern Asia,India,Maharashtra,,Mumbai
157.245.103.186,4,-37,safesquid.com,IN,Asia,Southern Asia,India,Karnataka,,Bengaluru
164.52.204.154,4,15,safetipin.com,IN,Asia,Southern Asia,India,,,
103.110.127.2,4,23,sagartools.com,IN,Asia,Southern Asia,India,,,
146.88.26.30,4,13,sagipl.com,IN,Asia,Southern Asia,India,,,
93.127.208.217,4,-25,sahelishegadi.com,IN,Asia,Southern Asia,India,Maharashtra,,Mumbai
89.116.133.231,4,-26,sailorslife.in,IN,Asia,Southern Asia,India,Maharashtra,,Mumbai
82.112.229.15,4,2,sajiddesigns.com,IN,Asia,Southern Asia,India,Maharashtra,,Mumbai
157.173.216.56,4,-1,salvavidaspharma.com,IN,Asia,Southern Asia,India,Maharashtra,,Mumbai
13.126.95.156,4,0,samaylive.com,IN,Asia,Southern Asia,India,Maharashtra,,Mumbai
82.112.229.239,4,-18,samgalleria.com,IN,Asia,Southern Asia,India,Maharashtra,,Mumbai
103.145.51.95,4,451392,sample-videos.com,IN,Asia,Southern Asia,India,,,
103.117.212.83,4,-9,sanakaur.com,IN,Asia,Southern Asia,India,,,
103.191.209.67,4,-397764,sandeepmehta.co.in,IN,Asia,Southern Asia,India,,,
139.59.81.114,4,-10,sanskritiias.com,IN,Asia,Southern Asia,India,Karnataka,,Bengaluru
217.21.85.180,4,-18,santoba.org,IN,Asia,Southern Asia,India,Maharashtra,,Mumbai
154.41.234.187,4,-24,sapagro.in,IN,Asia,Southern Asia,India,Maharashtra,,Mumbai
82.112.238.125,4,87,sarkariresult.rocks,IN,Asia,Southern Asia,India,Maharashtra,,Mumbai
43.205.32.92,4,54,sarvodayahospital.com,IN,Asia,Southern Asia,India,Maharashtra,,Mumbai
88.222.245.56,4,-21,sattakingg.net,IN,Asia,Southern Asia,India,Maharashtra,,Mumbai
103.186.184.214,4,-28,savainfotech.com,IN,Asia,Southern Asia,India,,,
103.35.120.91,4,30743810,savita.com,IN,Asia,Southern Asia,India,,,
194.238.18.21,4,-32,schools360.in,IN,Asia,Southern Asia,India,Maharashtra,,Mumbai
35.154.178.221,4,1,scmhrd.edu,IN,Asia,Southern Asia,India,Maharashtra,,Mumbai
172.105.43.173,4,-12,scoopempire.com,IN,Asia,Southern Asia,India,Maharashtra,,Mumbai
103.158.54.101,4,-30,sddesign.in,IN,Asia,Southern Asia,India,,,
172.105.63.233,4,-21,searchika.com,IN,Asia,Southern Asia,India,Maharashtra,,Mumbai
118.185.236.108,4,93,sebi.gov.in,IN,Asia,Southern Asia,India,National Capital Territory of Delhi,,Delhi
203.199.12.52,4,9,sebi.gov.in,IN,Asia,Southern Asia,India,Maharashtra,,Pune
154.56.54.227,4,-4,segisocial.com,IN,Asia,Southern Asia,India,Maharashtra,,Mumbai
190.92.174.50,4,-29,segvtours.com,IN,Asia,Southern Asia,India,Maharashtra,,Navi Mumbai
178.16.136.192,4,-13,selectyouruniversity.com,IN,Asia,Southern Asia,India,Maharashtra,,Mumbai
89.116.33.193,4,6,sellyourgadget.shop,IN,Asia,Southern Asia,India,Maharashtra,,Mumbai
103.95.14.152,4,-19,sendbestgift.com,IN,Asia,Southern Asia,India,,,
94.136.189.202,4,16,seoserviceinindia.co.in,IN,Asia,Southern Asia,India,Maharashtra,,Mumbai
82.112.229.154,4,-25,seotoolsay.com,IN,Asia,Southern Asia,India,Maharashtra,,Mumbai
159.65.155.137,4,-10,serpentcs.com,IN,Asia,Southern Asia,India,Karnataka,,Bengaluru
190.92.174.35,4,-29,servostabilizer.org.in,IN,Asia,Southern Asia,India,Maharashtra,,Navi Mumbai
217.21.85.250,4,-1,sethnik.com,IN,Asia,Southern Asia,India,Maharashtra,,Mumbai
62.72.42.111,4,1,sevenmentor.com,IN,Asia,Southern Asia,India,Maharashtra,,Mumbai
82.112.229.236,4,-23,sglobalacumen.com,IN,Asia,Southern Asia,India,Maharashtra,,Mumbai
93.127.208.11,4,-20,shapingrecipes.com,IN,Asia,Southern Asia,India,Maharashtra,,Mumbai
217.21.85.96,4,-23,shardahospital.in,IN,Asia,Southern Asia,India,Maharashtra,,Mumbai
103.191.208.92,4,-21,shasenconsulting.com,IN,Asia,Southern Asia,India,,,
217.21.92.149,4,-24,shellncore.ae,IN,Asia,Southern Asia,India,Maharashtra,,Mumbai
82.180.165.130,4,-17,sheriff.co.in,IN,Asia,Southern Asia,India,Maharashtra,,Mumbai
103.187.238.34,4,-34,shieldit.in,IN,Asia,Southern Asia,India,,,
157.173.216.8,4,-22,shivlab.com,IN,Asia,Southern Asia,India,Maharashtra,,Mumbai
154.41.233.147,4,-24,shizaspa.com,IN,Asia,Southern Asia,India,Maharashtra,,Mumbai
149.100.146.246,4,-23,shkokka.com,IN,Asia,Southern Asia,India,Maharashtra,,Mumbai
163.53.76.155,4,23,shopsy.in,IN,Asia,Southern Asia,India,,,
89.117.157.127,4,-25,shotsblastingmachine.com,IN,Asia,Southern Asia,India,Maharashtra,,Mumbai
217.21.87.238,4,18925,shreedharflourmill.com,IN,Asia,Southern Asia,India,Maharashtra,,Mumbai
103.190.54.28,4,2,shreenatharcade.com,IN,Asia,Southern Asia,India,,,
103.247.19.195,4,0,shrimaheshwarisamaj.org,IN,Asia,Southern Asia,India,,,
103.212.121.53,4,-38,shriramashramssschool.org,IN,Asia,Southern Asia,India,,,
103.205.66.168,4,-20,siam.in,IN,Asia,Southern Asia,India,,,
49.50.91.181,4,546620,sidbi.in,IN,Asia,Southern Asia,India,,,
82.180.167.65,4,76,siddhantgroupedu.in,IN,Asia,Southern Asia,India,Maharashtra,,Mumbai
1.6.49.193,4,-67833,sifytechnologies.com,IN,Asia,Southern Asia,India,Karnataka,,Bengaluru
103.191.208.227,4,-26,sigmaelevators.in,IN,Asia,Southern Asia,India,,,
46.28.45.16,4,-17,signcitysa.com,IN,Asia,Southern Asia,India,Maharashtra,,Mumbai
43.224.137.92,4,5,siliconinfo.com,IN,Asia,Southern Asia,India,,,
89.116.33.40,4,0,simad.edu.so,IN,Asia,Southern Asia,India,Maharashtra,,Mumbai
45.79.117.22,4,29,simranroy.co.in,IN,Asia,Southern Asia,India,Maharashtra,,Mumbai
89.117.27.21,4,-26,simransoni.com,IN,Asia,Southern Asia,India,Maharashtra,,Mumbai
217.21.85.150,4,-24,simsvizag.com,IN,Asia,Southern Asia,India,Maharashtra,,Mumbai
152.67.174.198,4,-16,singaporecancersociety.org.sg,IN,Asia,Southern Asia,India,Telangana,,Hyderabad
217.21.95.74,4,-28,singhaniasoft.com,IN,Asia,Southern Asia,India,Maharashtra,,Mumbai
164.52.206.36,4,7,sitds.org,IN,Asia,Southern Asia,India,,,
52.66.174.96,4,6,siu.edu.in,IN,Asia,Southern Asia,India,Maharashtra,,Mumbai
193.203.185.37,4,-24,sixthseal.com,IN,Asia,Southern Asia,India,Maharashtra,,Mumbai
178.16.136.92,4,10,skncosmetics.com,IN,Asia,Southern Asia,India,Maharashtra,,Mumbai
103.146.177.180,4,-19,skok.in,IN,Asia,Southern Asia,India,,,
35.244.60.177,4,3,slaconsultantsindia.com,IN,Asia,Southern Asia,India,Maharashtra,,Mumbai
119.18.48.114,4,-27,sloshout.com,IN,Asia,Southern Asia,India,,,
167.71.235.8,4,-14,slprbassam.in,IN,Asia,Southern Asia,India,Karnataka,,Bengaluru
157.173.216.20,4,-20,smacs.in,IN,Asia,Southern Asia,India,Maharashtra,,Mumbai
103.160.153.3,4,132,smartcampus.co,IN,Asia,Southern Asia,India,,,
142.93.212.120,4,8,smitarana.com,IN,Asia,Southern Asia,India,Karnataka,,Bengaluru
149.100.146.178,4,-24,smpic.org,IN,Asia,Southern Asia,India,Maharashtra,,Mumbai
34.100.212.50,4,1,smytten.com,IN,Asia,Southern Asia,India,Maharashtra,,Mumbai
139.59.91.71,4,-4,sobhaneopolis.net.in,IN,Asia,Southern Asia,India,Karnataka,,Bengaluru
164.52.215.16,4,24,socialoffline.in,IN,Asia,Southern Asia,India,,,
92.119.157.83,4,-175828,sodazaa.com,IN,Asia,Southern Asia,India,,,
190.92.174.48,4,-31,sofeeya.in,IN,Asia,Southern Asia,India,Maharashtra,,Navi Mumbai
178.16.136.216,4,4,softgentechnologies.com,IN,Asia,Southern Asia,India,Maharashtra,,Mumbai
172.105.56.46,4,-5,softhunters.in,IN,Asia,Southern Asia,India,Maharashtra,,Mumbai
169.38.73.5,4,-11,SoftLayer Technologies Inc.,IN,Asia,Southern Asia,India,Tamil Nadu,,Chennai
154.61.72.231,4,-8,solidyn.in,IN,Asia,Southern Asia,India,Maharashtra,,Thne
103.212.120.111,4,-37,solvezone.in,IN,Asia,Southern Asia,India,,,
89.117.188.175,4,-20,somutravels.com,IN,Asia,Southern Asia,India,Maharashtra,,Mumbai
195.35.47.77,4,16,sonaidas.com,IN,Asia,Southern Asia,India,Maharashtra,,Mumbai
101.53.139.60,4,26,songdew.com,IN,Asia,Southern Asia,India,,,
89.117.27.177,4,4,soniamittal.in,IN,Asia,Southern Asia,India,Maharashtra,,Mumbai
217.21.85.213,4,-9,sonyocareers.com,IN,Asia,Southern Asia,India,Maharashtra,,Mumbai
103.190.242.147,4,3,southindiacarrentals.com,IN,Asia,Southern Asia,India,,,
82.180.146.107,4,-19,specialityvalve.com,IN,Asia,Southern Asia,India,Maharashtra,,Mumbai
101.53.147.188,4,887,speciatheme.com,IN,Asia,Southern Asia,India,,,
64.227.141.6,4,-8,spiderindexer.com,IN,Asia,Southern Asia,India,Karnataka,,Bengaluru
89.117.157.31,4,-17,sportsbugz.com,IN,Asia,Southern Asia,India,Maharashtra,,Mumbai
217.21.84.148,4,-15,spreadmyfiles.com,IN,Asia,Southern Asia,India,Maharashtra,,Mumbai
119.18.48.12,4,-3,springdaleeducation.com,IN,Asia,Southern Asia,India,,,
217.21.95.14,4,-13,srisaradadevi.com,IN,Asia,Southern Asia,India,Maharashtra,,Mumbai
218.248.240.15,4,-265838,ssbrectt.gov.in,IN,Asia,Southern Asia,India,,,
220.158.147.68,4,776,sspy-up.gov.in,IN,Asia,Southern Asia,India,,,
14.139.185.101,4,118635,ssus.ac.in,IN,Asia,Southern Asia,India,Union Territory of Puducherry,,Puducherry
45.79.121.100,4,-1,standardcoldpressedoil.com,IN,Asia,Southern Asia,India,Maharashtra,,Mumbai
128.199.19.30,4,-10,stck.me,IN,Asia,Southern Asia,India,Karnataka,,Bengaluru
146.190.11.68,4,-10,stck.me,IN,Asia,Southern Asia,India,Karnataka,,Bengaluru
217.21.91.236,4,-10,steammining.com,IN,Asia,Southern Asia,India,Maharashtra,,Mumbai
89.117.157.64,4,19,steeringmarine.com,IN,Asia,Southern Asia,India,Maharashtra,,Mumbai
217.21.90.130,4,-9,stellardigital.in,IN,Asia,Southern Asia,India,Maharashtra,,Mumbai
103.86.176.168,4,-17,stpaulkatni.edu.in,IN,Asia,Southern Asia,India,,,
35.154.90.179,4,23,studyin-uk.in,IN,Asia,Southern Asia,India,Maharashtra,,Mumbai
3.7.245.215,4,20,studyin-uk.in,IN,Asia,Southern Asia,India,Maharashtra,,Mumbai
65.0.254.249,4,40,studyin-uk.in,IN,Asia,Southern Asia,India,Maharashtra,,Mumbai
101.53.134.67,4,5,studynlearn.com,IN,Asia,Southern Asia,India,,,
103.117.212.118,4,1358,successwebtech.com,IN,Asia,Southern Asia,India,,,
217.21.94.200,4,-22,sujataarora.com,IN,Asia,Southern Asia,India,Maharashtra,,Mumbai
146.88.26.23,4,5953,sumukhasolutions.in,IN,Asia,Southern Asia,India,,,
82.180.141.126,4,-31,sunrom.com,IN,Asia,Southern Asia,India,Maharashtra,,Mumbai
89.117.188.17,4,-3,superheuristics.com,IN,Asia,Southern Asia,India,Maharashtra,,Mumbai
139.59.18.222,4,-18,surfindia.com,IN,Asia,Southern Asia,India,Karnataka,,Bengaluru
45.64.105.153,4,-24,susris.com,IN,Asia,Southern Asia,India,Maharashtra,,Pune
34.93.226.246,4,52,swarajshop.com,IN,Asia,Southern Asia,India,Maharashtra,,Mumbai
35.154.227.236,4,-4,symlaw.ac.in,IN,Asia,Southern Asia,India,Maharashtra,,Mumbai
185.209.75.32,4,-22,synodcollege.edu.in,IN,Asia,Southern Asia,India,Maharashtra,,Mumbai
216.10.249.254,4,-15,syspree.com,IN,Asia,Southern Asia,India,,,
103.180.163.202,4,-29,tagoreenglishschool.in,IN,Asia,Southern Asia,India,Maharashtra,,Panvel
82.180.147.25,4,-24,tahaduth.com,IN,Asia,Southern Asia,India,Maharashtra,,Mumbai
82.180.141.129,4,-23,tajmeels.ae,IN,Asia,Southern Asia,India,Maharashtra,,Mumbai
82.112.229.197,4,-22,takarat.com,IN,Asia,Southern Asia,India,Maharashtra,,Mumbai
89.117.27.71,4,-25,takedating.com,IN,Asia,Southern Asia,India,Maharashtra,,Mumbai
216.48.177.143,4,20,talentscrew.com,IN,Asia,Southern Asia,India,,,
82.180.140.214,4,-26,talkerscode.com,IN,Asia,Southern Asia,India,Maharashtra,,Mumbai
190.92.174.36,4,-10,talktoangel.com,IN,Asia,Southern Asia,India,Maharashtra,,Navi Mumbai
43.204.70.131,4,2,tallysolutions.com,IN,Asia,Southern Asia,India,Maharashtra,,Mumbai
65.2.7.208,4,3,tallysolutions.com,IN,Asia,Southern Asia,India,Maharashtra,,Mumbai
35.154.129.76,4,-1,tallysolutions.com,IN,Asia,Southern Asia,India,Maharashtra,,Mumbai
89.117.157.188,4,-19,tamilcinemanews.in,IN,Asia,Southern Asia,India,Maharashtra,,Mumbai
169.38.77.132,4,-11,tamiluniversity.ac.in,IN,Asia,Southern Asia,India,Tamil Nadu,,Chennai
14.139.186.151,4,-36,tanuvas.ac.in,IN,Asia,Southern Asia,India,Union Territory of Puducherry,,Puducherry
13.234.13.7,4,0,tapmi.edu.in,IN,Asia,Southern Asia,India,Maharashtra,,Mumbai
13.200.218.129,4,-2,tapmi.edu.in,IN,Asia,Southern Asia,India,Maharashtra,,Mumbai
3.6.190.49,4,-4,tapmi.edu.in,IN,Asia,Southern Asia,India,Maharashtra,,Mumbai
217.21.95.39,4,-27,tararaajput.in,IN,Asia,Southern Asia,India,Maharashtra,,Mumbai
141.226.255.136,4,9,tciexpress.in,IN,Asia,Southern Asia,India,Tamil Nadu,,Chennai
89.117.27.168,4,-19,teachermall360.com,IN,Asia,Southern Asia,India,Maharashtra,,Mumbai
103.177.225.190,4,-20,teamtie.org,IN,Asia,Southern Asia,India,,,
103.171.45.101,4,17,techcommuters.com,IN,Asia,Southern Asia,India,,,
134.209.144.105,4,43,techgeekbuzz.com,IN,Asia,Southern Asia,India,Karnataka,,Bengaluru
62.72.28.80,4,-2,techglob.com,IN,Asia,Southern Asia,India,Maharashtra,,Mumbai
62.72.28.23,4,27,techhansha.com,IN,Asia,Southern Asia,India,Maharashtra,,Mumbai
139.59.64.170,4,41,techiestate.com,IN,Asia,Southern Asia,India,Karnataka,,Bengaluru
193.203.185.215,4,-9,techitop.com,IN,Asia,Southern Asia,India,Maharashtra,,Mumbai
206.189.140.177,4,33,technitium.com,IN,Asia,Southern Asia,India,Karnataka,,Bengaluru
91.108.107.185,4,-3,techtaalk.com,IN,Asia,Southern Asia,India,Maharashtra,,Mumbai
154.41.233.121,4,40,techtodayinfo.com,IN,Asia,Southern Asia,India,Maharashtra,,Mumbai
13.126.239.227,4,2,techugo.com,IN,Asia,Southern Asia,India,Maharashtra,,Mumbai
89.117.27.76,4,-24,techybusinesses.com,IN,Asia,Southern Asia,India,Maharashtra,,Mumbai
82.180.164.195,4,30,teenavishwas.com,IN,Asia,Southern Asia,India,Maharashtra,,Mumbai
103.191.208.211,4,6,teeshopper.in,IN,Asia,Southern Asia,India,,,
46.28.45.239,4,-17,tekkenindia.in,IN,Asia,Southern Asia,India,Maharashtra,,Mumbai
143.244.130.114,4,-16,telugu360.com,IN,Asia,Southern Asia,India,Karnataka,,Bengaluru
86.38.243.212,4,-4,telugumovieupdates.com,IN,Asia,Southern Asia,India,Maharashtra,,Mumbai
216.10.251.238,4,11840,textileinfomedia.com,IN,Asia,Southern Asia,India,,,
103.255.190.72,4,-31,the-aiff.com,IN,Asia,Southern Asia,India,,,
190.92.174.25,4,-38,the-corporate.com,IN,Asia,Southern Asia,India,Maharashtra,,Navi Mumbai
89.117.157.229,4,-26,theappideas.com,IN,Asia,Southern Asia,India,Maharashtra,,Mumbai
88.222.240.24,4,-28,thebangaloreescorts.in,IN,Asia,Southern Asia,India,Maharashtra,,Mumbai
216.10.244.191,4,768,theblogchatter.com,IN,Asia,Southern Asia,India,,,
164.52.221.36,4,6,thecitizen.in,IN,Asia,Southern Asia,India,,,
93.127.208.211,4,-22,theconsul.com.pk,IN,Asia,Southern Asia,India,Maharashtra,,Mumbai
172.105.42.216,4,1028,thedailychronicle.in,IN,Asia,Southern Asia,India,Maharashtra,,Mumbai
46.28.45.14,4,7,thedigitalmarketingcourses.com,IN,Asia,Southern Asia,India,Maharashtra,,Mumbai
45.79.121.84,4,-12,thefarmkanpur.com,IN,Asia,Southern Asia,India,Maharashtra,,Mumbai
93.127.208.91,4,12,thefinalfactor.com,IN,Asia,Southern Asia,India,Maharashtra,,Mumbai
91.108.107.200,4,14,thegardiaan.com,IN,Asia,Southern Asia,India,Maharashtra,,Mumbai
86.38.243.140,4,-18,thegeneralpost.com,IN,Asia,Southern Asia,India,Maharashtra,,Mumbai
103.119.239.9,4,-30,thegoan.net,IN,Asia,Southern Asia,India,,,
217.21.94.199,4,-13,thegrasscourt.com,IN,Asia,Southern Asia,India,Maharashtra,,Mumbai
82.112.239.137,4,35,thehinditech.com,IN,Asia,Southern Asia,India,Maharashtra,,Mumbai
139.59.63.204,4,29,theindianawaaz.com,IN,Asia,Southern Asia,India,Karnataka,,Bengaluru
217.21.94.150,4,-26,theindiasaga.com,IN,Asia,Southern Asia,India,Maharashtra,,Mumbai
82.112.232.204,4,-25,theinfinix.in,IN,Asia,Southern Asia,India,Maharashtra,,Mumbai
165.22.215.220,4,-14,thelivemirror.com,IN,Asia,Southern Asia,India,Karnataka,,Bengaluru
193.203.186.217,4,-12,thelogictank.com,IN,Asia,Southern Asia,India,Maharashtra,,Mumbai
3.111.186.140,4,-4,thelondonclassiccarshow.co.uk,IN,Asia,Southern Asia,India,Maharashtra,,Mumbai
103.212.120.166,4,-38,themarketingscope.com,IN,Asia,Southern Asia,India,,,
103.209.144.240,4,-22,themoneytimes.com,IN,Asia,Southern Asia,India,,,
89.117.188.194,4,-4,theoctagonsolutions.com,IN,Asia,Southern Asia,India,Maharashtra,,Mumbai
89.117.27.85,4,-4,theonenews.in,IN,Asia,Southern Asia,India,Maharashtra,,Mumbai
164.52.195.248,4,-2,theozencollection.com,IN,Asia,Southern Asia,India,,,
82.112.239.31,4,-23,theplaygamepicks.com,IN,Asia,Southern Asia,India,Maharashtra,,Mumbai
202.154.163.23,4,-17,thermaxglobal.com,IN,Asia,Southern Asia,India,,,
172.105.60.236,4,168991,thesop.org,IN,Asia,Southern Asia,India,Maharashtra,,Mumbai
36.255.3.181,4,-19761425,thesujanlife.com,IN,Asia,Southern Asia,India,,,
34.93.220.137,4,-2,thetechportal.com,IN,Asia,Southern Asia,India,Maharashtra,,Mumbai
35.154.181.1,4,-4,thinkexam.com,IN,Asia,Southern Asia,India,Maharashtra,,Mumbai
3.7.118.76,4,11,thinkexam.com,IN,Asia,Southern Asia,India,Maharashtra,,Mumbai
217.21.91.226,4,-18,thinkshaw.com,IN,Asia,Southern Asia,India,Maharashtra,,Mumbai
192.177.75.51,4,-19,thisismyindia.com,IN,Asia,Southern Asia,India,Maharashtra,,Mumbai
103.187.238.22,4,-22,thumpamonpally.com,IN,Asia,Southern Asia,India,,,
190.92.174.87,4,-31,tiaroygoa.com,IN,Asia,Southern Asia,India,Maharashtra,,Navi Mumbai
134.209.154.170,4,-10,tifac.org.in,IN,Asia,Southern Asia,India,Karnataka,,Bengaluru
89.117.188.59,4,4,timeiconic.com,IN,Asia,Southern Asia,India,Maharashtra,,Mumbai
217.21.89.219,4,-4,timeskuwait.com,IN,Asia,Southern Asia,India,Maharashtra,,Mumbai
148.113.16.239,4,8,timesofsports.com,IN,Asia,Southern Asia,India,Maharashtra,,Mumbai
150.242.201.215,4,18,timessquarereporter.com,IN,Asia,Southern Asia,India,,,
94.136.184.83,4,-16,tiptopface.com,IN,Asia,Southern Asia,India,Maharashtra,,Mumbai
103.36.84.131,4,957003,tiss.edu,IN,Asia,Southern Asia,India,,,
93.127.208.175,4,-21,tmbuniv.ac.in,IN,Asia,Southern Asia,India,Maharashtra,,Mumbai
20.244.126.194,4,30,tnou.ac.in,IN,Asia,Southern Asia,India,Maharashtra,,Pune
65.0.231.136,4,4,tnpl.com,IN,Asia,Southern Asia,India,Maharashtra,,Mumbai
103.230.84.36,4,60089,tnstc.in,IN,Asia,Southern Asia,India,,,
89.117.157.94,4,-25,toodlestudios.com,IN,Asia,Southern Asia,India,Maharashtra,,Mumbai
154.56.54.214,4,-2,topsi.in,IN,Asia,Southern Asia,India,Maharashtra,,Mumbai
195.35.44.167,4,3,tourxperts.com,IN,Asia,Southern Asia,India,Maharashtra,,Mumbai
103.231.126.157,4,-19,townschoolsindia.org,IN,Asia,Southern Asia,India,,,
154.41.255.72,4,-20,trackier.com,IN,Asia,Southern Asia,India,Maharashtra,,Mumbai
103.145.51.237,4,-34,trackmyvehicle.in,IN,Asia,Southern Asia,India,,,
82.112.239.16,4,-9,tradeflock.com,IN,Asia,Southern Asia,India,Maharashtra,,Mumbai
103.191.209.10,4,-15,trainhelp.in,IN,Asia,Southern Asia,India,,,
103.191.209.163,4,-27,transfersandtours.com,IN,Asia,Southern Asia,India,,,
103.160.106.28,4,-24,travelsingh.com,IN,Asia,Southern Asia,India,,,
13.232.79.15,4,-4,treksandtrails.org,IN,Asia,Southern Asia,India,Maharashtra,,Mumbai
89.116.133.223,4,-21,trendingblogsweb.com,IN,Asia,Southern Asia,India,Maharashtra,,Mumbai
139.59.93.32,4,8,trendtoreview.com,IN,Asia,Southern Asia,India,Karnataka,,Bengaluru
209.182.232.230,4,-23,trendybiz.in,IN,Asia,Southern Asia,India,Maharashtra,,Mumbai
93.127.207.72,4,-21,trendyflash.com,IN,Asia,Southern Asia,India,Maharashtra,,Mumbai
103.83.81.68,4,-475159,triomc.co.in,IN,Asia,Southern Asia,India,,,
103.102.234.183,4,0,trirangainfra.com,IN,Asia,Southern Asia,India,,,
148.113.16.132,4,32,trisyscom.com,IN,Asia,Southern Asia,India,Maharashtra,,Mumbai
89.117.157.200,4,-25,tronologic.com,IN,Asia,Southern Asia,India,Maharashtra,,Mumbai
172.105.47.100,4,31,trophykart.in,IN,Asia,Southern Asia,India,Maharashtra,,Mumbai
103.146.40.154,4,-14,truepush.com,IN,Asia,Southern Asia,India,,,
62.72.28.17,4,-23,trumpingstars.com,IN,Asia,Southern Asia,India,Maharashtra,,Mumbai
139.59.76.131,4,-17,trustedteller.com,IN,Asia,Southern Asia,India,Karnataka,,Bengaluru
117.239.151.99,4,-6,tssouthernpower.com,IN,Asia,Southern Asia,India,Andhra Pradesh,,Bpatla
217.21.94.168,4,-13,tubelessons.net,IN,Asia,Southern Asia,India,Maharashtra,,Mumbai
103.20.127.61,4,2,tutorsbureau.net,IN,Asia,Southern Asia,India,,,
217.21.82.58,4,-13,uaehelper.com,IN,Asia,Southern Asia,India,National Capital Territory of Delhi,,New Delhi
192.46.215.131,4,1342,uasd.edu,IN,Asia,Southern Asia,India,Maharashtra,,Mumbai
93.127.207.179,4,-25,ubsapp.com,IN,Asia,Southern Asia,India,Maharashtra,,Mumbai
66.22.97.148,4,-45,ud.ac.ae,IN,Asia,Southern Asia,India,Tamil Nadu,,Chennai
194.238.20.56,4,-23,uinteam.net,IN,Asia,Southern Asia,India,Maharashtra,,Mumbai
103.116.26.121,4,1604,uk.gov.in,IN,Asia,Southern Asia,India,Uttarakhand,,Dehradun
82.112.229.46,4,-13,ulabox.com,IN,Asia,Southern Asia,India,Maharashtra,,Mumbai
77.37.46.216,4,-15,uma-rai.com,IN,Asia,Southern Asia,India,Maharashtra,,Mumbai
3.6.97.142,4,6,uneecops.com,IN,Asia,Southern Asia,India,Maharashtra,,Mumbai
14.139.155.135,4,765059,uni-mysore.ac.in,IN,Asia,Southern Asia,India,Karnataka,,Bengaluru
172.105.58.69,4,-30,unibots.com,IN,Asia,Southern Asia,India,Maharashtra,,Mumbai
194.195.112.193,4,-28,unibots.in,IN,Asia,Southern Asia,India,Maharashtra,,Mumbai
3.110.34.115,4,2,univariety.com,IN,Asia,Southern Asia,India,Maharashtra,,Mumbai
103.205.143.72,4,11,universalhunt.com,IN,Asia,Southern Asia,India,Maharashtra,,Ghansoli
66.22.93.239,4,31,universalsompo.com,IN,Asia,Southern Asia,India,Tamil Nadu,,Chennai
103.247.19.126,4,24,universitydunia.com,IN,Asia,Southern Asia,India,,,
103.116.81.114,4,-32,uok.ac.in,IN,Asia,Southern Asia,India,,,
220.158.147.70,4,776,upbasiceduboard.gov.in,IN,Asia,Southern Asia,India,,,
122.176.123.95,4,-21,updigitaldiary.in,IN,Asia,Southern Asia,India,National Capital Territory of Delhi,,New Delhi
103.86.177.174,4,-30,uppervote.com,IN,Asia,Southern Asia,India,,,
103.13.114.243,4,-33,uppl.in,IN,Asia,Southern Asia,India,Maharashtra,,Panvel
14.139.237.190,4,-53805628,uprtou.ac.in,IN,Asia,Southern Asia,India,Uttar Pradesh,,Lucknow
220.158.147.67,4,8,uptourism.gov.in,IN,Asia,Southern Asia,India,,,
154.41.233.95,4,-26,usatoptrand.com,IN,Asia,Southern Asia,India,Maharashtra,,Mumbai
119.18.52.195,4,-16,ushadestinations.com,IN,Asia,Southern Asia,India,,,
103.116.27.27,4,1591,uttarakhandtourism.gov.in,IN,Asia,Southern Asia,India,,,
91.108.107.234,4,-23,uvelichenie-gub-minsk.ru,IN,Asia,Southern Asia,India,Maharashtra,,Mumbai
91.108.107.103,4,-23,vachanbaddh.com,IN,Asia,Southern Asia,India,Maharashtra,,Mumbai
103.50.161.192,4,164,vahrehvah.com,IN,Asia,Southern Asia,India,,,
119.235.48.3,4,-27,VAINAVI INDUSTIES LTD. INTERNET SERVICE PROVIDER. INDIA,IN,Asia,Southern Asia,India,Telangana,,Hyderabad
13.126.203.5,4,11,vakilsearch.com,IN,Asia,Southern Asia,India,Maharashtra,,Mumbai
157.245.105.53,4,-8,vanitynoapologies.com,IN,Asia,Southern Asia,India,Karnataka,,Bengaluru
193.203.185.159,4,-8,vansika.in,IN,Asia,Southern Asia,India,Maharashtra,,Mumbai
65.20.70.124,4,15,vapshop.ae,IN,Asia,Southern Asia,India,Maharashtra,,Mumbai
103.120.179.212,4,-18,varanasitutor.com,IN,Asia,Southern Asia,India,,,
93.127.169.210,4,-25,varindia.com,IN,Asia,Southern Asia,India,Maharashtra,,Mumbai
216.48.185.30,4,26,varthabharati.in,IN,Asia,Southern Asia,India,,,
89.117.157.90,4,3,vastusolution.co.in,IN,Asia,Southern Asia,India,Maharashtra,,Mumbai
45.113.224.7,4,-22,vbriudaipur.org,IN,Asia,Southern Asia,India,Maharashtra,,Panvel
89.117.157.63,4,-16,veganscure.com,IN,Asia,Southern Asia,India,Maharashtra,,Mumbai
172.105.52.49,4,-17,vegaslens.com,IN,Asia,Southern Asia,India,Maharashtra,,Mumbai
65.2.118.145,4,4,venuebookingz.com,IN,Asia,Southern Asia,India,Maharashtra,,Mumbai
62.72.28.21,4,-20,venueindelhi.com,IN,Asia,Southern Asia,India,Maharashtra,,Mumbai
103.171.180.169,4,-12,vergingoaescorts.com,IN,Asia,Southern Asia,India,,,
65.20.85.170,4,16,ves.ac.in,IN,Asia,Southern Asia,India,Maharashtra,,Mumbai
88.222.245.253,4,-15,viceroybali.com,IN,Asia,Southern Asia,India,Maharashtra,,Mumbai
103.253.125.191,4,-24,viewcom.co.in,IN,Asia,Southern Asia,India,,,
103.25.130.79,4,14,vikramuniv.ac.in,IN,Asia,Southern Asia,India,,,
45.10.192.39,4,-15,vinsys.com,IN,Asia,Southern Asia,India,Maharashtra,,Mumbai
89.117.188.80,4,-4,vipdamangames.com,IN,Asia,Southern Asia,India,Maharashtra,,Mumbai
82.112.232.211,4,-28,vipraipurescorts.com,IN,Asia,Southern Asia,India,Maharashtra,,Mumbai
34.93.52.48,4,1,vishvasnews.com,IN,Asia,Southern Asia,India,Maharashtra,,Mumbai
139.84.172.139,4,-4,visualaidscentre.com,IN,Asia,Southern Asia,India,Uttar Pradesh,,Noida
103.14.99.163,4,-48,visvabharati.ac.in,IN,Asia,Southern Asia,India,Maharashtra,,Mumbai
89.116.134.167,4,-22,vitebsk-kurier.info,IN,Asia,Southern Asia,India,Maharashtra,,Mumbai
101.53.148.59,4,10,vixenindia.com,IN,Asia,Southern Asia,India,,,
91.108.107.3,4,-25,vkamagras.cyou,IN,Asia,Southern Asia,India,Maharashtra,,Mumbai
103.159.85.189,4,-22,vmaxo.com,IN,Asia,Southern Asia,India,,,
124.108.19.234,4,49,vnbrims.org,IN,Asia,Southern Asia,India,,,
143.110.247.168,4,10,voilathemes.com,IN,Asia,Southern Asia,India,Karnataka,,Bengaluru
89.117.157.48,4,-22,volgatigris.com,IN,Asia,Southern Asia,India,Maharashtra,,Mumbai
93.127.208.68,4,-22,vprov.com,IN,Asia,Southern Asia,India,Maharashtra,,Mumbai
103.83.194.61,4,2,vspmdcrc.edu.in,IN,Asia,Southern Asia,India,Maharashtra,,Pune
103.160.107.213,4,828,vspmscop.edu.in,IN,Asia,Southern Asia,India,,,
65.20.73.59,4,-3,vssut.ac.in,IN,Asia,Southern Asia,India,Maharashtra,,Mumbai
193.203.185.216,4,-22,vvipescort.com,IN,Asia,Southern Asia,India,Maharashtra,,Mumbai
103.120.178.103,4,-26,w3sniff.com,IN,Asia,Southern Asia,India,,,
93.127.208.162,4,-8,walikali.com,IN,Asia,Southern Asia,India,Maharashtra,,Mumbai
82.112.233.75,4,-21,washingtonnewspost.com,IN,Asia,Southern Asia,India,Maharashtra,,Mumbai
82.112.232.120,4,-7,watertreatmentuae.com,IN,Asia,Southern Asia,India,Maharashtra,,Mumbai
103.174.10.42,4,-13,wavefrontech.com,IN,Asia,Southern Asia,India,,,
103.146.40.133,4,-55,way2sms.com,IN,Asia,Southern Asia,India,,,
103.107.66.204,4,29,wbtourismgov.in,IN,Asia,Southern Asia,India,,,
93.127.195.140,4,4,web3devcommunity.com,IN,Asia,Southern Asia,India,Maharashtra,,Mumbai
103.25.128.115,4,-8,webhopers.com,IN,Asia,Southern Asia,India,,,
157.173.216.178,4,-10,webindia.com,IN,Asia,Southern Asia,India,Maharashtra,,Mumbai
35.200.182.220,4,0,weblinkindia.net,IN,Asia,Southern Asia,India,Maharashtra,,Mumbai
82.112.232.149,4,-24,webnonline.com,IN,Asia,Southern Asia,India,Maharashtra,,Mumbai
82.112.229.213,4,-2,webpuran.in,IN,Asia,Southern Asia,India,Maharashtra,,Mumbai
103.250.186.145,4,-3,websites.co.in,IN,Asia,Southern Asia,India,Maharashtra,,Pune
193.203.185.165,4,-18,webtiks.com,IN,Asia,Southern Asia,India,Maharashtra,,Mumbai
103.190.243.3,4,-294,webvk.in,IN,Asia,Southern Asia,India,,,
180.149.240.246,4,-20,webwerks.in,IN,Asia,Southern Asia,India,,,
101.53.141.8,4,0,wecapable.com,IN,Asia,Southern Asia,India,,,
89.116.133.4,4,11,weeklynewsmania.com,IN,Asia,Southern Asia,India,Maharashtra,,Mumbai
89.117.157.73,4,-19,weldingmachinemanufacturer.com,IN,Asia,Southern Asia,India,Maharashtra,,Mumbai
217.21.95.95,4,-24,welnesbiolabs.com,IN,Asia,Southern Asia,India,Maharashtra,,Mumbai
217.21.88.115,4,-23,whataftercollege.com,IN,Asia,Southern Asia,India,Maharashtra,,Mumbai
195.35.44.71,4,-22,whatsnews4today.com,IN,Asia,Southern Asia,India,Maharashtra,,Mumbai
103.174.103.81,4,0,wikitechy.com,IN,Asia,Southern Asia,India,,,
139.59.40.179,4,-11,willcraftsports.com,IN,Asia,Southern Asia,India,Karnataka,,Bengaluru
139.59.31.42,4,-2,winayak.com,IN,Asia,Southern Asia,India,Karnataka,,Bengaluru
36.50.82.203,4,-4,winetoday.org,IN,Asia,Southern Asia,India,,,
190.92.174.39,4,-34,wingatestgeorge.com,IN,Asia,Southern Asia,India,Maharashtra,,Navi Mumbai
103.212.120.60,4,-42,wingsmypost.com,IN,Asia,Southern Asia,India,,,
139.59.72.216,4,13,wirally.com,IN,Asia,Southern Asia,India,Karnataka,,Bengaluru
103.171.181.99,4,-36,wirc-icai.org,IN,Asia,Southern Asia,India,,,
180.188.226.248,4,-34,wishavwarta.in,IN,Asia,Southern Asia,India,,,
89.117.157.37,4,-15,wishwantwear.com,IN,Asia,Southern Asia,India,Maharashtra,,Mumbai
82.112.232.117,4,-14,withlovemoni.com,IN,Asia,Southern Asia,India,Maharashtra,,Mumbai
82.112.232.236,4,-16,wittyflick.com,IN,Asia,Southern Asia,India,Maharashtra,,Mumbai
142.93.209.161,4,-18,wolfwinner-casinos.com,IN,Asia,Southern Asia,India,Karnataka,,Bengaluru
82.112.229.5,4,-26,wootique.in,IN,Asia,Southern Asia,India,Maharashtra,,Mumbai
68.183.245.121,4,14,wordpandit.com,IN,Asia,Southern Asia,India,Karnataka,,Bengaluru
172.105.63.118,4,-21,workingment.com,IN,Asia,Southern Asia,India,Maharashtra,,Mumbai
157.173.217.221,4,-20,worldranklist.com,IN,Asia,Southern Asia,India,Maharashtra,,Mumbai
103.191.209.65,4,-16,wpschoolpress.com,IN,Asia,Southern Asia,India,,,
46.28.45.167,4,-6,writememyessay.com,IN,Asia,Southern Asia,India,Maharashtra,,Mumbai
46.28.45.95,4,-11,writinglaw.com,IN,Asia,Southern Asia,India,Maharashtra,,Mumbai
206.189.135.107,4,-11,wrytin.com,IN,Asia,Southern Asia,India,Karnataka,,Bengaluru
86.38.243.236,4,-15,www.airjordanretro.uk,IN,Asia,Southern Asia,India,Maharashtra,,Mumbai
14.195.24.149,4,455766,xfurbish.com,IN,Asia,Southern Asia,India,Karnataka,,Bengaluru
146.88.24.113,4,3,ximivogueretail.com,IN,Asia,Southern Asia,India,,,
93.127.168.97,4,17,xn--c3ca4bdv0add2d4dgtbbt8oqf.com,IN,Asia,Southern Asia,India,Maharashtra,,Mumbai
20.244.107.99,4,70,xn--rhq366gmcx82d.pom-awsseo.top,IN,Asia,Southern Asia,India,Maharashtra,,Pune
93.127.208.101,4,-22,xuzpost.com,IN,Asia,Southern Asia,India,Maharashtra,,Mumbai
192.177.75.217,4,-33,yaallah.in,IN,Asia,Southern Asia,India,Maharashtra,,Mumbai
193.202.44.31,4,-19,yaina.in,IN,Asia,Southern Asia,India,Maharashtra,,Mumbai
34.131.232.146,4,20,yarimcakoyu.com,IN,Asia,Southern Asia,India,National Capital Territory of Delhi,,New Delhi
46.28.45.242,4,-25,yasirelectronics.com,IN,Asia,Southern Asia,India,Maharashtra,,Mumbai
138.128.180.234,4,-150,ycmou.ac.in,IN,Asia,Southern Asia,India,Kerala,,Thiruvananthapuram
217.21.85.178,4,-22,ydfindia.org,IN,Asia,Southern Asia,India,Maharashtra,,Mumbai
193.203.187.236,4,-24,yeahhub.com,IN,Asia,Southern Asia,India,Maharashtra,,Mumbai
217.21.95.16,4,-24,yogitechsolutions.com,IN,Asia,Southern Asia,India,Maharashtra,,Mumbai
66.22.93.47,4,7,yotta.com,IN,Asia,Southern Asia,India,Tamil Nadu,,Chennai
14.139.228.200,4,31,yspuniversity.ac.in,IN,Asia,Southern Asia,India,Haryana,,Faridabad
148.113.6.186,4,-8,yt2fb.com,IN,Asia,Southern Asia,India,Maharashtra,,Mumbai
45.79.124.13,4,-16,yukaichou.com,IN,Asia,Southern Asia,India,Maharashtra,,Mumbai
65.254.81.133,4,72,yuvajobs.com,IN,Asia,Southern Asia,India,,,
89.117.27.153,4,-15,zaidpatel.com,IN,Asia,Southern Asia,India,Maharashtra,,Mumbai
65.2.95.52,4,-3,ziyyara.com,IN,Asia,Southern Asia,India,Maharashtra,,Mumbai
13.126.99.180,4,-3,ziyyara.com,IN,Asia,Southern Asia,India,Maharashtra,,Mumbai
13.233.210.132,4,1,ziyyara.in,IN,Asia,Southern Asia,India,Maharashtra,,Mumbai
13.127.53.90,4,-3,ziyyara.in,IN,Asia,Southern Asia,India,Maharashtra,,Mumbai
103.247.96.123,4,2,znetlive.com,IN,Asia,Southern Asia,India,Rajasthan,,Jaipur
103.103.196.97,4,1,zoho.in,IN,Asia,Southern Asia,India,,,
103.103.196.63,4,8,zohosites.in,IN,Asia,Southern Asia,India,,,
35.154.156.55,4,17,zostel.com,IN,Asia,Southern Asia,India,Maharashtra,,Mumbai
23.50.252.70,4,-21,zycus.com,IN,Asia,Southern Asia,India,Maharashtra,,Mumbai
190.92.174.33,4,-38,zyri.net,IN,Asia,Southern Asia,India,Maharashtra,,Navi Mumbai
