reflector_ip,ip_version,offset,description,country_code,region,sub_region,country_name,sub_division_1,sub_division_2,city
185.55.227.78,4,7,110host.ir,IR,Asia,Southern Asia,Iran,,,
80.249.115.157,4,3,20i.ir,IR,Asia,Southern Asia,Iran,,,
185.49.84.237,4,179,20script.ir,IR,Asia,Southern Asia,Iran,,,
185.49.85.38,4,175,2ad.ir,IR,Asia,Southern Asia,Iran,,,
45.144.19.85,4,61111,30book.com,IR,Asia,Southern Asia,Iran,,,
185.49.85.41,4,3,3dupstudio.net,IR,Asia,Southern Asia,Iran,,,
87.236.209.90,4,9,3tarebaran.ir,IR,Asia,Southern Asia,Iran,,,
185.211.57.7,4,635,9191.ir,IR,Asia,Southern Asia,Iran,Tehran,,Tehran
185.142.156.133,4,3,abna24.com,IR,Asia,Southern Asia,Iran,,,
5.144.130.159,4,-38815,abrarnews.com,IR,Asia,Southern Asia,Iran,Tehran,,Tehran
89.235.79.24,4,321902,account4all.ir,IR,Asia,Southern Asia,Iran,Tehran,,Tehran
45.92.92.144,4,14558,afffb.com,IR,Asia,Southern Asia,Iran,Tehran,,Tehran
45.135.241.131,4,6,aftabeghtesad.com,IR,Asia,Southern Asia,Iran,,,
185.142.158.194,4,7,aftabevarzeshi.ir,IR,Asia,Southern Asia,Iran,,,
194.41.49.31,4,-9,aftabnews.ir,IR,Asia,Southern Asia,Iran,,,
185.120.221.253,4,529,afzoneha.com,IR,Asia,Southern Asia,Iran,,,
185.53.143.211,4,4,ahuradetector.com,IR,Asia,Southern Asia,Iran,,,
185.129.168.35,4,35,aira.ir,IR,Asia,Southern Asia,Iran,,,
79.175.170.215,4,14,akharinkhabar.ir,IR,Asia,Southern Asia,Iran,,,
185.120.222.171,4,180,akharinnews.com,IR,Asia,Southern Asia,Iran,,,
185.129.168.51,4,327,akkasee.com,IR,Asia,Southern Asia,Iran,,,
195.28.169.77,4,10,alosalammoshaver.ir,IR,Asia,Southern Asia,Iran,,,
217.218.56.33,4,4272,alzahra.ac.ir,IR,Asia,Southern Asia,Iran,Tehran,,Tehran
185.165.116.19,4,20,amolemrooz.ir,IR,Asia,Southern Asia,Iran,,,
94.182.146.105,4,9,ana.ir,IR,Asia,Southern Asia,Iran,,,
45.139.11.181,4,75,andishebooks.com,IR,Asia,Southern Asia,Iran,,,
5.63.13.25,4,17,anjammidam.com,IR,Asia,Southern Asia,Iran,Tehran,,Tehran
195.28.168.12,4,7,anthropology.ir,IR,Asia,Southern Asia,Iran,,,
185.147.178.14,4,2,aparat.com,IR,Asia,Southern Asia,Iran,,,
185.147.178.11,4,3,aparat.com,IR,Asia,Southern Asia,Iran,,,
185.147.178.13,4,12,aparat.com,IR,Asia,Southern Asia,Iran,,,
185.147.178.12,4,18,aparat.com,IR,Asia,Southern Asia,Iran,,,
94.182.178.111,4,65,aranika.com,IR,Asia,Southern Asia,Iran,,,
185.120.222.166,4,537,arga-mag.com,IR,Asia,Southern Asia,Iran,,,
185.164.72.41,4,1688,arioo.ir,IR,Asia,Southern Asia,Iran,,,
185.191.78.28,4,-16201683,ariosazeh.com,IR,Asia,Southern Asia,Iran,,,
195.28.10.103,4,48,armandaily.ir,IR,Asia,Southern Asia,Iran,,,
185.116.160.41,4,9,arsheet.ir,IR,Asia,Southern Asia,Iran,Tehran,,Tehran
78.38.27.17,4,38546,arums.ac.ir,IR,Asia,Southern Asia,Iran,,,
193.141.65.210,4,12,aryajob.com,IR,Asia,Southern Asia,Iran,,,
80.249.115.108,4,10,asaare.co,IR,Asia,Southern Asia,Iran,,,
195.28.10.122,4,5,asalemehregan.com,IR,Asia,Southern Asia,Iran,,,
185.49.85.39,4,393,asandl.com,IR,Asia,Southern Asia,Iran,,,
185.164.72.167,4,-23558,asblog.ir,IR,Asia,Southern Asia,Iran,,,
188.0.240.12,4,6,ascharter.ir,IR,Asia,Southern Asia,Iran,Tehran,,Tehran
91.207.205.21,4,18,askhedmat.ir,IR,Asia,Southern Asia,Iran,,,
94.182.146.114,4,18,asriran.com,IR,Asia,Southern Asia,Iran,,,
87.107.133.110,4,-128265,avapress.com,IR,Asia,Southern Asia,Iran,,,
195.28.169.38,4,40,avazak.ir,IR,Asia,Southern Asia,Iran,,,
85.185.1.117,4,31997,azaruniv.ac.ir,IR,Asia,Southern Asia,Iran,,,
195.28.169.49,4,20,azmag.ir,IR,Asia,Southern Asia,Iran,,,
88.135.41.207,4,4,b88.ir,IR,Asia,Southern Asia,Iran,,,
178.239.158.49,4,254,baamardom.ir,IR,Asia,Southern Asia,Iran,,,
185.105.187.160,4,6,bahaline.com,IR,Asia,Southern Asia,Iran,,,
5.144.130.141,4,6,bahamayesh.com,IR,Asia,Southern Asia,Iran,Tehran,,Tehran
94.182.184.60,4,9,baharnews.ir,IR,Asia,Southern Asia,Iran,,,
194.31.194.168,4,16,bahesab.ir,IR,Asia,Southern Asia,Iran,,,
195.28.10.51,4,11,bahmanbamzad.ir,IR,Asia,Southern Asia,Iran,,,
176.97.220.90,4,6,banki.ir,IR,Asia,Southern Asia,Iran,,,
193.141.65.82,4,6,baranpatogh.ir,IR,Asia,Southern Asia,Iran,,,
195.226.223.214,4,27,barnamenevis.org,IR,Asia,Southern Asia,Iran,,,
185.208.79.200,4,16509,bartarazkhod.ir,IR,Asia,Southern Asia,Iran,Tehran,,Tehran
195.28.169.45,4,25,bartarnahal.ir,IR,Asia,Southern Asia,Iran,,,
62.60.199.199,4,132,basalam.com,IR,Asia,Southern Asia,Iran,,,
130.185.75.69,4,-28,bashgah.net,IR,Asia,Southern Asia,Iran,,,
194.41.49.83,4,10,basirat.ir,IR,Asia,Southern Asia,Iran,,,
185.112.150.13,4,13,bazdeh.org,IR,Asia,Southern Asia,Iran,,,
194.59.214.210,4,2,baztab.ir,IR,Asia,Southern Asia,Iran,,,
87.107.152.246,4,3,behmaster.com,IR,Asia,Southern Asia,Iran,,,
217.144.107.107,4,9,behzistiardabil.ir,IR,Asia,Southern Asia,Iran,,,
94.241.169.129,4,-19,belydom.ru,IR,Asia,Southern Asia,Iran,,,
193.151.136.227,4,765,beytoote.com,IR,Asia,Southern Asia,Iran,,,
185.81.97.5,4,11,bigsite.ir,IR,Asia,Southern Asia,Iran,,,
185.116.161.66,4,3,bijhan.ir,IR,Asia,Southern Asia,Iran,Tehran,,Tehran
178.216.251.231,4,3,bilgates.ir,IR,Asia,Southern Asia,Iran,,,
77.238.122.145,4,-39,bir-music.com,IR,Asia,Southern Asia,Iran,,,
91.207.205.22,4,3,bizzone.ir,IR,Asia,Southern Asia,Iran,,,
195.28.10.101,4,4,bkalam.ir,IR,Asia,Southern Asia,Iran,,,
80.249.115.26,4,40,bmwnorouzi.com,IR,Asia,Southern Asia,Iran,,,
185.94.99.248,4,16,borna-idees.ir,IR,Asia,Southern Asia,Iran,,,
194.41.49.59,4,11,borna.news,IR,Asia,Southern Asia,Iran,,,
45.159.197.187,4,7,bornanews.ir,IR,Asia,Southern Asia,Iran,,,
194.41.49.15,4,16,boursenews.ir,IR,Asia,Southern Asia,Iran,,,
31.214.174.113,4,3,bpums.ac.ir,IR,Asia,Southern Asia,Iran,Tehran,,Tehran
194.41.49.43,4,-21,bultannews.com,IR,Asia,Southern Asia,Iran,,,
94.182.154.68,4,3,caketasviri.com,IR,Asia,Southern Asia,Iran,,,
185.191.77.245,4,9,celine-handbags.org,IR,Asia,Southern Asia,Iran,,,
93.115.151.102,4,2,charkhoneh.com,IR,Asia,Southern Asia,Iran,Tehran,,Tehran
185.49.85.131,4,-364,chetor.com,IR,Asia,Southern Asia,Iran,,,
194.59.214.104,4,8,chibepoosham.com,IR,Asia,Southern Asia,Iran,,,
194.59.214.110,4,2,chidaneh.com,IR,Asia,Southern Asia,Iran,,,
195.28.169.29,4,7,chinesecarrepairshop.ir,IR,Asia,Southern Asia,Iran,,,
185.147.178.26,4,4,cinematicket.org,IR,Asia,Southern Asia,Iran,,,
193.151.151.191,4,10,citna.ir,IR,Asia,Southern Asia,Iran,,,
185.128.136.48,4,11,civilica.com,IR,Asia,Southern Asia,Iran,,,
195.28.168.87,4,41,clinictarhvareh.com,IR,Asia,Southern Asia,Iran,,,
31.7.73.180,4,35,cloob-tools.ir,IR,Asia,Southern Asia,Iran,,,
130.185.75.41,4,11,cloudsite.ir,IR,Asia,Southern Asia,Iran,,,
185.164.72.245,4,11,codeart3d.com,IR,Asia,Southern Asia,Iran,,,
87.236.209.235,4,1264,codetools.ir,IR,Asia,Southern Asia,Iran,,,
185.120.221.248,4,-1305,companychrokurd.com,IR,Asia,Southern Asia,Iran,,,
195.28.168.93,4,13,cooldl.net,IR,Asia,Southern Asia,Iran,,,
62.204.61.68,4,58,coralie-de-france.com,IR,Asia,Southern Asia,Iran,,,
45.139.11.193,4,2,dahouse.ir,IR,Asia,Southern Asia,Iran,,,
185.147.163.70,4,20413,dalfak.com,IR,Asia,Southern Asia,Iran,,,
79.175.166.102,4,7,damatajhiz.com,IR,Asia,Southern Asia,Iran,,,
185.141.168.59,4,11,dana.ir,IR,Asia,Southern Asia,Iran,,,
195.28.10.78,4,0,danakgem.com,IR,Asia,Southern Asia,Iran,,,
31.214.174.105,4,5,danayab.com,IR,Asia,Southern Asia,Iran,Tehran,,Tehran
185.159.154.5,4,4,daneshchi.ir,IR,Asia,Southern Asia,Iran,,,
185.213.165.104,4,4,darookhaneonline.com,IR,Asia,Southern Asia,Iran,Tehran,,Tehran
185.78.21.33,4,6,darukade.com,IR,Asia,Southern Asia,Iran,,,
46.209.161.116,4,-4,dchq.ir,IR,Asia,Southern Asia,Iran,,,
194.41.49.18,4,6,defapress.ir,IR,Asia,Southern Asia,Iran,,,
185.120.222.246,4,180,delgarm.com,IR,Asia,Southern Asia,Iran,,,
185.164.72.121,4,35,dentist-kids.net,IR,Asia,Southern Asia,Iran,,,
185.191.78.228,4,1,derby.ir,IR,Asia,Southern Asia,Iran,,,
87.107.190.220,4,46,dev-wp.ir,IR,Asia,Southern Asia,Iran,,,
193.176.243.117,4,10,devnull.ir,IR,Asia,Southern Asia,Iran,,,
195.28.168.19,4,5,deyblog.ir,IR,Asia,Southern Asia,Iran,,,
94.182.87.150,4,9,didar.me,IR,Asia,Southern Asia,Iran,,,
46.245.92.85,4,25,digi-follower.com,IR,Asia,Southern Asia,Iran,,,
185.188.104.10,4,4,digikala.com,IR,Asia,Southern Asia,Iran,,,
185.188.105.11,4,3,digistyle.com,IR,Asia,Southern Asia,Iran,,,
185.188.104.12,4,4,digistyle.com,IR,Asia,Southern Asia,Iran,,,
185.188.105.10,4,17,digistyle.com,IR,Asia,Southern Asia,Iran,,,
185.188.104.13,4,4,digistyle.com,IR,Asia,Southern Asia,Iran,,,
185.188.106.11,4,4,digistyle.com,IR,Asia,Southern Asia,Iran,,,
185.188.105.12,4,4,digistyle.com,IR,Asia,Southern Asia,Iran,,,
185.188.107.10,4,24,digistyle.com,IR,Asia,Southern Asia,Iran,,,
185.188.104.11,4,10,digistyle.com,IR,Asia,Southern Asia,Iran,,,
185.188.106.10,4,8,digistyle.com,IR,Asia,Southern Asia,Iran,,,
5.160.139.86,4,14,divarban.ir,IR,Asia,Southern Asia,Iran,,,
185.159.153.88,4,7,dl-zabankadeh-markazi.ir,IR,Asia,Southern Asia,Iran,,,
185.161.112.33,4,43,DNS Server: fw1.parvazsys.ir,IR,Asia,Southern Asia,Iran,,,
185.161.112.34,4,26,DNS Server: fw2.parvazsys.ir,IR,Asia,Southern Asia,Iran,,,
37.156.145.21,4,378,DNS Server: linux-zone.org,IR,Asia,Southern Asia,Iran,Tehran,,Tehran
178.252.167.150,4,-3,doe.ir,IR,Asia,Southern Asia,Iran,,,
45.156.184.28,4,9306,donyayekhabar.com,IR,Asia,Southern Asia,Iran,,,
178.22.120.244,4,2,donyayekhodro.com,IR,Asia,Southern Asia,Iran,,,
178.21.161.12,4,6,doostihaa.com,IR,Asia,Southern Asia,Iran,,,
185.173.104.98,4,24,dotabaz.com,IR,Asia,Southern Asia,Iran,Tehran,,Tehran
185.173.104.194,4,30,download.ir,IR,Asia,Southern Asia,Iran,Tehran,,Tehran
79.127.127.24,4,10,download1music.ir,IR,Asia,Southern Asia,Iran,,,
79.127.127.25,4,10,downloadha.com,IR,Asia,Southern Asia,Iran,,,
185.120.222.190,4,15,downloadly.ir,IR,Asia,Southern Asia,Iran,,,
185.164.72.191,4,-3,drghafariortho.com,IR,Asia,Southern Asia,Iran,,,
185.165.116.24,4,43,drgolbargmehrpoor.com,IR,Asia,Southern Asia,Iran,,,
185.86.181.103,4,278,drmahtabmostofizadeh.com,IR,Asia,Southern Asia,Iran,,,
80.249.115.146,4,6,drnouriazar.com,IR,Asia,Southern Asia,Iran,,,
94.182.175.12,4,2791,drsorkheilab.com,IR,Asia,Southern Asia,Iran,,,
195.28.168.114,4,2,dsis-conf.net,IR,Asia,Southern Asia,Iran,,,
185.236.36.240,4,6,e-estekhdam.com,IR,Asia,Southern Asia,Iran,,,
185.236.36.239,4,-4,e-estekhdam.com,IR,Asia,Southern Asia,Iran,,,
45.149.77.5,4,42,ebtekarnews.com,IR,Asia,Southern Asia,Iran,,,
94.74.145.24,4,7,eca.ir,IR,Asia,Southern Asia,Iran,,,
185.51.200.101,4,10,eghamat24.com,IR,Asia,Southern Asia,Iran,,,
194.41.49.56,4,5,eghtesaad24.ir,IR,Asia,Southern Asia,Iran,,,
194.41.49.114,4,5,eghtesadonline.com,IR,Asia,Southern Asia,Iran,,,
185.191.78.74,4,124464,ekhtebar.com,IR,Asia,Southern Asia,Iran,,,
88.135.36.50,4,1357128,emaoptic.com,IR,Asia,Southern Asia,Iran,,,
185.231.114.146,4,22371,emdad.ir,IR,Asia,Southern Asia,Iran,,,
217.144.107.50,4,22,emdadkhodro-apadana.com,IR,Asia,Southern Asia,Iran,,,
45.159.149.144,4,3,enoe.ir,IR,Asia,Southern Asia,Iran,,,
194.41.49.92,4,2,entekhab.ir,IR,Asia,Southern Asia,Iran,,,
185.53.140.21,4,-5,evnd.co,IR,Asia,Southern Asia,Iran,,,
195.28.168.58,4,10,expertdoctor.ir,IR,Asia,Southern Asia,Iran,,,
194.41.49.69,4,-10,fararu.com,IR,Asia,Southern Asia,Iran,,,
45.139.11.252,4,0,farda4farda.com,IR,Asia,Southern Asia,Iran,,,
80.249.115.170,4,21,farhadteb.com,IR,Asia,Southern Asia,Iran,,,
5.63.8.243,4,13,farsrig.com,IR,Asia,Southern Asia,Iran,Tehran,,Tehran
193.151.142.196,4,7,farsroid.com,IR,Asia,Southern Asia,Iran,,,
109.230.206.177,4,2052,fcesteghlal.ir,IR,Asia,Southern Asia,Iran,Tehran,,Tehran
45.138.134.61,4,3871,felezyab-momtaz.ir,IR,Asia,Southern Asia,Iran,Tehran,,Tehran
185.147.178.23,4,47,filimo.com,IR,Asia,Southern Asia,Iran,,,
103.216.62.11,4,1,financialtribune.com,IR,Asia,Southern Asia,Iran,,,
5.144.130.45,4,8994,find-way.net,IR,Asia,Southern Asia,Iran,Tehran,,Tehran
45.94.252.222,4,3,fontiran.com,IR,Asia,Southern Asia,Iran,,,
185.239.107.144,4,5,forsatnet.ir,IR,Asia,Southern Asia,Iran,,,
94.182.178.53,4,93,frandroidd.com,IR,Asia,Southern Asia,Iran,,,
194.48.198.32,4,6,freetemplates.ir,IR,Asia,Southern Asia,Iran,,,
80.249.112.131,4,8,fullkade.com,IR,Asia,Southern Asia,Iran,,,
185.190.39.223,4,-9133,fullsho.com,IR,Asia,Southern Asia,Iran,,,
77.238.120.242,4,22,gap.im,IR,Asia,Southern Asia,Iran,,,
80.191.248.23,4,49,gau.ac.ir,IR,Asia,Southern Asia,Iran,,,
194.41.49.94,4,16,gerdab.ir,IR,Asia,Southern Asia,Iran,,,
185.120.222.184,4,7,getandroid.ir,IR,Asia,Southern Asia,Iran,,,
185.129.169.65,4,754363,ghafaridiet.com,IR,Asia,Southern Asia,Iran,,,
185.120.221.44,4,65,ghasedak24.com,IR,Asia,Southern Asia,Iran,,,
185.223.160.48,4,3,ghasemtorabi.ir,IR,Asia,Southern Asia,Iran,,,
89.42.210.181,4,15,gilkhabar.ir,IR,Asia,Southern Asia,Iran,,,
89.42.210.182,4,18,gilkhabar.ir,IR,Asia,Southern Asia,Iran,,,
87.107.30.149,4,7,gisoom.com,IR,Asia,Southern Asia,Iran,,,
185.173.129.205,4,3,gitgo.ir,IR,Asia,Southern Asia,Iran,,,
195.28.168.60,4,11,globaltechharbor.ir,IR,Asia,Southern Asia,Iran,,,
5.63.13.218,4,8,goftino.com,IR,Asia,Southern Asia,Iran,Tehran,,Tehran
178.239.158.58,4,-75,gold-hyip.com,IR,Asia,Southern Asia,Iran,,,
103.216.61.154,4,-1632,googlekar.ir,IR,Asia,Southern Asia,Iran,,,
185.49.84.230,4,188,gooyait.com,IR,Asia,Southern Asia,Iran,,,
185.173.104.211,4,-89,gosafir.com,IR,Asia,Southern Asia,Iran,Tehran,,Tehran
185.88.153.71,4,-89605,goums.ac.ir,IR,Asia,Southern Asia,Iran,,,
185.13.231.195,4,2,gsm.ir,IR,Asia,Southern Asia,Iran,,,
185.2.14.189,4,43,hadafresearch.com,IR,Asia,Southern Asia,Iran,Tehran,,Tehran
31.214.250.100,4,5,hamayeshniroo.com,IR,Asia,Southern Asia,Iran,Tehran,,Tehran
130.185.75.184,4,2,hamdardi.net,IR,Asia,Southern Asia,Iran,,,
185.88.178.78,4,4,hamshahri.org,IR,Asia,Southern Asia,Iran,,,
178.22.120.242,4,10,hamshahrionline.ir,IR,Asia,Southern Asia,Iran,,,
195.28.168.104,4,14,hamtagasht.ir,IR,Asia,Southern Asia,Iran,,,
95.81.92.205,4,-73,hamyarwp.com,IR,Asia,Southern Asia,Iran,Tehran,,Tehran
185.88.177.3,4,138,hellocode.ir,IR,Asia,Southern Asia,Iran,,,
185.112.151.244,4,287,hexdl.com,IR,Asia,Southern Asia,Iran,,,
171.22.26.205,4,3594089,heyvagroup.com,IR,Asia,Southern Asia,Iran,,,
146.19.212.161,4,4,heyvalaw.com,IR,Asia,Southern Asia,Iran,,,
185.159.153.125,4,0,hibitsoft.ir,IR,Asia,Southern Asia,Iran,,,
193.8.95.83,4,21,hillbilly.ir,IR,Asia,Southern Asia,Iran,,,
94.182.183.203,4,1,hirbodclinic.com,IR,Asia,Southern Asia,Iran,,,
185.78.22.97,4,5,hom.ir,IR,Asia,Southern Asia,Iran,,,
31.7.79.196,4,4,honar.ac.ir,IR,Asia,Southern Asia,Iran,,,
77.238.120.115,4,6,houmer.ir,IR,Asia,Southern Asia,Iran,,,
5.144.130.49,4,-17443,iag.ir,IR,Asia,Southern Asia,Iran,Tehran,,Tehran
91.207.205.38,4,31,iaomfm.com,IR,Asia,Southern Asia,Iran,,,
185.53.141.210,4,27,iapps.ir,IR,Asia,Southern Asia,Iran,,,
94.182.146.111,4,5,ibena.ir,IR,Asia,Southern Asia,Iran,,,
5.160.218.171,4,26,ibna.ir,IR,Asia,Southern Asia,Iran,,,
195.28.169.40,4,15,ibs3457.com,IR,Asia,Southern Asia,Iran,,,
185.208.174.22,4,150114,idat.ir,IR,Asia,Southern Asia,Iran,,,
185.208.174.67,4,150115,idat.ir,IR,Asia,Southern Asia,Iran,,,
45.156.187.48,4,25,idealha.ir,IR,Asia,Southern Asia,Iran,,,
87.107.175.166,4,4,ifilo.net,IR,Asia,Southern Asia,Iran,,,
81.12.53.50,4,19,ifilo.net,IR,Asia,Southern Asia,Iran,,,
87.248.138.102,4,12,ifilo.net,IR,Asia,Southern Asia,Iran,Tehran,,Tehran
193.141.65.126,4,16,ii-uast.ac.ir,IR,Asia,Southern Asia,Iran,,,
185.141.214.73,4,-4095103,ilam.ac.ir,IR,Asia,Southern Asia,Iran,,,
195.88.208.129,4,6,imcbasket.com,IR,Asia,Southern Asia,Iran,,,
5.63.8.186,4,82,infinitycolor.co,IR,Asia,Southern Asia,Iran,Tehran,,Tehran
91.92.130.12,4,-446445,ino.ir,IR,Asia,Southern Asia,Iran,,,
194.225.72.194,4,5,ipm.ac.ir,IR,Asia,Southern Asia,Iran,,,
94.182.146.110,4,5,iqna.ir,IR,Asia,Southern Asia,Iran,,,
194.41.49.85,4,-5,iraneconomist.com,IR,Asia,Southern Asia,Iran,,,
62.60.210.74,4,4,iranfair.com,IR,Asia,Southern Asia,Iran,Tehran,,Tehran
212.16.84.148,4,-2,iranianasnaf.ir,IR,Asia,Southern Asia,Iran,Tehran,,Tehran
185.141.106.149,4,6724,iranjib.ir,IR,Asia,Southern Asia,Iran,,,
185.94.98.215,4,49,iranlivan.com,IR,Asia,Southern Asia,Iran,,,
109.206.255.175,4,-4,iranmodern.com,IR,Asia,Southern Asia,Iran,,,
185.78.22.80,4,4,irannewsagency.ir,IR,Asia,Southern Asia,Iran,,,
45.89.236.178,4,99,iranpaper.ir,IR,Asia,Southern Asia,Iran,Tehran,,Tehran
94.182.175.27,4,2,iranshabake.com,IR,Asia,Southern Asia,Iran,,,
185.88.153.233,4,45504,irantax.com,IR,Asia,Southern Asia,Iran,,,
185.222.163.90,4,3,iranufc.com,IR,Asia,Southern Asia,Iran,,,
185.129.169.88,4,91,ircg.ir,IR,Asia,Southern Asia,Iran,,,
194.41.48.13,4,6,irdc.ir,IR,Asia,Southern Asia,Iran,,,
31.7.73.177,4,19,isfahancopolymer.com,IR,Asia,Southern Asia,Iran,,,
45.159.197.11,4,0,isiarticles.com,IR,Asia,Southern Asia,Iran,,,
5.182.46.57,4,4,iswnews.com,IR,Asia,Southern Asia,Iran,,,
46.245.85.91,4,18,itbazar.com,IR,Asia,Southern Asia,Iran,,,
185.159.153.141,4,5,itexpert24.ir,IR,Asia,Southern Asia,Iran,,,
94.182.154.116,4,4531298,itna.ir,IR,Asia,Southern Asia,Iran,,,
146.19.212.233,4,19,itradar.ir,IR,Asia,Southern Asia,Iran,,,
158.58.184.118,4,-366117,itresan.com,IR,Asia,Southern Asia,Iran,Tehran,,Tehran
185.88.177.226,4,-113,iuc.ac.ir,IR,Asia,Southern Asia,Iran,,,
62.60.167.226,4,100,jaaar.com,IR,Asia,Southern Asia,Iran,Tehran,,Tehran
37.228.136.9,4,15,jaarchee.ir,IR,Asia,Southern Asia,Iran,Tehran,,Tehran
178.22.122.123,4,33,jadvalyab.ir,IR,Asia,Southern Asia,Iran,,,
130.185.78.190,4,20,jahanelm.ac.ir,IR,Asia,Southern Asia,Iran,,,
31.214.250.229,4,50355,jahanesanat.ir,IR,Asia,Southern Asia,Iran,Tehran,,Tehran
94.182.186.213,4,23,jahannews.com,IR,Asia,Southern Asia,Iran,,,
89.42.209.91,4,28,jarzani.ir,IR,Asia,Southern Asia,Iran,,,
194.41.49.42,4,19,javanonline.ir,IR,Asia,Southern Asia,Iran,,,
45.89.237.66,4,16,joomla.ir,IR,Asia,Southern Asia,Iran,Tehran,,Tehran
158.58.187.43,4,-9,jordan1-mid.com,IR,Asia,Southern Asia,Iran,Tehran,,Tehran
45.82.138.113,4,7,kalleh.com,IR,Asia,Southern Asia,Iran,,,
31.214.251.235,4,11,kamapress.com,IR,Asia,Southern Asia,Iran,Tehran,,Tehran
185.128.136.62,4,25,kaprila.com,IR,Asia,Southern Asia,Iran,,,
185.231.115.205,4,7297,karboom.io,IR,Asia,Southern Asia,Iran,,,
185.142.159.234,4,6,karynet.ir,IR,Asia,Southern Asia,Iran,,,
194.41.49.44,4,-28,kayhan.ir,IR,Asia,Southern Asia,Iran,,,
94.182.146.72,4,-16,kayhannews.ir,IR,Asia,Southern Asia,Iran,,,
185.181.182.218,4,88,kermany.com,IR,Asia,Southern Asia,Iran,,,
46.245.87.72,4,4,keshmoon.com,IR,Asia,Southern Asia,Iran,,,
5.182.45.37,4,3,khorasan.ir,IR,Asia,Southern Asia,Iran,,,
79.175.163.68,4,156,khorasannews.com,IR,Asia,Southern Asia,Iran,,,
194.41.49.104,4,6,khordad.news,IR,Asia,Southern Asia,Iran,,,
194.41.49.93,4,3,khouznews.ir,IR,Asia,Southern Asia,Iran,,,
5.145.118.11,4,4,kilid.com,IR,Asia,Southern Asia,Iran,,,
5.145.118.12,4,4,kilid.com,IR,Asia,Southern Asia,Iran,,,
185.170.8.238,4,11,kimianovin.ir,IR,Asia,Southern Asia,Iran,,,
185.164.72.161,4,3,kitchart.ir,IR,Asia,Southern Asia,Iran,,,
217.144.105.206,4,14,koreajapanmotors.com,IR,Asia,Southern Asia,Iran,,,
185.142.159.10,4,-207442,kowsarblog.ir,IR,Asia,Southern Asia,Iran,,,
89.32.248.162,4,-2375,languageeducationstudies.ir,IR,Asia,Southern Asia,Iran,,,
185.147.176.31,4,2,lenzor.com,IR,Asia,Southern Asia,Iran,,,
185.164.72.226,4,674,licenseha.ir,IR,Asia,Southern Asia,Iran,,,
217.144.104.129,4,7,limoblog.ir,IR,Asia,Southern Asia,Iran,,,
31.25.90.7,4,29,linkestan.com,IR,Asia,Southern Asia,Iran,,,
195.28.168.80,4,4,loger.ir,IR,Asia,Southern Asia,Iran,,,
185.169.6.226,4,-732,lxb.ir,IR,Asia,Southern Asia,Iran,Tehran,,Tehran
5.10.249.35,4,26,macanpc.com,IR,Asia,Southern Asia,Iran,,,
185.225.80.17,4,34689,madares-eslami.com,IR,Asia,Southern Asia,Iran,,,
80.249.115.20,4,4,mahdisweb.net,IR,Asia,Southern Asia,Iran,,,
86.104.44.10,4,10,map.ir,IR,Asia,Southern Asia,Iran,,,
86.104.44.11,4,27,map.ir,IR,Asia,Southern Asia,Iran,,,
86.104.44.14,4,11,map.ir,IR,Asia,Southern Asia,Iran,,,
86.104.44.12,4,4,map.ir,IR,Asia,Southern Asia,Iran,,,
78.157.38.67,4,43,marcopasazh.ir,IR,Asia,Southern Asia,Iran,,,
94.182.186.206,4,6,mardomsalari.ir,IR,Asia,Southern Asia,Iran,,,
212.33.206.168,4,-50994,markazeahan.com,IR,Asia,Southern Asia,Iran,,,
194.41.49.17,4,1,maslahat.ir,IR,Asia,Southern Asia,Iran,,,
45.139.11.55,4,-9,masoudko.com,IR,Asia,Southern Asia,Iran,,,
130.185.75.143,4,-15,mdmooc.ir,IR,Asia,Southern Asia,Iran,,,
31.214.174.99,4,12,mdoks.com,IR,Asia,Southern Asia,Iran,Tehran,,Tehran
217.219.202.85,4,252,medilam.ac.ir,IR,Asia,Southern Asia,Iran,,,
185.120.222.167,4,-31,melipayamak.com,IR,Asia,Southern Asia,Iran,,,
94.182.185.77,4,6,migna.ir,IR,Asia,Southern Asia,Iran,,,
185.147.176.29,4,17,mihanblog.com,IR,Asia,Southern Asia,Iran,,,
79.127.127.115,4,3,mihandownload.com,IR,Asia,Southern Asia,Iran,,,
185.105.187.253,4,4,mihanmizban.com,IR,Asia,Southern Asia,Iran,,,
79.127.127.65,4,307466,mihanstore.net,IR,Asia,Southern Asia,Iran,,,
80.249.115.135,4,5,mihantafrih.com,IR,Asia,Southern Asia,Iran,,,
89.42.210.189,4,17,mihanwebhost.com,IR,Asia,Southern Asia,Iran,,,
80.249.115.109,4,7,mimarket.ir,IR,Asia,Southern Asia,Iran,,,
94.241.170.108,4,-11,misslo.com,IR,Asia,Southern Asia,Iran,,,
45.139.11.237,4,642,miu.ac.ir,IR,Asia,Southern Asia,Iran,,,
194.41.48.18,4,5,mizanonline.ir,IR,Asia,Southern Asia,Iran,,,
185.223.160.63,4,4,mobone.ir,IR,Asia,Southern Asia,Iran,,,
217.144.104.111,4,11,mojezamzam.com,IR,Asia,Southern Asia,Iran,,,
193.8.95.115,4,-3782,mokhberan.ir,IR,Asia,Southern Asia,Iran,,,
185.49.84.236,4,180,momtaznews.com,IR,Asia,Southern Asia,Iran,,,
178.239.151.183,4,9,monoblog.ir,IR,Asia,Southern Asia,Iran,,,
45.156.186.36,4,9,moranclubs.ir,IR,Asia,Southern Asia,Iran,,,
45.156.184.34,4,21,morvaridteb.com,IR,Asia,Southern Asia,Iran,,,
94.182.179.232,4,118,mosbatesabz.com,IR,Asia,Southern Asia,Iran,,,
195.28.10.56,4,4,motahari.org,IR,Asia,Southern Asia,Iran,,,
45.159.149.189,4,4,motamem.org,IR,Asia,Southern Asia,Iran,,,
188.212.22.134,4,13,mpgames.ir,IR,Asia,Southern Asia,Iran,,,
94.232.169.207,4,21,mtiz.ir,IR,Asia,Southern Asia,Iran,,,
91.236.168.167,4,107,musicdel.ir,IR,Asia,Southern Asia,Iran,Tehran,,Tehran
5.144.134.98,4,104,musicema.com,IR,Asia,Southern Asia,Iran,Tehran,,Tehran
185.78.22.67,4,13,musicfars.ir,IR,Asia,Southern Asia,Iran,,,
77.238.122.157,4,179,musico.ir,IR,Asia,Southern Asia,Iran,,,
185.94.99.240,4,23974,mycivil.ir,IR,Asia,Southern Asia,Iran,,,
185.49.85.172,4,5,myeasymusic.ir,IR,Asia,Southern Asia,Iran,,,
94.182.100.133,4,21,namava.ir,IR,Asia,Southern Asia,Iran,,,
94.182.176.33,4,28,namava.ir,IR,Asia,Southern Asia,Iran,,,
91.236.169.187,4,22,namavid.com,IR,Asia,Southern Asia,Iran,Tehran,,Tehran
79.127.127.39,4,-364,namnak.com,IR,Asia,Southern Asia,Iran,,,
194.41.49.35,4,18,navideshahed.com,IR,Asia,Southern Asia,Iran,,,
89.32.248.24,4,19,news-sky.ir,IR,Asia,Southern Asia,Iran,,,
185.49.84.233,4,234,newseo.ir,IR,Asia,Southern Asia,Iran,,,
79.127.127.100,4,529,niksalehi.com,IR,Asia,Southern Asia,Iran,,,
194.62.17.11,4,-804039,niniweblog.com,IR,Asia,Southern Asia,Iran,,,
194.41.48.33,4,2,noandish.com,IR,Asia,Southern Asia,Iran,,,
77.238.122.206,4,-35729,noorihamedani.com,IR,Asia,Southern Asia,Iran,,,
188.121.121.104,4,31,noornegar.com,IR,Asia,Southern Asia,Iran,,,
45.150.54.169,4,-7,noprescriptioncanada.shop,IR,Asia,Southern Asia,Iran,,,
89.32.248.132,4,37,nourmandi.com,IR,Asia,Southern Asia,Iran,,,
5.160.116.98,4,-107619,nournews.ir,IR,Asia,Southern Asia,Iran,,,
130.185.77.67,4,66,novinscholarships.com,IR,Asia,Southern Asia,Iran,,,
95.156.237.124,4,-3,npco.net,IR,Asia,Southern Asia,Iran,Tehran,,Tehran
185.88.153.3,4,1080,oakley--sunglasses.com.co,IR,Asia,Southern Asia,Iran,,,
87.236.210.131,4,5035,onlinelaminate.ir,IR,Asia,Southern Asia,Iran,Tehran,,Tehran
185.142.156.236,4,289,Ookla Speedtest Server 1458: speedtest.lexoya.com,IR,Asia,Southern Asia,Iran,Qom Province,,Qom
5.112.0.20,4,287,Ookla Speedtest Server 4317: speedtest1.irancell.ir,IR,Asia,Southern Asia,Iran,Tehran,,Tehran
5.121.0.16,4,330,Ookla Speedtest Server 9890: tabriz1.irancell.ir,IR,Asia,Southern Asia,Iran,,,
185.133.125.199,4,230,Ookla Speedtest Server 16393: speedtest-mhd.webdade.com,IR,Asia,Southern Asia,Iran,Razavi Khorasan,,Mashhad
81.91.144.77,4,3298,Ookla Speedtest Server 19534: sp.zi-tel.com,IR,Asia,Southern Asia,Iran,,,
185.229.28.42,4,312,Ookla Speedtest Server 22097: turbo.nakhldns.ir,IR,Asia,Southern Asia,Iran,,,
37.32.112.131,4,381,Ookla Speedtest Server 57696: speedtest.systec-co.com,IR,Asia,Southern Asia,Iran,,,
5.190.2.202,4,338,Ookla Speedtest Server 58210: speedtestER-ookla.tcfars.ir,IR,Asia,Southern Asia,Iran,,,
78.157.42.105,4,302,Ookla Speedtest Server 61159: speedtest.electrotm.org,IR,Asia,Southern Asia,Iran,,,
185.105.184.121,4,82,orginalmokamel.com,IR,Asia,Southern Asia,Iran,,,
79.127.127.103,4,-303,ostadmoshaver.com,IR,Asia,Southern Asia,Iran,,,
80.249.115.8,4,4,otag.ir,IR,Asia,Southern Asia,Iran,,,
79.127.127.32,4,-371,p30day.ir,IR,Asia,Southern Asia,Iran,,,
5.144.130.115,4,-28487,p30download.com,IR,Asia,Southern Asia,Iran,Tehran,,Tehran
5.144.130.116,4,-28513,p30download.ir,IR,Asia,Southern Asia,Iran,Tehran,,Tehran
217.144.104.119,4,-9037,p30script.com,IR,Asia,Southern Asia,Iran,,,
185.129.168.105,4,13,p30world.com,IR,Asia,Southern Asia,Iran,,,
5.144.131.252,4,13,pakshomaservic.com,IR,Asia,Southern Asia,Iran,Tehran,,Tehran
193.141.65.108,4,7,pandamco.com,IR,Asia,Southern Asia,Iran,,,
195.226.223.180,4,36,parscoders.com,IR,Asia,Southern Asia,Iran,,,
152.89.46.70,4,-7,parsfootball.com,IR,Asia,Southern Asia,Iran,,,
185.112.151.214,4,79,parsgene.com,IR,Asia,Southern Asia,Iran,,,
185.120.222.149,4,-340,parsiday.com,IR,Asia,Southern Asia,Iran,,,
79.127.127.72,4,41,parsizi.ir,IR,Asia,Southern Asia,Iran,,,
185.79.156.224,4,89830,parstools.com,IR,Asia,Southern Asia,Iran,,,
185.78.22.90,4,71,pasargadinsurance.ir,IR,Asia,Southern Asia,Iran,,,
31.214.175.214,4,21994,pasokhgoo.ir,IR,Asia,Southern Asia,Iran,Tehran,,Tehran
79.127.127.34,4,24,patoghu.com,IR,Asia,Southern Asia,Iran,,,
195.28.168.88,4,17,pdrsoheil.ir,IR,Asia,Southern Asia,Iran,,,
185.141.212.66,4,13,peivast.com,IR,Asia,Southern Asia,Iran,,,
158.58.188.22,4,152,percoms.ir,IR,Asia,Southern Asia,Iran,Tehran,,Tehran
5.144.131.218,4,116394,persianscript.ir,IR,Asia,Southern Asia,Iran,Tehran,,Tehran
79.175.169.119,4,29,persiantools.com,IR,Asia,Southern Asia,Iran,,,
79.127.127.80,4,60,persianv.com,IR,Asia,Southern Asia,Iran,,,
217.144.107.106,4,17,petpaws-store.com,IR,Asia,Southern Asia,Iran,,,
80.249.115.114,4,1,peyknoor.ir,IR,Asia,Southern Asia,Iran,,,
185.126.11.131,4,-1,peymooneh.com,IR,Asia,Southern Asia,Iran,,,
87.248.145.207,4,-2328030,peyvandemehrafza.com,IR,Asia,Southern Asia,Iran,Tehran,,Tehran
195.28.168.64,4,4,pezeshkaddress.com,IR,Asia,Southern Asia,Iran,,,
109.72.197.4,4,7,pgu.ac.ir,IR,Asia,Southern Asia,Iran,Bushehr Province,,Bushehr
79.127.127.74,4,19,pichak.net,IR,Asia,Southern Asia,Iran,,,
89.32.248.32,4,23,pirooztak.ir,IR,Asia,Southern Asia,Iran,,,
89.42.211.164,4,-25403,pishtaztea.com,IR,Asia,Southern Asia,Iran,,,
185.252.29.161,4,-15811,planart.ir,IR,Asia,Southern Asia,Iran,,,
185.229.29.150,4,-18811,pllan.ir,IR,Asia,Southern Asia,Iran,,,
213.108.241.199,4,-17391,pnu-club.com,IR,Asia,Southern Asia,Iran,,,
185.94.96.102,4,82367,pnu4u.com,IR,Asia,Southern Asia,Iran,,,
188.136.129.105,4,10,poonehmedia.com,IR,Asia,Southern Asia,Iran,Isfahan,,Isfahan
195.28.169.88,4,49,pooshanplastic.com,IR,Asia,Southern Asia,Iran,,,
185.49.84.232,4,35,pop-music.ir,IR,Asia,Southern Asia,Iran,,,
185.223.160.13,4,3,qazvin-cctv-camera.ir,IR,Asia,Southern Asia,Iran,,,
185.13.231.138,4,93241,qudsonline.ir,IR,Asia,Southern Asia,Iran,,,
213.233.161.108,4,42,radnet.co,IR,Asia,Southern Asia,Iran,,,
185.128.81.80,4,-974563,radshir.com,IR,Asia,Southern Asia,Iran,,,
45.156.184.39,4,-76766,rahjooian.net,IR,Asia,Southern Asia,Iran,,,
194.41.49.52,4,58,rasanews.ir,IR,Asia,Southern Asia,Iran,,,
195.28.10.86,4,42,ravandbazar.ir,IR,Asia,Southern Asia,Iran,,,
5.144.130.38,4,49,ravanshena30.com,IR,Asia,Southern Asia,Iran,Tehran,,Tehran
185.223.160.32,4,6,ray-bans.net.co,IR,Asia,Southern Asia,Iran,,,
45.159.197.66,4,10,rayamarketing.com,IR,Asia,Southern Asia,Iran,,,
31.214.174.106,4,2,rch.ac.ir,IR,Asia,Southern Asia,Iran,Tehran,,Tehran
89.32.248.193,4,-79000,reactapp.ir,IR,Asia,Southern Asia,Iran,,,
185.223.160.54,4,13,rentkonim.com,IR,Asia,Southern Asia,Iran,,,
89.32.248.133,4,23,reportaj.me,IR,Asia,Southern Asia,Iran,,,
80.249.115.158,4,17,researchpaperssfk.com,IR,Asia,Southern Asia,Iran,,,
185.223.160.65,4,60,retrojordans.name,IR,Asia,Southern Asia,Iran,,,
185.223.160.17,4,47,rolex-replicawatches.com.co,IR,Asia,Southern Asia,Iran,,,
80.249.115.40,4,46,romanbook.ir,IR,Asia,Southern Asia,Iran,,,
5.160.13.242,4,3569196,ronix.ir,IR,Asia,Southern Asia,Iran,,,
195.28.10.70,4,35,roozgozar.com,IR,Asia,Southern Asia,Iran,,,
185.13.230.132,4,111458,rooziato.com,IR,Asia,Southern Asia,Iran,,,
194.41.49.87,4,10,roozno.com,IR,Asia,Southern Asia,Iran,,,
185.164.72.53,4,15,rosinyco.com,IR,Asia,Southern Asia,Iran,,,
194.41.49.13,4,3,rouydad24.ir,IR,Asia,Southern Asia,Iran,,,
45.149.78.115,4,42,royablog.ir,IR,Asia,Southern Asia,Iran,,,
79.127.127.68,4,1,rozblog.com,IR,Asia,Southern Asia,Iran,,,
79.127.127.71,4,6,rozmusic.com,IR,Asia,Southern Asia,Iran,,,
79.127.127.67,4,245,rozup.ir,IR,Asia,Southern Asia,Iran,,,
5.61.25.2,4,4,rsadaf.ir,IR,Asia,Southern Asia,Iran,Gilan Province,,Rasht
178.216.251.232,4,28,rzb.ir,IR,Asia,Southern Asia,Iran,,,
185.88.176.214,4,677,s4t.co,IR,Asia,Southern Asia,Iran,,,
146.19.212.48,4,7,saat24.news,IR,Asia,Southern Asia,Iran,,,
91.220.113.40,4,-166701,saazestaan.com,IR,Asia,Southern Asia,Iran,,,
185.223.160.37,4,23,sabasanat.net,IR,Asia,Southern Asia,Iran,,,
185.147.178.24,4,5,sabavision.com,IR,Asia,Southern Asia,Iran,,,
185.231.114.218,4,22341,sabteahval.ir,IR,Asia,Southern Asia,Iran,,,
87.236.209.118,4,5,sadaf22.com,IR,Asia,Southern Asia,Iran,,,
89.235.79.26,4,9,sadafdentalclinic.com,IR,Asia,Southern Asia,Iran,Tehran,,Tehran
45.156.187.8,4,8,saednews.com,IR,Asia,Southern Asia,Iran,,,
193.105.234.250,4,526215,salamislam.com,IR,Asia,Southern Asia,Iran,,,
195.28.10.76,4,3,samanorthopedic.com,IR,Asia,Southern Asia,Iran,,,
188.212.22.236,4,27246,samenblog.com,IR,Asia,Southern Asia,Iran,,,
185.105.185.162,4,1,sanjagh.com,IR,Asia,Southern Asia,Iran,,,
85.185.105.99,4,1,sanru.ac.ir,IR,Asia,Southern Asia,Iran,,,
146.19.212.210,4,89480,sarebansafa.com,IR,Asia,Southern Asia,Iran,,,
185.190.39.176,4,15,sariasan.com,IR,Asia,Southern Asia,Iran,,,
87.248.153.52,4,9,sarmayehgozary.com,IR,Asia,Southern Asia,Iran,,,
79.127.126.73,4,9,sarzamindownload.com,IR,Asia,Southern Asia,Iran,,,
185.78.22.103,4,-2,sayaaclinic.com,IR,Asia,Southern Asia,Iran,,,
185.55.225.242,4,6,sazansite.com,IR,Asia,Southern Asia,Iran,,,
130.185.75.92,4,40,scriptha.ir,IR,Asia,Southern Asia,Iran,,,
79.127.127.84,4,14,seeiran.ir,IR,Asia,Southern Asia,Iran,,,
80.249.115.145,4,-245,semsariitehrani.ir,IR,Asia,Southern Asia,Iran,,,
193.8.95.67,4,7,seohacker.academy,IR,Asia,Southern Asia,Iran,,,
185.226.140.40,4,348,seokar.com,IR,Asia,Southern Asia,Iran,,,
185.226.142.42,4,1605,seokar.com,IR,Asia,Southern Asia,Iran,,,
195.28.168.70,4,34,seomoz.ir,IR,Asia,Southern Asia,Iran,,,
195.28.10.50,4,4,sepidaneh.ir,IR,Asia,Southern Asia,Iran,,,
185.187.84.81,4,0,sepidarsystem.com,IR,Asia,Southern Asia,Iran,,,
194.41.49.113,4,46,seratnews.ir,IR,Asia,Southern Asia,Iran,,,
87.107.147.146,4,73,setare.com,IR,Asia,Southern Asia,Iran,,,
130.185.73.177,4,-2,shabakeh-mag.com,IR,Asia,Southern Asia,Iran,,,
217.218.56.205,4,4310,shabestan.ir,IR,Asia,Southern Asia,Iran,Tehran,,Tehran
185.49.84.75,4,5,shahr.ir,IR,Asia,Southern Asia,Iran,,,
94.182.146.171,4,9,shahraranews.ir,IR,Asia,Southern Asia,Iran,,,
185.149.192.126,4,593,shahrekhabar.com,IR,Asia,Southern Asia,Iran,,,
94.182.88.6,4,-21549,shahrekhabar.com,IR,Asia,Southern Asia,Iran,,,
79.127.127.78,4,-1272,shahrsakhtafzar.com,IR,Asia,Southern Asia,Iran,,,
185.161.121.97,4,813,sharghdaily.com,IR,Asia,Southern Asia,Iran,,,
85.15.17.13,4,-25,shatel.ir,IR,Asia,Southern Asia,Iran,,,
31.25.90.165,4,2812,shayvardnews.com,IR,Asia,Southern Asia,Iran,,,
185.55.225.200,4,113,shemshadpub.ir,IR,Asia,Southern Asia,Iran,,,
46.245.78.82,4,2,shenoto.com,IR,Asia,Southern Asia,Iran,,,
194.41.49.33,4,4,shia-news.com,IR,Asia,Southern Asia,Iran,,,
87.107.153.251,4,262759,shia-online.ir,IR,Asia,Southern Asia,Iran,,,
194.41.49.101,4,2,shiraze.ir,IR,Asia,Southern Asia,Iran,,,
185.129.169.136,4,16,shopfa.com,IR,Asia,Southern Asia,Iran,,,
87.107.133.75,4,-1,siasatrooz.ir,IR,Asia,Southern Asia,Iran,,,
185.53.142.188,4,0,sibapp.com,IR,Asia,Southern Asia,Iran,,,
188.209.152.125,4,8,sinapress.ir,IR,Asia,Southern Asia,Iran,,,
158.58.185.58,4,23,sitearia.ir,IR,Asia,Southern Asia,Iran,Tehran,,Tehran
78.39.35.24,4,-32445,skums.ac.ir,IR,Asia,Southern Asia,Iran,,,
79.127.127.35,4,28,soft98.ir,IR,Asia,Southern Asia,Iran,,,
185.191.77.202,4,465726,sogolghomsianchi.com,IR,Asia,Southern Asia,Iran,,,
185.128.138.14,4,919,soorban.com,IR,Asia,Southern Asia,Iran,,,
37.156.147.221,4,29,sooreno.ir,IR,Asia,Southern Asia,Iran,Tehran,,Tehran
94.182.178.55,4,-178,sorkhabishop.ir,IR,Asia,Southern Asia,Iran,,,
83.147.245.81,4,-2,sosedmarket.ru,IR,Asia,Southern Asia,Iran,,,
185.49.85.27,4,513,sourehcinema.com,IR,Asia,Southern Asia,Iran,,,
217.144.107.183,4,13,spainworldcupjersey.com,IR,Asia,Southern Asia,Iran,,,
195.28.168.13,4,60,starmusic98.ir,IR,Asia,Southern Asia,Iran,,,
80.249.115.151,4,4,storerxpharmcanada.com,IR,Asia,Southern Asia,Iran,,,
79.127.126.104,4,12,sultanmusic.ir,IR,Asia,Southern Asia,Iran,,,
195.28.168.79,4,5,summitkhodro.com,IR,Asia,Southern Asia,Iran,,,
89.32.248.27,4,7,supra-footwear.net,IR,Asia,Southern Asia,Iran,,,
185.187.84.56,4,-1,systemgroup.net,IR,Asia,Southern Asia,Iran,,,
194.41.49.16,4,4,taadolnewspaper.ir,IR,Asia,Southern Asia,Iran,,,
92.114.18.116,4,2184,taaghche.com,IR,Asia,Southern Asia,Iran,,,
79.127.127.31,4,10,tabamusic.com,IR,Asia,Southern Asia,Iran,,,
94.182.146.186,4,10,tabnak.ir,IR,Asia,Southern Asia,Iran,,,
194.41.49.20,4,31,tabnakbato.ir,IR,Asia,Southern Asia,Iran,,,
87.107.121.131,4,6,taghribnews.com,IR,Asia,Southern Asia,Iran,,,
46.245.100.91,4,9,tahagasht.com,IR,Asia,Southern Asia,Iran,,,
185.129.169.53,4,6,taimaz.com,IR,Asia,Southern Asia,Iran,,,
185.49.85.35,4,400,takbook.com,IR,Asia,Southern Asia,Iran,,,
185.126.14.12,4,0,tala.ir,IR,Asia,Southern Asia,Iran,,,
185.141.168.138,4,17,talahost.com,IR,Asia,Southern Asia,Iran,,,
94.182.132.36,4,22,tamasha.com,IR,Asia,Southern Asia,Iran,,,
94.182.132.37,4,-3,tamasha.com,IR,Asia,Southern Asia,Iran,,,
195.28.168.89,4,8,tapsell.ir,IR,Asia,Southern Asia,Iran,,,
5.144.134.70,4,-597,tarafdari.com,IR,Asia,Southern Asia,Iran,Tehran,,Tehran
94.182.185.226,4,-1575518,tarikhirani.ir,IR,Asia,Southern Asia,Iran,,,
62.60.167.242,4,2091,tarjomano.com,IR,Asia,Southern Asia,Iran,Tehran,,Tehran
185.112.33.51,4,4,tarjomefa.com,IR,Asia,Southern Asia,Iran,,,
195.28.168.102,4,12,tba.ir,IR,Asia,Southern Asia,Iran,,,
5.160.48.124,4,6,tceo.ir,IR,Asia,Southern Asia,Iran,,,
185.78.20.130,4,50,tebyan.net,IR,Asia,Southern Asia,Iran,,,
62.60.210.176,4,-13492,techna.news,IR,Asia,Southern Asia,Iran,Tehran,,Tehran
185.129.171.170,4,-30030,technolife.ir,IR,Asia,Southern Asia,Iran,,,
185.159.154.132,4,13,tehranlaserclinic.com,IR,Asia,Southern Asia,Iran,,,
185.94.98.122,4,12,tehranmc.org,IR,Asia,Southern Asia,Iran,,,
78.157.41.188,4,145302,tehrannews.ir,IR,Asia,Southern Asia,Iran,,,
87.107.133.131,4,-440376,theiranproject.com,IR,Asia,Southern Asia,Iran,,,
62.220.126.240,4,35,tibf.ir,IR,Asia,Southern Asia,Iran,,,
195.28.168.65,4,1,tiroojh.com,IR,Asia,Southern Asia,Iran,,,
193.8.95.114,4,-3899,titr-news.ir,IR,Asia,Southern Asia,Iran,,,
212.16.95.141,4,17,tnews.ir,IR,Asia,Southern Asia,Iran,Tehran,,Tehran
45.139.11.203,4,9,toonblog.ir,IR,Asia,Southern Asia,Iran,,,
81.12.31.3,4,2,torob.com,IR,Asia,Southern Asia,Iran,,,
185.55.225.9,4,18,truereligionsale.com.co,IR,Asia,Southern Asia,Iran,,,
188.212.22.252,4,15,tulun.ir,IR,Asia,Southern Asia,Iran,,,
80.191.47.231,4,49901,tvu.ac.ir,IR,Asia,Southern Asia,Iran,,,
195.28.11.220,4,-3,uast32.ir,IR,Asia,Southern Asia,Iran,,,
185.49.85.84,4,7,upera.tv,IR,Asia,Southern Asia,Iran,,,
93.115.151.76,4,11,uploadboy.com,IR,Asia,Southern Asia,Iran,Tehran,,Tehran
178.216.250.190,4,-359,uplod.ir,IR,Asia,Southern Asia,Iran,,,
178.216.250.185,4,13,uptvs.com,IR,Asia,Southern Asia,Iran,,,
45.149.76.170,4,1105,urd.ac.ir,IR,Asia,Southern Asia,Iran,,,
195.28.168.100,4,15,urltwo.ir,IR,Asia,Southern Asia,Iran,,,
185.126.202.122,4,8,urmiaemdadkhodro.ir,IR,Asia,Southern Asia,Iran,,,
5.144.130.48,4,-5761,uslevitraanna.com,IR,Asia,Southern Asia,Iran,Tehran,,Tehran
212.33.193.83,4,0,uupload.ir,IR,Asia,Southern Asia,Iran,,,
185.94.98.98,4,24,vajehrooz.ir,IR,Asia,Southern Asia,Iran,,,
195.28.10.107,4,10,vakil-rahbarzare.ir,IR,Asia,Southern Asia,Iran,,,
194.41.48.16,4,5,vananews.com,IR,Asia,Southern Asia,Iran,,,
45.139.11.156,4,179853,vanicokala.com,IR,Asia,Southern Asia,Iran,,,
94.232.169.216,4,6,vestamed.com,IR,Asia,Southern Asia,Iran,,,
185.2.14.187,4,-15,viagra2019.com,IR,Asia,Southern Asia,Iran,Tehran,,Tehran
217.198.190.145,4,6,viagranelius.com,IR,Asia,Southern Asia,Iran,,,
62.60.202.243,4,-19624,way2pay.ir,IR,Asia,Southern Asia,Iran,Tehran,,Tehran
185.40.16.42,4,-16392,websima.com,IR,Asia,Southern Asia,Iran,Tehran,,Tehran
94.182.110.238,4,13,webzi.ir,IR,Asia,Southern Asia,Iran,,,
78.157.38.69,4,992,whcl.ir,IR,Asia,Southern Asia,Iran,,,
185.213.10.131,4,10,wikishia.net,IR,Asia,Southern Asia,Iran,,,
171.22.24.121,4,29,worldwoman.ir,IR,Asia,Southern Asia,Iran,,,
157.119.188.90,4,9817,wp-parsi.com,IR,Asia,Southern Asia,Iran,,,
77.238.122.134,4,5,wpnovin.com,IR,Asia,Southern Asia,Iran,,,
185.120.222.142,4,571,xn----pmcnc1cq0jcocfk73o.com,IR,Asia,Southern Asia,Iran,,,
195.28.169.23,4,75,xn--mgbbgac2bu8mq0b.com,IR,Asia,Southern Asia,Iran,,,
89.42.211.165,4,34325,xn--pgboj2fl38c.net,IR,Asia,Southern Asia,Iran,,,
79.127.127.119,4,-363,xperian.ir,IR,Asia,Southern Asia,Iran,,,
5.63.13.222,4,11,xscript.ir,IR,Asia,Southern Asia,Iran,Tehran,,Tehran
185.53.141.218,4,3,xtratheme.ir,IR,Asia,Southern Asia,Iran,,,
45.159.149.181,4,16,yas55.com,IR,Asia,Southern Asia,Iran,,,
94.182.180.137,4,-433208,yasa.co,IR,Asia,Southern Asia,Iran,,,
79.127.127.29,4,-323,yasdl.com,IR,Asia,Southern Asia,Iran,,,
185.126.2.131,4,10,yazdfarda.com,IR,Asia,Southern Asia,Iran,,,
185.55.225.50,4,3,yazdkhodro.ir,IR,Asia,Southern Asia,Iran,,,
5.63.8.190,4,0,yektablog.net,IR,Asia,Southern Asia,Iran,Tehran,,Tehran
94.182.89.169,4,-2642,yektadrip.ir,IR,Asia,Southern Asia,Iran,,,
94.182.146.39,4,7,yjc.ir,IR,Asia,Southern Asia,Iran,,,
185.126.6.204,4,-498622,yon.ir,IR,Asia,Southern Asia,Iran,,,
195.28.169.85,4,12,zarsolution.com,IR,Asia,Southern Asia,Iran,,,
193.8.95.116,4,-3886,zibarooz.ir,IR,Asia,Southern Asia,Iran,,,
45.139.11.244,4,1,zoomarz.com,IR,Asia,Southern Asia,Iran,,,
185.166.104.4,4,1,zoomg.ir,IR,Asia,Southern Asia,Iran,,,
185.166.104.3,4,2,zoomg.ir,IR,Asia,Southern Asia,Iran,,,
