reflector_ip,ip_version,offset,description,country_code,region,sub_region,country_name,sub_division_1,sub_division_2,city
143.198.165.9,4,3,1edtech.org,US,Americas,Northern America,United States of America,New Jersey,,North Bergen
198.199.121.26,4,1,5dias.com.py,US,Americas,Northern America,United States of America,New Jersey,,North Bergen
174.138.40.114,4,8,62x54r.ru,US,Americas,Northern America,United States of America,New Jersey,,North Bergen
67.205.146.234,4,7,8degreethemes.com,US,Americas,Northern America,United States of America,New Jersey,,North Bergen
143.198.163.133,4,10,aalpha.net,US,Americas,Northern America,United States of America,New Jersey,,North Bergen
198.199.78.217,4,1,abcz.org.br,US,Americas,Northern America,United States of America,New Jersey,,North Bergen
167.172.131.50,4,25,acsh.org,US,Americas,Northern America,United States of America,New Jersey,,North Bergen
68.183.133.231,4,12,actionpotential.org,US,Americas,Northern America,United States of America,New Jersey,,North Bergen
198.211.109.184,4,5,adamequipment.com,US,Americas,Northern America,United States of America,New Jersey,,North Bergen
161.35.2.228,4,10,affiliatejoin.com,US,Americas,Northern America,United States of America,New Jersey,,North Bergen
159.65.224.4,4,10,agencydashboard.io,US,Americas,Northern America,United States of America,New Jersey,,North Bergen
178.128.135.124,4,19,airnav.com,US,Americas,Northern America,United States of America,New Jersey,,North Bergen
68.183.19.159,4,19,alimanno.com,US,Americas,Northern America,United States of America,New Jersey,,North Bergen
67.205.160.35,4,3,all-guitar-chords.com,US,Americas,Northern America,United States of America,New Jersey,,North Bergen
137.184.243.128,4,13,altronix.com,US,Americas,Northern America,United States of America,New Jersey,,North Bergen
157.230.12.216,4,5,americaspeakon.org,US,Americas,Northern America,United States of America,New Jersey,,North Bergen
164.90.253.94,4,23,anjo.com.br,US,Americas,Northern America,United States of America,New Jersey,,North Bergen
167.172.140.43,4,25,apnm.org,US,Americas,Northern America,United States of America,New Jersey,,North Bergen
159.203.187.73,4,60,ardupilot.com,US,Americas,Northern America,United States of America,New Jersey,,North Bergen
198.211.106.222,4,54,argentinawomenlove.net,US,Americas,Northern America,United States of America,New Jersey,,North Bergen
206.189.176.136,4,4,artplaceamerica.org,US,Americas,Northern America,United States of America,New Jersey,,North Bergen
157.230.231.116,4,6547387,asil.org,US,Americas,Northern America,United States of America,New Jersey,,North Bergen
178.128.134.243,4,14,aswp.org,US,Americas,Northern America,United States of America,New Jersey,,North Bergen
142.93.203.143,4,2,atlantictraining.com,US,Americas,Northern America,United States of America,New Jersey,,North Bergen
68.183.29.129,4,2342,atlas.engineer,US,Americas,Northern America,United States of America,New Jersey,,North Bergen
157.230.200.75,4,34,atlasarts.org,US,Americas,Northern America,United States of America,New Jersey,,North Bergen
157.230.189.185,4,11,attestation.pro,US,Americas,Northern America,United States of America,New Jersey,,North Bergen
198.199.78.104,4,30,attrock.com,US,Americas,Northern America,United States of America,New Jersey,,North Bergen
157.245.254.59,4,5,axisrecords.com,US,Americas,Northern America,United States of America,New Jersey,,North Bergen
174.138.33.195,4,4,aypwip.org,US,Americas,Northern America,United States of America,New Jersey,,North Bergen
67.205.143.207,4,4,azpolicy.org,US,Americas,Northern America,United States of America,New Jersey,,North Bergen
142.93.195.213,4,11,babbleboxx.com,US,Americas,Northern America,United States of America,New Jersey,,North Bergen
208.68.36.32,4,8455612,badastronomy.com,US,Americas,Northern America,United States of America,New Jersey,,North Bergen
142.93.200.18,4,23,bamz.org,US,Americas,Northern America,United States of America,New Jersey,,North Bergen
161.35.14.141,4,3,bandchirps.com,US,Americas,Northern America,United States of America,New Jersey,,North Bergen
143.244.200.75,4,39,bariloche.org,US,Americas,Northern America,United States of America,New Jersey,,North Bergen
157.230.200.112,4,31,battleofthebands.com,US,Americas,Northern America,United States of America,New Jersey,,North Bergen
159.203.177.222,4,20,bedrocklinux.org,US,Americas,Northern America,United States of America,New Jersey,,North Bergen
178.128.155.134,4,146,bestaviation.net,US,Americas,Northern America,United States of America,New Jersey,,North Bergen
142.93.200.175,4,29,bestpracticeinstitute.org,US,Americas,Northern America,United States of America,New Jersey,,North Bergen
157.230.48.134,4,21,bestsampleresume.com,US,Americas,Northern America,United States of America,New Jersey,,North Bergen
161.35.120.49,4,4,beyondunreal.com,US,Americas,Northern America,United States of America,New Jersey,,North Bergen
161.35.57.166,4,3,billmill.org,US,Americas,Northern America,United States of America,New Jersey,,North Bergen
142.93.196.60,4,9,blacklocks.ca,US,Americas,Northern America,United States of America,New Jersey,,North Bergen
142.93.50.3,4,12,blender3darchitect.com,US,Americas,Northern America,United States of America,New Jersey,,North Bergen
67.205.178.4,4,5,blizzplanet.com,US,Americas,Northern America,United States of America,New Jersey,,North Bergen
143.198.170.27,4,36,blogwolf.com,US,Americas,Northern America,United States of America,New Jersey,,North Bergen
159.223.186.78,4,-1,bluehorizon.com,US,Americas,Northern America,United States of America,New Jersey,,North Bergen
157.230.214.130,4,6,blueoctane.net,US,Americas,Northern America,United States of America,New Jersey,,North Bergen
157.230.56.32,4,25,bodydetails.com,US,Americas,Northern America,United States of America,New Jersey,,North Bergen
167.172.145.134,4,34,boogiewoogie.com,US,Americas,Northern America,United States of America,New Jersey,,North Bergen
134.122.125.218,4,21,bostonequator.com,US,Americas,Northern America,United States of America,New Jersey,,North Bergen
165.227.192.125,4,1,bostonharborhotel.com,US,Americas,Northern America,United States of America,New Jersey,,North Bergen
69.55.55.65,4,22,bostonivf.com,US,Americas,Northern America,United States of America,New Jersey,,North Bergen
192.241.152.163,4,5,bracketproductions.com,US,Americas,Northern America,United States of America,New Jersey,,North Bergen
167.99.237.2,4,39,broadwayleague.com,US,Americas,Northern America,United States of America,New Jersey,,North Bergen
167.172.135.211,4,9,buildoffshoreteam.com,US,Americas,Northern America,United States of America,New Jersey,,North Bergen
161.35.127.119,4,4,bunewsservice.com,US,Americas,Northern America,United States of America,New Jersey,,North Bergen
161.35.62.115,4,6,bywoops.com,US,Americas,Northern America,United States of America,New Jersey,,North Bergen
157.245.130.114,4,63,callroutersupport.com,US,Americas,Northern America,United States of America,New Jersey,,North Bergen
143.244.170.217,4,2,callwave.com,US,Americas,Northern America,United States of America,New Jersey,,North Bergen
157.245.255.36,4,-478231,calmclinic.com,US,Americas,Northern America,United States of America,New Jersey,,North Bergen
198.199.81.87,4,7,cannonmt.com,US,Americas,Northern America,United States of America,New Jersey,,North Bergen
157.230.179.33,4,27,canyonthemes.com,US,Americas,Northern America,United States of America,New Jersey,,North Bergen
174.138.125.142,4,9,cardinalcorp.com,US,Americas,Northern America,United States of America,New Jersey,,North Bergen
167.99.154.194,4,46,casamalca.com,US,Americas,Northern America,United States of America,New Jersey,,North Bergen
64.227.24.179,4,3,cashortrade.org,US,Americas,Northern America,United States of America,New Jersey,,North Bergen
159.203.159.144,4,4,catholicfaithstore.com,US,Americas,Northern America,United States of America,New Jersey,,North Bergen
192.81.216.95,4,2,cavestory.org,US,Americas,Northern America,United States of America,New Jersey,,North Bergen
159.65.224.220,4,2394,celebitchy.com,US,Americas,Northern America,United States of America,New Jersey,,North Bergen
174.138.34.33,4,60,centerlb.org,US,Americas,Northern America,United States of America,New Jersey,,North Bergen
206.189.176.204,4,1,cexc.info,US,Americas,Northern America,United States of America,New Jersey,,North Bergen
162.243.168.200,4,3,cfni.org,US,Americas,Northern America,United States of America,New Jersey,,North Bergen
143.244.174.207,4,27,chaminade.com,US,Americas,Northern America,United States of America,New Jersey,,North Bergen
206.189.194.122,4,8,cherryhillprograms.com,US,Americas,Northern America,United States of America,New Jersey,,North Bergen
159.223.167.158,4,2,chicagoganghistory.com,US,Americas,Northern America,United States of America,New Jersey,,North Bergen
206.189.233.96,4,9,chicagowatertaxi.com,US,Americas,Northern America,United States of America,New Jersey,,North Bergen
167.99.0.7,4,7,chodabot.com,US,Americas,Northern America,United States of America,New Jersey,,North Bergen
134.122.16.205,4,0,choplocal.com,US,Americas,Northern America,United States of America,New Jersey,,North Bergen
147.182.215.19,4,5,christianselig.com,US,Americas,Northern America,United States of America,New Jersey,,North Bergen
159.65.218.70,4,6,chriswhong.com,US,Americas,Northern America,United States of America,New Jersey,,North Bergen
167.99.153.198,4,1,citytheatrecompany.org,US,Americas,Northern America,United States of America,New Jersey,,North Bergen
142.93.51.228,4,-1,clasea.com.py,US,Americas,Northern America,United States of America,New Jersey,,North Bergen
142.93.56.147,4,13,clevelandrapecrisis.org,US,Americas,Northern America,United States of America,New Jersey,,North Bergen
161.35.255.6,4,4,coasttocoasttickets.com,US,Americas,Northern America,United States of America,New Jersey,,North Bergen
159.223.101.191,4,6,cobaltapps.com,US,Americas,Northern America,United States of America,New Jersey,,North Bergen
157.230.182.215,4,5,codemoji.com,US,Americas,Northern America,United States of America,New Jersey,,North Bergen
67.207.85.87,4,7,color64.com,US,Americas,Northern America,United States of America,New Jersey,,North Bergen
67.205.191.241,4,7,colorado-corp.com,US,Americas,Northern America,United States of America,New Jersey,,North Bergen
206.189.187.236,4,4,colorcode.com,US,Americas,Northern America,United States of America,New Jersey,,North Bergen
138.197.227.62,4,0,comagine.org,US,Americas,Northern America,United States of America,New Jersey,,North Bergen
67.205.142.107,4,45,commerceflorida.com,US,Americas,Northern America,United States of America,New Jersey,,North Bergen
147.182.218.182,4,22,compassdiversified.com,US,Americas,Northern America,United States of America,New Jersey,,North Bergen
159.65.237.188,4,1,conexaoto.com.br,US,Americas,Northern America,United States of America,New Jersey,,North Bergen
174.138.108.37,4,7,connectingdirectors.com,US,Americas,Northern America,United States of America,New Jersey,,North Bergen
157.230.67.5,4,11,consolidatedlabel.com,US,Americas,Northern America,United States of America,New Jersey,,North Bergen
143.198.169.66,4,6,construportal.com,US,Americas,Northern America,United States of America,New Jersey,,North Bergen
178.128.132.228,4,81,cookography.com,US,Americas,Northern America,United States of America,New Jersey,,North Bergen
157.230.6.89,4,10,corgiorgy.com,US,Americas,Northern America,United States of America,New Jersey,,North Bergen
68.183.116.207,4,8,countycourthouse.org,US,Americas,Northern America,United States of America,New Jersey,,North Bergen
157.230.200.20,4,19,coursicle.com,US,Americas,Northern America,United States of America,New Jersey,,North Bergen
159.223.149.144,4,82,creativepinellas.org,US,Americas,Northern America,United States of America,New Jersey,,North Bergen
159.89.227.105,4,31,crednow.com.ar,US,Americas,Northern America,United States of America,New Jersey,,North Bergen
67.205.139.161,4,2,cronmaker.com,US,Americas,Northern America,United States of America,New Jersey,,North Bergen
157.230.222.127,4,57462,crowdmob.com,US,Americas,Northern America,United States of America,New Jersey,,North Bergen
134.209.73.218,4,8,csm.edu,US,Americas,Northern America,United States of America,New Jersey,,North Bergen
198.199.71.69,4,2,css-discuss.org,US,Americas,Northern America,United States of America,New Jersey,,North Bergen
67.205.184.73,4,4,csshint.com,US,Americas,Northern America,United States of America,New Jersey,,North Bergen
143.198.180.63,4,3,ctsciencecenter.org,US,Americas,Northern America,United States of America,New Jersey,,North Bergen
134.209.68.5,4,2,ctt.ec,US,Americas,Northern America,United States of America,New Jersey,,North Bergen
64.227.29.24,4,3,culturemonkey.io,US,Americas,Northern America,United States of America,New Jersey,,North Bergen
159.89.227.84,4,7,cyberkids.com,US,Americas,Northern America,United States of America,New Jersey,,North Bergen
147.182.143.100,4,13,dailygram.com,US,Americas,Northern America,United States of America,New Jersey,,North Bergen
142.93.8.22,4,27,dataorienteddesign.com,US,Americas,Northern America,United States of America,New Jersey,,North Bergen
192.241.143.48,4,1362,datarealms.com,US,Americas,Northern America,United States of America,New Jersey,,North Bergen
104.248.50.131,4,30,deducer.org,US,Americas,Northern America,United States of America,New Jersey,,North Bergen
198.199.120.165,4,0,derechoaleer.org,US,Americas,Northern America,United States of America,New Jersey,,North Bergen
137.184.210.248,4,6,designfloat.com,US,Americas,Northern America,United States of America,New Jersey,,North Bergen
159.223.132.7,4,44,diggerspecialties.com,US,Americas,Northern America,United States of America,New Jersey,,North Bergen
143.198.165.131,4,16,dimlux.com.br,US,Americas,Northern America,United States of America,New Jersey,,North Bergen
67.205.187.173,4,59,discountreactor.com,US,Americas,Northern America,United States of America,New Jersey,,North Bergen
143.244.212.234,4,4,dishdish.us,US,Americas,Northern America,United States of America,New Jersey,,North Bergen
143.198.176.189,4,1,distrify.com,US,Americas,Northern America,United States of America,New Jersey,,North Bergen
174.138.41.159,4,33,dixon.org,US,Americas,Northern America,United States of America,New Jersey,,North Bergen
134.122.19.74,4,12,DNS Server: corporate-eyes.com,US,Americas,Northern America,United States of America,New Jersey,,North Bergen
143.198.160.73,4,82,DNS Server: vpn.anteomnio.com,US,Americas,Northern America,United States of America,New Jersey,,North Bergen
157.230.0.41,4,0,doassignmenthelp.com,US,Americas,Northern America,United States of America,New Jersey,,North Bergen
67.207.85.129,4,11,dogfoodcouponshere.com,US,Americas,Northern America,United States of America,New Jersey,,North Bergen
69.55.49.100,4,4,dohardmoney.com,US,Americas,Northern America,United States of America,New Jersey,,North Bergen
157.230.5.160,4,34,doityourselfrepair.net,US,Americas,Northern America,United States of America,New Jersey,,North Bergen
162.243.171.191,4,3,donewith4walls.com,US,Americas,Northern America,United States of America,New Jersey,,North Bergen
89.116.233.34,4,3,doodeeboard.com,US,Americas,Northern America,United States of America,New Jersey,,North Bergen
157.245.246.193,4,2,dosaygive.com,US,Americas,Northern America,United States of America,New Jersey,,North Bergen
137.184.213.189,4,9,dotcomdevelopment.com,US,Americas,Northern America,United States of America,New Jersey,,North Bergen
192.241.157.14,4,8631003,downtownpittsburgh.com,US,Americas,Northern America,United States of America,New Jersey,,North Bergen
137.184.141.96,4,30,droking.com,US,Americas,Northern America,United States of America,New Jersey,,North Bergen
67.207.87.243,4,6,dynatron.me,US,Americas,Northern America,United States of America,New Jersey,,North Bergen
157.245.135.65,4,2,dynatronics.com,US,Americas,Northern America,United States of America,New Jersey,,North Bergen
198.199.91.194,4,2,eagle.co.ug,US,Americas,Northern America,United States of America,New Jersey,,North Bergen
147.182.165.119,4,24,earlybird.club,US,Americas,Northern America,United States of America,New Jersey,,North Bergen
157.230.222.211,4,147,earq.com,US,Americas,Northern America,United States of America,New Jersey,,North Bergen
146.190.220.144,4,11,eastbrookvillagegreen.com,US,Americas,Northern America,United States of America,New Jersey,,North Bergen
159.89.237.105,4,30,eatonton.com,US,Americas,Northern America,United States of America,New Jersey,,North Bergen
192.241.155.101,4,15,ebibleteacher.com,US,Americas,Northern America,United States of America,New Jersey,,North Bergen
147.182.134.212,4,7,ecomall.com,US,Americas,Northern America,United States of America,New Jersey,,North Bergen
137.184.208.18,4,5,edaplayground.com,US,Americas,Northern America,United States of America,New Jersey,,North Bergen
204.48.23.29,4,5,ederman.com,US,Americas,Northern America,United States of America,New Jersey,,North Bergen
134.209.65.23,4,28,edumall.thememove.com,US,Americas,Northern America,United States of America,New Jersey,,North Bergen
68.183.103.231,4,30,eidesign.net,US,Americas,Northern America,United States of America,New Jersey,,North Bergen
159.223.118.148,4,17,einval.net,US,Americas,Northern America,United States of America,New Jersey,,North Bergen
159.89.234.200,4,59,ekitistate.gov.ng,US,Americas,Northern America,United States of America,New Jersey,,North Bergen
206.81.13.15,4,6,elkhartcountyparks.org,US,Americas,Northern America,United States of America,New Jersey,,North Bergen
64.227.9.35,4,28,emacsen.net,US,Americas,Northern America,United States of America,New Jersey,,North Bergen
157.245.81.197,4,33,enmu.edu,US,Americas,Northern America,United States of America,New Jersey,,North Bergen
157.230.10.85,4,14,enthrallinggumption.com,US,Americas,Northern America,United States of America,New Jersey,,North Bergen
159.223.97.195,4,26,epsonprintersupportpro.us,US,Americas,Northern America,United States of America,New Jersey,,North Bergen
206.81.7.78,4,26,ereadernewstoday.com,US,Americas,Northern America,United States of America,New Jersey,,North Bergen
206.189.195.243,4,61,erlend.sh,US,Americas,Northern America,United States of America,New Jersey,,North Bergen
142.93.8.143,4,1,escapeintolife.com,US,Americas,Northern America,United States of America,New Jersey,,North Bergen
159.223.97.34,4,12,essaytigers.com,US,Americas,Northern America,United States of America,New Jersey,,North Bergen
206.81.12.157,4,5,essayweb.net,US,Americas,Northern America,United States of America,New Jersey,,North Bergen
143.198.118.7,4,7,essaywriter.pro,US,Americas,Northern America,United States of America,New Jersey,,North Bergen
134.122.124.130,4,27,eventoscqcr.com,US,Americas,Northern America,United States of America,New Jersey,,North Bergen
157.230.4.186,4,4,evnt.is,US,Americas,Northern America,United States of America,New Jersey,,North Bergen
24.144.112.32,4,16,evrone.com,US,Americas,Northern America,United States of America,New Jersey,,North Bergen
192.241.142.161,4,-23735,exiledonline.com,US,Americas,Northern America,United States of America,New Jersey,,North Bergen
159.223.174.194,4,94,existentialcomics.com,US,Americas,Northern America,United States of America,New Jersey,,North Bergen
192.34.62.164,4,1,exoticindia.com,US,Americas,Northern America,United States of America,New Jersey,,North Bergen
134.209.116.78,4,0,fabfashionfix.com,US,Americas,Northern America,United States of America,New Jersey,,North Bergen
142.93.252.227,4,15,famestudios.com,US,Americas,Northern America,United States of America,New Jersey,,North Bergen
147.182.167.23,4,1673,familyradio.org,US,Americas,Northern America,United States of America,New Jersey,,North Bergen
164.90.254.248,4,17,fandbrecipes.com,US,Americas,Northern America,United States of America,New Jersey,,North Bergen
174.138.126.24,4,19,fashiontv.com,US,Americas,Northern America,United States of America,New Jersey,,North Bergen
206.189.179.24,4,1,fccinfo.com,US,Americas,Northern America,United States of America,New Jersey,,North Bergen
142.93.54.217,4,7,feeonlynetwork.com,US,Americas,Northern America,United States of America,New Jersey,,North Bergen
68.183.21.30,4,3,festmarket.com,US,Americas,Northern America,United States of America,New Jersey,,North Bergen
174.138.110.4,4,4,fictionpress.com,US,Americas,Northern America,United States of America,New Jersey,,North Bergen
104.248.232.0,4,7,fireflyin.org,US,Americas,Northern America,United States of America,New Jersey,,North Bergen
67.205.172.230,4,1,firstelectronic.bank,US,Americas,Northern America,United States of America,New Jersey,,North Bergen
142.93.54.254,4,6,fisk.com.br,US,Americas,Northern America,United States of America,New Jersey,,North Bergen
161.35.118.13,4,8,fitnessblackbook.com,US,Americas,Northern America,United States of America,New Jersey,,North Bergen
206.189.226.224,4,23,flaports.org,US,Americas,Northern America,United States of America,New Jersey,,North Bergen
67.205.190.154,4,2,flixel.org,US,Americas,Northern America,United States of America,New Jersey,,North Bergen
167.99.157.115,4,9,fludiblu.xyz,US,Americas,Northern America,United States of America,New Jersey,,North Bergen
68.183.132.13,4,13,followmda.com,US,Americas,Northern America,United States of America,New Jersey,,North Bergen
165.22.185.214,4,40,fontba.se,US,Americas,Northern America,United States of America,New Jersey,,North Bergen
159.89.90.228,4,15,foresthillsvilla.com,US,Americas,Northern America,United States of America,New Jersey,,North Bergen
198.211.100.220,4,2,forscore.co,US,Americas,Northern America,United States of America,New Jersey,,North Bergen
67.205.155.184,4,71,fortaleza1918.com.br,US,Americas,Northern America,United States of America,New Jersey,,North Bergen
137.184.199.111,4,44,fotoflexer.com,US,Americas,Northern America,United States of America,New Jersey,,North Bergen
198.199.83.69,4,27,foundmagazine.com,US,Americas,Northern America,United States of America,New Jersey,,North Bergen
157.230.200.6,4,8,foursixty.com,US,Americas,Northern America,United States of America,New Jersey,,North Bergen
157.230.5.204,4,8,foursixty.com,US,Americas,Northern America,United States of America,New Jersey,,North Bergen
174.138.108.114,4,7,foursixty.com,US,Americas,Northern America,United States of America,New Jersey,,North Bergen
162.243.171.144,4,107,fraudwatchers.org,US,Americas,Northern America,United States of America,New Jersey,,North Bergen
161.35.103.133,4,21,freedomphone.com,US,Americas,Northern America,United States of America,New Jersey,,North Bergen
143.198.185.199,4,6,freshessays.com,US,Americas,Northern America,United States of America,New Jersey,,North Bergen
67.205.160.194,4,10,friends-partners.org,US,Americas,Northern America,United States of America,New Jersey,,North Bergen
138.197.230.192,4,327,fukushimaupdate.com,US,Americas,Northern America,United States of America,New Jersey,,North Bergen
134.122.16.168,4,-1,funcern.br,US,Americas,Northern America,United States of America,New Jersey,,North Bergen
161.35.58.31,4,9,funeralfinder.com,US,Americas,Northern America,United States of America,New Jersey,,North Bergen
165.227.196.26,4,18,gambinos.com,US,Americas,Northern America,United States of America,New Jersey,,North Bergen
192.81.216.73,4,9,gamers-forum.com,US,Americas,Northern America,United States of America,New Jersey,,North Bergen
159.89.233.243,4,24,gaslightmedia.com,US,Americas,Northern America,United States of America,New Jersey,,North Bergen
198.211.108.9,4,27,georgetown.domains,US,Americas,Northern America,United States of America,New Jersey,,North Bergen
167.172.141.178,4,0,getklok.com,US,Americas,Northern America,United States of America,New Jersey,,North Bergen
67.207.88.188,4,96,getmotopress.com,US,Americas,Northern America,United States of America,New Jersey,,North Bergen
89.116.106.232,4,17,gideontech.com,US,Americas,Northern America,United States of America,New Jersey,,North Bergen
159.89.54.36,4,8,go4customer.com,US,Americas,Northern America,United States of America,New Jersey,,North Bergen
192.241.158.198,4,27,goldfrapp.co.uk,US,Americas,Northern America,United States of America,New Jersey,,North Bergen
159.223.144.35,4,70,gosznac-diplom24.com,US,Americas,Northern America,United States of America,New Jersey,,North Bergen
157.230.94.72,4,1587095,governorsfoundation.org,US,Americas,Northern America,United States of America,New Jersey,,North Bergen
142.93.194.78,4,6,gpages.com.br,US,Americas,Northern America,United States of America,New Jersey,,North Bergen
178.128.156.195,4,3,greaterstlinc.com,US,Americas,Northern America,United States of America,New Jersey,,North Bergen
161.35.9.253,4,41,grocery.com,US,Americas,Northern America,United States of America,New Jersey,,North Bergen
67.205.164.175,4,12,grou.ps,US,Americas,Northern America,United States of America,New Jersey,,North Bergen
167.172.12.148,4,6,gryphel.com,US,Americas,Northern America,United States of America,New Jersey,,North Bergen
68.183.132.119,4,11,guestcanpost.com,US,Americas,Northern America,United States of America,New Jersey,,North Bergen
198.199.65.227,4,7,guidetodatamining.com,US,Americas,Northern America,United States of America,New Jersey,,North Bergen
142.93.255.124,4,3,gunsmokenet.com,US,Americas,Northern America,United States of America,New Jersey,,North Bergen
157.230.216.61,4,7,gustavoborges.com.br,US,Americas,Northern America,United States of America,New Jersey,,North Bergen
157.230.64.238,4,26,hacksrus.com,US,Americas,Northern America,United States of America,New Jersey,,North Bergen
142.93.192.124,4,9,hallandalelaw.com,US,Americas,Northern America,United States of America,New Jersey,,North Bergen
159.223.105.37,4,4,hallelujah.ai,US,Americas,Northern America,United States of America,New Jersey,,North Bergen
192.241.148.36,4,452215,hamatata.com,US,Americas,Northern America,United States of America,New Jersey,,North Bergen
198.199.67.129,4,4,hckrnews.com,US,Americas,Northern America,United States of America,New Jersey,,North Bergen
137.184.77.213,4,18,healthambition.com,US,Americas,Northern America,United States of America,New Jersey,,North Bergen
192.241.143.80,4,56,healthyblenderrecipes.com,US,Americas,Northern America,United States of America,New Jersey,,North Bergen
157.230.176.123,4,2,hecker.org,US,Americas,Northern America,United States of America,New Jersey,,North Bergen
137.184.242.163,4,9,heinzawards.org,US,Americas,Northern America,United States of America,New Jersey,,North Bergen
206.189.190.32,4,213040,hereweeread.com,US,Americas,Northern America,United States of America,New Jersey,,North Bergen
165.227.255.11,4,23,highwaywestvacations.com,US,Americas,Northern America,United States of America,New Jersey,,North Bergen
64.227.29.250,4,768640,hmdb.ca,US,Americas,Northern America,United States of America,New Jersey,,North Bergen
159.89.234.103,4,1,hmdtrucking.com,US,Americas,Northern America,United States of America,New Jersey,,North Bergen
142.93.1.251,4,51,holyapostles.edu,US,Americas,Northern America,United States of America,New Jersey,,North Bergen
161.35.1.144,4,49,homenation.com,US,Americas,Northern America,United States of America,New Jersey,,North Bergen
146.190.222.69,4,5,homeschoolingwithdyslexia.com,US,Americas,Northern America,United States of America,New Jersey,,North Bergen
192.241.129.87,4,7,housetohouse.com,US,Americas,Northern America,United States of America,New Jersey,,North Bergen
67.205.150.138,4,6,hubski.com,US,Americas,Northern America,United States of America,New Jersey,,North Bergen
134.122.30.78,4,7,iastatedigitalpress.com,US,Americas,Northern America,United States of America,New Jersey,,North Bergen
192.81.217.56,4,8,icraftgifts.com,US,Americas,Northern America,United States of America,New Jersey,,North Bergen
159.89.50.127,4,27,idiallo.com,US,Americas,Northern America,United States of America,New Jersey,,North Bergen
68.183.26.41,4,10,ifinancebox.com,US,Americas,Northern America,United States of America,New Jersey,,North Bergen
104.248.229.102,4,37,immigrationlab.org,US,Americas,Northern America,United States of America,New Jersey,,North Bergen
157.230.48.95,4,29,infochannel.info,US,Americas,Northern America,United States of America,New Jersey,,North Bergen
204.48.30.131,4,77,infoimageinc.com,US,Americas,Northern America,United States of America,New Jersey,,North Bergen
209.160.190.242,4,2,infragistics.com,US,Americas,Northern America,United States of America,New Jersey,,North Bergen
157.230.201.188,4,48,instantwatcher.com,US,Americas,Northern America,United States of America,New Jersey,,North Bergen
134.209.112.40,4,6,intenpro.com,US,Americas,Northern America,United States of America,New Jersey,,North Bergen
67.205.148.115,4,26,issvd.org,US,Americas,Northern America,United States of America,New Jersey,,North Bergen
142.93.10.61,4,8,itunescharts.net,US,Americas,Northern America,United States of America,New Jersey,,North Bergen
137.184.241.120,4,15,izsummitpartners.org,US,Americas,Northern America,United States of America,New Jersey,,North Bergen
198.199.76.62,4,5,jacarestudios.com,US,Americas,Northern America,United States of America,New Jersey,,North Bergen
64.227.9.130,4,4,jacky.wtf,US,Americas,Northern America,United States of America,New Jersey,,North Bergen
167.172.2.57,4,22,jasonmccreary.me,US,Americas,Northern America,United States of America,New Jersey,,North Bergen
159.223.114.165,4,4,javatimescaffe.com,US,Americas,Northern America,United States of America,New Jersey,,North Bergen
198.199.85.212,4,1,jeffdaniels.com,US,Americas,Northern America,United States of America,New Jersey,,North Bergen
67.205.189.237,4,0,jobomas.com,US,Americas,Northern America,United States of America,New Jersey,,North Bergen
67.207.84.65,4,3,jobomas.com,US,Americas,Northern America,United States of America,New Jersey,,North Bergen
67.205.187.107,4,2,jobomas.com,US,Americas,Northern America,United States of America,New Jersey,,North Bergen
159.203.159.137,4,4,jpopasia.com,US,Americas,Northern America,United States of America,New Jersey,,North Bergen
167.172.149.116,4,3,jupitertheatre.org,US,Americas,Northern America,United States of America,New Jersey,,North Bergen
198.199.74.14,4,10,justpo.st,US,Americas,Northern America,United States of America,New Jersey,,North Bergen
206.189.204.250,4,1,kc8tai.com,US,Americas,Northern America,United States of America,New Jersey,,North Bergen
206.189.190.159,4,62,kicad.info,US,Americas,Northern America,United States of America,New Jersey,,North Bergen
174.138.126.101,4,50,kill-the-newsletter.com,US,Americas,Northern America,United States of America,New Jersey,,North Bergen
67.205.150.135,4,16,klinica.com.ua,US,Americas,Northern America,United States of America,New Jersey,,North Bergen
198.199.69.71,4,5159,knittinghelp.com,US,Americas,Northern America,United States of America,New Jersey,,North Bergen
68.183.30.60,4,1,koivi.com,US,Americas,Northern America,United States of America,New Jersey,,North Bergen
147.182.138.144,4,50,kristywicks.com,US,Americas,Northern America,United States of America,New Jersey,,North Bergen
67.205.154.238,4,5,kwave.ai,US,Americas,Northern America,United States of America,New Jersey,,North Bergen
142.93.9.253,4,4,l4dmaps.com,US,Americas,Northern America,United States of America,New Jersey,,North Bergen
192.241.134.110,4,4,labautomation.io,US,Americas,Northern America,United States of America,New Jersey,,North Bergen
89.117.94.69,4,20,laconi.ca,US,Americas,Northern America,United States of America,New Jersey,,North Bergen
137.184.146.29,4,3,lagranderadioclub.com,US,Americas,Northern America,United States of America,New Jersey,,North Bergen
157.245.139.182,4,5,lahorde.info,US,Americas,Northern America,United States of America,New Jersey,,North Bergen
198.211.113.68,4,18363930,landonf.org,US,Americas,Northern America,United States of America,New Jersey,,North Bergen
138.197.230.232,4,2,lardbucket.org,US,Americas,Northern America,United States of America,New Jersey,,North Bergen
157.230.214.23,4,14,latinastereo.com,US,Americas,Northern America,United States of America,New Jersey,,North Bergen
157.230.187.248,4,99,ledil.com,US,Americas,Northern America,United States of America,New Jersey,,North Bergen
142.93.116.49,4,50,lem.monster,US,Americas,Northern America,United States of America,New Jersey,,North Bergen
165.227.94.192,4,14,letters.org,US,Americas,Northern America,United States of America,New Jersey,,North Bergen
157.230.49.243,4,20,lifeofanarchitect.com,US,Americas,Northern America,United States of America,New Jersey,,North Bergen
104.248.234.151,4,3,lifestyleupdated.com,US,Americas,Northern America,United States of America,New Jersey,,North Bergen
167.172.13.27,4,3,liinks.co,US,Americas,Northern America,United States of America,New Jersey,,North Bergen
159.89.91.159,4,6,livtours.com,US,Americas,Northern America,United States of America,New Jersey,,North Bergen
192.34.60.104,4,3,llllllll.co,US,Americas,Northern America,United States of America,New Jersey,,North Bergen
67.205.150.77,4,350758,lnb.com.br,US,Americas,Northern America,United States of America,New Jersey,,North Bergen
67.205.189.7,4,2,lobste.rs,US,Americas,Northern America,United States of America,New Jersey,,North Bergen
167.99.11.139,4,51,lotterypredictor.com,US,Americas,Northern America,United States of America,New Jersey,,North Bergen
147.182.209.193,4,25,lovesigma.com,US,Americas,Northern America,United States of America,New Jersey,,North Bergen
198.211.100.41,4,1208671,lsdsng.com,US,Americas,Northern America,United States of America,New Jersey,,North Bergen
206.189.225.172,4,25,luvit.io,US,Americas,Northern America,United States of America,New Jersey,,North Bergen
147.182.210.89,4,4,luxurychicagoapartments.com,US,Americas,Northern America,United States of America,New Jersey,,North Bergen
67.205.133.198,4,7,luxvt.com,US,Americas,Northern America,United States of America,New Jersey,,North Bergen
159.89.50.241,4,35,manuelsweb.com,US,Americas,Northern America,United States of America,New Jersey,,North Bergen
134.122.122.220,4,50,manyeats.com,US,Americas,Northern America,United States of America,New Jersey,,North Bergen
192.241.135.200,4,16,maryrosecook.com,US,Americas,Northern America,United States of America,New Jersey,,North Bergen
178.128.157.30,4,6,math-atlas.org,US,Americas,Northern America,United States of America,New Jersey,,North Bergen
165.227.80.24,4,40,matrackinc.com,US,Americas,Northern America,United States of America,New Jersey,,North Bergen
137.184.242.75,4,8,mbsquoteline.com,US,Americas,Northern America,United States of America,New Jersey,,North Bergen
198.211.116.95,4,8,mcbroken.com,US,Americas,Northern America,United States of America,New Jersey,,North Bergen
192.34.61.47,4,5,mcdowellgov.com,US,Americas,Northern America,United States of America,New Jersey,,North Bergen
167.99.156.201,4,2,mconvert.net,US,Americas,Northern America,United States of America,New Jersey,,North Bergen
192.81.212.167,4,6,mealsharing.com,US,Americas,Northern America,United States of America,New Jersey,,North Bergen
192.81.210.202,4,18,meccha-japan.com,US,Americas,Northern America,United States of America,New Jersey,,North Bergen
142.93.13.232,4,47,medach.pro,US,Americas,Northern America,United States of America,New Jersey,,North Bergen
67.205.157.116,4,89,megablogging.org,US,Americas,Northern America,United States of America,New Jersey,,North Bergen
67.205.184.246,4,2,meicigama.com,US,Americas,Northern America,United States of America,New Jersey,,North Bergen
157.230.236.151,4,18,meredithplays.com,US,Americas,Northern America,United States of America,New Jersey,,North Bergen
159.223.164.242,4,13,metodosupera.com.br,US,Americas,Northern America,United States of America,New Jersey,,North Bergen
159.89.88.210,4,3,mghcme.org,US,Americas,Northern America,United States of America,New Jersey,,North Bergen
64.227.3.48,4,3,midwaycoc.org,US,Americas,Northern America,United States of America,New Jersey,,North Bergen
165.227.253.140,4,3,milehighcomics.com,US,Americas,Northern America,United States of America,New Jersey,,North Bergen
174.138.40.228,4,11,mommy-diary.com,US,Americas,Northern America,United States of America,New Jersey,,North Bergen
161.35.52.87,4,6,mountaincars.com,US,Americas,Northern America,United States of America,New Jersey,,North Bergen
142.93.57.208,4,5,mpd150.com,US,Americas,Northern America,United States of America,New Jersey,,North Bergen
204.48.30.15,4,9,mriegypt.com,US,Americas,Northern America,United States of America,New Jersey,,North Bergen
45.55.105.21,4,35,mtida.org,US,Americas,Northern America,United States of America,New Jersey,,North Bergen
159.223.173.196,4,32,mushhaven.com,US,Americas,Northern America,United States of America,New Jersey,,North Bergen
192.241.147.112,4,692847,musical-artifacts.com,US,Americas,Northern America,United States of America,New Jersey,,North Bergen
134.122.30.95,4,2,mutawakkil.com,US,Americas,Northern America,United States of America,New Jersey,,North Bergen
134.209.131.26,4,34,my-debugbar.com,US,Americas,Northern America,United States of America,New Jersey,,North Bergen
206.81.11.117,4,31,mybeatbuddy.com,US,Americas,Northern America,United States of America,New Jersey,,North Bergen
24.144.64.74,4,4,mycasebuilder.com,US,Americas,Northern America,United States of America,New Jersey,,North Bergen
134.209.211.7,4,11,myclevermind.com,US,Americas,Northern America,United States of America,New Jersey,,North Bergen
142.93.254.72,4,34,mypy-lang.org,US,Americas,Northern America,United States of America,New Jersey,,North Bergen
162.243.170.57,4,5,mytinyphone.com,US,Americas,Northern America,United States of America,New Jersey,,North Bergen
167.172.0.123,4,29,myvisuallistings.com,US,Americas,Northern America,United States of America,New Jersey,,North Bergen
167.172.13.150,4,3,named-data.net,US,Americas,Northern America,United States of America,New Jersey,,North Bergen
143.244.202.173,4,89,naset.org,US,Americas,Northern America,United States of America,New Jersey,,North Bergen
147.182.137.22,4,35,nassauinn.com,US,Americas,Northern America,United States of America,New Jersey,,North Bergen
69.55.54.193,4,44,nationalpawnbrokers.org,US,Americas,Northern America,United States of America,New Jersey,,North Bergen
138.197.227.238,4,108,nativepeoples.com,US,Americas,Northern America,United States of America,New Jersey,,North Bergen
64.227.8.103,4,-1,nbba.org,US,Americas,Northern America,United States of America,New Jersey,,North Bergen
159.89.239.140,4,8,neatvideo.com,US,Americas,Northern America,United States of America,New Jersey,,North Bergen
167.172.146.58,4,78,network-king.net,US,Americas,Northern America,United States of America,New Jersey,,North Bergen
68.183.125.82,4,7,networkafterwork.com,US,Americas,Northern America,United States of America,New Jersey,,North Bergen
167.172.143.214,4,3,new-harvest.org,US,Americas,Northern America,United States of America,New Jersey,,North Bergen
68.183.137.57,4,84,newbalanceshoes.us,US,Americas,Northern America,United States of America,New Jersey,,North Bergen
159.89.231.58,4,4,newswireless.net,US,Americas,Northern America,United States of America,New Jersey,,North Bergen
68.183.125.178,4,4,nexus-soft.org,US,Americas,Northern America,United States of America,New Jersey,,North Bergen
64.227.18.155,4,2,nffe.org,US,Americas,Northern America,United States of America,New Jersey,,North Bergen
198.199.73.125,4,12,nicole.express,US,Americas,Northern America,United States of America,New Jersey,,North Bergen
104.248.120.180,4,-1,nissanstadium.com,US,Americas,Northern America,United States of America,New Jersey,,North Bergen
165.227.87.59,4,4,nissinfoods.com,US,Americas,Northern America,United States of America,New Jersey,,North Bergen
142.93.119.164,4,1,njbia.org,US,Americas,Northern America,United States of America,New Jersey,,North Bergen
157.230.95.229,4,8,nlx.ai,US,Americas,Northern America,United States of America,New Jersey,,North Bergen
24.199.90.220,4,52,notdigg.com,US,Americas,Northern America,United States of America,New Jersey,,North Bergen
206.81.10.209,4,21,noteworthycomposer.com,US,Americas,Northern America,United States of America,New Jersey,,North Bergen
143.244.163.106,4,31,novelsquare.com,US,Americas,Northern America,United States of America,New Jersey,,North Bergen
138.197.228.32,4,7,npdlink.com,US,Americas,Northern America,United States of America,New Jersey,,North Bergen
159.89.234.154,4,8,npstw.org,US,Americas,Northern America,United States of America,New Jersey,,North Bergen
137.184.153.102,4,6,nucamprv.com,US,Americas,Northern America,United States of America,New Jersey,,North Bergen
67.205.180.12,4,3,nucloud.com,US,Americas,Northern America,United States of America,New Jersey,,North Bergen
159.89.90.74,4,4,nxlog.co,US,Americas,Northern America,United States of America,New Jersey,,North Bergen
167.99.147.193,4,4,nyssma.org,US,Americas,Northern America,United States of America,New Jersey,,North Bergen
165.227.255.119,4,6,octave.org,US,Americas,Northern America,United States of America,New Jersey,,North Bergen
137.184.27.195,4,18,olavodecarvalho.org,US,Americas,Northern America,United States of America,New Jersey,,North Bergen
147.182.136.54,4,48,oldsouth.org,US,Americas,Northern America,United States of America,New Jersey,,North Bergen
159.203.189.225,4,24,onlinemarketingpal.com,US,Americas,Northern America,United States of America,New Jersey,,North Bergen
192.241.159.174,4,10,onlinesalespro.com,US,Americas,Northern America,United States of America,New Jersey,,North Bergen
167.172.129.73,4,-1,onsv.org.br,US,Americas,Northern America,United States of America,New Jersey,,North Bergen
134.122.18.31,4,14,ontrackindy.com,US,Americas,Northern America,United States of America,New Jersey,,North Bergen
206.189.202.178,4,310,Ookla Speedtest Server 52435: testbyubinet.com,US,Americas,Northern America,United States of America,New Jersey,,North Bergen
45.55.106.19,4,2,openpowerlifting.org,US,Americas,Northern America,United States of America,New Jersey,,North Bergen
157.245.244.52,4,50,opensearchserver.com,US,Americas,Northern America,United States of America,New Jersey,,North Bergen
157.230.7.154,4,33,oz-code.com,US,Americas,Northern America,United States of America,New Jersey,,North Bergen
167.99.149.156,4,19,paperwritings.com,US,Americas,Northern America,United States of America,New Jersey,,North Bergen
143.244.215.142,4,21,parabon-nanolabs.com,US,Americas,Northern America,United States of America,New Jersey,,North Bergen
204.48.26.227,4,59,partswarehouse.com,US,Americas,Northern America,United States of America,New Jersey,,North Bergen
143.244.170.46,4,45,patientsforaffordabledrugs.org,US,Americas,Northern America,United States of America,New Jersey,,North Bergen
137.184.129.146,4,8,paydotcom.net,US,Americas,Northern America,United States of America,New Jersey,,North Bergen
159.203.186.252,4,12,pbpindiantribe.com,US,Americas,Northern America,United States of America,New Jersey,,North Bergen
134.122.124.143,4,9,pcc.com,US,Americas,Northern America,United States of America,New Jersey,,North Bergen
164.90.253.12,4,9,peewee.com,US,Americas,Northern America,United States of America,New Jersey,,North Bergen
143.244.201.199,4,31,pentalquartz.com,US,Americas,Northern America,United States of America,New Jersey,,North Bergen
143.198.172.7,4,46,periodismodebarrio.org,US,Americas,Northern America,United States of America,New Jersey,,North Bergen
143.244.214.225,4,19,philaymca.org,US,Americas,Northern America,United States of America,New Jersey,,North Bergen
68.183.138.146,4,16,photoshopstar.com,US,Americas,Northern America,United States of America,New Jersey,,North Bergen
198.211.105.146,4,50,php-accelerator.co.uk,US,Americas,Northern America,United States of America,New Jersey,,North Bergen
198.211.100.195,4,51207,phpform.org,US,Americas,Northern America,United States of America,New Jersey,,North Bergen
206.189.252.96,4,12,physicianseast.com,US,Americas,Northern America,United States of America,New Jersey,,North Bergen
167.99.9.89,4,32,pinkpeonies.com,US,Americas,Northern America,United States of America,New Jersey,,North Bergen
142.93.1.118,4,68,planecrashmap.com,US,Americas,Northern America,United States of America,New Jersey,,North Bergen
165.22.183.186,4,9,pluralpublishing.com,US,Americas,Northern America,United States of America,New Jersey,,North Bergen
67.205.146.150,4,25,policescorecard.org,US,Americas,Northern America,United States of America,New Jersey,,North Bergen
159.203.191.47,4,3787071,postofficeshours.com,US,Americas,Northern America,United States of America,New Jersey,,North Bergen
161.35.125.80,4,33,pragprog.com,US,Americas,Northern America,United States of America,New Jersey,,North Bergen
159.203.184.218,4,58,prairieband.com,US,Americas,Northern America,United States of America,New Jersey,,North Bergen
68.183.120.180,4,11,preline.co,US,Americas,Northern America,United States of America,New Jersey,,North Bergen
161.35.6.210,4,11,prelovac.com,US,Americas,Northern America,United States of America,New Jersey,,North Bergen
147.182.212.142,4,22,preventepidemics.org,US,Americas,Northern America,United States of America,New Jersey,,North Bergen
142.93.15.96,4,43,prfire.com,US,Americas,Northern America,United States of America,New Jersey,,North Bergen
174.138.46.85,4,52,primecoin.io,US,Americas,Northern America,United States of America,New Jersey,,North Bergen
104.248.109.253,4,43,prince.com,US,Americas,Northern America,United States of America,New Jersey,,North Bergen
167.99.238.9,4,26,princeestate.com,US,Americas,Northern America,United States of America,New Jersey,,North Bergen
67.205.169.9,4,21,promethazine.shop,US,Americas,Northern America,United States of America,New Jersey,,North Bergen
192.81.215.182,4,30,promosimple.com,US,Americas,Northern America,United States of America,New Jersey,,North Bergen
159.89.234.229,4,5,proskillsbasketball.com,US,Americas,Northern America,United States of America,New Jersey,,North Bergen
134.209.129.10,4,31,prosoco.com,US,Americas,Northern America,United States of America,New Jersey,,North Bergen
143.198.113.166,4,13,publicsf.com,US,Americas,Northern America,United States of America,New Jersey,,North Bergen
134.209.222.31,4,13,pumpyoursound.com,US,Americas,Northern America,United States of America,New Jersey,,North Bergen
174.138.127.179,4,7,pyinvoke.org,US,Americas,Northern America,United States of America,New Jersey,,North Bergen
67.205.132.243,4,6,qotoqot.com,US,Americas,Northern America,United States of America,New Jersey,,North Bergen
159.89.82.198,4,6,quotefully.com,US,Americas,Northern America,United States of America,New Jersey,,North Bergen
174.138.34.44,4,48,rabbinicalassembly.org,US,Americas,Northern America,United States of America,New Jersey,,North Bergen
192.241.134.228,4,120,radiocayman.gov.ky,US,Americas,Northern America,United States of America,New Jersey,,North Bergen
165.227.200.156,4,81,radiowoodstock.com,US,Americas,Northern America,United States of America,New Jersey,,North Bergen
167.99.11.73,4,96,radomes.org,US,Americas,Northern America,United States of America,New Jersey,,North Bergen
161.35.116.71,4,4,realvolve.com,US,Americas,Northern America,United States of America,New Jersey,,North Bergen
142.93.3.101,4,22,recruitbpm.com,US,Americas,Northern America,United States of America,New Jersey,,North Bergen
192.81.209.4,4,-25571,redalt.com,US,Americas,Northern America,United States of America,New Jersey,,North Bergen
157.245.242.74,4,35,redrocksshuttle.com,US,Americas,Northern America,United States of America,New Jersey,,North Bergen
138.197.225.200,4,8,reliableparts.ca,US,Americas,Northern America,United States of America,New Jersey,,North Bergen
142.93.243.53,4,9,replicheorologi.it,US,Americas,Northern America,United States of America,New Jersey,,North Bergen
206.189.187.49,4,18,responsibilityreports.com,US,Americas,Northern America,United States of America,New Jersey,,North Bergen
146.190.198.121,4,51,restcountries.com,US,Americas,Northern America,United States of America,New Jersey,,North Bergen
165.227.252.42,4,21,retro.social,US,Americas,Northern America,United States of America,New Jersey,,North Bergen
165.22.10.62,4,39,revistaeducacao.com.br,US,Americas,Northern America,United States of America,New Jersey,,North Bergen
45.55.107.236,4,8,revistafator.com.br,US,Americas,Northern America,United States of America,New Jersey,,North Bergen
137.184.73.90,4,4,reyesholdings.com,US,Americas,Northern America,United States of America,New Jersey,,North Bergen
142.93.127.50,4,18,rhapsodyofrealities.org,US,Americas,Northern America,United States of America,New Jersey,,North Bergen
174.138.124.247,4,9,ritaallen.org,US,Americas,Northern America,United States of America,New Jersey,,North Bergen
67.205.151.57,4,1,riwi.com,US,Americas,Northern America,United States of America,New Jersey,,North Bergen
165.227.201.47,4,60,rockymtnruby.com,US,Americas,Northern America,United States of America,New Jersey,,North Bergen
64.227.25.9,4,44,roguebasin.com,US,Americas,Northern America,United States of America,New Jersey,,North Bergen
167.172.149.10,4,20,rosscarlson.dev,US,Americas,Northern America,United States of America,New Jersey,,North Bergen
159.223.98.81,4,17,royalpharmacart.com,US,Americas,Northern America,United States of America,New Jersey,,North Bergen
167.99.151.26,4,5,rrmetro.org,US,Americas,Northern America,United States of America,New Jersey,,North Bergen
198.211.103.209,4,12,rru.com,US,Americas,Northern America,United States of America,New Jersey,,North Bergen
159.203.184.104,4,8,rsdhope.org,US,Americas,Northern America,United States of America,New Jersey,,North Bergen
165.22.186.199,4,8,sbmastologia.com.br,US,Americas,Northern America,United States of America,New Jersey,,North Bergen
206.189.186.174,4,3,scenepointblank.com,US,Americas,Northern America,United States of America,New Jersey,,North Bergen
67.205.163.17,4,6,scharmot.com,US,Americas,Northern America,United States of America,New Jersey,,North Bergen
159.223.154.55,4,20,science.co.il,US,Americas,Northern America,United States of America,New Jersey,,North Bergen
161.35.123.51,4,2,scienceblogs.com,US,Americas,Northern America,United States of America,New Jersey,,North Bergen
104.248.108.14,4,1,scienceresearch.com,US,Americas,Northern America,United States of America,New Jersey,,North Bergen
159.223.97.60,4,3,scrubsmag.com,US,Americas,Northern America,United States of America,New Jersey,,North Bergen
206.189.185.253,4,-1,sdachurch.com,US,Americas,Northern America,United States of America,New Jersey,,North Bergen
165.22.184.231,4,1733198,seaquence.org,US,Americas,Northern America,United States of America,New Jersey,,North Bergen
206.189.200.244,4,8,secretprojects.co.uk,US,Americas,Northern America,United States of America,New Jersey,,North Bergen
167.99.8.125,4,15,securingjava.com,US,Americas,Northern America,United States of America,New Jersey,,North Bergen
174.138.35.185,4,32,seminolecounty.tax,US,Americas,Northern America,United States of America,New Jersey,,North Bergen
157.230.189.248,4,10,senatedems.com,US,Americas,Northern America,United States of America,New Jersey,,North Bergen
167.99.0.70,4,3,seosamba.com,US,Americas,Northern America,United States of America,New Jersey,,North Bergen
67.207.88.81,4,14,seotoaster.com,US,Americas,Northern America,United States of America,New Jersey,,North Bergen
157.230.55.210,4,54,settlersgreen.com,US,Americas,Northern America,United States of America,New Jersey,,North Bergen
162.243.166.178,4,3,sha.org,US,Americas,Northern America,United States of America,New Jersey,,North Bergen
143.198.120.96,4,5,shegowandering.com,US,Americas,Northern America,United States of America,New Jersey,,North Bergen
67.207.92.249,4,8,sheridan.edu,US,Americas,Northern America,United States of America,New Jersey,,North Bergen
68.183.104.228,4,52,silvrback.com,US,Americas,Northern America,United States of America,New Jersey,,North Bergen
167.99.154.71,4,8,simpletravelsearch.com,US,Americas,Northern America,United States of America,New Jersey,,North Bergen
147.182.171.80,4,29,site-helper.com,US,Americas,Northern America,United States of America,New Jersey,,North Bergen
167.99.11.144,4,19,ski-europe.com,US,Americas,Northern America,United States of America,New Jersey,,North Bergen
159.203.190.190,4,38,skinh.com,US,Americas,Northern America,United States of America,New Jersey,,North Bergen
67.205.161.113,4,28,skipthegames.io,US,Americas,Northern America,United States of America,New Jersey,,North Bergen
138.197.225.173,4,6,slicer.org,US,Americas,Northern America,United States of America,New Jersey,,North Bergen
161.35.53.110,4,3,smallbusinesshq.co,US,Americas,Northern America,United States of America,New Jersey,,North Bergen
167.172.144.191,4,16,smashicons.com,US,Americas,Northern America,United States of America,New Jersey,,North Bergen
134.122.119.84,4,3,smashmexico.com.mx,US,Americas,Northern America,United States of America,New Jersey,,North Bergen
161.35.103.33,4,0,smokedbbqsource.com,US,Americas,Northern America,United States of America,New Jersey,,North Bergen
159.89.236.70,4,62,smokingthings.com,US,Americas,Northern America,United States of America,New Jersey,,North Bergen
159.65.230.198,4,3,smpresource.org,US,Americas,Northern America,United States of America,New Jersey,,North Bergen
162.243.173.213,4,5,snack-girl.com,US,Americas,Northern America,United States of America,New Jersey,,North Bergen
159.89.239.147,4,28,snusdirect.com,US,Americas,Northern America,United States of America,New Jersey,,North Bergen
147.182.139.194,4,11,socialfish.org,US,Americas,Northern America,United States of America,New Jersey,,North Bergen
157.230.57.74,4,25,softjourn.com,US,Americas,Northern America,United States of America,New Jersey,,North Bergen
167.172.148.167,4,24,solarpower.guide,US,Americas,Northern America,United States of America,New Jersey,,North Bergen
161.35.49.27,4,23,sonicsatam.com,US,Americas,Northern America,United States of America,New Jersey,,North Bergen
198.199.72.104,4,1,sonnb.com,US,Americas,Northern America,United States of America,New Jersey,,North Bergen
174.138.127.76,4,9,soundworkscollection.com,US,Americas,Northern America,United States of America,New Jersey,,North Bergen
134.209.116.18,4,2,sourceandresource.com,US,Americas,Northern America,United States of America,New Jersey,,North Bergen
178.128.159.46,4,35,speakingofspeech.com,US,Americas,Northern America,United States of America,New Jersey,,North Bergen
67.205.143.184,4,11,spectrumretirement.com,US,Americas,Northern America,United States of America,New Jersey,,North Bergen
167.172.148.201,4,31,speechblubs.com,US,Americas,Northern America,United States of America,New Jersey,,North Bergen
143.244.164.138,4,6,spoilednyc.com,US,Americas,Northern America,United States of America,New Jersey,,North Bergen
167.172.153.215,4,2,st-barths.com,US,Americas,Northern America,United States of America,New Jersey,,North Bergen
67.205.171.203,4,3,stampnews.com,US,Americas,Northern America,United States of America,New Jersey,,North Bergen
67.205.150.245,4,48,starstudds.com,US,Americas,Northern America,United States of America,New Jersey,,North Bergen
157.230.179.167,4,4,stillbirthalliance.org,US,Americas,Northern America,United States of America,New Jersey,,North Bergen
174.138.42.156,4,7,stockmarket.com,US,Americas,Northern America,United States of America,New Jersey,,North Bergen
208.68.37.21,4,60,straitsresearch.com,US,Americas,Northern America,United States of America,New Jersey,,North Bergen
159.65.227.77,4,74,stratisc.org,US,Americas,Northern America,United States of America,New Jersey,,North Bergen
137.184.71.245,4,55,streamhash.com,US,Americas,Northern America,United States of America,New Jersey,,North Bergen
67.205.184.66,4,2,streamingvideoprovider.com,US,Americas,Northern America,United States of America,New Jersey,,North Bergen
159.89.54.191,4,34,streetpeeper.com,US,Americas,Northern America,United States of America,New Jersey,,North Bergen
68.183.98.85,4,62,studybuddhism.com,US,Americas,Northern America,United States of America,New Jersey,,North Bergen
68.183.30.158,4,5,sundials.org,US,Americas,Northern America,United States of America,New Jersey,,North Bergen
137.184.243.181,4,12,supplyleader.com,US,Americas,Northern America,United States of America,New Jersey,,North Bergen
89.117.96.208,4,6,swiftthemes.com,US,Americas,Northern America,United States of America,New Jersey,,North Bergen
137.184.213.234,4,6,talkmurder.com,US,Americas,Northern America,United States of America,New Jersey,,North Bergen
206.189.254.162,4,7,talkpython.fm,US,Americas,Northern America,United States of America,New Jersey,,North Bergen
143.198.163.51,4,28,tartans.com,US,Americas,Northern America,United States of America,New Jersey,,North Bergen
178.128.148.194,4,394817,tauniverse.com,US,Americas,Northern America,United States of America,New Jersey,,North Bergen
159.223.105.228,4,40,techienews.co.uk,US,Americas,Northern America,United States of America,New Jersey,,North Bergen
147.182.143.238,4,98,techilaservices.com,US,Americas,Northern America,United States of America,New Jersey,,North Bergen
159.89.48.26,4,75,technixupdate.com,US,Americas,Northern America,United States of America,New Jersey,,North Bergen
68.183.103.84,4,4,technologyevangelist.com,US,Americas,Northern America,United States of America,New Jersey,,North Bergen
157.245.244.68,4,10,techstocks.com,US,Americas,Northern America,United States of America,New Jersey,,North Bergen
206.189.179.20,4,2,telepesquisa.com,US,Americas,Northern America,United States of America,New Jersey,,North Bergen
68.183.24.17,4,3,teleread.com,US,Americas,Northern America,United States of America,New Jersey,,North Bergen
159.223.158.229,4,-1,testgrid.io,US,Americas,Northern America,United States of America,New Jersey,,North Bergen
206.189.177.187,4,17,theaterofwar.com,US,Americas,Northern America,United States of America,New Jersey,,North Bergen
174.138.36.44,4,12,thebanner.org,US,Americas,Northern America,United States of America,New Jersey,,North Bergen
143.244.213.28,4,3,thecairoreview.com,US,Americas,Northern America,United States of America,New Jersey,,North Bergen
174.138.127.215,4,5,thecornerkitchenblog.com,US,Americas,Northern America,United States of America,New Jersey,,North Bergen
198.199.85.78,4,14,thecoverproject.net,US,Americas,Northern America,United States of America,New Jersey,,North Bergen
174.138.38.196,4,48,thedebrief.org,US,Americas,Northern America,United States of America,New Jersey,,North Bergen
104.248.120.163,4,-104,theentrepreneurfund.com,US,Americas,Northern America,United States of America,New Jersey,,North Bergen
192.241.139.239,4,18,theholdsteady.net,US,Americas,Northern America,United States of America,New Jersey,,North Bergen
167.172.2.56,4,1,thehomeshare.com,US,Americas,Northern America,United States of America,New Jersey,,North Bergen
142.93.60.120,4,1,thehometome.com,US,Americas,Northern America,United States of America,New Jersey,,North Bergen
68.183.102.197,4,0,theinternationalforecaster.com,US,Americas,Northern America,United States of America,New Jersey,,North Bergen
167.172.151.1,4,28,thememorypalace.us,US,Americas,Northern America,United States of America,New Jersey,,North Bergen
68.183.129.15,4,64,themes.zone,US,Americas,Northern America,United States of America,New Jersey,,North Bergen
167.172.140.239,4,35,themesflat.co,US,Americas,Northern America,United States of America,New Jersey,,North Bergen
167.99.224.98,4,121,theopenmat.com,US,Americas,Northern America,United States of America,New Jersey,,North Bergen
67.207.86.173,4,13,therealfoodguide.com,US,Americas,Northern America,United States of America,New Jersey,,North Bergen
157.230.55.45,4,8,thevintageaviator.co.nz,US,Americas,Northern America,United States of America,New Jersey,,North Bergen
192.81.216.216,4,14,thinkupthemes.com,US,Americas,Northern America,United States of America,New Jersey,,North Bergen
68.183.119.112,4,24,tigernet.com,US,Americas,Northern America,United States of America,New Jersey,,North Bergen
178.128.134.184,4,2,tio.run,US,Americas,Northern America,United States of America,New Jersey,,North Bergen
137.184.27.29,4,7,tnpetroleo.com.br,US,Americas,Northern America,United States of America,New Jersey,,North Bergen
174.138.44.12,4,13,tntdental.com,US,Americas,Northern America,United States of America,New Jersey,,North Bergen
134.209.211.199,4,19,tooyoungtowed.org,US,Americas,Northern America,United States of America,New Jersey,,North Bergen
165.22.1.154,4,26,tours-italy.com,US,Americas,Northern America,United States of America,New Jersey,,North Bergen
165.227.207.180,4,3,townofwindsorct.com,US,Americas,Northern America,United States of America,New Jersey,,North Bergen
192.34.58.116,4,30,trailjournals.com,US,Americas,Northern America,United States of America,New Jersey,,North Bergen
68.183.130.78,4,3,travel-watch.com,US,Americas,Northern America,United States of America,New Jersey,,North Bergen
104.248.112.15,4,22,travelstorys.com,US,Americas,Northern America,United States of America,New Jersey,,North Bergen
206.81.1.241,4,90,troypointinsider.com,US,Americas,Northern America,United States of America,New Jersey,,North Bergen
157.230.176.190,4,14,truefacet.com,US,Americas,Northern America,United States of America,New Jersey,,North Bergen
157.230.0.201,4,7,turismosalta.gov.ar,US,Americas,Northern America,United States of America,New Jersey,,North Bergen
45.55.105.92,4,5,turkopticon.net,US,Americas,Northern America,United States of America,New Jersey,,North Bergen
192.81.215.194,4,7,tuscanylv.com,US,Americas,Northern America,United States of America,New Jersey,,North Bergen
143.244.144.250,4,9,twainquotes.com,US,Americas,Northern America,United States of America,New Jersey,,North Bergen
198.199.65.170,4,23,tweaklibrary.com,US,Americas,Northern America,United States of America,New Jersey,,North Bergen
67.205.139.91,4,9,twuko.com,US,Americas,Northern America,United States of America,New Jersey,,North Bergen
157.245.129.252,4,5,typely.com,US,Americas,Northern America,United States of America,New Jersey,,North Bergen
198.211.115.221,4,11311,uap.edu.pe,US,Americas,Northern America,United States of America,New Jersey,,North Bergen
143.244.147.194,4,18,ultimatesubaru.org,US,Americas,Northern America,United States of America,New Jersey,,North Bergen
67.205.132.190,4,4,umasscreate.net,US,Americas,Northern America,United States of America,New Jersey,,North Bergen
174.138.108.78,4,16,unafut.com,US,Americas,Northern America,United States of America,New Jersey,,North Bergen
159.223.120.17,4,4,unexpectedelegance.com,US,Americas,Northern America,United States of America,New Jersey,,North Bergen
167.99.0.217,4,6,uninove.br,US,Americas,Northern America,United States of America,New Jersey,,North Bergen
143.244.158.83,4,145,unogs.com,US,Americas,Northern America,United States of America,New Jersey,,North Bergen
157.230.1.197,4,3,updownradar.com,US,Americas,Northern America,United States of America,New Jersey,,North Bergen
45.55.106.153,4,5,uppromote.com,US,Americas,Northern America,United States of America,New Jersey,,North Bergen
161.35.114.66,4,3,uscontractorregistration.com,US,Americas,Northern America,United States of America,New Jersey,,North Bergen
165.227.85.98,4,2,usenet.com,US,Americas,Northern America,United States of America,New Jersey,,North Bergen
137.184.48.228,4,6,ushja.org,US,Americas,Northern America,United States of America,New Jersey,,North Bergen
89.116.64.242,4,10,uzeik.net,US,Americas,Northern America,United States of America,New Jersey,,North Bergen
137.184.20.53,4,3,vamosporai.com,US,Americas,Northern America,United States of America,New Jersey,,North Bergen
178.128.159.118,4,18,vcard.link,US,Americas,Northern America,United States of America,New Jersey,,North Bergen
159.223.148.249,4,21,versilian-studios.com,US,Americas,Northern America,United States of America,New Jersey,,North Bergen
178.128.133.105,4,11,vikinggroupinc.com,US,Americas,Northern America,United States of America,New Jersey,,North Bergen
67.205.144.84,4,2,vilamariana.com.br,US,Americas,Northern America,United States of America,New Jersey,,North Bergen
67.205.186.189,4,28,virtuallyconnecting.org,US,Americas,Northern America,United States of America,New Jersey,,North Bergen
159.203.157.25,4,31,virtualsc.org,US,Americas,Northern America,United States of America,New Jersey,,North Bergen
134.209.68.126,4,20,visalighting.com,US,Americas,Northern America,United States of America,New Jersey,,North Bergen
134.122.123.156,4,5,visitlahore.com,US,Americas,Northern America,United States of America,New Jersey,,North Bergen
167.172.130.168,4,77,vistech.net,US,Americas,Northern America,United States of America,New Jersey,,North Bergen
161.35.113.144,4,31,vmssoftware.com,US,Americas,Northern America,United States of America,New Jersey,,North Bergen
137.184.207.241,4,0,voyagela.com,US,Americas,Northern America,United States of America,New Jersey,,North Bergen
174.138.41.236,4,9,waproduction.com,US,Americas,Northern America,United States of America,New Jersey,,North Bergen
143.244.158.188,4,8,washcosheriff.com,US,Americas,Northern America,United States of America,New Jersey,,North Bergen
157.230.203.229,4,5,washingtonballet.org,US,Americas,Northern America,United States of America,New Jersey,,North Bergen
159.89.49.165,4,2,wavehill.org,US,Americas,Northern America,United States of America,New Jersey,,North Bergen
157.230.180.55,4,2,wdav.org,US,Americas,Northern America,United States of America,New Jersey,,North Bergen
192.34.61.67,4,35,webgrrls.com,US,Americas,Northern America,United States of America,New Jersey,,North Bergen
198.199.71.10,4,3,webmaster-source.com,US,Americas,Northern America,United States of America,New Jersey,,North Bergen
159.89.228.127,4,15,weighmyrack.com,US,Americas,Northern America,United States of America,New Jersey,,North Bergen
198.199.79.55,4,2,wepapers.com,US,Americas,Northern America,United States of America,New Jersey,,North Bergen
159.203.157.110,4,1725837,wexlerdermatology.com,US,Americas,Northern America,United States of America,New Jersey,,North Bergen
142.93.240.162,4,11,wheeloffortunecheats.com,US,Americas,Northern America,United States of America,New Jersey,,North Bergen
192.81.211.79,4,3,whizzherald.com,US,Americas,Northern America,United States of America,New Jersey,,North Bergen
157.245.87.20,4,8,wicla.com,US,Americas,Northern America,United States of America,New Jersey,,North Bergen
147.182.128.78,4,69,wikiborn.com,US,Americas,Northern America,United States of America,New Jersey,,North Bergen
198.211.98.134,4,19,wikimediadc.org,US,Americas,Northern America,United States of America,New Jersey,,North Bergen
161.35.54.34,4,0,wildyards.com,US,Americas,Northern America,United States of America,New Jersey,,North Bergen
68.183.112.81,4,14,winaero.com,US,Americas,Northern America,United States of America,New Jersey,,North Bergen
67.207.95.217,4,-1,withknown.com,US,Americas,Northern America,United States of America,New Jersey,,North Bergen
157.230.56.98,4,1,wiw.org,US,Americas,Northern America,United States of America,New Jersey,,North Bergen
159.65.239.193,4,7,womengamers.com,US,Americas,Northern America,United States of America,New Jersey,,North Bergen
206.189.198.113,4,9,wordhelp.com,US,Americas,Northern America,United States of America,New Jersey,,North Bergen
161.35.54.185,4,11,worldwideauctioneers.com,US,Americas,Northern America,United States of America,New Jersey,,North Bergen
104.248.233.162,4,1,worldwidedx.com,US,Americas,Northern America,United States of America,New Jersey,,North Bergen
157.245.139.54,4,5,wowessays.com,US,Americas,Northern America,United States of America,New Jersey,,North Bergen
157.230.67.179,4,2,wown.com,US,Americas,Northern America,United States of America,New Jersey,,North Bergen
143.198.178.69,4,7,wpadacompliance.com,US,Americas,Northern America,United States of America,New Jersey,,North Bergen
67.205.133.52,4,4,wpcerber.com,US,Americas,Northern America,United States of America,New Jersey,,North Bergen
138.197.230.51,4,9,wpcharms.com,US,Americas,Northern America,United States of America,New Jersey,,North Bergen
204.48.21.50,4,18,writemyessaytoday.net,US,Americas,Northern America,United States of America,New Jersey,,North Bergen
157.230.239.206,4,17,writerbay.com,US,Americas,Northern America,United States of America,New Jersey,,North Bergen
68.183.16.15,4,12,writingmyessay.com,US,Americas,Northern America,United States of America,New Jersey,,North Bergen
164.90.254.194,4,5,wusb.fm,US,Americas,Northern America,United States of America,New Jersey,,North Bergen
143.198.165.199,4,5,xmlrpc.com,US,Americas,Northern America,United States of America,New Jersey,,North Bergen
159.203.156.162,4,1,yak.net,US,Americas,Northern America,United States of America,New Jersey,,North Bergen
157.230.218.88,4,9,younglimonynj.com,US,Americas,Northern America,United States of America,New Jersey,,North Bergen
142.93.50.146,4,1,yourdesigndemo.net,US,Americas,Northern America,United States of America,New Jersey,,North Bergen
