reflector_ip,ip_version,offset,description,country_code,region,sub_region,country_name,sub_division_1,sub_division_2,city
149.28.42.126,4,6,121212concert.org,US,Americas,Northern America,United States of America,New Jersey,,Piscataway
104.156.250.216,4,5,3drt.com,US,Americas,Northern America,United States of America,New Jersey,,Piscataway
45.77.157.232,4,5,3kidsandus.com,US,Americas,Northern America,United States of America,New Jersey,,Piscataway
149.28.60.122,4,5,5758bet.com,US,Americas,Northern America,United States of America,New Jersey,,Piscataway
208.167.238.74,4,89,al-massar.com,US,Americas,Northern America,United States of America,New Jersey,,Piscataway
107.191.36.89,4,81109,allonesearch.com,US,Americas,Northern America,United States of America,New Jersey,,Piscataway
149.28.59.96,4,4,almostfearless.com,US,Americas,Northern America,United States of America,New Jersey,,Piscataway
185.150.191.212,4,6,anthropology.ac.uk,US,Americas,Northern America,United States of America,New Jersey,,Piscataway
104.243.32.48,4,7,apinchofjoy.com,US,Americas,Northern America,United States of America,New Jersey,,Piscataway
45.76.6.226,4,48,auditmypc.com,US,Americas,Northern America,United States of America,New Jersey,,Piscataway
173.199.122.30,4,6,aug.com,US,Americas,Northern America,United States of America,New Jersey,,Piscataway
45.32.5.234,4,20,autismforums.com,US,Americas,Northern America,United States of America,New Jersey,,Piscataway
38.62.224.39,4,4,autobusglass.com.pe,US,Americas,Northern America,United States of America,New Jersey,,Piscataway
149.28.60.40,4,50,automaticbacklinks.com,US,Americas,Northern America,United States of America,New Jersey,,Piscataway
66.135.1.94,4,9,barbecuefaq.com,US,Americas,Northern America,United States of America,New Jersey,,Piscataway
104.243.44.129,4,8,battlela.com,US,Americas,Northern America,United States of America,New Jersey,,Piscataway
149.28.231.53,4,1,betmok.com,US,Americas,Northern America,United States of America,New Jersey,,Piscataway
45.59.170.62,4,4,betting.us,US,Americas,Northern America,United States of America,New Jersey,,Piscataway
45.76.3.32,4,4,bhayacruises.com,US,Americas,Northern America,United States of America,New Jersey,,Piscataway
107.191.36.85,4,81104,bizwiki.com,US,Americas,Northern America,United States of America,New Jersey,,Piscataway
45.63.15.5,4,52,blasterforum.com,US,Americas,Northern America,United States of America,New Jersey,,Piscataway
23.227.134.203,4,10,blogspotgroup.com,US,Americas,Northern America,United States of America,New Jersey,,Piscataway
108.61.155.184,4,6,bobborst.com,US,Americas,Northern America,United States of America,New Jersey,,Piscataway
207.246.83.118,4,11,britmilfit.com,US,Americas,Northern America,United States of America,New Jersey,,Piscataway
149.28.51.253,4,1,brwest.com,US,Americas,Northern America,United States of America,New Jersey,,Piscataway
140.82.44.74,4,2,buyincoins.com,US,Americas,Northern America,United States of America,New Jersey,,Piscataway
45.77.149.18,4,24,callofcthulhu-game.com,US,Americas,Northern America,United States of America,New Jersey,,Piscataway
45.59.170.14,4,10,casinos.us,US,Americas,Northern America,United States of America,New Jersey,,Piscataway
64.176.211.207,4,4,ccbuy.black,US,Americas,Northern America,United States of America,New Jersey,,Piscataway
208.167.255.184,4,29,chain.com,US,Americas,Northern America,United States of America,New Jersey,,Piscataway
96.93.158.219,4,2,cheswick.com,US,Americas,Northern America,United States of America,New Jersey,,Piscataway
108.61.40.125,4,1,chinasentry.com,US,Americas,Northern America,United States of America,New Jersey,,Piscataway
45.77.154.205,4,3,choike.org,US,Americas,Northern America,United States of America,New Jersey,,Piscataway
23.207.8.62,4,5,cia.gov,US,Americas,Northern America,United States of America,New Jersey,,Piscataway
108.61.82.35,4,41,clipify.net,US,Americas,Northern America,United States of America,New Jersey,,Piscataway
107.191.33.42,4,13,coinarchives.com,US,Americas,Northern America,United States of America,New Jersey,,Piscataway
64.237.45.66,4,3,collegerentals.com,US,Americas,Northern America,United States of America,New Jersey,,Piscataway
64.237.45.93,4,6,collegestudentapartments.com,US,Americas,Northern America,United States of America,New Jersey,,Piscataway
66.135.27.74,4,10,colombiadigital.net,US,Americas,Northern America,United States of America,New Jersey,,Piscataway
149.28.45.105,4,10,comingsoonwp.com,US,Americas,Northern America,United States of America,New Jersey,,Piscataway
207.246.124.187,4,27,comodo.com,US,Americas,Northern America,United States of America,New Jersey,,Piscataway
144.202.15.7,4,22,conjelco.com,US,Americas,Northern America,United States of America,New Jersey,,Piscataway
207.246.94.112,4,11,cosmigo.com,US,Americas,Northern America,United States of America,New Jersey,,Piscataway
208.167.242.119,4,4,cosyjewelry.com,US,Americas,Northern America,United States of America,New Jersey,,Piscataway
207.246.87.183,4,4,dakumar.com,US,Americas,Northern America,United States of America,New Jersey,,Piscataway
173.199.118.85,4,25,danviews.com,US,Americas,Northern America,United States of America,New Jersey,,Piscataway
206.221.187.3,4,85,defamer.com.au,US,Americas,Northern America,United States of America,New Jersey,,Piscataway
96.16.196.234,4,36,defense.gov,US,Americas,Northern America,United States of America,New Jersey,,Piscataway
66.135.1.52,4,40,digitalrailroad.net,US,Americas,Northern America,United States of America,New Jersey,,Piscataway
108.61.75.210,4,133,disboards.com,US,Americas,Northern America,United States of America,New Jersey,,Piscataway
149.28.40.67,4,8,DNS Server: 149.28.40.67.vultr.com,US,Americas,Northern America,United States of America,New Jersey,,Piscataway
8.9.31.237,4,16,DNS Server: 8.9.31.237.vultrusercontent.com,US,Americas,Northern America,United States of America,New Jersey,,Piscataway
96.93.151.148,4,87344,DNS Server: 96-93-151-148-static.hfc.comcastbusiness.net,US,Americas,Northern America,United States of America,New Jersey,,Piscataway
50.174.4.138,4,5,DNS Server: c-50-174-4-138.unallocated.comcastbusiness.net,US,Americas,Northern America,United States of America,New Jersey,,Piscataway
149.28.40.219,4,295,DNS Server: pdns-35.sdp.com,US,Americas,Northern America,United States of America,New Jersey,,Piscataway
149.28.36.241,4,4,dotnetperls.com,US,Americas,Northern America,United States of America,New Jersey,,Piscataway
45.76.12.146,4,0,echojs.com,US,Americas,Northern America,United States of America,New Jersey,,Piscataway
45.77.107.225,4,14,elizabethstreet.com,US,Americas,Northern America,United States of America,New Jersey,,Piscataway
208.167.225.206,4,81112,energyboom.com,US,Americas,Northern America,United States of America,New Jersey,,Piscataway
209.205.200.130,4,70,eternityrose.com,US,Americas,Northern America,United States of America,New Jersey,,Piscataway
209.205.200.131,4,11,eternityrose.com.au,US,Americas,Northern America,United States of America,New Jersey,,Piscataway
209.127.178.206,4,-715,expertscolumn.com,US,Americas,Northern America,United States of America,New Jersey,,Piscataway
208.167.225.203,4,81111,f2o.org,US,Americas,Northern America,United States of America,New Jersey,,Piscataway
185.150.190.196,4,20,fanexus.com,US,Americas,Northern America,United States of America,New Jersey,,Piscataway
45.63.10.106,4,29,fasola.org,US,Americas,Northern America,United States of America,New Jersey,,Piscataway
209.222.24.186,4,2,fellermedical.com,US,Americas,Northern America,United States of America,New Jersey,,Piscataway
45.58.125.71,4,6,ffbsc.org,US,Americas,Northern America,United States of America,New Jersey,,Piscataway
206.221.186.82,4,5,fisheaters.com,US,Americas,Northern America,United States of America,New Jersey,,Piscataway
45.77.78.135,4,18,flirtsavvy.com,US,Americas,Northern America,United States of America,New Jersey,,Piscataway
108.61.35.18,4,10,fordfocusforum.com,US,Americas,Northern America,United States of America,New Jersey,,Piscataway
45.58.119.241,4,4,freeprogrammingresources.com,US,Americas,Northern America,United States of America,New Jersey,,Piscataway
45.63.7.67,4,10,frontenginedragsters.org,US,Americas,Northern America,United States of America,New Jersey,,Piscataway
208.167.242.168,4,3,futuretechtrends.co.uk,US,Americas,Northern America,United States of America,New Jersey,,Piscataway
104.207.135.212,4,3,g-loaded.eu,US,Americas,Northern America,United States of America,New Jersey,,Piscataway
144.202.4.187,4,2,gamarra.network,US,Americas,Northern America,United States of America,New Jersey,,Piscataway
64.176.200.85,4,5,gearshifters.org,US,Americas,Northern America,United States of America,New Jersey,,Piscataway
149.28.54.80,4,4,getwpcaptcha.com,US,Americas,Northern America,United States of America,New Jersey,,Piscataway
172.93.99.178,4,6,gisptech-uk.com,US,Americas,Northern America,United States of America,New Jersey,,Piscataway
199.127.61.163,4,11,glamourshots.com,US,Americas,Northern America,United States of America,New Jersey,,Piscataway
45.32.1.181,4,12,gmapswidget.com,US,Americas,Northern America,United States of America,New Jersey,,Piscataway
38.154.244.98,4,7,grandstream.com,US,Americas,Northern America,United States of America,New Jersey,,Piscataway
216.155.128.67,4,1093085,grouprecipes.com,US,Americas,Northern America,United States of America,New Jersey,,Piscataway
104.207.132.113,4,23,gufw.org,US,Americas,Northern America,United States of America,New Jersey,,Piscataway
144.202.2.130,4,8,hanggliding.org,US,Americas,Northern America,United States of America,New Jersey,,Piscataway
45.77.107.189,4,0,hiphoplately.com,US,Americas,Northern America,United States of America,New Jersey,,Piscataway
185.150.189.127,4,18,history1700s.com,US,Americas,Northern America,United States of America,New Jersey,,Piscataway
45.76.10.249,4,7,horsepigcow.com,US,Americas,Northern America,United States of America,New Jersey,,Piscataway
23.44.131.212,4,0,iad.gov,US,Americas,Northern America,United States of America,New Jersey,,Piscataway
23.44.131.205,4,6,iad.gov,US,Americas,Northern America,United States of America,New Jersey,,Piscataway
108.61.158.213,4,32,iaitam.org,US,Americas,Northern America,United States of America,New Jersey,,Piscataway
172.93.103.142,4,7,ibb.co,US,Americas,Northern America,United States of America,New Jersey,,Piscataway
107.191.36.90,4,81151,icc.org,US,Americas,Northern America,United States of America,New Jersey,,Piscataway
209.222.0.251,4,5,indieshuffle.com,US,Americas,Northern America,United States of America,New Jersey,,Piscataway
8.9.4.40,4,11,inspireusafoundation.org,US,Americas,Northern America,United States of America,New Jersey,,Piscataway
144.202.9.239,4,0,itsgettinghotinhere.org,US,Americas,Northern America,United States of America,New Jersey,,Piscataway
45.63.21.69,4,17,java-performance.info,US,Americas,Northern America,United States of America,New Jersey,,Piscataway
140.82.1.67,4,5,jeffhuang.com,US,Americas,Northern America,United States of America,New Jersey,,Piscataway
206.221.177.249,4,11,johnsadowski.com,US,Americas,Northern America,United States of America,New Jersey,,Piscataway
45.63.23.15,4,1,jonesboro.com,US,Americas,Northern America,United States of America,New Jersey,,Piscataway
104.194.9.73,4,1,jrox.com,US,Americas,Northern America,United States of America,New Jersey,,Piscataway
173.199.123.28,4,0,junkcarsus.com,US,Americas,Northern America,United States of America,New Jersey,,Piscataway
66.55.146.115,4,3,justsomething.co,US,Americas,Northern America,United States of America,New Jersey,,Piscataway
104.243.40.29,4,4,kc5jmj.com,US,Americas,Northern America,United States of America,New Jersey,,Piscataway
104.243.40.84,4,3,lanesend.com,US,Americas,Northern America,United States of America,New Jersey,,Piscataway
23.227.131.50,4,0,lasu.edu.ng,US,Americas,Northern America,United States of America,New Jersey,,Piscataway
104.156.249.32,4,13,leadresponsemanagement.org,US,Americas,Northern America,United States of America,New Jersey,,Piscataway
207.148.28.172,4,76,leelofland.com,US,Americas,Northern America,United States of America,New Jersey,,Piscataway
45.63.17.91,4,4,loe.org,US,Americas,Northern America,United States of America,New Jersey,,Piscataway
140.82.6.131,4,24,louisvuittonreplicabag.com,US,Americas,Northern America,United States of America,New Jersey,,Piscataway
8.9.11.22,4,45,magicvibes.co,US,Americas,Northern America,United States of America,New Jersey,,Piscataway
38.154.241.74,4,491,mamainthenow.com,US,Americas,Northern America,United States of America,New Jersey,,Piscataway
45.76.1.8,4,93,mandarinspot.com,US,Americas,Northern America,United States of America,New Jersey,,Piscataway
140.82.47.119,4,108,masterra.com,US,Americas,Northern America,United States of America,New Jersey,,Piscataway
45.63.2.182,4,5,medicaidplanningassistance.org,US,Americas,Northern America,United States of America,New Jersey,,Piscataway
172.93.103.7,4,2,milfdatingnetwork.com,US,Americas,Northern America,United States of America,New Jersey,,Piscataway
104.238.132.37,4,3,minthilltimes.com,US,Americas,Northern America,United States of America,New Jersey,,Piscataway
104.194.9.31,4,2,mskanoninternational.com,US,Americas,Northern America,United States of America,New Jersey,,Piscataway
208.167.238.69,4,92,multi-pultik.ru,US,Americas,Northern America,United States of America,New Jersey,,Piscataway
104.194.9.70,4,3,musemeasurements.com,US,Americas,Northern America,United States of America,New Jersey,,Piscataway
45.63.0.111,4,38,musl-libc.org,US,Americas,Northern America,United States of America,New Jersey,,Piscataway
128.6.158.125,4,4,nakb.org,US,Americas,Northern America,United States of America,New Jersey,,Piscataway
208.167.248.213,4,1,netusa.net,US,Americas,Northern America,United States of America,New Jersey,,Piscataway
207.148.28.223,4,63,newfreescreensavers.com,US,Americas,Northern America,United States of America,New Jersey,,Piscataway
23.44.131.199,4,4,ni-u.edu,US,Americas,Northern America,United States of America,New Jersey,,Piscataway
23.44.131.219,4,11,ni-u.edu,US,Americas,Northern America,United States of America,New Jersey,,Piscataway
104.238.130.251,4,14,nimsvg.com,US,Americas,Northern America,United States of America,New Jersey,,Piscataway
45.63.6.63,4,59,ninchanese.com,US,Americas,Northern America,United States of America,New Jersey,,Piscataway
107.191.33.43,4,10,numisbids.com,US,Americas,Northern America,United States of America,New Jersey,,Piscataway
207.246.92.195,4,90,obesitycontroller.com,US,Americas,Northern America,United States of America,New Jersey,,Piscataway
208.167.238.70,4,22,odessanews.biz,US,Americas,Northern America,United States of America,New Jersey,,Piscataway
193.8.195.76,4,1,oehha.org,US,Americas,Northern America,United States of America,New Jersey,,Piscataway
107.191.36.83,4,81115,offices.net,US,Americas,Northern America,United States of America,New Jersey,,Piscataway
108.61.158.198,4,58,officezealot.com,US,Americas,Northern America,United States of America,New Jersey,,Piscataway
108.61.21.59,4,37,okwnews.com,US,Americas,Northern America,United States of America,New Jersey,,Piscataway
23.217.42.68,4,2,onenote.com,US,Americas,Northern America,United States of America,New Jersey,,Piscataway
149.28.225.84,4,46,passionpassport.com,US,Americas,Northern America,United States of America,New Jersey,,Piscataway
108.61.245.77,4,5,paulschou.net,US,Americas,Northern America,United States of America,New Jersey,,Piscataway
23.203.57.30,4,19,pcrichard.com,US,Americas,Northern America,United States of America,New Jersey,,Piscataway
128.6.159.96,4,0,pdb.org,US,Americas,Northern America,United States of America,New Jersey,,Piscataway
64.237.54.67,4,1,pdftoexcel.com,US,Americas,Northern America,United States of America,New Jersey,,Piscataway
173.199.114.252,4,15,photovisi.com,US,Americas,Northern America,United States of America,New Jersey,,Piscataway
8.9.5.7,4,10313,php.watch,US,Americas,Northern America,United States of America,New Jersey,,Piscataway
45.76.10.60,4,25,phpalbum.net,US,Americas,Northern America,United States of America,New Jersey,,Piscataway
172.93.106.155,4,12,phpjunkyard.com,US,Americas,Northern America,United States of America,New Jersey,,Piscataway
45.76.10.233,4,15,pianetatech.it,US,Americas,Northern America,United States of America,New Jersey,,Piscataway
64.237.36.123,4,62,pointmallardpark.com,US,Americas,Northern America,United States of America,New Jersey,,Piscataway
107.191.42.254,4,17,pokellector.com,US,Americas,Northern America,United States of America,New Jersey,,Piscataway
209.205.209.99,4,13666598,pokertube.com,US,Americas,Northern America,United States of America,New Jersey,,Piscataway
209.205.209.98,4,13666637,pokervip.com,US,Americas,Northern America,United States of America,New Jersey,,Piscataway
209.222.98.92,4,13,polseguera.org,US,Americas,Northern America,United States of America,New Jersey,,Piscataway
107.161.173.74,4,35,polyvance.com,US,Americas,Northern America,United States of America,New Jersey,,Piscataway
66.135.20.84,4,8,popsnkrsreps.com,US,Americas,Northern America,United States of America,New Jersey,,Piscataway
172.93.101.209,4,15,postimg.cc,US,Americas,Northern America,United States of America,New Jersey,,Piscataway
207.246.87.64,4,41,ppai.org,US,Americas,Northern America,United States of America,New Jersey,,Piscataway
45.58.123.82,4,38,praguepost.cz,US,Americas,Northern America,United States of America,New Jersey,,Piscataway
172.93.99.170,4,113,primeforlife.org,US,Americas,Northern America,United States of America,New Jersey,,Piscataway
45.76.0.90,4,43,publicspace.net,US,Americas,Northern America,United States of America,New Jersey,,Piscataway
104.207.128.12,4,11,pythonblogs.com,US,Americas,Northern America,United States of America,New Jersey,,Piscataway
199.127.61.148,4,10,quadrigacx.com,US,Americas,Northern America,United States of America,New Jersey,,Piscataway
104.194.11.186,4,5,quantnet.com,US,Americas,Northern America,United States of America,New Jersey,,Piscataway
66.135.9.147,4,11,quizexpo.com,US,Americas,Northern America,United States of America,New Jersey,,Piscataway
38.170.41.2,4,40,raahdari.com,US,Americas,Northern America,United States of America,New Jersey,,Piscataway
128.6.159.193,4,-1,rcsb.org,US,Americas,Northern America,United States of America,New Jersey,,Piscataway
208.167.248.130,4,10,reviewho.com,US,Americas,Northern America,United States of America,New Jersey,,Piscataway
108.61.89.136,4,11,revistafator.com.br,US,Americas,Northern America,United States of America,New Jersey,,Piscataway
107.151.7.180,4,783,revlimiter.net,US,Americas,Northern America,United States of America,New Jersey,,Piscataway
66.55.150.244,4,2,rewards1.com,US,Americas,Northern America,United States of America,New Jersey,,Piscataway
149.28.36.174,4,16,rhine.org,US,Americas,Northern America,United States of America,New Jersey,,Piscataway
64.237.45.94,4,46,roomsurf.com,US,Americas,Northern America,United States of America,New Jersey,,Piscataway
45.77.155.39,4,0,rosettast0ned.com,US,Americas,Northern America,United States of America,New Jersey,,Piscataway
104.243.35.15,4,4,sakurajima.moe,US,Americas,Northern America,United States of America,New Jersey,,Piscataway
45.76.3.71,4,225,sarm.net,US,Americas,Northern America,United States of America,New Jersey,,Piscataway
172.93.101.107,4,9,saudigoldprice.com,US,Americas,Northern America,United States of America,New Jersey,,Piscataway
172.93.101.96,4,23,saulcenters.com,US,Americas,Northern America,United States of America,New Jersey,,Piscataway
66.135.5.7,4,1,schuylkillrivertrail.com,US,Americas,Northern America,United States of America,New Jersey,,Piscataway
104.243.32.35,4,18,scotlandwelcomesyou.com,US,Americas,Northern America,United States of America,New Jersey,,Piscataway
216.155.132.185,4,6,shrinemaiden.org,US,Americas,Northern America,United States of America,New Jersey,,Piscataway
108.61.45.226,4,10,siomex.com,US,Americas,Northern America,United States of America,New Jersey,,Piscataway
216.155.150.57,4,10,sitesfree.com,US,Americas,Northern America,United States of America,New Jersey,,Piscataway
63.209.35.142,4,23,slidesjs.com,US,Americas,Northern America,United States of America,New Jersey,,Piscataway
45.77.76.174,4,3,snbforums.com,US,Americas,Northern America,United States of America,New Jersey,,Piscataway
104.243.35.223,4,21,soft112.com,US,Americas,Northern America,United States of America,New Jersey,,Piscataway
209.222.98.21,4,-170047,soft112.com,US,Americas,Northern America,United States of America,New Jersey,,Piscataway
149.28.61.149,4,12,soleilmoon.com,US,Americas,Northern America,United States of America,New Jersey,,Piscataway
107.191.34.227,4,38,solutionsplusonline.com,US,Americas,Northern America,United States of America,New Jersey,,Piscataway
63.209.32.114,4,37,spdload.com,US,Americas,Northern America,United States of America,New Jersey,,Piscataway
206.221.176.145,4,191284,spiritualunite.com,US,Americas,Northern America,United States of America,New Jersey,,Piscataway
23.50.72.56,4,6,squaretrade.com,US,Americas,Northern America,United States of America,New Jersey,,Piscataway
104.194.11.66,4,32,starmix.cl,US,Americas,Northern America,United States of America,New Jersey,,Piscataway
45.58.116.218,4,7,stockconsultant.com,US,Americas,Northern America,United States of America,New Jersey,,Piscataway
149.28.234.40,4,2,sukiwp.com,US,Americas,Northern America,United States of America,New Jersey,,Piscataway
172.93.104.121,4,7,summerdaisy.net,US,Americas,Northern America,United States of America,New Jersey,,Piscataway
66.135.5.17,4,6,sunsetlakecbd.com,US,Americas,Northern America,United States of America,New Jersey,,Piscataway
45.77.100.41,4,5,sunshineshop.com,US,Americas,Northern America,United States of America,New Jersey,,Piscataway
66.135.20.63,4,45,sveasoft.com,US,Americas,Northern America,United States of America,New Jersey,,Piscataway
8.9.30.187,4,5,tabletpcbuzz.com,US,Americas,Northern America,United States of America,New Jersey,,Piscataway
173.199.126.45,4,4,tafkac.org,US,Americas,Northern America,United States of America,New Jersey,,Piscataway
45.76.14.16,4,5,tbucketeer.com,US,Americas,Northern America,United States of America,New Jersey,,Piscataway
104.207.132.70,4,54,textoscientificos.com,US,Americas,Northern America,United States of America,New Jersey,,Piscataway
209.222.15.220,4,4,thatgrapejuice.net,US,Americas,Northern America,United States of America,New Jersey,,Piscataway
104.194.9.218,4,2,theinsightnewsonline.com,US,Americas,Northern America,United States of America,New Jersey,,Piscataway
104.194.11.44,4,16,themagiccafe.com,US,Americas,Northern America,United States of America,New Jersey,,Piscataway
108.61.78.244,4,14,thereviewwire.com,US,Americas,Northern America,United States of America,New Jersey,,Piscataway
45.63.0.126,4,8,theroxyonsunset.com,US,Americas,Northern America,United States of America,New Jersey,,Piscataway
172.93.101.92,4,0,thinkfilmcompany.com,US,Americas,Northern America,United States of America,New Jersey,,Piscataway
207.246.88.149,4,3,thisdayintechhistory.com,US,Americas,Northern America,United States of America,New Jersey,,Piscataway
216.155.128.205,4,3,thorequities.com,US,Americas,Northern America,United States of America,New Jersey,,Piscataway
216.155.135.29,4,23,thq.com,US,Americas,Northern America,United States of America,New Jersey,,Piscataway
144.202.10.212,4,4,tidyrepo.com,US,Americas,Northern America,United States of America,New Jersey,,Piscataway
140.82.15.234,4,0,tipsmafia.org,US,Americas,Northern America,United States of America,New Jersey,,Piscataway
147.189.143.57,4,6,togetherrxaccess.com,US,Americas,Northern America,United States of America,New Jersey,,Piscataway
199.127.61.39,4,2,traigomoto.com,US,Americas,Northern America,United States of America,New Jersey,,Piscataway
108.61.75.246,4,14,trevira.de,US,Americas,Northern America,United States of America,New Jersey,,Piscataway
45.77.77.91,4,9,uapost.us,US,Americas,Northern America,United States of America,New Jersey,,Piscataway
108.61.152.179,4,2,uloop.com,US,Americas,Northern America,United States of America,New Jersey,,Piscataway
207.148.18.222,4,32,ultimatemetal.com,US,Americas,Northern America,United States of America,New Jersey,,Piscataway
66.135.4.215,4,2,underconstructionpage.com,US,Americas,Northern America,United States of America,New Jersey,,Piscataway
140.82.15.128,4,8,usgolftv.com,US,Americas,Northern America,United States of America,New Jersey,,Piscataway
64.237.45.85,4,6,uwire.com,US,Americas,Northern America,United States of America,New Jersey,,Piscataway
38.62.224.47,4,8,vapasa.com,US,Americas,Northern America,United States of America,New Jersey,,Piscataway
193.8.195.10,4,30,verichipcorp.com,US,Americas,Northern America,United States of America,New Jersey,,Piscataway
64.176.223.70,4,38,victoriannailsandspa.com,US,Americas,Northern America,United States of America,New Jersey,,Piscataway
108.61.157.209,4,0,vindecoder.eu,US,Americas,Northern America,United States of America,New Jersey,,Piscataway
207.148.24.46,4,-1,vitalentum.net,US,Americas,Northern America,United States of America,New Jersey,,Piscataway
207.246.127.199,4,3,voltage.vn,US,Americas,Northern America,United States of America,New Jersey,,Piscataway
45.77.76.43,4,14,vpnblackfriday.com,US,Americas,Northern America,United States of America,New Jersey,,Piscataway
108.61.13.174,4,5,vultr.com,US,Americas,Northern America,United States of America,New Jersey,,Piscataway
45.77.149.186,4,5,waitinggamepublications.com,US,Americas,Northern America,United States of America,New Jersey,,Piscataway
45.32.5.3,4,41,websiteseostats.com,US,Americas,Northern America,United States of America,New Jersey,,Piscataway
104.243.41.90,4,7,websleuths.com,US,Americas,Northern America,United States of America,New Jersey,,Piscataway
209.222.98.191,4,4,werenotafraid.com,US,Americas,Northern America,United States of America,New Jersey,,Piscataway
23.198.214.74,4,1,whitecase.com,US,Americas,Northern America,United States of America,New Jersey,,Piscataway
23.198.214.70,4,6,whitecase.com,US,Americas,Northern America,United States of America,New Jersey,,Piscataway
206.221.184.186,4,9,wmtips.com,US,Americas,Northern America,United States of America,New Jersey,,Piscataway
23.227.134.198,4,14,worldtaxi.org,US,Americas,Northern America,United States of America,New Jersey,,Piscataway
66.135.0.39,4,2,wp301redirects.com,US,Americas,Northern America,United States of America,New Jersey,,Piscataway
108.61.245.217,4,2,wpauthorbox.com,US,Americas,Northern America,United States of America,New Jersey,,Piscataway
45.77.101.57,4,4,wpforcessl.com,US,Americas,Northern America,United States of America,New Jersey,,Piscataway
149.28.37.31,4,10,wploginlockdown.com,US,Americas,Northern America,United States of America,New Jersey,,Piscataway
149.28.44.212,4,8,wpreset.com,US,Americas,Northern America,United States of America,New Jersey,,Piscataway
149.28.61.32,4,2,wpsauce.com,US,Americas,Northern America,United States of America,New Jersey,,Piscataway
45.77.144.73,4,7,wpsticky.com,US,Americas,Northern America,United States of America,New Jersey,,Piscataway
128.6.159.251,4,19,wwpdb.org,US,Americas,Northern America,United States of America,New Jersey,,Piscataway
66.135.17.66,4,5,xcitium.com,US,Americas,Northern America,United States of America,New Jersey,,Piscataway
149.28.32.169,4,99,xn--havenrd-u1a.dk,US,Americas,Northern America,United States of America,New Jersey,,Piscataway
45.77.223.208,4,82,xn--krenyt-bya.dk,US,Americas,Northern America,United States of America,New Jersey,,Piscataway
207.246.123.169,4,23,xn--sistvisgs-c3a.se,US,Americas,Northern America,United States of America,New Jersey,,Piscataway
38.154.239.21,4,707,xunisd.com,US,Americas,Northern America,United States of America,New Jersey,,Piscataway
107.191.41.4,4,4,yal.cc,US,Americas,Northern America,United States of America,New Jersey,,Piscataway
45.77.158.41,4,6,yogile.com,US,Americas,Northern America,United States of America,New Jersey,,Piscataway
38.62.224.107,4,31,zaragozagusta.com,US,Americas,Northern America,United States of America,New Jersey,,Piscataway
209.222.19.219,4,25,zonu.com,US,Americas,Northern America,United States of America,New Jersey,,Piscataway
45.77.111.98,4,5,zuzzid.co.uk,US,Americas,Northern America,United States of America,New Jersey,,Piscataway
