reflector_ip,ip_version,offset,description,country_code,region,sub_region,country_name,sub_division_1,sub_division_2,city
172.104.210.93,4,1185773,10buds.com,US,Americas,Northern America,United States of America,New Jersey,,Cedar Knolls
97.107.128.131,4,4,365project.org,US,Americas,Northern America,United States of America,New Jersey,,Cedar Knolls
45.79.132.241,4,6,4degreez.com,US,Americas,Northern America,United States of America,New Jersey,,Cedar Knolls
45.79.175.186,4,9,4quickjobs.com,US,Americas,Northern America,United States of America,New Jersey,,Cedar Knolls
198.74.58.216,4,6,4smileys.com,US,Americas,Northern America,United States of America,New Jersey,,Cedar Knolls
198.74.62.223,4,5,9round.com,US,Americas,Northern America,United States of America,New Jersey,,Cedar Knolls
66.175.215.6,4,90,acadiarealty.com,US,Americas,Northern America,United States of America,New Jersey,,Cedar Knolls
69.164.209.70,4,11,acceleweb.com,US,Americas,Northern America,United States of America,New Jersey,,Cedar Knolls
69.164.220.76,4,6,accettura.com,US,Americas,Northern America,United States of America,New Jersey,,Cedar Knolls
45.79.156.65,4,9,activistcash.com,US,Americas,Northern America,United States of America,New Jersey,,Cedar Knolls
23.239.12.109,4,34,adath-shalom.ca,US,Americas,Northern America,United States of America,New Jersey,,Cedar Knolls
172.104.19.58,4,527124,advocacynet.org,US,Americas,Northern America,United States of America,New Jersey,,Cedar Knolls
97.107.138.40,4,5,affiliateguarddog.com,US,Americas,Northern America,United States of America,New Jersey,,Cedar Knolls
45.79.146.40,4,6,agsquared.com,US,Americas,Northern America,United States of America,New Jersey,,Cedar Knolls
45.79.190.11,4,4,aidilwines.com,US,Americas,Northern America,United States of America,New Jersey,,Cedar Knolls
172.104.217.194,4,902,akitchenhoorsadventures.com,US,Americas,Northern America,United States of America,New Jersey,,Cedar Knolls
143.42.236.238,4,214,alias-i.com,US,Americas,Northern America,United States of America,New Jersey,,Cedar Knolls
69.164.209.64,4,3,allpinouts.org,US,Americas,Northern America,United States of America,New Jersey,,Cedar Knolls
69.164.216.10,4,7,alonetone.com,US,Americas,Northern America,United States of America,New Jersey,,Cedar Knolls
50.116.51.171,4,5,alp.org,US,Americas,Northern America,United States of America,New Jersey,,Cedar Knolls
66.175.209.210,4,-11,americansoccernow.com,US,Americas,Northern America,United States of America,New Jersey,,Cedar Knolls
45.33.84.80,4,2,antiquemarketplace.net,US,Americas,Northern America,United States of America,New Jersey,,Cedar Knolls
45.79.173.161,4,2,apiexchange.com,US,Americas,Northern America,United States of America,New Jersey,,Cedar Knolls
45.56.109.146,4,45,aprweb.org,US,Americas,Northern America,United States of America,New Jersey,,Cedar Knolls
23.92.23.228,4,8,archchicago.org,US,Americas,Northern America,United States of America,New Jersey,,Cedar Knolls
23.92.17.179,4,57,area75.org,US,Americas,Northern America,United States of America,New Jersey,,Cedar Knolls
45.79.171.17,4,50,areca-backup.org,US,Americas,Northern America,United States of America,New Jersey,,Cedar Knolls
69.164.209.141,4,41,arenamaps.com,US,Americas,Northern America,United States of America,New Jersey,,Cedar Knolls
104.237.147.161,4,10,argyleinstitute.org,US,Americas,Northern America,United States of America,New Jersey,,Cedar Knolls
172.104.29.161,4,42,arizer.com,US,Americas,Northern America,United States of America,New Jersey,,Cedar Knolls
97.107.134.147,4,6,artofelectronics.net,US,Americas,Northern America,United States of America,New Jersey,,Cedar Knolls
66.228.35.252,4,8,artswestchester.org,US,Americas,Northern America,United States of America,New Jersey,,Cedar Knolls
69.164.218.84,4,9,astrixinc.com,US,Americas,Northern America,United States of America,New Jersey,,Cedar Knolls
173.255.227.216,4,63,autonomousweapons.org,US,Americas,Northern America,United States of America,New Jersey,,Cedar Knolls
45.79.155.116,4,108322,awio.com,US,Americas,Northern America,United States of America,New Jersey,,Cedar Knolls
50.116.58.136,4,25,backtrack-linux.org,US,Americas,Northern America,United States of America,New Jersey,,Cedar Knolls
45.79.171.60,4,9,bagend.com,US,Americas,Northern America,United States of America,New Jersey,,Cedar Knolls
172.104.211.210,4,595648,balseal.com,US,Americas,Northern America,United States of America,New Jersey,,Cedar Knolls
45.33.80.135,4,49032,barnivore.com,US,Americas,Northern America,United States of America,New Jersey,,Cedar Knolls
97.107.128.126,4,443217,bay12forums.com,US,Americas,Northern America,United States of America,New Jersey,,Cedar Knolls
23.239.11.162,4,12,bbsapp.org,US,Americas,Northern America,United States of America,New Jersey,,Cedar Knolls
50.116.54.55,4,2,beikecelltherapy.com,US,Americas,Northern America,United States of America,New Jersey,,Cedar Knolls
173.255.237.127,4,903,belltreeforums.com,US,Americas,Northern America,United States of America,New Jersey,,Cedar Knolls
172.104.21.141,4,515984,bestekdirect.com,US,Americas,Northern America,United States of America,New Jersey,,Cedar Knolls
170.187.162.87,4,19,bestselfservicemovers.com,US,Americas,Northern America,United States of America,New Jersey,,Cedar Knolls
69.164.214.4,4,21,bid13.com,US,Americas,Northern America,United States of America,New Jersey,,Cedar Knolls
66.175.212.74,4,4,billburr.com,US,Americas,Northern America,United States of America,New Jersey,,Cedar Knolls
66.175.210.159,4,4,bioxbio.com,US,Americas,Northern America,United States of America,New Jersey,,Cedar Knolls
173.255.234.148,4,1461222,biyolokum.com,US,Americas,Northern America,United States of America,New Jersey,,Cedar Knolls
23.239.15.229,4,6,bj21.com,US,Americas,Northern America,United States of America,New Jersey,,Cedar Knolls
172.104.213.22,4,7,blog-author.com,US,Americas,Northern America,United States of America,New Jersey,,Cedar Knolls
45.79.180.109,4,43,blogscanada.ca,US,Americas,Northern America,United States of America,New Jersey,,Cedar Knolls
50.116.63.134,4,5,bluesock.org,US,Americas,Northern America,United States of America,New Jersey,,Cedar Knolls
45.33.94.120,4,339640,bnnmedia.org,US,Americas,Northern America,United States of America,New Jersey,,Cedar Knolls
45.79.159.49,4,5,boilsoft.com,US,Americas,Northern America,United States of America,New Jersey,,Cedar Knolls
45.33.67.238,4,472159,boldprogressives.org,US,Americas,Northern America,United States of America,New Jersey,,Cedar Knolls
69.164.217.35,4,3,bootstrapstudio.io,US,Americas,Northern America,United States of America,New Jersey,,Cedar Knolls
198.74.60.100,4,9,bostondesignguide.com,US,Americas,Northern America,United States of America,New Jersey,,Cedar Knolls
45.79.141.117,4,13,bratabase.com,US,Americas,Northern America,United States of America,New Jersey,,Cedar Knolls
50.116.50.130,4,16,brenkoweb.com,US,Americas,Northern America,United States of America,New Jersey,,Cedar Knolls
66.228.39.121,4,72,brenocon.com,US,Americas,Northern America,United States of America,New Jersey,,Cedar Knolls
172.104.25.157,4,16,brianstoys.com,US,Americas,Northern America,United States of America,New Jersey,,Cedar Knolls
23.92.20.174,4,123,bronxcare.org,US,Americas,Northern America,United States of America,New Jersey,,Cedar Knolls
139.144.239.94,4,5,brooklyncraftpizza.com,US,Americas,Northern America,United States of America,New Jersey,,Cedar Knolls
97.107.142.91,4,3,brownbearsw.com,US,Americas,Northern America,United States of America,New Jersey,,Cedar Knolls
69.164.210.80,4,19,brucemyers.com,US,Americas,Northern America,United States of America,New Jersey,,Cedar Knolls
172.104.212.240,4,3,bryantpark.org,US,Americas,Northern America,United States of America,New Jersey,,Cedar Knolls
96.126.111.204,4,636345,bucksense.com,US,Americas,Northern America,United States of America,New Jersey,,Cedar Knolls
45.79.131.100,4,10,buenaventura.com,US,Americas,Northern America,United States of America,New Jersey,,Cedar Knolls
50.116.49.232,4,42,bupipedream.com,US,Americas,Northern America,United States of America,New Jersey,,Cedar Knolls
173.255.231.166,4,3,businessmacroeconomics.com,US,Americas,Northern America,United States of America,New Jersey,,Cedar Knolls
172.104.10.206,4,5,businessradiox.com,US,Americas,Northern America,United States of America,New Jersey,,Cedar Knolls
69.164.216.19,4,7,buymeblog.com,US,Americas,Northern America,United States of America,New Jersey,,Cedar Knolls
69.164.221.165,4,15,campusmoviefest.com,US,Americas,Northern America,United States of America,New Jersey,,Cedar Knolls
45.79.159.147,4,20,canorris.com,US,Americas,Northern America,United States of America,New Jersey,,Cedar Knolls
172.104.21.218,4,7,cardhouse.com,US,Americas,Northern America,United States of America,New Jersey,,Cedar Knolls
45.33.83.66,4,807544,carlsonsw.com,US,Americas,Northern America,United States of America,New Jersey,,Cedar Knolls
97.107.128.85,4,4,castlesontheweb.com,US,Americas,Northern America,United States of America,New Jersey,,Cedar Knolls
188.227.57.24,4,4,catchmyfame.com,US,Americas,Northern America,United States of America,New Jersey,,Cedar Knolls
104.200.28.42,4,41,catonmat.net,US,Americas,Northern America,United States of America,New Jersey,,Cedar Knolls
45.79.169.108,4,25,cellar.org,US,Americas,Northern America,United States of America,New Jersey,,Cedar Knolls
172.104.16.148,4,183378,centercityphila.org,US,Americas,Northern America,United States of America,New Jersey,,Cedar Knolls
173.255.226.206,4,2,changethenypd.org,US,Americas,Northern America,United States of America,New Jersey,,Cedar Knolls
162.216.17.116,4,11,chicagoriver.org,US,Americas,Northern America,United States of America,New Jersey,,Cedar Knolls
97.107.142.198,4,1181392,chlipala.net,US,Americas,Northern America,United States of America,New Jersey,,Cedar Knolls
172.104.6.195,4,14,choicecustomhome.com,US,Americas,Northern America,United States of America,New Jersey,,Cedar Knolls
45.79.161.115,4,21,christianmontoya.com,US,Americas,Northern America,United States of America,New Jersey,,Cedar Knolls
192.155.88.18,4,29,cityvision.edu,US,Americas,Northern America,United States of America,New Jersey,,Cedar Knolls
69.164.215.38,4,25,clapper.org,US,Americas,Northern America,United States of America,New Jersey,,Cedar Knolls
45.56.111.212,4,7,climate-charts.com,US,Americas,Northern America,United States of America,New Jersey,,Cedar Knolls
66.228.35.188,4,22,cliohistory.org,US,Americas,Northern America,United States of America,New Jersey,,Cedar Knolls
23.92.21.73,4,5,cmsmadesimple.org,US,Americas,Northern America,United States of America,New Jersey,,Cedar Knolls
172.104.208.13,4,1522681,cnbsjournal.com,US,Americas,Northern America,United States of America,New Jersey,,Cedar Knolls
45.56.111.35,4,1249,cocinasjaguar.com,US,Americas,Northern America,United States of America,New Jersey,,Cedar Knolls
104.237.148.175,4,7,codeforphilly.org,US,Americas,Northern America,United States of America,New Jersey,,Cedar Knolls
173.255.228.184,4,21,commpartners.com,US,Americas,Northern America,United States of America,New Jersey,,Cedar Knolls
66.228.32.89,4,65,companionlink.com,US,Americas,Northern America,United States of America,New Jersey,,Cedar Knolls
45.33.81.241,4,2,computerfairi.es,US,Americas,Northern America,United States of America,New Jersey,,Cedar Knolls
45.33.74.111,4,8,concreteships.org,US,Americas,Northern America,United States of America,New Jersey,,Cedar Knolls
45.79.140.195,4,2,concussionfoundation.org,US,Americas,Northern America,United States of America,New Jersey,,Cedar Knolls
69.164.222.241,4,24,conkeror.org,US,Americas,Northern America,United States of America,New Jersey,,Cedar Knolls
66.228.36.250,4,8,conres.com,US,Americas,Northern America,United States of America,New Jersey,,Cedar Knolls
192.155.90.7,4,16,consource.org,US,Americas,Northern America,United States of America,New Jersey,,Cedar Knolls
172.104.17.191,4,22,coolest-homemade-costumes.com,US,Americas,Northern America,United States of America,New Jersey,,Cedar Knolls
45.79.155.29,4,25,copiasci.com,US,Americas,Northern America,United States of America,New Jersey,,Cedar Knolls
69.164.215.153,4,8,cosco-usa.com,US,Americas,Northern America,United States of America,New Jersey,,Cedar Knolls
139.144.241.42,4,70,cottonbureau.com,US,Americas,Northern America,United States of America,New Jersey,,Cedar Knolls
50.116.50.111,4,-19,cpu-optimization-app.com,US,Americas,Northern America,United States of America,New Jersey,,Cedar Knolls
45.79.132.207,4,39,creativeminorityreport.com,US,Americas,Northern America,United States of America,New Jersey,,Cedar Knolls
173.255.238.105,4,1,crosswordheaven.com,US,Americas,Northern America,United States of America,New Jersey,,Cedar Knolls
50.116.49.16,4,0,crschmidt.net,US,Americas,Northern America,United States of America,New Jersey,,Cedar Knolls
69.164.214.128,4,2,ctlawhelp.org,US,Americas,Northern America,United States of America,New Jersey,,Cedar Knolls
50.116.52.83,4,-3999,cwmalls.com,US,Americas,Northern America,United States of America,New Jersey,,Cedar Knolls
45.79.156.219,4,5,daijomusic.com,US,Americas,Northern America,United States of America,New Jersey,,Cedar Knolls
45.79.157.191,4,14,darkspyro.net,US,Americas,Northern America,United States of America,New Jersey,,Cedar Knolls
23.92.23.53,4,48,dartmouth.org,US,Americas,Northern America,United States of America,New Jersey,,Cedar Knolls
45.79.142.162,4,5,datadragon.com,US,Americas,Northern America,United States of America,New Jersey,,Cedar Knolls
66.175.215.71,4,7,datingbrazilianguide.com,US,Americas,Northern America,United States of America,New Jersey,,Cedar Knolls
209.123.234.210,4,4,dedasys.com,US,Americas,Northern America,United States of America,New Jersey,,Cedar Knolls
45.33.82.78,4,26,dejaoffice.com,US,Americas,Northern America,United States of America,New Jersey,,Cedar Knolls
45.79.142.254,4,14,delawareriverwaterfront.com,US,Americas,Northern America,United States of America,New Jersey,,Cedar Knolls
45.79.179.19,4,30,deliciousbaby.com,US,Americas,Northern America,United States of America,New Jersey,,Cedar Knolls
66.175.210.250,4,3,demotech.com,US,Americas,Northern America,United States of America,New Jersey,,Cedar Knolls
172.104.29.37,4,4,designrelated.com,US,Americas,Northern America,United States of America,New Jersey,,Cedar Knolls
173.255.238.65,4,2,designsbymissmandee.com,US,Americas,Northern America,United States of America,New Jersey,,Cedar Knolls
50.116.60.26,4,4,dieselsweeties.com,US,Americas,Northern America,United States of America,New Jersey,,Cedar Knolls
97.107.129.173,4,879597,digitalbookindex.com,US,Americas,Northern America,United States of America,New Jersey,,Cedar Knolls
104.237.148.184,4,8,diglib.org,US,Americas,Northern America,United States of America,New Jersey,,Cedar Knolls
45.79.153.254,4,426736,diopa.org,US,Americas,Northern America,United States of America,New Jersey,,Cedar Knolls
172.104.10.94,4,13,disabilitytravel.com,US,Americas,Northern America,United States of America,New Jersey,,Cedar Knolls
172.104.9.107,4,55,discovervancouver.com,US,Americas,Northern America,United States of America,New Jersey,,Cedar Knolls
66.228.45.201,4,3,dizkover.com,US,Americas,Northern America,United States of America,New Jersey,,Cedar Knolls
172.104.29.247,4,659874,DNS Server: 172-104-29-247.ip.linodeusercontent.com,US,Americas,Northern America,United States of America,New Jersey,,Cedar Knolls
66.228.36.104,4,4,DNS Server: dns.paul-moore.com,US,Americas,Northern America,United States of America,New Jersey,,Cedar Knolls
69.164.209.209,4,349,DNS Server: li124-209.members.linode.com,US,Americas,Northern America,United States of America,New Jersey,,Cedar Knolls
173.255.225.25,4,347,DNS Server: li235-25.members.linode.com,US,Americas,Northern America,United States of America,New Jersey,,Cedar Knolls
66.228.43.124,4,159624,DNS Server: li324-124.members.linode.com,US,Americas,Northern America,United States of America,New Jersey,,Cedar Knolls
66.175.212.65,4,1493450,DNS Server: li509-65.members.linode.com,US,Americas,Northern America,United States of America,New Jersey,,Cedar Knolls
172.104.213.248,4,1,dnsdumpster.com,US,Americas,Northern America,United States of America,New Jersey,,Cedar Knolls
23.92.21.184,4,59,doheth.co.uk,US,Americas,Northern America,United States of America,New Jersey,,Cedar Knolls
173.255.224.12,4,3,donorsearch.net,US,Americas,Northern America,United States of America,New Jersey,,Cedar Knolls
66.228.34.81,4,-4,dottoro.com,US,Americas,Northern America,United States of America,New Jersey,,Cedar Knolls
45.79.171.137,4,5,double.co.nz,US,Americas,Northern America,United States of America,New Jersey,,Cedar Knolls
45.79.134.105,4,20,downtowndelraybeach.com,US,Americas,Northern America,United States of America,New Jersey,,Cedar Knolls
96.126.109.113,4,14,doxpara.com,US,Americas,Northern America,United States of America,New Jersey,,Cedar Knolls
172.104.18.160,4,8,drinkingliberally.org,US,Americas,Northern America,United States of America,New Jersey,,Cedar Knolls
172.104.9.167,4,2,dungeondefenders2.com,US,Americas,Northern America,United States of America,New Jersey,,Cedar Knolls
45.79.144.54,4,26634,dustycloud.org,US,Americas,Northern America,United States of America,New Jersey,,Cedar Knolls
66.228.36.138,4,3,earlymusicamerica.org,US,Americas,Northern America,United States of America,New Jersey,,Cedar Knolls
45.33.64.222,4,3,eastbaymeditation.org,US,Americas,Northern America,United States of America,New Jersey,,Cedar Knolls
45.33.80.93,4,26,ecga.org,US,Americas,Northern America,United States of America,New Jersey,,Cedar Knolls
23.92.17.141,4,0,eclipsephase.com,US,Americas,Northern America,United States of America,New Jersey,,Cedar Knolls
104.237.148.153,4,9,edweb.net,US,Americas,Northern America,United States of America,New Jersey,,Cedar Knolls
45.56.110.171,4,6,eesm.com,US,Americas,Northern America,United States of America,New Jersey,,Cedar Knolls
173.255.228.130,4,0,eggzack.com,US,Americas,Northern America,United States of America,New Jersey,,Cedar Knolls
173.255.232.166,4,6,elifulkerson.com,US,Americas,Northern America,United States of America,New Jersey,,Cedar Knolls
172.104.16.64,4,28,emacsconf.org,US,Americas,Northern America,United States of America,New Jersey,,Cedar Knolls
66.175.214.237,4,19,embassy-finder.com,US,Americas,Northern America,United States of America,New Jersey,,Cedar Knolls
69.164.219.197,4,60,enjoytexfabric.com,US,Americas,Northern America,United States of America,New Jersey,,Cedar Knolls
172.104.9.183,4,4,ericward.com,US,Americas,Northern America,United States of America,New Jersey,,Cedar Knolls
173.255.229.240,4,28,eruditorumpress.com,US,Americas,Northern America,United States of America,New Jersey,,Cedar Knolls
45.33.64.55,4,7,eslnotes.com,US,Americas,Northern America,United States of America,New Jersey,,Cedar Knolls
172.104.30.7,4,9,everhart-museum.org,US,Americas,Northern America,United States of America,New Jersey,,Cedar Knolls
96.126.107.130,4,22,everydaycalculation.com,US,Americas,Northern America,United States of America,New Jersey,,Cedar Knolls
66.175.213.203,4,1499456,exploitbox.io,US,Americas,Northern America,United States of America,New Jersey,,Cedar Knolls
66.228.41.213,4,6,eyesonff.com,US,Americas,Northern America,United States of America,New Jersey,,Cedar Knolls
45.79.150.112,4,6,fabrics.net,US,Americas,Northern America,United States of America,New Jersey,,Cedar Knolls
162.216.18.108,4,4,fanvoz.com,US,Americas,Northern America,United States of America,New Jersey,,Cedar Knolls
45.79.179.96,4,4,fedpaymentsimprovement.org,US,Americas,Northern America,United States of America,New Jersey,,Cedar Knolls
50.116.50.253,4,7,financemagazine.co,US,Americas,Northern America,United States of America,New Jersey,,Cedar Knolls
104.237.148.98,4,6,fitnesssyncer.com,US,Americas,Northern America,United States of America,New Jersey,,Cedar Knolls
143.42.127.140,4,0,fitnesssyncer.com,US,Americas,Northern America,United States of America,New Jersey,,Cedar Knolls
173.255.235.226,4,6,fluxent.com,US,Americas,Northern America,United States of America,New Jersey,,Cedar Knolls
45.79.130.172,4,2,focusonmexico.com,US,Americas,Northern America,United States of America,New Jersey,,Cedar Knolls
172.104.25.51,4,14,focusonyourchild.com,US,Americas,Northern America,United States of America,New Jersey,,Cedar Knolls
45.79.144.140,4,56,fontspring.com,US,Americas,Northern America,United States of America,New Jersey,,Cedar Knolls
45.79.150.110,4,58,fontsquirrel.com,US,Americas,Northern America,United States of America,New Jersey,,Cedar Knolls
66.228.36.129,4,46,foodschmooze.org,US,Americas,Northern America,United States of America,New Jersey,,Cedar Knolls
45.79.160.10,4,1,for-a.com,US,Americas,Northern America,United States of America,New Jersey,,Cedar Knolls
207.192.72.34,4,6,fortranwiki.org,US,Americas,Northern America,United States of America,New Jersey,,Cedar Knolls
45.79.171.66,4,14,fozzyrock.com,US,Americas,Northern America,United States of America,New Jersey,,Cedar Knolls
66.175.213.166,4,40,fredericiana.com,US,Americas,Northern America,United States of America,New Jersey,,Cedar Knolls
69.164.218.39,4,7,free-sound-editor.com,US,Americas,Northern America,United States of America,New Jersey,,Cedar Knolls
23.92.16.20,4,26,freecarmagazines.org,US,Americas,Northern America,United States of America,New Jersey,,Cedar Knolls
69.164.214.132,4,9,freron.com,US,Americas,Northern America,United States of America,New Jersey,,Cedar Knolls
172.104.15.229,4,6,gamegrene.com,US,Americas,Northern America,United States of America,New Jersey,,Cedar Knolls
139.144.239.126,4,23,gamekidgame.com,US,Americas,Northern America,United States of America,New Jersey,,Cedar Knolls
69.164.211.179,4,9,gamingsteve.com,US,Americas,Northern America,United States of America,New Jersey,,Cedar Knolls
45.33.78.214,4,17,geargods.net,US,Americas,Northern America,United States of America,New Jersey,,Cedar Knolls
45.33.65.6,4,20,gibraltarpanorama.gi,US,Americas,Northern America,United States of America,New Jersey,,Cedar Knolls
97.107.140.187,4,22,girls-for-marriage.com,US,Americas,Northern America,United States of America,New Jersey,,Cedar Knolls
96.126.109.73,4,4,gittup.org,US,Americas,Northern America,United States of America,New Jersey,,Cedar Knolls
23.239.10.148,4,4,glencoesoftware.com,US,Americas,Northern America,United States of America,New Jersey,,Cedar Knolls
45.79.163.135,4,27,globalflyfisher.com,US,Americas,Northern America,United States of America,New Jersey,,Cedar Knolls
45.79.166.186,4,13,globalfrp.org,US,Americas,Northern America,United States of America,New Jersey,,Cedar Knolls
69.164.209.230,4,7,gluckplus.com,US,Americas,Northern America,United States of America,New Jersey,,Cedar Knolls
45.79.177.232,4,16,goodweave.org,US,Americas,Northern America,United States of America,New Jersey,,Cedar Knolls
198.74.58.44,4,7,gowyomingcountyny.com,US,Americas,Northern America,United States of America,New Jersey,,Cedar Knolls
45.79.171.92,4,35243,graffiti.org,US,Americas,Northern America,United States of America,New Jersey,,Cedar Knolls
45.79.183.175,4,47,green-beast.com,US,Americas,Northern America,United States of America,New Jersey,,Cedar Knolls
45.79.153.45,4,17,greenlightplanet.com,US,Americas,Northern America,United States of America,New Jersey,,Cedar Knolls
45.33.64.214,4,35,grepper.com,US,Americas,Northern America,United States of America,New Jersey,,Cedar Knolls
198.74.61.141,4,3,groundcontroltouring.com,US,Americas,Northern America,United States of America,New Jersey,,Cedar Knolls
172.104.217.188,4,31,growingfruit.org,US,Americas,Northern America,United States of America,New Jersey,,Cedar Knolls
69.164.219.187,4,20,habitlist.com,US,Americas,Northern America,United States of America,New Jersey,,Cedar Knolls
45.33.89.151,4,6,hamsci.org,US,Americas,Northern America,United States of America,New Jersey,,Cedar Knolls
198.74.58.158,4,6,hedonometer.org,US,Americas,Northern America,United States of America,New Jersey,,Cedar Knolls
45.79.177.133,4,69277,heights.edu,US,Americas,Northern America,United States of America,New Jersey,,Cedar Knolls
45.33.84.79,4,6,heightweighnetworth.com,US,Americas,Northern America,United States of America,New Jersey,,Cedar Knolls
50.116.49.241,4,-1,hexler.net,US,Americas,Northern America,United States of America,New Jersey,,Cedar Knolls
50.116.63.120,4,2,hislider.com,US,Americas,Northern America,United States of America,New Jersey,,Cedar Knolls
96.126.110.11,4,6,hmmer.org,US,Americas,Northern America,United States of America,New Jersey,,Cedar Knolls
96.126.105.118,4,723,hmssurprise.org,US,Americas,Northern America,United States of America,New Jersey,,Cedar Knolls
104.237.148.209,4,9,hogwartsishere.com,US,Americas,Northern America,United States of America,New Jersey,,Cedar Knolls
50.116.50.155,4,4,homeimprovementmagazine.org,US,Americas,Northern America,United States of America,New Jersey,,Cedar Knolls
69.164.213.88,4,8,homeport.org,US,Americas,Northern America,United States of America,New Jersey,,Cedar Knolls
23.239.9.176,4,1344057,host-a.net,US,Americas,Northern America,United States of America,New Jersey,,Cedar Knolls
45.56.98.223,4,38,hostbuf.com,US,Americas,Northern America,United States of America,New Jersey,,Cedar Knolls
45.33.64.194,4,4,howoldistheinternet.com,US,Americas,Northern America,United States of America,New Jersey,,Cedar Knolls
172.104.12.193,4,7,hpjansson.org,US,Americas,Northern America,United States of America,New Jersey,,Cedar Knolls
45.79.139.58,4,-1,hwlongfellow.org,US,Americas,Northern America,United States of America,New Jersey,,Cedar Knolls
66.228.33.161,4,66492,hyatts.com,US,Americas,Northern America,United States of America,New Jersey,,Cedar Knolls
50.116.51.26,4,40,icalendar.org,US,Americas,Northern America,United States of America,New Jersey,,Cedar Knolls
50.116.54.59,4,0,ifcomp.org,US,Americas,Northern America,United States of America,New Jersey,,Cedar Knolls
172.104.219.180,4,9,ifdb.org,US,Americas,Northern America,United States of America,New Jersey,,Cedar Knolls
45.79.138.35,4,8,ifwiki.org,US,Americas,Northern America,United States of America,New Jersey,,Cedar Knolls
207.192.71.45,4,7,imood.com,US,Americas,Northern America,United States of America,New Jersey,,Cedar Knolls
45.79.161.162,4,15,incfact.com,US,Americas,Northern America,United States of America,New Jersey,,Cedar Knolls
45.33.78.30,4,73,infinitewisdomjourney.com,US,Americas,Northern America,United States of America,New Jersey,,Cedar Knolls
207.192.75.84,4,3,informationphilosopher.com,US,Americas,Northern America,United States of America,New Jersey,,Cedar Knolls
172.104.24.104,4,0,integreon.com,US,Americas,Northern America,United States of America,New Jersey,,Cedar Knolls
192.155.91.169,4,83,intfiction.org,US,Americas,Northern America,United States of America,New Jersey,,Cedar Knolls
45.79.164.95,4,46,ioplex.com,US,Americas,Northern America,United States of America,New Jersey,,Cedar Knolls
66.228.34.153,4,26,irdial.com,US,Americas,Northern America,United States of America,New Jersey,,Cedar Knolls
45.79.163.44,4,9,ivolunteer.com,US,Americas,Northern America,United States of America,New Jersey,,Cedar Knolls
45.79.130.94,4,938,iyp2016.org,US,Americas,Northern America,United States of America,New Jersey,,Cedar Knolls
97.107.133.174,4,1123207,jasonlogsdon.com,US,Americas,Northern America,United States of America,New Jersey,,Cedar Knolls
69.164.218.118,4,291052,javacardos.com,US,Americas,Northern America,United States of America,New Jersey,,Cedar Knolls
69.164.221.6,4,4,jblevins.org,US,Americas,Northern America,United States of America,New Jersey,,Cedar Knolls
96.126.107.125,4,4,jci.org,US,Americas,Northern America,United States of America,New Jersey,,Cedar Knolls
104.237.147.152,4,7,jerseycollege.edu,US,Americas,Northern America,United States of America,New Jersey,,Cedar Knolls
173.255.237.88,4,1845988,jesuitvolunteers.org,US,Americas,Northern America,United States of America,New Jersey,,Cedar Knolls
45.33.80.31,4,28,jet.ro,US,Americas,Northern America,United States of America,New Jersey,,Cedar Knolls
45.79.128.64,4,2,jobacle.com,US,Americas,Northern America,United States of America,New Jersey,,Cedar Knolls
66.228.38.181,4,26,joneakes.com,US,Americas,Northern America,United States of America,New Jersey,,Cedar Knolls
104.200.28.77,4,5,jrgraphix.net,US,Americas,Northern America,United States of America,New Jersey,,Cedar Knolls
69.164.209.180,4,2,k2as-ref.xyz,US,Americas,Northern America,United States of America,New Jersey,,Cedar Knolls
162.216.17.205,4,4,kaiseraluminum.com,US,Americas,Northern America,United States of America,New Jersey,,Cedar Knolls
45.79.187.53,4,67,karamuhouse.org,US,Americas,Northern America,United States of America,New Jersey,,Cedar Knolls
45.79.186.213,4,40,kaylees.site,US,Americas,Northern America,United States of America,New Jersey,,Cedar Knolls
104.237.150.52,4,281,kazimagazine.com,US,Americas,Northern America,United States of America,New Jersey,,Cedar Knolls
50.116.58.33,4,6,kerrywong.com,US,Americas,Northern America,United States of America,New Jersey,,Cedar Knolls
45.79.169.172,4,4,keyua.org,US,Americas,Northern America,United States of America,New Jersey,,Cedar Knolls
97.107.141.225,4,3,keyxl.com,US,Americas,Northern America,United States of America,New Jersey,,Cedar Knolls
66.175.213.181,4,3,kh-vids.net,US,Americas,Northern America,United States of America,New Jersey,,Cedar Knolls
104.237.151.160,4,7,khanlou.com,US,Americas,Northern America,United States of America,New Jersey,,Cedar Knolls
66.228.36.95,4,4,kitenet.net,US,Americas,Northern America,United States of America,New Jersey,,Cedar Knolls
207.192.74.154,4,56,klever.net,US,Americas,Northern America,United States of America,New Jersey,,Cedar Knolls
172.104.10.16,4,12,koalabeast.com,US,Americas,Northern America,United States of America,New Jersey,,Cedar Knolls
97.107.130.171,4,6,ksuther.com,US,Americas,Northern America,United States of America,New Jersey,,Cedar Knolls
162.216.16.113,4,6,lakelandbus.com,US,Americas,Northern America,United States of America,New Jersey,,Cedar Knolls
23.239.13.46,4,46,lauriloewenberg.com,US,Americas,Northern America,United States of America,New Jersey,,Cedar Knolls
172.104.212.236,4,69,lavaforgood.com,US,Americas,Northern America,United States of America,New Jersey,,Cedar Knolls
69.164.223.124,4,51,lecahier.com,US,Americas,Northern America,United States of America,New Jersey,,Cedar Knolls
69.164.221.227,4,248667,leekspin.com,US,Americas,Northern America,United States of America,New Jersey,,Cedar Knolls
45.33.72.243,4,1593625,legalhackers.com,US,Americas,Northern America,United States of America,New Jersey,,Cedar Knolls
50.116.50.146,4,7,legalmagazine.net,US,Americas,Northern America,United States of America,New Jersey,,Cedar Knolls
69.164.209.94,4,126,lensesrx.com,US,Americas,Northern America,United States of America,New Jersey,,Cedar Knolls
45.79.172.206,4,4,libcinder.org,US,Americas,Northern America,United States of America,New Jersey,,Cedar Knolls
45.79.185.175,4,31,librecad.org,US,Americas,Northern America,United States of America,New Jersey,,Cedar Knolls
173.255.232.174,4,28,lindseyadelman.com,US,Americas,Northern America,United States of America,New Jersey,,Cedar Knolls
66.228.32.21,4,349026,literarytranslators.org,US,Americas,Northern America,United States of America,New Jersey,,Cedar Knolls
96.126.108.80,4,10,logotournament.com,US,Americas,Northern America,United States of America,New Jersey,,Cedar Knolls
45.79.163.254,4,0,lostiempos.com,US,Americas,Northern America,United States of America,New Jersey,,Cedar Knolls
172.104.21.31,4,3,louisem.com,US,Americas,Northern America,United States of America,New Jersey,,Cedar Knolls
66.175.215.251,4,39,lpc.events,US,Americas,Northern America,United States of America,New Jersey,,Cedar Knolls
172.104.12.75,4,5,ludwig-van.com,US,Americas,Northern America,United States of America,New Jersey,,Cedar Knolls
45.79.169.120,4,7,lushprojects.com,US,Americas,Northern America,United States of America,New Jersey,,Cedar Knolls
173.255.236.65,4,69951,lwn.net,US,Americas,Northern America,United States of America,New Jersey,,Cedar Knolls
50.116.62.53,4,1,maathiildee.com,US,Americas,Northern America,United States of America,New Jersey,,Cedar Knolls
198.74.60.95,4,2,macconnect.com,US,Americas,Northern America,United States of America,New Jersey,,Cedar Knolls
45.56.96.244,4,811591,madirish.net,US,Americas,Northern America,United States of America,New Jersey,,Cedar Knolls
66.175.209.219,4,-1,madmuseum.org,US,Americas,Northern America,United States of America,New Jersey,,Cedar Knolls
172.104.218.108,4,34,madsci.org,US,Americas,Northern America,United States of America,New Jersey,,Cedar Knolls
139.144.243.165,4,6,mainehistory.org,US,Americas,Northern America,United States of America,New Jersey,,Cedar Knolls
45.79.146.31,4,57,mainememory.net,US,Americas,Northern America,United States of America,New Jersey,,Cedar Knolls
45.79.246.70,4,3,makeloveland.com,US,Americas,Northern America,United States of America,New Jersey,,Cedar Knolls
45.79.152.195,4,14,mannafoodbank.org,US,Americas,Northern America,United States of America,New Jersey,,Cedar Knolls
97.107.136.244,4,3,mapcrunch.com,US,Americas,Northern America,United States of America,New Jersey,,Cedar Knolls
172.104.16.235,4,11,mapr.org,US,Americas,Northern America,United States of America,New Jersey,,Cedar Knolls
66.175.208.203,4,31,masslegalservices.org,US,Americas,Northern America,United States of America,New Jersey,,Cedar Knolls
69.164.210.158,4,5,mattgemmell.scot,US,Americas,Northern America,United States of America,New Jersey,,Cedar Knolls
97.107.133.145,4,7,mconnectmedia.com,US,Americas,Northern America,United States of America,New Jersey,,Cedar Knolls
97.107.128.207,4,1,mega-nerd.com,US,Americas,Northern America,United States of America,New Jersey,,Cedar Knolls
45.79.183.103,4,7,metroethernetforum.org,US,Americas,Northern America,United States of America,New Jersey,,Cedar Knolls
69.164.217.87,4,24,metroid-database.com,US,Americas,Northern America,United States of America,New Jersey,,Cedar Knolls
104.237.150.22,4,3,metroweekly.com,US,Americas,Northern America,United States of America,New Jersey,,Cedar Knolls
50.116.53.191,4,693,michaelport.com,US,Americas,Northern America,United States of America,New Jersey,,Cedar Knolls
23.92.22.177,4,3,michiganimmigrant.org,US,Americas,Northern America,United States of America,New Jersey,,Cedar Knolls
172.104.14.177,4,41,millionsongdataset.com,US,Americas,Northern America,United States of America,New Jersey,,Cedar Knolls
45.79.184.85,4,2,milwaukeemakerspace.org,US,Americas,Northern America,United States of America,New Jersey,,Cedar Knolls
172.104.21.63,4,63,milwaukeewave.com,US,Americas,Northern America,United States of America,New Jersey,,Cedar Knolls
66.228.47.114,4,0,mindstalk.net,US,Americas,Northern America,United States of America,New Jersey,,Cedar Knolls
198.74.56.200,4,96,mis-recetas.org,US,Americas,Northern America,United States of America,New Jersey,,Cedar Knolls
198.74.62.220,4,2,mjmwired.net,US,Americas,Northern America,United States of America,New Jersey,,Cedar Knolls
45.79.185.76,4,2,modernloss.com,US,Americas,Northern America,United States of America,New Jersey,,Cedar Knolls
172.104.216.9,4,44,moonshiners.club,US,Americas,Northern America,United States of America,New Jersey,,Cedar Knolls
45.56.108.105,4,5,moore.edu,US,Americas,Northern America,United States of America,New Jersey,,Cedar Knolls
45.33.65.104,4,12,mortgagecalculator.org,US,Americas,Northern America,United States of America,New Jersey,,Cedar Knolls
45.33.90.62,4,8,mozartmoving.com,US,Americas,Northern America,United States of America,New Jersey,,Cedar Knolls
45.79.181.64,4,-1,mreinhold.org,US,Americas,Northern America,United States of America,New Jersey,,Cedar Knolls
66.228.46.154,4,9,multinationalparts.com,US,Americas,Northern America,United States of America,New Jersey,,Cedar Knolls
50.116.63.247,4,43,musicaltoronto.org,US,Americas,Northern America,United States of America,New Jersey,,Cedar Knolls
45.79.151.127,4,92,myanima.ai,US,Americas,Northern America,United States of America,New Jersey,,Cedar Knolls
172.104.4.142,4,25,myheartliveshere.com,US,Americas,Northern America,United States of America,New Jersey,,Cedar Knolls
97.107.135.131,4,15,mylittlewiki.org,US,Americas,Northern America,United States of America,New Jersey,,Cedar Knolls
104.237.148.100,4,4,myscenicdrives.com,US,Americas,Northern America,United States of America,New Jersey,,Cedar Knolls
170.187.131.122,4,1,myscenicdrives.com,US,Americas,Northern America,United States of America,New Jersey,,Cedar Knolls
45.79.178.79,4,14,nakisa.com,US,Americas,Northern America,United States of America,New Jersey,,Cedar Knolls
162.216.17.43,4,13,nationalcenterformobilitymanagement.org,US,Americas,Northern America,United States of America,New Jersey,,Cedar Knolls
143.42.185.208,4,1,neilvandyke.org,US,Americas,Northern America,United States of America,New Jersey,,Cedar Knolls
97.107.128.253,4,4,nerdfighteria.info,US,Americas,Northern America,United States of America,New Jersey,,Cedar Knolls
50.116.63.43,4,5,nesbot.com,US,Americas,Northern America,United States of America,New Jersey,,Cedar Knolls
66.228.37.184,4,93,netwinsite.com,US,Americas,Northern America,United States of America,New Jersey,,Cedar Knolls
69.164.217.191,4,15,neuroregulation.org,US,Americas,Northern America,United States of America,New Jersey,,Cedar Knolls
173.255.233.147,4,4,niceboard.co,US,Americas,Northern America,United States of America,New Jersey,,Cedar Knolls
173.255.231.250,4,0,niner.net,US,Americas,Northern America,United States of America,New Jersey,,Cedar Knolls
66.175.215.130,4,0,nodepositcasino.org,US,Americas,Northern America,United States of America,New Jersey,,Cedar Knolls
173.255.229.34,4,12,nooelec.com,US,Americas,Northern America,United States of America,New Jersey,,Cedar Knolls
66.228.32.95,4,4,northernfeeling.com,US,Americas,Northern America,United States of America,New Jersey,,Cedar Knolls
45.33.84.38,4,3,nursinghomesite.com,US,Americas,Northern America,United States of America,New Jersey,,Cedar Knolls
45.79.181.134,4,7,nutritionsecrets.com,US,Americas,Northern America,United States of America,New Jersey,,Cedar Knolls
96.126.107.52,4,13,nuxx.net,US,Americas,Northern America,United States of America,New Jersey,,Cedar Knolls
104.237.150.163,4,3,nycclc.org,US,Americas,Northern America,United States of America,New Jersey,,Cedar Knolls
66.175.210.134,4,-1,nytcrosswordanswers.org,US,Americas,Northern America,United States of America,New Jersey,,Cedar Knolls
162.216.17.168,4,20,oakleafcakes.com,US,Americas,Northern America,United States of America,New Jersey,,Cedar Knolls
45.79.182.34,4,8,ofoct.com,US,Americas,Northern America,United States of America,New Jersey,,Cedar Knolls
104.237.148.63,4,75,oldhousegardens.com,US,Americas,Northern America,United States of America,New Jersey,,Cedar Knolls
173.255.229.248,4,5,onecloudnetworks.com,US,Americas,Northern America,United States of America,New Jersey,,Cedar Knolls
45.79.159.204,4,12,onemindchurch.org,US,Americas,Northern America,United States of America,New Jersey,,Cedar Knolls
50.116.49.36,4,35,onlinecasinodollar.com,US,Americas,Northern America,United States of America,New Jersey,,Cedar Knolls
45.56.110.159,4,1410226,open-spf.org,US,Americas,Northern America,United States of America,New Jersey,,Cedar Knolls
45.79.168.40,4,47,openclipart.org,US,Americas,Northern America,United States of America,New Jersey,,Cedar Knolls
66.175.208.102,4,3,other-people.net,US,Americas,Northern America,United States of America,New Jersey,,Cedar Knolls
45.33.74.195,4,65,ourdoings.com,US,Americas,Northern America,United States of America,New Jersey,,Cedar Knolls
45.79.162.114,4,29969,outbackteambuilding.com,US,Americas,Northern America,United States of America,New Jersey,,Cedar Knolls
172.104.217.111,4,0,paautism.org,US,Americas,Northern America,United States of America,New Jersey,,Cedar Knolls
23.92.21.99,4,3,pacificraceways.com,US,Americas,Northern America,United States of America,New Jersey,,Cedar Knolls
45.33.67.185,4,3,pagewiz.com,US,Americas,Northern America,United States of America,New Jersey,,Cedar Knolls
66.228.35.238,4,334692,paranormalcirque.com,US,Americas,Northern America,United States of America,New Jersey,,Cedar Knolls
97.107.131.164,4,26,pastie.org,US,Americas,Northern America,United States of America,New Jersey,,Cedar Knolls
97.107.137.31,4,7,patagonia-argentina.com,US,Americas,Northern America,United States of America,New Jersey,,Cedar Knolls
104.200.29.114,4,324,pcper.com,US,Americas,Northern America,United States of America,New Jersey,,Cedar Knolls
192.155.89.68,4,403739,pdanet.co,US,Americas,Northern America,United States of America,New Jersey,,Cedar Knolls
45.79.146.111,4,16,peepeth.com,US,Americas,Northern America,United States of America,New Jersey,,Cedar Knolls
66.228.37.186,4,13,peeron.com,US,Americas,Northern America,United States of America,New Jersey,,Cedar Knolls
173.255.237.102,4,16,pegasusbooks.com,US,Americas,Northern America,United States of America,New Jersey,,Cedar Knolls
69.164.222.235,4,50,perrysicecream.com,US,Americas,Northern America,United States of America,New Jersey,,Cedar Knolls
45.33.64.202,4,14,pharmacyforum.com,US,Americas,Northern America,United States of America,New Jersey,,Cedar Knolls
104.237.146.214,4,39,phoenity.com,US,Americas,Northern America,United States of America,New Jersey,,Cedar Knolls
97.107.132.86,4,926,pigtailpals.com,US,Americas,Northern America,United States of America,New Jersey,,Cedar Knolls
69.164.217.124,4,23,plantdesigns.com,US,Americas,Northern America,United States of America,New Jersey,,Cedar Knolls
45.79.168.110,4,14,playlistmachinery.com,US,Americas,Northern America,United States of America,New Jersey,,Cedar Knolls
23.92.19.230,4,2,plover.com,US,Americas,Northern America,United States of America,New Jersey,,Cedar Knolls
209.123.234.146,4,12,plunk.org,US,Americas,Northern America,United States of America,New Jersey,,Cedar Knolls
45.79.171.251,4,45,pocketmagic.net,US,Americas,Northern America,United States of America,New Jersey,,Cedar Knolls
45.56.105.252,4,44,pocketsights.com,US,Americas,Northern America,United States of America,New Jersey,,Cedar Knolls
66.175.213.61,4,35,pogil.org,US,Americas,Northern America,United States of America,New Jersey,,Cedar Knolls
198.74.61.193,4,10,politicalforum.com,US,Americas,Northern America,United States of America,New Jersey,,Cedar Knolls
23.92.23.69,4,13,pololu.com,US,Americas,Northern America,United States of America,New Jersey,,Cedar Knolls
45.79.134.41,4,25,popularresistance.org,US,Americas,Northern America,United States of America,New Jersey,,Cedar Knolls
173.255.227.207,4,17,pouchdb.com,US,Americas,Northern America,United States of America,New Jersey,,Cedar Knolls
143.42.115.24,4,4,powerampapp.com,US,Americas,Northern America,United States of America,New Jersey,,Cedar Knolls
198.74.60.152,4,1,powersportsguide.com,US,Americas,Northern America,United States of America,New Jersey,,Cedar Knolls
97.107.130.222,4,35,practicalcryptography.com,US,Americas,Northern America,United States of America,New Jersey,,Cedar Knolls
66.228.45.50,4,1020,prometheusradio.org,US,Americas,Northern America,United States of America,New Jersey,,Cedar Knolls
45.79.150.226,4,136538,promosgo.com,US,Americas,Northern America,United States of America,New Jersey,,Cedar Knolls
69.164.214.149,4,11,proofhub.com,US,Americas,Northern America,United States of America,New Jersey,,Cedar Knolls
173.255.233.75,4,44,prorec.com,US,Americas,Northern America,United States of America,New Jersey,,Cedar Knolls
45.79.145.205,4,45,psychicblaze.com,US,Americas,Northern America,United States of America,New Jersey,,Cedar Knolls
50.116.56.184,4,21,publiccounsel.org,US,Americas,Northern America,United States of America,New Jersey,,Cedar Knolls
69.164.223.36,4,11,punbb-hosting.com,US,Americas,Northern America,United States of America,New Jersey,,Cedar Knolls
45.56.100.107,4,62,punctuationchecker.org,US,Americas,Northern America,United States of America,New Jersey,,Cedar Knolls
104.200.29.119,4,28,purplekittyyarns.com,US,Americas,Northern America,United States of America,New Jersey,,Cedar Knolls
23.239.13.240,4,7,pvcc.edu,US,Americas,Northern America,United States of America,New Jersey,,Cedar Knolls
172.104.19.21,4,6,pwg.org,US,Americas,Northern America,United States of America,New Jersey,,Cedar Knolls
45.33.87.127,4,7,pyimagesearch.com,US,Americas,Northern America,United States of America,New Jersey,,Cedar Knolls
97.107.136.15,4,-2,python3porting.com,US,Americas,Northern America,United States of America,New Jersey,,Cedar Knolls
45.56.106.107,4,23,quebeccinema.ca,US,Americas,Northern America,United States of America,New Jersey,,Cedar Knolls
45.79.151.33,4,54,rabbitvcs.org,US,Americas,Northern America,United States of America,New Jersey,,Cedar Knolls
50.116.56.122,4,87,radicalreference.info,US,Americas,Northern America,United States of America,New Jersey,,Cedar Knolls
172.104.25.136,4,31,raingod.com,US,Americas,Northern America,United States of America,New Jersey,,Cedar Knolls
45.79.144.219,4,31,rainmakerdigital.com,US,Americas,Northern America,United States of America,New Jersey,,Cedar Knolls
66.228.36.201,4,43,ratical.org,US,Americas,Northern America,United States of America,New Jersey,,Cedar Knolls
162.216.18.225,4,41,rebol.com,US,Americas,Northern America,United States of America,New Jersey,,Cedar Knolls
50.116.62.212,4,37,recreationmagazine.net,US,Americas,Northern America,United States of America,New Jersey,,Cedar Knolls
97.107.129.89,4,4,redream.io,US,Americas,Northern America,United States of America,New Jersey,,Cedar Knolls
45.79.137.113,4,50,reelradio.com,US,Americas,Northern America,United States of America,New Jersey,,Cedar Knolls
45.33.80.46,4,10,ridm.ca,US,Americas,Northern America,United States of America,New Jersey,,Cedar Knolls
173.255.234.22,4,8,rlsmedia.com,US,Americas,Northern America,United States of America,New Jersey,,Cedar Knolls
104.237.144.231,4,27,rochestermagazine.org,US,Americas,Northern America,United States of America,New Jersey,,Cedar Knolls
23.92.16.81,4,11,rocklandgov.com,US,Americas,Northern America,United States of America,New Jersey,,Cedar Knolls
97.107.130.225,4,61,rohitab.com,US,Americas,Northern America,United States of America,New Jersey,,Cedar Knolls
97.107.131.248,4,32,royalpets.com.br,US,Americas,Northern America,United States of America,New Jersey,,Cedar Knolls
23.239.14.138,4,13,rpgamers.net,US,Americas,Northern America,United States of America,New Jersey,,Cedar Knolls
45.33.88.205,4,22,rsbandb.com,US,Americas,Northern America,United States of America,New Jersey,,Cedar Knolls
50.116.63.156,4,11,rtoinsider.com,US,Americas,Northern America,United States of America,New Jersey,,Cedar Knolls
173.255.231.241,4,37,rubini.us,US,Americas,Northern America,United States of America,New Jersey,,Cedar Knolls
45.33.77.57,4,52,rudin.com,US,Americas,Northern America,United States of America,New Jersey,,Cedar Knolls
45.79.140.191,4,57,russnelson.com,US,Americas,Northern America,United States of America,New Jersey,,Cedar Knolls
69.164.214.145,4,13,sabi.net,US,Americas,Northern America,United States of America,New Jersey,,Cedar Knolls
45.79.181.224,4,2,sagenb.org,US,Americas,Northern America,United States of America,New Jersey,,Cedar Knolls
172.104.19.120,4,73,salvadordabahia.com,US,Americas,Northern America,United States of America,New Jersey,,Cedar Knolls
66.228.36.240,4,3,samizdata.net,US,Americas,Northern America,United States of America,New Jersey,,Cedar Knolls
104.237.147.197,4,6,santas.net,US,Americas,Northern America,United States of America,New Jersey,,Cedar Knolls
104.200.31.245,4,53,savee.it,US,Americas,Northern America,United States of America,New Jersey,,Cedar Knolls
104.237.144.228,4,6,sbhci.net,US,Americas,Northern America,United States of America,New Jersey,,Cedar Knolls
173.255.237.117,4,32,scholarpedia.org,US,Americas,Northern America,United States of America,New Jersey,,Cedar Knolls
172.104.218.225,4,37,schumm.biz,US,Americas,Northern America,United States of America,New Jersey,,Cedar Knolls
50.116.61.138,4,7,scirate.com,US,Americas,Northern America,United States of America,New Jersey,,Cedar Knolls
172.104.21.20,4,21,scistarter.com,US,Americas,Northern America,United States of America,New Jersey,,Cedar Knolls
45.33.85.53,4,0,scrabblewordfinder.org,US,Americas,Northern America,United States of America,New Jersey,,Cedar Knolls
45.79.177.161,4,6,scribeseo.com,US,Americas,Northern America,United States of America,New Jersey,,Cedar Knolls
162.216.17.198,4,5,scrmc.com,US,Americas,Northern America,United States of America,New Jersey,,Cedar Knolls
50.116.54.32,4,3,scs.edu,US,Americas,Northern America,United States of America,New Jersey,,Cedar Knolls
45.33.92.230,4,10,sendy.co,US,Americas,Northern America,United States of America,New Jersey,,Cedar Knolls
172.104.209.23,4,4,sexworkersproject.org,US,Americas,Northern America,United States of America,New Jersey,,Cedar Knolls
69.164.210.181,4,195063,shadowera.com,US,Americas,Northern America,United States of America,New Jersey,,Cedar Knolls
23.92.16.148,4,21,shahab.pk,US,Americas,Northern America,United States of America,New Jersey,,Cedar Knolls
97.107.132.185,4,3,shapecollage.com,US,Americas,Northern America,United States of America,New Jersey,,Cedar Knolls
173.255.235.41,4,0,sharingmyip.com,US,Americas,Northern America,United States of America,New Jersey,,Cedar Knolls
45.33.91.168,4,6,shemakestherules.com,US,Americas,Northern America,United States of America,New Jersey,,Cedar Knolls
50.116.55.121,4,851,shengbenzhejiangchina.com,US,Americas,Northern America,United States of America,New Jersey,,Cedar Knolls
45.56.108.14,4,6,shoe4africa.org,US,Americas,Northern America,United States of America,New Jersey,,Cedar Knolls
45.56.108.100,4,8,shop4tech.com,US,Americas,Northern America,United States of America,New Jersey,,Cedar Knolls
45.79.133.218,4,1,shortoftheweek.com,US,Americas,Northern America,United States of America,New Jersey,,Cedar Knolls
45.79.188.52,4,153926,shrednations.com,US,Americas,Northern America,United States of America,New Jersey,,Cedar Knolls
69.164.208.144,4,178,simplesteps.org,US,Americas,Northern America,United States of America,New Jersey,,Cedar Knolls
45.33.82.87,4,4,sincitythemovie.com,US,Americas,Northern America,United States of America,New Jersey,,Cedar Knolls
45.79.135.144,4,3,sjdm.org,US,Americas,Northern America,United States of America,New Jersey,,Cedar Knolls
23.92.16.162,4,23,slidehtml5.com,US,Americas,Northern America,United States of America,New Jersey,,Cedar Knolls
45.33.95.40,4,4,sloww.co,US,Americas,Northern America,United States of America,New Jersey,,Cedar Knolls
50.116.50.249,4,23,smallbusinessmagazine.org,US,Americas,Northern America,United States of America,New Jersey,,Cedar Knolls
45.79.171.118,4,13,smartdevicefaqs.com,US,Americas,Northern America,United States of America,New Jersey,,Cedar Knolls
198.74.61.42,4,15,smho-smso.ca,US,Americas,Northern America,United States of America,New Jersey,,Cedar Knolls
69.164.213.254,4,10,snisonline.org,US,Americas,Northern America,United States of America,New Jersey,,Cedar Knolls
96.126.106.63,4,1,snoopza.com,US,Americas,Northern America,United States of America,New Jersey,,Cedar Knolls
45.79.179.248,4,101031,songwanjiashipin.com,US,Americas,Northern America,United States of America,New Jersey,,Cedar Knolls
172.104.215.130,4,2,sopercussion.com,US,Americas,Northern America,United States of America,New Jersey,,Cedar Knolls
23.92.18.225,4,18,sosolimited.com,US,Americas,Northern America,United States of America,New Jersey,,Cedar Knolls
45.33.66.150,4,14,southgatearc.org,US,Americas,Northern America,United States of America,New Jersey,,Cedar Knolls
143.42.191.154,4,0,spectralcore.com,US,Americas,Northern America,United States of America,New Jersey,,Cedar Knolls
172.104.210.210,4,3,spheredev.org,US,Americas,Northern America,United States of America,New Jersey,,Cedar Knolls
45.79.129.36,4,3,spindriftfresh.com,US,Americas,Northern America,United States of America,New Jersey,,Cedar Knolls
66.175.210.128,4,330836,spritely.institute,US,Americas,Northern America,United States of America,New Jersey,,Cedar Knolls
66.175.214.100,4,2,spynumbers.com,US,Americas,Northern America,United States of America,New Jersey,,Cedar Knolls
66.228.42.188,4,5,spyonweb.com,US,Americas,Northern America,United States of America,New Jersey,,Cedar Knolls
172.104.20.75,4,11,srichinmoy.org,US,Americas,Northern America,United States of America,New Jersey,,Cedar Knolls
172.104.10.103,4,6,ssina.com,US,Americas,Northern America,United States of America,New Jersey,,Cedar Knolls
45.79.144.212,4,32,stacresearch.com,US,Americas,Northern America,United States of America,New Jersey,,Cedar Knolls
66.228.45.239,4,35,stblogs.org,US,Americas,Northern America,United States of America,New Jersey,,Cedar Knolls
66.175.210.189,4,6,steve-parker.org,US,Americas,Northern America,United States of America,New Jersey,,Cedar Knolls
45.79.153.148,4,14,stillblondeafteralltheseyears.com,US,Americas,Northern America,United States of America,New Jersey,,Cedar Knolls
45.79.188.79,4,27068,stmforum.com,US,Americas,Northern America,United States of America,New Jersey,,Cedar Knolls
172.104.210.100,4,1053747,stockzoa.com,US,Americas,Northern America,United States of America,New Jersey,,Cedar Knolls
23.239.14.14,4,2,stopbang.ca,US,Americas,Northern America,United States of America,New Jersey,,Cedar Knolls
172.104.218.244,4,2,storagemadeeasy.com,US,Americas,Northern America,United States of America,New Jersey,,Cedar Knolls
97.107.128.41,4,37,strangermeetup.com,US,Americas,Northern America,United States of America,New Jersey,,Cedar Knolls
69.164.212.170,4,52,streamtransport.com,US,Americas,Northern America,United States of America,New Jersey,,Cedar Knolls
207.192.69.165,4,8,stunnel.org,US,Americas,Northern America,United States of America,New Jersey,,Cedar Knolls
172.104.7.125,4,7,suggestexplorer.com,US,Americas,Northern America,United States of America,New Jersey,,Cedar Knolls
45.33.84.181,4,2,sumarium.com,US,Americas,Northern America,United States of America,New Jersey,,Cedar Knolls
45.79.138.118,4,5,supermeter.social,US,Americas,Northern America,United States of America,New Jersey,,Cedar Knolls
23.239.15.247,4,2,sustainontario.com,US,Americas,Northern America,United States of America,New Jersey,,Cedar Knolls
45.33.91.103,4,9,sutros.com,US,Americas,Northern America,United States of America,New Jersey,,Cedar Knolls
45.79.189.27,4,2,systechone.com,US,Americas,Northern America,United States of America,New Jersey,,Cedar Knolls
207.192.72.5,4,7,tagaini.net,US,Americas,Northern America,United States of America,New Jersey,,Cedar Knolls
69.164.209.157,4,3,tarvalon.net,US,Americas,Northern America,United States of America,New Jersey,,Cedar Knolls
45.79.146.7,4,2,techhouse.org,US,Americas,Northern America,United States of America,New Jersey,,Cedar Knolls
162.216.16.176,4,2,technibble.com,US,Americas,Northern America,United States of America,New Jersey,,Cedar Knolls
23.92.17.190,4,25,techreview.com,US,Americas,Northern America,United States of America,New Jersey,,Cedar Knolls
69.164.210.100,4,37,tecnick.com,US,Americas,Northern America,United States of America,New Jersey,,Cedar Knolls
45.33.66.129,4,15,templeos.org,US,Americas,Northern America,United States of America,New Jersey,,Cedar Knolls
45.79.163.25,4,20,the-asci.org,US,Americas,Northern America,United States of America,New Jersey,,Cedar Knolls
69.164.221.116,4,3,theabundantartist.com,US,Americas,Northern America,United States of America,New Jersey,,Cedar Knolls
97.107.135.87,4,0,thebitchywaiter.com,US,Americas,Northern America,United States of America,New Jersey,,Cedar Knolls
45.33.86.195,4,31,thebrazilbusiness.com,US,Americas,Northern America,United States of America,New Jersey,,Cedar Knolls
45.56.97.85,4,4,theclaystudio.org,US,Americas,Northern America,United States of America,New Jersey,,Cedar Knolls
50.116.60.234,4,4,thecleverest.com,US,Americas,Northern America,United States of America,New Jersey,,Cedar Knolls
23.92.19.226,4,57,theconstitutional.com,US,Americas,Northern America,United States of America,New Jersey,,Cedar Knolls
173.255.238.187,4,32,thedent.com,US,Americas,Northern America,United States of America,New Jersey,,Cedar Knolls
172.104.9.113,4,-20,thegeekdiary.com,US,Americas,Northern America,United States of America,New Jersey,,Cedar Knolls
69.164.213.225,4,26,thegolfwire.com,US,Americas,Northern America,United States of America,New Jersey,,Cedar Knolls
66.228.34.45,4,1,themathdoctors.org,US,Americas,Northern America,United States of America,New Jersey,,Cedar Knolls
172.104.18.233,4,0,themeflood.com,US,Americas,Northern America,United States of America,New Jersey,,Cedar Knolls
172.104.212.106,4,17,themoversinhouston.com,US,Americas,Northern America,United States of America,New Jersey,,Cedar Knolls
23.239.13.102,4,9,thenewsglory.com,US,Americas,Northern America,United States of America,New Jersey,,Cedar Knolls
172.104.31.172,4,21,thepauperedchef.com,US,Americas,Northern America,United States of America,New Jersey,,Cedar Knolls
172.105.129.106,4,56,theportalwiki.com,US,Americas,Northern America,United States of America,New Jersey,,Cedar Knolls
104.237.144.106,4,3,thetarotguide.com,US,Americas,Northern America,United States of America,New Jersey,,Cedar Knolls
172.104.216.142,4,4,thevaleriefund.org,US,Americas,Northern America,United States of America,New Jersey,,Cedar Knolls
172.104.29.226,4,20,thewebaround.com,US,Americas,Northern America,United States of America,New Jersey,,Cedar Knolls
172.104.6.217,4,1,thishealthykitchen.com,US,Americas,Northern America,United States of America,New Jersey,,Cedar Knolls
96.126.109.116,4,1904880,thomasphifer.com,US,Americas,Northern America,United States of America,New Jersey,,Cedar Knolls
96.126.110.77,4,7,thyroidpharmacist.com,US,Americas,Northern America,United States of America,New Jersey,,Cedar Knolls
172.104.6.251,4,15,ticketzone.com,US,Americas,Northern America,United States of America,New Jersey,,Cedar Knolls
45.79.149.244,4,4,tigeressay.com,US,Americas,Northern America,United States of America,New Jersey,,Cedar Knolls
45.33.77.70,4,786661,tiresizehelp.com,US,Americas,Northern America,United States of America,New Jersey,,Cedar Knolls
50.116.62.225,4,3,tmhome.com,US,Americas,Northern America,United States of America,New Jersey,,Cedar Knolls
97.107.138.120,4,0,tmia.com,US,Americas,Northern America,United States of America,New Jersey,,Cedar Knolls
50.116.61.239,4,2,tomorrowsworldtoday.com,US,Americas,Northern America,United States of America,New Jersey,,Cedar Knolls
45.79.162.11,4,10,topnpi.com,US,Americas,Northern America,United States of America,New Jersey,,Cedar Knolls
97.107.135.166,4,3,totzyv.ru,US,Americas,Northern America,United States of America,New Jersey,,Cedar Knolls
173.255.224.79,4,902,townofhammonton.org,US,Americas,Northern America,United States of America,New Jersey,,Cedar Knolls
66.175.212.145,4,2,tradeui.com,US,Americas,Northern America,United States of America,New Jersey,,Cedar Knolls
97.107.142.201,4,12,trilliumhealth.org,US,Americas,Northern America,United States of America,New Jersey,,Cedar Knolls
45.33.75.113,4,39,trirand.com,US,Americas,Northern America,United States of America,New Jersey,,Cedar Knolls
50.116.52.228,4,10,tucanada.org,US,Americas,Northern America,United States of America,New Jersey,,Cedar Knolls
104.237.147.203,4,2,tupperlake.com,US,Americas,Northern America,United States of America,New Jersey,,Cedar Knolls
192.155.89.225,4,11,tux.org,US,Americas,Northern America,United States of America,New Jersey,,Cedar Knolls
45.56.100.156,4,5,tv5.ca,US,Americas,Northern America,United States of America,New Jersey,,Cedar Knolls
23.239.8.151,4,1,tv5unis.ca,US,Americas,Northern America,United States of America,New Jersey,,Cedar Knolls
172.104.24.201,4,24,tweak-uac.com,US,Americas,Northern America,United States of America,New Jersey,,Cedar Knolls
45.79.158.5,4,4,tweakbit.com,US,Americas,Northern America,United States of America,New Jersey,,Cedar Knolls
23.92.16.172,4,28,twinery.org,US,Americas,Northern America,United States of America,New Jersey,,Cedar Knolls
96.126.110.118,4,0,u2songs.com,US,Americas,Northern America,United States of America,New Jersey,,Cedar Knolls
69.164.210.69,4,22,ukrainetrek.com,US,Americas,Northern America,United States of America,New Jersey,,Cedar Knolls
172.104.8.230,4,4,unacms.com,US,Americas,Northern America,United States of America,New Jersey,,Cedar Knolls
66.228.45.254,4,13,unconventionalguides.com,US,Americas,Northern America,United States of America,New Jersey,,Cedar Knolls
66.228.43.120,4,19,unis.ca,US,Americas,Northern America,United States of America,New Jersey,,Cedar Knolls
45.79.246.205,4,6,unitedpixelworkers.com,US,Americas,Northern America,United States of America,New Jersey,,Cedar Knolls
104.237.148.73,4,-1,unused-css.com,US,Americas,Northern America,United States of America,New Jersey,,Cedar Knolls
45.33.66.18,4,2,urbanengineers.com,US,Americas,Northern America,United States of America,New Jersey,,Cedar Knolls
50.116.60.60,4,16,urbanmilwaukee.com,US,Americas,Northern America,United States of America,New Jersey,,Cedar Knolls
173.255.234.47,4,522,usapulses.org,US,Americas,Northern America,United States of America,New Jersey,,Cedar Knolls
66.228.35.43,4,15,uts.edu,US,Americas,Northern America,United States of America,New Jersey,,Cedar Knolls
173.255.230.79,4,4,uuidgenerator.net,US,Americas,Northern America,United States of America,New Jersey,,Cedar Knolls
173.255.236.159,4,14,valueinvestorsclub.com,US,Americas,Northern America,United States of America,New Jersey,,Cedar Knolls
50.116.56.214,4,12,veneersupplies.com,US,Americas,Northern America,United States of America,New Jersey,,Cedar Knolls
69.164.209.75,4,26,vevmo.com,US,Americas,Northern America,United States of America,New Jersey,,Cedar Knolls
45.33.70.123,4,13,vgcollect.com,US,Americas,Northern America,United States of America,New Jersey,,Cedar Knolls
172.104.219.245,4,19269,vipnightlife.com,US,Americas,Northern America,United States of America,New Jersey,,Cedar Knolls
66.228.45.150,4,67,vlad1.com,US,Americas,Northern America,United States of America,New Jersey,,Cedar Knolls
172.104.213.34,4,118,vlr.gg,US,Americas,Northern America,United States of America,New Jersey,,Cedar Knolls
172.104.14.174,4,39,voicefoundation.org,US,Americas,Northern America,United States of America,New Jersey,,Cedar Knolls
45.79.163.249,4,7,voyagu.com,US,Americas,Northern America,United States of America,New Jersey,,Cedar Knolls
45.33.74.191,4,10,vulmon.com,US,Americas,Northern America,United States of America,New Jersey,,Cedar Knolls
66.175.211.147,4,4,wadsworthatheneum.org,US,Americas,Northern America,United States of America,New Jersey,,Cedar Knolls
173.255.226.196,4,24,waiterrant.net,US,Americas,Northern America,United States of America,New Jersey,,Cedar Knolls
66.228.46.55,4,10565,waldeneffect.org,US,Americas,Northern America,United States of America,New Jersey,,Cedar Knolls
45.56.97.160,4,6,wanderer.com,US,Americas,Northern America,United States of America,New Jersey,,Cedar Knolls
172.104.6.113,4,6,waste.org,US,Americas,Northern America,United States of America,New Jersey,,Cedar Knolls
97.107.134.50,4,32,weaversway.coop,US,Americas,Northern America,United States of America,New Jersey,,Cedar Knolls
69.164.212.81,4,7,webcammax.com,US,Americas,Northern America,United States of America,New Jersey,,Cedar Knolls
66.228.37.37,4,25,webform.com,US,Americas,Northern America,United States of America,New Jersey,,Cedar Knolls
69.164.211.213,4,444473,webpage-maker.com,US,Americas,Northern America,United States of America,New Jersey,,Cedar Knolls
45.79.168.16,4,36,webscope.com,US,Americas,Northern America,United States of America,New Jersey,,Cedar Knolls
96.126.110.156,4,2,websitebuilderinsider.com,US,Americas,Northern America,United States of America,New Jersey,,Cedar Knolls
172.104.27.210,4,4,weddingfrontier.com,US,Americas,Northern America,United States of America,New Jersey,,Cedar Knolls
69.164.215.69,4,5,weirdnj.com,US,Americas,Northern America,United States of America,New Jersey,,Cedar Knolls
45.33.89.31,4,11,weqx.com,US,Americas,Northern America,United States of America,New Jersey,,Cedar Knolls
97.107.128.7,4,2,wesleyanargus.com,US,Americas,Northern America,United States of America,New Jersey,,Cedar Knolls
23.239.10.243,4,7,westwoodplateaugolf.com,US,Americas,Northern America,United States of America,New Jersey,,Cedar Knolls
45.79.167.43,4,12,wheat-free.org,US,Americas,Northern America,United States of America,New Jersey,,Cedar Knolls
172.104.7.252,4,0,whereyoueat.com,US,Americas,Northern America,United States of America,New Jersey,,Cedar Knolls
172.104.23.246,4,10,whiteoaksresort.com,US,Americas,Northern America,United States of America,New Jersey,,Cedar Knolls
207.192.70.74,4,3,whudat.com,US,Americas,Northern America,United States of America,New Jersey,,Cedar Knolls
97.107.135.119,4,29,wikicfp.com,US,Americas,Northern America,United States of America,New Jersey,,Cedar Knolls
45.79.140.16,4,20,wikiedu.org,US,Americas,Northern America,United States of America,New Jersey,,Cedar Knolls
173.255.236.128,4,12,williamapercy.com,US,Americas,Northern America,United States of America,New Jersey,,Cedar Knolls
45.56.107.15,4,8,willmcgugan.com,US,Americas,Northern America,United States of America,New Jersey,,Cedar Knolls
69.164.222.108,4,12,winemakinglab.co.za,US,Americas,Northern America,United States of America,New Jersey,,Cedar Knolls
23.92.22.149,4,4,winepros.org,US,Americas,Northern America,United States of America,New Jersey,,Cedar Knolls
172.104.16.36,4,21,wireframesketcher.com,US,Americas,Northern America,United States of America,New Jersey,,Cedar Knolls
45.56.104.147,4,3,wisluthsem.org,US,Americas,Northern America,United States of America,New Jersey,,Cedar Knolls
23.92.21.128,4,15,wmfo.org,US,Americas,Northern America,United States of America,New Jersey,,Cedar Knolls
45.79.161.233,4,9,woodmereartmuseum.org,US,Americas,Northern America,United States of America,New Jersey,,Cedar Knolls
173.255.238.97,4,6,woodwind.org,US,Americas,Northern America,United States of America,New Jersey,,Cedar Knolls
45.79.183.222,4,16,worldnewsstand.net,US,Americas,Northern America,United States of America,New Jersey,,Cedar Knolls
45.79.164.213,4,5,wpshopmart.com,US,Americas,Northern America,United States of America,New Jersey,,Cedar Knolls
45.79.186.33,4,22,writespirit.net,US,Americas,Northern America,United States of America,New Jersey,,Cedar Knolls
45.79.132.176,4,3,wrtdesign.com,US,Americas,Northern America,United States of America,New Jersey,,Cedar Knolls
173.255.229.52,4,4,wvupressonline.com,US,Americas,Northern America,United States of America,New Jersey,,Cedar Knolls
45.33.71.201,4,0,wyday.com,US,Americas,Northern America,United States of America,New Jersey,,Cedar Knolls
172.104.22.70,4,5,yorksaw.com,US,Americas,Northern America,United States of America,New Jersey,,Cedar Knolls
172.104.21.39,4,6,youtubers.me,US,Americas,Northern America,United States of America,New Jersey,,Cedar Knolls
69.164.220.224,4,8,youzign.com,US,Americas,Northern America,United States of America,New Jersey,,Cedar Knolls
66.228.47.61,4,14,zabihah.com,US,Americas,Northern America,United States of America,New Jersey,,Cedar Knolls
97.107.128.6,4,3,zfgc.com,US,Americas,Northern America,United States of America,New Jersey,,Cedar Knolls
23.92.16.127,4,23,zipcodes-us.com,US,Americas,Northern America,United States of America,New Jersey,,Cedar Knolls
45.33.79.102,4,-2,zzzeek.org,US,Americas,Northern America,United States of America,New Jersey,,Cedar Knolls
