reflector_ip,ip_version,offset,description,country_code,region,sub_region,country_name,sub_division_1,sub_division_2,city
165.227.186.13,4,2,110mb.com,US,Americas,Northern America,United States of America,New Jersey,,Clifton
104.236.48.227,4,42,2.vu,US,Americas,Northern America,United States of America,New Jersey,,Clifton
157.245.114.224,4,-1166,2findlocal.com,US,Americas,Northern America,United States of America,New Jersey,,Clifton
45.55.62.14,4,5,7tune.com,US,Americas,Northern America,United States of America,New Jersey,,Clifton
165.22.47.122,4,6,9kilo.com,US,Americas,Northern America,United States of America,New Jersey,,Clifton
159.203.121.75,4,7,abbottsathome.com,US,Americas,Northern America,United States of America,New Jersey,,Clifton
159.65.171.252,4,4,abeautifulplate.com,US,Americas,Northern America,United States of America,New Jersey,,Clifton
167.71.108.29,4,7,abre.ai,US,Americas,Northern America,United States of America,New Jersey,,Clifton
64.225.3.87,4,-1,acfny.org,US,Americas,Northern America,United States of America,New Jersey,,Clifton
159.203.108.181,4,4,achewood.com,US,Americas,Northern America,United States of America,New Jersey,,Clifton
159.65.36.93,4,6,acscan.org,US,Americas,Northern America,United States of America,New Jersey,,Clifton
104.131.178.20,4,7880400,actar.org,US,Americas,Northern America,United States of America,New Jersey,,Clifton
159.89.45.9,4,525832,actiontise.com,US,Americas,Northern America,United States of America,New Jersey,,Clifton
45.55.40.183,4,10,adacore.com,US,Americas,Northern America,United States of America,New Jersey,,Clifton
104.131.82.83,4,209593,advanced.style,US,Americas,Northern America,United States of America,New Jersey,,Clifton
157.245.117.144,4,37,advancingecoag.com,US,Americas,Northern America,United States of America,New Jersey,,Clifton
104.131.12.134,4,49,advertserve.com,US,Americas,Northern America,United States of America,New Jersey,,Clifton
159.203.87.128,4,364442,affgadgets.com,US,Americas,Northern America,United States of America,New Jersey,,Clifton
134.209.174.173,4,5,againstthecompass.com,US,Americas,Northern America,United States of America,New Jersey,,Clifton
104.131.170.159,4,28,agnesscott.org,US,Americas,Northern America,United States of America,New Jersey,,Clifton
157.245.0.236,4,2,agnic.org,US,Americas,Northern America,United States of America,New Jersey,,Clifton
64.225.51.129,4,3,ahouseinthehills.com,US,Americas,Northern America,United States of America,New Jersey,,Clifton
104.131.8.223,4,126,aloalobahia.com,US,Americas,Northern America,United States of America,New Jersey,,Clifton
104.131.46.112,4,5,altigen.com,US,Americas,Northern America,United States of America,New Jersey,,Clifton
157.245.118.81,4,20,am1050.com,US,Americas,Northern America,United States of America,New Jersey,,Clifton
104.131.183.168,4,6,amal.net,US,Americas,Northern America,United States of America,New Jersey,,Clifton
157.245.222.203,4,29,amateurtraveler.com,US,Americas,Northern America,United States of America,New Jersey,,Clifton
138.197.94.209,4,4,americanhealthandbeauty.com,US,Americas,Northern America,United States of America,New Jersey,,Clifton
104.131.10.37,4,5,americanmedspa.org,US,Americas,Northern America,United States of America,New Jersey,,Clifton
142.93.184.162,4,23,amwaygrand.com,US,Americas,Northern America,United States of America,New Jersey,,Clifton
138.197.101.232,4,43,analisisdigital.com.ar,US,Americas,Northern America,United States of America,New Jersey,,Clifton
45.55.97.84,4,14,analisisdigital.com.ar,US,Americas,Northern America,United States of America,New Jersey,,Clifton
167.71.252.248,4,5,antiquesandthearts.com,US,Americas,Northern America,United States of America,New Jersey,,Clifton
45.55.143.82,4,1424371,anychart.com,US,Americas,Northern America,United States of America,New Jersey,,Clifton
45.55.158.154,4,10,aoeu.eu,US,Americas,Northern America,United States of America,New Jersey,,Clifton
167.99.55.161,4,9,appetizeraddiction.com,US,Americas,Northern America,United States of America,New Jersey,,Clifton
167.172.24.246,4,23,appliancesradar.com,US,Americas,Northern America,United States of America,New Jersey,,Clifton
159.203.95.228,4,645395,aquaticausa.com,US,Americas,Northern America,United States of America,New Jersey,,Clifton
142.93.190.6,4,10,arcrelief.org,US,Americas,Northern America,United States of America,New Jersey,,Clifton
159.89.176.117,4,106,armyproperty.com,US,Americas,Northern America,United States of America,New Jersey,,Clifton
157.245.4.25,4,31,artfixdaily.com,US,Americas,Northern America,United States of America,New Jersey,,Clifton
68.183.153.214,4,22,artifexmundi.com,US,Americas,Northern America,United States of America,New Jersey,,Clifton
165.227.222.94,4,5,asja.org,US,Americas,Northern America,United States of America,New Jersey,,Clifton
104.131.103.64,4,421265,astatix.com,US,Americas,Northern America,United States of America,New Jersey,,Clifton
159.89.37.181,4,18,astoundify.com,US,Americas,Northern America,United States of America,New Jersey,,Clifton
159.65.39.21,4,963553,astronautix.com,US,Americas,Northern America,United States of America,New Jersey,,Clifton
104.236.85.12,4,6,asymptotejournal.com,US,Americas,Northern America,United States of America,New Jersey,,Clifton
167.172.241.93,4,16,atatus.com,US,Americas,Northern America,United States of America,New Jersey,,Clifton
165.227.71.32,4,44,atyp.us,US,Americas,Northern America,United States of America,New Jersey,,Clifton
24.187.213.30,4,1483,auralmoon.com,US,Americas,Northern America,United States of America,New Jersey,,Clifton
143.198.2.241,4,2,autoanything.com,US,Americas,Northern America,United States of America,New Jersey,,Clifton
138.197.5.148,4,8,aws3.net,US,Americas,Northern America,United States of America,New Jersey,,Clifton
159.89.186.10,4,9,azoft.com,US,Americas,Northern America,United States of America,New Jersey,,Clifton
161.35.185.201,4,15,b3tards.com,US,Americas,Northern America,United States of America,New Jersey,,Clifton
104.131.74.119,4,-88178,ba.net,US,Americas,Northern America,United States of America,New Jersey,,Clifton
104.236.124.43,4,1500245,baltimorebrew.com,US,Americas,Northern America,United States of America,New Jersey,,Clifton
167.172.239.166,4,67,barrie360.com,US,Americas,Northern America,United States of America,New Jersey,,Clifton
157.245.115.172,4,90,barrysoft.it,US,Americas,Northern America,United States of America,New Jersey,,Clifton
68.183.159.117,4,34,baseballthinkfactory.org,US,Americas,Northern America,United States of America,New Jersey,,Clifton
167.71.248.143,4,21,beacon.by,US,Americas,Northern America,United States of America,New Jersey,,Clifton
157.245.210.152,4,6,benaughty.com,US,Americas,Northern America,United States of America,New Jersey,,Clifton
165.227.118.173,4,31557,bestmaxcoupons.com,US,Americas,Northern America,United States of America,New Jersey,,Clifton
165.227.251.8,4,9,besttrafficschool.com,US,Americas,Northern America,United States of America,New Jersey,,Clifton
104.131.75.142,4,116949,betafy.co,US,Americas,Northern America,United States of America,New Jersey,,Clifton
165.227.249.227,4,5,bettercarenetwork.org,US,Americas,Northern America,United States of America,New Jersey,,Clifton
104.131.123.148,4,8,beyerblinderbelle.com,US,Americas,Northern America,United States of America,New Jersey,,Clifton
161.35.177.169,4,27,bigflix.com,US,Americas,Northern America,United States of America,New Jersey,,Clifton
159.203.172.105,4,8,bignosebird.com,US,Americas,Northern America,United States of America,New Jersey,,Clifton
159.203.144.149,4,81,bitcoinaverage.com,US,Americas,Northern America,United States of America,New Jersey,,Clifton
159.203.149.209,4,8,blamcast.net,US,Americas,Northern America,United States of America,New Jersey,,Clifton
104.236.228.95,4,642623,blogcrowds.com,US,Americas,Northern America,United States of America,New Jersey,,Clifton
104.131.78.125,4,44,blogharbor.com,US,Americas,Northern America,United States of America,New Jersey,,Clifton
167.99.121.2,4,19,blueistyleblog.com,US,Americas,Northern America,United States of America,New Jersey,,Clifton
167.71.99.83,4,752,bma.bm,US,Americas,Northern America,United States of America,New Jersey,,Clifton
104.236.83.75,4,-14333307,bmi-calculator.net,US,Americas,Northern America,United States of America,New Jersey,,Clifton
104.236.2.29,4,3,bmop.org,US,Americas,Northern America,United States of America,New Jersey,,Clifton
164.90.140.54,4,7,boatstogo.com,US,Americas,Northern America,United States of America,New Jersey,,Clifton
159.89.247.160,4,6,bodybybtl.com,US,Americas,Northern America,United States of America,New Jersey,,Clifton
167.99.50.98,4,25,bonappeteach.com,US,Americas,Northern America,United States of America,New Jersey,,Clifton
45.55.126.232,4,4,bookfunnel.com,US,Americas,Northern America,United States of America,New Jersey,,Clifton
104.131.28.139,4,6,bookhip.com,US,Americas,Northern America,United States of America,New Jersey,,Clifton
138.197.69.70,4,21,bootply.com,US,Americas,Northern America,United States of America,New Jersey,,Clifton
165.227.222.148,4,33,bootsandhooveshomestead.com,US,Americas,Northern America,United States of America,New Jersey,,Clifton
165.227.217.205,4,22,borgeson.com,US,Americas,Northern America,United States of America,New Jersey,,Clifton
159.89.185.213,4,11,boschmixers.com,US,Americas,Northern America,United States of America,New Jersey,,Clifton
157.245.121.248,4,33,breg.com,US,Americas,Northern America,United States of America,New Jersey,,Clifton
159.203.160.154,4,10,brooklynbrainery.com,US,Americas,Northern America,United States of America,New Jersey,,Clifton
104.236.223.165,4,1121257,bvestation.com,US,Americas,Northern America,United States of America,New Jersey,,Clifton
138.197.74.199,4,6,c64os.com,US,Americas,Northern America,United States of America,New Jersey,,Clifton
45.55.141.156,4,28,canane.com.br,US,Americas,Northern America,United States of America,New Jersey,,Clifton
138.197.65.47,4,4,cantstayoutofthekitchen.com,US,Americas,Northern America,United States of America,New Jersey,,Clifton
167.99.125.105,4,39,carendt.com,US,Americas,Northern America,United States of America,New Jersey,,Clifton
138.197.64.166,4,27,caribbean-on-line.com,US,Americas,Northern America,United States of America,New Jersey,,Clifton
165.227.212.89,4,3,casasdelbosque.cl,US,Americas,Northern America,United States of America,New Jersey,,Clifton
174.138.49.63,4,35,castlepinesconnection.com,US,Americas,Northern America,United States of America,New Jersey,,Clifton
209.97.158.17,4,32,catholicmasstime.org,US,Americas,Northern America,United States of America,New Jersey,,Clifton
138.197.6.62,4,7,cchpca.org,US,Americas,Northern America,United States of America,New Jersey,,Clifton
143.198.22.50,4,3,ccrta.org,US,Americas,Northern America,United States of America,New Jersey,,Clifton
167.99.56.131,4,4,cemetech.net,US,Americas,Northern America,United States of America,New Jersey,,Clifton
45.55.123.30,4,7,cfnews.org,US,Americas,Northern America,United States of America,New Jersey,,Clifton
45.58.41.168,4,5,cgfi.org,US,Americas,Northern America,United States of America,New Jersey,,Clifton
104.131.17.155,4,4,chaoticallyyours.com,US,Americas,Northern America,United States of America,New Jersey,,Clifton
161.35.186.96,4,4,charactercreator.org,US,Americas,Northern America,United States of America,New Jersey,,Clifton
165.227.120.52,4,21,charlesandhudson.com,US,Americas,Northern America,United States of America,New Jersey,,Clifton
104.248.5.188,4,181621,cheapbooks.cc,US,Americas,Northern America,United States of America,New Jersey,,Clifton
142.93.73.156,4,13,checktls.com,US,Americas,Northern America,United States of America,New Jersey,,Clifton
167.71.160.115,4,9,checktls.com,US,Americas,Northern America,United States of America,New Jersey,,Clifton
159.89.240.52,4,7,chemed.org,US,Americas,Northern America,United States of America,New Jersey,,Clifton
104.131.84.138,4,596556,chicagosistercities.com,US,Americas,Northern America,United States of America,New Jersey,,Clifton
165.227.221.60,4,1,chikarapro.com,US,Americas,Northern America,United States of America,New Jersey,,Clifton
104.131.105.203,4,3,chir.ag,US,Americas,Northern America,United States of America,New Jersey,,Clifton
104.236.41.197,4,25,christianperone.com,US,Americas,Northern America,United States of America,New Jersey,,Clifton
64.225.12.248,4,69,chronobiology.com,US,Americas,Northern America,United States of America,New Jersey,,Clifton
159.203.90.153,4,-387959,chronocompendium.com,US,Americas,Northern America,United States of America,New Jersey,,Clifton
45.55.241.161,4,38,cintanotes.com,US,Americas,Northern America,United States of America,New Jersey,,Clifton
157.245.210.92,4,6,circletracksupply.com,US,Americas,Northern America,United States of America,New Jersey,,Clifton
165.227.178.124,4,8,circuitomt.com.br,US,Americas,Northern America,United States of America,New Jersey,,Clifton
104.248.12.167,4,7,cityvision.tv,US,Americas,Northern America,United States of America,New Jersey,,Clifton
165.227.67.76,4,17,cloudron.io,US,Americas,Northern America,United States of America,New Jersey,,Clifton
159.89.254.250,4,8,cobaltboats.com,US,Americas,Northern America,United States of America,New Jersey,,Clifton
159.203.99.117,4,8,coderunnerapp.com,US,Americas,Northern America,United States of America,New Jersey,,Clifton
167.71.244.184,4,1,coincenter.org,US,Americas,Northern America,United States of America,New Jersey,,Clifton
159.89.246.57,4,7,colesimports.com,US,Americas,Northern America,United States of America,New Jersey,,Clifton
134.209.35.178,4,13,comboapp.com,US,Americas,Northern America,United States of America,New Jersey,,Clifton
159.203.122.49,4,4,contentednesscooking.com,US,Americas,Northern America,United States of America,New Jersey,,Clifton
134.209.170.31,4,54,contentengine.ai,US,Americas,Northern America,United States of America,New Jersey,,Clifton
104.131.23.22,4,2,contrarianoutlook.com,US,Americas,Northern America,United States of America,New Jersey,,Clifton
138.197.54.179,4,3,cooperativeresearch.org,US,Americas,Northern America,United States of America,New Jersey,,Clifton
45.55.36.163,4,12,coronatoolsusa.com,US,Americas,Northern America,United States of America,New Jersey,,Clifton
104.131.179.50,4,9,cosmeticlaserskinsurgery.com,US,Americas,Northern America,United States of America,New Jersey,,Clifton
142.93.79.224,4,5,couponsforyourfamily.com,US,Americas,Northern America,United States of America,New Jersey,,Clifton
159.203.70.92,4,5,couponxoo.com,US,Americas,Northern America,United States of America,New Jersey,,Clifton
159.65.168.61,4,12,courageousparentsnetwork.org,US,Americas,Northern America,United States of America,New Jersey,,Clifton
104.236.226.100,4,32,coyo.com,US,Americas,Northern America,United States of America,New Jersey,,Clifton
159.203.124.121,4,4,cppcon.org,US,Americas,Northern America,United States of America,New Jersey,,Clifton
165.227.76.244,4,17,craftivitydesigns.com,US,Americas,Northern America,United States of America,New Jersey,,Clifton
142.93.78.117,4,42,createandbabble.com,US,Americas,Northern America,United States of America,New Jersey,,Clifton
104.236.78.254,4,6,crushftp.com,US,Americas,Northern America,United States of America,New Jersey,,Clifton
165.227.127.54,4,5,ctrl-c.club,US,Americas,Northern America,United States of America,New Jersey,,Clifton
104.236.30.117,4,29,cubicle17.com,US,Americas,Northern America,United States of America,New Jersey,,Clifton
138.197.106.251,4,7,culinaryshades.com,US,Americas,Northern America,United States of America,New Jersey,,Clifton
104.236.64.200,4,5,cumminsnursery.com,US,Americas,Northern America,United States of America,New Jersey,,Clifton
157.245.218.196,4,3,cupfulofkale.com,US,Americas,Northern America,United States of America,New Jersey,,Clifton
159.203.98.223,4,8,curiouscatblog.net,US,Americas,Northern America,United States of America,New Jersey,,Clifton
138.197.106.51,4,7,curtin.edu,US,Americas,Northern America,United States of America,New Jersey,,Clifton
161.35.135.7,4,45,cutesycrafts.com,US,Americas,Northern America,United States of America,New Jersey,,Clifton
138.197.52.138,4,4,cypresscoveresort.com,US,Americas,Northern America,United States of America,New Jersey,,Clifton
159.65.165.37,4,3,dada.nyc,US,Americas,Northern America,United States of America,New Jersey,,Clifton
167.99.122.146,4,7,dailydishrecipes.com,US,Americas,Northern America,United States of America,New Jersey,,Clifton
159.203.172.146,4,199374,daniellavelloso.com.br,US,Americas,Northern America,United States of America,New Jersey,,Clifton
165.227.223.221,4,21014,danparklawgroup.com,US,Americas,Northern America,United States of America,New Jersey,,Clifton
138.197.101.186,4,7,darkglass.com,US,Americas,Northern America,United States of America,New Jersey,,Clifton
159.203.118.226,4,63,darwinessay.net,US,Americas,Northern America,United States of America,New Jersey,,Clifton
159.203.125.182,4,161,darwinfoundation.org,US,Americas,Northern America,United States of America,New Jersey,,Clifton
167.71.96.200,4,8,datarooms.org,US,Americas,Northern America,United States of America,New Jersey,,Clifton
104.236.118.180,4,1,day1.org,US,Americas,Northern America,United States of America,New Jersey,,Clifton
104.236.5.121,4,259422,daylerees.com,US,Americas,Northern America,United States of America,New Jersey,,Clifton
45.55.60.124,4,7,decisionproblem.com,US,Americas,Northern America,United States of America,New Jersey,,Clifton
45.55.127.39,4,2,denel.co.za,US,Americas,Northern America,United States of America,New Jersey,,Clifton
167.172.231.100,4,2,denver-tour.com,US,Americas,Northern America,United States of America,New Jersey,,Clifton
159.203.124.37,4,0,derfcity.com,US,Americas,Northern America,United States of America,New Jersey,,Clifton
64.225.1.7,4,3,devot-ee.com,US,Americas,Northern America,United States of America,New Jersey,,Clifton
45.55.36.48,4,4,devrant.com,US,Americas,Northern America,United States of America,New Jersey,,Clifton
138.197.31.7,4,4,dex.top,US,Americas,Northern America,United States of America,New Jersey,,Clifton
138.197.79.88,4,222932,dhtmlgoodies.com,US,Americas,Northern America,United States of America,New Jersey,,Clifton
138.197.15.249,4,21,diggz.co,US,Americas,Northern America,United States of America,New Jersey,,Clifton
159.65.169.202,4,4,digitalauthority.me,US,Americas,Northern America,United States of America,New Jersey,,Clifton
68.183.62.82,4,48,diplomatmagazine.eu,US,Americas,Northern America,United States of America,New Jersey,,Clifton
167.172.23.237,4,22,directadmin.com,US,Americas,Northern America,United States of America,New Jersey,,Clifton
159.203.148.225,4,3,diskinternals.com,US,Americas,Northern America,United States of America,New Jersey,,Clifton
159.203.74.43,4,0,dithemes.com,US,Americas,Northern America,United States of America,New Jersey,,Clifton
167.71.98.159,4,4,diyprojectsforhome.com,US,Americas,Northern America,United States of America,New Jersey,,Clifton
167.172.254.83,4,45,DNS Server: chr-6.48.6.vmdk-s-1vcpu-1gb-nyc3-01,US,Americas,Northern America,United States of America,New Jersey,,Clifton
159.65.249.130,4,88,DNS Server: ns0.michigandigital.com,US,Americas,Northern America,United States of America,New Jersey,,Clifton
45.55.42.151,4,176,DNS Server: pihole2.biselfamily.net,US,Americas,Northern America,United States of America,New Jersey,,Clifton
159.203.72.196,4,277,DNS Server: qa-nyc3-sys-do.qencode.com,US,Americas,Northern America,United States of America,New Jersey,,Clifton
45.55.147.169,4,76444,DNS Server: usdns2.hideipvpn.com,US,Americas,Northern America,United States of America,New Jersey,,Clifton
159.203.146.35,4,1,dokku.com,US,Americas,Northern America,United States of America,New Jersey,,Clifton
159.89.179.185,4,5,dollsofindia.com,US,Americas,Northern America,United States of America,New Jersey,,Clifton
165.227.220.223,4,7,dominicavibes.dm,US,Americas,Northern America,United States of America,New Jersey,,Clifton
157.245.1.2,4,42,dominopark.com,US,Americas,Northern America,United States of America,New Jersey,,Clifton
64.225.26.142,4,10,dpchallenge.com,US,Americas,Northern America,United States of America,New Jersey,,Clifton
209.97.153.198,4,9,dqydj.com,US,Americas,Northern America,United States of America,New Jersey,,Clifton
174.138.119.127,4,-2,dramatistsguild.com,US,Americas,Northern America,United States of America,New Jersey,,Clifton
45.55.198.46,4,3310030,dreaming.org,US,Americas,Northern America,United States of America,New Jersey,,Clifton
159.203.71.220,4,52,drgw.net,US,Americas,Northern America,United States of America,New Jersey,,Clifton
165.227.190.161,4,6,drogariaminasbrasil.com.br,US,Americas,Northern America,United States of America,New Jersey,,Clifton
64.225.6.170,4,205354,dthompson.us,US,Americas,Northern America,United States of America,New Jersey,,Clifton
165.227.103.139,4,-2,eastcarib.org,US,Americas,Northern America,United States of America,New Jersey,,Clifton
45.55.195.184,4,33,easy-designs.net,US,Americas,Northern America,United States of America,New Jersey,,Clifton
159.203.133.15,4,29,easyurl.net,US,Americas,Northern America,United States of America,New Jersey,,Clifton
167.71.184.202,4,23,eathappyproject.com,US,Americas,Northern America,United States of America,New Jersey,,Clifton
159.203.80.200,4,4,ec.org,US,Americas,Northern America,United States of America,New Jersey,,Clifton
104.131.30.58,4,4,edirectory.com,US,Americas,Northern America,United States of America,New Jersey,,Clifton
104.236.45.221,4,16762,eglusa.com,US,Americas,Northern America,United States of America,New Jersey,,Clifton
167.71.252.59,4,12,elderscrollsonline.info,US,Americas,Northern America,United States of America,New Jersey,,Clifton
138.197.50.129,4,159,electro-sensors.com,US,Americas,Northern America,United States of America,New Jersey,,Clifton
138.197.105.219,4,75,elekk.xyz,US,Americas,Northern America,United States of America,New Jersey,,Clifton
159.89.44.93,4,5,emeco.net,US,Americas,Northern America,United States of America,New Jersey,,Clifton
104.236.251.175,4,23,emulationstation.org,US,Americas,Northern America,United States of America,New Jersey,,Clifton
45.55.132.123,4,13,enaming.com,US,Americas,Northern America,United States of America,New Jersey,,Clifton
138.197.13.89,4,13,enelsubte.com,US,Americas,Northern America,United States of America,New Jersey,,Clifton
104.131.64.70,4,7,ennead.com,US,Americas,Northern America,United States of America,New Jersey,,Clifton
104.131.60.136,4,5,entm.ag,US,Americas,Northern America,United States of America,New Jersey,,Clifton
104.131.70.3,4,363116,erastogaertner.com.br,US,Americas,Northern America,United States of America,New Jersey,,Clifton
104.131.38.149,4,8,essay-lib.com,US,Americas,Northern America,United States of America,New Jersey,,Clifton
159.89.241.246,4,8,evapco.com,US,Americas,Northern America,United States of America,New Jersey,,Clifton
104.131.33.191,4,21,evolutionwriters.com,US,Americas,Northern America,United States of America,New Jersey,,Clifton
159.65.170.170,4,5,exactlywhatistime.com,US,Americas,Northern America,United States of America,New Jersey,,Clifton
159.203.171.125,4,8255,expatguidekorea.com,US,Americas,Northern America,United States of America,New Jersey,,Clifton
174.138.81.104,4,6,explainshell.com,US,Americas,Northern America,United States of America,New Jersey,,Clifton
104.131.99.61,4,2,explorermomma.com,US,Americas,Northern America,United States of America,New Jersey,,Clifton
157.245.211.149,4,4,familyactivities.co,US,Americas,Northern America,United States of America,New Jersey,,Clifton
104.131.69.211,4,69,farlang.com,US,Americas,Northern America,United States of America,New Jersey,,Clifton
142.93.67.28,4,46,farmtopeople.com,US,Americas,Northern America,United States of America,New Jersey,,Clifton
159.65.36.3,4,4,fasttracklite.com,US,Americas,Northern America,United States of America,New Jersey,,Clifton
159.203.126.204,4,27,fiberglasssupplydepot.com,US,Americas,Northern America,United States of America,New Jersey,,Clifton
165.227.191.90,4,51,filefolderfun.com,US,Americas,Northern America,United States of America,New Jersey,,Clifton
159.65.35.138,4,13,findingjoyinyourhome.com,US,Americas,Northern America,United States of America,New Jersey,,Clifton
159.65.244.85,4,5,fizzymag.com,US,Americas,Northern America,United States of America,New Jersey,,Clifton
104.131.28.96,4,34555,flatcam.org,US,Americas,Northern America,United States of America,New Jersey,,Clifton
104.131.124.116,4,46,floridatrend.com,US,Americas,Northern America,United States of America,New Jersey,,Clifton
157.245.218.145,4,1,flynax.com,US,Americas,Northern America,United States of America,New Jersey,,Clifton
45.55.129.135,4,183215,followmyvote.com,US,Americas,Northern America,United States of America,New Jersey,,Clifton
104.236.110.4,4,-102,fop2.com,US,Americas,Northern America,United States of America,New Jersey,,Clifton
134.209.167.212,4,88,formcraft-wp.com,US,Americas,Northern America,United States of America,New Jersey,,Clifton
138.197.24.48,4,3,foropenal.com,US,Americas,Northern America,United States of America,New Jersey,,Clifton
45.55.226.65,4,775640,franchisesamerica.com,US,Americas,Northern America,United States of America,New Jersey,,Clifton
45.55.124.112,4,19,frankston.com,US,Americas,Northern America,United States of America,New Jersey,,Clifton
159.203.173.35,4,31,freeculture.org,US,Americas,Northern America,United States of America,New Jersey,,Clifton
167.99.112.162,4,24,freetastesgood.com,US,Americas,Northern America,United States of America,New Jersey,,Clifton
159.203.75.220,4,27,frogatto.com,US,Americas,Northern America,United States of America,New Jersey,,Clifton
165.227.220.232,4,6,fundecitrus.com.br,US,Americas,Northern America,United States of America,New Jersey,,Clifton
165.227.189.6,4,23,fundraise.com,US,Americas,Northern America,United States of America,New Jersey,,Clifton
104.236.37.185,4,8,funorangecountyparks.com,US,Americas,Northern America,United States of America,New Jersey,,Clifton
167.71.105.120,4,21,gagme.com,US,Americas,Northern America,United States of America,New Jersey,,Clifton
138.197.122.99,4,4,gambinoslot.com,US,Americas,Northern America,United States of America,New Jersey,,Clifton
138.197.50.43,4,2,gardearts.org,US,Americas,Northern America,United States of America,New Jersey,,Clifton
165.227.107.239,4,1,gbreports.com,US,Americas,Northern America,United States of America,New Jersey,,Clifton
159.203.104.130,4,7,gdbrowser.com,US,Americas,Northern America,United States of America,New Jersey,,Clifton
134.209.165.46,4,2,geekseller.com,US,Americas,Northern America,United States of America,New Jersey,,Clifton
104.131.36.101,4,3,geminiquickst.art,US,Americas,Northern America,United States of America,New Jersey,,Clifton
104.236.57.192,4,1,gemsgc.org,US,Americas,Northern America,United States of America,New Jersey,,Clifton
159.203.112.196,4,6,getsocio.com,US,Americas,Northern America,United States of America,New Jersey,,Clifton
159.203.76.168,4,8,gi.md,US,Americas,Northern America,United States of America,New Jersey,,Clifton
138.197.101.242,4,13,gilmorecarmuseum.org,US,Americas,Northern America,United States of America,New Jersey,,Clifton
209.97.150.188,4,24,glaminati.com,US,Americas,Northern America,United States of America,New Jersey,,Clifton
104.236.110.199,4,2,glassgiant.com,US,Americas,Northern America,United States of America,New Jersey,,Clifton
138.197.49.246,4,158956,glimmerglass.org,US,Americas,Northern America,United States of America,New Jersey,,Clifton
159.89.176.24,4,6,glutenfreebaking.com,US,Americas,Northern America,United States of America,New Jersey,,Clifton
164.90.128.18,4,1,godental365.com,US,Americas,Northern America,United States of America,New Jersey,,Clifton
159.65.240.55,4,7,gomasuga.com,US,Americas,Northern America,United States of America,New Jersey,,Clifton
134.122.14.120,4,9,goodwilleasterseals.org,US,Americas,Northern America,United States of America,New Jersey,,Clifton
104.236.14.237,4,0,gostats.ru,US,Americas,Northern America,United States of America,New Jersey,,Clifton
165.227.217.13,4,13,gowanderwild.com,US,Americas,Northern America,United States of America,New Jersey,,Clifton
142.93.73.137,4,14,gpsk12.org,US,Americas,Northern America,United States of America,New Jersey,,Clifton
104.131.70.159,4,7,graceandgoodeats.com,US,Americas,Northern America,United States of America,New Jersey,,Clifton
45.55.79.181,4,3868385,granadatile.com,US,Americas,Northern America,United States of America,New Jersey,,Clifton
64.225.14.7,4,8,greatperformances.com,US,Americas,Northern America,United States of America,New Jersey,,Clifton
138.197.7.126,4,27,growinghandsonkids.com,US,Americas,Northern America,United States of America,New Jersey,,Clifton
165.227.126.20,4,8,guidedoc.com,US,Americas,Northern America,United States of America,New Jersey,,Clifton
167.71.169.218,4,19,guidelineshealth.com,US,Americas,Northern America,United States of America,New Jersey,,Clifton
104.131.3.86,4,8,gwens-nest.com,US,Americas,Northern America,United States of America,New Jersey,,Clifton
104.131.191.215,4,847693,hairthemusical.com,US,Americas,Northern America,United States of America,New Jersey,,Clifton
68.183.63.188,4,0,hamradionyc.com,US,Americas,Northern America,United States of America,New Jersey,,Clifton
138.197.109.175,4,4,hamrick.com,US,Americas,Northern America,United States of America,New Jersey,,Clifton
104.236.37.211,4,1870806,harborhousefl.com,US,Americas,Northern America,United States of America,New Jersey,,Clifton
167.71.165.89,4,8,harutheme.com,US,Americas,Northern America,United States of America,New Jersey,,Clifton
45.55.242.18,4,184123,hauntedhouse.com,US,Americas,Northern America,United States of America,New Jersey,,Clifton
68.183.54.165,4,1,hcoop.net,US,Americas,Northern America,United States of America,New Jersey,,Clifton
159.203.68.242,4,5,healthresearchfunding.org,US,Americas,Northern America,United States of America,New Jersey,,Clifton
167.99.124.106,4,1,healthyambitions.co,US,Americas,Northern America,United States of America,New Jersey,,Clifton
142.93.78.146,4,3,healthytasteoflife.com,US,Americas,Northern America,United States of America,New Jersey,,Clifton
45.55.96.251,4,4,hebcal.com,US,Americas,Northern America,United States of America,New Jersey,,Clifton
167.71.86.165,4,17,hedgeconnection.com,US,Americas,Northern America,United States of America,New Jersey,,Clifton
64.225.58.77,4,22,heifetzinstitute.org,US,Americas,Northern America,United States of America,New Jersey,,Clifton
134.209.161.96,4,27,hellskitchen.com,US,Americas,Northern America,United States of America,New Jersey,,Clifton
167.71.86.48,4,25,help203.com,US,Americas,Northern America,United States of America,New Jersey,,Clifton
104.131.75.201,4,953510,hfsignals.com,US,Americas,Northern America,United States of America,New Jersey,,Clifton
167.71.250.69,4,8,hickeys.com,US,Americas,Northern America,United States of America,New Jersey,,Clifton
104.131.46.248,4,0,hikesafe.com,US,Americas,Northern America,United States of America,New Jersey,,Clifton
159.89.35.85,4,5,hjg.com.ar,US,Americas,Northern America,United States of America,New Jersey,,Clifton
68.183.49.164,4,31,homeownershub.com,US,Americas,Northern America,United States of America,New Jersey,,Clifton
138.197.14.168,4,28,homeremodelingandrenovationnewsletter.com,US,Americas,Northern America,United States of America,New Jersey,,Clifton
167.172.246.43,4,7,honeyandbirch.com,US,Americas,Northern America,United States of America,New Jersey,,Clifton
104.236.0.243,4,969924,hornet.org,US,Americas,Northern America,United States of America,New Jersey,,Clifton
159.203.70.48,4,71,hotelinteractive.com,US,Americas,Northern America,United States of America,New Jersey,,Clifton
104.236.73.120,4,11,hoverwatch.com,US,Americas,Northern America,United States of America,New Jersey,,Clifton
167.71.185.27,4,4,howtofix.guide,US,Americas,Northern America,United States of America,New Jersey,,Clifton
45.55.59.197,4,10,howtogetridofstuff.com,US,Americas,Northern America,United States of America,New Jersey,,Clifton
45.55.72.95,4,4073358,hstn.me,US,Americas,Northern America,United States of America,New Jersey,,Clifton
104.248.15.206,4,43,ianix.com,US,Americas,Northern America,United States of America,New Jersey,,Clifton
159.65.170.32,4,3,icecreamconvos.com,US,Americas,Northern America,United States of America,New Jersey,,Clifton
159.203.173.50,4,46,icecreamfromscratch.com,US,Americas,Northern America,United States of America,New Jersey,,Clifton
159.203.77.107,4,27,icluster.cl,US,Americas,Northern America,United States of America,New Jersey,,Clifton
165.22.34.192,4,4,ifoothills.org,US,Americas,Northern America,United States of America,New Jersey,,Clifton
167.99.21.147,4,10,imca.com,US,Americas,Northern America,United States of America,New Jersey,,Clifton
104.236.227.129,4,2,imrannazar.com,US,Americas,Northern America,United States of America,New Jersey,,Clifton
167.71.177.172,4,213260,influence-central.com,US,Americas,Northern America,United States of America,New Jersey,,Clifton
143.198.23.124,4,45,inkforall.com,US,Americas,Northern America,United States of America,New Jersey,,Clifton
174.138.51.231,4,19,insidegadgets.com,US,Americas,Northern America,United States of America,New Jersey,,Clifton
104.131.42.149,4,7,inspiringsavings.com,US,Americas,Northern America,United States of America,New Jersey,,Clifton
134.209.174.79,4,3,instafreebie.com,US,Americas,Northern America,United States of America,New Jersey,,Clifton
159.65.34.177,4,8,instantloss.com,US,Americas,Northern America,United States of America,New Jersey,,Clifton
159.203.81.229,4,13,instat.com,US,Americas,Northern America,United States of America,New Jersey,,Clifton
104.236.104.49,4,2,institutoliberal.org.br,US,Americas,Northern America,United States of America,New Jersey,,Clifton
104.131.54.4,4,4,internationalskeptics.com,US,Americas,Northern America,United States of America,New Jersey,,Clifton
167.99.126.61,4,5,ippec.org.br,US,Americas,Northern America,United States of America,New Jersey,,Clifton
104.236.45.191,4,3,is4ie.org,US,Americas,Northern America,United States of America,New Jersey,,Clifton
104.236.53.249,4,1159038,iscp-nyc.org,US,Americas,Northern America,United States of America,New Jersey,,Clifton
144.126.248.157,4,4,iscvt.org,US,Americas,Northern America,United States of America,New Jersey,,Clifton
157.245.5.163,4,37,issabel.org,US,Americas,Northern America,United States of America,New Jersey,,Clifton
165.227.176.23,4,0,issuepedia.org,US,Americas,Northern America,United States of America,New Jersey,,Clifton
104.131.115.36,4,177331,iweventos.com.br,US,Americas,Northern America,United States of America,New Jersey,,Clifton
104.131.64.60,4,9,ix.io,US,Americas,Northern America,United States of America,New Jersey,,Clifton
165.227.67.57,4,4,jenkinsons.com,US,Americas,Northern America,United States of America,New Jersey,,Clifton
167.172.19.128,4,7,jimmysfamousseafood.com,US,Americas,Northern America,United States of America,New Jersey,,Clifton
104.236.228.192,4,6,jimthatcher.com,US,Americas,Northern America,United States of America,New Jersey,,Clifton
104.131.190.124,4,2,jkiss.org,US,Americas,Northern America,United States of America,New Jersey,,Clifton
159.65.161.123,4,8,joaniesimon.com,US,Americas,Northern America,United States of America,New Jersey,,Clifton
165.227.122.90,4,3,json-generator.com,US,Americas,Northern America,United States of America,New Jersey,,Clifton
138.197.0.225,4,5,junto.digital,US,Americas,Northern America,United States of America,New Jersey,,Clifton
174.138.119.193,4,9,kaithompson.com,US,Americas,Northern America,United States of America,New Jersey,,Clifton
167.99.23.90,4,5,kaninerecords.com,US,Americas,Northern America,United States of America,New Jersey,,Clifton
159.89.42.105,4,3,kellystilwell.com,US,Americas,Northern America,United States of America,New Jersey,,Clifton
68.183.50.223,4,3,kendoemailapp.com,US,Americas,Northern America,United States of America,New Jersey,,Clifton
159.203.71.22,4,2,kevinlynagh.com,US,Americas,Northern America,United States of America,New Jersey,,Clifton
142.93.79.99,4,-4,kh13.com,US,Americas,Northern America,United States of America,New Jersey,,Clifton
159.65.181.57,4,5,khronos.org,US,Americas,Northern America,United States of America,New Jersey,,Clifton
134.209.160.41,4,0,kicktraq.com,US,Americas,Northern America,United States of America,New Jersey,,Clifton
165.227.248.118,4,5,kinoplex.com.br,US,Americas,Northern America,United States of America,New Jersey,,Clifton
165.227.176.149,4,5,kismetwireless.net,US,Americas,Northern America,United States of America,New Jersey,,Clifton
167.99.118.149,4,10,kitchenandbathroomremodelingideas.com,US,Americas,Northern America,United States of America,New Jersey,,Clifton
159.65.170.141,4,3,knowthenerds.com,US,Americas,Northern America,United States of America,New Jersey,,Clifton
138.197.76.84,4,6,kohlskicking.com,US,Americas,Northern America,United States of America,New Jersey,,Clifton
134.209.47.48,4,18,kraftedkoch.com,US,Americas,Northern America,United States of America,New Jersey,,Clifton
104.131.11.219,4,11754529,landerapp.com,US,Americas,Northern America,United States of America,New Jersey,,Clifton
138.197.63.31,4,17,lasa.com.br,US,Americas,Northern America,United States of America,New Jersey,,Clifton
104.131.95.47,4,14,leafdns.com,US,Americas,Northern America,United States of America,New Jersey,,Clifton
104.131.20.216,4,22,leancrew.com,US,Americas,Northern America,United States of America,New Jersey,,Clifton
104.131.10.104,4,13,leddynamics.com,US,Americas,Northern America,United States of America,New Jersey,,Clifton
159.203.129.156,4,6,leftopia.org,US,Americas,Northern America,United States of America,New Jersey,,Clifton
138.197.92.117,4,3,lespaulforum.com,US,Americas,Northern America,United States of America,New Jersey,,Clifton
159.89.244.152,4,3,lewisandclark.org,US,Americas,Northern America,United States of America,New Jersey,,Clifton
174.138.80.128,4,5,libertador.com.pe,US,Americas,Northern America,United States of America,New Jersey,,Clifton
104.131.176.93,4,51,liceoperu.com,US,Americas,Northern America,United States of America,New Jersey,,Clifton
104.236.236.214,4,5,liedcenter.org,US,Americas,Northern America,United States of America,New Jersey,,Clifton
64.225.48.41,4,3,lifeingraceblog.com,US,Americas,Northern America,United States of America,New Jersey,,Clifton
165.227.72.14,4,2,lightlink.com,US,Americas,Northern America,United States of America,New Jersey,,Clifton
167.172.231.121,4,10,likeforex.com,US,Americas,Northern America,United States of America,New Jersey,,Clifton
80.77.87.85,4,3,linux-kvm.com,US,Americas,Northern America,United States of America,New Jersey,,Clifton
165.227.190.41,4,4,list.org,US,Americas,Northern America,United States of America,New Jersey,,Clifton
159.203.87.248,4,9,listbox.com,US,Americas,Northern America,United States of America,New Jersey,,Clifton
104.236.91.208,4,37,litecointalk.io,US,Americas,Northern America,United States of America,New Jersey,,Clifton
165.227.213.226,4,12,lithiumion-batteries.com,US,Americas,Northern America,United States of America,New Jersey,,Clifton
159.89.179.211,4,52,litmusbranding.com,US,Americas,Northern America,United States of America,New Jersey,,Clifton
104.248.15.224,4,75,londonxlondon.com,US,Americas,Northern America,United States of America,New Jersey,,Clifton
138.197.58.31,4,5,lospec.com,US,Americas,Northern America,United States of America,New Jersey,,Clifton
104.131.86.223,4,18,louisdressner.com,US,Americas,Northern America,United States of America,New Jersey,,Clifton
167.99.55.94,4,29,lovehairstyles.com,US,Americas,Northern America,United States of America,New Jersey,,Clifton
165.22.32.78,4,7,lowhistamineeats.com,US,Americas,Northern America,United States of America,New Jersey,,Clifton
159.203.80.212,4,2,lurk.fun,US,Americas,Northern America,United States of America,New Jersey,,Clifton
159.89.254.179,4,6,lyndhurst.org,US,Americas,Northern America,United States of America,New Jersey,,Clifton
104.131.180.200,4,7,lyricinterpretations.com,US,Americas,Northern America,United States of America,New Jersey,,Clifton
104.236.216.154,4,599182,magicbabynames.com,US,Americas,Northern America,United States of America,New Jersey,,Clifton
167.172.230.170,4,4,mahlerfoundation.org,US,Americas,Northern America,United States of America,New Jersey,,Clifton
159.65.240.180,4,4,mailboxlocate.com,US,Americas,Northern America,United States of America,New Jersey,,Clifton
138.197.5.236,4,4,malcolm-x.org,US,Americas,Northern America,United States of America,New Jersey,,Clifton
45.55.124.184,4,30,mangahelpers.com,US,Americas,Northern America,United States of America,New Jersey,,Clifton
159.203.164.93,4,8,manhattan-products.com,US,Americas,Northern America,United States of America,New Jersey,,Clifton
157.245.118.205,4,50,manylink.co,US,Americas,Northern America,United States of America,New Jersey,,Clifton
159.65.43.143,4,-4,marismith.com,US,Americas,Northern America,United States of America,New Jersey,,Clifton
143.198.23.108,4,108,masp.org.br,US,Americas,Northern America,United States of America,New Jersey,,Clifton
64.225.57.66,4,26,mastodon.com.br,US,Americas,Northern America,United States of America,New Jersey,,Clifton
157.245.127.48,4,30,mathisfunforum.com,US,Americas,Northern America,United States of America,New Jersey,,Clifton
159.203.166.126,4,12,mattmcwilliams.com,US,Americas,Northern America,United States of America,New Jersey,,Clifton
45.55.243.42,4,332146,mcat-prep.com,US,Americas,Northern America,United States of America,New Jersey,,Clifton
138.197.68.197,4,49,meatsandsausages.com,US,Americas,Northern America,United States of America,New Jersey,,Clifton
45.55.67.82,4,2683,meetthegreens.org,US,Americas,Northern America,United States of America,New Jersey,,Clifton
104.131.178.227,4,6,megadepot.com,US,Americas,Northern America,United States of America,New Jersey,,Clifton
159.203.88.110,4,2,melrosepainting.info,US,Americas,Northern America,United States of America,New Jersey,,Clifton
138.197.106.208,4,35,merceronline.com,US,Americas,Northern America,United States of America,New Jersey,,Clifton
167.71.94.118,4,37,metabizlist.com,US,Americas,Northern America,United States of America,New Jersey,,Clifton
45.55.48.23,4,3,metrovoicenews.com,US,Americas,Northern America,United States of America,New Jersey,,Clifton
165.227.68.42,4,6,mezcalistas.com,US,Americas,Northern America,United States of America,New Jersey,,Clifton
165.227.180.220,4,5,millersdancestudio.com,US,Americas,Northern America,United States of America,New Jersey,,Clifton
144.126.248.238,4,17,minnesotagrown.com,US,Americas,Northern America,United States of America,New Jersey,,Clifton
45.55.126.69,4,9,missionreadiness.org,US,Americas,Northern America,United States of America,New Jersey,,Clifton
104.236.76.157,4,81,mitcho.com,US,Americas,Northern America,United States of America,New Jersey,,Clifton
104.236.211.68,4,61,modelzoo.co,US,Americas,Northern America,United States of America,New Jersey,,Clifton
167.172.246.188,4,4,moderncrumb.com,US,Americas,Northern America,United States of America,New Jersey,,Clifton
159.65.163.38,4,1171932,mondaybynoon.com,US,Americas,Northern America,United States of America,New Jersey,,Clifton
138.197.50.81,4,5,mondomedia.com,US,Americas,Northern America,United States of America,New Jersey,,Clifton
167.71.249.103,4,7,morgantownwvbusinessnews.com,US,Americas,Northern America,United States of America,New Jersey,,Clifton
64.225.54.3,4,30,motherrisingbirth.com,US,Americas,Northern America,United States of America,New Jersey,,Clifton
159.203.172.195,4,2,mountaintrek.com,US,Americas,Northern America,United States of America,New Jersey,,Clifton
209.97.159.122,4,19,mousefantravel.com,US,Americas,Northern America,United States of America,New Jersey,,Clifton
159.203.88.184,4,7,moveunitedsport.org,US,Americas,Northern America,United States of America,New Jersey,,Clifton
134.209.168.84,4,0,mpsomaha.org,US,Americas,Northern America,United States of America,New Jersey,,Clifton
159.203.76.71,4,9,mri.directory,US,Americas,Northern America,United States of America,New Jersey,,Clifton
64.225.31.18,4,6,mushroomobserver.org,US,Americas,Northern America,United States of America,New Jersey,,Clifton
45.55.66.29,4,16,musictogether.com,US,Americas,Northern America,United States of America,New Jersey,,Clifton
104.236.123.149,4,-856,mutinyhockey.com,US,Americas,Northern America,United States of America,New Jersey,,Clifton
159.65.176.159,4,1,my-classes-help.com,US,Americas,Northern America,United States of America,New Jersey,,Clifton
165.22.47.157,4,6,myadmissionsessay.com,US,Americas,Northern America,United States of America,New Jersey,,Clifton
161.35.130.138,4,5,myblessedlife.net,US,Americas,Northern America,United States of America,New Jersey,,Clifton
138.197.92.24,4,27,myeclipseide.com,US,Americas,Northern America,United States of America,New Jersey,,Clifton
161.35.191.48,4,6,mygluten-freekitchen.com,US,Americas,Northern America,United States of America,New Jersey,,Clifton
104.131.37.132,4,189798,myhikes.org,US,Americas,Northern America,United States of America,New Jersey,,Clifton
134.122.15.150,4,9,mywholefoodlife.com,US,Americas,Northern America,United States of America,New Jersey,,Clifton
45.55.52.132,4,7,naildesignsjournal.com,US,Americas,Northern America,United States of America,New Jersey,,Clifton
104.131.39.149,4,5011962,namenerds.com,US,Americas,Northern America,United States of America,New Jersey,,Clifton
138.197.24.95,4,23,namt.org,US,Americas,Northern America,United States of America,New Jersey,,Clifton
167.71.175.120,4,6,natalieportman.com,US,Americas,Northern America,United States of America,New Jersey,,Clifton
167.71.94.49,4,59,nationalparkobsessed.com,US,Americas,Northern America,United States of America,New Jersey,,Clifton
138.197.75.216,4,6,naturescapes.net,US,Americas,Northern America,United States of America,New Jersey,,Clifton
159.203.149.17,4,809873,neofuturists.org,US,Americas,Northern America,United States of America,New Jersey,,Clifton
167.71.176.244,4,49,nepalindata.com,US,Americas,Northern America,United States of America,New Jersey,,Clifton
138.197.55.13,4,29,neworleansfilmsociety.org,US,Americas,Northern America,United States of America,New Jersey,,Clifton
104.236.99.172,4,4,nikelebron.net,US,Americas,Northern America,United States of America,New Jersey,,Clifton
143.198.25.35,4,5,nkforex.com,US,Americas,Northern America,United States of America,New Jersey,,Clifton
167.71.169.46,4,5,nlbemuseum.com,US,Americas,Northern America,United States of America,New Jersey,,Clifton
165.227.218.225,4,2,nn4youth.org,US,Americas,Northern America,United States of America,New Jersey,,Clifton
167.71.96.239,4,0,nofusskitchen.com,US,Americas,Northern America,United States of America,New Jersey,,Clifton
159.203.107.189,4,6,nolapro.com,US,Americas,Northern America,United States of America,New Jersey,,Clifton
138.197.48.163,4,5,nology.com,US,Americas,Northern America,United States of America,New Jersey,,Clifton
165.22.42.91,4,1,noshtastic.com,US,Americas,Northern America,United States of America,New Jersey,,Clifton
157.245.218.180,4,34,nourishingjoy.com,US,Americas,Northern America,United States of America,New Jersey,,Clifton
45.55.189.238,4,6,nowfoundation.org,US,Americas,Northern America,United States of America,New Jersey,,Clifton
138.197.20.176,4,4,nyigf.com,US,Americas,Northern America,United States of America,New Jersey,,Clifton
45.55.123.171,4,6,nyts.edu,US,Americas,Northern America,United States of America,New Jersey,,Clifton
134.209.42.10,4,0,nytw.org,US,Americas,Northern America,United States of America,New Jersey,,Clifton
134.122.12.141,4,3,o-cha.com,US,Americas,Northern America,United States of America,New Jersey,,Clifton
167.71.181.16,4,7,oceansbeyondpiracy.org,US,Americas,Northern America,United States of America,New Jersey,,Clifton
159.65.171.34,4,18,ocom.edu,US,Americas,Northern America,United States of America,New Jersey,,Clifton
159.203.150.57,4,5,oda.org,US,Americas,Northern America,United States of America,New Jersey,,Clifton
104.131.73.52,4,10,offshorewindus.org,US,Americas,Northern America,United States of America,New Jersey,,Clifton
134.209.43.194,4,25,ohiosamishcountry.com,US,Americas,Northern America,United States of America,New Jersey,,Clifton
138.197.72.121,4,2,ohmrstucker.com,US,Americas,Northern America,United States of America,New Jersey,,Clifton
159.203.66.133,4,67,old-friends.co,US,Americas,Northern America,United States of America,New Jersey,,Clifton
104.236.121.228,4,26,oliviagarden.com,US,Americas,Northern America,United States of America,New Jersey,,Clifton
164.90.142.202,4,20,onceinalifetimejourney.com,US,Americas,Northern America,United States of America,New Jersey,,Clifton
161.35.190.184,4,6,oneessentialcommunity.com,US,Americas,Northern America,United States of America,New Jersey,,Clifton
159.203.166.152,4,5,onenightfriend.com,US,Americas,Northern America,United States of America,New Jersey,,Clifton
159.89.42.207,4,42,onlinecasinobluebook.com,US,Americas,Northern America,United States of America,New Jersey,,Clifton
143.244.221.52,4,18,open-store.io,US,Americas,Northern America,United States of America,New Jersey,,Clifton
161.35.189.120,4,39,openlabs.com,US,Americas,Northern America,United States of America,New Jersey,,Clifton
104.236.243.109,4,2,opensourcehacker.com,US,Americas,Northern America,United States of America,New Jersey,,Clifton
38.76.31.47,4,5,othaimmarkets.com,US,Americas,Northern America,United States of America,New Jersey,,Clifton
138.197.17.168,4,28,oucreate.com,US,Americas,Northern America,United States of America,New Jersey,,Clifton
165.227.69.211,4,76,ourlodgepage.com,US,Americas,Northern America,United States of America,New Jersey,,Clifton
134.122.3.191,4,46,ourpaleolife.com,US,Americas,Northern America,United States of America,New Jersey,,Clifton
142.93.184.50,4,13,oursweetadventures.com,US,Americas,Northern America,United States of America,New Jersey,,Clifton
138.197.60.125,4,19,ovlix.com,US,Americas,Northern America,United States of America,New Jersey,,Clifton
45.55.37.7,4,20,palmbay.com,US,Americas,Northern America,United States of America,New Jersey,,Clifton
104.131.73.183,4,28,palmersquare.com,US,Americas,Northern America,United States of America,New Jersey,,Clifton
159.89.188.84,4,16,paparazziaccessories.com,US,Americas,Northern America,United States of America,New Jersey,,Clifton
167.71.165.23,4,4,paperhelp.org,US,Americas,Northern America,United States of America,New Jersey,,Clifton
165.227.110.233,4,65,parkingaccess.com,US,Americas,Northern America,United States of America,New Jersey,,Clifton
143.198.27.140,4,40,parksidechurch.com,US,Americas,Northern America,United States of America,New Jersey,,Clifton
159.203.145.251,4,37,parsif.al,US,Americas,Northern America,United States of America,New Jersey,,Clifton
104.236.25.136,4,86,passdiy.com,US,Americas,Northern America,United States of America,New Jersey,,Clifton
159.203.121.201,4,40,pastehtml.com,US,Americas,Northern America,United States of America,New Jersey,,Clifton
68.183.56.102,4,13,pausaparafeminices.com,US,Americas,Northern America,United States of America,New Jersey,,Clifton
159.203.161.202,4,5,pawsatlanta.org,US,Americas,Northern America,United States of America,New Jersey,,Clifton
104.131.111.60,4,1033833,pcsing.com,US,Americas,Northern America,United States of America,New Jersey,,Clifton
104.131.121.157,4,10,pedegoelectricbikes.ca,US,Americas,Northern America,United States of America,New Jersey,,Clifton
104.236.105.110,4,16,pengoworks.com,US,Americas,Northern America,United States of America,New Jersey,,Clifton
159.65.242.60,4,58,perrysplate.com,US,Americas,Northern America,United States of America,New Jersey,,Clifton
104.236.99.41,4,42,pet-friendly-hotels.net,US,Americas,Northern America,United States of America,New Jersey,,Clifton
138.197.16.235,4,10,petdance.com,US,Americas,Northern America,United States of America,New Jersey,,Clifton
68.183.151.74,4,28,peterbe.com,US,Americas,Northern America,United States of America,New Jersey,,Clifton
174.138.64.172,4,17,peterisland.com,US,Americas,Northern America,United States of America,New Jersey,,Clifton
159.203.118.138,4,39,photolemur.com,US,Americas,Northern America,United States of America,New Jersey,,Clifton
104.236.113.89,4,674631,photoswipe.com,US,Americas,Northern America,United States of America,New Jersey,,Clifton
165.227.222.255,4,10,physlets.org,US,Americas,Northern America,United States of America,New Jersey,,Clifton
104.236.70.231,4,8,piauinoticias.com,US,Americas,Northern America,United States of America,New Jersey,,Clifton
45.55.49.15,4,6,pinklittlenotebook.com,US,Americas,Northern America,United States of America,New Jersey,,Clifton
45.55.244.123,4,41,pireminder.com,US,Americas,Northern America,United States of America,New Jersey,,Clifton
167.172.250.156,4,18,plantidentification.co,US,Americas,Northern America,United States of America,New Jersey,,Clifton
209.97.155.82,4,20,plantophiles.com,US,Americas,Northern America,United States of America,New Jersey,,Clifton
45.55.46.246,4,10,playtherapysupply.com,US,Americas,Northern America,United States of America,New Jersey,,Clifton
104.236.240.69,4,1165847,pledgemanager.com,US,Americas,Northern America,United States of America,New Jersey,,Clifton
104.236.226.187,4,397190,policeviolencereport.org,US,Americas,Northern America,United States of America,New Jersey,,Clifton
209.97.148.210,4,20,poppedcornshop.com,US,Americas,Northern America,United States of America,New Jersey,,Clifton
104.248.6.201,4,51,portaldoagronegocio.com.br,US,Americas,Northern America,United States of America,New Jersey,,Clifton
159.203.81.148,4,26,ppm.express,US,Americas,Northern America,United States of America,New Jersey,,Clifton
159.65.170.136,4,34,practicalselfreliance.com,US,Americas,Northern America,United States of America,New Jersey,,Clifton
159.203.167.93,4,22,premioinnovare.com.br,US,Americas,Northern America,United States of America,New Jersey,,Clifton
138.197.12.169,4,120,prep4sure.com,US,Americas,Northern America,United States of America,New Jersey,,Clifton
138.197.58.238,4,48,preservationhall.com,US,Americas,Northern America,United States of America,New Jersey,,Clifton
209.97.151.192,4,40,primaryinformation.org,US,Americas,Northern America,United States of America,New Jersey,,Clifton
104.131.17.54,4,67,primelabmed.com,US,Americas,Northern America,United States of America,New Jersey,,Clifton
104.131.13.92,4,41,programiz.com,US,Americas,Northern America,United States of America,New Jersey,,Clifton
157.245.123.9,4,1,projectlooksharp.org,US,Americas,Northern America,United States of America,New Jersey,,Clifton
142.93.66.48,4,9,prongs.org,US,Americas,Northern America,United States of America,New Jersey,,Clifton
45.55.122.88,4,0,proofonmain.com,US,Americas,Northern America,United States of America,New Jersey,,Clifton
159.203.137.109,4,6,puffyan.us,US,Americas,Northern America,United States of America,New Jersey,,Clifton
45.55.204.60,4,1,putonyourcakepants.com,US,Americas,Northern America,United States of America,New Jersey,,Clifton
159.89.245.108,4,6,pypa.io,US,Americas,Northern America,United States of America,New Jersey,,Clifton
167.99.21.118,4,2,pypa.io,US,Americas,Northern America,United States of America,New Jersey,,Clifton
159.203.113.93,4,0,qai.org,US,Americas,Northern America,United States of America,New Jersey,,Clifton
159.203.132.188,4,4,qlab.app,US,Americas,Northern America,United States of America,New Jersey,,Clifton
138.197.106.2,4,4,quartzluxurywindows.com,US,Americas,Northern America,United States of America,New Jersey,,Clifton
142.93.187.14,4,26,questioncopyright.org,US,Americas,Northern America,United States of America,New Jersey,,Clifton
165.227.126.111,4,29,quickflirt.com,US,Americas,Northern America,United States of America,New Jersey,,Clifton
162.243.187.78,4,10,quitday.org,US,Americas,Northern America,United States of America,New Jersey,,Clifton
165.227.176.240,4,229206,radcenter.org,US,Americas,Northern America,United States of America,New Jersey,,Clifton
69.87.217.144,4,13,raining.fm,US,Americas,Northern America,United States of America,New Jersey,,Clifton
165.227.76.242,4,22,rampages.us,US,Americas,Northern America,United States of America,New Jersey,,Clifton
104.236.109.136,4,1935604,randomizer.org,US,Americas,Northern America,United States of America,New Jersey,,Clifton
104.131.45.155,4,43,rapdict.org,US,Americas,Northern America,United States of America,New Jersey,,Clifton
161.35.128.179,4,39,rapiscan-ase.com,US,Americas,Northern America,United States of America,New Jersey,,Clifton
167.71.170.27,4,45,raveangels.org,US,Americas,Northern America,United States of America,New Jersey,,Clifton
159.89.191.43,4,11,reachmail.com,US,Americas,Northern America,United States of America,New Jersey,,Clifton
104.131.160.153,4,10178838,reaconverter.com,US,Americas,Northern America,United States of America,New Jersey,,Clifton
138.197.88.19,4,10,reactiongifs.us,US,Americas,Northern America,United States of America,New Jersey,,Clifton
157.245.5.7,4,39,reallysimplesyndication.com,US,Americas,Northern America,United States of America,New Jersey,,Clifton
104.236.200.188,4,19,reasoft.com,US,Americas,Northern America,United States of America,New Jersey,,Clifton
159.203.101.52,4,19,recipeboy.com,US,Americas,Northern America,United States of America,New Jersey,,Clifton
159.203.69.7,4,17,redeclipse.net,US,Americas,Northern America,United States of America,New Jersey,,Clifton
104.131.10.36,4,44,refiki.com,US,Americas,Northern America,United States of America,New Jersey,,Clifton
159.89.254.169,4,23,reillyartscenter.com,US,Americas,Northern America,United States of America,New Jersey,,Clifton
159.65.166.100,4,52,resetdigital.co,US,Americas,Northern America,United States of America,New Jersey,,Clifton
64.225.63.251,4,6,rigetti.com,US,Americas,Northern America,United States of America,New Jersey,,Clifton
165.227.107.36,4,7,rightinbox.com,US,Americas,Northern America,United States of America,New Jersey,,Clifton
167.71.249.170,4,6,rightrasta.com,US,Americas,Northern America,United States of America,New Jersey,,Clifton
142.93.176.251,4,34,rock95.com,US,Americas,Northern America,United States of America,New Jersey,,Clifton
159.65.165.47,4,33,romanticai.com,US,Americas,Northern America,United States of America,New Jersey,,Clifton
167.99.52.60,4,46,rondonoticias.com.br,US,Americas,Northern America,United States of America,New Jersey,,Clifton
167.71.92.55,4,27,rooferscoffeeshop.com,US,Americas,Northern America,United States of America,New Jersey,,Clifton
104.236.68.188,4,31,roots.io,US,Americas,Northern America,United States of America,New Jersey,,Clifton
167.172.31.186,4,5,rossiwrites.com,US,Americas,Northern America,United States of America,New Jersey,,Clifton
45.55.58.72,4,20,roughlydrafted.com,US,Americas,Northern America,United States of America,New Jersey,,Clifton
138.197.63.226,4,48,rpbridge.net,US,Americas,Northern America,United States of America,New Jersey,,Clifton
45.55.165.149,4,75,rushisaband.com,US,Americas,Northern America,United States of America,New Jersey,,Clifton
104.236.212.173,4,4,ruslanspivak.com,US,Americas,Northern America,United States of America,New Jersey,,Clifton
167.172.254.62,4,4,rvmhhalloffame.org,US,Americas,Northern America,United States of America,New Jersey,,Clifton
64.225.56.31,4,14,saddlebrook.com,US,Americas,Northern America,United States of America,New Jersey,,Clifton
104.236.70.222,4,707546,sailormoonnews.com,US,Americas,Northern America,United States of America,New Jersey,,Clifton
159.203.81.222,4,34,sanderling-resort.com,US,Americas,Northern America,United States of America,New Jersey,,Clifton
167.71.81.1,4,5,sandwichtribunal.com,US,Americas,Northern America,United States of America,New Jersey,,Clifton
45.55.32.167,4,16,santropolroulant.org,US,Americas,Northern America,United States of America,New Jersey,,Clifton
165.227.123.114,4,7,scandinaviancookbook.com,US,Americas,Northern America,United States of America,New Jersey,,Clifton
142.93.69.23,4,21,science20.com,US,Americas,Northern America,United States of America,New Jersey,,Clifton
134.209.35.245,4,2,securelogix.com,US,Americas,Northern America,United States of America,New Jersey,,Clifton
134.209.172.38,4,13,securitycurrent.com,US,Americas,Northern America,United States of America,New Jersey,,Clifton
134.209.36.192,4,18,shafiroff.com,US,Americas,Northern America,United States of America,New Jersey,,Clifton
104.236.50.88,4,308201,shapewedding.com,US,Americas,Northern America,United States of America,New Jersey,,Clifton
104.236.101.239,4,9,sharedsolar.org,US,Americas,Northern America,United States of America,New Jersey,,Clifton
165.227.248.109,4,0,shepherd.edu,US,Americas,Northern America,United States of America,New Jersey,,Clifton
104.131.92.181,4,4,shoe-tease.com,US,Americas,Northern America,United States of America,New Jersey,,Clifton
104.131.66.195,4,3,shorefire.com,US,Americas,Northern America,United States of America,New Jersey,,Clifton
138.197.7.86,4,3,show.co,US,Americas,Northern America,United States of America,New Jersey,,Clifton
138.197.53.118,4,5,shsforums.net,US,Americas,Northern America,United States of America,New Jersey,,Clifton
104.236.1.61,4,0,shulchronicles.com,US,Americas,Northern America,United States of America,New Jersey,,Clifton
159.89.35.239,4,3,sightcall.com,US,Americas,Northern America,United States of America,New Jersey,,Clifton
104.131.55.174,4,28,sillysoft.net,US,Americas,Northern America,United States of America,New Jersey,,Clifton
68.183.158.17,4,24,simpleorganizedliving.com,US,Americas,Northern America,United States of America,New Jersey,,Clifton
167.99.58.8,4,4,sindsegsc.org.br,US,Americas,Northern America,United States of America,New Jersey,,Clifton
159.203.73.121,4,3,singlegirlsdiy.com,US,Americas,Northern America,United States of America,New Jersey,,Clifton
104.236.74.138,4,5,skinsafeproducts.com,US,Americas,Northern America,United States of America,New Jersey,,Clifton
104.131.169.55,4,9670473,skubadesign.com,US,Americas,Northern America,United States of America,New Jersey,,Clifton
104.236.20.185,4,12,smallbusinessusa.com,US,Americas,Northern America,United States of America,New Jersey,,Clifton
80.77.84.230,4,16,smartyads.com,US,Americas,Northern America,United States of America,New Jersey,,Clifton
165.22.32.221,4,29,snaphanen.dk,US,Americas,Northern America,United States of America,New Jersey,,Clifton
45.55.41.130,4,-6,snarkypuppy.com,US,Americas,Northern America,United States of America,New Jersey,,Clifton
104.131.65.24,4,27,snowtracks.com,US,Americas,Northern America,United States of America,New Jersey,,Clifton
104.131.184.198,4,2525082,sockpuppet.org,US,Americas,Northern America,United States of America,New Jersey,,Clifton
104.236.1.180,4,26,soft32download.com,US,Americas,Northern America,United States of America,New Jersey,,Clifton
157.245.209.181,4,31,softnik.com,US,Americas,Northern America,United States of America,New Jersey,,Clifton
45.55.122.47,4,28,sogolink.net,US,Americas,Northern America,United States of America,New Jersey,,Clifton
165.227.219.36,4,33,somepage.com,US,Americas,Northern America,United States of America,New Jersey,,Clifton
159.65.244.125,4,1,soreyfitness.com,US,Americas,Northern America,United States of America,New Jersey,,Clifton
165.227.178.121,4,2,sorrelriver.com,US,Americas,Northern America,United States of America,New Jersey,,Clifton
165.227.68.252,4,16,soulhomesteading.com,US,Americas,Northern America,United States of America,New Jersey,,Clifton
64.225.13.78,4,5,southafrica.co.za,US,Americas,Northern America,United States of America,New Jersey,,Clifton
165.227.121.228,4,-1,spedspark.com,US,Americas,Northern America,United States of America,New Jersey,,Clifton
159.203.146.85,4,68,spencertunick.com,US,Americas,Northern America,United States of America,New Jersey,,Clifton
165.227.71.4,4,13,squareenixmusic.com,US,Americas,Northern America,United States of America,New Jersey,,Clifton
138.197.49.150,4,10,squareoffnow.com,US,Americas,Northern America,United States of America,New Jersey,,Clifton
104.236.15.87,4,1,stacher.io,US,Americas,Northern America,United States of America,New Jersey,,Clifton
104.236.9.75,4,58,stairways.com,US,Americas,Northern America,United States of America,New Jersey,,Clifton
104.131.10.230,4,37,start9.com,US,Americas,Northern America,United States of America,New Jersey,,Clifton
104.131.100.180,4,12430478,statsverse.com,US,Americas,Northern America,United States of America,New Jersey,,Clifton
138.197.50.247,4,4,stepafrika.org,US,Americas,Northern America,United States of America,New Jersey,,Clifton
167.172.255.204,4,6,stepbysteppainting.net,US,Americas,Northern America,United States of America,New Jersey,,Clifton
159.65.46.62,4,-1,stocksplithistory.com,US,Americas,Northern America,United States of America,New Jersey,,Clifton
144.126.251.57,4,4,strapsco.com,US,Americas,Northern America,United States of America,New Jersey,,Clifton
134.122.10.194,4,16,strattonspine.com,US,Americas,Northern America,United States of America,New Jersey,,Clifton
165.227.251.169,4,1,sts.org,US,Americas,Northern America,United States of America,New Jersey,,Clifton
138.197.2.178,4,36,studio-international.co.uk,US,Americas,Northern America,United States of America,New Jersey,,Clifton
45.55.127.96,4,9,stylearc.com,US,Americas,Northern America,United States of America,New Jersey,,Clifton
138.197.79.78,4,3,stylecharade.com,US,Americas,Northern America,United States of America,New Jersey,,Clifton
45.55.41.223,4,4,sublimemerge.com,US,Americas,Northern America,United States of America,New Jersey,,Clifton
167.172.244.76,4,3,sudobits.com,US,Americas,Northern America,United States of America,New Jersey,,Clifton
38.76.31.13,4,-151,sultan.org,US,Americas,Northern America,United States of America,New Jersey,,Clifton
159.203.114.138,4,3,sundt.com,US,Americas,Northern America,United States of America,New Jersey,,Clifton
138.197.55.250,4,20,sunshinefoundation.org,US,Americas,Northern America,United States of America,New Jersey,,Clifton
159.203.95.77,4,8,sunypress.edu,US,Americas,Northern America,United States of America,New Jersey,,Clifton
138.197.0.77,4,19,superdatascience.com,US,Americas,Northern America,United States of America,New Jersey,,Clifton
165.227.188.11,4,31,superhumanacademy.com,US,Americas,Northern America,United States of America,New Jersey,,Clifton
104.131.74.126,4,83083,surveillancevalley.com,US,Americas,Northern America,United States of America,New Jersey,,Clifton
157.245.3.117,4,7,survivalresources.com,US,Americas,Northern America,United States of America,New Jersey,,Clifton
138.197.60.150,4,12,sweetwaternow.com,US,Americas,Northern America,United States of America,New Jersey,,Clifton
144.126.250.226,4,15,synetictheater.org,US,Americas,Northern America,United States of America,New Jersey,,Clifton
45.55.123.225,4,6,t5k.org,US,Americas,Northern America,United States of America,New Jersey,,Clifton
45.55.165.147,4,0,tagsforlikes.com,US,Americas,Northern America,United States of America,New Jersey,,Clifton
209.97.148.2,4,32,tagtoday.net,US,Americas,Northern America,United States of America,New Jersey,,Clifton
104.236.204.102,4,6,tamararubin.com,US,Americas,Northern America,United States of America,New Jersey,,Clifton
167.172.236.10,4,3,tampasteel.com,US,Americas,Northern America,United States of America,New Jersey,,Clifton
104.236.255.213,4,801588,tamrieljournal.com,US,Americas,Northern America,United States of America,New Jersey,,Clifton
104.236.85.132,4,56567,taxihowmuch.com,US,Americas,Northern America,United States of America,New Jersey,,Clifton
104.131.67.123,4,3,tazzle.com,US,Americas,Northern America,United States of America,New Jersey,,Clifton
45.55.52.176,4,7,techbrij.com,US,Americas,Northern America,United States of America,New Jersey,,Clifton
134.209.41.57,4,95,techieshelp.com,US,Americas,Northern America,United States of America,New Jersey,,Clifton
165.227.191.96,4,103,techinquiry.org,US,Americas,Northern America,United States of America,New Jersey,,Clifton
143.198.14.155,4,11,techwarelabs.com,US,Americas,Northern America,United States of America,New Jersey,,Clifton
45.55.35.220,4,26,teenidols4you.com,US,Americas,Northern America,United States of America,New Jersey,,Clifton
45.55.34.126,4,2,templatetuning.com,US,Americas,Northern America,United States of America,New Jersey,,Clifton
159.203.107.107,4,56,terrychay.com,US,Americas,Northern America,United States of America,New Jersey,,Clifton
104.131.169.83,4,4,textbookleague.org,US,Americas,Northern America,United States of America,New Jersey,,Clifton
159.203.97.234,4,101,textem.net,US,Americas,Northern America,United States of America,New Jersey,,Clifton
142.93.66.77,4,0,thebreakroom.org,US,Americas,Northern America,United States of America,New Jersey,,Clifton
142.93.72.183,4,6,thebusinesswebclub.com,US,Americas,Northern America,United States of America,New Jersey,,Clifton
45.55.140.190,4,4,thechangelog.com,US,Americas,Northern America,United States of America,New Jersey,,Clifton
134.209.43.169,4,64,theclockdepot.com,US,Americas,Northern America,United States of America,New Jersey,,Clifton
104.236.14.31,4,45,thecoffeemom.net,US,Americas,Northern America,United States of America,New Jersey,,Clifton
104.131.85.241,4,29,thecourtjeweller.com,US,Americas,Northern America,United States of America,New Jersey,,Clifton
138.197.102.118,4,8,thedailycatch.com,US,Americas,Northern America,United States of America,New Jersey,,Clifton
104.131.12.172,4,30,thedoghousediaries.com,US,Americas,Northern America,United States of America,New Jersey,,Clifton
143.198.26.147,4,14,theemployerstore.com,US,Americas,Northern America,United States of America,New Jersey,,Clifton
45.55.195.163,4,-13182,thefamilydinnerproject.org,US,Americas,Northern America,United States of America,New Jersey,,Clifton
167.172.17.231,4,9,thefreshmancook.com,US,Americas,Northern America,United States of America,New Jersey,,Clifton
167.71.253.194,4,2,thegayglobetrotter.com,US,Americas,Northern America,United States of America,New Jersey,,Clifton
165.227.78.117,4,10,thegoodscentscompany.com,US,Americas,Northern America,United States of America,New Jersey,,Clifton
64.225.53.28,4,1,theknotww.com,US,Americas,Northern America,United States of America,New Jersey,,Clifton
134.209.33.69,4,2,thelostcolony.org,US,Americas,Northern America,United States of America,New Jersey,,Clifton
164.90.136.69,4,10,themastercleanse.org,US,Americas,Northern America,United States of America,New Jersey,,Clifton
167.71.111.119,4,5,themdc.org,US,Americas,Northern America,United States of America,New Jersey,,Clifton
142.93.66.180,4,12,themepack.me,US,Americas,Northern America,United States of America,New Jersey,,Clifton
157.245.0.171,4,41,themepiko.com,US,Americas,Northern America,United States of America,New Jersey,,Clifton
142.93.183.187,4,38,themondaybox.com,US,Americas,Northern America,United States of America,New Jersey,,Clifton
45.55.139.222,4,11,themoth.org,US,Americas,Northern America,United States of America,New Jersey,,Clifton
174.138.58.92,4,6,themovation.com,US,Americas,Northern America,United States of America,New Jersey,,Clifton
159.203.150.228,4,1,themsv.org,US,Americas,Northern America,United States of America,New Jersey,,Clifton
165.227.249.121,4,1,thenewsette.com,US,Americas,Northern America,United States of America,New Jersey,,Clifton
159.65.172.172,4,92,theonlineinvestor.com,US,Americas,Northern America,United States of America,New Jersey,,Clifton
159.65.250.81,4,84,thepeacefulmom.com,US,Americas,Northern America,United States of America,New Jersey,,Clifton
165.227.73.186,4,11,thepi.io,US,Americas,Northern America,United States of America,New Jersey,,Clifton
45.55.125.199,4,52,thepit-nyc.com,US,Americas,Northern America,United States of America,New Jersey,,Clifton
104.236.31.67,4,15,thepositivemom.com,US,Americas,Northern America,United States of America,New Jersey,,Clifton
159.203.107.25,4,1163,theschwartzcenter.org,US,Americas,Northern America,United States of America,New Jersey,,Clifton
159.203.83.185,4,-68688,theshackbook.com,US,Americas,Northern America,United States of America,New Jersey,,Clifton
159.203.143.131,4,3,thesweetestthingblog.com,US,Americas,Northern America,United States of America,New Jersey,,Clifton
165.227.210.103,4,0,thewestmoreland.org,US,Americas,Northern America,United States of America,New Jersey,,Clifton
157.245.217.73,4,5,thewillistree.info,US,Americas,Northern America,United States of America,New Jersey,,Clifton
104.131.64.154,4,22,thirdstopontheright.com,US,Americas,Northern America,United States of America,New Jersey,,Clifton
157.245.112.10,4,23,thisworkfromhomelife.com,US,Americas,Northern America,United States of America,New Jersey,,Clifton
104.131.122.247,4,4,threefold.io,US,Americas,Northern America,United States of America,New Jersey,,Clifton
159.203.107.251,4,3,tickertech.com,US,Americas,Northern America,United States of America,New Jersey,,Clifton
159.89.191.28,4,1,tickertech.com,US,Americas,Northern America,United States of America,New Jersey,,Clifton
45.55.57.114,4,7,tickertech.net,US,Americas,Northern America,United States of America,New Jersey,,Clifton
157.245.4.227,4,176,tijuanaflats.com,US,Americas,Northern America,United States of America,New Jersey,,Clifton
159.65.42.237,4,28,tinting-laws.com,US,Americas,Northern America,United States of America,New Jersey,,Clifton
157.245.113.153,4,34,tiny.cc,US,Americas,Northern America,United States of America,New Jersey,,Clifton
159.203.160.179,4,27,tinycc.com,US,Americas,Northern America,United States of America,New Jersey,,Clifton
104.236.126.90,4,9,together.com,US,Americas,Northern America,United States of America,New Jersey,,Clifton
157.245.222.169,4,3,together2night.com,US,Americas,Northern America,United States of America,New Jersey,,Clifton
104.236.64.252,4,14,tom7.org,US,Americas,Northern America,United States of America,New Jersey,,Clifton
159.203.150.218,4,11,topretirements.com,US,Americas,Northern America,United States of America,New Jersey,,Clifton
159.65.246.198,4,9,travelyesplease.com,US,Americas,Northern America,United States of America,New Jersey,,Clifton
159.203.148.155,4,2025,trinityrep.com,US,Americas,Northern America,United States of America,New Jersey,,Clifton
157.245.121.160,4,24,triptins.com,US,Americas,Northern America,United States of America,New Jersey,,Clifton
104.248.4.118,4,29,trnto.com,US,Americas,Northern America,United States of America,New Jersey,,Clifton
165.227.111.145,4,8,trustedhealthadvice.com,US,Americas,Northern America,United States of America,New Jersey,,Clifton
159.89.254.2,4,0,trusterworkonline.com,US,Americas,Northern America,United States of America,New Jersey,,Clifton
167.71.108.116,4,1,turtle.ky,US,Americas,Northern America,United States of America,New Jersey,,Clifton
167.172.233.127,4,7,twohealthykitchens.com,US,Americas,Northern America,United States of America,New Jersey,,Clifton
68.183.53.113,4,3,twowaymirrors.com,US,Americas,Northern America,United States of America,New Jersey,,Clifton
134.209.34.81,4,2,txhealthsteps.com,US,Americas,Northern America,United States of America,New Jersey,,Clifton
167.71.186.194,4,1,uglyducklingcolor.com,US,Americas,Northern America,United States of America,New Jersey,,Clifton
167.71.246.20,4,6,umsa.edu.ar,US,Americas,Northern America,United States of America,New Jersey,,Clifton
165.227.79.93,4,10,umwhistory.org,US,Americas,Northern America,United States of America,New Jersey,,Clifton
104.236.227.70,4,2717988,understandingprejudice.org,US,Americas,Northern America,United States of America,New Jersey,,Clifton
165.227.126.88,4,11,uniformdating.com,US,Americas,Northern America,United States of America,New Jersey,,Clifton
45.55.45.84,4,7,university-tour.com,US,Americas,Northern America,United States of America,New Jersey,,Clifton
167.71.101.222,4,19,unscramble.org,US,Americas,Northern America,United States of America,New Jersey,,Clifton
167.99.50.74,4,10,urbanoveralls.net,US,Americas,Northern America,United States of America,New Jersey,,Clifton
167.71.174.82,4,7,usfcr.com,US,Americas,Northern America,United States of America,New Jersey,,Clifton
138.197.78.66,4,24,usfunds.com,US,Americas,Northern America,United States of America,New Jersey,,Clifton
159.89.245.15,4,9,ushahidi.com,US,Americas,Northern America,United States of America,New Jersey,,Clifton
64.225.11.141,4,4,usnamemorialhall.org,US,Americas,Northern America,United States of America,New Jersey,,Clifton
104.131.34.249,4,5,usscod.org,US,Americas,Northern America,United States of America,New Jersey,,Clifton
104.131.48.134,4,9,usteamcolors.com,US,Americas,Northern America,United States of America,New Jersey,,Clifton
174.138.53.61,4,4,varmentguard.com,US,Americas,Northern America,United States of America,New Jersey,,Clifton
138.197.51.135,4,13,venicetheatre.org,US,Americas,Northern America,United States of America,New Jersey,,Clifton
159.65.175.42,4,5,venturafoods.com,US,Americas,Northern America,United States of America,New Jersey,,Clifton
174.138.117.212,4,16,viewbook.at,US,Americas,Northern America,United States of America,New Jersey,,Clifton
159.89.245.147,4,32,viomundo.com.br,US,Americas,Northern America,United States of America,New Jersey,,Clifton
68.183.54.9,4,5,visibone.com,US,Americas,Northern America,United States of America,New Jersey,,Clifton
104.131.188.251,4,65,voguefabricsstore.com,US,Americas,Northern America,United States of America,New Jersey,,Clifton
159.203.67.117,4,3,voilanorbert.com,US,Americas,Northern America,United States of America,New Jersey,,Clifton
167.172.230.159,4,3,voterstudygroup.org,US,Americas,Northern America,United States of America,New Jersey,,Clifton
159.89.244.183,4,15,vytality.com,US,Americas,Northern America,United States of America,New Jersey,,Clifton
45.55.38.142,4,4,wahlfamilydentistry.com,US,Americas,Northern America,United States of America,New Jersey,,Clifton
159.203.80.169,4,12,walkingonsunshinerecipes.com,US,Americas,Northern America,United States of America,New Jersey,,Clifton
159.89.243.19,4,6,washdiplomat.com,US,Americas,Northern America,United States of America,New Jersey,,Clifton
167.71.84.199,4,33,wearyourbeer.com,US,Americas,Northern America,United States of America,New Jersey,,Clifton
159.89.245.183,4,6,weather.net,US,Americas,Northern America,United States of America,New Jersey,,Clifton
142.93.68.236,4,86,weespring.com,US,Americas,Northern America,United States of America,New Jersey,,Clifton
104.131.81.220,4,4,weightandwellness.com,US,Americas,Northern America,United States of America,New Jersey,,Clifton
104.236.102.219,4,3,welcometothefamilytable.com,US,Americas,Northern America,United States of America,New Jersey,,Clifton
157.245.212.83,4,5,wesleyac.com,US,Americas,Northern America,United States of America,New Jersey,,Clifton
157.245.14.175,4,4,westcoastleaf.org,US,Americas,Northern America,United States of America,New Jersey,,Clifton
104.236.231.74,4,0,westmagnoliacharm.com,US,Americas,Northern America,United States of America,New Jersey,,Clifton
142.93.79.114,4,7,wheatlesswanderlust.com,US,Americas,Northern America,United States of America,New Jersey,,Clifton
138.197.62.195,4,8,whitney.org,US,Americas,Northern America,United States of America,New Jersey,,Clifton
159.89.189.86,4,11,wholefedhomestead.com,US,Americas,Northern America,United States of America,New Jersey,,Clifton
104.236.91.152,4,197065,win7gadgets.com,US,Americas,Northern America,United States of America,New Jersey,,Clifton
45.55.96.103,4,209456,wineberserkers.com,US,Americas,Northern America,United States of America,New Jersey,,Clifton
159.203.111.152,4,6,wingamestore.com,US,Americas,Northern America,United States of America,New Jersey,,Clifton
167.172.254.91,4,10,withpeanutbutterontop.com,US,Americas,Northern America,United States of America,New Jersey,,Clifton
143.198.29.197,4,10,withsprinklesontop.net,US,Americas,Northern America,United States of America,New Jersey,,Clifton
174.138.119.4,4,3,wnit.org,US,Americas,Northern America,United States of America,New Jersey,,Clifton
134.209.42.36,4,6,woffex.com,US,Americas,Northern America,United States of America,New Jersey,,Clifton
104.248.12.194,4,10,workingnomads.com,US,Americas,Northern America,United States of America,New Jersey,,Clifton
167.99.49.154,4,9,worklifebalance.com,US,Americas,Northern America,United States of America,New Jersey,,Clifton
159.65.191.170,4,13,worldtravelfamily.com,US,Americas,Northern America,United States of America,New Jersey,,Clifton
165.227.67.234,4,-22332,woub.org,US,Americas,Northern America,United States of America,New Jersey,,Clifton
159.65.46.207,4,4,wowitsveggie.com,US,Americas,Northern America,United States of America,New Jersey,,Clifton
159.203.75.243,4,5,wpbeaveraddons.com,US,Americas,Northern America,United States of America,New Jersey,,Clifton
159.203.166.163,4,1033382,wunderland.com,US,Americas,Northern America,United States of America,New Jersey,,Clifton
159.203.149.151,4,6,wydaily.com,US,Americas,Northern America,United States of America,New Jersey,,Clifton
159.89.244.204,4,-14,wyvernltd.com,US,Americas,Northern America,United States of America,New Jersey,,Clifton
104.248.10.4,4,7,xmpp.org,US,Americas,Northern America,United States of America,New Jersey,,Clifton
157.245.212.60,4,3,xvivo.net,US,Americas,Northern America,United States of America,New Jersey,,Clifton
167.99.124.51,4,2,yaliberty.org,US,Americas,Northern America,United States of America,New Jersey,,Clifton
134.209.45.166,4,3,ymcacolumbus.org,US,Americas,Northern America,United States of America,New Jersey,,Clifton
104.131.177.124,4,7,yossarian.net,US,Americas,Northern America,United States of America,New Jersey,,Clifton
104.236.33.235,4,2326929,yourhead.com,US,Americas,Northern America,United States of America,New Jersey,,Clifton
159.65.252.46,4,8,yout.com,US,Americas,Northern America,United States of America,New Jersey,,Clifton
64.225.2.22,4,5,yumveganlunchideas.com,US,Americas,Northern America,United States of America,New Jersey,,Clifton
167.99.54.31,4,7,zcellz.com,US,Americas,Northern America,United States of America,New Jersey,,Clifton
138.197.15.59,4,47,zeltser.com,US,Americas,Northern America,United States of America,New Jersey,,Clifton
165.227.186.238,4,3,zig.news,US,Americas,Northern America,United States of America,New Jersey,,Clifton
209.97.155.63,4,15,zintego.com,US,Americas,Northern America,United States of America,New Jersey,,Clifton
