reflector_ip,ip_version,offset,description,country_code,region,sub_region,country_name,sub_division_1,sub_division_2,city
185.81.4.127,4,7,a21italy.it,IT,Europe,Southern Europe,Italy,Lazio,Rome,Rome
46.254.34.176,4,24,adbpo.it,IT,Europe,Southern Europe,Italy,Lazio,Rome,Rome
46.28.4.120,4,6,agenparl.eu,IT,Europe,Southern Europe,Italy,Lazio,Rome,Rome
95.110.186.221,4,6,altagamma.it,IT,Europe,Southern Europe,Italy,Lazio,Rome,Rome
185.81.6.197,4,82,assaeroporti.com,IT,Europe,Southern Europe,Italy,Lazio,Rome,Rome
46.254.36.110,4,5,associazionelucacoscioni.it,IT,Europe,Southern Europe,Italy,Lazio,Rome,Rome
93.95.216.221,4,79,assoenologi.it,IT,Europe,Southern Europe,Italy,Lazio,Rome,Rome
93.95.216.49,4,20,berberepizza.it,IT,Europe,Southern Europe,Italy,Lazio,Rome,Rome
185.81.2.183,4,9,bgeek.it,IT,Europe,Southern Europe,Italy,Lazio,Rome,Rome
46.254.34.54,4,9,calcioefinanza.it,IT,Europe,Southern Europe,Italy,Lazio,Rome,Rome
185.81.0.24,4,29,caorle.eu,IT,Europe,Southern Europe,Italy,Lazio,Rome,Rome
185.81.2.87,4,36,carnisostenibili.it,IT,Europe,Southern Europe,Italy,Lazio,Rome,Rome
185.81.6.13,4,15,casea1euro.it,IT,Europe,Southern Europe,Italy,Lazio,Rome,Rome
46.16.91.62,4,9,cbmitalia.org,IT,Europe,Southern Europe,Italy,Lazio,Rome,Rome
80.17.31.108,4,7,cepell.it,IT,Europe,Southern Europe,Italy,Lazio,Rome,Rome
185.81.2.67,4,31,cercofabbroamilano.it,IT,Europe,Southern Europe,Italy,Lazio,Rome,Rome
93.95.216.35,4,10,chiarapassion.com,IT,Europe,Southern Europe,Italy,Lazio,Rome,Rome
46.254.39.158,4,11,chioggia.org,IT,Europe,Southern Europe,Italy,Lazio,Rome,Rome
217.169.104.197,4,23,cinefile.biz,IT,Europe,Southern Europe,Italy,Lazio,Rome,Rome
185.81.2.188,4,7,cinellicolombini.it,IT,Europe,Southern Europe,Italy,Lazio,Rome,Rome
85.18.173.126,4,8,cittametropolitanaroma.it,IT,Europe,Southern Europe,Italy,Lazio,Rome,Rome
46.254.38.78,4,6,codemotionworld.com,IT,Europe,Southern Europe,Italy,Lazio,Rome,Rome
185.81.4.196,4,4,comitatoleonardo.it,IT,Europe,Southern Europe,Italy,Lazio,Rome,Rome
88.49.250.34,4,-2,comunicazioni.it,IT,Europe,Southern Europe,Italy,Lazio,Rome,Rome
93.95.216.173,4,14,crmpulizie.it,IT,Europe,Southern Europe,Italy,Lazio,Rome,Rome
95.110.184.149,4,-3387,cronachemaceratesi.it,IT,Europe,Southern Europe,Italy,Lazio,Rome,Rome
46.254.39.144,4,28,curreriviaggi.it,IT,Europe,Southern Europe,Italy,Lazio,Rome,Rome
192.121.191.142,4,12,dailymobile.se,IT,Europe,Southern Europe,Italy,Lazio,Rome,Rome
93.95.216.123,4,5,dariosalvelli.com,IT,Europe,Southern Europe,Italy,Lazio,Rome,Rome
95.110.189.211,4,8258,delphina.it,IT,Europe,Southern Europe,Italy,Lazio,Rome,Rome
46.16.90.152,4,27,diabolik.it,IT,Europe,Southern Europe,Italy,Lazio,Rome,Rome
185.81.4.25,4,6,dnaconcerti.com,IT,Europe,Southern Europe,Italy,Lazio,Rome,Rome
2.229.72.225,4,181,DNS Server: 2-229-72-225.ip195.fastwebnet.it,IT,Europe,Southern Europe,Italy,Lazio,Rome,Rome
185.204.85.208,4,-16,DNS Server: 208.85.204.185.in-addr.arpa,IT,Europe,Southern Europe,Italy,Lazio,Rome,Nettuno
93.44.165.8,4,24,DNS Server: 93-44-165-8.ip98.fastwebnet.it,IT,Europe,Southern Europe,Italy,Lazio,Rome,Fiumicino
93.51.241.141,4,58,DNS Server: 93-51-241-141.ip269.fastwebnet.it,IT,Europe,Southern Europe,Italy,Lazio,Rome,Rome
93.63.229.132,4,-7677254,DNS Server: 93-63-229-132.ip29.fastwebnet.it,IT,Europe,Southern Europe,Italy,Lazio,Rome,Rome
87.241.4.34,4,-4258964962,DNS Server: cpeit_rom000733.ia.colt.net,IT,Europe,Southern Europe,Italy,Lazio,Rome,Rome
79.61.138.153,4,-363,DNS Server: host-79-61-138-153.business.telecomitalia.it,IT,Europe,Southern Europe,Italy,Lazio,Rome,Rome
95.110.185.241,4,-354,DNS Server: host241-185-110-95.serverdedicati.aruba.it,IT,Europe,Southern Europe,Italy,Lazio,Rome,Rome
62.94.195.107,4,3223,DNS Server: ip-195-107.sn1.clouditalia.com,IT,Europe,Southern Europe,Italy,Lazio,Rome,Rome
109.117.16.197,4,213,DNS Server: net-109-117-16-197.cust.vodafonedsl.it,IT,Europe,Southern Europe,Italy,Lazio,Rome,Rome
2.47.138.139,4,46,DNS Server: net-2-47-138-139.cust.vodafonedsl.it,IT,Europe,Southern Europe,Italy,Lazio,Rome,Rome
5.88.153.94,4,114295,DNS Server: net-5-88-153-94.cust.vodafonedsl.it,IT,Europe,Southern Europe,Italy,Lazio,Rome,Rome
93.145.156.210,4,106,DNS Server: net-93-145-156-210.cust.vodafonedsl.it,IT,Europe,Southern Europe,Italy,Lazio,Rome,Rome
93.145.22.2,4,-6640,DNS Server: net-93-145-22-2.cust.vodafonedsl.it,IT,Europe,Southern Europe,Italy,Lazio,Rome,Civitavecchia
93.145.246.134,4,110,DNS Server: net-93-145-246-134.cust.vodafonedsl.it,IT,Europe,Southern Europe,Italy,Lazio,Rome,Rome
93.147.164.56,4,89,DNS Server: net-93-147-164-56.cust.vodafonedsl.it,IT,Europe,Southern Europe,Italy,Lazio,Rome,Rome
93.150.23.67,4,4924,DNS Server: net-93-150-23-67.cust.vodafonedsl.it,IT,Europe,Southern Europe,Italy,Lazio,Rome,Rome
77.43.73.228,4,19453429,DNS Server: net77-43-73-228.mclink.it,IT,Europe,Southern Europe,Italy,Lazio,Rome,Rome
84.253.140.132,4,-36748,DNS Server: net84-253-140-132.mclink.it,IT,Europe,Southern Europe,Italy,Lazio,Rome,Rome
84.253.144.3,4,19940942,DNS Server: net84-253-144-003.mclink.it,IT,Europe,Southern Europe,Italy,Lazio,Rome,Rome
84.253.157.251,4,14002648,DNS Server: net84-253-157-251.mclink.it,IT,Europe,Southern Europe,Italy,Lazio,Rome,Rome
213.61.204.110,4,-4256308149,DNS Server: port-213-61-204-110.ham.dial.de.colt.net,IT,Europe,Southern Europe,Italy,Lazio,Rome,Rome
213.61.204.134,4,21423424,DNS Server: port-213-61-204-134.ham.dial.de.colt.net,IT,Europe,Southern Europe,Italy,Lazio,Rome,Rome
46.28.4.50,4,37,eastjournal.net,IT,Europe,Southern Europe,Italy,Lazio,Rome,Rome
2.228.12.135,4,558575,edc-online.org,IT,Europe,Southern Europe,Italy,Lazio,Rome,Ardea
185.81.4.137,4,39,edizionialegre.it,IT,Europe,Southern Europe,Italy,Lazio,Rome,Rome
95.110.184.104,4,14,edotto.com,IT,Europe,Southern Europe,Italy,Lazio,Rome,Rome
185.81.4.68,4,18,elodea.it,IT,Europe,Southern Europe,Italy,Lazio,Rome,Rome
93.95.216.129,4,7,elvenking.net,IT,Europe,Southern Europe,Italy,Lazio,Rome,Rome
46.28.2.13,4,60,emaily.it,IT,Europe,Southern Europe,Italy,Lazio,Rome,Rome
185.81.2.125,4,6,emfscientist.org,IT,Europe,Southern Europe,Italy,Lazio,Rome,Rome
93.95.216.40,4,29,europeanreview.org,IT,Europe,Southern Europe,Italy,Lazio,Rome,Rome
77.43.14.82,4,19,eurotexts.com,IT,Europe,Southern Europe,Italy,Lazio,Rome,Rome
46.28.2.140,4,33,favini.com,IT,Europe,Southern Europe,Italy,Lazio,Rome,Rome
93.95.216.113,4,21,favinks.com,IT,Europe,Southern Europe,Italy,Lazio,Rome,Rome
46.16.91.20,4,-4370,federscherma.it,IT,Europe,Southern Europe,Italy,Lazio,Rome,Rome
93.95.221.194,4,6,ferpress.it,IT,Europe,Southern Europe,Italy,Lazio,Rome,Rome
46.16.95.158,4,40,fiabitalia.it,IT,Europe,Southern Europe,Italy,Lazio,Rome,Rome
46.254.34.215,4,71,fieracavalli.it,IT,Europe,Southern Europe,Italy,Lazio,Rome,Rome
46.254.39.37,4,38,filastrocche.it,IT,Europe,Southern Europe,Italy,Lazio,Rome,Rome
46.28.4.48,4,20,fip.it,IT,Europe,Southern Europe,Italy,Lazio,Rome,Rome
46.16.94.68,4,16,firenzepost.it,IT,Europe,Southern Europe,Italy,Lazio,Rome,Rome
46.254.36.111,4,4,fnovi.it,IT,Europe,Southern Europe,Italy,Lazio,Rome,Rome
2.228.12.137,4,99092,focolare.org,IT,Europe,Southern Europe,Italy,Lazio,Rome,Ardea
185.81.4.167,4,37,fontanarosaserigrafia.it,IT,Europe,Southern Europe,Italy,Lazio,Rome,Rome
46.254.37.229,4,42,foodsovereignty.org,IT,Europe,Southern Europe,Italy,Lazio,Rome,Rome
46.254.37.153,4,16,formalms.org,IT,Europe,Southern Europe,Italy,Lazio,Rome,Rome
46.254.39.130,4,74,fratellifrancia.it,IT,Europe,Southern Europe,Italy,Lazio,Rome,Rome
46.30.241.101,4,5,gaiaitalia.com,IT,Europe,Southern Europe,Italy,Lazio,Rome,Rome
46.254.34.61,4,17,ghislieri.it,IT,Europe,Southern Europe,Italy,Lazio,Rome,Rome
185.81.0.25,4,44,giallorossi.net,IT,Europe,Southern Europe,Italy,Lazio,Rome,Rome
185.81.4.186,4,23,giolitti.it,IT,Europe,Southern Europe,Italy,Lazio,Rome,Rome
46.254.34.201,4,28,grandenapoli.it,IT,Europe,Southern Europe,Italy,Lazio,Rome,Rome
93.95.216.125,4,63,greenedgecycling.com,IT,Europe,Southern Europe,Italy,Lazio,Rome,Rome
93.95.216.216,4,24,guidaconsumatore.com,IT,Europe,Southern Europe,Italy,Lazio,Rome,Rome
93.95.216.58,4,5,hano.it,IT,Europe,Southern Europe,Italy,Lazio,Rome,Rome
46.254.38.69,4,7,har-cert.com,IT,Europe,Southern Europe,Italy,Lazio,Rome,Rome
93.95.221.24,4,8,iapb.it,IT,Europe,Southern Europe,Italy,Lazio,Rome,Rome
93.95.216.60,4,59,ilcortileshop.com,IT,Europe,Southern Europe,Italy,Lazio,Rome,Rome
93.95.216.91,4,50,ilriformista.it,IT,Europe,Southern Europe,Italy,Lazio,Rome,Rome
185.81.6.11,4,8,iltamtam.it,IT,Europe,Southern Europe,Italy,Lazio,Rome,Rome
193.206.84.44,4,25,infn.it,IT,Europe,Southern Europe,Italy,Lazio,Rome,Rome
185.81.2.44,4,116,irpinianews.it,IT,Europe,Southern Europe,Italy,Lazio,Rome,Rome
46.28.2.60,4,1752,italia24.tv,IT,Europe,Southern Europe,Italy,Lazio,Rome,Rome
185.81.2.164,4,8,italiaregina.it,IT,Europe,Southern Europe,Italy,Lazio,Rome,Rome
46.16.91.40,4,41,itsweb.org,IT,Europe,Southern Europe,Italy,Lazio,Rome,Rome
93.147.174.5,4,2,izslt.it,IT,Europe,Southern Europe,Italy,Lazio,Rome,Rome
185.81.2.127,4,13,khatod.com,IT,Europe,Southern Europe,Italy,Lazio,Rome,Rome
93.95.221.23,4,3,lanuovaecologia.it,IT,Europe,Southern Europe,Italy,Lazio,Rome,Rome
95.110.191.122,4,12,legavolleyfemminile.it,IT,Europe,Southern Europe,Italy,Lazio,Rome,Rome
185.81.2.54,4,7,leonardo.it,IT,Europe,Southern Europe,Italy,Lazio,Rome,Rome
185.81.4.203,4,8,livornocalcio.it,IT,Europe,Southern Europe,Italy,Lazio,Rome,Rome
185.81.2.105,4,5,lucartgroup.com,IT,Europe,Southern Europe,Italy,Lazio,Rome,Rome
46.16.91.56,4,8,marisacuomo.com,IT,Europe,Southern Europe,Italy,Lazio,Rome,Rome
93.95.221.77,4,32,materioteca.it,IT,Europe,Southern Europe,Italy,Lazio,Rome,Rome
185.81.4.147,4,29,michelechiarlo.it,IT,Europe,Southern Europe,Italy,Lazio,Rome,Rome
46.254.38.21,4,7,mmbf.it,IT,Europe,Southern Europe,Italy,Lazio,Rome,Rome
195.250.236.136,4,2,modellismo.it,IT,Europe,Southern Europe,Italy,Lazio,Rome,Rome
195.250.236.135,4,2,modellismo.net,IT,Europe,Southern Europe,Italy,Lazio,Rome,Rome
46.254.39.87,4,4,mohd.it,IT,Europe,Southern Europe,Italy,Lazio,Rome,Rome
194.79.204.96,4,131,mondodigitale.org,IT,Europe,Southern Europe,Italy,Lazio,Rome,Rome
46.16.90.77,4,3901,mondomobileweb.it,IT,Europe,Southern Europe,Italy,Lazio,Rome,Rome
46.254.39.108,4,-2,mototrial.it,IT,Europe,Southern Europe,Italy,Lazio,Rome,Rome
93.95.216.171,4,7,mrwebmaster.it,IT,Europe,Southern Europe,Italy,Lazio,Rome,Rome
193.206.220.200,4,6,museogalileo.it,IT,Europe,Southern Europe,Italy,Lazio,Rome,Rome
209.227.233.39,4,8,museoman.it,IT,Europe,Southern Europe,Italy,Lazio,Rome,Rome
185.81.4.132,4,21,mybestplace.com,IT,Europe,Southern Europe,Italy,Lazio,Rome,Rome
46.254.34.179,4,31,myweddy.it,IT,Europe,Southern Europe,Italy,Lazio,Rome,Rome
46.28.2.29,4,5,nibirumail.com,IT,Europe,Southern Europe,Italy,Lazio,Rome,Rome
46.16.91.54,4,76,nonnapaperina.it,IT,Europe,Southern Europe,Italy,Lazio,Rome,Rome
93.95.216.64,4,33,notebookitalia.it,IT,Europe,Southern Europe,Italy,Lazio,Rome,Rome
93.95.216.131,4,5,novobox.it,IT,Europe,Southern Europe,Italy,Lazio,Rome,Rome
95.110.185.242,4,80141,nuovavimaplast.it,IT,Europe,Southern Europe,Italy,Lazio,Rome,Rome
46.16.91.115,4,11,nuovincontri.org,IT,Europe,Southern Europe,Italy,Lazio,Rome,Rome
93.95.216.175,4,4,ofm.org,IT,Europe,Southern Europe,Italy,Lazio,Rome,Rome
93.95.216.102,4,13,oglioponews.it,IT,Europe,Southern Europe,Italy,Lazio,Rome,Rome
46.28.0.25,4,6,ondanews.it,IT,Europe,Southern Europe,Italy,Lazio,Rome,Rome
62.102.152.34,4,345,Ookla Speedtest Server 6129: st1.admmax.com,IT,Europe,Southern Europe,Italy,Lazio,Rome,Guidonia Montecelio
185.30.112.254,4,348,Ookla Speedtest Server 9967: st3.admmax.com,IT,Europe,Southern Europe,Italy,Lazio,Rome,San Cesareo
176.126.175.76,4,252,Ookla Speedtest Server 54347: fiber23.it,IT,Europe,Southern Europe,Italy,Lazio,Rome,Rome
194.183.16.174,4,352,Ookla Speedtest Server: speed.unidata.it,IT,Europe,Southern Europe,Italy,Lazio,Rome,Rome
185.81.6.28,4,73,ordineavvocatimilano.it,IT,Europe,Southern Europe,Italy,Lazio,Rome,Rome
194.183.4.19,4,22,originalmarines.com,IT,Europe,Southern Europe,Italy,Lazio,Rome,Rome
194.183.4.26,4,8,originalmarines.com,IT,Europe,Southern Europe,Italy,Lazio,Rome,Rome
194.132.31.85,4,219,ossuary.eu,IT,Europe,Southern Europe,Italy,Lazio,Rome,Rome
185.81.4.109,4,56,osteriamelograno.it,IT,Europe,Southern Europe,Italy,Lazio,Rome,Rome
46.254.38.64,4,1,pelatelli.com,IT,Europe,Southern Europe,Italy,Lazio,Rome,Rome
77.43.91.48,4,29042,photocity.it,IT,Europe,Southern Europe,Italy,Lazio,Rome,Rome
93.95.216.128,4,17,piossasco5stelle.it,IT,Europe,Southern Europe,Italy,Lazio,Rome,Rome
185.81.2.16,4,19,porte-legno-massello.it,IT,Europe,Southern Europe,Italy,Lazio,Rome,Rome
46.28.0.26,4,31,portoantico.it,IT,Europe,Southern Europe,Italy,Lazio,Rome,Rome
185.81.4.118,4,18,puntarellarossa.it,IT,Europe,Southern Europe,Italy,Lazio,Rome,Rome
185.81.4.119,4,3,qdpnews.it,IT,Europe,Southern Europe,Italy,Lazio,Rome,Rome
46.254.36.218,4,134,radiocolonna.it,IT,Europe,Southern Europe,Italy,Lazio,Rome,Rome
93.95.221.133,4,57,ramazzotti.com,IT,Europe,Southern Europe,Italy,Lazio,Rome,Rome
93.95.216.132,4,43,reseauvoltaire.net,IT,Europe,Southern Europe,Italy,Lazio,Rome,Rome
217.72.102.107,4,195937,rifondazione.it,IT,Europe,Southern Europe,Italy,Lazio,Rome,Rome
185.81.0.142,4,7,riva1920.it,IT,Europe,Southern Europe,Italy,Lazio,Rome,Rome
93.95.216.222,4,107,romasette.it,IT,Europe,Southern Europe,Italy,Lazio,Rome,Rome
93.95.216.194,4,4,rubinosrl.it,IT,Europe,Southern Europe,Italy,Lazio,Rome,Rome
152.89.170.41,4,4,s0.world,IT,Europe,Southern Europe,Italy,Lazio,Rome,Pomezia
93.95.216.213,4,44,sacrobosco.eu,IT,Europe,Southern Europe,Italy,Lazio,Rome,Rome
185.81.0.95,4,4,salonedelrestauro.com,IT,Europe,Southern Europe,Italy,Lazio,Rome,Rome
93.95.216.160,4,13,sandiodato.it,IT,Europe,Southern Europe,Italy,Lazio,Rome,Rome
46.254.34.104,4,6,santanna.it,IT,Europe,Southern Europe,Italy,Lazio,Rome,Rome
46.254.34.166,4,4,santeustachioilcaffe.it,IT,Europe,Southern Europe,Italy,Lazio,Rome,Rome
185.81.4.99,4,4,scaturchio.it,IT,Europe,Southern Europe,Italy,Lazio,Rome,Rome
46.28.2.30,4,10,scienzavegetariana.it,IT,Europe,Southern Europe,Italy,Lazio,Rome,Rome
195.231.39.105,4,30,scienzenotizie.it,IT,Europe,Southern Europe,Italy,Lazio,Rome,Rome
185.81.4.199,4,6,sicilianmagpie.com,IT,Europe,Southern Europe,Italy,Lazio,Rome,Rome
46.30.241.69,4,62,sicurauto.it,IT,Europe,Southern Europe,Italy,Lazio,Rome,Rome
46.16.95.7,4,3,soleviola.it,IT,Europe,Southern Europe,Italy,Lazio,Rome,Rome
185.81.1.60,4,58,spazioreale.com,IT,Europe,Southern Europe,Italy,Lazio,Rome,Rome
46.28.0.61,4,74,starpool.com,IT,Europe,Southern Europe,Italy,Lazio,Rome,Rome
93.95.216.19,4,26,statoquotidiano.it,IT,Europe,Southern Europe,Italy,Lazio,Rome,Rome
46.254.34.70,4,29,studiometaengineering.it,IT,Europe,Southern Europe,Italy,Lazio,Rome,Rome
93.95.216.37,4,96,stupormundi.it,IT,Europe,Southern Europe,Italy,Lazio,Rome,Rome
195.231.38.174,4,45,tartarugando.it,IT,Europe,Southern Europe,Italy,Lazio,Rome,Rome
185.81.6.73,4,9,telepace.it,IT,Europe,Southern Europe,Italy,Lazio,Rome,Rome
185.81.1.27,4,60,termemontecatini.it,IT,Europe,Southern Europe,Italy,Lazio,Rome,Rome
185.81.4.38,4,4,tlon.it,IT,Europe,Southern Europe,Italy,Lazio,Rome,Rome
93.95.216.56,4,6,tonite.eu,IT,Europe,Southern Europe,Italy,Lazio,Rome,Rome
95.110.186.60,4,6,tormaresca.it,IT,Europe,Southern Europe,Italy,Lazio,Rome,Rome
185.127.236.35,4,10,toscanaoggi.it,IT,Europe,Southern Europe,Italy,Lazio,Rome,Rome
46.16.90.124,4,8,trapizzino.it,IT,Europe,Southern Europe,Italy,Lazio,Rome,Rome
185.81.1.75,4,10,travelquotidiano.com,IT,Europe,Southern Europe,Italy,Lazio,Rome,Rome
93.95.216.143,4,5,tuscany-agriturismo.it,IT,Europe,Southern Europe,Italy,Lazio,Rome,Rome
46.16.91.125,4,9,tuttocalciatori.net,IT,Europe,Southern Europe,Italy,Lazio,Rome,Rome
185.127.236.30,4,1,tv2000.it,IT,Europe,Southern Europe,Italy,Lazio,Rome,Rome
46.28.4.93,4,6,uccronline.it,IT,Europe,Southern Europe,Italy,Lazio,Rome,Rome
93.95.216.137,4,4,unadonna.it,IT,Europe,Southern Europe,Italy,Lazio,Rome,Rome
93.95.216.161,4,48,uniamo.org,IT,Europe,Southern Europe,Italy,Lazio,Rome,Rome
185.81.6.171,4,15,unicalag.it,IT,Europe,Southern Europe,Italy,Lazio,Rome,Rome
185.81.4.85,4,6,urbanfile.org,IT,Europe,Southern Europe,Italy,Lazio,Rome,Rome
46.254.38.227,4,4,urbanphotoawards.com,IT,Europe,Southern Europe,Italy,Lazio,Rome,Rome
185.81.4.101,4,8,visitrovereto.it,IT,Europe,Southern Europe,Italy,Lazio,Rome,Rome
185.127.236.22,4,1,vitatrentina.it,IT,Europe,Southern Europe,Italy,Lazio,Rome,Rome
46.254.38.33,4,41,viversano.net,IT,Europe,Southern Europe,Italy,Lazio,Rome,Rome
46.28.2.33,4,7,vocedinapoli.it,IT,Europe,Southern Europe,Italy,Lazio,Rome,Rome
185.81.6.118,4,11,welovefur.com,IT,Europe,Southern Europe,Italy,Lazio,Rome,Rome
217.118.241.198,4,6,wfp.org,IT,Europe,Southern Europe,Italy,Lazio,Rome,Rome
93.95.216.107,4,6,women.it,IT,Europe,Southern Europe,Italy,Lazio,Rome,Rome
46.254.38.117,4,42,zeroemission.eu,IT,Europe,Southern Europe,Italy,Lazio,Rome,Rome
185.81.1.161,4,6,zizzi.org,IT,Europe,Southern Europe,Italy,Lazio,Rome,Rome
