reflector_ip,ip_version,offset,description,country_code,region,sub_region,country_name,sub_division_1,sub_division_2,city
213.238.190.20,4,210056,akmesegrup.com,TR,Asia,Western Asia,Turkey,İzmir Province,,Izmir
5.2.84.226,4,3100,akvaryumportali.com,TR,Asia,Western Asia,Turkey,İzmir Province,,Izmir
5.2.80.35,4,2617,alastyr.com,TR,Asia,Western Asia,Turkey,İzmir Province,,Izmir
45.151.250.72,4,1040,anatolianlgs.com,TR,Asia,Western Asia,Turkey,İzmir Province,,Izmir
78.142.208.77,4,-364,aracarizasi.com,TR,Asia,Western Asia,Turkey,İzmir Province,,Izmir
5.2.85.136,4,31,atlasmovers.com.tr,TR,Asia,Western Asia,Turkey,İzmir Province,,Izmir
78.142.208.85,4,305,banabirmasaj.com,TR,Asia,Western Asia,Turkey,İzmir Province,,Izmir
213.238.190.115,4,7,bodrum.bel.tr,TR,Asia,Western Asia,Turkey,İzmir Province,,Izmir
79.171.16.250,4,237,brgk.org.tr,TR,Asia,Western Asia,Turkey,İzmir Province,,Gaziemir
5.2.85.161,4,2677,cagalogluhamami.com.tr,TR,Asia,Western Asia,Turkey,İzmir Province,,Izmir
78.142.208.71,4,-709,cobansut.com,TR,Asia,Western Asia,Turkey,İzmir Province,,Izmir
185.149.101.13,4,854,cultureroutesinturkey.com,TR,Asia,Western Asia,Turkey,İzmir Province,,Izmir
185.149.103.126,4,165420,dijital.link,TR,Asia,Western Asia,Turkey,İzmir Province,,Izmir
78.186.206.121,4,877,DNS Server: 78.186.206.121.static.ttnet.com.tr,TR,Asia,Western Asia,Turkey,İzmir Province,,Bornova
78.189.229.223,4,31598,DNS Server: 78.189.229.223.static.ttnet.com.tr,TR,Asia,Western Asia,Turkey,İzmir Province,,Izmir
81.214.190.74,4,8493,DNS Server: 81.214.190.74.dynamic.ttnet.com.tr,TR,Asia,Western Asia,Turkey,İzmir Province,,Izmir
88.249.166.158,4,12,DNS Server: 88.249.166.158.static.ttnet.com.tr,TR,Asia,Western Asia,Turkey,İzmir Province,,Izmir
5.2.84.81,4,-1822,ellinciyilmete.com,TR,Asia,Western Asia,Turkey,İzmir Province,,Izmir
5.2.85.176,4,65,gencdergi.com,TR,Asia,Western Asia,Turkey,İzmir Province,,Izmir
78.142.211.241,4,119,gezilinki.com,TR,Asia,Western Asia,Turkey,İzmir Province,,Izmir
45.151.251.6,4,1104,haberimolsa.com.tr,TR,Asia,Western Asia,Turkey,İzmir Province,,Izmir
185.8.33.207,4,185875,hidromax.com.tr,TR,Asia,Western Asia,Turkey,İzmir Province,,Izmir
185.8.33.112,4,5,jssm.org,TR,Asia,Western Asia,Turkey,İzmir Province,,Izmir
78.142.208.110,4,997,kayraprefabrik.com.tr,TR,Asia,Western Asia,Turkey,İzmir Province,,Izmir
5.2.85.126,4,20,konaksanotocekici.com,TR,Asia,Western Asia,Turkey,İzmir Province,,Izmir
5.2.84.66,4,63,krallarintavugu.com,TR,Asia,Western Asia,Turkey,İzmir Province,,Izmir
78.142.209.94,4,304,kursara.com,TR,Asia,Western Asia,Turkey,İzmir Province,,Izmir
78.142.208.58,4,447,kwturkiye.com,TR,Asia,Western Asia,Turkey,İzmir Province,,Izmir
5.2.85.131,4,9,maildeposu.com,TR,Asia,Western Asia,Turkey,İzmir Province,,Izmir
78.142.209.222,4,632,mavvo.com.tr,TR,Asia,Western Asia,Turkey,İzmir Province,,Izmir
185.149.103.192,4,835937,medikritik.com,TR,Asia,Western Asia,Turkey,İzmir Province,,Izmir
5.2.84.101,4,5,metinhepyukselen.com,TR,Asia,Western Asia,Turkey,İzmir Province,,Izmir
89.252.141.23,4,262,msreklam.com.tr,TR,Asia,Western Asia,Turkey,İzmir Province,,Izmir
78.142.210.53,4,1068,nesinkoyleri.org,TR,Asia,Western Asia,Turkey,İzmir Province,,Izmir
45.151.250.18,4,1075,nikeoutletstores.org,TR,Asia,Western Asia,Turkey,İzmir Province,,Izmir
185.8.129.233,4,4,offroad.ist,TR,Asia,Western Asia,Turkey,İzmir Province,,Izmir
45.158.12.45,4,-253858,omegletv.tv,TR,Asia,Western Asia,Turkey,İzmir Province,,Izmir
78.142.210.147,4,547,ondernakliyat.gen.tr,TR,Asia,Western Asia,Turkey,İzmir Province,,Izmir
5.2.80.47,4,109,Ookla Speedtest Server 47198: speedtest.alastyr.com,TR,Asia,Western Asia,Turkey,İzmir Province,,Izmir
176.235.86.133,4,353,Ookla Speedtest Server 59020: speed1.yasarnet.xyz,TR,Asia,Western Asia,Turkey,İzmir Province,,Balçova
5.2.84.21,4,103,orjinalkutu.com,TR,Asia,Western Asia,Turkey,İzmir Province,,Izmir
5.2.84.231,4,32,patisaray.org,TR,Asia,Western Asia,Turkey,İzmir Province,,Izmir
78.142.208.142,4,790,pronetnakliyat.com,TR,Asia,Western Asia,Turkey,İzmir Province,,Izmir
213.238.190.244,4,7,qba.com.tr,TR,Asia,Western Asia,Turkey,İzmir Province,,Izmir
78.142.210.229,4,-293,renetextile.com,TR,Asia,Western Asia,Turkey,İzmir Province,,Izmir
185.149.100.87,4,626,ruzgarkarot.com.tr,TR,Asia,Western Asia,Turkey,İzmir Province,,Izmir
5.2.85.141,4,6,tomtomtextiles.com,TR,Asia,Western Asia,Turkey,İzmir Province,,Izmir
78.142.211.32,4,2100957,tripuck.com,TR,Asia,Western Asia,Turkey,İzmir Province,,Izmir
78.142.210.105,4,-214,ttgv.org.tr,TR,Asia,Western Asia,Turkey,İzmir Province,,Izmir
45.151.249.164,4,725,tugcularnakliyat.com,TR,Asia,Western Asia,Turkey,İzmir Province,,Izmir
78.142.209.51,4,203,turuncudepolama.com,TR,Asia,Western Asia,Turkey,İzmir Province,,Izmir
5.2.85.36,4,30,vatangarage.net,TR,Asia,Western Asia,Turkey,İzmir Province,,Izmir
185.8.130.70,4,5,webdizaynizmir.com,TR,Asia,Western Asia,Turkey,İzmir Province,,Izmir
185.139.5.142,4,-36384,xlisans.com,TR,Asia,Western Asia,Turkey,İzmir Province,,
45.158.12.200,4,46,xn--aknmedical-yub.com,TR,Asia,Western Asia,Turkey,İzmir Province,,Izmir
5.2.84.221,4,8,yildirim.net,TR,Asia,Western Asia,Turkey,İzmir Province,,Izmir
78.142.209.112,4,566,zemlak.com,TR,Asia,Western Asia,Turkey,İzmir Province,,Izmir
