reflector_ip,ip_version,offset,description,country_code,region,sub_region,country_name,sub_division_1,sub_division_2,city
192.252.151.31,4,10,aaert.org,US,Americas,Northern America,United States of America,Massachusetts,,Waltham
192.252.157.166,4,5,aafd.org,US,Americas,Northern America,United States of America,Massachusetts,,Waltham
192.252.148.139,4,11,aasbc.com,US,Americas,Northern America,United States of America,Massachusetts,,Waltham
192.252.149.32,4,5,aftersilence.org,US,Americas,Northern America,United States of America,Massachusetts,,Waltham
192.252.151.19,4,6,aleung.com,US,Americas,Northern America,United States of America,Massachusetts,,Waltham
192.252.156.13,4,29,alsd.com,US,Americas,Northern America,United States of America,Massachusetts,,Waltham
192.252.151.134,4,5,americanvisionwindows.com,US,Americas,Northern America,United States of America,Massachusetts,,Waltham
192.252.152.109,4,80,armls.com,US,Americas,Northern America,United States of America,Massachusetts,,Waltham
192.252.144.58,4,14,arthawk.ws,US,Americas,Northern America,United States of America,Massachusetts,,Waltham
192.252.151.22,4,6,awareawakealive.org,US,Americas,Northern America,United States of America,Massachusetts,,Waltham
192.252.152.206,4,4,bbqchamps.com,US,Americas,Northern America,United States of America,Massachusetts,,Waltham
192.252.154.13,4,20,bealecorner.com,US,Americas,Northern America,United States of America,Massachusetts,,Waltham
192.252.144.26,4,72,beaverisland.org,US,Americas,Northern America,United States of America,Massachusetts,,Waltham
192.252.155.157,4,5,bluefront.org,US,Americas,Northern America,United States of America,Massachusetts,,Waltham
192.252.151.35,4,6,broadrippleindy.org,US,Americas,Northern America,United States of America,Massachusetts,,Waltham
192.252.154.71,4,3,brokeinphilly.org,US,Americas,Northern America,United States of America,Massachusetts,,Waltham
192.252.154.149,4,11,bungyjapan.com,US,Americas,Northern America,United States of America,Massachusetts,,Waltham
192.252.156.29,4,42,capmktsreg.org,US,Americas,Northern America,United States of America,Massachusetts,,Waltham
192.252.149.37,4,8,captainforever.com,US,Americas,Northern America,United States of America,Massachusetts,,Waltham
192.252.144.52,4,16,carbonafrica.co.ke,US,Americas,Northern America,United States of America,Massachusetts,,Waltham
192.252.144.11,4,22,chestnutsquare.org,US,Americas,Northern America,United States of America,Massachusetts,,Waltham
192.252.154.247,4,3,childneurologysociety.org,US,Americas,Northern America,United States of America,Massachusetts,,Waltham
192.252.157.101,4,7,christiancounseling.com,US,Americas,Northern America,United States of America,Massachusetts,,Waltham
192.252.144.18,4,32,cognilytica.com,US,Americas,Northern America,United States of America,Massachusetts,,Waltham
192.252.144.17,4,9,conscienhealth.org,US,Americas,Northern America,United States of America,Massachusetts,,Waltham
192.252.146.12,4,2,crescotimes.com,US,Americas,Northern America,United States of America,Massachusetts,,Waltham
192.252.144.34,4,4,crispywaffle.com,US,Americas,Northern America,United States of America,Massachusetts,,Waltham
192.252.156.55,4,8,curtisinstruments.com,US,Americas,Northern America,United States of America,Massachusetts,,Waltham
192.252.149.25,4,7,designishistory.com,US,Americas,Northern America,United States of America,Massachusetts,,Waltham
50.170.46.89,4,49520,DNS Server: c-50-170-46-89.unallocated.comcastbusiness.net,US,Americas,Northern America,United States of America,Massachusetts,,Waltham
192.252.156.16,4,5,dognews.com,US,Americas,Northern America,United States of America,Massachusetts,,Waltham
192.252.154.18,4,24,dralegal.org,US,Americas,Northern America,United States of America,Massachusetts,,Waltham
192.252.154.51,4,4,ecowavepower.com,US,Americas,Northern America,United States of America,Massachusetts,,Waltham
192.252.156.21,4,2,eddiestobart.com,US,Americas,Northern America,United States of America,Massachusetts,,Waltham
192.252.144.193,4,6,empirecenter.org,US,Americas,Northern America,United States of America,Massachusetts,,Waltham
192.252.144.27,4,35,entropyhouse.com,US,Americas,Northern America,United States of America,Massachusetts,,Waltham
192.252.157.137,4,2,europeactive.eu,US,Americas,Northern America,United States of America,Massachusetts,,Waltham
192.252.157.74,4,20,evidencebasedmentoring.org,US,Americas,Northern America,United States of America,Massachusetts,,Waltham
192.252.144.10,4,20,ey-photography.com,US,Americas,Northern America,United States of America,Massachusetts,,Waltham
192.252.151.58,4,8,fabricalaaurora.com,US,Americas,Northern America,United States of America,Massachusetts,,Waltham
192.252.144.12,4,4,farbs.org,US,Americas,Northern America,United States of America,Massachusetts,,Waltham
192.252.156.44,4,35,fatfreevegan.com,US,Americas,Northern America,United States of America,Massachusetts,,Waltham
192.252.147.41,4,4,featheredpipe.com,US,Americas,Northern America,United States of America,Massachusetts,,Waltham
192.252.154.201,4,3,floridalegaladvice.com,US,Americas,Northern America,United States of America,Massachusetts,,Waltham
192.252.156.18,4,11,fogus.me,US,Americas,Northern America,United States of America,Massachusetts,,Waltham
192.252.144.37,4,56,foodallergyawareness.org,US,Americas,Northern America,United States of America,Massachusetts,,Waltham
192.252.146.55,4,13,foodelever.com,US,Americas,Northern America,United States of America,Massachusetts,,Waltham
192.252.151.29,4,19,foresthills.edu,US,Americas,Northern America,United States of America,Massachusetts,,Waltham
192.252.144.231,4,6,futurechurch.org,US,Americas,Northern America,United States of America,Massachusetts,,Waltham
192.252.154.117,4,15,gamil.com,US,Americas,Northern America,United States of America,Massachusetts,,Waltham
192.252.156.12,4,2,gcv.org,US,Americas,Northern America,United States of America,Massachusetts,,Waltham
192.252.149.33,4,71,geneyang.com,US,Americas,Northern America,United States of America,Massachusetts,,Waltham
192.252.149.13,4,13,halexandria.org,US,Americas,Northern America,United States of America,Massachusetts,,Waltham
192.252.154.80,4,16,harrispizza.com,US,Americas,Northern America,United States of America,Massachusetts,,Waltham
192.252.146.25,4,10,harvesth2o.com,US,Americas,Northern America,United States of America,Massachusetts,,Waltham
192.252.148.233,4,17,hempbasics.com,US,Americas,Northern America,United States of America,Massachusetts,,Waltham
192.252.146.30,4,12,hiatuskaiyote.com,US,Americas,Northern America,United States of America,Massachusetts,,Waltham
192.252.144.192,4,3,highlandcountypress.com,US,Americas,Northern America,United States of America,Massachusetts,,Waltham
192.252.144.14,4,43,horse-races.net,US,Americas,Northern America,United States of America,Massachusetts,,Waltham
192.252.156.216,4,5,huayuqiao.org,US,Americas,Northern America,United States of America,Massachusetts,,Waltham
192.252.156.20,4,12,ideaworkscompany.com,US,Americas,Northern America,United States of America,Massachusetts,,Waltham
192.252.149.27,4,33,industrialchassisinc.com,US,Americas,Northern America,United States of America,Massachusetts,,Waltham
192.252.149.22,4,5,instinctdogtraining.com,US,Americas,Northern America,United States of America,Massachusetts,,Waltham
192.252.154.14,4,4,integrativeonc.org,US,Americas,Northern America,United States of America,Massachusetts,,Waltham
192.252.151.69,4,15,itdconsulting.net,US,Americas,Northern America,United States of America,Massachusetts,,Waltham
192.252.156.28,4,23,jantarmantar.org,US,Americas,Northern America,United States of America,Massachusetts,,Waltham
192.252.146.46,4,3,jca-t.com,US,Americas,Northern America,United States of America,Massachusetts,,Waltham
192.252.144.32,4,15,jenkinssoftware.com,US,Americas,Northern America,United States of America,Massachusetts,,Waltham
192.252.146.63,4,19,jewishbible.org,US,Americas,Northern America,United States of America,Massachusetts,,Waltham
192.252.151.14,4,2,jimena.org,US,Americas,Northern America,United States of America,Massachusetts,,Waltham
192.252.144.25,4,6,jimshooter.com,US,Americas,Northern America,United States of America,Massachusetts,,Waltham
192.252.157.59,4,4,joedolson.com,US,Americas,Northern America,United States of America,Massachusetts,,Waltham
192.252.154.23,4,5,johnhagel.com,US,Americas,Northern America,United States of America,Massachusetts,,Waltham
192.252.146.23,4,4,jokewallpaper.com,US,Americas,Northern America,United States of America,Massachusetts,,Waltham
192.252.149.21,4,22,juliandibbell.com,US,Americas,Northern America,United States of America,Massachusetts,,Waltham
192.252.153.236,4,3,kapronasia.com,US,Americas,Northern America,United States of America,Massachusetts,,Waltham
192.252.144.16,4,81,keithschwarz.com,US,Americas,Northern America,United States of America,Massachusetts,,Waltham
192.252.146.29,4,3,koirestaurant.com,US,Americas,Northern America,United States of America,Massachusetts,,Waltham
192.252.156.27,4,31,levick.com,US,Americas,Northern America,United States of America,Massachusetts,,Waltham
192.252.154.11,4,7,lookaheadamerica.org,US,Americas,Northern America,United States of America,Massachusetts,,Waltham
192.252.146.11,4,32,ma-yitheatre.org,US,Americas,Northern America,United States of America,Massachusetts,,Waltham
192.252.151.201,4,0,marinhhs.org,US,Americas,Northern America,United States of America,Massachusetts,,Waltham
192.252.151.37,4,2,maryhillmuseum.org,US,Americas,Northern America,United States of America,Massachusetts,,Waltham
192.252.151.11,4,4,meskerparkzoo.com,US,Americas,Northern America,United States of America,Massachusetts,,Waltham
192.252.151.26,4,2,metalroofing.com,US,Americas,Northern America,United States of America,Massachusetts,,Waltham
192.252.146.165,4,11,middleburgheights.com,US,Americas,Northern America,United States of America,Massachusetts,,Waltham
192.252.144.20,4,3,missyhiggins.com,US,Americas,Northern America,United States of America,Massachusetts,,Waltham
192.252.154.21,4,74,misterguitar.us,US,Americas,Northern America,United States of America,Massachusetts,,Waltham
192.252.150.230,4,3,mitchellsicecream.com,US,Americas,Northern America,United States of America,Massachusetts,,Waltham
192.252.149.12,4,26,mondodomani.org,US,Americas,Northern America,United States of America,Massachusetts,,Waltham
192.252.157.187,4,2,mountainlodgesofperu.com,US,Americas,Northern America,United States of America,Massachusetts,,Waltham
192.252.146.51,4,7,mozaic-bali.com,US,Americas,Northern America,United States of America,Massachusetts,,Waltham
192.252.154.30,4,68,museumoffamilyhistory.com,US,Americas,Northern America,United States of America,Massachusetts,,Waltham
192.252.149.17,4,14,mythfolklore.net,US,Americas,Northern America,United States of America,Massachusetts,,Waltham
192.252.144.22,4,8,newdealdistillery.com,US,Americas,Northern America,United States of America,Massachusetts,,Waltham
192.252.144.29,4,4,newnetherlandinstitute.org,US,Americas,Northern America,United States of America,Massachusetts,,Waltham
192.252.146.16,4,9,newpraguetimes.com,US,Americas,Northern America,United States of America,Massachusetts,,Waltham
192.252.151.23,4,4,nhgazette.com,US,Americas,Northern America,United States of America,Massachusetts,,Waltham
192.252.151.30,4,27,nicolock.com,US,Americas,Northern America,United States of America,Massachusetts,,Waltham
192.252.156.200,4,2,oafe.net,US,Americas,Northern America,United States of America,Massachusetts,,Waltham
192.252.154.22,4,22,oeffa.org,US,Americas,Northern America,United States of America,Massachusetts,,Waltham
192.252.157.80,4,15,oldgas.com,US,Americas,Northern America,United States of America,Massachusetts,,Waltham
192.252.156.11,4,16,omahadailyrecord.com,US,Americas,Northern America,United States of America,Massachusetts,,Waltham
192.252.145.211,4,2,oregonvma.org,US,Americas,Northern America,United States of America,Massachusetts,,Waltham
192.252.149.18,4,3,otarubeer.com,US,Americas,Northern America,United States of America,Massachusetts,,Waltham
192.252.156.127,4,71,otbxair.com,US,Americas,Northern America,United States of America,Massachusetts,,Waltham
192.252.146.15,4,24,otherhand.org,US,Americas,Northern America,United States of America,Massachusetts,,Waltham
192.252.156.10,4,4,over-land.com,US,Americas,Northern America,United States of America,Massachusetts,,Waltham
192.252.156.31,4,0,paariusa.org,US,Americas,Northern America,United States of America,Massachusetts,,Waltham
192.252.151.191,4,6,parliamentofreligions.org,US,Americas,Northern America,United States of America,Massachusetts,,Waltham
192.252.157.169,4,4,pbmchealth.org,US,Americas,Northern America,United States of America,Massachusetts,,Waltham
192.252.146.33,4,46,peoi.org,US,Americas,Northern America,United States of America,Massachusetts,,Waltham
192.252.154.31,4,82,presspublications.com,US,Americas,Northern America,United States of America,Massachusetts,,Waltham
192.252.149.26,4,9,puddlespityparty.com,US,Americas,Northern America,United States of America,Massachusetts,,Waltham
192.252.148.187,4,14,putnamcountytn.gov,US,Americas,Northern America,United States of America,Massachusetts,,Waltham
192.252.146.248,4,2,qovf.org,US,Americas,Northern America,United States of America,Massachusetts,,Waltham
192.252.153.226,4,3,quanex.com,US,Americas,Northern America,United States of America,Massachusetts,,Waltham
192.252.151.32,4,2,quantpsy.org,US,Americas,Northern America,United States of America,Massachusetts,,Waltham
192.252.145.120,4,9,quantumbalancing.com,US,Americas,Northern America,United States of America,Massachusetts,,Waltham
192.252.149.11,4,17,rcda.org,US,Americas,Northern America,United States of America,Massachusetts,,Waltham
192.252.148.172,4,13,realtaxtools.com,US,Americas,Northern America,United States of America,Massachusetts,,Waltham
192.252.144.35,4,13,reggaeontheriver.com,US,Americas,Northern America,United States of America,Massachusetts,,Waltham
192.252.151.24,4,65,reptilesupershow.com,US,Americas,Northern America,United States of America,Massachusetts,,Waltham
192.252.156.23,4,74,resumesfromabove.com,US,Americas,Northern America,United States of America,Massachusetts,,Waltham
192.252.144.86,4,13,ridecarts.com,US,Americas,Northern America,United States of America,Massachusetts,,Waltham
192.252.149.20,4,4,rocklandworldradio.com,US,Americas,Northern America,United States of America,Massachusetts,,Waltham
192.252.144.242,4,16,rong-chang.com,US,Americas,Northern America,United States of America,Massachusetts,,Waltham
192.252.156.33,4,46,rotterdamny.org,US,Americas,Northern America,United States of America,Massachusetts,,Waltham
192.252.144.15,4,2,safecom.org.au,US,Americas,Northern America,United States of America,Massachusetts,,Waltham
192.252.157.62,4,2,saimm.co.za,US,Americas,Northern America,United States of America,Massachusetts,,Waltham
192.252.144.30,4,36,samaritansfeet.org,US,Americas,Northern America,United States of America,Massachusetts,,Waltham
192.252.154.163,4,37,samoanews.com,US,Americas,Northern America,United States of America,Massachusetts,,Waltham
192.252.157.47,4,12,scangauge.com,US,Americas,Northern America,United States of America,Massachusetts,,Waltham
192.252.152.208,4,22,seethroughny.net,US,Americas,Northern America,United States of America,Massachusetts,,Waltham
192.252.144.13,4,11,sephardicgen.com,US,Americas,Northern America,United States of America,Massachusetts,,Waltham
192.252.144.66,4,2,shanghaikiteboarding.com,US,Americas,Northern America,United States of America,Massachusetts,,Waltham
192.252.150.253,4,6,sharkattackfile.net,US,Americas,Northern America,United States of America,Massachusetts,,Waltham
192.252.154.213,4,3,shirtoid.com,US,Americas,Northern America,United States of America,Massachusetts,,Waltham
192.252.149.29,4,0,sjrnews.com,US,Americas,Northern America,United States of America,Massachusetts,,Waltham
192.252.151.38,4,28,skytopia.com,US,Americas,Northern America,United States of America,Massachusetts,,Waltham
192.252.146.19,4,5,skytruth.org,US,Americas,Northern America,United States of America,Massachusetts,,Waltham
192.252.151.12,4,18,slinging.org,US,Americas,Northern America,United States of America,Massachusetts,,Waltham
192.252.144.206,4,1,smdm.org,US,Americas,Northern America,United States of America,Massachusetts,,Waltham
192.252.149.54,4,6,smftricks.com,US,Americas,Northern America,United States of America,Massachusetts,,Waltham
192.252.151.167,4,3,smithcountyinsider.com,US,Americas,Northern America,United States of America,Massachusetts,,Waltham
192.252.158.237,4,56,soapguild.org,US,Americas,Northern America,United States of America,Massachusetts,,Waltham
192.252.149.41,4,34,solen.info,US,Americas,Northern America,United States of America,Massachusetts,,Waltham
192.252.153.240,4,31,spcacincinnati.org,US,Americas,Northern America,United States of America,Massachusetts,,Waltham
192.252.149.30,4,3,spencerdailyreporter.com,US,Americas,Northern America,United States of America,Massachusetts,,Waltham
192.252.154.24,4,20,standupeconomist.com,US,Americas,Northern America,United States of America,Massachusetts,,Waltham
192.252.146.202,4,12,stellarworks.com,US,Americas,Northern America,United States of America,Massachusetts,,Waltham
192.252.146.31,4,2,supermegamonkey.net,US,Americas,Northern America,United States of America,Massachusetts,,Waltham
192.252.159.138,4,30,sureserver.com,US,Americas,Northern America,United States of America,Massachusetts,,Waltham
192.252.144.21,4,3,swaintech.com,US,Americas,Northern America,United States of America,Massachusetts,,Waltham
192.252.149.24,4,2,szub.net,US,Americas,Northern America,United States of America,Massachusetts,,Waltham
38.124.1.34,4,6,talkleft.com,US,Americas,Northern America,United States of America,Massachusetts,,Waltham
192.252.151.39,4,45,telcontar.net,US,Americas,Northern America,United States of America,Massachusetts,,Waltham
192.252.156.210,4,11,templatesjungle.com,US,Americas,Northern America,United States of America,Massachusetts,,Waltham
192.252.146.26,4,3,thebigsort.com,US,Americas,Northern America,United States of America,Massachusetts,,Waltham
192.252.144.36,4,3,thecityofbeverly.com,US,Americas,Northern America,United States of America,Massachusetts,,Waltham
192.252.156.30,4,4,thefilmyap.com,US,Americas,Northern America,United States of America,Massachusetts,,Waltham
192.252.144.23,4,64,thekaca.org,US,Americas,Northern America,United States of America,Massachusetts,,Waltham
192.252.146.10,4,12,thelaa.org,US,Americas,Northern America,United States of America,Massachusetts,,Waltham
192.252.156.19,4,24,themontrealreview.com,US,Americas,Northern America,United States of America,Massachusetts,,Waltham
192.252.154.20,4,9,therookgroup.com,US,Americas,Northern America,United States of America,Massachusetts,,Waltham
192.252.151.16,4,10,thestonenyc.com,US,Americas,Northern America,United States of America,Massachusetts,,Waltham
192.252.144.38,4,9,thinkfirst.org,US,Americas,Northern America,United States of America,Massachusetts,,Waltham
192.252.144.19,4,17,tim-mann.org,US,Americas,Northern America,United States of America,Massachusetts,,Waltham
192.252.156.230,4,3,tntrafficsafety.org,US,Americas,Northern America,United States of America,Massachusetts,,Waltham
192.252.144.31,4,13,tomdavenport.com,US,Americas,Northern America,United States of America,Massachusetts,,Waltham
192.252.149.36,4,41,travelindependent.info,US,Americas,Northern America,United States of America,Massachusetts,,Waltham
192.252.146.13,4,8,tribecatrib.com,US,Americas,Northern America,United States of America,Massachusetts,,Waltham
192.252.146.32,4,39,tristateairport.com,US,Americas,Northern America,United States of America,Massachusetts,,Waltham
192.252.156.17,4,1,tropicalfruitforum.com,US,Americas,Northern America,United States of America,Massachusetts,,Waltham
192.252.156.121,4,2,truthaboutnursing.org,US,Americas,Northern America,United States of America,Massachusetts,,Waltham
192.252.157.164,4,2,tsbdc.org,US,Americas,Northern America,United States of America,Massachusetts,,Waltham
192.252.156.25,4,10,tucsonpresidio.com,US,Americas,Northern America,United States of America,Massachusetts,,Waltham
192.252.157.78,4,1,turksandcaicostourism.com,US,Americas,Northern America,United States of America,Massachusetts,,Waltham
192.252.156.194,4,7,twistedsister.com,US,Americas,Northern America,United States of America,Massachusetts,,Waltham
192.252.154.76,4,3,unitedwaysuncoast.org,US,Americas,Northern America,United States of America,Massachusetts,,Waltham
192.252.154.47,4,10,usbfever.com,US,Americas,Northern America,United States of America,Massachusetts,,Waltham
192.252.148.186,4,12,usconverters.com,US,Americas,Northern America,United States of America,Massachusetts,,Waltham
192.252.151.10,4,6,usfashionindustry.com,US,Americas,Northern America,United States of America,Massachusetts,,Waltham
192.252.144.24,4,24,veteransaidbenefit.org,US,Americas,Northern America,United States of America,Massachusetts,,Waltham
192.252.151.199,4,28,visualedgeit.com,US,Americas,Northern America,United States of America,Massachusetts,,Waltham
192.252.149.31,4,32,volunteerinternational.org,US,Americas,Northern America,United States of America,Massachusetts,,Waltham
192.252.149.16,4,8,wallacejnichols.org,US,Americas,Northern America,United States of America,Massachusetts,,Waltham
192.252.146.28,4,2,waukonstandard.com,US,Americas,Northern America,United States of America,Massachusetts,,Waltham
192.252.156.168,4,2,westernite.org,US,Americas,Northern America,United States of America,Massachusetts,,Waltham
192.252.149.23,4,3,wesupporttrump.org,US,Americas,Northern America,United States of America,Massachusetts,,Waltham
192.252.146.24,4,1,wia.org,US,Americas,Northern America,United States of America,Massachusetts,,Waltham
192.252.154.32,4,5,wiredchemist.com,US,Americas,Northern America,United States of America,Massachusetts,,Waltham
192.252.151.15,4,16,wisconsinacademy.org,US,Americas,Northern America,United States of America,Massachusetts,,Waltham
192.252.149.10,4,0,woodheat.org,US,Americas,Northern America,United States of America,Massachusetts,,Waltham
192.252.149.15,4,4,worldcentric.com,US,Americas,Northern America,United States of America,Massachusetts,,Waltham
192.252.144.28,4,3,worldcentric.org,US,Americas,Northern America,United States of America,Massachusetts,,Waltham
192.252.157.49,4,6,wwoofjapan.com,US,Americas,Northern America,United States of America,Massachusetts,,Waltham
192.252.154.28,4,2,xmems.com,US,Americas,Northern America,United States of America,Massachusetts,,Waltham
192.252.154.25,4,3,yeagerairport.com,US,Americas,Northern America,United States of America,Massachusetts,,Waltham
192.252.149.19,4,17,zahavrestaurant.com,US,Americas,Northern America,United States of America,Massachusetts,,Waltham
192.252.154.16,4,3,zweigmedia.com,US,Americas,Northern America,United States of America,Massachusetts,,Waltham
