reflector_ip,ip_version,offset,description,country_code,region,sub_region,country_name,sub_division_1,sub_division_2,city
93.127.217.25,4,15,aau.edu.jo,US,Americas,Northern America,United States of America,Massachusetts,,Boston
167.88.37.49,4,19,afrasiabanjum.com,US,Americas,Northern America,United States of America,Massachusetts,,Boston
217.15.171.119,4,5,alas-la.org,US,Americas,Northern America,United States of America,Massachusetts,,Boston
23.38.112.65,4,1,americanforcestravel.com,US,Americas,Northern America,United States of America,Massachusetts,,Boston
38.242.7.89,4,6,anticipationsf.ca,US,Americas,Northern America,United States of America,Massachusetts,,Boston
82.197.83.228,4,15,ardmoremusichall.com,US,Americas,Northern America,United States of America,Massachusetts,,Boston
82.197.86.179,4,3,arshavidya.org,US,Americas,Northern America,United States of America,Massachusetts,,Boston
157.173.208.97,4,15,arusi.in,US,Americas,Northern America,United States of America,Massachusetts,,Boston
194.164.67.105,4,4,atinkanews.net,US,Americas,Northern America,United States of America,Massachusetts,,Boston
88.223.84.215,4,5,baseballloveclub.com,US,Americas,Northern America,United States of America,Massachusetts,,Boston
157.173.214.248,4,4,bayaninstitute.net,US,Americas,Northern America,United States of America,Massachusetts,,Boston
147.79.76.11,4,3,beargrylls.com,US,Americas,Northern America,United States of America,Massachusetts,,Boston
217.15.171.85,4,2,bmxbling.com,US,Americas,Northern America,United States of America,Massachusetts,,Boston
82.197.83.212,4,13,bombercommandmuseum.ca,US,Americas,Northern America,United States of America,Massachusetts,,Boston
82.197.80.78,4,8,boxofficetheory.com,US,Americas,Northern America,United States of America,Massachusetts,,Boston
157.173.209.43,4,35,business-today.net,US,Americas,Northern America,United States of America,Massachusetts,,Boston
82.197.83.59,4,3,buybabyjeeteronline.com,US,Americas,Northern America,United States of America,Massachusetts,,Boston
147.79.73.38,4,24,callmefred.com,US,Americas,Northern America,United States of America,Massachusetts,,Boston
157.173.209.61,4,5,capripackages.com.pk,US,Americas,Northern America,United States of America,Massachusetts,,Boston
88.223.82.210,4,4,cdltmds.com,US,Americas,Northern America,United States of America,Massachusetts,,Boston
82.197.80.8,4,6,cenforce200.us,US,Americas,Northern America,United States of America,Massachusetts,,Boston
194.164.64.66,4,40,centsai.com,US,Americas,Northern America,United States of America,Massachusetts,,Boston
194.164.67.80,4,6,circeinstitute.org,US,Americas,Northern America,United States of America,Massachusetts,,Boston
157.173.214.87,4,5,clinicaveterinariakiron.com,US,Americas,Northern America,United States of America,Massachusetts,,Boston
157.173.209.210,4,3,coolnsmart.com,US,Americas,Northern America,United States of America,Massachusetts,,Boston
147.79.73.88,4,3,cppboxes.com,US,Americas,Northern America,United States of America,Massachusetts,,Boston
157.173.208.73,4,5,cryptoshoppingstore.com,US,Americas,Northern America,United States of America,Massachusetts,,Boston
88.223.84.50,4,4,diamondairbar.com,US,Americas,Northern America,United States of America,Massachusetts,,Boston
23.32.175.181,4,13,dni.gov,US,Americas,Northern America,United States of America,Massachusetts,,Boston
71.235.255.179,4,6,DNS Server: c-71-235-255-179.hsd1.ma.comcast.net,US,Americas,Northern America,United States of America,Massachusetts,,Boston
194.164.71.252,4,3,doctorpuff.com,US,Americas,Northern America,United States of America,Massachusetts,,Boston
217.15.174.179,4,13,duino4projects.com,US,Americas,Northern America,United States of America,Massachusetts,,Boston
157.173.208.251,4,4,elitevitalitypills.com,US,Americas,Northern America,United States of America,Massachusetts,,Boston
157.173.208.12,4,5,espotting.com,US,Americas,Northern America,United States of America,Massachusetts,,Boston
157.173.208.125,4,19,esquizofreniabrelaspuertas.com,US,Americas,Northern America,United States of America,Massachusetts,,Boston
194.164.71.131,4,4,ezrsgold.com,US,Americas,Northern America,United States of America,Massachusetts,,Boston
157.173.208.63,4,3,fact-files.com,US,Americas,Northern America,United States of America,Massachusetts,,Boston
167.88.37.34,4,4,fairobserver.com,US,Americas,Northern America,United States of America,Massachusetts,,Boston
88.223.81.74,4,40,fashionotography.com,US,Americas,Northern America,United States of America,Massachusetts,,Boston
157.173.215.247,4,20,filmifeed.com,US,Americas,Northern America,United States of America,Massachusetts,,Boston
88.223.80.64,4,4,finetoshine.com,US,Americas,Northern America,United States of America,Massachusetts,,Boston
157.173.208.205,4,13,fitbreathing.com,US,Americas,Northern America,United States of America,Massachusetts,,Boston
157.173.209.7,4,24,flaremagazine.co.uk,US,Americas,Northern America,United States of America,Massachusetts,,Boston
194.164.64.143,4,36,freightercruises.com,US,Americas,Northern America,United States of America,Massachusetts,,Boston
82.197.80.196,4,3,fryd2gramdisposable.com,US,Americas,Northern America,United States of America,Massachusetts,,Boston
82.197.85.6,4,19,funsivly.com,US,Americas,Northern America,United States of America,Massachusetts,,Boston
157.173.214.65,4,15,gadsdenmessenger.com,US,Americas,Northern America,United States of America,Massachusetts,,Boston
194.164.64.124,4,12,gamesbad.com,US,Americas,Northern America,United States of America,Massachusetts,,Boston
82.197.80.85,4,20,glamorousfrenchbulldogs.com,US,Americas,Northern America,United States of America,Massachusetts,,Boston
147.79.73.104,4,26,greatlowcarb.com,US,Americas,Northern America,United States of America,Massachusetts,,Boston
157.173.215.127,4,3,gtarestoration.com,US,Americas,Northern America,United States of America,Massachusetts,,Boston
88.223.83.250,4,3,gyrus.com,US,Americas,Northern America,United States of America,Massachusetts,,Boston
88.223.85.119,4,22,hatsoffpet.shop,US,Americas,Northern America,United States of America,Massachusetts,,Boston
82.197.80.116,4,3,heartandsoulhomeschooling.com,US,Americas,Northern America,United States of America,Massachusetts,,Boston
88.223.84.217,4,2,hempfoundation.net,US,Americas,Northern America,United States of America,Massachusetts,,Boston
69.166.9.169,4,1,hinghamanchor.com,US,Americas,Northern America,United States of America,Massachusetts,,Boston
82.197.80.190,4,40,homeseer.com,US,Americas,Northern America,United States of America,Massachusetts,,Boston
82.197.80.1,4,-2,howeleryoon.com,US,Americas,Northern America,United States of America,Massachusetts,,Boston
217.15.173.114,4,3,hoydiariodelmagdalena.com.co,US,Americas,Northern America,United States of America,Massachusetts,,Boston
88.223.84.74,4,0,huyenthoaibd.com,US,Americas,Northern America,United States of America,Massachusetts,,Boston
157.173.209.223,4,-1,hwkn.com,US,Americas,Northern America,United States of America,Massachusetts,,Boston
82.197.80.15,4,59,indone-sia.com,US,Americas,Northern America,United States of America,Massachusetts,,Boston
157.173.209.29,4,76,indysb.org,US,Americas,Northern America,United States of America,Massachusetts,,Boston
88.223.85.214,4,3,inuidea.com,US,Americas,Northern America,United States of America,Massachusetts,,Boston
82.197.87.42,4,16,istitutomarangonimiami.com,US,Americas,Northern America,United States of America,Massachusetts,,Boston
157.173.208.23,4,25,janeclairdental.com,US,Americas,Northern America,United States of America,Massachusetts,,Boston
82.197.83.199,4,6,jcdfitness.com,US,Americas,Northern America,United States of America,Massachusetts,,Boston
157.173.208.243,4,18,jewelsadvisor.com,US,Americas,Northern America,United States of America,Massachusetts,,Boston
88.223.83.38,4,4,justamericanjackets.com,US,Americas,Northern America,United States of America,Massachusetts,,Boston
217.15.172.168,4,3,justcrackinterview.com,US,Americas,Northern America,United States of America,Massachusetts,,Boston
157.173.208.44,4,6,k2spices.shop,US,Americas,Northern America,United States of America,Massachusetts,,Boston
217.15.172.182,4,50,kalaholdings.com,US,Americas,Northern America,United States of America,Massachusetts,,Boston
82.197.80.202,4,45,kanyewestmerchandise.net,US,Americas,Northern America,United States of America,Massachusetts,,Boston
145.223.122.14,4,4,kasapafmonline.com,US,Americas,Northern America,United States of America,Massachusetts,,Boston
23.25.224.129,4,60,kashrut.com,US,Americas,Northern America,United States of America,Massachusetts,,Boston
23.32.168.110,4,86,katespade.jp,US,Americas,Northern America,United States of America,Massachusetts,,Boston
167.88.36.38,4,2,kiwaradio.com,US,Americas,Northern America,United States of America,Massachusetts,,Boston
88.223.84.197,4,3,kizi10.org,US,Americas,Northern America,United States of America,Massachusetts,,Boston
157.173.209.200,4,4,krajee.com,US,Americas,Northern America,United States of America,Massachusetts,,Boston
82.197.84.175,4,15,larazon.co,US,Americas,Northern America,United States of America,Massachusetts,,Boston
194.164.64.180,4,3,linkulartoto.com,US,Americas,Northern America,United States of America,Massachusetts,,Boston
217.15.168.63,4,4,linkworld.us,US,Americas,Northern America,United States of America,Massachusetts,,Boston
184.25.148.35,4,21,livewellsd.org,US,Americas,Northern America,United States of America,Massachusetts,,Boston
184.25.148.16,4,20,livewellsd.org,US,Americas,Northern America,United States of America,Massachusetts,,Boston
82.197.80.174,4,4,mandako.com,US,Americas,Northern America,United States of America,Massachusetts,,Boston
23.32.173.76,4,92,mandap.com,US,Americas,Northern America,United States of America,Massachusetts,,Boston
147.79.73.162,4,25,mcdonaldworley.com,US,Americas,Northern America,United States of America,Massachusetts,,Boston
157.173.208.197,4,4,mclub168.live,US,Americas,Northern America,United States of America,Massachusetts,,Boston
129.10.231.60,4,68563,meddle.mobi,US,Americas,Northern America,United States of America,Massachusetts,,Boston
157.173.208.45,4,17,megatechammunution.com,US,Americas,Northern America,United States of America,Massachusetts,,Boston
147.79.73.203,4,3,melbournecashforcarz.com.au,US,Americas,Northern America,United States of America,Massachusetts,,Boston
82.197.83.93,4,4,memorex.com,US,Americas,Northern America,United States of America,Massachusetts,,Boston
82.112.251.93,4,24,montessori.club,US,Americas,Northern America,United States of America,Massachusetts,,Boston
82.197.80.128,4,15,mosaicroofingcompany.com,US,Americas,Northern America,United States of America,Massachusetts,,Boston
194.164.64.178,4,198,multigunshop.com,US,Americas,Northern America,United States of America,Massachusetts,,Boston
194.164.64.43,4,19,mydairy.ae,US,Americas,Northern America,United States of America,Massachusetts,,Boston
157.173.210.88,4,29,myfarewelling.com,US,Americas,Northern America,United States of America,Massachusetts,,Boston
82.197.83.82,4,14,myivdoctors.com,US,Americas,Northern America,United States of America,Massachusetts,,Boston
23.38.112.81,4,3,navylifepnw.com,US,Americas,Northern America,United States of America,Massachusetts,,Boston
23.38.112.42,4,3,navylifepnw.com,US,Americas,Northern America,United States of America,Massachusetts,,Boston
23.38.112.18,4,0,navylifesw.com,US,Americas,Northern America,United States of America,Massachusetts,,Boston
23.38.112.25,4,-1,navylifesw.com,US,Americas,Northern America,United States of America,Massachusetts,,Boston
167.88.37.21,4,3,nbs24.org,US,Americas,Northern America,United States of America,Massachusetts,,Boston
151.101.118.133,4,6,nesfp.org,US,Americas,Northern America,United States of America,Massachusetts,,Boston
157.173.214.147,4,5,newssurveyor.com,US,Americas,Northern America,United States of America,Massachusetts,,Boston
194.164.65.187,4,3,nikohealth.com,US,Americas,Northern America,United States of America,Massachusetts,,Boston
88.223.86.109,4,2,nimbus.ca,US,Americas,Northern America,United States of America,Massachusetts,,Boston
82.112.251.98,4,18,officialfryd.com,US,Americas,Northern America,United States of America,Massachusetts,,Boston
82.197.83.39,4,3,osakatonic.site,US,Americas,Northern America,United States of America,Massachusetts,,Boston
23.37.6.9,4,1,oswalmatrimony.com,US,Americas,Northern America,United States of America,Massachusetts,,Boston
82.197.80.94,4,3,otr.com,US,Americas,Northern America,United States of America,Massachusetts,,Boston
82.197.80.165,4,30,pcwebopedia.com,US,Americas,Northern America,United States of America,Massachusetts,,Boston
194.164.64.209,4,24,pizza-tycoon.com,US,Americas,Northern America,United States of America,Massachusetts,,Boston
82.197.83.186,4,9,playbestgames.online,US,Americas,Northern America,United States of America,Massachusetts,,Boston
82.197.80.17,4,22,polkadotshroomchocolatebar.com,US,Americas,Northern America,United States of America,Massachusetts,,Boston
82.197.80.186,4,40,primarycaremedstore.com,US,Americas,Northern America,United States of America,Massachusetts,,Boston
194.164.64.103,4,23,prodronessupply.com,US,Americas,Northern America,United States of America,Massachusetts,,Boston
194.164.64.95,4,27,psychedelicsdistro.com,US,Americas,Northern America,United States of America,Massachusetts,,Boston
134.174.140.86,4,26578,pymolwiki.org,US,Americas,Northern America,United States of America,Massachusetts,,Boston
82.197.83.28,4,2,qnapandit.com,US,Americas,Northern America,United States of America,Massachusetts,,Boston
217.15.170.187,4,9,quickbookintegration.com,US,Americas,Northern America,United States of America,Massachusetts,,Boston
157.173.208.248,4,10,quirksandtwists.com,US,Americas,Northern America,United States of America,Massachusetts,,Boston
82.197.84.69,4,8,quotesautoinsurance.org,US,Americas,Northern America,United States of America,Massachusetts,,Boston
157.173.209.52,4,143,radicalfire.com,US,Americas,Northern America,United States of America,Massachusetts,,Boston
69.166.9.234,4,1005,raisedrightpets.com,US,Americas,Northern America,United States of America,Massachusetts,,Boston
82.197.80.204,4,26,ralphlaurensale-clearance.me.uk,US,Americas,Northern America,United States of America,Massachusetts,,Boston
82.197.87.232,4,60,rates.id,US,Americas,Northern America,United States of America,Massachusetts,,Boston
93.127.217.116,4,44,rehs.com,US,Americas,Northern America,United States of America,Massachusetts,,Boston
82.197.83.24,4,33,rubberceramiclining.com,US,Americas,Northern America,United States of America,Massachusetts,,Boston
82.197.80.224,4,16,santarosaliaproperty.com,US,Americas,Northern America,United States of America,Massachusetts,,Boston
82.197.84.239,4,28,schoolmerchcanada.com,US,Americas,Northern America,United States of America,Massachusetts,,Boston
88.223.83.10,4,37,sci-bc.ca,US,Americas,Northern America,United States of America,Massachusetts,,Boston
147.79.78.135,4,2,sdnpk.org,US,Americas,Northern America,United States of America,Massachusetts,,Boston
184.25.148.40,4,1,sdvote.com,US,Americas,Northern America,United States of America,Massachusetts,,Boston
184.25.148.8,4,4,sdvote.com,US,Americas,Northern America,United States of America,Massachusetts,,Boston
157.173.208.4,4,10,selectivedealz.com,US,Americas,Northern America,United States of America,Massachusetts,,Boston
217.15.168.201,4,3,shootsta.com,US,Americas,Northern America,United States of America,Massachusetts,,Boston
194.164.67.231,4,35,sildenafiledcitrate.com,US,Americas,Northern America,United States of America,Massachusetts,,Boston
82.197.87.117,4,6,slushweb.com,US,Americas,Northern America,United States of America,Massachusetts,,Boston
82.197.80.79,4,7,sociallystacked.com,US,Americas,Northern America,United States of America,Massachusetts,,Boston
184.25.58.42,4,10,southwestair.com,US,Americas,Northern America,United States of America,Massachusetts,,Boston
184.25.58.72,4,31,southwestair.com,US,Americas,Northern America,United States of America,Massachusetts,,Boston
194.164.64.64,4,3,spectshop.com,US,Americas,Northern America,United States of America,Massachusetts,,Boston
82.197.80.133,4,11,spritfly.com,US,Americas,Northern America,United States of America,Massachusetts,,Boston
147.79.73.13,4,14,spsreviews.com,US,Americas,Northern America,United States of America,Massachusetts,,Boston
82.197.83.73,4,6,ssgnews.com,US,Americas,Northern America,United States of America,Massachusetts,,Boston
82.197.83.30,4,12,startuptalky.co.uk,US,Americas,Northern America,United States of America,Massachusetts,,Boston
82.197.80.207,4,4,stmik-dci.ac.id,US,Americas,Northern America,United States of America,Massachusetts,,Boston
194.164.64.189,4,22,storysupportpro.com,US,Americas,Northern America,United States of America,Massachusetts,,Boston
194.164.64.88,4,3,streetgangs.com,US,Americas,Northern America,United States of America,Massachusetts,,Boston
217.15.169.91,4,3,svglogomaker.com,US,Americas,Northern America,United States of America,Massachusetts,,Boston
157.173.214.140,4,3,sweats.co.kr,US,Americas,Northern America,United States of America,Massachusetts,,Boston
217.15.175.41,4,4,sweetscape.com,US,Americas,Northern America,United States of America,Massachusetts,,Boston
23.32.164.96,4,5,tamilmatrimony.com,US,Americas,Northern America,United States of America,Massachusetts,,Boston
217.15.169.43,4,2,tastythailand.com,US,Americas,Northern America,United States of America,Massachusetts,,Boston
157.173.215.160,4,42,taxlawgazette.com,US,Americas,Northern America,United States of America,Massachusetts,,Boston
82.197.80.175,4,34,teacoffeeplace.com,US,Americas,Northern America,United States of America,Massachusetts,,Boston
157.173.209.18,4,7,techniquehow.com,US,Americas,Northern America,United States of America,Massachusetts,,Boston
88.223.86.177,4,6,techpost.info,US,Americas,Northern America,United States of America,Massachusetts,,Boston
88.223.83.104,4,12,techreleased.co.uk,US,Americas,Northern America,United States of America,Massachusetts,,Boston
157.173.209.84,4,30,techydaily.co.uk,US,Americas,Northern America,United States of America,Massachusetts,,Boston
194.164.64.30,4,52,telescope-optics.net,US,Americas,Northern America,United States of America,Massachusetts,,Boston
82.197.83.158,4,6,thecelebsinfo.com,US,Americas,Northern America,United States of America,Massachusetts,,Boston
194.164.66.143,4,3,theceoviews.com,US,Americas,Northern America,United States of America,Massachusetts,,Boston
147.79.73.96,4,12,thecorporatethiefbeats.com,US,Americas,Northern America,United States of America,Massachusetts,,Boston
194.164.64.132,4,3,thecrunchyreport.com,US,Americas,Northern America,United States of America,Massachusetts,,Boston
194.164.64.118,4,19,thecurezone.com,US,Americas,Northern America,United States of America,Massachusetts,,Boston
194.164.64.89,4,3,thedrawshop.com,US,Americas,Northern America,United States of America,Massachusetts,,Boston
157.173.209.158,4,1,thefriskys.com,US,Americas,Northern America,United States of America,Massachusetts,,Boston
82.197.86.115,4,11,thenexthint.com,US,Americas,Northern America,United States of America,Massachusetts,,Boston
157.173.208.22,4,63,theperksofbeingus.com,US,Americas,Northern America,United States of America,Massachusetts,,Boston
88.223.80.184,4,2,thewho.net,US,Americas,Northern America,United States of America,Massachusetts,,Boston
167.88.38.123,4,1,thonet.com,US,Americas,Northern America,United States of America,Massachusetts,,Boston
88.223.85.4,4,3,tiktokfollows.co,US,Americas,Northern America,United States of America,Massachusetts,,Boston
82.197.83.4,4,4,tnlin.com,US,Americas,Northern America,United States of America,Massachusetts,,Boston
157.173.209.181,4,4,todayfirstmagazine.com,US,Americas,Northern America,United States of America,Massachusetts,,Boston
157.173.214.8,4,7,todaytop24.com,US,Americas,Northern America,United States of America,Massachusetts,,Boston
82.197.84.9,4,17,topbritishwriters.com,US,Americas,Northern America,United States of America,Massachusetts,,Boston
82.197.80.33,4,28,travelintelligence.net,US,Americas,Northern America,United States of America,Massachusetts,,Boston
194.164.64.108,4,6,tvactivatecode.com,US,Americas,Northern America,United States of America,Massachusetts,,Boston
88.223.86.240,4,4,unanleon.edu.ni,US,Americas,Northern America,United States of America,Massachusetts,,Boston
208.69.180.13,4,2,universalstandard.com,US,Americas,Northern America,United States of America,Massachusetts,,Boston
208.69.180.14,4,4,universalstandard.com,US,Americas,Northern America,United States of America,Massachusetts,,Boston
208.69.180.12,4,2,universalstandard.com,US,Americas,Northern America,United States of America,Massachusetts,,Boston
208.69.180.11,4,22,universalstandard.com,US,Americas,Northern America,United States of America,Massachusetts,,Boston
184.25.58.32,4,1,usaajobs.com,US,Americas,Northern America,United States of America,Massachusetts,,Boston
184.25.58.65,4,2,usaajobs.com,US,Americas,Northern America,United States of America,Massachusetts,,Boston
82.197.83.185,4,91,veitillatelse.com,US,Americas,Northern America,United States of America,Massachusetts,,Boston
194.164.64.67,4,5,venusraquel.com,US,Americas,Northern America,United States of America,Massachusetts,,Boston
82.112.248.14,4,3,videofitness.com,US,Americas,Northern America,United States of America,Massachusetts,,Boston
23.57.144.254,4,35,vietnamairlines.com,US,Americas,Northern America,United States of America,Massachusetts,,Boston
217.15.168.174,4,2,vinanutrifood.vn,US,Americas,Northern America,United States of America,Massachusetts,,Boston
194.164.71.59,4,5,viraltalky.com,US,Americas,Northern America,United States of America,Massachusetts,,Boston
157.173.209.36,4,84,vonsdogs.com,US,Americas,Northern America,United States of America,Massachusetts,,Boston
157.173.209.78,4,17,webhostingonedollar.com,US,Americas,Northern America,United States of America,Massachusetts,,Boston
194.164.69.12,4,1,whatifgaming.com,US,Americas,Northern America,United States of America,Massachusetts,,Boston
82.197.83.7,4,13,whilesaas.com,US,Americas,Northern America,United States of America,Massachusetts,,Boston
82.197.80.164,4,3,wholemeltsdispo.com,US,Americas,Northern America,United States of America,Massachusetts,,Boston
104.130.119.14,4,19,wintrustmortgage.com,US,Americas,Northern America,United States of America,Massachusetts,,Boston
82.197.83.189,4,2,wizroo.com,US,Americas,Northern America,United States of America,Massachusetts,,Boston
157.173.214.179,4,2,wpchatplugins.com,US,Americas,Northern America,United States of America,Massachusetts,,Boston
217.15.168.90,4,4,writeurl.com,US,Americas,Northern America,United States of America,Massachusetts,,Boston
157.173.214.17,4,7,wtvox.com,US,Americas,Northern America,United States of America,Massachusetts,,Boston
157.173.214.245,4,52,xn--fhrerschein-online-kaufen-fwc.com,US,Americas,Northern America,United States of America,Massachusetts,,Boston
91.189.91.49,4,8,xubuntu.org,US,Americas,Northern America,United States of America,Massachusetts,,Boston
91.189.91.48,4,4,xubuntu.org,US,Americas,Northern America,United States of America,Massachusetts,,Boston
194.164.64.34,4,6,yakkyofy.com,US,Americas,Northern America,United States of America,Massachusetts,,Boston
23.32.160.153,4,2,yesbank.in,US,Americas,Northern America,United States of America,Massachusetts,,Boston
82.197.80.144,4,47,zakupprawajazdy.com,US,Americas,Northern America,United States of America,Massachusetts,,Boston
88.223.84.64,4,42,zestylore.com,US,Americas,Northern America,United States of America,Massachusetts,,Boston
82.197.83.42,4,3,zhulu8.xyz,US,Americas,Northern America,United States of America,Massachusetts,,Boston
