reflector_ip,ip_version,offset,description,country_code,region,sub_region,country_name,sub_division_1,sub_division_2,city
112.124.29.242,4,982,025ct.com,CN,Asia,Eastern Asia,China,Zhejiang,,Hangzhou
121.40.39.164,4,6,0597kk.com,CN,Asia,Eastern Asia,China,Zhejiang,,Hangzhou
218.244.156.95,4,7,0755car.com,CN,Asia,Eastern Asia,China,Zhejiang,,Hangzhou
47.114.141.93,4,34,0830bbs.com,CN,Asia,Eastern Asia,China,Zhejiang,,Hangzhou
118.31.168.7,4,7,08office.cn,CN,Asia,Eastern Asia,China,Zhejiang,,Hangzhou
223.6.85.43,4,-50,10080.com.cn,CN,Asia,Eastern Asia,China,Zhejiang,,Hangzhou
114.55.90.249,4,19,1637.com,CN,Asia,Eastern Asia,China,Zhejiang,,Hangzhou
47.96.71.28,4,22,2018.cn,CN,Asia,Eastern Asia,China,Zhejiang,,Hangzhou
121.41.25.184,4,4,210sy.com,CN,Asia,Eastern Asia,China,Zhejiang,,Hangzhou
114.55.100.72,4,22,21dianyuan.com,CN,Asia,Eastern Asia,China,Zhejiang,,Hangzhou
115.239.209.151,4,23,21food.cn,CN,Asia,Eastern Asia,China,Zhejiang,,Hangzhou
47.99.51.46,4,4,28jw.cn,CN,Asia,Eastern Asia,China,Zhejiang,,Hangzhou
121.40.112.80,4,7,360eol.com,CN,Asia,Eastern Asia,China,Zhejiang,,Hangzhou
47.111.117.28,4,7,360qc.com,CN,Asia,Eastern Asia,China,Zhejiang,,Hangzhou
120.55.41.181,4,21,5173.com,CN,Asia,Eastern Asia,China,Zhejiang,,Hangzhou
118.178.92.123,4,9,517haojing.com,CN,Asia,Eastern Asia,China,Zhejiang,,Hangzhou
114.55.142.73,4,8,517japan.com,CN,Asia,Eastern Asia,China,Zhejiang,,Hangzhou
47.111.83.61,4,6,51shangyi.com,CN,Asia,Eastern Asia,China,Zhejiang,,Hangzhou
47.99.151.117,4,18,55.la,CN,Asia,Eastern Asia,China,Zhejiang,,Hangzhou
47.97.96.83,4,25,7moor.com,CN,Asia,Eastern Asia,China,Zhejiang,,Hangzhou
112.124.179.171,4,14,88856665.com,CN,Asia,Eastern Asia,China,Zhejiang,,Hangzhou
47.98.191.235,4,28,8btc.com,CN,Asia,Eastern Asia,China,Zhejiang,,Hangzhou
121.40.146.208,4,15,8dbw.com,CN,Asia,Eastern Asia,China,Zhejiang,,Hangzhou
47.114.191.149,4,13,917ty.com,CN,Asia,Eastern Asia,China,Zhejiang,,Hangzhou
47.96.116.143,4,34,91spj.com,CN,Asia,Eastern Asia,China,Zhejiang,,Hangzhou
47.98.105.20,4,16,aawap.net,CN,Asia,Eastern Asia,China,Zhejiang,,Hangzhou
120.55.50.9,4,8,admin5.cn,CN,Asia,Eastern Asia,China,Zhejiang,,Hangzhou
116.62.151.69,4,1807,admin5.com,CN,Asia,Eastern Asia,China,Zhejiang,,Hangzhou
121.40.52.191,4,11,ahoocare.com,CN,Asia,Eastern Asia,China,Zhejiang,,Hangzhou
121.40.242.209,4,20,ahrestygz.com,CN,Asia,Eastern Asia,China,Zhejiang,,Hangzhou
101.37.86.1,4,8,alfrescocn.com,CN,Asia,Eastern Asia,China,Zhejiang,,Hangzhou
121.40.194.163,4,36,anqu.com,CN,Asia,Eastern Asia,China,Zhejiang,,Hangzhou
47.99.191.192,4,23,aorora.cn,CN,Asia,Eastern Asia,China,Zhejiang,,Hangzhou
116.62.151.250,4,32,appinn.com,CN,Asia,Eastern Asia,China,Zhejiang,,Hangzhou
47.98.253.181,4,45,appnode.com,CN,Asia,Eastern Asia,China,Zhejiang,,Hangzhou
116.62.164.239,4,46,archcollege.com,CN,Asia,Eastern Asia,China,Zhejiang,,Hangzhou
116.62.13.17,4,26,archiposition.com,CN,Asia,Eastern Asia,China,Zhejiang,,Hangzhou
120.27.149.132,4,69,arthobby.com.cn,CN,Asia,Eastern Asia,China,Zhejiang,,Hangzhou
101.37.83.149,4,15,asiafactor.com,CN,Asia,Eastern Asia,China,Zhejiang,,Hangzhou
121.40.195.133,4,15,asiahorti.com,CN,Asia,Eastern Asia,China,Zhejiang,,Hangzhou
118.31.78.156,4,3831395,baijinsteel.com,CN,Asia,Eastern Asia,China,Zhejiang,,Hangzhou
114.55.127.67,4,30,baimiaoapp.com,CN,Asia,Eastern Asia,China,Zhejiang,,Hangzhou
116.62.221.154,4,80,baiten.cn,CN,Asia,Eastern Asia,China,Zhejiang,,Hangzhou
121.196.56.98,4,18,bbsfh.cn,CN,Asia,Eastern Asia,China,Zhejiang,,Hangzhou
47.99.58.126,4,18,bestomro.com,CN,Asia,Eastern Asia,China,Zhejiang,,Hangzhou
121.40.17.8,4,15,betterav.cn,CN,Asia,Eastern Asia,China,Zhejiang,,Hangzhou
121.199.16.3,4,19,beva.com,CN,Asia,Eastern Asia,China,Zhejiang,,Hangzhou
47.97.99.222,4,20,bianbao.net,CN,Asia,Eastern Asia,China,Zhejiang,,Hangzhou
47.96.132.143,4,35,bianjiebao.com,CN,Asia,Eastern Asia,China,Zhejiang,,Hangzhou
47.98.145.138,4,28,bidizhaobiao.com,CN,Asia,Eastern Asia,China,Zhejiang,,Hangzhou
47.97.41.218,4,32,biketo.com,CN,Asia,Eastern Asia,China,Zhejiang,,Hangzhou
118.178.231.95,4,26,bio1000.com,CN,Asia,Eastern Asia,China,Zhejiang,,Hangzhou
121.40.87.61,4,29,bjsnst.com,CN,Asia,Eastern Asia,China,Zhejiang,,Hangzhou
47.98.243.221,4,31,bocweb.cn,CN,Asia,Eastern Asia,China,Zhejiang,,Hangzhou
121.40.65.87,4,27,boke8.net,CN,Asia,Eastern Asia,China,Zhejiang,,Hangzhou
116.62.208.249,4,20,bokee.net,CN,Asia,Eastern Asia,China,Zhejiang,,Hangzhou
8.136.109.115,4,14,bonsaii.com.cn,CN,Asia,Eastern Asia,China,Zhejiang,,Hangzhou
121.40.163.220,4,43,braburg.com,CN,Asia,Eastern Asia,China,Zhejiang,,Hangzhou
121.40.146.226,4,14,bundpic.com,CN,Asia,Eastern Asia,China,Zhejiang,,Hangzhou
121.40.224.169,4,15,bzfxw.com,CN,Asia,Eastern Asia,China,Zhejiang,,Hangzhou
8.136.107.79,4,15,c-168.com,CN,Asia,Eastern Asia,China,Zhejiang,,Hangzhou
124.225.141.5,4,25,c8.cn,CN,Asia,Eastern Asia,China,Zhejiang,,Hangzhou
47.99.131.185,4,18,cailiao.com,CN,Asia,Eastern Asia,China,Zhejiang,,Hangzhou
112.124.68.204,4,27,camdi.org,CN,Asia,Eastern Asia,China,Zhejiang,,Hangzhou
121.41.102.222,4,32,ccdol.com,CN,Asia,Eastern Asia,China,Zhejiang,,Hangzhou
118.31.36.180,4,28,cga.com.cn,CN,Asia,Eastern Asia,China,Zhejiang,,Hangzhou
47.96.225.86,4,34,cga.com.cn,CN,Asia,Eastern Asia,China,Zhejiang,,Hangzhou
47.111.143.74,4,15,chain.net.cn,CN,Asia,Eastern Asia,China,Zhejiang,,Hangzhou
47.97.18.135,4,41,changle.com.cn,CN,Asia,Eastern Asia,China,Zhejiang,,Hangzhou
116.62.129.168,4,42,chem960.com,CN,Asia,Eastern Asia,China,Zhejiang,,Hangzhou
47.97.222.117,4,26,chemsrc.com,CN,Asia,Eastern Asia,China,Zhejiang,,Hangzhou
116.62.161.129,4,27,chezhanri.com,CN,Asia,Eastern Asia,China,Zhejiang,,Hangzhou
121.40.88.58,4,31,china-fce.com,CN,Asia,Eastern Asia,China,Zhejiang,,Hangzhou
116.62.30.152,4,23,china-nengyuan.com,CN,Asia,Eastern Asia,China,Zhejiang,,Hangzhou
47.99.39.134,4,28,china-teri.com,CN,Asia,Eastern Asia,China,Zhejiang,,Hangzhou
47.114.125.215,4,36,chinacace.org,CN,Asia,Eastern Asia,China,Zhejiang,,Hangzhou
120.27.159.46,4,11,chinagwy.org,CN,Asia,Eastern Asia,China,Zhejiang,,Hangzhou
115.29.162.250,4,15,chinalabs.com,CN,Asia,Eastern Asia,China,Zhejiang,,Hangzhou
121.40.245.77,4,14,chinashadt.com,CN,Asia,Eastern Asia,China,Zhejiang,,Hangzhou
47.97.124.113,4,29,chinasydw.org,CN,Asia,Eastern Asia,China,Zhejiang,,Hangzhou
121.40.97.233,4,29,chinawebber.com,CN,Asia,Eastern Asia,China,Zhejiang,,Hangzhou
47.98.252.93,4,24,chint.com,CN,Asia,Eastern Asia,China,Zhejiang,,Hangzhou
118.31.72.119,4,17,chint.net,CN,Asia,Eastern Asia,China,Zhejiang,,Hangzhou
121.40.68.149,4,37,chronusartcenter.org,CN,Asia,Eastern Asia,China,Zhejiang,,Hangzhou
121.40.149.20,4,12,chuangzaoshi.com,CN,Asia,Eastern Asia,China,Zhejiang,,Hangzhou
60.190.243.163,4,34,click.com.cn,CN,Asia,Eastern Asia,China,Zhejiang,,Hangzhou
112.124.68.37,4,15,clouddream.net,CN,Asia,Eastern Asia,China,Zhejiang,,Hangzhou
119.96.169.15,4,1636,cmstop.com,CN,Asia,Eastern Asia,China,Zhejiang,,Hangzhou
121.41.79.206,4,32,cn-sh.cn,CN,Asia,Eastern Asia,China,Zhejiang,,Hangzhou
47.99.221.172,4,15,cn86.cn,CN,Asia,Eastern Asia,China,Zhejiang,,Hangzhou
121.43.109.254,4,52,cnartedu.cn,CN,Asia,Eastern Asia,China,Zhejiang,,Hangzhou
116.62.225.250,4,49,cnbaowen.net,CN,Asia,Eastern Asia,China,Zhejiang,,Hangzhou
121.40.91.180,4,26,cnfood114.com,CN,Asia,Eastern Asia,China,Zhejiang,,Hangzhou
121.41.15.42,4,27,cnga.org.cn,CN,Asia,Eastern Asia,China,Zhejiang,,Hangzhou
47.114.93.148,4,29,cnhqt.com,CN,Asia,Eastern Asia,China,Zhejiang,,Hangzhou
121.41.40.64,4,16,cnhu.com,CN,Asia,Eastern Asia,China,Zhejiang,,Hangzhou
121.40.34.94,4,47,cniti.com,CN,Asia,Eastern Asia,China,Zhejiang,,Hangzhou
120.55.55.39,4,24,cnphotos.net,CN,Asia,Eastern Asia,China,Zhejiang,,Hangzhou
121.196.209.122,4,16,cnq.net,CN,Asia,Eastern Asia,China,Zhejiang,,Hangzhou
121.40.248.34,4,16,cntgol.com,CN,Asia,Eastern Asia,China,Zhejiang,,Hangzhou
114.215.176.168,4,13,cnyw.net,CN,Asia,Eastern Asia,China,Zhejiang,,Hangzhou
112.124.33.156,4,27,codeprj.com,CN,Asia,Eastern Asia,China,Zhejiang,,Hangzhou
121.41.197.247,4,25,cqsoo.com,CN,Asia,Eastern Asia,China,Zhejiang,,Hangzhou
120.55.101.136,4,23,cqxypm.com,CN,Asia,Eastern Asia,China,Zhejiang,,Hangzhou
121.40.53.252,4,1,crhcs.cn,CN,Asia,Eastern Asia,China,Zhejiang,,Hangzhou
223.95.35.10,4,33,csdnimg.cn,CN,Asia,Eastern Asia,China,Zhejiang,,Hangzhou
125.124.184.254,4,151561,csia.org.cn,CN,Asia,Eastern Asia,China,Zhejiang,,Hangzhou
120.26.97.117,4,-1,culaiwan.com,CN,Asia,Eastern Asia,China,Zhejiang,,Hangzhou
114.55.250.55,4,4,d7w.net,CN,Asia,Eastern Asia,China,Zhejiang,,Hangzhou
121.43.62.160,4,8,dabeins.com,CN,Asia,Eastern Asia,China,Zhejiang,,Hangzhou
118.31.103.98,4,21,dailyeconomic.com,CN,Asia,Eastern Asia,China,Zhejiang,,Hangzhou
47.96.124.88,4,23,dashgame.com,CN,Asia,Eastern Asia,China,Zhejiang,,Hangzhou
121.41.22.179,4,16,dcxw.org,CN,Asia,Eastern Asia,China,Zhejiang,,Hangzhou
120.27.249.152,4,45,dmm.net.cn,CN,Asia,Eastern Asia,China,Zhejiang,,Hangzhou
121.40.65.201,4,48,docs4dev.com,CN,Asia,Eastern Asia,China,Zhejiang,,Hangzhou
112.124.28.216,4,30,dpyouhui.com,CN,Asia,Eastern Asia,China,Zhejiang,,Hangzhou
121.41.90.220,4,17,dqjd.com.cn,CN,Asia,Eastern Asia,China,Zhejiang,,Hangzhou
47.99.102.210,4,59,drlmeng.com,CN,Asia,Eastern Asia,China,Zhejiang,,Hangzhou
47.98.241.47,4,26,dscmall.cn,CN,Asia,Eastern Asia,China,Zhejiang,,Hangzhou
47.98.242.202,4,28,dtime.com,CN,Asia,Eastern Asia,China,Zhejiang,,Hangzhou
101.37.79.212,4,57,dtsdr.com,CN,Asia,Eastern Asia,China,Zhejiang,,Hangzhou
8.136.178.170,4,15,dunwan.com,CN,Asia,Eastern Asia,China,Zhejiang,,Hangzhou
47.98.157.233,4,12,dx1023.com,CN,Asia,Eastern Asia,China,Zhejiang,,Hangzhou
47.114.50.172,4,15,dyyxclub.com,CN,Asia,Eastern Asia,China,Zhejiang,,Hangzhou
121.43.38.229,4,18,e0575.cn,CN,Asia,Eastern Asia,China,Zhejiang,,Hangzhou
114.55.117.38,4,18,e0575.com,CN,Asia,Eastern Asia,China,Zhejiang,,Hangzhou
47.99.185.71,4,15,ear0.com,CN,Asia,Eastern Asia,China,Zhejiang,,Hangzhou
60.190.255.222,4,25,eb.com.cn,CN,Asia,Eastern Asia,China,Zhejiang,,Hangzhou
121.41.82.203,4,17,ef518.com,CN,Asia,Eastern Asia,China,Zhejiang,,Hangzhou
47.96.161.206,4,2555902,elex-tech.com,CN,Asia,Eastern Asia,China,Zhejiang,,Hangzhou
121.41.2.196,4,58,emfine.cn,CN,Asia,Eastern Asia,China,Zhejiang,,Hangzhou
120.55.39.48,4,57,enjoyz.com,CN,Asia,Eastern Asia,China,Zhejiang,,Hangzhou
121.40.103.103,4,26,er.run,CN,Asia,Eastern Asia,China,Zhejiang,,Hangzhou
120.26.168.217,4,16,eryajf.net,CN,Asia,Eastern Asia,China,Zhejiang,,Hangzhou
125.124.75.81,4,230716,esce.cn,CN,Asia,Eastern Asia,China,Zhejiang,,Hangzhou
223.7.70.203,4,17165,eweiqi.com,CN,Asia,Eastern Asia,China,Zhejiang,,Hangzhou
112.124.13.106,4,34,eworldship.com,CN,Asia,Eastern Asia,China,Zhejiang,,Hangzhou
121.41.224.83,4,16,exchangecn.com,CN,Asia,Eastern Asia,China,Zhejiang,,Hangzhou
47.99.147.216,4,23,fe-cable.com,CN,Asia,Eastern Asia,China,Zhejiang,,Hangzhou
121.199.67.234,4,17,feishen.com,CN,Asia,Eastern Asia,China,Zhejiang,,Hangzhou
114.55.250.161,4,29,fengqianglife.com,CN,Asia,Eastern Asia,China,Zhejiang,,Hangzhou
218.244.147.119,4,26,fireresearch.cn,CN,Asia,Eastern Asia,China,Zhejiang,,Hangzhou
121.196.205.162,4,28,fob001.cn,CN,Asia,Eastern Asia,China,Zhejiang,,Hangzhou
47.110.235.236,4,39,focussend.com,CN,Asia,Eastern Asia,China,Zhejiang,,Hangzhou
120.26.110.170,4,26,foodmate.com,CN,Asia,Eastern Asia,China,Zhejiang,,Hangzhou
115.29.166.147,4,25,fpcn.net,CN,Asia,Eastern Asia,China,Zhejiang,,Hangzhou
47.97.117.195,4,24,fqpai.com,CN,Asia,Eastern Asia,China,Zhejiang,,Hangzhou
47.99.96.89,4,13,fuzhoufc.com,CN,Asia,Eastern Asia,China,Zhejiang,,Hangzhou
47.97.184.194,4,24,fuzisun.com,CN,Asia,Eastern Asia,China,Zhejiang,,Hangzhou
121.41.224.218,4,23,fyter.cn,CN,Asia,Eastern Asia,China,Zhejiang,,Hangzhou
47.110.230.164,4,25,g-roadlaw.com.cn,CN,Asia,Eastern Asia,China,Zhejiang,,Hangzhou
118.31.46.137,4,14,ga-net.com,CN,Asia,Eastern Asia,China,Zhejiang,,Hangzhou
121.41.96.142,4,29,geihui.com,CN,Asia,Eastern Asia,China,Zhejiang,,Hangzhou
121.40.54.169,4,26,geshow.com,CN,Asia,Eastern Asia,China,Zhejiang,,Hangzhou
47.99.135.53,4,35,gm5606.com,CN,Asia,Eastern Asia,China,Zhejiang,,Hangzhou
223.7.148.182,4,-34,gohighfund.com,CN,Asia,Eastern Asia,China,Zhejiang,,Hangzhou
112.124.23.124,4,28,gongyejob.com,CN,Asia,Eastern Asia,China,Zhejiang,,Hangzhou
121.40.105.10,4,55,goodjobdongguan.com,CN,Asia,Eastern Asia,China,Zhejiang,,Hangzhou
112.124.43.120,4,13,govland.cn,CN,Asia,Eastern Asia,China,Zhejiang,,Hangzhou
120.55.83.36,4,18,gplayspace.cn,CN,Asia,Eastern Asia,China,Zhejiang,,Hangzhou
120.26.140.192,4,17,graboss.com,CN,Asia,Eastern Asia,China,Zhejiang,,Hangzhou
121.196.203.205,4,16,graceman.com.cn,CN,Asia,Eastern Asia,China,Zhejiang,,Hangzhou
116.62.212.133,4,38,guanri.cc,CN,Asia,Eastern Asia,China,Zhejiang,,Hangzhou
47.110.63.62,4,29,gudsen.com,CN,Asia,Eastern Asia,China,Zhejiang,,Hangzhou
121.196.127.20,4,25,gufenghanfu.com,CN,Asia,Eastern Asia,China,Zhejiang,,Hangzhou
115.239.209.149,4,81,guidechem.com,CN,Asia,Eastern Asia,China,Zhejiang,,Hangzhou
47.98.239.130,4,14,guipin.com,CN,Asia,Eastern Asia,China,Zhejiang,,Hangzhou
121.40.59.158,4,48,guozhivip.com,CN,Asia,Eastern Asia,China,Zhejiang,,Hangzhou
121.40.194.17,4,26,gxufl.com,CN,Asia,Eastern Asia,China,Zhejiang,,Hangzhou
47.99.177.61,4,27,gzhaiyou.com,CN,Asia,Eastern Asia,China,Zhejiang,,Hangzhou
47.99.34.245,4,27,gzminjia.com,CN,Asia,Eastern Asia,China,Zhejiang,,Hangzhou
121.199.62.246,4,29,h0580.com,CN,Asia,Eastern Asia,China,Zhejiang,,Hangzhou
121.43.154.9,4,38,halfrost.com,CN,Asia,Eastern Asia,China,Zhejiang,,Hangzhou
121.40.92.11,4,14,hb-green.com,CN,Asia,Eastern Asia,China,Zhejiang,,Hangzhou
47.98.103.54,4,28,hbhgkj.com,CN,Asia,Eastern Asia,China,Zhejiang,,Hangzhou
120.55.83.205,4,27,hcsmw.com,CN,Asia,Eastern Asia,China,Zhejiang,,Hangzhou
116.62.140.170,4,34,hczyw.com,CN,Asia,Eastern Asia,China,Zhejiang,,Hangzhou
121.40.171.236,4,27,hebeichengyu.com,CN,Asia,Eastern Asia,China,Zhejiang,,Hangzhou
121.40.219.184,4,15,hefeimarathon.com,CN,Asia,Eastern Asia,China,Zhejiang,,Hangzhou
47.96.10.162,4,46,heheshangwu.com,CN,Asia,Eastern Asia,China,Zhejiang,,Hangzhou
47.98.103.213,4,31,hengdianworld.com,CN,Asia,Eastern Asia,China,Zhejiang,,Hangzhou
47.114.79.102,4,13,hfbtv.com,CN,Asia,Eastern Asia,China,Zhejiang,,Hangzhou
114.55.36.100,4,27,hfkrgd.com,CN,Asia,Eastern Asia,China,Zhejiang,,Hangzhou
114.215.177.61,4,27,hgcx.cn,CN,Asia,Eastern Asia,China,Zhejiang,,Hangzhou
121.40.138.233,4,14,hgwm.com,CN,Asia,Eastern Asia,China,Zhejiang,,Hangzhou
47.110.42.182,4,31,hhrsks.com,CN,Asia,Eastern Asia,China,Zhejiang,,Hangzhou
47.114.39.69,4,40,hisupplier.com,CN,Asia,Eastern Asia,China,Zhejiang,,Hangzhou
47.99.199.174,4,33,hiwelink.com,CN,Asia,Eastern Asia,China,Zhejiang,,Hangzhou
115.29.204.112,4,27,hlblw.com,CN,Asia,Eastern Asia,China,Zhejiang,,Hangzhou
47.98.122.4,4,44,hnsrmyy.net,CN,Asia,Eastern Asia,China,Zhejiang,,Hangzhou
112.124.47.192,4,41,hometexnet.com,CN,Asia,Eastern Asia,China,Zhejiang,,Hangzhou
223.4.26.84,4,-12,howzhi.com,CN,Asia,Eastern Asia,China,Zhejiang,,Hangzhou
8.149.141.155,4,15,hpoi.net,CN,Asia,Eastern Asia,China,Zhejiang,,Hangzhou
47.111.174.57,4,14,hqgjjf.com,CN,Asia,Eastern Asia,China,Zhejiang,,Hangzhou
47.98.49.91,4,18,hsd123.com,CN,Asia,Eastern Asia,China,Zhejiang,,Hangzhou
47.110.133.129,4,29,huaan-cpa.com,CN,Asia,Eastern Asia,China,Zhejiang,,Hangzhou
47.96.239.226,4,24,huaian.com,CN,Asia,Eastern Asia,China,Zhejiang,,Hangzhou
47.97.173.34,4,26,huanggao.net,CN,Asia,Eastern Asia,China,Zhejiang,,Hangzhou
101.37.25.233,4,27,huayuanyunmu.com,CN,Asia,Eastern Asia,China,Zhejiang,,Hangzhou
47.96.116.128,4,18,huazhen2008.com,CN,Asia,Eastern Asia,China,Zhejiang,,Hangzhou
47.99.128.54,4,27,hunsou.net,CN,Asia,Eastern Asia,China,Zhejiang,,Hangzhou
114.55.103.88,4,13,hupo.tv,CN,Asia,Eastern Asia,China,Zhejiang,,Hangzhou
47.110.49.49,4,21,hushiquan.com,CN,Asia,Eastern Asia,China,Zhejiang,,Hangzhou
47.96.142.22,4,16,hx-bio.cn,CN,Asia,Eastern Asia,China,Zhejiang,,Hangzhou
114.215.253.23,4,27,hxyjw.com,CN,Asia,Eastern Asia,China,Zhejiang,,Hangzhou
120.55.81.189,4,27,hznzcn.com,CN,Asia,Eastern Asia,China,Zhejiang,,Hangzhou
125.124.29.253,4,294953,hzrc.com,CN,Asia,Eastern Asia,China,Zhejiang,,Hangzhou
47.98.55.66,4,47,hzxtx.net,CN,Asia,Eastern Asia,China,Zhejiang,,Hangzhou
121.40.161.129,4,34,ibtimes.com.cn,CN,Asia,Eastern Asia,China,Zhejiang,,Hangzhou
114.55.28.122,4,32,idgcapital.com,CN,Asia,Eastern Asia,China,Zhejiang,,Hangzhou
47.99.172.44,4,27,ie-expo.cn,CN,Asia,Eastern Asia,China,Zhejiang,,Hangzhou
223.6.96.108,4,-28,ihepafilter.com,CN,Asia,Eastern Asia,China,Zhejiang,,Hangzhou
47.97.202.20,4,26,iizhi.cn,CN,Asia,Eastern Asia,China,Zhejiang,,Hangzhou
114.215.168.251,4,25,ilifesmart.com,CN,Asia,Eastern Asia,China,Zhejiang,,Hangzhou
116.62.145.60,4,32,indie.cn,CN,Asia,Eastern Asia,China,Zhejiang,,Hangzhou
47.96.141.132,4,6,itdks.com,CN,Asia,Eastern Asia,China,Zhejiang,,Hangzhou
121.41.225.198,4,4,jctm.com.cn,CN,Asia,Eastern Asia,China,Zhejiang,,Hangzhou
115.29.211.154,4,30,jhjx66.cn,CN,Asia,Eastern Asia,China,Zhejiang,,Hangzhou
121.41.45.156,4,2,jiangshi.org,CN,Asia,Eastern Asia,China,Zhejiang,,Hangzhou
47.110.40.45,4,9,jianli-sky.com,CN,Asia,Eastern Asia,China,Zhejiang,,Hangzhou
121.199.10.62,4,34,jianshen8.com,CN,Asia,Eastern Asia,China,Zhejiang,,Hangzhou
121.199.57.132,4,5,jiatuxueyuan.com,CN,Asia,Eastern Asia,China,Zhejiang,,Hangzhou
8.136.203.131,4,14,jiaxingren.com,CN,Asia,Eastern Asia,China,Zhejiang,,Hangzhou
47.118.39.94,4,16,jinyiheng.cn,CN,Asia,Eastern Asia,China,Zhejiang,,Hangzhou
121.40.195.47,4,3,jjbearings.cn,CN,Asia,Eastern Asia,China,Zhejiang,,Hangzhou
116.62.184.198,4,16,jjrxh.cn,CN,Asia,Eastern Asia,China,Zhejiang,,Hangzhou
121.40.25.43,4,11,jsly001.com,CN,Asia,Eastern Asia,China,Zhejiang,,Hangzhou
118.31.225.226,4,1,jszjgroup.com,CN,Asia,Eastern Asia,China,Zhejiang,,Hangzhou
120.26.36.69,4,5,juncaihr.com,CN,Asia,Eastern Asia,China,Zhejiang,,Hangzhou
47.114.86.239,4,7,junweidun.com,CN,Asia,Eastern Asia,China,Zhejiang,,Hangzhou
47.96.68.143,4,12,jxsrra.com,CN,Asia,Eastern Asia,China,Zhejiang,,Hangzhou
101.37.22.151,4,5,jxssfjxh.com,CN,Asia,Eastern Asia,China,Zhejiang,,Hangzhou
101.71.21.48,4,-3,jyh100.com,CN,Asia,Eastern Asia,China,Zhejiang,,Hangzhou
47.110.94.91,4,76,kq36.cn,CN,Asia,Eastern Asia,China,Zhejiang,,Hangzhou
47.110.43.47,4,15,kq36.com,CN,Asia,Eastern Asia,China,Zhejiang,,Hangzhou
47.98.215.152,4,14,ksbao.com,CN,Asia,Eastern Asia,China,Zhejiang,,Hangzhou
116.62.121.134,4,12,kswfdz.com,CN,Asia,Eastern Asia,China,Zhejiang,,Hangzhou
120.26.54.190,4,35,ktz.cc,CN,Asia,Eastern Asia,China,Zhejiang,,Hangzhou
121.40.157.184,4,15,kubernetes.org.cn,CN,Asia,Eastern Asia,China,Zhejiang,,Hangzhou
47.99.139.52,4,12,kuntesi.com,CN,Asia,Eastern Asia,China,Zhejiang,,Hangzhou
121.41.226.239,4,114,ladymax.cn,CN,Asia,Eastern Asia,China,Zhejiang,,Hangzhou
121.196.104.245,4,26,landscape.cn,CN,Asia,Eastern Asia,China,Zhejiang,,Hangzhou
121.41.56.139,4,41,lanzouo.com,CN,Asia,Eastern Asia,China,Zhejiang,,Hangzhou
47.98.188.75,4,26,larcw.com,CN,Asia,Eastern Asia,China,Zhejiang,,Hangzhou
121.40.36.113,4,14,latexstudio.net,CN,Asia,Eastern Asia,China,Zhejiang,,Hangzhou
121.40.218.169,4,25,leanote.com,CN,Asia,Eastern Asia,China,Zhejiang,,Hangzhou
121.40.92.190,4,13,leatherhr.com,CN,Asia,Eastern Asia,China,Zhejiang,,Hangzhou
121.43.157.168,4,11,letpub.com.cn,CN,Asia,Eastern Asia,China,Zhejiang,,Hangzhou
223.7.70.196,4,17165,levelup.cn,CN,Asia,Eastern Asia,China,Zhejiang,,Hangzhou
47.98.247.226,4,11,lg5.com,CN,Asia,Eastern Asia,China,Zhejiang,,Hangzhou
121.40.133.192,4,22,likecha.com,CN,Asia,Eastern Asia,China,Zhejiang,,Hangzhou
115.220.3.107,4,51,lkong.com,CN,Asia,Eastern Asia,China,Zhejiang,,Hangzhou
125.124.137.103,4,-3,lkong.net,CN,Asia,Eastern Asia,China,Zhejiang,,Hangzhou
121.40.158.172,4,7348701,locojoy.com,CN,Asia,Eastern Asia,China,Zhejiang,,Hangzhou
120.26.85.60,4,34,locoy.com,CN,Asia,Eastern Asia,China,Zhejiang,,Hangzhou
47.114.182.6,4,53,lqqcw.com,CN,Asia,Eastern Asia,China,Zhejiang,,Hangzhou
47.111.161.63,4,17,lsnews.com.cn,CN,Asia,Eastern Asia,China,Zhejiang,,Hangzhou
121.43.178.211,4,20,ltd.com,CN,Asia,Eastern Asia,China,Zhejiang,,Hangzhou
116.62.187.196,4,15,lubanlebiao.com,CN,Asia,Eastern Asia,China,Zhejiang,,Hangzhou
114.55.6.33,4,15,luchanw.com,CN,Asia,Eastern Asia,China,Zhejiang,,Hangzhou
47.96.41.208,4,33,lulian.cn,CN,Asia,Eastern Asia,China,Zhejiang,,Hangzhou
47.97.195.67,4,37,lulushare.com,CN,Asia,Eastern Asia,China,Zhejiang,,Hangzhou
118.31.246.112,4,15,lupaworld.com,CN,Asia,Eastern Asia,China,Zhejiang,,Hangzhou
47.99.198.75,4,12,lusen.com,CN,Asia,Eastern Asia,China,Zhejiang,,Hangzhou
47.99.111.131,4,20,lvpai.com,CN,Asia,Eastern Asia,China,Zhejiang,,Hangzhou
114.55.57.145,4,27,lydlc.com,CN,Asia,Eastern Asia,China,Zhejiang,,Hangzhou
121.196.226.214,4,29,lylme.com,CN,Asia,Eastern Asia,China,Zhejiang,,Hangzhou
47.98.174.248,4,10,maijia.com,CN,Asia,Eastern Asia,China,Zhejiang,,Hangzhou
121.40.208.226,4,27,maiwazi.com,CN,Asia,Eastern Asia,China,Zhejiang,,Hangzhou
60.190.243.162,4,87,marksmile.com,CN,Asia,Eastern Asia,China,Zhejiang,,Hangzhou
115.29.201.173,4,26,maxiang.io,CN,Asia,Eastern Asia,China,Zhejiang,,Hangzhou
112.124.55.17,4,26,maxqueen.com,CN,Asia,Eastern Asia,China,Zhejiang,,Hangzhou
121.198.85.105,4,77,medmed.com.cn,CN,Asia,Eastern Asia,China,Zhejiang,,Hangzhou
47.96.133.117,4,30,meet99.com,CN,Asia,Eastern Asia,China,Zhejiang,,Hangzhou
47.99.98.188,4,27,mh-studio.cn,CN,Asia,Eastern Asia,China,Zhejiang,,Hangzhou
121.41.62.61,4,32,mianfeiwucan.org,CN,Asia,Eastern Asia,China,Zhejiang,,Hangzhou
47.114.190.91,4,14,micoe.com,CN,Asia,Eastern Asia,China,Zhejiang,,Hangzhou
47.97.91.30,4,26,milu.com,CN,Asia,Eastern Asia,China,Zhejiang,,Hangzhou
114.55.34.185,4,42,mingyantong.com,CN,Asia,Eastern Asia,China,Zhejiang,,Hangzhou
47.98.174.170,4,15,mockplus.cn,CN,Asia,Eastern Asia,China,Zhejiang,,Hangzhou
47.99.153.187,4,13,mofangge.com,CN,Asia,Eastern Asia,China,Zhejiang,,Hangzhou
121.40.196.185,4,24,moko.cc,CN,Asia,Eastern Asia,China,Zhejiang,,Hangzhou
47.96.144.169,4,13,mokylin.com,CN,Asia,Eastern Asia,China,Zhejiang,,Hangzhou
47.99.78.207,4,13,mooool.com,CN,Asia,Eastern Asia,China,Zhejiang,,Hangzhou
120.27.215.192,4,48,motrotech.com,CN,Asia,Eastern Asia,China,Zhejiang,,Hangzhou
47.114.113.62,4,26,mtzscp.com,CN,Asia,Eastern Asia,China,Zhejiang,,Hangzhou
120.26.108.120,4,15,muziang.com,CN,Asia,Eastern Asia,China,Zhejiang,,Hangzhou
118.31.34.116,4,28,mymixgo.com,CN,Asia,Eastern Asia,China,Zhejiang,,Hangzhou
47.110.43.163,4,21,nabel.cc,CN,Asia,Eastern Asia,China,Zhejiang,,Hangzhou
47.98.214.114,4,20,navo.top,CN,Asia,Eastern Asia,China,Zhejiang,,Hangzhou
121.40.195.222,4,14,ne21.com,CN,Asia,Eastern Asia,China,Zhejiang,,Hangzhou
121.40.36.42,4,34,netzone.com,CN,Asia,Eastern Asia,China,Zhejiang,,Hangzhou
116.62.133.65,4,7,newoo.com,CN,Asia,Eastern Asia,China,Zhejiang,,Hangzhou
121.41.17.254,4,15,nfcmag.com,CN,Asia,Eastern Asia,China,Zhejiang,,Hangzhou
120.26.47.2,4,18,nuoxucable.com,CN,Asia,Eastern Asia,China,Zhejiang,,Hangzhou
118.178.193.97,4,37,ofilm.com,CN,Asia,Eastern Asia,China,Zhejiang,,Hangzhou
47.99.121.126,4,28,onpow.com,CN,Asia,Eastern Asia,China,Zhejiang,,Hangzhou
47.111.11.73,4,13,openedv.com,CN,Asia,Eastern Asia,China,Zhejiang,,Hangzhou
121.196.198.240,4,15,openjudge.cn,CN,Asia,Eastern Asia,China,Zhejiang,,Hangzhou
47.110.142.43,4,21,oray.com,CN,Asia,Eastern Asia,China,Zhejiang,,Hangzhou
121.40.246.104,4,25,orgcc.com,CN,Asia,Eastern Asia,China,Zhejiang,,Hangzhou
47.110.240.70,4,27,orientscape.com,CN,Asia,Eastern Asia,China,Zhejiang,,Hangzhou
47.96.40.19,4,29,orthok.cn,CN,Asia,Eastern Asia,China,Zhejiang,,Hangzhou
47.110.240.238,4,23,osram.com.cn,CN,Asia,Eastern Asia,China,Zhejiang,,Hangzhou
121.40.104.56,4,15,osyunwei.com,CN,Asia,Eastern Asia,China,Zhejiang,,Hangzhou
121.196.246.156,4,25,ouies88.com,CN,Asia,Eastern Asia,China,Zhejiang,,Hangzhou
114.55.74.178,4,25,pagoda.com.cn,CN,Asia,Eastern Asia,China,Zhejiang,,Hangzhou
116.62.112.38,4,27,paixin.com,CN,Asia,Eastern Asia,China,Zhejiang,,Hangzhou
47.110.89.0,4,14,pcbjob.com,CN,Asia,Eastern Asia,China,Zhejiang,,Hangzhou
47.98.221.60,4,35,pd-electric.com,CN,Asia,Eastern Asia,China,Zhejiang,,Hangzhou
121.40.242.238,4,69,pethr.com,CN,Asia,Eastern Asia,China,Zhejiang,,Hangzhou
47.98.114.153,4,48,ph66.com,CN,Asia,Eastern Asia,China,Zhejiang,,Hangzhou
47.98.103.81,4,19,photosir.com,CN,Asia,Eastern Asia,China,Zhejiang,,Hangzhou
120.26.77.20,4,458102,php168.cn,CN,Asia,Eastern Asia,China,Zhejiang,,Hangzhou
114.55.131.238,4,18,pianyissl.com,CN,Asia,Eastern Asia,China,Zhejiang,,Hangzhou
47.111.18.180,4,47,picup.shop,CN,Asia,Eastern Asia,China,Zhejiang,,Hangzhou
121.40.74.170,4,271242,pipaw.com,CN,Asia,Eastern Asia,China,Zhejiang,,Hangzhou
121.199.19.123,4,23,poem-rhyming.cn,CN,Asia,Eastern Asia,China,Zhejiang,,Hangzhou
114.55.119.26,4,17,polebrief.com,CN,Asia,Eastern Asia,China,Zhejiang,,Hangzhou
47.110.148.119,4,16,prowine-shanghai.com,CN,Asia,Eastern Asia,China,Zhejiang,,Hangzhou
121.40.250.19,4,20,psychspace.com,CN,Asia,Eastern Asia,China,Zhejiang,,Hangzhou
120.27.128.96,4,15,ptfang.com,CN,Asia,Eastern Asia,China,Zhejiang,,Hangzhou
47.97.161.235,4,27,puritek.com.cn,CN,Asia,Eastern Asia,China,Zhejiang,,Hangzhou
121.196.9.62,4,28,px361.com,CN,Asia,Eastern Asia,China,Zhejiang,,Hangzhou
47.98.166.89,4,51,pzhl.net,CN,Asia,Eastern Asia,China,Zhejiang,,Hangzhou
47.97.182.55,4,15,qciot.com.cn,CN,Asia,Eastern Asia,China,Zhejiang,,Hangzhou
118.178.142.125,4,12,qidianla.com,CN,Asia,Eastern Asia,China,Zhejiang,,Hangzhou
114.55.36.52,4,12,qrxs.cn,CN,Asia,Eastern Asia,China,Zhejiang,,Hangzhou
121.40.102.190,4,26,qzrcw.com,CN,Asia,Eastern Asia,China,Zhejiang,,Hangzhou
47.97.178.14,4,51,renprene.com,CN,Asia,Eastern Asia,China,Zhejiang,,Hangzhou
120.27.196.229,4,13,renwuyi.com,CN,Asia,Eastern Asia,China,Zhejiang,,Hangzhou
121.40.131.104,4,14,rh580.com,CN,Asia,Eastern Asia,China,Zhejiang,,Hangzhou
47.110.125.50,4,13,risenenergy.com,CN,Asia,Eastern Asia,China,Zhejiang,,Hangzhou
112.124.15.139,4,27,robots-cn.com,CN,Asia,Eastern Asia,China,Zhejiang,,Hangzhou
47.96.16.211,4,63,romon.com,CN,Asia,Eastern Asia,China,Zhejiang,,Hangzhou
47.110.94.179,4,49,rorke.com.cn,CN,Asia,Eastern Asia,China,Zhejiang,,Hangzhou
47.99.153.133,4,37,ruanwen.cc,CN,Asia,Eastern Asia,China,Zhejiang,,Hangzhou
120.26.65.181,4,16,rubik.com.cn,CN,Asia,Eastern Asia,China,Zhejiang,,Hangzhou
116.62.196.41,4,28,ruian.com,CN,Asia,Eastern Asia,China,Zhejiang,,Hangzhou
47.96.112.194,4,15,rzsimc.com,CN,Asia,Eastern Asia,China,Zhejiang,,Hangzhou
114.55.62.72,4,53,rzx.me,CN,Asia,Eastern Asia,China,Zhejiang,,Hangzhou
120.27.193.237,4,28,s0580.cn,CN,Asia,Eastern Asia,China,Zhejiang,,Hangzhou
121.41.66.98,4,37,scomtp.cn,CN,Asia,Eastern Asia,China,Zhejiang,,Hangzhou
116.62.178.104,4,35,scxsls.com,CN,Asia,Eastern Asia,China,Zhejiang,,Hangzhou
121.199.4.211,4,12,secrui-group.cn,CN,Asia,Eastern Asia,China,Zhejiang,,Hangzhou
121.40.130.156,4,27,secrui-group.com,CN,Asia,Eastern Asia,China,Zhejiang,,Hangzhou
47.98.63.131,4,46,selleck.cn,CN,Asia,Eastern Asia,China,Zhejiang,,Hangzhou
120.27.194.128,4,43,sensor4you.com,CN,Asia,Eastern Asia,China,Zhejiang,,Hangzhou
47.111.234.42,4,37,septwolves.com,CN,Asia,Eastern Asia,China,Zhejiang,,Hangzhou
112.127.77.33,4,54,shamoji13.com,CN,Asia,Eastern Asia,China,Zhejiang,,Hangzhou
60.190.243.160,4,29,shangbiao.com,CN,Asia,Eastern Asia,China,Zhejiang,,Hangzhou
120.26.240.143,4,33,shangbiaocheng.com,CN,Asia,Eastern Asia,China,Zhejiang,,Hangzhou
121.41.224.230,4,24,shanghairanking.com,CN,Asia,Eastern Asia,China,Zhejiang,,Hangzhou
47.114.108.219,4,21,shanghaiweicon.com,CN,Asia,Eastern Asia,China,Zhejiang,,Hangzhou
60.12.182.202,4,-28834485,shaoxing.com.cn,CN,Asia,Eastern Asia,China,Zhejiang,,Hangzhou
125.124.6.50,4,24,shaoxingwine.com.cn,CN,Asia,Eastern Asia,China,Zhejiang,,Hangzhou
120.27.233.226,4,24,shebeiq.com,CN,Asia,Eastern Asia,China,Zhejiang,,Hangzhou
116.62.139.5,4,38,shejicloud.com,CN,Asia,Eastern Asia,China,Zhejiang,,Hangzhou
112.124.26.230,4,19,shephe.com,CN,Asia,Eastern Asia,China,Zhejiang,,Hangzhou
47.110.240.99,4,15,shewin.com,CN,Asia,Eastern Asia,China,Zhejiang,,Hangzhou
118.178.138.15,4,27,shicaiexpo.com,CN,Asia,Eastern Asia,China,Zhejiang,,Hangzhou
47.99.110.12,4,14,shopyy.com,CN,Asia,Eastern Asia,China,Zhejiang,,Hangzhou
47.99.244.13,4,26,shyzbj.com.cn,CN,Asia,Eastern Asia,China,Zhejiang,,Hangzhou
47.111.131.255,4,11,sierra-asia.com,CN,Asia,Eastern Asia,China,Zhejiang,,Hangzhou
47.96.132.26,4,36,sioe.cn,CN,Asia,Eastern Asia,China,Zhejiang,,Hangzhou
101.37.28.248,4,13,sizhengke.net,CN,Asia,Eastern Asia,China,Zhejiang,,Hangzhou
47.96.66.234,4,12,sksmg.com,CN,Asia,Eastern Asia,China,Zhejiang,,Hangzhou
101.71.63.233,4,147,snh48.com,CN,Asia,Eastern Asia,China,Zhejiang,,Hangzhou
121.41.45.22,4,60,socialbeta.com,CN,Asia,Eastern Asia,China,Zhejiang,,Hangzhou
121.41.93.155,4,22,sohocapital.cn,CN,Asia,Eastern Asia,China,Zhejiang,,Hangzhou
120.26.96.48,4,38,solarzoom.com,CN,Asia,Eastern Asia,China,Zhejiang,,Hangzhou
47.99.40.4,4,27,solidwaste.com.cn,CN,Asia,Eastern Asia,China,Zhejiang,,Hangzhou
47.99.151.219,4,55,songyi.net,CN,Asia,Eastern Asia,China,Zhejiang,,Hangzhou
121.41.9.61,4,21,sowang.com,CN,Asia,Eastern Asia,China,Zhejiang,,Hangzhou
120.27.143.38,4,17,spsb114.com,CN,Asia,Eastern Asia,China,Zhejiang,,Hangzhou
101.37.27.194,4,26,sqyhw.com,CN,Asia,Eastern Asia,China,Zhejiang,,Hangzhou
118.31.174.222,4,27,stackoom.com,CN,Asia,Eastern Asia,China,Zhejiang,,Hangzhou
47.118.49.104,4,20,stormzhang.com,CN,Asia,Eastern Asia,China,Zhejiang,,Hangzhou
114.215.180.88,4,15,sudu.cn,CN,Asia,Eastern Asia,China,Zhejiang,,Hangzhou
121.196.236.141,4,25,suna-opto.com,CN,Asia,Eastern Asia,China,Zhejiang,,Hangzhou
112.124.178.202,4,3166,sungine.com,CN,Asia,Eastern Asia,China,Zhejiang,,Hangzhou
47.96.99.9,4,29,supezet.com,CN,Asia,Eastern Asia,China,Zhejiang,,Hangzhou
120.55.51.124,4,21,sydsjxzzc.com,CN,Asia,Eastern Asia,China,Zhejiang,,Hangzhou
47.99.70.53,4,17,syfym.cn,CN,Asia,Eastern Asia,China,Zhejiang,,Hangzhou
118.178.195.154,4,13,szdushi.com.cn,CN,Asia,Eastern Asia,China,Zhejiang,,Hangzhou
47.114.93.33,4,24,szsjtc.com,CN,Asia,Eastern Asia,China,Zhejiang,,Hangzhou
120.27.193.102,4,40,szsunpa.com,CN,Asia,Eastern Asia,China,Zhejiang,,Hangzhou
47.98.141.162,4,15,sztszn.com,CN,Asia,Eastern Asia,China,Zhejiang,,Hangzhou
47.111.158.68,4,12,szxianqiege.com,CN,Asia,Eastern Asia,China,Zhejiang,,Hangzhou
124.160.125.146,4,-30001,tahua.net,CN,Asia,Eastern Asia,China,Zhejiang,,Hangzhou
116.62.130.26,4,36,taoguba.com.cn,CN,Asia,Eastern Asia,China,Zhejiang,,Hangzhou
47.99.90.10,4,16,taoic.com,CN,Asia,Eastern Asia,China,Zhejiang,,Hangzhou
116.62.241.11,4,25,taowenhua.cn,CN,Asia,Eastern Asia,China,Zhejiang,,Hangzhou
121.40.38.195,4,28,tdzyw.com,CN,Asia,Eastern Asia,China,Zhejiang,,Hangzhou
112.124.184.246,4,56,techno-decor.com.cn,CN,Asia,Eastern Asia,China,Zhejiang,,Hangzhou
8.136.9.176,4,43,teze.cc,CN,Asia,Eastern Asia,China,Zhejiang,,Hangzhou
8.154.40.3,4,20,tg46023.cn,CN,Asia,Eastern Asia,China,Zhejiang,,Hangzhou
47.98.42.41,4,13,themebetter.com,CN,Asia,Eastern Asia,China,Zhejiang,,Hangzhou
118.31.37.201,4,53,thmovie.com,CN,Asia,Eastern Asia,China,Zhejiang,,Hangzhou
124.225.190.68,4,26,tkgame.com,CN,Asia,Eastern Asia,China,Zhejiang,,Hangzhou
124.225.141.8,4,43,tkgame.com,CN,Asia,Eastern Asia,China,Zhejiang,,Hangzhou
121.199.48.78,4,29,tokensky.net,CN,Asia,Eastern Asia,China,Zhejiang,,Hangzhou
47.110.49.114,4,29,tom365.cn,CN,Asia,Eastern Asia,China,Zhejiang,,Hangzhou
121.43.166.27,4,28,tool.lu,CN,Asia,Eastern Asia,China,Zhejiang,,Hangzhou
116.62.87.236,4,41,tosound.com,CN,Asia,Eastern Asia,China,Zhejiang,,Hangzhou
121.199.7.238,4,147,tretars.com,CN,Asia,Eastern Asia,China,Zhejiang,,Hangzhou
121.196.58.127,4,14,tubaohome.com,CN,Asia,Eastern Asia,China,Zhejiang,,Hangzhou
47.96.159.76,4,26,tupian114.com,CN,Asia,Eastern Asia,China,Zhejiang,,Hangzhou
121.40.251.90,4,15,tvix.cn,CN,Asia,Eastern Asia,China,Zhejiang,,Hangzhou
121.196.59.181,4,21,tw-reagent.com,CN,Asia,Eastern Asia,China,Zhejiang,,Hangzhou
116.62.210.116,4,14,twbxyz.net,CN,Asia,Eastern Asia,China,Zhejiang,,Hangzhou
47.98.132.25,4,26,uezxc.com,CN,Asia,Eastern Asia,China,Zhejiang,,Hangzhou
112.124.35.162,4,12,ufh.com.cn,CN,Asia,Eastern Asia,China,Zhejiang,,Hangzhou
47.110.125.236,4,49,uiiiuiii.com,CN,Asia,Eastern Asia,China,Zhejiang,,Hangzhou
47.110.159.73,4,50,uiiiuiii.com,CN,Asia,Eastern Asia,China,Zhejiang,,Hangzhou
121.40.176.66,4,26,uisdc.com,CN,Asia,Eastern Asia,China,Zhejiang,,Hangzhou
121.41.93.19,4,18,uisdc.com,CN,Asia,Eastern Asia,China,Zhejiang,,Hangzhou
116.62.57.130,4,32,underwearshanghai.com,CN,Asia,Eastern Asia,China,Zhejiang,,Hangzhou
47.96.184.0,4,32,uszcn.com,CN,Asia,Eastern Asia,China,Zhejiang,,Hangzhou
121.41.27.155,4,41,veken.com,CN,Asia,Eastern Asia,China,Zhejiang,,Hangzhou
121.43.119.23,4,63,vifa.cn,CN,Asia,Eastern Asia,China,Zhejiang,,Hangzhou
121.40.108.113,4,28,viguu.net,CN,Asia,Eastern Asia,China,Zhejiang,,Hangzhou
121.196.24.43,4,53,viltd.com,CN,Asia,Eastern Asia,China,Zhejiang,,Hangzhou
175.6.165.100,4,33,vlink.cc,CN,Asia,Eastern Asia,China,Zhejiang,,Hangzhou
47.98.190.157,4,30,vphotos.cn,CN,Asia,Eastern Asia,China,Zhejiang,,Hangzhou
116.62.8.158,4,25,vvjob.com,CN,Asia,Eastern Asia,China,Zhejiang,,Hangzhou
114.55.236.102,4,25,vx.com,CN,Asia,Eastern Asia,China,Zhejiang,,Hangzhou
47.98.165.45,4,15,waimaoniu.net,CN,Asia,Eastern Asia,China,Zhejiang,,Hangzhou
121.40.128.194,4,25,wenangou.com,CN,Asia,Eastern Asia,China,Zhejiang,,Hangzhou
47.97.23.20,4,16,wetherm.com,CN,Asia,Eastern Asia,China,Zhejiang,,Hangzhou
115.29.223.14,4,15,whhwsh.com,CN,Asia,Eastern Asia,China,Zhejiang,,Hangzhou
47.97.117.77,4,25,whuss.com,CN,Asia,Eastern Asia,China,Zhejiang,,Hangzhou
8.149.129.83,4,21,wissun.com.cn,CN,Asia,Eastern Asia,China,Zhejiang,,Hangzhou
121.41.96.66,4,13,wnav.cn,CN,Asia,Eastern Asia,China,Zhejiang,,Hangzhou
115.29.179.49,4,26,woshipm.com,CN,Asia,Eastern Asia,China,Zhejiang,,Hangzhou
114.55.74.14,4,13,wuhudj.com,CN,Asia,Eastern Asia,China,Zhejiang,,Hangzhou
47.97.4.109,4,16,wuxhqi.com,CN,Asia,Eastern Asia,China,Zhejiang,,Hangzhou
47.99.56.20,4,43,wxb.com,CN,Asia,Eastern Asia,China,Zhejiang,,Hangzhou
121.43.151.101,4,26,wxgp.com,CN,Asia,Eastern Asia,China,Zhejiang,,Hangzhou
47.110.61.93,4,24,wxjui.com,CN,Asia,Eastern Asia,China,Zhejiang,,Hangzhou
47.110.54.236,4,33,wxy99.com,CN,Asia,Eastern Asia,China,Zhejiang,,Hangzhou
47.111.121.91,4,15,wzyjs.com,CN,Asia,Eastern Asia,China,Zhejiang,,Hangzhou
121.199.0.116,4,13,x-mol.com,CN,Asia,Eastern Asia,China,Zhejiang,,Hangzhou
114.55.166.154,4,42,xbext.com,CN,Asia,Eastern Asia,China,Zhejiang,,Hangzhou
121.40.198.14,4,14,xbmiaomu.com,CN,Asia,Eastern Asia,China,Zhejiang,,Hangzhou
120.55.68.65,4,29,xgmesh.com,CN,Asia,Eastern Asia,China,Zhejiang,,Hangzhou
121.40.103.238,4,14,xiami.com,CN,Asia,Eastern Asia,China,Zhejiang,,Hangzhou
121.40.193.188,4,34,xiaogushi.com,CN,Asia,Eastern Asia,China,Zhejiang,,Hangzhou
121.43.173.240,4,25,xiaolincoding.com,CN,Asia,Eastern Asia,China,Zhejiang,,Hangzhou
120.27.232.140,4,812,xiaomiaozn.com,CN,Asia,Eastern Asia,China,Zhejiang,,Hangzhou
121.43.101.81,4,12,xiashanet.com,CN,Asia,Eastern Asia,China,Zhejiang,,Hangzhou
116.62.133.149,4,27,xicp.net,CN,Asia,Eastern Asia,China,Zhejiang,,Hangzhou
47.98.254.100,4,26,xingxiancn.com,CN,Asia,Eastern Asia,China,Zhejiang,,Hangzhou
118.31.64.219,4,14,xinhaolian.com,CN,Asia,Eastern Asia,China,Zhejiang,,Hangzhou
115.29.241.184,4,15,xiren.com.cn,CN,Asia,Eastern Asia,China,Zhejiang,,Hangzhou
112.124.203.193,4,13,xj-medical.com,CN,Asia,Eastern Asia,China,Zhejiang,,Hangzhou
121.40.204.202,4,110,xnfgxh.com,CN,Asia,Eastern Asia,China,Zhejiang,,Hangzhou
120.26.217.159,4,13,xuanjiyi.com,CN,Asia,Eastern Asia,China,Zhejiang,,Hangzhou
101.71.13.144,4,400384,xueanquan.com,CN,Asia,Eastern Asia,China,Zhejiang,,Hangzhou
120.26.207.166,4,29,xuehui.com,CN,Asia,Eastern Asia,China,Zhejiang,,Hangzhou
120.27.212.200,4,15,xungou.com,CN,Asia,Eastern Asia,China,Zhejiang,,Hangzhou
121.199.40.196,4,26,xutao.com,CN,Asia,Eastern Asia,China,Zhejiang,,Hangzhou
47.96.135.4,4,10,xx0376.com,CN,Asia,Eastern Asia,China,Zhejiang,,Hangzhou
121.196.153.31,4,14,xylptj.com,CN,Asia,Eastern Asia,China,Zhejiang,,Hangzhou
47.96.9.52,4,25,xysfybjy.org.cn,CN,Asia,Eastern Asia,China,Zhejiang,,Hangzhou
121.40.41.145,4,11,xyz-soft.com,CN,Asia,Eastern Asia,China,Zhejiang,,Hangzhou
47.98.166.168,4,10,yasuotu.com,CN,Asia,Eastern Asia,China,Zhejiang,,Hangzhou
47.99.201.255,4,46,yazhoudun.com,CN,Asia,Eastern Asia,China,Zhejiang,,Hangzhou
121.40.26.233,4,41,yeeyan.org,CN,Asia,Eastern Asia,China,Zhejiang,,Hangzhou
101.37.65.43,4,28,yifutu.com,CN,Asia,Eastern Asia,China,Zhejiang,,Hangzhou
112.124.103.85,4,30,yiibai.com,CN,Asia,Eastern Asia,China,Zhejiang,,Hangzhou
121.40.61.44,4,21,yimuexhibits.com,CN,Asia,Eastern Asia,China,Zhejiang,,Hangzhou
121.43.185.149,4,36,yinhangzhaopin.com,CN,Asia,Eastern Asia,China,Zhejiang,,Hangzhou
120.27.214.218,4,13,yiqi.com,CN,Asia,Eastern Asia,China,Zhejiang,,Hangzhou
121.41.9.213,4,22,yiranzh.com,CN,Asia,Eastern Asia,China,Zhejiang,,Hangzhou
47.114.186.60,4,13,yishijy.com,CN,Asia,Eastern Asia,China,Zhejiang,,Hangzhou
120.55.99.235,4,10,yiwuku.com,CN,Asia,Eastern Asia,China,Zhejiang,,Hangzhou
121.196.233.105,4,32,ynrfgz.cn,CN,Asia,Eastern Asia,China,Zhejiang,,Hangzhou
47.98.60.41,4,18,yonggao.cn,CN,Asia,Eastern Asia,China,Zhejiang,,Hangzhou
47.111.21.68,4,14,yongsy.com,CN,Asia,Eastern Asia,China,Zhejiang,,Hangzhou
120.27.236.38,4,22,youfaka.com,CN,Asia,Eastern Asia,China,Zhejiang,,Hangzhou
121.199.2.253,4,13,youlaiduo.com,CN,Asia,Eastern Asia,China,Zhejiang,,Hangzhou
47.98.180.163,4,25,youyefanxing.com,CN,Asia,Eastern Asia,China,Zhejiang,,Hangzhou
47.114.184.120,4,27,yric.cn,CN,Asia,Eastern Asia,China,Zhejiang,,Hangzhou
47.98.170.175,4,15,ys433127.com,CN,Asia,Eastern Asia,China,Zhejiang,,Hangzhou
112.124.183.41,4,27,yuanart.net,CN,Asia,Eastern Asia,China,Zhejiang,,Hangzhou
114.55.37.171,4,27,yuhangq.com,CN,Asia,Eastern Asia,China,Zhejiang,,Hangzhou
60.190.243.167,4,26,yumi.com,CN,Asia,Eastern Asia,China,Zhejiang,,Hangzhou
47.96.145.251,4,13,yunucms.com,CN,Asia,Eastern Asia,China,Zhejiang,,Hangzhou
8.136.13.136,4,12,yy11.com,CN,Asia,Eastern Asia,China,Zhejiang,,Hangzhou
118.31.115.15,4,14,yzgz.cn,CN,Asia,Eastern Asia,China,Zhejiang,,Hangzhou
116.62.165.190,4,28,yzkmp.com,CN,Asia,Eastern Asia,China,Zhejiang,,Hangzhou
47.97.96.208,4,27,yzmg.com,CN,Asia,Eastern Asia,China,Zhejiang,,Hangzhou
47.99.199.249,4,30,zcuns.com,CN,Asia,Eastern Asia,China,Zhejiang,,Hangzhou
47.98.102.17,4,9,zgcdcia.org.cn,CN,Asia,Eastern Asia,China,Zhejiang,,Hangzhou
47.98.222.93,4,26,zgyssyw.com,CN,Asia,Eastern Asia,China,Zhejiang,,Hangzhou
121.40.234.182,4,13,zhanc.com,CN,Asia,Eastern Asia,China,Zhejiang,,Hangzhou
47.98.246.159,4,22,zhangguizi.com,CN,Asia,Eastern Asia,China,Zhejiang,,Hangzhou
47.96.182.90,4,26,zhangsiqi.com,CN,Asia,Eastern Asia,China,Zhejiang,,Hangzhou
47.96.121.186,4,16,zhangxinxu.com,CN,Asia,Eastern Asia,China,Zhejiang,,Hangzhou
47.98.245.113,4,34,zhaomingr.com,CN,Asia,Eastern Asia,China,Zhejiang,,Hangzhou
114.215.253.21,4,12,zhileng.com,CN,Asia,Eastern Asia,China,Zhejiang,,Hangzhou
120.26.217.44,4,13,zhitongcaijing.com,CN,Asia,Eastern Asia,China,Zhejiang,,Hangzhou
47.96.11.109,4,15,zhizuoh5.com,CN,Asia,Eastern Asia,China,Zhejiang,,Hangzhou
121.41.167.219,4,12,zhonglei999.com,CN,Asia,Eastern Asia,China,Zhejiang,,Hangzhou
120.55.86.146,4,16,zhuanyes.com,CN,Asia,Eastern Asia,China,Zhejiang,,Hangzhou
120.55.114.130,4,24,zhusu.org,CN,Asia,Eastern Asia,China,Zhejiang,,Hangzhou
47.98.96.214,4,28,zisha.com,CN,Asia,Eastern Asia,China,Zhejiang,,Hangzhou
121.43.52.69,4,25,zjgwy.org,CN,Asia,Eastern Asia,China,Zhejiang,,Hangzhou
47.99.223.187,4,41,zjiplaw.cn,CN,Asia,Eastern Asia,China,Zhejiang,,Hangzhou
112.124.59.64,4,12,zjzk.cn,CN,Asia,Eastern Asia,China,Zhejiang,,Hangzhou
121.40.30.58,4,36,zkall.com,CN,Asia,Eastern Asia,China,Zhejiang,,Hangzhou
121.40.213.19,4,13,zli.me,CN,Asia,Eastern Asia,China,Zhejiang,,Hangzhou
114.215.191.157,4,13,znds.com,CN,Asia,Eastern Asia,China,Zhejiang,,Hangzhou
223.95.251.147,4,4,zotye.com,CN,Asia,Eastern Asia,China,Zhejiang,,Hangzhou
47.97.121.45,4,25,ztmao.com,CN,Asia,Eastern Asia,China,Zhejiang,,Hangzhou
121.43.176.131,4,12,zx236.cn,CN,Asia,Eastern Asia,China,Zhejiang,,Hangzhou
120.26.66.166,4,13,zz91.com,CN,Asia,Eastern Asia,China,Zhejiang,,Hangzhou
47.97.82.58,4,28,zzxworld.com,CN,Asia,Eastern Asia,China,Zhejiang,,Hangzhou
