reflector_ip,ip_version,offset,description,country_code,region,sub_region,country_name,sub_division_1,sub_division_2,city
85.13.214.218,4,4,arcmusic.co.uk,GB,Europe,Northern Europe,United Kingdom,England,Southwark,Southwark
85.13.193.249,4,21,coreix.net,GB,Europe,Northern Europe,United Kingdom,England,Southwark,Southwark
193.234.223.31,4,812,dcjfjx.com,GB,Europe,Northern Europe,United Kingdom,England,Southwark,Southwark
185.24.122.178,4,-576078,DNS Server: 185.24.122.178.bcube.co.uk,GB,Europe,Northern Europe,United Kingdom,England,Southwark,Southwark
89.145.244.60,4,59382,DNS Server: 89-145-244-60.xdsl.murphx.net,GB,Europe,Northern Europe,United Kingdom,England,Southwark,Southwark
62.244.181.66,4,27059041,DNS Server: dsl048109-rtr-017347.fou005.sohoh0053.cpe.exponential-e.net,GB,Europe,Northern Europe,United Kingdom,England,Southwark,Southwark
89.145.240.121,4,-8225,DNS Server: gw.jms-ltd.co.uk,GB,Europe,Northern Europe,United Kingdom,England,Southwark,Southwark
89.145.240.120,4,-8078,DNS Server: nw.jms-ltd.co.uk,GB,Europe,Northern Europe,United Kingdom,England,Southwark,Southwark
178.32.61.143,4,39,eboardresults.com,GB,Europe,Northern Europe,United Kingdom,England,Southwark,Southwark
192.71.65.186,4,835,kodatemae.com,GB,Europe,Northern Europe,United Kingdom,England,Southwark,Southwark
178.32.63.92,4,22,linkpaginas.nl,GB,Europe,Northern Europe,United Kingdom,England,Southwark,Southwark
178.32.59.31,4,2,lotsofwords.com,GB,Europe,Northern Europe,United Kingdom,England,Southwark,Southwark
193.234.165.223,4,1095,m4if.org,GB,Europe,Northern Europe,United Kingdom,England,Southwark,Southwark
192.71.64.177,4,808,nayamiallkaiketu.net,GB,Europe,Northern Europe,United Kingdom,England,Southwark,Southwark
178.32.57.201,4,37,omacl.org,GB,Europe,Northern Europe,United Kingdom,England,Southwark,Southwark
85.13.206.66,4,8,originlive.com,GB,Europe,Northern Europe,United Kingdom,England,Southwark,Southwark
178.32.59.193,4,3,pronunciationstudio.com,GB,Europe,Northern Europe,United Kingdom,England,Southwark,Southwark
178.32.59.150,4,38,psyeta.org,GB,Europe,Northern Europe,United Kingdom,England,Southwark,Southwark
78.129.146.44,4,528,rallydesign.co.uk,GB,Europe,Northern Europe,United Kingdom,England,Southwark,Southwark
85.13.208.134,4,43,signumrecords.com,GB,Europe,Northern Europe,United Kingdom,England,Southwark,Southwark
178.32.60.35,4,84,start-links.nl,GB,Europe,Northern Europe,United Kingdom,England,Southwark,Southwark
178.32.56.250,4,34,startbewijs.nl,GB,Europe,Northern Europe,United Kingdom,England,Southwark,Southwark
85.13.244.46,4,3,tropicalstormrisk.com,GB,Europe,Northern Europe,United Kingdom,England,Southwark,Southwark
178.32.61.23,4,67,vivistats.com,GB,Europe,Northern Europe,United Kingdom,England,Southwark,Southwark
178.32.60.126,4,5,whocalledmeuk.co.uk,GB,Europe,Northern Europe,United Kingdom,England,Southwark,Southwark
