reflector_ip,ip_version,offset,description,country_code,region,sub_region,country_name,sub_division_1,sub_division_2,city
46.30.215.5,4,7,10000-mail-order-brides.com,DK,Europe,Northern Europe,Denmark,Capital Region,,Copenhagen
77.111.240.213,4,4,112handyman.com,DK,Europe,Northern Europe,Denmark,Capital Region,,Copenhagen
46.30.213.121,4,6,123minsida.se,DK,Europe,Northern Europe,Denmark,Capital Region,,Copenhagen
46.30.213.106,4,4,123siteweb.fr,DK,Europe,Northern Europe,Denmark,Capital Region,,Copenhagen
91.184.31.182,4,7,123vloerverwarming.nl,DK,Europe,Northern Europe,Denmark,Capital Region,,Copenhagen
46.30.213.82,4,4,123website.nl,DK,Europe,Northern Europe,Denmark,Capital Region,,Copenhagen
185.21.42.106,4,5,1864.dk,DK,Europe,Northern Europe,Denmark,,,
46.30.213.61,4,11,2484.de,DK,Europe,Northern Europe,Denmark,Capital Region,,Copenhagen
91.184.31.105,4,4,24high.nl,DK,Europe,Northern Europe,Denmark,Capital Region,,Copenhagen
46.30.213.95,4,5,24syv.dk,DK,Europe,Northern Europe,Denmark,Capital Region,,Copenhagen
94.231.106.54,4,6,2dgf.dk,DK,Europe,Northern Europe,Denmark,,,
94.231.101.73,4,6,aabne-samlinger.dk,DK,Europe,Northern Europe,Denmark,,,
185.21.41.130,4,30,absaloncph.dk,DK,Europe,Northern Europe,Denmark,,,
46.30.213.160,4,9,academia.dk,DK,Europe,Northern Europe,Denmark,Capital Region,,Copenhagen
77.111.240.116,4,47,activehouse.info,DK,Europe,Northern Europe,Denmark,Capital Region,,Copenhagen
77.111.240.155,4,30,addeditore.it,DK,Europe,Northern Europe,Denmark,Capital Region,,Copenhagen
185.21.41.51,4,7,adhd.dk,DK,Europe,Northern Europe,Denmark,,,
185.21.41.142,4,19,aeroe-ferry.dk,DK,Europe,Northern Europe,Denmark,,,
94.231.103.26,4,46,aezay.dk,DK,Europe,Northern Europe,Denmark,,,
91.184.8.2,4,63,akinci.nl,DK,Europe,Northern Europe,Denmark,Capital Region,,Copenhagen
46.30.213.100,4,54,al-qanon.com,DK,Europe,Northern Europe,Denmark,Capital Region,,Copenhagen
93.191.156.187,4,6,alexandra.dk,DK,Europe,Northern Europe,Denmark,,,
77.111.241.91,4,7,alltopeverything.com,DK,Europe,Northern Europe,Denmark,Capital Region,,Copenhagen
185.95.24.223,4,25,amayzine.com,DK,Europe,Northern Europe,Denmark,Capital Region,,Copenhagen
46.30.213.172,4,5,amelandermusea.nl,DK,Europe,Northern Europe,Denmark,Capital Region,,Copenhagen
93.191.158.48,4,5,aminodangroup.dk,DK,Europe,Northern Europe,Denmark,,,
94.143.8.102,4,27,andlight.dk,DK,Europe,Northern Europe,Denmark,Central Jutland,,Skanderborg
94.231.101.70,4,6,ankiro.dk,DK,Europe,Northern Europe,Denmark,,,
212.97.141.30,4,11,anneback.dk,DK,Europe,Northern Europe,Denmark,,,
46.183.141.32,4,10,annehodal.dk,DK,Europe,Northern Europe,Denmark,,,
91.184.0.25,4,8,aopen.nl,DK,Europe,Northern Europe,Denmark,Capital Region,,Copenhagen
91.184.0.24,4,10,applesnail.net,DK,Europe,Northern Europe,Denmark,Capital Region,,Copenhagen
93.191.157.3,4,2194,aquaporin.com,DK,Europe,Northern Europe,Denmark,,,
46.30.213.142,4,14,arcadebelgium.be,DK,Europe,Northern Europe,Denmark,Capital Region,,Copenhagen
46.30.213.177,4,46,arenes-arles.com,DK,Europe,Northern Europe,Denmark,Capital Region,,Copenhagen
94.231.106.72,4,53,arriva.dk,DK,Europe,Northern Europe,Denmark,,,
185.20.205.39,4,19,article-realm.com,DK,Europe,Northern Europe,Denmark,,,
77.111.240.200,4,4,artisticrender.com,DK,Europe,Northern Europe,Denmark,Capital Region,,Copenhagen
77.111.240.113,4,29,ascii-code.com,DK,Europe,Northern Europe,Denmark,Capital Region,,Copenhagen
94.231.106.7,4,120,asofa.dk,DK,Europe,Northern Europe,Denmark,,,
94.231.103.188,4,88,astrofotografen.se,DK,Europe,Northern Europe,Denmark,,,
93.191.158.19,4,4,aubo.dk,DK,Europe,Northern Europe,Denmark,,,
130.225.63.3,4,-11702,auc.dk,DK,Europe,Northern Europe,Denmark,,,
185.31.79.130,4,32,audiovector.com,DK,Europe,Northern Europe,Denmark,,,
185.21.43.12,4,15,aul.gl,DK,Europe,Northern Europe,Denmark,,,
46.30.213.143,4,5,aurallandscape.net,DK,Europe,Northern Europe,Denmark,Capital Region,,Copenhagen
77.111.240.104,4,48,auraskypool.com,DK,Europe,Northern Europe,Denmark,Capital Region,,Copenhagen
94.231.108.240,4,39,auschwitz.dk,DK,Europe,Northern Europe,Denmark,,,
77.111.240.230,4,26,aviationregionalequebec.com,DK,Europe,Northern Europe,Denmark,Capital Region,,Copenhagen
185.21.42.211,4,9,avjf.dk,DK,Europe,Northern Europe,Denmark,,,
46.30.213.5,4,71,b2bmarketeers.nl,DK,Europe,Northern Europe,Denmark,Capital Region,,Copenhagen
91.184.0.63,4,12,baasdeband.nl,DK,Europe,Northern Europe,Denmark,Capital Region,,Copenhagen
185.21.42.206,4,11,babyklar.dk,DK,Europe,Northern Europe,Denmark,,,
77.111.240.242,4,4,bachflower.com,DK,Europe,Northern Europe,Denmark,Capital Region,,Copenhagen
93.191.158.86,4,5,baisikeli.dk,DK,Europe,Northern Europe,Denmark,,,
77.111.240.124,4,24,baretly.net,DK,Europe,Northern Europe,Denmark,Capital Region,,Copenhagen
46.30.215.89,4,6,barryboys.co.uk,DK,Europe,Northern Europe,Denmark,Capital Region,,Copenhagen
94.231.106.8,4,11,battlefieldsww2.com,DK,Europe,Northern Europe,Denmark,,,
77.111.240.173,4,70,bermuda-online.org,DK,Europe,Northern Europe,Denmark,Capital Region,,Copenhagen
46.30.215.37,4,4,bfh4tours.com,DK,Europe,Northern Europe,Denmark,Capital Region,,Copenhagen
91.144.204.5,4,87,biopix.dk,DK,Europe,Northern Europe,Denmark,Central Jutland,,Randers
46.30.213.144,4,38,birkroolf-design.de,DK,Europe,Northern Europe,Denmark,Capital Region,,Copenhagen
46.30.213.84,4,5,bitsnbites.eu,DK,Europe,Northern Europe,Denmark,Capital Region,,Copenhagen
93.191.156.124,4,4,bivirkninger.dk,DK,Europe,Northern Europe,Denmark,,,
77.111.240.129,4,5,bkfrisk.se,DK,Europe,Northern Europe,Denmark,Capital Region,,Copenhagen
185.21.41.123,4,48,bloddonor.dk,DK,Europe,Northern Europe,Denmark,,,
93.191.156.197,4,6,blueeye-macro.com,DK,Europe,Northern Europe,Denmark,,,
93.191.156.116,4,4,blueidea.dk,DK,Europe,Northern Europe,Denmark,,,
94.143.8.140,4,4,bodylab.dk,DK,Europe,Northern Europe,Denmark,Central Jutland,,Skanderborg
195.242.130.162,4,220,boel-akupunktur.com,DK,Europe,Northern Europe,Denmark,,,
46.30.213.116,4,40,bonuscasinossites.net,DK,Europe,Northern Europe,Denmark,Capital Region,,Copenhagen
46.30.213.12,4,50,booklight.international,DK,Europe,Northern Europe,Denmark,Capital Region,,Copenhagen
185.21.41.249,4,25,bornholm.info,DK,Europe,Northern Europe,Denmark,,,
94.137.135.228,4,48,bornholmsmuseum.dk,DK,Europe,Northern Europe,Denmark,Central Jutland,,Herning
91.184.0.75,4,6,boudoirsara.nl,DK,Europe,Northern Europe,Denmark,Capital Region,,Copenhagen
185.95.24.230,4,12,brabantcultureel.nl,DK,Europe,Northern Europe,Denmark,Capital Region,,Copenhagen
46.30.213.167,4,6,brattlandsakeri.se,DK,Europe,Northern Europe,Denmark,Capital Region,,Copenhagen
91.223.235.174,4,21,bridge.dk,DK,Europe,Northern Europe,Denmark,,,
195.190.30.184,4,21,brollopsguiden.se,DK,Europe,Northern Europe,Denmark,,,
46.30.213.140,4,53,browhaus-upgrade.de,DK,Europe,Northern Europe,Denmark,Capital Region,,Copenhagen
80.239.214.20,4,12,bruun-rasmussen.dk,DK,Europe,Northern Europe,Denmark,Capital Region,,Ballerup Municipality
77.111.240.142,4,8,bugattipage.com,DK,Europe,Northern Europe,Denmark,Capital Region,,Copenhagen
212.237.249.12,4,5,builder.nu,DK,Europe,Northern Europe,Denmark,,,
46.30.213.94,4,20,bullzip.com,DK,Europe,Northern Europe,Denmark,Capital Region,,Copenhagen
46.30.213.168,4,48,businessfast.co.uk,DK,Europe,Northern Europe,Denmark,Capital Region,,Copenhagen
77.111.241.101,4,14,businesstelegraph.co.uk,DK,Europe,Northern Europe,Denmark,Capital Region,,Copenhagen
93.191.156.196,4,3,butchersandbicycles.com,DK,Europe,Northern Europe,Denmark,,,
46.30.215.58,4,3,buyselltrademyanmar.com,DK,Europe,Northern Europe,Denmark,Capital Region,,Copenhagen
46.30.213.179,4,6,bylund-automotive.com,DK,Europe,Northern Europe,Denmark,Capital Region,,Copenhagen
94.231.103.187,4,56,cadeler.com,DK,Europe,Northern Europe,Denmark,,,
77.111.240.111,4,11,cafedejaren.nl,DK,Europe,Northern Europe,Denmark,Capital Region,,Copenhagen
77.111.243.71,4,97,calibrize.com,DK,Europe,Northern Europe,Denmark,Capital Region,,Copenhagen
94.231.106.217,4,38,campadventure.dk,DK,Europe,Northern Europe,Denmark,,,
46.30.121.230,4,68,cardealerplus.com,DK,Europe,Northern Europe,Denmark,Central Jutland,,Herning
77.111.240.240,4,11,chickenfans.com,DK,Europe,Northern Europe,Denmark,Capital Region,,Copenhagen
77.111.240.67,4,10,choux.nl,DK,Europe,Northern Europe,Denmark,Capital Region,,Copenhagen
77.111.240.167,4,18,chrisandriessen.nl,DK,Europe,Northern Europe,Denmark,Capital Region,,Copenhagen
94.231.109.244,4,8,cipartners.dk,DK,Europe,Northern Europe,Denmark,,,
46.30.215.73,4,93,clauskc.dk,DK,Europe,Northern Europe,Denmark,Capital Region,,Copenhagen
46.30.215.90,4,9,climate4you.com,DK,Europe,Northern Europe,Denmark,Capital Region,,Copenhagen
77.111.241.77,4,3,cnbcnewstoday.com,DK,Europe,Northern Europe,Denmark,Capital Region,,Copenhagen
46.30.213.48,4,3,codecanyondemo.work,DK,Europe,Northern Europe,Denmark,Capital Region,,Copenhagen
185.20.205.60,4,27,completevocalinstitute.com,DK,Europe,Northern Europe,Denmark,,,
77.111.240.101,4,3,continuitygame.com,DK,Europe,Northern Europe,Denmark,Capital Region,,Copenhagen
46.30.126.230,4,15,conventus.dk,DK,Europe,Northern Europe,Denmark,Central Jutland,,Herning
93.191.158.20,4,5,copenhagencoffeelab.com,DK,Europe,Northern Europe,Denmark,,,
178.20.217.247,4,6,copenhageneconomics.com,DK,Europe,Northern Europe,Denmark,,,
94.231.108.50,4,3,copenhagengamecollective.org,DK,Europe,Northern Europe,Denmark,,,
185.20.205.49,4,16,cosmicdeity.com,DK,Europe,Northern Europe,Denmark,,,
45.148.28.104,4,5,cptheatre.co.uk,DK,Europe,Northern Europe,Denmark,South Denmark,,Middelfart
46.30.215.67,4,14,craftandcreativity.com,DK,Europe,Northern Europe,Denmark,Capital Region,,Copenhagen
77.111.241.98,4,11,crunchbasenewstoday.com,DK,Europe,Northern Europe,Denmark,Capital Region,,Copenhagen
91.223.235.247,4,3,csdb.dk,DK,Europe,Northern Europe,Denmark,,,
185.21.40.13,4,12,cube.dk,DK,Europe,Northern Europe,Denmark,,,
93.90.118.211,4,6,cykelpartner.dk,DK,Europe,Northern Europe,Denmark,,,
46.30.213.91,4,3,cyreneforum.com,DK,Europe,Northern Europe,Denmark,Capital Region,,Copenhagen
46.32.62.49,4,5,d-star4all.dk,DK,Europe,Northern Europe,Denmark,South Denmark,,Esbjerg
185.58.213.13,4,4,daellekatessen.dk,DK,Europe,Northern Europe,Denmark,,,
77.111.241.111,4,30,dailyheraldnewstoday.com,DK,Europe,Northern Europe,Denmark,Capital Region,,Copenhagen
185.224.18.20,4,1,dalux.com,DK,Europe,Northern Europe,Denmark,,,
46.30.215.108,4,4,danceplanet.se,DK,Europe,Northern Europe,Denmark,Capital Region,,Copenhagen
93.191.156.132,4,20,danishbioimaging.dk,DK,Europe,Northern Europe,Denmark,,,
46.30.215.34,4,6,danlockton.co.uk,DK,Europe,Northern Europe,Denmark,Capital Region,,Copenhagen
94.231.103.94,4,4,danskeakasser.com,DK,Europe,Northern Europe,Denmark,,,
87.54.234.171,4,-2158282599,dantimax.dk,DK,Europe,Northern Europe,Denmark,South Denmark,,Haderslev
130.226.214.242,4,4,datamuseum.dk,DK,Europe,Northern Europe,Denmark,North Denmark,,Aalborg
46.30.213.107,4,41,datavizcatalogue.com,DK,Europe,Northern Europe,Denmark,Capital Region,,Copenhagen
185.21.40.223,4,114,dedanskecasinoer.dk,DK,Europe,Northern Europe,Denmark,,,
130.225.250.133,4,4,deic.dk,DK,Europe,Northern Europe,Denmark,Capital Region,,Hvidovre
94.231.103.118,4,21,delta-xray.net,DK,Europe,Northern Europe,Denmark,,,
77.111.241.107,4,17,developmentreimagined.com,DK,Europe,Northern Europe,Denmark,Capital Region,,Copenhagen
46.30.215.99,4,4,dewolff.nu,DK,Europe,Northern Europe,Denmark,Capital Region,,Copenhagen
185.21.43.13,4,8,dg.dk,DK,Europe,Northern Europe,Denmark,,,
46.30.215.97,4,33,diabloswing.com,DK,Europe,Northern Europe,Denmark,Capital Region,,Copenhagen
94.231.103.157,4,4,dinnerlust.dk,DK,Europe,Northern Europe,Denmark,,,
77.111.240.118,4,128,dirkdobbeleers.be,DK,Europe,Northern Europe,Denmark,Capital Region,,Copenhagen
77.111.240.162,4,4,disco-disco.com,DK,Europe,Northern Europe,Denmark,Capital Region,,Copenhagen
82.103.129.71,4,2,distrowatch.com,DK,Europe,Northern Europe,Denmark,Capital Region,,Copenhagen
93.191.156.20,4,7,dmas.dk,DK,Europe,Northern Europe,Denmark,,,
87.62.97.64,4,-32,DNS Server: 0x573e6140.static.cust.fastspeed.dk,DK,Europe,Northern Europe,Denmark,North Denmark,,Aalborg
87.62.97.71,4,110049,DNS Server: 0x573e6147.static.cust.fastspeed.dk,DK,Europe,Northern Europe,Denmark,North Denmark,,Aalborg
2.105.69.220,4,41,DNS Server: 2-105-69-220-cable.dk.customer.tdc.net,DK,Europe,Northern Europe,Denmark,South Denmark,,Haderslev
212.27.27.62,4,-298314,DNS Server: 212.27.27.62.bredband.3.dk,DK,Europe,Northern Europe,Denmark,Capital Region,,Rødovre Municipality
213.237.31.46,4,66458,DNS Server: 213237031046.mbb.telenor.dk,DK,Europe,Northern Europe,Denmark,,,
5.103.25.139,4,-8,DNS Server: 5.103.25.139.static.fibianet.dk,DK,Europe,Northern Europe,Denmark,Zealand,,Fakse
5.103.28.174,4,-2146508785,DNS Server: 5.103.28.174.static.fibianet.dk,DK,Europe,Northern Europe,Denmark,Central Jutland,,Rønde
5.103.33.50,4,30,DNS Server: 5.103.33.50.static.fibianet.dk,DK,Europe,Northern Europe,Denmark,Zealand,,Holbæk
94.138.81.162,4,104,DNS Server: 5E8A51A2.rev.sefiber.dk,DK,Europe,Northern Europe,Denmark,South Denmark,,Toftlund
95.154.54.30,4,48,DNS Server: 5F9A361E.rev.sefiber.dk,DK,Europe,Northern Europe,Denmark,South Denmark,,Esbjerg
80.209.71.197,4,12,DNS Server: 80.209.71.197.static.fibianet.dk,DK,Europe,Northern Europe,Denmark,Zealand,,Maribo
80.71.140.202,4,528129,DNS Server: 80.71.140.202.ipv4.parknet.dk,DK,Europe,Northern Europe,Denmark,Capital Region,,Copenhagen
84.238.81.97,4,253,DNS Server: 84-238-81-97.ptr.bnaa.dk,DK,Europe,Northern Europe,Denmark,Central Jutland,,Risskov
80.196.240.182,4,18,DNS Server: cpe.ge-0-0-3-100.oelbynqe30.dk.customer.tdc.net,DK,Europe,Northern Europe,Denmark,Capital Region,,Copenhagen
2.109.110.110,4,8,DNS Server: cpe.ge-1-2-9-100.naenqe30.dk.customer.tdc.net,DK,Europe,Northern Europe,Denmark,Central Jutland,,Risskov
95.166.140.250,4,85,DNS Server: cpe.ge-3-1-3-100.bllnqe10.dk.customer.tdc.net,DK,Europe,Northern Europe,Denmark,Capital Region,,Rødovre Municipality
188.180.123.154,4,66,DNS Server: cpe.ge-4-1-6-100.opnqe10.dk.customer.tdc.net,DK,Europe,Northern Europe,Denmark,Capital Region,,Copenhagen
195.215.31.242,4,79,DNS Server: cpe.ge-4-3-1-756.samnqe40.dk.customer.tdc.net,DK,Europe,Northern Europe,Denmark,South Denmark,,Ullerslev
87.54.6.134,4,8,DNS Server: cpe.ge-5-1-2-100.hgnqe10.dk.customer.tdc.net,DK,Europe,Northern Europe,Denmark,Capital Region,,Copenhagen
93.178.179.210,4,47,DNS Server: cpe.ge-7-3-3-102.hgsnqe10.dk.customer.tdc.net,DK,Europe,Northern Europe,Denmark,Capital Region,,Frederiksberg
87.49.54.238,4,-33,DNS Server: cpe.ge-7-3-6-100.kjnqe11.dk.customer.tdc.net,DK,Europe,Northern Europe,Denmark,Capital Region,,Copenhagen
87.61.108.250,4,-9,DNS Server: cpe.ge-9-1-8-100.vbynqe11.dk.customer.tdc.net,DK,Europe,Northern Europe,Denmark,Central Jutland,,Aarhus
80.199.160.142,4,-88,DNS Server: cpe.xe-2-0-0-134.faaqnqe10.dk.customer.tdc.net,DK,Europe,Northern Europe,Denmark,Capital Region,,Copenhagen
82.103.129.240,4,311042,DNS Server: e82-103-129-240s.easyspeedy.dk,DK,Europe,Northern Europe,Denmark,Capital Region,,Copenhagen
82.103.129.72,4,352251,DNS Server: e82-103-129-72s.asergo.com,DK,Europe,Northern Europe,Denmark,Capital Region,,Copenhagen
185.221.30.35,4,7,DNS Server: ip185221030035.vest.net,DK,Europe,Northern Europe,Denmark,,,
89.188.72.100,4,253,DNS Server: vps762.basicserver.io,DK,Europe,Northern Europe,Denmark,,,
77.243.131.142,4,40,dof.dk,DK,Europe,Northern Europe,Denmark,,,
91.184.0.56,4,14,domoticx.com,DK,Europe,Northern Europe,Denmark,Capital Region,,Copenhagen
46.30.213.77,4,32,dovenschap.nl,DK,Europe,Northern Europe,Denmark,Capital Region,,Copenhagen
89.150.140.164,4,-19,drkt.eu,DK,Europe,Northern Europe,Denmark,Capital Region,,Copenhagen
77.111.241.67,4,4,dutchnewstoday.com,DK,Europe,Northern Europe,Denmark,Capital Region,,Copenhagen
77.111.241.102,4,3,dwnewstoday.com,DK,Europe,Northern Europe,Denmark,Capital Region,,Copenhagen
94.231.103.19,4,32,e-budo.com,DK,Europe,Northern Europe,Denmark,,,
46.30.127.85,4,3,e-pages.dk,DK,Europe,Northern Europe,Denmark,Central Jutland,,Herning
46.30.127.86,4,5,e-pages.dk,DK,Europe,Northern Europe,Denmark,Central Jutland,,Herning
46.30.127.83,4,8,e-pages.dk,DK,Europe,Northern Europe,Denmark,Central Jutland,,Herning
46.30.127.88,4,4,e-pages.dk,DK,Europe,Northern Europe,Denmark,Central Jutland,,Herning
46.30.126.155,4,2,e-pages.dk,DK,Europe,Northern Europe,Denmark,Central Jutland,,Herning
46.30.126.159,4,6,e-pages.dk,DK,Europe,Northern Europe,Denmark,Central Jutland,,Herning
46.30.126.143,4,5,e-pages.dk,DK,Europe,Northern Europe,Denmark,Central Jutland,,Herning
46.30.127.84,4,6,e-pages.dk,DK,Europe,Northern Europe,Denmark,Central Jutland,,Herning
46.30.126.135,4,9,e-pages.dk,DK,Europe,Northern Europe,Denmark,Central Jutland,,Herning
46.30.127.87,4,4,e-pages.dk,DK,Europe,Northern Europe,Denmark,Central Jutland,,Herning
46.30.126.156,4,12,e-pages.pub,DK,Europe,Northern Europe,Denmark,Central Jutland,,Herning
46.30.126.147,4,4,e-pages.pub,DK,Europe,Northern Europe,Denmark,Central Jutland,,Herning
93.191.156.245,4,20,e-visa.dk,DK,Europe,Northern Europe,Denmark,,,
93.90.116.89,4,6,eawop.org,DK,Europe,Northern Europe,Denmark,,,
94.147.83.78,4,14167,echoone.com,DK,Europe,Northern Europe,Denmark,Capital Region,,Frederikssund
185.21.40.39,4,5,egeskov.dk,DK,Europe,Northern Europe,Denmark,,,
77.111.240.125,4,75,eggogbacon.com,DK,Europe,Northern Europe,Denmark,Capital Region,,Copenhagen
77.111.240.136,4,28,ekvall.co,DK,Europe,Northern Europe,Denmark,Capital Region,,Copenhagen
46.30.215.12,4,56,elephant.se,DK,Europe,Northern Europe,Denmark,Capital Region,,Copenhagen
185.20.205.42,4,42,elitesilkeborg.dk,DK,Europe,Northern Europe,Denmark,,,
185.21.40.12,4,38,elvium.com,DK,Europe,Northern Europe,Denmark,,,
185.21.40.227,4,6,elvvs.dk,DK,Europe,Northern Europe,Denmark,,,
94.231.108.37,4,6,emilkirkegaard.dk,DK,Europe,Northern Europe,Denmark,,,
77.111.240.172,4,24,enslaved.no,DK,Europe,Northern Europe,Denmark,Capital Region,,Copenhagen
93.191.158.47,4,8,enslev-anlaegsservice.dk,DK,Europe,Northern Europe,Denmark,,,
93.191.156.151,4,17,erik-joergensen.com,DK,Europe,Northern Europe,Denmark,,,
185.95.24.233,4,13,escaperoom.nl,DK,Europe,Northern Europe,Denmark,Capital Region,,Copenhagen
46.30.213.22,4,2,europeanjournalists.org,DK,Europe,Northern Europe,Denmark,Capital Region,,Copenhagen
77.111.241.116,4,54,europeannewstoday.com,DK,Europe,Northern Europe,Denmark,Capital Region,,Copenhagen
212.237.249.17,4,55,europenews.dk,DK,Europe,Northern Europe,Denmark,,,
46.30.215.7,4,39,euroscadeaux.com,DK,Europe,Northern Europe,Denmark,Capital Region,,Copenhagen
185.21.41.151,4,26,event.it,DK,Europe,Northern Europe,Denmark,,,
93.191.156.4,4,9,eweu-learningplatform.eu,DK,Europe,Northern Europe,Denmark,,,
185.21.42.123,4,9,ewma.org,DK,Europe,Northern Europe,Denmark,,,
193.104.202.142,4,4,eyestorm.com,DK,Europe,Northern Europe,Denmark,North Denmark,,Aalborg
37.75.178.117,4,4,ezee-fitness.dk,DK,Europe,Northern Europe,Denmark,North Denmark,,Støvring
91.184.0.58,4,1,faceland.nl,DK,Europe,Northern Europe,Denmark,Capital Region,,Copenhagen
93.191.156.65,4,33,familienbilstrup.dk,DK,Europe,Northern Europe,Denmark,,,
91.184.31.235,4,4,faralda.com,DK,Europe,Northern Europe,Denmark,Capital Region,,Copenhagen
185.95.24.34,4,9,favorflav.com,DK,Europe,Northern Europe,Denmark,Capital Region,,Copenhagen
77.111.243.68,4,21,fc-utrecht.nl,DK,Europe,Northern Europe,Denmark,Capital Region,,Copenhagen
185.21.41.98,4,13,fdel.dk,DK,Europe,Northern Europe,Denmark,,,
185.21.40.45,4,3,fdf.dk,DK,Europe,Northern Europe,Denmark,,,
185.95.24.209,4,40,febo.nl,DK,Europe,Northern Europe,Denmark,Capital Region,,Copenhagen
178.20.216.107,4,46,ferry-site.dk,DK,Europe,Northern Europe,Denmark,,,
93.184.203.199,4,86,filmdatabase.dk,DK,Europe,Northern Europe,Denmark,South Denmark,,Munkebo
46.30.213.159,4,19,finduzzcatcafe.se,DK,Europe,Northern Europe,Denmark,Capital Region,,Copenhagen
185.21.40.99,4,5,fiskebaren.dk,DK,Europe,Northern Europe,Denmark,,,
185.21.41.67,4,75,flexybox.com,DK,Europe,Northern Europe,Denmark,,,
77.66.124.111,4,4,flymuseum.dk,DK,Europe,Northern Europe,Denmark,Zealand,,Greve
77.111.240.80,4,2,fmjsoft.com,DK,Europe,Northern Europe,Denmark,Capital Region,,Copenhagen
46.30.215.45,4,5,fnprg.com,DK,Europe,Northern Europe,Denmark,Capital Region,,Copenhagen
46.30.215.105,4,59,fonik.dk,DK,Europe,Northern Europe,Denmark,Capital Region,,Copenhagen
178.20.216.126,4,5,food-and-garden.com,DK,Europe,Northern Europe,Denmark,,,
94.231.106.109,4,5,foodcomp.dk,DK,Europe,Northern Europe,Denmark,,,
130.225.244.222,4,2,freebsd.dk,DK,Europe,Northern Europe,Denmark,Capital Region,,Hvidovre
185.21.41.135,4,11,fregatten-jylland.dk,DK,Europe,Northern Europe,Denmark,,,
77.111.241.110,4,50,frenchnewstoday.com,DK,Europe,Northern Europe,Denmark,Capital Region,,Copenhagen
46.30.213.169,4,4,fullerhairtransplant.se,DK,Europe,Northern Europe,Denmark,Capital Region,,Copenhagen
77.111.240.152,4,3,fyldepennen.dk,DK,Europe,Northern Europe,Denmark,Capital Region,,Copenhagen
152.115.60.227,4,5,fynsvom.dk,DK,Europe,Northern Europe,Denmark,Capital Region,,Copenhagen
185.20.205.36,4,29,gaisler.com,DK,Europe,Northern Europe,Denmark,,,
77.247.76.132,4,325,gamereactor.dk,DK,Europe,Northern Europe,Denmark,Capital Region,,Ølstykke Stationsby
46.30.213.64,4,22,gardinenwelt-angelina.de,DK,Europe,Northern Europe,Denmark,Capital Region,,Copenhagen
185.21.40.74,4,5,gavnoe.dk,DK,Europe,Northern Europe,Denmark,,,
46.30.213.71,4,4,gearingcommander.com,DK,Europe,Northern Europe,Denmark,Capital Region,,Copenhagen
89.188.79.124,4,4,geckobooking.dk,DK,Europe,Northern Europe,Denmark,,,
46.30.213.105,4,18,generation-n.at,DK,Europe,Northern Europe,Denmark,Capital Region,,Copenhagen
77.111.241.79,4,75,germaynewstoday.com,DK,Europe,Northern Europe,Denmark,Capital Region,,Copenhagen
46.183.139.107,4,57,gigahost.dk,DK,Europe,Northern Europe,Denmark,,,
46.30.213.180,4,22,gippmokk.se,DK,Europe,Northern Europe,Denmark,Capital Region,,Copenhagen
93.191.156.216,4,7,glasmuseet.dk,DK,Europe,Northern Europe,Denmark,,,
46.30.215.121,4,31,glennferon.com,DK,Europe,Northern Europe,Denmark,Capital Region,,Copenhagen
46.30.213.80,4,19,globalowls.com,DK,Europe,Northern Europe,Denmark,Capital Region,,Copenhagen
94.231.103.179,4,4,godsbanen.dk,DK,Europe,Northern Europe,Denmark,,,
46.30.215.47,4,4,gotavapen.se,DK,Europe,Northern Europe,Denmark,Capital Region,,Copenhagen
91.184.0.82,4,26,gowithyourflow.nl,DK,Europe,Northern Europe,Denmark,Capital Region,,Copenhagen
46.30.213.4,4,13,graffiticreator.net,DK,Europe,Northern Europe,Denmark,Capital Region,,Copenhagen
94.231.103.112,4,8,grammarhow.com,DK,Europe,Northern Europe,Denmark,,,
77.111.240.71,4,33,gravsted.dk,DK,Europe,Northern Europe,Denmark,Capital Region,,Copenhagen
91.184.0.98,4,27,greeneninnovation.nl,DK,Europe,Northern Europe,Denmark,Capital Region,,Copenhagen
94.231.107.65,4,34,greenjournal.co.uk,DK,Europe,Northern Europe,Denmark,,,
94.231.103.103,4,24,griblivet.dk,DK,Europe,Northern Europe,Denmark,,,
46.30.215.98,4,31,gripelectric.net,DK,Europe,Northern Europe,Denmark,Capital Region,,Copenhagen
91.184.31.101,4,47,grizzlymarketing.nl,DK,Europe,Northern Europe,Denmark,Capital Region,,Copenhagen
94.231.103.141,4,47,groentansvar.dk,DK,Europe,Northern Europe,Denmark,,,
94.231.106.103,4,4,gryphon-audio.dk,DK,Europe,Northern Europe,Denmark,,,
185.21.40.67,4,24,gucca.dk,DK,Europe,Northern Europe,Denmark,,,
185.20.205.15,4,10,guldsmedenhotels.com,DK,Europe,Northern Europe,Denmark,,,
46.30.213.181,4,9,guthspot.se,DK,Europe,Northern Europe,Denmark,Capital Region,,Copenhagen
185.58.213.119,4,5,gzs.si,DK,Europe,Northern Europe,Denmark,,,
185.107.112.73,4,6,hackforamongus.com,DK,Europe,Northern Europe,Denmark,Capital Region,,Copenhagen
185.31.76.148,4,3,hafaro.dk,DK,Europe,Northern Europe,Denmark,,,
91.223.235.50,4,16,havenyt.dk,DK,Europe,Northern Europe,Denmark,,,
94.231.103.61,4,4,hcandersenshus.dk,DK,Europe,Northern Europe,Denmark,,,
46.30.213.153,4,4,heatsweden.com,DK,Europe,Northern Europe,Denmark,Capital Region,,Copenhagen
91.184.0.47,4,31,heeringoffice.nl,DK,Europe,Northern Europe,Denmark,Capital Region,,Copenhagen
46.30.121.150,4,10,heiring.com,DK,Europe,Northern Europe,Denmark,Central Jutland,,Herning
185.221.38.47,4,15,hellers.dk,DK,Europe,Northern Europe,Denmark,,,
94.231.109.93,4,16,helloretail.com,DK,Europe,Northern Europe,Denmark,,,
94.231.108.33,4,8,henrikvibskov.com,DK,Europe,Northern Europe,Denmark,,,
94.231.107.137,4,5,heta.dk,DK,Europe,Northern Europe,Denmark,,,
91.184.0.112,4,6,hetlaatstetafeltje.nl,DK,Europe,Northern Europe,Denmark,Capital Region,,Copenhagen
77.111.240.135,4,3,hgb.se,DK,Europe,Northern Europe,Denmark,Capital Region,,Copenhagen
45.148.29.59,4,7,hihaho.com,DK,Europe,Northern Europe,Denmark,South Denmark,,Middelfart
185.59.228.184,4,13,hirschsprung.dk,DK,Europe,Northern Europe,Denmark,,,
77.111.240.102,4,2,historicalstatistics.org,DK,Europe,Northern Europe,Denmark,Capital Region,,Copenhagen
46.30.215.57,4,4,historyofsocialwork.org,DK,Europe,Northern Europe,Denmark,Capital Region,,Copenhagen
217.16.111.253,4,4,hk.dk,DK,Europe,Northern Europe,Denmark,Capital Region,,Copenhagen
185.21.41.169,4,21,hofor.dk,DK,Europe,Northern Europe,Denmark,,,
77.111.240.143,4,26,horgster.net,DK,Europe,Northern Europe,Denmark,Capital Region,,Copenhagen
94.231.106.102,4,48,horneblik.dk,DK,Europe,Northern Europe,Denmark,,,
91.184.8.50,4,4,hostnet.nl,DK,Europe,Northern Europe,Denmark,Capital Region,,Copenhagen
94.231.106.215,4,71,hotelarctic.com,DK,Europe,Northern Europe,Denmark,,,
46.30.213.125,4,19,hoteldegoudfazant.nl,DK,Europe,Northern Europe,Denmark,Capital Region,,Copenhagen
89.188.72.99,4,27,hotelsanders.com,DK,Europe,Northern Europe,Denmark,,,
185.20.205.22,4,11,hovenjagtforening.dk,DK,Europe,Northern Europe,Denmark,,,
94.231.103.142,4,5,hvidtfeldts.net,DK,Europe,Northern Europe,Denmark,,,
176.222.236.230,4,1672026,iasj.net,DK,Europe,Northern Europe,Denmark,Capital Region,,Copenhagen
152.115.36.116,4,12,iba.dk,DK,Europe,Northern Europe,Denmark,Zealand,,Skælskør
93.191.158.75,4,29,ibc.dk,DK,Europe,Northern Europe,Denmark,,,
77.111.240.185,4,8,ibras.dk,DK,Europe,Northern Europe,Denmark,Capital Region,,Copenhagen
93.191.156.168,4,5,ideon.se,DK,Europe,Northern Europe,Denmark,,,
195.242.131.41,4,401,idippedut.dk,DK,Europe,Northern Europe,Denmark,,,
185.58.213.11,4,2,idium.no,DK,Europe,Northern Europe,Denmark,,,
185.21.43.11,4,6,ifpi.dk,DK,Europe,Northern Europe,Denmark,,,
93.191.156.190,4,31,ihanna.nu,DK,Europe,Northern Europe,Denmark,,,
91.184.31.234,4,3,ijslandspecialist.nl,DK,Europe,Northern Europe,Denmark,Capital Region,,Copenhagen
77.111.241.64,4,4,ikem.de,DK,Europe,Northern Europe,Denmark,Capital Region,,Copenhagen
46.30.213.56,4,19,ilahealthconsultancy.co.uk,DK,Europe,Northern Europe,Denmark,Capital Region,,Copenhagen
46.30.213.44,4,6,ilmfeed.com,DK,Europe,Northern Europe,Denmark,Capital Region,,Copenhagen
77.111.240.92,4,3,impactcleaning.be,DK,Europe,Northern Europe,Denmark,Capital Region,,Copenhagen
46.30.213.50,4,49,influenceaudience.com,DK,Europe,Northern Europe,Denmark,Capital Region,,Copenhagen
91.184.0.60,4,45,inmyredkitchen.com,DK,Europe,Northern Europe,Denmark,Capital Region,,Copenhagen
77.111.240.117,4,25,interfaith-calendar.org,DK,Europe,Northern Europe,Denmark,Capital Region,,Copenhagen
46.30.213.141,4,43,isabellepieman.com,DK,Europe,Northern Europe,Denmark,Capital Region,,Copenhagen
130.226.142.7,4,4,itu.dk,DK,Europe,Northern Europe,Denmark,,,
185.31.76.122,4,6,iversen-import.dk,DK,Europe,Northern Europe,Denmark,,,
94.231.103.80,4,9,iwriteiam.nl,DK,Europe,Northern Europe,Denmark,,,
77.111.241.81,4,12,jackpotbetonline.com,DK,Europe,Northern Europe,Denmark,Capital Region,,Copenhagen
77.66.16.106,4,11,jaoo.dk,DK,Europe,Northern Europe,Denmark,Capital Region,,Copenhagen
91.184.0.85,4,30,jazzmasters.nl,DK,Europe,Northern Europe,Denmark,Capital Region,,Copenhagen
89.188.76.10,4,432,jensens.com,DK,Europe,Northern Europe,Denmark,,,
46.30.213.134,4,92,jeremydeller.org,DK,Europe,Northern Europe,Denmark,Capital Region,,Copenhagen
185.21.40.246,4,4,jeskoerelaerer.dk,DK,Europe,Northern Europe,Denmark,,,
94.137.139.170,4,153,jesperhus.dk,DK,Europe,Northern Europe,Denmark,Central Jutland,,Herning
77.111.240.169,4,22,jilltxt.net,DK,Europe,Northern Europe,Denmark,Capital Region,,Copenhagen
77.111.240.140,4,2,jirkavinse.com,DK,Europe,Northern Europe,Denmark,Capital Region,,Copenhagen
77.111.240.159,4,7,joker.be,DK,Europe,Northern Europe,Denmark,Capital Region,,Copenhagen
46.30.215.14,4,41,joodsamsterdam.nl,DK,Europe,Northern Europe,Denmark,Capital Region,,Copenhagen
84.238.109.19,4,3,jttarchive.net,DK,Europe,Northern Europe,Denmark,Capital Region,,Copenhagen
94.231.108.253,4,5,julianina.dk,DK,Europe,Northern Europe,Denmark,,,
46.30.213.43,4,18,justitia-int.org,DK,Europe,Northern Europe,Denmark,Capital Region,,Copenhagen
77.111.240.153,4,3,jv-arcade.com,DK,Europe,Northern Europe,Denmark,Capital Region,,Copenhagen
77.111.243.70,4,2,jvdtogt.nl,DK,Europe,Northern Europe,Denmark,Capital Region,,Copenhagen
94.231.103.75,4,3,jydemarked.dk,DK,Europe,Northern Europe,Denmark,,,
46.30.215.50,4,3,jylling.dk,DK,Europe,Northern Europe,Denmark,Capital Region,,Copenhagen
91.184.0.110,4,4,kaasvoorkerels.nl,DK,Europe,Northern Europe,Denmark,Capital Region,,Copenhagen
46.30.213.158,4,27,kaizers.no,DK,Europe,Northern Europe,Denmark,Capital Region,,Copenhagen
77.111.240.187,4,12,kallesentreprenad.se,DK,Europe,Northern Europe,Denmark,Capital Region,,Copenhagen
93.191.155.253,4,4,kanalfrederikshavn.dk,DK,Europe,Northern Europe,Denmark,,,
46.30.213.34,4,4,kepgo.de,DK,Europe,Northern Europe,Denmark,Capital Region,,Copenhagen
77.111.240.190,4,37,keurmerkverhuizer.nl,DK,Europe,Northern Europe,Denmark,Capital Region,,Copenhagen
46.30.213.87,4,4,kgdenoordzee.be,DK,Europe,Northern Europe,Denmark,Capital Region,,Copenhagen
46.30.215.125,4,6,kimberlyven.be,DK,Europe,Northern Europe,Denmark,Capital Region,,Copenhagen
93.191.156.77,4,3,klang.dk,DK,Europe,Northern Europe,Denmark,,,
77.111.240.171,4,4,klassegegenklasse.org,DK,Europe,Northern Europe,Denmark,Capital Region,,Copenhagen
93.90.115.116,4,-11,klid.dk,DK,Europe,Northern Europe,Denmark,,,
5.249.255.126,4,5,klimaoslo.no,DK,Europe,Northern Europe,Denmark,Capital Region,,Copenhagen
46.30.213.14,4,21,knutselopdrachten.nl,DK,Europe,Northern Europe,Denmark,Capital Region,,Copenhagen
94.231.103.176,4,8,koks.fo,DK,Europe,Northern Europe,Denmark,,,
46.30.213.183,4,3,kosmetikinstitut-milla.de,DK,Europe,Northern Europe,Denmark,Capital Region,,Copenhagen
94.231.101.88,4,34,kreaguiden.dk,DK,Europe,Northern Europe,Denmark,,,
93.191.156.44,4,12,krystal-healerhuset.dk,DK,Europe,Northern Europe,Denmark,,,
62.116.195.118,4,56,kultunaut.dk,DK,Europe,Northern Europe,Denmark,Central Jutland,,Aarhus
62.116.195.117,4,6,kultunaut.dk,DK,Europe,Northern Europe,Denmark,Central Jutland,,Aarhus
62.116.195.119,4,34,kultunaut.dk,DK,Europe,Northern Europe,Denmark,Central Jutland,,Aarhus
46.30.213.37,4,47,kunsthistorici.nl,DK,Europe,Northern Europe,Denmark,Capital Region,,Copenhagen
94.231.103.104,4,7,kvindemuseet.dk,DK,Europe,Northern Europe,Denmark,,,
46.30.213.112,4,4,kymatica.com,DK,Europe,Northern Europe,Denmark,Capital Region,,Copenhagen
77.111.240.128,4,3,laage.se,DK,Europe,Northern Europe,Denmark,Capital Region,,Copenhagen
46.36.210.12,4,5,laglace.dk,DK,Europe,Northern Europe,Denmark,,,
46.30.213.49,4,4,lakeoftears.net,DK,Europe,Northern Europe,Denmark,Capital Region,,Copenhagen
46.30.215.6,4,3,lantharumarestaurantandjuicebar.com,DK,Europe,Northern Europe,Denmark,Capital Region,,Copenhagen
185.156.98.185,4,-7,lavpristrae.dk,DK,Europe,Northern Europe,Denmark,South Denmark,,Tønder
91.184.0.22,4,3,lawleisure.nl,DK,Europe,Northern Europe,Denmark,Capital Region,,Copenhagen
185.21.41.178,4,5,ldcluster.com,DK,Europe,Northern Europe,Denmark,,,
46.30.213.47,4,59,lebenslustiger.com,DK,Europe,Northern Europe,Denmark,Capital Region,,Copenhagen
77.111.240.89,4,3,lefeverbasteyns.be,DK,Europe,Northern Europe,Denmark,Capital Region,,Copenhagen
91.184.0.74,4,87,lejardinutrecht.nl,DK,Europe,Northern Europe,Denmark,Capital Region,,Copenhagen
212.97.142.72,4,90,lejligheditenerife.dk,DK,Europe,Northern Europe,Denmark,,,
94.231.103.166,4,13,lendager.com,DK,Europe,Northern Europe,Denmark,,,
91.184.0.83,4,4,leydesdorff.net,DK,Europe,Northern Europe,Denmark,Capital Region,,Copenhagen
91.184.0.65,4,8,leyplaza.nl,DK,Europe,Northern Europe,Denmark,Capital Region,,Copenhagen
46.30.213.111,4,14,lgpeintures.com,DK,Europe,Northern Europe,Denmark,Capital Region,,Copenhagen
46.30.213.120,4,3,liberafolio.org,DK,Europe,Northern Europe,Denmark,Capital Region,,Copenhagen
46.30.215.84,4,5,librered.net,DK,Europe,Northern Europe,Denmark,Capital Region,,Copenhagen
46.30.213.110,4,16,liero.be,DK,Europe,Northern Europe,Denmark,Capital Region,,Copenhagen
46.30.215.51,4,16,life-sciences-forums.com,DK,Europe,Northern Europe,Denmark,Capital Region,,Copenhagen
46.30.213.97,4,3,lihtosen.se,DK,Europe,Northern Europe,Denmark,Capital Region,,Copenhagen
185.58.213.25,4,4,limpiotapicerias.com,DK,Europe,Northern Europe,Denmark,,,
91.184.0.92,4,116,linkset.nl,DK,Europe,Northern Europe,Denmark,Capital Region,,Copenhagen
46.30.215.64,4,8,listenable.net,DK,Europe,Northern Europe,Denmark,Capital Region,,Copenhagen
93.191.156.35,4,12,littlesounddj.com,DK,Europe,Northern Europe,Denmark,,,
77.111.241.73,4,19,livemintnewstoday.com,DK,Europe,Northern Europe,Denmark,Capital Region,,Copenhagen
94.231.108.221,4,3,livinginperu.com,DK,Europe,Northern Europe,Denmark,,,
91.184.0.108,4,6,lloydhotel.com,DK,Europe,Northern Europe,Denmark,Capital Region,,Copenhagen
46.30.213.104,4,3,lnhwater.tech,DK,Europe,Northern Europe,Denmark,Capital Region,,Copenhagen
46.30.213.67,4,31,loekkenglas.dk,DK,Europe,Northern Europe,Denmark,Capital Region,,Copenhagen
94.143.8.108,4,83,logickeyboard.com,DK,Europe,Northern Europe,Denmark,Central Jutland,,Skanderborg
195.242.130.101,4,12,lomborg-errors.dk,DK,Europe,Northern Europe,Denmark,,,
46.30.215.44,4,4,loofys.nl,DK,Europe,Northern Europe,Denmark,Capital Region,,Copenhagen
91.184.0.76,4,39,loopbaaninc.nl,DK,Europe,Northern Europe,Denmark,Capital Region,,Copenhagen
94.231.109.82,4,44,loppen.dk,DK,Europe,Northern Europe,Denmark,,,
93.191.156.101,4,4,lotrproject.com,DK,Europe,Northern Europe,Denmark,,,
94.231.103.29,4,30,louisesmadblog.dk,DK,Europe,Northern Europe,Denmark,,,
46.30.213.75,4,2,lov2xlr8.no,DK,Europe,Northern Europe,Denmark,Capital Region,,Copenhagen
93.191.156.58,4,6,lovebuddy.se,DK,Europe,Northern Europe,Denmark,,,
178.20.216.125,4,27,ludomanistudier.dk,DK,Europe,Northern Europe,Denmark,,,
46.30.213.60,4,3,ludosity.com,DK,Europe,Northern Europe,Denmark,Capital Region,,Copenhagen
185.21.40.180,4,4,lvb.dk,DK,Europe,Northern Europe,Denmark,,,
46.30.215.93,4,2,lychnell.com,DK,Europe,Northern Europe,Denmark,Capital Region,,Copenhagen
185.21.41.186,4,5,lyngby-boldklub.dk,DK,Europe,Northern Europe,Denmark,,,
93.191.156.248,4,20,maddsites.com,DK,Europe,Northern Europe,Denmark,,,
46.30.215.107,4,5,magritte.be,DK,Europe,Northern Europe,Denmark,Capital Region,,Copenhagen
46.30.215.22,4,2,mail-order-bride-personals.com,DK,Europe,Northern Europe,Denmark,Capital Region,,Copenhagen
87.116.13.124,4,213,malerkanonen.dk,DK,Europe,Northern Europe,Denmark,Capital Region,,Copenhagen
46.30.213.147,4,49,malinc.se,DK,Europe,Northern Europe,Denmark,Capital Region,,Copenhagen
46.30.215.26,4,2,malmospelmanslag.se,DK,Europe,Northern Europe,Denmark,Capital Region,,Copenhagen
46.30.213.58,4,24,mapaplan.com,DK,Europe,Northern Europe,Denmark,Capital Region,,Copenhagen
46.30.213.29,4,35,marcofolio.net,DK,Europe,Northern Europe,Denmark,Capital Region,,Copenhagen
77.111.240.194,4,9,marieshus.com,DK,Europe,Northern Europe,Denmark,Capital Region,,Copenhagen
46.30.215.1,4,27,marketingportaal.nl,DK,Europe,Northern Europe,Denmark,Capital Region,,Copenhagen
46.30.215.46,4,66,marmiterna.se,DK,Europe,Northern Europe,Denmark,Capital Region,,Copenhagen
77.111.241.94,4,17,marten.se,DK,Europe,Northern Europe,Denmark,Capital Region,,Copenhagen
94.231.101.82,4,2,mashsteak.dk,DK,Europe,Northern Europe,Denmark,,,
185.150.198.115,4,67,mastercubestore.se,DK,Europe,Northern Europe,Denmark,Capital Region,,Søborg
93.191.156.127,4,107,masterservice.dk,DK,Europe,Northern Europe,Denmark,,,
46.30.213.101,4,89,mataya.info,DK,Europe,Northern Europe,Denmark,Capital Region,,Copenhagen
46.30.215.32,4,5,matstroeng.se,DK,Europe,Northern Europe,Denmark,Capital Region,,Copenhagen
46.30.213.185,4,46,maulbiler.dk,DK,Europe,Northern Europe,Denmark,Capital Region,,Copenhagen
46.183.141.237,4,6,mbyc.dk,DK,Europe,Northern Europe,Denmark,,,
77.221.244.11,4,6,mediasupport.org,DK,Europe,Northern Europe,Denmark,Capital Region,,Farum
94.231.103.137,4,4,medievalhistories.com,DK,Europe,Northern Europe,Denmark,,,
46.30.213.39,4,4,meesens.be,DK,Europe,Northern Europe,Denmark,Capital Region,,Copenhagen
46.30.213.25,4,8,megamixgo.com.br,DK,Europe,Northern Europe,Denmark,Capital Region,,Copenhagen
46.30.213.35,4,17,mensenrechten.be,DK,Europe,Northern Europe,Denmark,Capital Region,,Copenhagen
185.55.197.80,4,-71074,mercell.com,DK,Europe,Northern Europe,Denmark,,,
93.191.156.147,4,39,mercenary.dk,DK,Europe,Northern Europe,Denmark,,,
46.30.215.80,4,60,metalexpressradio.com,DK,Europe,Northern Europe,Denmark,Capital Region,,Copenhagen
195.47.247.31,4,4,metanet.ch,DK,Europe,Northern Europe,Denmark,,,
46.30.215.102,4,4,meubelpaleis.com,DK,Europe,Northern Europe,Denmark,Capital Region,,Copenhagen
46.30.215.18,4,8,migger.dk,DK,Europe,Northern Europe,Denmark,Capital Region,,Copenhagen
46.30.213.63,4,3,mikkeller.dk,DK,Europe,Northern Europe,Denmark,Capital Region,,Copenhagen
46.30.215.87,4,2,mikroteatret.no,DK,Europe,Northern Europe,Denmark,Capital Region,,Copenhagen
94.231.106.33,4,3,milhist.dk,DK,Europe,Northern Europe,Denmark,,,
94.231.109.96,4,4,miljoemaerket.dk,DK,Europe,Northern Europe,Denmark,,,
94.231.103.115,4,2,miljoevenlig-pakning.dk,DK,Europe,Northern Europe,Denmark,,,
185.20.205.33,4,45,millencolin.com,DK,Europe,Northern Europe,Denmark,,,
94.231.103.36,4,3,minecookies.org,DK,Europe,Northern Europe,Denmark,,,
46.30.215.85,4,60,minerant.org,DK,Europe,Northern Europe,Denmark,Capital Region,,Copenhagen
82.103.136.110,4,40,minet.org,DK,Europe,Northern Europe,Denmark,Capital Region,,Hørsholm
77.111.243.67,4,3,minidisco.com,DK,Europe,Northern Europe,Denmark,Capital Region,,Copenhagen
46.30.213.52,4,29,ministryoftruth.me.uk,DK,Europe,Northern Europe,Denmark,Capital Region,,Copenhagen
77.111.241.103,4,2,mirrornewstoday.com,DK,Europe,Northern Europe,Denmark,Capital Region,,Copenhagen
185.21.41.218,4,43,modbustools.com,DK,Europe,Northern Europe,Denmark,,,
93.191.158.13,4,46,moensklint.dk,DK,Europe,Northern Europe,Denmark,,,
77.111.240.205,4,9,mogu.bio,DK,Europe,Northern Europe,Denmark,Capital Region,,Copenhagen
185.58.213.100,4,10,mono.net,DK,Europe,Northern Europe,Denmark,,,
185.58.213.110,4,4,monosolutions.com,DK,Europe,Northern Europe,Denmark,,,
185.31.76.131,4,28,monsido.com,DK,Europe,Northern Europe,Denmark,,,
94.231.103.117,4,36,monstrum.dk,DK,Europe,Northern Europe,Denmark,,,
46.30.213.155,4,8,monumentaltrees.com,DK,Europe,Northern Europe,Denmark,Capital Region,,Copenhagen
93.191.156.129,4,4,mors-papirklip.dk,DK,Europe,Northern Europe,Denmark,,,
46.30.215.17,4,53,mortgagerateselpasotx.com,DK,Europe,Northern Europe,Denmark,Capital Region,,Copenhagen
94.231.103.156,4,39,mother.dk,DK,Europe,Northern Europe,Denmark,,,
91.184.0.97,4,7,mrsonderhoud.nl,DK,Europe,Northern Europe,Denmark,Capital Region,,Copenhagen
91.184.0.49,4,2,musaca.nl,DK,Europe,Northern Europe,Denmark,Capital Region,,Copenhagen
46.30.213.139,4,11,musictechguru.com,DK,Europe,Northern Europe,Denmark,Capital Region,,Copenhagen
93.191.156.63,4,57,musikon.se,DK,Europe,Northern Europe,Denmark,,,
185.95.24.48,4,5,mvgm.com,DK,Europe,Northern Europe,Denmark,Capital Region,,Copenhagen
46.30.215.55,4,22,mxdvs.co,DK,Europe,Northern Europe,Denmark,Capital Region,,Copenhagen
91.184.0.27,4,24,mybeauty-licious.nl,DK,Europe,Northern Europe,Denmark,Capital Region,,Copenhagen
77.111.240.110,4,57,mynoise.net,DK,Europe,Northern Europe,Denmark,Capital Region,,Copenhagen
46.30.213.171,4,20,mysoti.com,DK,Europe,Northern Europe,Denmark,Capital Region,,Copenhagen
94.143.8.110,4,3,mytrendyphone.nl,DK,Europe,Northern Europe,Denmark,Central Jutland,,Skanderborg
94.231.103.53,4,18,nabi.dk,DK,Europe,Northern Europe,Denmark,,,
81.7.149.249,4,95,nald.ca,DK,Europe,Northern Europe,Denmark,Capital Region,,Frederiksberg
185.31.76.91,4,5,nanion.de,DK,Europe,Northern Europe,Denmark,,,
77.111.240.164,4,53,nasum.com,DK,Europe,Northern Europe,Denmark,Capital Region,,Copenhagen
46.30.213.170,4,20,nationalfoodstrategy.org,DK,Europe,Northern Europe,Denmark,Capital Region,,Copenhagen
77.111.241.118,4,5,nationalposttoday.com,DK,Europe,Northern Europe,Denmark,Capital Region,,Copenhagen
185.126.153.141,4,84,nativeadvertisinginstitute.com,DK,Europe,Northern Europe,Denmark,,,
195.242.130.218,4,46,natulique.com,DK,Europe,Northern Europe,Denmark,,,
195.242.131.32,4,450,naturensbevarelse.dk,DK,Europe,Northern Europe,Denmark,,,
185.21.41.231,4,3,naturli-foods.com,DK,Europe,Northern Europe,Denmark,,,
46.30.215.36,4,8,navalhistory.dk,DK,Europe,Northern Europe,Denmark,Capital Region,,Copenhagen
46.30.213.124,4,4,necrophobic.net,DK,Europe,Northern Europe,Denmark,Capital Region,,Copenhagen
46.30.213.157,4,2,nederlandstegelmuseum.nl,DK,Europe,Northern Europe,Denmark,Capital Region,,Copenhagen
185.224.16.222,4,7,netsite.dk,DK,Europe,Northern Europe,Denmark,,,
46.30.215.53,4,29,neverwasmag.com,DK,Europe,Northern Europe,Denmark,Capital Region,,Copenhagen
77.111.240.151,4,6,nia-uk.org,DK,Europe,Northern Europe,Denmark,Capital Region,,Copenhagen
94.231.103.182,4,32,nicolaiwallner.com,DK,Europe,Northern Europe,Denmark,,,
46.246.75.23,4,8,nimbus.se,DK,Europe,Northern Europe,Denmark,,,
46.30.213.154,4,52,ninearchespress.com,DK,Europe,Northern Europe,Denmark,Capital Region,,Copenhagen
195.242.130.186,4,251,nkyblog.com,DK,Europe,Northern Europe,Denmark,,,
77.247.64.12,4,9,nmd.dk,DK,Europe,Northern Europe,Denmark,Capital Region,,Ølstykke Stationsby
46.30.215.111,4,2,noah.dk,DK,Europe,Northern Europe,Denmark,Capital Region,,Copenhagen
212.97.141.152,4,34,noedhjaelp.dk,DK,Europe,Northern Europe,Denmark,,,
93.191.156.193,4,13,noerrebrobryghus.dk,DK,Europe,Northern Europe,Denmark,,,
77.111.240.119,4,72,nondeju.eu,DK,Europe,Northern Europe,Denmark,Capital Region,,Copenhagen
46.30.213.18,4,24,noordzeemerdunord.be,DK,Europe,Northern Europe,Denmark,Capital Region,,Copenhagen
94.231.109.47,4,79,norbyhus.dk,DK,Europe,Northern Europe,Denmark,,,
77.111.240.87,4,42,norcopia.se,DK,Europe,Northern Europe,Denmark,Capital Region,,Copenhagen
85.191.192.6,4,91,norholmgods.com,DK,Europe,Northern Europe,Denmark,North Denmark,,Aalborg
93.191.156.92,4,5,normcph.com,DK,Europe,Northern Europe,Denmark,,,
77.111.241.96,4,16,norwaynewstoday.com,DK,Europe,Northern Europe,Denmark,Capital Region,,Copenhagen
77.111.240.193,4,7,notedesignstudio.se,DK,Europe,Northern Europe,Denmark,Capital Region,,Copenhagen
46.30.213.92,4,11,notwist.com,DK,Europe,Northern Europe,Denmark,Capital Region,,Copenhagen
93.191.156.158,4,5,nsck-cykelmotion.dk,DK,Europe,Northern Europe,Denmark,,,
91.184.31.152,4,5,nt2taalmenu.nl,DK,Europe,Northern Europe,Denmark,Capital Region,,Copenhagen
5.249.255.87,4,9,nu.no,DK,Europe,Northern Europe,Denmark,Capital Region,,Copenhagen
93.191.156.180,4,29,nvl.org,DK,Europe,Northern Europe,Denmark,,,
77.233.228.116,4,-816,nymphomaniacthemovie.com,DK,Europe,Northern Europe,Denmark,Capital Region,,Taastrup
46.30.215.74,4,4,nytimesnewstoday.com,DK,Europe,Northern Europe,Denmark,Capital Region,,Copenhagen
91.184.0.57,4,15,objectrotterdam.com,DK,Europe,Northern Europe,Denmark,Capital Region,,Copenhagen
46.30.215.21,4,2,oceanexplorer.se,DK,Europe,Northern Europe,Denmark,Capital Region,,Copenhagen
185.20.205.63,4,35,odinteatret.dk,DK,Europe,Northern Europe,Denmark,,,
212.237.178.116,4,19,olduse.net,DK,Europe,Northern Europe,Denmark,,,
77.111.240.251,4,15,olubunmimabel.com,DK,Europe,Northern Europe,Denmark,Capital Region,,Copenhagen
89.188.72.96,4,2852,olympiandatabase.com,DK,Europe,Northern Europe,Denmark,,,
77.111.241.112,4,13,omagazine.fr,DK,Europe,Northern Europe,Denmark,Capital Region,,Copenhagen
93.191.156.156,4,22,omtv.dk,DK,Europe,Northern Europe,Denmark,,,
46.30.213.136,4,8,on4lar.be,DK,Europe,Northern Europe,Denmark,Capital Region,,Copenhagen
46.30.211.34,4,22,one.me,DK,Europe,Northern Europe,Denmark,Capital Region,,Copenhagen
195.47.247.9,4,13,one.one,DK,Europe,Northern Europe,Denmark,,,
195.47.247.8,4,43,one.one,DK,Europe,Northern Europe,Denmark,,,
185.156.96.16,4,234,Ookla Speedtest Server 9062: sp1.wnbhosting.dk,DK,Europe,Northern Europe,Denmark,South Denmark,,Tønder
87.51.35.68,4,176,Ookla Speedtest Server 9928: linespeed1.nms.tele.dk,DK,Europe,Northern Europe,Denmark,Central Jutland,,Aarhus
185.118.248.162,4,332,Ookla Speedtest Server 14014: speedtest.hiper.dk,DK,Europe,Northern Europe,Denmark,Capital Region,,Copenhagen
46.30.213.26,4,3,opensuse-guide.org,DK,Europe,Northern Europe,Denmark,Capital Region,,Copenhagen
77.111.241.76,4,12,opgewektinpurmerend.com,DK,Europe,Northern Europe,Denmark,Capital Region,,Copenhagen
46.30.213.36,4,44,ophetwww.net,DK,Europe,Northern Europe,Denmark,Capital Region,,Copenhagen
94.231.103.81,4,11,optumce.com,DK,Europe,Northern Europe,Denmark,,,
77.111.241.124,4,45,orderyoyo.com,DK,Europe,Northern Europe,Denmark,Capital Region,,Copenhagen
77.111.240.196,4,84,ordfront.se,DK,Europe,Northern Europe,Denmark,Capital Region,,Copenhagen
130.226.232.159,4,74,ordnet.dk,DK,Europe,Northern Europe,Denmark,,,
94.231.103.139,4,30,orimo.dk,DK,Europe,Northern Europe,Denmark,,,
45.136.70.58,4,12,orpheum.at,DK,Europe,Northern Europe,Denmark,South Denmark,,Middelfart
46.30.213.176,4,3,oskarstalberg.com,DK,Europe,Northern Europe,Denmark,Capital Region,,Copenhagen
77.111.240.160,4,43,osteo-deswaef.be,DK,Europe,Northern Europe,Denmark,Capital Region,,Copenhagen
94.231.109.204,4,12,ourhouse.dk,DK,Europe,Northern Europe,Denmark,,,
91.223.235.80,4,3,outdoorpro.dk,DK,Europe,Northern Europe,Denmark,,,
91.184.0.105,4,50,overloonzoo.nl,DK,Europe,Northern Europe,Denmark,Capital Region,,Copenhagen
46.30.215.62,4,6,oz9aec.net,DK,Europe,Northern Europe,Denmark,Capital Region,,Copenhagen
93.191.158.57,4,8,padelhal.com,DK,Europe,Northern Europe,Denmark,,,
93.191.156.157,4,6,padelpriser.com,DK,Europe,Northern Europe,Denmark,,,
46.30.215.29,4,3,padowan.dk,DK,Europe,Northern Europe,Denmark,Capital Region,,Copenhagen
91.184.0.10,4,19,paperflies.com,DK,Europe,Northern Europe,Denmark,Capital Region,,Copenhagen
5.249.255.122,4,37,paretosec.com,DK,Europe,Northern Europe,Denmark,Capital Region,,Copenhagen
46.30.215.56,4,42,parquetypuertas.com,DK,Europe,Northern Europe,Denmark,Capital Region,,Copenhagen
185.21.41.211,4,27,partner-ads.com,DK,Europe,Northern Europe,Denmark,,,
185.221.38.58,4,4,paustian.com,DK,Europe,Northern Europe,Denmark,,,
93.191.156.185,4,18,peterbjornandjohn.com,DK,Europe,Northern Europe,Denmark,,,
93.191.156.94,4,12,peterp.dk,DK,Europe,Northern Europe,Denmark,,,
46.30.215.94,4,43,pielinks.com,DK,Europe,Northern Europe,Denmark,Capital Region,,Copenhagen
91.184.0.53,4,59,pieterveen.nl,DK,Europe,Northern Europe,Denmark,Capital Region,,Copenhagen
46.30.215.106,4,12,pikasmedia.de,DK,Europe,Northern Europe,Denmark,Capital Region,,Copenhagen
93.191.156.33,4,18,pileshoppen.dk,DK,Europe,Northern Europe,Denmark,,,
77.111.240.108,4,12,pinsekirka-elim.no,DK,Europe,Northern Europe,Denmark,Capital Region,,Copenhagen
185.21.40.164,4,42,piopio.dk,DK,Europe,Northern Europe,Denmark,,,
46.30.215.116,4,14,pizzadude.dk,DK,Europe,Northern Europe,Denmark,Capital Region,,Copenhagen
46.30.215.66,4,22,pizzeriailcarpaccio.se,DK,Europe,Northern Europe,Denmark,Capital Region,,Copenhagen
94.231.108.241,4,11,plantepusherne.dk,DK,Europe,Northern Europe,Denmark,,,
62.69.153.49,4,4,planway.com,DK,Europe,Northern Europe,Denmark,Central Jutland,,Herning
185.31.77.87,4,9,plast.dk,DK,Europe,Northern Europe,Denmark,,,
77.111.240.115,4,60,poetrylondon.co.uk,DK,Europe,Northern Europe,Denmark,Capital Region,,Copenhagen
91.214.22.217,4,23,politiken.dk,DK,Europe,Northern Europe,Denmark,Capital Region,,Copenhagen
77.111.241.75,4,28,postgazettenewstoday.com,DK,Europe,Northern Europe,Denmark,Capital Region,,Copenhagen
46.30.215.54,4,72,postnorddanmarkrundt.dk,DK,Europe,Northern Europe,Denmark,Capital Region,,Copenhagen
185.224.18.18,4,40,pp.dk,DK,Europe,Northern Europe,Denmark,,,
46.30.213.69,4,52,pressplayontape.com,DK,Europe,Northern Europe,Denmark,Capital Region,,Copenhagen
46.30.215.77,4,23,prettymaids.dk,DK,Europe,Northern Europe,Denmark,Capital Region,,Copenhagen
94.231.103.51,4,36,princh.com,DK,Europe,Northern Europe,Denmark,,,
178.20.217.105,4,1826,printix.net,DK,Europe,Northern Europe,Denmark,,,
94.143.8.104,4,80,prishammeren.dk,DK,Europe,Northern Europe,Denmark,Central Jutland,,Skanderborg
46.30.213.191,4,15,prixos.nl,DK,Europe,Northern Europe,Denmark,Capital Region,,Copenhagen
185.101.141.125,4,24,psykologeridanmark.dk,DK,Europe,Northern Europe,Denmark,,,
46.30.213.15,4,22,pump-pyrolysteknik.se,DK,Europe,Northern Europe,Denmark,Capital Region,,Copenhagen
185.95.27.108,4,10,puremarkt.nl,DK,Europe,Northern Europe,Denmark,Capital Region,,Copenhagen
94.231.108.9,4,14,pvc.org,DK,Europe,Northern Europe,Denmark,,,
77.111.240.94,4,4,pyxeledit.com,DK,Europe,Northern Europe,Denmark,Capital Region,,Copenhagen
46.30.213.178,4,59,quelsolaar.com,DK,Europe,Northern Europe,Denmark,Capital Region,,Copenhagen
77.111.241.104,4,137,radioara.org,DK,Europe,Northern Europe,Denmark,Capital Region,,Copenhagen
46.30.213.59,4,14,railcolornews.com,DK,Europe,Northern Europe,Denmark,Capital Region,,Copenhagen
46.30.213.186,4,14,railwaywondersoftheworld.com,DK,Europe,Northern Europe,Denmark,Capital Region,,Copenhagen
77.111.240.186,4,7,rainbowrichescasinos.net,DK,Europe,Northern Europe,Denmark,Capital Region,,Copenhagen
93.191.156.22,4,37,rais.com,DK,Europe,Northern Europe,Denmark,,,
46.30.213.184,4,34,rajnnuhiddje.se,DK,Europe,Northern Europe,Denmark,Capital Region,,Copenhagen
93.191.156.143,4,28,ralan.com,DK,Europe,Northern Europe,Denmark,,,
185.31.76.90,4,46,rasmussenglobal.com,DK,Europe,Northern Europe,Denmark,,,
46.30.215.25,4,27,raumlabor.net,DK,Europe,Northern Europe,Denmark,Capital Region,,Copenhagen
77.111.240.247,4,13,ravnskov.nu,DK,Europe,Northern Europe,Denmark,Capital Region,,Copenhagen
46.30.215.112,4,7,rbrserien.se,DK,Europe,Northern Europe,Denmark,Capital Region,,Copenhagen
46.30.215.123,4,20,realcarboncredits.com,DK,Europe,Northern Europe,Denmark,Capital Region,,Copenhagen
46.30.215.24,4,21,realitycompetitiontv.com,DK,Europe,Northern Europe,Denmark,Capital Region,,Copenhagen
46.30.215.41,4,16,recruiterscanada.com,DK,Europe,Northern Europe,Denmark,Capital Region,,Copenhagen
46.30.213.7,4,43,recyclepro.co.uk,DK,Europe,Northern Europe,Denmark,Capital Region,,Copenhagen
46.30.213.51,4,7,redicecreations.com,DK,Europe,Northern Europe,Denmark,Capital Region,,Copenhagen
77.111.240.182,4,26,reffen.dk,DK,Europe,Northern Europe,Denmark,Capital Region,,Copenhagen
77.111.240.64,4,14,remarketing.company,DK,Europe,Northern Europe,Denmark,Capital Region,,Copenhagen
46.30.213.165,4,57,restaurantsumo.com,DK,Europe,Northern Europe,Denmark,Capital Region,,Copenhagen
77.111.240.138,4,47,restauranttoscanini.nl,DK,Europe,Northern Europe,Denmark,Capital Region,,Copenhagen
46.30.213.23,4,26,rhcv.be,DK,Europe,Northern Europe,Denmark,Capital Region,,Copenhagen
77.111.240.191,4,41,rice.dk,DK,Europe,Northern Europe,Denmark,Capital Region,,Copenhagen
185.10.9.100,4,7,rocketcdn.me,DK,Europe,Northern Europe,Denmark,Capital Region,,Copenhagen
195.242.131.2,4,315,rockfreaks.net,DK,Europe,Northern Europe,Denmark,,,
91.184.0.59,4,54,romapublications.org,DK,Europe,Northern Europe,Denmark,Capital Region,,Copenhagen
46.30.215.83,4,35,ronimo-games.com,DK,Europe,Northern Europe,Denmark,Capital Region,,Copenhagen
185.107.113.0,4,52,roofviscompetitie.nl,DK,Europe,Northern Europe,Denmark,Capital Region,,Copenhagen
46.30.213.89,4,4,rootstime.be,DK,Europe,Northern Europe,Denmark,Capital Region,,Copenhagen
195.242.131.238,4,8,roskilde-festival.dk,DK,Europe,Northern Europe,Denmark,,,
185.21.42.65,4,36,roskildedomkirke.dk,DK,Europe,Northern Europe,Denmark,,,
46.30.213.72,4,14,rostra.dk,DK,Europe,Northern Europe,Denmark,Capital Region,,Copenhagen
193.104.202.14,4,8,rotrex.com,DK,Europe,Northern Europe,Denmark,North Denmark,,Aalborg
178.20.217.33,4,32,royalunibrew.com,DK,Europe,Northern Europe,Denmark,,,
91.184.0.111,4,39,rozenbergps.com,DK,Europe,Northern Europe,Denmark,Capital Region,,Copenhagen
77.111.240.239,4,6,rqwork.de,DK,Europe,Northern Europe,Denmark,Capital Region,,Copenhagen
46.30.213.109,4,3,rrscrap.co.uk,DK,Europe,Northern Europe,Denmark,Capital Region,,Copenhagen
46.30.215.68,4,6,rtnewstoday.com,DK,Europe,Northern Europe,Denmark,Capital Region,,Copenhagen
77.247.72.75,4,466,rudersdal.dk,DK,Europe,Northern Europe,Denmark,Capital Region,,Ølstykke Stationsby
91.184.31.81,4,27,ruitenheer.nl,DK,Europe,Northern Europe,Denmark,Capital Region,,Copenhagen
93.191.156.84,4,24,rundetaarn.dk,DK,Europe,Northern Europe,Denmark,,,
46.30.215.82,4,6,rustiekkamperen.com,DK,Europe,Northern Europe,Denmark,Capital Region,,Copenhagen
185.221.38.41,4,6,sa-co.dk,DK,Europe,Northern Europe,Denmark,,,
91.184.0.52,4,3,saabheritagecenter.com,DK,Europe,Northern Europe,Denmark,Capital Region,,Copenhagen
46.30.215.109,4,14,saarnews.com,DK,Europe,Northern Europe,Denmark,Capital Region,,Copenhagen
46.30.213.150,4,8,sabinemarcelis.com,DK,Europe,Northern Europe,Denmark,Capital Region,,Copenhagen
46.30.215.113,4,14,saeys.se,DK,Europe,Northern Europe,Denmark,Capital Region,,Copenhagen
91.184.0.106,4,3,safaripark.nl,DK,Europe,Northern Europe,Denmark,Capital Region,,Copenhagen
87.116.13.125,4,513,sagnlandet.dk,DK,Europe,Northern Europe,Denmark,Capital Region,,Copenhagen
193.46.69.14,4,737,samsungsdirecruit.com,DK,Europe,Northern Europe,Denmark,,,
46.30.215.15,4,10,sanger.dk,DK,Europe,Northern Europe,Denmark,Capital Region,,Copenhagen
185.20.205.56,4,42,sats-kbh.dk,DK,Europe,Northern Europe,Denmark,,,
185.95.26.149,4,5,saunadeco.nl,DK,Europe,Northern Europe,Denmark,Capital Region,,Copenhagen
46.30.213.182,4,13,savico.be,DK,Europe,Northern Europe,Denmark,Capital Region,,Copenhagen
94.231.103.132,4,4,scan-speak.dk,DK,Europe,Northern Europe,Denmark,,,
46.30.213.55,4,82,schonmagazine.com,DK,Europe,Northern Europe,Denmark,Capital Region,,Copenhagen
46.30.215.13,4,19,scientificfreedom.dk,DK,Europe,Northern Europe,Denmark,Capital Region,,Copenhagen
46.30.213.11,4,5,scorecloud.com,DK,Europe,Northern Europe,Denmark,Capital Region,,Copenhagen
46.30.215.35,4,6,scotlandnewstoday.com,DK,Europe,Northern Europe,Denmark,Capital Region,,Copenhagen
93.191.158.53,4,-6,sea-intelligence.com,DK,Europe,Northern Europe,Denmark,,,
185.221.38.36,4,22,sealine-products.no,DK,Europe,Northern Europe,Denmark,,,
185.58.213.48,4,26,seansbar.ie,DK,Europe,Northern Europe,Denmark,,,
46.30.213.6,4,7,secretsofgrindea.com,DK,Europe,Northern Europe,Denmark,Capital Region,,Copenhagen
93.191.156.23,4,21,selmacopenhagen.dk,DK,Europe,Northern Europe,Denmark,,,
93.191.156.19,4,15,servicekungen.se,DK,Europe,Northern Europe,Denmark,,,
185.21.42.119,4,24,sf.dk,DK,Europe,Northern Europe,Denmark,,,
93.191.156.227,4,38,sikyon.com,DK,Europe,Northern Europe,Denmark,,,
185.58.213.118,4,38,silberbergwerk.at,DK,Europe,Northern Europe,Denmark,,,
185.21.40.231,4,35,silkeborgif.com,DK,Europe,Northern Europe,Denmark,,,
94.231.103.120,4,63,simonhoegsberg.com,DK,Europe,Northern Europe,Denmark,,,
94.231.103.147,4,102,simonhoirup.dk,DK,Europe,Northern Europe,Denmark,,,
46.30.215.114,4,2,simonstalenhag.se,DK,Europe,Northern Europe,Denmark,Capital Region,,Copenhagen
46.30.213.73,4,4,simplesite.com,DK,Europe,Northern Europe,Denmark,Capital Region,,Copenhagen
91.184.0.89,4,19,singasari.info,DK,Europe,Northern Europe,Denmark,Capital Region,,Copenhagen
77.111.240.73,4,20,sk3bg.se,DK,Europe,Northern Europe,Denmark,Capital Region,,Copenhagen
77.111.240.144,4,22,skabelonen.dk,DK,Europe,Northern Europe,Denmark,Capital Region,,Copenhagen
185.21.42.112,4,1,skagenskunstmuseer.dk,DK,Europe,Northern Europe,Denmark,,,
91.221.207.125,4,14,skagerak.com,DK,Europe,Northern Europe,Denmark,,,
46.30.124.118,4,23,skatepro.nl,DK,Europe,Northern Europe,Denmark,Central Jutland,,Herning
46.30.215.120,4,34,skepticreport.com,DK,Europe,Northern Europe,Denmark,Capital Region,,Copenhagen
46.30.213.20,4,18,skillinge.com,DK,Europe,Northern Europe,Denmark,Capital Region,,Copenhagen
185.126.153.143,4,13,skisport.dk,DK,Europe,Northern Europe,Denmark,,,
46.30.215.9,4,14,skisprungschanzen.com,DK,Europe,Northern Europe,Denmark,Capital Region,,Copenhagen
93.191.156.241,4,9,skjalden.com,DK,Europe,Northern Europe,Denmark,,,
77.111.240.180,4,9,skolparty.se,DK,Europe,Northern Europe,Denmark,Capital Region,,Copenhagen
46.30.213.137,4,3,skrekkogle.com,DK,Europe,Northern Europe,Denmark,Capital Region,,Copenhagen
185.107.113.152,4,21,skyinteriors.nl,DK,Europe,Northern Europe,Denmark,Capital Region,,Copenhagen
46.30.213.103,4,14,skystef.be,DK,Europe,Northern Europe,Denmark,Capital Region,,Copenhagen
94.231.109.238,4,46,slackermanager.com,DK,Europe,Northern Europe,Denmark,,,
77.111.240.86,4,18,slaegtsbibliotek.dk,DK,Europe,Northern Europe,Denmark,Capital Region,,Copenhagen
185.95.26.126,4,4,slotenmakeramsterdam.nl,DK,Europe,Northern Europe,Denmark,Capital Region,,Copenhagen
195.47.247.19,4,5,smartpharma.no,DK,Europe,Northern Europe,Denmark,,,
91.184.31.82,4,14,smk.nl,DK,Europe,Northern Europe,Denmark,Capital Region,,Copenhagen
93.191.156.130,4,29,smorgasbord.nu,DK,Europe,Northern Europe,Denmark,,,
46.30.215.70,4,3,snooze-hotelsoftware.de,DK,Europe,Northern Europe,Denmark,Capital Region,,Copenhagen
46.30.213.146,4,24,snvienergy.fr,DK,Europe,Northern Europe,Denmark,Capital Region,,Copenhagen
46.30.215.118,4,92,socialarchitects.nl,DK,Europe,Northern Europe,Denmark,Capital Region,,Copenhagen
46.30.213.45,4,4,sociologylens.net,DK,Europe,Northern Europe,Denmark,Capital Region,,Copenhagen
46.30.213.131,4,33,soenmusic.com,DK,Europe,Northern Europe,Denmark,Capital Region,,Copenhagen
46.30.213.2,4,20,sofiatalvik.com,DK,Europe,Northern Europe,Denmark,Capital Region,,Copenhagen
93.191.156.31,4,7,sonance.net,DK,Europe,Northern Europe,Denmark,,,
91.184.31.135,4,5,sonicacts.com,DK,Europe,Northern Europe,Denmark,Capital Region,,Copenhagen
46.30.213.38,4,12,spab-rice.com,DK,Europe,Northern Europe,Denmark,Capital Region,,Copenhagen
94.231.107.70,4,26,sparetimeteaching.dk,DK,Europe,Northern Europe,Denmark,,,
185.20.205.27,4,4,sparty.dk,DK,Europe,Northern Europe,Denmark,,,
94.231.108.252,4,12,speedbandits.dk,DK,Europe,Northern Europe,Denmark,,,
185.20.205.35,4,2,sportbilen.se,DK,Europe,Northern Europe,Denmark,,,
130.226.232.158,4,10,sproget.dk,DK,Europe,Northern Europe,Denmark,,,
93.191.156.93,4,4,sri-lanka.dk,DK,Europe,Northern Europe,Denmark,,,
77.111.240.158,4,3,stbookly.eu,DK,Europe,Northern Europe,Denmark,Capital Region,,Copenhagen
94.231.106.21,4,3,step.dk,DK,Europe,Northern Europe,Denmark,,,
91.184.0.109,4,26,stivoro.nl,DK,Europe,Northern Europe,Denmark,Capital Region,,Copenhagen
77.111.240.154,4,20,stjarnhimlen.se,DK,Europe,Northern Europe,Denmark,Capital Region,,Copenhagen
93.191.156.125,4,13,stockholmfreetour.com,DK,Europe,Northern Europe,Denmark,,,
91.184.0.48,4,39,stoppestennu.nl,DK,Europe,Northern Europe,Denmark,Capital Region,,Copenhagen
212.237.249.116,4,7,strandconsult.dk,DK,Europe,Northern Europe,Denmark,,,
46.30.213.17,4,51,streethousechampionships.com,DK,Europe,Northern Europe,Denmark,Capital Region,,Copenhagen
46.30.213.128,4,69,strijdbewijs.nl,DK,Europe,Northern Europe,Denmark,Capital Region,,Copenhagen
46.30.215.76,4,3,stromstadakademi.se,DK,Europe,Northern Europe,Denmark,Capital Region,,Copenhagen
91.184.31.99,4,63,stuc-concurrent.nl,DK,Europe,Northern Europe,Denmark,Capital Region,,Copenhagen
77.111.240.170,4,30,studiolegalemanzo.com,DK,Europe,Northern Europe,Denmark,Capital Region,,Copenhagen
193.200.90.170,4,738,stupid-studio.com,DK,Europe,Northern Europe,Denmark,,,
46.30.215.91,4,2,sund-forskning.dk,DK,Europe,Northern Europe,Denmark,Capital Region,,Copenhagen
93.191.156.89,4,2,sundhedspolitisktidsskrift.dk,DK,Europe,Northern Europe,Denmark,,,
94.231.103.172,4,3,sunnyferie.dk,DK,Europe,Northern Europe,Denmark,,,
91.184.31.109,4,33,supplychainmovement.com,DK,Europe,Northern Europe,Denmark,Capital Region,,Copenhagen
93.191.156.192,4,7,surftown.com,DK,Europe,Northern Europe,Denmark,,,
185.21.42.25,4,4,sustainia.me,DK,Europe,Northern Europe,Denmark,,,
152.115.36.105,4,58,sveiby.com,DK,Europe,Northern Europe,Denmark,Zealand,,Skælskør
46.30.213.162,4,3,svenskacc.se,DK,Europe,Northern Europe,Denmark,Capital Region,,Copenhagen
93.191.156.181,4,15,swing-trading.net,DK,Europe,Northern Europe,Denmark,,,
93.191.158.43,4,4,sydkystdanmark.dk,DK,Europe,Northern Europe,Denmark,,,
46.30.213.9,4,2,sye.dk,DK,Europe,Northern Europe,Denmark,Capital Region,,Copenhagen
46.30.215.61,4,12,synthfont.com,DK,Europe,Northern Europe,Denmark,Capital Region,,Copenhagen
93.191.155.240,4,6,t-rex-effects.com,DK,Europe,Northern Europe,Denmark,,,
185.95.24.31,4,8,t-shirts.nl,DK,Europe,Northern Europe,Denmark,Capital Region,,Copenhagen
93.191.156.228,4,7,tacticaltrading.se,DK,Europe,Northern Europe,Denmark,,,
91.184.31.136,4,6,takecarebnb.org,DK,Europe,Northern Europe,Denmark,Capital Region,,Copenhagen
46.30.215.63,4,14,tamm.be,DK,Europe,Northern Europe,Denmark,Capital Region,,Copenhagen
91.184.0.107,4,6,tamyca.de,DK,Europe,Northern Europe,Denmark,Capital Region,,Copenhagen
185.31.76.114,4,1,tangent-audio.com,DK,Europe,Northern Europe,Denmark,,,
77.111.243.69,4,10,tassenmuseum.nl,DK,Europe,Northern Europe,Denmark,Capital Region,,Copenhagen
46.30.213.41,4,74,teamconfetti.nl,DK,Europe,Northern Europe,Denmark,Capital Region,,Copenhagen
94.231.109.94,4,19,techbbq.dk,DK,Europe,Northern Europe,Denmark,,,
93.191.158.23,4,74,techotel.dk,DK,Europe,Northern Europe,Denmark,,,
46.30.215.42,4,46,techregister.co.uk,DK,Europe,Northern Europe,Denmark,Capital Region,,Copenhagen
77.111.240.245,4,3,techtelegraph.co.uk,DK,Europe,Northern Europe,Denmark,Capital Region,,Copenhagen
91.184.31.45,4,14,teds-place.nl,DK,Europe,Northern Europe,Denmark,Capital Region,,Copenhagen
185.21.41.171,4,101,termatech.com,DK,Europe,Northern Europe,Denmark,,,
46.30.213.166,4,29,textmakareknutsson.se,DK,Europe,Northern Europe,Denmark,Capital Region,,Copenhagen
77.111.240.189,4,18,the-butcher.com,DK,Europe,Northern Europe,Denmark,Capital Region,,Copenhagen
46.30.213.188,4,13,theagitator.com,DK,Europe,Northern Europe,Denmark,Capital Region,,Copenhagen
91.184.0.90,4,7,theaternadedam.nl,DK,Europe,Northern Europe,Denmark,Capital Region,,Copenhagen
46.30.215.101,4,6,theblackchildagenda.org,DK,Europe,Northern Europe,Denmark,Capital Region,,Copenhagen
77.111.241.127,4,11,thedailymailnewstoday.com,DK,Europe,Northern Europe,Denmark,Capital Region,,Copenhagen
77.111.241.126,4,10,thedailytelegraphnewstoday.com,DK,Europe,Northern Europe,Denmark,Capital Region,,Copenhagen
46.30.213.88,4,2,thehistoryoflondon.co.uk,DK,Europe,Northern Europe,Denmark,Capital Region,,Copenhagen
77.111.241.97,4,53,theindependentnewstoday.com,DK,Europe,Northern Europe,Denmark,Capital Region,,Copenhagen
91.184.0.14,4,8,thekindnessapp.com,DK,Europe,Northern Europe,Denmark,Capital Region,,Copenhagen
46.30.215.27,4,79,thelogocreative.co.uk,DK,Europe,Northern Europe,Denmark,Capital Region,,Copenhagen
46.30.213.127,4,48,themexpose.com,DK,Europe,Northern Europe,Denmark,Capital Region,,Copenhagen
77.111.241.114,4,58,themirrornewstoday.com,DK,Europe,Northern Europe,Denmark,Capital Region,,Copenhagen
91.184.0.9,4,17,theoneminutes.org,DK,Europe,Northern Europe,Denmark,Capital Region,,Copenhagen
77.111.241.108,4,3,thequintnewstoday.com,DK,Europe,Northern Europe,Denmark,Capital Region,,Copenhagen
77.111.241.70,4,5,thestarnewstoday.com,DK,Europe,Northern Europe,Denmark,Capital Region,,Copenhagen
77.111.241.74,4,39,thesunnewstoday.com,DK,Europe,Northern Europe,Denmark,Capital Region,,Copenhagen
77.111.241.125,4,18,thetelegraphnewstoday.com,DK,Europe,Northern Europe,Denmark,Capital Region,,Copenhagen
77.111.240.68,4,25,theverybesttop10.com,DK,Europe,Northern Europe,Denmark,Capital Region,,Copenhagen
46.30.213.98,4,3,thewelltravelledkitchen.com,DK,Europe,Northern Europe,Denmark,Capital Region,,Copenhagen
94.231.103.41,4,29,thisted-bryghus.dk,DK,Europe,Northern Europe,Denmark,,,
46.30.213.30,4,6,thomaslaupstad.com,DK,Europe,Northern Europe,Denmark,Capital Region,,Copenhagen
94.231.109.254,4,3,thrysoee.dk,DK,Europe,Northern Europe,Denmark,,,
77.111.241.117,4,2,thuisleven.com,DK,Europe,Northern Europe,Denmark,Capital Region,,Copenhagen
77.111.240.69,4,24,thundermother.com,DK,Europe,Northern Europe,Denmark,Capital Region,,Copenhagen
93.191.156.118,4,4,tilskudtiloverskud.dk,DK,Europe,Northern Europe,Denmark,,,
46.30.213.21,4,2,tiltedtwister.com,DK,Europe,Northern Europe,Denmark,Capital Region,,Copenhagen
94.231.103.148,4,4,timeadvice.dk,DK,Europe,Northern Europe,Denmark,,,
93.191.156.238,4,35,timesask.com,DK,Europe,Northern Europe,Denmark,,,
77.111.241.69,4,19,timesofnetherland.com,DK,Europe,Northern Europe,Denmark,Capital Region,,Copenhagen
77.111.241.89,4,7,timesofspanish.com,DK,Europe,Northern Europe,Denmark,Capital Region,,Copenhagen
46.30.124.187,4,2,tipsbladet.dk,DK,Europe,Northern Europe,Denmark,Central Jutland,,Herning
77.111.240.131,4,12,tobermory.com,DK,Europe,Northern Europe,Denmark,Capital Region,,Copenhagen
46.30.213.27,4,9,todayinliege.be,DK,Europe,Northern Europe,Denmark,Capital Region,,Copenhagen
185.31.79.5,4,3,tonerland.dk,DK,Europe,Northern Europe,Denmark,,,
91.184.0.50,4,2,tontonclub.nl,DK,Europe,Northern Europe,Denmark,Capital Region,,Copenhagen
77.111.241.105,4,24,topeuropenews.com,DK,Europe,Northern Europe,Denmark,Capital Region,,Copenhagen
77.111.241.123,4,4,topworldnewstoday.com,DK,Europe,Northern Europe,Denmark,Capital Region,,Copenhagen
77.111.240.84,4,5,tothe92.co.uk,DK,Europe,Northern Europe,Denmark,Capital Region,,Copenhagen
46.30.215.48,4,15,transport-executive.co.uk,DK,Europe,Northern Europe,Denmark,Capital Region,,Copenhagen
94.231.103.124,4,4,trapholt.dk,DK,Europe,Northern Europe,Denmark,,,
46.30.213.46,4,57,tredjenatur.dk,DK,Europe,Northern Europe,Denmark,Capital Region,,Copenhagen
77.111.240.109,4,7,tribulation.se,DK,Europe,Northern Europe,Denmark,Capital Region,,Copenhagen
77.66.16.100,4,32,trifork.com,DK,Europe,Northern Europe,Denmark,Capital Region,,Copenhagen
77.66.82.107,4,1128,trifork.nl,DK,Europe,Northern Europe,Denmark,Zealand,,Greve
94.231.108.148,4,54,trollmap.com,DK,Europe,Northern Europe,Denmark,,,
46.30.213.126,4,4,truefoodsblog.com,DK,Europe,Northern Europe,Denmark,Capital Region,,Copenhagen
46.30.215.119,4,4,trust-scaffolding.com,DK,Europe,Northern Europe,Denmark,Capital Region,,Copenhagen
94.231.108.28,4,3,trykbestilling.dk,DK,Europe,Northern Europe,Denmark,,,
93.191.156.88,4,3,tsware.net,DK,Europe,Northern Europe,Denmark,,,
46.30.213.113,4,1,tuinenstan.be,DK,Europe,Northern Europe,Denmark,Capital Region,,Copenhagen
77.111.240.122,4,3,tumia.org,DK,Europe,Northern Europe,Denmark,Capital Region,,Copenhagen
46.30.213.33,4,3,tunturisusi.com,DK,Europe,Northern Europe,Denmark,Capital Region,,Copenhagen
77.111.241.106,4,2,turkeynewstoday.com,DK,Europe,Northern Europe,Denmark,Capital Region,,Copenhagen
46.30.213.132,4,3,turksonderwijscentrum.nl,DK,Europe,Northern Europe,Denmark,Capital Region,,Copenhagen
93.191.156.234,4,13,tuugo.dk,DK,Europe,Northern Europe,Denmark,,,
199.232.42.217,4,3,tv2.dk,DK,Europe,Northern Europe,Denmark,Capital Region,,Copenhagen
46.30.213.31,4,15,tvark.se,DK,Europe,Northern Europe,Denmark,Capital Region,,Copenhagen
77.111.240.161,4,24,twelveticketing.eu,DK,Europe,Northern Europe,Denmark,Capital Region,,Copenhagen
77.111.243.64,4,5,twentefm.net,DK,Europe,Northern Europe,Denmark,Capital Region,,Copenhagen
77.111.240.147,4,2,twinair.com,DK,Europe,Northern Europe,Denmark,Capital Region,,Copenhagen
93.191.156.106,4,2,ubivox.com,DK,Europe,Northern Europe,Denmark,,,
77.111.240.179,4,6,ueberdentellerrand.org,DK,Europe,Northern Europe,Denmark,Capital Region,,Copenhagen
77.247.72.74,4,21,ugeskriftet.dk,DK,Europe,Northern Europe,Denmark,Capital Region,,Ølstykke Stationsby
77.111.240.70,4,9,uglyanimalsoc.com,DK,Europe,Northern Europe,Denmark,Capital Region,,Copenhagen
46.30.213.86,4,5,ulkloebben.dk,DK,Europe,Northern Europe,Denmark,Capital Region,,Copenhagen
94.231.103.70,4,13,ultimate.dk,DK,Europe,Northern Europe,Denmark,,,
185.95.24.77,4,9,umami-restaurant.com,DK,Europe,Northern Europe,Denmark,Capital Region,,Copenhagen
46.30.213.8,4,1,uniccm.com,DK,Europe,Northern Europe,Denmark,Capital Region,,Copenhagen
91.184.0.200,4,11,unique-casino.nl,DK,Europe,Northern Europe,Denmark,Capital Region,,Copenhagen
46.30.213.32,4,4,unitedforukraine.org,DK,Europe,Northern Europe,Denmark,Capital Region,,Copenhagen
94.143.8.107,4,33,universitypress.dk,DK,Europe,Northern Europe,Denmark,Central Jutland,,Skanderborg
46.30.215.60,4,8,unleashed.se,DK,Europe,Northern Europe,Denmark,Capital Region,,Copenhagen
94.231.108.23,4,24,unoeuro.com,DK,Europe,Northern Europe,Denmark,,,
185.20.205.24,4,5,unthaiyourself.com,DK,Europe,Northern Europe,Denmark,,,
94.231.103.84,4,6,urbanrigger.com,DK,Europe,Northern Europe,Denmark,,,
46.30.213.161,4,75,usa-seniorenpflege.de,DK,Europe,Northern Europe,Denmark,Capital Region,,Copenhagen
195.47.247.17,4,6,usercontent.one,DK,Europe,Northern Europe,Denmark,,,
195.47.247.16,4,3,usercontent.one,DK,Europe,Northern Europe,Denmark,,,
94.231.99.102,4,4,uvm.dk,DK,Europe,Northern Europe,Denmark,,,
77.111.240.78,4,7,valaisconsulting.ch,DK,Europe,Northern Europe,Denmark,Capital Region,,Copenhagen
185.21.42.131,4,17,valdemarsro.dk,DK,Europe,Northern Europe,Denmark,,,
46.30.213.53,4,12,van-meijl.eu,DK,Europe,Northern Europe,Denmark,Capital Region,,Copenhagen
91.230.69.61,4,-1132,vanderbiltindustries.com,DK,Europe,Northern Europe,Denmark,,,
94.231.109.205,4,5,vandognatur.dk,DK,Europe,Northern Europe,Denmark,,,
46.30.215.4,4,6,vanity.dk,DK,Europe,Northern Europe,Denmark,Capital Region,,Copenhagen
93.191.156.115,4,11,vardemuseerne.dk,DK,Europe,Northern Europe,Denmark,,,
77.111.240.222,4,27,vczwolle.nl,DK,Europe,Northern Europe,Denmark,Capital Region,,Copenhagen
77.111.240.177,4,9,veganer.nu,DK,Europe,Northern Europe,Denmark,Capital Region,,Copenhagen
91.184.0.61,4,13,veganfinestfoods.com,DK,Europe,Northern Europe,Denmark,Capital Region,,Copenhagen
94.231.103.22,4,42,vegetarisk.dk,DK,Europe,Northern Europe,Denmark,,,
77.111.240.123,4,24,verhuisbedrijfamsterdammovers.nl,DK,Europe,Northern Europe,Denmark,Capital Region,,Copenhagen
46.36.210.13,4,9,vhm.dk,DK,Europe,Northern Europe,Denmark,,,
77.111.240.127,4,19,viadagio.be,DK,Europe,Northern Europe,Denmark,Capital Region,,Copenhagen
93.191.156.64,4,2,viergroenne.dk,DK,Europe,Northern Europe,Denmark,,,
185.59.228.116,4,3,vikingeskibsmuseet.dk,DK,Europe,Northern Europe,Denmark,,,
178.20.216.31,4,8,viksoe.dk,DK,Europe,Northern Europe,Denmark,,,
87.238.253.113,4,6,virker.nu,DK,Europe,Northern Europe,Denmark,,,
185.21.40.249,4,12,visitnordjylland.dk,DK,Europe,Northern Europe,Denmark,,,
46.30.213.108,4,3,vivantinvest.nl,DK,Europe,Northern Europe,Denmark,Capital Region,,Copenhagen
185.95.24.150,4,13,vivonline.nl,DK,Europe,Northern Europe,Denmark,Capital Region,,Copenhagen
77.111.241.71,4,2,vocaleurope.eu,DK,Europe,Northern Europe,Denmark,Capital Region,,Copenhagen
46.30.215.30,4,65,voedzaamensnel.nl,DK,Europe,Northern Europe,Denmark,Capital Region,,Copenhagen
77.111.240.72,4,17,voixdasie.com,DK,Europe,Northern Europe,Denmark,Capital Region,,Copenhagen
46.30.213.151,4,2,volkon.de,DK,Europe,Northern Europe,Denmark,Capital Region,,Copenhagen
185.58.213.233,4,3,vorfrelserskirke.dk,DK,Europe,Northern Europe,Denmark,,,
46.30.213.28,4,47,vrsexleksaker.se,DK,Europe,Northern Europe,Denmark,Capital Region,,Copenhagen
46.30.215.126,4,19,vsk.info,DK,Europe,Northern Europe,Denmark,Capital Region,,Copenhagen
46.30.213.13,4,1,vsociety.me,DK,Europe,Northern Europe,Denmark,Capital Region,,Copenhagen
46.30.213.164,4,6,vurroconcerti.it,DK,Europe,Northern Europe,Denmark,Capital Region,,Copenhagen
77.111.241.95,4,3,walesnewstoday.com,DK,Europe,Northern Europe,Denmark,Capital Region,,Copenhagen
46.30.213.148,4,3,waltervanbeirendonck.com,DK,Europe,Northern Europe,Denmark,Capital Region,,Copenhagen
94.231.103.56,4,11,wanadoo.dk,DK,Europe,Northern Europe,Denmark,,,
94.231.109.237,4,4,wannafindserver.dk,DK,Europe,Northern Europe,Denmark,,,
46.30.215.52,4,26,wardruna.com,DK,Europe,Northern Europe,Denmark,Capital Region,,Copenhagen
94.231.103.68,4,5,warofrightsforum.com,DK,Europe,Northern Europe,Denmark,,,
77.111.240.88,4,14,warpigs.dk,DK,Europe,Northern Europe,Denmark,Capital Region,,Copenhagen
46.30.213.81,4,11,waseem.nl,DK,Europe,Northern Europe,Denmark,Capital Region,,Copenhagen
77.111.241.90,4,8,washingtontimesnewstoday.com,DK,Europe,Northern Europe,Denmark,Capital Region,,Copenhagen
46.30.213.129,4,9,wastedwarlocks.com,DK,Europe,Northern Europe,Denmark,Capital Region,,Copenhagen
77.111.240.97,4,15,we-grow.dk,DK,Europe,Northern Europe,Denmark,Capital Region,,Copenhagen
185.20.205.50,4,4,wearehearken.eu,DK,Europe,Northern Europe,Denmark,,,
185.20.205.43,4,6,webm2.dk,DK,Europe,Northern Europe,Denmark,,,
185.58.213.74,4,4,websmart.de,DK,Europe,Northern Europe,Denmark,,,
93.191.156.91,4,12,webx.dk,DK,Europe,Northern Europe,Denmark,,,
46.30.213.16,4,6,wetter-lehmschlenke.de,DK,Europe,Northern Europe,Denmark,Capital Region,,Copenhagen
77.111.240.95,4,3,who.dk,DK,Europe,Northern Europe,Denmark,Capital Region,,Copenhagen
91.184.31.21,4,49,wijzijnkatapult.nl,DK,Europe,Northern Europe,Denmark,Capital Region,,Copenhagen
77.111.240.183,4,5,winnc.com,DK,Europe,Northern Europe,Denmark,Capital Region,,Copenhagen
91.184.0.8,4,3,wiziwig.tv,DK,Europe,Northern Europe,Denmark,Capital Region,,Copenhagen
185.58.213.229,4,2,wochenspiegel-web.de,DK,Europe,Northern Europe,Denmark,,,
46.30.213.145,4,7,wonbaek.de,DK,Europe,Northern Europe,Denmark,Capital Region,,Copenhagen
94.231.103.168,4,5,wordsrated.com,DK,Europe,Northern Europe,Denmark,,,
77.111.241.122,4,4,workmakelaardij.nl,DK,Europe,Northern Europe,Denmark,Capital Region,,Copenhagen
46.30.215.88,4,4,worldauthors.org,DK,Europe,Northern Europe,Denmark,Capital Region,,Copenhagen
46.30.213.40,4,9,worldfreedomalliance.org,DK,Europe,Northern Europe,Denmark,Capital Region,,Copenhagen
46.30.213.190,4,3,wotsit.org,DK,Europe,Northern Europe,Denmark,Capital Region,,Copenhagen
94.231.103.155,4,2,wp-danmark.dk,DK,Europe,Northern Europe,Denmark,,,
185.20.205.72,4,5,wp-ultra.com,DK,Europe,Northern Europe,Denmark,,,
46.30.215.127,4,31,writereader.com,DK,Europe,Northern Europe,Denmark,Capital Region,,Copenhagen
185.221.38.124,4,5,wulffmorgenthaler.com,DK,Europe,Northern Europe,Denmark,,,
46.30.215.81,4,11,ww2.dk,DK,Europe,Northern Europe,Denmark,Capital Region,,Copenhagen
185.21.40.232,4,10,wwf.dk,DK,Europe,Northern Europe,Denmark,,,
178.20.216.128,4,5,wwviews.org,DK,Europe,Northern Europe,Denmark,,,
77.111.240.74,4,3,xaviers.ac,DK,Europe,Northern Europe,Denmark,Capital Region,,Copenhagen
46.183.138.100,4,3,xconsult.dk,DK,Europe,Northern Europe,Denmark,,,
93.191.156.172,4,78,xn--jacobsens-rengring-t4b.dk,DK,Europe,Northern Europe,Denmark,,,
94.231.103.100,4,5,xn--sorpendlerklub-sqb.dk,DK,Europe,Northern Europe,Denmark,,,
93.191.156.173,4,3,xn--stdly-hra.com,DK,Europe,Northern Europe,Denmark,,,
46.30.211.38,4,4,yeezyboost-350.uk,DK,Europe,Northern Europe,Denmark,Capital Region,,Copenhagen
46.30.213.138,4,4,yemendataproject.org,DK,Europe,Northern Europe,Denmark,Capital Region,,Copenhagen
91.184.0.34,4,8,yourchoicecatering.nl,DK,Europe,Northern Europe,Denmark,Capital Region,,Copenhagen
94.231.103.63,4,4,zentropa.dk,DK,Europe,Northern Europe,Denmark,,,
82.103.133.20,4,2,zitobox.com,DK,Europe,Northern Europe,Denmark,South Denmark,,Rødding
46.30.213.42,4,1,zumunchi.org,DK,Europe,Northern Europe,Denmark,Capital Region,,Copenhagen
