reflector_ip,ip_version,offset,description,country_code,region,sub_region,country_name,sub_division_1,sub_division_2,city
192.121.38.145,4,-323,acfnewsource.org,NO,Europe,Northern Europe,Norway,,,
217.170.193.90,4,9,afrol.com,NO,Europe,Northern Europe,Norway,,,
81.175.54.3,4,6,agendamagasin.no,NO,Europe,Northern Europe,Norway,Oslo County,,Oslo
158.36.153.21,4,-47359,aho.no,NO,Europe,Northern Europe,Norway,Oslo County,,Oslo
193.107.30.178,4,8,amedia.no,NO,Europe,Northern Europe,Norway,,,
46.250.210.120,4,16,anart.no,NO,Europe,Northern Europe,Norway,Oslo County,,Oslo
185.12.56.135,4,0,antropologi.info,NO,Europe,Northern Europe,Norway,Oslo County,,Oslo
185.181.61.124,4,340,augustamax.com,NO,Europe,Northern Europe,Norway,Vestfold,,Sandefjord
83.242.12.67,4,7,avaldsnes.info,NO,Europe,Northern Europe,Norway,Vestland,,Sæbøvik
185.181.60.49,4,47,bato.to,NO,Europe,Northern Europe,Norway,Vestfold,,Sandefjord
46.250.221.12,4,50,bawser.com,NO,Europe,Northern Europe,Norway,Oslo County,,Oslo
91.220.143.177,4,37,beatfoundation.com,NO,Europe,Northern Europe,Norway,,,
91.220.143.178,4,8,beatfoundation.com,NO,Europe,Northern Europe,Norway,,,
185.91.65.157,4,2,beitostolen.com,NO,Europe,Northern Europe,Norway,,,
185.114.57.89,4,30,bekkelund.net,NO,Europe,Northern Europe,Norway,,,
185.47.40.253,4,9,bellona.no,NO,Europe,Northern Europe,Norway,Oslo County,,Oslo
31.24.128.65,4,2,bergen-guide.com,NO,Europe,Northern Europe,Norway,,,
91.190.155.33,4,21,besteonlinecasinos.com,NO,Europe,Northern Europe,Norway,Oslo County,,Oslo
185.181.62.139,4,12,bikez.com,NO,Europe,Northern Europe,Norway,Vestfold,,Sandefjord
195.1.92.4,4,57,bitfocus.io,NO,Europe,Northern Europe,Norway,Oslo County,,Oslo
185.116.4.109,4,-538,bmobilized.com,NO,Europe,Northern Europe,Norway,,,
91.189.182.114,4,10,bodosjakk.no,NO,Europe,Northern Europe,Norway,,,
185.91.65.65,4,26,borrdrilling.com,NO,Europe,Northern Europe,Norway,,,
46.226.10.66,4,14,brottum-il.no,NO,Europe,Northern Europe,Norway,Vestfold,,Vear
185.116.4.76,4,12,buyandread.com,NO,Europe,Northern Europe,Norway,,,
185.181.62.159,4,5,bymuseet.no,NO,Europe,Northern Europe,Norway,Vestfold,,Sandefjord
80.65.56.33,4,694,byoin-kyokasho.org,NO,Europe,Northern Europe,Norway,,,
192.165.108.63,4,2017,codefactory.se,NO,Europe,Northern Europe,Norway,,,
194.126.211.10,4,54,combats.com,NO,Europe,Northern Europe,Norway,,,
51.13.37.176,4,44,compendiamedlem.no,NO,Europe,Northern Europe,Norway,Oslo County,,Oslo
104.37.38.109,4,53,completecasinolist.com,NO,Europe,Northern Europe,Norway,Oslo County,,Oslo
195.254.219.69,4,3,connectid.no,NO,Europe,Northern Europe,Norway,Vestfold,,Tolvsrød
195.159.239.230,4,15,custompublish.com,NO,Europe,Northern Europe,Norway,Oslo County,,Oslo
195.1.88.21,4,21,dagogtid.no,NO,Europe,Northern Europe,Norway,Oslo County,,Oslo
46.250.210.61,4,3,dailyscandinavian.com,NO,Europe,Northern Europe,Norway,Oslo County,,Oslo
217.170.205.111,4,106,detsoteliv.no,NO,Europe,Northern Europe,Norway,,,
193.69.47.176,4,49,dialogapi.no,NO,Europe,Northern Europe,Norway,Agder,,Kristiansand
79.161.9.164,4,91927,DNS Server: 164.79-161-9.customer.lyse.net,NO,Europe,Northern Europe,Norway,Rogaland,,Undeim
171.22.155.252,4,14400115,DNS Server: 171-22-155-252.network.trollfjord.no,NO,Europe,Northern Europe,Norway,Nordland,,Andenes
178.164.26.122,4,69,DNS Server: 178-164-26.122.3p.ntebredband.no,NO,Europe,Northern Europe,Norway,Trøndelag,,Trondheim
193.215.26.18,4,-18,DNS Server: 18.26.215.193.static.cust.telenor.com,NO,Europe,Northern Europe,Norway,Vestfold,,Undrumsdal
51.175.90.189,4,3,DNS Server: 189.51-175-90.customer.lyse.net,NO,Europe,Northern Europe,Norway,Akershus,,Strømmen
195.159.253.130,4,3427,DNS Server: 195-159-253-130.customer.powertech.no,NO,Europe,Northern Europe,Norway,Akershus,,Langhus
178.23.97.242,4,25199613,DNS Server: 242.97.23.178.ardalsnett.no,NO,Europe,Northern Europe,Norway,Vestland,,Øvre Årdal
85.200.247.5,4,177,DNS Server: 5.85-200-247.bkkb.no,NO,Europe,Northern Europe,Norway,Vestland,,Myking
85.200.209.58,4,-384784,DNS Server: 58.85-200-209.bkkb.no,NO,Europe,Northern Europe,Norway,Vestland,,Nesttun
79.160.140.199,4,37,DNS Server: 79.160.140.199.static.lyse.net,NO,Europe,Northern Europe,Norway,Innlandet,,Lillehammer
79.160.140.200,4,30,DNS Server: 79.160.140.200.static.lyse.net,NO,Europe,Northern Europe,Norway,Innlandet,,Lillehammer
85.119.137.30,4,575939,DNS Server: 85-119-137-30.telio.no,NO,Europe,Northern Europe,Norway,,,
89.162.45.54,4,187083,DNS Server: 89-162-45-54.fiber.signal.no,NO,Europe,Northern Europe,Norway,Nordland,,Mo i Rana
77.88.105.215,4,-56,DNS Server: cD769584D.static.as2116.net,NO,Europe,Northern Europe,Norway,Akershus,,Son
217.170.128.27,4,163,DNS Server: munch.absnet.no,NO,Europe,Northern Europe,Norway,Oslo County,,Oslo
104.37.38.91,4,72,dolphinics.com,NO,Europe,Northern Europe,Norway,Oslo County,,Oslo
194.63.251.21,4,14,domainnameshop.com,NO,Europe,Northern Europe,Norway,,,
194.63.251.25,4,29,domeneshop.no,NO,Europe,Northern Europe,Norway,,,
185.56.187.28,4,8,dsa.no,NO,Europe,Northern Europe,Norway,,,
185.56.187.5,4,9,efn.no,NO,Europe,Northern Europe,Norway,,,
158.39.74.135,4,49,elixir.no,NO,Europe,Northern Europe,Norway,Troms,,Tromsø
158.36.102.245,4,53,elmcip.net,NO,Europe,Northern Europe,Norway,Buskerud,,Drammen
129.242.170.252,4,38,eludamos.org,NO,Europe,Northern Europe,Norway,Troms,,Tromsø
31.24.135.192,4,2,eyesondesign.net,NO,Europe,Northern Europe,Norway,,,
62.89.43.12,4,30,foreneset.no,NO,Europe,Northern Europe,Norway,,,
185.35.203.116,4,26,foreningenfri.no,NO,Europe,Northern Europe,Norway,Oslo County,,Oslo
62.89.51.3,4,22,foto.no,NO,Europe,Northern Europe,Norway,,,
87.238.33.129,4,21,frifagbevegelse.no,NO,Europe,Northern Europe,Norway,Oslo County,,Oslo
129.240.118.8,4,3,fsweb.no,NO,Europe,Northern Europe,Norway,Oslo County,,Oslo
194.63.248.47,4,3,fuglen.com,NO,Europe,Northern Europe,Norway,,,
87.238.33.233,4,28,gamer.no,NO,Europe,Northern Europe,Norway,Oslo County,,Oslo
185.80.182.112,4,21,gathering.org,NO,Europe,Northern Europe,Norway,,,
178.164.11.111,4,61,geologi.no,NO,Europe,Northern Europe,Norway,Trøndelag,,Høylandet
91.189.182.7,4,8,gjerrigforum.com,NO,Europe,Northern Europe,Norway,,,
104.37.38.118,4,2,gjestang.no,NO,Europe,Northern Europe,Norway,Oslo County,,Oslo
158.36.191.230,4,3,gunkies.org,NO,Europe,Northern Europe,Norway,Oslo County,,Oslo
185.125.171.207,4,2,hexupload.net,NO,Europe,Northern Europe,Norway,Vestfold,,Sandefjord
129.241.56.200,4,22,hist.no,NO,Europe,Northern Europe,Norway,Trøndelag,,Trondheim
185.125.171.241,4,4,hugssociety.org,NO,Europe,Northern Europe,Norway,Vestfold,,Sandefjord
104.37.38.82,4,4,iemfa.org,NO,Europe,Northern Europe,Norway,Oslo County,,Oslo
185.12.56.137,4,0,ife.no,NO,Europe,Northern Europe,Norway,Oslo County,,Oslo
5.249.229.163,4,11,investtech.com,NO,Europe,Northern Europe,Norway,Oslo County,,Oslo
194.63.249.234,4,51,ishavskatedralen.no,NO,Europe,Northern Europe,Norway,,,
195.159.29.232,4,10,jagajazzist.com,NO,Europe,Northern Europe,Norway,Oslo County,,Oslo
87.238.33.157,4,4,kapital.no,NO,Europe,Northern Europe,Norway,Oslo County,,Oslo
87.238.33.156,4,15,kapital.no,NO,Europe,Northern Europe,Norway,Oslo County,,Oslo
104.37.38.125,4,5,kaufmann.no,NO,Europe,Northern Europe,Norway,Oslo County,,Oslo
213.162.246.102,4,-1,kjokkenutstyr.net,NO,Europe,Northern Europe,Norway,Oslo County,,Oslo
79.170.80.159,4,52,klicktrack.com,NO,Europe,Northern Europe,Norway,Vestland,,Sogndal
195.159.239.228,4,28,kondis.no,NO,Europe,Northern Europe,Norway,Oslo County,,Oslo
185.91.67.253,4,106,kreftforeningen.no,NO,Europe,Northern Europe,Norway,,,
195.159.31.7,4,8,kriminalomsorgen.no,NO,Europe,Northern Europe,Norway,Oslo County,,Oslo
194.63.249.217,4,6,kulturnatta.no,NO,Europe,Northern Europe,Norway,,,
91.90.43.44,4,9,kunnskap.no,NO,Europe,Northern Europe,Norway,,,
195.159.37.82,4,7,kunst.no,NO,Europe,Northern Europe,Norway,Oslo County,,Oslo
195.159.124.42,4,8,ledernytt.no,NO,Europe,Northern Europe,Norway,Oslo County,,Oslo
185.125.171.230,4,34,lemmygrad.ml,NO,Europe,Northern Europe,Norway,Vestfold,,Sandefjord
213.162.240.14,4,-2,lervig.no,NO,Europe,Northern Europe,Norway,,,
91.189.182.143,4,64,lofoten-info.no,NO,Europe,Northern Europe,Norway,,,
87.238.33.218,4,3,lovdata.no,NO,Europe,Northern Europe,Norway,Oslo County,,Oslo
104.37.38.126,4,3,mack.no,NO,Europe,Northern Europe,Norway,Oslo County,,Oslo
185.14.97.189,4,11,markedsgata.no,NO,Europe,Northern Europe,Norway,Vestfold,,Sandefjord
129.241.30.86,4,36,matematikksenteret.no,NO,Europe,Northern Europe,Norway,Trøndelag,,Trondheim
46.250.221.29,4,27,mathallenoslo.no,NO,Europe,Northern Europe,Norway,Oslo County,,Oslo
104.37.38.124,4,3,menon.no,NO,Europe,Northern Europe,Norway,Oslo County,,Oslo
46.250.211.191,4,53,montages.no,NO,Europe,Northern Europe,Norway,Oslo County,,Oslo
91.90.42.40,4,42,multicom.no,NO,Europe,Northern Europe,Norway,,,
185.181.61.184,4,34,museumsnett.no,NO,Europe,Northern Europe,Norway,Vestfold,,Sandefjord
192.71.32.174,4,8,nacionred.com,NO,Europe,Northern Europe,Norway,Oslo County,,Oslo
92.62.34.85,4,12,napha.no,NO,Europe,Northern Europe,Norway,Trøndelag,,Trondheim
185.91.65.70,4,1,neo-tokyo.no,NO,Europe,Northern Europe,Norway,,,
129.240.118.41,4,48,nettskjema.no,NO,Europe,Northern Europe,Norway,Oslo County,,Oslo
193.156.55.160,4,1,ngu.no,NO,Europe,Northern Europe,Norway,Akershus,,Ås
185.56.187.124,4,8,nhn.no,NO,Europe,Northern Europe,Norway,,,
87.238.40.86,4,17,nifs.no,NO,Europe,Northern Europe,Norway,Oslo County,,Oslo
87.238.40.88,4,20,nifs.no,NO,Europe,Northern Europe,Norway,Oslo County,,Oslo
87.238.40.85,4,25,nifs.no,NO,Europe,Northern Europe,Norway,Oslo County,,Oslo
87.238.40.87,4,31,nifs.no,NO,Europe,Northern Europe,Norway,Oslo County,,Oslo
185.114.57.86,4,22,nifu.no,NO,Europe,Northern Europe,Norway,,,
185.56.185.18,4,-10,niva.no,NO,Europe,Northern Europe,Norway,,,
193.107.31.138,4,5,njk.no,NO,Europe,Northern Europe,Norway,,,
195.159.29.211,4,5,nobelpeaceprize.org,NO,Europe,Northern Europe,Norway,Oslo County,,Oslo
185.14.97.53,4,48,nomorefakenews.com,NO,Europe,Northern Europe,Norway,Vestfold,,Sandefjord
195.191.30.163,4,422,nor-fishing.no,NO,Europe,Northern Europe,Norway,,,
158.38.179.135,4,2,norid.no,NO,Europe,Northern Europe,Norway,Møre og Romsdal,,Volda
195.159.29.35,4,41,norskpen.no,NO,Europe,Northern Europe,Norway,Oslo County,,Oslo
5.249.229.168,4,2,norskpetroleum.no,NO,Europe,Northern Europe,Norway,Oslo County,,Oslo
185.91.65.153,4,7,notch.one,NO,Europe,Northern Europe,Norway,,,
38.180.1.100,4,12,novorus.info,NO,Europe,Northern Europe,Norway,Oslo County,,Oslo
129.241.160.103,4,1,ntnu.edu,NO,Europe,Northern Europe,Norway,Trøndelag,,Trondheim
129.241.160.102,4,3,ntnu.no,NO,Europe,Northern Europe,Norway,Trøndelag,,Trondheim
129.241.210.22,4,407,nvg.org,NO,Europe,Northern Europe,Norway,Trøndelag,,Trondheim
104.37.38.89,4,7,nynorsk.no,NO,Europe,Northern Europe,Norway,Oslo County,,Oslo
104.37.39.65,4,3,nytid.no,NO,Europe,Northern Europe,Norway,Oslo County,,Oslo
46.250.210.149,4,-3,ofv.no,NO,Europe,Northern Europe,Norway,Oslo County,,Oslo
195.159.128.142,4,7,okokrim.no,NO,Europe,Northern Europe,Norway,Oslo County,,Oslo
217.144.76.199,4,4538,old.no,NO,Europe,Northern Europe,Norway,Trøndelag,,Trondheim
217.13.4.132,4,347,Ookla Speedtest Server 8018: speedtest.nextgentel.no,NO,Europe,Northern Europe,Norway,,,
77.106.189.241,4,128,Ookla Speedtest Server 15513: speedtest.eidsiva.net,NO,Europe,Northern Europe,Norway,Innlandet,,Gjøvik
185.134.125.66,4,425,Ookla Speedtest Server 18316: osl-speedtest.dataoppdrag.no,NO,Europe,Northern Europe,Norway,Akershus,,Langhus
217.145.232.249,4,5363,Ookla Speedtest Server 51482: speedtest.vossfiber.no,NO,Europe,Northern Europe,Norway,Vestland,,Voss
77.247.144.210,4,209,Ookla Speedtest Server 56503: speedtest.vevromerike.no,NO,Europe,Northern Europe,Norway,Akershus,,Bjørkelangen
79.160.115.225,4,344,Ookla Speedtest Server 63997: gmspeedtestben1.altibox.net,NO,Europe,Northern Europe,Norway,Rogaland,,Stavanger
185.125.168.212,4,367,Ookla Speedtest Server: speedtest-sandefjord-100g.terrahost.no,NO,Europe,Northern Europe,Norway,Vestfold,,Sandefjord
217.149.113.138,4,4738,Ookla Speedtest Server: speedtest.enivest.net,NO,Europe,Northern Europe,Norway,Vestland,,Måløy
194.63.249.211,4,2,oslospektrum.no,NO,Europe,Northern Europe,Norway,,,
185.7.192.103,4,132222,oslosportslager.no,NO,Europe,Northern Europe,Norway,Vestland,,Blomsterdalen
129.240.118.163,4,5,ous-research.no,NO,Europe,Northern Europe,Norway,Oslo County,,Oslo
185.7.63.23,4,662389,owlboygame.com,NO,Europe,Northern Europe,Norway,,,
195.159.29.41,4,24,pameldingssystem.no,NO,Europe,Northern Europe,Norway,Oslo County,,Oslo
62.89.43.15,4,9,pirate4x4.no,NO,Europe,Northern Europe,Norway,,,
176.125.232.20,4,56,pogostick.net,NO,Europe,Northern Europe,Norway,Buskerud,,Lierstranda
195.159.6.33,4,34,powertech.no,NO,Europe,Northern Europe,Norway,Oslo County,,Oslo
104.37.38.64,4,67,pravoslavieto.com,NO,Europe,Northern Europe,Norway,Oslo County,,Oslo
185.125.171.19,4,47115,prolewiki.org,NO,Europe,Northern Europe,Norway,Vestfold,,Sandefjord
46.250.221.35,4,12,psykologisk.no,NO,Europe,Northern Europe,Norway,Oslo County,,Oslo
104.37.38.117,4,10,pureorganic.no,NO,Europe,Northern Europe,Norway,Oslo County,,Oslo
185.114.57.23,4,80,radiodayseurope.com,NO,Europe,Northern Europe,Norway,,,
109.233.57.53,4,94,radionordkapp.no,NO,Europe,Northern Europe,Norway,,,
158.36.190.152,4,35,radionova.no,NO,Europe,Northern Europe,Norway,Oslo County,,Oslo
185.91.65.160,4,9,reddbarna.no,NO,Europe,Northern Europe,Norway,,,
87.238.33.252,4,13,redpill-linpro.com,NO,Europe,Northern Europe,Norway,Oslo County,,Oslo
185.41.243.37,4,5,remywiki.com,NO,Europe,Northern Europe,Norway,Oslo County,,Oslo
93.89.112.246,4,48,rolv.no,NO,Europe,Northern Europe,Norway,Trøndelag,,Oppdal
185.226.149.25,4,2,runbox.com,NO,Europe,Northern Europe,Norway,,,
46.226.10.71,4,7,sagabetongsaging.no,NO,Europe,Northern Europe,Norway,Vestfold,,Vear
104.37.38.122,4,2,saharaforestproject.com,NO,Europe,Northern Europe,Norway,Oslo County,,Oslo
104.37.38.120,4,2,salt-peanuts.eu,NO,Europe,Northern Europe,Norway,Oslo County,,Oslo
213.162.240.27,4,20,samemisjonen.no,NO,Europe,Northern Europe,Norway,,,
193.35.52.30,4,17,samfundet.no,NO,Europe,Northern Europe,Norway,,,
38.180.76.155,4,19,saran.ru,NO,Europe,Northern Europe,Norway,Oslo County,,Oslo
194.63.249.216,4,37,satellite-calculations.com,NO,Europe,Northern Europe,Norway,,,
91.205.187.70,4,0,scandinavianaturist.org,NO,Europe,Northern Europe,Norway,Oslo County,,Oslo
217.170.196.98,4,7,scandoil.com,NO,Europe,Northern Europe,Norway,,,
46.250.210.152,4,-1,sci-fit.net,NO,Europe,Northern Europe,Norway,Oslo County,,Oslo
46.250.210.147,4,16,secretcinema.no,NO,Europe,Northern Europe,Norway,Oslo County,,Oslo
87.238.33.183,4,12,seher.no,NO,Europe,Northern Europe,Norway,Oslo County,,Oslo
185.56.186.107,4,21,senterpartiet.no,NO,Europe,Northern Europe,Norway,,,
193.35.52.50,4,3,sesse.net,NO,Europe,Northern Europe,Norway,,,
194.63.249.220,4,4,sharpmz.org,NO,Europe,Northern Europe,Norway,,,
109.233.57.76,4,8,siberiantimes.com,NO,Europe,Northern Europe,Norway,,,
185.47.41.64,4,4,sida.se,NO,Europe,Northern Europe,Norway,Oslo County,,Oslo
104.37.38.85,4,29,sidetmedord.no,NO,Europe,Northern Europe,Norway,Oslo County,,Oslo
158.36.161.73,4,46,sifo.no,NO,Europe,Northern Europe,Norway,Buskerud,,Kongsberg
194.63.249.219,4,21,sizechart.com,NO,Europe,Northern Europe,Norway,,,
195.159.128.156,4,46,ski-nordique.net,NO,Europe,Northern Europe,Norway,Oslo County,,Oslo
91.189.120.202,4,39,skibladner.no,NO,Europe,Northern Europe,Norway,,,
46.250.221.25,4,7,skyblivion.com,NO,Europe,Northern Europe,Norway,Oslo County,,Oslo
104.37.38.105,4,5,skypat.no,NO,Europe,Northern Europe,Norway,Oslo County,,Oslo
195.159.29.135,4,6,slettmeg.no,NO,Europe,Northern Europe,Norway,Oslo County,,Oslo
46.250.221.19,4,27,smartepenger.no,NO,Europe,Northern Europe,Norway,Oslo County,,Oslo
91.220.196.150,4,1,spaceguardcentre.com,NO,Europe,Northern Europe,Norway,,,
194.63.249.218,4,5,spillarkivet.no,NO,Europe,Northern Europe,Norway,,,
81.27.47.253,4,721800,start365.info,NO,Europe,Northern Europe,Norway,,,
87.238.33.154,4,10,startsiden.no,NO,Europe,Northern Europe,Norway,Oslo County,,Oslo
87.238.33.153,4,3,startsiden.no,NO,Europe,Northern Europe,Norway,Oslo County,,Oslo
188.94.216.70,4,4,statskog.no,NO,Europe,Northern Europe,Norway,Oslo County,,Oslo
213.162.240.28,4,28,stavanger-forum.no,NO,Europe,Northern Europe,Norway,,,
194.63.249.213,4,65,stavechurch.com,NO,Europe,Northern Europe,Norway,,,
194.63.249.215,4,25,straxx.com,NO,Europe,Northern Europe,Norway,,,
185.47.41.222,4,4,studyinnorway.no,NO,Europe,Northern Europe,Norway,Oslo County,,Oslo
194.63.249.212,4,3,sydhav.no,NO,Europe,Northern Europe,Norway,,,
104.37.38.98,4,2,tbgfrisbee.no,NO,Europe,Northern Europe,Norway,Oslo County,,Oslo
91.242.200.117,4,24,teamabove.com,NO,Europe,Northern Europe,Norway,,,
46.250.221.24,4,-2,tekniskmuseum.no,NO,Europe,Northern Europe,Norway,Oslo County,,Oslo
195.159.29.212,4,7,tempus.no,NO,Europe,Northern Europe,Norway,Oslo County,,Oslo
89.10.181.172,4,54,thelazy.net,NO,Europe,Northern Europe,Norway,Vestland,,Godvik
91.229.143.159,4,24,thenorwayguide.com,NO,Europe,Northern Europe,Norway,,,
194.32.107.12,4,5,theqtree.com,NO,Europe,Northern Europe,Norway,Vestfold,,Sandefjord
46.250.221.31,4,8,tiff.no,NO,Europe,Northern Europe,Norway,Oslo County,,Oslo
193.58.250.33,4,56,tikkio.com,NO,Europe,Northern Europe,Norway,,,
46.226.10.73,4,44,tildasworld.com,NO,Europe,Northern Europe,Norway,Vestfold,,Vear
104.37.38.94,4,17,toothwalker.org,NO,Europe,Northern Europe,Norway,Oslo County,,Oslo
195.159.29.139,4,4,tornado.no,NO,Europe,Northern Europe,Norway,Oslo County,,Oslo
104.37.38.88,4,4,torreys.org,NO,Europe,Northern Europe,Norway,Oslo County,,Oslo
87.238.33.146,4,49,tradewindsnews.com,NO,Europe,Northern Europe,Norway,Oslo County,,Oslo
104.37.38.92,4,5,trudelutt.com,NO,Europe,Northern Europe,Norway,Oslo County,,Oslo
87.238.41.58,4,5,tu.no,NO,Europe,Northern Europe,Norway,Oslo County,,Oslo
87.238.41.59,4,10,tu.no,NO,Europe,Northern Europe,Norway,Oslo County,,Oslo
185.114.57.91,4,18,turpaahjul.com,NO,Europe,Northern Europe,Norway,,,
178.164.11.154,4,4,uksubs.co.uk,NO,Europe,Northern Europe,Norway,Trøndelag,,Høylandet
104.37.38.86,4,36,ultrafunk.com,NO,Europe,Northern Europe,Norway,Oslo County,,Oslo
158.37.212.194,4,23,uni.no,NO,Europe,Northern Europe,Norway,Agder,,Grimstad
178.21.130.60,4,1,unik.no,NO,Europe,Northern Europe,Norway,,,
195.159.29.138,4,4,ustedalen.no,NO,Europe,Northern Europe,Norway,Oslo County,,Oslo
185.91.65.41,4,8,ustwo.com,NO,Europe,Northern Europe,Norway,,,
185.47.43.95,4,8,utdanning.no,NO,Europe,Northern Europe,Norway,Oslo County,,Oslo
87.238.38.2,4,8,varingen.no,NO,Europe,Northern Europe,Norway,Oslo County,,Oslo
87.238.38.1,4,4,varingen.no,NO,Europe,Northern Europe,Norway,Oslo County,,Oslo
194.242.11.166,4,26,vestagdermuseet.no,NO,Europe,Northern Europe,Norway,,,
185.134.245.113,4,20,vgb.no,NO,Europe,Northern Europe,Norway,,,
87.238.33.181,4,25,vi.no,NO,Europe,Northern Europe,Norway,Oslo County,,Oslo
87.238.33.180,4,4,vi.no,NO,Europe,Northern Europe,Norway,Oslo County,,Oslo
87.238.33.182,4,24,vi.no,NO,Europe,Northern Europe,Norway,Oslo County,,Oslo
129.240.118.130,4,43,vikingtidsmuseet.no,NO,Europe,Northern Europe,Norway,Oslo County,,Oslo
104.37.38.81,4,3,villrein.no,NO,Europe,Northern Europe,Norway,Oslo County,,Oslo
178.164.11.113,4,14,visittrondheim.no,NO,Europe,Northern Europe,Norway,Trøndelag,,Høylandet
194.63.249.214,4,9,vreid.no,NO,Europe,Northern Europe,Norway,,,
104.37.38.102,4,2,wagneropera.net,NO,Europe,Northern Europe,Norway,Oslo County,,Oslo
51.175.219.184,4,92,watchthatpage.com,NO,Europe,Northern Europe,Norway,Oslo County,,Oslo
195.159.29.151,4,6,wayp.com,NO,Europe,Northern Europe,Norway,Oslo County,,Oslo
81.27.37.38,4,8,webhuset.no,NO,Europe,Northern Europe,Norway,,,
46.250.210.116,4,-1,whalesafari.no,NO,Europe,Northern Europe,Norway,Oslo County,,Oslo
185.56.187.202,4,16,www.mil.no,NO,Europe,Northern Europe,Norway,,,
194.63.248.52,4,5,xenu.net,NO,Europe,Northern Europe,Norway,,,
91.242.200.159,4,9,zero.no,NO,Europe,Northern Europe,Norway,,,
185.56.187.62,4,-19,zxdemo.org,NO,Europe,Northern Europe,Norway,,,
