reflector_ip,ip_version,offset,description,country_code,region,sub_region,country_name,sub_division_1,sub_division_2,city
5.133.223.91,4,224,2d-code.co.uk,SE,Europe,Northern Europe,Sweden,,,
87.237.214.47,4,2,3dbenchy.com,SE,Europe,Northern Europe,Sweden,,,
83.145.32.67,4,25017,a-w2m.se,SE,Europe,Northern Europe,Sweden,Jönköping,,Gränna
31.192.226.230,4,29,abandonia.com,SE,Europe,Northern Europe,Sweden,Halland County,,Falkenberg
194.132.83.50,4,54,abbeyweb.net,SE,Europe,Northern Europe,Sweden,Västra Götaland County,,Trollhättan
185.187.253.90,4,1033,abswheels.se,SE,Europe,Northern Europe,Sweden,,,
185.196.39.54,4,33,accessifyforum.com,SE,Europe,Northern Europe,Sweden,,,
212.3.14.203,4,36,adelsvapen.com,SE,Europe,Northern Europe,Sweden,,,
185.195.92.36,4,3,adlibris.com,SE,Europe,Northern Europe,Sweden,,,
185.195.92.35,4,22,adlibris.se,SE,Europe,Northern Europe,Sweden,,,
178.73.246.84,4,11,afonne.com,SE,Europe,Northern Europe,Sweden,Stockholm County,,Stockholm
185.195.94.129,4,22,aland.ax,SE,Europe,Northern Europe,Sweden,,,
185.195.94.116,4,5,alandstidningen.ax,SE,Europe,Northern Europe,Sweden,,,
37.152.57.221,4,5,allavisum.se,SE,Europe,Northern Europe,Sweden,Halland County,,Falkenberg
185.189.49.196,4,12,alternativ.nu,SE,Europe,Northern Europe,Sweden,,,
194.14.207.134,4,71492,alvsjohook.se,SE,Europe,Northern Europe,Sweden,,,
94.46.45.147,4,36,alxmedia.se,SE,Europe,Northern Europe,Sweden,,,
193.235.117.128,4,6,amedar.pl,SE,Europe,Northern Europe,Sweden,,,
82.102.5.103,4,5,amptron.com,SE,Europe,Northern Europe,Sweden,,,
185.12.150.225,4,11,angoraferretry.nl,SE,Europe,Northern Europe,Sweden,,,
23.54.11.155,4,17,apartmentfinder.com,SE,Europe,Northern Europe,Sweden,Stockholm County,,Stockholm
91.106.195.66,4,5,aphorismsgalore.com,SE,Europe,Northern Europe,Sweden,Blekinge County,,Karlskrona
37.252.8.145,4,9,apnet.com,SE,Europe,Northern Europe,Sweden,Stockholm County,,Stockholm
193.221.120.70,4,9,arbo-com.fr,SE,Europe,Northern Europe,Sweden,,,
109.74.15.36,4,-5,arozzi.se,SE,Europe,Northern Europe,Sweden,Halland County,,Falkenberg
185.157.222.148,4,6,artipelag.se,SE,Europe,Northern Europe,Sweden,Halland County,,Falkenberg
193.26.30.32,4,187,artologik.net,SE,Europe,Northern Europe,Sweden,,,
188.126.71.131,4,42,astridlindgrensnas.se,SE,Europe,Northern Europe,Sweden,Halland County,,Falkenberg
172.234.99.236,4,36,avtonovostidnya.ru,SE,Europe,Northern Europe,Sweden,Stockholm County,,Stockholm
37.152.58.51,4,27,axacoair.se,SE,Europe,Northern Europe,Sweden,,,
89.221.250.6,4,0,backontrack.ru,SE,Europe,Northern Europe,Sweden,,,
155.4.244.88,4,8,bahnhof.cloud,SE,Europe,Northern Europe,Sweden,Skåne County,,Helsingborg
213.136.63.73,4,7,bahnhof.se,SE,Europe,Northern Europe,Sweden,Stockholm County,,Stockholm
188.126.71.234,4,9,bangerhead.se,SE,Europe,Northern Europe,Sweden,Halland County,,Falkenberg
130.0.206.9,4,689756,baturin.org,SE,Europe,Northern Europe,Sweden,,,
178.73.235.154,4,815,bendixiaoxi.com,SE,Europe,Northern Europe,Sweden,Stockholm County,,Stockholm
79.99.5.172,4,5,bengans.se,SE,Europe,Northern Europe,Sweden,Halland County,,Falkenberg
62.109.34.153,4,-2202951,bevattningsteknik.se,SE,Europe,Northern Europe,Sweden,,,
195.26.10.100,4,4,binero.com,SE,Europe,Northern Europe,Sweden,,,
195.26.10.10,4,31,binero.se,SE,Europe,Northern Europe,Sweden,,,
46.21.107.237,4,558,bloggportalen.se,SE,Europe,Northern Europe,Sweden,Stockholm County,,Stockholm
109.74.12.3,4,19,boktugg.se,SE,Europe,Northern Europe,Sweden,Halland County,,Falkenberg
212.237.147.175,4,8,bonniernewslocal.se,SE,Europe,Northern Europe,Sweden,Stockholm County,,Stockholm
46.21.106.108,4,12,bostadsratterna.se,SE,Europe,Northern Europe,Sweden,Stockholm County,,Stockholm
185.195.94.107,4,8,boverket.se,SE,Europe,Northern Europe,Sweden,,,
94.46.140.94,4,13,brainspl.at,SE,Europe,Northern Europe,Sweden,,,
94.46.112.108,4,113,bravia-advert.com,SE,Europe,Northern Europe,Sweden,,,
46.21.103.246,4,9,bredbandskollen.se,SE,Europe,Northern Europe,Sweden,Halland County,,Falkenberg
94.247.171.69,4,25,brl.se,SE,Europe,Northern Europe,Sweden,Halland County,,Falkenberg
193.93.250.0,4,4,bsr.se,SE,Europe,Northern Europe,Sweden,,,
80.248.224.197,4,6,burberry-outletstore.net,SE,Europe,Northern Europe,Sweden,,,
185.130.44.82,4,62,burggit.moe,SE,Europe,Northern Europe,Sweden,Stockholm County,,Stockholm
151.252.24.23,4,694,byoinlab.net,SE,Europe,Northern Europe,Sweden,,,
86.107.103.190,4,2090,bytlighting.com,SE,Europe,Northern Europe,Sweden,,,
88.80.25.82,4,5,c64.com,SE,Europe,Northern Europe,Sweden,,,
86.106.25.252,4,3,caboo.se,SE,Europe,Northern Europe,Sweden,,,
151.248.0.204,4,1142,campyonly.com,SE,Europe,Northern Europe,Sweden,,,
23.34.177.143,4,6,caremark.com,SE,Europe,Northern Europe,Sweden,Stockholm County,,Stockholm
46.21.98.26,4,5,careofcarl.com,SE,Europe,Northern Europe,Sweden,Halland County,,Falkenberg
86.107.103.68,4,25,casinocosmopol.se,SE,Europe,Northern Europe,Sweden,,,
151.248.3.91,4,5,casinodjungel.se,SE,Europe,Northern Europe,Sweden,,,
37.252.9.121,4,14,casinova.org,SE,Europe,Northern Europe,Sweden,Stockholm County,,Stockholm
193.234.222.121,4,5,casivo.se,SE,Europe,Northern Europe,Sweden,,,
23.61.225.42,4,9,cb2.ca,SE,Europe,Northern Europe,Sweden,Stockholm County,,Stockholm
78.82.206.238,4,5,cblgh.org,SE,Europe,Northern Europe,Sweden,Skåne County,,Malmo
129.16.223.180,4,6,cdio.org,SE,Europe,Northern Europe,Sweden,Västra Götaland County,,Gothenburg
193.183.80.15,4,67,celnat.fr,SE,Europe,Northern Europe,Sweden,,,
31.204.64.221,4,78,celtic-twilight.com,SE,Europe,Northern Europe,Sweden,,,
193.12.253.124,4,6,cendio.com,SE,Europe,Northern Europe,Sweden,Västmanland County,,Västerås
185.195.92.56,4,3,centerpartiet.se,SE,Europe,Northern Europe,Sweden,,,
129.16.225.208,4,8,chalmers.se,SE,Europe,Northern Europe,Sweden,Västra Götaland County,,Gothenburg
188.114.224.86,4,8,chandlerproject.org,SE,Europe,Northern Europe,Sweden,,,
185.157.90.67,4,380,checkfile.info,SE,Europe,Northern Europe,Sweden,,,
185.195.233.57,4,33,chello.se,SE,Europe,Northern Europe,Sweden,Stockholm County,,Stockholm
188.114.235.14,4,8,chevelleinc.com,SE,Europe,Northern Europe,Sweden,,,
130.255.161.9,4,53,classicbanjo.com,SE,Europe,Northern Europe,Sweden,,,
185.139.152.2,4,695,clinic-kyokasho.com,SE,Europe,Northern Europe,Sweden,,,
185.130.245.124,4,703,cliniclab.biz,SE,Europe,Northern Europe,Sweden,,,
178.73.226.83,4,702,clinicnabvi.com,SE,Europe,Northern Europe,Sweden,Stockholm County,,Stockholm
46.253.205.74,4,33,cloetta.com,SE,Europe,Northern Europe,Sweden,,,
176.10.169.228,4,12,comsol.de,SE,Europe,Northern Europe,Sweden,Skåne County,,Malmo
154.43.128.242,4,-32,comsol.de,SE,Europe,Northern Europe,Sweden,Stockholm County,,Stockholm
195.246.120.226,4,56,consiliumsafety.com,SE,Europe,Northern Europe,Sweden,Halland County,,Falkenberg
188.212.108.24,4,0,convertworld.com,SE,Europe,Northern Europe,Sweden,Blekinge County,,Karlskrona
185.195.93.127,4,28,coop.se,SE,Europe,Northern Europe,Sweden,,,
193.183.80.14,4,4,copyrighthistory.com,SE,Europe,Northern Europe,Sweden,,,
151.101.87.7,4,5,copyriot.se,SE,Europe,Northern Europe,Sweden,Stockholm County,,Stockholm
184.86.3.224,4,37,crateandbarrel.com,SE,Europe,Northern Europe,Sweden,Stockholm County,,Stockholm
185.157.223.166,4,11,crd.org,SE,Europe,Northern Europe,Sweden,Halland County,,Falkenberg
46.246.44.133,4,4,cups.nu,SE,Europe,Northern Europe,Sweden,Halland County,,Falkenberg
185.39.137.96,4,60,curry8shoes.us,SE,Europe,Northern Europe,Sweden,,,
91.189.41.184,4,272,cwcab.com,SE,Europe,Northern Europe,Sweden,,,
188.126.76.129,4,5,cybergeography.org,SE,Europe,Northern Europe,Sweden,Stockholm County,,Stockholm
83.233.229.159,4,114,daena.me,SE,Europe,Northern Europe,Sweden,,,
188.126.93.212,4,6,dagensarena.se,SE,Europe,Northern Europe,Sweden,Stockholm County,,Stockholm
94.46.55.82,4,9,dailyguideghana.com,SE,Europe,Northern Europe,Sweden,,,
188.114.246.176,4,120,datadosen.se,SE,Europe,Northern Europe,Sweden,,,
79.99.2.164,4,15,datormagazin.se,SE,Europe,Northern Europe,Sweden,Halland County,,Falkenberg
46.246.44.14,4,29,defolio.com,SE,Europe,Northern Europe,Sweden,Halland County,,Falkenberg
185.189.51.136,4,4,degerforsif.se,SE,Europe,Northern Europe,Sweden,,,
91.189.45.87,4,4,delphi.se,SE,Europe,Northern Europe,Sweden,,,
159.253.219.136,4,6,denbeste.nu,SE,Europe,Northern Europe,Sweden,,,
46.246.30.43,4,6,designtorget.se,SE,Europe,Northern Europe,Sweden,Stockholm County,,Stockholm
85.24.159.74,4,-5432,destinationuppsala.se,SE,Europe,Northern Europe,Sweden,Stockholm County,,Bro
194.47.250.29,4,4,dflund.se,SE,Europe,Northern Europe,Sweden,Skåne County,,Lund
5.133.192.13,4,5,dgtlpub.com,SE,Europe,Northern Europe,Sweden,,,
185.3.48.3,4,6,dinbyggare.se,SE,Europe,Northern Europe,Sweden,,,
23.61.234.155,4,6,dinersclub.com,SE,Europe,Northern Europe,Sweden,Stockholm County,,Stockholm
92.33.32.20,4,-62,dinkurs.se,SE,Europe,Northern Europe,Sweden,Stockholm County,,Stockholm
159.253.26.224,4,4,dinstudio.se,SE,Europe,Northern Europe,Sweden,Stockholm County,,Stockholm
91.189.41.190,4,3,djurskyddet.se,SE,Europe,Northern Europe,Sweden,,,
91.190.142.200,4,9,DNS Server: 200.142.190.91.in-addr.arpa,SE,Europe,Northern Europe,Sweden,,,
213.204.228.100,4,7,DNS Server: 213-204-228-100.clients.sappa.info,SE,Europe,Northern Europe,Sweden,Skåne County,,Malmo
31.209.31.229,4,21580675,DNS Server: 31-209-31-229.cust.bredband2.com,SE,Europe,Northern Europe,Sweden,Skåne County,,Ängelholm
80.251.207.30,4,29920686,DNS Server: 80.251.207.30.mobile.3.dk,SE,Europe,Northern Europe,Sweden,,,
81.94.164.237,4,63,DNS Server: 81-94-164-237.customer.itmastaren.net,SE,Europe,Northern Europe,Sweden,Örebro County,,Örebro
82.100.87.86,4,-48713655,DNS Server: 82-100-87-86.cust.bktv.se,SE,Europe,Northern Europe,Sweden,Uppsala County,,Bålsta
83.233.117.77,4,36,DNS Server: 83-233-117-77.cust.bredband2.com,SE,Europe,Northern Europe,Sweden,,,
88.206.241.205,4,24,DNS Server: 88-206-241-205.savman.se,SE,Europe,Northern Europe,Sweden,Jönköping,,Sävsjö
94.255.145.226,4,157,DNS Server: 94-255-145-226.cust.bredband2.com,SE,Europe,Northern Europe,Sweden,,,
92.35.8.59,4,7,DNS Server: c-3b08235c.027-366-6c6b701.bbcust.telenor.se,SE,Europe,Northern Europe,Sweden,Östergötland County,,Linköping
213.112.21.64,4,5,DNS Server: c-401570d5.08-202-73746f4.cust.ownit.se,SE,Europe,Northern Europe,Sweden,Stockholm County,,Sundbyberg
85.226.227.71,4,5,DNS Server: c-47e3e255.07-373-74686e1.bbcust.telenor.se,SE,Europe,Northern Europe,Sweden,Västra Götaland County,,Trollhättan
92.34.129.90,4,3,DNS Server: c-5a81225c.013-418-7570702.bbcust.telenor.se,SE,Europe,Northern Europe,Sweden,Uppsala County,,Uppsala
85.229.23.146,4,5,DNS Server: c-9217e555.030-159-73746f16.bbcust.telenor.se,SE,Europe,Northern Europe,Sweden,Stockholm County,,Stockholm
85.228.94.225,4,5,DNS Server: c-e15ee455.02-112-67626727.bbcust.telenor.se,SE,Europe,Northern Europe,Sweden,Västra Götaland County,,Mölnlycke
16.170.227.121,4,35,DNS Server: ec2-16-170-227-121.eu-north-1.compute.amazonaws.com,SE,Europe,Northern Europe,Sweden,Stockholm County,,Stockholm
82.115.131.47,4,37,DNS Server: fwl1330.koneo.net,SE,Europe,Northern Europe,Sweden,,,
213.136.36.155,4,122408,DNS Server: h-213-136-36-155.A137.corp.bahnhof.se,SE,Europe,Northern Europe,Sweden,Stockholm County,,Stockholm
79.136.18.131,4,5,DNS Server: h-79-136-18-131.A1440.priv.bahnhof.se,SE,Europe,Northern Europe,Sweden,Kronoberg County,,Alvesta
79.136.81.111,4,-5774,DNS Server: h-79-136-81-111.A463.corp.bahnhof.se,SE,Europe,Northern Europe,Sweden,Värmland County,,Hammarö
79.136.81.112,4,100940,DNS Server: h-79-136-81-112.A463.corp.bahnhof.se,SE,Europe,Northern Europe,Sweden,Värmland County,,Hammarö
81.170.159.34,4,-1199,DNS Server: h-81-170-159-34.A351.priv.bahnhof.se,SE,Europe,Northern Europe,Sweden,Jönköping,,Vetlanda
81.170.171.16,4,9,DNS Server: h-81-170-171-16.A980.priv.bahnhof.se,SE,Europe,Northern Europe,Sweden,Jönköping,,Sandhem
85.24.175.105,4,-1219358774,DNS Server: h-85-24-175-105.A980.priv.bahnhof.se,SE,Europe,Northern Europe,Sweden,Stockholm County,,Norsborg
98.128.146.146,4,2,DNS Server: h-98-128-146-146.NA.cust.bahnhof.se,SE,Europe,Northern Europe,Sweden,Västra Götaland County,,Lindome
98.128.254.210,4,-33516853,DNS Server: h-98-128-254-210.A240.priv.bahnhof.se,SE,Europe,Northern Europe,Sweden,Jönköping,,Huskvarna
83.209.179.39,4,37,DNS Server: h83-209-179-39.cust.bredband2.com,SE,Europe,Northern Europe,Sweden,,,
85.8.16.50,4,69,DNS Server: h85-8-16-50.cust.bredband2.com,SE,Europe,Northern Europe,Sweden,,,
87.253.77.111,4,108198,DNS Server: h87-253-77-111.cust.bredband2.com,SE,Europe,Northern Europe,Sweden,,,
87.96.147.143,4,-30225,DNS Server: h87-96-147-143.cust.bredband2.com,SE,Europe,Northern Europe,Sweden,,,
88.129.244.61,4,357,DNS Server: h88-129-244-61.cust.bredband2.com,SE,Europe,Northern Europe,Sweden,,,
85.30.158.81,4,434,DNS Server: host-85-30-158-81.sydskane.nu,SE,Europe,Northern Europe,Sweden,,,
62.119.182.138,4,54,DNS Server: host.62.119.182.138.bitcom.se,SE,Europe,Northern Europe,Sweden,Västra Götaland County,,Angered
88.206.222.119,4,15,DNS Server: host222-119.eksjo.com,SE,Europe,Northern Europe,Sweden,Jönköping,,Eksjö
85.197.137.133,4,54,DNS Server: ip-85-197-137-133.zitius.bikab.com,SE,Europe,Northern Europe,Sweden,Skåne County,,Kristianstad
87.251.200.130,4,29531,DNS Server: static-87-251-200-130.bredbandsson.se,SE,Europe,Northern Europe,Sweden,,,
85.227.80.40,4,461,DNS Server: ua-85-227-80-40.bbcust.telenor.se,SE,Europe,Northern Europe,Sweden,Halland County,,Halmstad
85.227.87.8,4,264961,DNS Server: ua-85-227-87-8.bbcust.telenor.se,SE,Europe,Northern Europe,Sweden,Halland County,,Halmstad
77.105.230.81,4,351,DNS Server: user81.77-105-230.netatonce.net,SE,Europe,Northern Europe,Sweden,Västra Götaland County,,Hillared
89.22.226.245,4,365,DNS Server: v1150322.hosted-by-vdsina.ru,SE,Europe,Northern Europe,Sweden,Stockholm County,,Stockholm
194.68.81.185,4,17754,DNS Server: ww194-68-81-185.cust.wintherwireless.se,SE,Europe,Northern Europe,Sweden,,,
94.46.118.223,4,5,dnscrypt.org,SE,Europe,Northern Europe,Sweden,,,
185.6.10.220,4,49,domaincrawler.com,SE,Europe,Northern Europe,Sweden,,,
13.48.21.18,4,4,donhopkins.com,SE,Europe,Northern Europe,Sweden,Stockholm County,,Stockholm
185.12.149.61,4,8,dot.nu,SE,Europe,Northern Europe,Sweden,,,
185.51.1.202,4,50,duelofchampions.com,SE,Europe,Northern Europe,Sweden,,,
178.73.217.161,4,5,ecpat.se,SE,Europe,Northern Europe,Sweden,Halland County,,Falkenberg
83.140.23.47,4,65,editnews.com,SE,Europe,Northern Europe,Sweden,Stockholm County,,Stockholm
94.46.60.64,4,11,eema.org,SE,Europe,Northern Europe,Sweden,,,
46.21.103.163,4,34,ehandel.se,SE,Europe,Northern Europe,Sweden,Halland County,,Falkenberg
192.121.158.198,4,813,eigonobenkyo.com,SE,Europe,Northern Europe,Sweden,,,
206.168.213.43,4,13,ekstedt.nu,SE,Europe,Northern Europe,Sweden,Stockholm County,,
188.114.253.141,4,234,elcor.net,SE,Europe,Northern Europe,Sweden,,,
193.235.117.97,4,11,elec-toolbox.com,SE,Europe,Northern Europe,Sweden,,,
192.36.38.220,4,260,electronic4you.at,SE,Europe,Northern Europe,Sweden,,,
192.36.38.221,4,39,electronic4you.at,SE,Europe,Northern Europe,Sweden,,,
192.36.38.222,4,39,electronic4you.at,SE,Europe,Northern Europe,Sweden,,,
46.21.102.207,4,8,elektronauts.com,SE,Europe,Northern Europe,Sweden,Halland County,,Falkenberg
91.208.174.139,4,77,ellos.fi,SE,Europe,Northern Europe,Sweden,,,
185.142.228.243,4,27450,encycmet.com,SE,Europe,Northern Europe,Sweden,,,
65.20.114.95,4,3,epowerbikes.at,SE,Europe,Northern Europe,Sweden,Stockholm County,,Spånga
37.46.112.100,4,1705,equineteurope.org,SE,Europe,Northern Europe,Sweden,,,
185.195.94.154,4,50,erstadiakoni.se,SE,Europe,Northern Europe,Sweden,,,
185.123.93.241,4,220,es-facil.com,SE,Europe,Northern Europe,Sweden,,,
84.17.218.170,4,5,esf.se,SE,Europe,Northern Europe,Sweden,Stockholm County,,Stockholm
94.246.97.104,4,4,estore.nu,SE,Europe,Northern Europe,Sweden,,,
109.74.2.241,4,5,etn.se,SE,Europe,Northern Europe,Sweden,Halland County,,Falkenberg
185.3.48.31,4,94,evenemangskalender.se,SE,Europe,Northern Europe,Sweden,,,
88.80.30.109,4,93,exist-db.org,SE,Europe,Northern Europe,Sweden,,,
83.218.89.99,4,46,faktoider.nu,SE,Europe,Northern Europe,Sweden,Västra Götaland County,,Gothenburg
195.246.120.218,4,69,falkenberg.se,SE,Europe,Northern Europe,Sweden,Halland County,,Falkenberg
185.133.206.91,4,10,falugruva.se,SE,Europe,Northern Europe,Sweden,,,
188.114.254.58,4,13,fanaticus.org,SE,Europe,Northern Europe,Sweden,,,
37.152.62.1,4,24,fbt.se,SE,Europe,Northern Europe,Sweden,,,
176.126.70.141,4,36,feddit.nu,SE,Europe,Northern Europe,Sweden,Stockholm County,,Stockholm
176.74.196.60,4,11,fhi.se,SE,Europe,Northern Europe,Sweden,,,
5.133.194.10,4,899,fileheaven.com,SE,Europe,Northern Europe,Sweden,,,
192.71.74.222,4,20,folket.se,SE,Europe,Northern Europe,Sweden,,,
193.183.162.44,4,3,folksam.se,SE,Europe,Northern Europe,Sweden,,,
46.246.68.46,4,-58271,foretagsklimat.se,SE,Europe,Northern Europe,Sweden,Stockholm County,,Stockholm
185.157.222.177,4,5,fortunecity.se,SE,Europe,Northern Europe,Sweden,Halland County,,Falkenberg
192.165.9.210,4,19,fosfor.se,SE,Europe,Northern Europe,Sweden,Dalarna County,,Falun
217.198.65.7,4,91,fossilfrittsverige.se,SE,Europe,Northern Europe,Sweden,Stockholm County,,Stockholm
89.221.250.10,4,-10,frankdesign.se,SE,Europe,Northern Europe,Sweden,,,
46.21.99.152,4,5,freeride.com,SE,Europe,Northern Europe,Sweden,Halland County,,Falkenberg
185.133.206.81,4,32,frialigan.se,SE,Europe,Northern Europe,Sweden,,,
86.106.25.93,4,25,friatider.se,SE,Europe,Northern Europe,Sweden,,,
185.157.222.40,4,8,fritidsbanken.se,SE,Europe,Northern Europe,Sweden,Halland County,,Falkenberg
185.157.223.185,4,7,fryshuset.se,SE,Europe,Northern Europe,Sweden,Halland County,,Falkenberg
193.234.15.46,4,5,fscons.org,SE,Europe,Northern Europe,Sweden,,,
46.22.117.75,4,32,gabionline.net,SE,Europe,Northern Europe,Sweden,Stockholm County,,Älvsjö
129.151.198.149,4,8,gadgetmix.com,SE,Europe,Northern Europe,Sweden,Stockholm County,,Stockholm
194.71.224.15,4,15,gansub.com,SE,Europe,Northern Europe,Sweden,,,
92.43.37.179,4,29,garaget.org,SE,Europe,Northern Europe,Sweden,Västmanland County,,Västerås
80.248.225.198,4,5,gendercide.org,SE,Europe,Northern Europe,Sweden,,,
94.46.63.113,4,42,geonames.de,SE,Europe,Northern Europe,Sweden,,,
194.68.59.152,4,4,geting.se,SE,Europe,Northern Europe,Sweden,Västmanland County,,Västerås
212.247.67.68,4,30,ginza.se,SE,Europe,Northern Europe,Sweden,Västra Götaland County,,Alingsås
185.39.145.232,4,21,glesys.se,SE,Europe,Northern Europe,Sweden,Halland County,,Falkenberg
188.240.223.231,4,8,globalamalen.se,SE,Europe,Northern Europe,Sweden,Stockholm County,,Stockholm
37.46.112.118,4,1695,globalmoneyweek.org,SE,Europe,Northern Europe,Sweden,,,
130.242.124.102,4,5,gmplib.org,SE,Europe,Northern Europe,Sweden,,,
185.13.96.33,4,50,gq.nu,SE,Europe,Northern Europe,Sweden,,,
184.84.234.49,4,7,grainger.ca,SE,Europe,Northern Europe,Sweden,Stockholm County,,Stockholm
94.46.58.98,4,41,grandeaffiliates.com,SE,Europe,Northern Europe,Sweden,,,
82.102.1.40,4,35,greenzonemovie.com,SE,Europe,Northern Europe,Sweden,,,
109.74.15.180,4,4,happyride.se,SE,Europe,Northern Europe,Sweden,Halland County,,Falkenberg
46.21.103.228,4,-21363,hbk.se,SE,Europe,Northern Europe,Sweden,Halland County,,Falkenberg
193.12.247.142,4,4,headspace.dk,SE,Europe,Northern Europe,Sweden,Västmanland County,,Västerås
185.151.11.94,4,700,healthnavi.biz,SE,Europe,Northern Europe,Sweden,,,
155.4.163.160,4,22,helgo.net,SE,Europe,Northern Europe,Sweden,Stockholm County,,Huddinge
185.157.161.187,4,51,helvetet.eu,SE,Europe,Northern Europe,Sweden,,,
91.189.41.88,4,6,hemsida24.se,SE,Europe,Northern Europe,Sweden,,,
194.103.48.250,4,2,herrljunga.se,SE,Europe,Northern Europe,Sweden,,,
185.116.243.88,4,9302,hetgrotegeld.be,SE,Europe,Northern Europe,Sweden,,,
194.47.12.27,4,6,hh.se,SE,Europe,Northern Europe,Sweden,Västra Götaland County,,Skene
185.195.94.17,4,15,hig.se,SE,Europe,Northern Europe,Sweden,,,
185.189.51.174,4,114640,historiskahem.se,SE,Europe,Northern Europe,Sweden,,,
185.189.51.193,4,4,hjarnfonden.se,SE,Europe,Northern Europe,Sweden,,,
82.102.1.159,4,5,hkfirearmstore.com,SE,Europe,Northern Europe,Sweden,,,
176.126.84.18,4,20,homeq.se,SE,Europe,Northern Europe,Sweden,,,
188.126.93.172,4,55699,hoor.se,SE,Europe,Northern Europe,Sweden,Stockholm County,,Stockholm
82.102.0.52,4,54,hostiko.com,SE,Europe,Northern Europe,Sweden,,,
193.93.249.250,4,4,hpguiden.se,SE,Europe,Northern Europe,Sweden,,,
46.21.98.12,4,8,hudoteket.se,SE,Europe,Northern Europe,Sweden,Halland County,,Falkenberg
46.246.44.203,4,26,iaarc.org,SE,Europe,Northern Europe,Sweden,Halland County,,Falkenberg
37.18.203.106,4,24,iceberg-games.com,SE,Europe,Northern Europe,Sweden,,,
194.103.222.130,4,6,icete.org,SE,Europe,Northern Europe,Sweden,,,
185.195.93.72,4,21,icscards.nl,SE,Europe,Northern Europe,Sweden,,,
185.7.33.56,4,19,idcardmaster.net,SE,Europe,Northern Europe,Sweden,Stockholm County,,Stockholm
195.238.76.28,4,16,idrottonline.se,SE,Europe,Northern Europe,Sweden,,,
185.88.137.3,4,20,ifpi.se,SE,Europe,Northern Europe,Sweden,,,
178.21.73.83,4,1017,igbp.net,SE,Europe,Northern Europe,Sweden,,,
212.63.223.232,4,-26,imagebam.com,SE,Europe,Northern Europe,Sweden,,,
212.63.223.228,4,-29,imagevenue.com,SE,Europe,Northern Europe,Sweden,,,
212.63.223.236,4,184917,imgbox.com,SE,Europe,Northern Europe,Sweden,,,
212.63.223.235,4,119934,imgbox.com,SE,Europe,Northern Europe,Sweden,,,
94.247.171.87,4,38,impecta.se,SE,Europe,Northern Europe,Sweden,Halland County,,Falkenberg
188.126.83.28,4,39,independentliving.org,SE,Europe,Northern Europe,Sweden,Stockholm County,,Stockholm
23.54.11.113,4,57,inditexcareers.com,SE,Europe,Northern Europe,Sweden,Stockholm County,,Stockholm
192.71.44.115,4,9,inear.se,SE,Europe,Northern Europe,Sweden,,,
185.6.11.160,4,51,infoshop.org,SE,Europe,Northern Europe,Sweden,,,
188.114.253.45,4,42,innorobo.com,SE,Europe,Northern Europe,Sweden,,,
46.246.47.149,4,1079,inredningsvis.se,SE,Europe,Northern Europe,Sweden,Halland County,,Falkenberg
82.102.3.65,4,23,irn.org,SE,Europe,Northern Europe,Sweden,,,
178.73.245.40,4,810,isobasic.xyz,SE,Europe,Northern Europe,Sweden,Stockholm County,,Stockholm
178.73.244.174,4,811,isoneeds.xyz,SE,Europe,Northern Europe,Sweden,Stockholm County,,Stockholm
178.73.210.68,4,20,ivc.no,SE,Europe,Northern Europe,Sweden,Stockholm County,,Stockholm
184.86.224.93,4,9,jdsports.com,SE,Europe,Northern Europe,Sweden,Stockholm County,,Stockholm
46.21.110.210,4,11,jesper.nu,SE,Europe,Northern Europe,Sweden,Halland County,,Falkenberg
82.196.118.131,4,3,jigaia.se,SE,Europe,Northern Europe,Sweden,Skåne County,,Helsingborg
194.71.230.4,4,377,jikahatsuden.info,SE,Europe,Northern Europe,Sweden,,,
158.174.30.59,4,6,jlh.name,SE,Europe,Northern Europe,Sweden,Stockholm County,,Sollentuna
178.174.241.102,4,2,josefsson.org,SE,Europe,Northern Europe,Sweden,Stockholm County,,Stockholm
91.208.174.141,4,27,jotex.se,SE,Europe,Northern Europe,Sweden,,,
194.169.225.47,4,667,jumbostay.se,SE,Europe,Northern Europe,Sweden,,,
185.157.223.19,4,3,kairosfuture.com,SE,Europe,Northern Europe,Sweden,Halland County,,Falkenberg
185.195.94.20,4,14,kalmar.se,SE,Europe,Northern Europe,Sweden,,,
185.6.8.63,4,3,kandisnyheter.se,SE,Europe,Northern Europe,Sweden,,,
185.13.99.131,4,808,karadaiikoto.net,SE,Europe,Northern Europe,Sweden,,,
193.10.226.38,4,95,kau.se,SE,Europe,Northern Europe,Sweden,,,
192.71.2.190,4,808,keieitie.net,SE,Europe,Northern Europe,Sweden,,,
185.225.114.106,4,3,kiwifarms.st,SE,Europe,Northern Europe,Sweden,,,
89.221.250.3,4,-21,klovsjo.com,SE,Europe,Northern Europe,Sweden,,,
155.4.33.217,4,16,kodmakare.nu,SE,Europe,Northern Europe,Sweden,Dalarna County,,Borlänge
80.72.14.95,4,5,kolada.se,SE,Europe,Northern Europe,Sweden,Stockholm County,,Stockholm
188.114.243.60,4,7,kopimistsamfundet.se,SE,Europe,Northern Europe,Sweden,,,
185.117.88.108,4,11,krademedia.com,SE,Europe,Northern Europe,Sweden,Stockholm County,,Stockholm
94.46.41.174,4,158,kronfonster.se,SE,Europe,Northern Europe,Sweden,,,
194.47.250.248,4,13,kryo.se,SE,Europe,Northern Europe,Sweden,Skåne County,,Lund
46.21.102.107,4,11,kundvisaren.se,SE,Europe,Northern Europe,Sweden,Halland County,,Falkenberg
176.74.198.176,4,12,kung-foo.tv,SE,Europe,Northern Europe,Sweden,,,
86.106.25.172,4,30,kvartal.se,SE,Europe,Northern Europe,Sweden,,,
185.157.222.78,4,3,kyrktorget.se,SE,Europe,Northern Europe,Sweden,Halland County,,Falkenberg
130.236.254.142,4,3,lagen.nu,SE,Europe,Northern Europe,Sweden,Östergötland County,,Linköping
185.195.93.84,4,3,lansstyrelsen.se,SE,Europe,Northern Europe,Sweden,,,
80.78.23.223,4,42,lessoulevementsdelaterre.org,SE,Europe,Northern Europe,Sweden,,,
159.253.31.95,4,55,libssh2.org,SE,Europe,Northern Europe,Sweden,Stockholm County,,Stockholm
83.255.218.235,4,25,lifebutiken.se,SE,Europe,Northern Europe,Sweden,Värmland County,,Arvika
83.255.218.242,4,5,lifebutiken.se,SE,Europe,Northern Europe,Sweden,Värmland County,,Arvika
194.103.212.50,4,387,lingwangdzsw.com,SE,Europe,Northern Europe,Sweden,,,
88.80.28.163,4,1742,linkomanija.net,SE,Europe,Northern Europe,Sweden,,,
46.246.44.4,4,3,linusakesson.net,SE,Europe,Northern Europe,Sweden,Halland County,,Falkenberg
23.72.246.7,4,7,livelo.com.br,SE,Europe,Northern Europe,Sweden,Stockholm County,,Stockholm
46.162.78.46,4,35,livet.se,SE,Europe,Northern Europe,Sweden,,,
194.14.207.58,4,-6,llamalab.com,SE,Europe,Northern Europe,Sweden,,,
194.71.211.121,4,573,longtail-japan-gunma-north.net,SE,Europe,Northern Europe,Sweden,,,
178.21.73.96,4,17,loveskara.se,SE,Europe,Northern Europe,Sweden,,,
82.99.18.57,4,5,lundahl.se,SE,Europe,Northern Europe,Sweden,,,
185.246.128.182,4,3,ma-voyance-gratuite.com,SE,Europe,Northern Europe,Sweden,Stockholm County,,Stockholm
185.133.206.228,4,28,mangold.se,SE,Europe,Northern Europe,Sweden,,,
192.121.157.202,4,820,marketkenkyu.net,SE,Europe,Northern Europe,Sweden,,,
23.61.238.227,4,4,maserati.it,SE,Europe,Northern Europe,Sweden,Stockholm County,,Stockholm
94.247.171.77,4,8,maxgaming.com,SE,Europe,Northern Europe,Sweden,Halland County,,Falkenberg
46.254.14.213,4,63,mediaflowpro.com,SE,Europe,Northern Europe,Sweden,Stockholm County,,Stockholm
94.46.113.59,4,34,medical-library.net,SE,Europe,Northern Europe,Sweden,,,
194.68.59.98,4,500619,medicaljournals.se,SE,Europe,Northern Europe,Sweden,Västmanland County,,Västerås
185.150.112.158,4,694,medicallab.biz,SE,Europe,Northern Europe,Sweden,,,
109.74.5.141,4,8,medtryck.com,SE,Europe,Northern Europe,Sweden,Stockholm County,,Stockholm
188.114.244.139,4,7,meetlima.com,SE,Europe,Northern Europe,Sweden,,,
130.0.206.19,4,26,metaglossary.com,SE,Europe,Northern Europe,Sweden,,,
46.246.39.10,4,-117757,mi.se,SE,Europe,Northern Europe,Sweden,Stockholm County,,Stockholm
188.114.253.191,4,16,michaelkorsoutlet.se,SE,Europe,Northern Europe,Sweden,,,
46.246.39.66,4,10,mickiofsweden.com,SE,Europe,Northern Europe,Sweden,Stockholm County,,Stockholm
188.114.234.152,4,36,microcuts.net,SE,Europe,Northern Europe,Sweden,,,
159.253.26.133,4,17,midnattsloppet.com,SE,Europe,Northern Europe,Sweden,Stockholm County,,Stockholm
188.66.62.194,4,56,millenarywatches.com,SE,Europe,Northern Europe,Sweden,Stockholm County,,Stockholm
188.126.71.166,4,20,minesto.com,SE,Europe,Northern Europe,Sweden,Halland County,,Falkenberg
192.71.3.195,4,-305,mioplanet.com,SE,Europe,Northern Europe,Sweden,,,
217.198.65.14,4,16,mipsprotection.com,SE,Europe,Northern Europe,Sweden,Stockholm County,,Stockholm
85.24.159.71,4,327,mistrafuturefashion.com,SE,Europe,Northern Europe,Sweden,Stockholm County,,Bro
194.132.81.53,4,29,mittsune.se,SE,Europe,Northern Europe,Sweden,Västra Götaland County,,Trollhättan
94.46.116.70,4,20,miyakemura.com,SE,Europe,Northern Europe,Sweden,,,
130.255.167.123,4,33,mobilepaymentconference.com,SE,Europe,Northern Europe,Sweden,,,
91.106.198.98,4,4,modernamuseet.se,SE,Europe,Northern Europe,Sweden,Blekinge County,,Karlskrona
83.168.248.30,4,2651,mtg.com,SE,Europe,Northern Europe,Sweden,,,
45.83.223.209,4,-3,mullvad.net,SE,Europe,Northern Europe,Sweden,Skåne County,,Malmo
185.195.94.127,4,22,museum.ax,SE,Europe,Northern Europe,Sweden,,,
88.80.16.173,4,6,mustbedestroyed.org,SE,Europe,Northern Europe,Sweden,,,
86.106.25.174,4,21,myplace.nu,SE,Europe,Northern Europe,Sweden,,,
185.15.122.73,4,15,mysenfotballold.no,SE,Europe,Northern Europe,Sweden,,,
94.46.114.10,4,5,mysqldumper.de,SE,Europe,Northern Europe,Sweden,,,
185.189.49.45,4,4,namninsamling.se,SE,Europe,Northern Europe,Sweden,,,
185.13.97.133,4,815,nayamiaga.com,SE,Europe,Northern Europe,Sweden,,,
178.73.237.146,4,812,nayamisc.net,SE,Europe,Northern Europe,Sweden,Stockholm County,,Stockholm
92.123.135.147,4,3,nbcolympics.com,SE,Europe,Northern Europe,Sweden,Stockholm County,,Stockholm
92.123.135.142,4,5,nbcolympics.com,SE,Europe,Northern Europe,Sweden,Stockholm County,,Stockholm
94.46.126.243,4,3,necomimi.com,SE,Europe,Northern Europe,Sweden,,,
192.71.80.67,4,21,netnod.se,SE,Europe,Northern Europe,Sweden,,,
194.132.81.32,4,12037,nevs.com,SE,Europe,Northern Europe,Sweden,Västra Götaland County,,Trollhättan
151.252.28.191,4,27463,newmusiccanada.com,SE,Europe,Northern Europe,Sweden,,,
194.103.132.84,4,11,ngm.se,SE,Europe,Northern Europe,Sweden,,,
194.103.132.100,4,5,ngm.se,SE,Europe,Northern Europe,Sweden,,,
188.114.246.24,4,10,nintendo-inside.jp,SE,Europe,Northern Europe,Sweden,,,
216.158.103.68,4,26700,nixoncenter.org,SE,Europe,Northern Europe,Sweden,Jönköping,,Tranås
13.49.92.252,4,2,nki.no,SE,Europe,Northern Europe,Sweden,Stockholm County,,Stockholm
192.36.232.17,4,8,nordansmak.se,SE,Europe,Northern Europe,Sweden,,,
94.247.170.66,4,6,nordicgame.com,SE,Europe,Northern Europe,Sweden,Halland County,,Falkenberg
109.74.9.24,4,7,nordiclarp.org,SE,Europe,Northern Europe,Sweden,Stockholm County,,Stockholm
83.255.218.219,4,6,norrgavel.se,SE,Europe,Northern Europe,Sweden,Värmland County,,Arvika
83.255.218.225,4,3,norrgavel.se,SE,Europe,Northern Europe,Sweden,Värmland County,,Arvika
185.195.93.196,4,36,norrkoping.se,SE,Europe,Northern Europe,Sweden,,,
37.252.8.199,4,4,norskeapotek.com,SE,Europe,Northern Europe,Sweden,Stockholm County,,Stockholm
13.48.197.0,4,13,norskfriluftsliv.no,SE,Europe,Northern Europe,Sweden,Stockholm County,,Stockholm
77.81.188.101,4,7,nortic.se,SE,Europe,Northern Europe,Sweden,Stockholm County,,Stockholm
213.204.242.124,4,20,novaroma.org,SE,Europe,Northern Europe,Sweden,Norrbotten County,,Boden
46.246.45.8,4,6,nyberg.us,SE,Europe,Northern Europe,Sweden,Halland County,,Falkenberg
89.160.104.114,4,6,octagate.com,SE,Europe,Northern Europe,Sweden,,,
104.80.212.221,4,35,officialpayments.com,SE,Europe,Northern Europe,Sweden,Stockholm County,,Stockholm
13.53.128.179,4,6,oikeuttaelaimille.fi,SE,Europe,Northern Europe,Sweden,Stockholm County,,Stockholm
80.78.26.168,4,35,oldmaglib.com,SE,Europe,Northern Europe,Sweden,,,
129.151.220.81,4,15,olofson.net,SE,Europe,Northern Europe,Sweden,Stockholm County,,Stockholm
128.127.104.4,4,-373641,Ookla Speedtest Server 5235: se.altushost.com,SE,Europe,Northern Europe,Sweden,Stockholm County,,Stockholm
94.103.192.21,4,364,Ookla Speedtest Server 6648: sp1.mediateknik.net,SE,Europe,Northern Europe,Sweden,,,
80.251.195.75,4,121,Ookla Speedtest Server 16057: speedtest.3.dk,SE,Europe,Northern Europe,Sweden,Stockholm County,,Stockholm
45.154.255.51,4,243,Ookla Speedtest Server 21028: speedtest.keff.org,SE,Europe,Northern Europe,Sweden,Stockholm County,,Stockholm
45.130.87.61,4,398,Ookla Speedtest Server 38854: speedtestse.pvdatanet.com,SE,Europe,Northern Europe,Sweden,Stockholm County,,Stockholm
5.152.152.179,4,223,Ookla Speedtest Server 53521: speedtest-sth.84grams.net,SE,Europe,Northern Europe,Sweden,Stockholm County,,Stockholm
185.57.105.254,4,295,Ookla Speedtest Server 59529: speedtest.ansluten.net,SE,Europe,Northern Europe,Sweden,Blekinge County,,Karlshamn
85.195.63.137,4,332,Ookla Speedtest Server 63770: speedtest-vxo.netatonce.net,SE,Europe,Northern Europe,Sweden,Kronoberg County,,Ljungby
217.10.105.73,4,354,Ookla Speedtest Server 63781: speedtest-sth.netatonce.net,SE,Europe,Northern Europe,Sweden,Stockholm County,,Stockholm
217.10.104.17,4,301,Ookla Speedtest Server 63886: speedtest-gbg.netatonce.net,SE,Europe,Northern Europe,Sweden,Västra Götaland County,,Gothenburg
109.230.199.46,4,52,opensourcecinema.org,SE,Europe,Northern Europe,Sweden,Stockholm County,,Stockholm
94.46.249.55,4,18,opensourceworldconference.com,SE,Europe,Northern Europe,Sweden,,,
185.195.94.19,4,110,oringen.se,SE,Europe,Northern Europe,Sweden,,,
196.196.234.43,4,10,orologio-replica.com,SE,Europe,Northern Europe,Sweden,Stockholm County,,Stockholm
185.99.36.231,4,411,ostersundsfk.se,SE,Europe,Northern Europe,Sweden,,,
37.247.0.224,4,4,ownit.se,SE,Europe,Northern Europe,Sweden,Stockholm County,,Stockholm
79.99.0.180,4,8,oxeyegames.com,SE,Europe,Northern Europe,Sweden,Stockholm County,,Stockholm
185.133.206.95,4,34,palmecenter.se,SE,Europe,Northern Europe,Sweden,,,
83.140.191.222,4,-1008877,pdfhost.net,SE,Europe,Northern Europe,Sweden,,,
176.97.77.215,4,20,pharmacie-du-centre-croix.com,SE,Europe,Northern Europe,Sweden,Stockholm County,,Stockholm
185.189.50.15,4,32,pici.se,SE,Europe,Northern Europe,Sweden,,,
46.246.30.84,4,19,pineberry.com,SE,Europe,Northern Europe,Sweden,Stockholm County,,Stockholm
80.78.23.245,4,76,pirateproxy.net,SE,Europe,Northern Europe,Sweden,,,
159.253.24.143,4,5,piratforlaget.se,SE,Europe,Northern Europe,Sweden,Stockholm County,,Stockholm
194.14.56.168,4,37,piratpartiet.se,SE,Europe,Northern Europe,Sweden,,,
212.237.149.8,4,31,piwikpro.de,SE,Europe,Northern Europe,Sweden,Stockholm County,,Stockholm
178.73.232.237,4,43,pixbox.se,SE,Europe,Northern Europe,Sweden,Stockholm County,,Stockholm
192.165.9.92,4,3,playdo.com,SE,Europe,Northern Europe,Sweden,Dalarna County,,Falun
185.189.49.222,4,11,playdo.com,SE,Europe,Northern Europe,Sweden,,,
185.41.91.106,4,7,politicaloutcast.com,SE,Europe,Northern Europe,Sweden,,,
194.14.207.181,4,31,postkodstiftelsen.se,SE,Europe,Northern Europe,Sweden,,,
37.152.62.222,4,33,pp-velebit.hr,SE,Europe,Northern Europe,Sweden,,,
89.221.250.29,4,18,prepperforum.se,SE,Europe,Northern Europe,Sweden,,,
193.12.247.78,4,4,pro-net.se,SE,Europe,Northern Europe,Sweden,Västmanland County,,Västerås
192.165.9.156,4,25,procup.se,SE,Europe,Northern Europe,Sweden,Dalarna County,,Falun
185.84.28.15,4,-368,proletaren.se,SE,Europe,Northern Europe,Sweden,,,
185.7.33.84,4,20,prosoftstore.com,SE,Europe,Northern Europe,Sweden,Stockholm County,,Stockholm
130.237.227.251,4,45,proteinatlas.org,SE,Europe,Northern Europe,Sweden,Stockholm County,,Stockholm
188.114.241.64,4,11,pureenergysystems.com,SE,Europe,Northern Europe,Sweden,,,
194.48.213.75,4,14,quakeworld.nu,SE,Europe,Northern Europe,Sweden,,,
178.73.242.207,4,-313,quandaryland.com,SE,Europe,Northern Europe,Sweden,Stockholm County,,Stockholm
5.133.207.52,4,27479,race-game.org,SE,Europe,Northern Europe,Sweden,,,
80.72.8.132,4,17,rampanel.com,SE,Europe,Northern Europe,Sweden,Stockholm County,,Stockholm
109.235.174.4,4,22,rcflyg.se,SE,Europe,Northern Europe,Sweden,,,
213.136.36.112,4,44,recepten.se,SE,Europe,Northern Europe,Sweden,Stockholm County,,Stockholm
213.136.36.110,4,21,recepten.se,SE,Europe,Northern Europe,Sweden,Stockholm County,,Stockholm
5.178.75.137,4,326,recruto.se,SE,Europe,Northern Europe,Sweden,Halland County,,Falkenberg
185.195.94.124,4,19,regeringen.ax,SE,Europe,Northern Europe,Sweden,,,
91.189.41.164,4,251,reklammuggen.se,SE,Europe,Northern Europe,Sweden,,,
46.21.108.216,4,4,reloaded.org,SE,Europe,Northern Europe,Sweden,Halland County,,Falkenberg
130.255.164.17,4,14,rentechinc.com,SE,Europe,Northern Europe,Sweden,,,
81.93.139.139,4,19,reseguiden.se,SE,Europe,Northern Europe,Sweden,,,
188.212.108.45,4,36,resultatservice.com,SE,Europe,Northern Europe,Sweden,Blekinge County,,Karlskrona
192.71.44.49,4,78,revgarydavis.com,SE,Europe,Northern Europe,Sweden,,,
178.73.241.154,4,-315,reviewsnews.com,SE,Europe,Northern Europe,Sweden,Stockholm County,,Stockholm
2.22.31.32,4,4,revolveclothing.com.au,SE,Europe,Northern Europe,Sweden,Stockholm County,,Stockholm
2.22.31.41,4,37,revolveclothing.com.au,SE,Europe,Northern Europe,Sweden,Stockholm County,,Stockholm
185.195.94.37,4,5,ri.se,SE,Europe,Northern Europe,Sweden,,,
185.157.222.118,4,17,rigpix.com,SE,Europe,Northern Europe,Sweden,Halland County,,Falkenberg
188.126.93.224,4,7,robertgraham.com,SE,Europe,Northern Europe,Sweden,Stockholm County,,Stockholm
109.74.10.123,4,8,rotter.se,SE,Europe,Northern Europe,Sweden,Halland County,,Falkenberg
178.73.246.46,4,809,roumuiso.xyz,SE,Europe,Northern Europe,Sweden,Stockholm County,,Stockholm
212.247.29.226,4,2888006,roxen.com,SE,Europe,Northern Europe,Sweden,Stockholm County,,Stockholm
130.236.254.233,4,51,runeberg.org,SE,Europe,Northern Europe,Sweden,Östergötland County,,Linköping
185.195.93.118,4,10,rusta.com,SE,Europe,Northern Europe,Sweden,,,
185.141.74.50,4,222,samsonblinded.org,SE,Europe,Northern Europe,Sweden,,,
5.150.254.174,4,11,saotome.st,SE,Europe,Northern Europe,Sweden,Stockholm County,,Bandhagen
109.235.174.20,4,3,sb-index.com,SE,Europe,Northern Europe,Sweden,,,
185.195.93.130,4,1,sbf.se,SE,Europe,Northern Europe,Sweden,,,
83.255.218.216,4,5,scorett.se,SE,Europe,Northern Europe,Sweden,Värmland County,,Arvika
83.255.218.232,4,32,scorett.se,SE,Europe,Northern Europe,Sweden,Värmland County,,Arvika
185.195.93.48,4,2,sd.se,SE,Europe,Northern Europe,Sweden,,,
185.142.80.164,4,692,sdxinfusheng.com,SE,Europe,Northern Europe,Sweden,,,
193.180.222.138,4,378,searchafter.info,SE,Europe,Northern Europe,Sweden,,,
46.21.106.240,4,25,semantix.com,SE,Europe,Northern Europe,Sweden,Stockholm County,,Stockholm
185.99.36.212,4,58,senioren.se,SE,Europe,Northern Europe,Sweden,,,
194.103.207.33,4,419,serach.info,SE,Europe,Northern Europe,Sweden,,,
81.181.111.60,4,45,sexclub.co.il,SE,Europe,Northern Europe,Sweden,Stockholm County,,Stockholm
130.242.48.1,4,9,sfhm.se,SE,Europe,Northern Europe,Sweden,Stockholm County,,Vårsta
185.129.66.223,4,4,sgic.fi,SE,Europe,Northern Europe,Sweden,,,
85.24.159.75,4,84,shortfilmfestival.com,SE,Europe,Northern Europe,Sweden,Stockholm County,,Bro
151.248.3.45,4,694,sildenafilxd.com,SE,Europe,Northern Europe,Sweden,,,
86.106.25.253,4,30,simbin.se,SE,Europe,Northern Europe,Sweden,,,
193.10.14.94,4,2,sipri.org,SE,Europe,Northern Europe,Sweden,,,
178.73.240.174,4,-300,sitesled.com,SE,Europe,Northern Europe,Sweden,Stockholm County,,Stockholm
194.54.165.150,4,5,siwi.org,SE,Europe,Northern Europe,Sweden,Halland County,,Falkenberg
159.253.27.87,4,35,skansen.se,SE,Europe,Northern Europe,Sweden,Stockholm County,,Stockholm
185.195.93.162,4,27,skanskabyggvaror.se,SE,Europe,Northern Europe,Sweden,,,
130.241.42.13,4,19,skbl.se,SE,Europe,Northern Europe,Sweden,Västra Götaland County,,Gothenburg
185.195.92.148,4,55,skekraft.se,SE,Europe,Northern Europe,Sweden,,,
195.178.180.106,4,38,skeppsholmen.se,SE,Europe,Northern Europe,Sweden,Stockholm County,,Stockholm
188.126.71.86,4,40,sketchersunited.org,SE,Europe,Northern Europe,Sweden,Halland County,,Falkenberg
185.195.94.15,4,30,skidor.com,SE,Europe,Northern Europe,Sweden,,,
193.42.159.250,4,5,skrotbilarna.se,SE,Europe,Northern Europe,Sweden,,,
94.247.171.72,4,10,smartasaker.se,SE,Europe,Northern Europe,Sweden,Halland County,,Falkenberg
91.192.30.117,4,5,smhi.se,SE,Europe,Northern Europe,Sweden,Uppsala County,,Uppsala
130.241.170.87,4,16,snd.se,SE,Europe,Northern Europe,Sweden,Västra Götaland County,,Gothenburg
185.195.93.132,4,97,socialdemokraterna.se,SE,Europe,Northern Europe,Sweden,,,
195.216.48.50,4,21,sovtex.se,SE,Europe,Northern Europe,Sweden,Skåne County,,Ängelholm
185.141.89.63,4,702,specialty-byoin.net,SE,Europe,Northern Europe,Sweden,,,
83.145.36.155,4,53,sportnik.com,SE,Europe,Northern Europe,Sweden,,,
46.21.97.23,4,75,sprend.com,SE,Europe,Northern Europe,Sweden,,,
193.138.217.67,4,4,spunk.org,SE,Europe,Northern Europe,Sweden,Skåne County,,Malmo
194.14.207.186,4,50,ssa.se,SE,Europe,Northern Europe,Sweden,,,
77.81.188.49,4,6,statenskonstrad.se,SE,Europe,Northern Europe,Sweden,Stockholm County,,Stockholm
185.189.51.40,4,32,stepsta.com,SE,Europe,Northern Europe,Sweden,,,
13.53.101.199,4,15,sterrenkunde.nl,SE,Europe,Northern Europe,Sweden,Stockholm County,,Stockholm
185.195.93.113,4,32,stockholmresilience.org,SE,Europe,Northern Europe,Sweden,,,
46.246.30.148,4,20,stodlinjen.se,SE,Europe,Northern Europe,Sweden,Stockholm County,,Stockholm
212.237.144.186,4,59,strategiska.se,SE,Europe,Northern Europe,Sweden,Stockholm County,,Stockholm
194.169.225.25,4,0,streamio.com,SE,Europe,Northern Europe,Sweden,,,
70.34.207.171,4,72,studiotel.it,SE,Europe,Northern Europe,Sweden,Stockholm County,,Spånga
185.246.128.60,4,7,suicide-forum.com,SE,Europe,Northern Europe,Sweden,Stockholm County,,Stockholm
4.223.89.36,4,7,suicidezero.se,SE,Europe,Northern Europe,Sweden,,,
37.156.192.50,4,1,sunet.se,SE,Europe,Northern Europe,Sweden,,,
37.156.192.51,4,3,sunet.se,SE,Europe,Northern Europe,Sweden,,,
2.22.31.26,4,7,superdown.com,SE,Europe,Northern Europe,Sweden,Stockholm County,,Stockholm
2.22.31.50,4,9,superdown.com,SE,Europe,Northern Europe,Sweden,Stockholm County,,Stockholm
185.195.93.85,4,8,surahammar.se,SE,Europe,Northern Europe,Sweden,,,
81.91.4.137,4,7,svenskalag.se,SE,Europe,Northern Europe,Sweden,,,
86.106.25.5,4,68,svenskamagasinet.nu,SE,Europe,Northern Europe,Sweden,,,
188.126.83.221,4,15,svenskarnaochinternet.se,SE,Europe,Northern Europe,Sweden,Stockholm County,,Stockholm
62.3.44.11,4,-20,svenskasuperserier.se,SE,Europe,Northern Europe,Sweden,,,
185.195.93.119,4,20,svenskidrott.se,SE,Europe,Northern Europe,Sweden,,,
46.21.101.215,4,36,svensktidskrift.se,SE,Europe,Northern Europe,Sweden,Halland County,,Falkenberg
95.143.203.108,4,67,sverigebygger.se,SE,Europe,Northern Europe,Sweden,Gävleborg County,,Hudiksvall
185.195.92.26,4,14,sverigesingenjorer.se,SE,Europe,Northern Europe,Sweden,,,
185.88.137.10,4,15,sverigetopplistan.se,SE,Europe,Northern Europe,Sweden,,,
185.195.93.131,4,9,svevia.se,SE,Europe,Northern Europe,Sweden,,,
195.181.166.158,4,5,swebbtube.se,SE,Europe,Northern Europe,Sweden,Stockholm County,,Stockholm
193.183.80.13,4,21,swedishepa.se,SE,Europe,Northern Europe,Sweden,,,
178.73.217.237,4,7,swedishmusicalheritage.com,SE,Europe,Northern Europe,Sweden,Halland County,,Falkenberg
37.152.60.51,4,4,swedishtouristassociation.com,SE,Europe,Northern Europe,Sweden,,,
46.59.102.201,4,10,swenorthab.se,SE,Europe,Northern Europe,Sweden,Stockholm County,,Stockholm
185.189.49.220,4,8,swenorthab.se,SE,Europe,Northern Europe,Sweden,,,
46.246.45.82,4,192161,sxk.se,SE,Europe,Northern Europe,Sweden,Halland County,,Falkenberg
185.141.73.10,4,350,tadalafilpillscheap.com,SE,Europe,Northern Europe,Sweden,,,
104.84.152.50,4,5,tajhotels.com,SE,Europe,Northern Europe,Sweden,Stockholm County,,Stockholm
104.84.152.161,4,7,tajhotels.com,SE,Europe,Northern Europe,Sweden,Stockholm County,,Stockholm
79.142.73.155,4,28,taxi-travel.me,SE,Europe,Northern Europe,Sweden,,,
185.195.94.101,4,15,taxistockholm.se,SE,Europe,Northern Europe,Sweden,,,
130.244.126.100,4,71148,TELE2,SE,Europe,Northern Europe,Sweden,,,
94.46.254.31,4,10,telecentre.org,SE,Europe,Northern Europe,Sweden,,,
109.235.174.5,4,50,tenstakonsthall.se,SE,Europe,Northern Europe,Sweden,,,
46.21.101.135,4,67,teslaclubsweden.se,SE,Europe,Northern Europe,Sweden,Halland County,,Falkenberg
192.165.9.172,4,3,thainationalparks.com,SE,Europe,Northern Europe,Sweden,Dalarna County,,Falun
185.225.114.24,4,4,the-trader-ai.co,SE,Europe,Northern Europe,Sweden,,,
86.106.25.100,4,20,thepo.st,SE,Europe,Northern Europe,Sweden,,,
94.46.119.193,4,5,theurbanecolife.com,SE,Europe,Northern Europe,Sweden,,,
185.139.167.135,4,218,thezombies.net,SE,Europe,Northern Europe,Sweden,,,
109.74.13.106,4,39,tidningensyre.se,SE,Europe,Northern Europe,Sweden,Halland County,,Falkenberg
185.157.223.186,4,10,tillitis.se,SE,Europe,Northern Europe,Sweden,Halland County,,Falkenberg
185.195.94.18,4,-6,tillvaxtverket.se,SE,Europe,Northern Europe,Sweden,,,
185.117.88.183,4,-43,tipichnyjkulinar.com,SE,Europe,Northern Europe,Sweden,Stockholm County,,Stockholm
185.15.121.100,4,1,tjoloholm.se,SE,Europe,Northern Europe,Sweden,,,
109.74.13.245,4,5,tng.se,SE,Europe,Northern Europe,Sweden,Halland County,,Falkenberg
185.123.94.251,4,27454,toilef1.com,SE,Europe,Northern Europe,Sweden,,,
109.228.188.205,4,6,toontrack.com,SE,Europe,Northern Europe,Sweden,Stockholm County,,Stockholm
185.189.48.105,4,7,topy.se,SE,Europe,Northern Europe,Sweden,,,
89.221.250.20,4,12,tornsif.com,SE,Europe,Northern Europe,Sweden,,,
88.80.28.24,4,-85679,torrentbytes.net,SE,Europe,Northern Europe,Sweden,,,
188.114.241.157,4,9,tradingguide.co.uk,SE,Europe,Northern Europe,Sweden,,,
185.189.48.4,4,6,traningslara.se,SE,Europe,Northern Europe,Sweden,,,
37.152.56.205,4,7,translegal.com,SE,Europe,Northern Europe,Sweden,Stockholm County,,Stockholm
193.180.86.34,4,8,triart.se,SE,Europe,Northern Europe,Sweden,,,
185.189.49.217,4,3,truckfighters.com,SE,Europe,Northern Europe,Sweden,,,
194.68.59.6,4,20,truckfighters.com,SE,Europe,Northern Europe,Sweden,Västmanland County,,Västerås
185.195.92.48,4,6,truesec.com,SE,Europe,Northern Europe,Sweden,,,
213.155.143.212,4,-19,turbosms.ua,SE,Europe,Northern Europe,Sweden,,,
5.178.75.152,4,-117207,tylosand.se,SE,Europe,Northern Europe,Sweden,Halland County,,Falkenberg
5.42.82.40,4,7,ufa102.com,SE,Europe,Northern Europe,Sweden,Stockholm County,,Stockholm
185.39.136.213,4,6,umea2014.se,SE,Europe,Northern Europe,Sweden,,,
194.32.145.31,4,12,upload.gen.tr,SE,Europe,Northern Europe,Sweden,,,
194.116.212.2,4,1,upplandsvasby.se,SE,Europe,Northern Europe,Sweden,Stockholm County,,Upplands Vasby
185.13.98.125,4,809,usugekenkyu.biz,SE,Europe,Northern Europe,Sweden,,,
185.195.92.131,4,2,uu.se,SE,Europe,Northern Europe,Sweden,,,
195.67.32.98,4,-29,vallentuna.se,SE,Europe,Northern Europe,Sweden,Stockholm County,,Stockholm
178.73.210.240,4,25,vanuatutourism.com,SE,Europe,Northern Europe,Sweden,Stockholm County,,Stockholm
109.235.174.19,4,8,vastsex.nu,SE,Europe,Northern Europe,Sweden,,,
79.99.5.168,4,10,vaxbolin.se,SE,Europe,Northern Europe,Sweden,Halland County,,Falkenberg
79.142.73.145,4,85,velikobrdo.rs,SE,Europe,Northern Europe,Sweden,,,
46.59.56.233,4,13,vesc-project.com,SE,Europe,Northern Europe,Sweden,Blekinge County,,Karlskrona
184.86.14.165,4,6,vetverify.org,SE,Europe,Northern Europe,Sweden,Stockholm County,,Stockholm
192.36.136.198,4,8814,viewportsizes.com,SE,Europe,Northern Europe,Sweden,,,
193.183.80.17,4,5,villacopenhagen.com,SE,Europe,Northern Europe,Sweden,,,
5.133.208.166,4,852,virtualfreesites.com,SE,Europe,Northern Europe,Sweden,,,
194.14.207.85,4,71493,virtue.nu,SE,Europe,Northern Europe,Sweden,,,
188.212.108.158,4,23,visionzeroinitiative.com,SE,Europe,Northern Europe,Sweden,Blekinge County,,Karlskrona
185.133.207.52,4,23,visitvarmland.se,SE,Europe,Northern Europe,Sweden,,,
217.25.34.2,4,2,vivaroxymusic.com,SE,Europe,Northern Europe,Sweden,,,
188.126.70.134,4,19,vnv.global,SE,Europe,Northern Europe,Sweden,Stockholm County,,Stockholm
109.235.174.18,4,1,volante.se,SE,Europe,Northern Europe,Sweden,,,
94.254.0.43,4,3,vozin.st,SE,Europe,Northern Europe,Sweden,Stockholm County,,Stockholm
194.169.225.21,4,195,walleniusmarine.com,SE,Europe,Northern Europe,Sweden,,,
13.53.71.52,4,6,warrobots.com,SE,Europe,Northern Europe,Sweden,Stockholm County,,Stockholm
185.195.93.57,4,2,wasakredit.se,SE,Europe,Northern Europe,Sweden,,,
80.252.221.194,4,9,waterproof.eu,SE,Europe,Northern Europe,Sweden,Västra Götaland County,,Munkedal
87.237.210.145,4,36,webbkameror.se,SE,Europe,Northern Europe,Sweden,,,
109.235.174.3,4,23,webhop.se,SE,Europe,Northern Europe,Sweden,,,
188.114.224.77,4,19,webmasterfree.com,SE,Europe,Northern Europe,Sweden,,,
94.46.49.231,4,17,whois.ws,SE,Europe,Northern Europe,Sweden,,,
185.246.128.50,4,13,woldwidewithoutaprescription.com,SE,Europe,Northern Europe,Sweden,Stockholm County,,Stockholm
185.195.93.70,4,4,worldcard.nl,SE,Europe,Northern Europe,Sweden,,,
46.246.38.54,4,4,worldreferee.com,SE,Europe,Northern Europe,Sweden,Halland County,,Falkenberg
194.54.165.147,4,15,worldwaterweek.org,SE,Europe,Northern Europe,Sweden,Halland County,,Falkenberg
185.195.94.82,4,3,www.mil.se,SE,Europe,Northern Europe,Sweden,,,
185.195.94.81,4,2,www.mil.se,SE,Europe,Northern Europe,Sweden,,,
5.150.254.168,4,176610,www.st,SE,Europe,Northern Europe,Sweden,Stockholm County,,Bandhagen
194.132.200.235,4,10,www8.org,SE,Europe,Northern Europe,Sweden,,,
194.68.16.3,4,317,xiangyuyihuo.com,SE,Europe,Northern Europe,Sweden,,,
85.118.207.90,4,19,xn--skidklder-02a.net,SE,Europe,Northern Europe,Sweden,,,
185.189.51.135,4,4,yourmiddleeast.com,SE,Europe,Northern Europe,Sweden,,,
172.234.96.18,4,6,zimpler.com,SE,Europe,Northern Europe,Sweden,Stockholm County,,Stockholm
81.181.111.81,4,2,zithromax.life,SE,Europe,Northern Europe,Sweden,Stockholm County,,Stockholm
185.51.32.78,4,4,zspdobra.edu.pl,SE,Europe,Northern Europe,Sweden,,,
