reflector_ip,ip_version,offset,description,country_code,region,sub_region,country_name,sub_division_1,sub_division_2,city
159.148.27.60,4,13,0o.lv,LV,Europe,Northern Europe,Latvia,Rīga,,Riga
85.31.98.3,4,979,adlinefor.com,LV,Europe,Northern Europe,Latvia,,,
185.86.148.45,4,30,allcharts.org,LV,Europe,Northern Europe,Latvia,,,
83.223.150.174,4,48,arterritory.com,LV,Europe,Northern Europe,Latvia,,,
31.128.32.203,4,13,cashboom.ru,LV,Europe,Northern Europe,Latvia,Rīga,,Riga
89.111.61.15,4,-22124871,cciworld.com,LV,Europe,Northern Europe,Latvia,,,
91.142.6.115,4,-16730,celotajs.lv,LV,Europe,Northern Europe,Latvia,,,
94.140.122.3,4,4,cesis.lv,LV,Europe,Northern Europe,Latvia,Rīga,,Riga
89.111.61.25,4,3,coral-club.com,LV,Europe,Northern Europe,Latvia,,,
159.148.117.53,4,-1,csb.gov.lv,LV,Europe,Northern Europe,Latvia,,,
91.203.68.162,4,11,d-fakti.lv,LV,Europe,Northern Europe,Latvia,,,
84.237.232.168,4,13,daba.lv,LV,Europe,Northern Europe,Latvia,Rīga,,Riga
195.130.205.150,4,6,ddc-klimat-sl.lv,LV,Europe,Northern Europe,Latvia,,,
109.205.121.108,4,10,DNS Server: 109-205-121-108.unistars.lv,LV,Europe,Northern Europe,Latvia,,,
80.250.56.119,4,19,DNS Server: 80.250.56.119.static.nano.lv,LV,Europe,Northern Europe,Latvia,Rīga,,Riga
91.203.70.201,4,123058,DNS Server: 91.203.70.201.firsthost.lv,LV,Europe,Northern Europe,Latvia,,,
91.203.70.35,4,14,DNS Server: 91.203.70.35.static.nano.lv,LV,Europe,Northern Europe,Latvia,,,
83.99.190.221,4,-1074389194,DNS Server: balticom-190-221.balticom.lv,LV,Europe,Northern Europe,Latvia,Rīga,,Riga
77.93.22.17,4,6790066,DNS Server: balticom-22-17.balticom.lv,LV,Europe,Northern Europe,Latvia,Rīga,,Riga
83.99.220.7,4,335405,DNS Server: balticom-220-7.balticom.lv,LV,Europe,Northern Europe,Latvia,Rīga,,Riga
83.99.225.137,4,81,DNS Server: balticom-225-137.balticom.lv,LV,Europe,Northern Europe,Latvia,Rīga,,Riga
83.99.231.2,4,-357171289,DNS Server: balticom-231-2.balticom.lv,LV,Europe,Northern Europe,Latvia,Rīga,,Riga
83.99.252.220,4,6427,DNS Server: balticom-252-220.balticom.lv,LV,Europe,Northern Europe,Latvia,Rīga,,Riga
83.99.254.232,4,-216421,DNS Server: balticom-254-232.balticom.lv,LV,Europe,Northern Europe,Latvia,Rīga,,Riga
82.193.68.98,4,60696,DNS Server: balticom-68-98.balticom.lv,LV,Europe,Northern Europe,Latvia,Rīga,,Riga
82.193.93.151,4,83,DNS Server: balticom-93-151.balticom.lv,LV,Europe,Northern Europe,Latvia,Rīga,,Riga
92.49.17.221,4,10956,DNS Server: customer-17.221.elektrons-k.lv,LV,Europe,Northern Europe,Latvia,Liepāja,,Liepāja
92.49.6.211,4,4919988,DNS Server: customer-6.211.elektrons-k.lv,LV,Europe,Northern Europe,Latvia,Liepāja,,Liepāja
176.106.53.185,4,9,DNS Server: host-176-106-53-185.icoms.lv,LV,Europe,Northern Europe,Latvia,Rīga,,Riga
88.135.145.11,4,36286,DNS Server: host-88-135-145-11.icoms.lv,LV,Europe,Northern Europe,Latvia,Rīga,,Riga
88.135.158.11,4,162,DNS Server: host-88-135-158-11.icoms.lv,LV,Europe,Northern Europe,Latvia,Rīga,,Riga
88.135.158.8,4,160,DNS Server: host-88-135-158-8.icoms.lv,LV,Europe,Northern Europe,Latvia,Rīga,,Riga
89.254.163.155,4,-40898,DNS Server: host.ostkom.lv,LV,Europe,Northern Europe,Latvia,Liepāja,,Liepāja
85.15.210.3,4,11,DNS Server: host3.easylink.lv,LV,Europe,Northern Europe,Latvia,Madona Municipality,,Madona
92.63.86.134,4,50,DNS Server: ip86-134.mwtv.lv,LV,Europe,Northern Europe,Latvia,Rīga,,Riga
78.28.209.150,4,71747,DNS Server: mx.goodmeall.com,LV,Europe,Northern Europe,Latvia,Alūksne Municipality,,Alūksne
85.234.187.123,4,314,DNS Server: r123-187-234-85-broadband.btv.lv,LV,Europe,Northern Europe,Latvia,Rīga,,Riga
77.38.250.135,4,283,DNS Server: r135-250-38-77-broadband.btv.lv,LV,Europe,Northern Europe,Latvia,Rīga,,Riga
159.148.230.82,4,335,DNS Server: users.globalnet.lv,LV,Europe,Northern Europe,Latvia,,,
80.233.248.109,4,175,DNS Server: waves.postmet.com,LV,Europe,Northern Europe,Latvia,Rīga,,Riga
213.175.74.10,4,31,draugiemgroup.com,LV,Europe,Northern Europe,Latvia,,,
159.148.94.36,4,6,drossinternets.lv,LV,Europe,Northern Europe,Latvia,Rīga,,Riga
91.105.203.29,4,-343281,ebaze.lv,LV,Europe,Northern Europe,Latvia,,,
91.203.69.236,4,8,emptylimits.com,LV,Europe,Northern Europe,Latvia,,,
31.170.22.43,4,13,entergauja.com,LV,Europe,Northern Europe,Latvia,,,
91.213.106.126,4,11,fairplayeur.com,LV,Europe,Northern Europe,Latvia,,,
91.203.69.224,4,38,fastsoft.lv,LV,Europe,Northern Europe,Latvia,,,
85.31.99.23,4,16,fevex.eu,LV,Europe,Northern Europe,Latvia,,,
89.111.16.48,4,0,firmas.lv,LV,Europe,Northern Europe,Latvia,,,
194.105.56.41,4,27,fotki.lv,LV,Europe,Northern Europe,Latvia,,,
91.237.98.17,4,8,fotoprint.lv,LV,Europe,Northern Europe,Latvia,,,
91.203.69.241,4,65,freecity.lv,LV,Europe,Northern Europe,Latvia,,,
89.111.20.132,4,30,freepolicybriefs.org,LV,Europe,Northern Europe,Latvia,,,
5.44.220.30,4,26,gadgetsrevived.com,LV,Europe,Northern Europe,Latvia,,,
91.90.253.135,4,33,goleks.com,LV,Europe,Northern Europe,Latvia,Rīga,,Riga
159.148.38.12,4,5,goodtec.ru,LV,Europe,Northern Europe,Latvia,Rīga,,Riga
91.203.69.196,4,37,grandhotelushba.com,LV,Europe,Northern Europe,Latvia,,,
217.199.120.102,4,48,grani.lv,LV,Europe,Northern Europe,Latvia,Jūrmala,,Jūrmala
91.224.13.22,4,7,gudriem.lv,LV,Europe,Northern Europe,Latvia,Rīga,,Riga
185.81.129.96,4,15,hrono.ru,LV,Europe,Northern Europe,Latvia,,,
95.215.45.75,4,3,illusionweb.org,LV,Europe,Northern Europe,Latvia,,,
185.81.129.187,4,6,imidge.com.ua,LV,Europe,Northern Europe,Latvia,,,
91.203.68.205,4,5,inpromo.lv,LV,Europe,Northern Europe,Latvia,,,
91.237.98.25,4,6,instrumenti.lv,LV,Europe,Northern Europe,Latvia,,,
81.198.87.148,4,4708,inttrans.lv,LV,Europe,Northern Europe,Latvia,Talsi Municipality,,Talsi
178.212.252.75,4,414504,journalufa.com,LV,Europe,Northern Europe,Latvia,,,
91.203.68.180,4,6,jurmalahome.com,LV,Europe,Northern Europe,Latvia,,,
94.100.6.67,4,4,klade.lv,LV,Europe,Northern Europe,Latvia,Ogre,,Ogre
91.203.70.107,4,7,krusttevs.com,LV,Europe,Northern Europe,Latvia,,,
91.203.68.61,4,5,labsoflatvia.com,LV,Europe,Northern Europe,Latvia,,,
195.123.210.221,4,2,lastgame.pro,LV,Europe,Northern Europe,Latvia,Rīga,,Riga
85.31.97.226,4,32,latgalesamatnieki.lv,LV,Europe,Northern Europe,Latvia,,,
159.148.230.83,4,60,lelb.lv,LV,Europe,Northern Europe,Latvia,,,
62.84.8.103,4,3,li.lv,LV,Europe,Northern Europe,Latvia,,,
89.111.23.36,4,1,lka.edu.lv,LV,Europe,Northern Europe,Latvia,,,
159.148.57.35,4,3,lma.lv,LV,Europe,Northern Europe,Latvia,Rīga,,Riga
84.237.244.180,4,4381809,lnvm.lv,LV,Europe,Northern Europe,Latvia,Rīga,,Riga
195.123.210.44,4,3,loadgames.net,LV,Europe,Northern Europe,Latvia,Rīga,,Riga
5.44.221.96,4,11,lrepacks.net,LV,Europe,Northern Europe,Latvia,,,
91.203.69.185,4,31,ls-extrusion.eu,LV,Europe,Northern Europe,Latvia,,,
159.148.230.86,4,3,madona.lv,LV,Europe,Northern Europe,Latvia,,,
195.10.216.194,4,10,mammadaba.lv,LV,Europe,Northern Europe,Latvia,,,
213.175.74.221,4,22,mapon.com,LV,Europe,Northern Europe,Latvia,,,
31.128.34.213,4,44,mebelanapa.pro,LV,Europe,Northern Europe,Latvia,Rīga,,Riga
159.148.172.205,4,47,mikrotik.com,LV,Europe,Northern Europe,Latvia,,,
94.140.123.88,4,7,minecraft-max.net,LV,Europe,Northern Europe,Latvia,,,
91.237.98.38,4,5,modx.ru,LV,Europe,Northern Europe,Latvia,,,
195.123.209.234,4,4,mos-parket.ru,LV,Europe,Northern Europe,Latvia,Rīga,,Riga
92.118.148.129,4,45,moscow-forest.ru,LV,Europe,Northern Europe,Latvia,Rīga,,Riga
83.99.196.240,4,27881,moust.lv,LV,Europe,Northern Europe,Latvia,Rīga,,Riga
159.148.147.200,4,3,mt.lv,LV,Europe,Northern Europe,Latvia,,,
185.81.128.182,4,-1494,newsrbk.ru,LV,Europe,Northern Europe,Latvia,,,
5.44.220.121,4,25,nowlinks.net,LV,Europe,Northern Europe,Latvia,,,
89.111.52.12,4,16,nra.lv,LV,Europe,Northern Europe,Latvia,,,
195.122.12.34,4,461,Ookla Speedtest Server 1268: mini1.speedtest.lv,LV,Europe,Northern Europe,Latvia,Rīga,,Riga
91.90.253.48,4,435,Ookla Speedtest Server 7322: speedtest.telenet.lv,LV,Europe,Northern Europe,Latvia,Rīga,,Riga
84.245.224.70,4,257,Ookla Speedtest Server 24424: speedtest.livas.lv,LV,Europe,Northern Europe,Latvia,Rīga,,Riga
185.176.220.254,4,437,Ookla Speedtest Server 40557: spt.2cloud.eu,LV,Europe,Northern Europe,Latvia,,,
89.254.128.42,4,107,Ookla Speedtest Server 47391: st.ostkom.lv,LV,Europe,Northern Europe,Latvia,Liepāja,,Liepāja
185.135.85.82,4,282,Ookla Speedtest Server 48045: speedtest-rig.melbicom.net,LV,Europe,Northern Europe,Latvia,Rīga,,Riga
139.28.252.12,4,349,Ookla Speedtest Server 58311: stest.starnet.lv,LV,Europe,Northern Europe,Latvia,Rēzekne,,Rēzekne
185.220.196.8,4,257,Ookla Speedtest Server 63022: speedtest.77agency.dev,LV,Europe,Northern Europe,Latvia,Rīga,,Riga
89.111.23.129,4,3,opera.lv,LV,Europe,Northern Europe,Latvia,,,
185.82.126.143,4,6,pdaian.com,LV,Europe,Northern Europe,Latvia,,,
92.118.148.126,4,47,pro-tulu.ru,LV,Europe,Northern Europe,Latvia,Rīga,,Riga
80.232.239.181,4,78660,providus.lv,LV,Europe,Northern Europe,Latvia,Rīga,,Riga
194.105.56.10,4,39,puls.lv,LV,Europe,Northern Europe,Latvia,,,
85.31.96.14,4,1055,radioradar.net,LV,Europe,Northern Europe,Latvia,Rīga,,Riga
87.110.219.34,4,53,radioswh.lv,LV,Europe,Northern Europe,Latvia,Rīga,,Riga
81.198.74.207,4,24,rai.lv,LV,Europe,Northern Europe,Latvia,Rīga,,Riga
89.111.24.120,4,24,retalsi.lv,LV,Europe,Northern Europe,Latvia,,,
91.224.12.170,4,67,reviewdetector.ru,LV,Europe,Northern Europe,Latvia,Rīga,,Riga
81.198.75.105,4,190,rgsl.edu.lv,LV,Europe,Northern Europe,Latvia,Rīga,,Riga
159.148.100.40,4,196494,rigasnami.lv,LV,Europe,Northern Europe,Latvia,Rīga,,Riga
89.111.23.130,4,56,rigazoo.lv,LV,Europe,Northern Europe,Latvia,,,
159.148.38.51,4,15,rim-decor.ru,LV,Europe,Northern Europe,Latvia,Rīga,,Riga
159.148.147.252,4,51,routerboard.com,LV,Europe,Northern Europe,Latvia,,,
85.254.89.49,4,25,rta.lv,LV,Europe,Northern Europe,Latvia,Rēzekne Municipality,,Kristinki
89.111.20.165,4,76,rundale.net,LV,Europe,Northern Europe,Latvia,,,
91.203.68.203,4,38,russkije.lv,LV,Europe,Northern Europe,Latvia,,,
195.123.210.50,4,7,rutor-org.games,LV,Europe,Northern Europe,Latvia,Rīga,,Riga
195.13.202.71,4,14,saftehnika.com,LV,Europe,Northern Europe,Latvia,Rīga,,Riga
185.8.61.4,4,23,serveriem.lv,LV,Europe,Northern Europe,Latvia,,,
85.31.98.6,4,528,sevenspins.com,LV,Europe,Northern Europe,Latvia,,,
81.198.74.244,4,16,sigulda.lv,LV,Europe,Northern Europe,Latvia,Rīga,,Riga
185.8.60.194,4,26,speletajiem.com,LV,Europe,Northern Europe,Latvia,,,
194.105.56.170,4,5,ss.com,LV,Europe,Northern Europe,Latvia,,,
94.140.123.6,4,7,sseriga.edu,LV,Europe,Northern Europe,Latvia,,,
185.81.129.74,4,18,statto.com,LV,Europe,Northern Europe,Latvia,,,
91.203.69.239,4,4,takbytesthlm.se,LV,Europe,Northern Europe,Latvia,,,
84.38.137.54,4,5,telegraf.lv,LV,Europe,Northern Europe,Latvia,Rīga,,Riga
195.123.210.10,4,2,topgir.com.ua,LV,Europe,Northern Europe,Latvia,Rīga,,Riga
213.21.217.70,4,1005,transportweekly.com,LV,Europe,Northern Europe,Latvia,Rīga,,Riga
94.100.11.22,4,0,upbfassadenbau.com,LV,Europe,Northern Europe,Latvia,Ogre,,Ogre
78.28.242.50,4,16,valmiera.lv,LV,Europe,Northern Europe,Latvia,Cēsis Municipality,,Cēsis
80.232.240.92,4,8,valmieraszinas.lv,LV,Europe,Northern Europe,Latvia,Rīga,,Riga
80.233.166.69,4,64354,vidzeme.lv,LV,Europe,Northern Europe,Latvia,,,
84.237.221.158,4,2,visitdaugavpils.lv,LV,Europe,Northern Europe,Latvia,Ogre,,Ogre
195.123.210.178,4,54,vkontakte.dj,LV,Europe,Northern Europe,Latvia,Rīga,,Riga
185.81.128.61,4,-41010,xtgamers.com,LV,Europe,Northern Europe,Latvia,,,
