reflector_ip,ip_version,offset,description,country_code,region,sub_region,country_name,sub_division_1,sub_division_2,city
85.206.162.192,4,-2,1valanda.lt,LT,Europe,Northern Europe,Lithuania,Vilnius,Vilnius City Municipality,Vilnius
45.84.206.148,4,64,aboutspacejornal.net,LT,Europe,Northern Europe,Lithuania,Vilnius,Vilnius City Municipality,Vilnius
46.17.175.248,4,33,abtrotaryhouse.com,LT,Europe,Northern Europe,Lithuania,Vilnius,Vilnius City Municipality,Vilnius
162.254.86.34,4,8,acldominator.com,LT,Europe,Northern Europe,Lithuania,Vilnius,Vilnius City Municipality,Vilnius
153.92.1.185,4,7,aeahumanrightsexposur.com,LT,Europe,Northern Europe,Lithuania,Vilnius,Vilnius City Municipality,Vilnius
79.98.25.26,4,28,aeromodelling.lt,LT,Europe,Northern Europe,Lithuania,,,
45.84.207.171,4,9,airlines-gethuman.org,LT,Europe,Northern Europe,Lithuania,Vilnius,Vilnius City Municipality,Vilnius
109.235.64.124,4,5,alburnus.lt,LT,Europe,Northern Europe,Lithuania,,,
77.37.73.154,4,106,alkas.lt,LT,Europe,Northern Europe,Lithuania,Vilnius,Vilnius City Municipality,Vilnius
88.119.162.13,4,75,alytausnaujienos.lt,LT,Europe,Northern Europe,Lithuania,,,
46.17.175.32,4,7,andrewleigh.org,LT,Europe,Northern Europe,Lithuania,Vilnius,Vilnius City Municipality,Vilnius
46.148.20.19,4,-1027205,annuchka.info,LT,Europe,Northern Europe,Lithuania,,,
185.229.114.66,4,4,ariom.ru,LT,Europe,Northern Europe,Lithuania,Vilnius,Vilnius City Municipality,Vilnius
194.135.87.31,4,19,artistsbook.lt,LT,Europe,Northern Europe,Lithuania,,,
79.98.25.14,4,6,artvilnius.com,LT,Europe,Northern Europe,Lithuania,,,
92.62.141.5,4,6,asbis.com,LT,Europe,Northern Europe,Lithuania,Kaunas,Kaunas,Kaunas
79.98.29.27,4,39,augaliukas.lt,LT,Europe,Northern Europe,Lithuania,,,
141.136.45.85,4,35,autobest.org,LT,Europe,Northern Europe,Lithuania,Vilnius,Vilnius City Municipality,Vilnius
176.223.141.207,4,6,autohub.ng,LT,Europe,Northern Europe,Lithuania,Vilnius,Vilnius City Municipality,Vilnius
80.209.226.19,4,6,autopolis.lt,LT,Europe,Northern Europe,Lithuania,,,
45.84.205.124,4,337,baeaalteeb.com,LT,Europe,Northern Europe,Lithuania,Vilnius,Vilnius City Municipality,Vilnius
92.61.37.73,4,11,baldeksita.lt,LT,Europe,Northern Europe,Lithuania,,,
194.135.87.144,4,52,balduformule.lt,LT,Europe,Northern Europe,Lithuania,,,
92.62.135.228,4,36,balt.net,LT,Europe,Northern Europe,Lithuania,Kaunas,Kaunas,Kaunas
158.129.159.145,4,7,bebras.org,LT,Europe,Northern Europe,Lithuania,Vilnius,Vilnius City Municipality,Vilnius
62.77.153.100,4,8,beevolve.com,LT,Europe,Northern Europe,Lithuania,,,
80.208.225.148,4,7,bluessoulfunk.com,LT,Europe,Northern Europe,Lithuania,,,
45.93.137.38,4,8,brusvyana.com.ua,LT,Europe,Northern Europe,Lithuania,Vilnius,Vilnius City Municipality,Vilnius
79.98.26.107,4,19,buyanycarnow.com,LT,Europe,Northern Europe,Lithuania,,,
92.242.187.150,4,12,cabar.asia,LT,Europe,Northern Europe,Lithuania,Vilnius,Vilnius City Municipality,Vilnius
194.135.87.90,4,16,calconic.com,LT,Europe,Northern Europe,Lithuania,,,
92.62.140.27,4,4,canyon.eu,LT,Europe,Northern Europe,Lithuania,Kaunas,Kaunas,Kaunas
45.84.205.195,4,23,cartier.md,LT,Europe,Northern Europe,Lithuania,Vilnius,Vilnius City Municipality,Vilnius
45.91.139.102,4,3,cfipak.com,LT,Europe,Northern Europe,Lithuania,,,
45.84.204.40,4,515,chandigarh-escorts.com,LT,Europe,Northern Europe,Lithuania,Vilnius,Vilnius City Municipality,Vilnius
46.166.164.101,4,5,circus.com,LT,Europe,Northern Europe,Lithuania,,,
92.61.37.130,4,12,ciurlionis.lt,LT,Europe,Northern Europe,Lithuania,,,
185.5.52.49,4,6,classifieds.lt,LT,Europe,Northern Europe,Lithuania,,,
45.84.204.179,4,126,contactnummernederlands.com,LT,Europe,Northern Europe,Lithuania,Vilnius,Vilnius City Municipality,Vilnius
158.129.170.82,4,2,crystallography.net,LT,Europe,Northern Europe,Lithuania,Vilnius,Vilnius City Municipality,Vilnius
89.40.5.166,4,11,cube.com.gr,LT,Europe,Northern Europe,Lithuania,Vilnius,Vilnius City Municipality,Vilnius
45.84.207.165,4,4,cust.lt,LT,Europe,Northern Europe,Lithuania,Vilnius,Vilnius City Municipality,Vilnius
195.12.188.239,4,6,dailitara.lt,LT,Europe,Northern Europe,Lithuania,Vilnius,Vilnius City Municipality,Vilnius
79.98.25.30,4,76,dasita.com,LT,Europe,Northern Europe,Lithuania,,,
91.234.200.113,4,9,dcdn.lt,LT,Europe,Northern Europe,Lithuania,,,
91.234.200.112,4,6,dcdn.lt,LT,Europe,Northern Europe,Lithuania,,,
91.234.200.114,4,-1,dcdn.lt,LT,Europe,Northern Europe,Lithuania,,,
91.234.200.110,4,4,dcdn.lt,LT,Europe,Northern Europe,Lithuania,,,
91.234.200.111,4,10,dcdn.lt,LT,Europe,Northern Europe,Lithuania,,,
45.84.204.82,4,49,deus.lt,LT,Europe,Northern Europe,Lithuania,Vilnius,Vilnius City Municipality,Vilnius
176.223.142.241,4,4,dfwk.ru,LT,Europe,Northern Europe,Lithuania,Vilnius,Vilnius City Municipality,Vilnius
194.135.87.74,4,53,dmvilija.lt,LT,Europe,Northern Europe,Lithuania,,,
78.31.231.139,4,28812,DNS Server: 78-31-231-139.ip.airnet.lt,LT,Europe,Northern Europe,Lithuania,Kaunas,Kaunas,Kaunas
81.7.101.26,4,-4089834,DNS Server: 81-7-101-26.static.zebra.lt,LT,Europe,Northern Europe,Lithuania,Kaunas,Kaunas,Kaunas
81.7.104.226,4,20730,DNS Server: 81-7-104-226.static.zebra.lt,LT,Europe,Northern Europe,Lithuania,Vilnius,Vilnius City Municipality,Vilnius
81.7.77.3,4,11023,DNS Server: 81-7-77-3.static.zebra.lt,LT,Europe,Northern Europe,Lithuania,Vilnius,Vilnius City Municipality,Vilnius
81.7.86.154,4,44,DNS Server: 81-7-86-154.static.zebra.lt,LT,Europe,Northern Europe,Lithuania,Kaunas,Kaunas,Kaunas
81.7.88.177,4,55,DNS Server: 81-7-88-177.static.zebra.lt,LT,Europe,Northern Europe,Lithuania,Vilnius,Vilnius City Municipality,Vilnius
81.7.89.171,4,38088,DNS Server: 81-7-89-171.static.zebra.lt,LT,Europe,Northern Europe,Lithuania,Vilnius,Vilnius City Municipality,Vilnius
81.7.94.169,4,41317,DNS Server: 81-7-94-169.static.zebra.lt,LT,Europe,Northern Europe,Lithuania,Kaunas,Kaunas,Kaunas
81.7.94.177,4,28710,DNS Server: 81-7-94-177.static.zebra.lt,LT,Europe,Northern Europe,Lithuania,Kaunas,Kaunas,Kaunas
82.135.130.151,4,53463,DNS Server: 82-135-130-151.static.zebra.lt,LT,Europe,Northern Europe,Lithuania,Vilnius,Vilnius City Municipality,Vilnius
82.135.143.176,4,1481,DNS Server: 82-135-143-176.static.zebra.lt,LT,Europe,Northern Europe,Lithuania,Kaunas,Kaunas District Municipality,Ringaudai
82.135.197.108,4,-13552,DNS Server: 82-135-197-108.static.zebra.lt,LT,Europe,Northern Europe,Lithuania,Klaipėda County,Klaipėda City Municipality,Klaipėda
82.135.203.178,4,35500,DNS Server: 82-135-203-178.static.zebra.lt,LT,Europe,Northern Europe,Lithuania,Vilnius,Vilnius City Municipality,Vilnius
82.135.255.112,4,67234,DNS Server: 82-135-255-112.static.zebra.lt,LT,Europe,Northern Europe,Lithuania,Vilnius,Vilnius City Municipality,Vilnius
85.206.10.221,4,-3635,DNS Server: 85-206-10-221.static.zebra.lt,LT,Europe,Northern Europe,Lithuania,Kaunas,Kaunas,Kaunas
85.206.12.136,4,186,DNS Server: 85-206-12-136.static.zebra.lt,LT,Europe,Northern Europe,Lithuania,Vilnius,Vilnius City Municipality,Vilnius
85.206.34.2,4,181,DNS Server: 85-206-34-2.static.zebra.lt,LT,Europe,Northern Europe,Lithuania,,,
85.206.7.245,4,1506,DNS Server: 85-206-7-245.static.zebra.lt,LT,Europe,Northern Europe,Lithuania,Vilnius,Vilnius City Municipality,Vilnius
85.255.111.7,4,7270,DNS Server: 85-255-111-x.csc.lt,LT,Europe,Northern Europe,Lithuania,Vilnius,Vilnius City Municipality,Vilnius
86.100.63.150,4,12902,DNS Server: 86-100-63-150-ip.balticum.lt,LT,Europe,Northern Europe,Lithuania,Klaipėda County,Klaipėda City Municipality,Palanga
86.100.73.241,4,-45067443,DNS Server: 86-100-73-241-ip.balticum.lt,LT,Europe,Northern Europe,Lithuania,Klaipėda County,Klaipėda City Municipality,Klaipėda
88.119.13.25,4,149,DNS Server: 88-119-13-25.static.zebra.lt,LT,Europe,Northern Europe,Lithuania,Vilnius,Vilnius City Municipality,Vilnius
88.119.13.76,4,15,DNS Server: 88-119-13-76.static.zebra.lt,LT,Europe,Northern Europe,Lithuania,Vilnius,Vilnius City Municipality,Vilnius
88.119.131.106,4,164446,DNS Server: 88-119-131-106.static.zebra.lt,LT,Europe,Northern Europe,Lithuania,Vilnius,Vilnius City Municipality,Vilnius
88.119.135.106,4,1340409,DNS Server: 88-119-135-106.static.zebra.lt,LT,Europe,Northern Europe,Lithuania,Vilnius,Vilnius City Municipality,Vilnius
88.119.135.155,4,48636,DNS Server: 88-119-135-155.static.zebra.lt,LT,Europe,Northern Europe,Lithuania,Vilnius,Vilnius City Municipality,Vilnius
88.119.137.191,4,22906,DNS Server: 88-119-137-191.static.zebra.lt,LT,Europe,Northern Europe,Lithuania,Klaipėda County,Klaipėda City Municipality,Klaipėda
88.119.153.69,4,17,DNS Server: 88-119-153-69.static.zebra.lt,LT,Europe,Northern Europe,Lithuania,Panevėžys,Panevėžys City,Panevezys
88.119.17.116,4,24,DNS Server: 88-119-17-116.static.zebra.lt,LT,Europe,Northern Europe,Lithuania,Vilnius,Vilnius City Municipality,Vilnius
88.119.17.38,4,8,DNS Server: 88-119-17-38.static.zebra.lt,LT,Europe,Northern Europe,Lithuania,Vilnius,Vilnius City Municipality,Vilnius
88.119.185.209,4,1609,DNS Server: 88-119-185-209.static.zebra.lt,LT,Europe,Northern Europe,Lithuania,Kaunas,Kaunas,Kaunas
88.119.189.110,4,13399,DNS Server: 88-119-189-110.static.zebra.lt,LT,Europe,Northern Europe,Lithuania,Vilnius,Vilnius City Municipality,Vilnius
88.119.189.16,4,45270,DNS Server: 88-119-189-16.static.zebra.lt,LT,Europe,Northern Europe,Lithuania,Vilnius,Vilnius City Municipality,Vilnius
88.119.203.185,4,160256,DNS Server: 88-119-203-185.static.zebra.lt,LT,Europe,Northern Europe,Lithuania,Kaunas,Kaunas,Kaunas
88.119.203.196,4,-234,DNS Server: 88-119-203-196.static.zebra.lt,LT,Europe,Northern Europe,Lithuania,Kaunas,Kaunas,Kaunas
88.119.203.210,4,51,DNS Server: 88-119-203-210.static.zebra.lt,LT,Europe,Northern Europe,Lithuania,Kaunas,Kaunas,Kaunas
88.119.249.215,4,10578,DNS Server: 88-119-249-215.static.zebra.lt,LT,Europe,Northern Europe,Lithuania,Vilnius,Vilnius City Municipality,Vilnius
88.119.249.83,4,52835,DNS Server: 88-119-249-83.static.zebra.lt,LT,Europe,Northern Europe,Lithuania,Vilnius,Vilnius City Municipality,Vilnius
88.119.87.88,4,956,DNS Server: 88-119-87-88.static.zebra.lt,LT,Europe,Northern Europe,Lithuania,Vilnius,Vilnius City Municipality,Vilnius
88.119.95.68,4,4,DNS Server: 88-119-95-68.static.zebra.lt,LT,Europe,Northern Europe,Lithuania,Vilnius,Vilnius City Municipality,Vilnius
91.233.176.248,4,8,DNS Server: 91-233-176-248.inet.vub.lt,LT,Europe,Northern Europe,Lithuania,,,
94.244.65.12,4,12911,DNS Server: 94-244-65-12.ip.kis.lt,LT,Europe,Northern Europe,Lithuania,Kaunas,Kaunas,Kaunas
82.135.248.229,4,46735,DNS Server: centrofm.lt,LT,Europe,Northern Europe,Lithuania,Vilnius,Vilnius City Municipality,Vilnius
89.40.5.104,4,118,DNS Server: cloud.ultrainvest.net,LT,Europe,Northern Europe,Lithuania,Vilnius,Vilnius City Municipality,Vilnius
5.20.117.214,4,14324,DNS Server: data-117-214.cgates.lt,LT,Europe,Northern Europe,Lithuania,Vilnius,Vilnius City Municipality,Vilnius
5.20.124.179,4,38653,DNS Server: data-124-179.cgates.lt,LT,Europe,Northern Europe,Lithuania,Vilnius,Vilnius City Municipality,Vilnius
5.20.55.231,4,946,DNS Server: data-55-231.cgates.lt,LT,Europe,Northern Europe,Lithuania,Alytus,Alytus City Municipality,Alytus
5.20.98.219,4,6808,DNS Server: data-98-219.cgates.lt,LT,Europe,Northern Europe,Lithuania,Vilnius,Vilnius City Municipality,Vilnius
212.52.39.39,4,5,DNS Server: data2-39-39.cgates.lt,LT,Europe,Northern Europe,Lithuania,Panevėžys,Panevėžys City,Panevezys
77.221.95.210,4,857890,DNS Server: data2-95-210.cgates.lt,LT,Europe,Northern Europe,Lithuania,Panevėžys,Panevėžys City,Panevezys
94.176.233.93,4,170,DNS Server: dns.comss.one,LT,Europe,Northern Europe,Lithuania,Vilnius,Vilnius City Municipality,Vilnius
213.226.186.10,4,451,DNS Server: gw.fastlink.lt,LT,Europe,Northern Europe,Lithuania,Vilnius,Vilnius City Municipality,Vilnius
94.232.224.101,4,35181,DNS Server: host-94-232-224-101.etanetas.lt,LT,Europe,Northern Europe,Lithuania,Vilnius,Šalčininkai District Municipality,Šalčininkai
46.148.26.231,4,10,DNS Server: ip-46-148-26-231.infiumhost.net,LT,Europe,Northern Europe,Lithuania,,,
46.148.26.40,4,9,DNS Server: ip-46-148-26-40.infiumhost.net,LT,Europe,Northern Europe,Lithuania,,,
46.36.77.153,4,31995,DNS Server: ip-77-153.rev.kli.lt,LT,Europe,Northern Europe,Lithuania,Kaunas,Kėdainiai District Municipality,Kėdainiai
46.36.77.154,4,15718,DNS Server: ip-77-154.rev.kli.lt,LT,Europe,Northern Europe,Lithuania,Kaunas,Kėdainiai District Municipality,Kėdainiai
46.36.77.49,4,57168,DNS Server: ip-77-49.rev.kli.lt,LT,Europe,Northern Europe,Lithuania,Kaunas,Kėdainiai District Municipality,Kėdainiai
46.36.77.99,4,37872,DNS Server: ip-77-99.rev.kli.lt,LT,Europe,Northern Europe,Lithuania,Kaunas,Kėdainiai District Municipality,Kėdainiai
88.119.128.20,4,239,DNS Server: kaunas.mediaskopas.lt,LT,Europe,Northern Europe,Lithuania,Vilnius,Vilnius City Municipality,Vilnius
88.119.29.161,4,280,DNS Server: mail1.telpro.lt,LT,Europe,Northern Europe,Lithuania,Vilnius,Vilnius City Municipality,Vilnius
79.98.25.35,4,5,dra.lt,LT,Europe,Northern Europe,Lithuania,,,
194.59.167.166,4,6,druskininkai.lt,LT,Europe,Northern Europe,Lithuania,Vilnius,Vilnius City Municipality,Vilnius
185.23.16.8,4,8122,e-raskrutka.ru,LT,Europe,Northern Europe,Lithuania,,,
109.235.68.147,4,6,echogonewrong.com,LT,Europe,Northern Europe,Lithuania,,,
185.58.65.47,4,149,efoto.lt,LT,Europe,Northern Europe,Lithuania,Kaunas,Kaunas,Kaunas
185.172.175.79,4,33,egemenerd.com,LT,Europe,Northern Europe,Lithuania,,,
45.84.206.244,4,6,egp.hr,LT,Europe,Northern Europe,Lithuania,Vilnius,Vilnius City Municipality,Vilnius
109.235.68.141,4,28,ekmeta.lt,LT,Europe,Northern Europe,Lithuania,,,
91.204.73.149,4,37,electricalschool.info,LT,Europe,Northern Europe,Lithuania,,,
91.204.72.48,4,89,electricalschool.info,LT,Europe,Northern Europe,Lithuania,,,
45.84.205.235,4,4,enchantedtraveltx.com,LT,Europe,Northern Europe,Lithuania,Vilnius,Vilnius City Municipality,Vilnius
92.61.37.88,4,6,enseccoe.org,LT,Europe,Northern Europe,Lithuania,,,
185.229.115.155,4,18,erasmusplus.org.ua,LT,Europe,Northern Europe,Lithuania,Vilnius,Vilnius City Municipality,Vilnius
92.61.37.133,4,4,esf.lt,LT,Europe,Northern Europe,Lithuania,,,
185.210.234.25,4,7,eternitylaw.com,LT,Europe,Northern Europe,Lithuania,Vilnius,Vilnius City Municipality,Vilnius
79.98.24.109,4,72,etest.lt,LT,Europe,Northern Europe,Lithuania,,,
45.84.206.119,4,50,ets.lv,LT,Europe,Northern Europe,Lithuania,Vilnius,Vilnius City Municipality,Vilnius
212.24.107.244,4,61,euromelanoma.eu,LT,Europe,Northern Europe,Lithuania,Vilnius,Vilnius City Municipality,Vilnius
194.135.87.149,4,4,euronanomed.net,LT,Europe,Northern Europe,Lithuania,,,
193.219.5.94,4,6,europosparkas.lt,LT,Europe,Northern Europe,Lithuania,,,
195.182.64.254,4,2,eviesiejipirkimai.lt,LT,Europe,Northern Europe,Lithuania,Vilnius,Vilnius City Municipality,Vilnius
45.84.207.163,4,3,farmersreviewafrica.com,LT,Europe,Northern Europe,Lithuania,Vilnius,Vilnius City Municipality,Vilnius
194.135.86.126,4,7,feederfishing.lt,LT,Europe,Northern Europe,Lithuania,,,
109.235.69.29,4,6,festagent.com,LT,Europe,Northern Europe,Lithuania,,,
194.135.87.209,4,3,filharmonija.lt,LT,Europe,Northern Europe,Lithuania,,,
185.193.24.44,4,-33,fire.lt,LT,Europe,Northern Europe,Lithuania,,,
45.84.207.61,4,4,fivesimplesteps.com,LT,Europe,Northern Europe,Lithuania,Vilnius,Vilnius City Municipality,Vilnius
79.98.29.23,4,6,fksuduva.lt,LT,Europe,Northern Europe,Lithuania,,,
62.77.153.150,4,6,forensic.to,LT,Europe,Northern Europe,Lithuania,,,
85.206.243.4,4,623,fotodelione.lt,LT,Europe,Northern Europe,Lithuania,,,
185.186.25.182,4,6,freedatingsiteall.com,LT,Europe,Northern Europe,Lithuania,Vilnius,Vilnius City Municipality,Vilnius
109.235.66.132,4,5,fructusartis.com,LT,Europe,Northern Europe,Lithuania,,,
193.219.52.15,4,5,ftmc.lt,LT,Europe,Northern Europe,Lithuania,,,
79.98.24.188,4,6,gamta.lt,LT,Europe,Northern Europe,Lithuania,,,
79.98.26.78,4,37,gerisendaikciai.lt,LT,Europe,Northern Europe,Lithuania,,,
212.80.217.102,4,23,get-tune.net,LT,Europe,Northern Europe,Lithuania,,,
79.98.28.8,4,5,giriosgrybas.lt,LT,Europe,Northern Europe,Lithuania,,,
109.235.64.197,4,26,girteka.eu,LT,Europe,Northern Europe,Lithuania,,,
212.237.232.138,4,8,greitojipagalba.lt,LT,Europe,Northern Europe,Lithuania,Vilnius,Vilnius City Municipality,Vilnius
213.159.63.54,4,3208,gyvunugloba.lt,LT,Europe,Northern Europe,Lithuania,Vilnius,Vilnius City Municipality,Vilnius
194.59.167.224,4,829,help-wifi.com,LT,Europe,Northern Europe,Lithuania,Vilnius,Vilnius City Municipality,Vilnius
89.40.4.23,4,19,himmera.com,LT,Europe,Northern Europe,Lithuania,Vilnius,Vilnius City Municipality,Vilnius
79.98.24.251,4,16,hiperfarma.lt,LT,Europe,Northern Europe,Lithuania,,,
45.84.207.197,4,10,hipforums.net,LT,Europe,Northern Europe,Lithuania,Vilnius,Vilnius City Municipality,Vilnius
79.98.24.8,4,41,holodinamika.lt,LT,Europe,Northern Europe,Lithuania,,,
194.59.167.121,4,9,hookupslove.com,LT,Europe,Northern Europe,Lithuania,Vilnius,Vilnius City Municipality,Vilnius
45.84.204.131,4,39,hosierymandi.in,LT,Europe,Northern Europe,Lithuania,Vilnius,Vilnius City Municipality,Vilnius
217.117.28.149,4,83,humbaur-priekabos.lt,LT,Europe,Northern Europe,Lithuania,Vilnius,Vilnius City Municipality,Vilnius
212.237.233.126,4,4,hypography.com,LT,Europe,Northern Europe,Lithuania,Vilnius,Vilnius City Municipality,Vilnius
45.88.198.29,4,10,indicaflower.exposed,LT,Europe,Northern Europe,Lithuania,Vilnius,Vilnius City Municipality,Vilnius
88.119.175.215,4,4,indigenouspeoplesissues.com,LT,Europe,Northern Europe,Lithuania,,,
92.61.33.98,4,67,info.lt,LT,Europe,Northern Europe,Lithuania,,,
79.98.26.38,4,16,infoknygos.lt,LT,Europe,Northern Europe,Lithuania,,,
45.84.204.120,4,26,infotrope.net,LT,Europe,Northern Europe,Lithuania,Vilnius,Vilnius City Municipality,Vilnius
45.84.204.119,4,4,insanegamesonline.com,LT,Europe,Northern Europe,Lithuania,Vilnius,Vilnius City Municipality,Vilnius
93.127.213.67,4,37,intotheminds.com,LT,Europe,Northern Europe,Lithuania,Vilnius,Vilnius City Municipality,Vilnius
176.223.141.103,4,3,invega.lt,LT,Europe,Northern Europe,Lithuania,Vilnius,Vilnius City Municipality,Vilnius
194.59.166.10,4,400,investlithuania.com,LT,Europe,Northern Europe,Lithuania,Vilnius,Vilnius City Municipality,Vilnius
89.47.164.60,4,6,islamictravel.co.uk,LT,Europe,Northern Europe,Lithuania,,,
185.38.167.122,4,19,it-forum.com.ua,LT,Europe,Northern Europe,Lithuania,,,
45.84.207.115,4,9,itgovernanceturkey.com,LT,Europe,Northern Europe,Lithuania,Vilnius,Vilnius City Municipality,Vilnius
194.135.87.246,4,12,iv.lt,LT,Europe,Northern Europe,Lithuania,,,
79.98.25.34,4,4,jachta.lt,LT,Europe,Northern Europe,Lithuania,,,
194.135.87.86,4,5,jankrogh.com,LT,Europe,Northern Europe,Lithuania,,,
79.98.28.31,4,3,jmuseum.lt,LT,Europe,Northern Europe,Lithuania,,,
79.98.28.13,4,4,justoffbase.co.uk,LT,Europe,Northern Europe,Lithuania,,,
88.119.163.30,4,-49,kaipkada.lt,LT,Europe,Northern Europe,Lithuania,,,
193.106.29.38,4,-28,kazachya.net,LT,Europe,Northern Europe,Lithuania,,,
46.36.66.66,4,-12556,kli.lt,LT,Europe,Northern Europe,Lithuania,Telsiai,Mažeikiai District Municipality,Mažeikiai
185.38.166.207,4,-2,klub-masterov.by,LT,Europe,Northern Europe,Lithuania,,,
193.106.29.35,4,3,kopirki.net,LT,Europe,Northern Europe,Lithuania,,,
213.159.63.4,4,33,kurier.lt,LT,Europe,Northern Europe,Lithuania,Vilnius,Vilnius City Municipality,Vilnius
185.229.114.29,4,164,kurierwilenski.lt,LT,Europe,Northern Europe,Lithuania,Vilnius,Vilnius City Municipality,Vilnius
212.237.232.4,4,6,kurtsharai.lt,LT,Europe,Northern Europe,Lithuania,Vilnius,Vilnius City Municipality,Vilnius
79.98.28.20,4,7,kvoseliai.lt,LT,Europe,Northern Europe,Lithuania,,,
212.237.233.39,4,18,laluna.lt,LT,Europe,Northern Europe,Lithuania,Vilnius,Vilnius City Municipality,Vilnius
193.219.65.3,4,3,lcn.lt,LT,Europe,Northern Europe,Lithuania,Kaunas,Kaunas,Kaunas
45.84.205.133,4,374,ledabel.be,LT,Europe,Northern Europe,Lithuania,Vilnius,Vilnius City Municipality,Vilnius
78.56.117.121,4,12192990,lemmy.lt,LT,Europe,Northern Europe,Lithuania,Vilnius,Vilnius City Municipality,Vilnius
79.98.26.17,4,4,lese.lt,LT,Europe,Northern Europe,Lithuania,,,
62.77.153.202,4,4,lff.lt,LT,Europe,Northern Europe,Lithuania,,,
194.59.166.17,4,3,lgl.lt,LT,Europe,Northern Europe,Lithuania,Vilnius,Vilnius City Municipality,Vilnius
92.62.143.115,4,6,lietus.fm,LT,Europe,Northern Europe,Lithuania,Kaunas,Kaunas,Kaunas
80.209.224.180,4,9,lietuviuzodynas.lt,LT,Europe,Northern Europe,Lithuania,,,
91.216.163.90,4,3,linkevicius.com,LT,Europe,Northern Europe,Lithuania,,,
194.135.87.137,4,44,lithhof.org,LT,Europe,Northern Europe,Lithuania,,,
92.61.37.90,4,4,lithuanianculture.lt,LT,Europe,Northern Europe,Lithuania,,,
92.61.37.68,4,4,lkc.lt,LT,Europe,Northern Europe,Lithuania,,,
194.135.87.69,4,4,lki.lt,LT,Europe,Northern Europe,Lithuania,,,
185.210.234.171,4,10,llri.lt,LT,Europe,Northern Europe,Lithuania,Vilnius,Vilnius City Municipality,Vilnius
109.235.64.144,4,3,lnkc.lt,LT,Europe,Northern Europe,Lithuania,,,
92.61.37.154,4,12,lsb.lt,LT,Europe,Northern Europe,Lithuania,,,
193.219.163.91,4,22,lsmu.lt,LT,Europe,Northern Europe,Lithuania,Kaunas,Kaunas,Kaunas
193.219.163.212,4,5,lsmuni.lt,LT,Europe,Northern Europe,Lithuania,Kaunas,Kaunas,Kaunas
193.219.75.229,4,13,lsu.lt,LT,Europe,Northern Europe,Lithuania,Kaunas,Kaunas,Kaunas
109.235.68.247,4,6,ltkt.lt,LT,Europe,Northern Europe,Lithuania,,,
194.135.91.15,4,116455,ltok.lt,LT,Europe,Northern Europe,Lithuania,,,
77.37.72.170,4,17,luluserv.net,LT,Europe,Northern Europe,Lithuania,Vilnius,Vilnius City Municipality,Vilnius
85.206.140.184,4,5,lzb.lt,LT,Europe,Northern Europe,Lithuania,,,
92.62.143.191,4,4,m-1.fm,LT,Europe,Northern Europe,Lithuania,Kaunas,Kaunas,Kaunas
79.98.24.85,4,19,madeinshoreditch.co.uk,LT,Europe,Northern Europe,Lithuania,,,
45.84.207.50,4,53,maichn.com,LT,Europe,Northern Europe,Lithuania,Vilnius,Vilnius City Municipality,Vilnius
212.24.99.19,4,156,maistobankas.lt,LT,Europe,Northern Europe,Lithuania,Vilnius,Vilnius City Municipality,Vilnius
45.84.207.123,4,44,meatportal.com.ua,LT,Europe,Northern Europe,Lithuania,Vilnius,Vilnius City Municipality,Vilnius
45.84.207.128,4,36,medinatransfer.com.ua,LT,Europe,Northern Europe,Lithuania,Vilnius,Vilnius City Municipality,Vilnius
79.98.24.116,4,67,medwill.lt,LT,Europe,Northern Europe,Lithuania,,,
194.135.87.124,4,85,metodikos.lt,LT,Europe,Northern Europe,Lithuania,,,
45.84.204.136,4,81,mgma.lt,LT,Europe,Northern Europe,Lithuania,Vilnius,Vilnius City Municipality,Vilnius
80.208.225.244,4,21,mic.lt,LT,Europe,Northern Europe,Lithuania,,,
85.206.243.137,4,620,miltinukas.lt,LT,Europe,Northern Europe,Lithuania,,,
213.226.189.251,4,1262,mitragroup.eu,LT,Europe,Northern Europe,Lithuania,Vilnius,Vilnius City Municipality,Vilnius
212.237.233.84,4,14,mo.lt,LT,Europe,Northern Europe,Lithuania,Vilnius,Vilnius City Municipality,Vilnius
45.84.205.79,4,17,mohanmechanical.com,LT,Europe,Northern Europe,Lithuania,Vilnius,Vilnius City Municipality,Vilnius
92.62.138.99,4,29,moteris.lt,LT,Europe,Northern Europe,Lithuania,Kaunas,Kaunas,Kaunas
193.219.57.207,4,6,mruni.eu,LT,Europe,Northern Europe,Lithuania,Vilnius,Vilnius City Municipality,Vilnius
92.62.135.13,4,11,muziejus.lt,LT,Europe,Northern Europe,Lithuania,Kaunas,Kaunas,Kaunas
45.88.198.17,4,10,mykonos.plus,LT,Europe,Northern Europe,Lithuania,Vilnius,Vilnius City Municipality,Vilnius
194.135.86.106,4,7,mylistworld.com,LT,Europe,Northern Europe,Lithuania,,,
46.17.175.28,4,40,mypastelink.com,LT,Europe,Northern Europe,Lithuania,Vilnius,Vilnius City Municipality,Vilnius
79.98.26.3,4,13,mytdf.biz,LT,Europe,Northern Europe,Lithuania,,,
79.98.24.174,4,6,namuvaldymas.lt,LT,Europe,Northern Europe,Lithuania,,,
185.5.53.21,4,6,nanoavionics.com,LT,Europe,Northern Europe,Lithuania,,,
194.135.87.60,4,69,narbutas.com,LT,Europe,Northern Europe,Lithuania,,,
45.84.204.38,4,513,nasygnale.pl,LT,Europe,Northern Europe,Lithuania,Vilnius,Vilnius City Municipality,Vilnius
79.98.25.212,4,24,nedelia.lt,LT,Europe,Northern Europe,Lithuania,,,
45.93.136.77,4,8,neuroquantology.com,LT,Europe,Northern Europe,Lithuania,Vilnius,Vilnius City Municipality,Vilnius
45.84.205.185,4,44,newscryptocoin.com,LT,Europe,Northern Europe,Lithuania,Vilnius,Vilnius City Municipality,Vilnius
79.98.24.29,4,25,nidacolony.lt,LT,Europe,Northern Europe,Lithuania,,,
109.235.66.47,4,9,ollex.lt,LT,Europe,Northern Europe,Lithuania,,,
212.237.233.10,4,4,omroeptilburg.nl,LT,Europe,Northern Europe,Lithuania,Vilnius,Vilnius City Municipality,Vilnius
217.147.40.110,4,19,on.lt,LT,Europe,Northern Europe,Lithuania,,,
86.100.2.54,4,334,Ookla Speedtest Server 3556: stnet1.balticum.lt,LT,Europe,Northern Europe,Lithuania,Klaipėda County,Klaipėda City Municipality,Klaipėda
5.20.0.99,4,317,Ookla Speedtest Server 12265: ookla.cgates.lt,LT,Europe,Northern Europe,Lithuania,Vilnius,Vilnius City Municipality,Vilnius
84.55.36.195,4,155,Ookla Speedtest Server 18277: speedtest-vno.init.lt,LT,Europe,Northern Europe,Lithuania,,,
90.131.23.253,4,299,Ookla Speedtest Server 23617: t2ltspeedtest.tele2.com,LT,Europe,Northern Europe,Lithuania,Vilnius,Vilnius City Municipality,Vilnius
94.232.231.245,4,345,Ookla Speedtest Server 35685: st.etanetas.lt,LT,Europe,Northern Europe,Lithuania,Vilnius,Šalčininkai District Municipality,Šalčininkai
84.32.231.36,4,357,Ookla Speedtest Server 44822: speedtest.awmbilisim.com,LT,Europe,Northern Europe,Lithuania,,,
62.80.224.146,4,238,Ookla Speedtest Server 47045: speedtest.splius.lt,LT,Europe,Northern Europe,Lithuania,Siauliai,Šiauliai City Municipality,Šiauliai
185.82.93.89,4,252,Ookla Speedtest Server 62473: speedtest.datalogistics.lt,LT,Europe,Northern Europe,Lithuania,Vilnius,Vilnius City Municipality,Vilnius
80.208.225.202,4,3,opentv.media,LT,Europe,Northern Europe,Lithuania,,,
92.62.139.242,4,3,opera.lt,LT,Europe,Northern Europe,Lithuania,Kaunas,Kaunas,Kaunas
62.77.153.110,4,31,orthodoxphotos.com,LT,Europe,Northern Europe,Lithuania,,,
194.135.84.135,4,6,panducollege.org,LT,Europe,Northern Europe,Lithuania,,,
212.237.232.19,4,91,part.lt,LT,Europe,Northern Europe,Lithuania,Vilnius,Vilnius City Municipality,Vilnius
79.98.29.34,4,51,patchstorage.com,LT,Europe,Northern Europe,Lithuania,,,
45.84.204.55,4,33,placestoseeinyourlifetime.com,LT,Europe,Northern Europe,Lithuania,Vilnius,Vilnius City Municipality,Vilnius
79.98.29.142,4,107989,planet-today.com,LT,Europe,Northern Europe,Lithuania,,,
79.98.25.142,4,-76032,planet-today.com,LT,Europe,Northern Europe,Lithuania,,,
45.88.197.185,4,54,podology.shop,LT,Europe,Northern Europe,Lithuania,Vilnius,Vilnius City Municipality,Vilnius
45.84.207.105,4,47,pokerdomonline.site,LT,Europe,Northern Europe,Lithuania,Vilnius,Vilnius City Municipality,Vilnius
92.62.128.111,4,46,prestigio.com,LT,Europe,Northern Europe,Lithuania,Kaunas,Kaunas,Kaunas
176.223.139.10,4,6,prestigioapp.com,LT,Europe,Northern Europe,Lithuania,Vilnius,Vilnius City Municipality,Vilnius
185.58.65.21,4,187,prim.lt,LT,Europe,Northern Europe,Lithuania,Kaunas,Kaunas,Kaunas
92.61.37.155,4,9,proomnia.lt,LT,Europe,Northern Europe,Lithuania,,,
46.17.175.89,4,8,propecia.today,LT,Europe,Northern Europe,Lithuania,Vilnius,Vilnius City Municipality,Vilnius
79.98.26.27,4,3,protecha.com,LT,Europe,Northern Europe,Lithuania,,,
77.37.73.196,4,842,proxyti.com,LT,Europe,Northern Europe,Lithuania,Vilnius,Vilnius City Municipality,Vilnius
79.98.25.46,4,27,psichologas.eu,LT,Europe,Northern Europe,Lithuania,,,
109.235.70.123,4,7,psychiatria-danubina.com,LT,Europe,Northern Europe,Lithuania,,,
45.84.204.115,4,3,qurastad.se,LT,Europe,Northern Europe,Lithuania,Vilnius,Vilnius City Municipality,Vilnius
46.17.175.189,4,32,rabota-lugansk.com.ua,LT,Europe,Northern Europe,Lithuania,Vilnius,Vilnius City Municipality,Vilnius
79.98.24.19,4,25,raico.lt,LT,Europe,Northern Europe,Lithuania,,,
79.98.24.124,4,5,redcross.lt,LT,Europe,Northern Europe,Lithuania,,,
85.206.151.14,4,37,regitra.lt,LT,Europe,Northern Europe,Lithuania,,,
185.5.53.17,4,22,renkuosilietuva.lt,LT,Europe,Northern Europe,Lithuania,,,
45.84.207.155,4,26,reopen911.org,LT,Europe,Northern Europe,Lithuania,Vilnius,Vilnius City Municipality,Vilnius
109.235.66.124,4,40,rttax.com,LT,Europe,Northern Europe,Lithuania,,,
62.77.158.21,4,5,rupert.lt,LT,Europe,Northern Europe,Lithuania,,,
45.84.205.18,4,21,saitas.lt,LT,Europe,Northern Europe,Lithuania,Vilnius,Vilnius City Municipality,Vilnius
89.249.95.80,4,15,sakalas.eu,LT,Europe,Northern Europe,Lithuania,Vilnius,Vilnius City Municipality,Vilnius
46.17.175.131,4,52,salija.lt,LT,Europe,Northern Europe,Lithuania,Vilnius,Vilnius City Municipality,Vilnius
92.61.37.67,4,12,santa.lt,LT,Europe,Northern Europe,Lithuania,,,
213.226.189.244,4,1231,savespazinimas.lt,LT,Europe,Northern Europe,Lithuania,Vilnius,Vilnius City Municipality,Vilnius
185.229.115.13,4,11,scienceprog.com,LT,Europe,Northern Europe,Lithuania,Vilnius,Vilnius City Municipality,Vilnius
194.135.87.143,4,5,scientiasocialis.lt,LT,Europe,Northern Europe,Lithuania,,,
195.12.190.196,4,23,sekunde.lt,LT,Europe,Northern Europe,Lithuania,Vilnius,Vilnius City Municipality,Vilnius
79.98.26.34,4,21,selcomsecurity.com,LT,Europe,Northern Europe,Lithuania,,,
79.98.29.7,4,34,senovinesplytos.lt,LT,Europe,Northern Europe,Lithuania,,,
45.84.204.51,4,2,seoexpertmary.com,LT,Europe,Northern Europe,Lithuania,Vilnius,Vilnius City Municipality,Vilnius
79.98.24.240,4,4,serveriai.lt,LT,Europe,Northern Europe,Lithuania,,,
194.135.87.167,4,3,shipinspection.eu,LT,Europe,Northern Europe,Lithuania,,,
88.119.160.128,4,9,siauliugreitoji.lt,LT,Europe,Northern Europe,Lithuania,,,
109.235.65.13,4,30,silenthillmemories.net,LT,Europe,Northern Europe,Lithuania,,,
92.61.37.76,4,34,skelbimas.lt,LT,Europe,Northern Europe,Lithuania,,,
85.206.161.196,4,37,skrastas.lt,LT,Europe,Northern Europe,Lithuania,Siauliai,Šiauliai City Municipality,Šiauliai
46.166.171.11,4,23,skytech.lt,LT,Europe,Northern Europe,Lithuania,,,
51.255.58.146,4,10,slccglobelink.com,LT,Europe,Northern Europe,Lithuania,Vilnius,Vilnius City Municipality,Vilnius
91.244.197.21,4,32,smartindianews.in,LT,Europe,Northern Europe,Lithuania,Vilnius,Vilnius City Municipality,Vilnius
79.98.28.23,4,6,smk.lt,LT,Europe,Northern Europe,Lithuania,,,
193.219.137.110,4,17,smm.lt,LT,Europe,Northern Europe,Lithuania,Vilnius,Vilnius City Municipality,Vilnius
79.98.29.31,4,27,smpf.lt,LT,Europe,Northern Europe,Lithuania,,,
109.235.64.156,4,4,sovietbunker.com,LT,Europe,Northern Europe,Lithuania,,,
45.84.205.206,4,73,spr.pl,LT,Europe,Northern Europe,Lithuania,Vilnius,Vilnius City Municipality,Vilnius
79.98.24.155,4,12,statybaplius.lt,LT,Europe,Northern Europe,Lithuania,,,
141.136.44.92,4,9,studentladder.co.uk,LT,Europe,Northern Europe,Lithuania,Vilnius,Vilnius City Municipality,Vilnius
185.5.53.33,4,38,studyin.lt,LT,Europe,Northern Europe,Lithuania,,,
217.147.35.8,4,6,sugardas.lt,LT,Europe,Northern Europe,Lithuania,Vilnius,Vilnius City Municipality,Vilnius
45.84.204.138,4,9,sukcespisanyszminka.pl,LT,Europe,Northern Europe,Lithuania,Vilnius,Vilnius City Municipality,Vilnius
194.135.87.59,4,22,svjono.lt,LT,Europe,Northern Europe,Lithuania,,,
194.135.87.111,4,19,tadaocern.com,LT,Europe,Northern Europe,Lithuania,,,
185.5.53.28,4,44,teatras.lt,LT,Europe,Northern Europe,Lithuania,,,
185.58.65.36,4,220,technologijos.lt,LT,Europe,Northern Europe,Lithuania,Kaunas,Kaunas,Kaunas
83.181.61.74,4,4,tele2.lt,LT,Europe,Northern Europe,Lithuania,Vilnius,Vilnius City Municipality,Vilnius
194.135.87.113,4,66,textmessages.eu,LT,Europe,Northern Europe,Lithuania,,,
45.84.205.214,4,6,thecustomizedboxes.com,LT,Europe,Northern Europe,Lithuania,Vilnius,Vilnius City Municipality,Vilnius
194.135.87.19,4,66,thepaddockmagazine.com,LT,Europe,Northern Europe,Lithuania,,,
109.235.71.199,4,22,theubertech.com,LT,Europe,Northern Europe,Lithuania,,,
45.84.207.169,4,25,tiesos.lt,LT,Europe,Northern Europe,Lithuania,Vilnius,Vilnius City Municipality,Vilnius
62.77.158.79,4,7,titanium.tours,LT,Europe,Northern Europe,Lithuania,,,
213.190.53.9,4,-6785,topdog.lt,LT,Europe,Northern Europe,Lithuania,Kaunas,Kaunas,Kaunas
79.98.29.15,4,45,topessaywritinglist.com,LT,Europe,Northern Europe,Lithuania,,,
45.84.204.4,4,526,totylkoteoria.pl,LT,Europe,Northern Europe,Lithuania,Vilnius,Vilnius City Municipality,Vilnius
92.61.38.39,4,-215022,toysland.lt,LT,Europe,Northern Europe,Lithuania,,,
195.181.241.173,4,8,trakai-visit.lt,LT,Europe,Northern Europe,Lithuania,,,
92.61.37.159,4,43,trakaimuziejus.lt,LT,Europe,Northern Europe,Lithuania,,,
89.47.165.21,4,5,transparencyschool.org,LT,Europe,Northern Europe,Lithuania,,,
45.84.207.174,4,63,travelstudio.com.ua,LT,Europe,Northern Europe,Lithuania,Vilnius,Vilnius City Municipality,Vilnius
194.135.87.47,4,3,truelithuania.com,LT,Europe,Northern Europe,Lithuania,,,
85.206.223.30,4,8,tts.lt,LT,Europe,Northern Europe,Lithuania,Panevėžys,Panevėžys City,Panevezys
195.35.56.238,4,12,ukwritingexperts.co.uk,LT,Europe,Northern Europe,Lithuania,Vilnius,Vilnius City Municipality,Vilnius
80.209.234.39,4,11,urbandead.com,LT,Europe,Northern Europe,Lithuania,,,
212.237.232.61,4,7,vaga.lt,LT,Europe,Northern Europe,Lithuania,Vilnius,Vilnius City Municipality,Vilnius
80.209.224.165,4,5,vaikulinija.lt,LT,Europe,Northern Europe,Lithuania,,,
109.235.64.129,4,32,vakaruinzinerija.lt,LT,Europe,Northern Europe,Lithuania,,,
79.98.28.35,4,58,valdovurumai.lt,LT,Europe,Northern Europe,Lithuania,,,
185.5.53.27,4,17,vda.lt,LT,Europe,Northern Europe,Lithuania,,,
194.135.86.220,4,52,vedrana.lt,LT,Europe,Northern Europe,Lithuania,,,
217.117.28.74,4,11,veidas.lt,LT,Europe,Northern Europe,Lithuania,Vilnius,Vilnius City Municipality,Vilnius
185.79.247.221,4,673,verslilietuva.lt,LT,Europe,Northern Europe,Lithuania,,,
194.135.87.56,4,30,vestuvines.lt,LT,Europe,Northern Europe,Lithuania,,,
194.135.82.58,4,4,veza.lt,LT,Europe,Northern Europe,Lithuania,,,
88.119.166.253,4,31,vhost.lt,LT,Europe,Northern Europe,Lithuania,,,
79.98.26.16,4,5,vilniusfestivals.lt,LT,Europe,Northern Europe,Lithuania,,,
79.98.24.9,4,24,vilniusjazz.lt,LT,Europe,Northern Europe,Lithuania,,,
45.84.204.6,4,528,viptravel.com.pl,LT,Europe,Northern Europe,Lithuania,Vilnius,Vilnius City Municipality,Vilnius
46.166.160.2,4,71,virtonomica.ru,LT,Europe,Northern Europe,Lithuania,,,
45.88.196.47,4,11,visitneringa.com,LT,Europe,Northern Europe,Lithuania,Vilnius,Vilnius City Municipality,Vilnius
92.62.140.103,4,5,vmedija.lt,LT,Europe,Northern Europe,Lithuania,Kaunas,Kaunas,Kaunas
92.62.140.104,4,33,vmedija.lt,LT,Europe,Northern Europe,Lithuania,Kaunas,Kaunas,Kaunas
92.61.37.115,4,56,voruta.lt,LT,Europe,Northern Europe,Lithuania,,,
89.116.15.156,4,87,vrsa.lt,LT,Europe,Northern Europe,Lithuania,,,
79.98.24.117,4,25,vyrukrc.lt,LT,Europe,Northern Europe,Lithuania,,,
92.61.37.82,4,20,w3.lt,LT,Europe,Northern Europe,Lithuania,,,
193.46.84.118,4,34,wappy.lt,LT,Europe,Northern Europe,Lithuania,,,
45.84.207.44,4,6,warainc.org,LT,Europe,Northern Europe,Lithuania,Vilnius,Vilnius City Municipality,Vilnius
185.81.164.85,4,6,wasm.in,LT,Europe,Northern Europe,Lithuania,,,
188.214.128.77,4,4,wastedyouth.org,LT,Europe,Northern Europe,Lithuania,,,
88.119.175.152,4,3,webdesign10.com,LT,Europe,Northern Europe,Lithuania,,,
79.98.28.24,4,12,webitas.lt,LT,Europe,Northern Europe,Lithuania,,,
46.17.175.39,4,15,womenbox.net,LT,Europe,Northern Europe,Lithuania,Vilnius,Vilnius City Municipality,Vilnius
79.98.24.22,4,5,worldbioenergy.org,LT,Europe,Northern Europe,Lithuania,,,
194.59.166.132,4,6,worldestate.homes,LT,Europe,Northern Europe,Lithuania,Vilnius,Vilnius City Municipality,Vilnius
194.135.87.148,4,3,wpshower.com,LT,Europe,Northern Europe,Lithuania,,,
185.150.116.84,4,4,wyjatkowyprezent.pl,LT,Europe,Northern Europe,Lithuania,,,
194.135.86.173,4,4,xn--nubga-8za.lt,LT,Europe,Northern Europe,Lithuania,,,
213.226.176.52,4,1,xxiamzius.lt,LT,Europe,Northern Europe,Lithuania,Kaunas,Kaunas,Kaunas
79.98.26.232,4,21,yousaytoo.com,LT,Europe,Northern Europe,Lithuania,,,
195.181.247.246,4,4,ysv-foorumi.com,LT,Europe,Northern Europe,Lithuania,,,
195.16.91.105,4,3,yuzhnoye.com,LT,Europe,Northern Europe,Lithuania,,,
84.32.84.32,4,4,zhwandoon.com,LT,Europe,Northern Europe,Lithuania,,,
185.11.24.36,4,-1981401,zmones.lt,LT,Europe,Northern Europe,Lithuania,,,
185.11.24.13,4,6813,zmones.lt,LT,Europe,Northern Europe,Lithuania,,,
185.11.24.37,4,-575294,zmones.lt,LT,Europe,Northern Europe,Lithuania,,,
185.11.24.12,4,675523,zmones.lt,LT,Europe,Northern Europe,Lithuania,,,
91.204.72.60,4,4,znamlit.ru,LT,Europe,Northern Europe,Lithuania,,,
45.84.205.122,4,334,znannya.com.ua,LT,Europe,Northern Europe,Lithuania,Vilnius,Vilnius City Municipality,Vilnius
62.72.23.192,4,6,zoloto-club.com,LT,Europe,Northern Europe,Lithuania,Vilnius,Vilnius City Municipality,Vilnius
84.32.84.33,4,3,zoomappdownload.net,LT,Europe,Northern Europe,Lithuania,,,
194.135.88.11,4,4,zoommyapp.com,LT,Europe,Northern Europe,Lithuania,,,
109.235.64.234,4,2,zuvutaukai.lt,LT,Europe,Northern Europe,Lithuania,,,
