reflector_ip,ip_version,offset,description,country_code,region,sub_region,country_name,sub_division_1,sub_division_2,city
65.108.39.53,4,5,1op.pl,FI,Europe,Northern Europe,Finland,Uusimaa,,Helsinki
95.216.27.41,4,4,24online.info,FI,Europe,Northern Europe,Finland,Uusimaa,,Helsinki
135.181.105.21,4,5,259.digital,FI,Europe,Northern Europe,Finland,Uusimaa,,Helsinki
135.181.138.244,4,3,27region.ru,FI,Europe,Northern Europe,Finland,Uusimaa,,Helsinki
95.216.136.169,4,5,2f30.org,FI,Europe,Northern Europe,Finland,Uusimaa,,Helsinki
135.181.253.7,4,4,2playbook.com,FI,Europe,Northern Europe,Finland,Uusimaa,,Helsinki
65.109.23.19,4,3,2yachts.com,FI,Europe,Northern Europe,Finland,Uusimaa,,Helsinki
65.109.169.189,4,1,3d-budmaterial.com.ua,FI,Europe,Northern Europe,Finland,Uusimaa,,Helsinki
65.109.31.135,4,4,3dlancer.net,FI,Europe,Northern Europe,Finland,Uusimaa,,Helsinki
65.21.228.29,4,4,3drap.it,FI,Europe,Northern Europe,Finland,Uusimaa,,Helsinki
135.181.98.166,4,158700,3obieg.pl,FI,Europe,Northern Europe,Finland,Uusimaa,,Helsinki
141.98.169.107,4,8,4nmv.ru,FI,Europe,Northern Europe,Finland,Uusimaa,,Helsinki
65.108.16.99,4,4,5jle.com,FI,Europe,Northern Europe,Finland,Uusimaa,,Helsinki
65.108.85.200,4,2,65ymas.com,FI,Europe,Northern Europe,Finland,Uusimaa,,Helsinki
95.217.209.65,4,-22,7m.pl,FI,Europe,Northern Europe,Finland,Uusimaa,,Helsinki
83.150.67.124,4,12,aaltoee.fi,FI,Europe,Northern Europe,Finland,Uusimaa,,Helsinki
65.109.33.182,4,4,abagroup.co.za,FI,Europe,Northern Europe,Finland,Uusimaa,,Helsinki
95.216.119.106,4,4,abenteuer-resort.de,FI,Europe,Northern Europe,Finland,Uusimaa,,Helsinki
65.21.75.53,4,3,abgo.de,FI,Europe,Northern Europe,Finland,Uusimaa,,Helsinki
65.21.200.28,4,18,abilitychannel.tv,FI,Europe,Northern Europe,Finland,Uusimaa,,Helsinki
185.20.137.133,4,-2671,aboavetusarsnova.fi,FI,Europe,Northern Europe,Finland,,,
135.181.160.175,4,8,academic.ru,FI,Europe,Northern Europe,Finland,Uusimaa,,Helsinki
135.181.177.163,4,5,academic.ru,FI,Europe,Northern Europe,Finland,Uusimaa,,Helsinki
135.181.143.237,4,18,academic.ru,FI,Europe,Northern Europe,Finland,Uusimaa,,Helsinki
95.216.70.57,4,3,acaimacunaima.com.br,FI,Europe,Northern Europe,Finland,Uusimaa,,Helsinki
65.108.122.81,4,32,acapella-extractor.com,FI,Europe,Northern Europe,Finland,Uusimaa,,Helsinki
95.216.189.127,4,1,actionaid.org,FI,Europe,Northern Europe,Finland,Uusimaa,,Helsinki
95.217.187.120,4,1,actionaid.org.br,FI,Europe,Northern Europe,Finland,Uusimaa,,Helsinki
65.108.52.254,4,4,adamant.im,FI,Europe,Northern Europe,Finland,Uusimaa,,Helsinki
65.21.194.246,4,10,addepto.com,FI,Europe,Northern Europe,Finland,Uusimaa,,Helsinki
95.216.138.119,4,8,addonsearch.net,FI,Europe,Northern Europe,Finland,Uusimaa,,Helsinki
31.187.84.42,4,50,adhdaikuiset-foorumi.org,FI,Europe,Northern Europe,Finland,,,
65.21.29.27,4,3,advertigo.net,FI,Europe,Northern Europe,Finland,Uusimaa,,Helsinki
95.217.188.124,4,24,affald-i-naturen.dk,FI,Europe,Northern Europe,Finland,Uusimaa,,Helsinki
95.216.2.94,4,54,afish-ka.ru,FI,Europe,Northern Europe,Finland,Uusimaa,,Helsinki
65.109.13.118,4,3,afo.cz,FI,Europe,Northern Europe,Finland,Uusimaa,,Helsinki
65.109.28.3,4,4,afrikmag.com,FI,Europe,Northern Europe,Finland,Uusimaa,,Helsinki
65.108.16.49,4,7,aghanyna.com,FI,Europe,Northern Europe,Finland,Uusimaa,,Helsinki
95.217.157.128,4,3,agroweb.org,FI,Europe,Northern Europe,Finland,Uusimaa,,Helsinki
95.216.191.249,4,3,aiandus.ee,FI,Europe,Northern Europe,Finland,Uusimaa,,Helsinki
65.21.78.243,4,20,aifi.net,FI,Europe,Northern Europe,Finland,Uusimaa,,Helsinki
65.108.75.89,4,20,aifo.it,FI,Europe,Northern Europe,Finland,Uusimaa,,Helsinki
35.228.59.2,4,18,aik.se,FI,Europe,Northern Europe,Finland,South Karelia Region,,Lappeenranta
35.228.74.97,4,12,ainola.fi,FI,Europe,Northern Europe,Finland,South Karelia Region,,Lappeenranta
65.108.218.208,4,1,aiparadise.moe,FI,Europe,Northern Europe,Finland,Uusimaa,,Helsinki
95.217.93.126,4,2,airkenya.com,FI,Europe,Northern Europe,Finland,Uusimaa,,Helsinki
65.109.122.170,4,18,airmax95.org.uk,FI,Europe,Northern Europe,Finland,Uusimaa,,Helsinki
135.181.205.238,4,18,airtribune.com,FI,Europe,Northern Europe,Finland,Uusimaa,,Helsinki
65.21.116.176,4,4,aivc.org,FI,Europe,Northern Europe,Finland,Uusimaa,,Helsinki
135.181.180.136,4,2,akademiefuerpotentialentfaltung.org,FI,Europe,Northern Europe,Finland,Uusimaa,,Helsinki
35.228.202.253,4,4,akateeminen.com,FI,Europe,Northern Europe,Finland,South Karelia Region,,Lappeenranta
95.216.9.107,4,5,akcent-pro.com,FI,Europe,Northern Europe,Finland,Uusimaa,,Helsinki
95.217.56.94,4,23,aksalser.com,FI,Europe,Northern Europe,Finland,Uusimaa,,Helsinki
95.216.64.81,4,63,akvarijum.org,FI,Europe,Northern Europe,Finland,Uusimaa,,Helsinki
135.181.9.38,4,1244,alamaal.net,FI,Europe,Northern Europe,Finland,Uusimaa,,Helsinki
65.21.24.220,4,2,album-online.com,FI,Europe,Northern Europe,Finland,Uusimaa,,Helsinki
65.108.73.55,4,2,alexandria.org,FI,Europe,Northern Europe,Finland,Uusimaa,,Helsinki
95.216.248.115,4,4,alhjaz.org,FI,Europe,Northern Europe,Finland,Uusimaa,,Helsinki
185.179.116.158,4,109,alisapankki.fi,FI,Europe,Northern Europe,Finland,,,
95.217.117.125,4,65,alkacon.com,FI,Europe,Northern Europe,Finland,Uusimaa,,Helsinki
65.108.33.252,4,3,alkhaleejlive.com,FI,Europe,Northern Europe,Finland,Uusimaa,,Helsinki
95.217.44.227,4,7,allrussian.info,FI,Europe,Northern Europe,Finland,Uusimaa,,Helsinki
95.217.117.141,4,12,almico.com,FI,Europe,Northern Europe,Finland,Uusimaa,,Helsinki
37.27.103.139,4,4,alnilin.com,FI,Europe,Northern Europe,Finland,Uusimaa,,Helsinki
164.215.39.202,4,20,aloitus.net,FI,Europe,Northern Europe,Finland,Uusimaa,,Helsinki
95.216.22.121,4,-495205,alroya.om,FI,Europe,Northern Europe,Finland,Uusimaa,,Helsinki
95.217.58.250,4,2,alugha.com,FI,Europe,Northern Europe,Finland,Uusimaa,,Helsinki
95.216.118.114,4,7,alziady.com.sa,FI,Europe,Northern Europe,Finland,Uusimaa,,Helsinki
135.181.238.247,4,3,amerit.org.mk,FI,Europe,Northern Europe,Finland,Uusimaa,,Helsinki
95.216.11.215,4,4,amigans.net,FI,Europe,Northern Europe,Finland,Uusimaa,,Helsinki
37.27.33.96,4,61,analitica.pt,FI,Europe,Northern Europe,Finland,Uusimaa,,Helsinki
135.181.158.100,4,15,ancce.es,FI,Europe,Northern Europe,Finland,Uusimaa,,Helsinki
95.217.196.253,4,0,andre-citroen-club.de,FI,Europe,Northern Europe,Finland,Uusimaa,,Helsinki
135.181.220.96,4,19,anekdot.ru,FI,Europe,Northern Europe,Finland,Uusimaa,,Helsinki
65.109.94.50,4,37,angrycurl.it,FI,Europe,Northern Europe,Finland,Uusimaa,,Helsinki
95.217.60.135,4,5,anmeld-haandvaerker.dk,FI,Europe,Northern Europe,Finland,Uusimaa,,Helsinki
37.27.96.211,4,6,annasronline.com,FI,Europe,Northern Europe,Finland,Uusimaa,,Helsinki
65.109.35.46,4,10,anokey.com,FI,Europe,Northern Europe,Finland,Uusimaa,,Helsinki
37.27.96.53,4,4,anorectal-malformation.org,FI,Europe,Northern Europe,Finland,Uusimaa,,Helsinki
95.216.148.234,4,8,antragsgruen.de,FI,Europe,Northern Europe,Finland,Uusimaa,,Helsinki
95.216.7.53,4,1,anybag.ua,FI,Europe,Northern Europe,Finland,Uusimaa,,Helsinki
85.188.1.123,4,7,aprs.fi,FI,Europe,Northern Europe,Finland,Uusimaa,,Helsinki
85.188.1.124,4,6,aprs.fi,FI,Europe,Northern Europe,Finland,Uusimaa,,Helsinki
83.150.67.98,4,17,apteekki.fi,FI,Europe,Northern Europe,Finland,Uusimaa,,Helsinki
95.216.123.243,4,8,apteka911.ua,FI,Europe,Northern Europe,Finland,Uusimaa,,Helsinki
65.109.129.230,4,28,aptksa.net,FI,Europe,Northern Europe,Finland,Uusimaa,,Helsinki
217.149.57.154,4,5,apulanta.fi,FI,Europe,Northern Europe,Finland,,,
65.108.129.229,4,36,arabtrvl.com,FI,Europe,Northern Europe,Finland,Uusimaa,,Helsinki
37.27.13.184,4,14,arag.es,FI,Europe,Northern Europe,Finland,Uusimaa,,Helsinki
95.217.163.246,4,3,archlinux.org,FI,Europe,Northern Europe,Finland,Uusimaa,,Helsinki
178.251.153.37,4,52,arcticsnowhotel.fi,FI,Europe,Northern Europe,Finland,,,
37.27.19.116,4,20,arhitektuurimuuseum.ee,FI,Europe,Northern Europe,Finland,Uusimaa,,Helsinki
65.109.155.235,4,3,ariahotels.gr,FI,Europe,Northern Europe,Finland,Uusimaa,,Helsinki
65.21.166.134,4,17,arim-dz.com,FI,Europe,Northern Europe,Finland,Uusimaa,,Helsinki
95.216.167.16,4,11,arkadiaforum.com,FI,Europe,Northern Europe,Finland,Uusimaa,,Helsinki
185.179.116.171,4,6,arkisto.fi,FI,Europe,Northern Europe,Finland,,,
95.217.214.232,4,70,arkko.com,FI,Europe,Northern Europe,Finland,Uusimaa,,Helsinki
94.237.100.155,4,73,arnaldocaprai.it,FI,Europe,Northern Europe,Finland,,,
95.216.117.175,4,6,artdoc.media,FI,Europe,Northern Europe,Finland,Uusimaa,,Helsinki
95.217.30.37,4,5,artopps.co.uk,FI,Europe,Northern Europe,Finland,Uusimaa,,Helsinki
65.109.83.50,4,5,asci.org.in,FI,Europe,Northern Europe,Finland,Uusimaa,,Helsinki
95.217.110.220,4,-7271,askona.ua,FI,Europe,Northern Europe,Finland,Uusimaa,,Helsinki
95.216.198.23,4,73,assouane-immobiliere.com,FI,Europe,Northern Europe,Finland,Uusimaa,,Helsinki
65.21.114.121,4,16,asterastripolis.gr,FI,Europe,Northern Europe,Finland,Uusimaa,,Helsinki
65.108.222.227,4,5,atata.icu,FI,Europe,Northern Europe,Finland,Uusimaa,,Helsinki
95.217.45.16,4,14,ateneodemadrid.com,FI,Europe,Northern Europe,Finland,Uusimaa,,Helsinki
65.21.180.138,4,28,atlanticohoy.com,FI,Europe,Northern Europe,Finland,Uusimaa,,Helsinki
95.216.154.119,4,45,atlas-cfosspeed.com,FI,Europe,Northern Europe,Finland,Uusimaa,,Helsinki
65.109.63.152,4,36,atlasescorts.com,FI,Europe,Northern Europe,Finland,Uusimaa,,Helsinki
95.216.204.40,4,24,atramenta.net,FI,Europe,Northern Europe,Finland,Uusimaa,,Helsinki
95.216.192.192,4,64,augc.org,FI,Europe,Northern Europe,Finland,Uusimaa,,Helsinki
89.166.51.89,4,2621,auricmedia.net,FI,Europe,Northern Europe,Finland,Uusimaa,,Helsinki
65.21.177.163,4,17,aurora-auto.com,FI,Europe,Northern Europe,Finland,Uusimaa,,Helsinki
65.108.216.65,4,77447,australiantelemarketingleads.net,FI,Europe,Northern Europe,Finland,Uusimaa,,Helsinki
65.109.105.231,4,2,auto-data.net,FI,Europe,Northern Europe,Finland,Uusimaa,,Helsinki
65.109.123.92,4,56,auto-part.ru,FI,Europe,Northern Europe,Finland,Uusimaa,,Helsinki
65.109.30.216,4,7,autobazar24.rs,FI,Europe,Northern Europe,Finland,Uusimaa,,Helsinki
95.216.248.200,4,5,autogrodno.by,FI,Europe,Northern Europe,Finland,Uusimaa,,Helsinki
95.217.187.149,4,52,autoliitto.fi,FI,Europe,Northern Europe,Finland,Uusimaa,,Helsinki
95.217.230.159,4,46,autoriginal.com.ua,FI,Europe,Northern Europe,Finland,Uusimaa,,Helsinki
95.216.75.186,4,10,autospare.eu,FI,Europe,Northern Europe,Finland,Uusimaa,,Helsinki
65.108.239.160,4,61,avaandmed.ee,FI,Europe,Northern Europe,Finland,Uusimaa,,Helsinki
94.237.8.144,4,8,avan.to,FI,Europe,Northern Europe,Finland,Uusimaa,,Helsinki
95.217.121.113,4,87,avangardha.com,FI,Europe,Northern Europe,Finland,Uusimaa,,Helsinki
95.216.5.96,4,25,avopolis.gr,FI,Europe,Northern Europe,Finland,Uusimaa,,Helsinki
37.27.1.116,4,3,avtodeti.ru,FI,Europe,Northern Europe,Finland,Uusimaa,,Helsinki
95.217.169.171,4,7,aw.com,FI,Europe,Northern Europe,Finland,Uusimaa,,Helsinki
95.217.170.67,4,10,awful.systems,FI,Europe,Northern Europe,Finland,Uusimaa,,Helsinki
65.108.204.168,4,2,ayudaalaiglesianecesitada.org,FI,Europe,Northern Europe,Finland,Uusimaa,,Helsinki
65.109.33.78,4,2,azbyka.ru,FI,Europe,Northern Europe,Finland,Uusimaa,,Helsinki
95.217.150.4,4,4,azhd.ae,FI,Europe,Northern Europe,Finland,Uusimaa,,Helsinki
65.108.252.241,4,-1,babyexpo.ua,FI,Europe,Northern Europe,Finland,Uusimaa,,Helsinki
37.27.10.157,4,0,backlinkstop.com,FI,Europe,Northern Europe,Finland,Uusimaa,,Helsinki
65.21.206.94,4,871014,badgerboats.ru,FI,Europe,Northern Europe,Finland,Uusimaa,,Helsinki
86.60.245.72,4,405,balticsea-region-strategy.eu,FI,Europe,Northern Europe,Finland,Uusimaa,,Lohja
65.21.192.43,4,30,bankingnews.ro,FI,Europe,Northern Europe,Finland,Uusimaa,,Helsinki
95.217.100.32,4,6,banzaimusic.com,FI,Europe,Northern Europe,Finland,Uusimaa,,Helsinki
135.181.136.6,4,1041,barnevernvakten.no,FI,Europe,Northern Europe,Finland,Uusimaa,,Helsinki
95.217.119.130,4,4,bartarkojast.com,FI,Europe,Northern Europe,Finland,Uusimaa,,Helsinki
91.105.250.98,4,42,battlelore.net,FI,Europe,Northern Europe,Finland,,,
65.109.63.101,4,7,bavave.com,FI,Europe,Northern Europe,Finland,Uusimaa,,Helsinki
95.217.109.45,4,11,bax.tv,FI,Europe,Northern Europe,Finland,Uusimaa,,Helsinki
65.21.197.230,4,24,bazicenter.com,FI,Europe,Northern Europe,Finland,Uusimaa,,Helsinki
65.21.192.103,4,3,beatsaver.com,FI,Europe,Northern Europe,Finland,Uusimaa,,Helsinki
65.21.213.211,4,14,bel-mebel.com,FI,Europe,Northern Europe,Finland,Uusimaa,,Helsinki
37.27.97.99,4,9,belarushockey.com,FI,Europe,Northern Europe,Finland,Uusimaa,,Helsinki
95.216.196.43,4,4,belfry.rip,FI,Europe,Northern Europe,Finland,Uusimaa,,Helsinki
94.237.31.241,4,1120100,belingua.cz,FI,Europe,Northern Europe,Finland,,,
135.181.134.165,4,40,belpodium.ru,FI,Europe,Northern Europe,Finland,Uusimaa,,Helsinki
135.181.237.113,4,3,benaki.gr,FI,Europe,Northern Europe,Finland,Uusimaa,,Helsinki
65.109.182.122,4,2,berria.eus,FI,Europe,Northern Europe,Finland,Uusimaa,,Helsinki
95.216.243.203,4,56,besinar.com,FI,Europe,Northern Europe,Finland,Uusimaa,,Helsinki
37.27.15.253,4,2,bettingssites.com,FI,Europe,Northern Europe,Finland,Uusimaa,,Helsinki
95.217.143.36,4,8,bierothek.de,FI,Europe,Northern Europe,Finland,Uusimaa,,Helsinki
95.217.206.207,4,1,biocenfis.es,FI,Europe,Northern Europe,Finland,Uusimaa,,Helsinki
77.86.188.217,4,5,biolan.fi,FI,Europe,Northern Europe,Finland,,,
95.216.2.33,4,2,bitext.com,FI,Europe,Northern Europe,Finland,Uusimaa,,Helsinki
65.21.90.171,4,2,bitquery.io,FI,Europe,Northern Europe,Finland,Uusimaa,,Helsinki
95.217.108.117,4,3,bitquery.io,FI,Europe,Northern Europe,Finland,Uusimaa,,Helsinki
95.216.245.219,4,4,bizorg.su,FI,Europe,Northern Europe,Finland,Uusimaa,,Helsinki
95.217.22.178,4,3,blahaj.zone,FI,Europe,Northern Europe,Finland,Uusimaa,,Helsinki
135.181.247.221,4,41,blindprogrammers.com,FI,Europe,Northern Europe,Finland,Uusimaa,,Helsinki
65.109.48.187,4,11,blitz.plus,FI,Europe,Northern Europe,Finland,Uusimaa,,Helsinki
135.181.0.163,4,3,blitzortung.org,FI,Europe,Northern Europe,Finland,Uusimaa,,Helsinki
65.109.20.90,4,12,blogalia.com,FI,Europe,Northern Europe,Finland,Uusimaa,,Helsinki
135.181.129.215,4,18,blogun.ru,FI,Europe,Northern Europe,Finland,Uusimaa,,Helsinki
94.237.104.86,4,8,bluefors.com,FI,Europe,Northern Europe,Finland,,,
135.181.222.231,4,47,bobsoccer.ru,FI,Europe,Northern Europe,Finland,Uusimaa,,Helsinki
95.216.66.86,4,67,bodybuilding.dk,FI,Europe,Northern Europe,Finland,Uusimaa,,Helsinki
135.181.126.9,4,3,bogidope.com,FI,Europe,Northern Europe,Finland,Uusimaa,,Helsinki
135.181.18.16,4,-34,bookero.pl,FI,Europe,Northern Europe,Finland,Uusimaa,,Helsinki
65.109.63.249,4,9,booknik.ru,FI,Europe,Northern Europe,Finland,Uusimaa,,Helsinki
65.109.83.218,4,3,books-library.net,FI,Europe,Northern Europe,Finland,Uusimaa,,Helsinki
94.237.86.79,4,53,booksalon.fi,FI,Europe,Northern Europe,Finland,,,
83.150.127.91,4,8,booky.fi,FI,Europe,Northern Europe,Finland,Uusimaa,,Helsinki
65.21.170.252,4,1,botoa.org,FI,Europe,Northern Europe,Finland,Uusimaa,,Helsinki
95.216.167.197,4,4,botostore.com,FI,Europe,Northern Europe,Finland,Uusimaa,,Helsinki
95.216.16.190,4,3,boudicca.de,FI,Europe,Northern Europe,Finland,Uusimaa,,Helsinki
94.237.100.32,4,4,boutari.gr,FI,Europe,Northern Europe,Finland,,,
35.228.111.12,4,14,brainworks.pl,FI,Europe,Northern Europe,Finland,South Karelia Region,,Lappeenranta
65.108.236.13,4,2,brau-freunde.de,FI,Europe,Northern Europe,Finland,Uusimaa,,Helsinki
65.108.130.159,4,3,brodude.ru,FI,Europe,Northern Europe,Finland,Uusimaa,,Helsinki
65.109.5.123,4,8,bsd.cafe,FI,Europe,Northern Europe,Finland,Uusimaa,,Helsinki
95.216.181.4,4,2,bunkerspot.com,FI,Europe,Northern Europe,Finland,Uusimaa,,Helsinki
95.216.108.36,4,2,bunnies.nl,FI,Europe,Northern Europe,Finland,Uusimaa,,Helsinki
95.217.57.233,4,6,businessperspectives.org,FI,Europe,Northern Europe,Finland,Uusimaa,,Helsinki
65.21.22.232,4,7,businessupturn.com,FI,Europe,Northern Europe,Finland,Uusimaa,,Helsinki
95.216.29.120,4,3,buzer.de,FI,Europe,Northern Europe,Finland,Uusimaa,,Helsinki
95.216.171.252,4,40,cadenadesuministro.es,FI,Europe,Northern Europe,Finland,Uusimaa,,Helsinki
135.181.48.92,4,25,cadkas.com,FI,Europe,Northern Europe,Finland,Uusimaa,,Helsinki
95.216.224.227,4,2,cagliarinews24.com,FI,Europe,Northern Europe,Finland,Uusimaa,,Helsinki
135.181.133.29,4,17,canaledieci.it,FI,Europe,Northern Europe,Finland,Uusimaa,,Helsinki
65.108.219.91,4,7,capgros.com,FI,Europe,Northern Europe,Finland,Uusimaa,,Helsinki
94.237.106.28,4,7,capman.com,FI,Europe,Northern Europe,Finland,,,
65.21.32.116,4,13,caps-a-holic.com,FI,Europe,Northern Europe,Finland,Uusimaa,,Helsinki
95.216.179.212,4,58559,cardo.it,FI,Europe,Northern Europe,Finland,Uusimaa,,Helsinki
37.27.4.154,4,27,cars-scanner.pl,FI,Europe,Northern Europe,Finland,Uusimaa,,Helsinki
95.217.39.120,4,10,castlerock.ru,FI,Europe,Northern Europe,Finland,Uusimaa,,Helsinki
135.181.10.205,4,5,cbl.org.lr,FI,Europe,Northern Europe,Finland,Uusimaa,,Helsinki
65.108.87.185,4,2,cdu.edu.ua,FI,Europe,Northern Europe,Finland,Uusimaa,,Helsinki
95.216.27.110,4,24,centerall.com,FI,Europe,Northern Europe,Finland,Uusimaa,,Helsinki
95.217.33.38,4,3,ceramtrade.ru,FI,Europe,Northern Europe,Finland,Uusimaa,,Helsinki
65.21.143.154,4,9,chaoszine.net,FI,Europe,Northern Europe,Finland,Uusimaa,,Helsinki
65.21.126.99,4,23,charlotteslaw.nl,FI,Europe,Northern Europe,Finland,Uusimaa,,Helsinki
65.108.67.92,4,7,checktrust.ru,FI,Europe,Northern Europe,Finland,Uusimaa,,Helsinki
65.108.219.39,4,3,chernilov.ru,FI,Europe,Northern Europe,Finland,Uusimaa,,Helsinki
95.216.238.254,4,12,childclinic.net,FI,Europe,Northern Europe,Finland,Uusimaa,,Helsinki
95.217.12.148,4,53,christiannewstoday.com,FI,Europe,Northern Europe,Finland,Uusimaa,,Helsinki
65.108.43.78,4,8,ciab.expert,FI,Europe,Northern Europe,Finland,Uusimaa,,Helsinki
135.181.141.14,4,7,cicopa.coop,FI,Europe,Northern Europe,Finland,Uusimaa,,Helsinki
65.21.122.168,4,3,cidob.org,FI,Europe,Northern Europe,Finland,Uusimaa,,Helsinki
65.109.223.159,4,2,circa.art,FI,Europe,Northern Europe,Finland,Uusimaa,,Helsinki
95.217.197.107,4,1,citynomadi.com,FI,Europe,Northern Europe,Finland,Uusimaa,,Helsinki
65.108.69.69,4,3,classictic.com,FI,Europe,Northern Europe,Finland,Uusimaa,,Helsinki
95.217.208.213,4,18,clinet.fi,FI,Europe,Northern Europe,Finland,Uusimaa,,Helsinki
135.181.43.189,4,2,cloverdiagnostic.com,FI,Europe,Northern Europe,Finland,Uusimaa,,Helsinki
65.108.63.48,4,4,clownstrike.lol,FI,Europe,Northern Europe,Finland,Uusimaa,,Helsinki
65.21.130.248,4,2,club-lexus.ru,FI,Europe,Northern Europe,Finland,Uusimaa,,Helsinki
95.217.104.78,4,5,clusterlabs.org,FI,Europe,Northern Europe,Finland,Uusimaa,,Helsinki
95.217.241.241,4,7,cnlu.ac.in,FI,Europe,Northern Europe,Finland,Uusimaa,,Helsinki
135.181.139.117,4,21,codebase64.org,FI,Europe,Northern Europe,Finland,Uusimaa,,Helsinki
135.181.118.219,4,22,coelum.com,FI,Europe,Northern Europe,Finland,Uusimaa,,Helsinki
109.70.166.124,4,12,colossalorder.fi,FI,Europe,Northern Europe,Finland,,,
195.156.97.34,4,9,connect.fi,FI,Europe,Northern Europe,Finland,Uusimaa,,Helsinki
135.181.30.155,4,25,consalud.es,FI,Europe,Northern Europe,Finland,Uusimaa,,Helsinki
135.181.154.115,4,2,consumidorglobal.com,FI,Europe,Northern Europe,Finland,Uusimaa,,Helsinki
135.181.185.58,4,3,controcopertina.com,FI,Europe,Northern Europe,Finland,Uusimaa,,Helsinki
65.108.219.150,4,0,coopi.org,FI,Europe,Northern Europe,Finland,Uusimaa,,Helsinki
94.237.19.192,4,8,coronaria.fi,FI,Europe,Northern Europe,Finland,Uusimaa,,Helsinki
65.21.34.198,4,17,coupou.fr,FI,Europe,Northern Europe,Finland,Uusimaa,,Helsinki
95.217.239.96,4,4,cpim.org,FI,Europe,Northern Europe,Finland,Uusimaa,,Helsinki
65.109.134.238,4,14,crm4.org,FI,Europe,Northern Europe,Finland,Uusimaa,,Helsinki
135.181.214.24,4,3,crorec.hr,FI,Europe,Northern Europe,Finland,Uusimaa,,Helsinki
65.108.199.156,4,-4563,crypto-vegas.com,FI,Europe,Northern Europe,Finland,Uusimaa,,Helsinki
65.109.139.197,4,15,cryptodrive.net.ua,FI,Europe,Northern Europe,Finland,Uusimaa,,Helsinki
95.216.196.78,4,1,ctnews.ru,FI,Europe,Northern Europe,Finland,Uusimaa,,Helsinki
95.217.213.90,4,14,curesec.com,FI,Europe,Northern Europe,Finland,Uusimaa,,Helsinki
95.216.104.50,4,7,cutn.ac.in,FI,Europe,Northern Europe,Finland,Uusimaa,,Helsinki
37.27.60.2,4,3,cyberleninka.ru,FI,Europe,Northern Europe,Finland,Uusimaa,,Helsinki
95.217.37.104,4,3,cycling-embassy.org.uk,FI,Europe,Northern Europe,Finland,Uusimaa,,Helsinki
65.109.18.179,4,2,cykelexperten.dk,FI,Europe,Northern Europe,Finland,Uusimaa,,Helsinki
95.217.60.235,4,4,cymbaltarx.com,FI,Europe,Northern Europe,Finland,Uusimaa,,Helsinki
95.217.152.89,4,0,d4.com.ua,FI,Europe,Northern Europe,Finland,Uusimaa,,Helsinki
65.109.77.254,4,75116,dailypakistan.com.pk,FI,Europe,Northern Europe,Finland,Uusimaa,,Helsinki
95.216.108.40,4,1,dakenshop.nl,FI,Europe,Northern Europe,Finland,Uusimaa,,Helsinki
95.216.176.156,4,3,darkbox.ch,FI,Europe,Northern Europe,Finland,Uusimaa,,Helsinki
65.108.107.148,4,4,datasport.it,FI,Europe,Northern Europe,Finland,Uusimaa,,Helsinki
95.217.107.122,4,7,dataswamp.org,FI,Europe,Northern Europe,Finland,Uusimaa,,Helsinki
95.216.181.83,4,55,datlahuman.com,FI,Europe,Northern Europe,Finland,Uusimaa,,Helsinki
65.108.132.138,4,3,dav-summit-club.de,FI,Europe,Northern Europe,Finland,Uusimaa,,Helsinki
95.216.71.91,4,43,davidpashley.com,FI,Europe,Northern Europe,Finland,Uusimaa,,Helsinki
95.216.121.170,4,3,daynight.gr,FI,Europe,Northern Europe,Finland,Uusimaa,,Helsinki
65.21.153.171,4,3,dayofdubai.com,FI,Europe,Northern Europe,Finland,Uusimaa,,Helsinki
65.109.33.189,4,-7,db-engines.com,FI,Europe,Northern Europe,Finland,Uusimaa,,Helsinki
65.108.39.41,4,46,deasystem.com,FI,Europe,Northern Europe,Finland,Uusimaa,,Helsinki
95.217.197.117,4,52,decompiler.com,FI,Europe,Northern Europe,Finland,Uusimaa,,Helsinki
95.216.16.177,4,17,deloru.ru,FI,Europe,Northern Europe,Finland,Uusimaa,,Helsinki
135.181.210.137,4,-250347,denditoys.com.ua,FI,Europe,Northern Europe,Finland,Uusimaa,,Helsinki
135.181.19.84,4,4,denesen.mk,FI,Europe,Northern Europe,Finland,Uusimaa,,Helsinki
65.108.210.26,4,4,derislam.at,FI,Europe,Northern Europe,Finland,Uusimaa,,Helsinki
217.119.42.8,4,19,designmuseum.fi,FI,Europe,Northern Europe,Finland,Uusimaa,,Helsinki
65.109.155.25,4,3,destinoboal.es,FI,Europe,Northern Europe,Finland,Uusimaa,,Helsinki
135.181.13.197,4,56,detta.com.ua,FI,Europe,Northern Europe,Finland,Uusimaa,,Helsinki
65.109.93.70,4,6,develop3d.com,FI,Europe,Northern Europe,Finland,Uusimaa,,Helsinki
95.217.71.141,4,-20434,dewi.de,FI,Europe,Northern Europe,Finland,Uusimaa,,Helsinki
65.108.62.138,4,5,dfupdate.se,FI,Europe,Northern Europe,Finland,Uusimaa,,Helsinki
95.217.30.75,4,156102,dgph.de,FI,Europe,Northern Europe,Finland,Uusimaa,,Helsinki
95.217.36.28,4,25,diclib.com,FI,Europe,Northern Europe,Finland,Uusimaa,,Helsinki
65.108.127.10,4,1,dieunbestechlichen.com,FI,Europe,Northern Europe,Finland,Uusimaa,,Helsinki
31.217.192.58,4,3,digipaper.fi,FI,Europe,Northern Europe,Finland,,,
65.108.243.52,4,4,discoverafrica.com,FI,Europe,Northern Europe,Finland,Uusimaa,,Helsinki
37.27.17.49,4,13,divinehm.com,FI,Europe,Northern Europe,Finland,Uusimaa,,Helsinki
135.181.105.143,4,5,divingworld.nl,FI,Europe,Northern Europe,Finland,Uusimaa,,Helsinki
95.216.75.125,4,2,dle-news.com,FI,Europe,Northern Europe,Finland,Uusimaa,,Helsinki
89.236.106.156,4,5,DNS Server: 59ec6a9c.adsl.tnnet.fi,FI,Europe,Northern Europe,Finland,Central Finland,,Jyv채skyl채
87.92.251.93,4,2097,DNS Server: 87-92-251-93.rev.dnainternet.fi,FI,Europe,Northern Europe,Finland,Uusimaa,,Helsinki
89.166.51.180,4,15760,DNS Server: 89-166-51-180.co.dnainternet.fi,FI,Europe,Northern Europe,Finland,Uusimaa,,Helsinki
79.137.206.61,4,165,DNS Server: clean-celery.aeza.network,FI,Europe,Northern Europe,Finland,Uusimaa,,Helsinki
79.137.206.221,4,7,DNS Server: creepy-belief4.aeza.network,FI,Europe,Northern Europe,Finland,Uusimaa,,Helsinki
95.217.213.52,4,17,DNS Server: dns.danielgorbe.com,FI,Europe,Northern Europe,Finland,Uusimaa,,Helsinki
135.181.34.64,4,10,DNS Server: dns.paltin.net,FI,Europe,Northern Europe,Finland,Uusimaa,,Helsinki
84.248.103.120,4,-838,DNS Server: dsl-hkibng21-54f867-120.dhcp.inet.fi,FI,Europe,Northern Europe,Finland,Uusimaa,,Helsinki
84.248.207.134,4,125,DNS Server: dsl-hkibng21-54f8cf-134.dhcp.inet.fi,FI,Europe,Northern Europe,Finland,Uusimaa,,Helsinki
88.195.130.144,4,26,DNS Server: dsl-hkibng31-58c382-144.dhcp.inet.fi,FI,Europe,Northern Europe,Finland,Uusimaa,,Helsinki
86.115.19.200,4,-4581,DNS Server: dsl-hkibng41-567313-200.dhcp.inet.fi,FI,Europe,Northern Europe,Finland,Uusimaa,,Vantaa
80.221.88.90,4,117,DNS Server: dsl-kvlbng11-50dd58-90.dhcp.inet.fi,FI,Europe,Northern Europe,Finland,Kymenlaakso,,Kotka
84.249.239.236,4,3273,DNS Server: dsl-kvlbng12-54f9ef-236.dhcp.inet.fi,FI,Europe,Northern Europe,Finland,Kymenlaakso,,Kouvola
80.220.132.18,4,790,DNS Server: dsl-roibng12-50dc84-18.dhcp.inet.fi,FI,Europe,Northern Europe,Finland,Lapland,,Rovaniemi
84.249.85.95,4,26,DNS Server: dsl-tkubng12-54f955-95.dhcp.inet.fi,FI,Europe,Northern Europe,Finland,Southwest Finland,,Turku
95.175.99.52,4,24,DNS Server: fi-52.orkia.fi,FI,Europe,Northern Europe,Finland,Uusimaa,,Helsinki
91.190.197.148,4,10,DNS Server: ip197-148.seltimil.net,FI,Europe,Northern Europe,Finland,Central Finland,,Jyv채skyl채
95.217.186.173,4,296,DNS Server: kermit.hswn.dk,FI,Europe,Northern Europe,Finland,Uusimaa,,Helsinki
194.251.17.103,4,15446,DNS Server: mobile-user-c2fb11-103.dhcp.inet.fi,FI,Europe,Northern Europe,Finland,Uusimaa,,Helsinki
95.217.202.35,4,90,DNS Server: nordgedanken.dev,FI,Europe,Northern Europe,Finland,Uusimaa,,Helsinki
95.217.179.114,4,314,DNS Server: pi.panel1.de,FI,Europe,Northern Europe,Finland,Uusimaa,,Helsinki
65.21.1.54,4,322,DNS Server: pi2.panel1.de,FI,Europe,Northern Europe,Finland,Uusimaa,,Helsinki
95.216.239.102,4,102,DNS Server: pihole.eth0.cloud,FI,Europe,Northern Europe,Finland,Uusimaa,,Helsinki
95.216.216.182,4,373,DNS Server: posgw.flowpos.net,FI,Europe,Northern Europe,Finland,Uusimaa,,Helsinki
79.137.206.93,4,85,DNS Server: router.os,FI,Europe,Northern Europe,Finland,Uusimaa,,Helsinki
65.108.148.102,4,295,DNS Server: static.102.148.108.65.clients.your-server.de,FI,Europe,Northern Europe,Finland,Uusimaa,,Helsinki
65.21.52.116,4,329,DNS Server: static.116.52.21.65.clients.your-server.de,FI,Europe,Northern Europe,Finland,Uusimaa,,Helsinki
65.21.151.121,4,312,DNS Server: static.121.151.21.65.clients.your-server.de,FI,Europe,Northern Europe,Finland,Uusimaa,,Helsinki
95.216.196.19,4,278,DNS Server: static.19.196.216.95.clients.your-server.de,FI,Europe,Northern Europe,Finland,Uusimaa,,Helsinki
65.108.134.215,4,260,DNS Server: static.215.134.108.65.clients.your-server.de,FI,Europe,Northern Europe,Finland,Uusimaa,,Helsinki
65.21.7.27,4,274,DNS Server: static.27.7.21.65.clients.your-server.de,FI,Europe,Northern Europe,Finland,Uusimaa,,Helsinki
95.216.168.15,4,104,dobryakov.com,FI,Europe,Northern Europe,Finland,Uusimaa,,Helsinki
65.109.88.214,4,16,docplayer.biz.tr,FI,Europe,Northern Europe,Finland,Uusimaa,,Helsinki
65.109.88.231,4,96,docplayer.fi,FI,Europe,Northern Europe,Finland,Uusimaa,,Helsinki
65.109.88.223,4,73,docplayer.gr,FI,Europe,Northern Europe,Finland,Uusimaa,,Helsinki
65.109.88.248,4,54,docplayer.info,FI,Europe,Northern Europe,Finland,Uusimaa,,Helsinki
65.109.88.232,4,66,docplayer.se,FI,Europe,Northern Europe,Finland,Uusimaa,,Helsinki
65.109.131.19,4,1,documentfoundation.org,FI,Europe,Northern Europe,Finland,Uusimaa,,Helsinki
65.108.245.35,4,52,domario.ru,FI,Europe,Northern Europe,Finland,Uusimaa,,Helsinki
95.217.133.47,4,4,domoweklimaty.pl,FI,Europe,Northern Europe,Finland,Uusimaa,,Helsinki
65.108.138.217,4,82,dorar-aliraq.net,FI,Europe,Northern Europe,Finland,Uusimaa,,Helsinki
135.181.217.90,4,19,dot2dot.gr,FI,Europe,Northern Europe,Finland,Uusimaa,,Helsinki
94.237.105.223,4,4,dovecot.org,FI,Europe,Northern Europe,Finland,,,
37.27.130.124,4,2,downandconnor.org,FI,Europe,Northern Europe,Finland,Uusimaa,,Helsinki
95.216.127.53,4,6,drcommodore.it,FI,Europe,Northern Europe,Finland,Uusimaa,,Helsinki
95.216.212.38,4,8,drivesouthafrica.co.za,FI,Europe,Northern Europe,Finland,Uusimaa,,Helsinki
65.108.84.1,4,3,drivesouthafrica.com,FI,Europe,Northern Europe,Finland,Uusimaa,,Helsinki
65.21.151.167,4,-1,drivhuseffekten.dk,FI,Europe,Northern Europe,Finland,Uusimaa,,Helsinki
65.21.205.218,4,53,duchenne-spain.org,FI,Europe,Northern Europe,Finland,Uusimaa,,Helsinki
65.109.144.230,4,9,duck.cafe,FI,Europe,Northern Europe,Finland,Uusimaa,,Helsinki
65.21.79.56,4,3,duechiacchiere.it,FI,Europe,Northern Europe,Finland,Uusimaa,,Helsinki
85.188.1.23,4,7,dy.fi,FI,Europe,Northern Europe,Finland,Uusimaa,,Helsinki
95.217.43.252,4,2,dynatone.ru,FI,Europe,Northern Europe,Finland,Uusimaa,,Helsinki
95.216.144.82,4,3,dynv6.com,FI,Europe,Northern Europe,Finland,Uusimaa,,Helsinki
37.27.13.65,4,2,dzo.com.ua,FI,Europe,Northern Europe,Finland,Uusimaa,,Helsinki
65.108.224.73,4,15,e-evros.gr,FI,Europe,Northern Europe,Finland,Uusimaa,,Helsinki
81.22.243.254,4,7,e-julkaisu.fi,FI,Europe,Northern Europe,Finland,Uusimaa,,Espoo
65.108.196.57,4,3,e3r.ru,FI,Europe,Northern Europe,Finland,Uusimaa,,Helsinki
95.217.61.120,4,0,eadsenaies.com.br,FI,Europe,Northern Europe,Finland,Uusimaa,,Helsinki
65.21.149.108,4,0,ecigaretter.se,FI,Europe,Northern Europe,Finland,Uusimaa,,Helsinki
65.109.103.93,4,6,edc.sale,FI,Europe,Northern Europe,Finland,Uusimaa,,Helsinki
185.148.3.109,4,7,edgeemu.net,FI,Europe,Northern Europe,Finland,Uusimaa,,Helsinki
95.217.192.241,4,5,edsm.net,FI,Europe,Northern Europe,Finland,Uusimaa,,Helsinki
65.109.86.106,4,1,eepf.gr,FI,Europe,Northern Europe,Finland,Uusimaa,,Helsinki
185.185.169.228,4,7,effi.org,FI,Europe,Northern Europe,Finland,Uusimaa,,Helsinki
95.216.177.93,4,3,eficode.com,FI,Europe,Northern Europe,Finland,Uusimaa,,Helsinki
135.181.142.43,4,164,egco-inspection.com,FI,Europe,Northern Europe,Finland,Uusimaa,,Helsinki
80.69.161.35,4,19,egdf.eu,FI,Europe,Northern Europe,Finland,,,
65.108.76.238,4,94,egrodymser.com,FI,Europe,Northern Europe,Finland,Uusimaa,,Helsinki
65.21.198.235,4,97,ehedg.org,FI,Europe,Northern Europe,Finland,Uusimaa,,Helsinki
135.181.203.145,4,31,ejay.com,FI,Europe,Northern Europe,Finland,Uusimaa,,Helsinki
94.237.104.162,4,51,ek.fi,FI,Europe,Northern Europe,Finland,,,
65.109.19.181,4,40,ekkofilm.dk,FI,Europe,Northern Europe,Finland,Uusimaa,,Helsinki
185.28.245.130,4,45,ekonomit.fi,FI,Europe,Northern Europe,Finland,,,
95.217.109.76,4,78,ekt.com.ua,FI,Europe,Northern Europe,Finland,Uusimaa,,Helsinki
95.217.176.89,4,231,elbuz.com,FI,Europe,Northern Europe,Finland,Uusimaa,,Helsinki
35.228.62.212,4,44,eldstickan.com,FI,Europe,Northern Europe,Finland,South Karelia Region,,Lappeenranta
95.217.229.38,4,455,elektronika.ba,FI,Europe,Northern Europe,Finland,Uusimaa,,Helsinki
95.217.161.44,4,86,elfarmaceutico.es,FI,Europe,Northern Europe,Finland,Uusimaa,,Helsinki
95.217.186.171,4,13,emacs.ch,FI,Europe,Northern Europe,Finland,Uusimaa,,Helsinki
65.21.55.10,4,57,emma-soft.com,FI,Europe,Northern Europe,Finland,Uusimaa,,Helsinki
95.216.207.191,4,5,emsisoft.de,FI,Europe,Northern Europe,Finland,Uusimaa,,Helsinki
94.237.107.66,4,15,emtracing.net,FI,Europe,Northern Europe,Finland,,,
65.108.100.6,4,9,energie-und-management.de,FI,Europe,Northern Europe,Finland,Uusimaa,,Helsinki
31.217.193.110,4,623,energyefficiencymovement.com,FI,Europe,Northern Europe,Finland,,,
65.108.141.171,4,2,energypowerworld.co.uk,FI,Europe,Northern Europe,Finland,Uusimaa,,Helsinki
65.21.46.21,4,18,enoll.org,FI,Europe,Northern Europe,Finland,Uusimaa,,Helsinki
65.21.63.132,4,105,enovathemes.com,FI,Europe,Northern Europe,Finland,Uusimaa,,Helsinki
65.108.194.114,4,48,enplus-pellets.eu,FI,Europe,Northern Europe,Finland,Uusimaa,,Helsinki
80.69.172.85,4,7,ensijaturvakotienliitto.fi,FI,Europe,Northern Europe,Finland,,,
65.108.142.184,4,13,enternity.gr,FI,Europe,Northern Europe,Finland,Uusimaa,,Helsinki
135.181.215.231,4,4,epiphany.com.pk,FI,Europe,Northern Europe,Finland,Uusimaa,,Helsinki
65.109.104.123,4,2,epiruspost.gr,FI,Europe,Northern Europe,Finland,Uusimaa,,Helsinki
65.108.6.239,4,2,epochta.ru,FI,Europe,Northern Europe,Finland,Uusimaa,,Helsinki
65.21.128.174,4,17,epppn.fr,FI,Europe,Northern Europe,Finland,Uusimaa,,Helsinki
83.145.244.46,4,6,eraluvat.fi,FI,Europe,Northern Europe,Finland,Uusimaa,,Espoo
65.109.241.214,4,5,ericasynths.lv,FI,Europe,Northern Europe,Finland,Uusimaa,,Helsinki
95.217.240.153,4,1,ericasynths.lv,FI,Europe,Northern Europe,Finland,Uusimaa,,Helsinki
185.87.108.163,4,73,eroakirkosta.fi,FI,Europe,Northern Europe,Finland,,,
95.216.240.122,4,3,esrhr.org,FI,Europe,Northern Europe,Finland,Uusimaa,,Helsinki
65.109.235.82,4,39,ethiojobs.net,FI,Europe,Northern Europe,Finland,Uusimaa,,Helsinki
35.228.65.39,4,3,etiskhandel.no,FI,Europe,Northern Europe,Finland,South Karelia Region,,Lappeenranta
37.27.48.152,4,138,etoribio.com,FI,Europe,Northern Europe,Finland,Uusimaa,,Helsinki
65.21.110.244,4,-1,eu-pledge.eu,FI,Europe,Northern Europe,Finland,Uusimaa,,Helsinki
95.217.187.115,4,3,eurai.org,FI,Europe,Northern Europe,Finland,Uusimaa,,Helsinki
135.181.212.44,4,2,eurobilltracker.com,FI,Europe,Northern Europe,Finland,Uusimaa,,Helsinki
95.216.4.230,4,911771,europub.co.uk,FI,Europe,Northern Europe,Finland,Uusimaa,,Helsinki
94.237.19.35,4,103,evac.com,FI,Europe,Northern Europe,Finland,Uusimaa,,Helsinki
135.181.19.51,4,5,evosolution.net,FI,Europe,Northern Europe,Finland,Uusimaa,,Helsinki
37.27.24.64,4,97,excursopedia.com,FI,Europe,Northern Europe,Finland,Uusimaa,,Helsinki
91.232.156.81,4,98,exdecfinland.org,FI,Europe,Northern Europe,Finland,,,
95.216.40.44,4,3,expresscouriercars.co.uk,FI,Europe,Northern Europe,Finland,Uusimaa,,Helsinki
94.237.82.138,4,19,expresspublishing.co.uk,FI,Europe,Northern Europe,Finland,,,
95.216.162.251,4,8,ezglot.com,FI,Europe,Northern Europe,Finland,Uusimaa,,Helsinki
95.216.180.254,4,2,f-marc.com,FI,Europe,Northern Europe,Finland,Uusimaa,,Helsinki
95.216.225.167,4,2,facefam.com,FI,Europe,Northern Europe,Finland,Uusimaa,,Helsinki
65.21.135.163,4,13,fairy.id,FI,Europe,Northern Europe,Finland,Uusimaa,,Helsinki
65.21.85.54,4,81,fakti.org,FI,Europe,Northern Europe,Finland,Uusimaa,,Helsinki
65.21.228.154,4,5,fanproj.tv,FI,Europe,Northern Europe,Finland,Uusimaa,,Helsinki
94.237.85.63,4,7,fastems.com,FI,Europe,Northern Europe,Finland,,,
95.216.8.85,4,30,fastml.com,FI,Europe,Northern Europe,Finland,Uusimaa,,Helsinki
95.216.101.254,4,40,fastw3b.net,FI,Europe,Northern Europe,Finland,Uusimaa,,Helsinki
65.109.146.249,4,6,favicon.cc,FI,Europe,Northern Europe,Finland,Uusimaa,,Helsinki
95.216.224.95,4,17,fc-arsenal.com,FI,Europe,Northern Europe,Finland,Uusimaa,,Helsinki
65.21.72.133,4,-762,fcenter.ru,FI,Europe,Northern Europe,Finland,Uusimaa,,Helsinki
135.181.129.172,4,9,fcitx-im.org,FI,Europe,Northern Europe,Finland,Uusimaa,,Helsinki
95.216.207.196,4,2,feddit.it,FI,Europe,Northern Europe,Finland,Uusimaa,,Helsinki
95.216.58.115,4,5,fedenet.gr,FI,Europe,Northern Europe,Finland,Uusimaa,,Helsinki
65.21.231.55,4,6,fenixfuneral.co.uk,FI,Europe,Northern Europe,Finland,Uusimaa,,Helsinki
95.217.201.25,4,3,fibladi.com,FI,Europe,Northern Europe,Finland,Uusimaa,,Helsinki
135.181.4.96,4,11,filme.de,FI,Europe,Northern Europe,Finland,Uusimaa,,Helsinki
83.143.221.123,4,0,findance.com,FI,Europe,Northern Europe,Finland,,,
135.181.211.58,4,15,findpatent.ru,FI,Europe,Northern Europe,Finland,Uusimaa,,Helsinki
185.20.136.160,4,-17298,finland.org,FI,Europe,Northern Europe,Finland,,,
185.179.117.16,4,35,finlandtoday.fi,FI,Europe,Northern Europe,Finland,,,
65.108.243.54,4,22,finnexpo.fi,FI,Europe,Northern Europe,Finland,Uusimaa,,Helsinki
95.217.146.163,4,-704,finsterwalder-charly.de,FI,Europe,Northern Europe,Finland,Uusimaa,,Helsinki
95.216.240.245,4,4,fiohtg.org,FI,Europe,Northern Europe,Finland,Uusimaa,,Helsinki
95.216.76.52,4,158,fishflot.ru,FI,Europe,Northern Europe,Finland,Uusimaa,,Helsinki
83.143.219.54,4,1,fiuudistuu.fi,FI,Europe,Northern Europe,Finland,,,
95.217.168.32,4,3,flacso.org.br,FI,Europe,Northern Europe,Finland,Uusimaa,,Helsinki
95.217.154.99,4,8,flameeyes.blog,FI,Europe,Northern Europe,Finland,Uusimaa,,Helsinki
35.228.57.67,4,5,flamman.se,FI,Europe,Northern Europe,Finland,South Karelia Region,,Lappeenranta
135.181.116.155,4,8,flirtcity.ru,FI,Europe,Northern Europe,Finland,Uusimaa,,Helsinki
95.216.37.100,4,5,floksociety.org,FI,Europe,Northern Europe,Finland,Uusimaa,,Helsinki
37.27.67.115,4,5,fluechtlingsrat-brandenburg.de,FI,Europe,Northern Europe,Finland,Uusimaa,,Helsinki
65.21.111.174,4,17,flutterby.com,FI,Europe,Northern Europe,Finland,Uusimaa,,Helsinki
95.216.98.165,4,4,flyzoom.com,FI,Europe,Northern Europe,Finland,Uusimaa,,Helsinki
95.217.195.173,4,8,fmeextensions.ae,FI,Europe,Northern Europe,Finland,Uusimaa,,Helsinki
194.56.151.54,4,2,fmq.fi,FI,Europe,Northern Europe,Finland,Uusimaa,,Helsinki
95.216.28.23,4,194,fmuzic.ru,FI,Europe,Northern Europe,Finland,Uusimaa,,Helsinki
65.21.7.157,4,9,fngcimm.ro,FI,Europe,Northern Europe,Finland,Uusimaa,,Helsinki
65.108.140.110,4,2,focuser.com,FI,Europe,Northern Europe,Finland,Uusimaa,,Helsinki
31.217.192.97,4,29,foorumi.info,FI,Europe,Northern Europe,Finland,,,
135.181.86.165,4,2,forex-digest.ru,FI,Europe,Northern Europe,Finland,Uusimaa,,Helsinki
95.216.78.218,4,13,forextrade.top,FI,Europe,Northern Europe,Finland,Uusimaa,,Helsinki
65.21.67.73,4,2,forgefriends.org,FI,Europe,Northern Europe,Finland,Uusimaa,,Helsinki
37.27.120.98,4,1,forgehub.com,FI,Europe,Northern Europe,Finland,Uusimaa,,Helsinki
65.108.218.75,4,0,forpost.media,FI,Europe,Northern Europe,Finland,Uusimaa,,Helsinki
95.217.192.177,4,3,forum.lu,FI,Europe,Northern Europe,Finland,Uusimaa,,Helsinki
65.109.122.245,4,4,fotofed.nl,FI,Europe,Northern Europe,Finland,Uusimaa,,Helsinki
95.217.221.2,4,211,fotomaraton.com,FI,Europe,Northern Europe,Finland,Uusimaa,,Helsinki
95.217.170.197,4,27,fr-academic.com,FI,Europe,Northern Europe,Finland,Uusimaa,,Helsinki
135.181.2.47,4,49,freerider.gr,FI,Europe,Northern Europe,Finland,Uusimaa,,Helsinki
95.216.138.233,4,-1,frogwares.com,FI,Europe,Northern Europe,Finland,Uusimaa,,Helsinki
65.21.72.223,4,2,froodl.com,FI,Europe,Northern Europe,Finland,Uusimaa,,Helsinki
65.108.208.61,4,29,froscon.org,FI,Europe,Northern Europe,Finland,Uusimaa,,Helsinki
95.216.99.249,4,2,froth.zone,FI,Europe,Northern Europe,Finland,Uusimaa,,Helsinki
135.181.213.213,4,3,fugaso.com,FI,Europe,Northern Europe,Finland,Uusimaa,,Helsinki
135.181.163.171,4,1,fullrest.ru,FI,Europe,Northern Europe,Finland,Uusimaa,,Helsinki
65.108.233.244,4,11,furniture4u.com.pk,FI,Europe,Northern Europe,Finland,Uusimaa,,Helsinki
65.108.127.110,4,2,fvm.hu,FI,Europe,Northern Europe,Finland,Uusimaa,,Helsinki
135.181.149.129,4,22,galeracluster.com,FI,Europe,Northern Europe,Finland,Uusimaa,,Helsinki
95.217.221.166,4,5,galyonkin.com,FI,Europe,Northern Europe,Finland,Uusimaa,,Helsinki
135.181.115.118,4,45,game-game.com.ua,FI,Europe,Northern Europe,Finland,Uusimaa,,Helsinki
95.217.195.231,4,16,game-ost.ru,FI,Europe,Northern Europe,Finland,Uusimaa,,Helsinki
65.21.245.46,4,30,gameclips.io,FI,Europe,Northern Europe,Finland,Uusimaa,,Helsinki
135.181.128.105,4,21,gamepark.ru,FI,Europe,Northern Europe,Finland,Uusimaa,,Helsinki
94.237.12.32,4,19,gamerefinery.com,FI,Europe,Northern Europe,Finland,Uusimaa,,Helsinki
65.21.32.207,4,6,gamersyde.com,FI,Europe,Northern Europe,Finland,Uusimaa,,Helsinki
65.21.141.224,4,34,gatebil.no,FI,Europe,Northern Europe,Finland,Uusimaa,,Helsinki
31.217.193.150,4,28,gaudeamus.fi,FI,Europe,Northern Europe,Finland,,,
95.216.74.46,4,-81,gazeta-delovoi.ru,FI,Europe,Northern Europe,Finland,Uusimaa,,Helsinki
95.216.12.237,4,1,gc-shop.gr,FI,Europe,Northern Europe,Finland,Uusimaa,,Helsinki
34.88.230.205,4,6,gehlpeople.com,FI,Europe,Northern Europe,Finland,South Karelia Region,,Lappeenranta
95.216.100.219,4,44,gen-europe.org,FI,Europe,Northern Europe,Finland,Uusimaa,,Helsinki
95.217.89.12,4,99,gen.al,FI,Europe,Northern Europe,Finland,Uusimaa,,Helsinki
65.21.196.205,4,2,gene-regulation.com,FI,Europe,Northern Europe,Finland,Uusimaa,,Helsinki
79.171.236.180,4,11,genelec.com,FI,Europe,Northern Europe,Finland,,,
95.217.153.13,4,12,genusbononiae.it,FI,Europe,Northern Europe,Finland,Uusimaa,,Helsinki
65.21.52.26,4,4,geoiptv.net,FI,Europe,Northern Europe,Finland,Uusimaa,,Helsinki
65.108.228.225,4,6,geoview.info,FI,Europe,Northern Europe,Finland,Uusimaa,,Helsinki
95.216.218.24,4,23,gerdarntz.org,FI,Europe,Northern Europe,Finland,Uusimaa,,Helsinki
95.216.21.120,4,53,germandocsinrussia.org,FI,Europe,Northern Europe,Finland,Uusimaa,,Helsinki
37.27.101.147,4,5,gettingdownunder.com,FI,Europe,Northern Europe,Finland,Uusimaa,,Helsinki
95.217.43.188,4,3,gfar.net,FI,Europe,Northern Europe,Finland,Uusimaa,,Helsinki
31.217.192.229,4,4,gfxile.net,FI,Europe,Northern Europe,Finland,,,
95.216.27.71,4,4,gibraltarantiques.com,FI,Europe,Northern Europe,Finland,Uusimaa,,Helsinki
95.217.152.213,4,24,gimpusers.de,FI,Europe,Northern Europe,Finland,Uusimaa,,Helsinki
37.27.98.30,4,23,giornal.it,FI,Europe,Northern Europe,Finland,Uusimaa,,Helsinki
95.217.33.242,4,2,gkelanto.gr,FI,Europe,Northern Europe,Finland,Uusimaa,,Helsinki
95.216.189.135,4,47,glitch.social,FI,Europe,Northern Europe,Finland,Uusimaa,,Helsinki
95.217.91.102,4,10,globalcargo.com.pk,FI,Europe,Northern Europe,Finland,Uusimaa,,Helsinki
95.217.92.204,4,29,gnla.com.au,FI,Europe,Northern Europe,Finland,Uusimaa,,Helsinki
95.216.244.82,4,16,gnupg.net,FI,Europe,Northern Europe,Finland,Uusimaa,,Helsinki
95.217.165.9,4,32,gnuvpn.com,FI,Europe,Northern Europe,Finland,Uusimaa,,Helsinki
135.181.139.209,4,6,goatcounter.com,FI,Europe,Northern Europe,Finland,Uusimaa,,Helsinki
135.181.166.113,4,5,gogocarto.fr,FI,Europe,Northern Europe,Finland,Uusimaa,,Helsinki
95.216.101.10,4,18,goldenplaza.com.ua,FI,Europe,Northern Europe,Finland,Uusimaa,,Helsinki
65.108.156.52,4,22,golf.fi,FI,Europe,Northern Europe,Finland,Uusimaa,,Helsinki
135.181.250.79,4,5,golfpiste.com,FI,Europe,Northern Europe,Finland,Uusimaa,,Helsinki
95.217.57.182,4,2,golosknig.com,FI,Europe,Northern Europe,Finland,Uusimaa,,Helsinki
65.109.102.169,4,9,goodnews.eu,FI,Europe,Northern Europe,Finland,Uusimaa,,Helsinki
65.108.241.160,4,3,goodwine.com.ua,FI,Europe,Northern Europe,Finland,Uusimaa,,Helsinki
65.109.96.224,4,5,gpsjam.org,FI,Europe,Northern Europe,Finland,Uusimaa,,Helsinki
135.181.236.130,4,6,grandprix.com.ua,FI,Europe,Northern Europe,Finland,Uusimaa,,Helsinki
94.237.105.17,4,20,granlund.fi,FI,Europe,Northern Europe,Finland,,,
95.216.169.117,4,10,graufuneralhomes.com,FI,Europe,Northern Europe,Finland,Uusimaa,,Helsinki
65.109.105.38,4,4,greatercph.com,FI,Europe,Northern Europe,Finland,Uusimaa,,Helsinki
135.181.60.103,4,23,greencarebags.com,FI,Europe,Northern Europe,Finland,Uusimaa,,Helsinki
65.21.48.93,4,20,gruene-jugend.de,FI,Europe,Northern Europe,Finland,Uusimaa,,Helsinki
95.217.212.71,4,65,gruene-niedersachsen.de,FI,Europe,Northern Europe,Finland,Uusimaa,,Helsinki
135.181.98.226,4,30,gruene.berlin,FI,Europe,Northern Europe,Finland,Uusimaa,,Helsinki
65.21.188.104,4,23,gruenlink.de,FI,Europe,Northern Europe,Finland,Uusimaa,,Helsinki
77.72.56.94,4,-117,gruppo.fi,FI,Europe,Northern Europe,Finland,,,
65.108.22.194,4,3,grupqualia.com,FI,Europe,Northern Europe,Finland,Uusimaa,,Helsinki
95.217.77.96,4,4,gsenrk.ru,FI,Europe,Northern Europe,Finland,Uusimaa,,Helsinki
95.216.237.228,4,32,guia-ubuntu.com,FI,Europe,Northern Europe,Finland,Uusimaa,,Helsinki
135.181.239.225,4,27,guidenceway.com,FI,Europe,Northern Europe,Finland,Uusimaa,,Helsinki
65.21.79.180,4,5,gujos.de,FI,Europe,Northern Europe,Finland,Uusimaa,,Helsinki
95.216.45.200,4,2,gutshaeuser.de,FI,Europe,Northern Europe,Finland,Uusimaa,,Helsinki
94.237.124.137,4,9,haarshop.nl,FI,Europe,Northern Europe,Finland,,,
65.109.153.168,4,7,habrastorage.org,FI,Europe,Northern Europe,Finland,Uusimaa,,Helsinki
65.21.120.121,4,2,habrastorage.org,FI,Europe,Northern Europe,Finland,Uusimaa,,Helsinki
65.109.20.156,4,16,hackeinbau.de,FI,Europe,Northern Europe,Finland,Uusimaa,,Helsinki
94.237.11.183,4,6,hamhelsinki.fi,FI,Europe,Northern Europe,Finland,Uusimaa,,Helsinki
94.237.19.2,4,6,hamk.fi,FI,Europe,Northern Europe,Finland,Uusimaa,,Helsinki
65.21.52.151,4,3,handybackup.net,FI,Europe,Northern Europe,Finland,Uusimaa,,Helsinki
135.181.175.238,4,7029,handyhost.ru,FI,Europe,Northern Europe,Finland,Uusimaa,,Helsinki
65.109.164.119,4,321,hannenabintuherland.com,FI,Europe,Northern Europe,Finland,Uusimaa,,Helsinki
65.108.192.199,4,77,hardware-mag.de,FI,Europe,Northern Europe,Finland,Uusimaa,,Helsinki
31.217.196.220,4,1051,harrika.fi,FI,Europe,Northern Europe,Finland,,,
37.27.123.96,4,1,hawahome.com,FI,Europe,Northern Europe,Finland,Uusimaa,,Helsinki
34.88.102.190,4,3,hblad.no,FI,Europe,Northern Europe,Finland,South Karelia Region,,Lappeenranta
94.237.10.254,4,10,hdl.fi,FI,Europe,Northern Europe,Finland,Uusimaa,,Helsinki
85.188.1.120,4,7,he.fi,FI,Europe,Northern Europe,Finland,Uusimaa,,Helsinki
95.217.45.172,4,12,healthlibrary.com,FI,Europe,Northern Europe,Finland,Uusimaa,,Helsinki
65.108.159.16,4,5,hedonist-international.org,FI,Europe,Northern Europe,Finland,Uusimaa,,Helsinki
65.108.229.89,4,8,heidi.ie,FI,Europe,Northern Europe,Finland,Uusimaa,,Helsinki
35.228.254.252,4,28,heliospectra.com,FI,Europe,Northern Europe,Finland,South Karelia Region,,Lappeenranta
135.181.179.113,4,10,hells-angels.com,FI,Europe,Northern Europe,Finland,Uusimaa,,Helsinki
31.217.192.106,4,2,helppolaina.fi,FI,Europe,Northern Europe,Finland,,,
94.237.97.229,4,18,helsinginkaupunginorkesteri.fi,FI,Europe,Northern Europe,Finland,,,
77.72.56.9,4,1828,helsingintaiteilijaseura.fi,FI,Europe,Northern Europe,Finland,,,
94.237.12.178,4,4396,helsinkibiennaali.fi,FI,Europe,Northern Europe,Finland,Uusimaa,,Helsinki
212.94.72.35,4,1,heninen.net,FI,Europe,Northern Europe,Finland,,,
95.217.15.253,4,1,here.ru,FI,Europe,Northern Europe,Finland,Uusimaa,,Helsinki
95.216.195.176,4,3,hespul.org,FI,Europe,Northern Europe,Finland,Uusimaa,,Helsinki
95.216.23.196,4,202,hhos.ru,FI,Europe,Northern Europe,Finland,Uusimaa,,Helsinki
95.217.161.55,4,1,hibridosyelectricos.com,FI,Europe,Northern Europe,Finland,Uusimaa,,Helsinki
65.21.174.103,4,3,hihi2.com,FI,Europe,Northern Europe,Finland,Uusimaa,,Helsinki
65.109.83.59,4,5,hijamacups.co.uk,FI,Europe,Northern Europe,Finland,Uusimaa,,Helsinki
95.175.122.207,4,27181,himos.fi,FI,Europe,Northern Europe,Finland,Uusimaa,,Helsinki
95.216.210.227,4,9,hintergrund.de,FI,Europe,Northern Europe,Finland,Uusimaa,,Helsinki
65.108.124.189,4,4,hiqsw.com,FI,Europe,Northern Europe,Finland,Uusimaa,,Helsinki
65.109.99.142,4,2,hirensbootcd.net,FI,Europe,Northern Europe,Finland,Uusimaa,,Helsinki
95.217.99.83,4,88,hisingsvandring.se,FI,Europe,Northern Europe,Finland,Uusimaa,,Helsinki
95.217.234.175,4,8,hispanidad.com,FI,Europe,Northern Europe,Finland,Uusimaa,,Helsinki
95.217.146.41,4,2,hiveworkshop.com,FI,Europe,Northern Europe,Finland,Uusimaa,,Helsinki
31.217.192.108,4,2,hkt.fi,FI,Europe,Northern Europe,Finland,,,
135.181.232.234,4,21,holychildhisar.com,FI,Europe,Northern Europe,Finland,Uusimaa,,Helsinki
135.181.136.154,4,18,homodigitalis.gr,FI,Europe,Northern Europe,Finland,Uusimaa,,Helsinki
65.108.15.229,4,31,honchar.org.ua,FI,Europe,Northern Europe,Finland,Uusimaa,,Helsinki
94.237.24.225,4,22,honka.com,FI,Europe,Northern Europe,Finland,,,
65.108.76.25,4,37,horecanews.it,FI,Europe,Northern Europe,Finland,Uusimaa,,Helsinki
65.21.65.108,4,18,hortipendium.de,FI,Europe,Northern Europe,Finland,Uusimaa,,Helsinki
31.217.192.237,4,59,hostingpalvelu.fi,FI,Europe,Northern Europe,Finland,,,
94.237.15.95,4,4,hotelkatajanokka.fi,FI,Europe,Northern Europe,Finland,Uusimaa,,Helsinki
65.108.96.42,4,8,hotelnetsolutions.de,FI,Europe,Northern Europe,Finland,Uusimaa,,Helsinki
135.181.130.108,4,7097,housestyle.ru,FI,Europe,Northern Europe,Finland,Uusimaa,,Helsinki
65.108.84.20,4,10,hrodna.life,FI,Europe,Northern Europe,Finland,Uusimaa,,Helsinki
185.28.245.139,4,5,humppa.com,FI,Europe,Northern Europe,Finland,,,
31.217.196.205,4,687,hyvisforum.fi,FI,Europe,Northern Europe,Finland,,,
95.216.96.119,4,6,i-ekb.ru,FI,Europe,Northern Europe,Finland,Uusimaa,,Helsinki
65.108.234.247,4,8,i-mash.ru,FI,Europe,Northern Europe,Finland,Uusimaa,,Helsinki
135.181.78.113,4,26,iageengineering.net,FI,Europe,Northern Europe,Finland,Uusimaa,,Helsinki
95.217.56.190,4,13,ibeat.org,FI,Europe,Northern Europe,Finland,Uusimaa,,Helsinki
95.217.199.80,4,13,iberculturaviva.org,FI,Europe,Northern Europe,Finland,Uusimaa,,Helsinki
95.216.12.234,4,3,icap.gr,FI,Europe,Northern Europe,Finland,Uusimaa,,Helsinki
65.108.92.198,4,42,icare.to,FI,Europe,Northern Europe,Finland,Uusimaa,,Helsinki
95.216.78.220,4,28,icdvm.com,FI,Europe,Northern Europe,Finland,Uusimaa,,Helsinki
95.217.223.17,4,3,idalko.com,FI,Europe,Northern Europe,Finland,Uusimaa,,Helsinki
65.109.170.8,4,1,idiootti.net,FI,Europe,Northern Europe,Finland,Uusimaa,,Helsinki
135.181.230.167,4,26,idronline.org,FI,Europe,Northern Europe,Finland,Uusimaa,,Helsinki
95.216.45.247,4,2,ihodl.com,FI,Europe,Northern Europe,Finland,Uusimaa,,Helsinki
185.185.170.42,4,6,iki.fi,FI,Europe,Northern Europe,Finland,Uusimaa,,Helsinki
185.185.170.35,4,8,iki.fi,FI,Europe,Northern Europe,Finland,Uusimaa,,Helsinki
195.140.195.198,4,4,iki.fi,FI,Europe,Northern Europe,Finland,,,
95.216.32.186,4,4,ilcirotano.it,FI,Europe,Northern Europe,Finland,Uusimaa,,Helsinki
65.21.233.87,4,8,ilcuoreinpentola.it,FI,Europe,Northern Europe,Finland,Uusimaa,,Helsinki
65.108.41.159,4,5,ildiariodellavoro.it,FI,Europe,Northern Europe,Finland,Uusimaa,,Helsinki
65.21.94.117,4,20427,ilive.com.ua,FI,Europe,Northern Europe,Finland,Uusimaa,,Helsinki
185.220.76.201,4,5,ilmainensanakirja.fi,FI,Europe,Northern Europe,Finland,,,
94.237.114.47,4,24,ilves.com,FI,Europe,Northern Europe,Finland,Uusimaa,,Helsinki
65.108.51.143,4,33,imatri.net,FI,Europe,Northern Europe,Finland,Uusimaa,,Helsinki
65.108.144.241,4,2,immibis.com,FI,Europe,Northern Europe,Finland,Uusimaa,,Helsinki
95.217.147.97,4,114,imperialoutsources.com,FI,Europe,Northern Europe,Finland,Uusimaa,,Helsinki
65.108.199.246,4,2,impulsoficyna.com.pl,FI,Europe,Northern Europe,Finland,Uusimaa,,Helsinki
185.196.102.111,4,13,indepthnews.net,FI,Europe,Northern Europe,Finland,Satakunta,,Pori
95.217.15.98,4,25,indianculturalforum.in,FI,Europe,Northern Europe,Finland,Uusimaa,,Helsinki
65.109.174.134,4,2,indiasomeday.com,FI,Europe,Northern Europe,Finland,Uusimaa,,Helsinki
65.108.27.73,4,1,indiepedia.org,FI,Europe,Northern Europe,Finland,Uusimaa,,Helsinki
95.216.77.139,4,509,infinityvvallet.io,FI,Europe,Northern Europe,Finland,Uusimaa,,Helsinki
95.216.9.215,4,36,inflotcruises.com,FI,Europe,Northern Europe,Finland,Uusimaa,,Helsinki
65.109.3.167,4,96,infobierzo.com,FI,Europe,Northern Europe,Finland,Uusimaa,,Helsinki
65.21.29.200,4,18,informators.press,FI,Europe,Northern Europe,Finland,Uusimaa,,Helsinki
95.216.35.61,4,1,infosmi.com,FI,Europe,Northern Europe,Finland,Uusimaa,,Helsinki
95.216.205.174,4,1,inlivo.com,FI,Europe,Northern Europe,Finland,Uusimaa,,Helsinki
35.228.24.20,4,10,insly.com,FI,Europe,Northern Europe,Finland,South Karelia Region,,Lappeenranta
95.217.88.102,4,24,instamber.com,FI,Europe,Northern Europe,Finland,Uusimaa,,Helsinki
95.217.217.30,4,60,integreat-app.de,FI,Europe,Northern Europe,Finland,Uusimaa,,Helsinki
95.216.157.79,4,42,integreat.app,FI,Europe,Northern Europe,Finland,Uusimaa,,Helsinki
135.181.214.166,4,49,interlic.md,FI,Europe,Northern Europe,Finland,Uusimaa,,Helsinki
31.217.196.248,4,757,inverse.fi,FI,Europe,Northern Europe,Finland,,,
95.217.195.217,4,19,investigativedashboard.org,FI,Europe,Northern Europe,Finland,Uusimaa,,Helsinki
46.255.199.8,4,125,investinfinland.fi,FI,Europe,Northern Europe,Finland,,,
37.27.57.11,4,2,investpromo.gov.iq,FI,Europe,Northern Europe,Finland,Uusimaa,,Helsinki
91.198.120.120,4,16,ip.fi,FI,Europe,Northern Europe,Finland,,,
37.27.129.231,4,56,irc-galleria.net,FI,Europe,Northern Europe,Finland,Uusimaa,,Helsinki
31.217.192.103,4,2,iriun.com,FI,Europe,Northern Europe,Finland,,,
94.237.13.86,4,7,isannointiliitto.fi,FI,Europe,Northern Europe,Finland,Uusimaa,,Helsinki
65.21.254.2,4,2,isf.es,FI,Europe,Northern Europe,Finland,Uusimaa,,Helsinki
65.109.21.227,4,69,iskra.gr,FI,Europe,Northern Europe,Finland,Uusimaa,,Helsinki
65.21.29.131,4,49,islamchannel.tv,FI,Europe,Northern Europe,Finland,Uusimaa,,Helsinki
65.21.83.47,4,10,itaku.ee,FI,Europe,Northern Europe,Finland,Uusimaa,,Helsinki
95.217.183.206,4,57,italiasw.com,FI,Europe,Northern Europe,Finland,Uusimaa,,Helsinki
135.181.132.173,4,2,iwm.at,FI,Europe,Northern Europe,Finland,Uusimaa,,Helsinki
185.179.117.17,4,12,jaegerplatoon.net,FI,Europe,Northern Europe,Finland,,,
95.216.244.50,4,4,jagobd.com,FI,Europe,Northern Europe,Finland,Uusimaa,,Helsinki
135.181.136.9,4,678,jagweb.com,FI,Europe,Northern Europe,Finland,Uusimaa,,Helsinki
65.109.99.134,4,4,janamat.com.np,FI,Europe,Northern Europe,Finland,Uusimaa,,Helsinki
65.109.16.24,4,4,japan.com.ua,FI,Europe,Northern Europe,Finland,Uusimaa,,Helsinki
135.181.238.183,4,6,jastrzebie.pl,FI,Europe,Northern Europe,Finland,Uusimaa,,Helsinki
95.217.197.84,4,3,javadecompilers.com,FI,Europe,Northern Europe,Finland,Uusimaa,,Helsinki
95.217.34.176,4,16,javaprogrammingforums.com,FI,Europe,Northern Europe,Finland,Uusimaa,,Helsinki
95.216.65.86,4,4,jelonka.com,FI,Europe,Northern Europe,Finland,Uusimaa,,Helsinki
79.171.232.156,4,2,jetico.com,FI,Europe,Northern Europe,Finland,,,
65.109.7.53,4,1,jlamothe.net,FI,Europe,Northern Europe,Finland,Uusimaa,,Helsinki
65.109.155.179,4,3,joewein.net,FI,Europe,Northern Europe,Finland,Uusimaa,,Helsinki
94.237.11.81,4,12,johnnurmisensaatio.fi,FI,Europe,Northern Europe,Finland,Uusimaa,,Helsinki
31.217.192.65,4,10,joiku.com,FI,Europe,Northern Europe,Finland,,,
65.21.61.25,4,3,join-lemmy.org,FI,Europe,Northern Europe,Finland,Uusimaa,,Helsinki
77.83.247.19,4,6,joinjabber.org,FI,Europe,Northern Europe,Finland,Uusimaa,,Helsinki
65.108.110.46,4,23,jokes4all.net,FI,Europe,Northern Europe,Finland,Uusimaa,,Helsinki
95.217.106.12,4,9,joomlaforum.ru,FI,Europe,Northern Europe,Finland,Uusimaa,,Helsinki
65.109.159.178,4,12,journaldatabase.info,FI,Europe,Northern Europe,Finland,Uusimaa,,Helsinki
95.217.204.70,4,-5960,journalrmc.com,FI,Europe,Northern Europe,Finland,Uusimaa,,Helsinki
35.228.202.252,4,69,joutsa.fi,FI,Europe,Northern Europe,Finland,South Karelia Region,,Lappeenranta
95.217.47.36,4,4,juedischerundschau.de,FI,Europe,Northern Europe,Finland,Uusimaa,,Helsinki
81.22.250.158,4,3,juminkeko.fi,FI,Europe,Northern Europe,Finland,Uusimaa,,Espoo
65.108.202.152,4,1,juventuz.com,FI,Europe,Northern Europe,Finland,Uusimaa,,Helsinki
65.109.69.8,4,0,jwfan.com,FI,Europe,Northern Europe,Finland,Uusimaa,,Helsinki
77.72.62.27,4,4,kaapeli.fi,FI,Europe,Northern Europe,Finland,,,
77.72.56.110,4,2,kaapelitehdas.fi,FI,Europe,Northern Europe,Finland,,,
185.179.117.15,4,4,kaapioautoyhdistys.fi,FI,Europe,Northern Europe,Finland,,,
95.216.198.58,4,1,kadastrpro.com,FI,Europe,Northern Europe,Finland,Uusimaa,,Helsinki
65.109.73.237,4,2,kak2z.ru,FI,Europe,Northern Europe,Finland,Uusimaa,,Helsinki
95.217.18.13,4,24,kaliningradfirst.ru,FI,Europe,Northern Europe,Finland,Uusimaa,,Helsinki
95.217.214.195,4,24,kaliningradtoday.ru,FI,Europe,Northern Europe,Finland,Uusimaa,,Helsinki
95.216.188.176,4,39,kalyterizoi.gr,FI,Europe,Northern Europe,Finland,Uusimaa,,Helsinki
83.143.223.85,4,59,kameli.net,FI,Europe,Northern Europe,Finland,,,
31.217.192.247,4,3,kansallisgalleria.fi,FI,Europe,Northern Europe,Finland,,,
91.221.67.85,4,7,kanssoftware.com,FI,Europe,Northern Europe,Finland,,,
91.232.154.11,4,21,kapsi.fi,FI,Europe,Northern Europe,Finland,,,
65.21.20.126,4,2,karatboxing.com.ua,FI,Europe,Northern Europe,Finland,Uusimaa,,Helsinki
95.217.57.83,4,1,karlitschek.de,FI,Europe,Northern Europe,Finland,Uusimaa,,Helsinki
65.21.27.53,4,2,kasteeldehaar.nl,FI,Europe,Northern Europe,Finland,Uusimaa,,Helsinki
65.21.140.249,4,1,katohika.gr,FI,Europe,Northern Europe,Finland,Uusimaa,,Helsinki
89.190.3.32,4,264,kaustinen.net,FI,Europe,Northern Europe,Finland,Central Ostrobothnia,,Toholampi
65.109.35.251,4,1,kbin.chat,FI,Europe,Northern Europe,Finland,Uusimaa,,Helsinki
95.217.139.234,4,12,kcb.org.rs,FI,Europe,Northern Europe,Finland,Uusimaa,,Helsinki
135.181.162.17,4,10,keeptalkinggreece.com,FI,Europe,Northern Europe,Finland,Uusimaa,,Helsinki
94.237.13.20,4,1080,kekkila.fi,FI,Europe,Northern Europe,Finland,Uusimaa,,Helsinki
188.117.20.12,4,62,kempele.fi,FI,Europe,Northern Europe,Finland,Uusimaa,,Espoo
135.181.68.202,4,-1,keramis.com.ua,FI,Europe,Northern Europe,Finland,Uusimaa,,Helsinki
94.237.12.155,4,7,kermankiertajat.net,FI,Europe,Northern Europe,Finland,Uusimaa,,Helsinki
193.163.5.5,4,9,keskusta.fi,FI,Europe,Northern Europe,Finland,Pirkanmaa,,Tampere
65.108.220.97,4,3,keyoxide.org,FI,Europe,Northern Europe,Finland,Uusimaa,,Helsinki
65.108.106.240,4,1,khabmama.ru,FI,Europe,Northern Europe,Finland,Uusimaa,,Helsinki
95.217.41.19,4,0,kharidebehtar.ir,FI,Europe,Northern Europe,Finland,Uusimaa,,Helsinki
35.228.54.117,4,4,khio.no,FI,Europe,Northern Europe,Finland,South Karelia Region,,Lappeenranta
65.109.75.163,4,9,khybernews.tv,FI,Europe,Northern Europe,Finland,Uusimaa,,Helsinki
95.216.66.124,4,712,kicksecure.com,FI,Europe,Northern Europe,Finland,Uusimaa,,Helsinki
65.21.72.131,4,-543,kidshockey.ru,FI,Europe,Northern Europe,Finland,Uusimaa,,Helsinki
185.55.85.123,4,65,kielitoimistonsanakirja.fi,FI,Europe,Northern Europe,Finland,,,
95.216.226.215,4,20,kildekode.ru,FI,Europe,Northern Europe,Finland,Uusimaa,,Helsinki
95.217.116.175,4,2,kinderfreunde.at,FI,Europe,Northern Europe,Finland,Uusimaa,,Helsinki
65.21.145.149,4,25,kirja.casa,FI,Europe,Northern Europe,Finland,Uusimaa,,Helsinki
95.216.212.151,4,3,kirjasampo.fi,FI,Europe,Northern Europe,Finland,Uusimaa,,Helsinki
79.171.236.130,4,33,kirkkojakaupunki.fi,FI,Europe,Northern Europe,Finland,,,
37.27.66.82,4,21,klassikaknigi.info,FI,Europe,Northern Europe,Finland,Uusimaa,,Helsinki
135.181.6.80,4,46,kloster-benediktbeuern.de,FI,Europe,Northern Europe,Finland,Uusimaa,,Helsinki
65.109.162.101,4,24,knute.edu.ua,FI,Europe,Northern Europe,Finland,Uusimaa,,Helsinki
95.217.120.22,4,3,kogis.pl,FI,Europe,Northern Europe,Finland,Uusimaa,,Helsinki
95.217.241.50,4,5,kohikan.jp,FI,Europe,Northern Europe,Finland,Uusimaa,,Helsinki
31.217.193.56,4,3,kohina.com,FI,Europe,Northern Europe,Finland,,,
65.21.127.156,4,88,kolamap.ru,FI,Europe,Northern Europe,Finland,Uusimaa,,Helsinki
135.181.90.86,4,5,kongsbergjazz.no,FI,Europe,Northern Europe,Finland,Uusimaa,,Helsinki
95.216.110.83,4,37,kons-na-bis.com,FI,Europe,Northern Europe,Finland,Uusimaa,,Helsinki
65.108.108.34,4,135,kontranews.gr,FI,Europe,Northern Europe,Finland,Uusimaa,,Helsinki
185.193.127.6,4,41,kontrapolis.info,FI,Europe,Northern Europe,Finland,,,
65.21.229.28,4,25,koolmaxgroup.com,FI,Europe,Northern Europe,Finland,Uusimaa,,Helsinki
95.217.196.146,4,11,kore.io,FI,Europe,Northern Europe,Finland,Uusimaa,,Helsinki
95.216.73.177,4,8,kosmetykaaut.pl,FI,Europe,Northern Europe,Finland,Uusimaa,,Helsinki
85.23.207.197,4,59,kotimaa24.fi,FI,Europe,Northern Europe,Finland,Southwest Finland,,Raisio
81.22.243.59,4,2,kotisivut.com,FI,Europe,Northern Europe,Finland,Uusimaa,,Espoo
65.108.208.187,4,44,kronavto.ua,FI,Europe,Northern Europe,Finland,Uusimaa,,Helsinki
95.216.71.228,4,7,kse.org.ua,FI,Europe,Northern Europe,Finland,Uusimaa,,Helsinki
65.108.79.10,4,44,kundeerfaringer.no,FI,Europe,Northern Europe,Finland,Uusimaa,,Helsinki
5.250.164.172,4,40,kuntarekry.fi,FI,Europe,Northern Europe,Finland,Uusimaa,,Helsinki
95.217.162.168,4,2,kups.fi,FI,Europe,Northern Europe,Finland,Uusimaa,,Helsinki
95.217.175.154,4,4,kurs.kz,FI,Europe,Northern Europe,Finland,Uusimaa,,Helsinki
135.181.161.231,4,15,kvadroavto.ru,FI,Europe,Northern Europe,Finland,Uusimaa,,Helsinki
95.217.47.154,4,1,kylymia.com.ua,FI,Europe,Northern Europe,Finland,Uusimaa,,Helsinki
37.27.88.204,4,1,kyrgyz.ru,FI,Europe,Northern Europe,Finland,Uusimaa,,Helsinki
185.185.170.204,4,8,kyu.de,FI,Europe,Northern Europe,Finland,Uusimaa,,Helsinki
83.143.222.8,4,11,laakariliitto.fi,FI,Europe,Northern Europe,Finland,,,
65.109.24.120,4,4,laboratoria.net,FI,Europe,Northern Europe,Finland,Uusimaa,,Helsinki
95.217.28.168,4,3,lactual.cat,FI,Europe,Northern Europe,Finland,Uusimaa,,Helsinki
94.237.125.84,4,4,lago.be,FI,Europe,Northern Europe,Finland,,,
65.21.70.47,4,5,lakasbolt.hu,FI,Europe,Northern Europe,Finland,Uusimaa,,Helsinki
95.217.230.141,4,8,lamiareport.gr,FI,Europe,Northern Europe,Finland,Uusimaa,,Helsinki
37.27.129.138,4,2,landportal.info,FI,Europe,Northern Europe,Finland,Uusimaa,,Helsinki
35.228.119.41,4,5,langholmen.com,FI,Europe,Northern Europe,Finland,South Karelia Region,,Lappeenranta
135.181.67.26,4,7,lanscabarberhouse.com,FI,Europe,Northern Europe,Finland,Uusimaa,,Helsinki
80.69.161.39,4,5,lansimetro.fi,FI,Europe,Northern Europe,Finland,,,
188.117.20.22,4,28,laplandhotels.com,FI,Europe,Northern Europe,Finland,Uusimaa,,Espoo
95.217.195.91,4,5,laptopkala.ir,FI,Europe,Northern Europe,Finland,Uusimaa,,Helsinki
95.217.74.20,4,5,larasch.de,FI,Europe,Northern Europe,Finland,Uusimaa,,Helsinki
95.217.203.188,4,1,larsenbiathlon.com,FI,Europe,Northern Europe,Finland,Uusimaa,,Helsinki
77.72.56.56,4,48,lasipalatsi.fi,FI,Europe,Northern Europe,Finland,,,
135.181.156.170,4,94,lavozdelanzarote.com,FI,Europe,Northern Europe,Finland,Uusimaa,,Helsinki
37.27.71.197,4,13,lawstrust.com,FI,Europe,Northern Europe,Finland,Uusimaa,,Helsinki
65.108.250.136,4,2,lawyersnjurists.com,FI,Europe,Northern Europe,Finland,Uusimaa,,Helsinki
135.181.218.34,4,4,lazionews24.com,FI,Europe,Northern Europe,Finland,Uusimaa,,Helsinki
95.216.21.34,4,19,leasingverband.de,FI,Europe,Northern Europe,Finland,Uusimaa,,Helsinki
135.181.248.92,4,18,leftword.com,FI,Europe,Northern Europe,Finland,Uusimaa,,Helsinki
65.21.131.226,4,47,legi-internet.ro,FI,Europe,Northern Europe,Finland,Uusimaa,,Helsinki
65.21.120.186,4,3,legisweb.com.br,FI,Europe,Northern Europe,Finland,Uusimaa,,Helsinki
95.217.30.209,4,43,legjobbkaszino.hu,FI,Europe,Northern Europe,Finland,Uusimaa,,Helsinki
95.216.196.74,4,4,lejourdalgerie.com,FI,Europe,Northern Europe,Finland,Uusimaa,,Helsinki
95.216.41.105,4,83,lenta.ua,FI,Europe,Northern Europe,Finland,Uusimaa,,Helsinki
95.216.99.80,4,3,lethallava.land,FI,Europe,Northern Europe,Finland,Uusimaa,,Helsinki
65.109.13.57,4,3,lgbt.io,FI,Europe,Northern Europe,Finland,Uusimaa,,Helsinki
135.181.44.210,4,7,liberal.ru,FI,Europe,Northern Europe,Finland,Uusimaa,,Helsinki
37.27.81.48,4,50,libraries.fi,FI,Europe,Northern Europe,Finland,Uusimaa,,Helsinki
65.21.153.163,4,46,lifeoptimizer.org,FI,Europe,Northern Europe,Finland,Uusimaa,,Helsinki
95.216.65.251,4,3,limba.com,FI,Europe,Northern Europe,Finland,Uusimaa,,Helsinki
65.21.145.238,4,5,lineicons.com,FI,Europe,Northern Europe,Finland,Uusimaa,,Helsinki
213.130.74.31,4,12,lining.kz,FI,Europe,Northern Europe,Finland,Uusimaa,,Helsinki
95.216.218.157,4,1,links.org,FI,Europe,Northern Europe,Finland,Uusimaa,,Helsinki
95.216.7.173,4,23,linux.pl,FI,Europe,Northern Europe,Finland,Uusimaa,,Helsinki
95.217.79.148,4,2,linux.ru,FI,Europe,Northern Europe,Finland,Uusimaa,,Helsinki
95.216.97.69,4,55,lipid-liga.de,FI,Europe,Northern Europe,Finland,Uusimaa,,Helsinki
135.181.220.109,4,6,livecamcroatia.com,FI,Europe,Northern Europe,Finland,Uusimaa,,Helsinki
65.108.201.235,4,12,liveexpert.ru,FI,Europe,Northern Europe,Finland,Uusimaa,,Helsinki
65.108.28.153,4,23,livesurf.ru,FI,Europe,Northern Europe,Finland,Uusimaa,,Helsinki
95.216.227.126,4,2,livesweden.se,FI,Europe,Northern Europe,Finland,Uusimaa,,Helsinki
95.217.227.240,4,0,livetvchannels.org,FI,Europe,Northern Europe,Finland,Uusimaa,,Helsinki
95.217.23.113,4,1,liw.fi,FI,Europe,Northern Europe,Finland,Uusimaa,,Helsinki
65.108.107.51,4,21,lockerz.com,FI,Europe,Northern Europe,Finland,Uusimaa,,Helsinki
95.216.140.54,4,976928,lodz.travel,FI,Europe,Northern Europe,Finland,Uusimaa,,Helsinki
95.216.13.203,4,470,loophabits.org,FI,Europe,Northern Europe,Finland,Uusimaa,,Helsinki
95.216.75.169,4,27,lorizzle.nl,FI,Europe,Northern Europe,Finland,Uusimaa,,Helsinki
95.216.99.228,4,369,lostudio.ru,FI,Europe,Northern Europe,Finland,Uusimaa,,Helsinki
95.216.112.116,4,1,lotteryextreme.com,FI,Europe,Northern Europe,Finland,Uusimaa,,Helsinki
80.69.174.12,4,40,louhi.fi,FI,Europe,Northern Europe,Finland,,,
65.108.151.124,4,2,lrnkey.com,FI,Europe,Northern Europe,Finland,Uusimaa,,Helsinki
94.237.105.191,4,8,lskl.fi,FI,Europe,Northern Europe,Finland,,,
65.108.43.149,4,14,luckycosmetics.ru,FI,Europe,Northern Europe,Finland,Uusimaa,,Helsinki
65.21.207.27,4,2,m-e.com.ua,FI,Europe,Northern Europe,Finland,Uusimaa,,Helsinki
95.216.47.197,4,1,m555.com.ua,FI,Europe,Northern Europe,Finland,Uusimaa,,Helsinki
65.108.88.170,4,5,madeinbern.com,FI,Europe,Northern Europe,Finland,Uusimaa,,Helsinki
65.108.152.28,4,6,madeinbern.com,FI,Europe,Northern Europe,Finland,Uusimaa,,Helsinki
65.108.92.252,4,2,madeinbern.com,FI,Europe,Northern Europe,Finland,Uusimaa,,Helsinki
95.216.226.135,4,44,madhouse-project.org,FI,Europe,Northern Europe,Finland,Uusimaa,,Helsinki
95.217.34.161,4,17,madloba.info,FI,Europe,Northern Europe,Finland,Uusimaa,,Helsinki
65.21.229.178,4,102,madscientists.eu,FI,Europe,Northern Europe,Finland,Uusimaa,,Helsinki
65.108.124.85,4,78,maecenata.eu,FI,Europe,Northern Europe,Finland,Uusimaa,,Helsinki
83.150.67.110,4,6,mail-epr.net,FI,Europe,Northern Europe,Finland,Uusimaa,,Helsinki
188.117.16.111,4,7,mailpv.net,FI,Europe,Northern Europe,Finland,Uusimaa,,Espoo
95.217.181.3,4,-6,mailservice.com,FI,Europe,Northern Europe,Finland,Uusimaa,,Helsinki
37.27.17.84,4,1,makupalat.fi,FI,Europe,Northern Europe,Finland,Uusimaa,,Helsinki
65.108.79.152,4,10,manipuritheatre.com,FI,Europe,Northern Europe,Finland,Uusimaa,,Helsinki
87.108.17.175,4,28,mannerheim.fi,FI,Europe,Northern Europe,Finland,,,
95.217.61.144,4,25,maps-for-free.com,FI,Europe,Northern Europe,Finland,Uusimaa,,Helsinki
95.217.197.241,4,38,marbellagolf.com,FI,Europe,Northern Europe,Finland,Uusimaa,,Helsinki
95.217.33.202,4,29,marcasrenombradas.com,FI,Europe,Northern Europe,Finland,Uusimaa,,Helsinki
135.181.180.74,4,51,markaz-e-durood.com,FI,Europe,Northern Europe,Finland,Uusimaa,,Helsinki
95.216.3.86,4,3,marketer.ua,FI,Europe,Northern Europe,Finland,Uusimaa,,Helsinki
95.216.32.204,4,6,maschinenportal24.com,FI,Europe,Northern Europe,Finland,Uusimaa,,Helsinki
95.216.32.203,4,48,maschinenportal24.ru,FI,Europe,Northern Europe,Finland,Uusimaa,,Helsinki
135.181.194.195,4,0,maskintema.se,FI,Europe,Northern Europe,Finland,Uusimaa,,Helsinki
37.27.186.191,4,18,massmailsoftware.com,FI,Europe,Northern Europe,Finland,Uusimaa,,Helsinki
65.108.142.114,4,45,master-parts.ru,FI,Europe,Northern Europe,Finland,Uusimaa,,Helsinki
185.220.77.2,4,99,mat.fi,FI,Europe,Northern Europe,Finland,,,
95.217.30.133,4,-1,mataroa.blog,FI,Europe,Northern Europe,Finland,Uusimaa,,Helsinki
95.217.234.40,4,22,mathspp.com,FI,Europe,Northern Europe,Finland,Uusimaa,,Helsinki
81.22.250.27,4,553,matkailijat.net,FI,Europe,Northern Europe,Finland,Uusimaa,,Espoo
135.181.73.175,4,4,maurizioblondet.it,FI,Europe,Northern Europe,Finland,Uusimaa,,Helsinki
135.181.235.225,4,883,mavericksmedia.ca,FI,Europe,Northern Europe,Finland,Uusimaa,,Helsinki
37.27.67.114,4,13,mbr-berlin.de,FI,Europe,Northern Europe,Finland,Uusimaa,,Helsinki
95.216.16.146,4,2,mcf.gr,FI,Europe,Northern Europe,Finland,Uusimaa,,Helsinki
65.108.14.135,4,8,mdpu.org.ua,FI,Europe,Northern Europe,Finland,Uusimaa,,Helsinki
65.21.162.132,4,46,mebel-top.ru,FI,Europe,Northern Europe,Finland,Uusimaa,,Helsinki
95.216.200.93,4,3,medbox.org,FI,Europe,Northern Europe,Finland,Uusimaa,,Helsinki
95.216.75.113,4,93,mediaarthistory.org,FI,Europe,Northern Europe,Finland,Uusimaa,,Helsinki
95.217.111.244,4,1,mediasole.ru,FI,Europe,Northern Europe,Finland,Uusimaa,,Helsinki
95.217.44.99,4,1,medme.pl,FI,Europe,Northern Europe,Finland,Uusimaa,,Helsinki
135.181.250.227,4,1,meepcraft.com,FI,Europe,Northern Europe,Finland,Uusimaa,,Helsinki
65.109.111.45,4,2,melvad.com,FI,Europe,Northern Europe,Finland,Uusimaa,,Helsinki
65.21.62.142,4,0,mementomori.social,FI,Europe,Northern Europe,Finland,Uusimaa,,Helsinki
95.216.137.177,4,15,memopzk.org,FI,Europe,Northern Europe,Finland,Uusimaa,,Helsinki
185.193.126.146,4,4,memoryoftheworld.org,FI,Europe,Northern Europe,Finland,,,
95.216.92.131,4,748,mercedeskhodro.ir,FI,Europe,Northern Europe,Finland,Uusimaa,,Helsinki
95.216.29.147,4,2,metalarea.org,FI,Europe,Northern Europe,Finland,Uusimaa,,Helsinki
95.216.172.241,4,1,metallprom24.ru,FI,Europe,Northern Europe,Finland,Uusimaa,,Helsinki
135.181.121.5,4,6,metapixl.com,FI,Europe,Northern Europe,Finland,Uusimaa,,Helsinki
135.181.169.140,4,19,metropol-verlag.de,FI,Europe,Northern Europe,Finland,Uusimaa,,Helsinki
65.109.166.68,4,3,metropolitan.fi,FI,Europe,Northern Europe,Finland,Uusimaa,,Helsinki
178.22.19.63,4,117,mha.fi,FI,Europe,Northern Europe,Finland,Uusimaa,,M채nts채l채
95.216.17.40,4,4,microstar.ru,FI,Europe,Northern Europe,Finland,Uusimaa,,Helsinki
185.168.213.3,4,-1082,mielenterveysseurat.fi,FI,Europe,Northern Europe,Finland,,,
135.181.20.124,4,24,mil.today,FI,Europe,Northern Europe,Finland,Uusimaa,,Helsinki
135.181.218.55,4,2,milannews24.com,FI,Europe,Northern Europe,Finland,Uusimaa,,Helsinki
135.181.78.22,4,22,milanocittastato.it,FI,Europe,Northern Europe,Finland,Uusimaa,,Helsinki
65.108.13.113,4,15,mimplus.ir,FI,Europe,Northern Europe,Finland,Uusimaa,,Helsinki
95.217.151.146,4,1737576,miniview.ru,FI,Europe,Northern Europe,Finland,Uusimaa,,Helsinki
95.217.174.228,4,0,minter.network,FI,Europe,Northern Europe,Finland,Uusimaa,,Helsinki
65.108.193.217,4,22,misskey.social,FI,Europe,Northern Europe,Finland,Uusimaa,,Helsinki
95.216.87.215,4,50,misterdesign.nl,FI,Europe,Northern Europe,Finland,Uusimaa,,Helsinki
65.108.27.164,4,3,mkgandhi.org,FI,Europe,Northern Europe,Finland,Uusimaa,,Helsinki
135.181.208.237,4,7,moa.party,FI,Europe,Northern Europe,Finland,Uusimaa,,Helsinki
135.181.147.96,4,3,mobicaze.com.ua,FI,Europe,Northern Europe,Finland,Uusimaa,,Helsinki
65.21.204.52,4,2,mobilesforums.com,FI,Europe,Northern Europe,Finland,Uusimaa,,Helsinki
95.217.201.102,4,-371771,mobindustry.net,FI,Europe,Northern Europe,Finland,Uusimaa,,Helsinki
130.230.72.136,4,2,modeemi.fi,FI,Europe,Northern Europe,Finland,Pirkanmaa,,Tampere
95.217.83.60,4,0,modern-st.ru,FI,Europe,Northern Europe,Finland,Uusimaa,,Helsinki
135.181.88.5,4,116,modulargrid.net,FI,Europe,Northern Europe,Finland,Uusimaa,,Helsinki
95.216.184.212,4,40,moensted.dk,FI,Europe,Northern Europe,Finland,Uusimaa,,Helsinki
65.109.59.20,4,-144518,moesassurances.be,FI,Europe,Northern Europe,Finland,Uusimaa,,Helsinki
65.108.216.245,4,102,mojepanstwo.pl,FI,Europe,Northern Europe,Finland,Uusimaa,,Helsinki
95.217.184.152,4,7,monal-im.org,FI,Europe,Northern Europe,Finland,Uusimaa,,Helsinki
65.108.39.62,4,2,mondraker.com,FI,Europe,Northern Europe,Finland,Uusimaa,,Helsinki
65.109.43.39,4,13,monkscafe.com,FI,Europe,Northern Europe,Finland,Uusimaa,,Helsinki
83.143.219.50,4,1,moonsorrow.com,FI,Europe,Northern Europe,Finland,,,
65.109.53.106,4,26,morphos-team.net,FI,Europe,Northern Europe,Finland,Uusimaa,,Helsinki
65.109.58.171,4,84,moscow-post.su,FI,Europe,Northern Europe,Finland,Uusimaa,,Helsinki
95.217.242.76,4,89,moskvichemania.ru,FI,Europe,Northern Europe,Finland,Uusimaa,,Helsinki
95.217.112.21,4,6,motakhsis.com,FI,Europe,Northern Europe,Finland,Uusimaa,,Helsinki
65.108.7.226,4,96,mozaart.com,FI,Europe,Northern Europe,Finland,Uusimaa,,Helsinki
95.216.62.175,4,22,mozarteum.at,FI,Europe,Northern Europe,Finland,Uusimaa,,Helsinki
65.21.184.198,4,4,mp3.studio,FI,Europe,Northern Europe,Finland,Uusimaa,,Helsinki
65.108.9.166,4,3,mpstudia.ru,FI,Europe,Northern Europe,Finland,Uusimaa,,Helsinki
135.181.137.77,4,7,mrkzy.com,FI,Europe,Northern Europe,Finland,Uusimaa,,Helsinki
65.109.234.6,4,3,mstdn.business,FI,Europe,Northern Europe,Finland,Uusimaa,,Helsinki
5.22.208.168,4,6,msxall.com,FI,Europe,Northern Europe,Finland,,,
5.22.208.76,4,2,msxpro.com,FI,Europe,Northern Europe,Finland,,,
95.217.37.18,4,4,mt2ar.com,FI,Europe,Northern Europe,Finland,Uusimaa,,Helsinki
79.171.236.163,4,21,mtk.fi,FI,Europe,Northern Europe,Finland,,,
37.27.15.42,4,107,multibaggerstocks.org,FI,Europe,Northern Europe,Finland,Uusimaa,,Helsinki
65.21.187.21,4,2,multisafepay.com,FI,Europe,Northern Europe,Finland,Uusimaa,,Helsinki
85.134.59.141,4,5,multitronic.fi,FI,Europe,Northern Europe,Finland,Ostrobothnia,,N채rpes
135.181.69.112,4,1,munfoorumi.com,FI,Europe,Northern Europe,Finland,Uusimaa,,Helsinki
95.217.240.171,4,8,murena.io,FI,Europe,Northern Europe,Finland,Uusimaa,,Helsinki
65.109.243.106,4,0,murena.io,FI,Europe,Northern Europe,Finland,Uusimaa,,Helsinki
185.55.84.239,4,6,muusikoiden.net,FI,Europe,Northern Europe,Finland,,,
135.181.199.44,4,2,muzeumpiernika.pl,FI,Europe,Northern Europe,Finland,Uusimaa,,Helsinki
213.130.74.32,4,7,mvu.kz,FI,Europe,Northern Europe,Finland,Uusimaa,,Helsinki
135.181.162.100,4,2,myanimeshelf.com,FI,Europe,Northern Europe,Finland,Uusimaa,,Helsinki
65.109.223.78,4,13,myfactory.com,FI,Europe,Northern Europe,Finland,Uusimaa,,Helsinki
135.181.220.62,4,49,mymakeupstory-iran.com,FI,Europe,Northern Europe,Finland,Uusimaa,,Helsinki
135.181.13.85,4,2,mymeetbook.com,FI,Europe,Northern Europe,Finland,Uusimaa,,Helsinki
95.217.113.33,4,22,mymun.com,FI,Europe,Northern Europe,Finland,Uusimaa,,Helsinki
95.216.41.142,4,11,mynizhyn.com,FI,Europe,Northern Europe,Finland,Uusimaa,,Helsinki
135.181.214.147,4,5,mytvchain.io,FI,Europe,Northern Europe,Finland,Uusimaa,,Helsinki
185.220.77.7,4,16,n2.fi,FI,Europe,Northern Europe,Finland,,,
95.216.232.67,4,0,nadaje.com,FI,Europe,Northern Europe,Finland,Uusimaa,,Helsinki
65.108.106.113,4,2,naobcasach.pl,FI,Europe,Northern Europe,Finland,Uusimaa,,Helsinki
135.181.237.116,4,2,nationalopera.gr,FI,Europe,Northern Europe,Finland,Uusimaa,,Helsinki
95.217.113.101,4,0,natural-health-news.com,FI,Europe,Northern Europe,Finland,Uusimaa,,Helsinki
95.217.147.103,4,21,naturalherbsclinic.com,FI,Europe,Northern Europe,Finland,Uusimaa,,Helsinki
95.216.46.50,4,53,nauka-avto.ru,FI,Europe,Northern Europe,Finland,Uusimaa,,Helsinki
65.109.88.147,4,28788,nawaiwaqt.com.pk,FI,Europe,Northern Europe,Finland,Uusimaa,,Helsinki
95.217.202.187,4,0,nb1.hu,FI,Europe,Northern Europe,Finland,Uusimaa,,Helsinki
95.216.1.122,4,-5250,ne-kurim.ru,FI,Europe,Northern Europe,Finland,Uusimaa,,Helsinki
65.108.107.7,4,42,nerdcore.social,FI,Europe,Northern Europe,Finland,Uusimaa,,Helsinki
135.181.76.162,4,8,netserwer.pl,FI,Europe,Northern Europe,Finland,Uusimaa,,Helsinki
94.237.11.113,4,139,nettiaika.fi,FI,Europe,Northern Europe,Finland,Uusimaa,,Helsinki
80.83.6.152,4,53,nettisivu.org,FI,Europe,Northern Europe,Finland,,,
65.21.3.99,4,22,netzbegruenung.de,FI,Europe,Northern Europe,Finland,Uusimaa,,Helsinki
65.108.230.196,4,3,news29.org,FI,Europe,Northern Europe,Finland,Uusimaa,,Helsinki
37.27.71.198,4,46,newsmerits.info,FI,Europe,Northern Europe,Finland,Uusimaa,,Helsinki
65.108.80.227,4,10,newsvoice.se,FI,Europe,Northern Europe,Finland,Uusimaa,,Helsinki
95.217.198.8,4,1,newthinking.de,FI,Europe,Northern Europe,Finland,Uusimaa,,Helsinki
65.108.110.148,4,31,nexpress.com.ua,FI,Europe,Northern Europe,Finland,Uusimaa,,Helsinki
65.108.198.252,4,3,niesr.com,FI,Europe,Northern Europe,Finland,Uusimaa,,Helsinki
95.217.160.57,4,3,nikopolnews.net,FI,Europe,Northern Europe,Finland,Uusimaa,,Helsinki
95.216.247.115,4,3,nina.az,FI,Europe,Northern Europe,Finland,Uusimaa,,Helsinki
135.181.177.46,4,0,nixnet.services,FI,Europe,Northern Europe,Finland,Uusimaa,,Helsinki
95.217.68.253,4,7,nixp.ru,FI,Europe,Northern Europe,Finland,Uusimaa,,Helsinki
95.217.43.103,4,2,nlgroeit.nl,FI,Europe,Northern Europe,Finland,Uusimaa,,Helsinki
135.181.96.107,4,-1,nluo.ac.in,FI,Europe,Northern Europe,Finland,Uusimaa,,Helsinki
34.88.85.46,4,2,nmcu.org,FI,Europe,Northern Europe,Finland,South Karelia Region,,Lappeenranta
95.217.93.209,4,2,nmims.in,FI,Europe,Northern Europe,Finland,Uusimaa,,Helsinki
95.217.56.73,4,5,noah-shop.com,FI,Europe,Northern Europe,Finland,Uusimaa,,Helsinki
65.108.72.215,4,4,noc-ukr.org,FI,Europe,Northern Europe,Finland,Uusimaa,,Helsinki
65.21.29.117,4,121,nomadgirl.co,FI,Europe,Northern Europe,Finland,Uusimaa,,Helsinki
94.237.112.170,4,47,nordiskfilm.fi,FI,Europe,Northern Europe,Finland,Uusimaa,,Helsinki
135.181.167.12,4,3,norrlandsoperan.se,FI,Europe,Northern Europe,Finland,Uusimaa,,Helsinki
65.21.3.233,4,16,nostate.net,FI,Europe,Northern Europe,Finland,Uusimaa,,Helsinki
95.216.33.150,4,6,nostr.band,FI,Europe,Northern Europe,Finland,Uusimaa,,Helsinki
37.27.55.68,4,-1,novosti.ua,FI,Europe,Northern Europe,Finland,Uusimaa,,Helsinki
65.108.236.35,4,25,novostimira.com,FI,Europe,Northern Europe,Finland,Uusimaa,,Helsinki
65.109.2.126,4,2,ntz.lv,FI,Europe,Northern Europe,Finland,Uusimaa,,Helsinki
95.217.87.50,4,3,nukadeti.ru,FI,Europe,Northern Europe,Finland,Uusimaa,,Helsinki
35.228.201.97,4,3,nyatider.nu,FI,Europe,Northern Europe,Finland,South Karelia Region,,Lappeenranta
65.21.49.144,4,0,nyttomnyheter.se,FI,Europe,Northern Europe,Finland,Uusimaa,,Helsinki
65.109.81.113,4,3,nzhuntingandshooting.co.nz,FI,Europe,Northern Europe,Finland,Uusimaa,,Helsinki
95.217.84.20,4,13,oc-jahorina.com,FI,Europe,Northern Europe,Finland,Uusimaa,,Helsinki
65.21.236.14,4,3,ochki.net,FI,Europe,Northern Europe,Finland,Uusimaa,,Helsinki
95.217.69.182,4,15,odg.cat,FI,Europe,Northern Europe,Finland,Uusimaa,,Helsinki
95.217.45.101,4,83,offcloud.com,FI,Europe,Northern Europe,Finland,Uusimaa,,Helsinki
95.216.77.98,4,1,ogorodum.ru,FI,Europe,Northern Europe,Finland,Uusimaa,,Helsinki
135.181.92.245,4,16,ohtranslate.com,FI,Europe,Northern Europe,Finland,Uusimaa,,Helsinki
95.217.192.136,4,196,olado.ru,FI,Europe,Northern Europe,Finland,Uusimaa,,Helsinki
135.181.126.59,4,47,olympiacosbc.gr,FI,Europe,Northern Europe,Finland,Uusimaa,,Helsinki
65.109.125.221,4,2,omaksshop.com.ua,FI,Europe,Northern Europe,Finland,Uusimaa,,Helsinki
65.21.232.230,4,12,ombudsman.hr,FI,Europe,Northern Europe,Finland,Uusimaa,,Helsinki
135.181.160.105,4,2,omu.edu.ly,FI,Europe,Northern Europe,Finland,Uusimaa,,Helsinki
135.181.58.85,4,11,ongrad.ru,FI,Europe,Northern Europe,Finland,Uusimaa,,Helsinki
135.181.254.184,4,7,online-utility.org,FI,Europe,Northern Europe,Finland,Uusimaa,,Helsinki
65.109.95.172,4,87,onlineexpo.com,FI,Europe,Northern Europe,Finland,Uusimaa,,Helsinki
62.71.156.60,4,315,Ookla Speedtest Server 14928: speedtest.extra.telia.fi,FI,Europe,Northern Europe,Finland,,,
46.163.243.178,4,242634,Ookla Speedtest Server 15528: nopeustesti.blcnet.fi,FI,Europe,Northern Europe,Finland,Southern Savonia,,Savonlinna
139.45.200.129,4,419,Ookla Speedtest Server 31122: speedtest-hki.retn.net,FI,Europe,Northern Europe,Finland,Uusimaa,,Helsinki
188.127.215.114,4,413,Ookla Speedtest Server 32643: sp.suomicom.fi,FI,Europe,Northern Europe,Finland,Uusimaa,,Helsinki
185.128.16.8,4,134,Ookla Speedtest Server 56225: speedtest.valoonet.fi,FI,Europe,Northern Europe,Finland,Uusimaa,,Helsinki
65.108.78.216,4,26,opeka.gr,FI,Europe,Northern Europe,Finland,Uusimaa,,Helsinki
135.181.165.35,4,4,open.audio,FI,Europe,Northern Europe,Finland,Uusimaa,,Helsinki
94.237.31.176,4,30,openbadgefactory.com,FI,Europe,Northern Europe,Finland,,,
94.237.101.131,4,12,openbadgepassport.com,FI,Europe,Northern Europe,Finland,,,
65.109.67.82,4,46,opencart.ru,FI,Europe,Northern Europe,Finland,Uusimaa,,Helsinki
95.216.237.230,4,49,openkm.com,FI,Europe,Northern Europe,Finland,Uusimaa,,Helsinki
65.108.131.22,4,81,openoffice.org,FI,Europe,Northern Europe,Finland,Uusimaa,,Helsinki
95.216.97.40,4,31,opensimulator.org,FI,Europe,Northern Europe,Finland,Uusimaa,,Helsinki
94.237.89.138,4,2903296,operacluj.ro,FI,Europe,Northern Europe,Finland,,,
95.216.8.159,4,0,operieren.de,FI,Europe,Northern Europe,Finland,Uusimaa,,Helsinki
95.217.204.206,4,35,opferperspektive.de,FI,Europe,Northern Europe,Finland,Uusimaa,,Helsinki
95.217.42.74,4,73,optid.ru,FI,Europe,Northern Europe,Finland,Uusimaa,,Helsinki
95.216.15.176,4,14,optsklad.com,FI,Europe,Northern Europe,Finland,Uusimaa,,Helsinki
95.216.76.26,4,14,oren-sites.ru,FI,Europe,Northern Europe,Finland,Uusimaa,,Helsinki
95.216.68.170,4,42,organikablog.ru,FI,Europe,Northern Europe,Finland,Uusimaa,,Helsinki
95.217.147.111,4,4,ormbd.com,FI,Europe,Northern Europe,Finland,Uusimaa,,Helsinki
80.69.172.79,4,5,ort.fi,FI,Europe,Northern Europe,Finland,,,
95.216.181.216,4,3,orthopedie-grooteindhoven.nl,FI,Europe,Northern Europe,Finland,Uusimaa,,Helsinki
87.108.17.164,4,950,oumkua.com,FI,Europe,Northern Europe,Finland,,,
65.109.57.25,4,129,ourgreenstreets.org,FI,Europe,Northern Europe,Finland,Uusimaa,,Helsinki
5.22.208.138,4,23,outathome.be,FI,Europe,Northern Europe,Finland,,,
65.109.111.156,4,8,outerheaven.club,FI,Europe,Northern Europe,Finland,Uusimaa,,Helsinki
95.217.83.253,4,3,ozonpress.net,FI,Europe,Northern Europe,Finland,Uusimaa,,Helsinki
31.217.196.198,4,130,paavolaine.com,FI,Europe,Northern Europe,Finland,,,
95.217.214.26,4,68,paivola.fi,FI,Europe,Northern Europe,Finland,Uusimaa,,Helsinki
135.181.140.122,4,5,pakbs.org,FI,Europe,Northern Europe,Finland,Uusimaa,,Helsinki
95.216.236.26,4,16,pakhams.com,FI,Europe,Northern Europe,Finland,Uusimaa,,Helsinki
94.237.114.74,4,34,pakkotoisto.com,FI,Europe,Northern Europe,Finland,Uusimaa,,Helsinki
65.109.71.220,4,11,paktribune.com,FI,Europe,Northern Europe,Finland,Uusimaa,,Helsinki
31.187.84.89,4,4,paliskunnat.fi,FI,Europe,Northern Europe,Finland,,,
135.181.113.149,4,2,palkeo.com,FI,Europe,Northern Europe,Finland,Uusimaa,,Helsinki
135.181.152.78,4,9,palomarketfest.com,FI,Europe,Northern Europe,Finland,Uusimaa,,Helsinki
94.237.107.47,4,42,pam.fi,FI,Europe,Northern Europe,Finland,,,
135.181.129.224,4,50,paratiritis-news.gr,FI,Europe,Northern Europe,Finland,Uusimaa,,Helsinki
79.171.236.176,4,-1,pargas.fi,FI,Europe,Northern Europe,Finland,,,
65.21.221.47,4,13,parkschuetzer.de,FI,Europe,Northern Europe,Finland,Uusimaa,,Helsinki
135.181.123.137,4,33,passipedia.org,FI,Europe,Northern Europe,Finland,Uusimaa,,Helsinki
135.181.123.136,4,87,passiv.de,FI,Europe,Northern Europe,Finland,Uusimaa,,Helsinki
135.181.123.135,4,59,passivhausprojekte.de,FI,Europe,Northern Europe,Finland,Uusimaa,,Helsinki
135.181.123.140,4,43,passivhaustagung.de,FI,Europe,Northern Europe,Finland,Uusimaa,,Helsinki
135.181.13.100,4,699322,patrimoniosos.it,FI,Europe,Northern Europe,Finland,Uusimaa,,Helsinki
65.108.200.126,4,15,pcnews.ru,FI,Europe,Northern Europe,Finland,Uusimaa,,Helsinki
65.108.203.49,4,8,pcradio.ru,FI,Europe,Northern Europe,Finland,Uusimaa,,Helsinki
194.100.34.1,4,19,pcuf.fi,FI,Europe,Northern Europe,Finland,Uusimaa,,Vantaa
94.237.117.190,4,18,pelagobicycles.com,FI,Europe,Northern Europe,Finland,Uusimaa,,Helsinki
37.27.108.55,4,22,pencilpacking.com,FI,Europe,Northern Europe,Finland,Uusimaa,,Helsinki
135.181.87.169,4,4,pentabase.com,FI,Europe,Northern Europe,Finland,Uusimaa,,Helsinki
65.108.128.44,4,35,penzioneri.me,FI,Europe,Northern Europe,Finland,Uusimaa,,Helsinki
95.217.100.37,4,58,people-group.net,FI,Europe,Northern Europe,Finland,Uusimaa,,Helsinki
31.187.84.41,4,19,petrikainulainen.net,FI,Europe,Northern Europe,Finland,,,
65.108.43.126,4,2,petrowater.dz,FI,Europe,Northern Europe,Finland,Uusimaa,,Helsinki
95.217.150.173,4,17,photoeditinghq.com,FI,Europe,Northern Europe,Finland,Uusimaa,,Helsinki
95.217.246.8,4,16,phototravels.net,FI,Europe,Northern Europe,Finland,Uusimaa,,Helsinki
95.216.185.141,4,26,phpbbguru.net,FI,Europe,Northern Europe,Finland,Uusimaa,,Helsinki
95.217.129.254,4,50,phpixie.com,FI,Europe,Northern Europe,Finland,Uusimaa,,Helsinki
45.8.128.159,4,90573,phz.fi,FI,Europe,Northern Europe,Finland,Uusimaa,,Helsinki
185.185.168.252,4,-14,phz.fi,FI,Europe,Northern Europe,Finland,Uusimaa,,Helsinki
65.21.198.89,4,41,pickuptruckindubai.com,FI,Europe,Northern Europe,Finland,Uusimaa,,Helsinki
135.181.137.12,4,29,pict.com.ua,FI,Europe,Northern Europe,Finland,Uusimaa,,Helsinki
185.220.76.54,4,50,pictures.fi,FI,Europe,Northern Europe,Finland,,,
95.217.77.254,4,11,pierrerabhi.org,FI,Europe,Northern Europe,Finland,Uusimaa,,Helsinki
95.216.32.96,4,44,pigeonwatch.co.uk,FI,Europe,Northern Europe,Finland,Uusimaa,,Helsinki
95.217.26.31,4,8,pimcore.com,FI,Europe,Northern Europe,Finland,Uusimaa,,Helsinki
178.251.153.35,4,6,pinebulls.fi,FI,Europe,Northern Europe,Finland,,,
95.216.2.106,4,28,piracy.guide,FI,Europe,Northern Europe,Finland,Uusimaa,,Helsinki
95.216.34.99,4,2,piratenpartei-bw.de,FI,Europe,Northern Europe,Finland,Uusimaa,,Helsinki
37.27.108.228,4,27,pjosr.com,FI,Europe,Northern Europe,Finland,Uusimaa,,Helsinki
185.220.77.6,4,86,plan.fi,FI,Europe,Northern Europe,Finland,,,
185.179.116.100,4,88,planeetta.fi,FI,Europe,Northern Europe,Finland,,,
65.109.29.187,4,8,platinorwatches.ru,FI,Europe,Northern Europe,Finland,Uusimaa,,Helsinki
95.217.63.185,4,4,pmacs.pl,FI,Europe,Northern Europe,Finland,Uusimaa,,Helsinki
95.217.224.43,4,5,pnth-terreenaction.org,FI,Europe,Northern Europe,Finland,Uusimaa,,Helsinki
135.181.16.170,4,50,poezda.net,FI,Europe,Northern Europe,Finland,Uusimaa,,Helsinki
37.27.103.212,4,13,pogdesign.co.uk,FI,Europe,Northern Europe,Finland,Uusimaa,,Helsinki
95.216.108.45,4,1,pokerwinkel.nl,FI,Europe,Northern Europe,Finland,Uusimaa,,Helsinki
65.108.122.245,4,1,polishwomenphotographers.com,FI,Europe,Northern Europe,Finland,Uusimaa,,Helsinki
65.21.238.72,4,221,politikforum.ru,FI,Europe,Northern Europe,Finland,Uusimaa,,Helsinki
135.181.48.246,4,14,poltava365.com,FI,Europe,Northern Europe,Finland,Uusimaa,,Helsinki
37.27.40.91,4,24,poltavaforum.com,FI,Europe,Northern Europe,Finland,Uusimaa,,Helsinki
65.109.173.109,4,11,pontevedraviva.com,FI,Europe,Northern Europe,Finland,Uusimaa,,Helsinki
95.216.66.206,4,64,pontikis.net,FI,Europe,Northern Europe,Finland,Uusimaa,,Helsinki
95.217.101.9,4,4,portativ.ua,FI,Europe,Northern Europe,Finland,Uusimaa,,Helsinki
95.216.1.254,4,10,postmarketos.org,FI,Europe,Northern Europe,Finland,Uusimaa,,Helsinki
83.143.222.7,4,25,potilaanlaakarilehti.fi,FI,Europe,Northern Europe,Finland,,,
95.216.70.77,4,26,potrebitel.ru,FI,Europe,Northern Europe,Finland,Uusimaa,,Helsinki
135.181.183.87,4,23,pov.lt,FI,Europe,Northern Europe,Finland,Uusimaa,,Helsinki
65.108.74.39,4,52,pragnews.com,FI,Europe,Northern Europe,Finland,Uusimaa,,Helsinki
95.217.71.91,4,10,prague-express.cz,FI,Europe,Northern Europe,Finland,Uusimaa,,Helsinki
94.237.82.235,4,17,praksis.gr,FI,Europe,Northern Europe,Finland,,,
95.216.25.247,4,7,preining.info,FI,Europe,Northern Europe,Finland,Uusimaa,,Helsinki
95.216.14.74,4,386318,premieredate.news,FI,Europe,Northern Europe,Finland,Uusimaa,,Helsinki
65.21.216.253,4,47,premioceleste.it,FI,Europe,Northern Europe,Finland,Uusimaa,,Helsinki
95.216.166.192,4,45,presiuniv.ac.in,FI,Europe,Northern Europe,Finland,Uusimaa,,Helsinki
37.27.31.41,4,40,press.kz,FI,Europe,Northern Europe,Finland,Uusimaa,,Helsinki
37.27.122.223,4,61,presse.no,FI,Europe,Northern Europe,Finland,Uusimaa,,Helsinki
37.27.39.150,4,56,pressgoal.com,FI,Europe,Northern Europe,Finland,Uusimaa,,Helsinki
95.216.176.203,4,71,pressmantoy.com,FI,Europe,Northern Europe,Finland,Uusimaa,,Helsinki
65.21.10.250,4,29,primegrid.com,FI,Europe,Northern Europe,Finland,Uusimaa,,Helsinki
95.217.228.190,4,42,privatejetfinder.com,FI,Europe,Northern Europe,Finland,Uusimaa,,Helsinki
95.217.205.58,4,12,pro-ekip.ru,FI,Europe,Northern Europe,Finland,Uusimaa,,Helsinki
65.108.205.151,4,37,profscaglione.it,FI,Europe,Northern Europe,Finland,Uusimaa,,Helsinki
65.21.56.177,4,91,program-ace.com,FI,Europe,Northern Europe,Finland,Uusimaa,,Helsinki
95.216.1.233,4,31,proofreadbot.com,FI,Europe,Northern Europe,Finland,Uusimaa,,Helsinki
135.181.228.72,4,9,przyjazniseniorom.com,FI,Europe,Northern Europe,Finland,Uusimaa,,Helsinki
65.109.73.109,4,17,pscentre.org,FI,Europe,Northern Europe,Finland,Uusimaa,,Helsinki
65.108.56.236,4,69,psichologyanswers.com,FI,Europe,Northern Europe,Finland,Uusimaa,,Helsinki
37.27.67.217,4,1,psnews.ro,FI,Europe,Northern Europe,Finland,Uusimaa,,Helsinki
95.216.75.247,4,57,pubrecord.org,FI,Europe,Northern Europe,Finland,Uusimaa,,Helsinki
178.213.234.12,4,6,pudasjarvi.fi,FI,Europe,Northern Europe,Finland,,,
178.213.234.11,4,39,pudasjarvi.fi,FI,Europe,Northern Europe,Finland,,,
94.237.124.239,4,35,puhelinvertailu.com,FI,Europe,Northern Europe,Finland,,,
135.181.147.2,4,7,pumamoldova.md,FI,Europe,Northern Europe,Finland,Uusimaa,,Helsinki
80.69.173.93,4,8,purot.net,FI,Europe,Northern Europe,Finland,,,
95.216.198.92,4,2,pushwoosh.com,FI,Europe,Northern Europe,Finland,Uusimaa,,Helsinki
65.21.92.44,4,2,pyra-handheld.com,FI,Europe,Northern Europe,Finland,Uusimaa,,Helsinki
95.217.158.67,4,57842,pythex.org,FI,Europe,Northern Europe,Finland,Uusimaa,,Helsinki
95.217.113.122,4,1,qau.edu.ye,FI,Europe,Northern Europe,Finland,Uusimaa,,Helsinki
95.217.163.29,4,1,qeeboo.com,FI,Europe,Northern Europe,Finland,Uusimaa,,Helsinki
95.217.62.234,4,2,qrgtech.com,FI,Europe,Northern Europe,Finland,Uusimaa,,Helsinki
95.217.56.92,4,7,qtickets.events,FI,Europe,Northern Europe,Finland,Uusimaa,,Helsinki
65.109.85.87,4,40049,qualigo.com,FI,Europe,Northern Europe,Finland,Uusimaa,,Helsinki
95.217.239.6,4,4,quillpad.in,FI,Europe,Northern Europe,Finland,Uusimaa,,Helsinki
95.216.27.137,4,9,quizterra.com,FI,Europe,Northern Europe,Finland,Uusimaa,,Helsinki
65.108.3.221,4,1,qwaeem.org,FI,Europe,Northern Europe,Finland,Uusimaa,,Helsinki
65.21.72.134,4,-737,r-hockey.ru,FI,Europe,Northern Europe,Finland,Uusimaa,,Helsinki
185.185.170.205,4,9,r-sauna.fi,FI,Europe,Northern Europe,Finland,Uusimaa,,Helsinki
65.109.230.74,4,6,r2u.org.ua,FI,Europe,Northern Europe,Finland,Uusimaa,,Helsinki
95.216.36.187,4,105,radio-tochka.com,FI,Europe,Northern Europe,Finland,Uusimaa,,Helsinki
65.108.74.236,4,106,radiocentro.net,FI,Europe,Northern Europe,Finland,Uusimaa,,Helsinki
65.109.64.43,4,98,radiodonor.ru,FI,Europe,Northern Europe,Finland,Uusimaa,,Helsinki
65.21.14.25,4,56,radiomemory.gr,FI,Europe,Northern Europe,Finland,Uusimaa,,Helsinki
135.181.142.221,4,14,radiomof.mk,FI,Europe,Northern Europe,Finland,Uusimaa,,Helsinki
95.216.247.29,4,94,radlobby.at,FI,Europe,Northern Europe,Finland,Uusimaa,,Helsinki
94.237.105.84,4,32,raisio.com,FI,Europe,Northern Europe,Finland,,,
37.27.123.72,4,27,rajtravels.com.pk,FI,Europe,Northern Europe,Finland,Uusimaa,,Helsinki
135.181.44.238,4,21,raku.org,FI,Europe,Northern Europe,Finland,Uusimaa,,Helsinki
135.181.210.185,4,8,ramsar.org,FI,Europe,Northern Europe,Finland,Uusimaa,,Helsinki
95.216.88.252,4,29,randomnames.com,FI,Europe,Northern Europe,Finland,Uusimaa,,Helsinki
80.69.161.43,4,70,ratesfx.com,FI,Europe,Northern Europe,Finland,,,
95.217.6.16,4,7,rclone.org,FI,Europe,Northern Europe,Finland,Uusimaa,,Helsinki
65.21.140.247,4,2,rcopen.com,FI,Europe,Northern Europe,Finland,Uusimaa,,Helsinki
65.109.65.183,4,8,re-volta.pl,FI,Europe,Northern Europe,Finland,Uusimaa,,Helsinki
95.216.180.245,4,14,reaa.ru,FI,Europe,Northern Europe,Finland,Uusimaa,,Helsinki
135.181.145.238,4,14,realacademiadegastronomia.com,FI,Europe,Northern Europe,Finland,Uusimaa,,Helsinki
65.109.154.108,4,22,realestatelicensehefrsgl.com,FI,Europe,Northern Europe,Finland,Uusimaa,,Helsinki
95.217.5.229,4,25,recaptcha.cloud,FI,Europe,Northern Europe,Finland,Uusimaa,,Helsinki
65.109.175.231,4,17,redakamel.com,FI,Europe,Northern Europe,Finland,Uusimaa,,Helsinki
95.217.220.105,4,10,reddeet.com,FI,Europe,Northern Europe,Finland,Uusimaa,,Helsinki
95.217.227.123,4,44,reea.net,FI,Europe,Northern Europe,Finland,Uusimaa,,Helsinki
95.217.229.254,4,36,regionp25.ru,FI,Europe,Northern Europe,Finland,Uusimaa,,Helsinki
95.217.51.30,4,64,regionpersonal.ru,FI,Europe,Northern Europe,Finland,Uusimaa,,Helsinki
213.157.73.20,4,18,rentafinn.com,FI,Europe,Northern Europe,Finland,,,
83.145.239.226,4,22,repack.com,FI,Europe,Northern Europe,Finland,Uusimaa,,Espoo
95.217.7.73,4,27,reputationtoday.in,FI,Europe,Northern Europe,Finland,Uusimaa,,Helsinki
94.237.12.50,4,25,reservilaisliitto.fi,FI,Europe,Northern Europe,Finland,Uusimaa,,Helsinki
65.21.70.17,4,7,retargeting.biz,FI,Europe,Northern Europe,Finland,Uusimaa,,Helsinki
95.217.170.207,4,50,retesport.it,FI,Europe,Northern Europe,Finland,Uusimaa,,Helsinki
65.108.52.13,4,27,retresco.de,FI,Europe,Northern Europe,Finland,Uusimaa,,Helsinki
135.181.117.57,4,109,revenueandprofit.net,FI,Europe,Northern Europe,Finland,Uusimaa,,Helsinki
65.108.108.217,4,7,reviewguruu.com,FI,Europe,Northern Europe,Finland,Uusimaa,,Helsinki
80.69.161.45,4,5,rewheel.fi,FI,Europe,Northern Europe,Finland,,,
65.21.166.30,4,16,rextech.pk,FI,Europe,Northern Europe,Finland,Uusimaa,,Helsinki
95.216.25.172,4,17,rhagallery.ie,FI,Europe,Northern Europe,Finland,Uusimaa,,Helsinki
65.108.213.22,4,35,rhinologyjournal.com,FI,Europe,Northern Europe,Finland,Uusimaa,,Helsinki
65.108.195.207,4,28,rhys.wtf,FI,Europe,Northern Europe,Finland,Uusimaa,,Helsinki
65.109.20.141,4,19,rhythmgamingworld.com,FI,Europe,Northern Europe,Finland,Uusimaa,,Helsinki
37.27.61.178,4,25,rieas.gr,FI,Europe,Northern Europe,Finland,Uusimaa,,Helsinki
80.83.6.120,4,29,riista.fi,FI,Europe,Northern Europe,Finland,,,
185.179.116.82,4,21,riku.fi,FI,Europe,Northern Europe,Finland,,,
83.150.67.101,4,6,ril.fi,FI,Europe,Northern Europe,Finland,Uusimaa,,Helsinki
65.108.193.50,4,12,riot-os.org,FI,Europe,Northern Europe,Finland,Uusimaa,,Helsinki
95.217.193.33,4,3,rip.ie,FI,Europe,Northern Europe,Finland,Uusimaa,,Helsinki
185.179.116.152,4,2,risingshadow.net,FI,Europe,Northern Europe,Finland,,,
81.22.249.230,4,4,ristinvoitto.fi,FI,Europe,Northern Europe,Finland,Uusimaa,,Espoo
31.187.85.184,4,18,ritarikunnat.fi,FI,Europe,Northern Europe,Finland,,,
80.69.175.69,4,152037,riveria.fi,FI,Europe,Northern Europe,Finland,,,
135.181.108.73,4,4,rivne.me,FI,Europe,Northern Europe,Finland,Uusimaa,,Helsinki
95.217.36.171,4,5,rmdsz.ro,FI,Europe,Northern Europe,Finland,Uusimaa,,Helsinki
135.181.3.102,4,1,robot-forum.com,FI,Europe,Northern Europe,Finland,Uusimaa,,Helsinki
65.108.74.45,4,4,rockufa.ru,FI,Europe,Northern Europe,Finland,Uusimaa,,Helsinki
135.181.80.172,4,33,romanoprodi.it,FI,Europe,Northern Europe,Finland,Uusimaa,,Helsinki
91.105.251.79,4,2852,ropecon.fi,FI,Europe,Northern Europe,Finland,,,
95.217.35.82,4,21,rosrealt.ru,FI,Europe,Northern Europe,Finland,Uusimaa,,Helsinki
95.217.196.121,4,28,rostechstal.ru,FI,Europe,Northern Europe,Finland,Uusimaa,,Helsinki
65.108.41.117,4,32,rostovknife.ru,FI,Europe,Northern Europe,Finland,Uusimaa,,Helsinki
95.216.76.55,4,181,royalhunt.com,FI,Europe,Northern Europe,Finland,Uusimaa,,Helsinki
95.216.35.216,4,2,rozoteka.ru,FI,Europe,Northern Europe,Finland,Uusimaa,,Helsinki
95.217.42.254,4,2,rsfa.in,FI,Europe,Northern Europe,Finland,Uusimaa,,Helsinki
135.181.136.158,4,5,rspamd.com,FI,Europe,Northern Europe,Finland,Uusimaa,,Helsinki
95.217.26.43,4,5,rsyslog.com,FI,Europe,Northern Europe,Finland,Uusimaa,,Helsinki
5.250.165.77,4,10,rtv.fi,FI,Europe,Northern Europe,Finland,Uusimaa,,Helsinki
95.216.2.226,4,4,ruminus.ru,FI,Europe,Northern Europe,Finland,Uusimaa,,Helsinki
65.21.223.70,4,3,rupes.com,FI,Europe,Northern Europe,Finland,Uusimaa,,Helsinki
65.109.123.232,4,95,rusavtobus.ru,FI,Europe,Northern Europe,Finland,Uusimaa,,Helsinki
95.217.35.73,4,57,ruskrovati.ru,FI,Europe,Northern Europe,Finland,Uusimaa,,Helsinki
135.181.20.68,4,25,rusnavy.com,FI,Europe,Northern Europe,Finland,Uusimaa,,Helsinki
95.216.102.114,4,29,russianplanes.net,FI,Europe,Northern Europe,Finland,Uusimaa,,Helsinki
65.108.131.58,4,2,rustih.ru,FI,Europe,Northern Europe,Finland,Uusimaa,,Helsinki
95.216.30.64,4,-4,rutxt.ru,FI,Europe,Northern Europe,Finland,Uusimaa,,Helsinki
65.109.93.87,4,3,rybn.org,FI,Europe,Northern Europe,Finland,Uusimaa,,Helsinki
62.44.192.174,4,17,sa-kuva.fi,FI,Europe,Northern Europe,Finland,Paijat-Hame Region,,Lahti
62.44.192.173,4,8,sa-kuva.fi,FI,Europe,Northern Europe,Finland,Paijat-Hame Region,,Lahti
135.181.129.238,4,13,saforguia.com,FI,Europe,Northern Europe,Finland,Uusimaa,,Helsinki
95.217.27.190,4,8,saha.org.za,FI,Europe,Northern Europe,Finland,Uusimaa,,Helsinki
80.69.161.36,4,4,sahkoala.fi,FI,Europe,Northern Europe,Finland,,,
94.237.107.77,4,11,sak.fi,FI,Europe,Northern Europe,Finland,,,
37.27.9.22,4,26,salaspils.lv,FI,Europe,Northern Europe,Finland,Uusimaa,,Helsinki
31.217.192.160,4,954,salkunrakentaja.fi,FI,Europe,Northern Europe,Finland,,,
62.204.28.248,4,22,salla.fi,FI,Europe,Northern Europe,Finland,,,
193.163.5.17,4,4,salli.com,FI,Europe,Northern Europe,Finland,Pirkanmaa,,Tampere
94.237.15.117,4,97,salo.fi,FI,Europe,Northern Europe,Finland,Uusimaa,,Helsinki
65.108.245.151,4,12,salonbookingsystem.com,FI,Europe,Northern Europe,Finland,Uusimaa,,Helsinki
95.217.68.68,4,4,saltenposten.no,FI,Europe,Northern Europe,Finland,Uusimaa,,Helsinki
65.21.84.49,4,20,samovarmarket.ru,FI,Europe,Northern Europe,Finland,Uusimaa,,Helsinki
135.181.218.36,4,7,sampnews24.com,FI,Europe,Northern Europe,Finland,Uusimaa,,Helsinki
95.216.172.33,4,2,samye-luchshie-prostitutki-moskvy.top,FI,Europe,Northern Europe,Finland,Uusimaa,,Helsinki
185.87.108.150,4,7,sange.fi,FI,Europe,Northern Europe,Finland,,,
65.108.220.201,4,0,sapiens.cat,FI,Europe,Northern Europe,Finland,Uusimaa,,Helsinki
5.44.240.18,4,767,sarjakuvablogit.com,FI,Europe,Northern Europe,Finland,,,
135.181.1.182,4,17,sarte.pk,FI,Europe,Northern Europe,Finland,Uusimaa,,Helsinki
65.21.8.182,4,43,sattakingdj.com,FI,Europe,Northern Europe,Finland,Uusimaa,,Helsinki
95.217.181.72,4,29,sauerbraten.org,FI,Europe,Northern Europe,Finland,Uusimaa,,Helsinki
95.217.81.210,4,8,savvaschristodoulides.com,FI,Europe,Northern Europe,Finland,Uusimaa,,Helsinki
135.181.116.26,4,576594,say-hi.me,FI,Europe,Northern Europe,Finland,Uusimaa,,Helsinki
135.181.182.88,4,1,sbkcare.com,FI,Europe,Northern Europe,Finland,Uusimaa,,Helsinki
94.237.116.245,4,16,scandinavianoutdoor.fi,FI,Europe,Northern Europe,Finland,Uusimaa,,Helsinki
65.108.80.30,4,57,schieb.de,FI,Europe,Northern Europe,Finland,Uusimaa,,Helsinki
135.181.62.96,4,3,schmorp.de,FI,Europe,Northern Europe,Finland,Uusimaa,,Helsinki
95.217.121.137,4,3237,school.net.pk,FI,Europe,Northern Europe,Finland,Uusimaa,,Helsinki
95.217.99.41,4,2,scooploop.com,FI,Europe,Northern Europe,Finland,Uusimaa,,Helsinki
217.112.241.173,4,58,scoutwiki.org,FI,Europe,Northern Europe,Finland,,,
95.216.181.192,4,20,screeps.com,FI,Europe,Northern Europe,Finland,Uusimaa,,Helsinki
65.21.228.59,4,1086,scsport.ba,FI,Europe,Northern Europe,Finland,Uusimaa,,Helsinki
135.181.132.114,4,94,seek-love.net,FI,Europe,Northern Europe,Finland,Uusimaa,,Helsinki
95.216.165.135,4,45,segaarcade.com,FI,Europe,Northern Europe,Finland,Uusimaa,,Helsinki
95.216.26.177,4,6,segoviaaldia.es,FI,Europe,Northern Europe,Finland,Uusimaa,,Helsinki
65.108.147.113,4,3,semesterblogg.se,FI,Europe,Northern Europe,Finland,Uusimaa,,Helsinki
135.181.206.31,4,-1439,senlainc.com,FI,Europe,Northern Europe,Finland,Uusimaa,,Helsinki
95.216.243.133,4,30,seoma.com,FI,Europe,Northern Europe,Finland,Uusimaa,,Helsinki
65.21.18.130,4,71,seotactis.online,FI,Europe,Northern Europe,Finland,Uusimaa,,Helsinki
65.109.109.46,4,31,seram.es,FI,Europe,Northern Europe,Finland,Uusimaa,,Helsinki
37.27.24.188,4,9,sercotelhoteles.com,FI,Europe,Northern Europe,Finland,Uusimaa,,Helsinki
94.237.12.122,4,32,seriously.com,FI,Europe,Northern Europe,Finland,Uusimaa,,Helsinki
135.181.182.47,4,20,servies.nl,FI,Europe,Northern Europe,Finland,Uusimaa,,Helsinki
95.216.146.75,4,19,serviziopubblico.it,FI,Europe,Northern Europe,Finland,Uusimaa,,Helsinki
94.237.105.61,4,38,ses.fi,FI,Europe,Northern Europe,Finland,,,
35.228.217.9,4,3,sesamcontainer.se,FI,Europe,Northern Europe,Finland,South Karelia Region,,Lappeenranta
31.217.192.161,4,-494,seta.fi,FI,Europe,Northern Europe,Finland,,,
95.217.189.143,4,396580,sgaf.de,FI,Europe,Northern Europe,Finland,Uusimaa,,Helsinki
65.108.239.175,4,2,sh2hab.com,FI,Europe,Northern Europe,Finland,Uusimaa,,Helsinki
65.21.215.19,4,1,shahnazraza.com,FI,Europe,Northern Europe,Finland,Uusimaa,,Helsinki
185.87.108.23,4,10,shellit.org,FI,Europe,Northern Europe,Finland,,,
95.216.74.26,4,1,shi.edu.ly,FI,Europe,Northern Europe,Finland,Uusimaa,,Helsinki
65.108.147.162,4,0,shiny-task.com,FI,Europe,Northern Europe,Finland,Uusimaa,,Helsinki
65.109.24.73,4,2,shipilov.com,FI,Europe,Northern Europe,Finland,Uusimaa,,Helsinki
95.216.242.13,4,3,shophelp.ru,FI,Europe,Northern Europe,Finland,Uusimaa,,Helsinki
95.217.127.30,4,1,shouldnet.net,FI,Europe,Northern Europe,Finland,Uusimaa,,Helsinki
95.217.133.72,4,1,shrkte.com,FI,Europe,Northern Europe,Finland,Uusimaa,,Helsinki
65.109.14.111,4,1,shuttercountcheck.com,FI,Europe,Northern Europe,Finland,Uusimaa,,Helsinki
34.88.146.134,4,31,sibelius.fi,FI,Europe,Northern Europe,Finland,South Karelia Region,,Lappeenranta
83.143.219.69,4,0,sibeliustalo.fi,FI,Europe,Northern Europe,Finland,,,
188.117.28.147,4,47,siblisresearch.com,FI,Europe,Northern Europe,Finland,Uusimaa,,Espoo
37.27.104.131,4,2,sidef.com.np,FI,Europe,Northern Europe,Finland,Uusimaa,,Helsinki
65.108.28.81,4,66,sierrachart.com,FI,Europe,Northern Europe,Finland,Uusimaa,,Helsinki
80.69.160.34,4,6,sigmatic.fi,FI,Europe,Northern Europe,Finland,,,
135.181.67.97,4,5,sigortix.com,FI,Europe,Northern Europe,Finland,Uusimaa,,Helsinki
193.163.5.41,4,19,siilinjarvi.fi,FI,Europe,Northern Europe,Finland,Pirkanmaa,,Tampere
193.166.24.146,4,7,silvafennica.fi,FI,Europe,Northern Europe,Finland,Uusimaa,,Helsinki
213.130.74.29,4,109,simpleforms.ru,FI,Europe,Northern Europe,Finland,Uusimaa,,Helsinki
65.21.201.194,4,8,sindnet.dk,FI,Europe,Northern Europe,Finland,Uusimaa,,Helsinki
95.216.45.180,4,2,sintonen.fi,FI,Europe,Northern Europe,Finland,Uusimaa,,Helsinki
65.108.31.59,4,12,siril.org,FI,Europe,Northern Europe,Finland,Uusimaa,,Helsinki
31.217.192.242,4,22,sisailmayhdistys.fi,FI,Europe,Northern Europe,Finland,,,
65.108.76.139,4,8,sisak.hr,FI,Europe,Northern Europe,Finland,Uusimaa,,Helsinki
95.216.96.21,4,4,skai.gr,FI,Europe,Northern Europe,Finland,Uusimaa,,Helsinki
135.181.128.121,4,28,ski.ru,FI,Europe,Northern Europe,Finland,Uusimaa,,Helsinki
185.220.77.10,4,10,skimbacolifestyle.com,FI,Europe,Northern Europe,Finland,,,
65.21.32.58,4,9,skiurlaub-infos.de,FI,Europe,Northern Europe,Finland,Uusimaa,,Helsinki
135.181.15.174,4,9,skoops.social,FI,Europe,Northern Europe,Finland,Uusimaa,,Helsinki
79.171.233.15,4,14,skr.fi,FI,Europe,Northern Europe,Finland,,,
65.21.161.143,4,3,skrivunder.com,FI,Europe,Northern Europe,Finland,Uusimaa,,Helsinki
83.143.218.11,4,-1,skrolli.fi,FI,Europe,Northern Europe,Finland,,,
85.156.140.77,4,14,skyjake.fi,FI,Europe,Northern Europe,Finland,Uusimaa,,Helsinki
95.217.74.162,4,2,skyje.com,FI,Europe,Northern Europe,Finland,Uusimaa,,Helsinki
65.109.88.238,4,2,slideplayer.es,FI,Europe,Northern Europe,Finland,Uusimaa,,Helsinki
65.109.88.253,4,2,slideplayer.it,FI,Europe,Northern Europe,Finland,Uusimaa,,Helsinki
65.109.88.235,4,19,slideplayer.nl,FI,Europe,Northern Europe,Finland,Uusimaa,,Helsinki
65.109.88.226,4,2,slideplayer.pl,FI,Europe,Northern Europe,Finland,Uusimaa,,Helsinki
95.217.171.168,4,10,slon.ru,FI,Europe,Northern Europe,Finland,Uusimaa,,Helsinki
65.108.197.134,4,5,smallvoid.com,FI,Europe,Northern Europe,Finland,Uusimaa,,Helsinki
37.27.63.3,4,1,smartlibrary24.com,FI,Europe,Northern Europe,Finland,Uusimaa,,Helsinki
65.21.71.102,4,25,smederijeasterhei.nl,FI,Europe,Northern Europe,Finland,Uusimaa,,Helsinki
65.108.84.3,4,200255,snopyta.org,FI,Europe,Northern Europe,Finland,Uusimaa,,Helsinki
95.217.20.46,4,16,soaw.org,FI,Europe,Northern Europe,Finland,Uusimaa,,Helsinki
65.108.205.61,4,1,sochinakarte.ru,FI,Europe,Northern Europe,Finland,Uusimaa,,Helsinki
65.109.102.157,4,119544,social-vape.com,FI,Europe,Northern Europe,Finland,Uusimaa,,Helsinki
95.216.217.248,4,16,socialdemokraterne.dk,FI,Europe,Northern Europe,Finland,Uusimaa,,Helsinki
65.109.31.236,4,18,socialruler.com,FI,Europe,Northern Europe,Finland,Uusimaa,,Helsinki
65.21.145.9,4,31,soholighting.com,FI,Europe,Northern Europe,Finland,Uusimaa,,Helsinki
94.237.112.89,4,19,soininvaara.fi,FI,Europe,Northern Europe,Finland,Uusimaa,,Helsinki
95.216.42.19,4,40,sokol.ua,FI,Europe,Northern Europe,Finland,Uusimaa,,Helsinki
95.217.159.39,4,24,solidity.finance,FI,Europe,Northern Europe,Finland,Uusimaa,,Helsinki
95.216.91.237,4,7,somonair.com,FI,Europe,Northern Europe,Finland,Uusimaa,,Helsinki
95.217.203.166,4,7,songwritingcompetition.com,FI,Europe,Northern Europe,Finland,Uusimaa,,Helsinki
95.217.59.203,4,26,sooryasales.com,FI,Europe,Northern Europe,Finland,Uusimaa,,Helsinki
135.181.24.117,4,16,soundtrackcollector.com,FI,Europe,Northern Europe,Finland,Uusimaa,,Helsinki
95.217.223.19,4,10,sourceconference.com,FI,Europe,Northern Europe,Finland,Uusimaa,,Helsinki
95.217.59.158,4,2,spacedock.info,FI,Europe,Northern Europe,Finland,Uusimaa,,Helsinki
135.181.163.104,4,81,spherasports.com,FI,Europe,Northern Europe,Finland,Uusimaa,,Helsinki
37.27.5.247,4,14,spitalfieldslife.com,FI,Europe,Northern Europe,Finland,Uusimaa,,Helsinki
95.216.246.23,4,122,spoken-tutorial.org,FI,Europe,Northern Europe,Finland,Uusimaa,,Helsinki
95.217.84.213,4,136,sport-tv-guide.live,FI,Europe,Northern Europe,Finland,Uusimaa,,Helsinki
95.217.198.57,4,13,sport365.hu,FI,Europe,Northern Europe,Finland,Uusimaa,,Helsinki
95.217.140.181,4,39,sporthoj.com,FI,Europe,Northern Europe,Finland,Uusimaa,,Helsinki
95.217.171.146,4,57,sports.com,FI,Europe,Northern Europe,Finland,Uusimaa,,Helsinki
135.181.82.120,4,3,sports.md,FI,Europe,Northern Europe,Finland,Uusimaa,,Helsinki
65.109.146.101,4,2,sportsvirsa.com,FI,Europe,Northern Europe,Finland,Uusimaa,,Helsinki
95.217.207.251,4,0,sportzwiki.com,FI,Europe,Northern Europe,Finland,Uusimaa,,Helsinki
95.216.11.253,4,19,spotazores.com,FI,Europe,Northern Europe,Finland,Uusimaa,,Helsinki
135.181.13.163,4,17,spuvvn.edu,FI,Europe,Northern Europe,Finland,Uusimaa,,Helsinki
95.217.46.168,4,17,sql-info.de,FI,Europe,Northern Europe,Finland,Uusimaa,,Helsinki
65.21.131.189,4,10,sree3.app,FI,Europe,Northern Europe,Finland,Uusimaa,,Helsinki
65.108.56.204,4,3,srji.org,FI,Europe,Northern Europe,Finland,Uusimaa,,Helsinki
65.21.146.227,4,17,staatstheater-augsburg.de,FI,Europe,Northern Europe,Finland,Uusimaa,,Helsinki
35.228.110.88,4,5,stadion.fi,FI,Europe,Northern Europe,Finland,South Karelia Region,,Lappeenranta
81.22.253.150,4,0,stadissa.fi,FI,Europe,Northern Europe,Finland,Uusimaa,,Espoo
65.21.158.193,4,58,star-made.org,FI,Europe,Northern Europe,Finland,Uusimaa,,Helsinki
65.21.123.170,4,41,starslife.ru,FI,Europe,Northern Europe,Finland,Uusimaa,,Helsinki
65.108.102.153,4,63,starstyle.com,FI,Europe,Northern Europe,Finland,Uusimaa,,Helsinki
135.181.241.24,4,51,startbilder.de,FI,Europe,Northern Europe,Finland,Uusimaa,,Helsinki
95.217.4.119,4,36,startupsgottalent.com,FI,Europe,Northern Europe,Finland,Uusimaa,,Helsinki
95.217.112.34,4,1,steorn.com,FI,Europe,Northern Europe,Finland,Uusimaa,,Helsinki
185.179.116.170,4,62,stevenseagulls.com,FI,Europe,Northern Europe,Finland,,,
37.27.105.56,4,54,stiftung-von-werkstatt.de,FI,Europe,Northern Europe,Finland,Uusimaa,,Helsinki
135.181.56.37,4,22,stilnaya.com.ua,FI,Europe,Northern Europe,Finland,Uusimaa,,Helsinki
65.21.91.104,4,15,stixoi.info,FI,Europe,Northern Europe,Finland,Uusimaa,,Helsinki
65.21.124.23,4,3,stm-ke.sk,FI,Europe,Northern Europe,Finland,Uusimaa,,Helsinki
65.109.38.126,4,78,streamr.network,FI,Europe,Northern Europe,Finland,Uusimaa,,Helsinki
65.108.154.96,4,1,sts-global.com,FI,Europe,Northern Europe,Finland,Uusimaa,,Helsinki
185.220.77.3,4,33,stt.fi,FI,Europe,Northern Europe,Finland,,,
80.69.172.76,4,158,sttk.fi,FI,Europe,Northern Europe,Finland,,,
135.181.209.48,4,14,stumet.eu,FI,Europe,Northern Europe,Finland,Uusimaa,,Helsinki
95.175.122.231,4,1280,stupido.fi,FI,Europe,Northern Europe,Finland,Uusimaa,,Helsinki
95.216.28.114,4,-282627,subethaedit.net,FI,Europe,Northern Europe,Finland,Uusimaa,,Helsinki
83.145.229.86,4,17,subway.fi,FI,Europe,Northern Europe,Finland,Uusimaa,,Espoo
213.130.74.14,4,20,sud-expertiza.kz,FI,Europe,Northern Europe,Finland,Uusimaa,,Helsinki
185.55.85.138,4,7,sunbornhotels.com,FI,Europe,Northern Europe,Finland,,,
65.108.151.249,4,1,sundhedsposten.dk,FI,Europe,Northern Europe,Finland,Uusimaa,,Helsinki
65.109.225.42,4,2,sunflower-theme.de,FI,Europe,Northern Europe,Finland,Uusimaa,,Helsinki
193.163.5.11,4,-1044070,sunpoint.net,FI,Europe,Northern Europe,Finland,Pirkanmaa,,Tampere
135.181.149.99,4,2,sunsetsunrisetime.com,FI,Europe,Northern Europe,Finland,Uusimaa,,Helsinki
65.21.127.155,4,6,sunshine-anapa.ru,FI,Europe,Northern Europe,Finland,Uusimaa,,Helsinki
80.83.0.7,4,3,suntuubi.com,FI,Europe,Northern Europe,Finland,,,
83.143.219.72,4,18,suomalainentyo.fi,FI,Europe,Northern Europe,Finland,,,
83.145.244.55,4,8,suomenlatu.fi,FI,Europe,Northern Europe,Finland,Uusimaa,,Espoo
65.109.0.42,4,0,suomenluonto.fi,FI,Europe,Northern Europe,Finland,Uusimaa,,Helsinki
185.28.245.192,4,5,suomenymparistopalvelu.fi,FI,Europe,Northern Europe,Finland,,,
65.108.61.161,4,1,suomifinland100.fi,FI,Europe,Northern Europe,Finland,Uusimaa,,Helsinki
65.21.27.21,4,4,superrielt.ru,FI,Europe,Northern Europe,Finland,Uusimaa,,Helsinki
65.108.15.232,4,2,supersignsom.so,FI,Europe,Northern Europe,Finland,Uusimaa,,Helsinki
95.217.20.14,4,-2,suppo.fi,FI,Europe,Northern Europe,Finland,Uusimaa,,Helsinki
65.108.221.185,4,9,surebety.pl,FI,Europe,Northern Europe,Finland,Uusimaa,,Helsinki
95.217.78.184,4,1,surfdiva.com,FI,Europe,Northern Europe,Finland,Uusimaa,,Helsinki
135.181.59.97,4,30,survation.com,FI,Europe,Northern Europe,Finland,Uusimaa,,Helsinki
65.108.204.114,4,27,suttonunited.net,FI,Europe,Northern Europe,Finland,Uusimaa,,Helsinki
31.217.192.190,4,8,suunnistusliitto.fi,FI,Europe,Northern Europe,Finland,,,
135.181.76.187,4,11,suya.place,FI,Europe,Northern Europe,Finland,Uusimaa,,Helsinki
65.109.240.163,4,36,svenskaakademien.se,FI,Europe,Northern Europe,Finland,Uusimaa,,Helsinki
135.181.136.149,4,2,svuniversity.edu.in,FI,Europe,Northern Europe,Finland,Uusimaa,,Helsinki
188.117.30.117,4,7,swallowthesun.net,FI,Europe,Northern Europe,Finland,Uusimaa,,Espoo
185.100.86.93,4,14,swglegends.com,FI,Europe,Northern Europe,Finland,Uusimaa,,Helsinki
94.237.8.165,4,5,sydan.fi,FI,Europe,Northern Europe,Finland,Uusimaa,,Helsinki
95.217.41.196,4,1,synfig.org,FI,Europe,Northern Europe,Finland,Uusimaa,,Helsinki
95.217.41.237,4,1,sysad.org,FI,Europe,Northern Europe,Finland,Uusimaa,,Helsinki
95.216.205.152,4,7886,sysinfo.org,FI,Europe,Northern Europe,Finland,Uusimaa,,Helsinki
95.216.20.170,4,3,sysoev.ru,FI,Europe,Northern Europe,Finland,Uusimaa,,Helsinki
95.216.24.90,4,11,systemed.net,FI,Europe,Northern Europe,Finland,Uusimaa,,Helsinki
37.27.119.161,4,1,tacitus.nu,FI,Europe,Northern Europe,Finland,Uusimaa,,Helsinki
65.108.72.254,4,746,tacno.net,FI,Europe,Northern Europe,Finland,Uusimaa,,Helsinki
65.108.142.28,4,3,tagza.com,FI,Europe,Northern Europe,Finland,Uusimaa,,Helsinki
185.220.77.1,4,10,tahko.com,FI,Europe,Northern Europe,Finland,,,
135.181.143.227,4,-2,tainy.net,FI,Europe,Northern Europe,Finland,Uusimaa,,Helsinki
95.216.20.224,4,1,taiqa.com,FI,Europe,Northern Europe,Finland,Uusimaa,,Helsinki
94.237.11.123,4,6,taitotalo.fi,FI,Europe,Northern Europe,Finland,Uusimaa,,Helsinki
94.237.114.205,4,80,takuusaatio.fi,FI,Europe,Northern Europe,Finland,Uusimaa,,Helsinki
35.228.127.14,4,6,talkyard.io,FI,Europe,Northern Europe,Finland,South Karelia Region,,Lappeenranta
185.179.117.14,4,6,taloustieteellinenyhdistys.fi,FI,Europe,Northern Europe,Finland,,,
83.150.67.120,4,4,taloustutkimus.fi,FI,Europe,Northern Europe,Finland,Uusimaa,,Helsinki
94.237.107.227,4,7,tampere-talo.fi,FI,Europe,Northern Europe,Finland,,,
213.250.113.195,4,6,tangomarkkinat.fi,FI,Europe,Northern Europe,Finland,Central Ostrobothnia,,Kokkola
65.109.85.107,4,5,tanvirassociate.com,FI,Europe,Northern Europe,Finland,Uusimaa,,Helsinki
65.109.55.146,4,2,tarikhravai.ir,FI,Europe,Northern Europe,Finland,Uusimaa,,Helsinki
95.217.51.83,4,7,tarjomaan.com,FI,Europe,Northern Europe,Finland,Uusimaa,,Helsinki
135.181.165.217,4,1,tarot-horoskop.com,FI,Europe,Northern Europe,Finland,Uusimaa,,Helsinki
135.181.73.98,4,-1,tazzadorocoffeeshop.com,FI,Europe,Northern Europe,Finland,Uusimaa,,Helsinki
89.166.51.67,4,49,teatterimuseo.fi,FI,Europe,Northern Europe,Finland,Uusimaa,,Helsinki
65.109.4.92,4,0,tebro.fi,FI,Europe,Northern Europe,Finland,Uusimaa,,Helsinki
65.108.206.208,4,6,techblog.gr,FI,Europe,Northern Europe,Finland,Uusimaa,,Helsinki
65.21.71.87,4,8172,techdailymagazines.com,FI,Europe,Northern Europe,Finland,Uusimaa,,Helsinki
65.21.244.87,4,80,techhem.se,FI,Europe,Northern Europe,Finland,Uusimaa,,Helsinki
5.22.210.102,4,16,techleap.nl,FI,Europe,Northern Europe,Finland,,,
164.215.39.201,4,13,technologyacademy.fi,FI,Europe,Northern Europe,Finland,Uusimaa,,Helsinki
65.108.33.243,4,11,tecnomagzne.com,FI,Europe,Northern Europe,Finland,Uusimaa,,Helsinki
65.21.141.107,4,-388947,teheran.ir,FI,Europe,Northern Europe,Finland,Uusimaa,,Helsinki
135.181.118.172,4,57,tehnomax.com.ua,FI,Europe,Northern Europe,Finland,Uusimaa,,Helsinki
95.217.175.216,4,27,teka.com,FI,Europe,Northern Europe,Finland,Uusimaa,,Helsinki
193.64.145.72,4,23,tekla.com,FI,Europe,Northern Europe,Finland,Uusimaa,,Vantaa
94.237.17.53,4,16,teknologiateollisuus.fi,FI,Europe,Northern Europe,Finland,Uusimaa,,Helsinki
65.108.56.92,4,14,teknologisk-udvikling.dk,FI,Europe,Northern Europe,Finland,Uusimaa,,Helsinki
65.21.178.44,4,2,telefonanlagen-ratgeber.de,FI,Europe,Northern Europe,Finland,Uusimaa,,Helsinki
65.108.253.105,4,73,telegram.im,FI,Europe,Northern Europe,Finland,Uusimaa,,Helsinki
80.69.172.144,4,39,temppeliaukionkirkko.fi,FI,Europe,Northern Europe,Finland,,,
65.21.220.29,4,28,tendent.ru,FI,Europe,Northern Europe,Finland,Uusimaa,,Helsinki
94.237.105.158,4,59,teosto.fi,FI,Europe,Northern Europe,Finland,,,
135.181.155.24,4,26,teplo555.ru,FI,Europe,Northern Europe,Finland,Uusimaa,,Helsinki
65.108.140.54,4,2,terezvaros.hu,FI,Europe,Northern Europe,Finland,Uusimaa,,Helsinki
65.109.64.19,4,79,termalonline.hu,FI,Europe,Northern Europe,Finland,Uusimaa,,Helsinki
135.181.96.235,4,4,terrazza-cafe.ru,FI,Europe,Northern Europe,Finland,Uusimaa,,Helsinki
65.21.79.171,4,2,tesall.ru,FI,Europe,Northern Europe,Finland,Uusimaa,,Helsinki
37.27.119.174,4,-1,testbank2022.com,FI,Europe,Northern Europe,Finland,Uusimaa,,Helsinki
185.193.127.40,4,10,textz.com,FI,Europe,Northern Europe,Finland,,,
95.216.139.214,4,4,thebangladeshtoday.com,FI,Europe,Northern Europe,Finland,Uusimaa,,Helsinki
37.27.6.91,4,3,thecapitol.pn,FI,Europe,Northern Europe,Finland,Uusimaa,,Helsinki
65.109.97.46,4,8,thecentsableshoppin.com,FI,Europe,Northern Europe,Finland,Uusimaa,,Helsinki
65.108.61.54,4,30,thecryptoupdates.com,FI,Europe,Northern Europe,Finland,Uusimaa,,Helsinki
65.109.70.21,4,15,thedailyvox.co.za,FI,Europe,Northern Europe,Finland,Uusimaa,,Helsinki
65.109.64.110,4,5,theextradiscount.com,FI,Europe,Northern Europe,Finland,Uusimaa,,Helsinki
94.141.123.104,4,1335,thejavasea.me,FI,Europe,Northern Europe,Finland,Uusimaa,,Helsinki
65.108.53.167,4,8,thekingoflimbs.com,FI,Europe,Northern Europe,Finland,Uusimaa,,Helsinki
65.108.93.41,4,2,theopensourcerer.com,FI,Europe,Northern Europe,Finland,Uusimaa,,Helsinki
65.108.75.199,4,-1179,thevitalblogs.com,FI,Europe,Northern Europe,Finland,Uusimaa,,Helsinki
65.108.13.157,4,12,thewing.info,FI,Europe,Northern Europe,Finland,Uusimaa,,Helsinki
95.216.76.20,4,0,thiscatdoesnotexist.com,FI,Europe,Northern Europe,Finland,Uusimaa,,Helsinki
95.217.11.168,4,5,tibablog.ir,FI,Europe,Northern Europe,Finland,Uusimaa,,Helsinki
95.217.57.229,4,8,tierpark-bochum.de,FI,Europe,Northern Europe,Finland,Uusimaa,,Helsinki
65.21.32.23,4,63724,tierwelt.ch,FI,Europe,Northern Europe,Finland,Uusimaa,,Helsinki
135.181.65.148,4,1494,tif.is,FI,Europe,Northern Europe,Finland,Uusimaa,,Helsinki
65.109.225.82,4,23,timbu.com,FI,Europe,Northern Europe,Finland,Uusimaa,,Helsinki
65.109.96.58,4,31,time-to-run.com,FI,Europe,Northern Europe,Finland,Uusimaa,,Helsinki
135.181.138.165,4,26,time.ge,FI,Europe,Northern Europe,Finland,Uusimaa,,Helsinki
135.181.4.36,4,43,timegenie.com,FI,Europe,Northern Europe,Finland,Uusimaa,,Helsinki
65.21.135.222,4,31,timejones.com,FI,Europe,Northern Europe,Finland,Uusimaa,,Helsinki
135.181.13.111,4,29,timerepublik.com,FI,Europe,Northern Europe,Finland,Uusimaa,,Helsinki
65.21.69.178,4,-19313,timesofislamabad.com,FI,Europe,Northern Europe,Finland,Uusimaa,,Helsinki
89.166.51.80,4,-197,tinfo.fi,FI,Europe,Northern Europe,Finland,Uusimaa,,Helsinki
65.108.31.83,4,3,tmipodcast.com,FI,Europe,Northern Europe,Finland,Uusimaa,,Helsinki
65.108.239.154,4,8088,tnpu.edu.ua,FI,Europe,Northern Europe,Finland,Uusimaa,,Helsinki
83.143.219.53,4,11,toas.fi,FI,Europe,Northern Europe,Finland,,,
95.217.114.245,4,0,toldot.com,FI,Europe,Northern Europe,Finland,Uusimaa,,Helsinki
65.109.30.102,4,3,toolsir.com,FI,Europe,Northern Europe,Finland,Uusimaa,,Helsinki
95.217.112.99,4,29,topipittori.it,FI,Europe,Northern Europe,Finland,Uusimaa,,Helsinki
65.109.154.253,4,13,toplistingsite.com,FI,Europe,Northern Europe,Finland,Uusimaa,,Helsinki
95.216.44.16,4,63,topostext.org,FI,Europe,Northern Europe,Finland,Uusimaa,,Helsinki
65.21.74.24,4,5,topukrainianhotels.com,FI,Europe,Northern Europe,Finland,Uusimaa,,Helsinki
65.21.79.216,4,17,topuniversitieslist.com,FI,Europe,Northern Europe,Finland,Uusimaa,,Helsinki
95.216.163.36,4,3,torproject.net,FI,Europe,Northern Europe,Finland,Uusimaa,,Helsinki
95.217.62.156,4,22,totallydublin.ie,FI,Europe,Northern Europe,Finland,Uusimaa,,Helsinki
95.217.25.137,4,4,totsantcugat.cat,FI,Europe,Northern Europe,Finland,Uusimaa,,Helsinki
65.108.68.234,4,29,touchsize.com,FI,Europe,Northern Europe,Finland,Uusimaa,,Helsinki
135.181.96.169,4,32,tourkiev.com,FI,Europe,Northern Europe,Finland,Uusimaa,,Helsinki
94.237.95.129,4,22,track-trace.com,FI,Europe,Northern Europe,Finland,,,
65.109.232.62,4,25,tradenet.it,FI,Europe,Northern Europe,Finland,Uusimaa,,Helsinki
65.108.30.150,4,1,trainingzone.co.uk,FI,Europe,Northern Europe,Finland,Uusimaa,,Helsinki
135.181.113.31,4,22,transcellbio.science,FI,Europe,Northern Europe,Finland,Uusimaa,,Helsinki
66.151.35.140,4,-556,transfonter.org,FI,Europe,Northern Europe,Finland,Uusimaa,,Helsinki
65.21.244.121,4,10,transportnyt.dk,FI,Europe,Northern Europe,Finland,Uusimaa,,Helsinki
95.217.119.176,4,18,travels2nepal.com,FI,Europe,Northern Europe,Finland,Uusimaa,,Helsinki
95.216.149.182,4,23,tree-stores.com,FI,Europe,Northern Europe,Finland,Uusimaa,,Helsinki
65.21.228.212,4,610,trend-door.com,FI,Europe,Northern Europe,Finland,Uusimaa,,Helsinki
65.109.59.37,4,20,trendingnewsbuzz.com,FI,Europe,Northern Europe,Finland,Uusimaa,,Helsinki
79.171.232.212,4,25,treston.com,FI,Europe,Northern Europe,Finland,,,
65.21.88.134,4,-64939,triadholding.com,FI,Europe,Northern Europe,Finland,Uusimaa,,Helsinki
95.216.138.23,4,1,trijin.ru,FI,Europe,Northern Europe,Finland,Uusimaa,,Helsinki
95.217.229.54,4,114,tripoli.land,FI,Europe,Northern Europe,Finland,Uusimaa,,Helsinki
95.217.13.233,4,32,trisovi.ru,FI,Europe,Northern Europe,Finland,Uusimaa,,Helsinki
95.217.212.67,4,1,trygghetsmat.se,FI,Europe,Northern Europe,Finland,Uusimaa,,Helsinki
65.109.154.148,4,1,tsarvar.com,FI,Europe,Northern Europe,Finland,Uusimaa,,Helsinki
95.217.58.205,4,60082,tssec.ru,FI,Europe,Northern Europe,Finland,Uusimaa,,Helsinki
130.232.216.214,4,39,tucs.fi,FI,Europe,Northern Europe,Finland,Southwest Finland,,Turku
135.181.96.119,4,7,tundratabloids.com,FI,Europe,Northern Europe,Finland,Uusimaa,,Helsinki
65.108.194.92,4,3,tuning-pickup.ru,FI,Europe,Northern Europe,Finland,Uusimaa,,Helsinki
65.109.52.205,4,17,turbomaster.info,FI,Europe,Northern Europe,Finland,Uusimaa,,Helsinki
188.117.31.188,4,4,turisas.com,FI,Europe,Northern Europe,Finland,Uusimaa,,Espoo
65.21.226.95,4,0,turkbalikavi.com,FI,Europe,Northern Europe,Finland,Uusimaa,,Helsinki
94.237.107.225,4,39,turkubusinessregion.com,FI,Europe,Northern Europe,Finland,,,
77.72.56.13,4,28,tuska-festival.fi,FI,Europe,Northern Europe,Finland,,,
185.220.77.9,4,41,tuska.fi,FI,Europe,Northern Europe,Finland,,,
65.21.20.223,4,1,tutorials.de,FI,Europe,Northern Europe,Finland,Uusimaa,,Helsinki
65.21.249.247,4,-237,tutorialworks.com,FI,Europe,Northern Europe,Finland,Uusimaa,,Helsinki
135.181.95.125,4,0,tvzavr.ru,FI,Europe,Northern Europe,Finland,Uusimaa,,Helsinki
135.181.147.211,4,14,two-wrongs.com,FI,Europe,Northern Europe,Finland,Uusimaa,,Helsinki
95.217.240.130,4,-3,twtr.jp,FI,Europe,Northern Europe,Finland,Uusimaa,,Helsinki
94.237.13.99,4,7,tyj.fi,FI,Europe,Northern Europe,Finland,Uusimaa,,Helsinki
94.237.105.133,4,17,tykkimaki.fi,FI,Europe,Northern Europe,Finland,,,
65.21.88.158,4,3,tynpanama.com,FI,Europe,Northern Europe,Finland,Uusimaa,,Helsinki
95.217.122.101,4,1,ubierzswojesciany.pl,FI,Europe,Northern Europe,Finland,Uusimaa,,Helsinki
65.109.13.54,4,1,udflugteridanmark.dk,FI,Europe,Northern Europe,Finland,Uusimaa,,Helsinki
94.237.93.158,4,5,uef.fi,FI,Europe,Northern Europe,Finland,,,
31.217.192.159,4,-435,uff.fi,FI,Europe,Northern Europe,Finland,,,
65.108.79.124,4,12,ugandafdo.com,FI,Europe,Northern Europe,Finland,Uusimaa,,Helsinki
135.181.67.113,4,5,ugurelektronik.com,FI,Europe,Northern Europe,Finland,Uusimaa,,Helsinki
95.216.193.206,4,5,uinp.gov.ua,FI,Europe,Northern Europe,Finland,Uusimaa,,Helsinki
135.181.229.233,4,76,uklo.edu.mk,FI,Europe,Northern Europe,Finland,Uusimaa,,Helsinki
135.181.9.30,4,38,ukma.edu.ua,FI,Europe,Northern Europe,Finland,Uusimaa,,Helsinki
135.181.37.10,4,3,ukrarcheparchy.us,FI,Europe,Northern Europe,Finland,Uusimaa,,Helsinki
37.27.108.246,4,34,ukrtruba.com.ua,FI,Europe,Northern Europe,Finland,Uusimaa,,Helsinki
65.108.103.234,4,18,ukubb.com,FI,Europe,Northern Europe,Finland,Uusimaa,,Helsinki
95.217.79.35,4,42,ultratrail.it,FI,Europe,Northern Europe,Finland,Uusimaa,,Helsinki
95.216.113.223,4,3,undelete360.com,FI,Europe,Northern Europe,Finland,Uusimaa,,Helsinki
37.27.4.148,4,9,uni-time.ru,FI,Europe,Northern Europe,Finland,Uusimaa,,Helsinki
95.217.21.71,4,18,unicyclist.com,FI,Europe,Northern Europe,Finland,Uusimaa,,Helsinki
95.216.144.25,4,3,unilocal.net,FI,Europe,Northern Europe,Finland,Uusimaa,,Helsinki
65.109.92.221,4,-15748,universalpersonality.com,FI,Europe,Northern Europe,Finland,Uusimaa,,Helsinki
95.217.157.224,4,0,unixforum.org,FI,Europe,Northern Europe,Finland,Uusimaa,,Helsinki
95.216.227.233,4,4,unze.ba,FI,Europe,Northern Europe,Finland,Uusimaa,,Helsinki
65.21.138.104,4,2,uokerbala.edu.iq,FI,Europe,Northern Europe,Finland,Uusimaa,,Helsinki
94.237.118.27,4,5,upcloudobjects.com,FI,Europe,Northern Europe,Finland,,,
65.109.106.46,4,5,uploadarticle.com,FI,Europe,Northern Europe,Finland,Uusimaa,,Helsinki
65.21.245.64,4,4,upplevaisverige.se,FI,Europe,Northern Europe,Finland,Uusimaa,,Helsinki
95.216.152.166,4,3,upplevelseideer.se,FI,Europe,Northern Europe,Finland,Uusimaa,,Helsinki
65.21.244.68,4,5,upplevelserriketrunt.se,FI,Europe,Northern Europe,Finland,Uusimaa,,Helsinki
135.181.168.104,4,10,upt.al,FI,Europe,Northern Europe,Finland,Uusimaa,,Helsinki
65.109.162.41,4,20,urlvoid.com,FI,Europe,Northern Europe,Finland,Uusimaa,,Helsinki
185.218.88.68,4,26,ursa.fi,FI,Europe,Northern Europe,Finland,,,
95.216.35.125,4,1,urtikaria.net,FI,Europe,Northern Europe,Finland,Uusimaa,,Helsinki
135.181.194.244,4,7,usaartnews.com,FI,Europe,Northern Europe,Finland,Uusimaa,,Helsinki
95.216.66.223,4,3,usamotors.com.ua,FI,Europe,Northern Europe,Finland,Uusimaa,,Helsinki
65.109.18.14,4,0,usaupload.com,FI,Europe,Northern Europe,Finland,Uusimaa,,Helsinki
94.237.86.162,4,43,userfeel.com,FI,Europe,Northern Europe,Finland,,,
95.216.221.242,4,5,ushandball.org,FI,Europe,Northern Europe,Finland,Uusimaa,,Helsinki
95.216.47.196,4,1,uson.com.ua,FI,Europe,Northern Europe,Finland,Uusimaa,,Helsinki
135.181.61.101,4,6,uteka.ua,FI,Europe,Northern Europe,Finland,Uusimaa,,Helsinki
77.72.56.10,4,1,uuttahelsinkia.fi,FI,Europe,Northern Europe,Finland,,,
95.217.145.243,4,5,v-a-i.at,FI,Europe,Northern Europe,Finland,Uusimaa,,Helsinki
83.143.219.58,4,15,v2.fi,FI,Europe,Northern Europe,Finland,,,
65.108.7.215,4,2,vaccineinjury.info,FI,Europe,Northern Europe,Finland,Uusimaa,,Helsinki
37.27.71.214,4,35,vairaksaules.lv,FI,Europe,Northern Europe,Finland,Uusimaa,,Helsinki
65.108.111.241,4,199121,vaishsamajfaridabad.org,FI,Europe,Northern Europe,Finland,Uusimaa,,Helsinki
5.22.210.71,4,34,vakbeursenergie.nl,FI,Europe,Northern Europe,Finland,,,
95.175.122.201,4,838,vallox.com,FI,Europe,Northern Europe,Finland,Uusimaa,,Helsinki
77.72.56.8,4,3,valokuvataiteenmuseo.fi,FI,Europe,Northern Europe,Finland,,,
37.27.128.110,4,10,valosto.com,FI,Europe,Northern Europe,Finland,Uusimaa,,Helsinki
135.181.164.29,4,16,vaniafoodindustryexport.com,FI,Europe,Northern Europe,Finland,Uusimaa,,Helsinki
95.216.141.120,4,23640,varjojenkirja.com,FI,Europe,Northern Europe,Finland,Uusimaa,,Helsinki
95.216.180.239,4,10,varta-guide.de,FI,Europe,Northern Europe,Finland,Uusimaa,,Helsinki
65.109.113.92,4,16,vdcasino8.net,FI,Europe,Northern Europe,Finland,Uusimaa,,Helsinki
95.216.205.12,4,25,vedvarende-energikilder.dk,FI,Europe,Northern Europe,Finland,Uusimaa,,Helsinki
77.86.247.124,4,50,veikkausliiga.com,FI,Europe,Northern Europe,Finland,,,
95.217.63.67,4,21,velvetmusic.nl,FI,Europe,Northern Europe,Finland,Uusimaa,,Helsinki
95.216.148.231,4,18,verdigado.com,FI,Europe,Northern Europe,Finland,Uusimaa,,Helsinki
135.181.166.40,4,23,veriacco.com,FI,Europe,Northern Europe,Finland,Uusimaa,,Helsinki
217.64.47.10,4,25,verkkolaskuosoite.fi,FI,Europe,Northern Europe,Finland,Uusimaa,,Helsinki
83.143.219.48,4,2,vesi.fi,FI,Europe,Northern Europe,Finland,,,
95.217.144.15,4,5,vesti72.ru,FI,Europe,Northern Europe,Finland,Uusimaa,,Helsinki
95.216.75.229,4,118,vfl.ru,FI,Europe,Northern Europe,Finland,Uusimaa,,Helsinki
95.217.195.28,4,1,vgh.pl,FI,Europe,Northern Europe,Finland,Uusimaa,,Helsinki
37.27.65.216,4,2,vgtrading.nl,FI,Europe,Northern Europe,Finland,Uusimaa,,Helsinki
95.217.195.80,4,2,viadinarica.com,FI,Europe,Northern Europe,Finland,Uusimaa,,Helsinki
37.27.130.103,4,28,viasat3.hu,FI,Europe,Northern Europe,Finland,Uusimaa,,Helsinki
95.217.230.103,4,11,videoartworld.com,FI,Europe,Northern Europe,Finland,Uusimaa,,Helsinki
95.216.71.148,4,8,videofy.me,FI,Europe,Northern Europe,Finland,Uusimaa,,Helsinki
65.108.238.115,4,5,videoman.gr,FI,Europe,Northern Europe,Finland,Uusimaa,,Helsinki
95.217.113.240,4,1,videosmaller.com,FI,Europe,Northern Europe,Finland,Uusimaa,,Helsinki
94.237.8.98,4,39,vieremankylanraitti.com,FI,Europe,Northern Europe,Finland,Uusimaa,,Helsinki
95.217.193.151,4,46,vifm.info,FI,Europe,Northern Europe,Finland,Uusimaa,,Helsinki
94.237.105.18,4,4,vihreat.fi,FI,Europe,Northern Europe,Finland,,,
135.181.132.98,4,29,villagrazia.ua,FI,Europe,Northern Europe,Finland,Uusimaa,,Helsinki
65.21.199.158,4,1,villamoto.ee,FI,Europe,Northern Europe,Finland,Uusimaa,,Helsinki
135.181.181.81,4,19,vilshany.info,FI,Europe,Northern Europe,Finland,Uusimaa,,Helsinki
135.181.181.90,4,10,vip-programming.ru,FI,Europe,Northern Europe,Finland,Uusimaa,,Helsinki
65.109.86.83,4,9,virgomansecrets.com,FI,Europe,Northern Europe,Finland,Uusimaa,,Helsinki
188.117.29.94,4,5,virtualpilots.fi,FI,Europe,Northern Europe,Finland,Uusimaa,,Espoo
135.181.10.193,4,60,virtualpulse.eu,FI,Europe,Northern Europe,Finland,Uusimaa,,Helsinki
95.217.133.240,4,17,visitkemi.fi,FI,Europe,Northern Europe,Finland,Uusimaa,,Helsinki
185.220.77.8,4,5,visitoulu.fi,FI,Europe,Northern Europe,Finland,,,
94.237.15.149,4,1149,visitparainen.fi,FI,Europe,Northern Europe,Finland,Uusimaa,,Helsinki
185.218.195.54,4,4,visittampere.fi,FI,Europe,Northern Europe,Finland,Southwest Finland,,Turku
35.228.224.94,4,15,vismasignforms.com,FI,Europe,Northern Europe,Finland,South Karelia Region,,Lappeenranta
95.217.239.143,4,40,visnyk.poker,FI,Europe,Northern Europe,Finland,Uusimaa,,Helsinki
95.217.143.164,4,15,vita.it,FI,Europe,Northern Europe,Finland,Uusimaa,,Helsinki
95.216.239.51,4,7,vitamarg.com,FI,Europe,Northern Europe,Finland,Uusimaa,,Helsinki
185.87.111.114,4,36,viznut.fi,FI,Europe,Northern Europe,Finland,,,
65.108.82.117,4,57,vksrs.com,FI,Europe,Northern Europe,Finland,Uusimaa,,Helsinki
91.232.155.81,4,4,voacap.com,FI,Europe,Northern Europe,Finland,,,
194.100.215.60,4,-3,voice.fi,FI,Europe,Northern Europe,Finland,Uusimaa,,Helsinki
185.220.77.4,4,2,voima.fi,FI,Europe,Northern Europe,Finland,,,
35.228.144.13,4,3,volvomuseum.com,FI,Europe,Northern Europe,Finland,South Karelia Region,,Lappeenranta
94.237.114.59,4,7,vpd.fi,FI,Europe,Northern Europe,Finland,Uusimaa,,Helsinki
65.108.123.218,4,0,vpe-cameroun.org,FI,Europe,Northern Europe,Finland,Uusimaa,,Helsinki
65.108.242.236,4,-7,vsupalov.com,FI,Europe,Northern Europe,Finland,Uusimaa,,Helsinki
95.216.33.243,4,5,vukajlija.com,FI,Europe,Northern Europe,Finland,Uusimaa,,Helsinki
185.26.48.117,4,4,vuokatti.fi,FI,Europe,Northern Europe,Finland,,,
95.216.99.122,4,2,vux.li,FI,Europe,Northern Europe,Finland,Uusimaa,,Helsinki
65.109.175.49,4,3,w2eu.info,FI,Europe,Northern Europe,Finland,Uusimaa,,Helsinki
65.108.236.236,4,8,waeup.org,FI,Europe,Northern Europe,Finland,Uusimaa,,Helsinki
95.217.224.30,4,12,wallsdesk.com,FI,Europe,Northern Europe,Finland,Uusimaa,,Helsinki
95.217.199.113,4,3,warmuseum.gr,FI,Europe,Northern Europe,Finland,Uusimaa,,Helsinki
185.26.50.227,4,9,waterprotectiontools.net,FI,Europe,Northern Europe,Finland,,,
95.217.175.239,4,16,wathai.de,FI,Europe,Northern Europe,Finland,Uusimaa,,Helsinki
83.150.67.102,4,6,wattwaybycolas.com,FI,Europe,Northern Europe,Finland,Uusimaa,,Helsinki
135.181.137.71,4,1,wayuptop.com,FI,Europe,Northern Europe,Finland,Uusimaa,,Helsinki
65.21.236.178,4,1,wb4host.com,FI,Europe,Northern Europe,Finland,Uusimaa,,Helsinki
95.216.140.128,4,5,wdchelsinki2012.fi,FI,Europe,Northern Europe,Finland,Uusimaa,,Helsinki
35.228.47.141,4,27,weareepicenter.com,FI,Europe,Northern Europe,Finland,South Karelia Region,,Lappeenranta
95.217.129.34,4,-20,webbshopparen.se,FI,Europe,Northern Europe,Finland,Uusimaa,,Helsinki
65.108.136.19,4,29,webglplayground.net,FI,Europe,Northern Europe,Finland,Uusimaa,,Helsinki
135.181.62.51,4,20,webpro.su,FI,Europe,Northern Europe,Finland,Uusimaa,,Helsinki
95.216.161.61,4,18,webvision.com.ua,FI,Europe,Northern Europe,Finland,Uusimaa,,Helsinki
94.237.102.159,4,-19,weekdone.com,FI,Europe,Northern Europe,Finland,,,
65.21.70.59,4,4,wenn.com,FI,Europe,Northern Europe,Finland,Uusimaa,,Helsinki
95.217.86.148,4,6,wesnoth.org,FI,Europe,Northern Europe,Finland,Uusimaa,,Helsinki
65.108.219.153,4,-111448,whitemilkfoundation.org,FI,Europe,Northern Europe,Finland,Uusimaa,,Helsinki
65.21.125.98,4,0,wholelottanothing.org,FI,Europe,Northern Europe,Finland,Uusimaa,,Helsinki
95.216.35.119,4,39,wijvertrouwenstemcomputersniet.nl,FI,Europe,Northern Europe,Finland,Uusimaa,,Helsinki
135.181.16.82,4,39,wiki.apache.org,FI,Europe,Northern Europe,Finland,Uusimaa,,Helsinki
65.109.174.25,4,68,wikiless.org,FI,Europe,Northern Europe,Finland,Uusimaa,,Helsinki
135.181.157.113,4,32,wikimedia.de,FI,Europe,Northern Europe,Finland,Uusimaa,,Helsinki
213.157.79.1,4,29,wildbit-soft.fi,FI,Europe,Northern Europe,Finland,,,
65.109.48.169,4,7,wildix.com,FI,Europe,Northern Europe,Finland,Uusimaa,,Helsinki
65.21.196.90,4,1,williamyoung.shop,FI,Europe,Northern Europe,Finland,Uusimaa,,Helsinki
65.108.75.54,4,12,winblog.ru,FI,Europe,Northern Europe,Finland,Uusimaa,,Helsinki
65.109.99.232,4,19,wippien.com,FI,Europe,Northern Europe,Finland,Uusimaa,,Helsinki
135.181.180.171,4,4,wirenewsfax.com,FI,Europe,Northern Europe,Finland,Uusimaa,,Helsinki
135.181.81.103,4,10,wizzits.com,FI,Europe,Northern Europe,Finland,Uusimaa,,Helsinki
135.181.93.214,4,30,wolffer.com,FI,Europe,Northern Europe,Finland,Uusimaa,,Helsinki
95.216.172.151,4,1,wolfsberg-principles.com,FI,Europe,Northern Europe,Finland,Uusimaa,,Helsinki
95.217.87.80,4,1,womaninc.ru,FI,Europe,Northern Europe,Finland,Uusimaa,,Helsinki
135.181.61.125,4,5,wookie.com.ua,FI,Europe,Northern Europe,Finland,Uusimaa,,Helsinki
135.181.213.170,4,9,woopyshoes.ru,FI,Europe,Northern Europe,Finland,Uusimaa,,Helsinki
65.108.78.181,4,1,wordly.org,FI,Europe,Northern Europe,Finland,Uusimaa,,Helsinki
135.181.129.174,4,35,wordyou.ru,FI,Europe,Northern Europe,Finland,Uusimaa,,Helsinki
65.21.74.249,4,4,world-cam.ru,FI,Europe,Northern Europe,Finland,Uusimaa,,Helsinki
65.108.66.125,4,11,worldlifemagazine.com,FI,Europe,Northern Europe,Finland,Uusimaa,,Helsinki
95.216.24.116,4,38,worms2d.info,FI,Europe,Northern Europe,Finland,Uusimaa,,Helsinki
65.108.196.186,4,11,wplistingthemes.com,FI,Europe,Northern Europe,Finland,Uusimaa,,Helsinki
94.237.19.254,4,19,wsoy.fi,FI,Europe,Northern Europe,Finland,Uusimaa,,Helsinki
135.181.149.208,4,-1,wts.fi,FI,Europe,Northern Europe,Finland,Uusimaa,,Helsinki
95.216.228.150,4,-1,xbook.ru,FI,Europe,Northern Europe,Finland,Uusimaa,,Helsinki
185.196.102.116,4,3,xcasgames.com,FI,Europe,Northern Europe,Finland,Satakunta,,Pori
95.216.76.28,4,182,xn----7sbabr8amlfetfij7nyb.xn--p1ai,FI,Europe,Northern Europe,Finland,Uusimaa,,Helsinki
95.216.15.167,4,49,xn--1-7sb3aeok0dwc.xn--p1ai,FI,Europe,Northern Europe,Finland,Uusimaa,,Helsinki
95.216.29.101,4,49,xn--80aaagzi2bkteg1d.xn--p1ai,FI,Europe,Northern Europe,Finland,Uusimaa,,Helsinki
65.21.244.84,4,58,xn--allashlsa-02a.se,FI,Europe,Northern Europe,Finland,Uusimaa,,Helsinki
95.217.206.165,4,56,xn--b1aga5aadd.xn--p1ai,FI,Europe,Northern Europe,Finland,Uusimaa,,Helsinki
95.217.215.125,4,62,xn--bredygtig-virksomhed-i0b.dk,FI,Europe,Northern Europe,Finland,Uusimaa,,Helsinki
65.21.241.8,4,105,xn--bstservice-q5a.se,FI,Europe,Northern Europe,Finland,Uusimaa,,Helsinki
135.181.181.70,4,101,xn--d1abkaamepch5h.xn--p1ai,FI,Europe,Northern Europe,Finland,Uusimaa,,Helsinki
65.21.243.136,4,101,xn--etgodtmltid-38a.dk,FI,Europe,Northern Europe,Finland,Uusimaa,,Helsinki
65.21.156.22,4,99,xn--gottattta-12a.se,FI,Europe,Northern Europe,Finland,Uusimaa,,Helsinki
95.216.137.145,4,91,xn--grnne-investeringer-w7b.dk,FI,Europe,Northern Europe,Finland,Uusimaa,,Helsinki
65.108.157.251,4,61,xn--hlsobloggarna-bfb.se,FI,Europe,Northern Europe,Finland,Uusimaa,,Helsinki
35.228.124.46,4,57,xn--kksbloggaren-4ib.se,FI,Europe,Northern Europe,Finland,South Karelia Region,,Lappeenranta
65.21.244.203,4,79,xn--konomimagasinet-4tb.dk,FI,Europe,Northern Europe,Finland,Uusimaa,,Helsinki
65.21.244.66,4,8,xn--konstnrsnytt-lcb.se,FI,Europe,Northern Europe,Finland,Uusimaa,,Helsinki
65.21.155.57,4,1,xn--kremagasinet-vjb.dk,FI,Europe,Northern Europe,Finland,Uusimaa,,Helsinki
65.21.244.17,4,2,xn--kunstnrd-b5a.dk,FI,Europe,Northern Europe,Finland,Uusimaa,,Helsinki
95.217.131.74,4,87,xn--motionrer-02a.se,FI,Europe,Northern Europe,Finland,Uusimaa,,Helsinki
95.217.190.3,4,82,xn--pmintomt-9za.se,FI,Europe,Northern Europe,Finland,Uusimaa,,Helsinki
65.108.212.82,4,8,xn--rdomservice-x8a.se,FI,Europe,Northern Europe,Finland,Uusimaa,,Helsinki
65.109.236.70,4,1,xn--resaskert-z2a.se,FI,Europe,Northern Europe,Finland,Uusimaa,,Helsinki
65.109.166.77,4,1,xn--rrpdig-kua7k.se,FI,Europe,Northern Europe,Finland,Uusimaa,,Helsinki
65.21.244.230,4,3,xn--servicefrdig-cjb.se,FI,Europe,Northern Europe,Finland,Uusimaa,,Helsinki
65.108.148.202,4,106,xn--serviceversikt-1pb.se,FI,Europe,Northern Europe,Finland,Uusimaa,,Helsinki
95.217.130.125,4,12,xn--sknhedsguiderne-6tb.dk,FI,Europe,Northern Europe,Finland,Uusimaa,,Helsinki
65.109.7.101,4,-4,xn--sknhedsposten-cnb.dk,FI,Europe,Northern Europe,Finland,Uusimaa,,Helsinki
65.108.241.195,4,39,xn--smrpbrdet-82a0sf.dk,FI,Europe,Northern Europe,Finland,Uusimaa,,Helsinki
65.21.242.221,4,16,xn--sndagsture-0cb.dk,FI,Europe,Northern Europe,Finland,Uusimaa,,Helsinki
65.108.82.203,4,76,xn--sportfrdig-jcb.se,FI,Europe,Northern Europe,Finland,Uusimaa,,Helsinki
95.217.166.107,4,72,xn--sportochtrning-fib.se,FI,Europe,Northern Europe,Finland,Uusimaa,,Helsinki
135.181.192.192,4,1,xn--sportsglde-k6a.dk,FI,Europe,Northern Europe,Finland,Uusimaa,,Helsinki
65.21.244.227,4,37,xn--strktavmotion-cfb.se,FI,Europe,Northern Europe,Finland,Uusimaa,,Helsinki
65.108.155.37,4,2,xn--sundhedogglde-egb.dk,FI,Europe,Northern Europe,Finland,Uusimaa,,Helsinki
65.108.249.130,4,0,xn--tanytt-9ta.se,FI,Europe,Northern Europe,Finland,Uusimaa,,Helsinki
65.108.87.87,4,19,xn--underhllsinfo-ufb.se,FI,Europe,Northern Europe,Finland,Uusimaa,,Helsinki
65.109.129.195,4,19,xn--underhllstips-ufb.se,FI,Europe,Northern Europe,Finland,Uusimaa,,Helsinki
37.27.10.130,4,-1,xn--ventyrssemester-zkb.se,FI,Europe,Northern Europe,Finland,Uusimaa,,Helsinki
65.21.243.77,4,2,xn--vrthus-iua.se,FI,Europe,Northern Europe,Finland,Uusimaa,,Helsinki
65.108.245.132,4,4,xn--vrtstoraventyr-dibi.se,FI,Europe,Northern Europe,Finland,Uusimaa,,Helsinki
95.217.218.67,4,1,xuurl.com,FI,Europe,Northern Europe,Finland,Uusimaa,,Helsinki
95.216.247.245,4,0,xvidvideo.ru,FI,Europe,Northern Europe,Finland,Uusimaa,,Helsinki
95.216.69.132,4,2,xxl-studio.ua,FI,Europe,Northern Europe,Finland,Uusimaa,,Helsinki
135.181.132.34,4,2,yaia.com,FI,Europe,Northern Europe,Finland,Uusimaa,,Helsinki
135.181.231.205,4,225307,yamasfurniture.com,FI,Europe,Northern Europe,Finland,Uusimaa,,Helsinki
65.21.143.8,4,22,yapx.ru,FI,Europe,Northern Europe,Finland,Uusimaa,,Helsinki
185.26.48.101,4,6,yeint.ee,FI,Europe,Northern Europe,Finland,,,
164.215.39.203,4,6,ylioppilaslehti.fi,FI,Europe,Northern Europe,Finland,Uusimaa,,Helsinki
135.181.88.162,4,2,ymk-mebel.ru,FI,Europe,Northern Europe,Finland,Uusimaa,,Helsinki
37.228.129.84,4,8,yosei.fi,FI,Europe,Northern Europe,Finland,,,
95.217.196.123,4,1,youcompress.com,FI,Europe,Northern Europe,Finland,Uusimaa,,Helsinki
95.217.167.140,4,12,yourmiraclelife.com,FI,Europe,Northern Europe,Finland,Uusimaa,,Helsinki
185.26.51.150,4,1317,ytj.fi,FI,Europe,Northern Europe,Finland,,,
37.27.189.15,4,35,yun.ir,FI,Europe,Northern Europe,Finland,Uusimaa,,Helsinki
65.21.252.127,4,5,yurichev.com,FI,Europe,Northern Europe,Finland,Uusimaa,,Helsinki
95.217.104.167,4,17,zabros.com.ua,FI,Europe,Northern Europe,Finland,Uusimaa,,Helsinki
135.181.246.14,4,6,zagreb-touristinfo.hr,FI,Europe,Northern Europe,Finland,Uusimaa,,Helsinki
65.108.10.55,4,24,zakalwe.fi,FI,Europe,Northern Europe,Finland,Uusimaa,,Helsinki
31.187.84.47,4,36,zakony.fi,FI,Europe,Northern Europe,Finland,,,
95.217.24.117,4,18,zamora24horas.com,FI,Europe,Northern Europe,Finland,Uusimaa,,Helsinki
95.217.202.210,4,34,zeep.ly,FI,Europe,Northern Europe,Finland,Uusimaa,,Helsinki
95.216.102.52,4,2,zegarkicentrum.pl,FI,Europe,Northern Europe,Finland,Uusimaa,,Helsinki
65.109.12.188,4,1,zelow.no,FI,Europe,Northern Europe,Finland,Uusimaa,,Helsinki
65.21.33.151,4,2,zexron.com,FI,Europe,Northern Europe,Finland,Uusimaa,,Helsinki
65.109.154.153,4,8,zhitomir-online.com,FI,Europe,Northern Europe,Finland,Uusimaa,,Helsinki
65.109.105.178,4,17,ziglang.org,FI,Europe,Northern Europe,Finland,Uusimaa,,Helsinki
95.217.58.220,4,8,zingst.de,FI,Europe,Northern Europe,Finland,Uusimaa,,Helsinki
95.217.177.242,4,5,zmailer.org,FI,Europe,Northern Europe,Finland,Uusimaa,,Helsinki
35.228.62.219,4,2,zoinkgames.com,FI,Europe,Northern Europe,Finland,South Karelia Region,,Lappeenranta
65.21.232.13,4,9,zolotoy-standart.com.ua,FI,Europe,Northern Europe,Finland,Uusimaa,,Helsinki
65.109.158.26,4,6,zonakz.net,FI,Europe,Northern Europe,Finland,Uusimaa,,Helsinki
37.27.127.201,4,1,zooclub.com.ua,FI,Europe,Northern Europe,Finland,Uusimaa,,Helsinki
65.21.84.55,4,4,zooshopp.ru,FI,Europe,Northern Europe,Finland,Uusimaa,,Helsinki
95.216.110.82,4,0,zoougolok.com.ua,FI,Europe,Northern Europe,Finland,Uusimaa,,Helsinki
65.21.124.150,4,4,zory.pl,FI,Europe,Northern Europe,Finland,Uusimaa,,Helsinki
95.217.52.89,4,3,zp.edu.ua,FI,Europe,Northern Europe,Finland,Uusimaa,,Helsinki
65.108.156.4,4,1,zrythm.org,FI,Europe,Northern Europe,Finland,Uusimaa,,Helsinki
95.217.245.27,4,-5,zsugabubus.hu,FI,Europe,Northern Europe,Finland,Uusimaa,,Helsinki
95.217.114.218,4,2,zulnab.com,FI,Europe,Northern Europe,Finland,Uusimaa,,Helsinki
95.217.35.219,4,1,zutto.fi,FI,Europe,Northern Europe,Finland,Uusimaa,,Helsinki
65.21.254.55,4,-3,zvuki.ru,FI,Europe,Northern Europe,Finland,Uusimaa,,Helsinki
95.216.243.77,4,0,zywiec.pl,FI,Europe,Northern Europe,Finland,Uusimaa,,Helsinki
95.216.7.22,4,0,zywiecogloszenia.pl,FI,Europe,Northern Europe,Finland,Uusimaa,,Helsinki
65.108.231.143,4,1,zzz.ee,FI,Europe,Northern Europe,Finland,Uusimaa,,Helsinki
