reflector_ip,ip_version,offset,description,country_code,region,sub_region,country_name,sub_division_1,sub_division_2,city
93.95.226.19,4,7,1984.hosting,IS,Europe,Northern Europe,Iceland,,,
93.95.226.16,4,8,1984.is,IS,Europe,Northern Europe,Iceland,,,
185.112.145.81,4,11,1984hosting.com,IS,Europe,Northern Europe,Iceland,,,
185.112.145.154,4,7,2fyrir1.is,IS,Europe,Northern Europe,Iceland,,,
185.165.170.70,4,6,afdbundestag.de,IS,Europe,Northern Europe,Iceland,Capital Region,Reykjavíkurborg,Reykjavik
185.112.145.228,4,88,al-awdapalestine.org,IS,Europe,Northern Europe,Iceland,,,
185.112.145.140,4,6,alda.is,IS,Europe,Northern Europe,Iceland,,,
185.165.171.115,4,29,anarkismo.net,IS,Europe,Northern Europe,Iceland,,,
185.112.145.161,4,4,animalliberationpressoffice.org,IS,Europe,Northern Europe,Iceland,,,
82.221.100.77,4,100,antifa.cz,IS,Europe,Northern Europe,Iceland,Capital Region,Reykjavíkurborg,Reykjavik
185.174.176.24,4,2,asi.is,IS,Europe,Northern Europe,Iceland,,,
185.112.145.141,4,35,aurorareykjavik.is,IS,Europe,Northern Europe,Iceland,,,
82.221.129.44,4,52,azuresunrise.com,IS,Europe,Northern Europe,Iceland,Capital Region,Reykjavíkurborg,Reykjavik
193.109.24.160,4,13,bb.is,IS,Europe,Northern Europe,Iceland,Westfjords,Ísafjarðarbær,Isafjordur
185.112.145.191,4,12,blikar.is,IS,Europe,Northern Europe,Iceland,,,
185.112.145.190,4,12,botmission.org,IS,Europe,Northern Europe,Iceland,,,
82.221.136.1,4,981,brutalproof.net,IS,Europe,Northern Europe,Iceland,Capital Region,Reykjavíkurborg,Reykjavik
185.112.146.239,4,4,cryptoparty.org,IS,Europe,Northern Europe,Iceland,,,
185.10.68.161,4,23,deepsukebe.io,IS,Europe,Northern Europe,Iceland,,,
185.165.169.138,4,7,dgrnewsservice.org,IS,Europe,Northern Europe,Iceland,,,
178.248.20.103,4,13,dillrestaurant.is,IS,Europe,Northern Europe,Iceland,,,
93.95.224.44,4,14,dmr.net.br,IS,Europe,Northern Europe,Iceland,,,
46.22.99.226,4,4,DNS Server: 226-99-22-46.business.hringdu.is,IS,Europe,Northern Europe,Iceland,Capital Region,Reykjavíkurborg,Reykjavik
31.209.146.55,4,6,DNS Server: 55-146-209-31.xdsl.hringdu.is,IS,Europe,Northern Europe,Iceland,Capital Region,Reykjavíkurborg,Reykjavik
89.160.133.214,4,1,DNS Server: 89-160-133-214.du.xdsl.is,IS,Europe,Northern Europe,Iceland,Capital Region,Reykjavíkurborg,Reykjavik
93.95.224.28,4,10,DNS Server: dns-local-28.1984.is,IS,Europe,Northern Europe,Iceland,,,
185.112.147.95,4,281,DNS Server: vps-185-112-147-95.1984.is,IS,Europe,Northern Europe,Iceland,,,
82.221.128.89,4,28,doramaclub.tv,IS,Europe,Northern Europe,Iceland,Capital Region,Reykjavíkurborg,Reykjavik
82.221.128.92,4,39,doramaserials.net,IS,Europe,Northern Europe,Iceland,Capital Region,Reykjavíkurborg,Reykjavik
185.112.145.131,4,3,exif-recherche.org,IS,Europe,Northern Europe,Iceland,,,
89.147.108.182,4,36,featherwallet.org,IS,Europe,Northern Europe,Iceland,Capital Region,Reykjavíkurborg,Reykjavik
185.112.145.210,4,37,febsel.is,IS,Europe,Northern Europe,Iceland,,,
37.156.68.16,4,15,flokinet.to,IS,Europe,Northern Europe,Iceland,,,
79.171.101.35,4,10,forlagid.is,IS,Europe,Northern Europe,Iceland,Capital Region,Hafnarfjarðarkaupstaður,Hafnarfjordur
185.165.171.132,4,9,fridaysforfuture.de,IS,Europe,Northern Europe,Iceland,,,
185.165.170.6,4,-42476,fridaysforfuture.org,IS,Europe,Northern Europe,Iceland,Capital Region,Reykjavíkurborg,Reykjavik
185.112.145.124,4,20,galdrasyning.is,IS,Europe,Northern Europe,Iceland,,,
82.221.141.15,4,42,gemmaodoherty.com,IS,Europe,Northern Europe,Iceland,Capital Region,Reykjavíkurborg,Reykjavik
185.112.145.171,4,5,gjoska.is,IS,Europe,Northern Europe,Iceland,,,
82.221.139.135,4,21,googletransparencyproject.org,IS,Europe,Northern Europe,Iceland,Capital Region,Reykjavíkurborg,Reykjavik
178.248.17.77,4,38,greind.is,IS,Europe,Northern Europe,Iceland,,,
82.221.104.146,4,10,hdrezka.ag,IS,Europe,Northern Europe,Iceland,,,
185.112.145.173,4,5,henrythor.is,IS,Europe,Northern Europe,Iceland,,,
80.248.29.188,4,1,heyiceland.is,IS,Europe,Northern Europe,Iceland,Capital Region,Reykjavíkurborg,Reykjavik
130.208.165.186,4,6,hi.is,IS,Europe,Northern Europe,Iceland,Capital Region,Hafnarfjarðarkaupstaður,Hafnarfjordur
185.112.145.155,4,11,hollyherndon.com,IS,Europe,Northern Europe,Iceland,,,
178.248.20.104,4,13,icelandairwaves.is,IS,Europe,Northern Europe,Iceland,,,
82.221.141.28,4,13,iclfi.org,IS,Europe,Northern Europe,Iceland,Capital Region,Reykjavíkurborg,Reykjavik
185.112.146.168,4,5,immi.is,IS,Europe,Northern Europe,Iceland,,,
93.95.230.186,4,21,invidious.io,IS,Europe,Northern Europe,Iceland,,,
185.112.145.120,4,39,isalp.is,IS,Europe,Northern Europe,Iceland,,,
193.109.24.135,4,-6,it.is,IS,Europe,Northern Europe,Iceland,Westfjords,Ísafjarðarbær,Isafjordur
185.112.145.117,4,24,janavirgin.com,IS,Europe,Northern Europe,Iceland,,,
185.112.145.195,4,60,jonfr.com,IS,Europe,Northern Europe,Iceland,,,
185.112.145.153,4,27,karolinafund.com,IS,Europe,Northern Europe,Iceland,,,
185.174.176.112,4,15,kringlan.is,IS,Europe,Northern Europe,Iceland,,,
82.221.129.39,4,21,lankaweb.com,IS,Europe,Northern Europe,Iceland,Capital Region,Reykjavíkurborg,Reykjavik
185.174.176.18,4,30,larsen.energy,IS,Europe,Northern Europe,Iceland,,,
178.248.20.101,4,8,lifdununa.is,IS,Europe,Northern Europe,Iceland,,,
82.221.128.100,4,52,listproperties.com,IS,Europe,Northern Europe,Iceland,Capital Region,Reykjavíkurborg,Reykjavik
185.112.145.196,4,6,metahistory.org,IS,Europe,Northern Europe,Iceland,,,
185.174.176.225,4,7,mmedia.is,IS,Europe,Northern Europe,Iceland,,,
82.221.128.180,4,26,moderntokyotimes.com,IS,Europe,Northern Europe,Iceland,Capital Region,Reykjavíkurborg,Reykjavik
185.165.170.199,4,875,mtgcardsmith.com,IS,Europe,Northern Europe,Iceland,Capital Region,Reykjavíkurborg,Reykjavik
185.112.145.194,4,3,netgolfvorur.is,IS,Europe,Northern Europe,Iceland,,,
217.9.143.94,4,228,netpreserve.org,IS,Europe,Northern Europe,Iceland,,,
82.221.129.24,4,1131,nualeargais.ie,IS,Europe,Northern Europe,Iceland,Capital Region,Reykjavíkurborg,Reykjavik
82.221.136.40,4,14,nurturing-care.org,IS,Europe,Northern Europe,Iceland,Capital Region,Reykjavíkurborg,Reykjavik
185.248.120.95,4,7,nutiminn.is,IS,Europe,Northern Europe,Iceland,,,
82.221.128.64,4,31,octagon.express,IS,Europe,Northern Europe,Iceland,Capital Region,Reykjavíkurborg,Reykjavik
213.190.100.191,4,143,Ookla Speedtest Server: hradi.vortex.is,IS,Europe,Northern Europe,Iceland,Capital Region,Reykjavíkurborg,Reykjavik
82.221.131.223,4,1092,orangewebsite.com,IS,Europe,Northern Europe,Iceland,Capital Region,Reykjavíkurborg,Reykjavik
82.221.128.183,4,1237,p2pr.me,IS,Europe,Northern Europe,Iceland,Capital Region,Reykjavíkurborg,Reykjavik
185.112.145.240,4,7,palestineaction.org,IS,Europe,Northern Europe,Iceland,,,
185.112.145.180,4,42,palsolidarity.org,IS,Europe,Northern Europe,Iceland,,,
93.95.226.249,4,65,parabola.nu,IS,Europe,Northern Europe,Iceland,,,
185.112.145.202,4,17,playgolf.is,IS,Europe,Northern Europe,Iceland,,,
82.221.136.47,4,1003,quickbookstoolhub.com,IS,Europe,Northern Europe,Iceland,Capital Region,Reykjavíkurborg,Reykjavik
185.112.145.125,4,10,rax.is,IS,Europe,Northern Europe,Iceland,,,
82.221.104.145,4,5,rezka.ag,IS,Europe,Northern Europe,Iceland,,,
185.112.145.157,4,63,rifters.com,IS,Europe,Northern Europe,Iceland,,,
82.112.85.49,4,132311,rvk.is,IS,Europe,Northern Europe,Iceland,Capital Region,Reykjavíkurborg,Reykjavik
185.248.120.75,4,14,safetravel.is,IS,Europe,Northern Europe,Iceland,,,
185.112.145.189,4,5,samtokin78.is,IS,Europe,Northern Europe,Iceland,,,
185.165.168.87,4,22,securitywithoutborders.org,IS,Europe,Northern Europe,Iceland,,,
157.157.133.12,4,9,simnet.is,IS,Europe,Northern Europe,Iceland,Capital Region,Garðabær,Garðabaer
193.109.24.171,4,18,snerpa.is,IS,Europe,Northern Europe,Iceland,Westfjords,Ísafjarðarbær,Isafjordur
157.157.115.20,4,12,statice.is,IS,Europe,Northern Europe,Iceland,Capital Region,Reykjavíkurborg,Reykjavik
217.28.189.74,4,0,stjornlagarad.is,IS,Europe,Northern Europe,Iceland,Capital Region,Hafnarfjarðarkaupstaður,Hafnarfjordur
185.67.84.105,4,703,sundlaugar.is,IS,Europe,Northern Europe,Iceland,Capital Region,Reykjavíkurborg,Reykjavik
185.165.170.250,4,-103,systemchange-not-climatechange.at,IS,Europe,Northern Europe,Iceland,Capital Region,Reykjavíkurborg,Reykjavik
93.95.228.87,4,2,szmer.info,IS,Europe,Northern Europe,Iceland,Capital Region,Reykjavíkurborg,Reykjavik
185.112.145.132,4,6,timarim.is,IS,Europe,Northern Europe,Iceland,,,
217.9.143.30,4,541,tomstundahusid.is,IS,Europe,Northern Europe,Iceland,,,
82.221.136.24,4,1225,truthcomestolight.com,IS,Europe,Northern Europe,Iceland,Capital Region,Reykjavíkurborg,Reykjavik
82.221.128.94,4,80,turkline.tv,IS,Europe,Northern Europe,Iceland,Capital Region,Reykjavíkurborg,Reykjavik
194.144.161.80,4,13,umferdin.is,IS,Europe,Northern Europe,Iceland,Capital Region,Reykjavíkurborg,Reykjavik
185.165.170.10,4,292,unamerican.com,IS,Europe,Northern Europe,Iceland,Capital Region,Reykjavíkurborg,Reykjavik
82.221.141.141,4,30,urlis.net,IS,Europe,Northern Europe,Iceland,Capital Region,Reykjavíkurborg,Reykjavik
185.112.145.102,4,9,utilegukortid.is,IS,Europe,Northern Europe,Iceland,,,
94.142.156.174,4,31,vedur.is,IS,Europe,Northern Europe,Iceland,Capital Region,Reykjavíkurborg,Reykjavik
185.112.145.114,4,44,vefjagigt.is,IS,Europe,Northern Europe,Iceland,,,
194.144.161.109,4,46,vegagerdin.is,IS,Europe,Northern Europe,Iceland,Capital Region,Reykjavíkurborg,Reykjavik
185.67.84.106,4,2,vinberid.is,IS,Europe,Northern Europe,Iceland,Capital Region,Reykjavíkurborg,Reykjavik
80.248.20.153,4,0,vinbudin.is,IS,Europe,Northern Europe,Iceland,Capital Region,Reykjavíkurborg,Reykjavik
130.208.148.10,4,5,visindavefur.is,IS,Europe,Northern Europe,Iceland,Capital Region,Reykjavíkurborg,Reykjavik
93.95.229.30,4,9,visithusavik.com,IS,Europe,Northern Europe,Iceland,,,
82.221.143.74,4,26,vitamind.net,IS,Europe,Northern Europe,Iceland,Capital Region,Reykjavíkurborg,Reykjavik
185.165.169.251,4,54,viz.plus,IS,Europe,Northern Europe,Iceland,,,
185.112.145.112,4,23,vokbaths.is,IS,Europe,Northern Europe,Iceland,,,
93.95.229.27,4,2,whatissixsigma.net,IS,Europe,Northern Europe,Iceland,,,
185.112.146.212,4,3,writefreely.org,IS,Europe,Northern Europe,Iceland,,,
185.112.144.60,4,12,xmrbazaar.com,IS,Europe,Northern Europe,Iceland,,,
93.95.226.26,4,33,yarkiy-dizayn.ru,IS,Europe,Northern Europe,Iceland,,,
93.95.229.12,4,4,youngfeministfund.org,IS,Europe,Northern Europe,Iceland,,,
