reflector_ip,ip_version,offset,description,country_code,region,sub_region,country_name,sub_division_1,sub_division_2,city
194.11.155.112,4,6,711web.com,GB,Europe,Northern Europe,United Kingdom,England,Manchester,Manchester
89.116.109.133,4,6,aaryae.com,GB,Europe,Northern Europe,United Kingdom,England,Manchester,Manchester
195.200.9.231,4,74,aba-agroecologia.org.br,GB,Europe,Northern Europe,United Kingdom,England,Manchester,Manchester
91.108.103.112,4,9,abeermakah.com,GB,Europe,Northern Europe,United Kingdom,England,Manchester,Manchester
185.77.97.208,4,4,abjada.com,GB,Europe,Northern Europe,United Kingdom,England,Manchester,Manchester
141.136.33.157,4,29,abrahampath.org,GB,Europe,Northern Europe,United Kingdom,England,Manchester,Manchester
77.37.34.196,4,19,acemyassignment.co.uk,GB,Europe,Northern Europe,United Kingdom,England,Manchester,Manchester
195.200.9.20,4,40,addyp.com,GB,Europe,Northern Europe,United Kingdom,England,Manchester,Manchester
153.92.211.68,4,16,adjoe.io,GB,Europe,Northern Europe,United Kingdom,England,Manchester,Manchester
91.108.103.36,4,24,adslynk.com,GB,Europe,Northern Europe,United Kingdom,England,Manchester,Manchester
153.92.6.41,4,4,ahmedabadescortss.com,GB,Europe,Northern Europe,United Kingdom,England,Manchester,Manchester
77.37.34.82,4,3,ahreflinks.online,GB,Europe,Northern Europe,United Kingdom,England,Manchester,Manchester
91.108.103.60,4,5,ai-nudify.online,GB,Europe,Northern Europe,United Kingdom,England,Manchester,Manchester
141.136.34.33,4,18,airlines-office.com,GB,Europe,Northern Europe,United Kingdom,England,Manchester,Manchester
91.108.103.232,4,5,akashdayalgroups.com,GB,Europe,Northern Europe,United Kingdom,England,Manchester,Manchester
153.92.7.2,4,21,akkail.com,GB,Europe,Northern Europe,United Kingdom,England,Manchester,Manchester
5.61.60.18,4,61,akvaimperia.ru,GB,Europe,Northern Europe,United Kingdom,England,Manchester,Manchester
195.200.9.200,4,2,albaadani.com,GB,Europe,Northern Europe,United Kingdom,England,Manchester,Manchester
153.92.7.14,4,11,alfa-group.info,GB,Europe,Northern Europe,United Kingdom,England,Manchester,Manchester
141.136.33.78,4,3,alibohasan.com,GB,Europe,Northern Europe,United Kingdom,England,Manchester,Manchester
145.14.152.30,4,108,alpharooms.com,GB,Europe,Northern Europe,United Kingdom,England,Manchester,Manchester
185.77.97.215,4,4,althakroon.com,GB,Europe,Northern Europe,United Kingdom,England,Manchester,Manchester
77.37.37.192,4,9,ambmobiles.com,GB,Europe,Northern Europe,United Kingdom,England,Manchester,Manchester
89.116.109.201,4,20,appstarzbet.com,GB,Europe,Northern Europe,United Kingdom,England,Manchester,Manchester
89.116.105.54,4,16,arera.org.uk,GB,Europe,Northern Europe,United Kingdom,England,Manchester,Manchester
31.170.164.74,4,26,arseweb.com,GB,Europe,Northern Europe,United Kingdom,England,Manchester,Manchester
89.116.109.57,4,5,artstic.com,GB,Europe,Northern Europe,United Kingdom,England,Manchester,Manchester
153.92.6.201,4,16,artunframed.com,GB,Europe,Northern Europe,United Kingdom,England,Manchester,Manchester
185.77.97.51,4,8,arunachal24.in,GB,Europe,Northern Europe,United Kingdom,England,Manchester,Manchester
89.116.109.37,4,41,asiaslots.kr,GB,Europe,Northern Europe,United Kingdom,England,Manchester,Manchester
195.200.9.53,4,68,askmaindustries.com,GB,Europe,Northern Europe,United Kingdom,England,Manchester,Manchester
195.200.9.250,4,6,assignmentmasters.ae,GB,Europe,Northern Europe,United Kingdom,England,Manchester,Manchester
141.136.33.141,4,33,assignmentwriter.io,GB,Europe,Northern Europe,United Kingdom,England,Manchester,Manchester
185.28.20.232,4,144,asylumlaw.org,GB,Europe,Northern Europe,United Kingdom,England,Manchester,Manchester
185.77.97.161,4,13,atas8.my,GB,Europe,Northern Europe,United Kingdom,England,Manchester,Manchester
153.92.7.142,4,25,atletifo.com,GB,Europe,Northern Europe,United Kingdom,England,Manchester,Manchester
141.136.39.107,4,48,atpdiary.com,GB,Europe,Northern Europe,United Kingdom,England,Manchester,Manchester
109.176.196.197,4,7,audacitycapital.co.uk,GB,Europe,Northern Europe,United Kingdom,England,Manchester,Manchester
217.21.69.77,4,93,autoplanet.ie,GB,Europe,Northern Europe,United Kingdom,England,Manchester,Manchester
89.116.109.207,4,26,avneetkaur.life,GB,Europe,Northern Europe,United Kingdom,England,Manchester,Manchester
89.116.109.130,4,4,beautifullivingmadeeasy.com,GB,Europe,Northern Europe,United Kingdom,England,Manchester,Manchester
77.37.34.22,4,83,benzopharma.com,GB,Europe,Northern Europe,United Kingdom,England,Manchester,Manchester
91.108.103.239,4,3,beoffon.com,GB,Europe,Northern Europe,United Kingdom,England,Manchester,Manchester
195.200.9.44,4,57,bestdubailandscape.com,GB,Europe,Northern Europe,United Kingdom,England,Manchester,Manchester
195.200.9.210,4,11,betimcar.com.br,GB,Europe,Northern Europe,United Kingdom,England,Manchester,Manchester
77.37.37.78,4,5,bigredbook.info,GB,Europe,Northern Europe,United Kingdom,England,Manchester,Manchester
77.37.34.7,4,5,bihs.org.uk,GB,Europe,Northern Europe,United Kingdom,England,Manchester,Manchester
91.108.103.193,4,15,biitnewdelhi.com,GB,Europe,Northern Europe,United Kingdom,England,Manchester,Manchester
185.77.97.146,4,3,billwyman.com,GB,Europe,Northern Europe,United Kingdom,England,Manchester,Manchester
89.116.109.66,4,3,binarydistrict.com,GB,Europe,Northern Europe,United Kingdom,England,Manchester,Manchester
31.170.164.163,4,5,bjoernkarmann.dk,GB,Europe,Northern Europe,United Kingdom,England,Manchester,Manchester
153.92.6.234,4,6,bl.ee,GB,Europe,Northern Europe,United Kingdom,England,Manchester,Manchester
91.108.103.117,4,39,blazecassino.top,GB,Europe,Northern Europe,United Kingdom,England,Manchester,Manchester
185.77.97.84,4,46,blogmedia.org,GB,Europe,Northern Europe,United Kingdom,England,Manchester,Manchester
146.70.181.154,4,39,bn.org.uk,GB,Europe,Northern Europe,United Kingdom,England,Manchester,Manchester
91.108.103.247,4,4,botogon.com,GB,Europe,Northern Europe,United Kingdom,England,Manchester,Manchester
217.21.68.115,4,3,britishseapower.co.uk,GB,Europe,Northern Europe,United Kingdom,England,Manchester,Manchester
38.180.200.157,4,11,britishtalks.com,GB,Europe,Northern Europe,United Kingdom,England,Manchester,Manchester
89.116.104.19,4,3,brusselsmorning.com,GB,Europe,Northern Europe,United Kingdom,England,Manchester,Manchester
185.77.97.26,4,6,bs-win.in,GB,Europe,Northern Europe,United Kingdom,England,Manchester,Manchester
89.117.229.100,4,65,bucksrailcentre.org,GB,Europe,Northern Europe,United Kingdom,England,Manchester,Manchester
195.200.9.34,4,3,busanbet.kr,GB,Europe,Northern Europe,United Kingdom,England,Manchester,Manchester
77.37.37.145,4,99,bushwoodbees.co.uk,GB,Europe,Northern Europe,United Kingdom,England,Manchester,Manchester
89.116.109.180,4,45,businessblogs.org,GB,Europe,Northern Europe,United Kingdom,England,Manchester,Manchester
195.200.11.45,4,8,businesstravel.fr,GB,Europe,Northern Europe,United Kingdom,England,Manchester,Manchester
89.116.109.51,4,4,buyundetectablecounterfeitnotes.com,GB,Europe,Northern Europe,United Kingdom,England,Manchester,Manchester
195.200.11.39,4,4,buzrush.com,GB,Europe,Northern Europe,United Kingdom,England,Manchester,Manchester
185.77.97.59,4,38,calgarypride.ca,GB,Europe,Northern Europe,United Kingdom,England,Manchester,Manchester
195.200.9.55,4,38,callgirlmathura.in,GB,Europe,Northern Europe,United Kingdom,England,Manchester,Manchester
185.77.97.20,4,18,callgirlranchi.in,GB,Europe,Northern Europe,United Kingdom,England,Manchester,Manchester
195.200.9.87,4,24,callgirlsinzirakpur.in,GB,Europe,Northern Europe,United Kingdom,England,Manchester,Manchester
91.108.97.120,4,9,canex.co.uk,GB,Europe,Northern Europe,United Kingdom,England,Manchester,Manchester
185.77.97.22,4,5,cars-experts.top,GB,Europe,Northern Europe,United Kingdom,England,Manchester,Manchester
77.37.34.46,4,7,casibomgirisguncel.net,GB,Europe,Northern Europe,United Kingdom,England,Manchester,Manchester
195.200.9.183,4,9,casino-aff-programs.com,GB,Europe,Northern Europe,United Kingdom,England,Manchester,Manchester
153.92.6.134,4,13,casino-ggbet.pro,GB,Europe,Northern Europe,United Kingdom,England,Manchester,Manchester
195.200.9.5,4,4,cce.org.mx,GB,Europe,Northern Europe,United Kingdom,England,Manchester,Manchester
195.200.9.43,4,5,celexaoral.com,GB,Europe,Northern Europe,United Kingdom,England,Manchester,Manchester
89.116.228.39,4,4,chaaipani.com,GB,Europe,Northern Europe,United Kingdom,England,Manchester,Manchester
78.157.217.11,4,3,changeboard.com,GB,Europe,Northern Europe,United Kingdom,England,Manchester,Manchester
145.14.154.196,4,11,charityretail.org.uk,GB,Europe,Northern Europe,United Kingdom,England,Manchester,Manchester
91.108.103.29,4,4,chatgptjapanese.jp,GB,Europe,Northern Europe,United Kingdom,England,Manchester,Manchester
91.108.103.89,4,4,cheatjackpot.com,GB,Europe,Northern Europe,United Kingdom,England,Manchester,Manchester
91.108.103.233,4,3,chefibpa.com,GB,Europe,Northern Europe,United Kingdom,England,Manchester,Manchester
141.136.39.227,4,7,chimpgroup.com,GB,Europe,Northern Europe,United Kingdom,England,Manchester,Manchester
89.116.109.67,4,9,chinyun.com.tw,GB,Europe,Northern Europe,United Kingdom,England,Manchester,Manchester
31.220.106.223,4,17,chocablog.com,GB,Europe,Northern Europe,United Kingdom,England,Manchester,Manchester
2.22.228.123,4,37,choicestore.com,GB,Europe,Northern Europe,United Kingdom,England,Manchester,Manchester
31.220.106.105,4,4,chujalt.com,GB,Europe,Northern Europe,United Kingdom,England,Manchester,Manchester
91.108.103.197,4,5,cikgudollah.com,GB,Europe,Northern Europe,United Kingdom,England,Manchester,Manchester
91.108.103.179,4,4,clarionindia.net,GB,Europe,Northern Europe,United Kingdom,England,Manchester,Manchester
153.92.7.197,4,13,clickawaypound.com,GB,Europe,Northern Europe,United Kingdom,England,Manchester,Manchester
195.200.9.174,4,5,clippingworld.com,GB,Europe,Northern Europe,United Kingdom,England,Manchester,Manchester
185.77.97.225,4,11,cmic-sa.com,GB,Europe,Northern Europe,United Kingdom,England,Manchester,Manchester
195.200.9.148,4,3,cmprzyjazni.pl,GB,Europe,Northern Europe,United Kingdom,England,Manchester,Manchester
91.108.103.137,4,4,cntpytextile.com,GB,Europe,Northern Europe,United Kingdom,England,Manchester,Manchester
91.108.97.45,4,4,coatsink.com,GB,Europe,Northern Europe,United Kingdom,England,Manchester,Manchester
91.108.103.152,4,31,cochespias.net,GB,Europe,Northern Europe,United Kingdom,England,Manchester,Manchester
91.108.103.16,4,5,codeavail.com,GB,Europe,Northern Europe,United Kingdom,England,Manchester,Manchester
89.116.109.243,4,10,codervex.com,GB,Europe,Northern Europe,United Kingdom,England,Manchester,Manchester
46.227.202.91,4,28,comicartfestival.com,GB,Europe,Northern Europe,United Kingdom,England,Manchester,Manchester
141.136.43.219,4,58,communityofbabel.com,GB,Europe,Northern Europe,United Kingdom,England,Manchester,Manchester
195.200.8.217,4,4,complete-pilates.co.uk,GB,Europe,Northern Europe,United Kingdom,England,Manchester,Manchester
195.200.9.35,4,5,comprarela-patentediguida.com,GB,Europe,Northern Europe,United Kingdom,England,Manchester,Manchester
185.77.97.34,4,36,congratstogovcuomo.com,GB,Europe,Northern Europe,United Kingdom,England,Manchester,Manchester
195.200.10.87,4,12,conservationhandbooks.com,GB,Europe,Northern Europe,United Kingdom,England,Manchester,Manchester
195.35.51.92,4,4,contrabandevents.com,GB,Europe,Northern Europe,United Kingdom,England,Manchester,Manchester
195.200.9.164,4,5,controlsafety.com.co,GB,Europe,Northern Europe,United Kingdom,England,Manchester,Manchester
89.116.109.148,4,24,coolcrazygames.com,GB,Europe,Northern Europe,United Kingdom,England,Manchester,Manchester
141.136.33.51,4,4,corporate-office.co.uk,GB,Europe,Northern Europe,United Kingdom,England,Manchester,Manchester
91.108.103.136,4,3,cqshxzx.com,GB,Europe,Northern Europe,United Kingdom,England,Manchester,Manchester
195.200.9.141,4,23,creativebeacon.com,GB,Europe,Northern Europe,United Kingdom,England,Manchester,Manchester
154.41.238.62,4,21,creoclinic.com,GB,Europe,Northern Europe,United Kingdom,England,Manchester,Manchester
91.108.103.196,4,16,cricketbetpro.com,GB,Europe,Northern Europe,United Kingdom,England,Manchester,Manchester
185.77.97.207,4,5,cryptometex.in,GB,Europe,Northern Europe,United Kingdom,England,Manchester,Manchester
145.14.153.193,4,4,cssimport.com,GB,Europe,Northern Europe,United Kingdom,England,Manchester,Manchester
153.92.6.7,4,40,cyberskills.training,GB,Europe,Northern Europe,United Kingdom,England,Manchester,Manchester
89.116.109.239,4,5,dailyinfoexpress.com,GB,Europe,Northern Europe,United Kingdom,England,Manchester,Manchester
185.77.97.134,4,3,danbam1004.com,GB,Europe,Northern Europe,United Kingdom,England,Manchester,Manchester
141.136.43.45,4,4,darulhijrahacademy.com,GB,Europe,Northern Europe,United Kingdom,England,Manchester,Manchester
153.92.6.14,4,81,datissamaneh.ir,GB,Europe,Northern Europe,United Kingdom,England,Manchester,Manchester
77.37.34.109,4,15,davidkohn.co.uk,GB,Europe,Northern Europe,United Kingdom,England,Manchester,Manchester
194.11.155.202,4,14,davidsonmorris.com,GB,Europe,Northern Europe,United Kingdom,England,Manchester,Manchester
89.116.109.13,4,4,ddpch.com,GB,Europe,Northern Europe,United Kingdom,England,Manchester,Manchester
89.116.109.6,4,50,dealsofthedayindia.com,GB,Europe,Northern Europe,United Kingdom,England,Manchester,Manchester
91.108.103.129,4,17,decolover.net,GB,Europe,Northern Europe,United Kingdom,England,Manchester,Manchester
185.77.97.109,4,22,deepnudeai.info,GB,Europe,Northern Europe,United Kingdom,England,Manchester,Manchester
91.108.103.155,4,8,desert-trips-morocco.com,GB,Europe,Northern Europe,United Kingdom,England,Manchester,Manchester
145.14.152.225,4,33,dickimaw-books.com,GB,Europe,Northern Europe,United Kingdom,England,Manchester,Manchester
185.77.97.97,4,3,digitalbusinesstime.com,GB,Europe,Northern Europe,United Kingdom,England,Manchester,Manchester
89.116.109.238,4,4,digitalcruch.com,GB,Europe,Northern Europe,United Kingdom,England,Manchester,Manchester
91.108.103.172,4,15,digitalengineland.com,GB,Europe,Northern Europe,United Kingdom,England,Manchester,Manchester
195.200.9.112,4,41,digitalglobaltimes.com,GB,Europe,Northern Europe,United Kingdom,England,Manchester,Manchester
91.108.103.186,4,54,digitalpoundfoundation.com,GB,Europe,Northern Europe,United Kingdom,England,Manchester,Manchester
195.200.11.110,4,137,dissertationhelpservices.uk,GB,Europe,Northern Europe,United Kingdom,England,Manchester,Manchester
91.108.103.231,4,5,dissertationhomework.com,GB,Europe,Northern Europe,United Kingdom,England,Manchester,Manchester
195.200.9.95,4,10,distillife.com,GB,Europe,Northern Europe,United Kingdom,England,Manchester,Manchester
91.108.103.192,4,3,divyaangi.com,GB,Europe,Northern Europe,United Kingdom,England,Manchester,Manchester
195.200.9.205,4,5,divyaji.com,GB,Europe,Northern Europe,United Kingdom,England,Manchester,Manchester
91.90.121.245,4,10,dkeng.co.uk,GB,Europe,Northern Europe,United Kingdom,England,Manchester,Manchester
94.174.238.188,4,46,DNS Server: fpc121872-nmal24-2-0-cust27.19-2.static.cable.virginm.net,GB,Europe,Northern Europe,United Kingdom,England,Manchester,Manchester
141.136.35.112,4,4,doctorwholocations.net,GB,Europe,Northern Europe,United Kingdom,England,Manchester,Manchester
141.136.43.242,4,4,dollaroo.com.au,GB,Europe,Northern Europe,United Kingdom,England,Manchester,Manchester
77.37.37.214,4,6,dominoenglish.pk,GB,Europe,Northern Europe,United Kingdom,England,Manchester,Manchester
185.116.237.11,4,11,doriegreenspan.com,GB,Europe,Northern Europe,United Kingdom,England,Manchester,Manchester
195.200.9.40,4,4,dritikaur.com,GB,Europe,Northern Europe,United Kingdom,England,Manchester,Manchester
145.14.152.75,4,5,drownedmadonna.com,GB,Europe,Northern Europe,United Kingdom,England,Manchester,Manchester
89.116.109.146,4,6,drsujayabanerjee.com,GB,Europe,Northern Europe,United Kingdom,England,Manchester,Manchester
91.108.103.212,4,17,dss-hr.com,GB,Europe,Northern Europe,United Kingdom,England,Manchester,Manchester
195.200.9.230,4,8,e-schoolfaso.com,GB,Europe,Northern Europe,United Kingdom,England,Manchester,Manchester
195.200.9.240,4,31,e-szczawnica.org,GB,Europe,Northern Europe,United Kingdom,England,Manchester,Manchester
5.180.60.6,4,24,earm.co.uk,GB,Europe,Northern Europe,United Kingdom,England,Manchester,Manchester
89.116.109.52,4,7,easupplylimited.com,GB,Europe,Northern Europe,United Kingdom,England,Manchester,Manchester
195.200.9.71,4,63,echalliance.com,GB,Europe,Northern Europe,United Kingdom,England,Manchester,Manchester
38.180.30.54,4,4,echochel.ru,GB,Europe,Northern Europe,United Kingdom,England,Manchester,Manchester
217.21.71.109,4,9,egyptianmuseumcairo.eg,GB,Europe,Northern Europe,United Kingdom,England,Manchester,Manchester
185.77.97.220,4,13,ehopn.com,GB,Europe,Northern Europe,United Kingdom,England,Manchester,Manchester
195.200.9.99,4,179,eldogomes.com.br,GB,Europe,Northern Europe,United Kingdom,England,Manchester,Manchester
91.108.103.235,4,16,elfbarsflavor.com,GB,Europe,Northern Europe,United Kingdom,England,Manchester,Manchester
31.220.106.227,4,57,eli-deal.com,GB,Europe,Northern Europe,United Kingdom,England,Manchester,Manchester
141.136.33.60,4,70,emailspedia.com,GB,Europe,Northern Europe,United Kingdom,England,Manchester,Manchester
141.136.33.74,4,30,emballage-packaging.com,GB,Europe,Northern Europe,United Kingdom,England,Manchester,Manchester
145.14.153.202,4,3,eoovbook.com,GB,Europe,Northern Europe,United Kingdom,England,Manchester,Manchester
185.77.97.204,4,5,epamig.br,GB,Europe,Northern Europe,United Kingdom,England,Manchester,Manchester
153.92.7.116,4,4,equipociclistaugeraga.com,GB,Europe,Northern Europe,United Kingdom,England,Manchester,Manchester
31.170.164.166,4,4,erapovorganisation.org,GB,Europe,Northern Europe,United Kingdom,England,Manchester,Manchester
185.77.97.163,4,7,erectiledysfunctionpills-247.top,GB,Europe,Northern Europe,United Kingdom,England,Manchester,Manchester
91.108.103.205,4,3,escortsathens.gr,GB,Europe,Northern Europe,United Kingdom,England,Manchester,Manchester
153.92.6.100,4,4,escueladelmasaje.es,GB,Europe,Northern Europe,United Kingdom,England,Manchester,Manchester
91.108.103.220,4,13,etapolska.pl,GB,Europe,Northern Europe,United Kingdom,England,Manchester,Manchester
91.108.103.118,4,9,etcetera.com.mx,GB,Europe,Northern Europe,United Kingdom,England,Manchester,Manchester
31.220.106.176,4,66,etu.org.za,GB,Europe,Northern Europe,United Kingdom,England,Manchester,Manchester
195.200.9.136,4,3,etymologeek.com,GB,Europe,Northern Europe,United Kingdom,England,Manchester,Manchester
141.136.43.176,4,4,ewcg.academy,GB,Europe,Northern Europe,United Kingdom,England,Manchester,Manchester
89.116.109.226,4,6,exactrelease.org,GB,Europe,Northern Europe,United Kingdom,England,Manchester,Manchester
153.92.6.142,4,4,exodontia.info,GB,Europe,Northern Europe,United Kingdom,England,Manchester,Manchester
89.116.109.168,4,41,exomerce.co,GB,Europe,Northern Europe,United Kingdom,England,Manchester,Manchester
5.180.60.121,4,39,fabriquesat.fr,GB,Europe,Northern Europe,United Kingdom,England,Manchester,Manchester
91.108.103.109,4,40,facecrooks.com,GB,Europe,Northern Europe,United Kingdom,England,Manchester,Manchester
89.116.109.242,4,2,factofit.com,GB,Europe,Northern Europe,United Kingdom,England,Manchester,Manchester
89.116.109.191,4,4,factual-space.com,GB,Europe,Northern Europe,United Kingdom,England,Manchester,Manchester
91.108.103.148,4,3,factxp.com,GB,Europe,Northern Europe,United Kingdom,England,Manchester,Manchester
185.77.97.40,4,3,famous-journalists.com,GB,Europe,Northern Europe,United Kingdom,England,Manchester,Manchester
185.77.97.199,4,20,famousbollywood.com,GB,Europe,Northern Europe,United Kingdom,England,Manchester,Manchester
141.136.33.99,4,23,fanficauthors.net,GB,Europe,Northern Europe,United Kingdom,England,Manchester,Manchester
91.108.103.13,4,12,fearsteve.com,GB,Europe,Northern Europe,United Kingdom,England,Manchester,Manchester
89.116.109.102,4,32,fi88club.co,GB,Europe,Northern Europe,United Kingdom,England,Manchester,Manchester
195.200.11.164,4,76,fillerscateringlimited.de,GB,Europe,Northern Europe,United Kingdom,England,Manchester,Manchester
89.116.109.21,4,12,filmsjackets.com,GB,Europe,Northern Europe,United Kingdom,England,Manchester,Manchester
185.77.97.198,4,45,finasteridetabs.net,GB,Europe,Northern Europe,United Kingdom,England,Manchester,Manchester
195.200.9.153,4,5,findcallgirls.com,GB,Europe,Northern Europe,United Kingdom,England,Manchester,Manchester
89.116.109.204,4,4,flickofthewhisk.com,GB,Europe,Northern Europe,United Kingdom,England,Manchester,Manchester
195.200.9.139,4,24,fodsports.com,GB,Europe,Northern Europe,United Kingdom,England,Manchester,Manchester
89.116.109.20,4,3,fomentoculturalbanamex.org,GB,Europe,Northern Europe,United Kingdom,England,Manchester,Manchester
185.77.97.48,4,2,forbesblogs.org,GB,Europe,Northern Europe,United Kingdom,England,Manchester,Manchester
153.92.6.108,4,3,formulascout.com,GB,Europe,Northern Europe,United Kingdom,England,Manchester,Manchester
195.200.8.119,4,45,fourwheeldriveindia.com,GB,Europe,Northern Europe,United Kingdom,England,Manchester,Manchester
91.108.103.128,4,8,freeautomechanic.com,GB,Europe,Northern Europe,United Kingdom,England,Manchester,Manchester
195.200.9.48,4,13,freedomainsbox.com,GB,Europe,Northern Europe,United Kingdom,England,Manchester,Manchester
91.108.103.53,4,4,frenify.com,GB,Europe,Northern Europe,United Kingdom,England,Manchester,Manchester
153.92.7.126,4,21,frozenpoultryexporters.com,GB,Europe,Northern Europe,United Kingdom,England,Manchester,Manchester
185.77.97.151,4,25,frugalfrolicker.com,GB,Europe,Northern Europe,United Kingdom,England,Manchester,Manchester
195.200.9.198,4,4,fujiya-miyagi.co.uk,GB,Europe,Northern Europe,United Kingdom,England,Manchester,Manchester
195.200.9.173,4,2,fypeditions.com,GB,Europe,Northern Europe,United Kingdom,England,Manchester,Manchester
185.77.97.118,4,4,gametrangdiem.net,GB,Europe,Northern Europe,United Kingdom,England,Manchester,Manchester
153.92.6.8,4,24,garden-birds.co.uk,GB,Europe,Northern Europe,United Kingdom,England,Manchester,Manchester
145.14.153.78,4,32,gatsbytravel.com,GB,Europe,Northern Europe,United Kingdom,England,Manchester,Manchester
141.136.33.125,4,5,gbwhts.net,GB,Europe,Northern Europe,United Kingdom,England,Manchester,Manchester
195.200.9.212,4,5,geburtstagseite.de,GB,Europe,Northern Europe,United Kingdom,England,Manchester,Manchester
89.116.109.199,4,95,geetmishra.com,GB,Europe,Northern Europe,United Kingdom,England,Manchester,Manchester
31.220.106.88,4,4,gepnarancs.hu,GB,Europe,Northern Europe,United Kingdom,England,Manchester,Manchester
77.37.34.11,4,99,gethppy.com,GB,Europe,Northern Europe,United Kingdom,England,Manchester,Manchester
195.200.9.17,4,32,getidisplay.com,GB,Europe,Northern Europe,United Kingdom,England,Manchester,Manchester
91.108.103.240,4,21,ghanaiantimes.com.gh,GB,Europe,Northern Europe,United Kingdom,England,Manchester,Manchester
153.92.6.168,4,51,giffa.ru,GB,Europe,Northern Europe,United Kingdom,England,Manchester,Manchester
185.77.97.24,4,5,girlterest.com,GB,Europe,Northern Europe,United Kingdom,England,Manchester,Manchester
194.36.184.17,4,24,globaldefensecorp.com,GB,Europe,Northern Europe,United Kingdom,England,Manchester,Manchester
91.108.103.102,4,14,globalncr.com,GB,Europe,Northern Europe,United Kingdom,England,Manchester,Manchester
89.116.109.225,4,10,go-gulf.ae,GB,Europe,Northern Europe,United Kingdom,England,Manchester,Manchester
153.92.7.183,4,24,gobeyondbounds.com,GB,Europe,Northern Europe,United Kingdom,England,Manchester,Manchester
91.108.103.194,4,12,goinbet.top,GB,Europe,Northern Europe,United Kingdom,England,Manchester,Manchester
89.116.229.9,4,31,golden-forum.com,GB,Europe,Northern Europe,United Kingdom,England,Manchester,Manchester
91.108.103.225,4,23,goldfm.fr,GB,Europe,Northern Europe,United Kingdom,England,Manchester,Manchester
145.14.152.21,4,8,goldsealshilajit.com,GB,Europe,Northern Europe,United Kingdom,England,Manchester,Manchester
185.77.97.96,4,16,goldwincasino.top,GB,Europe,Northern Europe,United Kingdom,England,Manchester,Manchester
195.200.9.203,4,20,googleedits.com,GB,Europe,Northern Europe,United Kingdom,England,Manchester,Manchester
185.77.97.246,4,6,googlesir.com,GB,Europe,Northern Europe,United Kingdom,England,Manchester,Manchester
91.108.103.27,4,8,goosbi.com,GB,Europe,Northern Europe,United Kingdom,England,Manchester,Manchester
195.35.51.6,4,4,gp-training.net,GB,Europe,Northern Europe,United Kingdom,England,Manchester,Manchester
89.116.109.195,4,39,grand-insur.com,GB,Europe,Northern Europe,United Kingdom,England,Manchester,Manchester
31.220.111.96,4,7,gsmgift.com,GB,Europe,Northern Europe,United Kingdom,England,Manchester,Manchester
195.200.9.242,4,6,gubkinskiy.com,GB,Europe,Northern Europe,United Kingdom,England,Manchester,Manchester
89.116.109.99,4,4,gudfy.com,GB,Europe,Northern Europe,United Kingdom,England,Manchester,Manchester
89.116.109.98,4,10,guidemetocannabis.com,GB,Europe,Northern Europe,United Kingdom,England,Manchester,Manchester
89.117.229.113,4,4,gururo.com,GB,Europe,Northern Europe,United Kingdom,England,Manchester,Manchester
141.136.43.189,4,3,gutterandpatioclean.co.uk,GB,Europe,Northern Europe,United Kingdom,England,Manchester,Manchester
89.116.109.245,4,3,h2bulletin.com,GB,Europe,Northern Europe,United Kingdom,England,Manchester,Manchester
185.77.97.3,4,3,hairsite.com,GB,Europe,Northern Europe,United Kingdom,England,Manchester,Manchester
141.136.33.160,4,70,hallbookingonline.com,GB,Europe,Northern Europe,United Kingdom,England,Manchester,Manchester
185.77.97.185,4,4,hanaweddingcafe.com,GB,Europe,Northern Europe,United Kingdom,England,Manchester,Manchester
89.116.109.70,4,40,hardhatarea.com,GB,Europe,Northern Europe,United Kingdom,England,Manchester,Manchester
89.116.109.210,4,18,harshitakaur.com,GB,Europe,Northern Europe,United Kingdom,England,Manchester,Manchester
153.92.210.154,4,3,hashthemes.com,GB,Europe,Northern Europe,United Kingdom,England,Manchester,Manchester
195.200.9.190,4,89,healthybodyandmindproject.com,GB,Europe,Northern Europe,United Kingdom,England,Manchester,Manchester
91.108.103.150,4,9,heartmatters.co,GB,Europe,Northern Europe,United Kingdom,England,Manchester,Manchester
89.116.109.26,4,4,helperji.in,GB,Europe,Northern Europe,United Kingdom,England,Manchester,Manchester
185.77.97.53,4,5,hempeuphoria.com,GB,Europe,Northern Europe,United Kingdom,England,Manchester,Manchester
89.116.109.171,4,9,hengrui-topsteel.com,GB,Europe,Northern Europe,United Kingdom,England,Manchester,Manchester
89.116.109.197,4,3,hixstudio.net,GB,Europe,Northern Europe,United Kingdom,England,Manchester,Manchester
185.77.97.157,4,3,hmgits.com,GB,Europe,Northern Europe,United Kingdom,England,Manchester,Manchester
185.77.97.100,4,11,hostelbook.pk,GB,Europe,Northern Europe,United Kingdom,England,Manchester,Manchester
91.108.103.229,4,9,hostelkey.ru,GB,Europe,Northern Europe,United Kingdom,England,Manchester,Manchester
195.200.9.109,4,20,howtobeaphotographer.org,GB,Europe,Northern Europe,United Kingdom,England,Manchester,Manchester
185.77.97.216,4,3,hsgametables.com,GB,Europe,Northern Europe,United Kingdom,England,Manchester,Manchester
81.92.205.90,4,3,huicopper.com,GB,Europe,Northern Europe,United Kingdom,England,Manchester,Manchester
195.200.9.107,4,13,hypegig.com,GB,Europe,Northern Europe,United Kingdom,England,Manchester,Manchester
91.108.103.77,4,29,ibdguide.net,GB,Europe,Northern Europe,United Kingdom,England,Manchester,Manchester
141.136.39.157,4,13,ibfan.org,GB,Europe,Northern Europe,United Kingdom,England,Manchester,Manchester
195.200.9.244,4,22,ibowtech.com,GB,Europe,Northern Europe,United Kingdom,England,Manchester,Manchester
185.77.97.130,4,50,icobox.io,GB,Europe,Northern Europe,United Kingdom,England,Manchester,Manchester
185.77.97.195,4,25,icommai.com,GB,Europe,Northern Europe,United Kingdom,England,Manchester,Manchester
195.200.9.159,4,39,idealpersonaltrainers.com,GB,Europe,Northern Europe,United Kingdom,England,Manchester,Manchester
195.200.9.163,4,3,ifamericaknew.org,GB,Europe,Northern Europe,United Kingdom,England,Manchester,Manchester
89.116.109.93,4,4,iitsbusiness.com,GB,Europe,Northern Europe,United Kingdom,England,Manchester,Manchester
89.116.109.105,4,37,includednews.com,GB,Europe,Northern Europe,United Kingdom,England,Manchester,Manchester
141.136.39.153,4,97,independent.wine,GB,Europe,Northern Europe,United Kingdom,England,Manchester,Manchester
194.1.147.48,4,24,indexsy.com,GB,Europe,Northern Europe,United Kingdom,England,Manchester,Manchester
195.200.9.150,4,46,indianamilitary.org,GB,Europe,Northern Europe,United Kingdom,England,Manchester,Manchester
91.108.103.81,4,2,indospgusher.com,GB,Europe,Northern Europe,United Kingdom,England,Manchester,Manchester
185.77.97.132,4,57,infoaging.org,GB,Europe,Northern Europe,United Kingdom,England,Manchester,Manchester
89.116.109.215,4,48,infozrodlo.com.pl,GB,Europe,Northern Europe,United Kingdom,England,Manchester,Manchester
5.182.18.241,4,33,innovation-village.com,GB,Europe,Northern Europe,United Kingdom,England,Manchester,Manchester
185.77.97.110,4,3,inobee.com,GB,Europe,Northern Europe,United Kingdom,England,Manchester,Manchester
195.200.9.144,4,3,insidetheyard.com,GB,Europe,Northern Europe,United Kingdom,England,Manchester,Manchester
195.200.9.103,4,120,instashowbiz.com,GB,Europe,Northern Europe,United Kingdom,England,Manchester,Manchester
195.200.9.241,4,34,internet-money-center.com,GB,Europe,Northern Europe,United Kingdom,England,Manchester,Manchester
89.116.109.249,4,44,interview-coach.co.uk,GB,Europe,Northern Europe,United Kingdom,England,Manchester,Manchester
91.108.103.90,4,30,inv.co.jp,GB,Europe,Northern Europe,United Kingdom,England,Manchester,Manchester
185.77.97.1,4,4,invajy.com,GB,Europe,Northern Europe,United Kingdom,England,Manchester,Manchester
77.37.37.134,4,29,ipkingtv.com,GB,Europe,Northern Europe,United Kingdom,England,Manchester,Manchester
195.200.9.249,4,3,ips-unidadmedica.com,GB,Europe,Northern Europe,United Kingdom,England,Manchester,Manchester
153.92.6.115,4,3,iptvspotlight.com,GB,Europe,Northern Europe,United Kingdom,England,Manchester,Manchester
217.21.68.135,4,3,ismgsellers.com,GB,Europe,Northern Europe,United Kingdom,England,Manchester,Manchester
89.116.109.221,4,3,itbranschen.com,GB,Europe,Northern Europe,United Kingdom,England,Manchester,Manchester
185.77.97.217,4,20,iuo.edu.mx,GB,Europe,Northern Europe,United Kingdom,England,Manchester,Manchester
195.200.9.50,4,4,iwonfabricacion.com,GB,Europe,Northern Europe,United Kingdom,England,Manchester,Manchester
185.77.97.77,4,9,jaimru.com,GB,Europe,Northern Europe,United Kingdom,England,Manchester,Manchester
89.116.109.3,4,30,jamesstrange.com,GB,Europe,Northern Europe,United Kingdom,England,Manchester,Manchester
89.116.109.151,4,10,jamrahrestaurant.com,GB,Europe,Northern Europe,United Kingdom,England,Manchester,Manchester
91.108.103.22,4,32,jamshedpurfun.in,GB,Europe,Northern Europe,United Kingdom,England,Manchester,Manchester
31.220.106.146,4,5,jan-schneider.co.uk,GB,Europe,Northern Europe,United Kingdom,England,Manchester,Manchester
31.170.164.104,4,7,jas.org.jo,GB,Europe,Northern Europe,United Kingdom,England,Manchester,Manchester
89.116.109.229,4,20,jasminder.com,GB,Europe,Northern Europe,United Kingdom,England,Manchester,Manchester
153.92.7.143,4,3,jcbbscn.com,GB,Europe,Northern Europe,United Kingdom,England,Manchester,Manchester
194.36.185.228,4,61,jennycasino.com,GB,Europe,Northern Europe,United Kingdom,England,Manchester,Manchester
195.200.9.8,4,4,jkard.com,GB,Europe,Northern Europe,United Kingdom,England,Manchester,Manchester
195.200.9.11,4,3,jmwkorea.id,GB,Europe,Northern Europe,United Kingdom,England,Manchester,Manchester
185.77.97.138,4,31,jobnhea.online,GB,Europe,Northern Europe,United Kingdom,England,Manchester,Manchester
91.108.103.99,4,49,jottedlines.com,GB,Europe,Northern Europe,United Kingdom,England,Manchester,Manchester
195.200.9.36,4,30,jugalbandi.info,GB,Europe,Northern Europe,United Kingdom,England,Manchester,Manchester
195.200.9.38,4,20,jun880.net,GB,Europe,Northern Europe,United Kingdom,England,Manchester,Manchester
91.108.103.24,4,3,jvelegantstucco.com,GB,Europe,Northern Europe,United Kingdom,England,Manchester,Manchester
89.116.109.125,4,3,k6agency.com,GB,Europe,Northern Europe,United Kingdom,England,Manchester,Manchester
195.200.9.235,4,3,kas77wd.com,GB,Europe,Northern Europe,United Kingdom,England,Manchester,Manchester
89.116.109.33,4,67,kasino.kr,GB,Europe,Northern Europe,United Kingdom,England,Manchester,Manchester
185.77.97.247,4,7,kaviargauche.com,GB,Europe,Northern Europe,United Kingdom,England,Manchester,Manchester
185.77.97.152,4,5,kerrisdaleoptical.com,GB,Europe,Northern Europe,United Kingdom,England,Manchester,Manchester
199.232.54.133,4,2,kiddicare.com,GB,Europe,Northern Europe,United Kingdom,England,Manchester,Manchester
91.108.103.204,4,3,kidzeegames.com,GB,Europe,Northern Europe,United Kingdom,England,Manchester,Manchester
77.37.37.200,4,43,kindcongress.com,GB,Europe,Northern Europe,United Kingdom,England,Manchester,Manchester
91.108.103.100,4,6,kingkasino.kr,GB,Europe,Northern Europe,United Kingdom,England,Manchester,Manchester
195.200.9.142,4,5,kitcart.ae,GB,Europe,Northern Europe,United Kingdom,England,Manchester,Manchester
195.200.9.88,4,7,kj5gov.com,GB,Europe,Northern Europe,United Kingdom,England,Manchester,Manchester
91.108.103.115,4,6,korealottery.kr,GB,Europe,Northern Europe,United Kingdom,England,Manchester,Manchester
91.108.103.74,4,19,koreanjoy.kr,GB,Europe,Northern Europe,United Kingdom,England,Manchester,Manchester
91.108.103.200,4,31,koreavegas.kr,GB,Europe,Northern Europe,United Kingdom,England,Manchester,Manchester
185.77.97.125,4,77,koscallgirl.com,GB,Europe,Northern Europe,United Kingdom,England,Manchester,Manchester
195.200.9.152,4,28,kroptrivsel.dk,GB,Europe,Northern Europe,United Kingdom,England,Manchester,Manchester
185.77.97.38,4,5,ksja.co.kr,GB,Europe,Northern Europe,United Kingdom,England,Manchester,Manchester
91.108.103.226,4,53,kupitivozacku-dozvolu.com,GB,Europe,Northern Europe,United Kingdom,England,Manchester,Manchester
89.116.109.216,4,3,kupprawojazdyonline.com,GB,Europe,Northern Europe,United Kingdom,England,Manchester,Manchester
185.77.97.23,4,3,kuuloakai.com,GB,Europe,Northern Europe,United Kingdom,England,Manchester,Manchester
89.116.109.28,4,3,kyunavi.com,GB,Europe,Northern Europe,United Kingdom,England,Manchester,Manchester
195.200.9.154,4,3,labelhridya.com,GB,Europe,Northern Europe,United Kingdom,England,Manchester,Manchester
195.200.9.84,4,145,ladakhpolicerecruitment.in,GB,Europe,Northern Europe,United Kingdom,England,Manchester,Manchester
195.200.9.226,4,5,lahoredha.pk,GB,Europe,Northern Europe,United Kingdom,England,Manchester,Manchester
91.108.103.169,4,5,lalbug.net,GB,Europe,Northern Europe,United Kingdom,England,Manchester,Manchester
195.200.9.208,4,25,lamesoeur.com,GB,Europe,Northern Europe,United Kingdom,England,Manchester,Manchester
91.108.103.43,4,24,landscapesandmore.com,GB,Europe,Northern Europe,United Kingdom,England,Manchester,Manchester
195.200.9.137,4,12,langs.kr,GB,Europe,Northern Europe,United Kingdom,England,Manchester,Manchester
89.116.109.132,4,15,larevista.com.mx,GB,Europe,Northern Europe,United Kingdom,England,Manchester,Manchester
185.77.97.219,4,33,largedogcollar.net,GB,Europe,Northern Europe,United Kingdom,England,Manchester,Manchester
185.77.97.234,4,12,largehints.com,GB,Europe,Northern Europe,United Kingdom,England,Manchester,Manchester
91.108.103.69,4,50,laurenmancke.com,GB,Europe,Northern Europe,United Kingdom,England,Manchester,Manchester
217.21.69.98,4,7,lawble.co.uk,GB,Europe,Northern Europe,United Kingdom,England,Manchester,Manchester
77.37.37.164,4,3,lawncareinpennsylvania.com,GB,Europe,Northern Europe,United Kingdom,England,Manchester,Manchester
195.200.9.248,4,27,leaglesamiksha.com,GB,Europe,Northern Europe,United Kingdom,England,Manchester,Manchester
89.116.109.61,4,22,learning-theories.com,GB,Europe,Northern Europe,United Kingdom,England,Manchester,Manchester
89.116.109.106,4,12,lenkamusic.com,GB,Europe,Northern Europe,United Kingdom,England,Manchester,Manchester
31.220.106.167,4,75,letsdosomethingcrafty.com,GB,Europe,Northern Europe,United Kingdom,England,Manchester,Manchester
91.108.103.88,4,10,lezetomedia.com,GB,Europe,Northern Europe,United Kingdom,England,Manchester,Manchester
185.77.97.200,4,30,lifestyleug.com,GB,Europe,Northern Europe,United Kingdom,England,Manchester,Manchester
185.77.97.119,4,6,likesgeek.com,GB,Europe,Northern Europe,United Kingdom,England,Manchester,Manchester
194.36.184.99,4,16,linuxjedi.co.uk,GB,Europe,Northern Europe,United Kingdom,England,Manchester,Manchester
89.116.109.134,4,2,lionart.com.br,GB,Europe,Northern Europe,United Kingdom,England,Manchester,Manchester
89.116.109.46,4,8,littledressesforafrica.org,GB,Europe,Northern Europe,United Kingdom,England,Manchester,Manchester
185.77.97.212,4,16,littlesaves.com,GB,Europe,Northern Europe,United Kingdom,England,Manchester,Manchester
77.37.34.51,4,3,livevideochat.xyz,GB,Europe,Northern Europe,United Kingdom,England,Manchester,Manchester
89.116.109.208,4,15,livewebmarks.com,GB,Europe,Northern Europe,United Kingdom,England,Manchester,Manchester
89.117.228.123,4,26,logopix.ie,GB,Europe,Northern Europe,United Kingdom,England,Manchester,Manchester
185.77.97.93,4,96,londondissertations.co.uk,GB,Europe,Northern Europe,United Kingdom,England,Manchester,Manchester
195.200.9.158,4,106,londondrinks.com,GB,Europe,Northern Europe,United Kingdom,England,Manchester,Manchester
195.200.9.46,4,4,longchamphandbags.co.uk,GB,Europe,Northern Europe,United Kingdom,England,Manchester,Manchester
141.136.43.177,4,5,lookintofacts.com,GB,Europe,Northern Europe,United Kingdom,England,Manchester,Manchester
195.200.9.45,4,7,lostmary-vapes.com,GB,Europe,Northern Europe,United Kingdom,England,Manchester,Manchester
91.108.103.209,4,8,lovelyescortsgirls.com,GB,Europe,Northern Europe,United Kingdom,England,Manchester,Manchester
91.108.103.146,4,8,lovelyrani.in,GB,Europe,Northern Europe,United Kingdom,England,Manchester,Manchester
185.77.97.226,4,3,lovepreet-kaur.com,GB,Europe,Northern Europe,United Kingdom,England,Manchester,Manchester
185.77.97.4,4,5,lovermart.com,GB,Europe,Northern Europe,United Kingdom,England,Manchester,Manchester
195.200.9.93,4,29,luckceland.com,GB,Europe,Northern Europe,United Kingdom,England,Manchester,Manchester
91.108.103.37,4,4,lucknowsamachar.com,GB,Europe,Northern Europe,United Kingdom,England,Manchester,Manchester
195.200.9.170,4,70,lucykingdom.com,GB,Europe,Northern Europe,United Kingdom,England,Manchester,Manchester
217.21.71.106,4,4,lydiaelisemillen.com,GB,Europe,Northern Europe,United Kingdom,England,Manchester,Manchester
89.116.109.36,4,66,maadal.org,GB,Europe,Northern Europe,United Kingdom,England,Manchester,Manchester
195.200.9.31,4,3,madameriri.com,GB,Europe,Northern Europe,United Kingdom,England,Manchester,Manchester
89.116.109.203,4,20,magazinema.es,GB,Europe,Northern Europe,United Kingdom,England,Manchester,Manchester
185.77.97.44,4,5,magicaldisneyworld.com,GB,Europe,Northern Europe,United Kingdom,England,Manchester,Manchester
141.136.43.241,4,2,makersrow.com,GB,Europe,Northern Europe,United Kingdom,England,Manchester,Manchester
185.77.97.80,4,3,makfly.org,GB,Europe,Northern Europe,United Kingdom,England,Manchester,Manchester
141.136.43.205,4,2,malakut.org,GB,Europe,Northern Europe,United Kingdom,England,Manchester,Manchester
195.200.9.193,4,46,mamma-mia.com,GB,Europe,Northern Europe,United Kingdom,England,Manchester,Manchester
91.108.103.131,4,71,mandmpestcontrol.com,GB,Europe,Northern Europe,United Kingdom,England,Manchester,Manchester
145.14.153.88,4,24,maramba-zambia.com,GB,Europe,Northern Europe,United Kingdom,England,Manchester,Manchester
195.200.9.32,4,5,marayoortourism.com,GB,Europe,Northern Europe,United Kingdom,England,Manchester,Manchester
77.37.37.170,4,58,marbella-wedding.com,GB,Europe,Northern Europe,United Kingdom,England,Manchester,Manchester
195.200.9.27,4,19,marcacasino.top,GB,Europe,Northern Europe,United Kingdom,England,Manchester,Manchester
91.108.103.218,4,40,marketbusinesstech.com,GB,Europe,Northern Europe,United Kingdom,England,Manchester,Manchester
185.77.97.252,4,44,marketing-insider.eu,GB,Europe,Northern Europe,United Kingdom,England,Manchester,Manchester
141.136.39.150,4,20,marksimpson.com,GB,Europe,Northern Europe,United Kingdom,England,Manchester,Manchester
89.116.109.8,4,44,masalokumak.com,GB,Europe,Northern Europe,United Kingdom,England,Manchester,Manchester
195.200.9.232,4,22,massagecenterindelhi.com,GB,Europe,Northern Europe,United Kingdom,England,Manchester,Manchester
153.92.7.68,4,54,mastersassignment.co.uk,GB,Europe,Northern Europe,United Kingdom,England,Manchester,Manchester
31.220.106.186,4,18,matched.co.uk,GB,Europe,Northern Europe,United Kingdom,England,Manchester,Manchester
31.170.164.25,4,8,matelas-ideal.fr,GB,Europe,Northern Europe,United Kingdom,England,Manchester,Manchester
91.108.103.243,4,56,matesbook.in,GB,Europe,Northern Europe,United Kingdom,England,Manchester,Manchester
185.77.97.45,4,25,mazw.org.zw,GB,Europe,Northern Europe,United Kingdom,England,Manchester,Manchester
185.77.97.206,4,16,medexm.in,GB,Europe,Northern Europe,United Kingdom,England,Manchester,Manchester
91.108.103.245,4,4,mediabulletins.com,GB,Europe,Northern Europe,United Kingdom,England,Manchester,Manchester
89.116.109.164,4,10,mediterrasian.com,GB,Europe,Northern Europe,United Kingdom,England,Manchester,Manchester
89.116.109.235,4,3,mekarsari-haltim.com,GB,Europe,Northern Europe,United Kingdom,England,Manchester,Manchester
185.77.97.8,4,2,merahkiliving.com,GB,Europe,Northern Europe,United Kingdom,England,Manchester,Manchester
195.200.9.178,4,6,meritking.website,GB,Europe,Northern Europe,United Kingdom,England,Manchester,Manchester
91.108.103.224,4,13,micvhimagery.com,GB,Europe,Northern Europe,United Kingdom,England,Manchester,Manchester
195.200.9.196,4,3,milirskinclinic.com,GB,Europe,Northern Europe,United Kingdom,England,Manchester,Manchester
89.116.109.158,4,26,mobilehackerforhire.com,GB,Europe,Northern Europe,United Kingdom,England,Manchester,Manchester
185.77.97.170,4,7,mohanvilla.com,GB,Europe,Northern Europe,United Kingdom,England,Manchester,Manchester
91.108.103.248,4,8,moneyvisual.com,GB,Europe,Northern Europe,United Kingdom,England,Manchester,Manchester
217.21.70.216,4,18,monitoraudio.com,GB,Europe,Northern Europe,United Kingdom,England,Manchester,Manchester
185.77.97.175,4,3,monmar.it,GB,Europe,Northern Europe,United Kingdom,England,Manchester,Manchester
77.37.37.122,4,24,moovemag.com,GB,Europe,Northern Europe,United Kingdom,England,Manchester,Manchester
77.37.34.68,4,22,morantshihtzupuppies.com,GB,Europe,Northern Europe,United Kingdom,England,Manchester,Manchester
195.200.9.78,4,30,moslereconomics.com,GB,Europe,Northern Europe,United Kingdom,England,Manchester,Manchester
89.238.141.148,4,13,motherindia.co.uk,GB,Europe,Northern Europe,United Kingdom,England,Manchester,Manchester
185.77.97.85,4,3,mrwebex.com,GB,Europe,Northern Europe,United Kingdom,England,Manchester,Manchester
145.14.152.39,4,3,mtmgseo.com,GB,Europe,Northern Europe,United Kingdom,England,Manchester,Manchester
91.108.103.51,4,12,mtmtpolice.kr,GB,Europe,Northern Europe,United Kingdom,England,Manchester,Manchester
185.77.97.11,4,4,mtoag.com,GB,Europe,Northern Europe,United Kingdom,England,Manchester,Manchester
31.170.164.243,4,9,mullerthai.com,GB,Europe,Northern Europe,United Kingdom,England,Manchester,Manchester
185.77.97.52,4,59,mumbaidesire.com,GB,Europe,Northern Europe,United Kingdom,England,Manchester,Manchester
91.108.103.157,4,2,mundogump.com.br,GB,Europe,Northern Europe,United Kingdom,England,Manchester,Manchester
195.200.9.81,4,6,murahmobil.com,GB,Europe,Northern Europe,United Kingdom,England,Manchester,Manchester
185.77.97.223,4,101,musicalley.com,GB,Europe,Northern Europe,United Kingdom,England,Manchester,Manchester
77.37.36.243,4,3,muslimsholytravel.co.uk,GB,Europe,Northern Europe,United Kingdom,England,Manchester,Manchester
89.116.109.156,4,16,myarcadeplugin.com,GB,Europe,Northern Europe,United Kingdom,England,Manchester,Manchester
89.116.109.54,4,34,mybeautyboulevard.com,GB,Europe,Northern Europe,United Kingdom,England,Manchester,Manchester
89.116.109.126,4,8,mybigplunge.com,GB,Europe,Northern Europe,United Kingdom,England,Manchester,Manchester
91.108.103.20,4,29,mybizzykitchen.com,GB,Europe,Northern Europe,United Kingdom,England,Manchester,Manchester
185.77.97.61,4,22,myggil.com,GB,Europe,Northern Europe,United Kingdom,England,Manchester,Manchester
195.200.9.201,4,87,mylinea.com,GB,Europe,Northern Europe,United Kingdom,England,Manchester,Manchester
145.14.154.158,4,28,mystartupworld.com,GB,Europe,Northern Europe,United Kingdom,England,Manchester,Manchester
195.200.9.225,4,4,myyquiz.com,GB,Europe,Northern Europe,United Kingdom,England,Manchester,Manchester
89.116.109.32,4,11,myzoo.it,GB,Europe,Northern Europe,United Kingdom,England,Manchester,Manchester
195.200.9.118,4,17,naiaodonto.com.br,GB,Europe,Northern Europe,United Kingdom,England,Manchester,Manchester
185.77.97.139,4,8,nairatips.com,GB,Europe,Northern Europe,United Kingdom,England,Manchester,Manchester
195.200.9.192,4,15,naiu.org.ua,GB,Europe,Northern Europe,United Kingdom,England,Manchester,Manchester
185.77.97.165,4,5,namesmore.com,GB,Europe,Northern Europe,United Kingdom,England,Manchester,Manchester
89.116.109.45,4,5,nancykaur.in,GB,Europe,Northern Europe,United Kingdom,England,Manchester,Manchester
89.116.109.29,4,26,navleenkaur.com,GB,Europe,Northern Europe,United Kingdom,England,Manchester,Manchester
195.200.9.252,4,12,nearmeescorts.in,GB,Europe,Northern Europe,United Kingdom,England,Manchester,Manchester
185.77.97.2,4,111,neha.net.in,GB,Europe,Northern Europe,United Kingdom,England,Manchester,Manchester
153.92.6.95,4,2,netyuvam.com,GB,Europe,Northern Europe,United Kingdom,England,Manchester,Manchester
89.116.109.74,4,52,new-medinstruments.com,GB,Europe,Northern Europe,United Kingdom,England,Manchester,Manchester
91.108.103.64,4,18,newsciti.com,GB,Europe,Northern Europe,United Kingdom,England,Manchester,Manchester
91.108.103.253,4,65,newserelease.com,GB,Europe,Northern Europe,United Kingdom,England,Manchester,Manchester
195.200.9.10,4,28,newsofcanada.net,GB,Europe,Northern Europe,United Kingdom,England,Manchester,Manchester
217.21.71.28,4,8,newstartmag.co.uk,GB,Europe,Northern Europe,United Kingdom,England,Manchester,Manchester
185.77.97.107,4,3,newstimeworld.com,GB,Europe,Northern Europe,United Kingdom,England,Manchester,Manchester
91.108.103.4,4,13,newstrendtv.com,GB,Europe,Northern Europe,United Kingdom,England,Manchester,Manchester
89.116.109.136,4,11,newyorktoycollective.com,GB,Europe,Northern Europe,United Kingdom,England,Manchester,Manchester
185.77.97.160,4,5,nextblockexpo.com,GB,Europe,Northern Europe,United Kingdom,England,Manchester,Manchester
185.77.97.164,4,17,nextindiatimes.com,GB,Europe,Northern Europe,United Kingdom,England,Manchester,Manchester
89.116.109.101,4,8,nfrs.org,GB,Europe,Northern Europe,United Kingdom,England,Manchester,Manchester
89.116.109.246,4,24,nidhidixit.com,GB,Europe,Northern Europe,United Kingdom,England,Manchester,Manchester
185.77.97.231,4,6,nikeshoesoutlet.us,GB,Europe,Northern Europe,United Kingdom,England,Manchester,Manchester
185.77.97.173,4,5,nikitabhat.com,GB,Europe,Northern Europe,United Kingdom,England,Manchester,Manchester
217.21.69.56,4,7,ninja-vapes.co.uk,GB,Europe,Northern Europe,United Kingdom,England,Manchester,Manchester
185.77.97.28,4,5,nirmandiwas.com,GB,Europe,Northern Europe,United Kingdom,England,Manchester,Manchester
91.108.103.190,4,26,nlplimited.com,GB,Europe,Northern Europe,United Kingdom,England,Manchester,Manchester
89.116.109.110,4,3,nnrg.edu.in,GB,Europe,Northern Europe,United Kingdom,England,Manchester,Manchester
194.11.154.109,4,12,nnuimmigration.com,GB,Europe,Northern Europe,United Kingdom,England,Manchester,Manchester
89.116.109.43,4,5,north-africa.com,GB,Europe,Northern Europe,United Kingdom,England,Manchester,Manchester
185.77.97.155,4,2,northamanglican.com,GB,Europe,Northern Europe,United Kingdom,England,Manchester,Manchester
31.170.164.34,4,3,northernforum.org,GB,Europe,Northern Europe,United Kingdom,England,Manchester,Manchester
195.200.9.216,4,13,nortriptylinen.com,GB,Europe,Northern Europe,United Kingdom,England,Manchester,Manchester
91.108.103.92,4,29,noteslog.com,GB,Europe,Northern Europe,United Kingdom,England,Manchester,Manchester
195.200.9.85,4,71,nouveau-monde.ca,GB,Europe,Northern Europe,United Kingdom,England,Manchester,Manchester
217.21.69.21,4,3,nrs.co.uk,GB,Europe,Northern Europe,United Kingdom,England,Manchester,Manchester
185.77.97.43,4,5,nsaimmigration.com,GB,Europe,Northern Europe,United Kingdom,England,Manchester,Manchester
195.200.9.54,4,3,nstacommunities.org,GB,Europe,Northern Europe,United Kingdom,England,Manchester,Manchester
89.116.109.103,4,3,nursingassignmentwriters.co.uk,GB,Europe,Northern Europe,United Kingdom,England,Manchester,Manchester
89.116.109.27,4,2,nutterwilson.com,GB,Europe,Northern Europe,United Kingdom,England,Manchester,Manchester
91.108.103.144,4,7,nypressnews.com,GB,Europe,Northern Europe,United Kingdom,England,Manchester,Manchester
91.108.103.214,4,4,o4ug.com,GB,Europe,Northern Europe,United Kingdom,England,Manchester,Manchester
89.116.109.181,4,13,officialworld777.com,GB,Europe,Northern Europe,United Kingdom,England,Manchester,Manchester
89.116.109.71,4,5,offmarketbusinessforsale.com,GB,Europe,Northern Europe,United Kingdom,England,Manchester,Manchester
185.77.97.237,4,57,oledcomm.net,GB,Europe,Northern Europe,United Kingdom,England,Manchester,Manchester
89.116.109.127,4,36,olsenlandscaping.com,GB,Europe,Northern Europe,United Kingdom,England,Manchester,Manchester
31.220.106.246,4,9,omsakthi.com,GB,Europe,Northern Europe,United Kingdom,England,Manchester,Manchester
195.200.9.191,4,3,on889.com,GB,Europe,Northern Europe,United Kingdom,England,Manchester,Manchester
195.200.9.14,4,34,onbetvns.com,GB,Europe,Northern Europe,United Kingdom,England,Manchester,Manchester
91.108.103.42,4,3,onesails.com,GB,Europe,Northern Europe,United Kingdom,England,Manchester,Manchester
153.92.6.249,4,4,oneswitch.org.uk,GB,Europe,Northern Europe,United Kingdom,England,Manchester,Manchester
89.116.109.157,4,3,onetimecanada.com,GB,Europe,Northern Europe,United Kingdom,England,Manchester,Manchester
185.77.97.177,4,29,onlinecasinogames777.com,GB,Europe,Northern Europe,United Kingdom,England,Manchester,Manchester
195.200.9.253,4,116,onlinecivilforum.com,GB,Europe,Northern Europe,United Kingdom,England,Manchester,Manchester
195.200.9.119,4,37,onlinekredite.top,GB,Europe,Northern Europe,United Kingdom,England,Manchester,Manchester
185.77.97.143,4,4,onuitalia.com,GB,Europe,Northern Europe,United Kingdom,England,Manchester,Manchester
89.116.109.1,4,28,onyxkorea.kr,GB,Europe,Northern Europe,United Kingdom,England,Manchester,Manchester
146.255.104.131,4,292,Ookla Speedtest Server 2262: manchester.speedtest.boundlessnetworks.uk,GB,Europe,Northern Europe,United Kingdom,England,Manchester,Manchester
46.227.206.14,4,236,Ookla Speedtest Server 20746: age.sal.uk.speedtest.faelix.net,GB,Europe,Northern Europe,United Kingdom,England,Manchester,Manchester
185.214.220.73,4,270,Ookla Speedtest Server 64516: ab-jlh-ookla01.air-band.net,GB,Europe,Northern Europe,United Kingdom,England,Manchester,Manchester
89.116.109.39,4,11,open.az,GB,Europe,Northern Europe,United Kingdom,England,Manchester,Manchester
195.200.9.47,4,10,openfaves.com,GB,Europe,Northern Europe,United Kingdom,England,Manchester,Manchester
185.77.97.182,4,19,oportunidade-bortoletto.com,GB,Europe,Northern Europe,United Kingdom,England,Manchester,Manchester
195.200.9.62,4,9,oprice.in,GB,Europe,Northern Europe,United Kingdom,England,Manchester,Manchester
195.200.9.125,4,3,oralhealthcomplete.com,GB,Europe,Northern Europe,United Kingdom,England,Manchester,Manchester
185.77.97.14,4,75,origami-resource-center.com,GB,Europe,Northern Europe,United Kingdom,England,Manchester,Manchester
195.200.9.64,4,22,orthoconfortmaroc.com,GB,Europe,Northern Europe,United Kingdom,England,Manchester,Manchester
89.116.109.100,4,38,ortodoxia.md,GB,Europe,Northern Europe,United Kingdom,England,Manchester,Manchester
185.77.97.121,4,14,ortopediktumor.com,GB,Europe,Northern Europe,United Kingdom,England,Manchester,Manchester
89.116.109.184,4,2,oskarjacket.com,GB,Europe,Northern Europe,United Kingdom,England,Manchester,Manchester
89.117.228.203,4,74,otekhairclinic.com,GB,Europe,Northern Europe,United Kingdom,England,Manchester,Manchester
91.108.103.34,4,1,ottawapianomovingspecialist.ca,GB,Europe,Northern Europe,United Kingdom,England,Manchester,Manchester
217.21.68.208,4,54,ourladyofhopecandolim.com,GB,Europe,Northern Europe,United Kingdom,England,Manchester,Manchester
195.200.9.185,4,86,overcomeback.com.pl,GB,Europe,Northern Europe,United Kingdom,England,Manchester,Manchester
154.41.238.234,4,9,oxscience.com,GB,Europe,Northern Europe,United Kingdom,England,Manchester,Manchester
91.108.103.180,4,18,painpathways.org,GB,Europe,Northern Europe,United Kingdom,England,Manchester,Manchester
195.200.9.52,4,39,pamufon.com,GB,Europe,Northern Europe,United Kingdom,England,Manchester,Manchester
185.77.97.169,4,18,pan-kot.com,GB,Europe,Northern Europe,United Kingdom,England,Manchester,Manchester
91.108.103.202,4,52,papan.id,GB,Europe,Northern Europe,United Kingdom,England,Manchester,Manchester
185.77.97.147,4,92,parabuenosaires.com,GB,Europe,Northern Europe,United Kingdom,England,Manchester,Manchester
145.14.153.96,4,29,parkandcube.com,GB,Europe,Northern Europe,United Kingdom,England,Manchester,Manchester
195.200.9.168,4,26,parkingtoday.com,GB,Europe,Northern Europe,United Kingdom,England,Manchester,Manchester
91.108.103.216,4,32,parulsen.in,GB,Europe,Northern Europe,United Kingdom,England,Manchester,Manchester
195.200.9.138,4,3,pastnews.org,GB,Europe,Northern Europe,United Kingdom,England,Manchester,Manchester
185.77.97.5,4,10,paulogentil.com,GB,Europe,Northern Europe,United Kingdom,England,Manchester,Manchester
89.116.109.209,4,12,pc-tablet.com,GB,Europe,Northern Europe,United Kingdom,England,Manchester,Manchester
141.136.42.238,4,25,pe-insights.com,GB,Europe,Northern Europe,United Kingdom,England,Manchester,Manchester
195.200.9.16,4,15,pedro4dgoal.net,GB,Europe,Northern Europe,United Kingdom,England,Manchester,Manchester
89.116.109.47,4,3,peggynoonan.com,GB,Europe,Northern Europe,United Kingdom,England,Manchester,Manchester
194.36.185.119,4,14,pendragon.it,GB,Europe,Northern Europe,United Kingdom,England,Manchester,Manchester
145.14.152.242,4,6,penguintutor.com,GB,Europe,Northern Europe,United Kingdom,England,Manchester,Manchester
91.108.103.56,4,32,penpoin.com,GB,Europe,Northern Europe,United Kingdom,England,Manchester,Manchester
185.77.97.116,4,23,pensionkorea.co.kr,GB,Europe,Northern Europe,United Kingdom,England,Manchester,Manchester
91.108.97.235,4,36,penumbra.org.uk,GB,Europe,Northern Europe,United Kingdom,England,Manchester,Manchester
185.77.97.88,4,27,perfectfc.com,GB,Europe,Northern Europe,United Kingdom,England,Manchester,Manchester
89.116.109.115,4,33,perfectionwheelss.com,GB,Europe,Northern Europe,United Kingdom,England,Manchester,Manchester
185.77.97.55,4,27,permisdeconducerelegal.com,GB,Europe,Northern Europe,United Kingdom,England,Manchester,Manchester
185.77.97.162,4,36,permisdeconduireacheter.com,GB,Europe,Northern Europe,United Kingdom,England,Manchester,Manchester
77.37.34.31,4,20,permisdeconduirelegal.com,GB,Europe,Northern Europe,United Kingdom,England,Manchester,Manchester
145.14.153.19,4,25,permisdeconduirereele.com,GB,Europe,Northern Europe,United Kingdom,England,Manchester,Manchester
153.92.6.113,4,7,pfteknik.com.tr,GB,Europe,Northern Europe,United Kingdom,England,Manchester,Manchester
89.116.109.5,4,12,pg333-th.com,GB,Europe,Northern Europe,United Kingdom,England,Manchester,Manchester
141.136.43.140,4,29,pi0cket.com,GB,Europe,Northern Europe,United Kingdom,England,Manchester,Manchester
185.77.97.99,4,20,pickplugins.com,GB,Europe,Northern Europe,United Kingdom,England,Manchester,Manchester
195.200.9.149,4,58,piethis.com,GB,Europe,Northern Europe,United Kingdom,England,Manchester,Manchester
145.14.153.222,4,17,pikaia.eu,GB,Europe,Northern Europe,United Kingdom,England,Manchester,Manchester
195.200.9.162,4,79,pikruos.net,GB,Europe,Northern Europe,United Kingdom,England,Manchester,Manchester
91.108.103.241,4,16,pil-network.com,GB,Europe,Northern Europe,United Kingdom,England,Manchester,Manchester
91.108.103.145,4,3,pingdesserts.com,GB,Europe,Northern Europe,United Kingdom,England,Manchester,Manchester
185.77.97.183,4,7,pipsgram.com,GB,Europe,Northern Europe,United Kingdom,England,Manchester,Manchester
195.200.9.236,4,32,piqs.de,GB,Europe,Northern Europe,United Kingdom,England,Manchester,Manchester
185.77.97.187,4,4,pkmassages.com,GB,Europe,Northern Europe,United Kingdom,England,Manchester,Manchester
185.77.97.168,4,6,platinaline.com,GB,Europe,Northern Europe,United Kingdom,England,Manchester,Manchester
195.200.9.180,4,7,playpokerkorea.kr,GB,Europe,Northern Europe,United Kingdom,England,Manchester,Manchester
91.108.103.238,4,8,pls.com.ng,GB,Europe,Northern Europe,United Kingdom,England,Manchester,Manchester
185.77.97.9,4,7,plugplayvapes.com,GB,Europe,Northern Europe,United Kingdom,England,Manchester,Manchester
91.108.103.210,4,24,plus.im,GB,Europe,Northern Europe,United Kingdom,England,Manchester,Manchester
77.74.107.143,4,174685,plusbus.info,GB,Europe,Northern Europe,United Kingdom,England,Manchester,Manchester
185.77.97.142,4,2,pmailus.com,GB,Europe,Northern Europe,United Kingdom,England,Manchester,Manchester
91.108.103.103,4,15,pogowasright.org,GB,Europe,Northern Europe,United Kingdom,England,Manchester,Manchester
185.77.97.184,4,21,point-geek.fr,GB,Europe,Northern Europe,United Kingdom,England,Manchester,Manchester
185.77.97.7,4,31,pokerkorea.kr,GB,Europe,Northern Europe,United Kingdom,England,Manchester,Manchester
195.200.9.140,4,45,poltekkesbengkulu.ac.id,GB,Europe,Northern Europe,United Kingdom,England,Manchester,Manchester
141.136.42.129,4,16,ponder.cat,GB,Europe,Northern Europe,United Kingdom,England,Manchester,Manchester
91.108.103.9,4,22,poojarathore.com,GB,Europe,Northern Europe,United Kingdom,England,Manchester,Manchester
91.108.103.252,4,52,poonamaggarwal.co.in,GB,Europe,Northern Europe,United Kingdom,England,Manchester,Manchester
185.77.97.210,4,14,poonamgupta.com,GB,Europe,Northern Europe,United Kingdom,England,Manchester,Manchester
91.108.103.125,4,58,popularcert.com,GB,Europe,Northern Europe,United Kingdom,England,Manchester,Manchester
195.200.9.29,4,23,porloschicos.com,GB,Europe,Northern Europe,United Kingdom,England,Manchester,Manchester
89.116.109.135,4,20,portalgames.pl,GB,Europe,Northern Europe,United Kingdom,England,Manchester,Manchester
89.116.109.248,4,23,portlandfoodanddrink.com,GB,Europe,Northern Europe,United Kingdom,England,Manchester,Manchester
89.116.109.141,4,39,positivegalaxy.net,GB,Europe,Northern Europe,United Kingdom,England,Manchester,Manchester
195.200.9.100,4,33,postsisland.com,GB,Europe,Northern Europe,United Kingdom,England,Manchester,Manchester
195.200.9.186,4,5,powergenx.in,GB,Europe,Northern Europe,United Kingdom,England,Manchester,Manchester
91.108.103.153,4,36,pragmatic1.kr,GB,Europe,Northern Europe,United Kingdom,England,Manchester,Manchester
194.1.147.80,4,49,pranadan.com,GB,Europe,Northern Europe,United Kingdom,England,Manchester,Manchester
195.200.9.30,4,22,prbookmarks.com,GB,Europe,Northern Europe,United Kingdom,England,Manchester,Manchester
195.200.9.69,4,7,precisionlearning.com,GB,Europe,Northern Europe,United Kingdom,England,Manchester,Manchester
195.200.9.41,4,99,premiumshippingcontainers.com,GB,Europe,Northern Europe,United Kingdom,England,Manchester,Manchester
91.108.103.111,4,48,presswire18.com,GB,Europe,Northern Europe,United Kingdom,England,Manchester,Manchester
185.77.97.179,4,14,priligydapoxetine.shop,GB,Europe,Northern Europe,United Kingdom,England,Manchester,Manchester
195.200.9.59,4,40,printersupport24x7.com,GB,Europe,Northern Europe,United Kingdom,England,Manchester,Manchester
91.108.103.249,4,47,pristinefleetsolution.com,GB,Europe,Northern Europe,United Kingdom,England,Manchester,Manchester
91.108.103.71,4,67,priyaji.com,GB,Europe,Northern Europe,United Kingdom,England,Manchester,Manchester
91.108.103.206,4,50,priyanka-kapoor.com,GB,Europe,Northern Europe,United Kingdom,England,Manchester,Manchester
195.200.9.82,4,55,proffilm.com,GB,Europe,Northern Europe,United Kingdom,England,Manchester,Manchester
91.108.103.105,4,36,profilebios.com,GB,Europe,Northern Europe,United Kingdom,England,Manchester,Manchester
91.108.103.32,4,52,prombaza77.com,GB,Europe,Northern Europe,United Kingdom,England,Manchester,Manchester
31.220.106.123,4,8,property25.org,GB,Europe,Northern Europe,United Kingdom,England,Manchester,Manchester
89.116.109.176,4,14,prosancons.com,GB,Europe,Northern Europe,United Kingdom,England,Manchester,Manchester
185.77.97.171,4,10,proxy-jobsupport.com,GB,Europe,Northern Europe,United Kingdom,England,Manchester,Manchester
195.200.9.25,4,15,proyects10.es,GB,Europe,Northern Europe,United Kingdom,England,Manchester,Manchester
91.108.103.11,4,46,psdgraphics.com,GB,Europe,Northern Europe,United Kingdom,England,Manchester,Manchester
91.108.103.113,4,23,psn.si,GB,Europe,Northern Europe,United Kingdom,England,Manchester,Manchester
88.221.87.106,4,51,psyche.co.uk,GB,Europe,Northern Europe,United Kingdom,England,Manchester,Manchester
195.200.9.57,4,40,publicbuysell.com,GB,Europe,Northern Europe,United Kingdom,England,Manchester,Manchester
185.77.97.31,4,48,publicservicefair.kr,GB,Europe,Northern Europe,United Kingdom,England,Manchester,Manchester
185.77.97.82,4,24,pullman-museum.org,GB,Europe,Northern Europe,United Kingdom,England,Manchester,Manchester
141.136.33.187,4,7,punjabassignmenthelp.com,GB,Europe,Northern Europe,United Kingdom,England,Manchester,Manchester
217.21.69.116,4,32,purplecv.co.uk,GB,Europe,Northern Europe,United Kingdom,England,Manchester,Manchester
195.200.9.182,4,3,qafic.com,GB,Europe,Northern Europe,United Kingdom,England,Manchester,Manchester
89.116.109.72,4,3,qcgameprivate.com,GB,Europe,Northern Europe,United Kingdom,England,Manchester,Manchester
185.77.97.156,4,3,qfiles.org,GB,Europe,Northern Europe,United Kingdom,England,Manchester,Manchester
89.116.109.68,4,5,qnewshub.com,GB,Europe,Northern Europe,United Kingdom,England,Manchester,Manchester
31.170.164.164,4,7,qoust.com,GB,Europe,Northern Europe,United Kingdom,England,Manchester,Manchester
91.108.103.107,4,8,quentin-risaletto.com,GB,Europe,Northern Europe,United Kingdom,England,Manchester,Manchester
195.200.9.133,4,16,quickinstallmentloans.com,GB,Europe,Northern Europe,United Kingdom,England,Manchester,Manchester
89.116.109.62,4,5,quizzec.com,GB,Europe,Northern Europe,United Kingdom,England,Manchester,Manchester
89.116.109.253,4,3,qx-broker.net,GB,Europe,Northern Europe,United Kingdom,England,Manchester,Manchester
195.200.9.120,4,8,rahuldigital.com,GB,Europe,Northern Europe,United Kingdom,England,Manchester,Manchester
89.116.109.31,4,13,raildude.pl,GB,Europe,Northern Europe,United Kingdom,England,Manchester,Manchester
195.200.9.101,4,19,raiseinfo.top,GB,Europe,Northern Europe,United Kingdom,England,Manchester,Manchester
185.77.97.92,4,49,rajkotupdates.com,GB,Europe,Northern Europe,United Kingdom,England,Manchester,Manchester
185.77.97.129,4,50,rambox.app,GB,Europe,Northern Europe,United Kingdom,England,Manchester,Manchester
89.116.109.234,4,20,ramyaescorts.com,GB,Europe,Northern Europe,United Kingdom,England,Manchester,Manchester
89.116.109.218,4,9,rcwgw.com,GB,Europe,Northern Europe,United Kingdom,England,Manchester,Manchester
89.116.109.35,4,21,re-how.net,GB,Europe,Northern Europe,United Kingdom,England,Manchester,Manchester
91.108.103.228,4,45,readerseden.com,GB,Europe,Northern Europe,United Kingdom,England,Manchester,Manchester
195.200.9.209,4,74,readesh.com,GB,Europe,Northern Europe,United Kingdom,England,Manchester,Manchester
89.116.109.159,4,39,readtimes.id,GB,Europe,Northern Europe,United Kingdom,England,Manchester,Manchester
91.108.103.140,4,23,realmadridclub.org,GB,Europe,Northern Europe,United Kingdom,England,Manchester,Manchester
91.108.103.133,4,13,realvaluepharmacynyc.com,GB,Europe,Northern Europe,United Kingdom,England,Manchester,Manchester
89.116.109.114,4,5,recifest.com,GB,Europe,Northern Europe,United Kingdom,England,Manchester,Manchester
185.77.97.56,4,5,recoreproje.com,GB,Europe,Northern Europe,United Kingdom,England,Manchester,Manchester
195.200.9.245,4,52,redandwhitemagz.co.uk,GB,Europe,Northern Europe,United Kingdom,England,Manchester,Manchester
77.37.37.224,4,11,redroom.com,GB,Europe,Northern Europe,United Kingdom,England,Manchester,Manchester
185.77.97.39,4,92,rehabcenter.net,GB,Europe,Northern Europe,United Kingdom,England,Manchester,Manchester
31.170.164.31,4,53,reindeerherding.org,GB,Europe,Northern Europe,United Kingdom,England,Manchester,Manchester
91.108.103.44,4,27,relentlesshome.com,GB,Europe,Northern Europe,United Kingdom,England,Manchester,Manchester
89.116.109.113,4,3,removecreditcard.com,GB,Europe,Northern Europe,United Kingdom,England,Manchester,Manchester
31.220.106.143,4,8,renieddolodge.co.uk,GB,Europe,Northern Europe,United Kingdom,England,Manchester,Manchester
91.108.103.161,4,5,renolon.com,GB,Europe,Northern Europe,United Kingdom,England,Manchester,Manchester
89.116.109.55,4,48,renubansal.in,GB,Europe,Northern Europe,United Kingdom,England,Manchester,Manchester
141.136.43.9,4,37,rephlex.com,GB,Europe,Northern Europe,United Kingdom,England,Manchester,Manchester
91.108.103.114,4,29,residencestyle.com,GB,Europe,Northern Europe,United Kingdom,England,Manchester,Manchester
91.108.103.201,4,33,revival-library.org,GB,Europe,Northern Europe,United Kingdom,England,Manchester,Manchester
89.116.109.59,4,28,revolights.com,GB,Europe,Northern Europe,United Kingdom,England,Manchester,Manchester
89.21.0.11,4,28,rgis.com,GB,Europe,Northern Europe,United Kingdom,England,Manchester,Manchester
195.200.9.104,4,34,rhodiumverse.com,GB,Europe,Northern Europe,United Kingdom,England,Manchester,Manchester
89.116.109.81,4,22,rijbewijskopen-r.com,GB,Europe,Northern Europe,United Kingdom,England,Manchester,Manchester
195.200.9.56,4,10,risehomesholding.com,GB,Europe,Northern Europe,United Kingdom,England,Manchester,Manchester
77.37.34.104,4,2,rishikulyogshalarishikesh.com,GB,Europe,Northern Europe,United Kingdom,England,Manchester,Manchester
185.77.97.221,4,3,rkproducciones.com,GB,Europe,Northern Europe,United Kingdom,England,Manchester,Manchester
195.200.9.181,4,22,rmartgrocery.com.my,GB,Europe,Northern Europe,United Kingdom,England,Manchester,Manchester
89.116.109.80,4,42,roachfiend.com,GB,Europe,Northern Europe,United Kingdom,England,Manchester,Manchester
185.77.97.120,4,11,rodin.kr,GB,Europe,Northern Europe,United Kingdom,England,Manchester,Manchester
89.116.109.252,4,67,roomshotels.com,GB,Europe,Northern Europe,United Kingdom,England,Manchester,Manchester
89.116.109.56,4,94,rotarytunismed.org,GB,Europe,Northern Europe,United Kingdom,England,Manchester,Manchester
89.116.109.247,4,32,royjonesdogshows.com,GB,Europe,Northern Europe,United Kingdom,England,Manchester,Manchester
89.116.109.64,4,10,rpginc.com,GB,Europe,Northern Europe,United Kingdom,England,Manchester,Manchester
89.116.109.211,4,5,rprocess.in,GB,Europe,Northern Europe,United Kingdom,England,Manchester,Manchester
185.77.97.189,4,18,rrdevs.net,GB,Europe,Northern Europe,United Kingdom,England,Manchester,Manchester
89.116.109.112,4,2,rssarimulia.com,GB,Europe,Northern Europe,United Kingdom,England,Manchester,Manchester
91.108.103.227,4,64,rubinasekh.com,GB,Europe,Northern Europe,United Kingdom,England,Manchester,Manchester
185.77.97.158,4,2,rumalasaheb.com,GB,Europe,Northern Europe,United Kingdom,England,Manchester,Manchester
91.108.103.156,4,7,rummy-apk.org,GB,Europe,Northern Europe,United Kingdom,England,Manchester,Manchester
91.108.103.143,4,14,rupeenews.com,GB,Europe,Northern Europe,United Kingdom,England,Manchester,Manchester
185.77.97.17,4,4,rupshikarai.com,GB,Europe,Northern Europe,United Kingdom,England,Manchester,Manchester
91.108.103.49,4,106,rusescortistanbul.com,GB,Europe,Northern Europe,United Kingdom,England,Manchester,Manchester
89.116.109.15,4,26,russianbridesforyou.org,GB,Europe,Northern Europe,United Kingdom,England,Manchester,Manchester
89.116.109.92,4,9,rxnaturalsmarket.com,GB,Europe,Northern Europe,United Kingdom,England,Manchester,Manchester
185.77.97.69,4,13,sacrificialmods.com,GB,Europe,Northern Europe,United Kingdom,England,Manchester,Manchester
89.116.109.194,4,10,sadredearth.com,GB,Europe,Northern Europe,United Kingdom,England,Manchester,Manchester
91.108.103.184,4,3,sagetiesmarketing.com,GB,Europe,Northern Europe,United Kingdom,England,Manchester,Manchester
185.77.97.214,4,17,saigondomains.com,GB,Europe,Northern Europe,United Kingdom,England,Manchester,Manchester
185.77.97.16,4,4,sakemenus.com,GB,Europe,Northern Europe,United Kingdom,England,Manchester,Manchester
89.116.109.227,4,6,salondutrail.re,GB,Europe,Northern Europe,United Kingdom,England,Manchester,Manchester
185.77.97.153,4,13,sanantoniospursjersey.us,GB,Europe,Northern Europe,United Kingdom,England,Manchester,Manchester
145.14.153.131,4,10,sanctuaires.org,GB,Europe,Northern Europe,United Kingdom,England,Manchester,Manchester
89.116.109.213,4,6,sandfordhighschool.com,GB,Europe,Northern Europe,United Kingdom,England,Manchester,Manchester
194.1.147.6,4,26,sarkemedia.com,GB,Europe,Northern Europe,United Kingdom,England,Manchester,Manchester
185.77.97.90,4,3,sbh.ac.id,GB,Europe,Northern Europe,United Kingdom,England,Manchester,Manchester
185.77.97.227,4,10,sbson.edu.pk,GB,Europe,Northern Europe,United Kingdom,England,Manchester,Manchester
91.108.103.130,4,2,scandinavia.life,GB,Europe,Northern Europe,United Kingdom,England,Manchester,Manchester
89.116.109.220,4,6,scientonline.org,GB,Europe,Northern Europe,United Kingdom,England,Manchester,Manchester
146.70.23.240,4,3,scottish-gallery.co.uk,GB,Europe,Northern Europe,United Kingdom,England,Manchester,Manchester
195.200.9.128,4,15,scriptzol.com,GB,Europe,Northern Europe,United Kingdom,England,Manchester,Manchester
89.116.109.138,4,6,sdculzang.com,GB,Europe,Northern Europe,United Kingdom,England,Manchester,Manchester
194.11.154.237,4,21,seatonwebdesign.com,GB,Europe,Northern Europe,United Kingdom,England,Manchester,Manchester
185.77.97.63,4,2,secondhandmall.com,GB,Europe,Northern Europe,United Kingdom,England,Manchester,Manchester
91.108.103.254,4,25,selectbangaloregirls.com,GB,Europe,Northern Europe,United Kingdom,England,Manchester,Manchester
195.200.9.188,4,54,sendcv.co.za,GB,Europe,Northern Europe,United Kingdom,England,Manchester,Manchester
91.108.103.120,4,60,sendmycvs.com,GB,Europe,Northern Europe,United Kingdom,England,Manchester,Manchester
91.108.103.223,4,7,seo-sea.marketing,GB,Europe,Northern Europe,United Kingdom,England,Manchester,Manchester
77.37.34.192,4,36,servizifinali.com,GB,Europe,Northern Europe,United Kingdom,England,Manchester,Manchester
89.116.109.118,4,12,sexy-ai.net,GB,Europe,Northern Europe,United Kingdom,England,Manchester,Manchester
91.108.103.26,4,15,shado-mag.com,GB,Europe,Northern Europe,United Kingdom,England,Manchester,Manchester
89.116.109.153,4,10,shainblumphoto.com,GB,Europe,Northern Europe,United Kingdom,England,Manchester,Manchester
195.200.9.161,4,3,shakalakaa.my,GB,Europe,Northern Europe,United Kingdom,England,Manchester,Manchester
89.116.109.41,4,11,shape.ag,GB,Europe,Northern Europe,United Kingdom,England,Manchester,Manchester
91.108.103.97,4,9,shekicks.net,GB,Europe,Northern Europe,United Kingdom,England,Manchester,Manchester
89.116.109.237,4,2,shillacz.com,GB,Europe,Northern Europe,United Kingdom,England,Manchester,Manchester
91.108.103.183,4,1,shop-ik.com,GB,Europe,Northern Europe,United Kingdom,England,Manchester,Manchester
89.116.109.231,4,17,shopwhiskeyonline.com,GB,Europe,Northern Europe,United Kingdom,England,Manchester,Manchester
89.116.109.162,4,2,shor.cc,GB,Europe,Northern Europe,United Kingdom,England,Manchester,Manchester
185.77.97.166,4,3,shqsautoparts.com,GB,Europe,Northern Europe,United Kingdom,England,Manchester,Manchester
195.200.9.194,4,4,shreenandini.in,GB,Europe,Northern Europe,United Kingdom,England,Manchester,Manchester
195.200.9.227,4,23,sidingvault.com,GB,Europe,Northern Europe,United Kingdom,England,Manchester,Manchester
185.77.97.47,4,20,sigmankaiden.com,GB,Europe,Northern Europe,United Kingdom,England,Manchester,Manchester
89.116.109.96,4,4,signalforall.com,GB,Europe,Northern Europe,United Kingdom,England,Manchester,Manchester
91.108.103.211,4,12,sigueme.net,GB,Europe,Northern Europe,United Kingdom,England,Manchester,Manchester
195.200.9.233,4,12,siiora.com,GB,Europe,Northern Europe,United Kingdom,England,Manchester,Manchester
89.116.109.217,4,15,sikkim-game.in,GB,Europe,Northern Europe,United Kingdom,England,Manchester,Manchester
185.77.97.128,4,3,sildenafilmg.com,GB,Europe,Northern Europe,United Kingdom,England,Manchester,Manchester
89.116.109.190,4,3,silvestermallorca.de,GB,Europe,Northern Europe,United Kingdom,England,Manchester,Manchester
89.116.109.18,4,48,similanthaimassage.com,GB,Europe,Northern Europe,United Kingdom,England,Manchester,Manchester
89.116.109.14,4,75,simone.co.uk,GB,Europe,Northern Europe,United Kingdom,England,Manchester,Manchester
91.108.103.142,4,4,simplelifemom.com,GB,Europe,Northern Europe,United Kingdom,England,Manchester,Manchester
89.116.109.76,4,29,simpleweightlossplans.com,GB,Europe,Northern Europe,United Kingdom,England,Manchester,Manchester
145.14.152.214,4,4,simplysearch4it.com,GB,Europe,Northern Europe,United Kingdom,England,Manchester,Manchester
195.200.9.110,4,48,simplysweethome.com,GB,Europe,Northern Europe,United Kingdom,England,Manchester,Manchester
89.116.109.192,4,4,simsoncantho.com,GB,Europe,Northern Europe,United Kingdom,England,Manchester,Manchester
195.200.9.247,4,14,singlesdating247.com,GB,Europe,Northern Europe,United Kingdom,England,Manchester,Manchester
89.116.109.78,4,11,sinpro-es.org.br,GB,Europe,Northern Europe,United Kingdom,England,Manchester,Manchester
89.116.109.186,4,36,sirshambling.com,GB,Europe,Northern Europe,United Kingdom,England,Manchester,Manchester
185.77.97.29,4,10,site-catholique.fr,GB,Europe,Northern Europe,United Kingdom,England,Manchester,Manchester
195.200.9.66,4,15,sitoufficiale.org,GB,Europe,Northern Europe,United Kingdom,England,Manchester,Manchester
80.77.23.113,4,28,ski-glenshee.co.uk,GB,Europe,Northern Europe,United Kingdom,England,Manchester,Manchester
185.77.97.145,4,4,skillabilly.com,GB,Europe,Northern Europe,United Kingdom,England,Manchester,Manchester
89.116.109.122,4,46,slim-shoppin.com,GB,Europe,Northern Europe,United Kingdom,England,Manchester,Manchester
91.108.103.19,4,5,slotenfix.nl,GB,Europe,Northern Europe,United Kingdom,England,Manchester,Manchester
185.77.97.251,4,11,slotsmalaysia.com,GB,Europe,Northern Europe,United Kingdom,England,Manchester,Manchester
91.108.103.242,4,16,slotxo-game.vip,GB,Europe,Northern Europe,United Kingdom,England,Manchester,Manchester
195.200.9.114,4,7,smaratungga.ac.id,GB,Europe,Northern Europe,United Kingdom,England,Manchester,Manchester
89.116.109.128,4,5,smiletraveling.com,GB,Europe,Northern Europe,United Kingdom,England,Manchester,Manchester
91.108.103.250,4,59,smithersofstamford.com,GB,Europe,Northern Europe,United Kingdom,England,Manchester,Manchester
185.77.97.13,4,8,smvdu.ac.in,GB,Europe,Northern Europe,United Kingdom,England,Manchester,Manchester
185.77.97.133,4,33,snhpartners.nl,GB,Europe,Northern Europe,United Kingdom,England,Manchester,Manchester
89.116.109.224,4,29,socialformula.net,GB,Europe,Northern Europe,United Kingdom,England,Manchester,Manchester
89.116.109.9,4,39,socialgoodbrasil.org.br,GB,Europe,Northern Europe,United Kingdom,England,Manchester,Manchester
145.14.153.187,4,23,socializeclub.com,GB,Europe,Northern Europe,United Kingdom,England,Manchester,Manchester
91.108.103.187,4,40,socinova.com,GB,Europe,Northern Europe,United Kingdom,England,Manchester,Manchester
89.116.109.19,4,25,sociolib.com,GB,Europe,Northern Europe,United Kingdom,England,Manchester,Manchester
195.200.9.147,4,31,sodrive.nl,GB,Europe,Northern Europe,United Kingdom,England,Manchester,Manchester
185.77.97.149,4,43,solus-project.com,GB,Europe,Northern Europe,United Kingdom,England,Manchester,Manchester
91.108.103.93,4,5,somostelam.com.ar,GB,Europe,Northern Europe,United Kingdom,England,Manchester,Manchester
91.108.97.34,4,2,sonovate.com,GB,Europe,Northern Europe,United Kingdom,England,Manchester,Manchester
195.200.9.197,4,3,sophiajain.in,GB,Europe,Northern Europe,United Kingdom,England,Manchester,Manchester
141.136.33.85,4,15,sophierobinson.co.uk,GB,Europe,Northern Europe,United Kingdom,England,Manchester,Manchester
185.77.97.186,4,2,soundcity.tv,GB,Europe,Northern Europe,United Kingdom,England,Manchester,Manchester
195.200.9.86,4,19,soundskulptor.com,GB,Europe,Northern Europe,United Kingdom,England,Manchester,Manchester
185.77.97.205,4,8,southroulette.kr,GB,Europe,Northern Europe,United Kingdom,England,Manchester,Manchester
109.176.196.216,4,6,southtravels.com,GB,Europe,Northern Europe,United Kingdom,England,Manchester,Manchester
89.116.109.206,4,26,soyintegral.com,GB,Europe,Northern Europe,United Kingdom,England,Manchester,Manchester
195.200.9.145,4,2,spacedaily.org,GB,Europe,Northern Europe,United Kingdom,England,Manchester,Manchester
195.200.9.63,4,3,spanishnouns.com,GB,Europe,Northern Europe,United Kingdom,England,Manchester,Manchester
91.108.103.62,4,2,sparshhospitals.com,GB,Europe,Northern Europe,United Kingdom,England,Manchester,Manchester
89.116.109.223,4,3,spectacler.com,GB,Europe,Northern Europe,United Kingdom,England,Manchester,Manchester
31.220.106.228,4,13,speedatingwebsites.com,GB,Europe,Northern Europe,United Kingdom,England,Manchester,Manchester
195.200.9.21,4,10,spescoladeteatro.org.br,GB,Europe,Northern Europe,United Kingdom,England,Manchester,Manchester
185.77.97.41,4,2,spicysubject.com,GB,Europe,Northern Europe,United Kingdom,England,Manchester,Manchester
89.116.109.236,4,2,spinka.biz,GB,Europe,Northern Europe,United Kingdom,England,Manchester,Manchester
91.108.103.121,4,21,sportchronicles.com,GB,Europe,Northern Europe,United Kingdom,England,Manchester,Manchester
95.101.63.31,4,74,sportmaster.dk,GB,Europe,Northern Europe,United Kingdom,England,Manchester,Manchester
185.77.97.233,4,5,sportsfixcup.com,GB,Europe,Northern Europe,United Kingdom,England,Manchester,Manchester
89.116.109.60,4,18,sportsjone.com,GB,Europe,Northern Europe,United Kingdom,England,Manchester,Manchester
88.221.87.209,4,28,sportsworld.dk,GB,Europe,Northern Europe,United Kingdom,England,Manchester,Manchester
89.116.109.179,4,4,squarefic.com,GB,Europe,Northern Europe,United Kingdom,England,Manchester,Manchester
185.77.97.167,4,11,sraproject.org,GB,Europe,Northern Europe,United Kingdom,England,Manchester,Manchester
91.108.103.147,4,14,ssggirlscollege.ac.in,GB,Europe,Northern Europe,United Kingdom,England,Manchester,Manchester
185.77.97.176,4,35,staindirundeng.ac.id,GB,Europe,Northern Europe,United Kingdom,England,Manchester,Manchester
185.77.97.6,4,21,staland.fr,GB,Europe,Northern Europe,United Kingdom,England,Manchester,Manchester
89.116.109.154,4,6,stampalog.com,GB,Europe,Northern Europe,United Kingdom,England,Manchester,Manchester
185.77.97.79,4,28,stanfordartsreview.net,GB,Europe,Northern Europe,United Kingdom,England,Manchester,Manchester
91.108.103.10,4,31,starbet.top,GB,Europe,Northern Europe,United Kingdom,England,Manchester,Manchester
91.108.103.246,4,42,starrfm.com.gh,GB,Europe,Northern Europe,United Kingdom,England,Manchester,Manchester
195.200.9.215,4,18,starzbetcom.com,GB,Europe,Northern Europe,United Kingdom,England,Manchester,Manchester
141.136.33.182,4,3,state-journal.co.uk,GB,Europe,Northern Europe,United Kingdom,England,Manchester,Manchester
91.108.103.38,4,20,statuscorner.com,GB,Europe,Northern Europe,United Kingdom,England,Manchester,Manchester
185.77.97.83,4,4,statusvideosongs.in,GB,Europe,Northern Europe,United Kingdom,England,Manchester,Manchester
91.108.103.178,4,105,steamcar.net,GB,Europe,Northern Europe,United Kingdom,England,Manchester,Manchester
91.108.103.47,4,23,steelcitygamesfest.com,GB,Europe,Northern Europe,United Kingdom,England,Manchester,Manchester
89.116.109.121,4,20,stellanonna.com,GB,Europe,Northern Europe,United Kingdom,England,Manchester,Manchester
194.1.147.92,4,4,stevenaitchison.co.uk,GB,Europe,Northern Europe,United Kingdom,England,Manchester,Manchester
185.77.97.250,4,19,stockholmcf.org,GB,Europe,Northern Europe,United Kingdom,England,Manchester,Manchester
194.1.147.97,4,17,stooryduster.co.uk,GB,Europe,Northern Europe,United Kingdom,England,Manchester,Manchester
185.77.97.131,4,8,streameastweb.com,GB,Europe,Northern Europe,United Kingdom,England,Manchester,Manchester
141.136.33.46,4,46,streetsensation.co.uk,GB,Europe,Northern Europe,United Kingdom,England,Manchester,Manchester
89.116.109.91,4,2,stromectolbestprice.com,GB,Europe,Northern Europe,United Kingdom,England,Manchester,Manchester
185.77.97.239,4,4,strongarticle.com,GB,Europe,Northern Europe,United Kingdom,England,Manchester,Manchester
91.108.103.55,4,52,sttmms.ac.id,GB,Europe,Northern Europe,United Kingdom,England,Manchester,Manchester
2.22.228.163,4,38,studio.co.uk,GB,Europe,Northern Europe,United Kingdom,England,Manchester,Manchester
91.108.103.236,4,71,study-abroad.pl,GB,Europe,Northern Europe,United Kingdom,England,Manchester,Manchester
91.108.103.1,4,61,study-plat.com,GB,Europe,Northern Europe,United Kingdom,England,Manchester,Manchester
91.108.103.168,4,21,studyhelpme.com,GB,Europe,Northern Europe,United Kingdom,England,Manchester,Manchester
195.200.9.187,4,60,stunningmotivation.com,GB,Europe,Northern Europe,United Kingdom,England,Manchester,Manchester
89.116.109.250,4,8,styledumonde.com,GB,Europe,Northern Europe,United Kingdom,England,Manchester,Manchester
195.200.9.2,4,7,stylinity.com,GB,Europe,Northern Europe,United Kingdom,England,Manchester,Manchester
141.136.43.235,4,52,successionwiki.co.uk,GB,Europe,Northern Europe,United Kingdom,England,Manchester,Manchester
89.116.109.170,4,19,sudreporter.org,GB,Europe,Northern Europe,United Kingdom,England,Manchester,Manchester
89.116.109.53,4,7,sulabhinternational.org,GB,Europe,Northern Europe,United Kingdom,England,Manchester,Manchester
195.200.9.75,4,4,sultanfirst.com,GB,Europe,Northern Europe,United Kingdom,England,Manchester,Manchester
185.77.97.180,4,19,sumatu.com,GB,Europe,Northern Europe,United Kingdom,England,Manchester,Manchester
141.136.39.231,4,3,sundayassembly.com,GB,Europe,Northern Europe,United Kingdom,England,Manchester,Manchester
185.77.97.124,4,2,sunilkeshari.com,GB,Europe,Northern Europe,United Kingdom,England,Manchester,Manchester
89.116.109.119,4,14,superfurry.com,GB,Europe,Northern Europe,United Kingdom,England,Manchester,Manchester
195.200.9.122,4,41,superhitideas.com,GB,Europe,Northern Europe,United Kingdom,England,Manchester,Manchester
185.77.97.78,4,4,superslot-x.com,GB,Europe,Northern Europe,United Kingdom,England,Manchester,Manchester
91.108.103.160,4,30,supplements.best,GB,Europe,Northern Europe,United Kingdom,England,Manchester,Manchester
185.77.97.193,4,2,supplementstore24x7.com,GB,Europe,Northern Europe,United Kingdom,England,Manchester,Manchester
89.116.109.17,4,29,supportcounselling.com,GB,Europe,Northern Europe,United Kingdom,England,Manchester,Manchester
185.77.97.253,4,20,surgeryzone.net,GB,Europe,Northern Europe,United Kingdom,England,Manchester,Manchester
91.108.103.177,4,11,surveensaniya.com,GB,Europe,Northern Europe,United Kingdom,England,Manchester,Manchester
195.200.9.65,4,12,suskyfishers.com,GB,Europe,Northern Europe,United Kingdom,England,Manchester,Manchester
91.108.103.46,4,11,sustainablereview.com,GB,Europe,Northern Europe,United Kingdom,England,Manchester,Manchester
194.1.147.71,4,8,suttontheguardian.com,GB,Europe,Northern Europe,United Kingdom,England,Manchester,Manchester
89.116.109.131,4,4,swanara.com,GB,Europe,Northern Europe,United Kingdom,England,Manchester,Manchester
195.200.9.1,4,15,swatiloomba.in,GB,Europe,Northern Europe,United Kingdom,England,Manchester,Manchester
185.77.97.229,4,3,swety.co.in,GB,Europe,Northern Europe,United Kingdom,England,Manchester,Manchester
91.108.103.23,4,4,sysqoindia.com,GB,Europe,Northern Europe,United Kingdom,England,Manchester,Manchester
185.77.97.238,4,25,tadalafiltadacip.online,GB,Europe,Northern Europe,United Kingdom,England,Manchester,Manchester
195.200.9.23,4,83,tagmaindia.org,GB,Europe,Northern Europe,United Kingdom,England,Manchester,Manchester
185.77.97.37,4,41,talawaan.id,GB,Europe,Northern Europe,United Kingdom,England,Manchester,Manchester
195.200.9.19,4,22,talentsmaximizer.com,GB,Europe,Northern Europe,United Kingdom,England,Manchester,Manchester
195.200.9.6,4,33,taleof2backpackers.com,GB,Europe,Northern Europe,United Kingdom,England,Manchester,Manchester
195.200.9.61,4,17,talkin.co.ke,GB,Europe,Northern Europe,United Kingdom,England,Manchester,Manchester
185.77.97.245,4,7,tamonline.shop,GB,Europe,Northern Europe,United Kingdom,England,Manchester,Manchester
91.108.103.35,4,40,tapinossteel.com,GB,Europe,Northern Europe,United Kingdom,England,Manchester,Manchester
195.200.9.4,4,2,tasteofsouthern.com,GB,Europe,Northern Europe,United Kingdom,England,Manchester,Manchester
185.77.97.35,4,42,tatianaortiz.com,GB,Europe,Northern Europe,United Kingdom,England,Manchester,Manchester
194.1.147.15,4,4,taxcrisisinstitute.com,GB,Europe,Northern Europe,United Kingdom,England,Manchester,Manchester
154.41.239.42,4,9,taxiweybridge.co.uk,GB,Europe,Northern Europe,United Kingdom,England,Manchester,Manchester
91.108.103.21,4,13,tclotteryvip.net,GB,Europe,Northern Europe,United Kingdom,England,Manchester,Manchester
89.116.109.244,4,58,team100realty.com,GB,Europe,Northern Europe,United Kingdom,England,Manchester,Manchester
194.1.147.69,4,34,teamjapanese.com,GB,Europe,Northern Europe,United Kingdom,England,Manchester,Manchester
91.108.103.108,4,66,techbehindit.com,GB,Europe,Northern Europe,United Kingdom,England,Manchester,Manchester
195.200.9.80,4,55,techbizvibe.com,GB,Europe,Northern Europe,United Kingdom,England,Manchester,Manchester
89.116.109.149,4,4,techclient.com,GB,Europe,Northern Europe,United Kingdom,England,Manchester,Manchester
91.108.103.199,4,40,techembounce.com,GB,Europe,Northern Europe,United Kingdom,England,Manchester,Manchester
195.200.9.70,4,4,techforbess.com,GB,Europe,Northern Europe,United Kingdom,England,Manchester,Manchester
195.200.9.126,4,3,techglobal360.com,GB,Europe,Northern Europe,United Kingdom,England,Manchester,Manchester
89.116.109.178,4,9,techjaja.com,GB,Europe,Northern Europe,United Kingdom,England,Manchester,Manchester
91.108.103.217,4,87,techktimes.co.uk,GB,Europe,Northern Europe,United Kingdom,England,Manchester,Manchester
195.200.9.49,4,22,techmatra.com,GB,Europe,Northern Europe,United Kingdom,England,Manchester,Manchester
195.200.9.3,4,91,techncrypt.com,GB,Europe,Northern Europe,United Kingdom,England,Manchester,Manchester
91.108.103.73,4,84,technew.com.au,GB,Europe,Northern Europe,United Kingdom,England,Manchester,Manchester
195.200.9.13,4,84,technewsbusiness.com,GB,Europe,Northern Europe,United Kingdom,England,Manchester,Manchester
91.108.103.119,4,16,technobuzz.net,GB,Europe,Northern Europe,United Kingdom,England,Manchester,Manchester
195.200.9.108,4,8,technocio.com,GB,Europe,Northern Europe,United Kingdom,England,Manchester,Manchester
89.116.109.189,4,6,technoexpertise.com,GB,Europe,Northern Europe,United Kingdom,England,Manchester,Manchester
77.37.34.62,4,60,technologi.site,GB,Europe,Northern Europe,United Kingdom,England,Manchester,Manchester
91.108.103.175,4,80,technologytimes.pk,GB,Europe,Northern Europe,United Kingdom,England,Manchester,Manchester
91.108.103.116,4,11,technorj.com,GB,Europe,Northern Europe,United Kingdom,England,Manchester,Manchester
89.116.109.88,4,16,techrepost.com,GB,Europe,Northern Europe,United Kingdom,England,Manchester,Manchester
185.77.97.254,4,26,techsprohub.com,GB,Europe,Northern Europe,United Kingdom,England,Manchester,Manchester
185.77.97.105,4,15,techsupportall.com,GB,Europe,Northern Europe,United Kingdom,England,Manchester,Manchester
91.108.103.86,4,99,techyin.org,GB,Europe,Northern Europe,United Kingdom,England,Manchester,Manchester
31.220.106.244,4,7,techzeel.net,GB,Europe,Northern Europe,United Kingdom,England,Manchester,Manchester
89.116.109.117,4,45,tecnologia-informatica.com,GB,Europe,Northern Europe,United Kingdom,England,Manchester,Manchester
194.1.147.43,4,17,ted-ielts.com,GB,Europe,Northern Europe,United Kingdom,England,Manchester,Manchester
141.136.33.55,4,4,tefwins.com,GB,Europe,Northern Europe,United Kingdom,England,Manchester,Manchester
195.200.9.97,4,2,teleinfocenter.com,GB,Europe,Northern Europe,United Kingdom,England,Manchester,Manchester
185.77.97.241,4,42,telesystem.com.pl,GB,Europe,Northern Europe,United Kingdom,England,Manchester,Manchester
91.108.103.40,4,10,tembusulaw.com,GB,Europe,Northern Europe,United Kingdom,England,Manchester,Manchester
195.200.9.92,4,58,templatedata.net,GB,Europe,Northern Europe,United Kingdom,England,Manchester,Manchester
195.200.9.79,4,38,tempobet.fun,GB,Europe,Northern Europe,United Kingdom,England,Manchester,Manchester
89.116.109.185,4,63,teplica-parnik.net,GB,Europe,Northern Europe,United Kingdom,England,Manchester,Manchester
2.22.228.106,4,10,tessuti.co.uk,GB,Europe,Northern Europe,United Kingdom,England,Manchester,Manchester
77.37.37.15,4,3,testrigtechnologies.com,GB,Europe,Northern Europe,United Kingdom,England,Manchester,Manchester
185.77.97.30,4,2,thaibeer.com,GB,Europe,Northern Europe,United Kingdom,England,Manchester,Manchester
89.116.109.254,4,9,thccentralvapestore.co.uk,GB,Europe,Northern Europe,United Kingdom,England,Manchester,Manchester
91.108.103.162,4,4,the-investor.net,GB,Europe,Northern Europe,United Kingdom,England,Manchester,Manchester
89.116.109.172,4,5,thearchdigest.com,GB,Europe,Northern Europe,United Kingdom,England,Manchester,Manchester
91.108.103.79,4,5,theassignmenthelp.co.nz,GB,Europe,Northern Europe,United Kingdom,England,Manchester,Manchester
89.116.109.169,4,4,thebeautyst.com,GB,Europe,Northern Europe,United Kingdom,England,Manchester,Manchester
91.108.103.181,4,6,thebigblogs.com,GB,Europe,Northern Europe,United Kingdom,England,Manchester,Manchester
185.77.97.27,4,24,thebranchlocator.com,GB,Europe,Northern Europe,United Kingdom,England,Manchester,Manchester
195.200.9.167,4,4,thecheeryhome.com,GB,Europe,Northern Europe,United Kingdom,England,Manchester,Manchester
153.92.6.137,4,3,thecrownchronicles.co.uk,GB,Europe,Northern Europe,United Kingdom,England,Manchester,Manchester
89.116.109.165,4,29,thecurrent.pk,GB,Europe,Northern Europe,United Kingdom,England,Manchester,Manchester
185.77.97.249,4,3,thedailybiography.com,GB,Europe,Northern Europe,United Kingdom,England,Manchester,Manchester
77.37.37.223,4,5,thedanipost.com,GB,Europe,Northern Europe,United Kingdom,England,Manchester,Manchester
89.116.109.85,4,5,thedeadlines.net,GB,Europe,Northern Europe,United Kingdom,England,Manchester,Manchester
31.220.106.178,4,15,thedigitalglitch.com,GB,Europe,Northern Europe,United Kingdom,England,Manchester,Manchester
195.200.9.60,4,6,thedoctorwhocompanion.com,GB,Europe,Northern Europe,United Kingdom,England,Manchester,Manchester
185.77.97.172,4,16,theeducationmagazine.com,GB,Europe,Northern Europe,United Kingdom,England,Manchester,Manchester
154.41.238.136,4,4,theefficienthomeforum.co.uk,GB,Europe,Northern Europe,United Kingdom,England,Manchester,Manchester
185.77.97.140,4,19,theenterpriseworld.com,GB,Europe,Northern Europe,United Kingdom,England,Manchester,Manchester
185.77.97.73,4,19,thefamouscelebrity.com,GB,Europe,Northern Europe,United Kingdom,England,Manchester,Manchester
195.200.9.143,4,22,thefashioncounty.com,GB,Europe,Northern Europe,United Kingdom,England,Manchester,Manchester
89.116.109.150,4,9,thegeeksclub.com,GB,Europe,Northern Europe,United Kingdom,England,Manchester,Manchester
89.116.109.4,4,4,thegoodgoods.fr,GB,Europe,Northern Europe,United Kingdom,England,Manchester,Manchester
89.116.109.69,4,4,thegratifiedblog.com,GB,Europe,Northern Europe,United Kingdom,England,Manchester,Manchester
194.36.187.57,4,3,thehappypear.ie,GB,Europe,Northern Europe,United Kingdom,England,Manchester,Manchester
185.77.97.154,4,6,thehdroom.com,GB,Europe,Northern Europe,United Kingdom,England,Manchester,Manchester
89.116.109.123,4,3,thehistoryville.com,GB,Europe,Northern Europe,United Kingdom,England,Manchester,Manchester
91.108.103.170,4,2,thehumanbehaviour.com,GB,Europe,Northern Europe,United Kingdom,England,Manchester,Manchester
89.116.109.0,4,3,theindianalert.com,GB,Europe,Northern Europe,United Kingdom,England,Manchester,Manchester
185.77.97.135,4,3,thekeylab.co.uk,GB,Europe,Northern Europe,United Kingdom,England,Manchester,Manchester
195.200.9.243,4,2,thekoreanace.kr,GB,Europe,Northern Europe,United Kingdom,England,Manchester,Manchester
194.1.147.89,4,10,thelanote.com,GB,Europe,Northern Europe,United Kingdom,England,Manchester,Manchester
91.108.103.14,4,15,thelazyposter.com,GB,Europe,Northern Europe,United Kingdom,England,Manchester,Manchester
91.90.121.242,4,3,thelinkup.com,GB,Europe,Northern Europe,United Kingdom,England,Manchester,Manchester
195.200.9.172,4,2,thelocalreport.in,GB,Europe,Northern Europe,United Kingdom,England,Manchester,Manchester
194.1.147.45,4,1,themamazone.com,GB,Europe,Northern Europe,United Kingdom,England,Manchester,Manchester
195.200.9.15,4,9,themexriver.com,GB,Europe,Northern Europe,United Kingdom,England,Manchester,Manchester
185.77.97.25,4,3,themoviesboss.com,GB,Europe,Northern Europe,United Kingdom,England,Manchester,Manchester
185.77.97.67,4,5,thenewsbrick.com,GB,Europe,Northern Europe,United Kingdom,England,Manchester,Manchester
91.108.103.8,4,4,thenewspublicist.com,GB,Europe,Northern Europe,United Kingdom,England,Manchester,Manchester
217.21.70.17,4,63,theofennell.com,GB,Europe,Northern Europe,United Kingdom,England,Manchester,Manchester
89.116.109.16,4,2,theoir.kr,GB,Europe,Northern Europe,United Kingdom,England,Manchester,Manchester
31.220.106.5,4,27,theorthoshop.co.ke,GB,Europe,Northern Europe,United Kingdom,England,Manchester,Manchester
185.77.97.197,4,5,thepanthertech.com,GB,Europe,Northern Europe,United Kingdom,England,Manchester,Manchester
91.108.103.0,4,57,thepressunited.com,GB,Europe,Northern Europe,United Kingdom,England,Manchester,Manchester
89.116.109.108,4,9,thepwater.com,GB,Europe,Northern Europe,United Kingdom,England,Manchester,Manchester
91.108.103.207,4,4,therahnuma.com,GB,Europe,Northern Europe,United Kingdom,England,Manchester,Manchester
195.200.9.238,4,3,thereviewstories.com,GB,Europe,Northern Europe,United Kingdom,England,Manchester,Manchester
194.11.154.201,4,30,therupeeroom.com,GB,Europe,Northern Europe,United Kingdom,England,Manchester,Manchester
91.108.103.65,4,3,thesciencepolicyforum.org,GB,Europe,Northern Europe,United Kingdom,England,Manchester,Manchester
195.200.9.202,4,10,thesecondangle.com,GB,Europe,Northern Europe,United Kingdom,England,Manchester,Manchester
195.35.51.144,4,7,theseo.cc,GB,Europe,Northern Europe,United Kingdom,England,Manchester,Manchester
91.108.103.123,4,15,thesketchytraveller.com,GB,Europe,Northern Europe,United Kingdom,England,Manchester,Manchester
194.1.147.83,4,6,theskigirl.com,GB,Europe,Northern Europe,United Kingdom,England,Manchester,Manchester
195.200.9.219,4,4,thesmartcookieblog.com,GB,Europe,Northern Europe,United Kingdom,England,Manchester,Manchester
195.200.9.151,4,5,thestudenthelpline.co.in,GB,Europe,Northern Europe,United Kingdom,England,Manchester,Manchester
195.200.9.221,4,23,thestudenthelpline.io,GB,Europe,Northern Europe,United Kingdom,England,Manchester,Manchester
89.116.109.22,4,3,thesupercarblog.com,GB,Europe,Northern Europe,United Kingdom,England,Manchester,Manchester
194.1.147.63,4,43,thesweetbits.com,GB,Europe,Northern Europe,United Kingdom,England,Manchester,Manchester
195.200.9.77,4,11,thetaxtalk.com,GB,Europe,Northern Europe,United Kingdom,England,Manchester,Manchester
91.108.103.94,4,2,theukwebdesigncompany.com,GB,Europe,Northern Europe,United Kingdom,England,Manchester,Manchester
91.108.103.251,4,4,theurbanwire.com,GB,Europe,Northern Europe,United Kingdom,England,Manchester,Manchester
89.116.109.82,4,17,thevetclinic.co.nz,GB,Europe,Northern Europe,United Kingdom,England,Manchester,Manchester
194.1.147.98,4,29,thewaterfrontrestaurant.net,GB,Europe,Northern Europe,United Kingdom,England,Manchester,Manchester
195.200.9.195,4,11,thewinetravels.com,GB,Europe,Northern Europe,United Kingdom,England,Manchester,Manchester
91.108.103.174,4,35,thewitness.org,GB,Europe,Northern Europe,United Kingdom,England,Manchester,Manchester
194.1.147.64,4,4,theworldwasherefirst.com,GB,Europe,Northern Europe,United Kingdom,England,Manchester,Manchester
185.77.97.174,4,10,thewowdecor.com,GB,Europe,Northern Europe,United Kingdom,England,Manchester,Manchester
195.200.9.229,4,7,thewowstyle.com,GB,Europe,Northern Europe,United Kingdom,England,Manchester,Manchester
195.200.9.228,4,18,thexube.com,GB,Europe,Northern Europe,United Kingdom,England,Manchester,Manchester
77.37.34.55,4,9,thoughteconomics.com,GB,Europe,Northern Europe,United Kingdom,England,Manchester,Manchester
91.108.103.75,4,47,tigerworks.org,GB,Europe,Northern Europe,United Kingdom,England,Manchester,Manchester
195.200.9.146,4,20,timetable-result.com,GB,Europe,Northern Europe,United Kingdom,England,Manchester,Manchester
195.200.9.98,4,4,tjells.com,GB,Europe,Northern Europe,United Kingdom,England,Manchester,Manchester
89.116.109.155,4,2,tlwastoria.com,GB,Europe,Northern Europe,United Kingdom,England,Manchester,Manchester
81.181.108.55,4,-2651282,tmeter.ru,GB,Europe,Northern Europe,United Kingdom,England,Manchester,Manchester
194.1.147.30,4,10,todayuknews.com,GB,Europe,Northern Europe,United Kingdom,England,Manchester,Manchester
195.200.9.121,4,50,todomusica.org,GB,Europe,Northern Europe,United Kingdom,England,Manchester,Manchester
194.1.147.17,4,4,tokenist.com,GB,Europe,Northern Europe,United Kingdom,England,Manchester,Manchester
91.108.103.6,4,22,toolerguru.com,GB,Europe,Northern Europe,United Kingdom,England,Manchester,Manchester
195.200.9.28,4,17,tooslick.com,GB,Europe,Northern Europe,United Kingdom,England,Manchester,Manchester
91.108.103.141,4,26,top10-casino-affiliate-programs.com,GB,Europe,Northern Europe,United Kingdom,England,Manchester,Manchester
185.77.97.57,4,58,top10casinoreview.com,GB,Europe,Northern Europe,United Kingdom,England,Manchester,Manchester
195.200.9.223,4,20,top10ketoproducts.com,GB,Europe,Northern Europe,United Kingdom,England,Manchester,Manchester
89.116.109.104,4,7,top888casino.com,GB,Europe,Northern Europe,United Kingdom,England,Manchester,Manchester
91.108.103.58,4,41,toparalen.com,GB,Europe,Northern Europe,United Kingdom,England,Manchester,Manchester
89.116.109.107,4,20,topbambooproducts.com,GB,Europe,Northern Europe,United Kingdom,England,Manchester,Manchester
185.77.97.113,4,4,topcashforcarscanberra.com.au,GB,Europe,Northern Europe,United Kingdom,England,Manchester,Manchester
195.35.51.158,4,48,topchoicedrivingschool.com,GB,Europe,Northern Europe,United Kingdom,England,Manchester,Manchester
195.200.9.217,4,8,topdealsontheweb.com,GB,Europe,Northern Europe,United Kingdom,England,Manchester,Manchester
185.77.97.106,4,22,topgamble.kr,GB,Europe,Northern Europe,United Kingdom,England,Manchester,Manchester
89.116.109.86,4,28,topgirlsfun.in,GB,Europe,Northern Europe,United Kingdom,England,Manchester,Manchester
91.108.103.164,4,25,topmumbaiescorts.net,GB,Europe,Northern Europe,United Kingdom,England,Manchester,Manchester
195.200.9.213,4,26,topsalbutamol.com,GB,Europe,Northern Europe,United Kingdom,England,Manchester,Manchester
185.77.97.159,4,5,torajadaily.com,GB,Europe,Northern Europe,United Kingdom,England,Manchester,Manchester
91.108.103.167,4,9,toshow.us,GB,Europe,Northern Europe,United Kingdom,England,Manchester,Manchester
91.108.103.45,4,6,toto990.com,GB,Europe,Northern Europe,United Kingdom,England,Manchester,Manchester
89.116.109.12,4,3,totoblogs.com,GB,Europe,Northern Europe,United Kingdom,England,Manchester,Manchester
91.108.103.7,4,8,totoegg.com,GB,Europe,Northern Europe,United Kingdom,England,Manchester,Manchester
91.108.103.83,4,30,toubkal-trekking.com,GB,Europe,Northern Europe,United Kingdom,England,Manchester,Manchester
89.116.109.167,4,5,towin.co.kr,GB,Europe,Northern Europe,United Kingdom,England,Manchester,Manchester
89.116.109.2,4,7,tpplay.co.in,GB,Europe,Northern Europe,United Kingdom,England,Manchester,Manchester
91.108.103.139,4,6,tpplay.net,GB,Europe,Northern Europe,United Kingdom,England,Manchester,Manchester
89.116.109.198,4,3,tradeimex.in,GB,Europe,Northern Europe,United Kingdom,England,Manchester,Manchester
195.200.9.124,4,19,traders-choice.com,GB,Europe,Northern Europe,United Kingdom,England,Manchester,Manchester
89.116.109.58,4,13,tramitesdemexico.info,GB,Europe,Northern Europe,United Kingdom,England,Manchester,Manchester
185.77.97.127,4,19,transferclubmedtrancoso.com.br,GB,Europe,Northern Europe,United Kingdom,England,Manchester,Manchester
194.1.147.46,4,18,transhealthcare.org,GB,Europe,Northern Europe,United Kingdom,England,Manchester,Manchester
185.77.97.148,4,37,travel-tm.com,GB,Europe,Northern Europe,United Kingdom,England,Manchester,Manchester
194.1.147.14,4,1,traveldrafts.com,GB,Europe,Northern Europe,United Kingdom,England,Manchester,Manchester
185.77.97.104,4,5,travelguidebook.org,GB,Europe,Northern Europe,United Kingdom,England,Manchester,Manchester
195.200.9.83,4,23,travelingvacation.com,GB,Europe,Northern Europe,United Kingdom,England,Manchester,Manchester
194.1.147.82,4,35,travellady.com,GB,Europe,Northern Europe,United Kingdom,England,Manchester,Manchester
89.116.109.173,4,25,travellingjezebel.com,GB,Europe,Northern Europe,United Kingdom,England,Manchester,Manchester
89.116.109.42,4,31,travelnotes.org,GB,Europe,Northern Europe,United Kingdom,England,Manchester,Manchester
195.200.9.105,4,21,travelsinsight.com,GB,Europe,Northern Europe,United Kingdom,England,Manchester,Manchester
91.108.103.237,4,4,travobravo.com,GB,Europe,Northern Europe,United Kingdom,England,Manchester,Manchester
185.77.97.64,4,7,trendonex.com,GB,Europe,Northern Europe,United Kingdom,England,Manchester,Manchester
89.116.109.140,4,12,trendytarzen.com,GB,Europe,Northern Europe,United Kingdom,England,Manchester,Manchester
195.200.9.214,4,13,tresind.com,GB,Europe,Northern Europe,United Kingdom,England,Manchester,Manchester
185.77.97.42,4,8,tresindstudio.com,GB,Europe,Northern Europe,United Kingdom,England,Manchester,Manchester
91.108.103.191,4,39,tribpub.info,GB,Europe,Northern Europe,United Kingdom,England,Manchester,Manchester
194.11.154.230,4,26,trinityrestaurant.co.uk,GB,Europe,Northern Europe,United Kingdom,England,Manchester,Manchester
185.77.97.18,4,41,trippyshrooms.shop,GB,Europe,Northern Europe,United Kingdom,England,Manchester,Manchester
194.1.147.34,4,104,tropicalsnorkeling.com,GB,Europe,Northern Europe,United Kingdom,England,Manchester,Manchester
194.1.147.58,4,10,truckdriverssalary.com,GB,Europe,Northern Europe,United Kingdom,England,Manchester,Manchester
195.200.9.165,4,23,trucknoww.com,GB,Europe,Northern Europe,United Kingdom,England,Manchester,Manchester
91.108.103.76,4,4,trustfirms.com,GB,Europe,Northern Europe,United Kingdom,England,Manchester,Manchester
89.116.109.83,4,8,truthunmuted.org,GB,Europe,Northern Europe,United Kingdom,England,Manchester,Manchester
89.116.109.232,4,4,tt-hardware.com,GB,Europe,Northern Europe,United Kingdom,England,Manchester,Manchester
89.116.109.87,4,4,tubebox.pl,GB,Europe,Northern Europe,United Kingdom,England,Manchester,Manchester
91.108.103.213,4,34,turismochipiona.es,GB,Europe,Northern Europe,United Kingdom,England,Manchester,Manchester
194.1.147.37,4,13,turnbacktogod.com,GB,Europe,Northern Europe,United Kingdom,England,Manchester,Manchester
185.77.97.192,4,3,turtlequote.com,GB,Europe,Northern Europe,United Kingdom,England,Manchester,Manchester
89.116.109.212,4,4,tvshowsdaily.com,GB,Europe,Northern Europe,United Kingdom,England,Manchester,Manchester
195.200.9.251,4,3,tvshowstars.com,GB,Europe,Northern Europe,United Kingdom,England,Manchester,Manchester
91.108.103.70,4,2,tweet247.net,GB,Europe,Northern Europe,United Kingdom,England,Manchester,Manchester
141.136.33.118,4,13,twinlinx.com,GB,Europe,Northern Europe,United Kingdom,England,Manchester,Manchester
91.108.103.163,4,15,twistpedia.com,GB,Europe,Northern Europe,United Kingdom,England,Manchester,Manchester
185.77.97.136,4,14,twm.news,GB,Europe,Northern Europe,United Kingdom,England,Manchester,Manchester
195.200.9.117,4,5,ty888.live,GB,Europe,Northern Europe,United Kingdom,England,Manchester,Manchester
195.200.9.176,4,3,tycoonworld.in,GB,Europe,Northern Europe,United Kingdom,England,Manchester,Manchester
77.37.37.89,4,2,tyjcck.com,GB,Europe,Northern Europe,United Kingdom,England,Manchester,Manchester
91.108.103.78,4,4,typorganism.com,GB,Europe,Northern Europe,United Kingdom,England,Manchester,Manchester
91.108.103.25,4,15,u2c.tv,GB,Europe,Northern Europe,United Kingdom,England,Manchester,Manchester
185.77.97.202,4,19,ugandasafaritour.com,GB,Europe,Northern Europe,United Kingdom,England,Manchester,Manchester
185.77.97.75,4,4,ui-lib.com,GB,Europe,Northern Europe,United Kingdom,England,Manchester,Manchester
154.56.35.72,4,19,ukassignmentservice.uk,GB,Europe,Northern Europe,United Kingdom,England,Manchester,Manchester
141.136.39.138,4,1,ukdissertationwriting.co.uk,GB,Europe,Northern Europe,United Kingdom,England,Manchester,Manchester
195.200.9.76,4,30,ukrsmeta.ua,GB,Europe,Northern Europe,United Kingdom,England,Manchester,Manchester
89.116.109.161,4,2,ultimatewirelesssolutions.com,GB,Europe,Northern Europe,United Kingdom,England,Manchester,Manchester
185.77.97.222,4,26,umeacademy.com,GB,Europe,Northern Europe,United Kingdom,England,Manchester,Manchester
194.1.147.61,4,11,umhs-sk.org,GB,Europe,Northern Europe,United Kingdom,England,Manchester,Manchester
185.77.97.196,4,12,umsrappang.ac.id,GB,Europe,Northern Europe,United Kingdom,England,Manchester,Manchester
91.108.103.185,4,15,uncommongroundmedia.com,GB,Europe,Northern Europe,United Kingdom,England,Manchester,Manchester
195.200.9.184,4,39,understandingnano.com,GB,Europe,Northern Europe,United Kingdom,England,Manchester,Manchester
89.116.109.147,4,4,undress-ai.cc,GB,Europe,Northern Europe,United Kingdom,England,Manchester,Manchester
89.116.109.111,4,3,undress-app.love,GB,Europe,Northern Europe,United Kingdom,England,Manchester,Manchester
185.77.97.122,4,8,undressai.tech,GB,Europe,Northern Europe,United Kingdom,England,Manchester,Manchester
185.77.97.181,4,4,undressher.us,GB,Europe,Northern Europe,United Kingdom,England,Manchester,Manchester
89.116.109.144,4,24,ungdungtotnhat.com,GB,Europe,Northern Europe,United Kingdom,England,Manchester,Manchester
185.77.97.21,4,3,unicaveiculos.com,GB,Europe,Northern Europe,United Kingdom,England,Manchester,Manchester
195.200.9.42,4,24,uniquelogodesigns.com,GB,Europe,Northern Europe,United Kingdom,England,Manchester,Manchester
185.77.97.211,4,3,unis.ac.id,GB,Europe,Northern Europe,United Kingdom,England,Manchester,Manchester
195.200.9.18,4,9,unismuhpalu.ac.id,GB,Europe,Northern Europe,United Kingdom,England,Manchester,Manchester
91.108.103.98,4,6,unitedtheme.com,GB,Europe,Northern Europe,United Kingdom,England,Manchester,Manchester
195.200.9.123,4,32,universalestetic.com,GB,Europe,Northern Europe,United Kingdom,England,Manchester,Manchester
89.116.109.183,4,59,universeconferences.com,GB,Europe,Northern Europe,United Kingdom,England,Manchester,Manchester
195.200.9.246,4,18,unlimitedhangout.com,GB,Europe,Northern Europe,United Kingdom,England,Manchester,Manchester
195.200.9.94,4,5,updatedideas.com,GB,Europe,Northern Europe,United Kingdom,England,Manchester,Manchester
89.116.109.230,4,8,updateordie.com,GB,Europe,Northern Europe,United Kingdom,England,Manchester,Manchester
89.116.109.94,4,25,upstockphoto.com,GB,Europe,Northern Europe,United Kingdom,England,Manchester,Manchester
91.108.103.33,4,5,upuge.com,GB,Europe,Northern Europe,United Kingdom,England,Manchester,Manchester
194.1.147.86,4,13,urbanorganicyield.com,GB,Europe,Northern Europe,United Kingdom,England,Manchester,Manchester
89.116.109.109,4,3,uromexilforte.online,GB,Europe,Northern Europe,United Kingdom,England,Manchester,Manchester
89.116.109.142,4,7,usabadminton.org,GB,Europe,Northern Europe,United Kingdom,England,Manchester,Manchester
153.92.7.21,4,2,usastreams.com,GB,Europe,Northern Europe,United Kingdom,England,Manchester,Manchester
185.77.97.243,4,17,usb.edu.co,GB,Europe,Northern Europe,United Kingdom,England,Manchester,Manchester
91.108.103.101,4,3,usezmart.com,GB,Europe,Northern Europe,United Kingdom,England,Manchester,Manchester
195.200.9.12,4,11,ushsfootball.com,GB,Europe,Northern Europe,United Kingdom,England,Manchester,Manchester
185.77.97.112,4,17,ustaxreview.org,GB,Europe,Northern Europe,United Kingdom,England,Manchester,Manchester
195.200.9.189,4,4,ustechtime.com,GB,Europe,Northern Europe,United Kingdom,England,Manchester,Manchester
91.108.103.30,4,4,uvas.edu.pk,GB,Europe,Northern Europe,United Kingdom,England,Manchester,Manchester
185.77.97.203,4,17,vaagmeestores.com,GB,Europe,Northern Europe,United Kingdom,England,Manchester,Manchester
195.200.9.169,4,18,vaartha.com,GB,Europe,Northern Europe,United Kingdom,England,Manchester,Manchester
195.200.9.127,4,2,vaidebet.top,GB,Europe,Northern Europe,United Kingdom,England,Manchester,Manchester
89.116.109.11,4,4,vaillyaviation.com,GB,Europe,Northern Europe,United Kingdom,England,Manchester,Manchester
141.136.39.147,4,20,vakantiehuiswinkel.nl,GB,Europe,Northern Europe,United Kingdom,England,Manchester,Manchester
185.77.97.86,4,19,valealternativo.com.br,GB,Europe,Northern Europe,United Kingdom,England,Manchester,Manchester
194.1.147.29,4,3,vanmaritime.com,GB,Europe,Northern Europe,United Kingdom,England,Manchester,Manchester
194.1.147.81,4,4,vapeshowcase.com,GB,Europe,Northern Europe,United Kingdom,England,Manchester,Manchester
153.92.6.217,4,3,vardandentalclinic.com,GB,Europe,Northern Europe,United Kingdom,England,Manchester,Manchester
89.116.109.175,4,8,vatsalyamamta.in,GB,Europe,Northern Europe,United Kingdom,England,Manchester,Manchester
91.108.103.87,4,16,vaunte.com,GB,Europe,Northern Europe,United Kingdom,England,Manchester,Manchester
195.200.9.73,4,4,vecherka.tj,GB,Europe,Northern Europe,United Kingdom,England,Manchester,Manchester
194.1.147.42,4,6,vectronicsappleworld.com,GB,Europe,Northern Europe,United Kingdom,England,Manchester,Manchester
195.200.9.175,4,12,vedicology.com,GB,Europe,Northern Europe,United Kingdom,England,Manchester,Manchester
185.77.97.126,4,10,vedicologyindia.com,GB,Europe,Northern Europe,United Kingdom,England,Manchester,Manchester
194.1.147.52,4,54,vegaschamber.com,GB,Europe,Northern Europe,United Kingdom,England,Manchester,Manchester
195.200.9.234,4,10,venstersystems.com,GB,Europe,Northern Europe,United Kingdom,England,Manchester,Manchester
195.200.9.254,4,3,vergiamerika.com,GB,Europe,Northern Europe,United Kingdom,England,Manchester,Manchester
89.116.109.63,4,5,vesochieuxo.org,GB,Europe,Northern Europe,United Kingdom,England,Manchester,Manchester
185.77.97.0,4,93,veteranstodayarchives.com,GB,Europe,Northern Europe,United Kingdom,England,Manchester,Manchester
194.1.147.59,4,24,veteransyogaproject.org,GB,Europe,Northern Europe,United Kingdom,England,Manchester,Manchester
195.200.9.222,4,47,vezlay.com,GB,Europe,Northern Europe,United Kingdom,England,Manchester,Manchester
89.116.109.166,4,36,vibratorshowtobuy.com,GB,Europe,Northern Europe,United Kingdom,England,Manchester,Manchester
91.108.103.72,4,33,vidasproductivas.org,GB,Europe,Northern Europe,United Kingdom,England,Manchester,Manchester
194.36.184.3,4,59,vietnamembassy.org.uk,GB,Europe,Northern Europe,United Kingdom,England,Manchester,Manchester
89.116.109.202,4,6,vietnamplayboy.com,GB,Europe,Northern Europe,United Kingdom,England,Manchester,Manchester
91.108.103.234,4,10,villagepipol.com,GB,Europe,Northern Europe,United Kingdom,England,Manchester,Manchester
195.200.9.130,4,47,vinsfertility.com,GB,Europe,Northern Europe,United Kingdom,England,Manchester,Manchester
89.116.109.49,4,12,vipjaipurescort.com,GB,Europe,Northern Europe,United Kingdom,England,Manchester,Manchester
185.77.97.12,4,40,virtualpsy.org,GB,Europe,Northern Europe,United Kingdom,England,Manchester,Manchester
194.1.147.27,4,3,viruspup.com,GB,Europe,Northern Europe,United Kingdom,England,Manchester,Manchester
91.108.103.91,4,51,visatrauli.co.in,GB,Europe,Northern Europe,United Kingdom,England,Manchester,Manchester
185.77.97.49,4,2,vistasadindia.com,GB,Europe,Northern Europe,United Kingdom,England,Manchester,Manchester
185.77.97.103,4,57,vistosi.it,GB,Europe,Northern Europe,United Kingdom,England,Manchester,Manchester
195.200.9.207,4,16,vitalityhrt.com,GB,Europe,Northern Europe,United Kingdom,England,Manchester,Manchester
195.200.9.211,4,13,vividplum.com,GB,Europe,Northern Europe,United Kingdom,England,Manchester,Manchester
141.136.34.120,4,17,vivoes.com,GB,Europe,Northern Europe,United Kingdom,England,Manchester,Manchester
89.116.109.30,4,5,vivorio.com.br,GB,Europe,Northern Europe,United Kingdom,England,Manchester,Manchester
91.108.103.126,4,1,vjti.ac.in,GB,Europe,Northern Europe,United Kingdom,England,Manchester,Manchester
91.108.103.63,4,3,vms-plnindonesiapower.co.id,GB,Europe,Northern Europe,United Kingdom,England,Manchester,Manchester
185.77.97.218,4,62,vnhoi.com,GB,Europe,Northern Europe,United Kingdom,England,Manchester,Manchester
31.220.106.237,4,14,vojta.com.pl,GB,Europe,Northern Europe,United Kingdom,England,Manchester,Manchester
194.1.147.62,4,35,volleyballvault.com,GB,Europe,Northern Europe,United Kingdom,England,Manchester,Manchester
194.1.147.54,4,7,volleyballvault.com,GB,Europe,Northern Europe,United Kingdom,England,Manchester,Manchester
194.1.147.41,4,31,voltcave.com,GB,Europe,Northern Europe,United Kingdom,England,Manchester,Manchester
194.1.147.5,4,54,vonsponneck.tv,GB,Europe,Northern Europe,United Kingdom,England,Manchester,Manchester
195.200.9.0,4,21,vougemagazine.in,GB,Europe,Northern Europe,United Kingdom,England,Manchester,Manchester
91.108.103.66,4,4,vr-insight.in,GB,Europe,Northern Europe,United Kingdom,England,Manchester,Manchester
195.200.9.171,4,23,vwhiteskin.co.kr,GB,Europe,Northern Europe,United Kingdom,England,Manchester,Manchester
91.108.103.28,4,9,w2weeddelivery.com,GB,Europe,Northern Europe,United Kingdom,England,Manchester,Manchester
31.220.106.132,4,8,w3bits.com,GB,Europe,Northern Europe,United Kingdom,England,Manchester,Manchester
195.200.9.155,4,6,w6rec.com,GB,Europe,Northern Europe,United Kingdom,England,Manchester,Manchester
195.200.9.39,4,24,w88th.bet,GB,Europe,Northern Europe,United Kingdom,England,Manchester,Manchester
185.77.97.235,4,2,w88thailand.net,GB,Europe,Northern Europe,United Kingdom,England,Manchester,Manchester
89.116.109.200,4,3,wa-web.cloud,GB,Europe,Northern Europe,United Kingdom,England,Manchester,Manchester
195.200.9.9,4,8,wacnz2023.com,GB,Europe,Northern Europe,United Kingdom,England,Manchester,Manchester
89.116.109.214,4,4,wallpanel-machine.com,GB,Europe,Northern Europe,United Kingdom,England,Manchester,Manchester
185.77.97.232,4,2,wallpapers13.com,GB,Europe,Northern Europe,United Kingdom,England,Manchester,Manchester
89.116.109.251,4,5,waltherarm.com,GB,Europe,Northern Europe,United Kingdom,England,Manchester,Manchester
185.77.97.98,4,7,wanderingourworld.com,GB,Europe,Northern Europe,United Kingdom,England,Manchester,Manchester
89.116.109.95,4,5,waterandwastewater.com,GB,Europe,Northern Europe,United Kingdom,England,Manchester,Manchester
194.1.147.32,4,23,waterheaterhub.com,GB,Europe,Northern Europe,United Kingdom,England,Manchester,Manchester
141.136.43.27,4,3,watertreatmentsdsm.com,GB,Europe,Northern Europe,United Kingdom,England,Manchester,Manchester
194.1.147.53,4,3,waxpackgods.com,GB,Europe,Northern Europe,United Kingdom,England,Manchester,Manchester
194.1.147.88,4,3,waytostay.com,GB,Europe,Northern Europe,United Kingdom,England,Manchester,Manchester
89.116.109.40,4,4,wazambacassino.top,GB,Europe,Northern Europe,United Kingdom,England,Manchester,Manchester
89.116.109.160,4,5,wchsmo.org,GB,Europe,Northern Europe,United Kingdom,England,Manchester,Manchester
195.200.9.177,4,4,wealcoder.com,GB,Europe,Northern Europe,United Kingdom,England,Manchester,Manchester
89.116.109.75,4,32,wealthgist.com,GB,Europe,Northern Europe,United Kingdom,England,Manchester,Manchester
89.116.109.120,4,14,wealthycelebrity.com,GB,Europe,Northern Europe,United Kingdom,England,Manchester,Manchester
185.77.97.224,4,4,wearenotfoodies.com,GB,Europe,Northern Europe,United Kingdom,England,Manchester,Manchester
195.200.8.230,4,24,web3matrix.com,GB,Europe,Northern Europe,United Kingdom,England,Manchester,Manchester
185.77.97.87,4,27,webbschools.org,GB,Europe,Northern Europe,United Kingdom,England,Manchester,Manchester
185.77.97.68,4,16,webech.net,GB,Europe,Northern Europe,United Kingdom,England,Manchester,Manchester
89.116.109.228,4,33,webfrance.com,GB,Europe,Northern Europe,United Kingdom,England,Manchester,Manchester
185.77.97.74,4,34,webgarden.es,GB,Europe,Northern Europe,United Kingdom,England,Manchester,Manchester
194.1.147.50,4,32,webhostingprof.com,GB,Europe,Northern Europe,United Kingdom,England,Manchester,Manchester
194.1.147.74,4,14,webhostingprof.com,GB,Europe,Northern Europe,United Kingdom,England,Manchester,Manchester
89.116.109.177,4,16,weblogawards.org,GB,Europe,Northern Europe,United Kingdom,England,Manchester,Manchester
194.1.147.66,4,28,webresourcesdepot.com,GB,Europe,Northern Europe,United Kingdom,England,Manchester,Manchester
185.77.97.10,4,4,websolutioncentre.com,GB,Europe,Northern Europe,United Kingdom,England,Manchester,Manchester
185.77.97.72,4,10,webtend.net,GB,Europe,Northern Europe,United Kingdom,England,Manchester,Manchester
195.200.9.115,4,8,wedevstudios.com,GB,Europe,Northern Europe,United Kingdom,England,Manchester,Manchester
194.1.147.47,4,20,weedbonn.org,GB,Europe,Northern Europe,United Kingdom,England,Manchester,Manchester
194.1.147.39,4,4,weedbonn.org,GB,Europe,Northern Europe,United Kingdom,England,Manchester,Manchester
195.200.9.224,4,2,weerstationkempen.be,GB,Europe,Northern Europe,United Kingdom,England,Manchester,Manchester
185.77.97.50,4,3,welovecatsandkittens.com,GB,Europe,Northern Europe,United Kingdom,England,Manchester,Manchester
91.108.103.149,4,2,werbeblogger.de,GB,Europe,Northern Europe,United Kingdom,England,Manchester,Manchester
185.77.97.102,4,4,westernwire.net,GB,Europe,Northern Europe,United Kingdom,England,Manchester,Manchester
89.116.109.77,4,4,weyden.com.pl,GB,Europe,Northern Europe,United Kingdom,England,Manchester,Manchester
194.1.147.13,4,1,wezaggle.com,GB,Europe,Northern Europe,United Kingdom,England,Manchester,Manchester
194.1.147.40,4,4,wezaggle.com,GB,Europe,Northern Europe,United Kingdom,England,Manchester,Manchester
77.37.34.76,4,6,whatawiki.com,GB,Europe,Northern Europe,United Kingdom,England,Manchester,Manchester
185.77.97.89,4,11,whatdoesgyattmean.com,GB,Europe,Northern Europe,United Kingdom,England,Manchester,Manchester
91.108.103.104,4,3,whatisfullformof.com,GB,Europe,Northern Europe,United Kingdom,England,Manchester,Manchester
89.116.109.97,4,6,whatsappzokes.com,GB,Europe,Northern Europe,United Kingdom,England,Manchester,Manchester
89.116.109.143,4,2,whatsmagazine.com,GB,Europe,Northern Europe,United Kingdom,England,Manchester,Manchester
194.1.147.67,4,2,whatsthatbug.com,GB,Europe,Northern Europe,United Kingdom,England,Manchester,Manchester
194.1.147.65,4,1,whatsthatbug.com,GB,Europe,Northern Europe,United Kingdom,England,Manchester,Manchester
185.77.97.194,4,5,whatvwant.com,GB,Europe,Northern Europe,United Kingdom,England,Manchester,Manchester
91.108.103.138,4,7,whfoods.org,GB,Europe,Northern Europe,United Kingdom,England,Manchester,Manchester
185.77.97.190,4,2,whiplashcooperative.com,GB,Europe,Northern Europe,United Kingdom,England,Manchester,Manchester
195.200.9.74,4,4,whiteregal.co.uk,GB,Europe,Northern Europe,United Kingdom,England,Manchester,Manchester
195.200.9.67,4,9,whoelsewantstoliveinmyhouse.com,GB,Europe,Northern Europe,United Kingdom,England,Manchester,Manchester
195.200.9.58,4,3,whof.xyz,GB,Europe,Northern Europe,United Kingdom,England,Manchester,Manchester
91.108.103.208,4,4,wholelavaluv.com,GB,Europe,Northern Europe,United Kingdom,England,Manchester,Manchester
89.116.109.65,4,3,whsmithco.com,GB,Europe,Northern Europe,United Kingdom,England,Manchester,Manchester
145.14.152.203,4,26,wideshut.co.uk,GB,Europe,Northern Europe,United Kingdom,England,Manchester,Manchester
2.22.228.241,4,35,wiggle.com,GB,Europe,Northern Europe,United Kingdom,England,Manchester,Manchester
91.108.103.61,4,34,wikialpha.co,GB,Europe,Northern Europe,United Kingdom,England,Manchester,Manchester
91.108.103.122,4,95,wikitrade.org,GB,Europe,Northern Europe,United Kingdom,England,Manchester,Manchester
194.1.147.22,4,28,wildambience.com,GB,Europe,Northern Europe,United Kingdom,England,Manchester,Manchester
91.108.103.39,4,6,wildcreaturesrock.com,GB,Europe,Northern Europe,United Kingdom,England,Manchester,Manchester
194.1.147.94,4,2,wildernesstoday.com,GB,Europe,Northern Europe,United Kingdom,England,Manchester,Manchester
77.37.37.232,4,21,wildflowersofireland.net,GB,Europe,Northern Europe,United Kingdom,England,Manchester,Manchester
194.1.147.44,4,30,wildlifeinformer.com,GB,Europe,Northern Europe,United Kingdom,England,Manchester,Manchester
91.108.103.18,4,2,wildturmeric.net,GB,Europe,Northern Europe,United Kingdom,England,Manchester,Manchester
185.77.97.144,4,3,williamartspace.com,GB,Europe,Northern Europe,United Kingdom,England,Manchester,Manchester
89.116.109.137,4,5,williamjacket.com,GB,Europe,Northern Europe,United Kingdom,England,Manchester,Manchester
194.1.147.76,4,13,willpeachmd.com,GB,Europe,Northern Europe,United Kingdom,England,Manchester,Manchester
194.1.147.96,4,5,willpeachmd.com,GB,Europe,Northern Europe,United Kingdom,England,Manchester,Manchester
195.200.9.106,4,7,wilma.in,GB,Europe,Northern Europe,United Kingdom,England,Manchester,Manchester
194.1.147.36,4,2,wimberleylibrary.org,GB,Europe,Northern Europe,United Kingdom,England,Manchester,Manchester
194.1.147.28,4,3,wimberleylibrary.org,GB,Europe,Northern Europe,United Kingdom,England,Manchester,Manchester
91.108.103.176,4,24,wimbi.wiki,GB,Europe,Northern Europe,United Kingdom,England,Manchester,Manchester
185.77.97.240,4,19,wimso.net,GB,Europe,Northern Europe,United Kingdom,England,Manchester,Manchester
89.116.109.48,4,2,windgurucassino.top,GB,Europe,Northern Europe,United Kingdom,England,Manchester,Manchester
91.108.103.124,4,30,windows-repair-toolbox.com,GB,Europe,Northern Europe,United Kingdom,England,Manchester,Manchester
141.136.43.183,4,14,windowsreference.com,GB,Europe,Northern Europe,United Kingdom,England,Manchester,Manchester
185.77.97.62,4,7,winedinedaily.com,GB,Europe,Northern Europe,United Kingdom,England,Manchester,Manchester
89.116.109.187,4,19,winsavvy.com,GB,Europe,Northern Europe,United Kingdom,England,Manchester,Manchester
91.108.103.198,4,23,winvistaforums.com,GB,Europe,Northern Europe,United Kingdom,England,Manchester,Manchester
194.1.147.56,4,3,wiredclip.com,GB,Europe,Northern Europe,United Kingdom,England,Manchester,Manchester
185.77.97.123,4,2,wirelessemporium.com,GB,Europe,Northern Europe,United Kingdom,England,Manchester,Manchester
91.108.103.2,4,1,wirelesshotspotzone.com,GB,Europe,Northern Europe,United Kingdom,England,Manchester,Manchester
185.77.97.19,4,1,wiresuk.com,GB,Europe,Northern Europe,United Kingdom,England,Manchester,Manchester
91.108.103.171,4,22,withoutdoctorsprescription.us,GB,Europe,Northern Europe,United Kingdom,England,Manchester,Manchester
91.108.103.82,4,12,wmmcialis.com,GB,Europe,Northern Europe,United Kingdom,England,Manchester,Manchester
91.108.103.244,4,12,wnuangame.com,GB,Europe,Northern Europe,United Kingdom,England,Manchester,Manchester
185.77.97.188,4,2,womenfitnessmag.com,GB,Europe,Northern Europe,United Kingdom,England,Manchester,Manchester
194.1.147.87,4,7,womeninsport.org,GB,Europe,Northern Europe,United Kingdom,England,Manchester,Manchester
91.108.103.59,4,18,wompon.com,GB,Europe,Northern Europe,United Kingdom,England,Manchester,Manchester
185.77.97.65,4,4,wonderfulwanderings.com,GB,Europe,Northern Europe,United Kingdom,England,Manchester,Manchester
194.1.147.12,4,6,woodcritique.com,GB,Europe,Northern Europe,United Kingdom,England,Manchester,Manchester
194.1.147.84,4,5,woodhavenlabs.com,GB,Europe,Northern Europe,United Kingdom,England,Manchester,Manchester
194.1.147.72,4,13,wordlab.com,GB,Europe,Northern Europe,United Kingdom,England,Manchester,Manchester
194.1.147.19,4,2,wordlab.com,GB,Europe,Northern Europe,United Kingdom,England,Manchester,Manchester
185.77.97.91,4,12,wordlenytimes.net,GB,Europe,Northern Europe,United Kingdom,England,Manchester,Manchester
89.116.109.188,4,3,work911.com,GB,Europe,Northern Europe,United Kingdom,England,Manchester,Manchester
194.1.147.93,4,2,workathomenoscams.com,GB,Europe,Northern Europe,United Kingdom,England,Manchester,Manchester
89.116.109.116,4,6,world4.eu,GB,Europe,Northern Europe,United Kingdom,England,Manchester,Manchester
185.77.97.81,4,9,worldcuppoints.com,GB,Europe,Northern Europe,United Kingdom,England,Manchester,Manchester
91.108.103.80,4,5,worldhealthstock.com,GB,Europe,Northern Europe,United Kingdom,England,Manchester,Manchester
91.108.103.219,4,14,worldmaginfo.com,GB,Europe,Northern Europe,United Kingdom,England,Manchester,Manchester
194.1.147.21,4,7,worldofgardenplants.com,GB,Europe,Northern Europe,United Kingdom,England,Manchester,Manchester
194.1.147.10,4,8,worldofgardenplants.com,GB,Europe,Northern Europe,United Kingdom,England,Manchester,Manchester
185.77.97.236,4,9,worldphotographiccup.org,GB,Europe,Northern Europe,United Kingdom,England,Manchester,Manchester
195.200.9.135,4,2,wowconstructions.in,GB,Europe,Northern Europe,United Kingdom,England,Manchester,Manchester
153.92.6.245,4,16,wphuntrz.com,GB,Europe,Northern Europe,United Kingdom,England,Manchester,Manchester
195.200.9.220,4,10,wpinterface.com,GB,Europe,Northern Europe,United Kingdom,England,Manchester,Manchester
194.1.147.18,4,3,wpressblog.com,GB,Europe,Northern Europe,United Kingdom,England,Manchester,Manchester
194.1.147.70,4,15,wpressblog.com,GB,Europe,Northern Europe,United Kingdom,England,Manchester,Manchester
194.1.147.25,4,5,wpsoul.com,GB,Europe,Northern Europe,United Kingdom,England,Manchester,Manchester
194.1.147.11,4,7,wpsoul.com,GB,Europe,Northern Europe,United Kingdom,England,Manchester,Manchester
194.1.147.33,4,31,wpvoyage.net,GB,Europe,Northern Europe,United Kingdom,England,Manchester,Manchester
194.1.147.102,4,2,wpx.net,GB,Europe,Northern Europe,United Kingdom,England,Manchester,Manchester
194.1.147.101,4,6,wpx.net,GB,Europe,Northern Europe,United Kingdom,England,Manchester,Manchester
194.1.147.7,4,10,wpxhosting.com,GB,Europe,Northern Europe,United Kingdom,England,Manchester,Manchester
195.200.9.218,4,3,wrhel.com,GB,Europe,Northern Europe,United Kingdom,England,Manchester,Manchester
91.108.103.3,4,13,write-right.in,GB,Europe,Northern Europe,United Kingdom,England,Manchester,Manchester
141.136.41.230,4,6,writingservice.ae,GB,Europe,Northern Europe,United Kingdom,England,Manchester,Manchester
89.116.109.152,4,5,wtrawiepiszczy.com.pl,GB,Europe,Northern Europe,United Kingdom,England,Manchester,Manchester
185.77.97.32,4,2,wubuntu.org,GB,Europe,Northern Europe,United Kingdom,England,Manchester,Manchester
194.1.147.24,4,1,wundergroundmusic.com,GB,Europe,Northern Europe,United Kingdom,England,Manchester,Manchester
194.1.147.49,4,1,wundergroundmusic.com,GB,Europe,Northern Europe,United Kingdom,England,Manchester,Manchester
185.77.97.117,4,4,wuschools.com,GB,Europe,Northern Europe,United Kingdom,England,Manchester,Manchester
91.108.103.110,4,3,ww88ap.com,GB,Europe,Northern Europe,United Kingdom,England,Manchester,Manchester
91.108.103.85,4,5,wyrobynaturalne.eu,GB,Europe,Northern Europe,United Kingdom,England,Manchester,Manchester
89.116.109.222,4,1,x-stat.de,GB,Europe,Northern Europe,United Kingdom,England,Manchester,Manchester
89.116.109.24,4,3,x-vendor.com,GB,Europe,Northern Europe,United Kingdom,England,Manchester,Manchester
185.77.97.141,4,5,xclevitradb.com,GB,Europe,Northern Europe,United Kingdom,England,Manchester,Manchester
195.200.9.96,4,5,xenpills.com,GB,Europe,Northern Europe,United Kingdom,England,Manchester,Manchester
185.77.97.209,4,3,xewt12.com,GB,Europe,Northern Europe,United Kingdom,England,Manchester,Manchester
195.200.9.166,4,4,xivents.com,GB,Europe,Northern Europe,United Kingdom,England,Manchester,Manchester
91.108.103.173,4,10,xlrmixagemastering.com,GB,Europe,Northern Europe,United Kingdom,England,Manchester,Manchester
185.77.97.244,4,51,xn-----7kchclcsdcvgr8afcd9cqkh2f.com,GB,Europe,Northern Europe,United Kingdom,England,Manchester,Manchester
195.200.9.157,4,223,xn--24-3qi4duc3a1a7o.vin,GB,Europe,Northern Europe,United Kingdom,England,Manchester,Manchester
185.77.97.46,4,109,xn--80aaagbcjea2bgeihd6asinuskub7ug8xde.com,GB,Europe,Northern Europe,United Kingdom,England,Manchester,Manchester
195.200.9.24,4,65,xn--80aaebiwakef5bihomko5omhe.com,GB,Europe,Northern Europe,United Kingdom,England,Manchester,Manchester
31.220.106.184,4,78,xn--80aanaglkcbc4aiaktqmpy2f6d.com,GB,Europe,Northern Europe,United Kingdom,England,Manchester,Manchester
194.1.147.75,4,59,xn--939au0gp5wvzn.net,GB,Europe,Northern Europe,United Kingdom,England,Manchester,Manchester
185.77.97.137,4,56,xn--989a451ad3g.kr,GB,Europe,Northern Europe,United Kingdom,England,Manchester,Manchester
91.108.103.5,4,55,xn--cartade-conduo-2hb7d.com,GB,Europe,Northern Europe,United Kingdom,England,Manchester,Manchester
91.108.103.182,4,29,xn--hudfryngring-7ib.wiki,GB,Europe,Northern Europe,United Kingdom,England,Manchester,Manchester
194.1.147.85,4,56,xn--hz2b93s3ybrvj.net,GB,Europe,Northern Europe,United Kingdom,England,Manchester,Manchester
194.1.147.95,4,32,xn--hz2b93s3ybrvj.net,GB,Europe,Northern Europe,United Kingdom,England,Manchester,Manchester
195.200.9.237,4,98,xn--kbe-krekort-ggbe.com,GB,Europe,Northern Europe,United Kingdom,England,Manchester,Manchester
195.200.9.111,4,11,xn--koupitidik-04a14cx5a.com,GB,Europe,Northern Europe,United Kingdom,England,Manchester,Manchester
89.116.109.205,4,47,xn--kpakrkort-07ad.com,GB,Europe,Northern Europe,United Kingdom,England,Manchester,Manchester
89.116.109.90,4,184,xn--kupfaszyweeuroonline-tld.com,GB,Europe,Northern Europe,United Kingdom,England,Manchester,Manchester
91.108.103.12,4,16,xn--kupiti-vozakudozvolu-6oc.com,GB,Europe,Northern Europe,United Kingdom,England,Manchester,Manchester
91.108.103.31,4,3,xn--l3carvuj9aw1f6a.com,GB,Europe,Northern Europe,United Kingdom,England,Manchester,Manchester
91.108.103.127,4,39,xn--orbtexch-vkb.com,GB,Europe,Northern Europe,United Kingdom,England,Manchester,Manchester
195.200.9.102,4,50,xn--permisdeconduirelgal-r2b.com,GB,Europe,Northern Europe,United Kingdom,England,Manchester,Manchester
185.77.97.58,4,2,xn--vb0bz3m2skjtak7or4x.com,GB,Europe,Northern Europe,United Kingdom,England,Manchester,Manchester
185.77.97.213,4,6,xn--verlkare-3za9o.wiki,GB,Europe,Northern Europe,United Kingdom,England,Manchester,Manchester
194.1.147.8,4,4,xn--vk1b067aelb1w0a.net,GB,Europe,Northern Europe,United Kingdom,England,Manchester,Manchester
194.1.147.100,4,3,xn--vk1b067aelb1w0a.net,GB,Europe,Northern Europe,United Kingdom,England,Manchester,Manchester
89.116.109.73,4,2,xn--vsroljonjogostvnyt-yrbbn5x.com,GB,Europe,Northern Europe,United Kingdom,England,Manchester,Manchester
91.108.103.203,4,3,xn--vsroljonleglisjogostvnyt-l8bbjk95a.com,GB,Europe,Northern Europe,United Kingdom,England,Manchester,Manchester
194.1.147.38,4,3,xn--zf4bu3hwmr39b.com,GB,Europe,Northern Europe,United Kingdom,England,Manchester,Manchester
194.1.147.55,4,1,xn--zf4bu3hwmr39b.com,GB,Europe,Northern Europe,United Kingdom,England,Manchester,Manchester
195.200.9.199,4,3,xpressarticles.com,GB,Europe,Northern Europe,United Kingdom,England,Manchester,Manchester
185.77.97.94,4,4,xs.to,GB,Europe,Northern Europe,United Kingdom,England,Manchester,Manchester
185.77.97.76,4,2,xtremesport4u.com,GB,Europe,Northern Europe,United Kingdom,England,Manchester,Manchester
194.1.147.31,4,15,xtrium.com,GB,Europe,Northern Europe,United Kingdom,England,Manchester,Manchester
194.1.147.60,4,5,xtrium.com,GB,Europe,Northern Europe,United Kingdom,England,Manchester,Manchester
195.200.9.131,4,3,y4yy.com,GB,Europe,Northern Europe,United Kingdom,England,Manchester,Manchester
185.77.97.201,4,5,yaleruddcenter.org,GB,Europe,Northern Europe,United Kingdom,England,Manchester,Manchester
89.116.109.163,4,4,yamisharma.co.in,GB,Europe,Northern Europe,United Kingdom,England,Manchester,Manchester
145.14.152.49,4,6,yenka.com,GB,Europe,Northern Europe,United Kingdom,England,Manchester,Manchester
194.1.147.9,4,3,yesmissy.com,GB,Europe,Northern Europe,United Kingdom,England,Manchester,Manchester
194.1.147.23,4,4,yesmissy.com,GB,Europe,Northern Europe,United Kingdom,England,Manchester,Manchester
91.108.103.84,4,3,yesweadvice.com,GB,Europe,Northern Europe,United Kingdom,England,Manchester,Manchester
89.116.109.7,4,5,yewdellgardens.org,GB,Europe,Northern Europe,United Kingdom,England,Manchester,Manchester
91.108.103.96,4,4,yhn876.com,GB,Europe,Northern Europe,United Kingdom,England,Manchester,Manchester
91.108.103.222,4,5,yiqinameplate.com,GB,Europe,Northern Europe,United Kingdom,England,Manchester,Manchester
91.108.103.154,4,6,yondercasino.kr,GB,Europe,Northern Europe,United Kingdom,England,Manchester,Manchester
91.108.103.158,4,3,yongcasino.kr,GB,Europe,Northern Europe,United Kingdom,England,Manchester,Manchester
194.1.147.20,4,8,yourdnaguide.com,GB,Europe,Northern Europe,United Kingdom,England,Manchester,Manchester
194.1.147.68,4,19,yourdnaguide.com,GB,Europe,Northern Europe,United Kingdom,England,Manchester,Manchester
194.1.147.16,4,11,yourlifestylebusiness.com,GB,Europe,Northern Europe,United Kingdom,England,Manchester,Manchester
194.1.147.35,4,6,yourlifestylebusiness.com,GB,Europe,Northern Europe,United Kingdom,England,Manchester,Manchester
194.1.147.90,4,3,yournextread.com,GB,Europe,Northern Europe,United Kingdom,England,Manchester,Manchester
194.1.147.99,4,3,yournextread.com,GB,Europe,Northern Europe,United Kingdom,England,Manchester,Manchester
194.1.147.77,4,5,yoursoccerhome.com,GB,Europe,Northern Europe,United Kingdom,England,Manchester,Manchester
194.1.147.51,4,13,yoursoccerhome.com,GB,Europe,Northern Europe,United Kingdom,England,Manchester,Manchester
192.145.126.69,4,5,yousher.com,GB,Europe,Northern Europe,United Kingdom,England,Manchester,Manchester
91.108.103.215,4,3,youtubebulkviews.com,GB,Europe,Northern Europe,United Kingdom,England,Manchester,Manchester
91.108.103.15,4,2,youwuhen.top,GB,Europe,Northern Europe,United Kingdom,England,Manchester,Manchester
185.77.97.115,4,3,yoyocassino.top,GB,Europe,Northern Europe,United Kingdom,England,Manchester,Manchester
194.1.147.78,4,3,yummyistanbul.com,GB,Europe,Northern Europe,United Kingdom,England,Manchester,Manchester
194.1.147.79,4,4,yummyistanbul.com,GB,Europe,Northern Europe,United Kingdom,England,Manchester,Manchester
195.200.9.33,4,8,z-word.com,GB,Europe,Northern Europe,United Kingdom,England,Manchester,Manchester
89.116.109.129,4,6,zahrachem.com,GB,Europe,Northern Europe,United Kingdom,England,Manchester,Manchester
89.116.109.219,4,3,zayda.in,GB,Europe,Northern Europe,United Kingdom,England,Manchester,Manchester
195.200.9.129,4,13,zebrasitusslot.xyz,GB,Europe,Northern Europe,United Kingdom,England,Manchester,Manchester
195.200.9.91,4,4,zedbravo.com,GB,Europe,Northern Europe,United Kingdom,England,Manchester,Manchester
153.92.6.147,4,40,zee-3.com,GB,Europe,Northern Europe,United Kingdom,England,Manchester,Manchester
194.1.147.26,4,17,zeebox.com,GB,Europe,Northern Europe,United Kingdom,England,Manchester,Manchester
194.1.147.57,4,7,zeebox.com,GB,Europe,Northern Europe,United Kingdom,England,Manchester,Manchester
185.77.97.248,4,5,zeepin.io,GB,Europe,Northern Europe,United Kingdom,England,Manchester,Manchester
89.116.109.124,4,6,zerocoin.org,GB,Europe,Northern Europe,United Kingdom,England,Manchester,Manchester
185.77.97.114,4,4,zhuoyiyiliao.top,GB,Europe,Northern Europe,United Kingdom,England,Manchester,Manchester
194.1.147.91,4,1,zithromaxa.com,GB,Europe,Northern Europe,United Kingdom,England,Manchester,Manchester
194.1.147.73,4,6,zithromaxa.com,GB,Europe,Northern Europe,United Kingdom,England,Manchester,Manchester
185.77.97.108,4,6,zobuz.com,GB,Europe,Northern Europe,United Kingdom,England,Manchester,Manchester
195.200.9.156,4,3,zoyakhan.in,GB,Europe,Northern Europe,United Kingdom,England,Manchester,Manchester
91.108.103.188,4,3,zszyhl.com,GB,Europe,Northern Europe,United Kingdom,England,Manchester,Manchester
195.200.9.72,4,4,zunia.org,GB,Europe,Northern Europe,United Kingdom,England,Manchester,Manchester
195.200.9.132,4,2,zxcycs.top,GB,Europe,Northern Europe,United Kingdom,England,Manchester,Manchester
