reflector_ip,ip_version,offset,description,country_code,region,sub_region,country_name,sub_division_1,sub_division_2,city
5.100.253.198,4,1019,adnart.com,IL,Asia,Western Asia,Israel,Central District,,Rosh Ha‘Ayin
66.22.84.26,4,19,alljobs.co.il,IL,Asia,Western Asia,Israel,Central District,,
88.218.116.187,4,17,arims.org.il,IL,Asia,Western Asia,Israel,Central District,,Rehovot
212.150.130.237,4,598,asoccer.co.il,IL,Asia,Western Asia,Israel,Central District,,Netanya
185.220.206.88,4,35,bitheikuren.com,IL,Asia,Western Asia,Israel,Central District,,Rosh Ha‘Ayin
185.241.6.211,4,1,bizportal.co.il,IL,Asia,Western Asia,Israel,Central District,,Rosh Ha‘Ayin
88.218.116.137,4,-10,conversioner.com,IL,Asia,Western Asia,Israel,Central District,,Rehovot
2.55.72.107,4,199,DNS Server: 31-154-72-107.orange.net.il,IL,Asia,Western Asia,Israel,Central District,,Petah Tikva
182.54.236.24,4,1656,e-mago.co.il,IL,Asia,Western Asia,Israel,Central District,,Petah Tikva
192.115.82.200,4,7,e-vrit.co.il,IL,Asia,Western Asia,Israel,Central District,,Rishon LeTsiyyon
88.218.116.151,4,-1432,econcretetech.com,IL,Asia,Western Asia,Israel,Central District,,Rehovot
212.150.158.23,4,23,f2h.io,IL,Asia,Western Asia,Israel,Central District,,Netanya
195.28.180.198,4,3,haifaff.co.il,IL,Asia,Western Asia,Israel,Central District,,Rosh Ha‘Ayin
167.86.44.32,4,8,harel-group.co.il,IL,Asia,Western Asia,Israel,Central District,,
80.179.142.74,4,-1,hebron.org.il,IL,Asia,Western Asia,Israel,Central District,,Petah Tikva
66.22.84.27,4,22,hidabroot.org,IL,Asia,Western Asia,Israel,Central District,,
80.179.226.37,4,608,hma.org.il,IL,Asia,Western Asia,Israel,Central District,,Petah Tikva
88.218.116.134,4,909,idsf.org.il,IL,Asia,Western Asia,Israel,Central District,,Rehovot
195.28.181.44,4,44,insuranceusaauto.com,IL,Asia,Western Asia,Israel,Central District,,Rosh Ha‘Ayin
88.218.116.190,4,-172632,isciweb.org,IL,Asia,Western Asia,Israel,Central District,,Rehovot
83.229.81.191,4,12,jamd.ac.il,IL,Asia,Western Asia,Israel,Central District,,Rosh Ha‘Ayin
80.179.142.66,4,35,jerusaleminstitute.org.il,IL,Asia,Western Asia,Israel,Central District,,Petah Tikva
212.150.243.220,4,1151,julievino.com,IL,Asia,Western Asia,Israel,Central District,,Rosh Ha‘Ayin
66.22.84.16,4,8,kkl-jnf.org,IL,Asia,Western Asia,Israel,Central District,,
66.22.84.22,4,17,kkl.org.il,IL,Asia,Western Asia,Israel,Central District,,
82.80.25.204,4,14,kulam.org,IL,Asia,Western Asia,Israel,Central District,,Qvutsat Yavne
66.22.84.55,4,8,mako.co.il,IL,Asia,Western Asia,Israel,Central District,,
185.241.4.171,4,1194,matomy.com,IL,Asia,Western Asia,Israel,Central District,,Petah Tikva
66.22.84.239,4,58,max.co.il,IL,Asia,Western Asia,Israel,Central District,,
167.86.44.73,4,7,menoramivt.co.il,IL,Asia,Western Asia,Israel,Central District,,
185.37.149.106,4,3,mhmhmuseum.org,IL,Asia,Western Asia,Israel,Central District,,Petah Tikva
88.218.116.155,4,-644,mitvim.org.il,IL,Asia,Western Asia,Israel,Central District,,Rehovot
167.86.44.72,4,9,mizrahi-tefahot.co.il,IL,Asia,Western Asia,Israel,Central District,,
66.22.84.58,4,9,n12.co.il,IL,Asia,Western Asia,Israel,Central District,,
88.218.116.160,4,-7,nalagaat.org.il,IL,Asia,Western Asia,Israel,Central District,,Rehovot
80.179.226.44,4,6,nana10.co.il,IL,Asia,Western Asia,Israel,Central District,,Petah Tikva
94.230.90.4,4,297,Ookla Speedtest Server 9034: speedtest.018.co.il,IL,Asia,Western Asia,Israel,Central District,,Rishon LeTsiyyon
185.162.127.2,4,32697,Ookla Speedtest Server 11616: speedtest.il-rh.kamatera.com,IL,Asia,Western Asia,Israel,Central District,,Rosh Ha‘Ayin
195.189.140.12,4,351,Ookla Speedtest Server 13940: speedtest2.spd.co.il,IL,Asia,Western Asia,Israel,Central District,,Rishon LeTsiyyon
185.217.98.94,4,1016,Ookla Speedtest Server: speedtest.interhost.co.il,IL,Asia,Western Asia,Israel,Central District,,Petah Tikva
80.179.148.114,4,1,opgal.com,IL,Asia,Western Asia,Israel,Central District,,Lod
88.218.116.38,4,-2551,orphaned-land.com,IL,Asia,Western Asia,Israel,Central District,,Rehovot
94.103.185.116,4,27,posta.co.il,IL,Asia,Western Asia,Israel,Central District,,Petah Tikva
88.218.116.178,4,19,prof-shapira.com,IL,Asia,Western Asia,Israel,Central District,,Rehovot
80.179.230.60,4,7,pvpanama.com,IL,Asia,Western Asia,Israel,Central District,,Petah Tikva
80.179.140.151,4,8,reader.co.il,IL,Asia,Western Asia,Israel,Central District,,Petah Tikva
63.250.63.229,4,749,sabon.com,IL,Asia,Western Asia,Israel,Central District,,Rosh Ha‘Ayin
80.179.152.101,4,40,sensei.co.il,IL,Asia,Western Asia,Israel,Central District,,Lod
80.179.128.181,4,-10797642,site-pro.co.il,IL,Asia,Western Asia,Israel,Central District,,Petah Tikva
80.179.230.22,4,5,social.org.il,IL,Asia,Western Asia,Israel,Central District,,Petah Tikva
194.36.90.166,4,8,takdin.co.il,IL,Asia,Western Asia,Israel,Central District,,Rosh Ha‘Ayin
5.100.249.55,4,2,wesell.co.il,IL,Asia,Western Asia,Israel,Central District,,Rosh Ha‘Ayin
192.116.49.85,4,23,wikirefua.org.il,IL,Asia,Western Asia,Israel,Central District,,Petah Tikva
192.115.80.55,4,8,ynetnews.com,IL,Asia,Western Asia,Israel,Central District,,Rishon LeTsiyyon
80.179.141.28,4,5,zeustech.net,IL,Asia,Western Asia,Israel,Central District,,Petah Tikva
