reflector_ip,ip_version,offset,description,country_code,region,sub_region,country_name,sub_division_1,sub_division_2,city
185.239.210.15,4,1,66unblockedgames.com,BR,Americas,Latin America and the Caribbean,Brazil,São Paulo,,São Paulo
187.45.186.42,4,736,aa.org.br,BR,Americas,Latin America and the Caribbean,Brazil,São Paulo,,São Paulo
82.180.134.118,4,3,abag.com.br,BR,Americas,Latin America and the Caribbean,Brazil,São Paulo,,São Paulo
62.72.63.40,4,0,abejor.org.br,BR,Americas,Latin America and the Caribbean,Brazil,São Paulo,,São Paulo
82.180.159.36,4,4,abennacional.org.br,BR,Americas,Latin America and the Caribbean,Brazil,São Paulo,,São Paulo
185.139.2.219,4,6,abinee.org.br,BR,Americas,Latin America and the Caribbean,Brazil,São Paulo,,São Paulo
82.180.158.21,4,0,abpa-br.org,BR,Americas,Latin America and the Caribbean,Brazil,São Paulo,,São Paulo
82.112.247.239,4,4,abraciclo.com.br,BR,Americas,Latin America and the Caribbean,Brazil,São Paulo,,São Paulo
185.173.111.21,4,2,academiachinauy.edu.uy,BR,Americas,Latin America and the Caribbean,Brazil,São Paulo,,São Paulo
147.79.109.194,4,1,academiatlc.com,BR,Americas,Latin America and the Caribbean,Brazil,São Paulo,,São Paulo
191.241.229.253,4,-12,acaoeducativa.org.br,BR,Americas,Latin America and the Caribbean,Brazil,São Paulo,,São Paulo
187.102.157.83,4,19,acaoeducativa.org.br,BR,Americas,Latin America and the Caribbean,Brazil,São Paulo,,São Paulo
147.79.91.136,4,17,acij.org.ar,BR,Americas,Latin America and the Caribbean,Brazil,São Paulo,,São Paulo
195.200.3.155,4,19,adtgamer.com.br,BR,Americas,Latin America and the Caribbean,Brazil,São Paulo,,São Paulo
195.35.43.65,4,0,aepet.org.br,BR,Americas,Latin America and the Caribbean,Brazil,São Paulo,,São Paulo
45.151.121.82,4,5,agencianovaacao.com.br,BR,Americas,Latin America and the Caribbean,Brazil,São Paulo,,São Paulo
54.233.240.245,4,6,agenteimovel.com.br,BR,Americas,Latin America and the Caribbean,Brazil,São Paulo,,São Paulo
102.165.25.200,4,10,agorarn.com.br,BR,Americas,Latin America and the Caribbean,Brazil,São Paulo,,São Paulo
77.37.127.106,4,5,agrosmart.com.br,BR,Americas,Latin America and the Caribbean,Brazil,São Paulo,,São Paulo
34.95.253.60,4,6,ahkbrasil.com,BR,Americas,Latin America and the Caribbean,Brazil,São Paulo,,São Paulo
217.196.59.100,4,13,airports-terminal.com,BR,Americas,Latin America and the Caribbean,Brazil,São Paulo,,São Paulo
91.108.124.158,4,13,alafa.info,BR,Americas,Latin America and the Caribbean,Brazil,São Paulo,,São Paulo
66.22.76.78,4,13,alicorp.com.pe,BR,Americas,Latin America and the Caribbean,Brazil,São Paulo,,São Paulo
147.79.90.185,4,43,altabooks.com.br,BR,Americas,Latin America and the Caribbean,Brazil,São Paulo,,São Paulo
45.152.46.21,4,1,alvanista.com,BR,Americas,Latin America and the Caribbean,Brazil,São Paulo,,São Paulo
200.219.255.156,4,986,amazonia.org.br,BR,Americas,Latin America and the Caribbean,Brazil,São Paulo,,São Paulo
144.22.156.107,4,17,anbient.com,BR,Americas,Latin America and the Caribbean,Brazil,São Paulo,,São Paulo
77.37.127.160,4,1,androp.com.br,BR,Americas,Latin America and the Caribbean,Brazil,São Paulo,,São Paulo
93.127.188.40,4,16,aquinoticias.com,BR,Americas,Latin America and the Caribbean,Brazil,São Paulo,,São Paulo
149.62.37.136,4,10,artstore.com.br,BR,Americas,Latin America and the Caribbean,Brazil,São Paulo,,São Paulo
35.198.56.30,4,34,asopat.com,BR,Americas,Latin America and the Caribbean,Brazil,São Paulo,,São Paulo
177.69.20.57,4,6,atena.org.br,BR,Americas,Latin America and the Caribbean,Brazil,São Paulo,,São Paulo
185.213.81.46,4,968,australianinfront.com.au,BR,Americas,Latin America and the Caribbean,Brazil,São Paulo,,São Paulo
147.79.88.171,4,3,avai.com.br,BR,Americas,Latin America and the Caribbean,Brazil,São Paulo,,São Paulo
82.112.247.238,4,47,bancodevida.com,BR,Americas,Latin America and the Caribbean,Brazil,São Paulo,,São Paulo
23.223.204.16,4,27,bancopan.com.br,BR,Americas,Latin America and the Caribbean,Brazil,São Paulo,,São Paulo
89.116.224.151,4,0,bandaturbo.com.br,BR,Americas,Latin America and the Caribbean,Brazil,São Paulo,,São Paulo
185.239.210.150,4,18,bds.edu.ar,BR,Americas,Latin America and the Caribbean,Brazil,São Paulo,,São Paulo
93.127.191.6,4,70,blogpot.com,BR,Americas,Latin America and the Caribbean,Brazil,São Paulo,,São Paulo
154.49.247.47,4,5,bluevertigo.com.ar,BR,Americas,Latin America and the Caribbean,Brazil,São Paulo,,São Paulo
66.22.29.17,4,8,bolsadesantiago.com,BR,Americas,Latin America and the Caribbean,Brazil,São Paulo,,São Paulo
35.215.237.182,4,7,br-ie.org,BR,Americas,Latin America and the Caribbean,Brazil,São Paulo,,São Paulo
177.52.160.16,4,226,brasilsulmudancas.com.br,BR,Americas,Latin America and the Caribbean,Brazil,São Paulo,,São Paulo
45.132.157.2,4,3,byinti.com,BR,Americas,Latin America and the Caribbean,Brazil,São Paulo,,São Paulo
223.27.112.128,4,4,cafetortoni.com.ar,BR,Americas,Latin America and the Caribbean,Brazil,São Paulo,,São Paulo
89.116.115.230,4,8,caminandoargentina.com,BR,Americas,Latin America and the Caribbean,Brazil,São Paulo,,São Paulo
147.79.92.90,4,3,camlibro.com.co,BR,Americas,Latin America and the Caribbean,Brazil,São Paulo,,São Paulo
149.100.155.137,4,14,carimbosemsaopaulo.com.br,BR,Americas,Latin America and the Caribbean,Brazil,São Paulo,,São Paulo
45.152.44.15,4,53,carlosvives.com,BR,Americas,Latin America and the Caribbean,Brazil,São Paulo,,São Paulo
185.173.111.16,4,2,cbcesports.com,BR,Americas,Latin America and the Caribbean,Brazil,São Paulo,,São Paulo
92.113.36.131,4,3,cbncuritiba.com.br,BR,Americas,Latin America and the Caribbean,Brazil,São Paulo,,São Paulo
62.72.10.38,4,3,certi.org.br,BR,Americas,Latin America and the Caribbean,Brazil,São Paulo,,São Paulo
62.72.10.86,4,2,cia.org.ar,BR,Americas,Latin America and the Caribbean,Brazil,São Paulo,,São Paulo
195.200.3.213,4,8,ciclonovo.com.br,BR,Americas,Latin America and the Caribbean,Brazil,São Paulo,,São Paulo
62.72.10.236,4,13,cienciahoje.org.br,BR,Americas,Latin America and the Caribbean,Brazil,São Paulo,,São Paulo
85.31.229.133,4,4,ciencialatina.org,BR,Americas,Latin America and the Caribbean,Brazil,São Paulo,,São Paulo
149.18.50.18,4,-312287,cinepop.com.br,BR,Americas,Latin America and the Caribbean,Brazil,São Paulo,,São Paulo
66.22.28.177,4,4,ciriontechnologies.com,BR,Americas,Latin America and the Caribbean,Brazil,São Paulo,,São Paulo
200.155.173.74,4,5,climatempo.com.br,BR,Americas,Latin America and the Caribbean,Brazil,São Paulo,,São Paulo
159.138.208.112,4,21,cofen.gov.br,BR,Americas,Latin America and the Caribbean,Brazil,São Paulo,,São Paulo
159.138.208.107,4,19,cofen.gov.br,BR,Americas,Latin America and the Caribbean,Brazil,São Paulo,,São Paulo
159.138.208.110,4,20,cofen.gov.br,BR,Americas,Latin America and the Caribbean,Brazil,São Paulo,,São Paulo
147.79.89.116,4,4,comerciozapa.com.br,BR,Americas,Latin America and the Caribbean,Brazil,São Paulo,,São Paulo
45.151.121.229,4,8,comexdobrasil.com,BR,Americas,Latin America and the Caribbean,Brazil,São Paulo,,São Paulo
192.142.231.57,4,4,concursosfau.com.br,BR,Americas,Latin America and the Caribbean,Brazil,São Paulo,,São Paulo
82.180.158.97,4,4,conic.org.br,BR,Americas,Latin America and the Caribbean,Brazil,São Paulo,,São Paulo
77.37.127.29,4,3,cooperaccion.org.pe,BR,Americas,Latin America and the Caribbean,Brazil,São Paulo,,São Paulo
82.180.156.87,4,44,correiodobrasil.com.br,BR,Americas,Latin America and the Caribbean,Brazil,São Paulo,,São Paulo
66.22.28.13,4,5,correos.cl,BR,Americas,Latin America and the Caribbean,Brazil,São Paulo,,São Paulo
149.100.155.223,4,0,costaintima.com.ar,BR,Americas,Latin America and the Caribbean,Brazil,São Paulo,,São Paulo
147.79.92.75,4,3,cotrijal.com.br,BR,Americas,Latin America and the Caribbean,Brazil,São Paulo,,São Paulo
144.22.217.113,4,5,cpqd.com.br,BR,Americas,Latin America and the Caribbean,Brazil,São Paulo,,São Paulo
177.54.146.223,4,744,crfsp.org.br,BR,Americas,Latin America and the Caribbean,Brazil,São Paulo,,São Paulo
154.56.48.222,4,20,criticanarede.com,BR,Americas,Latin America and the Caribbean,Brazil,São Paulo,,São Paulo
86.38.190.22,4,9,crvascodagama.com,BR,Americas,Latin America and the Caribbean,Brazil,São Paulo,,São Paulo
201.48.32.103,4,313,ctbdigital.com.br,BR,Americas,Latin America and the Caribbean,Brazil,São Paulo,,São Paulo
82.180.159.1,4,24,curadas.com,BR,Americas,Latin America and the Caribbean,Brazil,São Paulo,,São Paulo
52.67.2.141,4,2,cutelyst.org,BR,Americas,Latin America and the Caribbean,Brazil,São Paulo,,São Paulo
82.180.159.51,4,2,dagema.digital,BR,Americas,Latin America and the Caribbean,Brazil,São Paulo,,São Paulo
77.37.127.165,4,4,davijah.com.br,BR,Americas,Latin America and the Caribbean,Brazil,São Paulo,,São Paulo
35.198.47.45,4,4,dermasthetic.com,BR,Americas,Latin America and the Caribbean,Brazil,São Paulo,,São Paulo
185.173.111.157,4,1,dgpc.com.ar,BR,Americas,Latin America and the Caribbean,Brazil,São Paulo,,São Paulo
149.100.155.144,4,3,diprotec.com.br,BR,Americas,Latin America and the Caribbean,Brazil,São Paulo,,São Paulo
152.250.250.69,4,120,DNS Server: 152-250-250-69.user.vivozap.com.br,BR,Americas,Latin America and the Caribbean,Brazil,São Paulo,,São Paulo
177.139.163.26,4,-7368935,DNS Server: 177-139-163-26.dsl.telesp.net.br,BR,Americas,Latin America and the Caribbean,Brazil,São Paulo,,São Paulo
177.94.208.128,4,4601,DNS Server: 177-94-208-128.dsl.telesp.net.br,BR,Americas,Latin America and the Caribbean,Brazil,São Paulo,,São Paulo
179.108.104.172,4,1406524,DNS Server: 179-108-104-172.static.ctbctelecom.com.br,BR,Americas,Latin America and the Caribbean,Brazil,São Paulo,,São Paulo
179.93.100.18,4,1858,DNS Server: 179-93-100-18.user.vivozap.com.br,BR,Americas,Latin America and the Caribbean,Brazil,São Paulo,,São Paulo
179.99.245.209,4,255,DNS Server: 179-99-245-209.dsl.telesp.net.br,BR,Americas,Latin America and the Caribbean,Brazil,São Paulo,,São Paulo
187.35.169.110,4,32309484,DNS Server: 187-35-169-110.dsl.telesp.net.br,BR,Americas,Latin America and the Caribbean,Brazil,São Paulo,,São Paulo
187.50.174.194,4,-56303,DNS Server: 187-50-174-194.customer.tdatabrasil.net.br,BR,Americas,Latin America and the Caribbean,Brazil,São Paulo,,São Paulo
187.8.182.1,4,49,DNS Server: 187-8-182-1.customer.tdatabrasil.net.br,BR,Americas,Latin America and the Caribbean,Brazil,São Paulo,,São Paulo
187.9.181.2,4,10,DNS Server: 187-9-181-2.customer.tdatabrasil.net.br,BR,Americas,Latin America and the Caribbean,Brazil,São Paulo,,São Paulo
189.108.16.206,4,8589,DNS Server: 189-108-16-206.customer.tdatabrasil.net.br,BR,Americas,Latin America and the Caribbean,Brazil,São Paulo,,São Paulo
189.19.254.196,4,4677,DNS Server: 189-19-254-196.dsl.telesp.net.br,BR,Americas,Latin America and the Caribbean,Brazil,São Paulo,,São Paulo
189.56.121.33,4,10,DNS Server: 189-56-121-33.customer.tdatabrasil.net.br,BR,Americas,Latin America and the Caribbean,Brazil,São Paulo,,São Paulo
189.56.123.82,4,26678,DNS Server: 189-56-123-82.customer.tdatabrasil.net.br,BR,Americas,Latin America and the Caribbean,Brazil,São Paulo,,São Paulo
189.56.96.186,4,-38185296,DNS Server: 189-56-96-186.customer.tdatabrasil.net.br,BR,Americas,Latin America and the Caribbean,Brazil,São Paulo,,São Paulo
191.13.135.23,4,104,DNS Server: 191-13-135-23.user.vivozap.com.br,BR,Americas,Latin America and the Caribbean,Brazil,São Paulo,,São Paulo
191.209.99.143,4,162,DNS Server: 191-209-99-143.user.vivozap.com.br,BR,Americas,Latin America and the Caribbean,Brazil,São Paulo,,São Paulo
191.9.121.7,4,20663,DNS Server: 191-9-121-7.user.vivozap.com.br,BR,Americas,Latin America and the Caribbean,Brazil,São Paulo,,São Paulo
200.148.169.234,4,-44108341,DNS Server: 200-148-169-234.customer.tdatabrasil.net.br,BR,Americas,Latin America and the Caribbean,Brazil,São Paulo,,São Paulo
200.155.169.114,4,7211,DNS Server: 200-155-169-114.static.telium.net.br,BR,Americas,Latin America and the Caribbean,Brazil,São Paulo,,São Paulo
200.171.88.168,4,229457,DNS Server: 200-171-88-168.dsl.telesp.net.br,BR,Americas,Latin America and the Caribbean,Brazil,São Paulo,,São Paulo
200.201.138.101,4,-62782,DNS Server: 200-201-138-101.static.telium.net.br,BR,Americas,Latin America and the Caribbean,Brazil,São Paulo,,São Paulo
200.204.161.218,4,20,DNS Server: 200-204-161-218.dsl.telesp.net.br,BR,Americas,Latin America and the Caribbean,Brazil,São Paulo,,São Paulo
201.16.214.164,4,577080,DNS Server: 201-016-214-164.static.ctbctelecom.com.br,BR,Americas,Latin America and the Caribbean,Brazil,São Paulo,,São Paulo
201.46.28.191,4,-7909,DNS Server: 201.46.28.191.access.a85.com.br,BR,Americas,Latin America and the Caribbean,Brazil,São Paulo,,São Paulo
204.199.52.18,4,675827,DNS Server: 204-199-52-18.dia.static.centurylink.com.br,BR,Americas,Latin America and the Caribbean,Brazil,São Paulo,,São Paulo
45.236.55.233,4,4,DNS Server: 233.55.236.45.fiberbandalarga.com.br,BR,Americas,Latin America and the Caribbean,Brazil,São Paulo,,São Paulo
45.226.74.127,4,520,DNS Server: 45-226-74-127.ariastelecom.com.br,BR,Americas,Latin America and the Caribbean,Brazil,São Paulo,,São Paulo
8.242.48.20,4,1939,DNS Server: 8-242-4X-20.centurylink.com.br,BR,Americas,Latin America and the Caribbean,Brazil,São Paulo,,São Paulo
8.242.48.97,4,38,DNS Server: 8-242-4X-97.centurylink.com.br,BR,Americas,Latin America and the Caribbean,Brazil,São Paulo,,São Paulo
54.94.226.225,4,98,DNS Server: ec2-54-94-226-225.sa-east-1.compute.amazonaws.com,BR,Americas,Latin America and the Caribbean,Brazil,São Paulo,,São Paulo
179.111.209.33,4,50,DNS Server: fw02.microgate.com.br,BR,Americas,Latin America and the Caribbean,Brazil,São Paulo,,São Paulo
177.92.123.158,4,230,DNS Server: mvx-177-92-123-158.mundivox.com,BR,Americas,Latin America and the Caribbean,Brazil,São Paulo,,São Paulo
187.102.142.66,4,211,DNS Server: mvx-187-102-142-66.mundivox.com,BR,Americas,Latin America and the Caribbean,Brazil,São Paulo,,São Paulo
77.37.127.94,4,12,docepresente.com.br,BR,Americas,Latin America and the Caribbean,Brazil,São Paulo,,São Paulo
2.59.150.208,4,1,dragabrieladalrosso.com.br,BR,Americas,Latin America and the Caribbean,Brazil,São Paulo,,São Paulo
54.94.155.202,4,0,dype.com.br,BR,Americas,Latin America and the Caribbean,Brazil,São Paulo,,São Paulo
187.102.244.21,4,3,ecommercebrasil.com.br,BR,Americas,Latin America and the Caribbean,Brazil,São Paulo,,São Paulo
193.203.180.253,4,3,econojournal.com.ar,BR,Americas,Latin America and the Caribbean,Brazil,São Paulo,,São Paulo
154.49.247.13,4,3,ecvitoria.com.br,BR,Americas,Latin America and the Caribbean,Brazil,São Paulo,,São Paulo
217.196.56.173,4,33,elhistoriador.com.ar,BR,Americas,Latin America and the Caribbean,Brazil,São Paulo,,São Paulo
177.154.147.203,4,15,eliane.com,BR,Americas,Latin America and the Caribbean,Brazil,São Paulo,,São Paulo
45.179.90.160,4,658,embelleze.com,BR,Americas,Latin America and the Caribbean,Brazil,São Paulo,,São Paulo
35.215.248.42,4,7,embrapii.org.br,BR,Americas,Latin America and the Caribbean,Brazil,São Paulo,,São Paulo
154.56.48.107,4,4,encantocortinas.com,BR,Americas,Latin America and the Caribbean,Brazil,São Paulo,,São Paulo
185.245.180.68,4,63,escoladocaminho.com,BR,Americas,Latin America and the Caribbean,Brazil,São Paulo,,São Paulo
45.152.46.30,4,17,escolhas.org,BR,Americas,Latin America and the Caribbean,Brazil,São Paulo,,São Paulo
77.37.127.44,4,6,ethernalro.com,BR,Americas,Latin America and the Caribbean,Brazil,São Paulo,,São Paulo
147.79.108.236,4,5,eureca.me,BR,Americas,Latin America and the Caribbean,Brazil,São Paulo,,São Paulo
147.79.108.199,4,3,eurolatinstudies.com,BR,Americas,Latin America and the Caribbean,Brazil,São Paulo,,São Paulo
45.152.46.188,4,3,expressrentautos.com,BR,Americas,Latin America and the Caribbean,Brazil,São Paulo,,São Paulo
149.100.155.129,4,9,f3tecnologia.com.br,BR,Americas,Latin America and the Caribbean,Brazil,São Paulo,,São Paulo
185.211.7.14,4,4,fafire.br,BR,Americas,Latin America and the Caribbean,Brazil,São Paulo,,São Paulo
92.113.36.154,4,1,faradaysec.com,BR,Americas,Latin America and the Caribbean,Brazil,São Paulo,,São Paulo
185.9.54.207,4,1,fasb.com.br,BR,Americas,Latin America and the Caribbean,Brazil,São Paulo,,São Paulo
201.55.32.226,4,14,fatecsp.br,BR,Americas,Latin America and the Caribbean,Brazil,São Paulo,,São Paulo
179.191.98.230,4,7,fecap.br,BR,Americas,Latin America and the Caribbean,Brazil,São Paulo,,São Paulo
89.116.224.69,4,3,feitonasix.com.br,BR,Americas,Latin America and the Caribbean,Brazil,São Paulo,,São Paulo
177.170.10.149,4,-11708,fepaf.org.br,BR,Americas,Latin America and the Caribbean,Brazil,São Paulo,,São Paulo
195.35.40.197,4,14,file.org.br,BR,Americas,Latin America and the Caribbean,Brazil,São Paulo,,São Paulo
185.213.81.68,4,6,flexclean.com.br,BR,Americas,Latin America and the Caribbean,Brazil,São Paulo,,São Paulo
89.117.7.66,4,6,flightdeck.com.br,BR,Americas,Latin America and the Caribbean,Brazil,São Paulo,,São Paulo
185.211.7.6,4,16,fnlij.org.br,BR,Americas,Latin America and the Caribbean,Brazil,São Paulo,,São Paulo
177.52.160.63,4,1072,fontesville.com.br,BR,Americas,Latin America and the Caribbean,Brazil,São Paulo,,São Paulo
82.180.159.122,4,57,fopea.org,BR,Americas,Latin America and the Caribbean,Brazil,São Paulo,,São Paulo
78.111.102.100,4,3,foradoar.org,BR,Americas,Latin America and the Caribbean,Brazil,São Paulo,,São Paulo
78.111.102.106,4,2,foradoar.org,BR,Americas,Latin America and the Caribbean,Brazil,São Paulo,,São Paulo
187.102.244.43,4,2,foradoar.org,BR,Americas,Latin America and the Caribbean,Brazil,São Paulo,,São Paulo
18.228.21.147,4,5,forumseguranca.org.br,BR,Americas,Latin America and the Caribbean,Brazil,São Paulo,,São Paulo
35.247.200.188,4,10,fundacionsol.cl,BR,Americas,Latin America and the Caribbean,Brazil,São Paulo,,São Paulo
45.152.46.27,4,1,fundagan.org.co,BR,Americas,Latin America and the Caribbean,Brazil,São Paulo,,São Paulo
195.35.41.180,4,55,funturu.com,BR,Americas,Latin America and the Caribbean,Brazil,São Paulo,,São Paulo
147.79.88.243,4,0,gabinetedatransicao.com.br,BR,Americas,Latin America and the Caribbean,Brazil,São Paulo,,São Paulo
82.180.153.49,4,13,galeriaspacifico.com.ar,BR,Americas,Latin America and the Caribbean,Brazil,São Paulo,,São Paulo
172.233.1.120,4,-14,gazetabrasil.com.br,BR,Americas,Latin America and the Caribbean,Brazil,São Paulo,,São Paulo
35.215.225.55,4,6,ghorganics.com,BR,Americas,Latin America and the Caribbean,Brazil,São Paulo,,São Paulo
191.101.62.52,4,22,gipsyteam.com.br,BR,Americas,Latin America and the Caribbean,Brazil,São Paulo,,São Paulo
35.215.213.20,4,14,go2peru.com,BR,Americas,Latin America and the Caribbean,Brazil,São Paulo,,São Paulo
45.152.46.125,4,24,highstuff.com,BR,Americas,Latin America and the Caribbean,Brazil,São Paulo,,São Paulo
89.116.115.157,4,2,hmlaw.com.br,BR,Americas,Latin America and the Caribbean,Brazil,São Paulo,,São Paulo
149.18.50.184,4,2,hnetsites.com.br,BR,Americas,Latin America and the Caribbean,Brazil,São Paulo,,São Paulo
35.247.255.203,4,6,ibccrim.org.br,BR,Americas,Latin America and the Caribbean,Brazil,São Paulo,,São Paulo
185.211.7.91,4,11,ibecensino.org.br,BR,Americas,Latin America and the Caribbean,Brazil,São Paulo,,São Paulo
15.229.60.254,4,3,ibgpconcursos.com.br,BR,Americas,Latin America and the Caribbean,Brazil,São Paulo,,São Paulo
54.232.109.197,4,5,ibgpconcursos.com.br,BR,Americas,Latin America and the Caribbean,Brazil,São Paulo,,São Paulo
185.173.111.224,4,4,idecan.org.br,BR,Americas,Latin America and the Caribbean,Brazil,São Paulo,,São Paulo
77.37.127.19,4,21,ieps.org.br,BR,Americas,Latin America and the Caribbean,Brazil,São Paulo,,São Paulo
154.49.247.168,4,3,imageagency.com.br,BR,Americas,Latin America and the Caribbean,Brazil,São Paulo,,São Paulo
144.22.207.102,4,3,impa.br,BR,Americas,Latin America and the Caribbean,Brazil,São Paulo,,São Paulo
119.8.73.248,4,91,infocampo.com.ar,BR,Americas,Latin America and the Caribbean,Brazil,São Paulo,,São Paulo
119.8.79.14,4,61,infotechnology.com,BR,Americas,Latin America and the Caribbean,Brazil,São Paulo,,São Paulo
119.8.87.48,4,2,infrasa.gov.br,BR,Americas,Latin America and the Caribbean,Brazil,São Paulo,,São Paulo
34.95.241.252,4,3,institutotomieohtake.org.br,BR,Americas,Latin America and the Caribbean,Brazil,São Paulo,,São Paulo
185.145.38.91,4,2,ipt.br,BR,Americas,Latin America and the Caribbean,Brazil,São Paulo,,São Paulo
62.72.62.228,4,2,issindustrial.com,BR,Americas,Latin America and the Caribbean,Brazil,São Paulo,,São Paulo
45.225.80.29,4,-12,jmvstream.com,BR,Americas,Latin America and the Caribbean,Brazil,São Paulo,,São Paulo
195.35.41.210,4,3,jornaldiadia.com.br,BR,Americas,Latin America and the Caribbean,Brazil,São Paulo,,São Paulo
192.142.230.43,4,-6,jrs.digital,BR,Americas,Latin America and the Caribbean,Brazil,São Paulo,,São Paulo
195.200.3.167,4,2,judao.com.br,BR,Americas,Latin America and the Caribbean,Brazil,São Paulo,,São Paulo
167.88.35.228,4,2,juliapetit.com.br,BR,Americas,Latin America and the Caribbean,Brazil,São Paulo,,São Paulo
154.49.247.192,4,2,k10k.net,BR,Americas,Latin America and the Caribbean,Brazil,São Paulo,,São Paulo
89.116.115.76,4,19,kaseifu.biz,BR,Americas,Latin America and the Caribbean,Brazil,São Paulo,,São Paulo
62.72.62.31,4,12,kranec.ec,BR,Americas,Latin America and the Caribbean,Brazil,São Paulo,,São Paulo
93.127.188.200,4,20,landbroker.com.br,BR,Americas,Latin America and the Caribbean,Brazil,São Paulo,,São Paulo
34.151.213.219,4,2,leadster.com.br,BR,Americas,Latin America and the Caribbean,Brazil,São Paulo,,São Paulo
62.72.61.239,4,0,litci.org,BR,Americas,Latin America and the Caribbean,Brazil,São Paulo,,São Paulo
18.229.210.125,4,25,loja2.com.br,BR,Americas,Latin America and the Caribbean,Brazil,São Paulo,,São Paulo
187.109.36.173,4,8,macniteroi.com.br,BR,Americas,Latin America and the Caribbean,Brazil,São Paulo,,São Paulo
187.108.199.185,4,-8,macucosafari.com.br,BR,Americas,Latin America and the Caribbean,Brazil,São Paulo,,São Paulo
154.49.247.16,4,3,mamasijaya.do,BR,Americas,Latin America and the Caribbean,Brazil,São Paulo,,São Paulo
154.49.247.243,4,34,mantrabrain.com,BR,Americas,Latin America and the Caribbean,Brazil,São Paulo,,São Paulo
200.219.229.6,4,1234,marketbrindes.com.br,BR,Americas,Latin America and the Caribbean,Brazil,São Paulo,,São Paulo
200.201.204.37,4,69,marmorariacaragua.com.br,BR,Americas,Latin America and the Caribbean,Brazil,São Paulo,,São Paulo
200.201.217.116,4,32,marmorariajardimpaulista.com.br,BR,Americas,Latin America and the Caribbean,Brazil,São Paulo,,São Paulo
200.201.208.240,4,3,marmorariajardimpaulista.com.br,BR,Americas,Latin America and the Caribbean,Brazil,São Paulo,,São Paulo
177.52.160.17,4,1014,maujor.com,BR,Americas,Latin America and the Caribbean,Brazil,São Paulo,,São Paulo
119.8.77.137,4,32,mendozapost.com,BR,Americas,Latin America and the Caribbean,Brazil,São Paulo,,São Paulo
132.226.240.51,4,15,metodista.br,BR,Americas,Latin America and the Caribbean,Brazil,São Paulo,,São Paulo
82.180.159.139,4,2,mobilidadesampa.com.br,BR,Americas,Latin America and the Caribbean,Brazil,São Paulo,,São Paulo
154.49.247.71,4,33,momfit.pt,BR,Americas,Latin America and the Caribbean,Brazil,São Paulo,,São Paulo
23.219.67.23,4,4,natura.cl,BR,Americas,Latin America and the Caribbean,Brazil,São Paulo,,São Paulo
119.8.73.110,4,2,norton.com.ar,BR,Americas,Latin America and the Caribbean,Brazil,São Paulo,,São Paulo
35.247.224.108,4,21,novomomento.com.br,BR,Americas,Latin America and the Caribbean,Brazil,São Paulo,,São Paulo
192.142.231.199,4,772,npiconsultoria.com.br,BR,Americas,Latin America and the Caribbean,Brazil,São Paulo,,São Paulo
217.196.57.229,4,4,nucleoexpert.com,BR,Americas,Latin America and the Caribbean,Brazil,São Paulo,,São Paulo
195.200.3.53,4,-1,oakup.com.br,BR,Americas,Latin America and the Caribbean,Brazil,São Paulo,,São Paulo
52.67.98.226,4,12,oceane.com.br,BR,Americas,Latin America and the Caribbean,Brazil,São Paulo,,São Paulo
45.152.44.201,4,21,oficinabeiramarnorte.com.br,BR,Americas,Latin America and the Caribbean,Brazil,São Paulo,,São Paulo
144.22.243.235,4,32,oliberal.com,BR,Americas,Latin America and the Caribbean,Brazil,São Paulo,,São Paulo
154.56.48.144,4,29,omelhortrato.com,BR,Americas,Latin America and the Caribbean,Brazil,São Paulo,,São Paulo
66.22.76.160,4,15,omint.com.br,BR,Americas,Latin America and the Caribbean,Brazil,São Paulo,,São Paulo
189.91.0.3,4,300,Ookla Speedtest Server 18341: vel-dvl.soumaster.com.br,BR,Americas,Latin America and the Caribbean,Brazil,São Paulo,,São Paulo
200.152.70.142,4,268,Ookla Speedtest Server 19751: fujin.tdkom.psi.br,BR,Americas,Latin America and the Caribbean,Brazil,São Paulo,,São Paulo
170.81.23.226,4,375,Ookla Speedtest Server 21841: speed.worldfast.net.br,BR,Americas,Latin America and the Caribbean,Brazil,São Paulo,,São Paulo
45.185.71.246,4,374,Ookla Speedtest Server 29860: speed.dwnet.com.br,BR,Americas,Latin America and the Caribbean,Brazil,São Paulo,,São Paulo
200.170.249.11,4,331,Ookla Speedtest Server 39319: speedtest.noova.net.br,BR,Americas,Latin America and the Caribbean,Brazil,São Paulo,,São Paulo
45.189.68.29,4,118814,Ookla Speedtest Server 41944: teste.speedjet.com.br,BR,Americas,Latin America and the Caribbean,Brazil,São Paulo,,São Paulo
190.11.216.20,4,404,Ookla Speedtest Server 43277: speedtest.conectagold.com.br,BR,Americas,Latin America and the Caribbean,Brazil,São Paulo,,São Paulo
192.140.8.3,4,17044,Ookla Speedtest Server 52551: test.wjinternet.com.br,BR,Americas,Latin America and the Caribbean,Brazil,São Paulo,,São Paulo
143.208.225.10,4,276,Ookla Speedtest Server 63831: stmc.acessopoint.com.br,BR,Americas,Latin America and the Caribbean,Brazil,São Paulo,,São Paulo
200.25.58.86,4,10,Ookla Speedtest Server: spt-sao1.edgeuno.com,BR,Americas,Latin America and the Caribbean,Brazil,São Paulo,,São Paulo
45.239.180.37,4,4,Ookla Speedtest Server: stmc.foxmir.com.br,BR,Americas,Latin America and the Caribbean,Brazil,São Paulo,,São Paulo
200.155.190.242,4,45517,Ookla Speedtest Server: teste.connectmastertelecom.com.br,BR,Americas,Latin America and the Caribbean,Brazil,São Paulo,,São Paulo
201.69.104.106,4,6856,Ookla Speedtest Server: teste.moovenet.com.br,BR,Americas,Latin America and the Caribbean,Brazil,São Paulo,,São Paulo
45.152.46.245,4,32,oreidaempilhadeira.com.br,BR,Americas,Latin America and the Caribbean,Brazil,São Paulo,,São Paulo
89.116.58.1,4,4,organizze.com.br,BR,Americas,Latin America and the Caribbean,Brazil,São Paulo,,São Paulo
85.31.60.179,4,3,osaopaulo.org.br,BR,Americas,Latin America and the Caribbean,Brazil,São Paulo,,São Paulo
185.245.180.246,4,16,otca.org,BR,Americas,Latin America and the Caribbean,Brazil,São Paulo,,São Paulo
187.32.229.73,4,8,ovale.com.br,BR,Americas,Latin America and the Caribbean,Brazil,São Paulo,,São Paulo
147.79.88.176,4,1,pacifista.tv,BR,Americas,Latin America and the Caribbean,Brazil,São Paulo,,São Paulo
177.54.145.109,4,-1,palcomp3.com.br,BR,Americas,Latin America and the Caribbean,Brazil,São Paulo,,São Paulo
177.54.145.106,4,53,palcomp3.com.br,BR,Americas,Latin America and the Caribbean,Brazil,São Paulo,,São Paulo
177.54.145.110,4,0,palcomp3.com.br,BR,Americas,Latin America and the Caribbean,Brazil,São Paulo,,São Paulo
177.54.145.108,4,12,palcomp3.com.br,BR,Americas,Latin America and the Caribbean,Brazil,São Paulo,,São Paulo
82.112.247.126,4,16,pawbhau.com,BR,Americas,Latin America and the Caribbean,Brazil,São Paulo,,São Paulo
45.152.44.110,4,7,pcb.org.br,BR,Americas,Latin America and the Caribbean,Brazil,São Paulo,,São Paulo
177.52.160.222,4,24,pieroniconsultoria.com.br,BR,Americas,Latin America and the Caribbean,Brazil,São Paulo,,São Paulo
147.79.92.179,4,24,planejadorweb.com.br,BR,Americas,Latin America and the Caribbean,Brazil,São Paulo,,São Paulo
45.152.46.99,4,11,portalbromo.com,BR,Americas,Latin America and the Caribbean,Brazil,São Paulo,,São Paulo
159.138.208.131,4,26,portalcofen.gov.br,BR,Americas,Latin America and the Caribbean,Brazil,São Paulo,,São Paulo
159.138.208.143,4,20,portalcofen.gov.br,BR,Americas,Latin America and the Caribbean,Brazil,São Paulo,,São Paulo
159.138.208.105,4,40,portalcofen.gov.br,BR,Americas,Latin America and the Caribbean,Brazil,São Paulo,,São Paulo
82.180.156.28,4,30,portaldotransito.com.br,BR,Americas,Latin America and the Caribbean,Brazil,São Paulo,,São Paulo
54.94.196.116,4,2,portaliso.com,BR,Americas,Latin America and the Caribbean,Brazil,São Paulo,,São Paulo
195.200.3.149,4,26,portalrbn.com.br,BR,Americas,Latin America and the Caribbean,Brazil,São Paulo,,São Paulo
89.116.115.130,4,0,pousadatonymontana.com.br,BR,Americas,Latin America and the Caribbean,Brazil,São Paulo,,São Paulo
82.180.134.246,4,60,procuradaela.org.br,BR,Americas,Latin America and the Caribbean,Brazil,São Paulo,,São Paulo
187.102.244.76,4,67,profesionalsdr.store,BR,Americas,Latin America and the Caribbean,Brazil,São Paulo,,São Paulo
195.35.41.216,4,71,programacentelha.com.br,BR,Americas,Latin America and the Caribbean,Brazil,São Paulo,,São Paulo
66.22.76.97,4,51,protestosp.com.br,BR,Americas,Latin America and the Caribbean,Brazil,São Paulo,,São Paulo
200.201.133.212,4,0,r5produtora.com.br,BR,Americas,Latin America and the Caribbean,Brazil,São Paulo,,São Paulo
143.208.8.36,4,116,radiojovemrio.com.br,BR,Americas,Latin America and the Caribbean,Brazil,São Paulo,,São Paulo
45.152.46.112,4,79,radiosplendid.bo,BR,Americas,Latin America and the Caribbean,Brazil,São Paulo,,São Paulo
217.196.57.83,4,23,radiotransamerica.com.br,BR,Americas,Latin America and the Caribbean,Brazil,São Paulo,,São Paulo
154.49.247.206,4,26,rapiclic.com,BR,Americas,Latin America and the Caribbean,Brazil,São Paulo,,São Paulo
185.239.210.40,4,0,redebomdia.com.br,BR,Americas,Latin America and the Caribbean,Brazil,São Paulo,,São Paulo
185.239.210.35,4,21,redrental.com.br,BR,Americas,Latin America and the Caribbean,Brazil,São Paulo,,São Paulo
195.200.3.177,4,5,releas-e.com,BR,Americas,Latin America and the Caribbean,Brazil,São Paulo,,São Paulo
89.116.224.176,4,19,revistaapolice.com.br,BR,Americas,Latin America and the Caribbean,Brazil,São Paulo,,São Paulo
34.95.255.102,4,4,revistacultivar.com.br,BR,Americas,Latin America and the Caribbean,Brazil,São Paulo,,São Paulo
34.151.220.116,4,2,riweb.com.br,BR,Americas,Latin America and the Caribbean,Brazil,São Paulo,,São Paulo
82.180.158.171,4,36,roupasnoatacado.com.br,BR,Americas,Latin America and the Caribbean,Brazil,São Paulo,,São Paulo
82.180.158.103,4,2,sbpc.org.br,BR,Americas,Latin America and the Caribbean,Brazil,São Paulo,,São Paulo
143.107.52.102,4,5,sbq.org.br,BR,Americas,Latin America and the Caribbean,Brazil,São Paulo,,São Paulo
18.228.208.238,4,1,seade.gov.br,BR,Americas,Latin America and the Caribbean,Brazil,São Paulo,,São Paulo
177.52.160.60,4,481,seuspazio.com.br,BR,Americas,Latin America and the Caribbean,Brazil,São Paulo,,São Paulo
34.95.179.30,4,10,shoppingchina.com.py,BR,Americas,Latin America and the Caribbean,Brazil,São Paulo,,São Paulo
184.85.136.103,4,3,sicredi.com.br,BR,Americas,Latin America and the Caribbean,Brazil,São Paulo,,São Paulo
143.208.8.19,4,10,sindiquimicoscolorado.com.br,BR,Americas,Latin America and the Caribbean,Brazil,São Paulo,,São Paulo
154.49.247.162,4,4,sjsp.org.br,BR,Americas,Latin America and the Caribbean,Brazil,São Paulo,,São Paulo
82.112.247.125,4,15,solaresrio.com.br,BR,Americas,Latin America and the Caribbean,Brazil,São Paulo,,São Paulo
154.56.48.230,4,19,soumaislinux.com.br,BR,Americas,Latin America and the Caribbean,Brazil,São Paulo,,São Paulo
62.72.62.83,4,10,spazziohotel.com.br,BR,Americas,Latin America and the Caribbean,Brazil,São Paulo,,São Paulo
77.37.127.87,4,45,sportrecife.com.br,BR,Americas,Latin America and the Caribbean,Brazil,São Paulo,,São Paulo
154.49.247.150,4,4,sporty.com.ar,BR,Americas,Latin America and the Caribbean,Brazil,São Paulo,,São Paulo
177.54.145.107,4,28,sscdn.co,BR,Americas,Latin America and the Caribbean,Brazil,São Paulo,,São Paulo
185.239.210.64,4,4,taecmodulos.com.br,BR,Americas,Latin America and the Caribbean,Brazil,São Paulo,,São Paulo
154.49.247.148,4,3,takemyonlineexamforme.com,BR,Americas,Latin America and the Caribbean,Brazil,São Paulo,,São Paulo
170.82.174.30,4,26,thecap.com.br,BR,Americas,Latin America and the Caribbean,Brazil,São Paulo,,São Paulo
170.82.173.30,4,16,thecap.com.br,BR,Americas,Latin America and the Caribbean,Brazil,São Paulo,,São Paulo
93.127.210.231,4,0,thegirlscurls.com,BR,Americas,Latin America and the Caribbean,Brazil,São Paulo,,São Paulo
18.228.76.50,4,4,tofindmould.com,BR,Americas,Latin America and the Caribbean,Brazil,São Paulo,,São Paulo
35.198.7.224,4,35,topsony.com,BR,Americas,Latin America and the Caribbean,Brazil,São Paulo,,São Paulo
54.207.27.249,4,8,totalexpress.com.br,BR,Americas,Latin America and the Caribbean,Brazil,São Paulo,,São Paulo
54.94.73.112,4,8,totalexpress.com.br,BR,Americas,Latin America and the Caribbean,Brazil,São Paulo,,São Paulo
54.233.129.83,4,3,totalexpress.com.br,BR,Americas,Latin America and the Caribbean,Brazil,São Paulo,,São Paulo
151.101.249.124,4,5,tractorpartsasap.com,BR,Americas,Latin America and the Caribbean,Brazil,São Paulo,,São Paulo
89.116.115.10,4,4,ucp.br,BR,Americas,Latin America and the Caribbean,Brazil,São Paulo,,São Paulo
149.100.155.56,4,-1,udhec.com.br,BR,Americas,Latin America and the Caribbean,Brazil,São Paulo,,São Paulo
186.193.230.94,4,27,udop.com.br,BR,Americas,Latin America and the Caribbean,Brazil,São Paulo,,São Paulo
18.229.230.129,4,33877,uece.br,BR,Americas,Latin America and the Caribbean,Brazil,São Paulo,,São Paulo
54.232.162.15,4,33869,uece.br,BR,Americas,Latin America and the Caribbean,Brazil,São Paulo,,São Paulo
152.67.36.184,4,5,uerr.edu.br,BR,Americas,Latin America and the Caribbean,Brazil,São Paulo,,São Paulo
144.22.145.254,4,8,unemat.br,BR,Americas,Latin America and the Caribbean,Brazil,São Paulo,,São Paulo
185.139.2.143,4,2,unifeob.edu.br,BR,Americas,Latin America and the Caribbean,Brazil,São Paulo,,São Paulo
185.213.81.182,4,2172,unifil.br,BR,Americas,Latin America and the Caribbean,Brazil,São Paulo,,São Paulo
35.198.61.223,4,22,unisc.br,BR,Americas,Latin America and the Caribbean,Brazil,São Paulo,,São Paulo
35.198.32.34,4,20,unisc.br,BR,Americas,Latin America and the Caribbean,Brazil,São Paulo,,São Paulo
154.49.247.163,4,7,vegaspeoples.com,BR,Americas,Latin America and the Caribbean,Brazil,São Paulo,,São Paulo
170.82.173.15,4,21,verdesmares.com.br,BR,Americas,Latin America and the Caribbean,Brazil,São Paulo,,São Paulo
170.82.174.15,4,8,verdesmares.com.br,BR,Americas,Latin America and the Caribbean,Brazil,São Paulo,,São Paulo
170.82.173.10,4,2,vittude.com,BR,Americas,Latin America and the Caribbean,Brazil,São Paulo,,São Paulo
170.82.174.10,4,9,vittude.com,BR,Americas,Latin America and the Caribbean,Brazil,São Paulo,,São Paulo
35.198.48.77,4,7,walmartbrasil.com.br,BR,Americas,Latin America and the Caribbean,Brazil,São Paulo,,São Paulo
195.35.17.224,4,19,webcitizen.com.br,BR,Americas,Latin America and the Caribbean,Brazil,São Paulo,,São Paulo
82.180.153.184,4,1,webfun.com.br,BR,Americas,Latin America and the Caribbean,Brazil,São Paulo,,São Paulo
35.198.35.247,4,-80,xlx300.net,BR,Americas,Latin America and the Caribbean,Brazil,São Paulo,,São Paulo
