reflector_ip,ip_version,offset,description,country_code,region,sub_region,country_name,sub_division_1,sub_division_2,city
207.244.126.216,4,31,adminmenueditor.com,US,Americas,Northern America,United States of America,District of Columbia,,Washington
207.244.112.197,4,22,adonde.com,US,Americas,Northern America,United States of America,District of Columbia,,Washington
35.194.89.119,4,4,aegistrust.org,US,Americas,Northern America,United States of America,District of Columbia,,Washington
34.48.142.29,4,22,alachisoft.com,US,Americas,Northern America,United States of America,District of Columbia,,Washington
207.244.127.159,4,12,alidropship.com,US,Americas,Northern America,United States of America,District of Columbia,,Washington
207.244.126.130,4,-2,alrajhilogistics.com,US,Americas,Northern America,United States of America,District of Columbia,,Washington
108.62.116.248,4,3,asgharent.com,US,Americas,Northern America,United States of America,District of Columbia,,Washington
35.245.209.169,4,4,atomex.net,US,Americas,Northern America,United States of America,District of Columbia,,Washington
35.245.127.94,4,9,beaconroofingsupply.com,US,Americas,Northern America,United States of America,District of Columbia,,Washington
34.86.44.71,4,4,bindb.com,US,Americas,Northern America,United States of America,District of Columbia,,Washington
35.245.227.66,4,4,buydeltas.com,US,Americas,Northern America,United States of America,District of Columbia,,Washington
35.245.35.97,4,2,canalstreet.market,US,Americas,Northern America,United States of America,District of Columbia,,Washington
34.48.203.194,4,5,chocolateplatform.com,US,Americas,Northern America,United States of America,District of Columbia,,Washington
35.245.163.74,4,4,churchleadership.com,US,Americas,Northern America,United States of America,District of Columbia,,Washington
35.212.99.68,4,3,csashows.com,US,Americas,Northern America,United States of America,District of Columbia,,Washington
162.221.168.120,4,138,DNS Server: 162-211-168-120.i95.net,US,Americas,Northern America,United States of America,District of Columbia,,Washington
50.211.142.201,4,10,DNS Server: 50-211-142-201-static.hfc.comcastbusiness.net,US,Americas,Northern America,United States of America,District of Columbia,,Washington
73.134.79.103,4,14,DNS Server: c-73-134-79-103.hsd1.md.comcast.net,US,Americas,Northern America,United States of America,District of Columbia,,Washington
34.150.221.24,4,2,documentedny.com,US,Americas,Northern America,United States of America,District of Columbia,,Washington
34.85.193.175,4,3,donnellyandassociates.com,US,Americas,Northern America,United States of America,District of Columbia,,Washington
34.85.166.143,4,7,driveinmovie.com,US,Americas,Northern America,United States of America,District of Columbia,,Washington
34.145.210.67,4,7,flashreport.org,US,Americas,Northern America,United States of America,District of Columbia,,Washington
207.244.112.210,4,5,greendayauthority.com,US,Americas,Northern America,United States of America,District of Columbia,,Washington
35.188.230.221,4,19,grouplogic.com,US,Americas,Northern America,United States of America,District of Columbia,,Washington
103.11.65.3,4,13,hudsonvalleynewsnetwork.com,US,Americas,Northern America,United States of America,District of Columbia,,Washington
207.244.125.227,4,5,insidehoops.com,US,Americas,Northern America,United States of America,District of Columbia,,Washington
173.244.210.96,4,4,kdei-taipei.org,US,Americas,Northern America,United States of America,District of Columbia,,Washington
198.7.57.103,4,790,kwve.com,US,Americas,Northern America,United States of America,District of Columbia,,Washington
35.199.32.25,4,69,logiwa.com,US,Americas,Northern America,United States of America,District of Columbia,,Washington
34.86.162.243,4,5,loomstate.org,US,Americas,Northern America,United States of America,District of Columbia,,Washington
198.7.59.168,4,27,mediasearchgroup.com,US,Americas,Northern America,United States of America,District of Columbia,,Washington
34.86.113.67,4,21,mobilepaymentstoday.com,US,Americas,Northern America,United States of America,District of Columbia,,Washington
34.150.138.240,4,13,montverde.org,US,Americas,Northern America,United States of America,District of Columbia,,Washington
207.244.112.21,4,29,mysite.lk,US,Americas,Northern America,United States of America,District of Columbia,,Washington
12.4.65.195,4,20,nabca.org,US,Americas,Northern America,United States of America,District of Columbia,,Washington
158.222.2.217,4,-1,nalgondadiary.com,US,Americas,Northern America,United States of America,District of Columbia,,Washington
35.236.228.73,4,4,nycollege.edu,US,Americas,Northern America,United States of America,District of Columbia,,Washington
35.245.121.68,4,7,ocugen.com,US,Americas,Northern America,United States of America,District of Columbia,,Washington
35.236.242.185,4,29,omniti.com,US,Americas,Northern America,United States of America,District of Columbia,,Washington
104.160.5.2,4,-103,onlinewebfonts.com,US,Americas,Northern America,United States of America,District of Columbia,,Washington
35.194.85.211,4,3,ontariondp.ca,US,Americas,Northern America,United States of America,District of Columbia,,Washington
8.3.87.2,4,285,Ookla Speedtest Server 20529: speedtest-server-ash.starry.com,US,Americas,Northern America,United States of America,District of Columbia,,Washington
142.154.193.50,4,373,Ookla Speedtest Server 21640: speedtest.iad01.wdc.pilotfiber.com,US,Americas,Northern America,United States of America,District of Columbia,,Washington
198.7.56.98,4,798,outlawmailer.com,US,Americas,Northern America,United States of America,District of Columbia,,Washington
198.7.58.213,4,828,plustek.com,US,Americas,Northern America,United States of America,District of Columbia,,Washington
205.134.163.86,4,30,ram.org,US,Americas,Northern America,United States of America,District of Columbia,,Washington
34.86.9.44,4,13,revx.io,US,Americas,Northern America,United States of America,District of Columbia,,Washington
207.244.126.110,4,-24,sarasotaaudubon.org,US,Americas,Northern America,United States of America,District of Columbia,,Washington
35.188.253.117,4,-14508,sealandgov.com,US,Americas,Northern America,United States of America,District of Columbia,,Washington
198.7.58.222,4,18,searchwarp.com,US,Americas,Northern America,United States of America,District of Columbia,,Washington
198.7.59.167,4,36,siteguarding.com,US,Americas,Northern America,United States of America,District of Columbia,,Washington
173.244.210.36,4,0,solidice.com,US,Americas,Northern America,United States of America,District of Columbia,,Washington
35.245.134.187,4,2,sportsmax.tv,US,Americas,Northern America,United States of America,District of Columbia,,Washington
207.172.157.181,4,35,starpower.net,US,Americas,Northern America,United States of America,District of Columbia,,Washington
34.86.1.2,4,3,stevenscollege.edu,US,Americas,Northern America,United States of America,District of Columbia,,Washington
35.212.122.218,4,1,tappx.com,US,Americas,Northern America,United States of America,District of Columbia,,Washington
35.212.77.82,4,1,tappx.com,US,Americas,Northern America,United States of America,District of Columbia,,Washington
35.199.15.96,4,2,testfort.com,US,Americas,Northern America,United States of America,District of Columbia,,Washington
35.199.15.236,4,8,thebuddhistcentre.com,US,Americas,Northern America,United States of America,District of Columbia,,Washington
35.245.219.195,4,17,thefileroom.org,US,Americas,Northern America,United States of America,District of Columbia,,Washington
35.245.195.247,4,23,thevisioncouncil.org,US,Americas,Northern America,United States of America,District of Columbia,,Washington
35.230.174.28,4,3,ticketpro.cl,US,Americas,Northern America,United States of America,District of Columbia,,Washington
35.245.187.85,4,5,tingen.law,US,Americas,Northern America,United States of America,District of Columbia,,Washington
4.16.244.8,4,21,trafficland.com,US,Americas,Northern America,United States of America,District of Columbia,,Washington
34.86.86.9,4,9,uavforecast.com,US,Americas,Northern America,United States of America,District of Columbia,,Washington
103.11.64.176,4,3,unaux.com,US,Americas,Northern America,United States of America,District of Columbia,,Washington
35.236.206.38,4,2,uptowork.com,US,Americas,Northern America,United States of America,District of Columbia,,Washington
35.236.250.114,4,29,vectorspace.ai,US,Americas,Northern America,United States of America,District of Columbia,,Washington
35.245.219.37,4,71,vectorspacebio.science,US,Americas,Northern America,United States of America,District of Columbia,,Washington
207.244.126.199,4,5,w-shadow.com,US,Americas,Northern America,United States of America,District of Columbia,,Washington
35.245.215.19,4,10,withoutsanctuary.org,US,Americas,Northern America,United States of America,District of Columbia,,Washington
