reflector_ip,ip_version,offset,description,country_code,region,sub_region,country_name,sub_division_1,sub_division_2,city
198.23.146.143,4,20,animeticket.com,US,Americas,Northern America,United States of America,Illinois,,Elk Grove Village
45.76.30.80,4,17,ariannaonline.com,US,Americas,Northern America,United States of America,Illinois,,Elk Grove Village
108.163.234.178,4,57,askbd.org,US,Americas,Northern America,United States of America,Illinois,,Elk Grove Village
45.63.67.119,4,-1,barkbusters.com,US,Americas,Northern America,United States of America,Illinois,,Elk Grove Village
192.210.200.48,4,16,bikecollectives.org,US,Americas,Northern America,United States of America,Illinois,,Elk Grove Village
206.217.132.182,4,4,biocleaninternational.com,US,Americas,Northern America,United States of America,Illinois,,Elk Grove Village
45.76.225.58,4,21,borderlessmag.org,US,Americas,Northern America,United States of America,Illinois,,Elk Grove Village
45.76.31.42,4,4,btfaq.com,US,Americas,Northern America,United States of America,Illinois,,Elk Grove Village
45.76.20.6,4,10,captainaltcoin.com,US,Americas,Northern America,United States of America,Illinois,,Elk Grove Village
198.144.183.26,4,4,caycanhthiennhien.com,US,Americas,Northern America,United States of America,Illinois,,Elk Grove Village
66.42.125.196,4,18,centerstagechicago.com,US,Americas,Northern America,United States of America,Illinois,,Elk Grove Village
172.245.94.102,4,4,cheese.beer,US,Americas,Northern America,United States of America,Illinois,,Elk Grove Village
149.28.115.12,4,7,chicagoharbors.info,US,Americas,Northern America,United States of America,Illinois,,Elk Grove Village
172.245.139.27,4,1,clearybuilding.com,US,Americas,Northern America,United States of America,Illinois,,Elk Grove Village
167.160.175.233,4,34,computerrepairexpert.com,US,Americas,Northern America,United States of America,Illinois,,Elk Grove Village
45.63.67.102,4,5,contrastly.com,US,Americas,Northern America,United States of America,Illinois,,Elk Grove Village
108.61.202.22,4,-5827,dbit.com,US,Americas,Northern America,United States of America,Illinois,,Elk Grove Village
149.28.114.194,4,6,diamondkotesiding.com,US,Americas,Northern America,United States of America,Illinois,,Elk Grove Village
45.63.64.161,4,4,diawellfurniture.com,US,Americas,Northern America,United States of America,Illinois,,Elk Grove Village
107.174.206.218,4,4,DNS Server: 107-174-206-218-host.colocrossing.com,US,Americas,Northern America,United States of America,Illinois,,Elk Grove Village
192.227.155.216,4,5,DNS Server: 192-227-155-216-host.colocrossing.com,US,Americas,Northern America,United States of America,Illinois,,Elk Grove Village
198.23.144.89,4,20,DNS Server: 198-23-144-89-host.colocrossing.com,US,Americas,Northern America,United States of America,Illinois,,Elk Grove Village
198.23.238.196,4,-26064439,DNS Server: 198-23-238-196-host.enwebhost.net,US,Americas,Northern America,United States of America,Illinois,,Elk Grove Village
38.124.38.1,4,604,DNS Server: gi100-0-0-10.nr11.b022161-0.ord01.atlas.cogentco.com,US,Americas,Northern America,United States of America,Illinois,,Elk Grove Village
207.148.13.106,4,5,echolimousine.com,US,Americas,Northern America,United States of America,Illinois,,Elk Grove Village
45.63.67.87,4,26,edicolaweb.net,US,Americas,Northern America,United States of America,Illinois,,Elk Grove Village
45.76.23.225,4,4,edunaissance.school,US,Americas,Northern America,United States of America,Illinois,,Elk Grove Village
64.250.117.68,4,-5,egservice.com.ve,US,Americas,Northern America,United States of America,Illinois,,Elk Grove Village
107.150.28.20,4,15,enter-sys.com,US,Americas,Northern America,United States of America,Illinois,,Elk Grove Village
45.63.64.45,4,4,eradman.com,US,Americas,Northern America,United States of America,Illinois,,Elk Grove Village
198.144.179.206,4,3,fotosdefrases.com,US,Americas,Northern America,United States of America,Illinois,,Elk Grove Village
144.202.57.63,4,24,freewarefiles.com,US,Americas,Northern America,United States of America,Illinois,,Elk Grove Village
23.94.131.3,4,4,g2g168f.mobi,US,Americas,Northern America,United States of America,Illinois,,Elk Grove Village
149.28.126.167,4,3,hammockbeach.com,US,Americas,Northern America,United States of America,Illinois,,Elk Grove Village
96.8.117.3,4,8,heartsacrossthemiles.org,US,Americas,Northern America,United States of America,Illinois,,Elk Grove Village
149.28.115.134,4,2,herorandom.com,US,Americas,Northern America,United States of America,Illinois,,Elk Grove Village
45.63.76.87,4,44,homeslandcountrypropertyforsale.com,US,Americas,Northern America,United States of America,Illinois,,Elk Grove Village
172.245.38.3,4,15,homesteadstores.com,US,Americas,Northern America,United States of America,Illinois,,Elk Grove Village
23.215.11.240,4,33,ialottery.com,US,Americas,Northern America,United States of America,Illinois,,Elk Grove Village
104.207.143.9,4,8,ianix.com,US,Americas,Northern America,United States of America,Illinois,,Elk Grove Village
45.63.64.104,4,14,imaginegnats.com,US,Americas,Northern America,United States of America,Illinois,,Elk Grove Village
104.238.165.137,4,6,kidsquest.com,US,Americas,Northern America,United States of America,Illinois,,Elk Grove Village
45.76.22.15,4,36,kindofnormal.com,US,Americas,Northern America,United States of America,Illinois,,Elk Grove Village
192.210.237.89,4,6,letsgoplayinc.org,US,Americas,Northern America,United States of America,Illinois,,Elk Grove Village
66.42.119.162,4,4,mathgenealogy.org,US,Americas,Northern America,United States of America,Illinois,,Elk Grove Village
198.144.186.25,4,7,mickeypath.com,US,Americas,Northern America,United States of America,Illinois,,Elk Grove Village
108.174.56.233,4,16,mikis-theodorakis.net,US,Americas,Northern America,United States of America,Illinois,,Elk Grove Village
104.207.138.20,4,19,myelomabeacon.com,US,Americas,Northern America,United States of America,Illinois,,Elk Grove Village
45.63.75.27,4,0,myspybot.com,US,Americas,Northern America,United States of America,Illinois,,Elk Grove Village
206.217.130.134,4,7,ngoinabox.org,US,Americas,Northern America,United States of America,Illinois,,Elk Grove Village
144.202.48.102,4,1,nirs.org,US,Americas,Northern America,United States of America,Illinois,,Elk Grove Village
198.144.186.118,4,4,normasbrasil.com.br,US,Americas,Northern America,United States of America,Illinois,,Elk Grove Village
66.42.125.135,4,4,northernillinoisrecovery.com,US,Americas,Northern America,United States of America,Illinois,,Elk Grove Village
108.174.48.161,4,9,omg333.mobi,US,Americas,Northern America,United States of America,Illinois,,Elk Grove Village
45.63.65.162,4,28,paradisus.day,US,Americas,Northern America,United States of America,Illinois,,Elk Grove Village
108.61.203.226,4,3,paynelesstravel.com,US,Americas,Northern America,United States of America,Illinois,,Elk Grove Village
45.63.70.16,4,34,pslover.com,US,Americas,Northern America,United States of America,Illinois,,Elk Grove Village
198.23.228.254,4,3,realtimelogic.com,US,Americas,Northern America,United States of America,Illinois,,Elk Grove Village
216.128.146.192,4,28,redstarpictures.com,US,Americas,Northern America,United States of America,Illinois,,Elk Grove Village
216.128.147.54,4,28,rprogress.org,US,Americas,Northern America,United States of America,Illinois,,Elk Grove Village
45.63.71.237,4,3,saberhealth.com,US,Americas,Northern America,United States of America,Illinois,,Elk Grove Village
96.8.119.220,4,5,saveinvestbecomefree.com,US,Americas,Northern America,United States of America,Illinois,,Elk Grove Village
66.42.125.117,4,6,scottfujita.com,US,Americas,Northern America,United States of America,Illinois,,Elk Grove Village
216.128.149.75,4,2,sevencounties.org,US,Americas,Northern America,United States of America,Illinois,,Elk Grove Village
149.28.121.93,4,6,shareonall.com,US,Americas,Northern America,United States of America,Illinois,,Elk Grove Village
144.202.55.107,4,11,slackerwood.com,US,Americas,Northern America,United States of America,Illinois,,Elk Grove Village
104.238.164.225,4,10,tapesntapes.com,US,Americas,Northern America,United States of America,Illinois,,Elk Grove Village
199.21.113.0,4,4,theburnward.com,US,Americas,Northern America,United States of America,Illinois,,Elk Grove Village
144.202.61.32,4,7,theburrard.com,US,Americas,Northern America,United States of America,Illinois,,Elk Grove Village
45.76.22.172,4,2,tireer.com,US,Americas,Northern America,United States of America,Illinois,,Elk Grove Village
45.76.229.187,4,6,torhoermanlaw.com,US,Americas,Northern America,United States of America,Illinois,,Elk Grove Village
144.202.50.98,4,1,towfiqi.com,US,Americas,Northern America,United States of America,Illinois,,Elk Grove Village
172.245.86.133,4,7,traveldiscreet.co.il,US,Americas,Northern America,United States of America,Illinois,,Elk Grove Village
96.8.122.200,4,22,trioilresources.com,US,Americas,Northern America,United States of America,Illinois,,Elk Grove Village
137.220.61.89,4,12,trulaw.com,US,Americas,Northern America,United States of America,Illinois,,Elk Grove Village
66.225.195.141,4,15,ultramusic.biz,US,Americas,Northern America,United States of America,Illinois,,Elk Grove Village
45.63.65.23,4,19,untroubled.org,US,Americas,Northern America,United States of America,Illinois,,Elk Grove Village
198.144.181.98,4,22,uscounties.com,US,Americas,Northern America,United States of America,Illinois,,Elk Grove Village
66.42.117.103,4,2,vimedbil.no,US,Americas,Northern America,United States of America,Illinois,,Elk Grove Village
149.28.121.105,4,26,vladtepesblog.com,US,Americas,Northern America,United States of America,Illinois,,Elk Grove Village
149.28.119.253,4,16,wearableworld.co,US,Americas,Northern America,United States of America,Illinois,,Elk Grove Village
137.220.62.207,4,4,wegnercpas.com,US,Americas,Northern America,United States of America,Illinois,,Elk Grove Village
45.63.74.252,4,3,well-fedsoul.com,US,Americas,Northern America,United States of America,Illinois,,Elk Grove Village
207.148.9.103,4,4,whatchristianswanttoknow.com,US,Americas,Northern America,United States of America,Illinois,,Elk Grove Village
107.191.48.146,4,10,wmc.org,US,Americas,Northern America,United States of America,Illinois,,Elk Grove Village
149.28.117.168,4,1,wppluginsify.com,US,Americas,Northern America,United States of America,Illinois,,Elk Grove Village
66.42.115.210,4,91,xn--idrottsnrd-lcb.se,US,Americas,Northern America,United States of America,Illinois,,Elk Grove Village
45.76.27.5,4,24,xn--matochkk-t4a.se,US,Americas,Northern America,United States of America,Illinois,,Elk Grove Village
144.202.54.110,4,85,xn--sknhetochstil-jmb.se,US,Americas,Northern America,United States of America,Illinois,,Elk Grove Village
137.220.57.214,4,3,yeson19.com,US,Americas,Northern America,United States of America,Illinois,,Elk Grove Village
206.217.137.40,4,3,youtuberepeater.com,US,Americas,Northern America,United States of America,Illinois,,Elk Grove Village
