reflector_ip,ip_version,offset,description,country_code,region,sub_region,country_name,sub_division_1,sub_division_2,city
208.100.57.40,4,-10079,boat-design.net,US,Americas,Northern America,United States of America,Illinois,,Winnetka
208.100.49.52,4,3,brushd.com,US,Americas,Northern America,United States of America,Illinois,,Winnetka
208.100.53.75,4,46,campjellystone.com,US,Americas,Northern America,United States of America,Illinois,,Winnetka
208.100.57.214,4,13,canadianoutdoorequipment.com,US,Americas,Northern America,United States of America,Illinois,,Winnetka
208.100.36.102,4,4,carinsurancerates.com,US,Americas,Northern America,United States of America,Illinois,,Winnetka
208.100.31.41,4,2,citizendium.org,US,Americas,Northern America,United States of America,Illinois,,Winnetka
208.100.38.218,4,3,clixtrac.com,US,Americas,Northern America,United States of America,Illinois,,Winnetka
208.100.57.47,4,-10026,colorprintingforum.com,US,Americas,Northern America,United States of America,Illinois,,Winnetka
208.100.53.219,4,42,ellsworthcheese.com,US,Americas,Northern America,United States of America,Illinois,,Winnetka
208.100.11.186,4,35,familybank.co.ke,US,Americas,Northern America,United States of America,Illinois,,Winnetka
208.100.15.76,4,2,fulltimefantasy.com,US,Americas,Northern America,United States of America,Illinois,,Winnetka
208.100.11.184,4,4,gisuser.com,US,Americas,Northern America,United States of America,Illinois,,Winnetka
208.100.15.106,4,-3,heinzfield.com,US,Americas,Northern America,United States of America,Illinois,,Winnetka
208.100.27.56,4,2,hyperacusis.net,US,Americas,Northern America,United States of America,Illinois,,Winnetka
208.100.22.149,4,4,necromanthus.com,US,Americas,Northern America,United States of America,Illinois,,Winnetka
208.100.53.156,4,3,physicianonfire.com,US,Americas,Northern America,United States of America,Illinois,,Winnetka
208.100.57.43,4,-9366,powerboatlistings.com,US,Americas,Northern America,United States of America,Illinois,,Winnetka
208.100.35.104,4,3,randolphschool.net,US,Americas,Northern America,United States of America,Illinois,,Winnetka
208.100.35.73,4,15,rivetedlit.com,US,Americas,Northern America,United States of America,Illinois,,Winnetka
208.100.53.19,4,4,ruralassembly.org,US,Americas,Northern America,United States of America,Illinois,,Winnetka
208.100.35.69,4,6,sailboatlistings.com,US,Americas,Northern America,United States of America,Illinois,,Winnetka
208.100.42.9,4,1,stirlingengine.com,US,Americas,Northern America,United States of America,Illinois,,Winnetka
208.100.53.13,4,18,thehappyscraps.com,US,Americas,Northern America,United States of America,Illinois,,Winnetka
208.100.53.111,4,23,thesummeryumbrella.com,US,Americas,Northern America,United States of America,Illinois,,Winnetka
208.100.46.78,4,6,wayalife.com,US,Americas,Northern America,United States of America,Illinois,,Winnetka
208.100.26.31,4,2,wintercohen.com,US,Americas,Northern America,United States of America,Illinois,,Winnetka
208.100.23.152,4,13,writerstheatre.org,US,Americas,Northern America,United States of America,Illinois,,Winnetka
208.100.53.17,4,11,yoursandmineareours.com,US,Americas,Northern America,United States of America,Illinois,,Winnetka
