reflector_ip,ip_version,offset,description,country_code,region,sub_region,country_name,sub_division_1,sub_division_2,city
92.204.139.164,4,3,1stinflowers.com,US,Americas,Northern America,United States of America,Virginia,,Warrenton
92.204.133.186,4,25,analyticsinsight.net,US,Americas,Northern America,United States of America,Virginia,,Warrenton
92.204.136.134,4,12,arcadiabio.com,US,Americas,Northern America,United States of America,Virginia,,Warrenton
92.204.139.20,4,56,area419.com,US,Americas,Northern America,United States of America,Virginia,,Warrenton
92.204.129.161,4,5,asburyauto.com,US,Americas,Northern America,United States of America,Virginia,,Warrenton
92.204.134.5,4,61,astemplates.com,US,Americas,Northern America,United States of America,Virginia,,Warrenton
135.148.171.152,4,61,aulart.com,US,Americas,Northern America,United States of America,Virginia,,Warrenton
92.204.129.165,4,34,balconygardenweb.com,US,Americas,Northern America,United States of America,Virginia,,Warrenton
92.204.128.47,4,12,borntoride.com,US,Americas,Northern America,United States of America,Virginia,,Warrenton
92.204.139.135,4,73,budtrader.com,US,Americas,Northern America,United States of America,Virginia,,Warrenton
92.204.128.82,4,32,chromaate.com,US,Americas,Northern America,United States of America,Virginia,,Warrenton
92.204.135.182,4,49,compositeenvisions.com,US,Americas,Northern America,United States of America,Virginia,,Warrenton
92.204.138.91,4,4,conquerclub.com,US,Americas,Northern America,United States of America,Virginia,,Warrenton
92.204.129.196,4,2,constructech.com,US,Americas,Northern America,United States of America,Virginia,,Warrenton
51.81.56.217,4,7,demisexuality.org,US,Americas,Northern America,United States of America,Virginia,,Warrenton
92.204.128.159,4,118,DNS Server: ns1002327.ip-92-204-128.us,US,Americas,Northern America,United States of America,Virginia,,Warrenton
92.204.133.70,4,71,DNS Server: ns1004430.ip-92-204-133.us,US,Americas,Northern America,United States of America,Virginia,,Warrenton
92.204.133.91,4,138,DNS Server: ns1004447.ip-92-204-133.us,US,Americas,Northern America,United States of America,Virginia,,Warrenton
92.204.134.69,4,138,DNS Server: ns1005409.ip-92-204-134.us,US,Americas,Northern America,United States of America,Virginia,,Warrenton
92.204.128.96,4,9,dodsonandross.com,US,Americas,Northern America,United States of America,Virginia,,Warrenton
135.148.34.74,4,8,dottech.org,US,Americas,Northern America,United States of America,Virginia,,Warrenton
135.148.34.95,4,7,dpcj.org,US,Americas,Northern America,United States of America,Virginia,,Warrenton
92.204.135.212,4,20,ecmc.edu,US,Americas,Northern America,United States of America,Virginia,,Warrenton
92.204.138.102,4,9,epiloglaser.com,US,Americas,Northern America,United States of America,Virginia,,Warrenton
92.204.129.195,4,19,farmerboys.com,US,Americas,Northern America,United States of America,Virginia,,Warrenton
92.204.134.139,4,5,gotitlocal.com,US,Americas,Northern America,United States of America,Virginia,,Warrenton
92.204.129.236,4,20,greatdubai.com,US,Americas,Northern America,United States of America,Virginia,,Warrenton
135.148.34.182,4,19,grillgasexpress.com,US,Americas,Northern America,United States of America,Virginia,,Warrenton
51.81.107.179,4,12,iitjobs.com,US,Americas,Northern America,United States of America,Virginia,,Warrenton
92.204.138.25,4,19,inpublicsafety.com,US,Americas,Northern America,United States of America,Virginia,,Warrenton
92.204.135.129,4,51,interfacett.com,US,Americas,Northern America,United States of America,Virginia,,Warrenton
92.204.138.22,4,26,internationaljournalssrg.org,US,Americas,Northern America,United States of America,Virginia,,Warrenton
92.204.132.165,4,2,kansassampler.org,US,Americas,Northern America,United States of America,Virginia,,Warrenton
135.148.34.53,4,6,kitty.social,US,Americas,Northern America,United States of America,Virginia,,Warrenton
51.81.46.163,4,9,ldsgenealogy.com,US,Americas,Northern America,United States of America,Virginia,,Warrenton
92.204.128.116,4,2,lhochsteinmd.com,US,Americas,Northern America,United States of America,Virginia,,Warrenton
92.204.136.108,4,26,liftedmade.com,US,Americas,Northern America,United States of America,Virginia,,Warrenton
92.204.139.25,4,21,lumhs.edu.pk,US,Americas,Northern America,United States of America,Virginia,,Warrenton
92.204.135.152,4,260,maloneautoracks.com,US,Americas,Northern America,United States of America,Virginia,,Warrenton
92.204.129.8,4,2,marquemedical.com,US,Americas,Northern America,United States of America,Virginia,,Warrenton
92.204.132.155,4,23,marvimon.com,US,Americas,Northern America,United States of America,Virginia,,Warrenton
92.204.132.36,4,27,megatan.online,US,Americas,Northern America,United States of America,Virginia,,Warrenton
51.81.11.141,4,-173,mylitter.com,US,Americas,Northern America,United States of America,Virginia,,Warrenton
92.204.129.73,4,-1,napervilleclassictowing.com,US,Americas,Northern America,United States of America,Virginia,,Warrenton
92.204.129.200,4,29,naturalnorthflorida.com,US,Americas,Northern America,United States of America,Virginia,,Warrenton
92.204.136.208,4,5,oldcurrencyvalues.com,US,Americas,Northern America,United States of America,Virginia,,Warrenton
92.204.132.26,4,23,omnitrans.org,US,Americas,Northern America,United States of America,Virginia,,Warrenton
92.204.135.70,4,3,ozrobotics.com,US,Americas,Northern America,United States of America,Virginia,,Warrenton
92.204.134.41,4,108,pathsinc.org,US,Americas,Northern America,United States of America,Virginia,,Warrenton
92.204.135.221,4,18,pechangaarenasd.com,US,Americas,Northern America,United States of America,Virginia,,Warrenton
92.204.138.175,4,38,phlpost.gov.ph,US,Americas,Northern America,United States of America,Virginia,,Warrenton
92.204.133.215,4,13,plymouthmeetingdermatology.com,US,Americas,Northern America,United States of America,Virginia,,Warrenton
92.204.133.121,4,20,price4limo.com,US,Americas,Northern America,United States of America,Virginia,,Warrenton
92.204.138.29,4,3,propertyinsurancecoveragelaw.com,US,Americas,Northern America,United States of America,Virginia,,Warrenton
92.204.135.62,4,33,pujol.com.mx,US,Americas,Northern America,United States of America,Virginia,,Warrenton
92.204.139.144,4,-3,quinterogolf.com,US,Americas,Northern America,United States of America,Virginia,,Warrenton
92.204.137.208,4,29,robertjonandthewreck.com,US,Americas,Northern America,United States of America,Virginia,,Warrenton
92.204.136.52,4,25,sarata.com,US,Americas,Northern America,United States of America,Virginia,,Warrenton
92.204.133.194,4,1,sgbonline.com,US,Americas,Northern America,United States of America,Virginia,,Warrenton
92.204.135.184,4,2,shawneecc.edu,US,Americas,Northern America,United States of America,Virginia,,Warrenton
92.204.138.42,4,3,sscner.org.in,US,Americas,Northern America,United States of America,Virginia,,Warrenton
92.204.136.36,4,49,stviateurbagel.com,US,Americas,Northern America,United States of America,Virginia,,Warrenton
92.204.135.24,4,1,suncoastpost.com,US,Americas,Northern America,United States of America,Virginia,,Warrenton
92.204.134.169,4,4,taverntrove.com,US,Americas,Northern America,United States of America,Virginia,,Warrenton
92.204.135.28,4,7,togetherwomenrise.org,US,Americas,Northern America,United States of America,Virginia,,Warrenton
92.204.138.36,4,39,toginet.com,US,Americas,Northern America,United States of America,Virginia,,Warrenton
51.81.107.30,4,6,topnotchdezigns.com,US,Americas,Northern America,United States of America,Virginia,,Warrenton
92.204.133.184,4,26,tracker-software.com,US,Americas,Northern America,United States of America,Virginia,,Warrenton
92.204.129.41,4,2,ttesports.com,US,Americas,Northern America,United States of America,Virginia,,Warrenton
92.204.137.241,4,14,vacmotorsports.com,US,Americas,Northern America,United States of America,Virginia,,Warrenton
92.204.137.55,4,5,visitashland.com,US,Americas,Northern America,United States of America,Virginia,,Warrenton
135.148.34.70,4,6,voiptimecloud.com,US,Americas,Northern America,United States of America,Virginia,,Warrenton
92.204.132.17,4,2,waldenwoods.com,US,Americas,Northern America,United States of America,Virginia,,Warrenton
51.81.109.199,4,11,wehrmacht-awards.com,US,Americas,Northern America,United States of America,Virginia,,Warrenton
92.204.138.189,4,25,windowworld.com,US,Americas,Northern America,United States of America,Virginia,,Warrenton
92.204.139.116,4,10,windowworlddc.com,US,Americas,Northern America,United States of America,Virginia,,Warrenton
51.81.46.129,4,22,wingware.com,US,Americas,Northern America,United States of America,Virginia,,Warrenton
51.81.46.134,4,2,witchcraftandwitches.com,US,Americas,Northern America,United States of America,Virginia,,Warrenton
92.204.135.191,4,8,yalghis.in,US,Americas,Northern America,United States of America,Virginia,,Warrenton
92.204.133.151,4,5,yanksing.com,US,Americas,Northern America,United States of America,Virginia,,Warrenton
92.204.133.7,4,10,yarntree.com,US,Americas,Northern America,United States of America,Virginia,,Warrenton
92.204.133.9,4,6,youthfulandageless.com,US,Americas,Northern America,United States of America,Virginia,,Warrenton
