reflector_ip,ip_version,offset,description,country_code,region,sub_region,country_name,sub_division_1,sub_division_2,city
67.222.148.107,4,4,anotherealm.com,US,Americas,Northern America,United States of America,Virginia,,Onancock
162.248.4.166,4,45,arantius.com,US,Americas,Northern America,United States of America,Virginia,,Onancock
67.222.154.115,4,38,bajajsports.com,US,Americas,Northern America,United States of America,Virginia,,Onancock
67.222.147.119,4,4,behavior.net,US,Americas,Northern America,United States of America,Virginia,,Onancock
66.147.236.162,4,0,bpublic.com,US,Americas,Northern America,United States of America,Virginia,,Onancock
67.222.155.208,4,7,brandkeys.com,US,Americas,Northern America,United States of America,Virginia,,Onancock
66.147.237.62,4,0,canonforums.com,US,Americas,Northern America,United States of America,Virginia,,Onancock
66.147.238.237,4,-1,canonistas.com,US,Americas,Northern America,United States of America,Virginia,,Onancock
66.147.226.71,4,0,cap4kids.org,US,Americas,Northern America,United States of America,Virginia,,Onancock
67.222.150.127,4,3,caribbean360.com,US,Americas,Northern America,United States of America,Virginia,,Onancock
67.222.149.159,4,5,clickvoyager.com,US,Americas,Northern America,United States of America,Virginia,,Onancock
66.147.238.35,4,-1,compulab.co.il,US,Americas,Northern America,United States of America,Virginia,,Onancock
66.147.238.178,4,5,courier-mta.org,US,Americas,Northern America,United States of America,Virginia,,Onancock
66.147.237.32,4,1,dennisdemo.com,US,Americas,Northern America,United States of America,Virginia,,Onancock
66.147.230.58,4,0,designapplause.com,US,Americas,Northern America,United States of America,Virginia,,Onancock
66.147.237.115,4,3,digitalbusinessdirectory.online,US,Americas,Northern America,United States of America,Virginia,,Onancock
66.147.236.103,4,-1,electoral-vote.com,US,Americas,Northern America,United States of America,Virginia,,Onancock
67.222.149.38,4,21,elpetshop.pe,US,Americas,Northern America,United States of America,Virginia,,Onancock
66.147.235.167,4,-210,eriereader.com,US,Americas,Northern America,United States of America,Virginia,,Onancock
69.175.73.214,4,22,findandgoseek.net,US,Americas,Northern America,United States of America,Virginia,,Onancock
66.147.230.139,4,7,finditguide.com,US,Americas,Northern America,United States of America,Virginia,,Onancock
66.147.230.141,4,892,finishing.com,US,Americas,Northern America,United States of America,Virginia,,Onancock
66.147.238.146,4,31,fit-pc.com,US,Americas,Northern America,United States of America,Virginia,,Onancock
69.175.111.235,4,54,gdargaud.net,US,Americas,Northern America,United States of America,Virginia,,Onancock
69.175.100.230,4,207,gearvendors.com,US,Americas,Northern America,United States of America,Virginia,,Onancock
69.175.73.228,4,756,grimmy.com,US,Americas,Northern America,United States of America,Virginia,,Onancock
67.222.157.248,4,46,grohol.com,US,Americas,Northern America,United States of America,Virginia,,Onancock
66.147.230.174,4,-8,handicapmd.com,US,Americas,Northern America,United States of America,Virginia,,Onancock
67.222.147.123,4,11,health-e-sites.com,US,Americas,Northern America,United States of America,Virginia,,Onancock
67.222.147.59,4,12,hillbillyhousewife.com,US,Americas,Northern America,United States of America,Virginia,,Onancock
67.222.155.178,4,3,homewardtrails.org,US,Americas,Northern America,United States of America,Virginia,,Onancock
67.222.154.14,4,15,ilcoincrypto.com,US,Americas,Northern America,United States of America,Virginia,,Onancock
66.147.239.77,4,-8,infinitestart.com,US,Americas,Northern America,United States of America,Virginia,,Onancock
69.175.99.170,4,1488,inter7.com,US,Americas,Northern America,United States of America,Virginia,,Onancock
69.175.107.194,4,27,iowatorch.com,US,Americas,Northern America,United States of America,Virginia,,Onancock
66.147.234.172,4,-3,kgbudge.com,US,Americas,Northern America,United States of America,Virginia,,Onancock
67.222.153.223,4,2,lunapic.com,US,Americas,Northern America,United States of America,Virginia,,Onancock
66.147.237.199,4,0,mainejews.org,US,Americas,Northern America,United States of America,Virginia,,Onancock
67.222.147.125,4,8,makemoney-1.com,US,Americas,Northern America,United States of America,Virginia,,Onancock
67.222.147.43,4,0,malawicichlids.com,US,Americas,Northern America,United States of America,Virginia,,Onancock
69.175.90.10,4,37,marketlist.com,US,Americas,Northern America,United States of America,Virginia,,Onancock
67.222.147.114,4,6,metanoia.org,US,Americas,Northern America,United States of America,Virginia,,Onancock
66.147.238.215,4,-2,minix3.org,US,Americas,Northern America,United States of America,Virginia,,Onancock
66.147.236.126,4,3,moviecastingcall.org,US,Americas,Northern America,United States of America,Virginia,,Onancock
67.222.151.215,4,304,mthemeus.com,US,Americas,Northern America,United States of America,Virginia,,Onancock
66.147.230.253,4,4,naturalhistorymag.com,US,Americas,Northern America,United States of America,Virginia,,Onancock
66.147.238.51,4,3,nearme.reviews,US,Americas,Northern America,United States of America,Virginia,,Onancock
67.222.153.156,4,5,nelliemckay.com,US,Americas,Northern America,United States of America,Virginia,,Onancock
67.222.157.252,4,10,nepsy.com,US,Americas,Northern America,United States of America,Virginia,,Onancock
66.147.237.61,4,-1,nikonforums.com,US,Americas,Northern America,United States of America,Virginia,,Onancock
66.147.238.50,4,4,oakey.com.au,US,Americas,Northern America,United States of America,Virginia,,Onancock
67.222.157.160,4,66,participatorymedicine.org,US,Americas,Northern America,United States of America,Virginia,,Onancock
66.147.224.116,4,2,pbble.com,US,Americas,Northern America,United States of America,Virginia,,Onancock
66.147.237.63,4,-2,pentaxforums.com,US,Americas,Northern America,United States of America,Virginia,,Onancock
66.147.236.218,4,7,peoplesrepublicofcork.com,US,Americas,Northern America,United States of America,Virginia,,Onancock
66.147.239.145,4,10,pixeljam.com,US,Americas,Northern America,United States of America,Virginia,,Onancock
66.147.238.17,4,31,planet4589.org,US,Americas,Northern America,United States of America,Virginia,,Onancock
66.147.239.51,4,10,preferredprofessionals.com,US,Americas,Northern America,United States of America,Virginia,,Onancock
69.175.112.202,4,-360,roncyrocks.com,US,Americas,Northern America,United States of America,Virginia,,Onancock
66.147.237.41,4,1146,salttherapyassociation.org,US,Americas,Northern America,United States of America,Virginia,,Onancock
66.147.230.52,4,1,sarahjarosz.com,US,Americas,Northern America,United States of America,Virginia,,Onancock
66.147.228.100,4,-1,schema-root.org,US,Americas,Northern America,United States of America,Virginia,,Onancock
69.175.73.98,4,8,scrantonculturalcenter.org,US,Americas,Northern America,United States of America,Virginia,,Onancock
69.175.114.136,4,-88,screenwritersutopia.com,US,Americas,Northern America,United States of America,Virginia,,Onancock
66.147.239.61,4,1,sharingmarketplace.com,US,Americas,Northern America,United States of America,Virginia,,Onancock
69.175.87.90,4,467,sidetrackchicago.com,US,Americas,Northern America,United States of America,Virginia,,Onancock
66.147.230.20,4,30,somaweb.org,US,Americas,Northern America,United States of America,Virginia,,Onancock
66.147.237.11,4,-2,spiritualpool.com,US,Americas,Northern America,United States of America,Virginia,,Onancock
66.147.230.180,4,-1,starwhitening.co.uk,US,Americas,Northern America,United States of America,Virginia,,Onancock
66.147.237.173,4,3,surfyourtown.com,US,Americas,Northern America,United States of America,Virginia,,Onancock
66.147.237.155,4,0,taoisttaichi.org,US,Americas,Northern America,United States of America,Virginia,,Onancock
66.147.234.123,4,2,teachaids.org,US,Americas,Northern America,United States of America,Virginia,,Onancock
66.147.237.90,4,-2,thebandbiz.com,US,Americas,Northern America,United States of America,Virginia,,Onancock
66.147.237.69,4,2,thelululist.com,US,Americas,Northern America,United States of America,Virginia,,Onancock
66.147.237.91,4,13,trailers.com,US,Americas,Northern America,United States of America,Virginia,,Onancock
66.147.237.28,4,17,trianglesenioryear.com,US,Americas,Northern America,United States of America,Virginia,,Onancock
66.147.237.106,4,3,trysmallbiz.com,US,Americas,Northern America,United States of America,Virginia,,Onancock
66.147.228.10,4,-1,u2wanderer.org,US,Americas,Northern America,United States of America,Virginia,,Onancock
66.147.236.115,4,-8,uktherapyrooms.co.uk,US,Americas,Northern America,United States of America,Virginia,,Onancock
69.175.125.51,4,33,velvetech.com,US,Americas,Northern America,United States of America,Virginia,,Onancock
66.147.238.103,4,33,vetbizlive.com,US,Americas,Northern America,United States of America,Virginia,,Onancock
66.147.230.67,4,0,videogameslive.com,US,Americas,Northern America,United States of America,Virginia,,Onancock
66.147.230.40,4,51,virtualmallspace.com,US,Americas,Northern America,United States of America,Virginia,,Onancock
67.222.155.204,4,2,watching-grass-grow.com,US,Americas,Northern America,United States of America,Virginia,,Onancock
69.175.102.130,4,9,webhostingmedia.net,US,Americas,Northern America,United States of America,Virginia,,Onancock
66.147.239.60,4,1416,wegotaguy.net,US,Americas,Northern America,United States of America,Virginia,,Onancock
66.147.237.126,4,3,whatsyourhours.com,US,Americas,Northern America,United States of America,Virginia,,Onancock
69.175.120.13,4,7,worldoils.com,US,Americas,Northern America,United States of America,Virginia,,Onancock
66.147.239.72,4,0,yourlocaldirectory.online,US,Americas,Northern America,United States of America,Virginia,,Onancock
66.147.230.95,4,-1,yplocal.com,US,Americas,Northern America,United States of America,Virginia,,Onancock
