reflector_ip,ip_version,offset,description,country_code,region,sub_region,country_name,sub_division_1,sub_division_2,city
67.222.135.100,4,11,aquarist-classifieds.co.uk,US,Americas,Northern America,United States of America,Virginia,,Melfa
107.150.43.108,4,33,beam.social,US,Americas,Northern America,United States of America,Virginia,,Melfa
67.222.136.123,4,9,bloggingconcentrated.com,US,Americas,Northern America,United States of America,Virginia,,Melfa
67.222.139.223,4,622,canadianhometrends.com,US,Americas,Northern America,United States of America,Virginia,,Melfa
67.222.136.124,4,2,diyplr.com,US,Americas,Northern America,United States of America,Virginia,,Melfa
192.227.112.89,4,4,geekschip.com,US,Americas,Northern America,United States of America,Virginia,,Melfa
67.222.143.211,4,3,gratefulprayerthankfulheart.com,US,Americas,Northern America,United States of America,Virginia,,Melfa
67.222.143.10,4,31,guiaparadecorar.com,US,Americas,Northern America,United States of America,Virginia,,Melfa
67.222.143.192,4,5,hom.org,US,Americas,Northern America,United States of America,Virginia,,Melfa
67.222.137.239,4,3,kidsmentalhealth.ca,US,Americas,Northern America,United States of America,Virginia,,Melfa
107.150.39.186,4,-8,law885995.com,US,Americas,Northern America,United States of America,Virginia,,Melfa
107.150.35.98,4,0,mangaloretoday.com,US,Americas,Northern America,United States of America,Virginia,,Melfa
67.222.143.200,4,64,naturemoms.com,US,Americas,Northern America,United States of America,Virginia,,Melfa
67.222.136.247,4,12,ourfavoritegadgets.com,US,Americas,Northern America,United States of America,Virginia,,Melfa
107.150.44.178,4,5,simutrans.com,US,Americas,Northern America,United States of America,Virginia,,Melfa
192.227.118.108,4,-386867,thecareerconnectors.com,US,Americas,Northern America,United States of America,Virginia,,Melfa
67.222.134.104,4,2,thecinnamonhollow.com,US,Americas,Northern America,United States of America,Virginia,,Melfa
107.150.43.90,4,12,truthkings.com,US,Americas,Northern America,United States of America,Virginia,,Melfa
67.222.134.14,4,9,tshongrig.com,US,Americas,Northern America,United States of America,Virginia,,Melfa
67.222.134.149,4,997,turboimagehost.com,US,Americas,Northern America,United States of America,Virginia,,Melfa
192.227.112.86,4,3,tvisha.com,US,Americas,Northern America,United States of America,Virginia,,Melfa
107.150.46.178,4,1,yoomark.com,US,Americas,Northern America,United States of America,Virginia,,Melfa
