reflector_ip,ip_version,offset,description,country_code,region,sub_region,country_name,sub_division_1,sub_division_2,city
69.39.225.170,4,8,advocacyinstitute.org,US,Americas,Northern America,United States of America,Virginia,,Mappsville
69.39.225.130,4,7,americanquilter.com,US,Americas,Northern America,United States of America,Virginia,,Mappsville
138.128.186.252,4,9,auctionninja.com,US,Americas,Northern America,United States of America,Virginia,,Mappsville
69.39.232.236,4,8,bearwood.com,US,Americas,Northern America,United States of America,Virginia,,Mappsville
69.39.228.240,4,63,berkshirecc.edu,US,Americas,Northern America,United States of America,Virginia,,Mappsville
69.39.228.174,4,8,bonsaiboy.com,US,Americas,Northern America,United States of America,Virginia,,Mappsville
69.39.227.237,4,45,bugspray.com,US,Americas,Northern America,United States of America,Virginia,,Mappsville
184.154.191.171,4,864,chronictacos.com,US,Americas,Northern America,United States of America,Virginia,,Mappsville
184.154.220.218,4,58,currygirlskitchen.com,US,Americas,Northern America,United States of America,Virginia,,Mappsville
138.128.176.133,4,22,debatepolitics.com,US,Americas,Northern America,United States of America,Virginia,,Mappsville
69.175.18.196,4,493,digitechwebdesignaustin.com,US,Americas,Northern America,United States of America,Virginia,,Mappsville
138.128.187.242,4,-281,dlulighting.com,US,Americas,Northern America,United States of America,Virginia,,Mappsville
69.175.18.212,4,993,dnpackaging.com,US,Americas,Northern America,United States of America,Virginia,,Mappsville
69.39.232.133,4,6,drumchat.com,US,Americas,Northern America,United States of America,Virginia,,Mappsville
69.39.228.159,4,8,eastms.edu,US,Americas,Northern America,United States of America,Virginia,,Mappsville
69.39.226.10,4,5,edinburghuniversitypress.com,US,Americas,Northern America,United States of America,Virginia,,Mappsville
184.154.166.212,4,450,eeri.org,US,Americas,Northern America,United States of America,Virginia,,Mappsville
138.128.182.210,4,1478,fatacuportocale.ro,US,Americas,Northern America,United States of America,Virginia,,Mappsville
138.128.186.26,4,1430,fecode.edu.co,US,Americas,Northern America,United States of America,Virginia,,Mappsville
69.39.232.229,4,6,forespar.com,US,Americas,Northern America,United States of America,Virginia,,Mappsville
69.175.19.177,4,13,friends.win,US,Americas,Northern America,United States of America,Virginia,,Mappsville
138.128.161.134,4,6,glowhost.com,US,Americas,Northern America,United States of America,Virginia,,Mappsville
69.39.228.219,4,11,homeschoolinginspanish.com,US,Americas,Northern America,United States of America,Virginia,,Mappsville
184.154.161.209,4,8,icicemac.com,US,Americas,Northern America,United States of America,Virginia,,Mappsville
69.39.227.129,4,5,jewishfood-list.com,US,Americas,Northern America,United States of America,Virginia,,Mappsville
69.39.226.25,4,5,ju.edu,US,Americas,Northern America,United States of America,Virginia,,Mappsville
138.128.163.42,4,1,junglefriends.org,US,Americas,Northern America,United States of America,Virginia,,Mappsville
69.175.29.118,4,-178,klinghardtacademy.com,US,Americas,Northern America,United States of America,Virginia,,Mappsville
69.39.230.213,4,27,knivesplus.com,US,Americas,Northern America,United States of America,Virginia,,Mappsville
138.128.182.228,4,40,kokthansogreta.nu,US,Americas,Northern America,United States of America,Virginia,,Mappsville
69.175.31.58,4,441,lavishvegas.com,US,Americas,Northern America,United States of America,Virginia,,Mappsville
69.175.60.154,4,8,linkedselling.com,US,Americas,Northern America,United States of America,Virginia,,Mappsville
138.128.190.226,4,-150,lknmedia.com,US,Americas,Northern America,United States of America,Virginia,,Mappsville
69.39.229.186,4,12,logobee.com,US,Americas,Northern America,United States of America,Virginia,,Mappsville
69.39.227.251,4,111,mainesbdc.org,US,Americas,Northern America,United States of America,Virginia,,Mappsville
69.39.235.60,4,63,managementstudyguide.com,US,Americas,Northern America,United States of America,Virginia,,Mappsville
138.128.181.58,4,38,mandalorianmercs.org,US,Americas,Northern America,United States of America,Virginia,,Mappsville
69.39.232.197,4,10,metoliusclimbing.com,US,Americas,Northern America,United States of America,Virginia,,Mappsville
138.128.160.141,4,-227,mildlymeandering.com,US,Americas,Northern America,United States of America,Virginia,,Mappsville
69.39.230.209,4,11,ministerioshebrom.com,US,Americas,Northern America,United States of America,Virginia,,Mappsville
138.128.170.188,4,216,mott.pe,US,Americas,Northern America,United States of America,Virginia,,Mappsville
69.39.227.202,4,8,musitek.com,US,Americas,Northern America,United States of America,Virginia,,Mappsville
138.128.186.234,4,5,mysteinbach.ca,US,Americas,Northern America,United States of America,Virginia,,Mappsville
69.175.19.176,4,3,nafex.net,US,Americas,Northern America,United States of America,Virginia,,Mappsville
69.175.50.116,4,973,ndtahq.com,US,Americas,Northern America,United States of America,Virginia,,Mappsville
138.128.186.115,4,854,netenberg.com,US,Americas,Northern America,United States of America,Virginia,,Mappsville
184.154.208.22,4,4,ntntw.info,US,Americas,Northern America,United States of America,Virginia,,Mappsville
138.128.181.34,4,-144,omaspecworks.org,US,Americas,Northern America,United States of America,Virginia,,Mappsville
69.175.58.170,4,3,outshinefilm.com,US,Americas,Northern America,United States of America,Virginia,,Mappsville
69.39.226.46,4,15,oxbowbooks.com,US,Americas,Northern America,United States of America,Virginia,,Mappsville
184.154.173.94,4,5,perfectdiecasting.in,US,Americas,Northern America,United States of America,Virginia,,Mappsville
138.128.191.74,4,-135,petersonassoc.com,US,Americas,Northern America,United States of America,Virginia,,Mappsville
69.39.236.97,4,22,pixelmetrics.com,US,Americas,Northern America,United States of America,Virginia,,Mappsville
69.39.226.9,4,7,powerstream.com,US,Americas,Northern America,United States of America,Virginia,,Mappsville
69.39.234.130,4,41,predatorpeestore.com,US,Americas,Northern America,United States of America,Virginia,,Mappsville
138.128.164.66,4,49,psykodynamiskt.nu,US,Americas,Northern America,United States of America,Virginia,,Mappsville
69.175.42.234,4,56,radiomd.com,US,Americas,Northern America,United States of America,Virginia,,Mappsville
69.39.237.18,4,33,restaurantnews.com,US,Americas,Northern America,United States of America,Virginia,,Mappsville
69.39.232.210,4,14,rezclick.com,US,Americas,Northern America,United States of America,Virginia,,Mappsville
69.39.236.22,4,7,rivervalley.coop,US,Americas,Northern America,United States of America,Virginia,,Mappsville
184.154.172.77,4,50,rosarycenter.org,US,Americas,Northern America,United States of America,Virginia,,Mappsville
184.154.219.133,4,422,rosemarytv.com,US,Americas,Northern America,United States of America,Virginia,,Mappsville
138.128.165.157,4,-110,rosencentre.com,US,Americas,Northern America,United States of America,Virginia,,Mappsville
138.128.165.158,4,-98,rosenplaza.com,US,Americas,Northern America,United States of America,Virginia,,Mappsville
138.128.165.162,4,-137,rosenshinglecreek.com,US,Americas,Northern America,United States of America,Virginia,,Mappsville
69.39.230.129,4,33,runningpast.com,US,Americas,Northern America,United States of America,Virginia,,Mappsville
138.128.161.106,4,-133,savannahcathedral.org,US,Americas,Northern America,United States of America,Virginia,,Mappsville
69.175.42.191,4,338,sermonsuite.com,US,Americas,Northern America,United States of America,Virginia,,Mappsville
69.39.232.135,4,5,shellac.net,US,Americas,Northern America,United States of America,Virginia,,Mappsville
138.128.165.154,4,-143,shogunorlando.com,US,Americas,Northern America,United States of America,Virginia,,Mappsville
138.128.167.186,4,-125,sidis.net,US,Americas,Northern America,United States of America,Virginia,,Mappsville
69.175.21.42,4,995,silvertoncolorado.com,US,Americas,Northern America,United States of America,Virginia,,Mappsville
69.175.3.87,4,-27514,sldesign.com,US,Americas,Northern America,United States of America,Virginia,,Mappsville
138.128.160.137,4,-235,snacksandsips.com,US,Americas,Northern America,United States of America,Virginia,,Mappsville
138.128.175.82,4,157,sommersoil.com,US,Americas,Northern America,United States of America,Virginia,,Mappsville
69.39.237.20,4,8,speculist.com,US,Americas,Northern America,United States of America,Virginia,,Mappsville
138.128.182.226,4,73,stenudd.com,US,Americas,Northern America,United States of America,Virginia,,Mappsville
69.175.10.84,4,-81,strictlyfitteds.com,US,Americas,Northern America,United States of America,Virginia,,Mappsville
69.39.232.187,4,5,takeflyte.com,US,Americas,Northern America,United States of America,Virginia,,Mappsville
69.39.227.165,4,6,tangiblesoftwaresolutions.com,US,Americas,Northern America,United States of America,Virginia,,Mappsville
69.39.232.151,4,17,the-armory.com,US,Americas,Northern America,United States of America,Virginia,,Mappsville
138.128.160.138,4,-226,thehoneycombhome.com,US,Americas,Northern America,United States of America,Virginia,,Mappsville
138.128.188.2,4,-94,turfnet.com,US,Americas,Northern America,United States of America,Virginia,,Mappsville
69.39.226.62,4,6,uniquevanities.com,US,Americas,Northern America,United States of America,Virginia,,Mappsville
138.128.160.43,4,-134,upublish.info,US,Americas,Northern America,United States of America,Virginia,,Mappsville
184.154.172.74,4,-1,vbsr.org,US,Americas,Northern America,United States of America,Virginia,,Mappsville
69.39.234.245,4,8,virgil.org,US,Americas,Northern America,United States of America,Virginia,,Mappsville
69.39.230.225,4,13,wdmusic.com,US,Americas,Northern America,United States of America,Virginia,,Mappsville
69.39.225.240,4,29,webteacher.com,US,Americas,Northern America,United States of America,Virginia,,Mappsville
138.128.171.195,4,42,wilddolphinproject.org,US,Americas,Northern America,United States of America,Virginia,,Mappsville
69.175.21.138,4,4,willantech.com,US,Americas,Northern America,United States of America,Virginia,,Mappsville
138.128.175.218,4,487,wiplayers.com,US,Americas,Northern America,United States of America,Virginia,,Mappsville
138.128.191.210,4,-127,workcomneiva.com,US,Americas,Northern America,United States of America,Virginia,,Mappsville
69.39.228.128,4,6,worksmancycles.com,US,Americas,Northern America,United States of America,Virginia,,Mappsville
69.39.228.151,4,6,wrightslaw.com,US,Americas,Northern America,United States of America,Virginia,,Mappsville
69.39.225.206,4,6,wtj.com,US,Americas,Northern America,United States of America,Virginia,,Mappsville
138.128.161.26,4,2,xtremeracing.se,US,Americas,Northern America,United States of America,Virginia,,Mappsville
69.39.227.209,4,6,yborcityonline.com,US,Americas,Northern America,United States of America,Virginia,,Mappsville
69.39.225.129,4,7,yoshinoyaamerica.com,US,Americas,Northern America,United States of America,Virginia,,Mappsville
69.175.37.242,4,3,youthplays.com,US,Americas,Northern America,United States of America,Virginia,,Mappsville
