reflector_ip,ip_version,offset,description,country_code,region,sub_region,country_name,sub_division_1,sub_division_2,city
50.17.203.147,4,6,123g.us,US,Americas,Northern America,United States of America,Virginia,,Ashburn
184.72.244.154,4,5,123greetings.com,US,Americas,Northern America,United States of America,Virginia,,Ashburn
184.72.245.68,4,4,123greetings.com,US,Americas,Northern America,United States of America,Virginia,,Ashburn
54.208.104.114,4,4,123india.com,US,Americas,Northern America,United States of America,Virginia,,Ashburn
66.225.237.24,4,9,1stnb.com,US,Americas,Northern America,United States of America,Virginia,,Ashburn
67.205.58.117,4,6,27bslash6.com,US,Americas,Northern America,United States of America,Virginia,,Ashburn
5.161.208.169,4,5,2st.com,US,Americas,Northern America,United States of America,Virginia,,Ashburn
54.209.81.157,4,4,3pw.net,US,Americas,Northern America,United States of America,Virginia,,Ashburn
35.173.105.23,4,5,411.info,US,Americas,Northern America,United States of America,Virginia,,Ashburn
44.214.48.135,4,3,411.info,US,Americas,Northern America,United States of America,Virginia,,Ashburn
34.236.199.38,4,5,411.info,US,Americas,Northern America,United States of America,Virginia,,Ashburn
3.229.23.122,4,4,411.info,US,Americas,Northern America,United States of America,Virginia,,Ashburn
169.47.106.186,4,1,4videosoft.com,US,Americas,Northern America,United States of America,Virginia,,Ashburn
45.194.37.66,4,45,55354.cc,US,Americas,Northern America,United States of America,Virginia,,Ashburn
45.194.36.214,4,4,55354.cc,US,Americas,Northern America,United States of America,Virginia,,Ashburn
45.194.36.211,4,6,55354.cc,US,Americas,Northern America,United States of America,Virginia,,Ashburn
45.194.36.12,4,9,727895.com,US,Americas,Northern America,United States of America,Virginia,,Ashburn
45.194.36.61,4,5,727895.com,US,Americas,Northern America,United States of America,Virginia,,Ashburn
107.23.54.4,4,1,a4.com,US,Americas,Northern America,United States of America,Virginia,,Ashburn
54.243.116.179,4,2,aacc.net,US,Americas,Northern America,United States of America,Virginia,,Ashburn
18.214.210.222,4,3,aacc.net,US,Americas,Northern America,United States of America,Virginia,,Ashburn
54.205.57.129,4,1,aahoa.com,US,Americas,Northern America,United States of America,Virginia,,Ashburn
54.87.76.78,4,2,aamc.org,US,Americas,Northern America,United States of America,Virginia,,Ashburn
34.196.165.242,4,9,aamc.org,US,Americas,Northern America,United States of America,Virginia,,Ashburn
34.239.204.124,4,5,aamc.org,US,Americas,Northern America,United States of America,Virginia,,Ashburn
173.236.251.240,4,6,abcdasaude.com.br,US,Americas,Northern America,United States of America,Virginia,,Ashburn
5.161.108.209,4,28,abovebits.com,US,Americas,Northern America,United States of America,Virginia,,Ashburn
44.208.68.107,4,2,abzcoupon.com,US,Americas,Northern America,United States of America,Virginia,,Ashburn
44.193.239.75,4,4,abzcoupon.com,US,Americas,Northern America,United States of America,Virginia,,Ashburn
34.231.168.75,4,29,abzcoupon.com,US,Americas,Northern America,United States of America,Virginia,,Ashburn
18.214.58.213,4,5,abzcoupon.com,US,Americas,Northern America,United States of America,Virginia,,Ashburn
169.47.110.2,4,3,accutracking.com,US,Americas,Northern America,United States of America,Virginia,,Ashburn
100.28.133.184,4,5,acdsee.com,US,Americas,Northern America,United States of America,Virginia,,Ashburn
3.95.87.83,4,9,acdsee.com,US,Americas,Northern America,United States of America,Virginia,,Ashburn
108.174.58.106,4,18,acestills.com,US,Americas,Northern America,United States of America,Virginia,,Ashburn
5.161.204.248,4,10,aciri.org,US,Americas,Northern America,United States of America,Virginia,,Ashburn
5.161.88.10,4,11,activenoon.com,US,Americas,Northern America,United States of America,Virginia,,Ashburn
34.230.138.36,4,4,ad-maven.com,US,Americas,Northern America,United States of America,Virginia,,Ashburn
18.211.77.125,4,2,ad-maven.com,US,Americas,Northern America,United States of America,Virginia,,Ashburn
34.196.189.128,4,5,ad-maven.com,US,Americas,Northern America,United States of America,Virginia,,Ashburn
44.215.223.50,4,6,ad-maven.com,US,Americas,Northern America,United States of America,Virginia,,Ashburn
54.82.194.103,4,8,ad-maven.com,US,Americas,Northern America,United States of America,Virginia,,Ashburn
54.144.189.226,4,-3,ad-maven.com,US,Americas,Northern America,United States of America,Virginia,,Ashburn
54.84.92.64,4,23,addy.com,US,Americas,Northern America,United States of America,Virginia,,Ashburn
173.236.250.123,4,11,adrianroselli.com,US,Americas,Northern America,United States of America,Virginia,,Ashburn
34.203.112.31,4,14,adtelligent.com,US,Americas,Northern America,United States of America,Virginia,,Ashburn
173.236.252.252,4,25,aduforums.com,US,Americas,Northern America,United States of America,Virginia,,Ashburn
107.21.50.45,4,2,adventistschoolconnect.org,US,Americas,Northern America,United States of America,Virginia,,Ashburn
3.224.119.42,4,42,aehr.com,US,Americas,Northern America,United States of America,Virginia,,Ashburn
35.168.143.195,4,12,affclkr.com,US,Americas,Northern America,United States of America,Virginia,,Ashburn
34.236.54.114,4,21,affclkr.com,US,Americas,Northern America,United States of America,Virginia,,Ashburn
52.54.160.135,4,12,affclkr.online,US,Americas,Northern America,United States of America,Virginia,,Ashburn
3.93.135.99,4,31,affclkr.online,US,Americas,Northern America,United States of America,Virginia,,Ashburn
54.84.28.124,4,21,affiliates.one,US,Americas,Northern America,United States of America,Virginia,,Ashburn
52.200.141.14,4,22,affiliates.one,US,Americas,Northern America,United States of America,Virginia,,Ashburn
3.219.142.188,4,17,affiliates.one,US,Americas,Northern America,United States of America,Virginia,,Ashburn
34.193.188.131,4,27,affiliates.one,US,Americas,Northern America,United States of America,Virginia,,Ashburn
54.208.142.90,4,10,affiliateunguru.com,US,Americas,Northern America,United States of America,Virginia,,Ashburn
3.217.5.149,4,5,affsrc.com,US,Americas,Northern America,United States of America,Virginia,,Ashburn
54.236.231.9,4,11,affsrc.com,US,Americas,Northern America,United States of America,Virginia,,Ashburn
34.202.222.66,4,4,afftck.com,US,Americas,Northern America,United States of America,Virginia,,Ashburn
44.220.14.240,4,5,afftck.com,US,Americas,Northern America,United States of America,Virginia,,Ashburn
54.211.166.225,4,10,agendaweek.com,US,Americas,Northern America,United States of America,Virginia,,Ashburn
54.89.33.223,4,8,agendaweek.com,US,Americas,Northern America,United States of America,Virginia,,Ashburn
44.208.102.130,4,5,agendaweek.com,US,Americas,Northern America,United States of America,Virginia,,Ashburn
45.203.0.66,4,6,agriculture-solution.com,US,Americas,Northern America,United States of America,Virginia,,Ashburn
52.22.218.251,4,7,aimspecialtyhealth.com,US,Americas,Northern America,United States of America,Virginia,,Ashburn
52.45.105.201,4,3,aimspecialtyhealth.com,US,Americas,Northern America,United States of America,Virginia,,Ashburn
3.224.0.98,4,1,aimspecialtyhealth.com,US,Americas,Northern America,United States of America,Virginia,,Ashburn
3.86.123.153,4,6,aimspecialtyhealth.com,US,Americas,Northern America,United States of America,Virginia,,Ashburn
67.205.58.148,4,10,aiowiki.com,US,Americas,Northern America,United States of America,Virginia,,Ashburn
173.236.248.77,4,6,akbible.edu,US,Americas,Northern America,United States of America,Virginia,,Ashburn
173.236.252.31,4,4,akosut.com,US,Americas,Northern America,United States of America,Virginia,,Ashburn
5.161.71.69,4,4,alarabalyawm.net,US,Americas,Northern America,United States of America,Virginia,,Ashburn
54.159.105.208,4,5,alaskamagazine.com,US,Americas,Northern America,United States of America,Virginia,,Ashburn
5.161.22.228,4,4,alforatnews.iq,US,Americas,Northern America,United States of America,Virginia,,Ashburn
3.227.46.168,4,8,alfredojaar.net,US,Americas,Northern America,United States of America,Virginia,,Ashburn
54.86.119.60,4,98,algonquincollege.com,US,Americas,Northern America,United States of America,Virginia,,Ashburn
173.236.248.224,4,28,alisonweir.org.uk,US,Americas,Northern America,United States of America,Virginia,,Ashburn
173.236.250.10,4,3,allglutenfreerecipes.com,US,Americas,Northern America,United States of America,Virginia,,Ashburn
5.161.130.14,4,13,alliancehempco.com,US,Americas,Northern America,United States of America,Virginia,,Ashburn
107.22.120.240,4,5,alloysoftware.com,US,Americas,Northern America,United States of America,Virginia,,Ashburn
54.85.216.115,4,38,allstays.com,US,Americas,Northern America,United States of America,Virginia,,Ashburn
35.173.160.213,4,8,allstays.com,US,Americas,Northern America,United States of America,Virginia,,Ashburn
3.224.80.21,4,83,almaconnect.com,US,Americas,Northern America,United States of America,Virginia,,Ashburn
52.5.92.240,4,20,almaconnect.com,US,Americas,Northern America,United States of America,Virginia,,Ashburn
173.236.249.183,4,8,alphabettes.org,US,Americas,Northern America,United States of America,Virginia,,Ashburn
5.181.161.20,4,18,alphaservesp.com,US,Americas,Northern America,United States of America,Virginia,,Ashburn
52.1.193.111,4,5,alt.org,US,Americas,Northern America,United States of America,Virginia,,Ashburn
5.161.71.189,4,34,altamira.ai,US,Americas,Northern America,United States of America,Virginia,,Ashburn
54.86.20.42,4,3,altium.com,US,Americas,Northern America,United States of America,Virginia,,Ashburn
54.166.120.182,4,9,altium.com,US,Americas,Northern America,United States of America,Virginia,,Ashburn
100.26.15.24,4,4,altium.com,US,Americas,Northern America,United States of America,Virginia,,Ashburn
173.236.254.19,4,18,alyandaj.com,US,Americas,Northern America,United States of America,Virginia,,Ashburn
172.233.200.150,4,6,ambulance.org,US,Americas,Northern America,United States of America,Virginia,,Ashburn
23.212.250.90,4,7,americanexpress.io,US,Americas,Northern America,United States of America,Virginia,,Ashburn
54.160.137.56,4,6,americanhipinstitute.com,US,Americas,Northern America,United States of America,Virginia,,Ashburn
54.158.237.188,4,5,americanregistry.com,US,Americas,Northern America,United States of America,Virginia,,Ashburn
3.233.34.10,4,5,americanregistry.com,US,Americas,Northern America,United States of America,Virginia,,Ashburn
44.220.101.97,4,5,americantactical.us,US,Americas,Northern America,United States of America,Virginia,,Ashburn
50.16.93.70,4,4,americantactical.us,US,Americas,Northern America,United States of America,Virginia,,Ashburn
173.236.251.206,4,11,amk.ca,US,Americas,Northern America,United States of America,Virginia,,Ashburn
52.206.243.120,4,15,anakin.ai,US,Americas,Northern America,United States of America,Virginia,,Ashburn
3.221.42.25,4,6,anakin.ai,US,Americas,Northern America,United States of America,Virginia,,Ashburn
52.0.181.244,4,110,anakin.ai,US,Americas,Northern America,United States of America,Virginia,,Ashburn
44.197.64.182,4,55,analystprep.com,US,Americas,Northern America,United States of America,Virginia,,Ashburn
173.236.255.249,4,4,analyticsedge.com,US,Americas,Northern America,United States of America,Virginia,,Ashburn
129.213.171.135,4,31,andrescarnederes.com,US,Americas,Northern America,United States of America,Virginia,,Ashburn
3.95.130.56,4,26,andyroid.net,US,Americas,Northern America,United States of America,Virginia,,Ashburn
54.226.241.213,4,45,andyroid.net,US,Americas,Northern America,United States of America,Virginia,,Ashburn
173.236.251.82,4,20,animeworld.com,US,Americas,Northern America,United States of America,Virginia,,Ashburn
67.205.56.216,4,9,anmc.org,US,Americas,Northern America,United States of America,Virginia,,Ashburn
18.211.139.122,4,3,answernet.com,US,Americas,Northern America,United States of America,Virginia,,Ashburn
173.236.253.185,4,23,antiwordle.com,US,Americas,Northern America,United States of America,Virginia,,Ashburn
66.36.229.213,4,7,anvari.org,US,Americas,Northern America,United States of America,Virginia,,Ashburn
34.207.180.50,4,4,anycodes.com,US,Americas,Northern America,United States of America,Virginia,,Ashburn
173.236.252.179,4,5,apassion4jazz.net,US,Americas,Northern America,United States of America,Virginia,,Ashburn
107.22.249.220,4,28,appery.io,US,Americas,Northern America,United States of America,Virginia,,Ashburn
173.236.250.208,4,6,apppearl.com,US,Americas,Northern America,United States of America,Virginia,,Ashburn
3.95.110.204,4,1,aprovaconcursos.com.br,US,Americas,Northern America,United States of America,Virginia,,Ashburn
104.94.127.50,4,59,arbonne.com,US,Americas,Northern America,United States of America,Virginia,,Ashburn
18.205.4.40,4,41,argen.com,US,Americas,Northern America,United States of America,Virginia,,Ashburn
44.219.154.91,4,46,argen.com,US,Americas,Northern America,United States of America,Virginia,,Ashburn
173.236.248.252,4,36,armagetronad.net,US,Americas,Northern America,United States of America,Virginia,,Ashburn
5.161.66.254,4,7,armbian.com,US,Americas,Northern America,United States of America,Virginia,,Ashburn
67.205.56.57,4,40,around.com,US,Americas,Northern America,United States of America,Virginia,,Ashburn
173.236.251.224,4,74,arquinfad.org,US,Americas,Northern America,United States of America,Virginia,,Ashburn
208.113.133.239,4,4,artificial-solutions.com,US,Americas,Northern America,United States of America,Virginia,,Ashburn
173.236.249.194,4,26,artiloz.com,US,Americas,Northern America,United States of America,Virginia,,Ashburn
208.85.241.41,4,700,artistfirst.com,US,Americas,Northern America,United States of America,Virginia,,Ashburn
34.225.150.109,4,-4,artofliving.org,US,Americas,Northern America,United States of America,Virginia,,Ashburn
34.201.227.227,4,15,arvinas.com,US,Americas,Northern America,United States of America,Virginia,,Ashburn
44.195.243.181,4,9,ascendertx.com,US,Americas,Northern America,United States of America,Virginia,,Ashburn
34.234.133.156,4,2,ascendertx.com,US,Americas,Northern America,United States of America,Virginia,,Ashburn
3.232.12.244,4,5,ascendertx.com,US,Americas,Northern America,United States of America,Virginia,,Ashburn
18.214.119.184,4,8,ascendertx.com,US,Americas,Northern America,United States of America,Virginia,,Ashburn
34.197.184.198,4,3,ascendertx.com,US,Americas,Northern America,United States of America,Virginia,,Ashburn
52.201.24.141,4,9,ascendertx.com,US,Americas,Northern America,United States of America,Virginia,,Ashburn
5.161.54.208,4,32,ash-us.org,US,Americas,Northern America,United States of America,Virginia,,Ashburn
5.161.255.242,4,26989,ashbrook.org,US,Americas,Northern America,United States of America,Virginia,,Ashburn
173.236.255.174,4,40,asialifemagazine.com,US,Americas,Northern America,United States of America,Virginia,,Ashburn
54.165.64.136,4,28,asianave.com,US,Americas,Northern America,United States of America,Virginia,,Ashburn
5.181.161.54,4,41,asymptote.net,US,Americas,Northern America,United States of America,Virginia,,Ashburn
18.209.123.125,4,9,at-communication.com,US,Americas,Northern America,United States of America,Virginia,,Ashburn
34.195.231.26,4,5,atacarnet.com,US,Americas,Northern America,United States of America,Virginia,,Ashburn
131.153.100.134,4,883,augustaelectricalwork.com,US,Americas,Northern America,United States of America,Virginia,,Ashburn
3.233.67.16,4,5,auran.com,US,Americas,Northern America,United States of America,Virginia,,Ashburn
54.157.45.251,4,16,automate.io,US,Americas,Northern America,United States of America,Virginia,,Ashburn
3.90.167.106,4,36,automate.io,US,Americas,Northern America,United States of America,Virginia,,Ashburn
54.172.246.78,4,4,automate.io,US,Americas,Northern America,United States of America,Virginia,,Ashburn
44.196.41.254,4,17,automate.io,US,Americas,Northern America,United States of America,Virginia,,Ashburn
44.206.157.115,4,42,automate.io,US,Americas,Northern America,United States of America,Virginia,,Ashburn
18.208.244.4,4,4,automate.io,US,Americas,Northern America,United States of America,Virginia,,Ashburn
173.236.252.202,4,58,autumnmakesanddoes.com,US,Americas,Northern America,United States of America,Virginia,,Ashburn
173.236.255.217,4,8,avscripts.net,US,Americas,Northern America,United States of America,Virginia,,Ashburn
5.161.54.247,4,5,aweablog.org,US,Americas,Northern America,United States of America,Virginia,,Ashburn
5.181.161.79,4,6,awem.com,US,Americas,Northern America,United States of America,Virginia,,Ashburn
44.193.174.239,4,9,awm.com,US,Americas,Northern America,United States of America,Virginia,,Ashburn
173.236.254.195,4,8,axiis.org,US,Americas,Northern America,United States of America,Virginia,,Ashburn
34.234.220.181,4,6,axshare.com,US,Americas,Northern America,United States of America,Virginia,,Ashburn
34.235.225.210,4,5,axshare.com,US,Americas,Northern America,United States of America,Virginia,,Ashburn
18.210.70.124,4,5,axshare.com,US,Americas,Northern America,United States of America,Virginia,,Ashburn
3.228.50.121,4,5,aztecanoticias.com.mx,US,Americas,Northern America,United States of America,Virginia,,Ashburn
54.80.237.69,4,57,aztecanoticias.com.mx,US,Americas,Northern America,United States of America,Virginia,,Ashburn
173.236.249.83,4,40,b24.net,US,Americas,Northern America,United States of America,Virginia,,Ashburn
173.236.253.199,4,15,bacharachonline.com,US,Americas,Northern America,United States of America,Virginia,,Ashburn
173.236.254.83,4,6,badassbaseball.com,US,Americas,Northern America,United States of America,Virginia,,Ashburn
3.234.159.158,4,2,bakedbyrachel.com,US,Americas,Northern America,United States of America,Virginia,,Ashburn
67.205.59.120,4,4,balloonfestival.com,US,Americas,Northern America,United States of America,Virginia,,Ashburn
3.209.207.155,4,3,ballotpedia.org,US,Americas,Northern America,United States of America,Virginia,,Ashburn
3.214.253.191,4,9,ballotpedia.org,US,Americas,Northern America,United States of America,Virginia,,Ashburn
52.45.110.222,4,661,banasthali.org,US,Americas,Northern America,United States of America,Virginia,,Ashburn
66.22.63.231,4,32,bancobcr.com,US,Americas,Northern America,United States of America,Virginia,,Ashburn
167.86.61.134,4,13,bancodevenezuela.com,US,Americas,Northern America,United States of America,Virginia,,Ashburn
66.22.63.110,4,30,bancoguayaquil.com,US,Americas,Northern America,United States of America,Virginia,,Ashburn
66.22.18.146,4,9,bancopopular.com,US,Americas,Northern America,United States of America,Virginia,,Ashburn
66.22.25.228,4,6,banrep.gov.co,US,Americas,Northern America,United States of America,Virginia,,Ashburn
66.22.25.224,4,3,banrepcultural.org,US,Americas,Northern America,United States of America,Virginia,,Ashburn
67.205.61.143,4,10,bargemusic.org,US,Americas,Northern America,United States of America,Virginia,,Ashburn
66.225.237.241,4,9,barona.com,US,Americas,Northern America,United States of America,Virginia,,Ashburn
52.86.76.84,4,3,baronandbudd.com,US,Americas,Northern America,United States of America,Virginia,,Ashburn
52.5.190.38,4,2,baronandbudd.com,US,Americas,Northern America,United States of America,Virginia,,Ashburn
131.153.147.90,4,9,bazeuniversity.edu.ng,US,Americas,Northern America,United States of America,Virginia,,Ashburn
173.236.252.187,4,6,bboy.net,US,Americas,Northern America,United States of America,Virginia,,Ashburn
5.161.220.30,4,28,beagle.quest,US,Americas,Northern America,United States of America,Virginia,,Ashburn
54.174.164.217,4,2,beamstart.com,US,Americas,Northern America,United States of America,Virginia,,Ashburn
3.228.234.96,4,6,beamstart.com,US,Americas,Northern America,United States of America,Virginia,,Ashburn
5.161.35.45,4,30,beekeeping.ninja,US,Americas,Northern America,United States of America,Virginia,,Ashburn
34.198.63.49,4,7,beilinpacking.com,US,Americas,Northern America,United States of America,Virginia,,Ashburn
5.161.42.85,4,4,belogour.news,US,Americas,Northern America,United States of America,Virginia,,Ashburn
54.157.227.229,4,33,bentbox.co,US,Americas,Northern America,United States of America,Virginia,,Ashburn
23.22.151.22,4,4,bentbox.co,US,Americas,Northern America,United States of America,Virginia,,Ashburn
131.153.44.184,4,147,berkshirefinearts.com,US,Americas,Northern America,United States of America,Virginia,,Ashburn
45.203.15.142,4,85,bestardoor.com,US,Americas,Northern America,United States of America,Virginia,,Ashburn
3.223.19.238,4,14,bestbrides.net,US,Americas,Northern America,United States of America,Virginia,,Ashburn
5.161.126.69,4,8,bestbuyliquors.com,US,Americas,Northern America,United States of America,Virginia,,Ashburn
34.204.146.159,4,7,bestcrosswords.com,US,Americas,Northern America,United States of America,Virginia,,Ashburn
5.161.249.234,4,6,bestllcservices.co,US,Americas,Northern America,United States of America,Virginia,,Ashburn
23.73.207.16,4,20,betiton.com,US,Americas,Northern America,United States of America,Virginia,,Ashburn
173.236.255.136,4,6,biemiller.com,US,Americas,Northern America,United States of America,Virginia,,Ashburn
54.152.88.1,4,22,bigeasy.com,US,Americas,Northern America,United States of America,Virginia,,Ashburn
34.238.30.48,4,33,biodiversidadla.org,US,Americas,Northern America,United States of America,Virginia,,Ashburn
23.1.44.100,4,5,biospacific.com,US,Americas,Northern America,United States of America,Virginia,,Ashburn
173.236.252.0,4,29,birthdayinspire.com,US,Americas,Northern America,United States of America,Virginia,,Ashburn
173.236.251.20,4,16,bitchesgetriches.com,US,Americas,Northern America,United States of America,Virginia,,Ashburn
199.101.98.242,4,2,bkpk.me,US,Americas,Northern America,United States of America,Virginia,,Ashburn
52.73.228.228,4,3,blackenterprise.com,US,Americas,Northern America,United States of America,Virginia,,Ashburn
54.147.123.230,4,7,blackenterprise.com,US,Americas,Northern America,United States of America,Virginia,,Ashburn
18.205.10.243,4,5,blackenterprise.com,US,Americas,Northern America,United States of America,Virginia,,Ashburn
34.235.30.136,4,2,blackenterprise.com,US,Americas,Northern America,United States of America,Virginia,,Ashburn
173.236.255.18,4,6,blackgirldangerous.org,US,Americas,Northern America,United States of America,Virginia,,Ashburn
3.224.56.216,4,19,blastaloud.com,US,Americas,Northern America,United States of America,Virginia,,Ashburn
5.161.125.49,4,39,blogideias.com,US,Americas,Northern America,United States of America,Virginia,,Ashburn
3.233.66.169,4,24,blogoverdrive.com,US,Americas,Northern America,United States of America,Virginia,,Ashburn
165.140.87.201,4,45,blogsandnews.com,US,Americas,Northern America,United States of America,Virginia,,Ashburn
52.1.146.161,4,14,blogstudio.com,US,Americas,Northern America,United States of America,Virginia,,Ashburn
45.203.31.138,4,5,blongangvape.com,US,Americas,Northern America,United States of America,Virginia,,Ashburn
131.153.147.98,4,3,bls-edu.org,US,Americas,Northern America,United States of America,Virginia,,Ashburn
173.236.255.234,4,8,bluebeardindy.com,US,Americas,Northern America,United States of America,Virginia,,Ashburn
131.153.100.110,4,312,blueknights.org,US,Americas,Northern America,United States of America,Virginia,,Ashburn
3.212.205.111,4,3,bmaxit.com,US,Americas,Northern America,United States of America,Virginia,,Ashburn
5.181.161.100,4,5,bobstore.com.ua,US,Americas,Northern America,United States of America,Virginia,,Ashburn
18.215.55.186,4,13,bodbot.com,US,Americas,Northern America,United States of America,Virginia,,Ashburn
54.198.198.36,4,2,bodbot.com,US,Americas,Northern America,United States of America,Virginia,,Ashburn
44.206.51.123,4,7,bodbot.com,US,Americas,Northern America,United States of America,Virginia,,Ashburn
3.233.185.217,4,0,bodbot.com,US,Americas,Northern America,United States of America,Virginia,,Ashburn
173.236.252.126,4,7,bodybuilding.net,US,Americas,Northern America,United States of America,Virginia,,Ashburn
173.236.249.163,4,16,bodybuildinginnercircle.com,US,Americas,Northern America,United States of America,Virginia,,Ashburn
3.229.35.136,4,13,bodynbrain.com,US,Americas,Northern America,United States of America,Virginia,,Ashburn
54.205.144.114,4,25,bodynbrain.com,US,Americas,Northern America,United States of America,Virginia,,Ashburn
66.22.25.65,4,7,borderstates.com,US,Americas,Northern America,United States of America,Virginia,,Ashburn
3.211.244.116,4,3,boroughs.org,US,Americas,Northern America,United States of America,Virginia,,Ashburn
66.22.24.83,4,6,bossrevolution.com,US,Americas,Northern America,United States of America,Virginia,,Ashburn
23.48.203.111,4,8,boundtree.com,US,Americas,Northern America,United States of America,Virginia,,Ashburn
23.48.203.105,4,4,boundtree.com,US,Americas,Northern America,United States of America,Virginia,,Ashburn
34.197.228.3,4,7,boweryfarming.com,US,Americas,Northern America,United States of America,Virginia,,Ashburn
52.205.248.125,4,28,boweryfarming.com,US,Americas,Northern America,United States of America,Virginia,,Ashburn
67.205.62.243,4,6,bradreese.com,US,Americas,Northern America,United States of America,Virginia,,Ashburn
173.236.252.237,4,67,brassfetcher.com,US,Americas,Northern America,United States of America,Virginia,,Ashburn
54.208.230.77,4,2,breakingnewsnowtab.com,US,Americas,Northern America,United States of America,Virginia,,Ashburn
54.156.60.18,4,6,breakingnewsnowtab.com,US,Americas,Northern America,United States of America,Virginia,,Ashburn
100.24.251.71,4,6,briancolemd.com,US,Americas,Northern America,United States of America,Virginia,,Ashburn
170.106.0.186,4,3,brockca.com,US,Americas,Northern America,United States of America,Virginia,,Ashburn
3.216.42.155,4,1,brokernotes.co,US,Americas,Northern America,United States of America,Virginia,,Ashburn
173.236.255.116,4,7,brownpundits.com,US,Americas,Northern America,United States of America,Virginia,,Ashburn
67.205.56.120,4,7,bsa.ac.uk,US,Americas,Northern America,United States of America,Virginia,,Ashburn
173.236.254.101,4,5,btbcomic.com,US,Americas,Northern America,United States of America,Virginia,,Ashburn
44.199.23.212,4,3,buckeyepuppies.com,US,Americas,Northern America,United States of America,Virginia,,Ashburn
3.230.177.118,4,2,buckeyepuppies.com,US,Americas,Northern America,United States of America,Virginia,,Ashburn
52.0.121.32,4,6,buckeyepuppies.com,US,Americas,Northern America,United States of America,Virginia,,Ashburn
98.83.103.54,4,4,buckeyepuppies.com,US,Americas,Northern America,United States of America,Virginia,,Ashburn
3.223.175.212,4,3,buckeyepuppies.com,US,Americas,Northern America,United States of America,Virginia,,Ashburn
3.222.34.171,4,2,buckeyepuppies.com,US,Americas,Northern America,United States of America,Virginia,,Ashburn
5.161.81.229,4,38,budgetlightforum.com,US,Americas,Northern America,United States of America,Virginia,,Ashburn
150.136.143.119,4,4,bugaco.com,US,Americas,Northern America,United States of America,Virginia,,Ashburn
174.129.205.68,4,5,buildsite.com,US,Americas,Northern America,United States of America,Virginia,,Ashburn
5.161.210.78,4,40,burlingtontelecom.com,US,Americas,Northern America,United States of America,Virginia,,Ashburn
208.113.128.77,4,4,burlyhome.com,US,Americas,Northern America,United States of America,Virginia,,Ashburn
173.236.253.129,4,7,burntimpressions.com,US,Americas,Northern America,United States of America,Virginia,,Ashburn
3.91.194.195,4,5,burntsushi.net,US,Americas,Northern America,United States of America,Virginia,,Ashburn
184.24.68.133,4,7,burton.com,US,Americas,Northern America,United States of America,Virginia,,Ashburn
23.73.207.10,4,5,buyemp.com,US,Americas,Northern America,United States of America,Virginia,,Ashburn
173.236.253.66,4,9,bvfonts.com,US,Americas,Northern America,United States of America,Virginia,,Ashburn
54.174.1.252,4,32,caedes.net,US,Americas,Northern America,United States of America,Virginia,,Ashburn
66.22.0.56,4,18,cafam.com.co,US,Americas,Northern America,United States of America,Virginia,,Ashburn
70.32.1.208,4,81,cagw.org,US,Americas,Northern America,United States of America,Virginia,,Ashburn
34.238.9.167,4,13,cailaw.org,US,Americas,Northern America,United States of America,Virginia,,Ashburn
3.234.135.36,4,10,cali.org,US,Americas,Northern America,United States of America,Virginia,,Ashburn
18.232.40.44,4,10,canadianminingjournal.com,US,Americas,Northern America,United States of America,Virginia,,Ashburn
54.157.227.117,4,23,cancun-airport.net,US,Americas,Northern America,United States of America,Virginia,,Ashburn
173.236.252.42,4,16,canyoncinema.com,US,Americas,Northern America,United States of America,Virginia,,Ashburn
208.113.134.190,4,32,capitolcorridor.org,US,Americas,Northern America,United States of America,Virginia,,Ashburn
34.198.194.124,4,42,carbonblack.com,US,Americas,Northern America,United States of America,Virginia,,Ashburn
35.172.144.180,4,1,carcarekiosk.com,US,Americas,Northern America,United States of America,Virginia,,Ashburn
52.45.28.22,4,7,carx-online.com,US,Americas,Northern America,United States of America,Virginia,,Ashburn
5.161.232.29,4,17,causaoperaria.org.br,US,Americas,Northern America,United States of America,Virginia,,Ashburn
67.205.58.205,4,5,ccpdt.org,US,Americas,Northern America,United States of America,Virginia,,Ashburn
3.224.242.49,4,4,celiehair.com,US,Americas,Northern America,United States of America,Virginia,,Ashburn
44.197.25.225,4,17,celiehair.com,US,Americas,Northern America,United States of America,Virginia,,Ashburn
173.236.254.123,4,18,cellardoorgames.com,US,Americas,Northern America,United States of America,Virginia,,Ashburn
52.70.66.243,4,45,cellsciencesystems.com,US,Americas,Northern America,United States of America,Virginia,,Ashburn
34.198.199.205,4,7,ceo.ca,US,Americas,Northern America,United States of America,Virginia,,Ashburn
23.217.116.184,4,46,cerence.com,US,Americas,Northern America,United States of America,Virginia,,Ashburn
23.48.36.241,4,29,cerence.com,US,Americas,Northern America,United States of America,Virginia,,Ashburn
52.4.175.164,4,1,certifixlivescan.com,US,Americas,Northern America,United States of America,Virginia,,Ashburn
5.161.125.180,4,22,chappelleroofing.com,US,Americas,Northern America,United States of America,Virginia,,Ashburn
173.236.248.68,4,8,chedong.com,US,Americas,Northern America,United States of America,Virginia,,Ashburn
173.236.251.8,4,20,cheesescience.org,US,Americas,Northern America,United States of America,Virginia,,Ashburn
3.89.172.149,4,3,chiflatiron-hair.com,US,Americas,Northern America,United States of America,Virginia,,Ashburn
34.236.71.9,4,7,childrenshealthfund.org,US,Americas,Northern America,United States of America,Virginia,,Ashburn
54.90.107.70,4,2,china-magnetics.com,US,Americas,Northern America,United States of America,Virginia,,Ashburn
45.203.5.3,4,5,chinaevse.com,US,Americas,Northern America,United States of America,Virginia,,Ashburn
5.161.83.60,4,9,chollinger.com,US,Americas,Northern America,United States of America,Virginia,,Ashburn
173.236.250.120,4,21,christadelphia.org,US,Americas,Northern America,United States of America,Virginia,,Ashburn
52.205.233.126,4,1,chubut.gov.ar,US,Americas,Northern America,United States of America,Virginia,,Ashburn
5.8.63.15,4,2,cialisgap.com,US,Americas,Northern America,United States of America,Virginia,,Ashburn
52.207.93.230,4,5,cinemex.com,US,Americas,Northern America,United States of America,Virginia,,Ashburn
173.236.255.202,4,6,citinv.it,US,Americas,Northern America,United States of America,Virginia,,Ashburn
5.161.60.145,4,5,city-pros.com,US,Americas,Northern America,United States of America,Virginia,,Ashburn
5.161.61.114,4,6,cityoftombstoneaz.gov,US,Americas,Northern America,United States of America,Virginia,,Ashburn
5.161.47.248,4,5,cj-8.com,US,Americas,Northern America,United States of America,Virginia,,Ashburn
173.236.253.177,4,11,cleanupbitcoin.com,US,Americas,Northern America,United States of America,Virginia,,Ashburn
23.20.40.107,4,27,clearone.com,US,Americas,Northern America,United States of America,Virginia,,Ashburn
34.239.222.7,4,1,clickdealer.com,US,Americas,Northern America,United States of America,Virginia,,Ashburn
3.226.173.14,4,19,clickdealer.com,US,Americas,Northern America,United States of America,Virginia,,Ashburn
52.2.167.213,4,11,cloudfuze.com,US,Americas,Northern America,United States of America,Virginia,,Ashburn
178.156.132.205,4,8,cloudstack.org,US,Americas,Northern America,United States of America,Virginia,,Ashburn
52.6.203.245,4,27,cloze.com,US,Americas,Northern America,United States of America,Virginia,,Ashburn
54.205.77.244,4,6,cmaworld.com,US,Americas,Northern America,United States of America,Virginia,,Ashburn
54.172.69.114,4,4,cmaworld.com,US,Americas,Northern America,United States of America,Virginia,,Ashburn
54.235.137.50,4,39,cmm-nano.com,US,Americas,Northern America,United States of America,Virginia,,Ashburn
45.203.31.122,4,6,cneagle.com,US,Americas,Northern America,United States of America,Virginia,,Ashburn
52.45.201.169,4,4,coch.cl,US,Americas,Northern America,United States of America,Virginia,,Ashburn
173.236.250.81,4,9,coconutresearchcenter.org,US,Americas,Northern America,United States of America,Virginia,,Ashburn
35.169.137.142,4,9,codenvy.com,US,Americas,Northern America,United States of America,Virginia,,Ashburn
5.161.208.16,4,25,codycrossanswer.com,US,Americas,Northern America,United States of America,Virginia,,Ashburn
5.161.126.106,4,67,cohnrestaurants.com,US,Americas,Northern America,United States of America,Virginia,,Ashburn
34.207.18.208,4,11,coinproject.com,US,Americas,Northern America,United States of America,Virginia,,Ashburn
3.230.255.171,4,2,collect.com,US,Americas,Northern America,United States of America,Virginia,,Ashburn
18.213.32.82,4,3,collect.com,US,Americas,Northern America,United States of America,Virginia,,Ashburn
44.218.84.87,4,5,collect.com,US,Americas,Northern America,United States of America,Virginia,,Ashburn
18.206.19.146,4,11,collegeessay.org,US,Americas,Northern America,United States of America,Virginia,,Ashburn
3.231.98.1,4,3,colorexpertsbd.com,US,Americas,Northern America,United States of America,Virginia,,Ashburn
54.235.161.47,4,6,coltonssteakhouse.com,US,Americas,Northern America,United States of America,Virginia,,Ashburn
35.168.134.165,4,4,coltonssteakhouse.com,US,Americas,Northern America,United States of America,Virginia,,Ashburn
5.161.117.125,4,21,comisionporlamemoria.org,US,Americas,Northern America,United States of America,Virginia,,Ashburn
173.236.253.110,4,18,commonplacebook.com,US,Americas,Northern America,United States of America,Virginia,,Ashburn
54.164.165.52,4,38,communityconnect.com,US,Americas,Northern America,United States of America,Virginia,,Ashburn
173.236.249.82,4,36,compass-style.org,US,Americas,Northern America,United States of America,Virginia,,Ashburn
44.208.97.30,4,27,concanaco.com.mx,US,Americas,Northern America,United States of America,Virginia,,Ashburn
44.199.170.47,4,4,cookcountyclerk.com,US,Americas,Northern America,United States of America,Virginia,,Ashburn
107.20.213.46,4,3,cookcountyclerk.com,US,Americas,Northern America,United States of America,Virginia,,Ashburn
173.236.254.175,4,85,coredifferences.com,US,Americas,Northern America,United States of America,Virginia,,Ashburn
52.71.164.205,4,113,corejoomla.com,US,Americas,Northern America,United States of America,Virginia,,Ashburn
66.22.60.197,4,6,covantagecu.org,US,Americas,Northern America,United States of America,Virginia,,Ashburn
192.243.63.124,4,3,cpa-iraq.org,US,Americas,Northern America,United States of America,Virginia,,Ashburn
107.20.250.65,4,27,cranedata.com,US,Americas,Northern America,United States of America,Virginia,,Ashburn
173.236.248.207,4,56,createquity.com,US,Americas,Northern America,United States of America,Virginia,,Ashburn
5.161.73.148,4,34,critter.net,US,Americas,Northern America,United States of America,Virginia,,Ashburn
18.204.240.97,4,104,crmrealty360degree.in,US,Americas,Northern America,United States of America,Virginia,,Ashburn
18.211.193.133,4,3,crowdin.net,US,Americas,Northern America,United States of America,Virginia,,Ashburn
44.195.241.105,4,4,crowdin.net,US,Americas,Northern America,United States of America,Virginia,,Ashburn
3.235.219.165,4,5,crowdin.net,US,Americas,Northern America,United States of America,Virginia,,Ashburn
216.173.114.24,4,98,cruisedeckplans.com,US,Americas,Northern America,United States of America,Virginia,,Ashburn
52.3.116.109,4,2,crutchfielddermatology.com,US,Americas,Northern America,United States of America,Virginia,,Ashburn
54.175.163.34,4,5,ctls.co,US,Americas,Northern America,United States of America,Virginia,,Ashburn
54.84.131.169,4,2,ctrify.com,US,Americas,Northern America,United States of America,Virginia,,Ashburn
34.197.64.42,4,1,ctrify.com,US,Americas,Northern America,United States of America,Virginia,,Ashburn
34.227.51.32,4,5,ctrify.com,US,Americas,Northern America,United States of America,Virginia,,Ashburn
3.93.243.35,4,2,ctrify.com,US,Americas,Northern America,United States of America,Virginia,,Ashburn
5.161.92.66,4,7,cuartetos.org,US,Americas,Northern America,United States of America,Virginia,,Ashburn
52.0.101.202,4,5,cue.tools,US,Americas,Northern America,United States of America,Virginia,,Ashburn
5.161.48.153,4,904,culteducation.com,US,Americas,Northern America,United States of America,Virginia,,Ashburn
173.236.254.190,4,46,culturedigitally.org,US,Americas,Northern America,United States of America,Virginia,,Ashburn
52.207.65.55,4,4,curso-ingles.com,US,Americas,Northern America,United States of America,Virginia,,Ashburn
54.159.167.29,4,5,curso-ingles.com,US,Americas,Northern America,United States of America,Virginia,,Ashburn
3.94.174.218,4,75,customguide.com,US,Americas,Northern America,United States of America,Virginia,,Ashburn
52.206.50.187,4,12,customguide.com,US,Americas,Northern America,United States of America,Virginia,,Ashburn
173.236.249.31,4,5,cyborganic.com,US,Americas,Northern America,United States of America,Virginia,,Ashburn
67.205.57.13,4,8,dailychela.com,US,Americas,Northern America,United States of America,Virginia,,Ashburn
54.164.238.101,4,-1,dailyclout.io,US,Americas,Northern America,United States of America,Virginia,,Ashburn
67.205.60.141,4,7,dailyveracity.com,US,Americas,Northern America,United States of America,Virginia,,Ashburn
18.211.121.125,4,14,dallasarboretum.org,US,Americas,Northern America,United States of America,Virginia,,Ashburn
54.172.24.174,4,4,dallasarboretum.org,US,Americas,Northern America,United States of America,Virginia,,Ashburn
3.233.216.58,4,30,dallasarboretum.org,US,Americas,Northern America,United States of America,Virginia,,Ashburn
34.224.119.183,4,6,dallasarboretum.org,US,Americas,Northern America,United States of America,Virginia,,Ashburn
34.233.64.202,4,2,dallasarboretum.org,US,Americas,Northern America,United States of America,Virginia,,Ashburn
3.214.57.128,4,55,dallasarboretum.org,US,Americas,Northern America,United States of America,Virginia,,Ashburn
173.236.254.4,4,7,dan.info,US,Americas,Northern America,United States of America,Virginia,,Ashburn
67.205.59.103,4,133,danceusa.org,US,Americas,Northern America,United States of America,Virginia,,Ashburn
173.236.254.235,4,6,daniel-suarez.com,US,Americas,Northern America,United States of America,Virginia,,Ashburn
107.175.221.211,4,2,danskklinikservice.dk,US,Americas,Northern America,United States of America,Virginia,,Ashburn
173.236.249.100,4,21,darkwebonlinemarkets.com,US,Americas,Northern America,United States of America,Virginia,,Ashburn
52.4.50.222,4,6,dataloader.io,US,Americas,Northern America,United States of America,Virginia,,Ashburn
54.163.115.45,4,103,dataloader.io,US,Americas,Northern America,United States of America,Virginia,,Ashburn
34.231.3.28,4,4,dataloader.io,US,Americas,Northern America,United States of America,Virginia,,Ashburn
54.146.44.207,4,17,dataloader.io,US,Americas,Northern America,United States of America,Virginia,,Ashburn
18.210.223.42,4,3,datamintelligence.com,US,Americas,Northern America,United States of America,Virginia,,Ashburn
173.236.249.73,4,9,davechaffey.com,US,Americas,Northern America,United States of America,Virginia,,Ashburn
5.161.216.35,4,13,davidbyrne.com,US,Americas,Northern America,United States of America,Virginia,,Ashburn
173.236.254.35,4,27,davidhorvitz.com,US,Americas,Northern America,United States of America,Virginia,,Ashburn
54.82.123.141,4,3,dcpages.com,US,Americas,Northern America,United States of America,Virginia,,Ashburn
173.236.249.34,4,6,deadmilkmen.com,US,Americas,Northern America,United States of America,Virginia,,Ashburn
5.161.78.199,4,35,dealii.org,US,Americas,Northern America,United States of America,Virginia,,Ashburn
173.236.250.216,4,4,deborahmadison.com,US,Americas,Northern America,United States of America,Virginia,,Ashburn
173.236.253.161,4,4,deconcept.com,US,Americas,Northern America,United States of America,Virginia,,Ashburn
52.71.226.173,4,4,deepmaterialcn.com,US,Americas,Northern America,United States of America,Virginia,,Ashburn
52.1.133.139,4,16,degreedirectory.org,US,Americas,Northern America,United States of America,Virginia,,Ashburn
52.0.98.192,4,13,degreedirectory.org,US,Americas,Northern America,United States of America,Virginia,,Ashburn
173.236.251.227,4,8,dennisbabkin.com,US,Americas,Northern America,United States of America,Virginia,,Ashburn
3.219.208.126,4,1,denovosoftware.com,US,Americas,Northern America,United States of America,Virginia,,Ashburn
54.236.187.166,4,1,dental-monitoring.com,US,Americas,Northern America,United States of America,Virginia,,Ashburn
35.173.176.164,4,2,dental-monitoring.com,US,Americas,Northern America,United States of America,Virginia,,Ashburn
3.85.254.52,4,6,depor.pe,US,Americas,Northern America,United States of America,Virginia,,Ashburn
18.208.62.228,4,17,depor.pe,US,Americas,Northern America,United States of America,Virginia,,Ashburn
173.236.255.166,4,8,destroydrop.com,US,Americas,Northern America,United States of America,Virginia,,Ashburn
74.84.144.54,4,27,desu.edu,US,Americas,Northern America,United States of America,Virginia,,Ashburn
5.161.79.78,4,7,detheme.com,US,Americas,Northern America,United States of America,Virginia,,Ashburn
54.235.129.249,4,18,devbio.com,US,Americas,Northern America,United States of America,Virginia,,Ashburn
107.23.224.196,4,6,devbio.com,US,Americas,Northern America,United States of America,Virginia,,Ashburn
34.224.148.95,4,4,developmentgateway.org,US,Americas,Northern America,United States of America,Virginia,,Ashburn
67.205.63.228,4,5,deviating.net,US,Americas,Northern America,United States of America,Virginia,,Ashburn
34.233.43.10,4,218,dexur.com,US,Americas,Northern America,United States of America,Virginia,,Ashburn
3.220.91.19,4,-3,dgcx.ae,US,Americas,Northern America,United States of America,Virginia,,Ashburn
54.196.195.199,4,42,diaryofafitmommy.com,US,Americas,Northern America,United States of America,Virginia,,Ashburn
54.237.62.238,4,65,diaryofafitmommy.com,US,Americas,Northern America,United States of America,Virginia,,Ashburn
44.215.209.93,4,0,dietsheriff.com,US,Americas,Northern America,United States of America,Virginia,,Ashburn
66.36.229.22,4,5,dimeadozen.org,US,Americas,Northern America,United States of America,Virginia,,Ashburn
131.153.173.131,4,27,directhotels.com,US,Americas,Northern America,United States of America,Virginia,,Ashburn
66.22.79.216,4,15,directv.com.ar,US,Americas,Northern America,United States of America,Virginia,,Ashburn
66.22.79.218,4,23,directv.com.co,US,Americas,Northern America,United States of America,Virginia,,Ashburn
66.22.79.217,4,11,directvla.com,US,Americas,Northern America,United States of America,Virginia,,Ashburn
70.32.0.17,4,3,diysolarforum.com,US,Americas,Northern America,United States of America,Virginia,,Ashburn
172.245.6.187,4,122,DNS Server: 172-245-6-187-host.colocrossing.com,US,Americas,Northern America,United States of America,Virginia,,Ashburn
208.113.132.236,4,-424324,DNS Server: deploy-mirror.newdream.net,US,Americas,Northern America,United States of America,Virginia,,Ashburn
23.21.43.50,4,4,DNS Server: ec2-23-21-43-50.compute-1.amazonaws.com,US,Americas,Northern America,United States of America,Virginia,,Ashburn
23.22.181.161,4,-30382,DNS Server: ec2-23-22-181-161.compute-1.amazonaws.com,US,Americas,Northern America,United States of America,Virginia,,Ashburn
3.218.4.249,4,125,DNS Server: ec2-3-218-4-249.compute-1.amazonaws.com,US,Americas,Northern America,United States of America,Virginia,,Ashburn
5.161.85.107,4,315,DNS Server: static.107.85.161.5.clients.your-server.de,US,Americas,Northern America,United States of America,Virginia,,Ashburn
5.161.20.122,4,300,DNS Server: static.122.20.161.5.clients.your-server.de,US,Americas,Northern America,United States of America,Virginia,,Ashburn
5.161.89.15,4,276,DNS Server: static.15.89.161.5.clients.your-server.de,US,Americas,Northern America,United States of America,Virginia,,Ashburn
5.161.45.30,4,274,DNS Server: static.30.45.161.5.clients.your-server.de,US,Americas,Northern America,United States of America,Virginia,,Ashburn
5.161.70.84,4,270,DNS Server: static.84.70.161.5.clients.your-server.de,US,Americas,Northern America,United States of America,Virginia,,Ashburn
216.108.238.70,4,54,DNS Server: voice.pikarde.com,US,Americas,Northern America,United States of America,Virginia,,Ashburn
35.174.133.160,4,2,dolphin-browser.com,US,Americas,Northern America,United States of America,Virginia,,Ashburn
169.55.99.38,4,-51,domainit.com,US,Americas,Northern America,United States of America,Virginia,,Ashburn
52.22.249.61,4,6,dominodate.com,US,Americas,Northern America,United States of America,Virginia,,Ashburn
173.236.255.245,4,5,domomusicgroup.com,US,Americas,Northern America,United States of America,Virginia,,Ashburn
44.194.229.75,4,10,donnachambersdesigns.com,US,Americas,Northern America,United States of America,Virginia,,Ashburn
173.236.254.110,4,50,dorotheatanning.org,US,Americas,Northern America,United States of America,Virginia,,Ashburn
23.21.135.209,4,2,doublerobotics.com,US,Americas,Northern America,United States of America,Virginia,,Ashburn
173.236.249.225,4,6,dream.io,US,Americas,Northern America,United States of America,Virginia,,Ashburn
35.173.166.229,4,4,drexplain.com,US,Americas,Northern America,United States of America,Virginia,,Ashburn
23.21.115.63,4,2,drjaliman.com,US,Americas,Northern America,United States of America,Virginia,,Ashburn
208.113.132.143,4,13,dropline.net,US,Americas,Northern America,United States of America,Virginia,,Ashburn
146.75.28.204,4,4,drupalcon.org,US,Americas,Northern America,United States of America,Virginia,,Ashburn
35.169.182.95,4,3,dukerealty.com,US,Americas,Northern America,United States of America,Virginia,,Ashburn
34.199.112.71,4,2,dukerealty.com,US,Americas,Northern America,United States of America,Virginia,,Ashburn
52.2.244.77,4,10,dune.net,US,Americas,Northern America,United States of America,Virginia,,Ashburn
52.4.14.115,4,6,durst.org,US,Americas,Northern America,United States of America,Virginia,,Ashburn
3.225.217.51,4,92,durst.org,US,Americas,Northern America,United States of America,Virginia,,Ashburn
54.162.106.213,4,105,durst.org,US,Americas,Northern America,United States of America,Virginia,,Ashburn
52.200.136.219,4,4,dxnews.com,US,Americas,Northern America,United States of America,Virginia,,Ashburn
173.236.255.107,4,5,dynomighty.com,US,Americas,Northern America,United States of America,Virginia,,Ashburn
52.91.34.192,4,4,eastcoastentertainment.com,US,Americas,Northern America,United States of America,Virginia,,Ashburn
34.198.43.88,4,16,ebaumsworld.com,US,Americas,Northern America,United States of America,Virginia,,Ashburn
34.233.110.102,4,4,ebaumsworld.com,US,Americas,Northern America,United States of America,Virginia,,Ashburn
44.205.83.248,4,8,ebaumsworld.com,US,Americas,Northern America,United States of America,Virginia,,Ashburn
52.54.4.9,4,10,ebaumsworld.com,US,Americas,Northern America,United States of America,Virginia,,Ashburn
35.175.52.186,4,5,ecarlist.com,US,Americas,Northern America,United States of America,Virginia,,Ashburn
34.194.169.216,4,23,ecarlist.com,US,Americas,Northern America,United States of America,Virginia,,Ashburn
174.129.209.125,4,84,echolink.org,US,Americas,Northern America,United States of America,Virginia,,Ashburn
34.196.154.93,4,12,ecler.com,US,Americas,Northern America,United States of America,Virginia,,Ashburn
66.22.24.21,4,8,ecoproducts.com,US,Americas,Northern America,United States of America,Virginia,,Ashburn
23.23.178.27,4,32,edas.info,US,Americas,Northern America,United States of America,Virginia,,Ashburn
3.214.82.108,4,34,edas.info,US,Americas,Northern America,United States of America,Virginia,,Ashburn
34.194.107.68,4,76,edas.info,US,Americas,Northern America,United States of America,Virginia,,Ashburn
54.167.176.204,4,4,edrawmax.com,US,Americas,Northern America,United States of America,Virginia,,Ashburn
3.214.52.8,4,1,edrawmax.com,US,Americas,Northern America,United States of America,Virginia,,Ashburn
54.164.148.231,4,11,education-portal.com,US,Americas,Northern America,United States of America,Virginia,,Ashburn
52.86.85.167,4,3,education-portal.com,US,Americas,Northern America,United States of America,Virginia,,Ashburn
52.201.151.86,4,8,edwardlowe.org,US,Americas,Northern America,United States of America,Virginia,,Ashburn
66.22.13.68,4,28,efleets.com,US,Americas,Northern America,United States of America,Virginia,,Ashburn
66.22.19.101,4,62,eipcard.com,US,Americas,Northern America,United States of America,Virginia,,Ashburn
44.216.167.46,4,54,elabs10.com,US,Americas,Northern America,United States of America,Virginia,,Ashburn
44.206.155.65,4,37,elabs10.com,US,Americas,Northern America,United States of America,Virginia,,Ashburn
184.72.242.29,4,5,elasticads.com,US,Americas,Northern America,United States of America,Virginia,,Ashburn
66.22.25.91,4,29,elca.org,US,Americas,Northern America,United States of America,Virginia,,Ashburn
173.236.248.105,4,46,electricunicycle.org,US,Americas,Northern America,United States of America,Virginia,,Ashburn
131.153.147.106,4,86,electronicmart.com.ng,US,Americas,Northern America,United States of America,Virginia,,Ashburn
67.205.57.143,4,9,elevatesociety.com,US,Americas,Northern America,United States of America,Virginia,,Ashburn
34.192.132.82,4,1,elgin.com.br,US,Americas,Northern America,United States of America,Virginia,,Ashburn
44.220.117.92,4,103,elgin.com.br,US,Americas,Northern America,United States of America,Virginia,,Ashburn
66.22.1.184,4,12,elhorizonte.mx,US,Americas,Northern America,United States of America,Virginia,,Ashburn
107.20.213.245,4,60,elliottkember.com,US,Americas,Northern America,United States of America,Virginia,,Ashburn
67.205.61.221,4,4,emojifoundation.com,US,Americas,Northern America,United States of America,Virginia,,Ashburn
173.236.251.211,4,5,emol.org,US,Americas,Northern America,United States of America,Virginia,,Ashburn
54.205.91.234,4,30,empire.edu,US,Americas,Northern America,United States of America,Virginia,,Ashburn
173.236.248.163,4,4,endymion.com,US,Americas,Northern America,United States of America,Virginia,,Ashburn
52.200.228.226,4,24,energycodeace.com,US,Americas,Northern America,United States of America,Virginia,,Ashburn
173.236.251.163,4,6,engineeringroundtable.com,US,Americas,Northern America,United States of America,Virginia,,Ashburn
44.196.132.157,4,15,english-test.net,US,Americas,Northern America,United States of America,Virginia,,Ashburn
3.211.42.25,4,4,english-test.net,US,Americas,Northern America,United States of America,Virginia,,Ashburn
52.86.57.25,4,1,enthought.com,US,Americas,Northern America,United States of America,Virginia,,Ashburn
44.216.224.239,4,2,enthought.com,US,Americas,Northern America,United States of America,Virginia,,Ashburn
3.227.106.252,4,1,enthought.com,US,Americas,Northern America,United States of America,Virginia,,Ashburn
173.236.249.242,4,6,enviroreporter.com,US,Americas,Northern America,United States of America,Virginia,,Ashburn
3.224.160.34,4,4,equinoxplus.com,US,Americas,Northern America,United States of America,Virginia,,Ashburn
3.212.247.60,4,4,equinoxplus.com,US,Americas,Northern America,United States of America,Virginia,,Ashburn
173.236.255.38,4,2,erdani.org,US,Americas,Northern America,United States of America,Virginia,,Ashburn
173.236.252.46,4,6,escritoras.com,US,Americas,Northern America,United States of America,Virginia,,Ashburn
44.208.199.24,4,2,espeakers.com,US,Americas,Northern America,United States of America,Virginia,,Ashburn
23.20.25.136,4,2,espeakers.com,US,Americas,Northern America,United States of America,Virginia,,Ashburn
67.205.60.39,4,22,esumsoft.com,US,Americas,Northern America,United States of America,Virginia,,Ashburn
5.161.102.53,4,9,evernym.com,US,Americas,Northern America,United States of America,Virginia,,Ashburn
173.236.253.158,4,18,everythingisalive.com,US,Americas,Northern America,United States of America,Virginia,,Ashburn
5.161.236.196,4,4,evilpiepirate.org,US,Americas,Northern America,United States of America,Virginia,,Ashburn
178.156.130.50,4,8,example4.com,US,Americas,Northern America,United States of America,Virginia,,Ashburn
67.205.58.102,4,4,exploreri.org,US,Americas,Northern America,United States of America,Virginia,,Ashburn
5.161.69.91,4,3,extor.org,US,Americas,Northern America,United States of America,Virginia,,Ashburn
3.208.251.112,4,27,extrabux.com,US,Americas,Northern America,United States of America,Virginia,,Ashburn
44.208.51.1,4,5,f.io,US,Americas,Northern America,United States of America,Virginia,,Ashburn
3.213.146.61,4,1,f.io,US,Americas,Northern America,United States of America,Virginia,,Ashburn
44.199.49.106,4,4,f.io,US,Americas,Northern America,United States of America,Virginia,,Ashburn
107.20.68.251,4,2,f.io,US,Americas,Northern America,United States of America,Virginia,,Ashburn
3.216.189.178,4,4,f.io,US,Americas,Northern America,United States of America,Virginia,,Ashburn
3.216.98.164,4,1,f.io,US,Americas,Northern America,United States of America,Virginia,,Ashburn
52.45.74.231,4,3,factmr.com,US,Americas,Northern America,United States of America,Virginia,,Ashburn
54.84.242.193,4,57,factoidz.com,US,Americas,Northern America,United States of America,Virginia,,Ashburn
67.205.62.247,4,6,fadeinpro.com,US,Americas,Northern America,United States of America,Virginia,,Ashburn
173.236.250.150,4,7,faganfinder.com,US,Americas,Northern America,United States of America,Virginia,,Ashburn
3.230.160.207,4,5,faguaflowers.com,US,Americas,Northern America,United States of America,Virginia,,Ashburn
3.215.141.191,4,1,faguaflowers.com,US,Americas,Northern America,United States of America,Virginia,,Ashburn
3.84.171.209,4,1,faguaflowers.com,US,Americas,Northern America,United States of America,Virginia,,Ashburn
100.24.239.49,4,4,faguaflowers.com,US,Americas,Northern America,United States of America,Virginia,,Ashburn
173.236.249.42,4,8,fairmlbook.org,US,Americas,Northern America,United States of America,Virginia,,Ashburn
208.85.241.40,4,700,fairradio.com,US,Americas,Northern America,United States of America,Virginia,,Ashburn
131.153.147.42,4,1,familyfunfiesta.com,US,Americas,Northern America,United States of America,Virginia,,Ashburn
5.161.80.36,4,14,faqforge.com,US,Americas,Northern America,United States of America,Virginia,,Ashburn
23.39.184.110,4,3,farfetch.cn,US,Americas,Northern America,United States of America,Virginia,,Ashburn
104.94.123.82,4,30,farfetch.com,US,Americas,Northern America,United States of America,Virginia,,Ashburn
5.161.53.68,4,18,fediring.net,US,Americas,Northern America,United States of America,Virginia,,Ashburn
5.161.211.139,4,3,feedthebot.com,US,Americas,Northern America,United States of America,Virginia,,Ashburn
178.156.134.10,4,15,feedthebot.org,US,Americas,Northern America,United States of America,Virginia,,Ashburn
52.73.204.154,4,6,fencewiremesh.com,US,Americas,Northern America,United States of America,Virginia,,Ashburn
45.203.0.129,4,8,fgreenpv.com,US,Americas,Northern America,United States of America,Virginia,,Ashburn
66.225.237.242,4,10,fhnb.com,US,Americas,Northern America,United States of America,Virginia,,Ashburn
66.22.0.245,4,6,ficohsa.com,US,Americas,Northern America,United States of America,Virginia,,Ashburn
173.236.255.216,4,54,film-makerscoop.com,US,Americas,Northern America,United States of America,Virginia,,Ashburn
5.181.161.28,4,47,filosof.com.ua,US,Americas,Northern America,United States of America,Virginia,,Ashburn
169.47.112.117,4,29,financeglobe.com,US,Americas,Northern America,United States of America,Virginia,,Ashburn
5.161.126.29,4,26,financequickfix.com,US,Americas,Northern America,United States of America,Virginia,,Ashburn
52.1.206.32,4,2,financialadvisoriq.com,US,Americas,Northern America,United States of America,Virginia,,Ashburn
52.72.137.98,4,63,financialadvisoriq.com,US,Americas,Northern America,United States of America,Virginia,,Ashburn
54.236.96.13,4,5,financialadvisoriq.com,US,Americas,Northern America,United States of America,Virginia,,Ashburn
34.237.57.105,4,3,financialmodelingprep.com,US,Americas,Northern America,United States of America,Virginia,,Ashburn
44.196.189.255,4,20,financialmodelingprep.com,US,Americas,Northern America,United States of America,Virginia,,Ashburn
52.3.9.225,4,43,financialmodelingprep.com,US,Americas,Northern America,United States of America,Virginia,,Ashburn
44.209.214.20,4,1,financialmodelingprep.com,US,Americas,Northern America,United States of America,Virginia,,Ashburn
54.205.65.245,4,28,financialmodelingprep.com,US,Americas,Northern America,United States of America,Virginia,,Ashburn
3.209.20.253,4,54,financialmodelingprep.com,US,Americas,Northern America,United States of America,Virginia,,Ashburn
35.153.185.146,4,27,finzfirm.com,US,Americas,Northern America,United States of America,Virginia,,Ashburn
54.236.154.63,4,8,fireart.studio,US,Americas,Northern America,United States of America,Virginia,,Ashburn
98.83.3.245,4,7,fireplacedoorsonline.com,US,Americas,Northern America,United States of America,Virginia,,Ashburn
23.212.251.10,4,27,firstandfarmers.com,US,Americas,Northern America,United States of America,Virginia,,Ashburn
23.212.251.18,4,8,firstandfarmers.com,US,Americas,Northern America,United States of America,Virginia,,Ashburn
5.161.205.196,4,5,fishtankadvisor.com,US,Americas,Northern America,United States of America,Virginia,,Ashburn
52.204.180.147,4,2,fission.codes,US,Americas,Northern America,United States of America,Virginia,,Ashburn
44.197.73.74,4,3,fission.codes,US,Americas,Northern America,United States of America,Virginia,,Ashburn
18.215.123.220,4,0,fit.edu,US,Americas,Northern America,United States of America,Virginia,,Ashburn
3.86.120.57,4,3,flippingbook.com,US,Americas,Northern America,United States of America,Virginia,,Ashburn
208.113.131.13,4,-11180,floranorthamerica.org,US,Americas,Northern America,United States of America,Virginia,,Ashburn
52.200.30.250,4,10,floridamilk.com,US,Americas,Northern America,United States of America,Virginia,,Ashburn
52.22.110.230,4,8,fly2houston.com,US,Americas,Northern America,United States of America,Virginia,,Ashburn
35.171.242.169,4,13,fly2houston.com,US,Americas,Northern America,United States of America,Virginia,,Ashburn
192.243.63.122,4,6,focusas.com,US,Americas,Northern America,United States of America,Virginia,,Ashburn
5.161.154.212,4,16,fodey.com,US,Americas,Northern America,United States of America,Virginia,,Ashburn
66.22.63.237,4,61,fondoemprender.com,US,Americas,Northern America,United States of America,Virginia,,Ashburn
5.161.86.178,4,3,fontriver.com,US,Americas,Northern America,United States of America,Virginia,,Ashburn
54.211.23.143,4,67,foodbanknyc.org,US,Americas,Northern America,United States of America,Virginia,,Ashburn
52.44.8.40,4,46,foodbanknyc.org,US,Americas,Northern America,United States of America,Virginia,,Ashburn
67.215.227.243,4,1,foodphilippines.com,US,Americas,Northern America,United States of America,Virginia,,Ashburn
173.236.249.246,4,78,foofus.net,US,Americas,Northern America,United States of America,Virginia,,Ashburn
52.200.109.140,4,10,forerunnerventures.com,US,Americas,Northern America,United States of America,Virginia,,Ashburn
52.3.97.194,4,4,forerunnerventures.com,US,Americas,Northern America,United States of America,Virginia,,Ashburn
3.226.32.179,4,31,forerunnerventures.com,US,Americas,Northern America,United States of America,Virginia,,Ashburn
54.208.8.148,4,64,forerunnerventures.com,US,Americas,Northern America,United States of America,Virginia,,Ashburn
52.3.155.236,4,40,foresternetwork.com,US,Americas,Northern America,United States of America,Virginia,,Ashburn
5.161.189.65,4,-38,forextester.com,US,Americas,Northern America,United States of America,Virginia,,Ashburn
173.236.254.193,4,9,forrestcorbett.com,US,Americas,Northern America,United States of America,Virginia,,Ashburn
34.226.137.218,4,321180,foscam.com,US,Americas,Northern America,United States of America,Virginia,,Ashburn
3.232.77.71,4,3,foxit.com,US,Americas,Northern America,United States of America,Virginia,,Ashburn
34.234.57.150,4,37,framesdirect.com,US,Americas,Northern America,United States of America,Virginia,,Ashburn
23.23.162.72,4,4,framesdirect.com,US,Americas,Northern America,United States of America,Virginia,,Ashburn
34.202.255.255,4,2,francisfrith.com,US,Americas,Northern America,United States of America,Virginia,,Ashburn
34.199.60.68,4,44,francisfrith.com,US,Americas,Northern America,United States of America,Virginia,,Ashburn
35.171.208.248,4,31,francismarionhotel.com,US,Americas,Northern America,United States of America,Virginia,,Ashburn
3.84.173.79,4,43,frankfrazetta.org,US,Americas,Northern America,United States of America,Virginia,,Ashburn
5.161.105.124,4,18,freeatlantis.com,US,Americas,Northern America,United States of America,Virginia,,Ashburn
173.236.251.128,4,34,freedos.org,US,Americas,Northern America,United States of America,Virginia,,Ashburn
173.236.255.191,4,30,freevlog.org,US,Americas,Northern America,United States of America,Virginia,,Ashburn
173.236.248.57,4,35,freezepop.net,US,Americas,Northern America,United States of America,Virginia,,Ashburn
54.227.255.74,4,11,freshports.org,US,Americas,Northern America,United States of America,Virginia,,Ashburn
169.55.69.91,4,3018,frightsite.com,US,Americas,Northern America,United States of America,Virginia,,Ashburn
67.205.57.148,4,27,fromtheheartproductions.com,US,Americas,Northern America,United States of America,Virginia,,Ashburn
146.75.33.91,4,5,frontierairlines.com,US,Americas,Northern America,United States of America,Virginia,,Ashburn
44.209.154.113,4,4,frontify.com,US,Americas,Northern America,United States of America,Virginia,,Ashburn
54.243.105.30,4,4,frontify.com,US,Americas,Northern America,United States of America,Virginia,,Ashburn
3.233.23.97,4,1,frontify.com,US,Americas,Northern America,United States of America,Virginia,,Ashburn
23.39.184.14,4,3,fruugo.fr,US,Americas,Northern America,United States of America,Virginia,,Ashburn
3.220.15.238,4,6,fsgbooks.com,US,Americas,Northern America,United States of America,Virginia,,Ashburn
44.196.63.95,4,2,fsgbooks.com,US,Americas,Northern America,United States of America,Virginia,,Ashburn
3.213.219.224,4,1,ftnfantasy.com,US,Americas,Northern America,United States of America,Virginia,,Ashburn
35.153.15.225,4,6,ftnfantasy.com,US,Americas,Northern America,United States of America,Virginia,,Ashburn
3.212.33.1,4,3,ftnfantasy.com,US,Americas,Northern America,United States of America,Virginia,,Ashburn
34.206.48.244,4,4,ftnfantasy.com,US,Americas,Northern America,United States of America,Virginia,,Ashburn
3.225.172.238,4,4,ftnfantasy.com,US,Americas,Northern America,United States of America,Virginia,,Ashburn
3.228.134.32,4,3,ftnfantasy.com,US,Americas,Northern America,United States of America,Virginia,,Ashburn
158.101.96.27,4,4,furkot.com,US,Americas,Northern America,United States of America,Virginia,,Ashburn
54.164.133.105,4,5,futuremarketinsights.com,US,Americas,Northern America,United States of America,Virginia,,Ashburn
107.23.218.60,4,5,fw.to,US,Americas,Northern America,United States of America,Virginia,,Ashburn
18.210.153.8,4,1,fw.to,US,Americas,Northern America,United States of America,Virginia,,Ashburn
18.211.61.121,4,6,fw.to,US,Americas,Northern America,United States of America,Virginia,,Ashburn
52.2.141.183,4,16,fw.to,US,Americas,Northern America,United States of America,Virginia,,Ashburn
18.205.77.36,4,2,fw.to,US,Americas,Northern America,United States of America,Virginia,,Ashburn
18.209.204.66,4,4,fw.to,US,Americas,Northern America,United States of America,Virginia,,Ashburn
18.210.235.241,4,4,fw.to,US,Americas,Northern America,United States of America,Virginia,,Ashburn
54.88.149.194,4,0,fw.to,US,Americas,Northern America,United States of America,Virginia,,Ashburn
18.206.141.83,4,4,fw.to,US,Americas,Northern America,United States of America,Virginia,,Ashburn
54.163.10.101,4,62,galeriemagazine.com,US,Americas,Northern America,United States of America,Virginia,,Ashburn
173.236.252.82,4,5,gamblingandthelaw.com,US,Americas,Northern America,United States of America,Virginia,,Ashburn
52.20.11.103,4,9,gamehollywood.com,US,Americas,Northern America,United States of America,Virginia,,Ashburn
173.236.253.117,4,3,gamerlive.tv,US,Americas,Northern America,United States of America,Virginia,,Ashburn
5.161.231.17,4,10,gamingcy.com,US,Americas,Northern America,United States of America,Virginia,,Ashburn
169.55.122.106,4,4,gantdaily.com,US,Americas,Northern America,United States of America,Virginia,,Ashburn
3.214.16.8,4,14,gatech.edu,US,Americas,Northern America,United States of America,Virginia,,Ashburn
54.235.109.100,4,20,gaycitynews.nyc,US,Americas,Northern America,United States of America,Virginia,,Ashburn
66.22.63.167,4,8,gbm.net,US,Americas,Northern America,United States of America,Virginia,,Ashburn
45.203.0.101,4,7,gdcompt.com,US,Americas,Northern America,United States of America,Virginia,,Ashburn
173.236.252.62,4,5,genderanalysis.net,US,Americas,Northern America,United States of America,Virginia,,Ashburn
5.161.46.63,4,70,genhomepage.com,US,Americas,Northern America,United States of America,Virginia,,Ashburn
18.232.200.40,4,4,getinsfollowers.com,US,Americas,Northern America,United States of America,Virginia,,Ashburn
184.73.189.105,4,14,ghostscript.com,US,Americas,Northern America,United States of America,Virginia,,Ashburn
5.161.122.68,4,35,gifto.io,US,Americas,Northern America,United States of America,Virginia,,Ashburn
5.161.216.137,4,28,gioia.news,US,Americas,Northern America,United States of America,Virginia,,Ashburn
5.161.47.136,4,6,gitready.com,US,Americas,Northern America,United States of America,Virginia,,Ashburn
3.232.93.58,4,8,give.org,US,Americas,Northern America,United States of America,Virginia,,Ashburn
54.85.242.110,4,25,give.org,US,Americas,Northern America,United States of America,Virginia,,Ashburn
5.161.56.254,4,10,glamourbuff.com,US,Americas,Northern America,United States of America,Virginia,,Ashburn
34.202.123.222,4,5,globalpsa.com,US,Americas,Northern America,United States of America,Virginia,,Ashburn
52.4.99.135,4,16,globalpsa.com,US,Americas,Northern America,United States of America,Virginia,,Ashburn
52.204.23.184,4,7,glockmeister.com,US,Americas,Northern America,United States of America,Virginia,,Ashburn
131.153.148.82,4,10,glodaris.com,US,Americas,Northern America,United States of America,Virginia,,Ashburn
173.236.251.173,4,11,glump.net,US,Americas,Northern America,United States of America,Virginia,,Ashburn
173.236.255.176,4,18,gnhusa.org,US,Americas,Northern America,United States of America,Virginia,,Ashburn
54.172.212.168,4,17,go.to,US,Americas,Northern America,United States of America,Virginia,,Ashburn
44.219.238.197,4,23,gointegro.com,US,Americas,Northern America,United States of America,Virginia,,Ashburn
50.16.134.138,4,10,gointegro.com,US,Americas,Northern America,United States of America,Virginia,,Ashburn
23.94.117.146,4,23,golftipszone.com,US,Americas,Northern America,United States of America,Virginia,,Ashburn
52.4.186.30,4,6,gosnappy.io,US,Americas,Northern America,United States of America,Virginia,,Ashburn
44.218.205.26,4,23,gosnappy.io,US,Americas,Northern America,United States of America,Virginia,,Ashburn
34.224.243.68,4,5,gosnappy.io,US,Americas,Northern America,United States of America,Virginia,,Ashburn
173.236.251.178,4,4,gottcode.org,US,Americas,Northern America,United States of America,Virginia,,Ashburn
34.228.207.162,4,11,governance-intelligence.com,US,Americas,Northern America,United States of America,Virginia,,Ashburn
54.164.173.101,4,4,graduateshotline.com,US,Americas,Northern America,United States of America,Virginia,,Ashburn
34.197.89.115,4,16,grand1847.com,US,Americas,Northern America,United States of America,Virginia,,Ashburn
146.75.31.52,4,16,granderie.ca,US,Americas,Northern America,United States of America,Virginia,,Ashburn
173.236.253.216,4,9,graphicpush.com,US,Americas,Northern America,United States of America,Virginia,,Ashburn
173.236.249.12,4,37,greatlakeswimmers.com,US,Americas,Northern America,United States of America,Virginia,,Ashburn
34.203.241.196,4,43,greatschools.org,US,Americas,Northern America,United States of America,Virginia,,Ashburn
169.47.47.98,4,32,greattibettour.com,US,Americas,Northern America,United States of America,Virginia,,Ashburn
44.208.78.109,4,5,groupmap.com,US,Americas,Northern America,United States of America,Virginia,,Ashburn
54.226.98.214,4,27,groupmap.com,US,Americas,Northern America,United States of America,Virginia,,Ashburn
35.173.156.2,4,4,groupmap.com,US,Americas,Northern America,United States of America,Virginia,,Ashburn
52.86.144.29,4,6,growjo.com,US,Americas,Northern America,United States of America,Virginia,,Ashburn
34.194.252.101,4,4,grsites.com,US,Americas,Northern America,United States of America,Virginia,,Ashburn
173.236.248.182,4,16,grusp.org,US,Americas,Northern America,United States of America,Virginia,,Ashburn
52.202.27.192,4,2,gsp.com,US,Americas,Northern America,United States of America,Virginia,,Ashburn
3.233.62.29,4,3,gunprime.com,US,Americas,Northern America,United States of America,Virginia,,Ashburn
52.202.239.188,4,1,gunprime.com,US,Americas,Northern America,United States of America,Virginia,,Ashburn
198.24.175.90,4,1,gwrr.com,US,Americas,Northern America,United States of America,Virginia,,Ashburn
66.22.19.134,4,5,gyft.com,US,Americas,Northern America,United States of America,Virginia,,Ashburn
34.235.243.100,4,2,h2owireless.com,US,Americas,Northern America,United States of America,Virginia,,Ashburn
54.225.163.196,4,5,h2owireless.com,US,Americas,Northern America,United States of America,Virginia,,Ashburn
52.203.140.237,4,2,h2owireless.com,US,Americas,Northern America,United States of America,Virginia,,Ashburn
173.236.253.97,4,6,hamsterrepublic.com,US,Americas,Northern America,United States of America,Virginia,,Ashburn
23.218.218.26,4,5,happyhomes.se,US,Americas,Northern America,United States of America,Virginia,,Ashburn
5.161.208.152,4,14,harddrop.com,US,Americas,Northern America,United States of America,Virginia,,Ashburn
23.13.167.10,4,6,hbc.com,US,Americas,Northern America,United States of America,Virginia,,Ashburn
5.161.124.91,4,6,hbci.com,US,Americas,Northern America,United States of America,Virginia,,Ashburn
44.195.7.9,4,0,healthcaredyb.com,US,Americas,Northern America,United States of America,Virginia,,Ashburn
54.86.156.245,4,4,healthit.gov,US,Americas,Northern America,United States of America,Virginia,,Ashburn
107.20.179.145,4,3,healthprofs.com,US,Americas,Northern America,United States of America,Virginia,,Ashburn
3.234.189.124,4,1,healthprofs.com,US,Americas,Northern America,United States of America,Virginia,,Ashburn
5.161.191.71,4,2,hear-it.org,US,Americas,Northern America,United States of America,Virginia,,Ashburn
45.203.24.42,4,7,hewei-defense.com,US,Americas,Northern America,United States of America,Virginia,,Ashburn
3.94.145.15,4,4,hioscar.com,US,Americas,Northern America,United States of America,Virginia,,Ashburn
44.210.11.251,4,3,hivestack.com,US,Americas,Northern America,United States of America,Virginia,,Ashburn
52.54.16.99,4,0,hivestack.com,US,Americas,Northern America,United States of America,Virginia,,Ashburn
3.218.72.25,4,0,hokuapps.com,US,Americas,Northern America,United States of America,Virginia,,Ashburn
173.236.255.250,4,8,holyjoe.org,US,Americas,Northern America,United States of America,Virginia,,Ashburn
173.236.252.146,4,8,homeremediesweb.com,US,Americas,Northern America,United States of America,Virginia,,Ashburn
67.205.58.18,4,5,homeworldremastered.com,US,Americas,Northern America,United States of America,Virginia,,Ashburn
34.233.21.34,4,1,hopihari.com.br,US,Americas,Northern America,United States of America,Virginia,,Ashburn
74.84.144.49,4,17,horizondatasys.com,US,Americas,Northern America,United States of America,Virginia,,Ashburn
3.220.30.185,4,9,horseracingnation.com,US,Americas,Northern America,United States of America,Virginia,,Ashburn
34.194.219.20,4,5,horseracingnation.com,US,Americas,Northern America,United States of America,Virginia,,Ashburn
3.225.227.248,4,3,horseracingnation.com,US,Americas,Northern America,United States of America,Virginia,,Ashburn
34.234.111.24,4,15,horseracingnation.com,US,Americas,Northern America,United States of America,Virginia,,Ashburn
70.32.1.114,4,30,hospitalsoup.com,US,Americas,Northern America,United States of America,Virginia,,Ashburn
18.208.72.108,4,3,hotsale.com.mx,US,Americas,Northern America,United States of America,Virginia,,Ashburn
44.208.181.186,4,1,hotsale.com.mx,US,Americas,Northern America,United States of America,Virginia,,Ashburn
3.225.13.213,4,6,hotsale.com.mx,US,Americas,Northern America,United States of America,Virginia,,Ashburn
3.214.59.160,4,5,hoveround.com,US,Americas,Northern America,United States of America,Virginia,,Ashburn
3.215.43.73,4,5,howboymeetsgirl.com,US,Americas,Northern America,United States of America,Virginia,,Ashburn
3.227.15.90,4,1,huakangsw.com,US,Americas,Northern America,United States of America,Virginia,,Ashburn
45.203.25.234,4,4,huimao.com,US,Americas,Northern America,United States of America,Virginia,,Ashburn
34.196.176.125,4,2,hvacrschool.com,US,Americas,Northern America,United States of America,Virginia,,Ashburn
18.204.80.228,4,2,hwy55.com,US,Americas,Northern America,United States of America,Virginia,,Ashburn
54.209.74.138,4,4,hypertable.org,US,Americas,Northern America,United States of America,Virginia,,Ashburn
67.205.63.225,4,7,hypnoticworld.com,US,Americas,Northern America,United States of America,Virginia,,Ashburn
54.83.150.128,4,2,i-car.com,US,Americas,Northern America,United States of America,Virginia,,Ashburn
3.208.205.134,4,4,i-car.com,US,Americas,Northern America,United States of America,Virginia,,Ashburn
54.209.157.142,4,12,i-funbox.com,US,Americas,Northern America,United States of America,Virginia,,Ashburn
67.205.60.173,4,4,iamtimeshare.com,US,Americas,Northern America,United States of America,Virginia,,Ashburn
3.218.31.135,4,1,ibji.com,US,Americas,Northern America,United States of America,Virginia,,Ashburn
173.236.255.84,4,17,icancookthat.org,US,Americas,Northern America,United States of America,Virginia,,Ashburn
173.236.249.6,4,49,icojam.com,US,Americas,Northern America,United States of America,Virginia,,Ashburn
35.168.181.6,4,25,icommarketing.com,US,Americas,Northern America,United States of America,Virginia,,Ashburn
54.235.5.171,4,3,icommarketing.com,US,Americas,Northern America,United States of America,Virginia,,Ashburn
52.4.52.164,4,21,icommarketing.com,US,Americas,Northern America,United States of America,Virginia,,Ashburn
52.71.75.185,4,11,icommarketing.com,US,Americas,Northern America,United States of America,Virginia,,Ashburn
67.205.61.100,4,5,idfiinc.com,US,Americas,Northern America,United States of America,Virginia,,Ashburn
104.94.112.195,4,6,idiva.com,US,Americas,Northern America,United States of America,Virginia,,Ashburn
18.232.39.148,4,5,idxco.com,US,Americas,Northern America,United States of America,Virginia,,Ashburn
173.236.253.123,4,6,ieee-security.org,US,Americas,Northern America,United States of America,Virginia,,Ashburn
34.195.191.172,4,14,iesb.br,US,Americas,Northern America,United States of America,Virginia,,Ashburn
75.101.159.182,4,1,ifixit.net,US,Americas,Northern America,United States of America,Virginia,,Ashburn
67.205.62.3,4,46,ifs.org,US,Americas,Northern America,United States of America,Virginia,,Ashburn
54.175.30.220,4,797,ifso.com,US,Americas,Northern America,United States of America,Virginia,,Ashburn
54.198.170.253,4,2,ig.com.br,US,Americas,Northern America,United States of America,Virginia,,Ashburn
52.87.10.184,4,37051,igert.org,US,Americas,Northern America,United States of America,Virginia,,Ashburn
34.232.107.40,4,6,igniteseurope.com,US,Americas,Northern America,United States of America,Virginia,,Ashburn
23.21.74.191,4,5,igniteseurope.com,US,Americas,Northern America,United States of America,Virginia,,Ashburn
184.73.243.46,4,3,igniteseurope.com,US,Americas,Northern America,United States of America,Virginia,,Ashburn
52.3.179.55,4,31,imagekind.com,US,Americas,Northern America,United States of America,Virginia,,Ashburn
44.215.63.219,4,27,imagekind.com,US,Americas,Northern America,United States of America,Virginia,,Ashburn
173.236.251.143,4,15,immigration-residency.eu,US,Americas,Northern America,United States of America,Virginia,,Ashburn
23.205.106.72,4,13,inb.com,US,Americas,Northern America,United States of America,Virginia,,Ashburn
23.205.106.76,4,83,inb.com,US,Americas,Northern America,United States of America,Virginia,,Ashburn
5.161.85.225,4,10,indastro.com,US,Americas,Northern America,United States of America,Virginia,,Ashburn
52.205.222.65,4,101,inetsoft.com,US,Americas,Northern America,United States of America,Virginia,,Ashburn
66.22.1.182,4,95,info7.mx,US,Americas,Northern America,United States of America,Virginia,,Ashburn
52.2.10.128,4,0,infodog.com,US,Americas,Northern America,United States of America,Virginia,,Ashburn
150.136.186.229,4,65,informacolombia.com,US,Americas,Northern America,United States of America,Virginia,,Ashburn
173.236.250.133,4,11,inhalemd.com,US,Americas,Northern America,United States of America,Virginia,,Ashburn
45.203.31.103,4,5,injetpower.com,US,Americas,Northern America,United States of America,Virginia,,Ashburn
44.219.135.123,4,6,insidemaps.com,US,Americas,Northern America,United States of America,Virginia,,Ashburn
52.22.237.37,4,16,insidemaps.com,US,Americas,Northern America,United States of America,Virginia,,Ashburn
5.161.218.149,4,6,insigniaseo.com,US,Americas,Northern America,United States of America,Virginia,,Ashburn
5.181.161.89,4,2,instaboost.ge,US,Americas,Northern America,United States of America,Virginia,,Ashburn
96.7.16.24,4,9,intersystems.com,US,Americas,Northern America,United States of America,Virginia,,Ashburn
54.157.250.218,4,4,intradeconveyor.com,US,Americas,Northern America,United States of America,Virginia,,Ashburn
34.227.170.143,4,5,investor.com,US,Americas,Northern America,United States of America,Virginia,,Ashburn
3.95.188.85,4,8,iobit.com,US,Americas,Northern America,United States of America,Virginia,,Ashburn
54.86.242.2,4,8,ipcstore.com,US,Americas,Northern America,United States of America,Virginia,,Ashburn
54.152.188.238,4,3,iquilezles.org,US,Americas,Northern America,United States of America,Virginia,,Ashburn
44.206.20.128,4,4,iquilezles.org,US,Americas,Northern America,United States of America,Virginia,,Ashburn
3.211.20.69,4,3,iquilezles.org,US,Americas,Northern America,United States of America,Virginia,,Ashburn
3.222.89.227,4,9,iquilezles.org,US,Americas,Northern America,United States of America,Virginia,,Ashburn
23.20.26.158,4,2,iquilezles.org,US,Americas,Northern America,United States of America,Virginia,,Ashburn
54.163.122.68,4,3,iriefm.net,US,Americas,Northern America,United States of America,Virginia,,Ashburn
34.192.7.194,4,0,iriefm.net,US,Americas,Northern America,United States of America,Virginia,,Ashburn
34.205.167.161,4,3,iriefm.net,US,Americas,Northern America,United States of America,Virginia,,Ashburn
100.28.52.64,4,4,iriefm.net,US,Americas,Northern America,United States of America,Virginia,,Ashburn
50.19.218.74,4,0,iriefm.net,US,Americas,Northern America,United States of America,Virginia,,Ashburn
52.44.171.188,4,5,iriefm.net,US,Americas,Northern America,United States of America,Virginia,,Ashburn
23.218.218.20,4,15,israelhayom.co.il,US,Americas,Northern America,United States of America,Virginia,,Ashburn
23.218.218.19,4,38,israelhayom.com,US,Americas,Northern America,United States of America,Virginia,,Ashburn
23.218.218.17,4,9,israelhayom.com,US,Americas,Northern America,United States of America,Virginia,,Ashburn
34.237.181.29,4,17,itsalmo.st,US,Americas,Northern America,United States of America,Virginia,,Ashburn
35.171.235.159,4,14,itsalmo.st,US,Americas,Northern America,United States of America,Virginia,,Ashburn
35.153.7.161,4,8,ixwebhosting.com,US,Americas,Northern America,United States of America,Virginia,,Ashburn
66.22.79.140,4,6,izzi.mx,US,Americas,Northern America,United States of America,Virginia,,Ashburn
173.236.253.237,4,9,jabberwocky.com,US,Americas,Northern America,United States of America,Virginia,,Ashburn
23.212.250.69,4,8,jaeger.co.uk,US,Americas,Northern America,United States of America,Virginia,,Ashburn
23.212.250.77,4,11,jaeger.co.uk,US,Americas,Northern America,United States of America,Virginia,,Ashburn
34.225.242.142,4,3,jamtour.com,US,Americas,Northern America,United States of America,Virginia,,Ashburn
3.224.5.0,4,4,jamtour.com,US,Americas,Northern America,United States of America,Virginia,,Ashburn
34.197.164.213,4,4,jamtour.com,US,Americas,Northern America,United States of America,Virginia,,Ashburn
52.205.17.124,4,2,jamtour.com,US,Americas,Northern America,United States of America,Virginia,,Ashburn
54.80.215.164,4,19,jamtour.com,US,Americas,Northern America,United States of America,Virginia,,Ashburn
34.193.146.169,4,18,jamtour.com,US,Americas,Northern America,United States of America,Virginia,,Ashburn
173.236.254.207,4,7,jarango.com,US,Americas,Northern America,United States of America,Virginia,,Ashburn
18.232.19.45,4,2,jauce.com,US,Americas,Northern America,United States of America,Virginia,,Ashburn
173.236.250.66,4,4,jctonline.org,US,Americas,Northern America,United States of America,Virginia,,Ashburn
173.236.250.40,4,7,jetmore.org,US,Americas,Northern America,United States of America,Virginia,,Ashburn
45.197.58.132,4,22,jianye365.com,US,Americas,Northern America,United States of America,Virginia,,Ashburn
5.161.144.0,4,7,jimpl.com,US,Americas,Northern America,United States of America,Virginia,,Ashburn
5.181.161.87,4,2,jinjer-metal.com,US,Americas,Northern America,United States of America,Virginia,,Ashburn
54.243.46.120,4,1,jitbit.com,US,Americas,Northern America,United States of America,Virginia,,Ashburn
173.236.250.188,4,5,johnbarrowman.com,US,Americas,Northern America,United States of America,Virginia,,Ashburn
67.205.60.119,4,3,jointherevolution.net,US,Americas,Northern America,United States of America,Virginia,,Ashburn
5.161.113.8,4,3,joyeur.com,US,Americas,Northern America,United States of America,Virginia,,Ashburn
52.21.89.158,4,5,jsjhpackaging.com,US,Americas,Northern America,United States of America,Virginia,,Ashburn
52.73.186.12,4,4,judicialwatch.org,US,Americas,Northern America,United States of America,Virginia,,Ashburn
173.236.251.205,4,3,jungleadventures.com,US,Americas,Northern America,United States of America,Virginia,,Ashburn
173.236.250.176,4,4,junglephotos.com,US,Americas,Northern America,United States of America,Virginia,,Ashburn
23.212.251.16,4,6,juniata.edu,US,Americas,Northern America,United States of America,Virginia,,Ashburn
3.80.25.196,4,5,junkbuster.com,US,Americas,Northern America,United States of America,Virginia,,Ashburn
173.236.250.205,4,5,justinsomnia.org,US,Americas,Northern America,United States of America,Virginia,,Ashburn
52.2.192.9,4,-2,justplanes.com,US,Americas,Northern America,United States of America,Virginia,,Ashburn
18.208.53.171,4,131,kadenze.com,US,Americas,Northern America,United States of America,Virginia,,Ashburn
3.229.66.176,4,1,kadenze.com,US,Americas,Northern America,United States of America,Virginia,,Ashburn
34.195.148.169,4,6,kapost.com,US,Americas,Northern America,United States of America,Virginia,,Ashburn
44.213.182.200,4,4,kapost.com,US,Americas,Northern America,United States of America,Virginia,,Ashburn
23.212.251.24,4,32,karamba.com,US,Americas,Northern America,United States of America,Virginia,,Ashburn
23.212.251.26,4,16,karamba.com,US,Americas,Northern America,United States of America,Virginia,,Ashburn
173.236.252.74,4,30,kassoon.com,US,Americas,Northern America,United States of America,Virginia,,Ashburn
173.236.253.2,4,14,katsurashareware.com,US,Americas,Northern America,United States of America,Virginia,,Ashburn
5.161.62.225,4,34,kauaiworld.com,US,Americas,Northern America,United States of America,Virginia,,Ashburn
173.236.254.122,4,38,kayserispor.org.tr,US,Americas,Northern America,United States of America,Virginia,,Ashburn
5.161.64.84,4,3,kchi.com,US,Americas,Northern America,United States of America,Virginia,,Ashburn
100.25.79.28,4,9,kcm.org,US,Americas,Northern America,United States of America,Virginia,,Ashburn
54.146.138.176,4,0,kcm.org,US,Americas,Northern America,United States of America,Virginia,,Ashburn
34.195.105.32,4,2,kcm.org,US,Americas,Northern America,United States of America,Virginia,,Ashburn
54.162.244.3,4,4,kcm.org,US,Americas,Northern America,United States of America,Virginia,,Ashburn
5.161.77.113,4,4,ke0tcf.radio,US,Americas,Northern America,United States of America,Virginia,,Ashburn
54.165.184.152,4,-23845,keglerbrown.com,US,Americas,Northern America,United States of America,Virginia,,Ashburn
52.21.155.135,4,4,kepler.space,US,Americas,Northern America,United States of America,Virginia,,Ashburn
5.161.121.211,4,5,kevitprojects.com,US,Americas,Northern America,United States of America,Virginia,,Ashburn
169.47.100.12,4,4,khipu.com,US,Americas,Northern America,United States of America,Virginia,,Ashburn
173.236.254.22,4,6,killacycle.com,US,Americas,Northern America,United States of America,Virginia,,Ashburn
131.153.129.108,4,331,kinderinstitute.com,US,Americas,Northern America,United States of America,Virginia,,Ashburn
23.212.250.19,4,8,kingarthurflour.com,US,Americas,Northern America,United States of America,Virginia,,Ashburn
23.212.250.15,4,5,kingarthurflour.com,US,Americas,Northern America,United States of America,Virginia,,Ashburn
173.236.248.130,4,10,kinksoft.com,US,Americas,Northern America,United States of America,Virginia,,Ashburn
18.204.166.103,4,3,klgrth.io,US,Americas,Northern America,United States of America,Virginia,,Ashburn
100.25.124.164,4,4,klmultimedia.com,US,Americas,Northern America,United States of America,Virginia,,Ashburn
173.236.248.217,4,6,knights-n-knaves.com,US,Americas,Northern America,United States of America,Virginia,,Ashburn
66.6.32.22,4,10,koomey.com,US,Americas,Northern America,United States of America,Virginia,,Ashburn
34.233.222.53,4,9,koramgame.com,US,Americas,Northern America,United States of America,Virginia,,Ashburn
67.205.58.253,4,34,kuriyama.com,US,Americas,Northern America,United States of America,Virginia,,Ashburn
45.194.32.43,4,8,kuuv.cn,US,Americas,Northern America,United States of America,Virginia,,Ashburn
173.236.252.14,4,8,kylemcdonald.net,US,Americas,Northern America,United States of America,Virginia,,Ashburn
52.72.116.169,4,42,labx.com,US,Americas,Northern America,United States of America,Virginia,,Ashburn
23.73.207.14,4,5,lacontroller.org,US,Americas,Northern America,United States of America,Virginia,,Ashburn
23.73.207.7,4,4,lacontroller.org,US,Americas,Northern America,United States of America,Virginia,,Ashburn
5.161.47.34,4,27,lamula.pe,US,Americas,Northern America,United States of America,Virginia,,Ashburn
23.73.207.4,4,4,lariver.org,US,Americas,Northern America,United States of America,Virginia,,Ashburn
23.73.207.8,4,3,lariver.org,US,Americas,Northern America,United States of America,Virginia,,Ashburn
23.13.165.47,4,42,lascana.com,US,Americas,Northern America,United States of America,Virginia,,Ashburn
3.214.103.163,4,42,lasership.com,US,Americas,Northern America,United States of America,Virginia,,Ashburn
54.80.211.227,4,9,lasership.com,US,Americas,Northern America,United States of America,Virginia,,Ashburn
35.169.41.158,4,9,lasership.com,US,Americas,Northern America,United States of America,Virginia,,Ashburn
52.23.146.247,4,33,launchpotato.com,US,Americas,Northern America,United States of America,Virginia,,Ashburn
34.238.57.169,4,33,launchpotato.com,US,Americas,Northern America,United States of America,Virginia,,Ashburn
52.72.83.44,4,14,launchpotato.com,US,Americas,Northern America,United States of America,Virginia,,Ashburn
184.73.155.219,4,8,launchpotato.com,US,Americas,Northern America,United States of America,Virginia,,Ashburn
173.236.250.37,4,27,launchy.net,US,Americas,Northern America,United States of America,Virginia,,Ashburn
5.161.82.160,4,3,lawprose.org,US,Americas,Northern America,United States of America,Virginia,,Ashburn
173.236.251.127,4,7,lbcurrent.com,US,Americas,Northern America,United States of America,Virginia,,Ashburn
3.212.67.197,4,5,leadspace.com,US,Americas,Northern America,United States of America,Virginia,,Ashburn
173.236.248.122,4,6,leap.cc,US,Americas,Northern America,United States of America,Virginia,,Ashburn
52.203.199.248,4,11,learningpath.org,US,Americas,Northern America,United States of America,Virginia,,Ashburn
54.159.189.178,4,17,learningpath.org,US,Americas,Northern America,United States of America,Virginia,,Ashburn
173.236.253.0,4,63,leechambers.org,US,Americas,Northern America,United States of America,Virginia,,Ashburn
52.54.125.110,4,68,leerburg.com,US,Americas,Northern America,United States of America,Virginia,,Ashburn
3.212.134.36,4,12,leerburg.com,US,Americas,Northern America,United States of America,Virginia,,Ashburn
23.212.250.72,4,5,leithcars.com,US,Americas,Northern America,United States of America,Virginia,,Ashburn
23.212.250.73,4,114,leithcars.com,US,Americas,Northern America,United States of America,Virginia,,Ashburn
23.212.250.82,4,25,leithcars.com,US,Americas,Northern America,United States of America,Virginia,,Ashburn
23.212.250.75,4,73,leithcars.com,US,Americas,Northern America,United States of America,Virginia,,Ashburn
3.218.52.240,4,25,lendinghome.com,US,Americas,Northern America,United States of America,Virginia,,Ashburn
107.23.146.45,4,51,lendinghome.com,US,Americas,Northern America,United States of America,Virginia,,Ashburn
52.205.96.188,4,3,lendinghome.com,US,Americas,Northern America,United States of America,Virginia,,Ashburn
74.84.145.6,4,43,lets-ride.com,US,Americas,Northern America,United States of America,Virginia,,Ashburn
54.172.102.130,4,6,lg.com.br,US,Americas,Northern America,United States of America,Virginia,,Ashburn
5.161.211.87,4,8,lieder.net,US,Americas,Northern America,United States of America,Virginia,,Ashburn
173.236.252.72,4,21,lifeonmissionconference.ca,US,Americas,Northern America,United States of America,Virginia,,Ashburn
184.72.229.176,4,3,liffeyartefacts.com,US,Americas,Northern America,United States of America,Virginia,,Ashburn
23.235.226.120,4,17,lighthouseapp.com,US,Americas,Northern America,United States of America,Virginia,,Ashburn
44.216.161.131,4,4,lightspeed.com,US,Americas,Northern America,United States of America,Virginia,,Ashburn
100.24.215.250,4,17,lightspeed.com,US,Americas,Northern America,United States of America,Virginia,,Ashburn
173.236.254.7,4,23,ligos.com,US,Americas,Northern America,United States of America,Virginia,,Ashburn
169.55.126.100,4,7,lillian-too.com,US,Americas,Northern America,United States of America,Virginia,,Ashburn
34.196.202.11,4,3,lindoncity.org,US,Americas,Northern America,United States of America,Virginia,,Ashburn
3.215.235.120,4,1,linkworth.com,US,Americas,Northern America,United States of America,Virginia,,Ashburn
107.20.222.70,4,1,linux-sound.org,US,Americas,Northern America,United States of America,Virginia,,Ashburn
23.212.250.4,4,4,liquidia.com,US,Americas,Northern America,United States of America,Virginia,,Ashburn
52.23.111.227,4,18,listhub.net,US,Americas,Northern America,United States of America,Virginia,,Ashburn
44.205.69.147,4,1,listhub.net,US,Americas,Northern America,United States of America,Virginia,,Ashburn
173.236.251.157,4,9,littlelioness.net,US,Americas,Northern America,United States of America,Virginia,,Ashburn
3.224.66.154,4,1,littlstar.com,US,Americas,Northern America,United States of America,Virginia,,Ashburn
3.212.225.51,4,2,littlstar.com,US,Americas,Northern America,United States of America,Virginia,,Ashburn
3.91.167.250,4,11,localbyflywheel.com,US,Americas,Northern America,United States of America,Virginia,,Ashburn
54.81.228.116,4,4,localbyflywheel.com,US,Americas,Northern America,United States of America,Virginia,,Ashburn
52.73.199.204,4,28,locallive.tv,US,Americas,Northern America,United States of America,Virginia,,Ashburn
54.225.176.190,4,5,locallive.tv,US,Americas,Northern America,United States of America,Virginia,,Ashburn
67.205.61.24,4,4,lorizanini.com,US,Americas,Northern America,United States of America,Virginia,,Ashburn
54.211.7.152,4,4,love-sites.com,US,Americas,Northern America,United States of America,Virginia,,Ashburn
44.214.248.32,4,8,loveweddingbands.com,US,Americas,Northern America,United States of America,Virginia,,Ashburn
44.223.203.206,4,1,ltl.is,US,Americas,Northern America,United States of America,Virginia,,Ashburn
34.192.118.32,4,16,ltl.is,US,Americas,Northern America,United States of America,Virginia,,Ashburn
146.75.29.11,4,4,luxuryrealestatemaui.com,US,Americas,Northern America,United States of America,Virginia,,Ashburn
173.236.250.165,4,9,lvl1.org,US,Americas,Northern America,United States of America,Virginia,,Ashburn
173.236.251.40,4,13,lynthornealder.com,US,Americas,Northern America,United States of America,Virginia,,Ashburn
67.205.61.48,4,4,maactioncinema.com,US,Americas,Northern America,United States of America,Virginia,,Ashburn
64.111.99.245,4,10,mailbag.com,US,Americas,Northern America,United States of America,Virginia,,Ashburn
52.70.161.170,4,75,mailboxvalidator.com,US,Americas,Northern America,United States of America,Virginia,,Ashburn
54.166.38.191,4,29,makeachamp.com,US,Americas,Northern America,United States of America,Virginia,,Ashburn
54.144.37.176,4,95,makeachamp.com,US,Americas,Northern America,United States of America,Virginia,,Ashburn
52.206.158.166,4,49,makeachamp.com,US,Americas,Northern America,United States of America,Virginia,,Ashburn
54.86.130.216,4,1,maketimeonline.com,US,Americas,Northern America,United States of America,Virginia,,Ashburn
23.218.218.15,4,33,makorrishon.co.il,US,Americas,Northern America,United States of America,Virginia,,Ashburn
5.161.93.21,4,6,maldonadonoticias.com,US,Americas,Northern America,United States of America,Virginia,,Ashburn
44.197.96.243,4,2,mamabearapp.com,US,Americas,Northern America,United States of America,Virginia,,Ashburn
52.55.245.251,4,3,mamabearapp.com,US,Americas,Northern America,United States of America,Virginia,,Ashburn
173.236.255.175,4,26,manpagez.com,US,Americas,Northern America,United States of America,Virginia,,Ashburn
192.243.63.140,4,4,manualslib.com,US,Americas,Northern America,United States of America,Virginia,,Ashburn
5.161.81.199,4,4,manuelmoreale.com,US,Americas,Northern America,United States of America,Virginia,,Ashburn
198.24.188.2,4,35,manyessays.com,US,Americas,Northern America,United States of America,Virginia,,Ashburn
173.236.249.8,4,4,mapkibera.org,US,Americas,Northern America,United States of America,Virginia,,Ashburn
23.20.39.180,4,11,mapright.com,US,Americas,Northern America,United States of America,Virginia,,Ashburn
52.207.24.210,4,10,mapright.com,US,Americas,Northern America,United States of America,Virginia,,Ashburn
34.231.237.132,4,1,mapright.com,US,Americas,Northern America,United States of America,Virginia,,Ashburn
18.235.100.137,4,5,mapright.com,US,Americas,Northern America,United States of America,Virginia,,Ashburn
52.71.79.113,4,15,marijuanatimes.org,US,Americas,Northern America,United States of America,Virginia,,Ashburn
52.45.50.190,4,17,maritime.edu,US,Americas,Northern America,United States of America,Virginia,,Ashburn
52.201.174.215,4,54,maritime.edu,US,Americas,Northern America,United States of America,Virginia,,Ashburn
173.236.249.157,4,60,marketmanila.com,US,Americas,Northern America,United States of America,Virginia,,Ashburn
173.236.252.206,4,6,marketstory360.com,US,Americas,Northern America,United States of America,Virginia,,Ashburn
34.237.63.97,4,56,marquettejournals.org,US,Americas,Northern America,United States of America,Virginia,,Ashburn
173.236.255.183,4,22,marthawells.com,US,Americas,Northern America,United States of America,Virginia,,Ashburn
173.236.252.93,4,8,martinvigo.com,US,Americas,Northern America,United States of America,Virginia,,Ashburn
5.161.82.104,4,6,marxjewelers.com,US,Americas,Northern America,United States of America,Virginia,,Ashburn
54.85.199.254,4,58,masonicfind.com,US,Americas,Northern America,United States of America,Virginia,,Ashburn
173.236.251.210,4,160,massbroadcastershof.org,US,Americas,Northern America,United States of America,Virginia,,Ashburn
54.161.249.94,4,47,mathandreadinghelp.org,US,Americas,Northern America,United States of America,Virginia,,Ashburn
54.156.71.179,4,1,mathandreadinghelp.org,US,Americas,Northern America,United States of America,Virginia,,Ashburn
173.236.251.197,4,25,mattkeeter.com,US,Americas,Northern America,United States of America,Virginia,,Ashburn
5.161.104.44,4,11,mavenecommerce.com,US,Americas,Northern America,United States of America,Virginia,,Ashburn
34.199.190.172,4,4,maxthon.com,US,Americas,Northern America,United States of America,Virginia,,Ashburn
34.195.2.150,4,12,maxthon.com,US,Americas,Northern America,United States of America,Virginia,,Ashburn
67.205.62.161,4,8,mayorsfundla.org,US,Americas,Northern America,United States of America,Virginia,,Ashburn
52.54.101.154,4,0,mbaskool.com,US,Americas,Northern America,United States of America,Virginia,,Ashburn
67.205.57.69,4,4,mbeigrenada.com,US,Americas,Northern America,United States of America,Virginia,,Ashburn
3.212.0.102,4,36,mcdbooks.com,US,Americas,Northern America,United States of America,Virginia,,Ashburn
3.92.9.195,4,56,mcdbooks.com,US,Americas,Northern America,United States of America,Virginia,,Ashburn
23.73.207.11,4,6,mediamarkt.gr,US,Americas,Northern America,United States of America,Virginia,,Ashburn
23.222.16.56,4,5,mensxp.com,US,Americas,Northern America,United States of America,Virginia,,Ashburn
23.222.16.73,4,3,mensxp.com,US,Americas,Northern America,United States of America,Virginia,,Ashburn
173.236.251.18,4,15,metasonix.com,US,Americas,Northern America,United States of America,Virginia,,Ashburn
5.181.161.72,4,-1406,mhp-miami.com,US,Americas,Northern America,United States of America,Virginia,,Ashburn
5.161.63.161,4,8,michaelbay.com,US,Americas,Northern America,United States of America,Virginia,,Ashburn
54.85.39.104,4,20,michaelpaulus.com,US,Americas,Northern America,United States of America,Virginia,,Ashburn
54.164.192.210,4,22,migente.com,US,Americas,Northern America,United States of America,Virginia,,Ashburn
5.181.161.83,4,-1383,migrant.support,US,Americas,Northern America,United States of America,Virginia,,Ashburn
100.25.83.16,4,2,milepost.com,US,Americas,Northern America,United States of America,Virginia,,Ashburn
54.165.87.86,4,13,mimometal.com,US,Americas,Northern America,United States of America,Virginia,,Ashburn
3.218.184.116,4,35,mindswarms.com,US,Americas,Northern America,United States of America,Virginia,,Ashburn
44.207.186.2,4,3,mindswarms.com,US,Americas,Northern America,United States of America,Virginia,,Ashburn
35.174.202.129,4,7,mindswarms.com,US,Americas,Northern America,United States of America,Virginia,,Ashburn
54.82.158.82,4,3,mining.com,US,Americas,Northern America,United States of America,Virginia,,Ashburn
5.161.66.7,4,144516,mishpacha.com,US,Americas,Northern America,United States of America,Virginia,,Ashburn
3.210.243.216,4,2,missioncontinues.org,US,Americas,Northern America,United States of America,Virginia,,Ashburn
52.22.129.209,4,3,missioncontinues.org,US,Americas,Northern America,United States of America,Virginia,,Ashburn
5.181.161.71,4,2,mixbytes.io,US,Americas,Northern America,United States of America,Virginia,,Ashburn
173.236.248.153,4,50,mixedmigration.org,US,Americas,Northern America,United States of America,Virginia,,Ashburn
54.144.77.239,4,5,mlq.ai,US,Americas,Northern America,United States of America,Virginia,,Ashburn
34.231.198.162,4,5,mmohut.com,US,Americas,Northern America,United States of America,Virginia,,Ashburn
34.239.198.184,4,31,mmohuts.com,US,Americas,Northern America,United States of America,Virginia,,Ashburn
67.205.59.79,4,8,mn-masons.org,US,Americas,Northern America,United States of America,Virginia,,Ashburn
66.225.237.206,4,5,mn.gov,US,Americas,Northern America,United States of America,Virginia,,Ashburn
23.212.250.70,4,4,moat.com,US,Americas,Northern America,United States of America,Virginia,,Ashburn
54.225.168.6,4,3,mobileappdaily.com,US,Americas,Northern America,United States of America,Virginia,,Ashburn
34.200.42.118,4,0,mobileappdaily.com,US,Americas,Northern America,United States of America,Virginia,,Ashburn
34.200.190.19,4,18,mobileappdaily.com,US,Americas,Northern America,United States of America,Virginia,,Ashburn
23.22.235.206,4,4,mobileappdaily.com,US,Americas,Northern America,United States of America,Virginia,,Ashburn
34.233.85.26,4,4,mobileappdaily.com,US,Americas,Northern America,United States of America,Virginia,,Ashburn
43.130.124.220,4,23,moddroid.co,US,Americas,Northern America,United States of America,Virginia,,Ashburn
44.210.30.206,4,2,molinstincts.com,US,Americas,Northern America,United States of America,Virginia,,Ashburn
3.232.67.239,4,34,molinstincts.com,US,Americas,Northern America,United States of America,Virginia,,Ashburn
54.83.161.187,4,3,monetizer101.com,US,Americas,Northern America,United States of America,Virginia,,Ashburn
66.22.21.221,4,6,moneynetwork.com,US,Americas,Northern America,United States of America,Virginia,,Ashburn
44.205.167.201,4,23,moneypatrol.com,US,Americas,Northern America,United States of America,Virginia,,Ashburn
35.171.119.114,4,1,moneypatrol.com,US,Americas,Northern America,United States of America,Virginia,,Ashburn
54.175.147.155,4,23,mongoid.org,US,Americas,Northern America,United States of America,Virginia,,Ashburn
52.206.222.245,4,0,mongoid.org,US,Americas,Northern America,United States of America,Virginia,,Ashburn
52.21.89.200,4,33,mongoid.org,US,Americas,Northern America,United States of America,Virginia,,Ashburn
3.214.117.247,4,29,monica.im,US,Americas,Northern America,United States of America,Virginia,,Ashburn
34.235.48.129,4,6,monica.im,US,Americas,Northern America,United States of America,Virginia,,Ashburn
3.210.54.218,4,2,monica.im,US,Americas,Northern America,United States of America,Virginia,,Ashburn
34.201.198.215,4,25,monica.im,US,Americas,Northern America,United States of America,Virginia,,Ashburn
52.2.24.80,4,2,monica.im,US,Americas,Northern America,United States of America,Virginia,,Ashburn
107.21.235.144,4,6,monterey.com,US,Americas,Northern America,United States of America,Virginia,,Ashburn
5.161.101.178,4,6,monumentvalleyview.com,US,Americas,Northern America,United States of America,Virginia,,Ashburn
173.236.255.2,4,7,mooneyontheatre.com,US,Americas,Northern America,United States of America,Virginia,,Ashburn
52.21.105.129,4,20,moveit.com,US,Americas,Northern America,United States of America,Virginia,,Ashburn
167.86.41.197,4,5,mpac.ca,US,Americas,Northern America,United States of America,Virginia,,Ashburn
199.101.98.243,4,1,mprd.se,US,Americas,Northern America,United States of America,Virginia,,Ashburn
54.86.97.88,4,1,mrmine.com,US,Americas,Northern America,United States of America,Virginia,,Ashburn
34.200.200.85,4,1,mscocohair.com,US,Americas,Northern America,United States of America,Virginia,,Ashburn
34.234.57.247,4,9,mscocohair.com,US,Americas,Northern America,United States of America,Virginia,,Ashburn
173.236.253.28,4,60,muquit.com,US,Americas,Northern America,United States of America,Virginia,,Ashburn
5.181.161.82,4,28,my-jaxxwallet.io,US,Americas,Northern America,United States of America,Virginia,,Ashburn
5.181.161.90,4,5,my-sollet.com,US,Americas,Northern America,United States of America,Virginia,,Ashburn
3.229.72.160,4,0,myavionte.com,US,Americas,Northern America,United States of America,Virginia,,Ashburn
54.156.208.108,4,2,myavionte.com,US,Americas,Northern America,United States of America,Virginia,,Ashburn
23.21.190.143,4,0,myavionte.com,US,Americas,Northern America,United States of America,Virginia,,Ashburn
173.236.249.244,4,30,myblackhistory.net,US,Americas,Northern America,United States of America,Virginia,,Ashburn
5.161.118.16,4,5,myccr.com,US,Americas,Northern America,United States of America,Virginia,,Ashburn
54.80.29.27,4,3,myessaywriter.ai,US,Americas,Northern America,United States of America,Virginia,,Ashburn
54.86.197.150,4,37,myhomequote.com,US,Americas,Northern America,United States of America,Virginia,,Ashburn
34.195.199.36,4,23,myhomequote.com,US,Americas,Northern America,United States of America,Virginia,,Ashburn
52.2.230.225,4,38,myhomequote.com,US,Americas,Northern America,United States of America,Virginia,,Ashburn
34.206.149.155,4,4,mypacer.com,US,Americas,Northern America,United States of America,Virginia,,Ashburn
100.24.78.61,4,25,mypacer.com,US,Americas,Northern America,United States of America,Virginia,,Ashburn
52.45.208.71,4,5,myperfectwords.com,US,Americas,Northern America,United States of America,Virginia,,Ashburn
173.236.253.63,4,18,mysk.blog,US,Americas,Northern America,United States of America,Virginia,,Ashburn
52.2.158.35,4,2,n49.ca,US,Americas,Northern America,United States of America,Virginia,,Ashburn
52.0.157.89,4,3,n49.ca,US,Americas,Northern America,United States of America,Virginia,,Ashburn
3.232.75.98,4,19,nagb.org,US,Americas,Northern America,United States of America,Virginia,,Ashburn
146.75.29.124,4,5,nalli.com,US,Americas,Northern America,United States of America,Virginia,,Ashburn
3.92.158.44,4,6,nassauclerk.com,US,Americas,Northern America,United States of America,Virginia,,Ashburn
3.209.155.139,4,1,nassauclerk.com,US,Americas,Northern America,United States of America,Virginia,,Ashburn
54.165.62.117,4,0,natcom.org,US,Americas,Northern America,United States of America,Virginia,,Ashburn
173.236.255.36,4,13,nathanwinograd.com,US,Americas,Northern America,United States of America,Virginia,,Ashburn
52.5.112.63,4,2,nationalgeographic.de,US,Americas,Northern America,United States of America,Virginia,,Ashburn
54.163.156.216,4,51,nationalgeographic.de,US,Americas,Northern America,United States of America,Virginia,,Ashburn
18.233.118.163,4,3,nationalgypsum.com,US,Americas,Northern America,United States of America,Virginia,,Ashburn
18.209.199.54,4,62,nationalgypsum.com,US,Americas,Northern America,United States of America,Virginia,,Ashburn
35.168.67.155,4,6,nationalsoccerhof.com,US,Americas,Northern America,United States of America,Virginia,,Ashburn
5.161.105.99,4,12,neat.computer,US,Americas,Northern America,United States of America,Virginia,,Ashburn
66.22.13.127,4,9,neca.org,US,Americas,Northern America,United States of America,Virginia,,Ashburn
173.236.254.49,4,18,neffa.org,US,Americas,Northern America,United States of America,Virginia,,Ashburn
173.236.255.5,4,41,neopvc.com,US,Americas,Northern America,United States of America,Virginia,,Ashburn
52.22.45.205,4,478,neortho.com,US,Americas,Northern America,United States of America,Virginia,,Ashburn
52.54.202.138,4,0,nethack.org,US,Americas,Northern America,United States of America,Virginia,,Ashburn
5.161.187.17,4,29,netlingo.com,US,Americas,Northern America,United States of America,Virginia,,Ashburn
54.243.53.198,4,160,netsoltech.com,US,Americas,Northern America,United States of America,Virginia,,Ashburn
3.227.183.85,4,8,netwrix.com,US,Americas,Northern America,United States of America,Virginia,,Ashburn
44.220.113.154,4,3,netwrix.com,US,Americas,Northern America,United States of America,Virginia,,Ashburn
54.235.102.102,4,1,neuvoo.de,US,Americas,Northern America,United States of America,Virginia,,Ashburn
34.204.158.23,4,10,neuvoo.de,US,Americas,Northern America,United States of America,Virginia,,Ashburn
52.205.232.55,4,22,neuvoo.de,US,Americas,Northern America,United States of America,Virginia,,Ashburn
184.72.200.224,4,0,newnettechnologies.com,US,Americas,Northern America,United States of America,Virginia,,Ashburn
3.208.206.136,4,4,newnettechnologies.com,US,Americas,Northern America,United States of America,Virginia,,Ashburn
3.210.112.88,4,12,newobits.com,US,Americas,Northern America,United States of America,Virginia,,Ashburn
34.197.123.144,4,8,newsrx.com,US,Americas,Northern America,United States of America,Virginia,,Ashburn
52.72.196.137,4,31,newvideo.com,US,Americas,Northern America,United States of America,Virginia,,Ashburn
3.87.2.132,4,15,nextpcb.com,US,Americas,Northern America,United States of America,Virginia,,Ashburn
50.17.249.249,4,4,nextraq.com,US,Americas,Northern America,United States of America,Virginia,,Ashburn
52.202.249.237,4,3,nextraq.com,US,Americas,Northern America,United States of America,Virginia,,Ashburn
70.32.2.62,4,7,nfap.com,US,Americas,Northern America,United States of America,Virginia,,Ashburn
173.236.252.98,4,6,nfljerseysstar.com,US,Americas,Northern America,United States of America,Virginia,,Ashburn
67.205.57.195,4,4,nhmc.org,US,Americas,Northern America,United States of America,Virginia,,Ashburn
204.93.139.119,4,6,niceactimize.com,US,Americas,Northern America,United States of America,Virginia,,Ashburn
173.236.249.25,4,7,niceridemn.org,US,Americas,Northern America,United States of America,Virginia,,Ashburn
3.234.122.93,4,13,nihfcu.org,US,Americas,Northern America,United States of America,Virginia,,Ashburn
52.202.139.32,4,14,nihfcu.org,US,Americas,Northern America,United States of America,Virginia,,Ashburn
173.236.253.234,4,11,nkjemisin.com,US,Americas,Northern America,United States of America,Virginia,,Ashburn
173.236.254.174,4,4,nmdprojects.net,US,Americas,Northern America,United States of America,Virginia,,Ashburn
67.205.57.137,4,27,noisettes.net,US,Americas,Northern America,United States of America,Virginia,,Ashburn
173.236.253.197,4,28,nonoise.org,US,Americas,Northern America,United States of America,Virginia,,Ashburn
5.181.161.74,4,4,nordast.com,US,Americas,Northern America,United States of America,Virginia,,Ashburn
18.235.22.6,4,11,nordcurrent.com,US,Americas,Northern America,United States of America,Virginia,,Ashburn
146.75.30.191,4,2,nordschleswiger.dk,US,Americas,Northern America,United States of America,Virginia,,Ashburn
18.204.89.49,4,2,northamericadivingdogs.com,US,Americas,Northern America,United States of America,Virginia,,Ashburn
52.201.84.32,4,2,northamericadivingdogs.com,US,Americas,Northern America,United States of America,Virginia,,Ashburn
52.23.107.51,4,26,northernminer.com,US,Americas,Northern America,United States of America,Virginia,,Ashburn
5.181.161.16,4,-1389,norwich-terrier.top,US,Americas,Northern America,United States of America,Virginia,,Ashburn
44.193.61.210,4,1,nostr.build,US,Americas,Northern America,United States of America,Virginia,,Ashburn
44.218.146.105,4,1,nostr.build,US,Americas,Northern America,United States of America,Virginia,,Ashburn
52.21.31.50,4,3,nostr.build,US,Americas,Northern America,United States of America,Virginia,,Ashburn
107.21.65.70,4,3,nostr.build,US,Americas,Northern America,United States of America,Virginia,,Ashburn
52.204.162.173,4,4,nostr.build,US,Americas,Northern America,United States of America,Virginia,,Ashburn
44.216.249.34,4,3,nostr.build,US,Americas,Northern America,United States of America,Virginia,,Ashburn
5.161.103.75,4,7,novascotiawebcams.com,US,Americas,Northern America,United States of America,Virginia,,Ashburn
23.47.23.101,4,7,novusbio.com,US,Americas,Northern America,United States of America,Virginia,,Ashburn
23.205.105.164,4,2,nrg.co.il,US,Americas,Northern America,United States of America,Virginia,,Ashburn
23.205.105.157,4,3,nrg.co.il,US,Americas,Northern America,United States of America,Virginia,,Ashburn
131.153.147.186,4,4,nta.ng,US,Americas,Northern America,United States of America,Virginia,,Ashburn
23.13.167.105,4,15,nuance.com,US,Americas,Northern America,United States of America,Virginia,,Ashburn
67.205.56.17,4,5,nutritionovereasy.com,US,Americas,Northern America,United States of America,Virginia,,Ashburn
52.1.57.251,4,12,nuxeo.com,US,Americas,Northern America,United States of America,Virginia,,Ashburn
23.21.172.124,4,3,nycsubway.org,US,Americas,Northern America,United States of America,Virginia,,Ashburn
5.161.17.83,4,0,nydnrehab.com,US,Americas,Northern America,United States of America,Virginia,,Ashburn
5.161.83.186,4,6,nytcrossword.org,US,Americas,Northern America,United States of America,Virginia,,Ashburn
54.198.52.41,4,0,nyvapeplus.com,US,Americas,Northern America,United States of America,Virginia,,Ashburn
173.236.252.180,4,12,obviously.com,US,Americas,Northern America,United States of America,Virginia,,Ashburn
3.92.110.242,4,16,ohr.edu,US,Americas,Northern America,United States of America,Virginia,,Ashburn
173.236.249.9,4,26,okiedokieartichokie.me,US,Americas,Northern America,United States of America,Virginia,,Ashburn
18.233.69.43,4,86,olansichina.com,US,Americas,Northern America,United States of America,Virginia,,Ashburn
173.236.251.91,4,6,oldtokyo.com,US,Americas,Northern America,United States of America,Virginia,,Ashburn
52.204.78.74,4,8,olshan.com,US,Americas,Northern America,United States of America,Virginia,,Ashburn
23.27.249.90,4,97,omojuwa.com,US,Americas,Northern America,United States of America,Virginia,,Ashburn
52.20.193.47,4,7,omprakash.org,US,Americas,Northern America,United States of America,Virginia,,Ashburn
54.159.130.135,4,4,omprakash.org,US,Americas,Northern America,United States of America,Virginia,,Ashburn
52.200.228.45,4,27,onelook.com,US,Americas,Northern America,United States of America,Virginia,,Ashburn
54.90.59.157,4,3,onelook.com,US,Americas,Northern America,United States of America,Virginia,,Ashburn
5.161.110.83,4,5,onemob.com,US,Americas,Northern America,United States of America,Virginia,,Ashburn
3.217.60.148,4,23,onestopparking.com,US,Americas,Northern America,United States of America,Virginia,,Ashburn
3.212.197.206,4,10,onestopparking.com,US,Americas,Northern America,United States of America,Virginia,,Ashburn
34.235.71.158,4,19,onlineinvoices.com,US,Americas,Northern America,United States of America,Virginia,,Ashburn
3.219.13.76,4,16,onlineinvoices.com,US,Americas,Northern America,United States of America,Virginia,,Ashburn
198.24.170.27,4,85,onrpg.com,US,Americas,Northern America,United States of America,Virginia,,Ashburn
149.19.194.7,4,274,Ookla Speedtest Server 55858: speedtest-iad.acreto.net,US,Americas,Northern America,United States of America,Virginia,,Ashburn
5.161.41.234,4,349,Ookla Speedtest Server 60793: speedtest.ashburn.vps.dangeredwolf.com,US,Americas,Northern America,United States of America,Virginia,,Ashburn
173.236.253.50,4,48,opencommunity.co.uk,US,Americas,Northern America,United States of America,Virginia,,Ashburn
107.161.122.237,4,-7,opendarwin.org,US,Americas,Northern America,United States of America,Virginia,,Ashburn
44.194.13.54,4,33,openlm.com,US,Americas,Northern America,United States of America,Virginia,,Ashburn
173.236.251.179,4,13,openmedia.ca,US,Americas,Northern America,United States of America,Virginia,,Ashburn
52.22.149.119,4,22,openshotvideo.com,US,Americas,Northern America,United States of America,Virginia,,Ashburn
67.205.59.73,4,79,openthenews.com,US,Americas,Northern America,United States of America,Virginia,,Ashburn
34.231.80.190,4,30,operationpaperback.org,US,Americas,Northern America,United States of America,Virginia,,Ashburn
167.86.41.82,4,103,opp.ca,US,Americas,Northern America,United States of America,Virginia,,Ashburn
185.172.39.197,4,25,optica-tz.ru,US,Americas,Northern America,United States of America,Virginia,,Ashburn
50.19.134.225,4,4,orangehrm.com,US,Americas,Northern America,United States of America,Virginia,,Ashburn
173.236.252.70,4,9,oriahmountaindreamer.com,US,Americas,Northern America,United States of America,Virginia,,Ashburn
52.5.97.233,4,30,osceolalibrary.org,US,Americas,Northern America,United States of America,Virginia,,Ashburn
52.2.147.204,4,1,our-hometown.com,US,Americas,Northern America,United States of America,Virginia,,Ashburn
173.236.253.9,4,15,outlands.org,US,Americas,Northern America,United States of America,Virginia,,Ashburn
5.161.199.164,4,10,overstockart.com,US,Americas,Northern America,United States of America,Virginia,,Ashburn
45.203.7.207,4,0,owcable.com,US,Americas,Northern America,United States of America,Virginia,,Ashburn
52.2.74.205,4,32,oxwall.org,US,Americas,Northern America,United States of America,Virginia,,Ashburn
146.75.29.193,4,4,pace.edu,US,Americas,Northern America,United States of America,Virginia,,Ashburn
174.129.216.74,4,1,packetizer.com,US,Americas,Northern America,United States of America,Virginia,,Ashburn
172.234.132.85,4,1,paddleabout.com,US,Americas,Northern America,United States of America,Virginia,,Ashburn
34.226.229.232,4,12,paidfromsurveys.com,US,Americas,Northern America,United States of America,Virginia,,Ashburn
146.75.30.132,4,34,palacasino.com,US,Americas,Northern America,United States of America,Virginia,,Ashburn
173.236.250.125,4,12,paleonewbie.com,US,Americas,Northern America,United States of America,Virginia,,Ashburn
23.23.251.25,4,146229,panelsyndicate.com,US,Americas,Northern America,United States of America,Virginia,,Ashburn
3.93.120.216,4,12630,patlive.com,US,Americas,Northern America,United States of America,Virginia,,Ashburn
67.205.56.182,4,4,patricknagel.com,US,Americas,Northern America,United States of America,Virginia,,Ashburn
54.208.130.129,4,12,payrollvault.com,US,Americas,Northern America,United States of America,Virginia,,Ashburn
185.189.68.105,4,6,payspacemagazine.com,US,Americas,Northern America,United States of America,Virginia,,Ashburn
54.235.251.167,4,11,pcgameboost.com,US,Americas,Northern America,United States of America,Virginia,,Ashburn
5.161.211.159,4,3,pco.org.br,US,Americas,Northern America,United States of America,Virginia,,Ashburn
54.237.43.28,4,4,pcquote.com,US,Americas,Northern America,United States of America,Virginia,,Ashburn
54.167.163.29,4,12,pcquote.com,US,Americas,Northern America,United States of America,Virginia,,Ashburn
54.205.122.242,4,14,pcquote.com,US,Americas,Northern America,United States of America,Virginia,,Ashburn
54.242.150.39,4,20,pcquote.com,US,Americas,Northern America,United States of America,Virginia,,Ashburn
5.161.138.95,4,19,pdfliner.com,US,Americas,Northern America,United States of America,Virginia,,Ashburn
209.160.71.47,4,154,pdhonline.com,US,Americas,Northern America,United States of America,Virginia,,Ashburn
173.236.251.85,4,17,peachpundit.com,US,Americas,Northern America,United States of America,Virginia,,Ashburn
54.175.167.220,4,3,peerblock.com,US,Americas,Northern America,United States of America,Virginia,,Ashburn
52.202.240.221,4,5,peeringdb.com,US,Americas,Northern America,United States of America,Virginia,,Ashburn
54.88.253.92,4,18,peeringdb.com,US,Americas,Northern America,United States of America,Virginia,,Ashburn
34.232.183.65,4,16,peeringdb.com,US,Americas,Northern America,United States of America,Virginia,,Ashburn
54.86.182.31,4,4,peeringdb.com,US,Americas,Northern America,United States of America,Virginia,,Ashburn
52.205.140.244,4,1,peeringdb.com,US,Americas,Northern America,United States of America,Virginia,,Ashburn
34.232.121.207,4,16,peeringdb.com,US,Americas,Northern America,United States of America,Virginia,,Ashburn
67.205.56.185,4,6,pennlivearts.org,US,Americas,Northern America,United States of America,Virginia,,Ashburn
44.214.28.239,4,25,perotmuseum.org,US,Americas,Northern America,United States of America,Virginia,,Ashburn
3.230.200.4,4,43,perotmuseum.org,US,Americas,Northern America,United States of America,Virginia,,Ashburn
54.164.106.38,4,34,perpay.com,US,Americas,Northern America,United States of America,Virginia,,Ashburn
44.193.101.133,4,6,perpay.com,US,Americas,Northern America,United States of America,Virginia,,Ashburn
52.22.246.231,4,38,perpay.com,US,Americas,Northern America,United States of America,Virginia,,Ashburn
52.200.142.249,4,35,persona.ly,US,Americas,Northern America,United States of America,Virginia,,Ashburn
50.19.94.67,4,47,peru21.com,US,Americas,Northern America,United States of America,Virginia,,Ashburn
52.202.53.200,4,27,petassure.com,US,Americas,Northern America,United States of America,Virginia,,Ashburn
54.86.158.170,4,9,petassure.com,US,Americas,Northern America,United States of America,Virginia,,Ashburn
173.236.252.254,4,14,pff.org,US,Americas,Northern America,United States of America,Virginia,,Ashburn
44.217.95.104,4,31,phhmortgage.com,US,Americas,Northern America,United States of America,Virginia,,Ashburn
3.229.187.113,4,19,phhmortgage.com,US,Americas,Northern America,United States of America,Virginia,,Ashburn
3.212.92.196,4,38,phillynews.com,US,Americas,Northern America,United States of America,Virginia,,Ashburn
172.233.233.6,4,51,php-compiler.net,US,Americas,Northern America,United States of America,Virginia,,Ashburn
34.199.115.243,4,4,phpfox.com,US,Americas,Northern America,United States of America,Virginia,,Ashburn
184.73.137.153,4,24,phpfox.com,US,Americas,Northern America,United States of America,Virginia,,Ashburn
34.234.187.198,4,25,phpfox.com,US,Americas,Northern America,United States of America,Virginia,,Ashburn
107.23.99.30,4,18,phpfox.com,US,Americas,Northern America,United States of America,Virginia,,Ashburn
34.232.141.226,4,7,phpfox.com,US,Americas,Northern America,United States of America,Virginia,,Ashburn
3.208.168.177,4,16,phpfox.com,US,Americas,Northern America,United States of America,Virginia,,Ashburn
67.205.60.156,4,11,phppot.com,US,Americas,Northern America,United States of America,Virginia,,Ashburn
34.234.171.176,4,47,pickupstix.com,US,Americas,Northern America,United States of America,Virginia,,Ashburn
5.161.204.26,4,15,pingroupie.com,US,Americas,Northern America,United States of America,Virginia,,Ashburn
5.161.109.81,4,7,pit.ninja,US,Americas,Northern America,United States of America,Virginia,,Ashburn
5.161.94.137,4,12,pixarplanet.com,US,Americas,Northern America,United States of America,Virginia,,Ashburn
3.224.48.215,4,35,planomatic.com,US,Americas,Northern America,United States of America,Virginia,,Ashburn
54.82.142.162,4,12,planomatic.com,US,Americas,Northern America,United States of America,Virginia,,Ashburn
44.217.177.31,4,29,plantphys.net,US,Americas,Northern America,United States of America,Virginia,,Ashburn
44.216.241.194,4,21,plantphys.net,US,Americas,Northern America,United States of America,Virginia,,Ashburn
23.207.202.9,4,27,play4free.com,US,Americas,Northern America,United States of America,Virginia,,Ashburn
23.207.202.26,4,28,play4free.com,US,Americas,Northern America,United States of America,Virginia,,Ashburn
146.75.30.133,4,14,playrugbyleague.com,US,Americas,Northern America,United States of America,Virginia,,Ashburn
146.75.34.62,4,44,poconorecord.com,US,Americas,Northern America,United States of America,Virginia,,Ashburn
173.236.254.55,4,4,poeghostal.com,US,Americas,Northern America,United States of America,Virginia,,Ashburn
67.205.57.133,4,80,poetryproject.org,US,Americas,Northern America,United States of America,Virginia,,Ashburn
67.205.56.94,4,84,pointblank.life,US,Americas,Northern America,United States of America,Virginia,,Ashburn
52.3.72.239,4,37,pollockrandall.com,US,Americas,Northern America,United States of America,Virginia,,Ashburn
52.6.138.202,4,8,polygon.net,US,Americas,Northern America,United States of America,Virginia,,Ashburn
52.2.202.189,4,19,polygon.net,US,Americas,Northern America,United States of America,Virginia,,Ashburn
23.22.16.203,4,0,polygon.net,US,Americas,Northern America,United States of America,Virginia,,Ashburn
44.218.154.232,4,44,poodll.com,US,Americas,Northern America,United States of America,Virginia,,Ashburn
3.231.193.104,4,9,poodll.com,US,Americas,Northern America,United States of America,Virginia,,Ashburn
173.236.251.118,4,74,popbytes.com,US,Americas,Northern America,United States of America,Virginia,,Ashburn
3.231.214.254,4,80,portalpos.com.br,US,Americas,Northern America,United States of America,Virginia,,Ashburn
5.161.93.249,4,33,possector.com,US,Americas,Northern America,United States of America,Virginia,,Ashburn
18.205.242.114,4,1,postscanmail.com,US,Americas,Northern America,United States of America,Virginia,,Ashburn
173.236.249.177,4,38,prelingerlibrary.org,US,Americas,Northern America,United States of America,Virginia,,Ashburn
66.225.237.244,4,54,presidencia.gov.co,US,Americas,Northern America,United States of America,Virginia,,Ashburn
52.200.31.123,4,63,presscdn.com,US,Americas,Northern America,United States of America,Virginia,,Ashburn
185.189.68.67,4,80,privacy-pc.com,US,Americas,Northern America,United States of America,Virginia,,Ashburn
34.232.201.64,4,42,prodigyscientific.com,US,Americas,Northern America,United States of America,Virginia,,Ashburn
5.161.77.225,4,1082,profitparrot.com,US,Americas,Northern America,United States of America,Virginia,,Ashburn
3.226.217.18,4,10,prologis.com,US,Americas,Northern America,United States of America,Virginia,,Ashburn
35.168.187.23,4,62,prologis.com,US,Americas,Northern America,United States of America,Virginia,,Ashburn
66.225.237.199,4,7,proteccion.com,US,Americas,Northern America,United States of America,Virginia,,Ashburn
54.226.135.52,4,50,pseudomonas.com,US,Americas,Northern America,United States of America,Virginia,,Ashburn
34.198.210.147,4,5,pseudomonas.com,US,Americas,Northern America,United States of America,Virginia,,Ashburn
54.160.122.38,4,13,psychologytoday.com,US,Americas,Northern America,United States of America,Virginia,,Ashburn
34.204.159.232,4,41,psychologytoday.com,US,Americas,Northern America,United States of America,Virginia,,Ashburn
23.48.203.198,4,26,public.gr,US,Americas,Northern America,United States of America,Virginia,,Ashburn
23.48.203.203,4,27,public.gr,US,Americas,Northern America,United States of America,Virginia,,Ashburn
173.236.254.28,4,14,publiceye.org,US,Americas,Northern America,United States of America,Virginia,,Ashburn
173.236.250.108,4,33,pulsecms.com,US,Americas,Northern America,United States of America,Virginia,,Ashburn
54.157.71.155,4,21,pulseresearch.com,US,Americas,Northern America,United States of America,Virginia,,Ashburn
5.161.16.172,4,45,pulsetic.com,US,Americas,Northern America,United States of America,Virginia,,Ashburn
54.88.244.34,4,25,punchbowl.com,US,Americas,Northern America,United States of America,Virginia,,Ashburn
18.210.166.171,4,1,punchbowl.com,US,Americas,Northern America,United States of America,Virginia,,Ashburn
173.236.251.204,4,25,push.cx,US,Americas,Northern America,United States of America,Virginia,,Ashburn
44.210.78.58,4,5,pusher.com,US,Americas,Northern America,United States of America,Virginia,,Ashburn
173.236.252.176,4,14,pythonlearn.com,US,Americas,Northern America,United States of America,Virginia,,Ashburn
100.24.65.138,4,2,qoto.org,US,Americas,Northern America,United States of America,Virginia,,Ashburn
34.193.143.10,4,3,quinnvb.com,US,Americas,Northern America,United States of America,Virginia,,Ashburn
3.94.141.51,4,9,quinnvb.com,US,Americas,Northern America,United States of America,Virginia,,Ashburn
5.161.66.119,4,2,quttera.com,US,Americas,Northern America,United States of America,Virginia,,Ashburn
5.161.89.187,4,7,quttera.com,US,Americas,Northern America,United States of America,Virginia,,Ashburn
75.101.146.251,4,1,quuxuum.org,US,Americas,Northern America,United States of America,Virginia,,Ashburn
52.6.181.20,4,46,r2games.com,US,Americas,Northern America,United States of America,Virginia,,Ashburn
173.236.254.252,4,73,racingrulesofsailing.org,US,Americas,Northern America,United States of America,Virginia,,Ashburn
18.215.122.69,4,87,radianweapons.com,US,Americas,Northern America,United States of America,Virginia,,Ashburn
34.232.132.2,4,97,radianweapons.com,US,Americas,Northern America,United States of America,Virginia,,Ashburn
146.75.31.10,4,49,raffles.com,US,Americas,Northern America,United States of America,Virginia,,Ashburn
34.199.133.215,4,19,rainoutline.com,US,Americas,Northern America,United States of America,Virginia,,Ashburn
34.235.250.23,4,41,rainoutline.com,US,Americas,Northern America,United States of America,Virginia,,Ashburn
44.207.105.156,4,10,raise3d.com,US,Americas,Northern America,United States of America,Virginia,,Ashburn
3.209.136.208,4,33,raise3d.com,US,Americas,Northern America,United States of America,Virginia,,Ashburn
5.161.79.250,4,27,ranea.org,US,Americas,Northern America,United States of America,Virginia,,Ashburn
173.236.249.210,4,41,rapidfish.org,US,Americas,Northern America,United States of America,Virginia,,Ashburn
67.205.59.206,4,68,ravellorecords.com,US,Americas,Northern America,United States of America,Virginia,,Ashburn
54.86.157.91,4,42,ravenpack.com,US,Americas,Northern America,United States of America,Virginia,,Ashburn
54.159.84.211,4,29,raynauds.org,US,Americas,Northern America,United States of America,Virginia,,Ashburn
34.237.8.50,4,36,rcdc.ca,US,Americas,Northern America,United States of America,Virginia,,Ashburn
44.221.94.137,4,31,realesaletter.com,US,Americas,Northern America,United States of America,Virginia,,Ashburn
44.194.182.158,4,18,realty.com.au,US,Americas,Northern America,United States of America,Virginia,,Ashburn
35.170.36.71,4,6,realty.com.au,US,Americas,Northern America,United States of America,Virginia,,Ashburn
54.225.145.25,4,7,realty.com.au,US,Americas,Northern America,United States of America,Virginia,,Ashburn
54.205.168.123,4,12,realty.com.au,US,Americas,Northern America,United States of America,Virginia,,Ashburn
54.85.148.226,4,1,realty.com.au,US,Americas,Northern America,United States of America,Virginia,,Ashburn
35.168.224.185,4,53,realty.com.au,US,Americas,Northern America,United States of America,Virginia,,Ashburn
3.234.157.121,4,30,recampus.com,US,Americas,Northern America,United States of America,Virginia,,Ashburn
34.234.102.50,4,16,recampus.com,US,Americas,Northern America,United States of America,Virginia,,Ashburn
52.23.42.165,4,26,recoverymonth.gov,US,Americas,Northern America,United States of America,Virginia,,Ashburn
54.146.176.51,4,35,redbrickhealth.com,US,Americas,Northern America,United States of America,Virginia,,Ashburn
52.71.126.57,4,30,redbrickhealth.com,US,Americas,Northern America,United States of America,Virginia,,Ashburn
5.161.115.190,4,9,redcoachusa.com,US,Americas,Northern America,United States of America,Virginia,,Ashburn
23.21.162.66,4,32,redox-os.org,US,Americas,Northern America,United States of America,Virginia,,Ashburn
96.7.19.140,4,82,redroof.com,US,Americas,Northern America,United States of America,Virginia,,Ashburn
67.205.57.204,4,5,refueled.net,US,Americas,Northern America,United States of America,Virginia,,Ashburn
44.205.214.198,4,7,relga.ru,US,Americas,Northern America,United States of America,Virginia,,Ashburn
173.236.251.217,4,8,religionresourcesonline.org,US,Americas,Northern America,United States of America,Virginia,,Ashburn
3.221.144.38,4,23,remax.com.eg,US,Americas,Northern America,United States of America,Virginia,,Ashburn
52.0.127.154,4,30,remax.com.eg,US,Americas,Northern America,United States of America,Virginia,,Ashburn
107.23.46.48,4,15,rencai8.com,US,Americas,Northern America,United States of America,Virginia,,Ashburn
5.181.161.88,4,3,rent-me.cy,US,Americas,Northern America,United States of America,Virginia,,Ashburn
173.236.249.217,4,46,researchbuzz.com,US,Americas,Northern America,United States of America,Virginia,,Ashburn
173.236.254.138,4,27,resellitforprofit.com,US,Americas,Northern America,United States of America,Virginia,,Ashburn
173.236.254.52,4,60,retbit.com,US,Americas,Northern America,United States of America,Virginia,,Ashburn
3.226.220.127,4,39,retentionscience.com,US,Americas,Northern America,United States of America,Virginia,,Ashburn
18.215.92.197,4,8,retentionscience.com,US,Americas,Northern America,United States of America,Virginia,,Ashburn
35.172.22.68,4,5,revenueriver.co,US,Americas,Northern America,United States of America,Virginia,,Ashburn
3.221.245.212,4,33,revenueriver.co,US,Americas,Northern America,United States of America,Virginia,,Ashburn
5.161.62.75,4,19,revistaanfibia.com,US,Americas,Northern America,United States of America,Virginia,,Ashburn
173.236.253.44,4,37,rewindandcapture.com,US,Americas,Northern America,United States of America,Virginia,,Ashburn
23.73.207.5,4,29,rhsplants.co.uk,US,Americas,Northern America,United States of America,Virginia,,Ashburn
52.3.131.13,4,3,richads.com,US,Americas,Northern America,United States of America,Virginia,,Ashburn
5.161.64.177,4,13,ridiculousfish.com,US,Americas,Northern America,United States of America,Virginia,,Ashburn
66.22.25.35,4,25,rightprospectus.com,US,Americas,Northern America,United States of America,Virginia,,Ashburn
23.214.225.58,4,7,riteaid.com,US,Americas,Northern America,United States of America,Virginia,,Ashburn
66.22.15.169,4,5,ritzcarltonclub.com,US,Americas,Northern America,United States of America,Virginia,,Ashburn
54.161.43.38,4,7,rivendellaudio.org,US,Americas,Northern America,United States of America,Virginia,,Ashburn
67.205.57.41,4,4,rivetingpdx.com,US,Americas,Northern America,United States of America,Virginia,,Ashburn
23.50.51.43,4,1,rmbl.ws,US,Americas,Northern America,United States of America,Virginia,,Ashburn
23.50.51.48,4,3,rmbl.ws,US,Americas,Northern America,United States of America,Virginia,,Ashburn
173.236.251.48,4,6,rmichelson.com,US,Americas,Northern America,United States of America,Virginia,,Ashburn
184.27.6.158,4,15,rndheme.com,US,Americas,Northern America,United States of America,Virginia,,Ashburn
184.24.65.213,4,15,rndsystems.com,US,Americas,Northern America,United States of America,Virginia,,Ashburn
173.236.248.7,4,5,robertniles.com,US,Americas,Northern America,United States of America,Virginia,,Ashburn
173.236.249.153,4,16,robinhoodtax.org,US,Americas,Northern America,United States of America,Virginia,,Ashburn
169.55.99.28,4,472,rochesterjazz.com,US,Americas,Northern America,United States of America,Virginia,,Ashburn
52.7.225.70,4,16,rocketbot.co,US,Americas,Northern America,United States of America,Virginia,,Ashburn
173.236.255.228,4,32,rogerwhittaker.com,US,Americas,Northern America,United States of America,Virginia,,Ashburn
34.196.246.226,4,40,rokulabs.com,US,Americas,Northern America,United States of America,Virginia,,Ashburn
34.198.166.62,4,43,rokulabs.com,US,Americas,Northern America,United States of America,Virginia,,Ashburn
173.236.255.196,4,47,roleplayproject.com,US,Americas,Northern America,United States of America,Virginia,,Ashburn
3.211.68.73,4,38,roojoom.com,US,Americas,Northern America,United States of America,Virginia,,Ashburn
173.236.248.167,4,10,room40.org,US,Americas,Northern America,United States of America,Virginia,,Ashburn
5.161.54.6,4,24,rossdawson.com,US,Americas,Northern America,United States of America,Virginia,,Ashburn
173.236.253.5,4,88,rti-rating.org,US,Americas,Northern America,United States of America,Virginia,,Ashburn
44.205.60.168,4,16,rubylane.com,US,Americas,Northern America,United States of America,Virginia,,Ashburn
44.208.253.180,4,44,rubylane.com,US,Americas,Northern America,United States of America,Virginia,,Ashburn
54.86.165.168,4,8,rues.org.co,US,Americas,Northern America,United States of America,Virginia,,Ashburn
54.85.57.253,4,37,rues.org.co,US,Americas,Northern America,United States of America,Virginia,,Ashburn
44.214.86.109,4,23,rumolog.com,US,Americas,Northern America,United States of America,Virginia,,Ashburn
3.209.31.236,4,6,rumolog.com,US,Americas,Northern America,United States of America,Virginia,,Ashburn
54.158.231.38,4,10,rumolog.com,US,Americas,Northern America,United States of America,Virginia,,Ashburn
75.101.183.145,4,15,rumolog.com,US,Americas,Northern America,United States of America,Virginia,,Ashburn
52.200.63.62,4,15,rumolog.com,US,Americas,Northern America,United States of America,Virginia,,Ashburn
3.232.179.112,4,2,rumolog.com,US,Americas,Northern America,United States of America,Virginia,,Ashburn
54.86.197.26,4,51,rusolidarnost.ru,US,Americas,Northern America,United States of America,Virginia,,Ashburn
3.213.110.68,4,62,rusolidarnost.ru,US,Americas,Northern America,United States of America,Virginia,,Ashburn
100.26.253.2,4,2,russound.com,US,Americas,Northern America,United States of America,Virginia,,Ashburn
45.197.59.154,4,23,ryeegee.com,US,Americas,Northern America,United States of America,Virginia,,Ashburn
44.196.185.45,4,4,sacredheartfla.org,US,Americas,Northern America,United States of America,Virginia,,Ashburn
23.47.18.137,4,9,safecharge.com,US,Americas,Northern America,United States of America,Virginia,,Ashburn
173.236.254.90,4,39,samaritanmag.com,US,Americas,Northern America,United States of America,Virginia,,Ashburn
54.88.39.153,4,3,sanfordfl.gov,US,Americas,Northern America,United States of America,Virginia,,Ashburn
131.153.172.162,4,4,santarosacatholic.org,US,Americas,Northern America,United States of America,Virginia,,Ashburn
173.236.254.16,4,9,sarahruhlplaywright.com,US,Americas,Northern America,United States of America,Virginia,,Ashburn
170.106.0.182,4,1,sasksun.com,US,Americas,Northern America,United States of America,Virginia,,Ashburn
54.84.39.124,4,15,saveellisisland.org,US,Americas,Northern America,United States of America,Virginia,,Ashburn
52.7.57.29,4,9,saviry.com,US,Americas,Northern America,United States of America,Virginia,,Ashburn
44.210.230.130,4,11,savoo.co.uk,US,Americas,Northern America,United States of America,Virginia,,Ashburn
3.220.200.35,4,3,savoo.co.uk,US,Americas,Northern America,United States of America,Virginia,,Ashburn
34.235.195.248,4,0,savoo.co.uk,US,Americas,Northern America,United States of America,Virginia,,Ashburn
107.21.168.81,4,3,scalingup.com,US,Americas,Northern America,United States of America,Virginia,,Ashburn
23.22.207.141,4,0,scalingup.com,US,Americas,Northern America,United States of America,Virginia,,Ashburn
52.2.115.42,4,4,scalingup.com,US,Americas,Northern America,United States of America,Virginia,,Ashburn
52.202.213.63,4,4,scalingup.com,US,Americas,Northern America,United States of America,Virginia,,Ashburn
3.212.236.254,4,0,scalingup.com,US,Americas,Northern America,United States of America,Virginia,,Ashburn
44.197.33.231,4,1,scalingup.com,US,Americas,Northern America,United States of America,Virginia,,Ashburn
66.225.237.19,4,4,sccu.com,US,Americas,Northern America,United States of America,Virginia,,Ashburn
146.75.28.228,4,12,schoolcloud.co.uk,US,Americas,Northern America,United States of America,Virginia,,Ashburn
71.163.27.43,4,44,schoolofpodcasting.com,US,Americas,Northern America,United States of America,Virginia,,Ashburn
34.206.161.224,4,41,schrts.co,US,Americas,Northern America,United States of America,Virginia,,Ashburn
54.161.189.7,4,2,schrts.co,US,Americas,Northern America,United States of America,Virginia,,Ashburn
173.236.252.4,4,9,sciencegateway.org,US,Americas,Northern America,United States of America,Virginia,,Ashburn
66.22.60.251,4,48,scienceopen.com,US,Americas,Northern America,United States of America,Virginia,,Ashburn
67.205.59.121,4,10,scoopeo.com,US,Americas,Northern America,United States of America,Virginia,,Ashburn
67.205.60.176,4,11,scottishmum.com,US,Americas,Northern America,United States of America,Virginia,,Ashburn
3.222.50.157,4,24,scrapinghub.com,US,Americas,Northern America,United States of America,Virginia,,Ashburn
23.73.207.9,4,4,scratch2cash.com,US,Americas,Northern America,United States of America,Virginia,,Ashburn
23.73.207.13,4,14,scratch2cash.com,US,Americas,Northern America,United States of America,Virginia,,Ashburn
52.71.163.5,4,5,scribblar.com,US,Americas,Northern America,United States of America,Virginia,,Ashburn
54.156.3.211,4,13,scribblar.com,US,Americas,Northern America,United States of America,Virginia,,Ashburn
5.161.157.81,4,6,scvnews.com,US,Americas,Northern America,United States of America,Virginia,,Ashburn
34.202.34.204,4,2,sdgcompass.org,US,Americas,Northern America,United States of America,Virginia,,Ashburn
52.73.151.9,4,32,seanc.org,US,Americas,Northern America,United States of America,Virginia,,Ashburn
54.174.41.176,4,1,seanc.org,US,Americas,Northern America,United States of America,Virginia,,Ashburn
52.3.93.62,4,26,searchenginenews.com,US,Americas,Northern America,United States of America,Virginia,,Ashburn
54.84.129.10,4,5,seatedapp.io,US,Americas,Northern America,United States of America,Virginia,,Ashburn
3.227.198.199,4,15,seatedapp.io,US,Americas,Northern America,United States of America,Virginia,,Ashburn
52.22.119.245,4,14,seatedapp.io,US,Americas,Northern America,United States of America,Virginia,,Ashburn
5.161.255.55,4,31,seatemperature.info,US,Americas,Northern America,United States of America,Virginia,,Ashburn
173.236.252.44,4,26,seattlelimoservice.net,US,Americas,Northern America,United States of America,Virginia,,Ashburn
66.22.1.158,4,8,seccionamarilla.com.mx,US,Americas,Northern America,United States of America,Virginia,,Ashburn
54.164.9.186,4,29,securityplanner.org,US,Americas,Northern America,United States of America,Virginia,,Ashburn
52.1.67.77,4,2,securityplanner.org,US,Americas,Northern America,United States of America,Virginia,,Ashburn
107.23.64.217,4,16,seeff.com,US,Americas,Northern America,United States of America,Virginia,,Ashburn
67.205.62.130,4,66,sekahills.com,US,Americas,Northern America,United States of America,Virginia,,Ashburn
146.75.30.114,4,127,sellpoint.net,US,Americas,Northern America,United States of America,Virginia,,Ashburn
34.198.165.132,4,22,semanaeconomica.com,US,Americas,Northern America,United States of America,Virginia,,Ashburn
3.228.224.36,4,23,semanaeconomica.com,US,Americas,Northern America,United States of America,Virginia,,Ashburn
54.146.215.34,4,24,sematext.com,US,Americas,Northern America,United States of America,Virginia,,Ashburn
3.231.68.28,4,27,sematext.com,US,Americas,Northern America,United States of America,Virginia,,Ashburn
50.19.116.123,4,32,sendmail.org,US,Americas,Northern America,United States of America,Virginia,,Ashburn
18.207.203.210,4,66,senserasystems.com,US,Americas,Northern America,United States of America,Virginia,,Ashburn
52.203.227.238,4,9,sensopia.com,US,Americas,Northern America,United States of America,Virginia,,Ashburn
44.213.10.254,4,4,sensopia.com,US,Americas,Northern America,United States of America,Virginia,,Ashburn
34.232.139.166,4,15,sensopia.com,US,Americas,Northern America,United States of America,Virginia,,Ashburn
54.221.104.29,4,6,sensopia.com,US,Americas,Northern America,United States of America,Virginia,,Ashburn
172.233.198.68,4,18,serpo.org,US,Americas,Northern America,United States of America,Virginia,,Ashburn
66.22.19.207,4,30,servisfirstbank.com,US,Americas,Northern America,United States of America,Virginia,,Ashburn
5.161.197.216,4,5,servreality.com,US,Americas,Northern America,United States of America,Virginia,,Ashburn
5.161.218.7,4,16,sesconference.com,US,Americas,Northern America,United States of America,Virginia,,Ashburn
173.236.255.152,4,6,shakespeares-sonnets.com,US,Americas,Northern America,United States of America,Virginia,,Ashburn
5.161.220.65,4,24,shaolinbahia.com.br,US,Americas,Northern America,United States of America,Virginia,,Ashburn
5.161.177.93,4,12,sharktankblog.com,US,Americas,Northern America,United States of America,Virginia,,Ashburn
5.181.161.23,4,5,shashel.eu,US,Americas,Northern America,United States of America,Virginia,,Ashburn
5.161.36.191,4,11,shelburnefarms.org,US,Americas,Northern America,United States of America,Virginia,,Ashburn
147.28.150.40,4,3,shelf-awareness.com,US,Americas,Northern America,United States of America,Virginia,,Ashburn
173.236.249.106,4,4,shepodcasts.com,US,Americas,Northern America,United States of America,Virginia,,Ashburn
54.205.220.65,4,7,shipco.com,US,Americas,Northern America,United States of America,Virginia,,Ashburn
5.161.76.69,4,2,shorthistory.org,US,Americas,Northern America,United States of America,Virginia,,Ashburn
35.168.126.252,4,1,shtptelecom.com,US,Americas,Northern America,United States of America,Virginia,,Ashburn
173.236.251.67,4,25,sidstamm.com,US,Americas,Northern America,United States of America,Virginia,,Ashburn
174.129.196.159,4,3,sightmd.com,US,Americas,Northern America,United States of America,Virginia,,Ashburn
107.20.225.101,4,41,sightmd.com,US,Americas,Northern America,United States of America,Virginia,,Ashburn
54.210.158.26,4,14,sightmd.com,US,Americas,Northern America,United States of America,Virginia,,Ashburn
34.203.135.25,4,3,sightmd.com,US,Americas,Northern America,United States of America,Virginia,,Ashburn
34.192.16.49,4,48,sightmd.com,US,Americas,Northern America,United States of America,Virginia,,Ashburn
54.197.192.87,4,5,sightmd.com,US,Americas,Northern America,United States of America,Virginia,,Ashburn
107.21.9.49,4,464,sign-in-china.com,US,Americas,Northern America,United States of America,Virginia,,Ashburn
54.236.235.142,4,490,sign-in-thai.com,US,Americas,Northern America,United States of America,Virginia,,Ashburn
184.25.43.170,4,37,silabs.com,US,Americas,Northern America,United States of America,Virginia,,Ashburn
173.236.249.140,4,87,silkqin.com,US,Americas,Northern America,United States of America,Virginia,,Ashburn
54.235.28.195,4,8,silktide.com,US,Americas,Northern America,United States of America,Virginia,,Ashburn
5.181.161.78,4,37,silovik.net,US,Americas,Northern America,United States of America,Virginia,,Ashburn
34.229.36.249,4,1,silvercloudinc.com,US,Americas,Northern America,United States of America,Virginia,,Ashburn
52.204.131.14,4,30,silvercloudinc.com,US,Americas,Northern America,United States of America,Virginia,,Ashburn
52.45.197.44,4,30,simplebooth.com,US,Americas,Northern America,United States of America,Virginia,,Ashburn
54.85.209.84,4,5,simplebooth.com,US,Americas,Northern America,United States of America,Virginia,,Ashburn
44.215.22.223,4,47,simplebooth.com,US,Americas,Northern America,United States of America,Virginia,,Ashburn
54.165.16.125,4,4,simsmm.com,US,Americas,Northern America,United States of America,Virginia,,Ashburn
34.233.144.133,4,0,simsmm.com,US,Americas,Northern America,United States of America,Virginia,,Ashburn
44.217.44.80,4,1,sinauer.com,US,Americas,Northern America,United States of America,Virginia,,Ashburn
52.3.33.40,4,0,sinauer.com,US,Americas,Northern America,United States of America,Virginia,,Ashburn
52.3.33.9,4,2,sinceritybridal.com,US,Americas,Northern America,United States of America,Virginia,,Ashburn
173.236.254.50,4,5,singletonapps.com,US,Americas,Northern America,United States of America,Virginia,,Ashburn
173.236.254.46,4,12,sinisterdesign.net,US,Americas,Northern America,United States of America,Virginia,,Ashburn
67.205.61.240,4,6,sinsinawa.org,US,Americas,Northern America,United States of America,Virginia,,Ashburn
18.211.231.160,4,1,siterubix.com,US,Americas,Northern America,United States of America,Virginia,,Ashburn
173.236.248.165,4,4,sjlabs.com,US,Americas,Northern America,United States of America,Virginia,,Ashburn
173.236.252.137,4,30,skin-diver.com,US,Americas,Northern America,United States of America,Virginia,,Ashburn
23.21.105.104,4,12,skylark.com,US,Americas,Northern America,United States of America,Virginia,,Ashburn
52.20.203.230,4,27,skylark.com,US,Americas,Northern America,United States of America,Virginia,,Ashburn
52.55.198.63,4,11,skylark.com,US,Americas,Northern America,United States of America,Virginia,,Ashburn
3.225.3.99,4,34,skylark.com,US,Americas,Northern America,United States of America,Virginia,,Ashburn
52.2.235.90,4,15,skylark.com,US,Americas,Northern America,United States of America,Virginia,,Ashburn
34.233.254.167,4,41,skylark.com,US,Americas,Northern America,United States of America,Virginia,,Ashburn
5.161.225.54,4,9,slowtwitch.com,US,Americas,Northern America,United States of America,Virginia,,Ashburn
52.54.70.207,4,6,sltmachinery.com,US,Americas,Northern America,United States of America,Virginia,,Ashburn
67.205.56.254,4,9,smallbeerpress.com,US,Americas,Northern America,United States of America,Virginia,,Ashburn
54.210.187.151,4,18,snacksafely.com,US,Americas,Northern America,United States of America,Virginia,,Ashburn
44.194.173.128,4,24,snacksafely.com,US,Americas,Northern America,United States of America,Virginia,,Ashburn
44.210.63.50,4,4,snacksafely.com,US,Americas,Northern America,United States of America,Virginia,,Ashburn
52.5.106.197,4,4,snacksafely.com,US,Americas,Northern America,United States of America,Virginia,,Ashburn
3.224.41.40,4,31,snacksafely.com,US,Americas,Northern America,United States of America,Virginia,,Ashburn
52.202.26.104,4,4,snacksafely.com,US,Americas,Northern America,United States of America,Virginia,,Ashburn
5.161.225.57,4,6,sneakpeekit.com,US,Americas,Northern America,United States of America,Virginia,,Ashburn
107.23.67.121,4,1,soc.li,US,Americas,Northern America,United States of America,Virginia,,Ashburn
3.209.239.96,4,36,socialanxietyuk.org,US,Americas,Northern America,United States of America,Virginia,,Ashburn
173.236.255.220,4,66,socialserve.com,US,Americas,Northern America,United States of America,Virginia,,Ashburn
146.75.30.217,4,57,softmoc.com,US,Americas,Northern America,United States of America,Virginia,,Ashburn
44.205.198.66,4,25,softsynth.com,US,Americas,Northern America,United States of America,Virginia,,Ashburn
35.173.30.22,4,11,software.net,US,Americas,Northern America,United States of America,Virginia,,Ashburn
52.72.74.109,4,26,solarhealing.com,US,Americas,Northern America,United States of America,Virginia,,Ashburn
173.236.254.198,4,25,solidoodle.com,US,Americas,Northern America,United States of America,Virginia,,Ashburn
5.161.43.43,4,18,sonar.me,US,Americas,Northern America,United States of America,Virginia,,Ashburn
173.236.254.146,4,3,songofstyle.com,US,Americas,Northern America,United States of America,Virginia,,Ashburn
44.195.180.112,4,23,songsterr.com,US,Americas,Northern America,United States of America,Virginia,,Ashburn
3.219.44.66,4,29,songsterr.com,US,Americas,Northern America,United States of America,Virginia,,Ashburn
34.202.113.218,4,5,songsterr.com,US,Americas,Northern America,United States of America,Virginia,,Ashburn
54.236.116.214,4,26,sorbs.net,US,Americas,Northern America,United States of America,Virginia,,Ashburn
169.47.128.197,4,9,soundbible.com,US,Americas,Northern America,United States of America,Virginia,,Ashburn
54.164.119.167,4,5,soundexchange.com,US,Americas,Northern America,United States of America,Virginia,,Ashburn
35.169.198.71,4,9,soundexchange.com,US,Americas,Northern America,United States of America,Virginia,,Ashburn
18.215.87.231,4,5,souperdiaries.com,US,Americas,Northern America,United States of America,Virginia,,Ashburn
52.201.104.124,4,-2,sourcehorsemen.com,US,Americas,Northern America,United States of America,Virginia,,Ashburn
173.236.255.223,4,5,soyouwanna.com,US,Americas,Northern America,United States of America,Virginia,,Ashburn
44.195.232.192,4,7,sparkfun.com,US,Americas,Northern America,United States of America,Virginia,,Ashburn
3.215.210.92,4,3,sparkfun.com,US,Americas,Northern America,United States of America,Virginia,,Ashburn
139.144.196.94,4,57,sparklewp.com,US,Americas,Northern America,United States of America,Virginia,,Ashburn
44.207.214.70,4,16,spaweek.com,US,Americas,Northern America,United States of America,Virginia,,Ashburn
3.219.0.74,4,94,spaweek.com,US,Americas,Northern America,United States of America,Virginia,,Ashburn
34.198.186.10,4,36,spaweek.com,US,Americas,Northern America,United States of America,Virginia,,Ashburn
35.170.103.191,4,70,spd.group,US,Americas,Northern America,United States of America,Virginia,,Ashburn
3.233.33.92,4,79,spearboard.com,US,Americas,Northern America,United States of America,Virginia,,Ashburn
34.231.101.43,4,3,spisok-putina.org,US,Americas,Northern America,United States of America,Virginia,,Ashburn
54.88.1.17,4,1,spisok-putina.org,US,Americas,Northern America,United States of America,Virginia,,Ashburn
104.153.64.170,4,6,spoonradio.com,US,Americas,Northern America,United States of America,Virginia,,Ashburn
131.153.100.133,4,6,sportsgarten.com,US,Americas,Northern America,United States of America,Virginia,,Ashburn
52.205.228.28,4,47,sprinklebit.com,US,Americas,Northern America,United States of America,Virginia,,Ashburn
52.20.1.127,4,12,sprywilliams.com,US,Americas,Northern America,United States of America,Virginia,,Ashburn
5.161.108.112,4,7,srv.us,US,Americas,Northern America,United States of America,Virginia,,Ashburn
173.236.252.57,4,23,stanislavs.org,US,Americas,Northern America,United States of America,Virginia,,Ashburn
54.85.156.0,4,18,stantoncarpet.com,US,Americas,Northern America,United States of America,Virginia,,Ashburn
52.71.4.181,4,6,stantoncarpet.com,US,Americas,Northern America,United States of America,Virginia,,Ashburn
3.229.73.192,4,27,stark-stark.com,US,Americas,Northern America,United States of America,Virginia,,Ashburn
3.228.160.61,4,50,startapp.com,US,Americas,Northern America,United States of America,Virginia,,Ashburn
3.222.195.58,4,44,startapp.com,US,Americas,Northern America,United States of America,Virginia,,Ashburn
34.201.194.58,4,35,startwire.com,US,Americas,Northern America,United States of America,Virginia,,Ashburn
131.153.100.222,4,1097,steinbeck.org,US,Americas,Northern America,United States of America,Virginia,,Ashburn
35.172.59.43,4,4,stepbet.com,US,Americas,Northern America,United States of America,Virginia,,Ashburn
18.235.105.11,4,77,stepbet.com,US,Americas,Northern America,United States of America,Virginia,,Ashburn
38.92.60.31,4,3427,stephenbatchelor.org,US,Americas,Northern America,United States of America,Virginia,,Ashburn
173.236.250.98,4,4,stevenygard.com,US,Americas,Northern America,United States of America,Virginia,,Ashburn
52.7.75.235,4,17,stockbrokers.com,US,Americas,Northern America,United States of America,Virginia,,Ashburn
100.26.137.82,4,4,stockholdergame.com,US,Americas,Northern America,United States of America,Virginia,,Ashburn
3.216.0.87,4,25,stockhouse.com,US,Americas,Northern America,United States of America,Virginia,,Ashburn
107.23.8.172,4,1,stockpickr.com,US,Americas,Northern America,United States of America,Virginia,,Ashburn
107.23.89.155,4,45,stockpickr.com,US,Americas,Northern America,United States of America,Virginia,,Ashburn
107.23.91.192,4,6,stockpickr.com,US,Americas,Northern America,United States of America,Virginia,,Ashburn
185.33.86.214,4,30,stockpost.ru,US,Americas,Northern America,United States of America,Virginia,,Ashburn
54.172.117.243,4,40,stocktrader.com,US,Americas,Northern America,United States of America,Virginia,,Ashburn
52.55.51.39,4,6,storeya.com,US,Americas,Northern America,United States of America,Virginia,,Ashburn
54.159.212.90,4,4,storeya.com,US,Americas,Northern America,United States of America,Virginia,,Ashburn
52.45.161.38,4,41,streamhatchet.com,US,Americas,Northern America,United States of America,Virginia,,Ashburn
3.227.226.123,4,7,streamhatchet.com,US,Americas,Northern America,United States of America,Virginia,,Ashburn
3.213.53.200,4,18,streamhatchet.com,US,Americas,Northern America,United States of America,Virginia,,Ashburn
34.239.75.69,4,7,streamhatchet.com,US,Americas,Northern America,United States of America,Virginia,,Ashburn
44.208.160.55,4,1,streamhatchet.com,US,Americas,Northern America,United States of America,Virginia,,Ashburn
52.5.224.244,4,23,streamhatchet.com,US,Americas,Northern America,United States of America,Virginia,,Ashburn
173.236.251.108,4,22,streb.org,US,Americas,Northern America,United States of America,Virginia,,Ashburn
169.55.102.119,4,-3,summoners-inn.de,US,Americas,Northern America,United States of America,Virginia,,Ashburn
52.5.20.52,4,3,suncommon.com,US,Americas,Northern America,United States of America,Virginia,,Ashburn
52.203.25.1,4,4,suncommon.com,US,Americas,Northern America,United States of America,Virginia,,Ashburn
66.22.0.38,4,5,sundaysky.com,US,Americas,Northern America,United States of America,Virginia,,Ashburn
67.205.58.202,4,7,sunfedranch.com,US,Americas,Northern America,United States of America,Virginia,,Ashburn
173.236.249.0,4,3,sunshinedna.com,US,Americas,Northern America,United States of America,Virginia,,Ashburn
66.22.63.244,4,6,superboletos.com,US,Americas,Northern America,United States of America,Virginia,,Ashburn
34.232.11.41,4,6,superlogica.net,US,Americas,Northern America,United States of America,Virginia,,Ashburn
52.6.81.175,4,1,superlogica.net,US,Americas,Northern America,United States of America,Virginia,,Ashburn
44.205.79.91,4,0,surveycto.com,US,Americas,Northern America,United States of America,Virginia,,Ashburn
18.204.107.44,4,27,surveycto.com,US,Americas,Northern America,United States of America,Virginia,,Ashburn
3.214.113.186,4,2,surveygizmo.com,US,Americas,Northern America,United States of America,Virginia,,Ashburn
52.205.59.10,4,16,surveygizmo.com,US,Americas,Northern America,United States of America,Virginia,,Ashburn
173.236.251.122,4,16,suseefinance.com,US,Americas,Northern America,United States of America,Virginia,,Ashburn
173.236.250.100,4,11,sustainableseattle.org,US,Americas,Northern America,United States of America,Virginia,,Ashburn
173.236.252.1,4,3,svds.com,US,Americas,Northern America,United States of America,Virginia,,Ashburn
52.1.36.227,4,10,swcontentsyndication.com,US,Americas,Northern America,United States of America,Virginia,,Ashburn
52.5.108.195,4,2,swcontentsyndication.com,US,Americas,Northern America,United States of America,Virginia,,Ashburn
50.17.237.128,4,1,swifto.com,US,Americas,Northern America,United States of America,Virginia,,Ashburn
107.21.61.188,4,5,sxmeti.com,US,Americas,Northern America,United States of America,Virginia,,Ashburn
107.23.43.118,4,5,sync.com,US,Americas,Northern America,United States of America,Virginia,,Ashburn
34.225.117.76,4,2,sync.com,US,Americas,Northern America,United States of America,Virginia,,Ashburn
173.236.250.126,4,9,synearth.net,US,Americas,Northern America,United States of America,Virginia,,Ashburn
173.236.249.107,4,5,synthtech.com,US,Americas,Northern America,United States of America,Virginia,,Ashburn
67.205.59.92,4,25,systemofadown.com,US,Americas,Northern America,United States of America,Virginia,,Ashburn
54.221.85.221,4,4,talk.to,US,Americas,Northern America,United States of America,Virginia,,Ashburn
165.140.86.78,4,5,tampabaybluesfest.com,US,Americas,Northern America,United States of America,Virginia,,Ashburn
45.203.5.126,4,5,tamperpackaging.com,US,Americas,Northern America,United States of America,Virginia,,Ashburn
44.214.244.94,4,4,taskstream.com,US,Americas,Northern America,United States of America,Virginia,,Ashburn
18.210.228.143,4,10,taskstream.com,US,Americas,Northern America,United States of America,Virginia,,Ashburn
192.243.63.126,4,2,tbsjournal.com,US,Americas,Northern America,United States of America,Virginia,,Ashburn
67.205.61.172,4,22,teachnet.com,US,Americas,Northern America,United States of America,Virginia,,Ashburn
3.229.241.12,4,29,teamassociated.com,US,Americas,Northern America,United States of America,Virginia,,Ashburn
107.20.183.35,4,3,teamassociated.com,US,Americas,Northern America,United States of America,Virginia,,Ashburn
67.205.61.19,4,34,teamduval.org,US,Americas,Northern America,United States of America,Virginia,,Ashburn
18.232.17.178,4,5,teamretro.com,US,Americas,Northern America,United States of America,Virginia,,Ashburn
54.236.212.224,4,22,teamretro.com,US,Americas,Northern America,United States of America,Virginia,,Ashburn
34.202.204.195,4,2,teamretro.com,US,Americas,Northern America,United States of America,Virginia,,Ashburn
173.236.254.192,4,4,teamsters.nyc,US,Americas,Northern America,United States of America,Virginia,,Ashburn
173.236.253.26,4,17,tech21nyc.com,US,Americas,Northern America,United States of America,Virginia,,Ashburn
52.203.111.186,4,4,teenlife.com,US,Americas,Northern America,United States of America,Virginia,,Ashburn
3.213.37.43,4,4,teenlife.com,US,Americas,Northern America,United States of America,Virginia,,Ashburn
52.6.86.191,4,31,tefl.com,US,Americas,Northern America,United States of America,Virginia,,Ashburn
66.22.79.211,4,6,teleamazonas.com,US,Americas,Northern America,United States of America,Virginia,,Ashburn
167.86.58.173,4,28,telecash.de,US,Americas,Northern America,United States of America,Virginia,,Ashburn
66.6.26.27,4,12,telecheck.com,US,Americas,Northern America,United States of America,Virginia,,Ashburn
173.236.250.11,4,8,telecomatics.com,US,Americas,Northern America,United States of America,Virginia,,Ashburn
131.153.170.234,4,72,teleworkines.com,US,Americas,Northern America,United States of America,Virginia,,Ashburn
66.225.237.224,4,16,telmex.com,US,Americas,Northern America,United States of America,Virginia,,Ashburn
23.235.226.110,4,39,tenderapp.com,US,Americas,Northern America,United States of America,Virginia,,Ashburn
5.161.183.250,4,14,tenforward.social,US,Americas,Northern America,United States of America,Virginia,,Ashburn
5.161.103.239,4,29,tennistours.com,US,Americas,Northern America,United States of America,Virginia,,Ashburn
67.205.62.53,4,46,tentsmiths.com,US,Americas,Northern America,United States of America,Virginia,,Ashburn
54.175.148.58,4,35,terry-lawfirm.com,US,Americas,Northern America,United States of America,Virginia,,Ashburn
5.161.114.106,4,4,testmatick.com,US,Americas,Northern America,United States of America,Virginia,,Ashburn
54.208.38.104,4,4,tfaforms.com,US,Americas,Northern America,United States of America,Virginia,,Ashburn
52.5.215.80,4,1,tfaforms.com,US,Americas,Northern America,United States of America,Virginia,,Ashburn
52.22.144.63,4,2,tfaforms.com,US,Americas,Northern America,United States of America,Virginia,,Ashburn
54.81.116.232,4,0,tgt.biz,US,Americas,Northern America,United States of America,Virginia,,Ashburn
5.161.113.171,4,13,thchempspot.com,US,Americas,Northern America,United States of America,Virginia,,Ashburn
5.161.23.220,4,39,the-crossword-solver.com,US,Americas,Northern America,United States of America,Virginia,,Ashburn
173.236.250.218,4,7,the-isb.com,US,Americas,Northern America,United States of America,Virginia,,Ashburn
23.218.216.211,4,4,thebay.com,US,Americas,Northern America,United States of America,Virginia,,Ashburn
23.218.216.197,4,7,thebay.com,US,Americas,Northern America,United States of America,Virginia,,Ashburn
67.205.57.36,4,5,theblogfrog.com,US,Americas,Northern America,United States of America,Virginia,,Ashburn
54.157.250.197,4,9,theclosesthotel.com,US,Americas,Northern America,United States of America,Virginia,,Ashburn
34.207.30.248,4,4,thecouponsapp.com,US,Americas,Northern America,United States of America,Virginia,,Ashburn
174.129.182.52,4,31,thecouponsapp.com,US,Americas,Northern America,United States of America,Virginia,,Ashburn
52.4.205.141,4,5,thedailyspice.com,US,Americas,Northern America,United States of America,Virginia,,Ashburn
103.163.186.254,4,32,thedetailguysmd.com,US,Americas,Northern America,United States of America,Virginia,,Ashburn
173.236.249.15,4,29,thedevilsdictionary.com,US,Americas,Northern America,United States of America,Virginia,,Ashburn
173.236.254.238,4,20,thefelicebrothers.com,US,Americas,Northern America,United States of America,Virginia,,Ashburn
52.22.4.67,4,5,thefetus.net,US,Americas,Northern America,United States of America,Virginia,,Ashburn
34.228.45.128,4,45,theinsidepress.com,US,Americas,Northern America,United States of America,Virginia,,Ashburn
44.213.243.159,4,3,theinsidepress.com,US,Americas,Northern America,United States of America,Virginia,,Ashburn
54.81.238.129,4,1,thejoywithin.org,US,Americas,Northern America,United States of America,Virginia,,Ashburn
3.230.69.191,4,20,thekisskruise.com,US,Americas,Northern America,United States of America,Virginia,,Ashburn
54.225.192.206,4,7,thekisskruise.com,US,Americas,Northern America,United States of America,Virginia,,Ashburn
52.54.145.205,4,3,thekisskruise.com,US,Americas,Northern America,United States of America,Virginia,,Ashburn
34.234.176.62,4,8,thekisskruise.com,US,Americas,Northern America,United States of America,Virginia,,Ashburn
54.92.250.181,4,5,thekisskruise.com,US,Americas,Northern America,United States of America,Virginia,,Ashburn
5.161.205.68,4,9,thekoalamom.com,US,Americas,Northern America,United States of America,Virginia,,Ashburn
173.236.248.164,4,37,thelouvertureproject.org,US,Americas,Northern America,United States of America,Virginia,,Ashburn
67.205.56.231,4,13,thementalhealthcoalition.org,US,Americas,Northern America,United States of America,Virginia,,Ashburn
67.205.60.254,4,24,themestate.com,US,Americas,Northern America,United States of America,Virginia,,Ashburn
173.236.249.81,4,4,theninhotline.net,US,Americas,Northern America,United States of America,Virginia,,Ashburn
173.236.249.137,4,5,thenoodleincident.com,US,Americas,Northern America,United States of America,Virginia,,Ashburn
23.213.158.26,4,10,theopinionatedindian.com,US,Americas,Northern America,United States of America,Virginia,,Ashburn
23.213.158.6,4,7,theopinionatedindian.com,US,Americas,Northern America,United States of America,Virginia,,Ashburn
34.196.72.55,4,1,theotherrussia.org,US,Americas,Northern America,United States of America,Virginia,,Ashburn
54.82.47.182,4,3,theotherrussia.org,US,Americas,Northern America,United States of America,Virginia,,Ashburn
67.205.56.54,4,23,thepiratescove.us,US,Americas,Northern America,United States of America,Virginia,,Ashburn
146.75.29.75,4,14,therestaurantatmeadowood.com,US,Americas,Northern America,United States of America,Virginia,,Ashburn
3.213.158.187,4,25,therockradio.com,US,Americas,Northern America,United States of America,Virginia,,Ashburn
3.210.156.221,4,12,thetech.com,US,Americas,Northern America,United States of America,Virginia,,Ashburn
67.205.57.128,4,8,thewanderinglens.com,US,Americas,Northern America,United States of America,Virginia,,Ashburn
5.161.34.112,4,5,thewebblend.com,US,Americas,Northern America,United States of America,Virginia,,Ashburn
5.161.94.125,4,5,thewindowsclub.blog,US,Americas,Northern America,United States of America,Virginia,,Ashburn
23.218.128.116,4,21,thinkb4youspeak.com,US,Americas,Northern America,United States of America,Virginia,,Ashburn
18.213.60.79,4,17,thirtysecondstomars.com,US,Americas,Northern America,United States of America,Virginia,,Ashburn
44.216.15.100,4,7,thirtysecondstomars.com,US,Americas,Northern America,United States of America,Virginia,,Ashburn
44.213.152.251,4,6,thirtysecondstomars.com,US,Americas,Northern America,United States of America,Virginia,,Ashburn
52.20.113.113,4,16,thirtysecondstomars.com,US,Americas,Northern America,United States of America,Virginia,,Ashburn
3.225.92.85,4,4,thirtysecondstomars.com,US,Americas,Northern America,United States of America,Virginia,,Ashburn
3.227.188.188,4,1,thirtysecondstomars.com,US,Americas,Northern America,United States of America,Virginia,,Ashburn
173.236.253.114,4,38,threelobed.com,US,Americas,Northern America,United States of America,Virginia,,Ashburn
173.236.252.245,4,5,ticklethewire.com,US,Americas,Northern America,United States of America,Virginia,,Ashburn
5.161.35.244,4,6,tiger-algebra.com,US,Americas,Northern America,United States of America,Virginia,,Ashburn
5.181.161.235,4,19,tilda.cc,US,Americas,Northern America,United States of America,Virginia,,Ashburn
5.181.161.249,4,335,tilda.education,US,Americas,Northern America,United States of America,Virginia,,Ashburn
5.181.161.7,4,29,tilda.ws,US,Americas,Northern America,United States of America,Virginia,,Ashburn
5.181.161.8,4,4,tilda.ws,US,Americas,Northern America,United States of America,Virginia,,Ashburn
5.181.161.9,4,22,tilda.ws,US,Americas,Northern America,United States of America,Virginia,,Ashburn
52.44.70.149,4,15,timbertax.org,US,Americas,Northern America,United States of America,Virginia,,Ashburn
35.174.125.167,4,60,timedoctor.com,US,Americas,Northern America,United States of America,Virginia,,Ashburn
5.161.252.153,4,4,timkenmuseum.org,US,Americas,Northern America,United States of America,Virginia,,Ashburn
204.93.139.172,4,37,tinkerfcu.org,US,Americas,Northern America,United States of America,Virginia,,Ashburn
173.236.251.105,4,48,tintinologist.org,US,Americas,Northern America,United States of America,Virginia,,Ashburn
173.236.248.244,4,4,tk-jk.net,US,Americas,Northern America,United States of America,Virginia,,Ashburn
100.25.226.19,4,4,tlcafftrax.com,US,Americas,Northern America,United States of America,Virginia,,Ashburn
3.86.176.123,4,4,tlcafftrax.com,US,Americas,Northern America,United States of America,Virginia,,Ashburn
5.181.161.13,4,3,tm.org.ua,US,Americas,Northern America,United States of America,Virginia,,Ashburn
54.160.158.74,4,7,tnjournal.net,US,Americas,Northern America,United States of America,Virginia,,Ashburn
23.9.166.158,4,4,tocris.com,US,Americas,Northern America,United States of America,Virginia,,Ashburn
5.181.161.96,4,5,toda.ae,US,Americas,Northern America,United States of America,Virginia,,Ashburn
67.205.57.7,4,7,todaysrdh.com,US,Americas,Northern America,United States of America,Virginia,,Ashburn
173.236.255.95,4,7,tojicode.com,US,Americas,Northern America,United States of America,Virginia,,Ashburn
50.17.187.161,4,11,tombstonetactical.com,US,Americas,Northern America,United States of America,Virginia,,Ashburn
44.223.178.169,4,10,tombstonetactical.com,US,Americas,Northern America,United States of America,Virginia,,Ashburn
100.28.80.129,4,1,tomclancy.com,US,Americas,Northern America,United States of America,Virginia,,Ashburn
3.238.0.35,4,8,tookitaki.com,US,Americas,Northern America,United States of America,Virginia,,Ashburn
52.73.148.85,4,11,topbuzz.com,US,Americas,Northern America,United States of America,Virginia,,Ashburn
173.236.251.137,4,31,topsportsjerseys.com,US,Americas,Northern America,United States of America,Virginia,,Ashburn
5.161.58.65,4,14,totallyhistory.com,US,Americas,Northern America,United States of America,Virginia,,Ashburn
52.201.52.106,4,-925318,totallyradio.com,US,Americas,Northern America,United States of America,Virginia,,Ashburn
98.82.57.76,4,3,tpac.org,US,Americas,Northern America,United States of America,Virginia,,Ashburn
44.194.46.87,4,5,tpac.org,US,Americas,Northern America,United States of America,Virginia,,Ashburn
34.196.113.157,4,4,tpac.org,US,Americas,Northern America,United States of America,Virginia,,Ashburn
67.205.58.66,4,7,trackthetropics.com,US,Americas,Northern America,United States of America,Virginia,,Ashburn
54.165.47.91,4,8,tradeready.ca,US,Americas,Northern America,United States of America,Virginia,,Ashburn
52.70.153.27,4,29,traderinteractive.com,US,Americas,Northern America,United States of America,Virginia,,Ashburn
52.1.61.163,4,17,traderinteractive.com,US,Americas,Northern America,United States of America,Virginia,,Ashburn
18.215.218.0,4,12,tradove.com,US,Americas,Northern America,United States of America,Virginia,,Ashburn
3.83.37.180,4,28,tradove.com,US,Americas,Northern America,United States of America,Virginia,,Ashburn
54.84.101.21,4,136,trafficfuel.com,US,Americas,Northern America,United States of America,Virginia,,Ashburn
5.161.58.181,4,8,trafft.com,US,Americas,Northern America,United States of America,Virginia,,Ashburn
43.130.100.229,4,1,trait-tech.com,US,Americas,Northern America,United States of America,Virginia,,Ashburn
173.236.254.245,4,13,transatomicpower.com,US,Americas,Northern America,United States of America,Virginia,,Ashburn
5.161.118.165,4,19,translation-services-usa.com,US,Americas,Northern America,United States of America,Virginia,,Ashburn
5.161.249.193,4,13,transmedia.cl,US,Americas,Northern America,United States of America,Virginia,,Ashburn
173.236.253.92,4,27,travelerscenturyclub.org,US,Americas,Northern America,United States of America,Virginia,,Ashburn
54.225.69.61,4,17,tributecenterstore.com,US,Americas,Northern America,United States of America,Virginia,,Ashburn
3.223.16.9,4,11,tributecenterstore.com,US,Americas,Northern America,United States of America,Virginia,,Ashburn
54.208.114.36,4,10,tributeslides.com,US,Americas,Northern America,United States of America,Virginia,,Ashburn
52.55.120.17,4,10,trijicon.com,US,Americas,Northern America,United States of America,Virginia,,Ashburn
173.236.248.132,4,14,trinketsinbloom.com,US,Americas,Northern America,United States of America,Virginia,,Ashburn
52.23.86.39,4,6,triz-ri.ru,US,Americas,Northern America,United States of America,Virginia,,Ashburn
34.224.54.201,4,8,trueamsterdam.com,US,Americas,Northern America,United States of America,Virginia,,Ashburn
204.93.139.140,4,5,truevaluecompany.com,US,Americas,Northern America,United States of America,Virginia,,Ashburn
35.173.64.38,4,2,tsingtaobeer.com,US,Americas,Northern America,United States of America,Virginia,,Ashburn
34.233.18.94,4,39,tuneyou.com,US,Americas,Northern America,United States of America,Virginia,,Ashburn
44.212.119.187,4,4,tuneyou.com,US,Americas,Northern America,United States of America,Virginia,,Ashburn
18.214.51.217,4,8,tvtnews.com.br,US,Americas,Northern America,United States of America,Virginia,,Ashburn
5.161.103.181,4,3,twarak.com,US,Americas,Northern America,United States of America,Virginia,,Ashburn
18.233.28.18,4,4,twcouponcenter.com,US,Americas,Northern America,United States of America,Virginia,,Ashburn
52.3.74.28,4,3,twcouponcenter.com,US,Americas,Northern America,United States of America,Virginia,,Ashburn
100.24.165.140,4,17,tweepi.com,US,Americas,Northern America,United States of America,Virginia,,Ashburn
3.210.111.42,4,34,tweepi.com,US,Americas,Northern America,United States of America,Virginia,,Ashburn
173.236.250.88,4,1,twobitcircus.com,US,Americas,Northern America,United States of America,Virginia,,Ashburn
34.225.23.5,4,14,twshop4coupon.com,US,Americas,Northern America,United States of America,Virginia,,Ashburn
34.202.17.101,4,7,twshop4coupon.com,US,Americas,Northern America,United States of America,Virginia,,Ashburn
5.161.222.235,4,7,ubuntuupdates.org,US,Americas,Northern America,United States of America,Virginia,,Ashburn
66.22.18.154,4,7,uco.edu,US,Americas,Northern America,United States of America,Virginia,,Ashburn
5.181.161.11,4,3,udance.com.ua,US,Americas,Northern America,United States of America,Virginia,,Ashburn
3.92.248.68,4,3,ufm.edu,US,Americas,Northern America,United States of America,Virginia,,Ashburn
52.202.104.132,4,7,ufm.edu,US,Americas,Northern America,United States of America,Virginia,,Ashburn
44.218.191.0,4,1,uhuu.com,US,Americas,Northern America,United States of America,Virginia,,Ashburn
54.88.105.39,4,4,uhuu.com,US,Americas,Northern America,United States of America,Virginia,,Ashburn
34.230.169.92,4,28,uhuu.com,US,Americas,Northern America,United States of America,Virginia,,Ashburn
5.161.223.182,4,37,ukrcatholic.org,US,Americas,Northern America,United States of America,Virginia,,Ashburn
67.205.60.70,4,5,ukulelemagazine.com,US,Americas,Northern America,United States of America,Virginia,,Ashburn
38.45.180.77,4,3,ultatel.com,US,Americas,Northern America,United States of America,Virginia,,Ashburn
173.236.252.199,4,44,ultimateedition.info,US,Americas,Northern America,United States of America,Virginia,,Ashburn
54.211.45.156,4,5,unasp.br,US,Americas,Northern America,United States of America,Virginia,,Ashburn
3.211.187.251,4,6,unasp.br,US,Americas,Northern America,United States of America,Virginia,,Ashburn
52.72.185.196,4,0,unfoundation.org,US,Americas,Northern America,United States of America,Virginia,,Ashburn
173.236.251.117,4,23,uni-solar.com,US,Americas,Northern America,United States of America,Virginia,,Ashburn
66.22.24.173,4,29,uni.ca,US,Americas,Northern America,United States of America,Virginia,,Ashburn
45.203.17.184,4,6,unilongmaterial.com,US,Americas,Northern America,United States of America,Virginia,,Ashburn
34.196.234.103,4,12,unplag.com,US,Americas,Northern America,United States of America,Virginia,,Ashburn
52.4.117.84,4,12,unplag.com,US,Americas,Northern America,United States of America,Virginia,,Ashburn
3.218.10.230,4,23,unplag.com,US,Americas,Northern America,United States of America,Virginia,,Ashburn
74.114.154.18,4,17,unpretty.space,US,Americas,Northern America,United States of America,Virginia,,Ashburn
74.114.154.22,4,7,unpretty.space,US,Americas,Northern America,United States of America,Virginia,,Ashburn
67.205.58.113,4,5,unwinnable.com,US,Americas,Northern America,United States of America,Virginia,,Ashburn
5.161.117.234,4,5,userlogos.org,US,Americas,Northern America,United States of America,Virginia,,Ashburn
74.84.128.203,4,6,ussr-star.com,US,Americas,Northern America,United States of America,Virginia,,Ashburn
3.209.204.160,4,4,uta.edu,US,Americas,Northern America,United States of America,Virginia,,Ashburn
184.27.45.49,4,9,utrechtart.com,US,Americas,Northern America,United States of America,Virginia,,Ashburn
184.27.45.23,4,13,utrechtart.com,US,Americas,Northern America,United States of America,Virginia,,Ashburn
67.205.58.6,4,8,uwest.edu,US,Americas,Northern America,United States of America,Virginia,,Ashburn
173.236.255.28,4,5,v-fonts.com,US,Americas,Northern America,United States of America,Virginia,,Ashburn
66.22.13.53,4,6,vacationclub.com,US,Americas,Northern America,United States of America,Virginia,,Ashburn
173.236.252.255,4,20,vadm.org,US,Americas,Northern America,United States of America,Virginia,,Ashburn
173.236.249.172,4,6,valleymagazinepsu.com,US,Americas,Northern America,United States of America,Virginia,,Ashburn
192.0.96.250,4,28,vaultpress.com,US,Americas,Northern America,United States of America,Virginia,,Ashburn
54.86.233.246,4,4,vbshoptrax.com,US,Americas,Northern America,United States of America,Virginia,,Ashburn
54.89.123.162,4,8,vbshoptrax.com,US,Americas,Northern America,United States of America,Virginia,,Ashburn
52.22.192.9,4,4,vbtrax.com,US,Americas,Northern America,United States of America,Virginia,,Ashburn
34.202.217.155,4,9,vbtrax.com,US,Americas,Northern America,United States of America,Virginia,,Ashburn
54.243.54.218,4,4,vbtrax.com,US,Americas,Northern America,United States of America,Virginia,,Ashburn
52.1.183.162,4,16,vbtrax.com,US,Americas,Northern America,United States of America,Virginia,,Ashburn
5.161.115.83,4,4,veganbell.com,US,Americas,Northern America,United States of America,Virginia,,Ashburn
173.236.250.166,4,6,veganvideopantry.com,US,Americas,Northern America,United States of America,Virginia,,Ashburn
18.235.48.248,4,32,vegasboards.com,US,Americas,Northern America,United States of America,Virginia,,Ashburn
173.236.254.173,4,3,vegobsession.com,US,Americas,Northern America,United States of America,Virginia,,Ashburn
52.7.115.226,4,23,venngage.com,US,Americas,Northern America,United States of America,Virginia,,Ashburn
3.221.53.26,4,3,venngage.com,US,Americas,Northern America,United States of America,Virginia,,Ashburn
54.163.148.104,4,8,vertoe.com,US,Americas,Northern America,United States of America,Virginia,,Ashburn
3.89.214.124,4,1,vetetnous.com,US,Americas,Northern America,United States of America,Virginia,,Ashburn
35.174.35.222,4,22,vetsfirstchoice.com,US,Americas,Northern America,United States of America,Virginia,,Ashburn
54.210.157.175,4,22,vetsfirstchoice.com,US,Americas,Northern America,United States of America,Virginia,,Ashburn
173.236.254.155,4,24,vgmuseum.com,US,Americas,Northern America,United States of America,Virginia,,Ashburn
66.225.237.246,4,16,vicepresidencia.gov.co,US,Americas,Northern America,United States of America,Virginia,,Ashburn
54.210.12.132,4,9,vidnoz.com,US,Americas,Northern America,United States of America,Virginia,,Ashburn
34.201.230.194,4,26,vidnoz.com,US,Americas,Northern America,United States of America,Virginia,,Ashburn
52.7.165.241,4,42,viewbug.com,US,Americas,Northern America,United States of America,Virginia,,Ashburn
3.227.92.87,4,10,viewbug.com,US,Americas,Northern America,United States of America,Virginia,,Ashburn
34.192.255.123,4,1,vir.bio,US,Americas,Northern America,United States of America,Virginia,,Ashburn
208.113.129.195,4,2,visforvoltage.org,US,Americas,Northern America,United States of America,Virginia,,Ashburn
173.236.255.96,4,18,visitcanyonroad.com,US,Americas,Northern America,United States of America,Virginia,,Ashburn
192.243.63.116,4,3,vivabit.com,US,Americas,Northern America,United States of America,Virginia,,Ashburn
38.92.47.48,4,9,vividshop.pk,US,Americas,Northern America,United States of America,Virginia,,Ashburn
35.168.64.20,4,0,vof.org,US,Americas,Northern America,United States of America,Virginia,,Ashburn
52.1.29.224,4,0,volocars.com,US,Americas,Northern America,United States of America,Virginia,,Ashburn
54.80.18.4,4,8,volocars.com,US,Americas,Northern America,United States of America,Virginia,,Ashburn
5.161.113.168,4,4,vpsbenchmarks.com,US,Americas,Northern America,United States of America,Virginia,,Ashburn
66.22.13.65,4,17,vystarcu.org,US,Americas,Northern America,United States of America,Virginia,,Ashburn
3.222.87.129,4,2,vzaar.com,US,Americas,Northern America,United States of America,Virginia,,Ashburn
34.239.13.228,4,16,vzaar.com,US,Americas,Northern America,United States of America,Virginia,,Ashburn
3.232.195.72,4,38,vzaar.com,US,Americas,Northern America,United States of America,Virginia,,Ashburn
173.236.254.213,4,14,w5mag.com,US,Americas,Northern America,United States of America,Virginia,,Ashburn
52.1.117.2,4,16,wadic.net,US,Americas,Northern America,United States of America,Virginia,,Ashburn
173.236.252.234,4,5,wakamaifondue.com,US,Americas,Northern America,United States of America,Virginia,,Ashburn
34.198.145.153,4,9,walrusmagazine.com,US,Americas,Northern America,United States of America,Virginia,,Ashburn
52.5.246.91,4,7,wanqipk.com,US,Americas,Northern America,United States of America,Virginia,,Ashburn
54.159.76.127,4,3,wantalkpet.com,US,Americas,Northern America,United States of America,Virginia,,Ashburn
107.161.122.227,4,11,warped.com,US,Americas,Northern America,United States of America,Virginia,,Ashburn
107.22.166.230,4,1,warpedtour.com,US,Americas,Northern America,United States of America,Virginia,,Ashburn
5.161.234.177,4,4,wartburgseminary.edu,US,Americas,Northern America,United States of America,Virginia,,Ashburn
173.236.255.16,4,5,waxwingmag.org,US,Americas,Northern America,United States of America,Virginia,,Ashburn
5.161.188.31,4,4,wcha.org,US,Americas,Northern America,United States of America,Virginia,,Ashburn
173.236.254.226,4,11,wdcb.org,US,Americas,Northern America,United States of America,Virginia,,Ashburn
3.227.104.65,4,31,weatherworksinc.com,US,Americas,Northern America,United States of America,Virginia,,Ashburn
5.181.161.80,4,326,web-sollet.com,US,Americas,Northern America,United States of America,Virginia,,Ashburn
5.161.99.210,4,7,webbuildersguide.com,US,Americas,Northern America,United States of America,Virginia,,Ashburn
5.161.70.139,4,11,webdesignviews.com,US,Americas,Northern America,United States of America,Virginia,,Ashburn
54.237.69.247,4,10,webmarketsupport.com,US,Americas,Northern America,United States of America,Virginia,,Ashburn
173.236.253.154,4,42,websolution21.com,US,Americas,Northern America,United States of America,Virginia,,Ashburn
5.161.144.83,4,28,webworkshop.net,US,Americas,Northern America,United States of America,Virginia,,Ashburn
5.161.197.153,4,7,weeklyads2.com,US,Americas,Northern America,United States of America,Virginia,,Ashburn
173.236.248.237,4,12,welikia.org,US,Americas,Northern America,United States of America,Virginia,,Ashburn
23.22.72.90,4,2,well.com,US,Americas,Northern America,United States of America,Virginia,,Ashburn
3.223.115.93,4,-2,wellpromotion.com,US,Americas,Northern America,United States of America,Virginia,,Ashburn
5.161.85.197,4,12,wetdry.world,US,Americas,Northern America,United States of America,Virginia,,Ashburn
54.147.223.230,4,5,whatiscopyright.org,US,Americas,Northern America,United States of America,Virginia,,Ashburn
54.83.199.30,4,0,whatsmychaincert.com,US,Americas,Northern America,United States of America,Virginia,,Ashburn
52.0.174.127,4,7,whereyoubelong.net,US,Americas,Northern America,United States of America,Virginia,,Ashburn
54.159.244.8,4,3,whfreeman.com,US,Americas,Northern America,United States of America,Virginia,,Ashburn
70.32.1.32,4,3,whichorthopedicimplant.com,US,Americas,Northern America,United States of America,Virginia,,Ashburn
35.168.216.102,4,7,whoisonmywifi.com,US,Americas,Northern America,United States of America,Virginia,,Ashburn
5.161.202.5,4,7,wholebiteblog.com,US,Americas,Northern America,United States of America,Virginia,,Ashburn
192.243.63.118,4,10,wholphindvd.com,US,Americas,Northern America,United States of America,Virginia,,Ashburn
3.209.171.75,4,1,wibki.com,US,Americas,Northern America,United States of America,Virginia,,Ashburn
5.161.97.165,4,27,wikirby.com,US,Americas,Northern America,United States of America,Virginia,,Ashburn
146.75.30.224,4,20,winchesterguns.com,US,Americas,Northern America,United States of America,Virginia,,Ashburn
35.169.104.124,4,47,windalert.com,US,Americas,Northern America,United States of America,Virginia,,Ashburn
3.220.181.97,4,20,windalert.com,US,Americas,Northern America,United States of America,Virginia,,Ashburn
34.232.110.132,4,3,windalert.com,US,Americas,Northern America,United States of America,Virginia,,Ashburn
54.85.172.227,4,11,windalert.com,US,Americas,Northern America,United States of America,Virginia,,Ashburn
34.231.41.84,4,9,windalert.com,US,Americas,Northern America,United States of America,Virginia,,Ashburn
52.20.75.230,4,3,wn.nr,US,Americas,Northern America,United States of America,Virginia,,Ashburn
52.1.130.33,4,3,wn.nr,US,Americas,Northern America,United States of America,Virginia,,Ashburn
5.161.101.228,4,29,workplacediversity.com,US,Americas,Northern America,United States of America,Virginia,,Ashburn
52.22.225.78,4,10,worldagroforestrycentre.org,US,Americas,Northern America,United States of America,Virginia,,Ashburn
67.205.58.56,4,6,wpfellows.com,US,Americas,Northern America,United States of America,Virginia,,Ashburn
173.236.253.244,4,8,wpwatercooler.com,US,Americas,Northern America,United States of America,Virginia,,Ashburn
199.101.98.91,4,-1,wrapexpressusa.com,US,Americas,Northern America,United States of America,Virginia,,Ashburn
173.236.249.175,4,19,wrightairservice.com,US,Americas,Northern America,United States of America,Virginia,,Ashburn
54.156.168.108,4,3,writemyessayfast.net,US,Americas,Northern America,United States of America,Virginia,,Ashburn
23.218.218.14,4,7,wsls.com,US,Americas,Northern America,United States of America,Virginia,,Ashburn
23.218.218.27,4,8,wsls.com,US,Americas,Northern America,United States of America,Virginia,,Ashburn
173.236.251.249,4,8,wtfnoway.com,US,Americas,Northern America,United States of America,Virginia,,Ashburn
185.189.68.89,4,5,x-diesel.com,US,Americas,Northern America,United States of America,Virginia,,Ashburn
52.6.191.28,4,1,xargs.org,US,Americas,Northern America,United States of America,Virginia,,Ashburn
172.82.129.71,4,2,xcast.com.br,US,Americas,Northern America,United States of America,Virginia,,Ashburn
5.161.235.197,4,5,xgamingserver.com,US,Americas,Northern America,United States of America,Virginia,,Ashburn
45.203.25.186,4,2,xinyu-enameledwire.com,US,Americas,Northern America,United States of America,Virginia,,Ashburn
172.121.143.230,4,-1,xjdjhs.com,US,Americas,Northern America,United States of America,Virginia,,Ashburn
18.211.185.116,4,3,xmode.io,US,Americas,Northern America,United States of America,Virginia,,Ashburn
3.219.147.54,4,0,xmode.io,US,Americas,Northern America,United States of America,Virginia,,Ashburn
173.236.253.208,4,3,xrecode.com,US,Americas,Northern America,United States of America,Virginia,,Ashburn
173.236.251.200,4,11,xregexp.com,US,Americas,Northern America,United States of America,Virginia,,Ashburn
23.23.155.19,4,11,yadkinvalleywinecountry.com,US,Americas,Northern America,United States of America,Virginia,,Ashburn
5.161.108.94,4,12,yaleclimatemediaforum.org,US,Americas,Northern America,United States of America,Virginia,,Ashburn
173.236.255.7,4,8,yarabook.com,US,Americas,Northern America,United States of America,Virginia,,Ashburn
52.54.62.19,4,0,yixing-teapot.org,US,Americas,Northern America,United States of America,Virginia,,Ashburn
67.205.62.147,4,4,ymcamke.org,US,Americas,Northern America,United States of America,Virginia,,Ashburn
54.173.100.81,4,5,youcaring.com,US,Americas,Northern America,United States of America,Virginia,,Ashburn
54.243.205.111,4,7,youcaring.com,US,Americas,Northern America,United States of America,Virginia,,Ashburn
66.6.44.4,4,7,youmightfindyourself.com,US,Americas,Northern America,United States of America,Virginia,,Ashburn
18.207.20.50,4,7,younow.com,US,Americas,Northern America,United States of America,Virginia,,Ashburn
54.173.198.118,4,4,younow.com,US,Americas,Northern America,United States of America,Virginia,,Ashburn
3.225.156.24,4,3,younow.com,US,Americas,Northern America,United States of America,Virginia,,Ashburn
173.236.255.69,4,37,yourgemhub.com,US,Americas,Northern America,United States of America,Virginia,,Ashburn
54.225.66.23,4,27,youriguide.com,US,Americas,Northern America,United States of America,Virginia,,Ashburn
54.243.207.192,4,23,youriguide.com,US,Americas,Northern America,United States of America,Virginia,,Ashburn
18.235.215.189,4,6,youriguide.com,US,Americas,Northern America,United States of America,Virginia,,Ashburn
3.232.218.42,4,4,youriguide.com,US,Americas,Northern America,United States of America,Virginia,,Ashburn
52.6.106.251,4,939,yourpracticeonline.net,US,Americas,Northern America,United States of America,Virginia,,Ashburn
74.84.144.174,4,110,yourstephenvilletx.com,US,Americas,Northern America,United States of America,Virginia,,Ashburn
74.84.144.198,4,103,yourstephenvilletx.com,US,Americas,Northern America,United States of America,Virginia,,Ashburn
52.54.243.26,4,4,youtoocanrun.com,US,Americas,Northern America,United States of America,Virginia,,Ashburn
52.22.198.97,4,5,youtoocanrun.com,US,Americas,Northern America,United States of America,Virginia,,Ashburn
5.161.17.38,4,2,youtubetrimmer.com,US,Americas,Northern America,United States of America,Virginia,,Ashburn
67.205.56.174,4,8,youwillloveeachother.com,US,Americas,Northern America,United States of America,Virginia,,Ashburn
52.201.110.19,4,3,ypulse.com,US,Americas,Northern America,United States of America,Virginia,,Ashburn
54.167.148.94,4,3,ypulse.com,US,Americas,Northern America,United States of America,Virginia,,Ashburn
173.236.251.149,4,9,yti.edu,US,Americas,Northern America,United States of America,Virginia,,Ashburn
34.193.85.49,4,5,yucatan.travel,US,Americas,Northern America,United States of America,Virginia,,Ashburn
54.84.60.243,4,5,yucatan.travel,US,Americas,Northern America,United States of America,Virginia,,Ashburn
174.129.25.170,4,2,yvonnesboston.com,US,Americas,Northern America,United States of America,Virginia,,Ashburn
52.22.13.246,4,18,zahar.com.br,US,Americas,Northern America,United States of America,Virginia,,Ashburn
35.170.209.58,4,2,zeam.com,US,Americas,Northern America,United States of America,Virginia,,Ashburn
3.231.11.212,4,8,zeam.com,US,Americas,Northern America,United States of America,Virginia,,Ashburn
5.181.161.75,4,2,zemits.com,US,Americas,Northern America,United States of America,Virginia,,Ashburn
5.181.161.29,4,4,zemits.com.ua,US,Americas,Northern America,United States of America,Virginia,,Ashburn
104.68.241.74,4,6,zennioptical.com,US,Americas,Northern America,United States of America,Virginia,,Ashburn
44.208.212.14,4,10,zeroturnaround.com,US,Americas,Northern America,United States of America,Virginia,,Ashburn
3.227.14.253,4,21,zeroturnaround.com,US,Americas,Northern America,United States of America,Virginia,,Ashburn
35.171.91.220,4,25,zeroturnaround.com,US,Americas,Northern America,United States of America,Virginia,,Ashburn
54.165.24.248,4,5,zhome.com,US,Americas,Northern America,United States of America,Virginia,,Ashburn
54.210.52.243,4,10,zimmetzimmet.com,US,Americas,Northern America,United States of America,Virginia,,Ashburn
34.230.99.242,4,-1938760,zindamagazine.com,US,Americas,Northern America,United States of America,Virginia,,Ashburn
173.236.251.135,4,4,zinepal.com,US,Americas,Northern America,United States of America,Virginia,,Ashburn
54.160.107.218,4,12,zionoil.com,US,Americas,Northern America,United States of America,Virginia,,Ashburn
52.206.168.69,4,3,zionoil.com,US,Americas,Northern America,United States of America,Virginia,,Ashburn
54.159.179.218,4,50,zippyapp.com,US,Americas,Northern America,United States of America,Virginia,,Ashburn
52.3.42.59,4,12,zippyapp.com,US,Americas,Northern America,United States of America,Virginia,,Ashburn
52.201.4.2,4,4,znap.link,US,Americas,Northern America,United States of America,Virginia,,Ashburn
34.224.10.110,4,81987,zoomdrain.com,US,Americas,Northern America,United States of America,Virginia,,Ashburn
52.0.214.55,4,4,zusun.com,US,Americas,Northern America,United States of America,Virginia,,Ashburn
54.237.31.47,4,4,zwsoft.com,US,Americas,Northern America,United States of America,Virginia,,Ashburn
136.144.57.121,4,2,zx2c4.com,US,Americas,Northern America,United States of America,Virginia,,Ashburn
