reflector_ip,ip_version,offset,description,country_code,region,sub_region,country_name,sub_division_1,sub_division_2,city
108.62.123.112,4,1,10sballs.com,US,Americas,Northern America,United States of America,Virginia,,Manassas
216.22.2.101,4,112,123dj.com,US,Americas,Northern America,United States of America,Virginia,,Manassas
23.82.8.156,4,231,absolutist.com,US,Americas,Northern America,United States of America,Virginia,,Manassas
207.58.152.45,4,1,adamwulf.me,US,Americas,Northern America,United States of America,Virginia,,Manassas
216.22.24.212,4,439,adeptinternet.net,US,Americas,Northern America,United States of America,Virginia,,Manassas
207.58.190.244,4,-5,aetherometry.com,US,Americas,Northern America,United States of America,Virginia,,Manassas
207.58.131.172,4,82,alpca.org,US,Americas,Northern America,United States of America,Virginia,,Manassas
108.62.123.191,4,-10890946,american-europe.us,US,Americas,Northern America,United States of America,Virginia,,Manassas
207.58.183.25,4,74,americanairpowermuseum.com,US,Americas,Northern America,United States of America,Virginia,,Manassas
64.131.80.32,4,288,amibroker.com,US,Americas,Northern America,United States of America,Virginia,,Manassas
108.62.122.134,4,30,analytics-toolkit.com,US,Americas,Northern America,United States of America,Virginia,,Manassas
23.105.39.79,4,40,argentour.com,US,Americas,Northern America,United States of America,Virginia,,Manassas
207.58.186.194,4,8,articles.co.il,US,Americas,Northern America,United States of America,Virginia,,Manassas
207.58.138.17,4,8,bankrupt.ru,US,Americas,Northern America,United States of America,Virginia,,Manassas
207.58.169.85,4,2,bbml.ru,US,Americas,Northern America,United States of America,Virginia,,Manassas
216.22.48.102,4,5,bbspot.com,US,Americas,Northern America,United States of America,Virginia,,Manassas
207.58.177.66,4,811,biologynews.net,US,Americas,Northern America,United States of America,Virginia,,Manassas
64.64.3.186,4,-449,businessghana.com,US,Americas,Northern America,United States of America,Virginia,,Manassas
64.64.7.193,4,-27,bypeople.com,US,Americas,Northern America,United States of America,Virginia,,Manassas
64.64.15.48,4,593,bytecellar.com,US,Americas,Northern America,United States of America,Virginia,,Manassas
207.58.186.170,4,5,cadilapharma.com,US,Americas,Northern America,United States of America,Virginia,,Manassas
64.64.5.145,4,4,candidcareer.com,US,Americas,Northern America,United States of America,Virginia,,Manassas
207.58.170.31,4,741,catholicsaints.info,US,Americas,Northern America,United States of America,Virginia,,Manassas
207.58.151.42,4,617,cghnyc.com,US,Americas,Northern America,United States of America,Virginia,,Manassas
207.58.151.41,4,616,cgstudionyc.com,US,Americas,Northern America,United States of America,Virginia,,Manassas
199.115.114.122,4,-17,classroomclipart.com,US,Americas,Northern America,United States of America,Virginia,,Manassas
207.58.135.11,4,6,clubcivic.com,US,Americas,Northern America,United States of America,Virginia,,Manassas
206.214.221.209,4,728,coolantarctica.com,US,Americas,Northern America,United States of America,Virginia,,Manassas
64.131.70.104,4,80,coolvibe.com,US,Americas,Northern America,United States of America,Virginia,,Manassas
206.214.223.64,4,421,corexcel.com,US,Americas,Northern America,United States of America,Virginia,,Manassas
23.105.39.196,4,6,creativequotations.com,US,Americas,Northern America,United States of America,Virginia,,Manassas
207.58.170.148,4,441,cruiseshipjob.com,US,Americas,Northern America,United States of America,Virginia,,Manassas
199.115.114.121,4,-21,cybersleuth-kids.com,US,Americas,Northern America,United States of America,Virginia,,Manassas
108.62.121.234,4,1,cycle-ergo.com,US,Americas,Northern America,United States of America,Virginia,,Manassas
64.64.8.166,4,-9,cyclonepower.com,US,Americas,Northern America,United States of America,Virginia,,Manassas
216.22.3.98,4,19,deadzebra.com,US,Americas,Northern America,United States of America,Virginia,,Manassas
207.58.176.11,4,1030,decorahnewspapers.com,US,Americas,Northern America,United States of America,Virginia,,Manassas
207.58.178.120,4,1,digesalud.com,US,Americas,Northern America,United States of America,Virginia,,Manassas
199.102.225.115,4,9,dinkytown.net,US,Americas,Northern America,United States of America,Virginia,,Manassas
199.167.45.149,4,432,diptrace.com,US,Americas,Northern America,United States of America,Virginia,,Manassas
69.137.41.36,4,5,DNS Server: c-69-137-41-36.hsd1.va.comcast.net,US,Americas,Northern America,United States of America,Virginia,,Manassas
207.58.183.11,4,-14569276,DNS Server: world.summervillain.com,US,Americas,Northern America,United States of America,Virginia,,Manassas
64.131.64.135,4,1439,doctorproaudio.com,US,Americas,Northern America,United States of America,Virginia,,Manassas
108.62.123.195,4,0,engelbert.com,US,Americas,Northern America,United States of America,Virginia,,Manassas
64.131.80.58,4,28,eschooltoday.com,US,Americas,Northern America,United States of America,Virginia,,Manassas
207.58.177.67,4,807,esciencenews.com,US,Americas,Northern America,United States of America,Virginia,,Manassas
108.62.121.192,4,19,familymeans.org,US,Americas,Northern America,United States of America,Virginia,,Manassas
23.105.39.197,4,0,federscacchi.it,US,Americas,Northern America,United States of America,Virginia,,Manassas
207.58.149.125,4,-1,fhca.org,US,Americas,Northern America,United States of America,Virginia,,Manassas
199.58.85.136,4,-11,flightrising.com,US,Americas,Northern America,United States of America,Virginia,,Manassas
199.102.230.186,4,-10,fpcintl.com,US,Americas,Northern America,United States of America,Virginia,,Manassas
207.58.155.110,4,38,gatewaytotheclassics.com,US,Americas,Northern America,United States of America,Virginia,,Manassas
199.115.116.58,4,2,gearpresent.com,US,Americas,Northern America,United States of America,Virginia,,Manassas
64.131.73.200,4,2,gigacalculator.com,US,Americas,Northern America,United States of America,Virginia,,Manassas
64.131.79.68,4,-301,gospeltranslation.org,US,Americas,Northern America,United States of America,Virginia,,Manassas
216.22.1.72,4,2,guinealynx.info,US,Americas,Northern America,United States of America,Virginia,,Manassas
23.105.7.238,4,8,hdwpapers.com,US,Americas,Northern America,United States of America,Virginia,,Manassas
207.58.181.98,4,44,homedesignfind.com,US,Americas,Northern America,United States of America,Virginia,,Manassas
64.131.74.74,4,99,i-mockery.com,US,Americas,Northern America,United States of America,Virginia,,Manassas
64.64.8.198,4,-10,iconshock.com,US,Americas,Northern America,United States of America,Virginia,,Manassas
64.131.75.204,4,353,idoceo.net,US,Americas,Northern America,United States of America,Virginia,,Manassas
216.22.25.48,4,19,incrawler.com,US,Americas,Northern America,United States of America,Virginia,,Manassas
64.131.78.210,4,769,interfilmes.com,US,Americas,Northern America,United States of America,Virginia,,Manassas
207.58.180.238,4,2363,islam101.com,US,Americas,Northern America,United States of America,Virginia,,Manassas
108.62.122.45,4,12,jackastors.com,US,Americas,Northern America,United States of America,Virginia,,Manassas
64.64.1.91,4,0,jca-online.com,US,Americas,Northern America,United States of America,Virginia,,Manassas
108.62.121.160,4,1,jimbovard.com,US,Americas,Northern America,United States of America,Virginia,,Manassas
207.58.134.117,4,6,jordanmatter.com,US,Americas,Northern America,United States of America,Virginia,,Manassas
207.58.187.134,4,840,kanchankabra.com,US,Americas,Northern America,United States of America,Virginia,,Manassas
216.22.3.92,4,-1,keywiki.org,US,Americas,Northern America,United States of America,Virginia,,Manassas
199.115.115.6,4,10,lavag.org,US,Americas,Northern America,United States of America,Virginia,,Manassas
207.58.141.49,4,-35671,lawyerment.com,US,Americas,Northern America,United States of America,Virginia,,Manassas
206.214.223.192,4,532,lucifereffect.com,US,Americas,Northern America,United States of America,Virginia,,Manassas
207.58.180.20,4,113,madofftrustee.com,US,Americas,Northern America,United States of America,Virginia,,Manassas
64.131.79.121,4,73,maltzmuseum.org,US,Americas,Northern America,United States of America,Virginia,,Manassas
216.22.25.54,4,-535,mangabookshelf.com,US,Americas,Northern America,United States of America,Virginia,,Manassas
207.58.166.120,4,992,math2.org,US,Americas,Northern America,United States of America,Virginia,,Manassas
207.58.164.227,4,0,mayyam.com,US,Americas,Northern America,United States of America,Virginia,,Manassas
108.62.122.124,4,50,megaputer.com,US,Americas,Northern America,United States of America,Virginia,,Manassas
23.82.12.36,4,16,metro2033game.com,US,Americas,Northern America,United States of America,Virginia,,Manassas
64.64.2.45,4,-26,mikvah.org,US,Americas,Northern America,United States of America,Virginia,,Manassas
209.51.171.162,4,9635,milharal.org,US,Americas,Northern America,United States of America,Virginia,,Manassas
207.58.187.166,4,0,monkeyhappy.com,US,Americas,Northern America,United States of America,Virginia,,Manassas
206.214.222.73,4,26,mybusinessdevelopmentacademy.com,US,Americas,Northern America,United States of America,Virginia,,Manassas
108.62.121.82,4,-1,naturalsciences.org,US,Americas,Northern America,United States of America,Virginia,,Manassas
216.38.52.98,4,751,omaha.net,US,Americas,Northern America,United States of America,Virginia,,Manassas
198.7.61.98,4,-207,oplara.com,US,Americas,Northern America,United States of America,Virginia,,Manassas
199.38.119.116,4,679,paynesvillearea.com,US,Americas,Northern America,United States of America,Virginia,,Manassas
207.58.141.86,4,390,pepipoo.com,US,Americas,Northern America,United States of America,Virginia,,Manassas
216.22.7.178,4,27,petris.org,US,Americas,Northern America,United States of America,Virginia,,Manassas
108.62.122.126,4,19,photoshopcontest.com,US,Americas,Northern America,United States of America,Virginia,,Manassas
206.214.222.78,4,761,premierexhibitions.com,US,Americas,Northern America,United States of America,Virginia,,Manassas
64.64.9.206,4,-2,qualitycomix.com,US,Americas,Northern America,United States of America,Virginia,,Manassas
199.115.115.116,4,43,quantum-soft.net,US,Americas,Northern America,United States of America,Virginia,,Manassas
207.58.135.124,4,4,rearesor.se,US,Americas,Northern America,United States of America,Virginia,,Manassas
64.64.0.204,4,127,ribs.com,US,Americas,Northern America,United States of America,Virginia,,Manassas
207.58.189.11,4,-207,ross-tech.com,US,Americas,Northern America,United States of America,Virginia,,Manassas
199.167.41.125,4,102,roundcubeplus.com,US,Americas,Northern America,United States of America,Virginia,,Manassas
207.58.155.232,4,-161,scottflyrod.com,US,Americas,Northern America,United States of America,Virginia,,Manassas
64.64.1.90,4,1,seascape-resort.com,US,Americas,Northern America,United States of America,Virginia,,Manassas
108.62.122.227,4,8,secretworldlegends.com,US,Americas,Northern America,United States of America,Virginia,,Manassas
108.62.122.209,4,0,securityarms.com,US,Americas,Northern America,United States of America,Virginia,,Manassas
23.82.10.210,4,-1,sellvia.com,US,Americas,Northern America,United States of America,Virginia,,Manassas
23.105.39.78,4,22,sisweb.com,US,Americas,Northern America,United States of America,Virginia,,Manassas
207.58.178.135,4,3,slipperybrick.com,US,Americas,Northern America,United States of America,Virginia,,Manassas
108.62.121.103,4,23,smartwastesystems.com,US,Americas,Northern America,United States of America,Virginia,,Manassas
64.131.65.128,4,407,societyofcomposers.org,US,Americas,Northern America,United States of America,Virginia,,Manassas
64.131.73.113,4,2,spinrewriter.com,US,Americas,Northern America,United States of America,Virginia,,Manassas
64.64.9.184,4,770,sports-king.com,US,Americas,Northern America,United States of America,Virginia,,Manassas
64.64.0.182,4,40,sportscardchecklist.com,US,Americas,Northern America,United States of America,Virginia,,Manassas
216.22.24.158,4,-7,steelbeasts.com,US,Americas,Northern America,United States of America,Virginia,,Manassas
216.22.1.58,4,0,studads.com,US,Americas,Northern America,United States of America,Virginia,,Manassas
64.64.4.18,4,841,survivingtheworld.net,US,Americas,Northern America,United States of America,Virginia,,Manassas
64.131.76.170,4,656,sv650.org,US,Americas,Northern America,United States of America,Virginia,,Manassas
64.131.74.142,4,-205,tabledit.com,US,Americas,Northern America,United States of America,Virginia,,Manassas
23.82.9.22,4,-1,tazarasite.com,US,Americas,Northern America,United States of America,Virginia,,Manassas
207.58.189.101,4,37,themathworksheetsite.com,US,Americas,Northern America,United States of America,Virginia,,Manassas
199.58.87.176,4,482,theshoppingway.com,US,Americas,Northern America,United States of America,Virginia,,Manassas
216.38.54.203,4,11,thinksimplenow.com,US,Americas,Northern America,United States of America,Virginia,,Manassas
5.8.93.86,4,13,todayinliterature.com,US,Americas,Northern America,United States of America,Virginia,,Manassas
207.58.128.11,4,2,todoperro.es,US,Americas,Northern America,United States of America,Virginia,,Manassas
64.64.14.252,4,-3,torontoharbour.com,US,Americas,Northern America,United States of America,Virginia,,Manassas
207.58.130.93,4,-9,travelling.gr,US,Americas,Northern America,United States of America,Virginia,,Manassas
207.58.163.106,4,15,trinicenter.com,US,Americas,Northern America,United States of America,Virginia,,Manassas
207.58.161.104,4,17,trinidadandtobagonews.com,US,Americas,Northern America,United States of America,Virginia,,Manassas
216.22.3.89,4,-4,tungstenringsco.com,US,Americas,Northern America,United States of America,Virginia,,Manassas
216.22.26.165,4,766,urmotors.com,US,Americas,Northern America,United States of America,Virginia,,Manassas
192.96.201.99,4,18,velan.com,US,Americas,Northern America,United States of America,Virginia,,Manassas
64.131.81.199,4,-67,viemu.com,US,Americas,Northern America,United States of America,Virginia,,Manassas
64.64.13.177,4,0,visit-thassos.com,US,Americas,Northern America,United States of America,Virginia,,Manassas
207.58.161.89,4,4,vwaudiforum.co.uk,US,Americas,Northern America,United States of America,Virginia,,Manassas
64.131.64.78,4,42,wakeboarder.com,US,Americas,Northern America,United States of America,Virginia,,Manassas
38.27.106.126,4,7,wasabisys.com,US,Americas,Northern America,United States of America,Virginia,,Manassas
38.27.106.124,4,2,wasabisys.com,US,Americas,Northern America,United States of America,Virginia,,Manassas
38.27.106.101,4,9,wasabisys.com,US,Americas,Northern America,United States of America,Virginia,,Manassas
38.27.106.107,4,24,wasabisys.com,US,Americas,Northern America,United States of America,Virginia,,Manassas
38.27.106.123,4,40,wasabisys.com,US,Americas,Northern America,United States of America,Virginia,,Manassas
38.27.106.118,4,14,wasabisys.com,US,Americas,Northern America,United States of America,Virginia,,Manassas
38.27.106.117,4,8,wasabisys.com,US,Americas,Northern America,United States of America,Virginia,,Manassas
38.27.106.108,4,3,wasabisys.com,US,Americas,Northern America,United States of America,Virginia,,Manassas
38.27.106.122,4,5,wasabisys.com,US,Americas,Northern America,United States of America,Virginia,,Manassas
38.27.106.119,4,10,wasabisys.com,US,Americas,Northern America,United States of America,Virginia,,Manassas
38.27.106.100,4,18,wasabisys.com,US,Americas,Northern America,United States of America,Virginia,,Manassas
38.27.106.105,4,4,wasabisys.com,US,Americas,Northern America,United States of America,Virginia,,Manassas
38.27.106.109,4,2,wasabisys.com,US,Americas,Northern America,United States of America,Virginia,,Manassas
38.27.106.102,4,17,wasabisys.com,US,Americas,Northern America,United States of America,Virginia,,Manassas
38.27.106.125,4,3,wasabisys.com,US,Americas,Northern America,United States of America,Virginia,,Manassas
38.27.106.120,4,9,wasabisys.com,US,Americas,Northern America,United States of America,Virginia,,Manassas
38.27.106.106,4,39,wasabisys.com,US,Americas,Northern America,United States of America,Virginia,,Manassas
38.27.106.104,4,14,wasabisys.com,US,Americas,Northern America,United States of America,Virginia,,Manassas
38.27.106.121,4,28,wasabisys.com,US,Americas,Northern America,United States of America,Virginia,,Manassas
38.27.106.103,4,17,wasabisys.com,US,Americas,Northern America,United States of America,Virginia,,Manassas
64.64.16.140,4,379,weapons-universe.com,US,Americas,Northern America,United States of America,Virginia,,Manassas
108.62.121.34,4,32,wearethecure.org,US,Americas,Northern America,United States of America,Virginia,,Manassas
108.62.121.161,4,13,weboficial.com,US,Americas,Northern America,United States of America,Virginia,,Manassas
216.22.21.83,4,0,wilsoninfo.com,US,Americas,Northern America,United States of America,Virginia,,Manassas
207.58.129.220,4,0,wirns.com,US,Americas,Northern America,United States of America,Virginia,,Manassas
209.50.248.183,4,-1,wmdirectory.com,US,Americas,Northern America,United States of America,Virginia,,Manassas
64.131.70.105,4,5,workawesome.com,US,Americas,Northern America,United States of America,Virginia,,Manassas
206.214.223.16,4,414,worldgolfimax.com,US,Americas,Northern America,United States of America,Virginia,,Manassas
207.58.184.202,4,8,writinglaunch.com,US,Americas,Northern America,United States of America,Virginia,,Manassas
216.22.25.177,4,3,xoxohth.com,US,Americas,Northern America,United States of America,Virginia,,Manassas
207.58.163.220,4,461,yaquinalights.org,US,Americas,Northern America,United States of America,Virginia,,Manassas
64.131.81.91,4,4,zenoswarbirdvideos.com,US,Americas,Northern America,United States of America,Virginia,,Manassas
64.64.7.228,4,0,zhpmafia.com,US,Americas,Northern America,United States of America,Virginia,,Manassas
