reflector_ip,ip_version,offset,description,country_code,region,sub_region,country_name,sub_division_1,sub_division_2,city
15.204.212.47,4,550,abcnotation.com,US,Americas,Northern America,United States of America,Virginia,,Reston
15.204.183.6,4,58,all-funeralhomes.com,US,Americas,Northern America,United States of America,Virginia,,Reston
15.204.233.172,4,5,beginlinux.com,US,Americas,Northern America,United States of America,Virginia,,Reston
15.204.183.93,4,4,bloxy.info,US,Americas,Northern America,United States of America,Virginia,,Reston
15.204.162.220,4,6,bloxy.info,US,Americas,Northern America,United States of America,Virginia,,Reston
38.135.93.90,4,5,carahsoft.com,US,Americas,Northern America,United States of America,Virginia,,Reston
15.204.164.224,4,21,dirtyelvis.com,US,Americas,Northern America,United States of America,Virginia,,Reston
15.204.140.74,4,26,diycraftsguru.com,US,Americas,Northern America,United States of America,Virginia,,Reston
15.204.205.247,4,7,dmv.pub,US,Americas,Northern America,United States of America,Virginia,,Reston
15.204.163.179,4,4,draftsite.com,US,Americas,Northern America,United States of America,Virginia,,Reston
15.204.143.34,4,4,galen.org,US,Americas,Northern America,United States of America,Virginia,,Reston
15.204.128.179,4,3,getspace.us,US,Americas,Northern America,United States of America,Virginia,,Reston
38.70.11.198,4,10,goodsync.com,US,Americas,Northern America,United States of America,Virginia,,Reston
38.135.93.145,4,4,govevents.com,US,Americas,Northern America,United States of America,Virginia,,Reston
135.148.59.7,4,4,huntcompanies.com,US,Americas,Northern America,United States of America,Virginia,,Reston
15.204.169.113,4,20,isagrading.com,US,Americas,Northern America,United States of America,Virginia,,Reston
15.204.130.77,4,2,kentuckyoralhistory.org,US,Americas,Northern America,United States of America,Virginia,,Reston
15.204.158.184,4,26,lemon-directory.com,US,Americas,Northern America,United States of America,Virginia,,Reston
15.204.183.45,4,5,libraryh3lp.com,US,Americas,Northern America,United States of America,Virginia,,Reston
5.254.43.90,4,50,lightcast.com,US,Americas,Northern America,United States of America,Virginia,,Reston
15.204.224.23,4,2,makohemp.com,US,Americas,Northern America,United States of America,Virginia,,Reston
15.204.164.217,4,34,mesonhotel.com,US,Americas,Northern America,United States of America,Virginia,,Reston
15.204.133.33,4,3,minetanbodyskin.com,US,Americas,Northern America,United States of America,Virginia,,Reston
15.204.235.40,4,20,neosounds.com,US,Americas,Northern America,United States of America,Virginia,,Reston
15.204.188.54,4,6,nowyekran.net,US,Americas,Northern America,United States of America,Virginia,,Reston
15.204.182.196,4,4,ofwlaw.com,US,Americas,Northern America,United States of America,Virginia,,Reston
135.148.55.54,4,5,olevod.com,US,Americas,Northern America,United States of America,Virginia,,Reston
15.204.169.108,4,-13,onelifecollective.com,US,Americas,Northern America,United States of America,Virginia,,Reston
15.204.169.114,4,7,pedspace.com,US,Americas,Northern America,United States of America,Virginia,,Reston
15.204.198.183,4,5,permitsearch.net,US,Americas,Northern America,United States of America,Virginia,,Reston
15.204.227.234,4,25,quickpostads.com,US,Americas,Northern America,United States of America,Virginia,,Reston
15.204.212.46,4,38,realeducated.com,US,Americas,Northern America,United States of America,Virginia,,Reston
38.70.11.196,4,53,roboform.com,US,Americas,Northern America,United States of America,Virginia,,Reston
135.148.40.146,4,33,sanctuaryoftruth.com,US,Americas,Northern America,United States of America,Virginia,,Reston
15.204.239.92,4,19,segaxtreme.net,US,Americas,Northern America,United States of America,Virginia,,Reston
15.204.190.152,4,2,sgocstore.com,US,Americas,Northern America,United States of America,Virginia,,Reston
15.204.229.202,4,16,shaarli.org,US,Americas,Northern America,United States of America,Virginia,,Reston
15.204.228.118,4,0,shedsunlimited.net,US,Americas,Northern America,United States of America,Virginia,,Reston
15.204.130.71,4,4,stoa.org,US,Americas,Northern America,United States of America,Virginia,,Reston
15.204.204.69,4,4,sybridge.com,US,Americas,Northern America,United States of America,Virginia,,Reston
135.148.59.1,4,5,tecma.com,US,Americas,Northern America,United States of America,Virginia,,Reston
15.204.247.180,4,7,tonylowes.com,US,Americas,Northern America,United States of America,Virginia,,Reston
15.204.227.82,4,3,vincennes.org,US,Americas,Northern America,United States of America,Virginia,,Reston
15.204.232.22,4,428,xlx120.com,US,Americas,Northern America,United States of America,Virginia,,Reston
