reflector_ip,ip_version,offset,description,country_code,region,sub_region,country_name,sub_division_1,sub_division_2,city
108.163.250.190,4,-394,360global.ca,US,Americas,Northern America,United States of America,Virginia,,Onley
184.154.125.138,4,4,90minut.pl,US,Americas,Northern America,United States of America,Virginia,,Onley
198.136.48.242,4,15,abileweb.com,US,Americas,Northern America,United States of America,Virginia,,Onley
198.136.59.40,4,11367,algamcomercial.com.br,US,Americas,Northern America,United States of America,Virginia,,Onley
198.136.61.181,4,-174,asoft.be,US,Americas,Northern America,United States of America,Virginia,,Onley
107.150.63.42,4,18,atlapedia.com,US,Americas,Northern America,United States of America,Virginia,,Onley
184.154.113.148,4,455,batorynutra.com,US,Americas,Northern America,United States of America,Virginia,,Onley
198.136.59.4,4,12391,brasildebate.com.br,US,Americas,Northern America,United States of America,Virginia,,Onley
184.154.120.237,4,453,butterflyonline.com,US,Americas,Northern America,United States of America,Virginia,,Onley
108.163.224.66,4,873,cambodialandminemuseum.org,US,Americas,Northern America,United States of America,Virginia,,Onley
198.136.59.206,4,131,captadores.org.br,US,Americas,Northern America,United States of America,Virginia,,Onley
108.163.230.234,4,4,chivmen.com,US,Americas,Northern America,United States of America,Virginia,,Onley
184.154.120.9,4,104,dailywav.com,US,Americas,Northern America,United States of America,Virginia,,Onley
198.136.58.130,4,-156,diariolalibertad.com,US,Americas,Northern America,United States of America,Virginia,,Onley
107.150.51.82,4,116053,ebluejay.com,US,Americas,Northern America,United States of America,Virginia,,Onley
198.136.62.218,4,758,ensegundos.do,US,Americas,Northern America,United States of America,Virginia,,Onley
89.163.241.185,4,5,euro-voyages.com,US,Americas,Northern America,United States of America,Virginia,,Onley
108.163.248.67,4,4,fullblog.com.ar,US,Americas,Northern America,United States of America,Virginia,,Onley
108.163.248.66,4,2,fullmovil.com.ar,US,Americas,Northern America,United States of America,Virginia,,Onley
184.154.120.138,4,455,hardrockcasinolaketahoe.com,US,Americas,Northern America,United States of America,Virginia,,Onley
198.136.62.112,4,475,hisystem.com.ar,US,Americas,Northern America,United States of America,Virginia,,Onley
198.136.54.34,4,-23,hunwhatsfordinner.com,US,Americas,Northern America,United States of America,Virginia,,Onley
184.154.120.132,4,770,infiniterecovery.com,US,Americas,Northern America,United States of America,Virginia,,Onley
198.136.50.214,4,3,isthisthatfood.com,US,Americas,Northern America,United States of America,Virginia,,Onley
198.136.51.194,4,-85,jahvmcgregor.com.co,US,Americas,Northern America,United States of America,Virginia,,Onley
198.136.62.113,4,471,joyeriacontemporanea.cl,US,Americas,Northern America,United States of America,Virginia,,Onley
184.154.120.246,4,23,ladygunn.com,US,Americas,Northern America,United States of America,Virginia,,Onley
108.163.252.82,4,1109,newcitymovers.com,US,Americas,Northern America,United States of America,Virginia,,Onley
108.163.242.134,4,30,onepaper.com,US,Americas,Northern America,United States of America,Virginia,,Onley
66.85.77.106,4,45,openrss.org,US,Americas,Northern America,United States of America,Virginia,,Onley
184.154.120.193,4,238,organicaromas.com,US,Americas,Northern America,United States of America,Virginia,,Onley
108.163.247.106,4,746,piecechicago.com,US,Americas,Northern America,United States of America,Virginia,,Onley
198.136.59.199,4,595,portaltributario.com.br,US,Americas,Northern America,United States of America,Virginia,,Onley
66.85.73.245,4,25,red-d-arc.com,US,Americas,Northern America,United States of America,Virginia,,Onley
89.163.242.236,4,35,romanticcollection.ru,US,Americas,Northern America,United States of America,Virginia,,Onley
66.85.73.162,4,0,runeforums.net,US,Americas,Northern America,United States of America,Virginia,,Onley
89.163.253.120,4,68,sendhwapublicschool.com,US,Americas,Northern America,United States of America,Virginia,,Onley
184.154.120.60,4,23,sharktankrecap.com,US,Americas,Northern America,United States of America,Virginia,,Onley
66.85.79.67,4,14,slackbuilds.org,US,Americas,Northern America,United States of America,Virginia,,Onley
108.163.241.99,4,-302,slapfishrestaurant.com,US,Americas,Northern America,United States of America,Virginia,,Onley
198.136.61.196,4,612,sousamendesfoundation.org,US,Americas,Northern America,United States of America,Virginia,,Onley
108.163.248.187,4,439,subitomusic.com,US,Americas,Northern America,United States of America,Virginia,,Onley
184.154.120.151,4,356,thecheerfulkitchen.com,US,Americas,Northern America,United States of America,Virginia,,Onley
198.136.61.56,4,-136,thecrystalmethod.com,US,Americas,Northern America,United States of America,Virginia,,Onley
198.136.61.188,4,-91,themonsterengine.com,US,Americas,Northern America,United States of America,Virginia,,Onley
66.85.73.234,4,-2,themushroomkingdom.net,US,Americas,Northern America,United States of America,Virginia,,Onley
198.136.50.213,4,-4,therecipepot.com,US,Americas,Northern America,United States of America,Virginia,,Onley
198.136.48.164,4,6,thinkpads.com,US,Americas,Northern America,United States of America,Virginia,,Onley
198.136.50.212,4,6,twofeetfirst.net,US,Americas,Northern America,United States of America,Virginia,,Onley
198.136.61.249,4,930,unoticket.com,US,Americas,Northern America,United States of America,Virginia,,Onley
184.154.120.210,4,28,usacustomsclearance.com,US,Americas,Northern America,United States of America,Virginia,,Onley
108.163.225.126,4,16,warriorscove.com,US,Americas,Northern America,United States of America,Virginia,,Onley
198.136.61.225,4,117,webref.org,US,Americas,Northern America,United States of America,Virginia,,Onley
108.163.242.106,4,21,webweaver.nu,US,Americas,Northern America,United States of America,Virginia,,Onley
184.154.118.34,4,968,week99er.com,US,Americas,Northern America,United States of America,Virginia,,Onley
184.154.120.27,4,29,westernlaw.org,US,Americas,Northern America,United States of America,Virginia,,Onley
198.136.50.215,4,1,wildwildwhisk.com,US,Americas,Northern America,United States of America,Virginia,,Onley
198.136.53.98,4,-130,wysework.com,US,Americas,Northern America,United States of America,Virginia,,Onley
107.150.55.243,4,0,xsixs.com,US,Americas,Northern America,United States of America,Virginia,,Onley
198.136.50.216,4,-7,zestysouthindiankitchen.com,US,Americas,Northern America,United States of America,Virginia,,Onley
108.163.255.210,4,200,zyttkj.com,US,Americas,Northern America,United States of America,Virginia,,Onley
