reflector_ip,ip_version,offset,description,country_code,region,sub_region,country_name,sub_division_1,sub_division_2,city
173.208.209.170,4,8,977wmoi.com,US,Americas,Northern America,United States of America,Virginia,,Hallwood
107.161.177.122,4,-171,asthmaandallergies.org,US,Americas,Northern America,United States of America,Virginia,,Hallwood
184.154.155.10,4,12,avanset.com,US,Americas,Northern America,United States of America,Virginia,,Hallwood
173.208.214.114,4,-2009,bankwithsouthern.com,US,Americas,Northern America,United States of America,Virginia,,Hallwood
198.20.92.65,4,1480,casinoasia.co.kr,US,Americas,Northern America,United States of America,Virginia,,Hallwood
107.161.179.178,4,57,communistsforkerry.com,US,Americas,Northern America,United States of America,Virginia,,Hallwood
184.154.156.27,4,5,consolenergy.com,US,Americas,Northern America,United States of America,Virginia,,Hallwood
173.208.172.90,4,8,crypto-city.com,US,Americas,Northern America,United States of America,Virginia,,Hallwood
107.161.176.210,4,-316,davidgoggins.com,US,Americas,Northern America,United States of America,Virginia,,Hallwood
198.20.92.38,4,3298,epicbundle.com,US,Americas,Northern America,United States of America,Virginia,,Hallwood
107.161.176.42,4,-141,equalexchange.com,US,Americas,Northern America,United States of America,Virginia,,Hallwood
107.161.188.178,4,-129,guiaosorno.cl,US,Americas,Northern America,United States of America,Virginia,,Hallwood
198.20.92.30,4,774,iclubs.ca,US,Americas,Northern America,United States of America,Virginia,,Hallwood
184.154.156.6,4,6,imsu.edu.ng,US,Americas,Northern America,United States of America,Virginia,,Hallwood
198.20.92.69,4,576,influencerdb.net,US,Americas,Northern America,United States of America,Virginia,,Hallwood
107.161.177.50,4,330,infographicjournal.com,US,Americas,Northern America,United States of America,Virginia,,Hallwood
198.20.86.106,4,442,ipe.org.pe,US,Americas,Northern America,United States of America,Virginia,,Hallwood
173.208.183.194,4,-89874,jejaringsosial.com,US,Americas,Northern America,United States of America,Virginia,,Hallwood
198.20.92.85,4,-1103,jpfolks.com,US,Americas,Northern America,United States of America,Virginia,,Hallwood
173.208.228.122,4,2,kasterborous.com,US,Americas,Northern America,United States of America,Virginia,,Hallwood
107.161.181.189,4,526,kitchen-concoctions.com,US,Americas,Northern America,United States of America,Virginia,,Hallwood
107.161.178.194,4,6,lapiramidequiz.it,US,Americas,Northern America,United States of America,Virginia,,Hallwood
107.161.178.210,4,24,mattias.nu,US,Americas,Northern America,United States of America,Virginia,,Hallwood
198.20.92.33,4,715,mpc-clan.com,US,Americas,Northern America,United States of America,Virginia,,Hallwood
107.161.180.42,4,245,noticiasdecolima.com,US,Americas,Northern America,United States of America,Virginia,,Hallwood
173.208.138.201,4,10,owensvalleyhistory.com,US,Americas,Northern America,United States of America,Virginia,,Hallwood
173.208.137.67,4,21,pinclipart.com,US,Americas,Northern America,United States of America,Virginia,,Hallwood
173.208.131.102,4,7,pngaaa.com,US,Americas,Northern America,United States of America,Virginia,,Hallwood
107.161.187.146,4,618,pwpix.net,US,Americas,Northern America,United States of America,Virginia,,Hallwood
184.154.157.176,4,4,review-script.com,US,Americas,Northern America,United States of America,Virginia,,Hallwood
173.208.152.218,4,13,rideschedules.com,US,Americas,Northern America,United States of America,Virginia,,Hallwood
107.161.190.200,4,8,seminarsonly.com,US,Americas,Northern America,United States of America,Virginia,,Hallwood
173.208.166.234,4,29,somebits.com,US,Americas,Northern America,United States of America,Virginia,,Hallwood
107.161.178.43,4,-132,spacecamp.com,US,Americas,Northern America,United States of America,Virginia,,Hallwood
198.20.90.34,4,-439,tanishawalia.com,US,Americas,Northern America,United States of America,Virginia,,Hallwood
173.208.151.26,4,-176439,usmm.org,US,Americas,Northern America,United States of America,Virginia,,Hallwood
173.208.169.54,4,20,wardom.org,US,Americas,Northern America,United States of America,Virginia,,Hallwood
107.161.181.181,4,533,whatgreatgrandmaate.com,US,Americas,Northern America,United States of America,Virginia,,Hallwood
173.208.153.114,4,23,wpgeodirectory.com,US,Americas,Northern America,United States of America,Virginia,,Hallwood
