reflector_ip,ip_version,offset,description,country_code,region,sub_region,country_name,sub_division_1,sub_division_2,city
173.236.127.3,4,8,activeeatingadvice.com,US,Americas,Northern America,United States of America,Virginia,,New Church
173.236.7.112,4,101,agrisafe.org,US,Americas,Northern America,United States of America,Virginia,,New Church
173.236.74.194,4,5,amylhowe.com,US,Americas,Northern America,United States of America,Virginia,,New Church
173.236.56.11,4,395,betterchinatown.com,US,Americas,Northern America,United States of America,Virginia,,New Church
173.236.103.115,4,-1,bigwebmaster.com,US,Americas,Northern America,United States of America,Virginia,,New Church
173.236.55.94,4,43,calsci.com,US,Americas,Northern America,United States of America,Virginia,,New Church
173.236.24.138,4,220,chartmasters.org,US,Americas,Northern America,United States of America,Virginia,,New Church
173.236.88.166,4,2,cvoeo.org,US,Americas,Northern America,United States of America,Virginia,,New Church
173.236.7.153,4,659,datascienceassn.org,US,Americas,Northern America,United States of America,Virginia,,New Church
173.236.43.85,4,8,davidharrisjr.com,US,Americas,Northern America,United States of America,Virginia,,New Church
173.236.65.46,4,3408536,dgliteracy.org,US,Americas,Northern America,United States of America,Virginia,,New Church
173.236.61.180,4,-180,dobi.nu,US,Americas,Northern America,United States of America,Virginia,,New Church
173.236.100.114,4,658,e-venise.com,US,Americas,Northern America,United States of America,Virginia,,New Church
173.236.117.234,4,500,eco-web.com,US,Americas,Northern America,United States of America,Virginia,,New Church
173.236.117.133,4,-1,emilypost.com,US,Americas,Northern America,United States of America,Virginia,,New Church
173.236.112.233,4,4,extrememotorsales.com,US,Americas,Northern America,United States of America,Virginia,,New Church
173.236.33.146,4,-9,herveleger.us,US,Americas,Northern America,United States of America,Virginia,,New Church
173.236.10.59,4,172,indelibleinc.com,US,Americas,Northern America,United States of America,Virginia,,New Church
173.236.87.61,4,78,interlakeninn.com,US,Americas,Northern America,United States of America,Virginia,,New Church
173.236.55.174,4,10,islamweb.net,US,Americas,Northern America,United States of America,Virginia,,New Church
173.236.55.172,4,4,islamweb.net,US,Americas,Northern America,United States of America,Virginia,,New Church
173.236.55.173,4,39,islamweb.net,US,Americas,Northern America,United States of America,Virginia,,New Church
173.236.96.34,4,703,logikmemorial.ca,US,Americas,Northern America,United States of America,Virginia,,New Church
173.236.55.92,4,9,louisvilledowntown.org,US,Americas,Northern America,United States of America,Virginia,,New Church
173.236.108.204,4,-326,mmogchart.com,US,Americas,Northern America,United States of America,Virginia,,New Church
173.236.63.6,4,970,nasmhpd.org,US,Americas,Northern America,United States of America,Virginia,,New Church
173.236.127.43,4,10,ozline.com,US,Americas,Northern America,United States of America,Virginia,,New Church
173.236.95.18,4,530,parkdalecialumni.com,US,Americas,Northern America,United States of America,Virginia,,New Church
173.236.93.237,4,75,renault.com.eg,US,Americas,Northern America,United States of America,Virginia,,New Church
173.236.8.42,4,5,sexwithdrjess.com,US,Americas,Northern America,United States of America,Virginia,,New Church
173.236.7.129,4,675,shambhalamountain.org,US,Americas,Northern America,United States of America,Virginia,,New Church
173.236.108.247,4,36,skivermont.com,US,Americas,Northern America,United States of America,Virginia,,New Church
173.236.50.147,4,973,smallfarmersjournal.com,US,Americas,Northern America,United States of America,Virginia,,New Church
173.236.96.235,4,53,stand.earth,US,Americas,Northern America,United States of America,Virginia,,New Church
173.236.101.146,4,-293,thebeautyinsiders.com,US,Americas,Northern America,United States of America,Virginia,,New Church
173.236.127.29,4,1,thedcline.org,US,Americas,Northern America,United States of America,Virginia,,New Church
173.236.95.104,4,11,therolladailynews.com,US,Americas,Northern America,United States of America,Virginia,,New Church
173.236.95.83,4,4,totalprestigemagazine.com,US,Americas,Northern America,United States of America,Virginia,,New Church
173.236.65.234,4,178,usdailyreview.com,US,Americas,Northern America,United States of America,Virginia,,New Church
173.236.93.99,4,14,vermont211.org,US,Americas,Northern America,United States of America,Virginia,,New Church
173.236.117.131,4,36,vermonthistory.org,US,Americas,Northern America,United States of America,Virginia,,New Church
173.236.90.253,4,1,vermontmaple.org,US,Americas,Northern America,United States of America,Virginia,,New Church
173.236.100.118,4,658,visit-venice-italy.com,US,Americas,Northern America,United States of America,Virginia,,New Church
173.236.47.94,4,841,wabagrill.com,US,Americas,Northern America,United States of America,Virginia,,New Church
173.236.7.41,4,225,worklocal.com.au,US,Americas,Northern America,United States of America,Virginia,,New Church
173.236.127.6,4,3,xpmath.com,US,Americas,Northern America,United States of America,Virginia,,New Church
