reflector_ip,ip_version,offset,description,country_code,region,sub_region,country_name,sub_division_1,sub_division_2,city
173.232.170.96,4,6,420marijuanastocks.com,US,Americas,Northern America,United States of America,Virginia,,Bloxom
173.232.251.104,4,20,asicsisrael.com,US,Americas,Northern America,United States of America,Virginia,,Bloxom
184.171.244.2,4,1302,atlasofpluckedinstruments.com,US,Americas,Northern America,United States of America,Virginia,,Bloxom
184.171.246.3,4,1425,centralpark.org,US,Americas,Northern America,United States of America,Virginia,,Bloxom
184.171.249.203,4,-132,dreamtemplate.com,US,Americas,Northern America,United States of America,Virginia,,Bloxom
184.171.251.6,4,3,eat-drink-love.com,US,Americas,Northern America,United States of America,Virginia,,Bloxom
184.171.244.57,4,458,edwardianpromenade.com,US,Americas,Northern America,United States of America,Virginia,,Bloxom
184.171.249.194,4,-150,evrsoft.com,US,Americas,Northern America,United States of America,Virginia,,Bloxom
173.232.223.82,4,106842,fqdiy.com,US,Americas,Northern America,United States of America,Virginia,,Bloxom
184.171.249.202,4,-130,freethemelayouts.com,US,Americas,Northern America,United States of America,Virginia,,Bloxom
184.171.244.216,4,-108,greekarchitects.gr,US,Americas,Northern America,United States of America,Virginia,,Bloxom
173.232.202.130,4,2,gzhy2002.com,US,Americas,Northern America,United States of America,Virginia,,Bloxom
184.171.243.222,4,578,hellolittlehome.com,US,Americas,Northern America,United States of America,Virginia,,Bloxom
184.171.244.146,4,-160,iatis.org,US,Americas,Northern America,United States of America,Virginia,,Bloxom
184.171.249.199,4,-130,imhosted.com,US,Americas,Northern America,United States of America,Virginia,,Bloxom
184.171.244.70,4,744,itstodiefor.ca,US,Americas,Northern America,United States of America,Virginia,,Bloxom
184.171.244.38,4,1145,jewishledger.com,US,Americas,Northern America,United States of America,Virginia,,Bloxom
184.171.244.30,4,1314,lacda.com,US,Americas,Northern America,United States of America,Virginia,,Bloxom
184.171.244.129,4,28,lord-of-the-rings.org,US,Americas,Northern America,United States of America,Virginia,,Bloxom
184.171.243.212,4,552,lowcarbmaven.com,US,Americas,Northern America,United States of America,Virginia,,Bloxom
184.171.244.200,4,-73,mapco.net,US,Americas,Northern America,United States of America,Virginia,,Bloxom
184.171.248.33,4,35,movie-page.com,US,Americas,Northern America,United States of America,Virginia,,Bloxom
184.171.251.7,4,-33,mykitchenlove.com,US,Americas,Northern America,United States of America,Virginia,,Bloxom
173.232.213.251,4,5,nwdieselandauto.com,US,Americas,Northern America,United States of America,Virginia,,Bloxom
184.171.244.205,4,-130,pedagogica.edu.sv,US,Americas,Northern America,United States of America,Virginia,,Bloxom
173.232.252.96,4,22,ramixtace.com,US,Americas,Northern America,United States of America,Virginia,,Bloxom
173.232.162.242,4,14169,salutleskids.com,US,Americas,Northern America,United States of America,Virginia,,Bloxom
184.171.251.10,4,-57,simplywhisked.com,US,Americas,Northern America,United States of America,Virginia,,Bloxom
184.171.251.13,4,-72,sweet2eatbaking.com,US,Americas,Northern America,United States of America,Virginia,,Bloxom
184.171.243.214,4,556,tastythin.com,US,Americas,Northern America,United States of America,Virginia,,Bloxom
184.171.244.81,4,1041,tekmaterial.com,US,Americas,Northern America,United States of America,Virginia,,Bloxom
184.171.249.218,4,226,templatesold.com,US,Americas,Northern America,United States of America,Virginia,,Bloxom
184.171.243.217,4,563,thatslowcarb.com,US,Americas,Northern America,United States of America,Virginia,,Bloxom
184.171.243.218,4,565,thecrumbycupcake.com,US,Americas,Northern America,United States of America,Virginia,,Bloxom
184.171.244.170,4,-135,upsettherhythm.co.uk,US,Americas,Northern America,United States of America,Virginia,,Bloxom
184.171.251.12,4,-44,wholeheartedeats.com,US,Americas,Northern America,United States of America,Virginia,,Bloxom
184.171.244.221,4,-130,wsoj.net,US,Americas,Northern America,United States of America,Virginia,,Bloxom
184.171.244.207,4,-128,zojoi.com,US,Americas,Northern America,United States of America,Virginia,,Bloxom
