reflector_ip,ip_version,offset,description,country_code,region,sub_region,country_name,sub_division_1,sub_division_2,city
170.155.20.15,4,15354710,abc.gov.ar,AR,Americas,Latin America and the Caribbean,Argentina,Buenos Aires,,La Plata
181.119.48.15,4,6,acara.org.ar,AR,Americas,Latin America and the Caribbean,Argentina,Buenos Aires,,Merlo
200.51.93.116,4,37,anlis.gov.ar,AR,Americas,Latin America and the Caribbean,Argentina,Buenos Aires,,Isidro Casanova
190.111.209.74,4,-2975,argentinosporlaeducacion.org,AR,Americas,Latin America and the Caribbean,Argentina,Buenos Aires,,Buenos Aires
190.1.1.200,4,107060,bahiablanca.gov.ar,AR,Americas,Latin America and the Caribbean,Argentina,Buenos Aires,,Bahía Blanca
190.103.192.17,4,19,celt.com.ar,AR,Americas,Latin America and the Caribbean,Argentina,Buenos Aires,,Tornquist
186.0.229.34,4,4,cij.gov.ar,AR,Americas,Latin America and the Caribbean,Argentina,Buenos Aires,,Buenos Aires
186.33.216.37,4,8,cordoba.gov.ar,AR,Americas,Latin America and the Caribbean,Argentina,Buenos Aires,,Buenos Aires
181.209.107.118,4,60,DNS Server: 118.107.209.181.in-addr.arpa,AR,Americas,Latin America and the Caribbean,Argentina,Buenos Aires,,Zárate
186.0.171.147,4,2111,DNS Server: 147.171.0.186.acerca.com.ar,AR,Americas,Latin America and the Caribbean,Argentina,Buenos Aires,,Junín
200.41.199.148,4,1700,DNS Server: 148.host.advance.com.ar,AR,Americas,Latin America and the Caribbean,Argentina,Buenos Aires,,Valentín Alsina
181.209.105.154,4,16495,DNS Server: 154.105.209.181.in-addr.arpa,AR,Americas,Latin America and the Caribbean,Argentina,Buenos Aires,,San Carlos de Bolívar
181.209.105.156,4,16442,DNS Server: 156.105.209.181.in-addr.arpa,AR,Americas,Latin America and the Caribbean,Argentina,Buenos Aires,,San Carlos de Bolívar
200.10.111.176,4,182,DNS Server: 176.host.advance.com.ar,AR,Americas,Latin America and the Caribbean,Argentina,Buenos Aires,,Ituzaingó
200.41.192.185,4,35,DNS Server: 185.host.advance.com.ar,AR,Americas,Latin America and the Caribbean,Argentina,Buenos Aires,,San Justo
186.177.193.186,4,-13706538,DNS Server: 186-193-177-186.interbourg.com.ar.193.177.186.in-addr.arpa,AR,Americas,Latin America and the Caribbean,Argentina,Buenos Aires,,Grand Bourg
190.1.6.14,4,196767,DNS Server: 190-1-6-14.bvconline.com.ar,AR,Americas,Latin America and the Caribbean,Argentina,Buenos Aires,,Bahía Blanca
190.184.254.21,4,6746,DNS Server: 190-184-254-21.interfacenet.ar,AR,Americas,Latin America and the Caribbean,Argentina,Buenos Aires,,Lomas de Zamora
200.112.143.5,4,1,DNS Server: 200-112-143-5.bbt.net.ar,AR,Americas,Latin America and the Caribbean,Argentina,Buenos Aires,,Tres Lomas
200.24.244.60,4,5408,DNS Server: 200-24-244-60.jsnet.com.ar,AR,Americas,Latin America and the Caribbean,Argentina,Buenos Aires,,América
181.209.104.203,4,64,DNS Server: 203.104.209.181.in-addr.arpa,AR,Americas,Latin America and the Caribbean,Argentina,Buenos Aires,,San Nicolás de los Arroyos
186.177.202.211,4,-12435063,DNS Server: 211-202-177-186.interbourg.com.ar.202.177.186.in-addr.arpa,AR,Americas,Latin America and the Caribbean,Argentina,Buenos Aires,,Grand Bourg
181.209.104.234,4,14,DNS Server: 234.104.209.181.in-addr.arpa,AR,Americas,Latin America and the Caribbean,Argentina,Buenos Aires,,San Nicolás de los Arroyos
181.209.87.236,4,10,DNS Server: 236.87.209.181.in-addr.arpa,AR,Americas,Latin America and the Caribbean,Argentina,Buenos Aires,,Guaminí
186.148.137.253,4,23,DNS Server: 253.cxxxvii.static.eternet.cc,AR,Americas,Latin America and the Caribbean,Argentina,Buenos Aires,,Tres Arroyos
186.177.193.30,4,-17149817,DNS Server: 30-193-177-186.interbourg.com.ar.193.177.186.in-addr.arpa,AR,Americas,Latin America and the Caribbean,Argentina,Buenos Aires,,Grand Bourg
190.192.84.31,4,9,DNS Server: 31-84-192-190.cab.prima.net.ar,AR,Americas,Latin America and the Caribbean,Argentina,Buenos Aires,,Buenos Aires
186.177.223.60,4,6,DNS Server: 60-223-177-186.interbourg.com.ar.223.177.186.in-addr.arpa,AR,Americas,Latin America and the Caribbean,Argentina,Buenos Aires,,Grand Bourg
200.80.227.228,4,-30,DNS Server: claro200-228.palermoslots.com.ar,AR,Americas,Latin America and the Caribbean,Argentina,Buenos Aires,,Buenos Aires
181.47.173.124,4,3947,DNS Server: cpe-181-47-173-124.telecentro-reversos.com.ar,AR,Americas,Latin America and the Caribbean,Argentina,Buenos Aires,,Quilmes
186.22.37.130,4,240,DNS Server: cpe-186-22-37-130.telecentro-reversos.com.ar,AR,Americas,Latin America and the Caribbean,Argentina,Buenos Aires,,Villa Ballester
186.19.51.57,4,5026,DNS Server: cpe-190-55-251-57.telecentro-reversos.com.ar,AR,Americas,Latin America and the Caribbean,Argentina,Buenos Aires,,Buenos Aires
190.210.245.247,4,7851,DNS Server: customer-static-210-245-247.iplannetworks.net,AR,Americas,Latin America and the Caribbean,Argentina,Buenos Aires,,Buenos Aires
190.210.93.45,4,86,DNS Server: customer-static-210-93-45.iplannetworks.net,AR,Americas,Latin America and the Caribbean,Argentina,Buenos Aires,,Lanús
190.9.0.144,4,-1,DNS Server: host-190.9.0.144.copetel.net.ar,AR,Americas,Latin America and the Caribbean,Argentina,Buenos Aires,,Mar del Plata
190.3.119.34,4,85073,DNS Server: host34.190-3-119.telmex.net.ar,AR,Americas,Latin America and the Caribbean,Argentina,Buenos Aires,,Beccar
190.111.209.34,4,-68639,DNS Server: host34.209.111.190.cps.com.ar,AR,Americas,Latin America and the Caribbean,Argentina,Buenos Aires,,Buenos Aires
190.0.236.22,4,285,DNS Server: red236.0.021-tl.cetl.com.ar,AR,Americas,Latin America and the Caribbean,Argentina,Buenos Aires,,Trenque Lauquen
186.33.208.25,4,9,educ.ar,AR,Americas,Latin America and the Caribbean,Argentina,Buenos Aires,,Buenos Aires
181.119.146.11,4,39,espaciomemoria.ar,AR,Americas,Latin America and the Caribbean,Argentina,Buenos Aires,,Buenos Aires
190.1.0.80,4,-2,hidramic.com,AR,Americas,Latin America and the Caribbean,Argentina,Buenos Aires,,Bahía Blanca
186.33.208.223,4,12,infd.edu.ar,AR,Americas,Latin America and the Caribbean,Argentina,Buenos Aires,,Buenos Aires
200.51.96.75,4,3,inidep.edu.ar,AR,Americas,Latin America and the Caribbean,Argentina,Buenos Aires,,Mar del Plata
190.112.136.27,4,195,Ookla Speedtest Server 15516: speedtest.cyminternetsrl.com.ar,AR,Americas,Latin America and the Caribbean,Argentina,Buenos Aires,,Zárate
190.111.216.202,4,278,Ookla Speedtest Server 18908: speedtest2.metrotel.com.ar,AR,Americas,Latin America and the Caribbean,Argentina,Buenos Aires,,Buenos Aires
186.148.135.21,4,220,Ookla Speedtest Server 54268: speedtest104.eternet.cc,AR,Americas,Latin America and the Caribbean,Argentina,Buenos Aires,,Bahía Blanca
190.83.64.254,4,386,Ookla Speedtest Server 58201: speedtest.newfix.net,AR,Americas,Latin America and the Caribbean,Argentina,Buenos Aires,,San Juan Bautista
190.14.32.70,4,298,Ookla Speedtest Server 59786: speedtest.avcdigital.com.ar,AR,Americas,Latin America and the Caribbean,Argentina,Buenos Aires,,Santa Teresita
181.191.223.130,4,335,Ookla Speedtest Server 60111: speed.conexionsur.net,AR,Americas,Latin America and the Caribbean,Argentina,Buenos Aires,,Monte Grande
168.196.140.70,4,338,Ookla Speedtest Server 61196: speedvln.wiredcom.com.ar,AR,Americas,Latin America and the Caribbean,Argentina,Buenos Aires,,Tigre
190.104.195.170,4,8755,quilmes.gov.ar,AR,Americas,Latin America and the Caribbean,Argentina,Buenos Aires,,Buenos Aires
200.10.113.125,4,19,susanabalbowines.com.ar,AR,Americas,Latin America and the Caribbean,Argentina,Buenos Aires,,San Justo
200.61.218.69,4,974,tucuman.gov.ar,AR,Americas,Latin America and the Caribbean,Argentina,Buenos Aires,,Rafael Castillo
181.117.7.38,4,-3,ucel.edu.ar,AR,Americas,Latin America and the Caribbean,Argentina,Buenos Aires,,Florida
177.200.236.55,4,0,unaj.edu.ar,AR,Americas,Latin America and the Caribbean,Argentina,Buenos Aires,,La Plata
170.210.44.211,4,4,unipe.edu.ar,AR,Americas,Latin America and the Caribbean,Argentina,Buenos Aires,,Rafael Castillo
200.124.178.2,4,2,unnoba.edu.ar,AR,Americas,Latin America and the Caribbean,Argentina,Buenos Aires,,Junín
207.248.74.35,4,1,unq.edu.ar,AR,Americas,Latin America and the Caribbean,Argentina,Buenos Aires,,Bernal
