reflector_ip,ip_version,offset,description,country_code,region,sub_region,country_name,sub_division_1,sub_division_2,city
62.169.28.44,4,6,360stepeni.mk,DE,Europe,Western Europe,Germany,North Rhine-Westphalia,,Düsseldorf
185.188.249.235,4,4,a-coding-project.de,DE,Europe,Western Europe,Germany,North Rhine-Westphalia,,Düsseldorf
185.169.252.109,4,25,abandonsocios.org,DE,Europe,Western Europe,Germany,North Rhine-Westphalia,,Düsseldorf
75.119.141.99,4,17,abletocontract.com,DE,Europe,Western Europe,Germany,North Rhine-Westphalia,,Düsseldorf
84.247.168.26,4,3,abolajiadeola.com,DE,Europe,Western Europe,Germany,North Rhine-Westphalia,,Düsseldorf
161.97.161.132,4,14,acgpubs.org,DE,Europe,Western Europe,Germany,North Rhine-Westphalia,,Düsseldorf
185.198.27.176,4,5,adamant.im,DE,Europe,Western Europe,Germany,North Rhine-Westphalia,,Düsseldorf
38.242.253.165,4,22,aerotim.ro,DE,Europe,Western Europe,Germany,North Rhine-Westphalia,,Düsseldorf
109.199.117.54,4,-1,africacloudspace.com,DE,Europe,Western Europe,Germany,North Rhine-Westphalia,,Düsseldorf
194.163.128.235,4,36,africanfashionista.com,DE,Europe,Western Europe,Germany,North Rhine-Westphalia,,Düsseldorf
195.145.8.10,4,14,agrolab.com,DE,Europe,Western Europe,Germany,North Rhine-Westphalia,,Düsseldorf
80.83.116.60,4,24,airportbus-muenchen.de,DE,Europe,Western Europe,Germany,North Rhine-Westphalia,,Düsseldorf
38.242.232.50,4,4,albchat.al,DE,Europe,Western Europe,Germany,North Rhine-Westphalia,,Düsseldorf
80.65.211.11,4,37,alkalay.net,DE,Europe,Western Europe,Germany,North Rhine-Westphalia,,Düsseldorf
85.190.254.137,4,4,allinfo.space,DE,Europe,Western Europe,Germany,North Rhine-Westphalia,,Düsseldorf
178.18.246.19,4,24,allmendenetz.de,DE,Europe,Western Europe,Germany,North Rhine-Westphalia,,Düsseldorf
185.245.183.118,4,3,alltebfamily.com,DE,Europe,Western Europe,Germany,North Rhine-Westphalia,,Düsseldorf
75.119.147.85,4,9,alltrades.ru,DE,Europe,Western Europe,Germany,North Rhine-Westphalia,,Düsseldorf
75.119.137.149,4,42,antidos.com,DE,Europe,Western Europe,Germany,North Rhine-Westphalia,,Düsseldorf
178.18.248.48,4,14,aquafeed.com,DE,Europe,Western Europe,Germany,North Rhine-Westphalia,,Düsseldorf
185.217.126.54,4,126,arcfonts.com,DE,Europe,Western Europe,Germany,North Rhine-Westphalia,,Düsseldorf
185.215.165.69,4,23,arrowos.net,DE,Europe,Western Europe,Germany,North Rhine-Westphalia,,Düsseldorf
194.163.167.54,4,52,asetrad.org,DE,Europe,Western Europe,Germany,North Rhine-Westphalia,,Düsseldorf
84.247.168.173,4,48,ativanx.com,DE,Europe,Western Europe,Germany,North Rhine-Westphalia,,Düsseldorf
38.242.243.150,4,39,audiotag.info,DE,Europe,Western Europe,Germany,North Rhine-Westphalia,,Düsseldorf
161.97.173.243,4,-8,ayom.media,DE,Europe,Western Europe,Germany,North Rhine-Westphalia,,Düsseldorf
194.163.135.255,4,6,babystepsuae.com,DE,Europe,Western Europe,Germany,North Rhine-Westphalia,,Düsseldorf
104.122.38.204,4,64,bankaustria.at,DE,Europe,Western Europe,Germany,North Rhine-Westphalia,,Düsseldorf
194.163.136.42,4,13,bannerovysystem.cz,DE,Europe,Western Europe,Germany,North Rhine-Westphalia,,Düsseldorf
80.83.126.200,4,3,basiccolor.de,DE,Europe,Western Europe,Germany,North Rhine-Westphalia,,Düsseldorf
38.242.249.43,4,11,beldelog.com,DE,Europe,Western Europe,Germany,North Rhine-Westphalia,,Düsseldorf
75.119.159.11,4,4,belfant1.top,DE,Europe,Western Europe,Germany,North Rhine-Westphalia,,Düsseldorf
80.83.116.62,4,49,berufundfamilie.de,DE,Europe,Western Europe,Germany,North Rhine-Westphalia,,Düsseldorf
38.242.131.144,4,132,bervelingtuinen.nl,DE,Europe,Western Europe,Germany,North Rhine-Westphalia,,Düsseldorf
75.119.152.244,4,6,bestroom.one,DE,Europe,Western Europe,Germany,North Rhine-Westphalia,,Düsseldorf
38.242.236.78,4,4,betting-kenya.ke,DE,Europe,Western Europe,Germany,North Rhine-Westphalia,,Düsseldorf
84.54.23.19,4,16,bfmufa.ru,DE,Europe,Western Europe,Germany,North Rhine-Westphalia,,Düsseldorf
161.97.149.244,4,11,bicitalia.org,DE,Europe,Western Europe,Germany,North Rhine-Westphalia,,Düsseldorf
195.88.87.151,4,73,bisol.it,DE,Europe,Western Europe,Germany,North Rhine-Westphalia,,Düsseldorf
84.46.245.165,4,48,bit.tube,DE,Europe,Western Europe,Germany,North Rhine-Westphalia,,Düsseldorf
161.97.135.85,4,13,bitcomet.com,DE,Europe,Western Europe,Germany,North Rhine-Westphalia,,Düsseldorf
84.46.245.73,4,98,blesmrt.net,DE,Europe,Western Europe,Germany,North Rhine-Westphalia,,Düsseldorf
75.119.131.84,4,6,bloog.it,DE,Europe,Western Europe,Germany,North Rhine-Westphalia,,Düsseldorf
37.60.241.127,4,-569,brabu.net,DE,Europe,Western Europe,Germany,North Rhine-Westphalia,,Düsseldorf
38.242.139.134,4,7,branex.ca,DE,Europe,Western Europe,Germany,North Rhine-Westphalia,,Düsseldorf
185.218.125.245,4,38,buraydahcity.net,DE,Europe,Western Europe,Germany,North Rhine-Westphalia,,Düsseldorf
84.247.188.75,4,-24,byturen.com,DE,Europe,Western Europe,Germany,North Rhine-Westphalia,,Düsseldorf
185.255.131.4,4,3,cablefreetv.org,DE,Europe,Western Europe,Germany,North Rhine-Westphalia,,Düsseldorf
185.229.119.48,4,76,cactuslanguagetraining.com,DE,Europe,Western Europe,Germany,North Rhine-Westphalia,,Düsseldorf
38.242.195.187,4,19,cagl.com,DE,Europe,Western Europe,Germany,North Rhine-Westphalia,,Düsseldorf
31.187.74.239,4,3,car-bd.com,DE,Europe,Western Europe,Germany,North Rhine-Westphalia,,Düsseldorf
161.97.163.231,4,16,careclimatechange.org,DE,Europe,Western Europe,Germany,North Rhine-Westphalia,,Düsseldorf
75.119.151.251,4,27,cartcoders.com,DE,Europe,Western Europe,Germany,North Rhine-Westphalia,,Düsseldorf
31.187.74.237,4,38,casainvest.ma,DE,Europe,Western Europe,Germany,North Rhine-Westphalia,,Düsseldorf
80.83.125.105,4,43,cashcab.org,DE,Europe,Western Europe,Germany,North Rhine-Westphalia,,Düsseldorf
84.46.240.60,4,10,cavramholdings.co.ke,DE,Europe,Western Europe,Germany,North Rhine-Westphalia,,Düsseldorf
178.18.242.37,4,2,cbw.ge,DE,Europe,Western Europe,Germany,North Rhine-Westphalia,,Düsseldorf
109.199.124.109,4,4,cch-rc.com,DE,Europe,Western Europe,Germany,North Rhine-Westphalia,,Düsseldorf
161.97.130.135,4,5,centronazionalesangue.it,DE,Europe,Western Europe,Germany,North Rhine-Westphalia,,Düsseldorf
75.119.144.226,4,4,certastampa.it,DE,Europe,Western Europe,Germany,North Rhine-Westphalia,,Düsseldorf
194.163.174.55,4,14,changelifeorganization.org,DE,Europe,Western Europe,Germany,North Rhine-Westphalia,,Düsseldorf
194.163.162.34,4,26,chromeis.com,DE,Europe,Western Europe,Germany,North Rhine-Westphalia,,Düsseldorf
185.229.119.97,4,2,ciento29.com,DE,Europe,Western Europe,Germany,North Rhine-Westphalia,,Düsseldorf
84.247.161.13,4,7,ciff.org.eg,DE,Europe,Western Europe,Germany,North Rhine-Westphalia,,Düsseldorf
185.193.17.228,4,5,cinseleczane.biz,DE,Europe,Western Europe,Germany,North Rhine-Westphalia,,Düsseldorf
77.237.241.252,4,101,classifiedadwebsite.com,DE,Europe,Western Europe,Germany,North Rhine-Westphalia,,Düsseldorf
185.182.186.220,4,8,clickmiamibeach.com,DE,Europe,Western Europe,Germany,North Rhine-Westphalia,,Düsseldorf
185.209.230.63,4,5,clublivetracker.com,DE,Europe,Western Europe,Germany,North Rhine-Westphalia,,Düsseldorf
176.57.184.10,4,4,cm-lagos.pt,DE,Europe,Western Europe,Germany,North Rhine-Westphalia,,Düsseldorf
81.17.103.59,4,4,cncostruzioni.com,DE,Europe,Western Europe,Germany,North Rhine-Westphalia,,Düsseldorf
45.88.223.215,4,62,cogita.ru,DE,Europe,Western Europe,Germany,North Rhine-Westphalia,,Düsseldorf
161.97.159.202,4,5,colegiosanagustin.edu.ve,DE,Europe,Western Europe,Germany,North Rhine-Westphalia,,Düsseldorf
31.220.72.145,4,6,comptoirmarrakech.com,DE,Europe,Western Europe,Germany,North Rhine-Westphalia,,Düsseldorf
161.97.142.144,4,3,copy-trade.fun,DE,Europe,Western Europe,Germany,North Rhine-Westphalia,,Düsseldorf
38.242.217.162,4,8,cratosroyalbet.info,DE,Europe,Western Europe,Germany,North Rhine-Westphalia,,Düsseldorf
194.163.180.209,4,43,cryptodon.lol,DE,Europe,Western Europe,Germany,North Rhine-Westphalia,,Düsseldorf
185.249.227.236,4,7,cumbriacq.com,DE,Europe,Western Europe,Germany,North Rhine-Westphalia,,Düsseldorf
161.97.148.187,4,8,cyprusceramicassociation.com,DE,Europe,Western Europe,Germany,North Rhine-Westphalia,,Düsseldorf
89.107.64.155,4,78,daemlich.net,DE,Europe,Western Europe,Germany,North Rhine-Westphalia,,Düsseldorf
38.242.195.146,4,3,dagobah.net,DE,Europe,Western Europe,Germany,North Rhine-Westphalia,,Düsseldorf
38.242.215.86,4,6,dawhois.com,DE,Europe,Western Europe,Germany,North Rhine-Westphalia,,Düsseldorf
89.117.55.140,4,5,dbzer0.com,DE,Europe,Western Europe,Germany,North Rhine-Westphalia,,Düsseldorf
85.114.136.161,4,4,ddnss.de,DE,Europe,Western Europe,Germany,North Rhine-Westphalia,,Düsseldorf
80.83.116.26,4,4,deichkind.de,DE,Europe,Western Europe,Germany,North Rhine-Westphalia,,Düsseldorf
161.97.147.6,4,7,delta4x4.com,DE,Europe,Western Europe,Germany,North Rhine-Westphalia,,Düsseldorf
185.217.126.159,4,98,depahcon.com,DE,Europe,Western Europe,Germany,North Rhine-Westphalia,,Düsseldorf
185.239.209.168,4,216,desportonalinha.com,DE,Europe,Western Europe,Germany,North Rhine-Westphalia,,Düsseldorf
38.242.206.144,4,3,destimap.com,DE,Europe,Western Europe,Germany,North Rhine-Westphalia,,Düsseldorf
213.199.34.154,4,6,dharma-haven.org,DE,Europe,Western Europe,Germany,North Rhine-Westphalia,,Düsseldorf
80.83.122.201,4,8,dieseher.de,DE,Europe,Western Europe,Germany,North Rhine-Westphalia,,Düsseldorf
161.97.185.6,4,115,digitalexpertzone.com,DE,Europe,Western Europe,Germany,North Rhine-Westphalia,,Düsseldorf
75.119.150.241,4,54,digitalimpak.com,DE,Europe,Western Europe,Germany,North Rhine-Westphalia,,Düsseldorf
185.225.232.76,4,8,diredonna.it,DE,Europe,Western Europe,Germany,North Rhine-Westphalia,,Düsseldorf
38.242.193.219,4,30,diredonna.it,DE,Europe,Western Europe,Germany,North Rhine-Westphalia,,Düsseldorf
84.46.255.163,4,3,discus.sh,DE,Europe,Western Europe,Germany,North Rhine-Westphalia,,Düsseldorf
89.116.31.249,4,73,DNS Server: fw-01.dus.agostini.cloud,DE,Europe,Western Europe,Germany,North Rhine-Westphalia,,Düsseldorf
5.199.130.141,4,5,DNS Server: git.envs.net,DE,Europe,Western Europe,Germany,North Rhine-Westphalia,,Düsseldorf
94.79.137.62,4,99,DNS Server: ip-094-079-137-062.um30.pools.vodafone-ip.de,DE,Europe,Western Europe,Germany,North Rhine-Westphalia,,Düsseldorf
82.208.21.54,4,5,DNS Server: ip-54-21-208-82.static.contabo.net,DE,Europe,Western Europe,Germany,North Rhine-Westphalia,,Düsseldorf
75.119.137.99,4,6,DNS Server: ip-99-137-119-75.static.contabo.net,DE,Europe,Western Europe,Germany,North Rhine-Westphalia,,Düsseldorf
109.123.242.219,4,481,DNS Server: mail.krotken.de,DE,Europe,Western Europe,Germany,North Rhine-Westphalia,,Düsseldorf
84.46.255.127,4,261,DNS Server: vmd103849.contaboserver.net,DE,Europe,Western Europe,Germany,North Rhine-Westphalia,,Düsseldorf
178.18.253.47,4,339,DNS Server: vmd74145.contaboserver.net,DE,Europe,Western Europe,Germany,North Rhine-Westphalia,,Düsseldorf
38.242.130.33,4,-287155,DNS Server: vmi1025599.contaboserver.net,DE,Europe,Western Europe,Germany,North Rhine-Westphalia,,Düsseldorf
83.171.248.164,4,305,DNS Server: vmi1041381.contaboserver.net,DE,Europe,Western Europe,Germany,North Rhine-Westphalia,,Düsseldorf
89.117.63.151,4,319,DNS Server: vmi1119592.contaboserver.net,DE,Europe,Western Europe,Germany,North Rhine-Westphalia,,Düsseldorf
89.117.53.246,4,305,DNS Server: vmi1128446.contaboserver.net,DE,Europe,Western Europe,Germany,North Rhine-Westphalia,,Düsseldorf
178.18.244.83,4,318,DNS Server: vmi1129904.contaboserver.net,DE,Europe,Western Europe,Germany,North Rhine-Westphalia,,Düsseldorf
184.174.35.175,4,315,DNS Server: vmi1195043.contaboserver.net,DE,Europe,Western Europe,Germany,North Rhine-Westphalia,,Düsseldorf
38.242.150.124,4,305,DNS Server: vmi1204382.contaboserver.net,DE,Europe,Western Europe,Germany,North Rhine-Westphalia,,Düsseldorf
38.242.202.187,4,292,DNS Server: vmi1223702.contaboserver.net,DE,Europe,Western Europe,Germany,North Rhine-Westphalia,,Düsseldorf
75.119.155.205,4,150,DNS Server: vmi564252.contaboserver.net,DE,Europe,Western Europe,Germany,North Rhine-Westphalia,,Düsseldorf
185.217.127.208,4,169,DNS Server: vmi699320.contaboserver.net,DE,Europe,Western Europe,Germany,North Rhine-Westphalia,,Düsseldorf
161.97.173.194,4,180,DNS Server: vmi792738.contaboserver.net,DE,Europe,Western Europe,Germany,North Rhine-Westphalia,,Düsseldorf
85.208.51.11,4,180,DNS Server: vmi922652.contaboserver.net,DE,Europe,Western Europe,Germany,North Rhine-Westphalia,,Düsseldorf
38.242.142.51,4,173,DNS Server: vmi926893.contaboserver.net,DE,Europe,Western Europe,Germany,North Rhine-Westphalia,,Düsseldorf
38.242.234.165,4,68,DNS Server: vmi995641.contaboserver.net,DE,Europe,Western Europe,Germany,North Rhine-Westphalia,,Düsseldorf
194.242.56.237,4,2,donnuet.edu.ua,DE,Europe,Western Europe,Germany,North Rhine-Westphalia,,Düsseldorf
217.76.54.48,4,2,download-free-fonts.com,DE,Europe,Western Europe,Germany,North Rhine-Westphalia,,Düsseldorf
194.163.145.92,4,3,dt-goettingen.de,DE,Europe,Western Europe,Germany,North Rhine-Westphalia,,Düsseldorf
185.218.126.44,4,80,duken.nl,DE,Europe,Western Europe,Germany,North Rhine-Westphalia,,Düsseldorf
176.57.150.53,4,3,dvsph.net,DE,Europe,Western Europe,Germany,North Rhine-Westphalia,,Düsseldorf
109.199.125.91,4,6,dwj.io,DE,Europe,Western Europe,Germany,North Rhine-Westphalia,,Düsseldorf
38.242.204.246,4,5,eforienet.ro,DE,Europe,Western Europe,Germany,North Rhine-Westphalia,,Düsseldorf
75.119.159.75,4,45,elementaryforums.com,DE,Europe,Western Europe,Germany,North Rhine-Westphalia,,Düsseldorf
75.119.143.149,4,-1,elovebook.com,DE,Europe,Western Europe,Germany,North Rhine-Westphalia,,Düsseldorf
185.135.137.224,4,27,elsurti.com,DE,Europe,Western Europe,Germany,North Rhine-Westphalia,,Düsseldorf
185.135.137.46,4,47,elvenezolanonews.com,DE,Europe,Western Europe,Germany,North Rhine-Westphalia,,Düsseldorf
75.119.148.147,4,5,energyinnova.es,DE,Europe,Western Europe,Germany,North Rhine-Westphalia,,Düsseldorf
185.245.182.39,4,3,energynews.biz,DE,Europe,Western Europe,Germany,North Rhine-Westphalia,,Düsseldorf
178.18.244.98,4,5,enveth.gr,DE,Europe,Western Europe,Germany,North Rhine-Westphalia,,Düsseldorf
31.220.87.51,4,30,erdalbilisim.net,DE,Europe,Western Europe,Germany,North Rhine-Westphalia,,Düsseldorf
178.18.246.203,4,20,exchangerates.org,DE,Europe,Western Europe,Germany,North Rhine-Westphalia,,Düsseldorf
31.220.79.160,4,5,ezybook.co.uk,DE,Europe,Western Europe,Germany,North Rhine-Westphalia,,Düsseldorf
37.60.224.110,4,0,fagoramerica.com,DE,Europe,Western Europe,Germany,North Rhine-Westphalia,,Düsseldorf
158.220.99.195,4,3,fakazahub.com,DE,Europe,Western Europe,Germany,North Rhine-Westphalia,,Düsseldorf
161.97.175.89,4,4,faveohelpdesk.com,DE,Europe,Western Europe,Germany,North Rhine-Westphalia,,Düsseldorf
158.220.113.137,4,17,fawry.com,DE,Europe,Western Europe,Germany,North Rhine-Westphalia,,Düsseldorf
158.220.110.164,4,11,femnet.org,DE,Europe,Western Europe,Germany,North Rhine-Westphalia,,Düsseldorf
185.241.151.23,4,4,fenasan.com.br,DE,Europe,Western Europe,Germany,North Rhine-Westphalia,,Düsseldorf
194.163.154.80,4,72,fetedesvendangesdemontmartre.com,DE,Europe,Western Europe,Germany,North Rhine-Westphalia,,Düsseldorf
31.220.76.145,4,4,flexithemes.com,DE,Europe,Western Europe,Germany,North Rhine-Westphalia,,Düsseldorf
185.182.184.24,4,72,flipflyers.com,DE,Europe,Western Europe,Germany,North Rhine-Westphalia,,Düsseldorf
217.76.50.29,4,5,florenceacademyofart.com,DE,Europe,Western Europe,Germany,North Rhine-Westphalia,,Düsseldorf
38.242.229.241,4,25,fnetchat.com,DE,Europe,Western Europe,Germany,North Rhine-Westphalia,,Düsseldorf
185.169.252.2,4,43,footballasia.uk,DE,Europe,Western Europe,Germany,North Rhine-Westphalia,,Düsseldorf
161.97.145.46,4,30,fosspost.org,DE,Europe,Western Europe,Germany,North Rhine-Westphalia,,Düsseldorf
194.163.141.246,4,77,fotohost.by,DE,Europe,Western Europe,Germany,North Rhine-Westphalia,,Düsseldorf
161.97.169.233,4,23,freedmr.be,DE,Europe,Western Europe,Germany,North Rhine-Westphalia,,Düsseldorf
194.163.171.133,4,12,freedost.com,DE,Europe,Western Europe,Germany,North Rhine-Westphalia,,Düsseldorf
89.116.25.27,4,8,freevstplugins.net,DE,Europe,Western Europe,Germany,North Rhine-Westphalia,,Düsseldorf
157.173.102.203,4,36,freshdesignweb.com,DE,Europe,Western Europe,Germany,North Rhine-Westphalia,,Düsseldorf
38.242.136.98,4,3,fsm.com.ua,DE,Europe,Western Europe,Germany,North Rhine-Westphalia,,Düsseldorf
38.242.138.169,4,23,furgovw.org,DE,Europe,Western Europe,Germany,North Rhine-Westphalia,,Düsseldorf
84.247.185.150,4,5,gamegpu.com,DE,Europe,Western Europe,Germany,North Rhine-Westphalia,,Düsseldorf
45.151.123.91,4,8,getrailo.org,DE,Europe,Western Europe,Germany,North Rhine-Westphalia,,Düsseldorf
185.209.223.187,4,20,geyikkimya.com,DE,Europe,Western Europe,Germany,North Rhine-Westphalia,,Düsseldorf
77.237.246.23,4,2,good-sport.co,DE,Europe,Western Europe,Germany,North Rhine-Westphalia,,Düsseldorf
45.94.209.200,4,0,gravidanzaonline.it,DE,Europe,Western Europe,Germany,North Rhine-Westphalia,,Düsseldorf
62.84.189.100,4,10,grcha.com,DE,Europe,Western Europe,Germany,North Rhine-Westphalia,,Düsseldorf
161.97.155.171,4,5,hadrasoft.com,DE,Europe,Western Europe,Germany,North Rhine-Westphalia,,Düsseldorf
92.123.12.139,4,10,hager.de,DE,Europe,Western Europe,Germany,North Rhine-Westphalia,,Düsseldorf
92.123.12.162,4,10,hager.de,DE,Europe,Western Europe,Germany,North Rhine-Westphalia,,Düsseldorf
194.163.181.61,4,3,hanielezit.info,DE,Europe,Western Europe,Germany,North Rhine-Westphalia,,Düsseldorf
185.196.21.167,4,55,harouni-urologie.com,DE,Europe,Western Europe,Germany,North Rhine-Westphalia,,Düsseldorf
62.159.226.207,4,96,harrassowitz-verlag.de,DE,Europe,Western Europe,Germany,North Rhine-Westphalia,,Düsseldorf
195.145.0.114,4,1,hb-ts.de,DE,Europe,Western Europe,Germany,North Rhine-Westphalia,,Düsseldorf
185.252.234.109,4,7,hisense.co.uk,DE,Europe,Western Europe,Germany,North Rhine-Westphalia,,Düsseldorf
84.46.242.60,4,3,hit.bg,DE,Europe,Western Europe,Germany,North Rhine-Westphalia,,Düsseldorf
2.17.22.187,4,59,hogan.com,DE,Europe,Western Europe,Germany,North Rhine-Westphalia,,Düsseldorf
2.17.22.145,4,15,hogan.com,DE,Europe,Western Europe,Germany,North Rhine-Westphalia,,Düsseldorf
80.83.126.201,4,6,hostsuche.de,DE,Europe,Western Europe,Germany,North Rhine-Westphalia,,Düsseldorf
161.97.175.82,4,6,href.hu,DE,Europe,Western Europe,Germany,North Rhine-Westphalia,,Düsseldorf
185.202.223.99,4,36,hrvzz.hr,DE,Europe,Western Europe,Germany,North Rhine-Westphalia,,Düsseldorf
38.242.156.6,4,10,icglr.org,DE,Europe,Western Europe,Germany,North Rhine-Westphalia,,Düsseldorf
5.199.135.200,4,8,impossiblegame.co,DE,Europe,Western Europe,Germany,North Rhine-Westphalia,,Düsseldorf
75.119.138.190,4,59,indithemes.com,DE,Europe,Western Europe,Germany,North Rhine-Westphalia,,Düsseldorf
37.60.228.80,4,24,insidexpress.com,DE,Europe,Western Europe,Germany,North Rhine-Westphalia,,Düsseldorf
37.60.239.54,4,-1,intensivedietarymanagement.com,DE,Europe,Western Europe,Germany,North Rhine-Westphalia,,Düsseldorf
194.163.182.106,4,3,invdes.com.mx,DE,Europe,Western Europe,Germany,North Rhine-Westphalia,,Düsseldorf
217.76.55.100,4,21,inyourfacemedia.nl,DE,Europe,Western Europe,Germany,North Rhine-Westphalia,,Düsseldorf
161.97.147.134,4,3,iptv.by,DE,Europe,Western Europe,Germany,North Rhine-Westphalia,,Düsseldorf
161.97.183.161,4,3,isindexing.com,DE,Europe,Western Europe,Germany,North Rhine-Westphalia,,Düsseldorf
161.97.176.194,4,20,itesem.edu.bo,DE,Europe,Western Europe,Germany,North Rhine-Westphalia,,Düsseldorf
158.220.119.131,4,14,iton.tv,DE,Europe,Western Europe,Germany,North Rhine-Westphalia,,Düsseldorf
213.199.54.157,4,7,itopllc.us,DE,Europe,Western Europe,Germany,North Rhine-Westphalia,,Düsseldorf
37.60.227.103,4,37,ixyt.eu,DE,Europe,Western Europe,Germany,North Rhine-Westphalia,,Düsseldorf
161.97.146.195,4,43,jegviragkft.hu,DE,Europe,Western Europe,Germany,North Rhine-Westphalia,,Düsseldorf
158.220.126.3,4,12,journalspace.com,DE,Europe,Western Europe,Germany,North Rhine-Westphalia,,Düsseldorf
89.117.53.89,4,4,jpr62.com,DE,Europe,Western Europe,Germany,North Rhine-Westphalia,,Düsseldorf
217.76.55.99,4,3,juwelia.nl,DE,Europe,Western Europe,Germany,North Rhine-Westphalia,,Düsseldorf
161.97.133.157,4,8,kehpca.org,DE,Europe,Western Europe,Germany,North Rhine-Westphalia,,Düsseldorf
149.102.136.53,4,84,kenpoly.edu.ng,DE,Europe,Western Europe,Germany,North Rhine-Westphalia,,Düsseldorf
213.199.45.145,4,4,keralabiblesociety.com,DE,Europe,Western Europe,Germany,North Rhine-Westphalia,,Düsseldorf
194.163.180.230,4,2,kimasabri.id,DE,Europe,Western Europe,Germany,North Rhine-Westphalia,,Düsseldorf
75.119.132.165,4,5,kingsofconvenience.eu,DE,Europe,Western Europe,Germany,North Rhine-Westphalia,,Düsseldorf
38.242.135.49,4,7,kodinerds.net,DE,Europe,Western Europe,Germany,North Rhine-Westphalia,,Düsseldorf
89.117.54.208,4,4,krymology.info,DE,Europe,Western Europe,Germany,North Rhine-Westphalia,,Düsseldorf
75.119.142.175,4,8,kutethemes.com,DE,Europe,Western Europe,Germany,North Rhine-Westphalia,,Düsseldorf
195.145.11.212,4,2,kzvh.de,DE,Europe,Western Europe,Germany,North Rhine-Westphalia,,Düsseldorf
75.119.141.40,4,49,legeaz.net,DE,Europe,Western Europe,Germany,North Rhine-Westphalia,,Düsseldorf
156.67.25.234,4,89,lejournaldemayotte.yt,DE,Europe,Western Europe,Germany,North Rhine-Westphalia,,Düsseldorf
75.119.134.198,4,18,letterkundigmuseum.nl,DE,Europe,Western Europe,Germany,North Rhine-Westphalia,,Düsseldorf
185.209.229.93,4,51,libricsoport.hu,DE,Europe,Western Europe,Germany,North Rhine-Westphalia,,Düsseldorf
5.199.138.5,4,-24640,linyway.com,DE,Europe,Western Europe,Germany,North Rhine-Westphalia,,Düsseldorf
2.17.22.155,4,13,lkk.com,DE,Europe,Western Europe,Germany,North Rhine-Westphalia,,Düsseldorf
2.17.22.170,4,10,lkk.com,DE,Europe,Western Europe,Germany,North Rhine-Westphalia,,Düsseldorf
89.117.49.239,4,6,lmpoman.co,DE,Europe,Western Europe,Germany,North Rhine-Westphalia,,Düsseldorf
194.163.150.80,4,98,logeek.com,DE,Europe,Western Europe,Germany,North Rhine-Westphalia,,Düsseldorf
161.97.160.252,4,1,loginbereich.net,DE,Europe,Western Europe,Germany,North Rhine-Westphalia,,Düsseldorf
62.159.226.73,4,26,lohr.de,DE,Europe,Western Europe,Germany,North Rhine-Westphalia,,Düsseldorf
38.242.241.100,4,1,luxxu.net,DE,Europe,Western Europe,Germany,North Rhine-Westphalia,,Düsseldorf
45.8.133.1,4,83,madridbetadresi.com,DE,Europe,Western Europe,Germany,North Rhine-Westphalia,,Düsseldorf
37.60.245.176,4,17,maidanmuseum.org,DE,Europe,Western Europe,Germany,North Rhine-Westphalia,,Düsseldorf
38.242.207.60,4,4,malpasoed.com,DE,Europe,Western Europe,Germany,North Rhine-Westphalia,,Düsseldorf
75.119.135.231,4,8,maniatech-academy.co.uk,DE,Europe,Western Europe,Germany,North Rhine-Westphalia,,Düsseldorf
161.97.149.50,4,19,masi.ma,DE,Europe,Western Europe,Germany,North Rhine-Westphalia,,Düsseldorf
80.83.116.252,4,20,mauritz.de,DE,Europe,Western Europe,Germany,North Rhine-Westphalia,,Düsseldorf
75.119.148.105,4,24,mavekcleaning.co.ug,DE,Europe,Western Europe,Germany,North Rhine-Westphalia,,Düsseldorf
5.199.139.234,4,13,maxibottin.com,DE,Europe,Western Europe,Germany,North Rhine-Westphalia,,Düsseldorf
31.220.76.7,4,17,mdmgreece.gr,DE,Europe,Western Europe,Germany,North Rhine-Westphalia,,Düsseldorf
86.48.0.207,4,1,mediakuzbass.ru,DE,Europe,Western Europe,Germany,North Rhine-Westphalia,,Düsseldorf
104.122.36.165,4,17,membershiprewards.com,DE,Europe,Western Europe,Germany,North Rhine-Westphalia,,Düsseldorf
37.60.249.15,4,4,merispace.in,DE,Europe,Western Europe,Germany,North Rhine-Westphalia,,Düsseldorf
80.83.116.47,4,45,mesotherapie.org,DE,Europe,Western Europe,Germany,North Rhine-Westphalia,,Düsseldorf
80.83.125.103,4,17,microhowto.info,DE,Europe,Western Europe,Germany,North Rhine-Westphalia,,Düsseldorf
194.163.168.147,4,4,minimalistquotes.com,DE,Europe,Western Europe,Germany,North Rhine-Westphalia,,Düsseldorf
213.199.57.116,4,3,mnau.xyz,DE,Europe,Western Europe,Germany,North Rhine-Westphalia,,Düsseldorf
178.18.246.182,4,23,mnetplus.in,DE,Europe,Western Europe,Germany,North Rhine-Westphalia,,Düsseldorf
194.163.165.174,4,3,mobilizon.it,DE,Europe,Western Europe,Germany,North Rhine-Westphalia,,Düsseldorf
38.242.159.24,4,5,modernipanelak.cz,DE,Europe,Western Europe,Germany,North Rhine-Westphalia,,Düsseldorf
213.199.46.132,4,49,monclair.com.br,DE,Europe,Western Europe,Germany,North Rhine-Westphalia,,Düsseldorf
92.123.17.248,4,59,msccruises.com.au,DE,Europe,Western Europe,Germany,North Rhine-Westphalia,,Düsseldorf
62.159.226.83,4,2,museen-aschaffenburg.de,DE,Europe,Western Europe,Germany,North Rhine-Westphalia,,Düsseldorf
89.107.64.165,4,25,museumsinflorence.com,DE,Europe,Western Europe,Germany,North Rhine-Westphalia,,Düsseldorf
156.67.26.125,4,16,musiktheater-im-revier.de,DE,Europe,Western Europe,Germany,North Rhine-Westphalia,,Düsseldorf
109.199.112.187,4,-17,musiktheater-im-revier.de,DE,Europe,Western Europe,Germany,North Rhine-Westphalia,,Düsseldorf
80.83.126.189,4,5,mystipendium.de,DE,Europe,Western Europe,Germany,North Rhine-Westphalia,,Düsseldorf
158.220.100.109,4,30,nachrichtenmorgen.de,DE,Europe,Western Europe,Germany,North Rhine-Westphalia,,Düsseldorf
161.97.128.45,4,12,naijaloaded.com.ng,DE,Europe,Western Europe,Germany,North Rhine-Westphalia,,Düsseldorf
185.217.125.224,4,3,nashiargan.it,DE,Europe,Western Europe,Germany,North Rhine-Westphalia,,Düsseldorf
158.220.100.36,4,3,naturalvaherba.co.id,DE,Europe,Western Europe,Germany,North Rhine-Westphalia,,Düsseldorf
84.247.137.27,4,30,navalpost.com,DE,Europe,Western Europe,Germany,North Rhine-Westphalia,,Düsseldorf
185.252.233.185,4,2,navidiku.rs,DE,Europe,Western Europe,Germany,North Rhine-Westphalia,,Düsseldorf
94.250.203.13,4,10,neptunbad.de,DE,Europe,Western Europe,Germany,North Rhine-Westphalia,,Düsseldorf
38.242.146.157,4,23,nerkinet.com,DE,Europe,Western Europe,Germany,North Rhine-Westphalia,,Düsseldorf
149.102.141.131,4,760,netzwerk-courage.de,DE,Europe,Western Europe,Germany,North Rhine-Westphalia,,Düsseldorf
161.97.169.59,4,4,newshustle.co.uk,DE,Europe,Western Europe,Germany,North Rhine-Westphalia,,Düsseldorf
109.199.102.217,4,4,ngprague.cz,DE,Europe,Western Europe,Germany,North Rhine-Westphalia,,Düsseldorf
80.83.113.80,4,39,nicowolter.de,DE,Europe,Western Europe,Germany,North Rhine-Westphalia,,Düsseldorf
38.242.232.111,4,1,nordichardware.se,DE,Europe,Western Europe,Germany,North Rhine-Westphalia,,Düsseldorf
2.17.22.144,4,30,nvsgames.com,DE,Europe,Western Europe,Germany,North Rhine-Westphalia,,Düsseldorf
2.17.22.193,4,38,nvsgames.com,DE,Europe,Western Europe,Germany,North Rhine-Westphalia,,Düsseldorf
62.169.27.102,4,14,ogenhyipmon.info,DE,Europe,Western Europe,Germany,North Rhine-Westphalia,,Düsseldorf
194.163.177.80,4,25,oilsandherbs.co.uk,DE,Europe,Western Europe,Germany,North Rhine-Westphalia,,Düsseldorf
5.199.136.153,4,12284,okwork.site,DE,Europe,Western Europe,Germany,North Rhine-Westphalia,,Düsseldorf
38.242.237.154,4,6,olivebarandkitchen.com,DE,Europe,Western Europe,Germany,North Rhine-Westphalia,,Düsseldorf
38.242.232.125,4,4,onetimeinteriors.com,DE,Europe,Western Europe,Germany,North Rhine-Westphalia,,Düsseldorf
185.6.69.66,4,310,Ookla Speedtest Server 28624: speedtest.hk-net.de,DE,Europe,Western Europe,Germany,North Rhine-Westphalia,,Düsseldorf
185.153.54.250,4,372,Ookla Speedtest Server 63237: speedtest01.netmountains.space,DE,Europe,Western Europe,Germany,North Rhine-Westphalia,,Düsseldorf
31.220.90.251,4,56,opalindia.in,DE,Europe,Western Europe,Germany,North Rhine-Westphalia,,Düsseldorf
38.242.218.9,4,4,openclonk.org,DE,Europe,Western Europe,Germany,North Rhine-Westphalia,,Düsseldorf
62.169.29.75,4,16,orenairport.ru,DE,Europe,Western Europe,Germany,North Rhine-Westphalia,,Düsseldorf
75.119.145.104,4,1,otakupt.com,DE,Europe,Western Europe,Germany,North Rhine-Westphalia,,Düsseldorf
31.220.74.44,4,3,otroscines.com,DE,Europe,Western Europe,Germany,North Rhine-Westphalia,,Düsseldorf
178.18.248.163,4,3,ozerov.de,DE,Europe,Western Europe,Germany,North Rhine-Westphalia,,Düsseldorf
38.242.231.36,4,4,palauvalencia.com,DE,Europe,Western Europe,Germany,North Rhine-Westphalia,,Düsseldorf
158.220.126.122,4,14,palmettoscoop.com,DE,Europe,Western Europe,Germany,North Rhine-Westphalia,,Düsseldorf
104.115.82.18,4,11,pangleglobal.com,DE,Europe,Western Europe,Germany,North Rhine-Westphalia,,Düsseldorf
104.115.82.24,4,17,pangleglobal.com,DE,Europe,Western Europe,Germany,North Rhine-Westphalia,,Düsseldorf
176.57.150.4,4,4,papachina.com,DE,Europe,Western Europe,Germany,North Rhine-Westphalia,,Düsseldorf
45.13.59.138,4,29,parrilladonjulio.com.ar,DE,Europe,Western Europe,Germany,North Rhine-Westphalia,,Düsseldorf
193.203.15.155,4,8,periodicotribuna.com.ar,DE,Europe,Western Europe,Germany,North Rhine-Westphalia,,Düsseldorf
194.163.128.16,4,44,peruancestral.com,DE,Europe,Western Europe,Germany,North Rhine-Westphalia,,Düsseldorf
184.174.36.58,4,40,pickleballspots.com,DE,Europe,Western Europe,Germany,North Rhine-Westphalia,,Düsseldorf
161.97.178.148,4,4,pixolinks.com,DE,Europe,Western Europe,Germany,North Rhine-Westphalia,,Düsseldorf
158.220.96.214,4,18,pizza.it,DE,Europe,Western Europe,Germany,North Rhine-Westphalia,,Düsseldorf
81.17.99.177,4,26,pow.cx,DE,Europe,Western Europe,Germany,North Rhine-Westphalia,,Düsseldorf
45.13.59.140,4,50,premiumwanadoo.com,DE,Europe,Western Europe,Germany,North Rhine-Westphalia,,Düsseldorf
217.76.59.31,4,71,profilbaru.com,DE,Europe,Western Europe,Germany,North Rhine-Westphalia,,Düsseldorf
158.220.105.246,4,23,profitrealestate.ru,DE,Europe,Western Europe,Germany,North Rhine-Westphalia,,Düsseldorf
84.247.140.141,4,16,programming.vip,DE,Europe,Western Europe,Germany,North Rhine-Westphalia,,Düsseldorf
212.90.120.201,4,40,promed-sd.com,DE,Europe,Western Europe,Germany,North Rhine-Westphalia,,Düsseldorf
212.47.65.35,4,7,qsl.lt,DE,Europe,Western Europe,Germany,North Rhine-Westphalia,,Düsseldorf
194.163.178.235,4,24,qualityinverters.co.za,DE,Europe,Western Europe,Germany,North Rhine-Westphalia,,Düsseldorf
185.182.187.234,4,44,reigroup.co.tz,DE,Europe,Western Europe,Germany,North Rhine-Westphalia,,Düsseldorf
38.242.145.16,4,-75037,rethnea.gr,DE,Europe,Western Europe,Germany,North Rhine-Westphalia,,Düsseldorf
37.60.243.235,4,2,riyapola.com,DE,Europe,Western Europe,Germany,North Rhine-Westphalia,,Düsseldorf
194.163.151.63,4,35,robadadonne.it,DE,Europe,Western Europe,Germany,North Rhine-Westphalia,,Düsseldorf
77.237.237.152,4,13,romanticroadgermany.com,DE,Europe,Western Europe,Germany,North Rhine-Westphalia,,Düsseldorf
104.73.227.73,4,31,rottentomatoes.com,DE,Europe,Western Europe,Germany,North Rhine-Westphalia,,Düsseldorf
194.163.167.246,4,42,runwaycatalog.in,DE,Europe,Western Europe,Germany,North Rhine-Westphalia,,Düsseldorf
185.194.217.227,4,91,rusdemotivator.ru,DE,Europe,Western Europe,Germany,North Rhine-Westphalia,,Düsseldorf
194.163.138.79,4,9,rutvet.ru,DE,Europe,Western Europe,Germany,North Rhine-Westphalia,,Düsseldorf
37.60.243.189,4,-21,salaty-vkusno.ru,DE,Europe,Western Europe,Germany,North Rhine-Westphalia,,Düsseldorf
194.163.168.116,4,25,sambands.net,DE,Europe,Western Europe,Germany,North Rhine-Westphalia,,Düsseldorf
31.220.82.54,4,4,scam-mail.me,DE,Europe,Western Europe,Germany,North Rhine-Westphalia,,Düsseldorf
38.242.251.250,4,98,schildbach.de,DE,Europe,Western Europe,Germany,North Rhine-Westphalia,,Düsseldorf
80.83.116.193,4,18,schmeck-den-sueden.de,DE,Europe,Western Europe,Germany,North Rhine-Westphalia,,Düsseldorf
5.199.133.173,4,78,schueler-helfen-leben.de,DE,Europe,Western Europe,Germany,North Rhine-Westphalia,,Düsseldorf
185.211.5.119,4,4,senaubaines.com,DE,Europe,Western Europe,Germany,North Rhine-Westphalia,,Düsseldorf
194.163.135.0,4,-3,sh3nevinsk.ru,DE,Europe,Western Europe,Germany,North Rhine-Westphalia,,Düsseldorf
89.117.50.143,4,2,shirts-bedrukken.nl,DE,Europe,Western Europe,Germany,North Rhine-Westphalia,,Düsseldorf
194.163.128.35,4,3,shreemsweetsandbakery.com,DE,Europe,Western Europe,Germany,North Rhine-Westphalia,,Düsseldorf
185.207.250.231,4,3,siia.net,DE,Europe,Western Europe,Germany,North Rhine-Westphalia,,Düsseldorf
161.97.168.245,4,3,sildenafil.buzz,DE,Europe,Western Europe,Germany,North Rhine-Westphalia,,Düsseldorf
194.163.155.179,4,-7,simplycontact.com,DE,Europe,Western Europe,Germany,North Rhine-Westphalia,,Düsseldorf
158.220.97.47,4,6,sinardewaplayer.com,DE,Europe,Western Europe,Germany,North Rhine-Westphalia,,Düsseldorf
194.163.185.210,4,7,site-checker.org,DE,Europe,Western Europe,Germany,North Rhine-Westphalia,,Düsseldorf
178.18.246.68,4,18,smart-track.net,DE,Europe,Western Europe,Germany,North Rhine-Westphalia,,Düsseldorf
161.97.175.163,4,7,smarter.loans,DE,Europe,Western Europe,Germany,North Rhine-Westphalia,,Düsseldorf
161.97.129.228,4,31,smartific.nl,DE,Europe,Western Europe,Germany,North Rhine-Westphalia,,Düsseldorf
38.242.219.110,4,7,smartphonesnairobi.co.ke,DE,Europe,Western Europe,Germany,North Rhine-Westphalia,,Düsseldorf
194.163.142.119,4,1,snariad.ru,DE,Europe,Western Europe,Germany,North Rhine-Westphalia,,Düsseldorf
194.5.152.86,4,94,soberaniaalimentaria.info,DE,Europe,Western Europe,Germany,North Rhine-Westphalia,,Düsseldorf
80.83.116.45,4,15,socialnet.de,DE,Europe,Western Europe,Germany,North Rhine-Westphalia,,Düsseldorf
80.83.126.78,4,12,socialsaloon.de,DE,Europe,Western Europe,Germany,North Rhine-Westphalia,,Düsseldorf
5.182.17.22,4,19,soft-pro.hr,DE,Europe,Western Europe,Germany,North Rhine-Westphalia,,Düsseldorf
161.97.134.34,4,8,softcenter.bi,DE,Europe,Western Europe,Germany,North Rhine-Westphalia,,Düsseldorf
75.119.148.190,4,33,softforfree.com,DE,Europe,Western Europe,Germany,North Rhine-Westphalia,,Düsseldorf
31.220.92.177,4,35,softwarelibero.it,DE,Europe,Western Europe,Germany,North Rhine-Westphalia,,Düsseldorf
109.199.117.169,4,75,som64.site,DE,Europe,Western Europe,Germany,North Rhine-Westphalia,,Düsseldorf
194.163.137.231,4,30,soukeltayeb.com,DE,Europe,Western Europe,Germany,North Rhine-Westphalia,,Düsseldorf
80.83.122.102,4,42,staatsoper-hamburg.de,DE,Europe,Western Europe,Germany,North Rhine-Westphalia,,Düsseldorf
89.163.245.196,4,9,steinbeis-hochschule.de,DE,Europe,Western Europe,Germany,North Rhine-Westphalia,,Düsseldorf
5.199.143.71,4,16,steinbeis.de,DE,Europe,Western Europe,Germany,North Rhine-Westphalia,,Düsseldorf
75.119.137.143,4,56,studiopepe.info,DE,Europe,Western Europe,Germany,North Rhine-Westphalia,,Düsseldorf
80.83.126.164,4,2,suchebiete.com,DE,Europe,Western Europe,Germany,North Rhine-Westphalia,,Düsseldorf
2.22.242.153,4,15,swarovski.com,DE,Europe,Western Europe,Germany,North Rhine-Westphalia,,Düsseldorf
38.242.215.227,4,4,syrianobserver.com,DE,Europe,Western Europe,Germany,North Rhine-Westphalia,,Düsseldorf
37.60.224.219,4,4,tadalafilum.com,DE,Europe,Western Europe,Germany,North Rhine-Westphalia,,Düsseldorf
178.18.245.195,4,25,taki.sale,DE,Europe,Western Europe,Germany,North Rhine-Westphalia,,Düsseldorf
194.163.179.79,4,5,tampoesdeferrofundido.com.br,DE,Europe,Western Europe,Germany,North Rhine-Westphalia,,Düsseldorf
213.199.43.71,4,2,tanyadesai.in,DE,Europe,Western Europe,Germany,North Rhine-Westphalia,,Düsseldorf
109.199.97.212,4,9,technews.bg,DE,Europe,Western Europe,Germany,North Rhine-Westphalia,,Düsseldorf
80.83.113.102,4,-371,teebohne.de,DE,Europe,Western Europe,Germany,North Rhine-Westphalia,,Düsseldorf
88.221.110.10,4,16,telemundodeportes.com,DE,Europe,Western Europe,Germany,North Rhine-Westphalia,,Düsseldorf
88.221.110.33,4,7,telemundodeportes.com,DE,Europe,Western Europe,Germany,North Rhine-Westphalia,,Düsseldorf
184.174.32.101,4,29,territorioscriativos.pt,DE,Europe,Western Europe,Germany,North Rhine-Westphalia,,Düsseldorf
161.97.146.154,4,6,texdoc.org,DE,Europe,Western Europe,Germany,North Rhine-Westphalia,,Düsseldorf
194.163.156.67,4,37,thebrandstore.pk,DE,Europe,Western Europe,Germany,North Rhine-Westphalia,,Düsseldorf
38.242.154.8,4,0,thecanarynews.com,DE,Europe,Western Europe,Germany,North Rhine-Westphalia,,Düsseldorf
217.76.52.21,4,5,thecashdeal.trade,DE,Europe,Western Europe,Germany,North Rhine-Westphalia,,Düsseldorf
158.220.108.219,4,8,theconfidentteacher.com,DE,Europe,Western Europe,Germany,North Rhine-Westphalia,,Düsseldorf
161.97.142.249,4,123,theimitationgamemovie.com,DE,Europe,Western Europe,Germany,North Rhine-Westphalia,,Düsseldorf
185.197.195.131,4,22,themedguru.com,DE,Europe,Western Europe,Germany,North Rhine-Westphalia,,Düsseldorf
161.97.181.215,4,4,thesecretskinsociety.com,DE,Europe,Western Europe,Germany,North Rhine-Westphalia,,Düsseldorf
194.163.135.82,4,7,thessaloniki.travel,DE,Europe,Western Europe,Germany,North Rhine-Westphalia,,Düsseldorf
161.97.143.82,4,14,thokbikes.com,DE,Europe,Western Europe,Germany,North Rhine-Westphalia,,Düsseldorf
185.137.122.242,4,46,thomaskeith.school,DE,Europe,Western Europe,Germany,North Rhine-Westphalia,,Düsseldorf
72.247.154.184,4,7,tiktokglobalshop.com,DE,Europe,Western Europe,Germany,North Rhine-Westphalia,,Düsseldorf
72.247.154.147,4,18,tiktokglobalshop.com,DE,Europe,Western Europe,Germany,North Rhine-Westphalia,,Düsseldorf
38.242.251.94,4,44,tilvids.com,DE,Europe,Western Europe,Germany,North Rhine-Westphalia,,Düsseldorf
184.174.33.134,4,2,timetrackapp.com,DE,Europe,Western Europe,Germany,North Rhine-Westphalia,,Düsseldorf
2.17.22.58,4,18,tods.com,DE,Europe,Western Europe,Germany,North Rhine-Westphalia,,Düsseldorf
2.17.22.34,4,16,tods.com,DE,Europe,Western Europe,Germany,North Rhine-Westphalia,,Düsseldorf
75.119.148.210,4,3,togopresse.tg,DE,Europe,Western Europe,Germany,North Rhine-Westphalia,,Düsseldorf
84.46.251.89,4,33,tootfinder.ch,DE,Europe,Western Europe,Germany,North Rhine-Westphalia,,Düsseldorf
62.169.29.84,4,6,tr2gaming.com,DE,Europe,Western Europe,Germany,North Rhine-Westphalia,,Düsseldorf
62.84.183.255,4,10,trackersbd.com,DE,Europe,Western Europe,Germany,North Rhine-Westphalia,,Düsseldorf
149.102.139.236,4,26,trickeri.org,DE,Europe,Western Europe,Germany,North Rhine-Westphalia,,Düsseldorf
80.83.113.226,4,10,trierer-weihnachtsmarkt.de,DE,Europe,Western Europe,Germany,North Rhine-Westphalia,,Düsseldorf
194.163.179.174,4,8,trillium.de,DE,Europe,Western Europe,Germany,North Rhine-Westphalia,,Düsseldorf
38.242.255.202,4,13,tripcombined.com,DE,Europe,Western Europe,Germany,North Rhine-Westphalia,,Düsseldorf
84.247.183.26,4,9,tripodauto.com,DE,Europe,Western Europe,Germany,North Rhine-Westphalia,,Düsseldorf
157.173.105.181,4,6,tripplanner.ae,DE,Europe,Western Europe,Germany,North Rhine-Westphalia,,Düsseldorf
217.76.63.62,4,8,truyenhinhcapsongthu.net,DE,Europe,Western Europe,Germany,North Rhine-Westphalia,,Düsseldorf
38.242.146.125,4,13,tubeislam.com,DE,Europe,Western Europe,Germany,North Rhine-Westphalia,,Düsseldorf
31.220.77.250,4,9,turan.az,DE,Europe,Western Europe,Germany,North Rhine-Westphalia,,Düsseldorf
37.60.246.118,4,4,tutorialink.com,DE,Europe,Western Europe,Germany,North Rhine-Westphalia,,Düsseldorf
45.94.209.184,4,4,tutorsonspot.com,DE,Europe,Western Europe,Germany,North Rhine-Westphalia,,Düsseldorf
38.242.222.171,4,16,uitkijk.nl,DE,Europe,Western Europe,Germany,North Rhine-Westphalia,,Düsseldorf
185.239.208.72,4,18,unae.edu.py,DE,Europe,Western Europe,Germany,North Rhine-Westphalia,,Düsseldorf
38.242.238.162,4,5,une.edu.ve,DE,Europe,Western Europe,Germany,North Rhine-Westphalia,,Düsseldorf
104.115.82.25,4,13,unicreditbank.rs,DE,Europe,Western Europe,Germany,North Rhine-Westphalia,,Düsseldorf
104.115.82.16,4,38,unicreditbank.rs,DE,Europe,Western Europe,Germany,North Rhine-Westphalia,,Düsseldorf
23.197.8.76,4,10,unicreditgroup.eu,DE,Europe,Western Europe,Germany,North Rhine-Westphalia,,Düsseldorf
185.217.125.95,4,2,upel.edu.ve,DE,Europe,Western Europe,Germany,North Rhine-Westphalia,,Düsseldorf
80.83.125.111,4,3,usadellab.org,DE,Europe,Western Europe,Germany,North Rhine-Westphalia,,Düsseldorf
38.242.231.53,4,4,usebitcoins.info,DE,Europe,Western Europe,Germany,North Rhine-Westphalia,,Düsseldorf
161.97.143.219,4,19,utip.io,DE,Europe,Western Europe,Germany,North Rhine-Westphalia,,Düsseldorf
185.239.208.20,4,8,uvsechcertu.com,DE,Europe,Western Europe,Germany,North Rhine-Westphalia,,Düsseldorf
80.83.113.70,4,43,virtualhosts.de,DE,Europe,Western Europe,Germany,North Rhine-Westphalia,,Düsseldorf
104.119.109.27,4,15,vive.com,DE,Europe,Western Europe,Germany,North Rhine-Westphalia,,Düsseldorf
156.67.30.123,4,-6,vliigts.com,DE,Europe,Western Europe,Germany,North Rhine-Westphalia,,Düsseldorf
45.14.194.223,4,51,vmaxleclub.com,DE,Europe,Western Europe,Germany,North Rhine-Westphalia,,Düsseldorf
185.197.251.16,4,32,vriendenplek.nl,DE,Europe,Western Europe,Germany,North Rhine-Westphalia,,Düsseldorf
38.242.206.83,4,4,vzr.nl,DE,Europe,Western Europe,Germany,North Rhine-Westphalia,,Düsseldorf
75.119.134.183,4,6,wakeupuganda.org,DE,Europe,Western Europe,Germany,North Rhine-Westphalia,,Düsseldorf
178.18.255.146,4,35,waocp.org,DE,Europe,Western Europe,Germany,North Rhine-Westphalia,,Düsseldorf
31.220.89.162,4,30,weboworld.com,DE,Europe,Western Europe,Germany,North Rhine-Westphalia,,Düsseldorf
213.164.159.9,4,10,weiterbildungsberatung.nrw,DE,Europe,Western Europe,Germany,North Rhine-Westphalia,,Düsseldorf
84.247.143.194,4,2,wendland-net.de,DE,Europe,Western Europe,Germany,North Rhine-Westphalia,,Düsseldorf
185.215.165.18,4,1,whatchats.com,DE,Europe,Western Europe,Germany,North Rhine-Westphalia,,Düsseldorf
75.119.148.193,4,4,wheesung.com,DE,Europe,Western Europe,Germany,North Rhine-Westphalia,,Düsseldorf
84.247.142.213,4,6,whiskeyforsaleonline.com,DE,Europe,Western Europe,Germany,North Rhine-Westphalia,,Düsseldorf
2.17.22.179,4,13,whitecase.com,DE,Europe,Western Europe,Germany,North Rhine-Westphalia,,Düsseldorf
2.17.22.161,4,9,whitecase.com,DE,Europe,Western Europe,Germany,North Rhine-Westphalia,,Düsseldorf
83.171.249.8,4,6,whosaroundtown.com,DE,Europe,Western Europe,Germany,North Rhine-Westphalia,,Düsseldorf
161.97.157.84,4,17,wievielekalorien.de,DE,Europe,Western Europe,Germany,North Rhine-Westphalia,,Düsseldorf
212.47.65.201,4,38,windows8downloads.com,DE,Europe,Western Europe,Germany,North Rhine-Westphalia,,Düsseldorf
161.97.165.12,4,13,wineart24.com,DE,Europe,Western Europe,Germany,North Rhine-Westphalia,,Düsseldorf
94.250.203.158,4,43,wochenblatt.es,DE,Europe,Western Europe,Germany,North Rhine-Westphalia,,Düsseldorf
157.173.100.80,4,4,wolinet.com,DE,Europe,Western Europe,Germany,North Rhine-Westphalia,,Düsseldorf
2.58.82.169,4,3,workerman.com,DE,Europe,Western Europe,Germany,North Rhine-Westphalia,,Düsseldorf
194.163.187.117,4,3,worldfreeclassifiedads.com,DE,Europe,Western Europe,Germany,North Rhine-Westphalia,,Düsseldorf
77.237.247.134,4,16,wosgroup.com,DE,Europe,Western Europe,Germany,North Rhine-Westphalia,,Düsseldorf
161.97.166.133,4,2,xarakter.kz,DE,Europe,Western Europe,Germany,North Rhine-Westphalia,,Düsseldorf
161.97.161.238,4,2,xtutti.com,DE,Europe,Western Europe,Germany,North Rhine-Westphalia,,Düsseldorf
109.123.244.218,4,470,ycdo.org.pk,DE,Europe,Western Europe,Germany,North Rhine-Westphalia,,Düsseldorf
91.228.53.85,4,3,yhrd.org,DE,Europe,Western Europe,Germany,North Rhine-Westphalia,,Düsseldorf
75.119.143.131,4,4,yoikiguide.com,DE,Europe,Western Europe,Germany,North Rhine-Westphalia,,Düsseldorf
109.199.111.1,4,39,youbeats.net,DE,Europe,Western Europe,Germany,North Rhine-Westphalia,,Düsseldorf
75.119.155.28,4,17,yourcharteryacht.com,DE,Europe,Western Europe,Germany,North Rhine-Westphalia,,Düsseldorf
194.163.168.120,4,33,zahvat.ru,DE,Europe,Western Europe,Germany,North Rhine-Westphalia,,Düsseldorf
185.239.208.81,4,14,zetafonts.com,DE,Europe,Western Europe,Germany,North Rhine-Westphalia,,Düsseldorf
78.31.67.89,4,0,zplatformu.com,DE,Europe,Western Europe,Germany,North Rhine-Westphalia,,Düsseldorf
