reflector_ip,ip_version,offset,description,country_code,region,sub_region,country_name,sub_division_1,sub_division_2,city
92.204.37.176,4,6,a1k.org,DE,Europe,Western Europe,Germany,North Rhine-Westphalia,,Cologne
92.204.37.123,4,6,aasys.de,DE,Europe,Western Europe,Germany,North Rhine-Westphalia,,Cologne
83.169.29.226,4,-4,abnr.de,DE,Europe,Western Europe,Germany,North Rhine-Westphalia,,Cologne
80.237.132.80,4,27,admized.com,DE,Europe,Western Europe,Germany,North Rhine-Westphalia,,Cologne
195.14.192.77,4,12,advogarant.de,DE,Europe,Western Europe,Germany,North Rhine-Westphalia,,Cologne
80.237.132.236,4,4,ag-friedensforschung.de,DE,Europe,Western Europe,Germany,North Rhine-Westphalia,,Cologne
176.28.39.173,4,10,agitano.com,DE,Europe,Western Europe,Germany,North Rhine-Westphalia,,Cologne
87.230.107.11,4,13,aids-stiftung.de,DE,Europe,Western Europe,Germany,North Rhine-Westphalia,,Cologne
134.119.0.225,4,7,airliners.de,DE,Europe,Western Europe,Germany,North Rhine-Westphalia,,Cologne
92.204.37.217,4,35,aktien-analyse.de,DE,Europe,Western Europe,Germany,North Rhine-Westphalia,,Cologne
89.1.69.211,4,76,aktuar.de,DE,Europe,Western Europe,Germany,North Rhine-Westphalia,,Cologne
87.230.107.202,4,42,alexander-verlag.com,DE,Europe,Western Europe,Germany,North Rhine-Westphalia,,Cologne
87.230.47.75,4,9,aminoacid-studies.com,DE,Europe,Western Europe,Germany,North Rhine-Westphalia,,Cologne
134.119.0.82,4,8,anglerboard.de,DE,Europe,Western Europe,Germany,North Rhine-Westphalia,,Cologne
134.119.0.213,4,16,animals-angels.de,DE,Europe,Western Europe,Germany,North Rhine-Westphalia,,Cologne
87.230.46.249,4,81,arabic-keyboard.org,DE,Europe,Western Europe,Germany,North Rhine-Westphalia,,Cologne
87.230.104.91,4,2,arclab.com,DE,Europe,Western Europe,Germany,North Rhine-Westphalia,,Cologne
134.119.0.119,4,13,arl-net.de,DE,Europe,Western Europe,Germany,North Rhine-Westphalia,,Cologne
87.230.40.44,4,8,art-in.de,DE,Europe,Western Europe,Germany,North Rhine-Westphalia,,Cologne
87.230.60.155,4,11,au-ja.de,DE,Europe,Western Europe,Germany,North Rhine-Westphalia,,Cologne
83.169.25.142,4,49,audiovision.de,DE,Europe,Western Europe,Germany,North Rhine-Westphalia,,Cologne
87.230.62.153,4,33,aupair.com,DE,Europe,Western Europe,Germany,North Rhine-Westphalia,,Cologne
92.204.39.5,4,59,auticon.com,DE,Europe,Western Europe,Germany,North Rhine-Westphalia,,Cologne
134.119.0.76,4,11,barmherzige-regensburg.de,DE,Europe,Western Europe,Germany,North Rhine-Westphalia,,Cologne
178.77.82.32,4,54,batronix.com,DE,Europe,Western Europe,Germany,North Rhine-Westphalia,,Cologne
80.82.216.25,4,20,baukunst-nrw.de,DE,Europe,Western Europe,Germany,North Rhine-Westphalia,,Cologne
92.204.37.118,4,5,bavariayachts.com,DE,Europe,Western Europe,Germany,North Rhine-Westphalia,,Cologne
176.28.37.247,4,11,bbsb.org,DE,Europe,Western Europe,Germany,North Rhine-Westphalia,,Cologne
87.230.107.88,4,83,bebraverlag.de,DE,Europe,Western Europe,Germany,North Rhine-Westphalia,,Cologne
80.237.133.108,4,4,bellnet.com,DE,Europe,Western Europe,Germany,North Rhine-Westphalia,,Cologne
92.204.37.93,4,104,bergwacht-bayern.de,DE,Europe,Western Europe,Germany,North Rhine-Westphalia,,Cologne
80.82.223.193,4,37,berlin-info.de,DE,Europe,Western Europe,Germany,North Rhine-Westphalia,,Cologne
83.169.29.96,4,8,berliner-unterwelten.de,DE,Europe,Western Europe,Germany,North Rhine-Westphalia,,Cologne
176.28.36.132,4,17,beststartup.eu,DE,Europe,Western Europe,Germany,North Rhine-Westphalia,,Cologne
178.77.85.52,4,7,bildungsberatung-gfh.de,DE,Europe,Western Europe,Germany,North Rhine-Westphalia,,Cologne
87.230.60.180,4,8,bildungsspender.org,DE,Europe,Western Europe,Germany,North Rhine-Westphalia,,Cologne
87.230.107.205,4,89,bistum-dresden-meissen.de,DE,Europe,Western Europe,Germany,North Rhine-Westphalia,,Cologne
92.204.37.223,4,5,bitterfeld-wolfen.de,DE,Europe,Western Europe,Germany,North Rhine-Westphalia,,Cologne
134.119.0.226,4,5,bke-suchtselbsthilfe.de,DE,Europe,Western Europe,Germany,North Rhine-Westphalia,,Cologne
87.230.104.112,4,8,bkk-provita.de,DE,Europe,Western Europe,Germany,North Rhine-Westphalia,,Cologne
87.230.62.103,4,8,blacknoise.com,DE,Europe,Western Europe,Germany,North Rhine-Westphalia,,Cologne
87.230.62.119,4,13,blairwitch.de,DE,Europe,Western Europe,Germany,North Rhine-Westphalia,,Cologne
178.77.85.168,4,21,blog2social.com,DE,Europe,Western Europe,Germany,North Rhine-Westphalia,,Cologne
134.119.0.67,4,14,bltk.de,DE,Europe,Western Europe,Germany,North Rhine-Westphalia,,Cologne
176.28.38.191,4,32,brainpool.de,DE,Europe,Western Europe,Germany,North Rhine-Westphalia,,Cologne
92.204.37.240,4,54,brandstaetterverlag.com,DE,Europe,Western Europe,Germany,North Rhine-Westphalia,,Cologne
134.119.0.203,4,7,braut.de,DE,Europe,Western Europe,Germany,North Rhine-Westphalia,,Cologne
134.119.0.44,4,4,bredex.de,DE,Europe,Western Europe,Germany,North Rhine-Westphalia,,Cologne
87.230.40.52,4,26,brotinstitut.de,DE,Europe,Western Europe,Germany,North Rhine-Westphalia,,Cologne
176.28.33.53,4,101,bruns.de,DE,Europe,Western Europe,Germany,North Rhine-Westphalia,,Cologne
134.119.0.187,4,7,bs-energy.de,DE,Europe,Western Europe,Germany,North Rhine-Westphalia,,Cologne
89.1.66.101,4,4,buchhandlung-walther-koenig.de,DE,Europe,Western Europe,Germany,North Rhine-Westphalia,,Cologne
134.119.0.36,4,13,buechertreff.de,DE,Europe,Western Europe,Germany,North Rhine-Westphalia,,Cologne
134.119.0.227,4,4,bundesfreiwilligendienst.de,DE,Europe,Western Europe,Germany,North Rhine-Westphalia,,Cologne
92.204.37.227,4,65,burda-forward.de,DE,Europe,Western Europe,Germany,North Rhine-Westphalia,,Cologne
87.230.44.14,4,6,buschfunk.com,DE,Europe,Western Europe,Germany,North Rhine-Westphalia,,Cologne
87.230.44.67,4,9,cagematch.net,DE,Europe,Western Europe,Germany,North Rhine-Westphalia,,Cologne
134.119.0.212,4,19,care-concept.de,DE,Europe,Western Europe,Germany,North Rhine-Westphalia,,Cologne
83.169.29.176,4,12,cheetah3d.com,DE,Europe,Western Europe,Germany,North Rhine-Westphalia,,Cologne
92.50.110.10,4,14,claudius-therme.de,DE,Europe,Western Europe,Germany,North Rhine-Westphalia,,Cologne
87.230.105.250,4,29,clr.net,DE,Europe,Western Europe,Germany,North Rhine-Westphalia,,Cologne
83.169.28.173,4,11,clubdervisionaere.com,DE,Europe,Western Europe,Germany,North Rhine-Westphalia,,Cologne
87.230.41.138,4,17,comic.de,DE,Europe,Western Europe,Germany,North Rhine-Westphalia,,Cologne
80.237.132.221,4,71,compactmemory.de,DE,Europe,Western Europe,Germany,North Rhine-Westphalia,,Cologne
80.82.222.140,4,8,convo.casa,DE,Europe,Western Europe,Germany,North Rhine-Westphalia,,Cologne
87.230.46.208,4,11,coupons.de,DE,Europe,Western Europe,Germany,North Rhine-Westphalia,,Cologne
178.77.81.235,4,8,cryptovalleyconference.com,DE,Europe,Western Europe,Germany,North Rhine-Westphalia,,Cologne
87.230.45.111,4,15,cryptshare.com,DE,Europe,Western Europe,Germany,North Rhine-Westphalia,,Cologne
87.230.62.82,4,8,csdmuenchen.de,DE,Europe,Western Europe,Germany,North Rhine-Westphalia,,Cologne
80.237.132.43,4,3,cycas.de,DE,Europe,Western Europe,Germany,North Rhine-Westphalia,,Cologne
176.28.35.208,4,9,czernin-verlag.com,DE,Europe,Western Europe,Germany,North Rhine-Westphalia,,Cologne
87.230.44.102,4,31,dafv.de,DE,Europe,Western Europe,Germany,North Rhine-Westphalia,,Cologne
83.169.30.237,4,18,das-macht-schule.net,DE,Europe,Western Europe,Germany,North Rhine-Westphalia,,Cologne
80.237.133.226,4,13,dau-alarm.de,DE,Europe,Western Europe,Germany,North Rhine-Westphalia,,Cologne
87.230.106.8,4,9,deine-stimme-gegen-armut.de,DE,Europe,Western Europe,Germany,North Rhine-Westphalia,,Cologne
178.77.84.195,4,8,denkmalschutz.de,DE,Europe,Western Europe,Germany,North Rhine-Westphalia,,Cologne
134.119.0.1,4,35,designenlassen.de,DE,Europe,Western Europe,Germany,North Rhine-Westphalia,,Cologne
83.169.25.9,4,11,designmadeingermany.de,DE,Europe,Western Europe,Germany,North Rhine-Westphalia,,Cologne
92.204.37.171,4,40,deutsche-weihnachtsmaerkte.de,DE,Europe,Western Europe,Germany,North Rhine-Westphalia,,Cologne
83.169.31.13,4,13,deutscheakademie.de,DE,Europe,Western Europe,Germany,North Rhine-Westphalia,,Cologne
87.230.62.184,4,10,dg-flugzeugbau.de,DE,Europe,Western Europe,Germany,North Rhine-Westphalia,,Cologne
176.28.32.159,4,7,dgri.de,DE,Europe,Western Europe,Germany,North Rhine-Westphalia,,Cologne
80.82.223.18,4,1857,dieprinzen.de,DE,Europe,Western Europe,Germany,North Rhine-Westphalia,,Cologne
87.230.61.19,4,11,dieselkino.at,DE,Europe,Western Europe,Germany,North Rhine-Westphalia,,Cologne
92.204.37.18,4,54,discovering-hands.de,DE,Europe,Western Europe,Germany,North Rhine-Westphalia,,Cologne
87.230.46.76,4,10,djs-online.de,DE,Europe,Western Europe,Germany,North Rhine-Westphalia,,Cologne
92.204.37.211,4,12,dmm.travel,DE,Europe,Western Europe,Germany,North Rhine-Westphalia,,Cologne
89.1.13.186,4,14185,DNS Server: gw.gksupport.de,DE,Europe,Western Europe,Germany,North Rhine-Westphalia,,Cologne
176.28.35.40,4,58,dom-frankfurt.de,DE,Europe,Western Europe,Germany,North Rhine-Westphalia,,Cologne
80.67.16.73,4,76,domainfactory.de,DE,Europe,Western Europe,Germany,North Rhine-Westphalia,,Cologne
176.28.33.18,4,8,doyoureadme.de,DE,Europe,Western Europe,Germany,North Rhine-Westphalia,,Cologne
87.230.42.79,4,8,dsgvo-gesetz.de,DE,Europe,Western Europe,Germany,North Rhine-Westphalia,,Cologne
178.77.84.231,4,29,ecc-studienreisen.de,DE,Europe,Western Europe,Germany,North Rhine-Westphalia,,Cologne
87.230.107.148,4,17,ehl.de,DE,Europe,Western Europe,Germany,North Rhine-Westphalia,,Cologne
87.230.62.203,4,25,ekiwi-blog.de,DE,Europe,Western Europe,Germany,North Rhine-Westphalia,,Cologne
80.237.132.97,4,23,elektronikinfo.de,DE,Europe,Western Europe,Germany,North Rhine-Westphalia,,Cologne
134.119.0.166,4,2,eschwege.de,DE,Europe,Western Europe,Germany,North Rhine-Westphalia,,Cologne
83.169.28.39,4,11,esut.de,DE,Europe,Western Europe,Germany,North Rhine-Westphalia,,Cologne
80.237.133.88,4,28,ethernut.de,DE,Europe,Western Europe,Germany,North Rhine-Westphalia,,Cologne
80.150.3.122,4,1,euwid-energie.de,DE,Europe,Western Europe,Germany,North Rhine-Westphalia,,Cologne
178.77.83.7,4,8,everysecondcounts.eu,DE,Europe,Western Europe,Germany,North Rhine-Westphalia,,Cologne
83.169.30.197,4,8,felix-bloch-erben.de,DE,Europe,Western Europe,Germany,North Rhine-Westphalia,,Cologne
80.237.133.144,4,3,felixkubin.com,DE,Europe,Western Europe,Germany,North Rhine-Westphalia,,Cologne
80.237.133.75,4,24,fes-gegen-rechtsextremismus.de,DE,Europe,Western Europe,Germany,North Rhine-Westphalia,,Cologne
83.169.29.197,4,8,fesdc.org,DE,Europe,Western Europe,Germany,North Rhine-Westphalia,,Cologne
92.204.37.215,4,11,fettrechner.de,DE,Europe,Western Europe,Germany,North Rhine-Westphalia,,Cologne
87.230.45.108,4,8,feuerland-spiele.de,DE,Europe,Western Europe,Germany,North Rhine-Westphalia,,Cologne
87.230.61.85,4,22,filmschule.de,DE,Europe,Western Europe,Germany,North Rhine-Westphalia,,Cologne
80.237.132.56,4,3,flashforum.de,DE,Europe,Western Europe,Germany,North Rhine-Westphalia,,Cologne
80.237.132.205,4,3,flatcast.com,DE,Europe,Western Europe,Germany,North Rhine-Westphalia,,Cologne
83.169.24.29,4,8,fliptext.org,DE,Europe,Western Europe,Germany,North Rhine-Westphalia,,Cologne
134.119.0.152,4,4,fll.de,DE,Europe,Western Europe,Germany,North Rhine-Westphalia,,Cologne
89.1.69.167,4,7,flowfact-webparts.net,DE,Europe,Western Europe,Germany,North Rhine-Westphalia,,Cologne
87.230.40.164,4,8,foerderverein-menschenskinder.de,DE,Europe,Western Europe,Germany,North Rhine-Westphalia,,Cologne
80.237.133.142,4,53,foren-rollenspiele.net,DE,Europe,Western Europe,Germany,North Rhine-Westphalia,,Cologne
87.230.42.147,4,10,formdev.com,DE,Europe,Western Europe,Germany,North Rhine-Westphalia,,Cologne
176.28.32.222,4,29,friedenspaedagogik.de,DE,Europe,Western Europe,Germany,North Rhine-Westphalia,,Cologne
80.237.132.179,4,47,fronzek-gutheil.de,DE,Europe,Western Europe,Germany,North Rhine-Westphalia,,Cologne
87.230.41.132,4,9,galeriebuchholz.de,DE,Europe,Western Europe,Germany,North Rhine-Westphalia,,Cologne
80.237.133.38,4,2,gameslabor.de,DE,Europe,Western Europe,Germany,North Rhine-Westphalia,,Cologne
92.204.37.143,4,8,gartenzauber.com,DE,Europe,Western Europe,Germany,North Rhine-Westphalia,,Cologne
178.77.87.15,4,30,gatermann-schossig.de,DE,Europe,Western Europe,Germany,North Rhine-Westphalia,,Cologne
87.230.106.122,4,8,gbstern.at,DE,Europe,Western Europe,Germany,North Rhine-Westphalia,,Cologne
87.230.42.83,4,9,gdpr-info.eu,DE,Europe,Western Europe,Germany,North Rhine-Westphalia,,Cologne
176.28.38.208,4,49,genossenschaften.de,DE,Europe,Western Europe,Germany,North Rhine-Westphalia,,Cologne
178.77.82.159,4,38,gepa.de,DE,Europe,Western Europe,Germany,North Rhine-Westphalia,,Cologne
87.230.104.20,4,60,german-foreign-policy.com,DE,Europe,Western Europe,Germany,North Rhine-Westphalia,,Cologne
92.204.37.229,4,30,gesetzlichekrankenkassen.de,DE,Europe,Western Europe,Germany,North Rhine-Westphalia,,Cologne
92.204.37.142,4,6,getro-comtec.de,DE,Europe,Western Europe,Germany,North Rhine-Westphalia,,Cologne
80.237.132.70,4,8,gfdata.de,DE,Europe,Western Europe,Germany,North Rhine-Westphalia,,Cologne
87.230.46.187,4,13,gibgas.de,DE,Europe,Western Europe,Germany,North Rhine-Westphalia,,Cologne
80.237.133.70,4,40,giftpflanzen.com,DE,Europe,Western Europe,Germany,North Rhine-Westphalia,,Cologne
87.230.104.63,4,9,gispoint.de,DE,Europe,Western Europe,Germany,North Rhine-Westphalia,,Cologne
178.77.85.107,4,27,globalcoffeeplatform.org,DE,Europe,Western Europe,Germany,North Rhine-Westphalia,,Cologne
176.28.37.146,4,8,gmeiner-verlag.de,DE,Europe,Western Europe,Germany,North Rhine-Westphalia,,Cologne
87.230.40.79,4,20,go2know.de,DE,Europe,Western Europe,Germany,North Rhine-Westphalia,,Cologne
83.169.25.49,4,28,goldegg-verlag.com,DE,Europe,Western Europe,Germany,North Rhine-Westphalia,,Cologne
83.169.24.214,4,60,gratis-hoerspiele.de,DE,Europe,Western Europe,Germany,North Rhine-Westphalia,,Cologne
178.77.80.204,4,35,grossmann-uhren.com,DE,Europe,Western Europe,Germany,North Rhine-Westphalia,,Cologne
178.77.86.212,4,47,hacker-motor.com,DE,Europe,Western Europe,Germany,North Rhine-Westphalia,,Cologne
83.169.28.162,4,7,handy-deutschland.de,DE,Europe,Western Europe,Germany,North Rhine-Westphalia,,Cologne
83.169.31.51,4,9,hauptstadtkongress.de,DE,Europe,Western Europe,Germany,North Rhine-Westphalia,,Cologne
83.169.31.236,4,23,hdba.de,DE,Europe,Western Europe,Germany,North Rhine-Westphalia,,Cologne
87.230.106.165,4,25,heilpraktikerverband.de,DE,Europe,Western Europe,Germany,North Rhine-Westphalia,,Cologne
80.82.208.104,4,0,hellweg.de,DE,Europe,Western Europe,Germany,North Rhine-Westphalia,,Cologne
212.117.75.197,4,3,hfmt-koeln.de,DE,Europe,Western Europe,Germany,North Rhine-Westphalia,,Cologne
178.77.82.223,4,12,hifi-wiki.de,DE,Europe,Western Europe,Germany,North Rhine-Westphalia,,Cologne
176.28.33.37,4,16,highfoodality.de,DE,Europe,Western Europe,Germany,North Rhine-Westphalia,,Cologne
80.237.132.168,4,4,hk-keber.de,DE,Europe,Western Europe,Germany,North Rhine-Westphalia,,Cologne
87.230.106.193,4,8,hlipp.de,DE,Europe,Western Europe,Germany,North Rhine-Westphalia,,Cologne
83.169.31.46,4,12,homepowersolutions.de,DE,Europe,Western Europe,Germany,North Rhine-Westphalia,,Cologne
92.204.37.216,4,19,horvath-partners.com,DE,Europe,Western Europe,Germany,North Rhine-Westphalia,,Cologne
92.204.35.32,4,4,hosteurope.de,DE,Europe,Western Europe,Germany,North Rhine-Westphalia,,Cologne
80.237.132.91,4,8,hutter1.net,DE,Europe,Western Europe,Germany,North Rhine-Westphalia,,Cologne
87.230.41.4,4,8,iaks.sport,DE,Europe,Western Europe,Germany,North Rhine-Westphalia,,Cologne
87.230.45.21,4,29,iapm.net,DE,Europe,Western Europe,Germany,North Rhine-Westphalia,,Cologne
87.230.106.152,4,39,iccgermany.de,DE,Europe,Western Europe,Germany,North Rhine-Westphalia,,Cologne
80.237.132.213,4,23,ideology.de,DE,Europe,Western Europe,Germany,North Rhine-Westphalia,,Cologne
83.169.24.61,4,34,imoa.info,DE,Europe,Western Europe,Germany,North Rhine-Westphalia,,Cologne
92.204.37.99,4,13,infopoint-security.de,DE,Europe,Western Europe,Germany,North Rhine-Westphalia,,Cologne
87.230.106.63,4,24,inpactmedia.com,DE,Europe,Western Europe,Germany,North Rhine-Westphalia,,Cologne
92.204.37.100,4,7,interplan-media.de,DE,Europe,Western Europe,Germany,North Rhine-Westphalia,,Cologne
87.230.41.180,4,8,irfanview.com,DE,Europe,Western Europe,Germany,North Rhine-Westphalia,,Cologne
92.204.37.169,4,125,isa-guide.de,DE,Europe,Western Europe,Germany,North Rhine-Westphalia,,Cologne
176.28.33.203,4,49,its-owl.de,DE,Europe,Western Europe,Germany,North Rhine-Westphalia,,Cologne
80.237.133.145,4,7,jave.de,DE,Europe,Western Europe,Germany,North Rhine-Westphalia,,Cologne
178.77.84.100,4,8,jki.de,DE,Europe,Western Europe,Germany,North Rhine-Westphalia,,Cologne
80.237.133.116,4,3,josefscholz.de,DE,Europe,Western Europe,Germany,North Rhine-Westphalia,,Cologne
176.28.38.255,4,112,josieloves.de,DE,Europe,Western Europe,Germany,North Rhine-Westphalia,,Cologne
178.77.83.40,4,8,juelich.de,DE,Europe,Western Europe,Germany,North Rhine-Westphalia,,Cologne
92.204.37.165,4,21,jugendschutz.de,DE,Europe,Western Europe,Germany,North Rhine-Westphalia,,Cologne
87.230.106.231,4,18,karl-may-gesellschaft.de,DE,Europe,Western Europe,Germany,North Rhine-Westphalia,,Cologne
213.95.241.11,4,33,karmapa.org,DE,Europe,Western Europe,Germany,North Rhine-Westphalia,,Cologne
178.77.82.84,4,119,kartensicherheit.de,DE,Europe,Western Europe,Germany,North Rhine-Westphalia,,Cologne
80.237.132.130,4,2,kennel-makalali.de,DE,Europe,Western Europe,Germany,North Rhine-Westphalia,,Cologne
87.230.61.117,4,34,kinderschutz-zentren.org,DE,Europe,Western Europe,Germany,North Rhine-Westphalia,,Cologne
139.6.141.9,4,-1651,kisd.de,DE,Europe,Western Europe,Germany,North Rhine-Westphalia,,Cologne
212.117.64.234,4,10,klenkes.de,DE,Europe,Western Europe,Germany,North Rhine-Westphalia,,Cologne
80.237.132.31,4,4,klick-tipps.net,DE,Europe,Western Europe,Germany,North Rhine-Westphalia,,Cologne
87.230.63.55,4,7,kliniken-schmieder.de,DE,Europe,Western Europe,Germany,North Rhine-Westphalia,,Cologne
81.173.246.122,4,4,koeln.de,DE,Europe,Western Europe,Germany,North Rhine-Westphalia,,Cologne
83.169.30.255,4,73,komitee.de,DE,Europe,Western Europe,Germany,North Rhine-Westphalia,,Cologne
178.77.81.110,4,20,kradblatt.de,DE,Europe,Western Europe,Germany,North Rhine-Westphalia,,Cologne
87.130.7.133,4,13,kreis-unna.de,DE,Europe,Western Europe,Germany,North Rhine-Westphalia,,Cologne
134.119.0.207,4,84,kreuztal.de,DE,Europe,Western Europe,Germany,North Rhine-Westphalia,,Cologne
134.119.0.148,4,17,kristiankutschera.de,DE,Europe,Western Europe,Germany,North Rhine-Westphalia,,Cologne
83.169.28.48,4,7,krpano.com,DE,Europe,Western Europe,Germany,North Rhine-Westphalia,,Cologne
178.77.87.133,4,23,kulturbanause.de,DE,Europe,Western Europe,Germany,North Rhine-Westphalia,,Cologne
176.28.32.123,4,23,kulturzentrum-faust.de,DE,Europe,Western Europe,Germany,North Rhine-Westphalia,,Cologne
83.169.28.49,4,8,kunstakademie-muenster.de,DE,Europe,Western Europe,Germany,North Rhine-Westphalia,,Cologne
92.204.37.52,4,2,kurvenkoenig.de,DE,Europe,Western Europe,Germany,North Rhine-Westphalia,,Cologne
92.204.39.7,4,15,kw-berlin.de,DE,Europe,Western Europe,Germany,North Rhine-Westphalia,,Cologne
87.230.60.161,4,9,labortechnik.com,DE,Europe,Western Europe,Germany,North Rhine-Westphalia,,Cologne
92.204.37.38,4,2,labyrinth-kindermuseum.de,DE,Europe,Western Europe,Germany,North Rhine-Westphalia,,Cologne
134.119.0.142,4,7,landkreis-landsberg.de,DE,Europe,Western Europe,Germany,North Rhine-Westphalia,,Cologne
87.230.104.175,4,51,ledstyles.de,DE,Europe,Western Europe,Germany,North Rhine-Westphalia,,Cologne
178.77.82.11,4,54,lehmbruckmuseum.de,DE,Europe,Western Europe,Germany,North Rhine-Westphalia,,Cologne
134.119.0.114,4,7,lehner.com,DE,Europe,Western Europe,Germany,North Rhine-Westphalia,,Cologne
92.204.37.224,4,73,lehrerverband.de,DE,Europe,Western Europe,Germany,North Rhine-Westphalia,,Cologne
87.230.43.80,4,26,lilies-diary.com,DE,Europe,Western Europe,Germany,North Rhine-Westphalia,,Cologne
87.230.106.239,4,53,linzmeier.de,DE,Europe,Western Europe,Germany,North Rhine-Westphalia,,Cologne
89.1.66.106,4,5,litcologne.de,DE,Europe,Western Europe,Germany,North Rhine-Westphalia,,Cologne
134.95.56.223,4,4,livivo.de,DE,Europe,Western Europe,Germany,North Rhine-Westphalia,,Cologne
176.28.32.126,4,8,loewenherz.at,DE,Europe,Western Europe,Germany,North Rhine-Westphalia,,Cologne
134.119.0.211,4,4,loreley-touristik.de,DE,Europe,Western Europe,Germany,North Rhine-Westphalia,,Cologne
83.169.30.161,4,12,losteria.net,DE,Europe,Western Europe,Germany,North Rhine-Westphalia,,Cologne
92.204.37.40,4,23,mainz-bingen.de,DE,Europe,Western Europe,Germany,North Rhine-Westphalia,,Cologne
83.169.29.242,4,21,maniac.de,DE,Europe,Western Europe,Germany,North Rhine-Westphalia,,Cologne
87.230.43.92,4,70,marcthiele.com,DE,Europe,Western Europe,Germany,North Rhine-Westphalia,,Cologne
134.119.0.101,4,40,marktforschung.de,DE,Europe,Western Europe,Germany,North Rhine-Westphalia,,Cologne
80.237.133.52,4,70,marxists.de,DE,Europe,Western Europe,Germany,North Rhine-Westphalia,,Cologne
87.230.44.151,4,36,mathematik.de,DE,Europe,Western Europe,Germany,North Rhine-Westphalia,,Cologne
176.28.36.92,4,20,mauermuseum.de,DE,Europe,Western Europe,Germany,North Rhine-Westphalia,,Cologne
213.95.248.12,4,68,medatixx.de,DE,Europe,Western Europe,Germany,North Rhine-Westphalia,,Cologne
92.204.37.120,4,2,mediengestalter.info,DE,Europe,Western Europe,Germany,North Rhine-Westphalia,,Cologne
87.230.106.228,4,57,medmix.at,DE,Europe,Western Europe,Germany,North Rhine-Westphalia,,Cologne
87.230.104.43,4,45,merkel-die-jagd.de,DE,Europe,Western Europe,Germany,North Rhine-Westphalia,,Cologne
83.169.31.74,4,40,mettmann.de,DE,Europe,Western Europe,Germany,North Rhine-Westphalia,,Cologne
92.204.37.220,4,5,mfg.de,DE,Europe,Western Europe,Germany,North Rhine-Westphalia,,Cologne
87.230.43.60,4,19,microdrones.com,DE,Europe,Western Europe,Germany,North Rhine-Westphalia,,Cologne
83.169.25.134,4,9,mineralwasser.com,DE,Europe,Western Europe,Germany,North Rhine-Westphalia,,Cologne
92.204.37.56,4,4,minol.de,DE,Europe,Western Europe,Germany,North Rhine-Westphalia,,Cologne
87.230.40.231,4,61,mirabyte.com,DE,Europe,Western Europe,Germany,North Rhine-Westphalia,,Cologne
80.237.133.221,4,13,mlwerke.de,DE,Europe,Western Europe,Germany,North Rhine-Westphalia,,Cologne
87.230.61.248,4,79,modellbau-universe.de,DE,Europe,Western Europe,Germany,North Rhine-Westphalia,,Cologne
134.119.0.109,4,7,molli-bahn.de,DE,Europe,Western Europe,Germany,North Rhine-Westphalia,,Cologne
92.204.39.12,4,4,monumente-online.de,DE,Europe,Western Europe,Germany,North Rhine-Westphalia,,Cologne
134.119.0.127,4,2,moselsteig.de,DE,Europe,Western Europe,Germany,North Rhine-Westphalia,,Cologne
87.230.47.184,4,33,mt-propeller.com,DE,Europe,Western Europe,Germany,North Rhine-Westphalia,,Cologne
92.204.37.235,4,81,muenchner-stadtbibliothek.de,DE,Europe,Western Europe,Germany,North Rhine-Westphalia,,Cologne
134.119.0.6,4,47,muensingen.de,DE,Europe,Western Europe,Germany,North Rhine-Westphalia,,Cologne
87.230.40.101,4,159,munich-info.de,DE,Europe,Western Europe,Germany,North Rhine-Westphalia,,Cologne
87.230.63.118,4,19,musikschulen.de,DE,Europe,Western Europe,Germany,North Rhine-Westphalia,,Cologne
81.173.246.8,4,2,mynetcologne.de,DE,Europe,Western Europe,Germany,North Rhine-Westphalia,,Cologne
83.169.25.95,4,8,nabertherm.com,DE,Europe,Western Europe,Germany,North Rhine-Westphalia,,Cologne
83.169.26.16,4,11,naturadb.de,DE,Europe,Western Europe,Germany,North Rhine-Westphalia,,Cologne
87.230.62.243,4,59,naturkundemuseum-bw.de,DE,Europe,Western Europe,Germany,North Rhine-Westphalia,,Cologne
134.119.0.13,4,53,naturparkfrauholle.land,DE,Europe,Western Europe,Germany,North Rhine-Westphalia,,Cologne
92.204.37.129,4,9,net4energy.com,DE,Europe,Western Europe,Germany,North Rhine-Westphalia,,Cologne
87.230.60.82,4,7,nix-wie-weg.de,DE,Europe,Western Europe,Germany,North Rhine-Westphalia,,Cologne
176.28.32.12,4,14,noa.network,DE,Europe,Western Europe,Germany,North Rhine-Westphalia,,Cologne
87.230.62.37,4,31,nordhausen.de,DE,Europe,Western Europe,Germany,North Rhine-Westphalia,,Cologne
92.204.39.13,4,3,nordische-musik.de,DE,Europe,Western Europe,Germany,North Rhine-Westphalia,,Cologne
134.119.0.113,4,4,ochsner.com,DE,Europe,Western Europe,Germany,North Rhine-Westphalia,,Cologne
83.169.25.43,4,9,ohhcouture.com,DE,Europe,Western Europe,Germany,North Rhine-Westphalia,,Cologne
134.119.0.117,4,40,okal.de,DE,Europe,Western Europe,Germany,North Rhine-Westphalia,,Cologne
87.230.60.244,4,8,osterfestspiele-salzburg.at,DE,Europe,Western Europe,Germany,North Rhine-Westphalia,,Cologne
83.169.28.12,4,52,palast-orchester.de,DE,Europe,Western Europe,Germany,North Rhine-Westphalia,,Cologne
80.82.223.151,4,12,panzer-archiv.de,DE,Europe,Western Europe,Germany,North Rhine-Westphalia,,Cologne
87.230.105.206,4,73,party-san.de,DE,Europe,Western Europe,Germany,North Rhine-Westphalia,,Cologne
87.230.104.219,4,84,partymat.de,DE,Europe,Western Europe,Germany,North Rhine-Westphalia,,Cologne
83.169.26.190,4,83,persoenlichkeits-blog.de,DE,Europe,Western Europe,Germany,North Rhine-Westphalia,,Cologne
134.119.0.34,4,4,pfullingen.de,DE,Europe,Western Europe,Germany,North Rhine-Westphalia,,Cologne
176.28.33.28,4,23,phlow.net,DE,Europe,Western Europe,Germany,North Rhine-Westphalia,,Cologne
80.237.132.227,4,43,piratenfraktion-berlin.de,DE,Europe,Western Europe,Germany,North Rhine-Westphalia,,Cologne
87.230.62.160,4,6,planearium.de,DE,Europe,Western Europe,Germany,North Rhine-Westphalia,,Cologne
92.204.39.22,4,3,powerlifting.sport,DE,Europe,Western Europe,Germany,North Rhine-Westphalia,,Cologne
134.119.0.74,4,2,progressives-zentrum.org,DE,Europe,Western Europe,Germany,North Rhine-Westphalia,,Cologne
83.169.29.130,4,35,projectwizards.net,DE,Europe,Western Europe,Germany,North Rhine-Westphalia,,Cologne
87.230.42.132,4,8,queer.de,DE,Europe,Western Europe,Germany,North Rhine-Westphalia,,Cologne
178.77.82.27,4,53,recherchepool.net,DE,Europe,Western Europe,Germany,North Rhine-Westphalia,,Cologne
87.230.60.254,4,49,regional-saisonal.de,DE,Europe,Western Europe,Germany,North Rhine-Westphalia,,Cologne
89.1.69.213,4,33,reissdorf.de,DE,Europe,Western Europe,Germany,North Rhine-Westphalia,,Cologne
134.119.0.238,4,14,renewables-grid.eu,DE,Europe,Western Europe,Germany,North Rhine-Westphalia,,Cologne
87.230.107.61,4,53,resavio.com,DE,Europe,Western Europe,Germany,North Rhine-Westphalia,,Cologne
80.82.223.211,4,169,rhede.de,DE,Europe,Western Europe,Germany,North Rhine-Westphalia,,Cologne
134.119.0.217,4,29,rheinstetten.de,DE,Europe,Western Europe,Germany,North Rhine-Westphalia,,Cologne
134.119.0.40,4,16,rielismedia.com,DE,Europe,Western Europe,Germany,North Rhine-Westphalia,,Cologne
80.237.133.67,4,1,rmnrelax.de,DE,Europe,Western Europe,Germany,North Rhine-Westphalia,,Cologne
87.230.104.22,4,8,rudolstadt.de,DE,Europe,Western Europe,Germany,North Rhine-Westphalia,,Cologne
83.169.31.119,4,23,sandraandwoo.com,DE,Europe,Western Europe,Germany,North Rhine-Westphalia,,Cologne
134.119.0.21,4,2,schaalsee.de,DE,Europe,Western Europe,Germany,North Rhine-Westphalia,,Cologne
87.230.47.166,4,15,schattauer.de,DE,Europe,Western Europe,Germany,North Rhine-Westphalia,,Cologne
176.28.39.241,4,61,scheringstiftung.de,DE,Europe,Western Europe,Germany,North Rhine-Westphalia,,Cologne
134.119.0.8,4,2,schiltach.de,DE,Europe,Western Europe,Germany,North Rhine-Westphalia,,Cologne
134.119.0.2,4,72,schlossmuseum-murnau.de,DE,Europe,Western Europe,Germany,North Rhine-Westphalia,,Cologne
87.230.47.67,4,29,schmetterling-verlag.de,DE,Europe,Western Europe,Germany,North Rhine-Westphalia,,Cologne
134.119.0.33,4,2,schopfheim.de,DE,Europe,Western Europe,Germany,North Rhine-Westphalia,,Cologne
134.119.0.54,4,80,schuhfried.com,DE,Europe,Western Europe,Germany,North Rhine-Westphalia,,Cologne
134.119.0.69,4,3,schussenrieder.de,DE,Europe,Western Europe,Germany,North Rhine-Westphalia,,Cologne
80.82.223.88,4,71,schwartzpr.de,DE,Europe,Western Europe,Germany,North Rhine-Westphalia,,Cologne
176.28.33.41,4,22,sea-shepherd.de,DE,Europe,Western Europe,Germany,North Rhine-Westphalia,,Cologne
83.169.29.181,4,9,sehen.de,DE,Europe,Western Europe,Germany,North Rhine-Westphalia,,Cologne
87.230.60.223,4,9,sehsuechte.de,DE,Europe,Western Europe,Germany,North Rhine-Westphalia,,Cologne
92.204.37.96,4,19,selbstbewusstsein-staerken.net,DE,Europe,Western Europe,Germany,North Rhine-Westphalia,,Cologne
134.119.0.110,4,47,select-hotels.com,DE,Europe,Western Europe,Germany,North Rhine-Westphalia,,Cologne
87.230.60.100,4,35,selectline.de,DE,Europe,Western Europe,Germany,North Rhine-Westphalia,,Cologne
87.230.105.175,4,26,selfseo.com,DE,Europe,Western Europe,Germany,North Rhine-Westphalia,,Cologne
80.237.132.119,4,5,semantic-mediawiki.net,DE,Europe,Western Europe,Germany,North Rhine-Westphalia,,Cologne
134.119.0.149,4,10,senertec.de,DE,Europe,Western Europe,Germany,North Rhine-Westphalia,,Cologne
83.169.27.88,4,34,sepago.de,DE,Europe,Western Europe,Germany,North Rhine-Westphalia,,Cologne
80.237.132.19,4,25,server-he.de,DE,Europe,Western Europe,Germany,North Rhine-Westphalia,,Cologne
176.28.33.206,4,52,severint.net,DE,Europe,Western Europe,Germany,North Rhine-Westphalia,,Cologne
212.117.74.180,4,7,shaker.de,DE,Europe,Western Europe,Germany,North Rhine-Westphalia,,Cologne
176.28.35.112,4,8,sicgmbh.de,DE,Europe,Western Europe,Germany,North Rhine-Westphalia,,Cologne
87.230.40.236,4,7,silvergames.com,DE,Europe,Western Europe,Germany,North Rhine-Westphalia,,Cologne
87.230.45.172,4,8,singulus.de,DE,Europe,Western Europe,Germany,North Rhine-Westphalia,,Cologne
80.237.133.51,4,15,smiliegenerator.de,DE,Europe,Western Europe,Germany,North Rhine-Westphalia,,Cologne
134.119.0.4,4,3,so-ist-soest.de,DE,Europe,Western Europe,Germany,North Rhine-Westphalia,,Cologne
87.230.60.240,4,54,solar-district-heating.eu,DE,Europe,Western Europe,Germany,North Rhine-Westphalia,,Cologne
92.204.37.43,4,23,solaranlage-ratgeber.de,DE,Europe,Western Europe,Germany,North Rhine-Westphalia,,Cologne
134.119.0.200,4,11,solidarische-landwirtschaft.org,DE,Europe,Western Europe,Germany,North Rhine-Westphalia,,Cologne
92.204.37.77,4,7,solymar-therme.de,DE,Europe,Western Europe,Germany,North Rhine-Westphalia,,Cologne
134.119.0.20,4,3,somacos.de,DE,Europe,Western Europe,Germany,North Rhine-Westphalia,,Cologne
87.230.107.79,4,24,somatic-experiencing.de,DE,Europe,Western Europe,Germany,North Rhine-Westphalia,,Cologne
134.119.0.102,4,3,splendid-research.com,DE,Europe,Western Europe,Germany,North Rhine-Westphalia,,Cologne
176.28.37.94,4,34,sport-science.org,DE,Europe,Western Europe,Germany,North Rhine-Westphalia,,Cologne
83.169.25.211,4,9,spreeblick.com,DE,Europe,Western Europe,Germany,North Rhine-Westphalia,,Cologne
87.230.104.81,4,60,stadtbranche.de,DE,Europe,Western Europe,Germany,North Rhine-Westphalia,,Cologne
176.28.38.245,4,9,stadtgeschichte-ffm.de,DE,Europe,Western Europe,Germany,North Rhine-Westphalia,,Cologne
92.204.37.151,4,8,sternundkreis.de,DE,Europe,Western Europe,Germany,North Rhine-Westphalia,,Cologne
87.230.47.241,4,34,steuern.de,DE,Europe,Western Europe,Germany,North Rhine-Westphalia,,Cologne
87.230.107.118,4,34,stiftung-naturschutz.de,DE,Europe,Western Europe,Germany,North Rhine-Westphalia,,Cologne
80.237.133.19,4,7,story-of-berlin.de,DE,Europe,Western Europe,Germany,North Rhine-Westphalia,,Cologne
92.204.39.20,4,7,superbude.de,DE,Europe,Western Europe,Germany,North Rhine-Westphalia,,Cologne
87.230.45.199,4,22,talawas.org,DE,Europe,Western Europe,Germany,North Rhine-Westphalia,,Cologne
134.119.0.206,4,1,tanzmesse.com,DE,Europe,Western Europe,Germany,North Rhine-Westphalia,,Cologne
87.230.104.172,4,27,taubertal-festival.de,DE,Europe,Western Europe,Germany,North Rhine-Westphalia,,Cologne
176.28.37.24,4,22,teamgeist.com,DE,Europe,Western Europe,Germany,North Rhine-Westphalia,,Cologne
83.169.27.113,4,68,techfacts.net,DE,Europe,Western Europe,Germany,North Rhine-Westphalia,,Cologne
80.237.132.27,4,59,techotronic.de,DE,Europe,Western Europe,Germany,North Rhine-Westphalia,,Cologne
80.237.132.125,4,61,termine-in.de,DE,Europe,Western Europe,Germany,North Rhine-Westphalia,,Cologne
178.77.80.43,4,8,theaterderzeit.de,DE,Europe,Western Europe,Germany,North Rhine-Westphalia,,Cologne
134.119.0.38,4,10,thebeeroness.com,DE,Europe,Western Europe,Germany,North Rhine-Westphalia,,Cologne
134.119.0.23,4,3,theblueshield.org,DE,Europe,Western Europe,Germany,North Rhine-Westphalia,,Cologne
176.28.37.19,4,7,themezee.com,DE,Europe,Western Europe,Germany,North Rhine-Westphalia,,Cologne
134.119.0.229,4,28,tieraerzteverband.de,DE,Europe,Western Europe,Germany,North Rhine-Westphalia,,Cologne
134.119.0.202,4,3,tieranzeigen.at,DE,Europe,Western Europe,Germany,North Rhine-Westphalia,,Cologne
176.28.38.99,4,14,tierklinik-hofheim.de,DE,Europe,Western Europe,Germany,North Rhine-Westphalia,,Cologne
134.119.0.133,4,2,tourentipp.de,DE,Europe,Western Europe,Germany,North Rhine-Westphalia,,Cologne
134.119.0.22,4,7,tuttlingen.de,DE,Europe,Western Europe,Germany,North Rhine-Westphalia,,Cologne
80.82.223.198,4,627,ueckermuende.de,DE,Europe,Western Europe,Germany,North Rhine-Westphalia,,Cologne
89.1.69.214,4,2,ukbonn.de,DE,Europe,Western Europe,Germany,North Rhine-Westphalia,,Cologne
80.237.133.14,4,5,umax.de,DE,Europe,Western Europe,Germany,North Rhine-Westphalia,,Cologne
134.119.0.30,4,15,unterhaching.de,DE,Europe,Western Europe,Germany,North Rhine-Westphalia,,Cologne
176.28.39.82,4,7,unternimm-die-zukunft.de,DE,Europe,Western Europe,Germany,North Rhine-Westphalia,,Cologne
87.230.107.133,4,13,upload-magazin.de,DE,Europe,Western Europe,Germany,North Rhine-Westphalia,,Cologne
87.230.47.247,4,8,usa-kulinarisch.de,DE,Europe,Western Europe,Germany,North Rhine-Westphalia,,Cologne
134.119.0.170,4,18,vah-online.de,DE,Europe,Western Europe,Germany,North Rhine-Westphalia,,Cologne
178.77.85.76,4,20,vegan.at,DE,Europe,Western Europe,Germany,North Rhine-Westphalia,,Cologne
87.230.60.157,4,32,versicherungsjournal.de,DE,Europe,Western Europe,Germany,North Rhine-Westphalia,,Cologne
87.230.60.41,4,53,vias.org,DE,Europe,Western Europe,Germany,North Rhine-Westphalia,,Cologne
83.169.30.1,4,32,vindobona.org,DE,Europe,Western Europe,Germany,North Rhine-Westphalia,,Cologne
87.230.43.108,4,8,vlc.de,DE,Europe,Western Europe,Germany,North Rhine-Westphalia,,Cologne
134.119.0.141,4,19,w-hs.de,DE,Europe,Western Europe,Germany,North Rhine-Westphalia,,Cologne
134.119.0.42,4,13,waiblingen.de,DE,Europe,Western Europe,Germany,North Rhine-Westphalia,,Cologne
83.169.28.255,4,10,waizmanntabelle.de,DE,Europe,Western Europe,Germany,North Rhine-Westphalia,,Cologne
134.119.0.41,4,8,wallduern.de,DE,Europe,Western Europe,Germany,North Rhine-Westphalia,,Cologne
134.119.0.190,4,6,watergate.tv,DE,Europe,Western Europe,Germany,North Rhine-Westphalia,,Cologne
92.204.37.160,4,13,weberweb.com,DE,Europe,Western Europe,Germany,North Rhine-Westphalia,,Cologne
92.204.37.124,4,9,weblication.de,DE,Europe,Western Europe,Germany,North Rhine-Westphalia,,Cologne
178.77.86.113,4,15,wecanhelp.de,DE,Europe,Western Europe,Germany,North Rhine-Westphalia,,Cologne
134.119.0.32,4,7,weinstadt.de,DE,Europe,Western Europe,Germany,North Rhine-Westphalia,,Cologne
92.204.37.182,4,17,weiterstadt.de,DE,Europe,Western Europe,Germany,North Rhine-Westphalia,,Cologne
134.119.0.215,4,16,welcome-hotels.com,DE,Europe,Western Europe,Germany,North Rhine-Westphalia,,Cologne
87.230.41.73,4,10,werkhaus.de,DE,Europe,Western Europe,Germany,North Rhine-Westphalia,,Cologne
134.119.0.108,4,3,werne.de,DE,Europe,Western Europe,Germany,North Rhine-Westphalia,,Cologne
87.230.60.63,4,-1,wfbb.de,DE,Europe,Western Europe,Germany,North Rhine-Westphalia,,Cologne
176.28.32.75,4,18,win-tipps-tweaks.de,DE,Europe,Western Europe,Germany,North Rhine-Westphalia,,Cologne
176.28.33.104,4,17,winheller.com,DE,Europe,Western Europe,Germany,North Rhine-Westphalia,,Cologne
80.82.223.250,4,30,witten.de,DE,Europe,Western Europe,Germany,North Rhine-Westphalia,,Cologne
80.82.223.190,4,-36,wittmund.de,DE,Europe,Western Europe,Germany,North Rhine-Westphalia,,Cologne
87.230.106.85,4,10,wiwi-online.de,DE,Europe,Western Europe,Germany,North Rhine-Westphalia,,Cologne
87.230.43.225,4,50,woche-fuer-das-leben.de,DE,Europe,Western Europe,Germany,North Rhine-Westphalia,,Cologne
92.204.37.104,4,30,wodtke.com,DE,Europe,Western Europe,Germany,North Rhine-Westphalia,,Cologne
176.28.33.79,4,20,worlddata.info,DE,Europe,Western Europe,Germany,North Rhine-Westphalia,,Cologne
83.169.25.92,4,8,worldmapper.org,DE,Europe,Western Europe,Germany,North Rhine-Westphalia,,Cologne
134.119.0.100,4,15,worms.de,DE,Europe,Western Europe,Germany,North Rhine-Westphalia,,Cologne
134.119.0.221,4,5,wuehltischwelpen.de,DE,Europe,Western Europe,Germany,North Rhine-Westphalia,,Cologne
80.82.223.240,4,-83,wunstorf.de,DE,Europe,Western Europe,Germany,North Rhine-Westphalia,,Cologne
80.237.133.68,4,4,wutang-corp.com,DE,Europe,Western Europe,Germany,North Rhine-Westphalia,,Cologne
80.237.133.190,4,2,yash-international.com,DE,Europe,Western Europe,Germany,North Rhine-Westphalia,,Cologne
87.230.46.139,4,8,yeezy350.de,DE,Europe,Western Europe,Germany,North Rhine-Westphalia,,Cologne
87.230.106.142,4,9,zoe-delay.de,DE,Europe,Western Europe,Germany,North Rhine-Westphalia,,Cologne
83.169.30.175,4,8,zs-antikeuhren.de,DE,Europe,Western Europe,Germany,North Rhine-Westphalia,,Cologne
