reflector_ip,ip_version,offset,description,country_code,region,sub_region,country_name,sub_division_1,sub_division_2,city
176.74.17.186,4,98,babington.co.uk,GB,Europe,Northern Europe,United Kingdom,England,Brent,Brent
176.74.17.208,4,1714,balticmill.com,GB,Europe,Northern Europe,United Kingdom,England,Brent,Brent
92.26.85.204,4,13,bristolcars.co.uk,GB,Europe,Northern Europe,United Kingdom,England,Brent,Brent
176.74.21.81,4,4,bsperio.org.uk,GB,Europe,Northern Europe,United Kingdom,England,Brent,Brent
176.74.17.140,4,53,businessfocusmagazine.com,GB,Europe,Northern Europe,United Kingdom,England,Brent,Brent
176.74.22.3,4,58,christmas.co.uk,GB,Europe,Northern Europe,United Kingdom,England,Brent,Brent
176.74.18.83,4,27,colostomyuk.org,GB,Europe,Northern Europe,United Kingdom,England,Brent,Brent
176.74.17.227,4,117,cornwallairambulancetrust.org,GB,Europe,Northern Europe,United Kingdom,England,Brent,Brent
176.74.17.67,4,5,doxdesk.com,GB,Europe,Northern Europe,United Kingdom,England,Brent,Brent
176.74.21.72,4,46,eaaa.org.uk,GB,Europe,Northern Europe,United Kingdom,England,Brent,Brent
193.33.178.145,4,222762,foon.co.uk,GB,Europe,Northern Europe,United Kingdom,England,Brent,Brent
176.74.20.112,4,61,footballkitnews.com,GB,Europe,Northern Europe,United Kingdom,England,Brent,Brent
176.74.17.216,4,54,funds-europe.com,GB,Europe,Northern Europe,United Kingdom,England,Brent,Brent
176.74.16.235,4,4,futo.edu.ng,GB,Europe,Northern Europe,United Kingdom,England,Brent,Brent
193.33.178.19,4,112,geographyfieldwork.com,GB,Europe,Northern Europe,United Kingdom,England,Brent,Brent
176.74.20.39,4,13,gmintegratedcare.org.uk,GB,Europe,Northern Europe,United Kingdom,England,Brent,Brent
176.74.21.84,4,25,greaterlincolnshirelep.co.uk,GB,Europe,Northern Europe,United Kingdom,England,Brent,Brent
193.33.179.237,4,4,heyrick.co.uk,GB,Europe,Northern Europe,United Kingdom,England,Brent,Brent
176.74.18.90,4,1708,impressions-gallery.com,GB,Europe,Northern Europe,United Kingdom,England,Brent,Brent
176.74.20.104,4,10,mobilesquared.co.uk,GB,Europe,Northern Europe,United Kingdom,England,Brent,Brent
176.74.20.6,4,1,nureyev.org,GB,Europe,Northern Europe,United Kingdom,England,Brent,Brent
176.74.17.202,4,6,redbeemedia.com,GB,Europe,Northern Europe,United Kingdom,England,Brent,Brent
176.74.20.8,4,33,societyofeditors.org,GB,Europe,Northern Europe,United Kingdom,England,Brent,Brent
176.74.18.57,4,2,spinal-research.org,GB,Europe,Northern Europe,United Kingdom,England,Brent,Brent
176.74.21.75,4,9,uniglobalunion.org,GB,Europe,Northern Europe,United Kingdom,England,Brent,Brent
176.74.20.5,4,11,watchmesee.com,GB,Europe,Northern Europe,United Kingdom,England,Brent,Brent
176.74.18.110,4,2,wenlock-olympian-society.org.uk,GB,Europe,Northern Europe,United Kingdom,England,Brent,Brent
176.74.18.98,4,13,wmgallery.org.uk,GB,Europe,Northern Europe,United Kingdom,England,Brent,Brent
176.74.16.11,4,4,world-stroke.org,GB,Europe,Northern Europe,United Kingdom,England,Brent,Brent
176.74.16.31,4,2,worldobesity.org,GB,Europe,Northern Europe,United Kingdom,England,Brent,Brent
176.74.21.113,4,32,worldobesityday.org,GB,Europe,Northern Europe,United Kingdom,England,Brent,Brent
