reflector_ip,ip_version,offset,description,country_code,region,sub_region,country_name,sub_division_1,sub_division_2,city
116.203.8.242,4,5,0180.info,DE,Europe,Western Europe,Germany,Bavaria,,Nuremberg
78.47.198.52,4,12,1001beach.com,DE,Europe,Western Europe,Germany,Bavaria,,Nuremberg
78.47.226.40,4,5,100posto.hr,DE,Europe,Western Europe,Germany,Bavaria,,Nuremberg
195.201.132.249,4,11,1212.be,DE,Europe,Western Europe,Germany,Bavaria,,Nuremberg
88.99.189.153,4,6,15questions.net,DE,Europe,Western Europe,Germany,Bavaria,,Nuremberg
202.61.233.84,4,3,1bob.de,DE,Europe,Western Europe,Germany,Bavaria,,Nuremberg
188.40.221.178,4,21,1digitalmarketer.ir,DE,Europe,Western Europe,Germany,Bavaria,,Nuremberg
213.136.69.211,4,6,2040-cars.com,DE,Europe,Western Europe,Germany,Bavaria,,Nuremberg
173.249.32.195,4,-29,2040-parts.com,DE,Europe,Western Europe,Germany,Bavaria,,Nuremberg
94.130.182.101,4,5,222.at,DE,Europe,Western Europe,Germany,Bavaria,,Nuremberg
159.69.39.68,4,10,24hod.sk,DE,Europe,Western Europe,Germany,Bavaria,,Nuremberg
116.203.122.135,4,4,2x2online.net,DE,Europe,Western Europe,Germany,Bavaria,,Nuremberg
167.235.222.242,4,7,30kmh.eu,DE,Europe,Western Europe,Germany,Bavaria,,Nuremberg
88.198.92.78,4,1,4-ch.net,DE,Europe,Western Europe,Germany,Bavaria,,Nuremberg
213.133.127.208,4,10,50x.com,DE,Europe,Western Europe,Germany,Bavaria,,Nuremberg
78.47.253.203,4,4,6xq.net,DE,Europe,Western Europe,Germany,Bavaria,,Nuremberg
213.239.227.118,4,19,7fon.org,DE,Europe,Western Europe,Germany,Bavaria,,Nuremberg
88.198.190.22,4,6,8000ers.com,DE,Europe,Western Europe,Germany,Bavaria,,Nuremberg
142.132.173.34,4,5,89q.sk,DE,Europe,Western Europe,Germany,Bavaria,,Nuremberg
213.239.212.165,4,5,8mm.cc,DE,Europe,Western Europe,Germany,Bavaria,,Nuremberg
116.203.194.1,4,7,aa.co.za,DE,Europe,Western Europe,Germany,Bavaria,,Nuremberg
152.53.34.88,4,4,aacademica.org,DE,Europe,Western Europe,Germany,Bavaria,,Nuremberg
5.75.169.245,4,7,abaroma.it,DE,Europe,Western Europe,Germany,Bavaria,,Nuremberg
194.36.146.99,4,718757,abfallshop.de,DE,Europe,Western Europe,Germany,Bavaria,,Nuremberg
185.22.222.20,4,-7,abgeordnetenwatch.de,DE,Europe,Western Europe,Germany,Bavaria,,Nuremberg
89.58.27.65,4,4,abtei-muensterschwarzach.de,DE,Europe,Western Europe,Germany,Bavaria,,Nuremberg
173.249.27.75,4,8,abylight.com,DE,Europe,Western Europe,Germany,Bavaria,,Nuremberg
185.233.188.64,4,3,abzonline.de,DE,Europe,Western Europe,Germany,Bavaria,,Nuremberg
116.203.96.231,4,15,accars.eu,DE,Europe,Western Europe,Germany,Bavaria,,Nuremberg
213.239.219.47,4,5,achse-online.de,DE,Europe,Western Europe,Germany,Bavaria,,Nuremberg
159.69.131.122,4,20,achtung.de,DE,Europe,Western Europe,Germany,Bavaria,,Nuremberg
128.140.6.31,4,8,acmesystems.it,DE,Europe,Western Europe,Germany,Bavaria,,Nuremberg
164.68.105.140,4,46,acra.it,DE,Europe,Western Europe,Germany,Bavaria,,Nuremberg
185.244.195.186,4,4,action.at,DE,Europe,Western Europe,Germany,Bavaria,,Nuremberg
213.136.72.125,4,30,add-ins.com,DE,Europe,Western Europe,Germany,Bavaria,,Nuremberg
116.203.110.180,4,18,addpeople.co.uk,DE,Europe,Western Europe,Germany,Bavaria,,Nuremberg
5.75.168.177,4,7,addpipe.com,DE,Europe,Western Europe,Germany,Bavaria,,Nuremberg
144.91.89.74,4,44,adee.org,DE,Europe,Western Europe,Germany,Bavaria,,Nuremberg
94.130.97.204,4,27,adelboden-lenk.ch,DE,Europe,Western Europe,Germany,Bavaria,,Nuremberg
188.68.47.69,4,6,adler-schluessel.de,DE,Europe,Western Europe,Germany,Bavaria,,Nuremberg
116.203.193.243,4,16,adpepper.com,DE,Europe,Western Europe,Germany,Bavaria,,Nuremberg
116.203.183.36,4,6,adventure-treff.de,DE,Europe,Western Europe,Germany,Bavaria,,Nuremberg
207.180.204.83,4,46,aeg.com.pk,DE,Europe,Western Europe,Germany,Bavaria,,Nuremberg
167.233.10.113,4,5,aerztekammer-berlin.de,DE,Europe,Western Europe,Germany,Bavaria,,Nuremberg
167.235.75.37,4,32,affiliateclub.cz,DE,Europe,Western Europe,Germany,Bavaria,,Nuremberg
94.130.74.15,4,72,affiliateconf.com,DE,Europe,Western Europe,Germany,Bavaria,,Nuremberg
157.90.24.168,4,4,afisha.uz,DE,Europe,Western Europe,Germany,Bavaria,,Nuremberg
195.201.94.32,4,6,aforathens.com,DE,Europe,Western Europe,Germany,Bavaria,,Nuremberg
188.68.49.107,4,9,afrique-europe-interact.net,DE,Europe,Western Europe,Germany,Bavaria,,Nuremberg
45.142.179.122,4,12,afrosmartshop.cm,DE,Europe,Western Europe,Germany,Bavaria,,Nuremberg
116.203.70.183,4,19,agaclar.net,DE,Europe,Western Europe,Germany,Bavaria,,Nuremberg
78.46.172.103,4,3,agf.de,DE,Europe,Western Europe,Germany,Bavaria,,Nuremberg
78.47.55.140,4,4,agmglobalvision.com,DE,Europe,Western Europe,Germany,Bavaria,,Nuremberg
78.46.7.40,4,5,agorainsights.dev,DE,Europe,Western Europe,Germany,Bavaria,,Nuremberg
116.202.249.38,4,7,agrofoto.pl,DE,Europe,Western Europe,Germany,Bavaria,,Nuremberg
195.201.220.80,4,4,agsat.com.ua,DE,Europe,Western Europe,Germany,Bavaria,,Nuremberg
185.233.189.103,4,2,ahgz.de,DE,Europe,Western Europe,Germany,Bavaria,,Nuremberg
144.91.110.201,4,6,ai.beauty,DE,Europe,Western Europe,Germany,Bavaria,,Nuremberg
202.61.229.69,4,12,aimeos.org,DE,Europe,Western Europe,Germany,Bavaria,,Nuremberg
85.10.239.217,4,44,airberlin.com,DE,Europe,Western Europe,Germany,Bavaria,,Nuremberg
116.203.45.66,4,17,airlite.com,DE,Europe,Western Europe,Germany,Bavaria,,Nuremberg
116.203.107.65,4,22,airsoftmarkt.nl,DE,Europe,Western Europe,Germany,Bavaria,,Nuremberg
159.69.205.33,4,5,aixtron.com,DE,Europe,Western Europe,Germany,Bavaria,,Nuremberg
94.16.121.6,4,4,akkadia.org,DE,Europe,Western Europe,Germany,Bavaria,,Nuremberg
94.130.27.92,4,57,aknr.de,DE,Europe,Western Europe,Germany,Bavaria,,Nuremberg
213.136.93.162,4,61,al-mahdi313.com,DE,Europe,Western Europe,Germany,Bavaria,,Nuremberg
159.69.29.216,4,61,alakhbar.info,DE,Europe,Western Europe,Germany,Bavaria,,Nuremberg
45.132.244.220,4,8,alexhaack.de,DE,Europe,Western Europe,Germany,Bavaria,,Nuremberg
159.69.88.68,4,5,alfaholicy.org,DE,Europe,Western Europe,Germany,Bavaria,,Nuremberg
5.189.182.167,4,81,alinnova.eu,DE,Europe,Western Europe,Germany,Bavaria,,Nuremberg
167.86.73.146,4,42,aliraqiya-news.com,DE,Europe,Western Europe,Germany,Bavaria,,Nuremberg
188.68.57.10,4,24,alldomains.hosting,DE,Europe,Western Europe,Germany,Bavaria,,Nuremberg
168.119.47.83,4,60,allergosan.com,DE,Europe,Western Europe,Germany,Bavaria,,Nuremberg
144.91.90.241,4,5,alluschurches.com,DE,Europe,Western Europe,Germany,Bavaria,,Nuremberg
213.136.90.112,4,37,almanacar.com,DE,Europe,Western Europe,Germany,Bavaria,,Nuremberg
116.203.45.129,4,3,alphabetisierung.de,DE,Europe,Western Europe,Germany,Bavaria,,Nuremberg
23.88.103.150,4,4,alpitronic.it,DE,Europe,Western Europe,Germany,Bavaria,,Nuremberg
207.180.221.201,4,7,alsa-project.org,DE,Europe,Western Europe,Germany,Bavaria,,Nuremberg
195.201.18.77,4,6,altairk.ru,DE,Europe,Western Europe,Germany,Bavaria,,Nuremberg
116.202.188.105,4,0,altaveu.com,DE,Europe,Western Europe,Germany,Bavaria,,Nuremberg
213.239.227.104,4,5,alternativefuer.de,DE,Europe,Western Europe,Germany,Bavaria,,Nuremberg
173.212.223.110,4,4,alternativenergia.hu,DE,Europe,Western Europe,Germany,Bavaria,,Nuremberg
116.203.224.163,4,57,alteva.in,DE,Europe,Western Europe,Germany,Bavaria,,Nuremberg
116.203.19.236,4,6,altoris.com.ua,DE,Europe,Western Europe,Germany,Bavaria,,Nuremberg
23.88.103.163,4,13,altreconomia.it,DE,Europe,Western Europe,Germany,Bavaria,,Nuremberg
78.47.191.102,4,5,americanhardwood.org,DE,Europe,Western Europe,Germany,Bavaria,,Nuremberg
195.201.36.244,4,41,amigaos.net,DE,Europe,Western Europe,Germany,Bavaria,,Nuremberg
91.204.46.118,4,5,amorbach.de,DE,Europe,Western Europe,Germany,Bavaria,,Nuremberg
78.47.183.51,4,39,andbus.net,DE,Europe,Western Europe,Germany,Bavaria,,Nuremberg
159.69.145.99,4,48,andreas-stockfleth.de,DE,Europe,Western Europe,Germany,Bavaria,,Nuremberg
202.61.232.70,4,23,angelelite.de,DE,Europe,Western Europe,Germany,Bavaria,,Nuremberg
167.233.13.246,4,42,animod.de,DE,Europe,Western Europe,Germany,Bavaria,,Nuremberg
195.201.113.231,4,5,anope.org,DE,Europe,Western Europe,Germany,Bavaria,,Nuremberg
78.46.230.217,4,5,anpi.it,DE,Europe,Western Europe,Germany,Bavaria,,Nuremberg
159.69.5.156,4,8,answering-islam.org,DE,Europe,Western Europe,Germany,Bavaria,,Nuremberg
157.90.56.183,4,47,apede.org,DE,Europe,Western Europe,Germany,Bavaria,,Nuremberg
45.9.61.58,4,7,apfil.de,DE,Europe,Western Europe,Germany,Bavaria,,Nuremberg
62.171.165.93,4,5,apintie.sr,DE,Europe,Western Europe,Germany,Bavaria,,Nuremberg
116.203.65.131,4,18,aplogistics.com.ua,DE,Europe,Western Europe,Germany,Bavaria,,Nuremberg
62.171.150.93,4,15,appeaseapex.com,DE,Europe,Western Europe,Germany,Bavaria,,Nuremberg
88.99.225.175,4,7,appelpop.nl,DE,Europe,Western Europe,Germany,Bavaria,,Nuremberg
116.203.51.122,4,10,aqa.ru,DE,Europe,Western Europe,Germany,Bavaria,,Nuremberg
167.235.140.101,4,5,aqotec.com,DE,Europe,Western Europe,Germany,Bavaria,,Nuremberg
23.88.54.113,4,10,aquabt.com,DE,Europe,Western Europe,Germany,Bavaria,,Nuremberg
207.180.242.126,4,10,aquarium.com.mt,DE,Europe,Western Europe,Germany,Bavaria,,Nuremberg
167.235.22.188,4,5,aquatuning.de,DE,Europe,Western Europe,Germany,Bavaria,,Nuremberg
136.243.165.165,4,24,arbeitssicherheit.de,DE,Europe,Western Europe,Germany,Bavaria,,Nuremberg
159.69.84.84,4,7,architettiroma.it,DE,Europe,Western Europe,Germany,Bavaria,,Nuremberg
45.83.104.253,4,20,ariadneprojekt.de,DE,Europe,Western Europe,Germany,Bavaria,,Nuremberg
157.90.163.55,4,1772,armeemuseum.de,DE,Europe,Western Europe,Germany,Bavaria,,Nuremberg
173.212.238.163,4,26,art3mis.de,DE,Europe,Western Europe,Germany,Bavaria,,Nuremberg
94.16.107.118,4,38,arte-magazin.de,DE,Europe,Western Europe,Germany,Bavaria,,Nuremberg
91.107.226.156,4,29,arthist.net,DE,Europe,Western Europe,Germany,Bavaria,,Nuremberg
49.12.197.71,4,58,artstorepro.com,DE,Europe,Western Europe,Germany,Bavaria,,Nuremberg
78.47.77.155,4,65,artvertep.com,DE,Europe,Western Europe,Germany,Bavaria,,Nuremberg
159.69.44.164,4,25,arworldseries.com,DE,Europe,Western Europe,Germany,Bavaria,,Nuremberg
5.189.143.123,4,7203094,arzublog.com,DE,Europe,Western Europe,Germany,Bavaria,,Nuremberg
161.97.69.203,4,57,aserspublishing.eu,DE,Europe,Western Europe,Germany,Bavaria,,Nuremberg
116.203.219.94,4,7,atlanticgrupa.com,DE,Europe,Western Europe,Germany,Bavaria,,Nuremberg
173.249.35.14,4,34,audio-markt.de,DE,Europe,Western Europe,Germany,Bavaria,,Nuremberg
162.55.223.147,4,7,audite.de,DE,Europe,Western Europe,Germany,Bavaria,,Nuremberg
116.202.189.205,4,7,austria-trend.at,DE,Europe,Western Europe,Germany,Bavaria,,Nuremberg
78.47.36.213,4,13,autobooking.com,DE,Europe,Western Europe,Germany,Bavaria,,Nuremberg
5.75.155.236,4,46,autoelectricsupplies.co.uk,DE,Europe,Western Europe,Germany,Bavaria,,Nuremberg
188.34.200.30,4,36,autogrill.it,DE,Europe,Western Europe,Germany,Bavaria,,Nuremberg
159.69.159.132,4,39,autohaus-koenig.de,DE,Europe,Western Europe,Germany,Bavaria,,Nuremberg
91.107.233.253,4,18,autostyle.nl,DE,Europe,Western Europe,Germany,Bavaria,,Nuremberg
168.119.41.216,4,8,av-test.org,DE,Europe,Western Europe,Germany,Bavaria,,Nuremberg
78.46.9.234,4,9,avcom.co.za,DE,Europe,Western Europe,Germany,Bavaria,,Nuremberg
162.55.153.73,4,4,aviareps.com,DE,Europe,Western Europe,Germany,Bavaria,,Nuremberg
167.235.146.179,4,5,aviationcv.com,DE,Europe,Western Europe,Germany,Bavaria,,Nuremberg
91.204.46.58,4,-28,axitecsolar.com,DE,Europe,Western Europe,Germany,Bavaria,,Nuremberg
94.130.179.130,4,6,ayudadieta.com,DE,Europe,Western Europe,Germany,Bavaria,,Nuremberg
94.130.188.191,4,5,ayurveda-akademie.org,DE,Europe,Western Europe,Germany,Bavaria,,Nuremberg
78.46.202.168,4,5,azg.am,DE,Europe,Western Europe,Germany,Bavaria,,Nuremberg
159.69.194.115,4,64,b-u-b.de,DE,Europe,Western Europe,Germany,Bavaria,,Nuremberg
159.69.135.54,4,62,b1-systems.de,DE,Europe,Western Europe,Germany,Bavaria,,Nuremberg
195.201.17.191,4,64,b1gmail.com,DE,Europe,Western Europe,Germany,Bavaria,,Nuremberg
207.180.228.96,4,64,babelzilla.org,DE,Europe,Western Europe,Germany,Bavaria,,Nuremberg
157.90.160.204,4,8,babypark.nl,DE,Europe,Western Europe,Germany,Bavaria,,Nuremberg
213.239.218.239,4,5,backsla.sh,DE,Europe,Western Europe,Germany,Bavaria,,Nuremberg
49.12.231.220,4,9,backwinkel.de,DE,Europe,Western Europe,Germany,Bavaria,,Nuremberg
168.119.234.154,4,12,bad-neuenahr-ahrweiler.de,DE,Europe,Western Europe,Germany,Bavaria,,Nuremberg
89.58.44.202,4,8,bad-schandau.de,DE,Europe,Western Europe,Germany,Bavaria,,Nuremberg
49.13.155.238,4,18,bad-wildungen.de,DE,Europe,Western Europe,Germany,Bavaria,,Nuremberg
37.120.161.63,4,3,bahoom.com,DE,Europe,Western Europe,Germany,Bavaria,,Nuremberg
152.89.105.239,4,61,balkanforum.info,DE,Europe,Western Europe,Germany,Bavaria,,Nuremberg
78.47.77.235,4,3,bamberg.de,DE,Europe,Western Europe,Germany,Bavaria,,Nuremberg
168.119.232.86,4,-1,bamberger-symphoniker.de,DE,Europe,Western Europe,Germany,Bavaria,,Nuremberg
94.16.120.107,4,6,baptisten.de,DE,Europe,Western Europe,Germany,Bavaria,,Nuremberg
185.170.114.121,4,40,bareos.org,DE,Europe,Western Europe,Germany,Bavaria,,Nuremberg
188.68.47.150,4,9,barragan-foundation.org,DE,Europe,Western Europe,Germany,Bavaria,,Nuremberg
46.38.231.162,4,8,bartenjev.si,DE,Europe,Western Europe,Germany,Bavaria,,Nuremberg
195.201.34.213,4,32,barton.de,DE,Europe,Western Europe,Germany,Bavaria,,Nuremberg
116.203.144.229,4,31,baselgovernance.org,DE,Europe,Western Europe,Germany,Bavaria,,Nuremberg
185.228.148.68,4,17,basler-beauty.de,DE,Europe,Western Europe,Germany,Bavaria,,Nuremberg
46.38.240.244,4,39,basteln-gestalten.de,DE,Europe,Western Europe,Germany,Bavaria,,Nuremberg
167.235.26.253,4,58,bauch-weg-studie.de,DE,Europe,Western Europe,Germany,Bavaria,,Nuremberg
168.119.116.149,4,7,bauer-at.com,DE,Europe,Western Europe,Germany,Bavaria,,Nuremberg
116.203.18.111,4,17,bauernverband.de,DE,Europe,Western Europe,Germany,Bavaria,,Nuremberg
213.239.241.23,4,51,bauerwilli.com,DE,Europe,Western Europe,Germany,Bavaria,,Nuremberg
167.235.50.249,4,55,bauforum24.biz,DE,Europe,Western Europe,Germany,Bavaria,,Nuremberg
188.68.47.132,4,3,baxbex.com,DE,Europe,Western Europe,Germany,Bavaria,,Nuremberg
78.47.183.104,4,13,bayika.de,DE,Europe,Western Europe,Germany,Bavaria,,Nuremberg
188.68.47.84,4,13,bdl-stillen.de,DE,Europe,Western Europe,Germany,Bavaria,,Nuremberg
188.68.32.165,4,51,be-forever.com,DE,Europe,Western Europe,Germany,Bavaria,,Nuremberg
78.47.125.91,4,65,bechstein.de,DE,Europe,Western Europe,Germany,Bavaria,,Nuremberg
195.201.74.20,4,8,beds24.com,DE,Europe,Western Europe,Germany,Bavaria,,Nuremberg
88.198.154.217,4,51,befestigungsfuchs.de,DE,Europe,Western Europe,Germany,Bavaria,,Nuremberg
202.61.232.148,4,7,behling.at,DE,Europe,Western Europe,Germany,Bavaria,,Nuremberg
94.130.58.16,4,3,beko-technologies.com,DE,Europe,Western Europe,Germany,Bavaria,,Nuremberg
45.83.104.71,4,56,belboon.de,DE,Europe,Western Europe,Germany,Bavaria,,Nuremberg
157.90.163.33,4,6,belg.be,DE,Europe,Western Europe,Germany,Bavaria,,Nuremberg
213.239.241.45,4,70,belocal.de,DE,Europe,Western Europe,Germany,Bavaria,,Nuremberg
116.203.8.18,4,50,berghof-foundation.org,DE,Europe,Western Europe,Germany,Bavaria,,Nuremberg
78.47.204.93,4,14,berlin.social,DE,Europe,Western Europe,Germany,Bavaria,,Nuremberg
116.202.183.223,4,3,berlinerbaeder.de,DE,Europe,Western Europe,Germany,Bavaria,,Nuremberg
159.69.196.225,4,73,bernau-schwarzwald.de,DE,Europe,Western Europe,Germany,Bavaria,,Nuremberg
94.130.72.106,4,15,berria.info,DE,Europe,Western Europe,Germany,Bavaria,,Nuremberg
78.47.166.240,4,11,besayaeuropa.es,DE,Europe,Western Europe,Germany,Bavaria,,Nuremberg
173.249.28.30,4,6,besiktasarena.com,DE,Europe,Western Europe,Germany,Bavaria,,Nuremberg
78.47.252.188,4,23,besserweiter.de,DE,Europe,Western Europe,Germany,Bavaria,,Nuremberg
168.119.123.231,4,70,bestattungen.de,DE,Europe,Western Europe,Germany,Bavaria,,Nuremberg
213.136.84.143,4,-5,bestchoiceorbit.com,DE,Europe,Western Europe,Germany,Bavaria,,Nuremberg
173.212.229.251,4,35,bestcoloringpages.com,DE,Europe,Western Europe,Germany,Bavaria,,Nuremberg
128.140.41.145,4,21,bestoldgames.net,DE,Europe,Western Europe,Germany,Bavaria,,Nuremberg
94.130.191.206,4,12,besucherzaehler-homepage.de,DE,Europe,Western Europe,Germany,Bavaria,,Nuremberg
78.47.100.83,4,5,betten.de,DE,Europe,Western Europe,Germany,Bavaria,,Nuremberg
162.55.63.105,4,10,bf17.de,DE,Europe,Western Europe,Germany,Bavaria,,Nuremberg
159.69.14.59,4,8,bfi.wien,DE,Europe,Western Europe,Germany,Bavaria,,Nuremberg
167.235.111.235,4,47,bibeltv.de,DE,Europe,Western Europe,Germany,Bavaria,,Nuremberg
116.203.4.144,4,70,bibelwerk.de,DE,Europe,Western Europe,Germany,Bavaria,,Nuremberg
116.203.185.196,4,43,bik-f.de,DE,Europe,Western Europe,Germany,Bavaria,,Nuremberg
152.89.105.80,4,26,bike-berlin-copenhagen.com,DE,Europe,Western Europe,Germany,Bavaria,,Nuremberg
207.180.193.198,4,5,bimedis.com,DE,Europe,Western Europe,Germany,Bavaria,,Nuremberg
173.249.15.17,4,-1,bina-istra.com,DE,Europe,Western Europe,Germany,Bavaria,,Nuremberg
49.12.195.217,4,42,bioaktuell.ch,DE,Europe,Western Europe,Germany,Bavaria,,Nuremberg
116.203.240.216,4,6,bioc.info,DE,Europe,Western Europe,Germany,Bavaria,,Nuremberg
78.47.109.81,4,8,biofrontera.com,DE,Europe,Western Europe,Germany,Bavaria,,Nuremberg
185.243.11.129,4,65,biokrebs.de,DE,Europe,Western Europe,Germany,Bavaria,,Nuremberg
188.68.47.247,4,58,biolib.de,DE,Europe,Western Europe,Germany,Bavaria,,Nuremberg
185.158.212.127,4,145,bioplanete.com,DE,Europe,Western Europe,Germany,Bavaria,,Nuremberg
116.202.247.243,4,19,biosphaere-bliesgau.eu,DE,Europe,Western Europe,Germany,Bavaria,,Nuremberg
207.180.208.169,4,14,birrificiolambrate.com,DE,Europe,Western Europe,Germany,Bavaria,,Nuremberg
49.13.157.60,4,5,biznisinfo.ba,DE,Europe,Western Europe,Germany,Bavaria,,Nuremberg
116.203.220.237,4,8,bk-muenchen.de,DE,Europe,Western Europe,Germany,Bavaria,,Nuremberg
116.203.206.145,4,2,bl3p.eu,DE,Europe,Western Europe,Germany,Bavaria,,Nuremberg
159.69.204.26,4,10,blackbeats.fm,DE,Europe,Western Europe,Germany,Bavaria,,Nuremberg
116.202.189.86,4,1,blaguss.com,DE,Europe,Western Europe,Germany,Bavaria,,Nuremberg
78.47.130.173,4,15,blickcheck.de,DE,Europe,Western Europe,Germany,Bavaria,,Nuremberg
202.61.253.13,4,9,blickfeld.com,DE,Europe,Western Europe,Germany,Bavaria,,Nuremberg
116.202.90.150,4,2084,blickinsbuch.de,DE,Europe,Western Europe,Germany,Bavaria,,Nuremberg
142.132.173.16,4,6,blitzer.de,DE,Europe,Western Europe,Germany,Bavaria,,Nuremberg
95.111.244.103,4,5,blockchainfinancialtimes.com,DE,Europe,Western Europe,Germany,Bavaria,,Nuremberg
195.201.249.123,4,48,blogtotal.de,DE,Europe,Western Europe,Germany,Bavaria,,Nuremberg
152.89.106.15,4,6,blue-marble.de,DE,Europe,Western Europe,Germany,Bavaria,,Nuremberg
5.75.175.36,4,7,bly.ch,DE,Europe,Western Europe,Germany,Bavaria,,Nuremberg
159.69.33.230,4,5,bmat.com,DE,Europe,Western Europe,Germany,Bavaria,,Nuremberg
94.130.74.85,4,5,bmedicalsystems.com,DE,Europe,Western Europe,Germany,Bavaria,,Nuremberg
88.198.194.215,4,18,bmwclub.by,DE,Europe,Western Europe,Germany,Bavaria,,Nuremberg
195.201.116.130,4,0,bodystreet.com,DE,Europe,Western Europe,Germany,Bavaria,,Nuremberg
159.69.105.111,4,9,bogneramplification.com,DE,Europe,Western Europe,Germany,Bavaria,,Nuremberg
85.10.196.119,4,31,boi.org.ua,DE,Europe,Western Europe,Germany,Bavaria,,Nuremberg
159.69.151.38,4,27,boligzonen.dk,DE,Europe,Western Europe,Germany,Bavaria,,Nuremberg
5.75.165.129,4,17,bomma.cz,DE,Europe,Western Europe,Germany,Bavaria,,Nuremberg
94.130.170.214,4,324087,bonus.com.de,DE,Europe,Western Europe,Germany,Bavaria,,Nuremberg
167.235.145.119,4,38,bookwyrm.world,DE,Europe,Western Europe,Germany,Bavaria,,Nuremberg
161.97.89.87,4,4,booo7.org,DE,Europe,Western Europe,Germany,Bavaria,,Nuremberg
152.53.35.177,4,27,borgbase.com,DE,Europe,Western Europe,Germany,Bavaria,,Nuremberg
116.203.151.248,4,11,borntur.com,DE,Europe,Western Europe,Germany,Bavaria,,Nuremberg
37.120.171.36,4,3,boswars.org,DE,Europe,Western Europe,Germany,Bavaria,,Nuremberg
116.203.65.61,4,57869,bottegaspa.com,DE,Europe,Western Europe,Germany,Bavaria,,Nuremberg
168.119.237.78,4,12,bptk.de,DE,Europe,Western Europe,Germany,Bavaria,,Nuremberg
88.198.222.122,4,9,brabantia.com,DE,Europe,Western Europe,Germany,Bavaria,,Nuremberg
116.203.0.109,4,5,brandtech.com,DE,Europe,Western Europe,Germany,Bavaria,,Nuremberg
202.61.203.93,4,25,braustuberl.de,DE,Europe,Western Europe,Germany,Bavaria,,Nuremberg
159.69.238.181,4,11,bremen-innovativ.de,DE,Europe,Western Europe,Germany,Bavaria,,Nuremberg
185.228.148.8,4,12,bremen.eu,DE,Europe,Western Europe,Germany,Bavaria,,Nuremberg
157.90.23.135,4,15,briarproject.org,DE,Europe,Western Europe,Germany,Bavaria,,Nuremberg
159.69.41.112,4,10,bridgetogantry.com,DE,Europe,Western Europe,Germany,Bavaria,,Nuremberg
116.202.187.0,4,40,brixen.it,DE,Europe,Western Europe,Germany,Bavaria,,Nuremberg
116.202.180.87,4,5,brocardi.it,DE,Europe,Western Europe,Germany,Bavaria,,Nuremberg
116.203.112.225,4,7,buchen.de,DE,Europe,Western Europe,Germany,Bavaria,,Nuremberg
94.16.98.149,4,6,buchhandel.de,DE,Europe,Western Europe,Germany,Bavaria,,Nuremberg
162.55.218.240,4,5,budihuman.rs,DE,Europe,Western Europe,Germany,Bavaria,,Nuremberg
213.239.214.179,4,51,budport.com.ua,DE,Europe,Western Europe,Germany,Bavaria,,Nuremberg
161.97.82.103,4,11,buildconenterprises.com,DE,Europe,Western Europe,Germany,Bavaria,,Nuremberg
164.68.104.22,4,12,burgasinfo.com,DE,Europe,Western Europe,Germany,Bavaria,,Nuremberg
157.90.168.129,4,6,buurtaal.de,DE,Europe,Western Europe,Germany,Bavaria,,Nuremberg
193.26.156.198,4,6,byzo.de,DE,Europe,Western Europe,Germany,Bavaria,,Nuremberg
46.38.241.111,4,4,c-heads.com,DE,Europe,Western Europe,Germany,Bavaria,,Nuremberg
161.97.95.228,4,2,caba.de,DE,Europe,Western Europe,Germany,Bavaria,,Nuremberg
49.12.206.222,4,33,cableforum.co.uk,DE,Europe,Western Europe,Germany,Bavaria,,Nuremberg
49.13.40.165,4,6,cables.gl,DE,Europe,Western Europe,Germany,Bavaria,,Nuremberg
162.55.220.97,4,9,cadwork.com,DE,Europe,Western Europe,Germany,Bavaria,,Nuremberg
23.88.53.70,4,8,cafecentral.wien,DE,Europe,Western Europe,Germany,Bavaria,,Nuremberg
162.55.55.157,4,10,cairocooking.com,DE,Europe,Western Europe,Germany,Bavaria,,Nuremberg
49.12.206.6,4,47,calckey.world,DE,Europe,Western Europe,Germany,Bavaria,,Nuremberg
159.69.143.127,4,28,calmwaters.de,DE,Europe,Western Europe,Germany,Bavaria,,Nuremberg
116.203.5.115,4,56,cambus.net,DE,Europe,Western Europe,Germany,Bavaria,,Nuremberg
88.198.209.235,4,26,cameacar.sk,DE,Europe,Western Europe,Germany,Bavaria,,Nuremberg
95.111.231.250,4,30,camer.be,DE,Europe,Western Europe,Germany,Bavaria,,Nuremberg
116.203.97.196,4,44,camera.to,DE,Europe,Western Europe,Germany,Bavaria,,Nuremberg
173.212.226.49,4,28,canaleenergia.com,DE,Europe,Western Europe,Germany,Bavaria,,Nuremberg
78.47.144.137,4,4,cancom.com,DE,Europe,Western Europe,Germany,Bavaria,,Nuremberg
195.201.2.149,4,7,candiadoc.gr,DE,Europe,Western Europe,Germany,Bavaria,,Nuremberg
185.163.118.11,4,6,capframex.com,DE,Europe,Western Europe,Germany,Bavaria,,Nuremberg
188.245.147.117,4,79,carbon-ratings.com,DE,Europe,Western Europe,Germany,Bavaria,,Nuremberg
116.202.184.58,4,10,cars-scanner.com,DE,Europe,Western Europe,Germany,Bavaria,,Nuremberg
49.13.148.171,4,9,carstyle.nl,DE,Europe,Western Europe,Germany,Bavaria,,Nuremberg
88.198.156.202,4,5,cartft.com,DE,Europe,Western Europe,Germany,Bavaria,,Nuremberg
5.189.153.16,4,8,casadasciencias.org,DE,Europe,Western Europe,Germany,Bavaria,,Nuremberg
62.171.148.179,4,7,casonatours.com,DE,Europe,Western Europe,Germany,Bavaria,,Nuremberg
5.189.138.104,4,35,castingzeitung.de,DE,Europe,Western Europe,Germany,Bavaria,,Nuremberg
49.12.92.136,4,17,catalonieglas.nl,DE,Europe,Western Europe,Germany,Bavaria,,Nuremberg
116.203.214.52,4,1,cateater.com,DE,Europe,Western Europe,Germany,Bavaria,,Nuremberg
173.249.19.86,4,16,cavallomagazine.it,DE,Europe,Western Europe,Germany,Bavaria,,Nuremberg
193.26.159.76,4,6,cbd-deal24.de,DE,Europe,Western Europe,Germany,Bavaria,,Nuremberg
167.233.15.55,4,8,cbm.de,DE,Europe,Western Europe,Germany,Bavaria,,Nuremberg
195.201.42.120,4,7,cbn.com.ua,DE,Europe,Western Europe,Germany,Bavaria,,Nuremberg
164.68.102.19,4,4920,centraldearriendo.cl,DE,Europe,Western Europe,Germany,Bavaria,,Nuremberg
159.69.172.102,4,6,ceramiche-piemme.com,DE,Europe,Western Europe,Germany,Bavaria,,Nuremberg
116.203.69.198,4,6,chaosforge.org,DE,Europe,Western Europe,Germany,Bavaria,,Nuremberg
193.26.156.119,4,4,charmant.com,DE,Europe,Western Europe,Germany,Bavaria,,Nuremberg
162.55.188.168,4,3,chatwith.io,DE,Europe,Western Europe,Germany,Bavaria,,Nuremberg
159.69.108.19,4,14,chiesavaldese.org,DE,Europe,Western Europe,Germany,Bavaria,,Nuremberg
188.245.45.92,4,4,chimpreports.com,DE,Europe,Western Europe,Germany,Bavaria,,Nuremberg
46.38.237.231,4,3,china-scooter.ru,DE,Europe,Western Europe,Germany,Bavaria,,Nuremberg
91.204.46.247,4,39,chinalink.de,DE,Europe,Western Europe,Germany,Bavaria,,Nuremberg
89.58.8.148,4,3,churfranken.de,DE,Europe,Western Europe,Germany,Bavaria,,Nuremberg
159.69.84.36,4,4,ciclosfera.com,DE,Europe,Western Europe,Germany,Bavaria,,Nuremberg
159.69.106.232,4,4,cin.ba,DE,Europe,Western Europe,Germany,Bavaria,,Nuremberg
188.68.59.95,4,-362497,cineclub.de,DE,Europe,Western Europe,Germany,Bavaria,,Nuremberg
88.198.191.39,4,9,cioms.ch,DE,Europe,Western Europe,Germany,Bavaria,,Nuremberg
167.235.142.109,4,121,citylab-berlin.org,DE,Europe,Western Europe,Germany,Bavaria,,Nuremberg
159.69.3.35,4,5,cleverchest.com,DE,Europe,Western Europe,Germany,Bavaria,,Nuremberg
195.201.212.247,4,31,clicks.digital,DE,Europe,Western Europe,Germany,Bavaria,,Nuremberg
157.90.236.197,4,560699,climatechangetracker.org,DE,Europe,Western Europe,Germany,Bavaria,,Nuremberg
185.243.11.61,4,6,clue.engineering,DE,Europe,Western Europe,Germany,Bavaria,,Nuremberg
213.136.92.223,4,2,cmf.am,DE,Europe,Western Europe,Germany,Bavaria,,Nuremberg
167.235.55.166,4,8,co2-neutral.dk,DE,Europe,Western Europe,Germany,Bavaria,,Nuremberg
167.235.54.75,4,6,co2-udslip.dk,DE,Europe,Western Europe,Germany,Bavaria,,Nuremberg
116.203.68.116,4,6,codepad.co,DE,Europe,Western Europe,Germany,Bavaria,,Nuremberg
116.203.5.28,4,15,coko.foundation,DE,Europe,Western Europe,Germany,Bavaria,,Nuremberg
49.12.224.53,4,3,collabora.co.uk,DE,Europe,Western Europe,Germany,Bavaria,,Nuremberg
157.90.115.48,4,7,collaboraoffice.com,DE,Europe,Western Europe,Germany,Bavaria,,Nuremberg
188.245.110.174,4,28,collaboraonline.com,DE,Europe,Western Europe,Germany,Bavaria,,Nuremberg
78.47.62.161,4,62,comapping.com,DE,Europe,Western Europe,Germany,Bavaria,,Nuremberg
185.232.71.10,4,47,comic-salon.de,DE,Europe,Western Europe,Germany,Bavaria,,Nuremberg
213.239.221.53,4,6,competitionline.com,DE,Europe,Western Europe,Germany,Bavaria,,Nuremberg
78.46.2.204,4,31,comx-computers.co.za,DE,Europe,Western Europe,Germany,Bavaria,,Nuremberg
37.120.167.212,4,7,conduit.rs,DE,Europe,Western Europe,Germany,Bavaria,,Nuremberg
173.249.52.19,4,3,connect-world.com,DE,Europe,Western Europe,Germany,Bavaria,,Nuremberg
162.55.180.104,4,66,contenido.org,DE,Europe,Western Europe,Germany,Bavaria,,Nuremberg
5.75.164.34,4,6,contraste.org,DE,Europe,Western Europe,Germany,Bavaria,,Nuremberg
78.47.14.22,4,13,contropiano.org,DE,Europe,Western Europe,Germany,Bavaria,,Nuremberg
88.99.191.65,4,8,controverscial.com,DE,Europe,Western Europe,Germany,Bavaria,,Nuremberg
167.235.58.24,4,4,cookiescream.com,DE,Europe,Western Europe,Germany,Bavaria,,Nuremberg
37.120.189.254,4,1,cord.de,DE,Europe,Western Europe,Germany,Bavaria,,Nuremberg
116.203.35.14,4,19,coronavirus-monitor.info,DE,Europe,Western Europe,Germany,Bavaria,,Nuremberg
159.69.29.7,4,6,corsa-club.net,DE,Europe,Western Europe,Germany,Bavaria,,Nuremberg
85.10.199.235,4,36,cosmostore.org,DE,Europe,Western Europe,Germany,Bavaria,,Nuremberg
78.46.253.98,4,49,costa-news.com,DE,Europe,Western Europe,Germany,Bavaria,,Nuremberg
23.88.52.9,4,6,coupling-media.de,DE,Europe,Western Europe,Germany,Bavaria,,Nuremberg
116.203.145.39,4,4,covl.io,DE,Europe,Western Europe,Germany,Bavaria,,Nuremberg
37.120.187.213,4,7,cppinsights.io,DE,Europe,Western Europe,Germany,Bavaria,,Nuremberg
168.119.236.160,4,5,cptrack.de,DE,Europe,Western Europe,Germany,Bavaria,,Nuremberg
167.86.114.209,4,18,craft.ro,DE,Europe,Western Europe,Germany,Bavaria,,Nuremberg
5.75.150.67,4,22,creationart.hu,DE,Europe,Western Europe,Germany,Bavaria,,Nuremberg
173.212.229.107,4,4,cridem.org,DE,Europe,Western Europe,Germany,Bavaria,,Nuremberg
159.69.150.156,4,4,crisana.ro,DE,Europe,Western Europe,Germany,Bavaria,,Nuremberg
161.97.112.218,4,94,croatia-digital-group.com,DE,Europe,Western Europe,Germany,Bavaria,,Nuremberg
168.119.25.4,4,6,cruydthoeck.nl,DE,Europe,Western Europe,Germany,Bavaria,,Nuremberg
185.243.11.157,4,16,crypshark.com,DE,Europe,Western Europe,Germany,Bavaria,,Nuremberg
173.249.63.109,4,8,cryptocurrencyminingreport.com,DE,Europe,Western Europe,Germany,Bavaria,,Nuremberg
202.61.224.132,4,4,ctan.org,DE,Europe,Western Europe,Germany,Bavaria,,Nuremberg
78.46.164.196,4,5,ctrl.blog,DE,Europe,Western Europe,Germany,Bavaria,,Nuremberg
78.47.61.18,4,6,ctrust.gr,DE,Europe,Western Europe,Germany,Bavaria,,Nuremberg
157.90.18.228,4,6,cultbooking.com,DE,Europe,Western Europe,Germany,Bavaria,,Nuremberg
173.249.21.221,4,37,cusumano.it,DE,Europe,Western Europe,Germany,Bavaria,,Nuremberg
85.10.217.90,4,23,cvonline.hu,DE,Europe,Western Europe,Germany,Bavaria,,Nuremberg
46.38.234.156,4,5,cybercowboy.de,DE,Europe,Western Europe,Germany,Bavaria,,Nuremberg
195.201.130.158,4,1,cyprusalive.com,DE,Europe,Western Europe,Germany,Bavaria,,Nuremberg
173.249.63.177,4,3,czaswojny.pl,DE,Europe,Western Europe,Germany,Bavaria,,Nuremberg
78.47.125.54,4,6,d3sv.net,DE,Europe,Western Europe,Germany,Bavaria,,Nuremberg
89.58.30.208,4,13,daansystems.com,DE,Europe,Western Europe,Germany,Bavaria,,Nuremberg
116.203.2.42,4,3,dach.com,DE,Europe,Western Europe,Germany,Bavaria,,Nuremberg
157.90.169.84,4,5,dachziegel.de,DE,Europe,Western Europe,Germany,Bavaria,,Nuremberg
159.69.32.4,4,38,dagitty.net,DE,Europe,Western Europe,Germany,Bavaria,,Nuremberg
167.235.26.212,4,4,daignet.de,DE,Europe,Western Europe,Germany,Bavaria,,Nuremberg
167.86.69.100,4,4,dakov.hu,DE,Europe,Western Europe,Germany,Bavaria,,Nuremberg
195.201.130.214,4,76,damovo.com,DE,Europe,Western Europe,Germany,Bavaria,,Nuremberg
159.69.7.166,4,6,damusic.be,DE,Europe,Western Europe,Germany,Bavaria,,Nuremberg
194.36.147.177,4,53,daniel-siepmann.de,DE,Europe,Western Europe,Germany,Bavaria,,Nuremberg
167.86.104.254,4,8,danielspoerri.org,DE,Europe,Western Europe,Germany,Bavaria,,Nuremberg
173.212.193.223,4,104,darlinghq.org,DE,Europe,Western Europe,Germany,Bavaria,,Nuremberg
85.10.196.22,4,-807938,darunok.ua,DE,Europe,Western Europe,Germany,Bavaria,,Nuremberg
195.201.29.57,4,51,daslandhilft.de,DE,Europe,Western Europe,Germany,Bavaria,,Nuremberg
152.53.35.170,4,175,datamx.io,DE,Europe,Western Europe,Germany,Bavaria,,Nuremberg
49.13.254.157,4,11,dawahfrontnigeria.com,DE,Europe,Western Europe,Germany,Bavaria,,Nuremberg
128.140.107.173,4,14,daybyme.com,DE,Europe,Western Europe,Germany,Bavaria,,Nuremberg
88.198.196.163,4,5,db-engineering-consulting.com,DE,Europe,Western Europe,Germany,Bavaria,,Nuremberg
116.202.190.115,4,5,dbaudio.com,DE,Europe,Western Europe,Germany,Bavaria,,Nuremberg
159.69.17.4,4,4,dbiz.today,DE,Europe,Western Europe,Germany,Bavaria,,Nuremberg
185.170.115.176,4,2,de-linkliste.de,DE,Europe,Western Europe,Germany,Bavaria,,Nuremberg
37.120.173.88,4,139778,deadly.org,DE,Europe,Western Europe,Germany,Bavaria,,Nuremberg
157.90.18.120,4,29,deappel.nl,DE,Europe,Western Europe,Germany,Bavaria,,Nuremberg
213.239.218.20,4,118,dearblessed.com,DE,Europe,Western Europe,Germany,Bavaria,,Nuremberg
152.53.33.193,4,3,deballentent.nl,DE,Europe,Western Europe,Germany,Bavaria,,Nuremberg
144.91.72.128,4,36,defender.ru,DE,Europe,Western Europe,Germany,Bavaria,,Nuremberg
5.189.130.229,4,7,dehir.hu,DE,Europe,Western Europe,Germany,Bavaria,,Nuremberg
37.120.163.55,4,4,deinbus.de,DE,Europe,Western Europe,Germany,Bavaria,,Nuremberg
202.61.224.128,4,8,deinwal.de,DE,Europe,Western Europe,Germany,Bavaria,,Nuremberg
161.97.73.10,4,15,dejmidarek.cz,DE,Europe,Western Europe,Germany,Bavaria,,Nuremberg
167.233.9.95,4,34,del.org,DE,Europe,Western Europe,Germany,Bavaria,,Nuremberg
173.212.223.116,4,24,delikates.com.mk,DE,Europe,Western Europe,Germany,Bavaria,,Nuremberg
5.75.142.213,4,20,deltaa.xyz,DE,Europe,Western Europe,Germany,Bavaria,,Nuremberg
94.130.197.35,4,-16260,deltaohm.com,DE,Europe,Western Europe,Germany,Bavaria,,Nuremberg
91.204.46.40,4,1,demoparty.net,DE,Europe,Western Europe,Germany,Bavaria,,Nuremberg
88.198.33.238,4,5,depo.ua,DE,Europe,Western Europe,Germany,Bavaria,,Nuremberg
116.202.187.8,4,0,deportati.it,DE,Europe,Western Europe,Germany,Bavaria,,Nuremberg
162.55.154.45,4,56,der-audio-verlag.de,DE,Europe,Western Europe,Germany,Bavaria,,Nuremberg
49.12.238.167,4,4,derebus.org.za,DE,Europe,Western Europe,Germany,Bavaria,,Nuremberg
185.232.69.46,4,3,dergoldenealuhut.de,DE,Europe,Western Europe,Germany,Bavaria,,Nuremberg
167.235.104.197,4,5,derhund.de,DE,Europe,Western Europe,Germany,Bavaria,,Nuremberg
91.204.46.214,4,107,derkuhle.net,DE,Europe,Western Europe,Germany,Bavaria,,Nuremberg
167.235.132.31,4,5,desertec.org,DE,Europe,Western Europe,Germany,Bavaria,,Nuremberg
161.97.66.104,4,-2707,desi123.com,DE,Europe,Western Europe,Germany,Bavaria,,Nuremberg
173.212.194.216,4,6,designers-inn.de,DE,Europe,Western Europe,Germany,Bavaria,,Nuremberg
49.13.33.69,4,6,desjoyaux.app,DE,Europe,Western Europe,Germany,Bavaria,,Nuremberg
188.68.47.244,4,3,desksoft.com,DE,Europe,Western Europe,Germany,Bavaria,,Nuremberg
213.239.214.148,4,12,deste.gr,DE,Europe,Western Europe,Germany,Bavaria,,Nuremberg
185.207.105.157,4,32,deutsch-tuerkische-nachrichten.de,DE,Europe,Western Europe,Germany,Bavaria,,Nuremberg
78.46.181.148,4,12,deutsche-diabetes-gesellschaft.de,DE,Europe,Western Europe,Germany,Bavaria,,Nuremberg
185.233.105.169,4,108,deutsche-stiftung-engagement-und-ehrenamt.de,DE,Europe,Western Europe,Germany,Bavaria,,Nuremberg
128.140.64.224,4,35,deutschewildtierstiftung.de,DE,Europe,Western Europe,Germany,Bavaria,,Nuremberg
116.203.76.61,4,4,devcom.global,DE,Europe,Western Europe,Germany,Bavaria,,Nuremberg
173.212.203.151,4,90,devostock.com,DE,Europe,Western Europe,Germany,Bavaria,,Nuremberg
116.202.138.214,4,6,devuan.org,DE,Europe,Western Europe,Germany,Bavaria,,Nuremberg
161.97.105.55,4,52,dewinter.com,DE,Europe,Western Europe,Germany,Bavaria,,Nuremberg
116.203.66.37,4,0,dextronet.com,DE,Europe,Western Europe,Germany,Bavaria,,Nuremberg
168.119.201.117,4,6,dgrh.de,DE,Europe,Western Europe,Germany,Bavaria,,Nuremberg
159.69.202.229,4,59,diagonlemmy.social,DE,Europe,Western Europe,Germany,Bavaria,,Nuremberg
94.130.189.99,4,9,diakonie-wuerttemberg.de,DE,Europe,Western Europe,Germany,Bavaria,,Nuremberg
159.69.231.144,4,54,diasporafoundation.org,DE,Europe,Western Europe,Germany,Bavaria,,Nuremberg
94.130.175.57,4,11,die-deutsche-wirtschaft.de,DE,Europe,Western Europe,Germany,Bavaria,,Nuremberg
185.232.68.49,4,10,die-neue-sammlung.de,DE,Europe,Western Europe,Germany,Bavaria,,Nuremberg
173.249.55.5,4,2,diegozuluagao.com,DE,Europe,Western Europe,Germany,Bavaria,,Nuremberg
195.201.89.2,4,22,diejungeakademie.de,DE,Europe,Western Europe,Germany,Bavaria,,Nuremberg
136.243.165.195,4,5,diepta.de,DE,Europe,Western Europe,Germany,Bavaria,,Nuremberg
128.140.13.66,4,4,diesel-inj.ru,DE,Europe,Western Europe,Germany,Bavaria,,Nuremberg
45.136.31.63,4,11,digel.de,DE,Europe,Western Europe,Germany,Bavaria,,Nuremberg
95.111.242.255,4,4,diggita.it,DE,Europe,Western Europe,Germany,Bavaria,,Nuremberg
213.239.241.90,4,5,digicult-verbund.de,DE,Europe,Western Europe,Germany,Bavaria,,Nuremberg
167.235.78.155,4,4,digitaldutch.com,DE,Europe,Western Europe,Germany,Bavaria,,Nuremberg
185.162.248.57,4,2,digitalegesellschaft.de,DE,Europe,Western Europe,Germany,Bavaria,,Nuremberg
159.69.23.172,4,36,digitalmoneytalk.com,DE,Europe,Western Europe,Germany,Bavaria,,Nuremberg
167.235.67.241,4,8,dipf.de,DE,Europe,Western Europe,Germany,Bavaria,,Nuremberg
159.69.16.221,4,57,directlampen.nl,DE,Europe,Western Europe,Germany,Bavaria,,Nuremberg
144.76.55.238,4,23,direktno.rs,DE,Europe,Western Europe,Germany,Bavaria,,Nuremberg
159.69.106.158,4,32,dirkvongehlen.de,DE,Europe,Western Europe,Germany,Bavaria,,Nuremberg
94.130.73.167,4,205886,discu.eu,DE,Europe,Western Europe,Germany,Bavaria,,Nuremberg
23.88.61.15,4,3,distanz.de,DE,Europe,Western Europe,Germany,Bavaria,,Nuremberg
116.203.39.138,4,6,djangosuit.com,DE,Europe,Western Europe,Germany,Bavaria,,Nuremberg
168.119.43.231,4,7,dmliefer.ru,DE,Europe,Western Europe,Germany,Bavaria,,Nuremberg
49.13.44.130,4,12,dnevnik.si,DE,Europe,Western Europe,Germany,Bavaria,,Nuremberg
159.69.231.202,4,312,dnipro-m.ua,DE,Europe,Western Europe,Germany,Bavaria,,Nuremberg
95.111.252.203,4,72,DNS Server: 250-vmi409584.contaboserver.net,DE,Europe,Western Europe,Germany,Bavaria,,Nuremberg
2.56.99.133,4,57,DNS Server: bmpm.de,DE,Europe,Western Europe,Germany,Bavaria,,Nuremberg
144.91.123.49,4,34,DNS Server: colegio.bcloudservice.com,DE,Europe,Western Europe,Germany,Bavaria,,Nuremberg
5.189.158.153,4,13,DNS Server: contabo2.herwig-systems.de,DE,Europe,Western Europe,Germany,Bavaria,,Nuremberg
5.189.142.108,4,6,DNS Server: desphilic.net,DE,Europe,Western Europe,Germany,Bavaria,,Nuremberg
116.203.122.149,4,5,DNS Server: dns1.topackt.com,DE,Europe,Western Europe,Germany,Bavaria,,Nuremberg
188.68.46.52,4,-77736,DNS Server: gaddeboys.de,DE,Europe,Western Europe,Germany,Bavaria,,Nuremberg
5.45.103.22,4,5,DNS Server: gw.froehle.org,DE,Europe,Western Europe,Germany,Bavaria,,Nuremberg
5.189.149.161,4,60,DNS Server: hosting.jadotrade.sk,DE,Europe,Western Europe,Germany,Bavaria,,Nuremberg
5.189.186.63,4,7,DNS Server: ip-63-186-189-5.static.contabo.net,DE,Europe,Western Europe,Germany,Bavaria,,Nuremberg
213.136.73.76,4,259,DNS Server: johannes-kreiner.de,DE,Europe,Western Europe,Germany,Bavaria,,Nuremberg
5.189.168.99,4,325,DNS Server: kontrollprozesse.contabo.host,DE,Europe,Western Europe,Germany,Bavaria,,Nuremberg
88.198.75.146,4,207,DNS Server: kumiko.es,DE,Europe,Western Europe,Germany,Bavaria,,Nuremberg
5.181.49.245,4,209,DNS Server: loxh2.de,DE,Europe,Western Europe,Germany,Bavaria,,Nuremberg
207.180.254.58,4,271,DNS Server: m11958.contaboserver.net,DE,Europe,Western Europe,Germany,Bavaria,,Nuremberg
5.189.190.168,4,441,DNS Server: m2868.contaboserver.net,DE,Europe,Western Europe,Germany,Bavaria,,Nuremberg
202.61.197.135,4,372,DNS Server: mail.backenundlifestyle.de,DE,Europe,Western Europe,Germany,Bavaria,,Nuremberg
62.171.153.22,4,432,DNS Server: mail.kropp.link,DE,Europe,Western Europe,Germany,Bavaria,,Nuremberg
144.91.86.33,4,298,DNS Server: mail.schabon.de,DE,Europe,Western Europe,Germany,Bavaria,,Nuremberg
62.171.172.52,4,299,DNS Server: mail.torbenjunker.de,DE,Europe,Western Europe,Germany,Bavaria,,Nuremberg
207.180.250.144,4,354,DNS Server: mail.unimail.me,DE,Europe,Western Europe,Germany,Bavaria,,Nuremberg
62.171.187.118,4,306,DNS Server: mail3.emichalek.pl,DE,Europe,Western Europe,Germany,Bavaria,,Nuremberg
173.249.41.124,4,222,DNS Server: mx02.netzwerkbahn-sachsen.de,DE,Europe,Western Europe,Germany,Bavaria,,Nuremberg
188.68.45.12,4,73,DNS Server: nobody.yourvserver.net,DE,Europe,Western Europe,Germany,Bavaria,,Nuremberg
202.61.251.55,4,99,DNS Server: nopor.dev,DE,Europe,Western Europe,Germany,Bavaria,,Nuremberg
167.86.90.179,4,188,DNS Server: ns3.watel.cloud,DE,Europe,Western Europe,Germany,Bavaria,,Nuremberg
81.16.18.228,4,152,DNS Server: orpheus.psyched.dev,DE,Europe,Western Europe,Germany,Bavaria,,Nuremberg
37.120.172.191,4,-1005,DNS Server: oscar.fiolino.net,DE,Europe,Western Europe,Germany,Bavaria,,Nuremberg
5.189.155.246,4,435,DNS Server: pourcesoir.in,DE,Europe,Western Europe,Germany,Bavaria,,Nuremberg
37.120.160.254,4,199,DNS Server: s5.lilbits.it,DE,Europe,Western Europe,Germany,Bavaria,,Nuremberg
213.136.80.128,4,154,DNS Server: server02.hiiwserver.de,DE,Europe,Western Europe,Germany,Bavaria,,Nuremberg
207.180.217.134,4,152,DNS Server: simulator1.net,DE,Europe,Western Europe,Germany,Bavaria,,Nuremberg
49.12.198.126,4,277,DNS Server: static.126.198.12.49.clients.your-server.de,DE,Europe,Western Europe,Germany,Bavaria,,Nuremberg
195.201.97.150,4,305,DNS Server: static.150.97.201.195.clients.your-server.de,DE,Europe,Western Europe,Germany,Bavaria,,Nuremberg
168.119.237.189,4,289,DNS Server: static.189.237.119.168.clients.your-server.de,DE,Europe,Western Europe,Germany,Bavaria,,Nuremberg
116.203.38.198,4,298,DNS Server: static.198.38.203.116.clients.your-server.de,DE,Europe,Western Europe,Germany,Bavaria,,Nuremberg
78.47.249.204,4,274,DNS Server: static.204.249.47.78.clients.your-server.de,DE,Europe,Western Europe,Germany,Bavaria,,Nuremberg
159.69.26.23,4,304,DNS Server: static.23.26.69.159.clients.your-server.de,DE,Europe,Western Europe,Germany,Bavaria,,Nuremberg
159.69.205.47,4,285,DNS Server: static.47.205.69.159.clients.your-server.de,DE,Europe,Western Europe,Germany,Bavaria,,Nuremberg
5.45.96.26,4,365,DNS Server: v22016111956639866.powersrv.de,DE,Europe,Western Europe,Germany,Bavaria,,Nuremberg
185.233.106.157,4,388,DNS Server: v22018035970563207.ultrasrv.de,DE,Europe,Western Europe,Germany,Bavaria,,Nuremberg
46.232.248.27,4,371,DNS Server: v22018071683069493.hotsrv.de,DE,Europe,Western Europe,Germany,Bavaria,,Nuremberg
94.16.119.45,4,391,DNS Server: v2202012135973135932.powersrv.de,DE,Europe,Western Europe,Germany,Bavaria,,Nuremberg
45.136.28.145,4,407,DNS Server: v2202108150718161413.luckysrv.de,DE,Europe,Western Europe,Germany,Bavaria,,Nuremberg
89.58.39.190,4,174,DNS Server: v2202203169120181398.happysrv.de,DE,Europe,Western Europe,Germany,Bavaria,,Nuremberg
144.91.92.26,4,253,DNS Server: vmd49824.contaboserver.net,DE,Europe,Western Europe,Germany,Bavaria,,Nuremberg
62.171.146.37,4,252,DNS Server: vmd52143.contaboserver.net,DE,Europe,Western Europe,Germany,Bavaria,,Nuremberg
5.189.134.126,4,-328,DNS Server: vmd65220.contaboserver.net,DE,Europe,Western Europe,Germany,Bavaria,,Nuremberg
5.189.153.56,4,322,DNS Server: vmi1002631.contaboserver.net,DE,Europe,Western Europe,Germany,Bavaria,,Nuremberg
213.136.82.112,4,209,DNS Server: vmi1210975.contaboserver.net,DE,Europe,Western Europe,Germany,Bavaria,,Nuremberg
173.249.45.177,4,368,DNS Server: vmi187066.contaboserver.net,DE,Europe,Western Europe,Germany,Bavaria,,Nuremberg
5.189.137.25,4,306,DNS Server: vmi252629.contaboserver.net,DE,Europe,Western Europe,Germany,Bavaria,,Nuremberg
5.189.173.112,4,196,DNS Server: vmi298861.contaboserver.net,DE,Europe,Western Europe,Germany,Bavaria,,Nuremberg
5.189.158.127,4,286,DNS Server: vmi304032.contaboserver.net,DE,Europe,Western Europe,Germany,Bavaria,,Nuremberg
207.180.227.21,4,284,DNS Server: vmi353486.contaboserver.net,DE,Europe,Western Europe,Germany,Bavaria,,Nuremberg
5.189.172.127,4,205,DNS Server: vmi363388.contaboserver.net,DE,Europe,Western Europe,Germany,Bavaria,,Nuremberg
62.171.177.74,4,211,DNS Server: vmi364654.contaboserver.net,DE,Europe,Western Europe,Germany,Bavaria,,Nuremberg
5.189.180.241,4,219,DNS Server: vmi393350.contaboserver.net,DE,Europe,Western Europe,Germany,Bavaria,,Nuremberg
161.97.71.241,4,223,DNS Server: vmi437388.contaboserver.net,DE,Europe,Western Europe,Germany,Bavaria,,Nuremberg
5.189.143.127,4,295,DNS Server: vmi537430.contaboserver.net,DE,Europe,Western Europe,Germany,Bavaria,,Nuremberg
144.91.100.75,4,-21279,DNS Server: vmi616186.contaboserver.net,DE,Europe,Western Europe,Germany,Bavaria,,Nuremberg
5.189.130.100,4,162,DNS Server: vmi642473.contaboserver.net,DE,Europe,Western Europe,Germany,Bavaria,,Nuremberg
164.68.99.85,4,195,DNS Server: vmi664866.contaboserver.net,DE,Europe,Western Europe,Germany,Bavaria,,Nuremberg
144.91.118.197,4,176,DNS Server: vmi710301.contaboserver.net,DE,Europe,Western Europe,Germany,Bavaria,,Nuremberg
5.189.185.200,4,28048,DNS Server: vmi779198.contaboserver.net,DE,Europe,Western Europe,Germany,Bavaria,,Nuremberg
95.111.247.213,4,154,DNS Server: vmi788958.contaboserver.net,DE,Europe,Western Europe,Germany,Bavaria,,Nuremberg
5.189.153.75,4,215,DNS Server: vmi85044.contabo.host,DE,Europe,Western Europe,Germany,Bavaria,,Nuremberg
168.119.229.146,4,24,dnswl.org,DE,Europe,Western Europe,Germany,Bavaria,,Nuremberg
116.203.28.235,4,54,doba.pl,DE,Europe,Western Europe,Germany,Bavaria,,Nuremberg
116.203.142.217,4,27,doezoo.nl,DE,Europe,Western Europe,Germany,Bavaria,,Nuremberg
116.203.129.207,4,-15914,dofbasen.dk,DE,Europe,Western Europe,Germany,Bavaria,,Nuremberg
89.58.3.251,4,372,DoH server: adfreedns.top,DE,Europe,Western Europe,Germany,Bavaria,,Nuremberg
188.68.58.24,4,587,doll-bernhard.de,DE,Europe,Western Europe,Germany,Bavaria,,Nuremberg
91.204.46.94,4,8,dom-sps.de,DE,Europe,Western Europe,Germany,Bavaria,,Nuremberg
78.47.69.135,4,5,domusmedica.be,DE,Europe,Western Europe,Germany,Bavaria,,Nuremberg
159.69.16.141,4,14,donau-ries-aktuell.de,DE,Europe,Western Europe,Germany,Bavaria,,Nuremberg
116.203.93.31,4,5,dondego.es,DE,Europe,Western Europe,Germany,Bavaria,,Nuremberg
207.180.222.47,4,3,donnjer.de,DE,Europe,Western Europe,Germany,Bavaria,,Nuremberg
91.107.146.120,4,69,doorsofperception.com,DE,Europe,Western Europe,Germany,Bavaria,,Nuremberg
116.203.8.253,4,6,dormagen.de,DE,Europe,Western Europe,Germany,Bavaria,,Nuremberg
89.58.0.84,4,7,dormi.zone,DE,Europe,Western Europe,Germany,Bavaria,,Nuremberg
173.249.56.226,4,18,downloadae.net,DE,Europe,Western Europe,Germany,Bavaria,,Nuremberg
78.47.158.131,4,611,dr-big.de,DE,Europe,Western Europe,Germany,Bavaria,,Nuremberg
49.12.160.29,4,10,drivelog.de,DE,Europe,Western Europe,Germany,Bavaria,,Nuremberg
167.235.61.97,4,0,drivhusgasser.dk,DE,Europe,Western Europe,Germany,Bavaria,,Nuremberg
91.204.46.103,4,9,drlab.org,DE,Europe,Western Europe,Germany,Bavaria,,Nuremberg
94.130.225.33,4,5,drloosen.com,DE,Europe,Western Europe,Germany,Bavaria,,Nuremberg
78.47.124.133,4,3,dropmail.me,DE,Europe,Western Europe,Germany,Bavaria,,Nuremberg
94.130.108.80,4,5,dropmail.me,DE,Europe,Western Europe,Germany,Bavaria,,Nuremberg
213.239.241.5,4,5,dsai.de,DE,Europe,Western Europe,Germany,Bavaria,,Nuremberg
194.55.12.39,4,32,dubaimetro.eu,DE,Europe,Western Europe,Germany,Bavaria,,Nuremberg
91.107.239.148,4,40,dumont.de,DE,Europe,Western Europe,Germany,Bavaria,,Nuremberg
167.235.139.100,4,12,dynebolic.org,DE,Europe,Western Europe,Germany,Bavaria,,Nuremberg
159.69.43.243,4,2,dynv6.com,DE,Europe,Western Europe,Germany,Bavaria,,Nuremberg
5.45.100.251,4,4,dynv6.com,DE,Europe,Western Europe,Germany,Bavaria,,Nuremberg
193.26.158.98,4,910,e-formel.de,DE,Europe,Western Europe,Germany,Bavaria,,Nuremberg
159.69.30.232,4,1,e-matters.de,DE,Europe,Western Europe,Germany,Bavaria,,Nuremberg
23.88.106.245,4,4,e-napolistore.it,DE,Europe,Western Europe,Germany,Bavaria,,Nuremberg
207.180.248.121,4,4,e-nomothesia.gr,DE,Europe,Western Europe,Germany,Bavaria,,Nuremberg
162.55.56.107,4,2,e-server.com.ua,DE,Europe,Western Europe,Germany,Bavaria,,Nuremberg
168.119.174.57,4,7,e5bakehouse.com,DE,Europe,Western Europe,Germany,Bavaria,,Nuremberg
94.130.191.18,4,4,ead.de,DE,Europe,Western Europe,Germany,Bavaria,,Nuremberg
94.130.191.173,4,4,earn.eu,DE,Europe,Western Europe,Germany,Bavaria,,Nuremberg
185.194.218.224,4,-7303,earthdayitalia.org,DE,Europe,Western Europe,Germany,Bavaria,,Nuremberg
88.99.187.83,4,3,easterngraphics.com,DE,Europe,Western Europe,Germany,Bavaria,,Nuremberg
94.130.182.249,4,2,easyfood.ie,DE,Europe,Western Europe,Germany,Bavaria,,Nuremberg
46.232.251.47,4,12,easyrpg.org,DE,Europe,Western Europe,Germany,Bavaria,,Nuremberg
195.201.25.187,4,35,easyverein.com,DE,Europe,Western Europe,Germany,Bavaria,,Nuremberg
95.111.237.184,4,3,eaton-zf.ru,DE,Europe,Western Europe,Germany,Bavaria,,Nuremberg
49.13.234.168,4,1,ebike-news.de,DE,Europe,Western Europe,Germany,Bavaria,,Nuremberg
85.10.203.108,4,-1081238,ecodelo.org,DE,Europe,Western Europe,Germany,Bavaria,,Nuremberg
5.189.159.249,4,0,economistua.com,DE,Europe,Western Europe,Germany,Bavaria,,Nuremberg
116.202.188.8,4,5,econpol.eu,DE,Europe,Western Europe,Germany,Bavaria,,Nuremberg
49.13.205.84,4,10,ecorobotix.com,DE,Europe,Western Europe,Germany,Bavaria,,Nuremberg
159.69.229.129,4,4,ecs.com.np,DE,Europe,Western Europe,Germany,Bavaria,,Nuremberg
207.180.229.71,4,5,eddyburg.it,DE,Europe,Western Europe,Germany,Bavaria,,Nuremberg
195.201.231.58,4,7,edelweissbike.com,DE,Europe,Western Europe,Germany,Bavaria,,Nuremberg
167.235.61.30,4,61,editorialrenacimiento.com,DE,Europe,Western Europe,Germany,Bavaria,,Nuremberg
168.119.169.232,4,2,edupool.de,DE,Europe,Western Europe,Germany,Bavaria,,Nuremberg
95.111.249.171,4,10,edutictac.es,DE,Europe,Western Europe,Germany,Bavaria,,Nuremberg
78.47.83.33,4,6,edwardbulmerpaint.co.uk,DE,Europe,Western Europe,Germany,Bavaria,,Nuremberg
78.47.99.71,4,23,eepa.be,DE,Europe,Western Europe,Germany,Bavaria,,Nuremberg
185.243.11.121,4,16,efa-mobile-zeiten.de,DE,Europe,Western Europe,Germany,Bavaria,,Nuremberg
185.183.158.69,4,7,effilee.de,DE,Europe,Western Europe,Germany,Bavaria,,Nuremberg
128.140.65.149,4,21,ehlion.com,DE,Europe,Western Europe,Germany,Bavaria,,Nuremberg
91.204.45.107,4,12,einbecker.de,DE,Europe,Western Europe,Germany,Bavaria,,Nuremberg
5.75.177.206,4,39,einkaufsbahnhof.de,DE,Europe,Western Europe,Germany,Bavaria,,Nuremberg
94.16.123.188,4,57,ejfa.me,DE,Europe,Western Europe,Germany,Bavaria,,Nuremberg
167.235.150.108,4,22,ekbo.de,DE,Europe,Western Europe,Germany,Bavaria,,Nuremberg
49.13.147.213,4,92,ekey.net,DE,Europe,Western Europe,Germany,Bavaria,,Nuremberg
78.47.45.25,4,62,ekhn.de,DE,Europe,Western Europe,Germany,Bavaria,,Nuremberg
185.232.71.2,4,4,ekmd.de,DE,Europe,Western Europe,Germany,Bavaria,,Nuremberg
88.198.215.59,4,175,elcomsoft.ru,DE,Europe,Western Europe,Germany,Bavaria,,Nuremberg
116.203.136.207,4,1,electricmonk.nl,DE,Europe,Western Europe,Germany,Bavaria,,Nuremberg
116.202.187.195,4,17,elhow.ru,DE,Europe,Western Europe,Germany,Bavaria,,Nuremberg
116.203.164.132,4,8,elk-wue.de,DE,Europe,Western Europe,Germany,Bavaria,,Nuremberg
152.89.106.112,4,9,ellerepublic.de,DE,Europe,Western Europe,Germany,Bavaria,,Nuremberg
157.90.119.139,4,70,ellinair.com,DE,Europe,Western Europe,Germany,Bavaria,,Nuremberg
88.99.203.104,4,76,elmir.ua,DE,Europe,Western Europe,Germany,Bavaria,,Nuremberg
188.245.42.124,4,23,elperiodicodelaenergia.com,DE,Europe,Western Europe,Germany,Bavaria,,Nuremberg
157.90.172.27,4,26,embroedery.ru,DE,Europe,Western Europe,Germany,Bavaria,,Nuremberg
168.119.115.223,4,4,emersion.fr,DE,Europe,Western Europe,Germany,Bavaria,,Nuremberg
195.201.250.55,4,3,emmentaler.ch,DE,Europe,Western Europe,Germany,Bavaria,,Nuremberg
91.107.228.124,4,7,emojigraph.org,DE,Europe,Western Europe,Germany,Bavaria,,Nuremberg
49.13.233.131,4,13,emsp.org,DE,Europe,Western Europe,Germany,Bavaria,,Nuremberg
94.16.113.2,4,5,emule-project.net,DE,Europe,Western Europe,Germany,Bavaria,,Nuremberg
161.97.80.98,4,6,enciclopediadelledonne.it,DE,Europe,Western Europe,Germany,Bavaria,,Nuremberg
49.12.232.244,4,18,endnotes.org.uk,DE,Europe,Western Europe,Germany,Bavaria,,Nuremberg
94.130.188.34,4,8,energytransition.org,DE,Europe,Western Europe,Germany,Bavaria,,Nuremberg
78.46.213.245,4,5,engarde.de,DE,Europe,Western Europe,Germany,Bavaria,,Nuremberg
202.61.232.73,4,35,english-theatre.de,DE,Europe,Western Europe,Germany,Bavaria,,Nuremberg
116.203.69.254,4,3,entropywins.wtf,DE,Europe,Western Europe,Germany,Bavaria,,Nuremberg
195.201.249.184,4,26,eplan.de,DE,Europe,Western Europe,Germany,Bavaria,,Nuremberg
213.239.218.52,4,56,epubbooks.com,DE,Europe,Western Europe,Germany,Bavaria,,Nuremberg
159.69.5.4,4,25,equi-score.com,DE,Europe,Western Europe,Germany,Bavaria,,Nuremberg
159.69.223.160,4,5,erfelijkheid.nl,DE,Europe,Western Europe,Germany,Bavaria,,Nuremberg
91.204.46.163,4,4,ergotherapie-kronsberg.de,DE,Europe,Western Europe,Germany,Bavaria,,Nuremberg
88.198.205.251,4,12,erhardt-leimer.com,DE,Europe,Western Europe,Germany,Bavaria,,Nuremberg
202.61.233.81,4,30,erweiterungen.de,DE,Europe,Western Europe,Germany,Bavaria,,Nuremberg
116.203.85.182,4,1843,erwerbslos.de,DE,Europe,Western Europe,Germany,Bavaria,,Nuremberg
188.34.193.72,4,71,esamea.gr,DE,Europe,Western Europe,Germany,Bavaria,,Nuremberg
173.212.237.235,4,1,escortconrecensione.com,DE,Europe,Western Europe,Germany,Bavaria,,Nuremberg
94.130.149.125,4,20,esel.at,DE,Europe,Western Europe,Germany,Bavaria,,Nuremberg
116.202.181.17,4,37,esg.de,DE,Europe,Western Europe,Germany,Bavaria,,Nuremberg
78.46.129.178,4,40,eshonline.org,DE,Europe,Western Europe,Germany,Bavaria,,Nuremberg
88.198.147.171,4,11,espace-recettes.fr,DE,Europe,Western Europe,Germany,Bavaria,,Nuremberg
116.203.84.207,4,6,espocrm.com,DE,Europe,Western Europe,Germany,Bavaria,,Nuremberg
207.180.254.202,4,12,esse3-medical.com,DE,Europe,Western Europe,Germany,Bavaria,,Nuremberg
207.180.231.72,4,6,essentia.one,DE,Europe,Western Europe,Germany,Bavaria,,Nuremberg
116.203.32.61,4,26,etondigital.com,DE,Europe,Western Europe,Germany,Bavaria,,Nuremberg
116.203.74.41,4,21,eu-bb.com,DE,Europe,Western Europe,Germany,Bavaria,,Nuremberg
116.203.144.126,4,34,eu-esf.org,DE,Europe,Western Europe,Germany,Bavaria,,Nuremberg
188.68.47.60,4,31,eubea.de,DE,Europe,Western Europe,Germany,Bavaria,,Nuremberg
49.13.235.103,4,-42,eufores.org,DE,Europe,Western Europe,Germany,Bavaria,,Nuremberg
185.243.10.178,4,4,eupen.be,DE,Europe,Western Europe,Germany,Bavaria,,Nuremberg
85.10.247.14,4,81,euroinnova.edu.es,DE,Europe,Western Europe,Germany,Bavaria,,Nuremberg
161.97.104.69,4,89,europronet.ba,DE,Europe,Western Europe,Germany,Bavaria,,Nuremberg
185.243.11.137,4,16,eventbox.de,DE,Europe,Western Europe,Germany,Bavaria,,Nuremberg
116.203.65.114,4,49,eventinc.de,DE,Europe,Western Europe,Germany,Bavaria,,Nuremberg
159.69.236.4,4,11,eventjet.at,DE,Europe,Western Europe,Germany,Bavaria,,Nuremberg
91.204.46.232,4,4,evoke.eu,DE,Europe,Western Europe,Germany,Bavaria,,Nuremberg
78.47.171.4,4,5,evonide.com,DE,Europe,Western Europe,Germany,Bavaria,,Nuremberg
128.140.64.22,4,-24533,evspecifications.com,DE,Europe,Western Europe,Germany,Bavaria,,Nuremberg
116.203.9.55,4,138359,eweka.nl,DE,Europe,Western Europe,Germany,Bavaria,,Nuremberg
195.201.184.208,4,6,excelsior.com.mt,DE,Europe,Western Europe,Germany,Bavaria,,Nuremberg
37.120.190.30,4,72,exim.org,DE,Europe,Western Europe,Germany,Bavaria,,Nuremberg
116.203.51.37,4,8,experimentevent.nl,DE,Europe,Western Europe,Germany,Bavaria,,Nuremberg
159.69.9.76,4,4,expresfm.cz,DE,Europe,Western Europe,Germany,Bavaria,,Nuremberg
195.201.37.117,4,2,extplorer.net,DE,Europe,Western Europe,Germany,Bavaria,,Nuremberg
5.189.135.81,4,12074,extrawatch.com,DE,Europe,Western Europe,Germany,Bavaria,,Nuremberg
144.91.120.83,4,7,exyucarp.com,DE,Europe,Western Europe,Germany,Bavaria,,Nuremberg
157.90.27.3,4,1,f-16.net,DE,Europe,Western Europe,Germany,Bavaria,,Nuremberg
116.203.33.155,4,75,factordb.com,DE,Europe,Western Europe,Germany,Bavaria,,Nuremberg
213.239.210.163,4,5,fahrgemeinschaft.de,DE,Europe,Western Europe,Germany,Bavaria,,Nuremberg
159.69.146.209,4,12,faktoje.al,DE,Europe,Western Europe,Germany,Bavaria,,Nuremberg
188.34.206.204,4,60,familienunternehmen.de,DE,Europe,Western Europe,Germany,Bavaria,,Nuremberg
5.75.147.109,4,38,familotel.com,DE,Europe,Western Europe,Germany,Bavaria,,Nuremberg
128.140.107.32,4,16,fanfiktion.de,DE,Europe,Western Europe,Germany,Bavaria,,Nuremberg
213.239.241.89,4,16,fantasyboardgames.org,DE,Europe,Western Europe,Germany,Bavaria,,Nuremberg
116.203.220.230,4,27,farb-tabelle.de,DE,Europe,Western Europe,Germany,Bavaria,,Nuremberg
116.203.96.8,4,148697,fast-alles.net,DE,Europe,Western Europe,Germany,Bavaria,,Nuremberg
188.68.56.89,4,5,faustkultur.de,DE,Europe,Western Europe,Germany,Bavaria,,Nuremberg
85.10.199.187,4,11,fb5.ru,DE,Europe,Western Europe,Germany,Bavaria,,Nuremberg
188.245.104.23,4,29,fc-arsenal.by,DE,Europe,Western Europe,Germany,Bavaria,,Nuremberg
5.75.180.93,4,27,fc-server.net,DE,Europe,Western Europe,Germany,Bavaria,,Nuremberg
167.233.9.126,4,4,fcomputer.dk,DE,Europe,Western Europe,Germany,Bavaria,,Nuremberg
142.132.160.20,4,63,fds-team.de,DE,Europe,Western Europe,Germany,Bavaria,,Nuremberg
167.235.78.83,4,21,fdst.de,DE,Europe,Western Europe,Germany,Bavaria,,Nuremberg
116.203.93.186,4,40,feder.bio,DE,Europe,Western Europe,Germany,Bavaria,,Nuremberg
78.46.200.80,4,11,fedi.video,DE,Europe,Western Europe,Germany,Bavaria,,Nuremberg
144.91.110.65,4,8,fediseer.com,DE,Europe,Western Europe,Germany,Bavaria,,Nuremberg
116.202.186.114,4,19,feelgreece.com,DE,Europe,Western Europe,Germany,Bavaria,,Nuremberg
185.232.71.82,4,6,fellr.net,DE,Europe,Western Europe,Germany,Bavaria,,Nuremberg
167.86.76.59,4,74,festivaleconomia.it,DE,Europe,Western Europe,Germany,Bavaria,,Nuremberg
185.216.178.5,4,11,festsaal-kreuzberg.de,DE,Europe,Western Europe,Germany,Bavaria,,Nuremberg
144.91.118.169,4,2,fiatjaf.com,DE,Europe,Western Europe,Germany,Bavaria,,Nuremberg
49.12.207.130,4,4,fibl.org,DE,Europe,Western Europe,Germany,Bavaria,,Nuremberg
157.90.164.100,4,45,fibricheck.com,DE,Europe,Western Europe,Germany,Bavaria,,Nuremberg
91.204.46.202,4,42,filzflausch.de,DE,Europe,Western Europe,Germany,Bavaria,,Nuremberg
159.69.12.15,4,19,fimus.dk,DE,Europe,Western Europe,Germany,Bavaria,,Nuremberg
116.203.120.19,4,4,finanz-elite.de,DE,Europe,Western Europe,Germany,Bavaria,,Nuremberg
167.235.158.148,4,17,finanztrends.de,DE,Europe,Western Europe,Germany,Bavaria,,Nuremberg
116.203.128.68,4,114,finanztrends.info,DE,Europe,Western Europe,Germany,Bavaria,,Nuremberg
195.201.32.106,4,23,finclub.net,DE,Europe,Western Europe,Germany,Bavaria,,Nuremberg
195.201.132.102,4,7,finleap.com,DE,Europe,Western Europe,Germany,Bavaria,,Nuremberg
185.194.141.174,4,5,finsterwalde.de,DE,Europe,Western Europe,Germany,Bavaria,,Nuremberg
188.245.96.240,4,11,firmware-all.com,DE,Europe,Western Europe,Germany,Bavaria,,Nuremberg
85.10.201.185,4,24,firstonline.info,DE,Europe,Western Europe,Germany,Bavaria,,Nuremberg
194.55.12.154,4,5,fischer-bayern.de,DE,Europe,Western Europe,Germany,Bavaria,,Nuremberg
157.90.174.174,4,15,fitness-seller.nl,DE,Europe,Western Europe,Germany,Bavaria,,Nuremberg
207.180.210.225,4,8,flagma.ua,DE,Europe,Western Europe,Germany,Bavaria,,Nuremberg
168.119.167.51,4,45,flashplayer.ru,DE,Europe,Western Europe,Germany,Bavaria,,Nuremberg
5.75.144.179,4,18,fleur-de-cuisine.de,DE,Europe,Western Europe,Germany,Bavaria,,Nuremberg
213.136.76.235,4,4,floc-conference.org,DE,Europe,Western Europe,Germany,Bavaria,,Nuremberg
116.202.178.242,4,5,flowstack.com,DE,Europe,Western Europe,Germany,Bavaria,,Nuremberg
195.201.216.250,4,6,flussonic.com,DE,Europe,Western Europe,Germany,Bavaria,,Nuremberg
159.69.157.92,4,6,fokus-zukunft.com,DE,Europe,Western Europe,Germany,Bavaria,,Nuremberg
116.203.135.85,4,12,followerzone.de,DE,Europe,Western Europe,Germany,Bavaria,,Nuremberg
5.75.164.122,4,67,fondazionecrt.it,DE,Europe,Western Europe,Germany,Bavaria,,Nuremberg
195.201.4.223,4,78,fondazionedivittorio.it,DE,Europe,Western Europe,Germany,Bavaria,,Nuremberg
202.61.232.169,4,12,fonds-daku.de,DE,Europe,Western Europe,Germany,Bavaria,,Nuremberg
168.119.169.240,4,87,fontello.com,DE,Europe,Western Europe,Germany,Bavaria,,Nuremberg
23.88.82.180,4,4,fooddiez.com,DE,Europe,Western Europe,Germany,Bavaria,,Nuremberg
173.249.20.76,4,3,forpressrelease.com,DE,Europe,Western Europe,Germany,Bavaria,,Nuremberg
167.233.8.207,4,13,forum-verlag.com,DE,Europe,Western Europe,Germany,Bavaria,,Nuremberg
173.249.19.125,4,3,forumtriumphchepassione.com,DE,Europe,Western Europe,Germany,Bavaria,,Nuremberg
89.58.50.219,4,90,fosspri.de,DE,Europe,Western Europe,Germany,Bavaria,,Nuremberg
2.56.98.129,4,21,foswiki.org,DE,Europe,Western Europe,Germany,Bavaria,,Nuremberg
213.239.215.100,4,11,foto-tw.de,DE,Europe,Western Europe,Germany,Bavaria,,Nuremberg
173.212.224.130,4,2,foxden.party,DE,Europe,Western Europe,Germany,Bavaria,,Nuremberg
185.233.188.61,4,97,fraenkisches-seenland.de,DE,Europe,Western Europe,Germany,Bavaria,,Nuremberg
78.47.88.197,4,31,frag-caesar.de,DE,Europe,Western Europe,Germany,Bavaria,,Nuremberg
159.69.35.94,4,68,framerframed.nl,DE,Europe,Western Europe,Germany,Bavaria,,Nuremberg
159.69.216.168,4,13,franchiseportal.de,DE,Europe,Western Europe,Germany,Bavaria,,Nuremberg
185.158.212.237,4,47,franken-therme.net,DE,Europe,Western Europe,Germany,Bavaria,,Nuremberg
144.91.82.5,4,3,freeclassipress.com,DE,Europe,Western Europe,Germany,Bavaria,,Nuremberg
31.172.113.33,4,34,freelancermap.com,DE,Europe,Western Europe,Germany,Bavaria,,Nuremberg
23.88.100.142,4,35,freetds.net,DE,Europe,Western Europe,Germany,Bavaria,,Nuremberg
89.58.53.203,4,17,freie-berufe.de,DE,Europe,Western Europe,Germany,Bavaria,,Nuremberg
49.13.41.88,4,6,fritz-berger.de,DE,Europe,Western Europe,Germany,Bavaria,,Nuremberg
159.69.212.216,4,5,froscon.de,DE,Europe,Western Europe,Germany,Bavaria,,Nuremberg
185.233.105.186,4,3,fruchtkeller.at,DE,Europe,Western Europe,Germany,Bavaria,,Nuremberg
188.68.47.120,4,4,frugalisten.de,DE,Europe,Western Europe,Germany,Bavaria,,Nuremberg
168.119.237.60,4,38,fsdkenya.org,DE,Europe,Western Europe,Germany,Bavaria,,Nuremberg
78.47.49.221,4,2,fsmi.wiki,DE,Europe,Western Europe,Germany,Bavaria,,Nuremberg
188.68.47.205,4,3,fuehrerscheine.de,DE,Europe,Western Europe,Germany,Bavaria,,Nuremberg
49.13.146.107,4,5,fufa.co.ug,DE,Europe,Western Europe,Germany,Bavaria,,Nuremberg
159.69.4.117,4,4,fulbright.de,DE,Europe,Western Europe,Germany,Bavaria,,Nuremberg
167.86.116.204,4,1,fundacaocefetminas.org.br,DE,Europe,Western Europe,Germany,Bavaria,,Nuremberg
78.47.37.15,4,23,funkemedien.de,DE,Europe,Western Europe,Germany,Bavaria,,Nuremberg
94.130.191.129,4,5,futuramo.com,DE,Europe,Western Europe,Germany,Bavaria,,Nuremberg
185.233.188.26,4,4,fvw.de,DE,Europe,Western Europe,Germany,Bavaria,,Nuremberg
164.68.115.81,4,1,fxpricing.com,DE,Europe,Western Europe,Germany,Bavaria,,Nuremberg
5.75.151.179,4,5,fyyd.de,DE,Europe,Western Europe,Germany,Bavaria,,Nuremberg
89.58.36.121,4,45,gadgetarq.com,DE,Europe,Western Europe,Germany,Bavaria,,Nuremberg
128.140.33.173,4,15,galerieslafayette.de,DE,Europe,Western Europe,Germany,Bavaria,,Nuremberg
116.203.101.77,4,14,galfer.eu,DE,Europe,Western Europe,Germany,Bavaria,,Nuremberg
173.212.218.172,4,34,galiciaconfidencial.com,DE,Europe,Western Europe,Germany,Bavaria,,Nuremberg
116.203.15.207,4,3,galinos.gr,DE,Europe,Western Europe,Germany,Bavaria,,Nuremberg
213.239.210.243,4,23,game2gether.de,DE,Europe,Western Europe,Germany,Bavaria,,Nuremberg
167.86.91.144,4,6,games-answers.net,DE,Europe,Western Europe,Germany,Bavaria,,Nuremberg
116.203.6.195,4,19,gardatrentino.it,DE,Europe,Western Europe,Germany,Bavaria,,Nuremberg
85.10.213.74,4,15,gardenroute.co.za,DE,Europe,Western Europe,Germany,Bavaria,,Nuremberg
159.69.207.254,4,14,garret.ru,DE,Europe,Western Europe,Germany,Bavaria,,Nuremberg
88.198.32.134,4,35,gastgewerbe-magazin.de,DE,Europe,Western Europe,Germany,Bavaria,,Nuremberg
94.130.27.143,4,7,gastronaut.hr,DE,Europe,Western Europe,Germany,Bavaria,,Nuremberg
116.203.238.82,4,8,gazdasagiradio.hu,DE,Europe,Western Europe,Germany,Bavaria,,Nuremberg
168.119.163.204,4,3,gazeta1.com,DE,Europe,Western Europe,Germany,Bavaria,,Nuremberg
157.90.119.252,4,5,gdprinfo.eu,DE,Europe,Western Europe,Germany,Bavaria,,Nuremberg
81.16.19.155,4,1,geany.org,DE,Europe,Western Europe,Germany,Bavaria,,Nuremberg
162.55.156.195,4,4,gebrueder-goetz.de,DE,Europe,Western Europe,Germany,Bavaria,,Nuremberg
142.132.166.77,4,6,gegenstandpunkt.com,DE,Europe,Western Europe,Germany,Bavaria,,Nuremberg
78.47.126.96,4,6,gemeinsam-trauern.net,DE,Europe,Western Europe,Germany,Bavaria,,Nuremberg
207.180.200.15,4,136,gennarino.org,DE,Europe,Western Europe,Germany,Bavaria,,Nuremberg
37.120.188.33,4,26,geomar.de,DE,Europe,Western Europe,Germany,Bavaria,,Nuremberg
188.245.43.250,4,52,gerardnico.com,DE,Europe,Western Europe,Germany,Bavaria,,Nuremberg
159.69.231.139,4,30,geraspora.de,DE,Europe,Western Europe,Germany,Bavaria,,Nuremberg
89.58.56.155,4,58,gereedschapland.nl,DE,Europe,Western Europe,Germany,Bavaria,,Nuremberg
89.58.53.74,4,33,germanwatch.org,DE,Europe,Western Europe,Germany,Bavaria,,Nuremberg
94.130.190.96,4,12,geschirrspuelen.de,DE,Europe,Western Europe,Germany,Bavaria,,Nuremberg
78.47.23.225,4,14,gesundheit.com,DE,Europe,Western Europe,Germany,Bavaria,,Nuremberg
168.119.231.45,4,54,getcockpit.com,DE,Europe,Western Europe,Germany,Bavaria,,Nuremberg
5.75.168.191,4,7,getscreen.me,DE,Europe,Western Europe,Germany,Bavaria,,Nuremberg
78.47.147.217,4,3,gfn.de,DE,Europe,Western Europe,Germany,Bavaria,,Nuremberg
94.130.186.240,4,68,ghidulprimariilor.ro,DE,Europe,Western Europe,Germany,Bavaria,,Nuremberg
167.235.107.240,4,8,ghvc-shop.de,DE,Europe,Western Europe,Germany,Bavaria,,Nuremberg
88.198.125.148,4,7,gi-de.com,DE,Europe,Western Europe,Germany,Bavaria,,Nuremberg
188.68.41.94,4,3,ginac.de,DE,Europe,Western Europe,Germany,Bavaria,,Nuremberg
88.198.201.49,4,8,giovannimiele.com,DE,Europe,Western Europe,Germany,Bavaria,,Nuremberg
85.10.203.4,4,5,giplatform.org,DE,Europe,Western Europe,Germany,Bavaria,,Nuremberg
78.47.17.167,4,22,giswater.org,DE,Europe,Western Europe,Germany,Bavaria,,Nuremberg
88.198.207.15,4,11,gkakiteworldtour.com,DE,Europe,Western Europe,Germany,Bavaria,,Nuremberg
167.235.56.108,4,4,glamood.com,DE,Europe,Western Europe,Germany,Bavaria,,Nuremberg
159.69.144.86,4,4,glas-koncila.hr,DE,Europe,Western Europe,Germany,Bavaria,,Nuremberg
195.201.230.66,4,7,globaldjmix.com,DE,Europe,Western Europe,Germany,Bavaria,,Nuremberg
5.75.138.135,4,8,globalplacement.com,DE,Europe,Western Europe,Germany,Bavaria,,Nuremberg
49.13.45.76,4,8,glosbe.com,DE,Europe,Western Europe,Germany,Bavaria,,Nuremberg
45.142.176.17,4,2,gmp-compliance.org,DE,Europe,Western Europe,Germany,Bavaria,,Nuremberg
167.86.107.188,4,29,gnuhealth.org,DE,Europe,Western Europe,Germany,Bavaria,,Nuremberg
5.75.141.59,4,29,godarbejdsplads.dk,DE,Europe,Western Europe,Germany,Bavaria,,Nuremberg
94.130.173.198,4,32,godivaciones.es,DE,Europe,Western Europe,Germany,Bavaria,,Nuremberg
88.198.92.76,4,4,gokkasten.info,DE,Europe,Western Europe,Germany,Bavaria,,Nuremberg
213.239.221.185,4,14,golatex.de,DE,Europe,Western Europe,Germany,Bavaria,,Nuremberg
159.69.111.38,4,43,goliath.nl,DE,Europe,Western Europe,Germany,Bavaria,,Nuremberg
49.13.32.0,4,28,golos.io,DE,Europe,Western Europe,Germany,Bavaria,,Nuremberg
88.198.223.14,4,4,gomma.de,DE,Europe,Western Europe,Germany,Bavaria,,Nuremberg
195.201.47.131,4,2652,goosh.org,DE,Europe,Western Europe,Germany,Bavaria,,Nuremberg
162.55.210.124,4,65,goqr.me,DE,Europe,Western Europe,Germany,Bavaria,,Nuremberg
88.198.223.112,4,20,gosee.de,DE,Europe,Western Europe,Germany,Bavaria,,Nuremberg
88.198.161.110,4,3,goticketshop.nl,DE,Europe,Western Europe,Germany,Bavaria,,Nuremberg
164.68.107.199,4,3,graacc.org.br,DE,Europe,Western Europe,Germany,Bavaria,,Nuremberg
31.7.187.140,4,6,grally.net,DE,Europe,Western Europe,Germany,Bavaria,,Nuremberg
116.202.203.61,4,34,granio.com.tr,DE,Europe,Western Europe,Germany,Bavaria,,Nuremberg
195.201.19.113,4,45,granjow.net,DE,Europe,Western Europe,Germany,Bavaria,,Nuremberg
116.203.166.192,4,66,grappanonino.it,DE,Europe,Western Europe,Germany,Bavaria,,Nuremberg
116.203.5.191,4,3,gratis-besucherzaehler.de,DE,Europe,Western Europe,Germany,Bavaria,,Nuremberg
116.203.75.61,4,10,gratis-kontaktformular.de,DE,Europe,Western Europe,Germany,Bavaria,,Nuremberg
116.203.153.73,4,18,grc.ua,DE,Europe,Western Europe,Germany,Bavaria,,Nuremberg
213.239.213.205,4,34,green-report.ro,DE,Europe,Western Europe,Germany,Bavaria,,Nuremberg
89.58.31.250,4,22,greensign.de,DE,Europe,Western Europe,Germany,Bavaria,,Nuremberg
188.245.65.246,4,3,gregtech.eu,DE,Europe,Western Europe,Germany,Bavaria,,Nuremberg
46.38.249.142,4,6,grenzmuseum.de,DE,Europe,Western Europe,Germany,Bavaria,,Nuremberg
5.189.183.229,4,7,grepular.com,DE,Europe,Western Europe,Germany,Bavaria,,Nuremberg
159.69.17.201,4,64,grn.de,DE,Europe,Western Europe,Germany,Bavaria,,Nuremberg
116.203.121.157,4,7,grodno.net,DE,Europe,Western Europe,Germany,Bavaria,,Nuremberg
195.201.217.131,4,43,grodno24.com,DE,Europe,Western Europe,Germany,Bavaria,,Nuremberg
45.132.247.23,4,36,gruen.net,DE,Europe,Western Europe,Germany,Bavaria,,Nuremberg
168.119.31.10,4,20,gruene-brandenburg.de,DE,Europe,Western Europe,Germany,Bavaria,,Nuremberg
159.69.170.103,4,9,gruene-fraktion-bayern.de,DE,Europe,Western Europe,Germany,Bavaria,,Nuremberg
116.203.167.100,4,38,gruene.social,DE,Europe,Western Europe,Germany,Bavaria,,Nuremberg
195.201.29.128,4,7,gs4u.net,DE,Europe,Western Europe,Germany,Bavaria,,Nuremberg
49.13.164.51,4,7,gsparkplug.com,DE,Europe,Western Europe,Germany,Bavaria,,Nuremberg
188.68.47.181,4,5,gtapedia.de,DE,Europe,Western Europe,Germany,Bavaria,,Nuremberg
202.61.232.166,4,7,gtfch.org,DE,Europe,Western Europe,Germany,Bavaria,,Nuremberg
167.86.100.35,4,5,gulagbound.com,DE,Europe,Western Europe,Germany,Bavaria,,Nuremberg
144.91.87.188,4,12,guru3d.com,DE,Europe,Western Europe,Germany,Bavaria,,Nuremberg
116.202.143.105,4,5,gutscheinbuch.de,DE,Europe,Western Europe,Germany,Bavaria,,Nuremberg
152.53.13.234,4,28,gutscheindeal.de,DE,Europe,Western Europe,Germany,Bavaria,,Nuremberg
185.216.179.105,4,6,h-schmidt.net,DE,Europe,Western Europe,Germany,Bavaria,,Nuremberg
78.47.67.96,4,4,halberstadt.de,DE,Europe,Western Europe,Germany,Bavaria,,Nuremberg
62.171.174.129,4,45,hallikainen.org,DE,Europe,Western Europe,Germany,Bavaria,,Nuremberg
5.75.166.21,4,21,hallobabysitter.de,DE,Europe,Western Europe,Germany,Bavaria,,Nuremberg
89.58.28.213,4,13,halloherne.de,DE,Europe,Western Europe,Germany,Bavaria,,Nuremberg
173.249.22.120,4,9,hamburg-aviation.de,DE,Europe,Western Europe,Germany,Bavaria,,Nuremberg
116.202.254.84,4,7,hamulight.com,DE,Europe,Western Europe,Germany,Bavaria,,Nuremberg
213.109.163.229,4,6,hanfparade.de,DE,Europe,Western Europe,Germany,Bavaria,,Nuremberg
213.136.93.171,4,5,hanseattle1.com,DE,Europe,Western Europe,Germany,Bavaria,,Nuremberg
116.202.182.243,4,4,hansimglueck-burgergrill.de,DE,Europe,Western Europe,Germany,Bavaria,,Nuremberg
116.202.178.206,4,5,hanswernersinn.de,DE,Europe,Western Europe,Germany,Bavaria,,Nuremberg
78.46.151.4,4,14,happyfm.es,DE,Europe,Western Europe,Germany,Bavaria,,Nuremberg
202.61.246.121,4,23,hardwareinside.de,DE,Europe,Western Europe,Germany,Bavaria,,Nuremberg
173.249.11.224,4,-2,harmonet.hu,DE,Europe,Western Europe,Germany,Bavaria,,Nuremberg
94.130.149.202,4,14,harrypotter-xperts.de,DE,Europe,Western Europe,Germany,Bavaria,,Nuremberg
188.68.47.129,4,18,hartge.de,DE,Europe,Western Europe,Germany,Bavaria,,Nuremberg
193.31.26.140,4,19,hartwork.org,DE,Europe,Western Europe,Germany,Bavaria,,Nuremberg
173.212.230.8,4,4,hasster.com,DE,Europe,Western Europe,Germany,Bavaria,,Nuremberg
78.47.119.92,4,-330552,hauser-kaibling.at,DE,Europe,Western Europe,Germany,Bavaria,,Nuremberg
5.75.185.174,4,21,hausvergleich.ch,DE,Europe,Western Europe,Germany,Bavaria,,Nuremberg
49.12.227.54,4,4,hawelka.at,DE,Europe,Western Europe,Germany,Bavaria,,Nuremberg
173.249.22.200,4,-6,hbsv.de,DE,Europe,Western Europe,Germany,Bavaria,,Nuremberg
94.16.108.173,4,4,hcc.de,DE,Europe,Western Europe,Germany,Bavaria,,Nuremberg
23.88.98.90,4,-310,hdsports.at,DE,Europe,Western Europe,Germany,Bavaria,,Nuremberg
78.46.182.68,4,-1,healthinfo.ua,DE,Europe,Western Europe,Germany,Bavaria,,Nuremberg
167.233.14.149,4,50,heimverzeichnis.de,DE,Europe,Western Europe,Germany,Bavaria,,Nuremberg
116.202.47.240,4,6,hein-gericke.de,DE,Europe,Western Europe,Germany,Bavaria,,Nuremberg
116.203.35.247,4,18,held.de,DE,Europe,Western Europe,Germany,Bavaria,,Nuremberg
116.203.114.103,4,24,heller.fr,DE,Europe,Western Europe,Germany,Bavaria,,Nuremberg
46.232.251.190,4,4,hellma.com,DE,Europe,Western Europe,Germany,Bavaria,,Nuremberg
49.12.235.34,4,5,hellotux.com,DE,Europe,Western Europe,Germany,Bavaria,,Nuremberg
116.203.125.38,4,32,helmholtz-klima.de,DE,Europe,Western Europe,Germany,Bavaria,,Nuremberg
94.130.105.5,4,10,helvetiq.com,DE,Europe,Western Europe,Germany,Bavaria,,Nuremberg
116.203.228.159,4,16,hempking.eu,DE,Europe,Western Europe,Germany,Bavaria,,Nuremberg
159.69.170.72,4,26,her-career.com,DE,Europe,Western Europe,Germany,Bavaria,,Nuremberg
159.69.82.190,4,10,heumilch.com,DE,Europe,Western Europe,Germany,Bavaria,,Nuremberg
202.61.233.78,4,2,hexentreffen2014.de,DE,Europe,Western Europe,Germany,Bavaria,,Nuremberg
159.69.12.6,4,4,heydata.eu,DE,Europe,Western Europe,Germany,Bavaria,,Nuremberg
173.249.32.200,4,6,hhvuganda.org,DE,Europe,Western Europe,Germany,Bavaria,,Nuremberg
202.61.232.28,4,15,hidenanalytical.com,DE,Europe,Western Europe,Germany,Bavaria,,Nuremberg
161.97.102.173,4,34,hifriends.network,DE,Europe,Western Europe,Germany,Bavaria,,Nuremberg
45.142.179.148,4,35,highendsociety.de,DE,Europe,Western Europe,Germany,Bavaria,,Nuremberg
49.13.235.190,4,14,highflow.nl,DE,Europe,Western Europe,Germany,Bavaria,,Nuremberg
195.201.93.193,4,4,hikarireikikai.it,DE,Europe,Western Europe,Germany,Bavaria,,Nuremberg
162.55.155.184,4,13,hintbox.de,DE,Europe,Western Europe,Germany,Bavaria,,Nuremberg
195.201.37.59,4,4,hirschhausen.com,DE,Europe,Western Europe,Germany,Bavaria,,Nuremberg
94.130.74.159,4,17,historia-arte.com,DE,Europe,Western Europe,Germany,Bavaria,,Nuremberg
85.209.48.50,4,3,hlportal.de,DE,Europe,Western Europe,Germany,Bavaria,,Nuremberg
162.55.255.165,4,12,hochgepokert.com,DE,Europe,Western Europe,Germany,Bavaria,,Nuremberg
202.61.232.139,4,5,hofbraeu-wirtshaus.de,DE,Europe,Western Europe,Germany,Bavaria,,Nuremberg
89.58.4.199,4,14,hogapage.de,DE,Europe,Western Europe,Germany,Bavaria,,Nuremberg
5.252.227.131,4,17,holifestival.com,DE,Europe,Western Europe,Germany,Bavaria,,Nuremberg
152.53.15.222,4,4,holocaust-denkmal-berlin.de,DE,Europe,Western Europe,Germany,Bavaria,,Nuremberg
167.86.76.203,4,37,holylandtrust.org,DE,Europe,Western Europe,Germany,Bavaria,,Nuremberg
161.97.77.43,4,78,homeaway.co.ke,DE,Europe,Western Europe,Germany,Bavaria,,Nuremberg
91.204.46.169,4,32,homepage24.de,DE,Europe,Western Europe,Germany,Bavaria,,Nuremberg
159.69.237.22,4,5,homepagemodules.de,DE,Europe,Western Europe,Germany,Bavaria,,Nuremberg
159.69.237.23,4,8,homepagemodules.de,DE,Europe,Western Europe,Germany,Bavaria,,Nuremberg
164.68.121.75,4,32,homeshop.dk,DE,Europe,Western Europe,Germany,Bavaria,,Nuremberg
78.47.98.216,4,13,hopp.at,DE,Europe,Western Europe,Germany,Bavaria,,Nuremberg
128.140.43.147,4,24,horaro.org,DE,Europe,Western Europe,Germany,Bavaria,,Nuremberg
159.69.29.174,4,11,hosttest.de,DE,Europe,Western Europe,Germany,Bavaria,,Nuremberg
173.212.240.93,4,44,hostzone.gr,DE,Europe,Western Europe,Germany,Bavaria,,Nuremberg
159.69.148.172,4,4,hotelcostes.com,DE,Europe,Western Europe,Germany,Bavaria,,Nuremberg
195.201.118.212,4,4,hotlab.com.ua,DE,Europe,Western Europe,Germany,Bavaria,,Nuremberg
49.13.230.79,4,25,howtocreate.co.uk,DE,Europe,Western Europe,Germany,Bavaria,,Nuremberg
116.203.0.179,4,12,howtoforge.de,DE,Europe,Western Europe,Germany,Bavaria,,Nuremberg
162.55.156.4,4,10,hoyer.de,DE,Europe,Western Europe,Germany,Bavaria,,Nuremberg
85.10.229.198,4,6,hrweb.at,DE,Europe,Western Europe,Germany,Bavaria,,Nuremberg
185.243.11.133,4,3,hs-kehl.de,DE,Europe,Western Europe,Germany,Bavaria,,Nuremberg
91.204.46.142,4,3,huaweiblog.de,DE,Europe,Western Europe,Germany,Bavaria,,Nuremberg
85.209.50.237,4,293,hubzilla.de,DE,Europe,Western Europe,Germany,Bavaria,,Nuremberg
116.203.199.34,4,5,humana-spain.org,DE,Europe,Western Europe,Germany,Bavaria,,Nuremberg
173.249.27.115,4,19,humanisinterim.com,DE,Europe,Western Europe,Germany,Bavaria,,Nuremberg
159.69.198.233,4,7,humanistisch.de,DE,Europe,Western Europe,Germany,Bavaria,,Nuremberg
185.158.212.208,4,4,humanistische-stiftung.de,DE,Europe,Western Europe,Germany,Bavaria,,Nuremberg
116.203.176.91,4,22,hundertwasser.at,DE,Europe,Western Europe,Germany,Bavaria,,Nuremberg
202.61.232.208,4,5,hurraki.de,DE,Europe,Western Europe,Germany,Bavaria,,Nuremberg
128.140.70.58,4,4,hwwi.org,DE,Europe,Western Europe,Germany,Bavaria,,Nuremberg
128.140.8.114,4,4,hypotheek-rentetarieven.nl,DE,Europe,Western Europe,Germany,Bavaria,,Nuremberg
213.133.98.71,4,5,i-auto.lv,DE,Europe,Western Europe,Germany,Bavaria,,Nuremberg
213.136.90.110,4,6,iatp.am,DE,Europe,Western Europe,Germany,Bavaria,,Nuremberg
116.203.71.169,4,9,ibmp.ir,DE,Europe,Western Europe,Germany,Bavaria,,Nuremberg
91.107.147.194,4,29,ibz.be,DE,Europe,Western Europe,Germany,Bavaria,,Nuremberg
88.99.227.16,4,55,icac.cat,DE,Europe,Western Europe,Germany,Bavaria,,Nuremberg
188.68.47.211,4,20,icom-deutschland.de,DE,Europe,Western Europe,Germany,Bavaria,,Nuremberg
49.12.234.183,4,1,ident.me,DE,Europe,Western Europe,Germany,Bavaria,,Nuremberg
94.130.76.7,4,18,idrp.ru,DE,Europe,Western Europe,Germany,Bavaria,,Nuremberg
195.201.17.108,4,33,ifcm.net,DE,Europe,Western Europe,Germany,Bavaria,,Nuremberg
88.198.214.250,4,29,ifworlddesignguide.com,DE,Europe,Western Europe,Germany,Bavaria,,Nuremberg
207.180.236.104,4,11,ignousynopsis.com,DE,Europe,Western Europe,Germany,Bavaria,,Nuremberg
161.97.100.61,4,5,ihaxglobal.com,DE,Europe,Western Europe,Germany,Bavaria,,Nuremberg
116.202.188.216,4,7,ikbenzwanger.com,DE,Europe,Western Europe,Germany,Bavaria,,Nuremberg
202.61.197.136,4,11,ikso.net,DE,Europe,Western Europe,Germany,Bavaria,,Nuremberg
167.235.157.236,4,41,ila-berlin.de,DE,Europe,Western Europe,Germany,Bavaria,,Nuremberg
116.203.90.238,4,24,iljester.com,DE,Europe,Western Europe,Germany,Bavaria,,Nuremberg
46.38.249.170,4,42,illuminion.de,DE,Europe,Western Europe,Germany,Bavaria,,Nuremberg
173.212.199.22,4,20,ilsussidiario.net,DE,Europe,Western Europe,Germany,Bavaria,,Nuremberg
173.212.195.154,4,28,ilyamikcoder.com,DE,Europe,Western Europe,Germany,Bavaria,,Nuremberg
161.97.86.8,4,10,imexbb.com,DE,Europe,Western Europe,Germany,Bavaria,,Nuremberg
202.61.232.154,4,62,imwerden.de,DE,Europe,Western Europe,Germany,Bavaria,,Nuremberg
23.88.100.252,4,15,inclusivemediatraining.eu,DE,Europe,Western Europe,Germany,Bavaria,,Nuremberg
157.90.21.212,4,36,indigoaward.com,DE,Europe,Western Europe,Germany,Bavaria,,Nuremberg
78.47.139.78,4,17,industr.com,DE,Europe,Western Europe,Germany,Bavaria,,Nuremberg
78.46.158.118,4,91,industriaspesqueras.com,DE,Europe,Western Europe,Germany,Bavaria,,Nuremberg
185.170.113.214,4,4,inf-schule.de,DE,Europe,Western Europe,Germany,Bavaria,,Nuremberg
167.235.132.78,4,85,infoaut.org,DE,Europe,Western Europe,Germany,Bavaria,,Nuremberg
91.107.225.61,4,4,informatoreagrario.it,DE,Europe,Western Europe,Germany,Bavaria,,Nuremberg
159.69.37.105,4,39,informer.rs,DE,Europe,Western Europe,Germany,Bavaria,,Nuremberg
213.239.221.58,4,9,infosec-jobs.com,DE,Europe,Western Europe,Germany,Bavaria,,Nuremberg
193.26.157.84,4,66,infothek-gesundheit.de,DE,Europe,Western Europe,Germany,Bavaria,,Nuremberg
202.61.232.211,4,14,initiatived21.de,DE,Europe,Western Europe,Germany,Bavaria,,Nuremberg
195.201.91.115,4,38,inlovewithbliss.com,DE,Europe,Western Europe,Germany,Bavaria,,Nuremberg
94.16.115.106,4,31,innovareacademics.in,DE,Europe,Western Europe,Germany,Bavaria,,Nuremberg
167.235.27.86,4,14,innowise-group.com,DE,Europe,Western Europe,Germany,Bavaria,,Nuremberg
78.46.216.137,4,12,instinctools.com,DE,Europe,Western Europe,Germany,Bavaria,,Nuremberg
95.111.246.6,4,21,institutogdali.com,DE,Europe,Western Europe,Germany,Bavaria,,Nuremberg
116.203.116.21,4,4,intakt.info,DE,Europe,Western Europe,Germany,Bavaria,,Nuremberg
157.90.225.242,4,6,interregnorthsea.eu,DE,Europe,Western Europe,Germany,Bavaria,,Nuremberg
195.201.227.245,4,27,intimcity.at,DE,Europe,Western Europe,Germany,Bavaria,,Nuremberg
173.249.41.183,4,1,inyoface.agency,DE,Europe,Western Europe,Germany,Bavaria,,Nuremberg
162.55.53.27,4,5,ipc-computer.de,DE,Europe,Western Europe,Germany,Bavaria,,Nuremberg
94.130.25.94,4,38,ipim.ru,DE,Europe,Western Europe,Germany,Bavaria,,Nuremberg
168.119.120.101,4,69,ipzv.de,DE,Europe,Western Europe,Germany,Bavaria,,Nuremberg
168.119.161.142,4,10,irlem-practice.com,DE,Europe,Western Europe,Germany,Bavaria,,Nuremberg
188.245.73.201,4,14,isc-hpc.com,DE,Europe,Western Europe,Germany,Bavaria,,Nuremberg
116.203.121.185,4,4,iserv.de,DE,Europe,Western Europe,Germany,Bavaria,,Nuremberg
185.233.107.78,4,2,iserv.de,DE,Europe,Western Europe,Germany,Bavaria,,Nuremberg
49.12.176.2,4,1399,isfa.com,DE,Europe,Western Europe,Germany,Bavaria,,Nuremberg
161.97.115.44,4,6,ishrakat.com,DE,Europe,Western Europe,Germany,Bavaria,,Nuremberg
88.198.201.16,4,2,iskra.co,DE,Europe,Western Europe,Germany,Bavaria,,Nuremberg
116.203.92.231,4,3,islamicmasjid.com,DE,Europe,Western Europe,Germany,Bavaria,,Nuremberg
116.203.181.195,4,14,islepark.it,DE,Europe,Western Europe,Germany,Bavaria,,Nuremberg
88.198.112.96,4,1,ismpo.sk,DE,Europe,Western Europe,Germany,Bavaria,,Nuremberg
162.55.60.77,4,3,ispsystem.com,DE,Europe,Western Europe,Germany,Bavaria,,Nuremberg
173.212.230.6,4,85,ist.org,DE,Europe,Western Europe,Germany,Bavaria,,Nuremberg
213.239.220.240,4,85,istanbulescortd.com,DE,Europe,Western Europe,Germany,Bavaria,,Nuremberg
78.47.128.198,4,22,it-production.com,DE,Europe,Western Europe,Germany,Bavaria,,Nuremberg
142.132.160.229,4,60,it-recht-kanzlei.de,DE,Europe,Western Europe,Germany,Bavaria,,Nuremberg
195.201.101.55,4,6,itfglobal.org,DE,Europe,Western Europe,Germany,Bavaria,,Nuremberg
116.203.241.217,4,3,itrk.legal,DE,Europe,Western Europe,Germany,Bavaria,,Nuremberg
89.58.43.67,4,20,its-egner.de,DE,Europe,Western Europe,Germany,Bavaria,,Nuremberg
159.69.155.125,4,6,iucn-uk-peatlandprogramme.org,DE,Europe,Western Europe,Germany,Bavaria,,Nuremberg
188.245.70.59,4,8,iversity.org,DE,Europe,Western Europe,Germany,Bavaria,,Nuremberg
207.180.219.44,4,8,iwgia.org,DE,Europe,Western Europe,Germany,Bavaria,,Nuremberg
195.201.2.62,4,9,iwrite.gr,DE,Europe,Western Europe,Germany,Bavaria,,Nuremberg
195.201.122.13,4,31,iww.org.uk,DE,Europe,Western Europe,Germany,Bavaria,,Nuremberg
164.68.103.245,4,11,iypt.org,DE,Europe,Western Europe,Germany,Bavaria,,Nuremberg
185.243.11.127,4,13,iz3w.org,DE,Europe,Western Europe,Germany,Bavaria,,Nuremberg
78.47.253.251,4,22,jacksonsnurseries.co.uk,DE,Europe,Western Europe,Germany,Bavaria,,Nuremberg
5.189.165.64,4,19,jacpcldce.ac.in,DE,Europe,Western Europe,Germany,Bavaria,,Nuremberg
185.243.11.89,4,7,jaegers.net,DE,Europe,Western Europe,Germany,Bavaria,,Nuremberg
167.86.97.30,4,7,jagdambasarees.com,DE,Europe,Western Europe,Germany,Bavaria,,Nuremberg
159.69.218.229,4,26,jaklicbus.eu,DE,Europe,Western Europe,Germany,Bavaria,,Nuremberg
5.189.166.149,4,3,jakoblell.com,DE,Europe,Western Europe,Germany,Bavaria,,Nuremberg
78.47.122.69,4,16,jam.ua,DE,Europe,Western Europe,Germany,Bavaria,,Nuremberg
94.130.190.147,4,26,jambor.dev,DE,Europe,Western Europe,Germany,Bavaria,,Nuremberg
195.201.126.101,4,23,janaserver.de,DE,Europe,Western Europe,Germany,Bavaria,,Nuremberg
195.201.78.211,4,9,japalaghi.com,DE,Europe,Western Europe,Germany,Bavaria,,Nuremberg
37.120.167.134,4,24,jatan.space,DE,Europe,Western Europe,Germany,Bavaria,,Nuremberg
142.132.173.203,4,19,javaland.eu,DE,Europe,Western Europe,Germany,Bavaria,,Nuremberg
116.203.240.177,4,2,jdownloader.org,DE,Europe,Western Europe,Germany,Bavaria,,Nuremberg
162.55.190.95,4,36,jetcamp.com,DE,Europe,Western Europe,Germany,Bavaria,,Nuremberg
94.130.190.32,4,3,jeunesse.at,DE,Europe,Western Europe,Germany,Bavaria,,Nuremberg
157.90.125.153,4,4,jfj.fund,DE,Europe,Western Europe,Germany,Bavaria,,Nuremberg
94.130.26.20,4,4,jhmd.cz,DE,Europe,Western Europe,Germany,Bavaria,,Nuremberg
37.221.198.57,4,71,jochen-hoenicke.de,DE,Europe,Western Europe,Germany,Bavaria,,Nuremberg
94.130.177.116,4,34,jodies.de,DE,Europe,Western Europe,Germany,Bavaria,,Nuremberg
144.91.117.131,4,1,jogibaba.com,DE,Europe,Western Europe,Germany,Bavaria,,Nuremberg
91.204.46.46,4,17,jonasjohn.de,DE,Europe,Western Europe,Germany,Bavaria,,Nuremberg
116.203.141.12,4,-858,jonathancarter.org,DE,Europe,Western Europe,Germany,Bavaria,,Nuremberg
159.69.146.186,4,0,joyasvalldor.com,DE,Europe,Western Europe,Germany,Bavaria,,Nuremberg
23.88.62.3,4,7,jriddell.org,DE,Europe,Western Europe,Germany,Bavaria,,Nuremberg
78.46.133.219,4,-67288,jtsprockets.com,DE,Europe,Western Europe,Germany,Bavaria,,Nuremberg
46.38.231.117,4,1837,juaneda.es,DE,Europe,Western Europe,Germany,Bavaria,,Nuremberg
91.204.46.136,4,2,justjuice.org,DE,Europe,Western Europe,Germany,Bavaria,,Nuremberg
78.47.191.248,4,2,juwi.de,DE,Europe,Western Europe,Germany,Bavaria,,Nuremberg
116.203.197.185,4,34,kaaloon.de,DE,Europe,Western Europe,Germany,Bavaria,,Nuremberg
188.68.47.172,4,3,kairaven.de,DE,Europe,Western Europe,Germany,Bavaria,,Nuremberg
116.203.29.140,4,34,kamera.al,DE,Europe,Western Europe,Germany,Bavaria,,Nuremberg
5.189.160.166,4,1,kammerpop.de,DE,Europe,Western Europe,Germany,Bavaria,,Nuremberg
116.203.34.81,4,6,kare-design.com,DE,Europe,Western Europe,Germany,Bavaria,,Nuremberg
37.120.185.96,4,35810,karlrupp.net,DE,Europe,Western Europe,Germany,Bavaria,,Nuremberg
128.140.65.127,4,31,katebush.com,DE,Europe,Western Europe,Germany,Bavaria,,Nuremberg
213.133.127.242,4,14,kathimerini.gr,DE,Europe,Western Europe,Germany,Bavaria,,Nuremberg
5.189.168.48,4,3,katrangun.com.ua,DE,Europe,Western Europe,Germany,Bavaria,,Nuremberg
161.97.66.125,4,3,kayemess.com,DE,Europe,Western Europe,Germany,Bavaria,,Nuremberg
5.9.162.41,4,5,kctag.net,DE,Europe,Western Europe,Germany,Bavaria,,Nuremberg
213.239.241.44,4,6,kdfs.de,DE,Europe,Western Europe,Germany,Bavaria,,Nuremberg
195.201.208.142,4,-24007,keessmit.nl,DE,Europe,Western Europe,Germany,Bavaria,,Nuremberg
159.69.13.34,4,8,keitaro.io,DE,Europe,Western Europe,Germany,Bavaria,,Nuremberg
159.69.145.49,4,6,kek.org.hu,DE,Europe,Western Europe,Germany,Bavaria,,Nuremberg
116.202.95.164,4,11,kerkeremaroufi.com,DE,Europe,Western Europe,Germany,Bavaria,,Nuremberg
116.203.15.161,4,14,kerstpakketwebshop.nl,DE,Europe,Western Europe,Germany,Bavaria,,Nuremberg
157.90.28.211,4,5,kh-berlin.de,DE,Europe,Western Europe,Germany,Bavaria,,Nuremberg
173.212.250.143,4,92,khazar.org,DE,Europe,Western Europe,Germany,Bavaria,,Nuremberg
94.130.174.131,4,4,khcc.jo,DE,Europe,Western Europe,Germany,Bavaria,,Nuremberg
88.99.188.231,4,2,khodorkovsky.com,DE,Europe,Western Europe,Germany,Bavaria,,Nuremberg
157.90.22.40,4,8,khodorkovsky.ru,DE,Europe,Western Europe,Germany,Bavaria,,Nuremberg
49.12.192.225,4,8,ki-verband.de,DE,Europe,Western Europe,Germany,Bavaria,,Nuremberg
91.107.159.14,4,4,kiava.co,DE,Europe,Western Europe,Germany,Bavaria,,Nuremberg
78.47.162.56,4,4,kidsweb.at,DE,Europe,Western Europe,Germany,Bavaria,,Nuremberg
213.136.74.11,4,5,kindakinks.es,DE,Europe,Western Europe,Germany,Bavaria,,Nuremberg
188.68.47.193,4,63,kinderhospiz-sterntaler.de,DE,Europe,Western Europe,Germany,Bavaria,,Nuremberg
194.36.145.140,4,5,kirchenkreis-schleswig-flensburg.de,DE,Europe,Western Europe,Germany,Bavaria,,Nuremberg
78.47.203.88,4,218995,kirchensite.de,DE,Europe,Western Europe,Germany,Bavaria,,Nuremberg
94.130.188.73,4,218996,kirchensite.de,DE,Europe,Western Europe,Germany,Bavaria,,Nuremberg
85.10.237.35,4,14,klagemauer.tv,DE,Europe,Western Europe,Germany,Bavaria,,Nuremberg
78.47.79.164,4,4,klangknecht.com,DE,Europe,Western Europe,Germany,Bavaria,,Nuremberg
185.243.11.105,4,12,klassikstadt.de,DE,Europe,Western Europe,Germany,Bavaria,,Nuremberg
85.10.194.138,4,16,kleptokrat.net,DE,Europe,Western Europe,Germany,Bavaria,,Nuremberg
159.69.200.66,4,-1161523,klilu.de,DE,Europe,Western Europe,Germany,Bavaria,,Nuremberg
94.130.72.138,4,1,klimatok.com.ua,DE,Europe,Western Europe,Germany,Bavaria,,Nuremberg
185.162.251.145,4,46,kloeber.com,DE,Europe,Western Europe,Germany,Bavaria,,Nuremberg
116.203.10.96,4,11,knauer.net,DE,Europe,Western Europe,Germany,Bavaria,,Nuremberg
162.55.177.152,4,46,knick-international.com,DE,Europe,Western Europe,Germany,Bavaria,,Nuremberg
185.162.250.221,4,3,kochwiki.org,DE,Europe,Western Europe,Germany,Bavaria,,Nuremberg
49.12.205.226,4,5,kofa.de,DE,Europe,Western Europe,Germany,Bavaria,,Nuremberg
5.75.151.169,4,84,koh-i-noor.cz,DE,Europe,Western Europe,Germany,Bavaria,,Nuremberg
162.55.179.124,4,7,koinor.com,DE,Europe,Western Europe,Germany,Bavaria,,Nuremberg
116.203.237.81,4,7,kolaente.dev,DE,Europe,Western Europe,Germany,Bavaria,,Nuremberg
144.91.70.148,4,37,koletrans.mk,DE,Europe,Western Europe,Germany,Bavaria,,Nuremberg
188.245.150.16,4,95,kommune21.de,DE,Europe,Western Europe,Germany,Bavaria,,Nuremberg
167.86.116.250,4,91,komun.org,DE,Europe,Western Europe,Germany,Bavaria,,Nuremberg
173.212.250.217,4,50,konektia.pl,DE,Europe,Western Europe,Germany,Bavaria,,Nuremberg
195.201.92.53,4,93,kongeligeslotte.dk,DE,Europe,Western Europe,Germany,Bavaria,,Nuremberg
193.30.123.190,4,16,konii.de,DE,Europe,Western Europe,Germany,Bavaria,,Nuremberg
185.216.177.21,4,38,konsolentreff.de,DE,Europe,Western Europe,Germany,Bavaria,,Nuremberg
159.69.35.116,4,39,koprivnica.hr,DE,Europe,Western Europe,Germany,Bavaria,,Nuremberg
159.69.148.206,4,17,kraeg.ru,DE,Europe,Western Europe,Germany,Bavaria,,Nuremberg
37.120.191.150,4,8,kraftanlagen.com,DE,Europe,Western Europe,Germany,Bavaria,,Nuremberg
49.13.167.87,4,7,krankenkasseninfo.de,DE,Europe,Western Europe,Germany,Bavaria,,Nuremberg
116.203.8.169,4,82,kreditkarte.net,DE,Europe,Western Europe,Germany,Bavaria,,Nuremberg
168.119.169.136,4,40,krestikom.net,DE,Europe,Western Europe,Germany,Bavaria,,Nuremberg
162.55.158.3,4,5,kroschke.de,DE,Europe,Western Europe,Germany,Bavaria,,Nuremberg
91.204.46.127,4,33,krothi-shop.de,DE,Europe,Western Europe,Germany,Bavaria,,Nuremberg
116.203.89.38,4,5,kscripts.com,DE,Europe,Western Europe,Germany,Bavaria,,Nuremberg
188.68.47.21,4,3,kst-serviceportal.de,DE,Europe,Western Europe,Germany,Bavaria,,Nuremberg
49.12.233.13,4,160,kulturgut-mobilitaet.de,DE,Europe,Western Europe,Germany,Bavaria,,Nuremberg
188.68.51.193,4,29,kulturprojekte.berlin,DE,Europe,Western Europe,Germany,Bavaria,,Nuremberg
167.235.68.155,4,25,kunstkraftwerk-leipzig.com,DE,Europe,Western Europe,Germany,Bavaria,,Nuremberg
168.119.40.60,4,20,kunstvoorjou.nl,DE,Europe,Western Europe,Germany,Bavaria,,Nuremberg
159.69.9.92,4,4,kuponer.cz,DE,Europe,Western Europe,Germany,Bavaria,,Nuremberg
78.46.201.53,4,4,kurdishacademy.org,DE,Europe,Western Europe,Germany,Bavaria,,Nuremberg
116.203.3.166,4,2,kurz-mal-weg.de,DE,Europe,Western Europe,Germany,Bavaria,,Nuremberg
213.239.241.70,4,6,kurzfilmtag.com,DE,Europe,Western Europe,Germany,Bavaria,,Nuremberg
62.171.136.185,4,9,kutethemes.net,DE,Europe,Western Europe,Germany,Bavaria,,Nuremberg
116.203.2.9,4,10,kutu.de,DE,Europe,Western Europe,Germany,Bavaria,,Nuremberg
94.130.150.144,4,26,kv-rlp.de,DE,Europe,Western Europe,Germany,Bavaria,,Nuremberg
162.55.156.172,4,3,kwiga.com,DE,Europe,Western Europe,Germany,Bavaria,,Nuremberg
195.201.46.172,4,5,l4x.org,DE,Europe,Western Europe,Germany,Bavaria,,Nuremberg
195.201.135.27,4,4,laboklin.com,DE,Europe,Western Europe,Germany,Bavaria,,Nuremberg
116.202.247.228,4,5,labrassbanda.com,DE,Europe,Western Europe,Germany,Bavaria,,Nuremberg
167.235.144.14,4,16,lacividina.com,DE,Europe,Western Europe,Germany,Bavaria,,Nuremberg
94.130.172.205,4,57,lada.cc,DE,Europe,Western Europe,Germany,Bavaria,,Nuremberg
78.47.75.159,4,6,ladyhealth.com.ua,DE,Europe,Western Europe,Germany,Bavaria,,Nuremberg
5.189.161.122,4,5,lainvisible.net,DE,Europe,Western Europe,Germany,Bavaria,,Nuremberg
195.128.103.79,4,50340,lainzer-tiergarten.at,DE,Europe,Western Europe,Germany,Bavaria,,Nuremberg
94.130.230.140,4,18,lamparas-en-linea.es,DE,Europe,Western Europe,Germany,Bavaria,,Nuremberg
23.88.99.97,4,4,land-der-ideen.de,DE,Europe,Western Europe,Germany,Bavaria,,Nuremberg
188.68.47.220,4,24,landbell.de,DE,Europe,Western Europe,Germany,Bavaria,,Nuremberg
173.249.18.150,4,28,lander.es,DE,Europe,Western Europe,Germany,Bavaria,,Nuremberg
202.61.240.144,4,41,landesmuseum.de,DE,Europe,Western Europe,Germany,Bavaria,,Nuremberg
116.203.8.233,4,40,landestheater-coburg.de,DE,Europe,Western Europe,Germany,Bavaria,,Nuremberg
195.201.38.143,4,5,langner.com,DE,Europe,Western Europe,Germany,Bavaria,,Nuremberg
94.16.114.176,4,24,latex-project.org,DE,Europe,Western Europe,Germany,Bavaria,,Nuremberg
159.69.205.69,4,3,latuk.ua,DE,Europe,Western Europe,Germany,Bavaria,,Nuremberg
173.249.15.176,4,37,laubergedesmigrants.fr,DE,Europe,Western Europe,Germany,Bavaria,,Nuremberg
202.61.232.55,4,120,lauradekker.nl,DE,Europe,Western Europe,Germany,Bavaria,,Nuremberg
159.69.147.231,4,1,lazaradio.com,DE,Europe,Western Europe,Germany,Bavaria,,Nuremberg
116.203.211.218,4,26,lazarev.rs,DE,Europe,Western Europe,Germany,Bavaria,,Nuremberg
202.61.251.221,4,26,learn-german-online.net,DE,Europe,Western Europe,Germany,Bavaria,,Nuremberg
116.202.47.176,4,17,learndutch.org,DE,Europe,Western Europe,Germany,Bavaria,,Nuremberg
167.235.146.21,4,17,lebenshaus-alb.de,DE,Europe,Western Europe,Germany,Bavaria,,Nuremberg
185.233.188.202,4,4,lebensmittelzeitung.net,DE,Europe,Western Europe,Germany,Bavaria,,Nuremberg
144.91.108.93,4,69,lecafedugeek.fr,DE,Europe,Western Europe,Germany,Bavaria,,Nuremberg
49.12.95.22,4,98,ledpremium.ru,DE,Europe,Western Europe,Germany,Bavaria,,Nuremberg
45.136.31.195,4,22,ledzepnews.com,DE,Europe,Western Europe,Germany,Bavaria,,Nuremberg
85.209.51.135,4,66,leitbetriebe.at,DE,Europe,Western Europe,Germany,Bavaria,,Nuremberg
62.171.144.61,4,15,leloir.org.ar,DE,Europe,Western Europe,Germany,Bavaria,,Nuremberg
78.46.212.12,4,4,lemmy.remotelab.uk,DE,Europe,Western Europe,Germany,Bavaria,,Nuremberg
5.75.133.3,4,15,lemmyonline.com,DE,Europe,Western Europe,Germany,Bavaria,,Nuremberg
195.201.132.57,4,32,lemon-aid.de,DE,Europe,Western Europe,Germany,Bavaria,,Nuremberg
173.212.251.103,4,55,lemuslimpost.com,DE,Europe,Western Europe,Germany,Bavaria,,Nuremberg
116.202.181.166,4,16,lenahoschek.com,DE,Europe,Western Europe,Germany,Bavaria,,Nuremberg
195.201.21.29,4,5,lewik.org,DE,Europe,Western Europe,Germany,Bavaria,,Nuremberg
49.13.145.125,4,6,leyjao.pk,DE,Europe,Western Europe,Germany,Bavaria,,Nuremberg
159.69.105.183,4,9,libe.net,DE,Europe,Western Europe,Germany,Bavaria,,Nuremberg
162.55.191.1,4,9,lifestyleblog.it,DE,Europe,Western Europe,Germany,Bavaria,,Nuremberg
157.90.175.232,4,6,lifetrust.com,DE,Europe,Western Europe,Germany,Bavaria,,Nuremberg
168.119.45.52,4,38,lifo.gr,DE,Europe,Western Europe,Germany,Bavaria,,Nuremberg
162.55.157.99,4,4,lightwidget.com,DE,Europe,Western Europe,Germany,Bavaria,,Nuremberg
188.68.47.232,4,31,linguatec.de,DE,Europe,Western Europe,Germany,Bavaria,,Nuremberg
161.97.114.241,4,94,lingvoforum.net,DE,Europe,Western Europe,Germany,Bavaria,,Nuremberg
91.107.234.106,4,4,linksjugend-solid.de,DE,Europe,Western Europe,Germany,Bavaria,,Nuremberg
116.203.189.208,4,4,linux-tutorial.info,DE,Europe,Western Europe,Germany,Bavaria,,Nuremberg
5.75.175.179,4,84,lipu.it,DE,Europe,Western Europe,Germany,Bavaria,,Nuremberg
188.68.47.102,4,33,lisanet.de,DE,Europe,Western Europe,Germany,Bavaria,,Nuremberg
88.99.191.74,4,30,lisp.se,DE,Europe,Western Europe,Germany,Bavaria,,Nuremberg
173.212.214.235,4,7,livewallpaper.net,DE,Europe,Western Europe,Germany,Bavaria,,Nuremberg
116.203.242.170,4,4,livingcost.org,DE,Europe,Western Europe,Germany,Bavaria,,Nuremberg
164.68.117.243,4,8,livingfeeds.com,DE,Europe,Western Europe,Germany,Bavaria,,Nuremberg
49.13.238.30,4,4,lksh.de,DE,Europe,Western Europe,Germany,Bavaria,,Nuremberg
213.136.68.171,4,6,lllitalia.org,DE,Europe,Western Europe,Germany,Bavaria,,Nuremberg
116.203.89.167,4,2,lmmy.dk,DE,Europe,Western Europe,Germany,Bavaria,,Nuremberg
91.204.46.85,4,38,localcdn.org,DE,Europe,Western Europe,Germany,Bavaria,,Nuremberg
159.69.147.179,4,46,loff.it,DE,Europe,Western Europe,Germany,Bavaria,,Nuremberg
167.235.18.85,4,31,logaster.com,DE,Europe,Western Europe,Germany,Bavaria,,Nuremberg
116.202.253.212,4,7,logistiekconcurrent.nl,DE,Europe,Western Europe,Germany,Bavaria,,Nuremberg
193.30.121.218,4,3,lohro.de,DE,Europe,Western Europe,Germany,Bavaria,,Nuremberg
188.68.47.229,4,72,lokalklick.eu,DE,Europe,Western Europe,Germany,Bavaria,,Nuremberg
195.201.36.128,4,6,longshine.de,DE,Europe,Western Europe,Germany,Bavaria,,Nuremberg
185.16.61.160,4,18,loomy.li,DE,Europe,Western Europe,Germany,Bavaria,,Nuremberg
78.47.81.156,4,50,loris.tv,DE,Europe,Western Europe,Germany,Bavaria,,Nuremberg
91.107.151.185,4,20,lra-mue.de,DE,Europe,Western Europe,Germany,Bavaria,,Nuremberg
167.233.9.77,4,5,ls-tc.de,DE,Europe,Western Europe,Germany,Bavaria,,Nuremberg
202.61.233.39,4,10,luedenscheid.de,DE,Europe,Western Europe,Germany,Bavaria,,Nuremberg
116.203.36.105,4,5,lueneburger-heide.de,DE,Europe,Western Europe,Germany,Bavaria,,Nuremberg
116.203.210.42,4,77,lukassen.nl,DE,Europe,Western Europe,Germany,Bavaria,,Nuremberg
195.201.222.186,4,60,lullis.net,DE,Europe,Western Europe,Germany,Bavaria,,Nuremberg
195.201.6.192,4,4,luzernertheater.ch,DE,Europe,Western Europe,Germany,Bavaria,,Nuremberg
159.69.91.155,4,5,lvivoblrada.gov.ua,DE,Europe,Western Europe,Germany,Bavaria,,Nuremberg
173.212.192.74,4,-3,lxqt.org,DE,Europe,Western Europe,Germany,Bavaria,,Nuremberg
116.203.44.204,4,3,lyricsworld.ru,DE,Europe,Western Europe,Germany,Bavaria,,Nuremberg
159.69.21.5,4,4,m-krantzik.de,DE,Europe,Western Europe,Germany,Bavaria,,Nuremberg
159.69.235.89,4,4,maedchenflohmarkt.de,DE,Europe,Western Europe,Germany,Bavaria,,Nuremberg
5.189.161.74,4,25,maeso.nl,DE,Europe,Western Europe,Germany,Bavaria,,Nuremberg
78.47.173.190,4,26,magi-mania.de,DE,Europe,Western Europe,Germany,Bavaria,,Nuremberg
116.203.16.194,4,5,magicmockups.com,DE,Europe,Western Europe,Germany,Bavaria,,Nuremberg
213.133.102.175,4,13,magnalister.com,DE,Europe,Western Europe,Germany,Bavaria,,Nuremberg
173.212.233.127,4,17,magnanelli.com,DE,Europe,Western Europe,Germany,Bavaria,,Nuremberg
202.61.241.101,4,88,mainlynorfolk.info,DE,Europe,Western Europe,Germany,Bavaria,,Nuremberg
185.233.189.224,4,16,mainradweg.com,DE,Europe,Western Europe,Germany,Bavaria,,Nuremberg
162.55.152.226,4,36,mainz.de,DE,Europe,Western Europe,Germany,Bavaria,,Nuremberg
88.99.186.198,4,3,majidonline.com,DE,Europe,Western Europe,Germany,Bavaria,,Nuremberg
202.61.232.124,4,200,makerfaire-ruhr.com,DE,Europe,Western Europe,Germany,Bavaria,,Nuremberg
207.180.250.34,4,4,malagalopd.net,DE,Europe,Western Europe,Germany,Bavaria,,Nuremberg
116.203.91.91,4,35,manjaro.org,DE,Europe,Western Europe,Germany,Bavaria,,Nuremberg
88.198.147.168,4,44,manomama.de,DE,Europe,Western Europe,Germany,Bavaria,,Nuremberg
91.107.236.9,4,48,manova.news,DE,Europe,Western Europe,Germany,Bavaria,,Nuremberg
168.119.40.70,4,51,manves.nl,DE,Europe,Western Europe,Germany,Bavaria,,Nuremberg
94.130.182.140,4,5,mapmsg.com,DE,Europe,Western Europe,Germany,Bavaria,,Nuremberg
185.170.114.246,4,41,margot-fischer.at,DE,Europe,Western Europe,Germany,Bavaria,,Nuremberg
91.204.46.181,4,9,marken.legal,DE,Europe,Western Europe,Germany,Bavaria,,Nuremberg
168.119.235.99,4,7,marktcom.de,DE,Europe,Western Europe,Germany,Bavaria,,Nuremberg
195.201.45.125,4,1,marktoberdorf.de,DE,Europe,Western Europe,Germany,Bavaria,,Nuremberg
94.130.104.29,4,4,marlam.de,DE,Europe,Western Europe,Germany,Bavaria,,Nuremberg
88.198.185.6,4,67,marocannonces.com,DE,Europe,Western Europe,Germany,Bavaria,,Nuremberg
159.69.18.58,4,0,marsgaming.eu,DE,Europe,Western Europe,Germany,Bavaria,,Nuremberg
159.69.95.242,4,7,martin-graesslin.com,DE,Europe,Western Europe,Germany,Bavaria,,Nuremberg
91.107.238.220,4,3,mascotte.ch,DE,Europe,Western Europe,Germany,Bavaria,,Nuremberg
157.90.115.30,4,106,mastodon.coffee,DE,Europe,Western Europe,Germany,Bavaria,,Nuremberg
116.203.73.48,4,43,matbea.com,DE,Europe,Western Europe,Germany,Bavaria,,Nuremberg
85.10.198.53,4,43,mauikit.org,DE,Europe,Western Europe,Germany,Bavaria,,Nuremberg
162.55.212.106,4,32,mauser.com,DE,Europe,Western Europe,Germany,Bavaria,,Nuremberg
188.68.41.71,4,3,mbike.com,DE,Europe,Western Europe,Germany,Bavaria,,Nuremberg
5.45.100.75,4,5,mcc-berlin.net,DE,Europe,Western Europe,Germany,Bavaria,,Nuremberg
213.136.93.164,4,3,mccbookit.com,DE,Europe,Western Europe,Germany,Bavaria,,Nuremberg
157.90.22.60,4,12,mcmiddleearth.com,DE,Europe,Western Europe,Germany,Bavaria,,Nuremberg
116.203.0.241,4,74,med360grad.de,DE,Europe,Western Europe,Germany,Bavaria,,Nuremberg
88.198.164.175,4,14,medbe.ru,DE,Europe,Western Europe,Germany,Bavaria,,Nuremberg
152.89.106.211,4,59,mediaarchitecture.org,DE,Europe,Western Europe,Germany,Bavaria,,Nuremberg
185.232.69.119,4,72,mediathekviewweb.de,DE,Europe,Western Europe,Germany,Bavaria,,Nuremberg
167.233.12.155,4,66,medien-kindersicher.de,DE,Europe,Western Europe,Germany,Bavaria,,Nuremberg
167.235.110.136,4,93,medikamente-per-klick.de,DE,Europe,Western Europe,Germany,Bavaria,,Nuremberg
159.69.28.199,4,84,mednet.gr,DE,Europe,Western Europe,Germany,Bavaria,,Nuremberg
202.61.232.43,4,22,megazine3.de,DE,Europe,Western Europe,Germany,Bavaria,,Nuremberg
116.203.166.50,4,15,mein-fahrradhaendler.de,DE,Europe,Western Europe,Germany,Bavaria,,Nuremberg
188.68.47.33,4,29,meintechblog.de,DE,Europe,Western Europe,Germany,Bavaria,,Nuremberg
78.47.211.208,4,3,mejorensayo.es,DE,Europe,Western Europe,Germany,Bavaria,,Nuremberg
159.69.12.13,4,1,memo-media.de,DE,Europe,Western Europe,Germany,Bavaria,,Nuremberg
188.40.20.0,4,10,mena-watch.com,DE,Europe,Western Europe,Germany,Bavaria,,Nuremberg
116.203.88.221,4,53,mensch-und-computer.de,DE,Europe,Western Europe,Germany,Bavaria,,Nuremberg
62.171.156.158,4,34,meritkingkayit.com,DE,Europe,Western Europe,Germany,Bavaria,,Nuremberg
213.239.249.230,4,23,merten.de,DE,Europe,Western Europe,Germany,Bavaria,,Nuremberg
94.130.59.228,4,4,metal-temple.com,DE,Europe,Western Europe,Germany,Bavaria,,Nuremberg
91.204.46.166,4,6,mh-freiburg.de,DE,Europe,Western Europe,Germany,Bavaria,,Nuremberg
94.16.117.159,4,17,mh-luebeck.de,DE,Europe,Western Europe,Germany,Bavaria,,Nuremberg
195.201.148.185,4,51,micro-epsilon.de,DE,Europe,Western Europe,Germany,Bavaria,,Nuremberg
116.203.105.197,4,5,microweber.com,DE,Europe,Western Europe,Germany,Bavaria,,Nuremberg
116.203.38.78,4,10,mietmeile.de,DE,Europe,Western Europe,Germany,Bavaria,,Nuremberg
116.203.56.219,4,18,mifaz.de,DE,Europe,Western Europe,Germany,Bavaria,,Nuremberg
195.201.103.219,4,45,mijalflamenco.com,DE,Europe,Western Europe,Germany,Bavaria,,Nuremberg
89.58.9.57,4,4,mikrocontroller.com,DE,Europe,Western Europe,Germany,Bavaria,,Nuremberg
159.69.159.238,4,5,minds-africa.org,DE,Europe,Western Europe,Germany,Bavaria,,Nuremberg
157.90.56.36,4,47,minecraftathome.com,DE,Europe,Western Europe,Germany,Bavaria,,Nuremberg
91.132.147.105,4,10,minichamps.de,DE,Europe,Western Europe,Germany,Bavaria,,Nuremberg
116.203.52.26,4,5,minimalissimo.com,DE,Europe,Western Europe,Germany,Bavaria,,Nuremberg
207.180.243.8,4,24,ministryinfo.gov.lb,DE,Europe,Western Europe,Germany,Bavaria,,Nuremberg
162.55.219.175,4,4,minor-kontor.de,DE,Europe,Western Europe,Germany,Bavaria,,Nuremberg
157.90.166.207,4,5,minox.com,DE,Europe,Western Europe,Germany,Bavaria,,Nuremberg
89.58.11.147,4,3,missio.com,DE,Europe,Western Europe,Germany,Bavaria,,Nuremberg
162.55.186.56,4,18,misslipgloss.nl,DE,Europe,Western Europe,Germany,Bavaria,,Nuremberg
159.69.200.33,4,-4,mmk.art,DE,Europe,Western Europe,Germany,Bavaria,,Nuremberg
167.86.81.209,4,45,mmr.net.ua,DE,Europe,Western Europe,Germany,Bavaria,,Nuremberg
116.202.47.180,4,31,mmv.nl,DE,Europe,Western Europe,Germany,Bavaria,,Nuremberg
49.13.227.132,4,3,mobilesupplies.nl,DE,Europe,Western Europe,Germany,Bavaria,,Nuremberg
202.61.201.36,4,39,mobility-ads.de,DE,Europe,Western Europe,Germany,Bavaria,,Nuremberg
173.212.224.223,4,11,mobiteach.eu,DE,Europe,Western Europe,Germany,Bavaria,,Nuremberg
85.10.224.196,4,23,mojahercegovina.com,DE,Europe,Western Europe,Germany,Bavaria,,Nuremberg
128.140.47.16,4,38,moldstud.com,DE,Europe,Western Europe,Germany,Bavaria,,Nuremberg
164.68.100.129,4,24,molitva.life,DE,Europe,Western Europe,Germany,Bavaria,,Nuremberg
85.10.251.209,4,11,moncleroutlet.com.co,DE,Europe,Western Europe,Germany,Bavaria,,Nuremberg
188.34.201.117,4,8,monsieur-cuisine.com,DE,Europe,Western Europe,Germany,Bavaria,,Nuremberg
49.12.163.212,4,77,monster.fi,DE,Europe,Western Europe,Germany,Bavaria,,Nuremberg
5.189.136.124,4,23,monthlymagazine.com,DE,Europe,Western Europe,Germany,Bavaria,,Nuremberg
78.46.192.123,4,22,moonorganizer.com,DE,Europe,Western Europe,Germany,Bavaria,,Nuremberg
202.61.232.13,4,40,mother-hood.de,DE,Europe,Western Europe,Germany,Bavaria,,Nuremberg
144.91.98.206,4,6,moviewatcher.eu,DE,Europe,Western Europe,Germany,Bavaria,,Nuremberg
94.16.111.188,4,32,movim.eu,DE,Europe,Western Europe,Germany,Bavaria,,Nuremberg
116.202.177.42,4,10,msdockville.de,DE,Europe,Western Europe,Germany,Bavaria,,Nuremberg
195.201.135.113,4,7,msj.dk,DE,Europe,Western Europe,Germany,Bavaria,,Nuremberg
116.203.217.124,4,39,mtgthesource.com,DE,Europe,Western Europe,Germany,Bavaria,,Nuremberg
78.47.147.171,4,4,muddasheep.com,DE,Europe,Western Europe,Germany,Bavaria,,Nuremberg
162.55.158.253,4,3,muenster-update.de,DE,Europe,Western Europe,Germany,Bavaria,,Nuremberg
159.69.15.244,4,708235,mueritz-travel.de,DE,Europe,Western Europe,Germany,Bavaria,,Nuremberg
116.202.251.82,4,3,museodelcanal.com,DE,Europe,Western Europe,Germany,Bavaria,,Nuremberg
5.75.136.87,4,1,museum-kueppersmuehle.de,DE,Europe,Western Europe,Germany,Bavaria,,Nuremberg
207.180.217.215,4,42,musiccorner.gr,DE,Europe,Western Europe,Germany,Bavaria,,Nuremberg
116.203.93.225,4,90,musicteachersdirectory.org,DE,Europe,Western Europe,Germany,Bavaria,,Nuremberg
94.130.110.134,4,4,mut-gegen-rechte-gewalt.de,DE,Europe,Western Europe,Germany,Bavaria,,Nuremberg
173.249.12.12,4,12,muzmag.com.ua,DE,Europe,Western Europe,Germany,Bavaria,,Nuremberg
193.31.25.225,4,17,mv-online.de,DE,Europe,Western Europe,Germany,Bavaria,,Nuremberg
62.171.132.49,4,2,mvgroup.org,DE,Europe,Western Europe,Germany,Bavaria,,Nuremberg
207.180.222.191,4,4,mwordpress.net,DE,Europe,Western Europe,Germany,Bavaria,,Nuremberg
144.91.68.28,4,28,myavidgolfer.com,DE,Europe,Western Europe,Germany,Bavaria,,Nuremberg
46.38.241.235,4,21,mybb.de,DE,Europe,Western Europe,Germany,Bavaria,,Nuremberg
159.69.200.139,4,5,mykharkov.info,DE,Europe,Western Europe,Germany,Bavaria,,Nuremberg
46.38.249.148,4,5,mylittleforum.net,DE,Europe,Western Europe,Germany,Bavaria,,Nuremberg
159.69.215.201,4,5,myrideisme.com,DE,Europe,Western Europe,Germany,Bavaria,,Nuremberg
116.203.242.207,4,24,myrockshows.com,DE,Europe,Western Europe,Germany,Bavaria,,Nuremberg
167.86.115.134,4,5,mysticpost.com,DE,Europe,Western Europe,Germany,Bavaria,,Nuremberg
157.90.164.150,4,3,nachtkritik.de,DE,Europe,Western Europe,Germany,Bavaria,,Nuremberg
188.68.47.72,4,10,nacoa.de,DE,Europe,Western Europe,Germany,Bavaria,,Nuremberg
46.38.235.146,4,3,nagvis.org,DE,Europe,Western Europe,Germany,Bavaria,,Nuremberg
138.201.233.18,4,18,namasteconsulting.com.np,DE,Europe,Western Europe,Germany,Bavaria,,Nuremberg
167.235.137.179,4,11,namerobot.com,DE,Europe,Western Europe,Germany,Bavaria,,Nuremberg
78.47.34.225,4,31,nasirabbasandco.com,DE,Europe,Western Europe,Germany,Bavaria,,Nuremberg
162.55.156.242,4,4,naszdziennik.pl,DE,Europe,Western Europe,Germany,Bavaria,,Nuremberg
164.68.106.145,4,1161,nation2.com,DE,Europe,Western Europe,Germany,Bavaria,,Nuremberg
88.99.170.187,4,69,nationalapprenticeshipweek.co.uk,DE,Europe,Western Europe,Germany,Bavaria,,Nuremberg
213.239.241.10,4,4,natron.net,DE,Europe,Western Europe,Germany,Bavaria,,Nuremberg
159.69.215.204,4,-59421,nature-galerie.com,DE,Europe,Western Europe,Germany,Bavaria,,Nuremberg
88.198.213.137,4,73,natureandmore.com,DE,Europe,Western Europe,Germany,Bavaria,,Nuremberg
195.201.151.115,4,1868,naturland.de,DE,Europe,Western Europe,Germany,Bavaria,,Nuremberg
185.233.188.136,4,87,naturpark-altmuehltal.de,DE,Europe,Western Europe,Germany,Bavaria,,Nuremberg
159.69.220.119,4,47,naturpark-suedschwarzwald.de,DE,Europe,Western Europe,Germany,Bavaria,,Nuremberg
116.203.164.29,4,8,natuurfotografie.nl,DE,Europe,Western Europe,Germany,Bavaria,,Nuremberg
195.128.101.187,4,19,naumburger-dom.de,DE,Europe,Western Europe,Germany,Bavaria,,Nuremberg
116.203.204.244,4,6,nazioneindiana.com,DE,Europe,Western Europe,Germany,Bavaria,,Nuremberg
188.40.221.179,4,41,neatdownloadmanager.com,DE,Europe,Western Europe,Germany,Bavaria,,Nuremberg
94.130.183.3,4,100608,nebelwelt.net,DE,Europe,Western Europe,Germany,Bavaria,,Nuremberg
45.142.176.194,4,3,nekusoul.de,DE,Europe,Western Europe,Germany,Bavaria,,Nuremberg
173.249.25.124,4,6,nem.ninja,DE,Europe,Western Europe,Germany,Bavaria,,Nuremberg
162.55.158.153,4,12,neos.io,DE,Europe,Western Europe,Germany,Bavaria,,Nuremberg
88.198.190.190,4,6,netcentric.biz,DE,Europe,Western Europe,Germany,Bavaria,,Nuremberg
194.36.144.87,4,1,netcup GmbH,DE,Europe,Western Europe,Germany,Bavaria,,Nuremberg
185.233.106.232,4,33,netcup GmbH 1,DE,Europe,Western Europe,Germany,Bavaria,,Nuremberg
185.233.107.4,4,5,netcup GmbH 2,DE,Europe,Western Europe,Germany,Bavaria,,Nuremberg
167.235.222.244,4,176,netrenderer.com,DE,Europe,Western Europe,Germany,Bavaria,,Nuremberg
185.233.188.221,4,54,netways.de,DE,Europe,Western Europe,Germany,Bavaria,,Nuremberg
185.233.189.100,4,8,netways.de,DE,Europe,Western Europe,Germany,Bavaria,,Nuremberg
85.209.49.199,4,10,netzgemeinde.eu,DE,Europe,Western Europe,Germany,Bavaria,,Nuremberg
94.16.108.55,4,7,neue-pressemitteilungen.de,DE,Europe,Western Europe,Germany,Bavaria,,Nuremberg
116.202.183.56,4,75,neuewege.com,DE,Europe,Western Europe,Germany,Bavaria,,Nuremberg
88.99.224.218,4,39,newassignment.net,DE,Europe,Western Europe,Germany,Bavaria,,Nuremberg
185.207.107.137,4,8,newgadgets.de,DE,Europe,Western Europe,Germany,Bavaria,,Nuremberg
49.12.165.174,4,7,newinchess.com,DE,Europe,Western Europe,Germany,Bavaria,,Nuremberg
85.10.203.185,4,20,news-portal.org,DE,Europe,Western Europe,Germany,Bavaria,,Nuremberg
167.235.135.229,4,25,nexgam.de,DE,Europe,Western Europe,Germany,Bavaria,,Nuremberg
2.56.96.231,4,2,nextmove.de,DE,Europe,Western Europe,Germany,Bavaria,,Nuremberg
116.203.124.218,4,5,ngambaisland.org,DE,Europe,Western Europe,Germany,Bavaria,,Nuremberg
136.243.126.179,4,109837,ngk.de,DE,Europe,Western Europe,Germany,Bavaria,,Nuremberg
49.13.249.50,4,4,ngkntk.com,DE,Europe,Western Europe,Germany,Bavaria,,Nuremberg
188.34.194.241,4,27,nick-name.ru,DE,Europe,Western Europe,Germany,Bavaria,,Nuremberg
116.203.9.118,4,27,nictiz.nl,DE,Europe,Western Europe,Germany,Bavaria,,Nuremberg
49.13.170.28,4,16,nieuw-volendam.nl,DE,Europe,Western Europe,Germany,Bavaria,,Nuremberg
188.68.47.126,4,5,nighttime-imaging.eu,DE,Europe,Western Europe,Germany,Bavaria,,Nuremberg
207.180.241.5,4,5,nilinknet.com,DE,Europe,Western Europe,Germany,Bavaria,,Nuremberg
88.198.154.149,4,19,nintechnet.com,DE,Europe,Western Europe,Germany,Bavaria,,Nuremberg
78.46.4.54,4,5,nisc.co.za,DE,Europe,Western Europe,Germany,Bavaria,,Nuremberg
89.58.58.8,4,1,njuuz.de,DE,Europe,Western Europe,Germany,Bavaria,,Nuremberg
116.203.97.61,4,3,nkolimpija.si,DE,Europe,Western Europe,Germany,Bavaria,,Nuremberg
49.12.204.78,4,3,nlg.gr,DE,Europe,Western Europe,Germany,Bavaria,,Nuremberg
5.45.109.21,4,6,nlstreets.nl,DE,Europe,Western Europe,Germany,Bavaria,,Nuremberg
167.233.13.224,4,86,nonstoppartner.net,DE,Europe,Western Europe,Germany,Bavaria,,Nuremberg
94.130.107.159,4,1,nordenhake.com,DE,Europe,Western Europe,Germany,Bavaria,,Nuremberg
37.221.193.152,4,43,nosystemd.org,DE,Europe,Western Europe,Germany,Bavaria,,Nuremberg
78.47.93.247,4,10,notable.app,DE,Europe,Western Europe,Germany,Bavaria,,Nuremberg
94.130.106.45,4,73,noti.st,DE,Europe,Western Europe,Germany,Bavaria,,Nuremberg
49.13.199.101,4,8,nova.eu,DE,Europe,Western Europe,Germany,Bavaria,,Nuremberg
116.203.10.94,4,19,novoflex.com,DE,Europe,Western Europe,Germany,Bavaria,,Nuremberg
37.120.165.129,4,2,npm-stat.com,DE,Europe,Western Europe,Germany,Bavaria,,Nuremberg
188.34.129.51,4,8,npwj.org,DE,Europe,Western Europe,Germany,Bavaria,,Nuremberg
193.31.26.165,4,10,nur.gratis,DE,Europe,Western Europe,Germany,Bavaria,,Nuremberg
159.69.197.18,4,5,nvkp.nl,DE,Europe,Western Europe,Germany,Bavaria,,Nuremberg
195.201.38.102,4,2,nvworld.ru,DE,Europe,Western Europe,Germany,Bavaria,,Nuremberg
89.58.55.167,4,3,nwpro.ru,DE,Europe,Western Europe,Germany,Bavaria,,Nuremberg
173.212.229.172,4,3,nwr.com.na,DE,Europe,Western Europe,Germany,Bavaria,,Nuremberg
213.136.93.169,4,2,oammz.com,DE,Europe,Western Europe,Germany,Bavaria,,Nuremberg
116.202.176.187,4,24,oberalp.com,DE,Europe,Western Europe,Germany,Bavaria,,Nuremberg
202.61.232.118,4,3,oberelbe.de,DE,Europe,Western Europe,Germany,Bavaria,,Nuremberg
213.133.104.107,4,17,oboxthemes.com,DE,Europe,Western Europe,Germany,Bavaria,,Nuremberg
202.61.232.247,4,9,octagon-forum.eu,DE,Europe,Western Europe,Germany,Bavaria,,Nuremberg
45.136.31.44,4,53,oeh-salzburg.at,DE,Europe,Western Europe,Germany,Bavaria,,Nuremberg
116.202.179.201,4,46,oeins.de,DE,Europe,Western Europe,Germany,Bavaria,,Nuremberg
207.180.213.249,4,21,oeschberghof.com,DE,Europe,Western Europe,Germany,Bavaria,,Nuremberg
116.203.11.110,4,9,oesterreichonlinecasino.at,DE,Europe,Western Europe,Germany,Bavaria,,Nuremberg
202.61.237.152,4,58,offene-werkstaetten.org,DE,Europe,Western Europe,Germany,Bavaria,,Nuremberg
91.107.155.18,4,13,og.ru,DE,Europe,Western Europe,Germany,Bavaria,,Nuremberg
195.201.118.234,4,5,ogginotizie.it,DE,Europe,Western Europe,Germany,Bavaria,,Nuremberg
185.207.107.49,4,-177508,ohmygit.org,DE,Europe,Western Europe,Germany,Bavaria,,Nuremberg
116.203.243.166,4,648,oiger.de,DE,Europe,Western Europe,Germany,Bavaria,,Nuremberg
116.203.154.120,4,10,okana.gr,DE,Europe,Western Europe,Germany,Bavaria,,Nuremberg
195.201.73.44,4,30,okthemes.com,DE,Europe,Western Europe,Germany,Bavaria,,Nuremberg
162.55.60.249,4,23,oldtimer-markt.de,DE,Europe,Western Europe,Germany,Bavaria,,Nuremberg
162.55.59.116,4,42,olimodo.de,DE,Europe,Western Europe,Germany,Bavaria,,Nuremberg
116.203.187.88,4,24,omnova.com,DE,Europe,Western Europe,Germany,Bavaria,,Nuremberg
49.12.195.228,4,1,oneplanetonly.com,DE,Europe,Western Europe,Germany,Bavaria,,Nuremberg
195.201.34.42,4,15,online-ofb.de,DE,Europe,Western Europe,Germany,Bavaria,,Nuremberg
162.55.60.91,4,103,onlinecasinoosusume.jp,DE,Europe,Western Europe,Germany,Bavaria,,Nuremberg
5.75.136.165,4,29,onlinecasinosdeutschland.com,DE,Europe,Western Europe,Germany,Bavaria,,Nuremberg
144.91.72.137,4,29,onlinetechlearner.com,DE,Europe,Western Europe,Germany,Bavaria,,Nuremberg
116.203.13.71,4,10,onlinetv18.de,DE,Europe,Western Europe,Germany,Bavaria,,Nuremberg
116.202.177.153,4,7,only-apartments.com,DE,Europe,Western Europe,Germany,Bavaria,,Nuremberg
195.201.254.246,4,13,ooelfv.at,DE,Europe,Western Europe,Germany,Bavaria,,Nuremberg
37.120.180.41,4,342,Ookla Speedtest Server 14156: voiptest.starface.de,DE,Europe,Western Europe,Germany,Bavaria,,Nuremberg
5.75.172.144,4,149,Ookla Speedtest Server 55462: speedtest.twerion.net,DE,Europe,Western Europe,Germany,Bavaria,,Nuremberg
89.58.35.96,4,337,Ookla Speedtest Server 60469: speedtest.netcup.de,DE,Europe,Western Europe,Germany,Bavaria,,Nuremberg
116.203.130.243,4,89,Ookla Speedtest Server: www.freshworx.com,DE,Europe,Western Europe,Germany,Bavaria,,Nuremberg
116.202.72.10,4,40,open32.nl,DE,Europe,Western Europe,Germany,Bavaria,,Nuremberg
89.58.59.161,4,60,openbiblio.social,DE,Europe,Western Europe,Germany,Bavaria,,Nuremberg
213.239.227.55,4,101,opendatabot.ua,DE,Europe,Western Europe,Germany,Bavaria,,Nuremberg
116.203.206.243,4,80,openemm.org,DE,Europe,Western Europe,Germany,Bavaria,,Nuremberg
188.68.47.51,4,4,openhouse-wien.at,DE,Europe,Western Europe,Germany,Bavaria,,Nuremberg
116.202.180.248,4,61,openhouseroma.org,DE,Europe,Western Europe,Germany,Bavaria,,Nuremberg
45.83.107.180,4,25,openingstijden.nl,DE,Europe,Western Europe,Germany,Bavaria,,Nuremberg
207.180.197.123,4,7,openknowledgemaps.org,DE,Europe,Western Europe,Germany,Bavaria,,Nuremberg
5.45.99.242,4,6,openmpt.org,DE,Europe,Western Europe,Germany,Bavaria,,Nuremberg
195.201.99.61,4,8,opennicproject.org,DE,Europe,Western Europe,Germany,Bavaria,,Nuremberg
85.10.221.68,4,4,opensourcepress.de,DE,Europe,Western Europe,Germany,Bavaria,,Nuremberg
88.99.172.52,4,28,openstreetbrowser.org,DE,Europe,Western Europe,Germany,Bavaria,,Nuremberg
5.75.131.248,4,32,opera-national-lorraine.fr,DE,Europe,Western Europe,Germany,Bavaria,,Nuremberg
78.47.19.214,4,100,operaestate.it,DE,Europe,Western Europe,Germany,Bavaria,,Nuremberg
116.203.226.18,4,3,opinionciatti.com,DE,Europe,Western Europe,Germany,Bavaria,,Nuremberg
116.203.98.192,4,49,opplevutlandet.no,DE,Europe,Western Europe,Germany,Bavaria,,Nuremberg
195.201.219.229,4,31,opticstoday.com,DE,Europe,Western Europe,Germany,Bavaria,,Nuremberg
161.97.106.30,4,3,opylashy.website,DE,Europe,Western Europe,Germany,Bavaria,,Nuremberg
116.203.165.106,4,5,oraridiapertura24.it,DE,Europe,Western Europe,Germany,Bavaria,,Nuremberg
173.249.41.236,4,5,ordasoft.com,DE,Europe,Western Europe,Germany,Bavaria,,Nuremberg
195.201.143.129,4,40,oren-led.ru,DE,Europe,Western Europe,Germany,Bavaria,,Nuremberg
167.235.107.115,4,9,oreo.eu,DE,Europe,Western Europe,Germany,Bavaria,,Nuremberg
116.203.35.111,4,95,organic-world.net,DE,Europe,Western Europe,Germany,Bavaria,,Nuremberg
138.201.234.22,4,54,orgpage.ru,DE,Europe,Western Europe,Germany,Bavaria,,Nuremberg
195.201.120.3,4,19,ortosalon.ua,DE,Europe,Western Europe,Germany,Bavaria,,Nuremberg
195.201.149.81,4,20,osa.pl,DE,Europe,Western Europe,Germany,Bavaria,,Nuremberg
49.13.248.234,4,4,oshisha.net,DE,Europe,Western Europe,Germany,Bavaria,,Nuremberg
167.86.80.244,4,11,osmanlifm.com,DE,Europe,Western Europe,Germany,Bavaria,,Nuremberg
116.203.177.96,4,-2,ossietzky.net,DE,Europe,Western Europe,Germany,Bavaria,,Nuremberg
202.61.242.225,4,3,ostbelgiendirekt.be,DE,Europe,Western Europe,Germany,Bavaria,,Nuremberg
195.201.126.132,4,8,otzywy.com,DE,Europe,Western Europe,Germany,Bavaria,,Nuremberg
78.46.137.112,4,10,outboundjogja.id,DE,Europe,Western Europe,Germany,Bavaria,,Nuremberg
94.16.120.77,4,57,overclockers.at,DE,Europe,Western Europe,Germany,Bavaria,,Nuremberg
173.249.2.240,4,34,owaahh.com,DE,Europe,Western Europe,Germany,Bavaria,,Nuremberg
85.10.206.9,4,24,palaciodelosnavas.com,DE,Europe,Western Europe,Germany,Bavaria,,Nuremberg
5.75.169.241,4,30,palaisevents.at,DE,Europe,Western Europe,Germany,Bavaria,,Nuremberg
94.130.151.233,4,45,palant.de,DE,Europe,Western Europe,Germany,Bavaria,,Nuremberg
31.172.113.2,4,2,palazzo.org,DE,Europe,Western Europe,Germany,Bavaria,,Nuremberg
195.201.42.34,4,36,paleontica.org,DE,Europe,Western Europe,Germany,Bavaria,,Nuremberg
193.31.24.204,4,12,pallenberg-busreisen.de,DE,Europe,Western Europe,Germany,Bavaria,,Nuremberg
159.69.19.50,4,21,panomax.com,DE,Europe,Western Europe,Germany,Bavaria,,Nuremberg
94.130.176.12,4,49,papaya-cms.com,DE,Europe,Western Europe,Germany,Bavaria,,Nuremberg
159.69.90.203,4,1,paperjaper.com,DE,Europe,Western Europe,Germany,Bavaria,,Nuremberg
161.97.104.61,4,60,parcoesposizioninovegro.it,DE,Europe,Western Europe,Germany,Bavaria,,Nuremberg
128.140.36.49,4,61,parents.at,DE,Europe,Western Europe,Germany,Bavaria,,Nuremberg
116.202.190.76,4,26,parfuemerie.de,DE,Europe,Western Europe,Germany,Bavaria,,Nuremberg
173.249.48.176,4,26,parisc-linux.org,DE,Europe,Western Europe,Germany,Bavaria,,Nuremberg
161.97.65.45,4,63,pascalcoin.org,DE,Europe,Western Europe,Germany,Bavaria,,Nuremberg
116.203.147.60,4,30,pass-scheme.org.uk,DE,Europe,Western Europe,Germany,Bavaria,,Nuremberg
116.203.18.96,4,9,pastenow.ru,DE,Europe,Western Europe,Germany,Bavaria,,Nuremberg
202.61.232.88,4,3,patientenberatung.de,DE,Europe,Western Europe,Germany,Bavaria,,Nuremberg
195.201.30.192,4,13,patriaindipendente.it,DE,Europe,Western Europe,Germany,Bavaria,,Nuremberg
128.140.47.35,4,8,paulgo.io,DE,Europe,Western Europe,Germany,Bavaria,,Nuremberg
159.69.107.75,4,20,paulmann.com,DE,Europe,Western Europe,Germany,Bavaria,,Nuremberg
195.201.79.180,4,6,paxil4us.top,DE,Europe,Western Europe,Germany,Bavaria,,Nuremberg
136.243.165.142,4,3,pbs-business.de,DE,Europe,Western Europe,Germany,Bavaria,,Nuremberg
159.69.81.220,4,21,pce.es,DE,Europe,Western Europe,Germany,Bavaria,,Nuremberg
157.90.122.71,4,21,pcministry.com,DE,Europe,Western Europe,Germany,Bavaria,,Nuremberg
213.239.249.234,4,31,pd-f.de,DE,Europe,Western Europe,Germany,Bavaria,,Nuremberg
5.182.200.10,4,21,pdc-europe.tv,DE,Europe,Western Europe,Germany,Bavaria,,Nuremberg
116.203.82.198,4,34,pdf24.org,DE,Europe,Western Europe,Germany,Bavaria,,Nuremberg
195.201.0.111,4,14,pdroms.de,DE,Europe,Western Europe,Germany,Bavaria,,Nuremberg
207.180.210.206,4,33,pecina.cz,DE,Europe,Western Europe,Germany,Bavaria,,Nuremberg
88.99.173.165,4,1,peertube.stream,DE,Europe,Western Europe,Germany,Bavaria,,Nuremberg
185.243.11.81,4,12,pen-deutschland.de,DE,Europe,Western Europe,Germany,Bavaria,,Nuremberg
78.47.187.112,4,49,perchcms.com,DE,Europe,Western Europe,Germany,Bavaria,,Nuremberg
213.136.91.75,4,12,perswijn.nl,DE,Europe,Western Europe,Germany,Bavaria,,Nuremberg
188.68.42.17,4,34,peterjensen.de,DE,Europe,Western Europe,Germany,Bavaria,,Nuremberg
93.177.64.49,4,13,petrockblock.com,DE,Europe,Western Europe,Germany,Bavaria,,Nuremberg
185.244.194.48,4,10,peugeotforum.de,DE,Europe,Western Europe,Germany,Bavaria,,Nuremberg
94.16.112.57,4,16,pfaelzerwald.de,DE,Europe,Western Europe,Germany,Bavaria,,Nuremberg
202.61.232.202,4,11,pfalztheater.de,DE,Europe,Western Europe,Germany,Bavaria,,Nuremberg
116.203.228.225,4,-5686,ph-ooe.at,DE,Europe,Western Europe,Germany,Bavaria,,Nuremberg
193.26.159.156,4,29,phineo.org,DE,Europe,Western Europe,Germany,Bavaria,,Nuremberg
167.233.11.49,4,42,phnr.com,DE,Europe,Western Europe,Germany,Bavaria,,Nuremberg
5.252.226.151,4,13,photofilmstrip.org,DE,Europe,Western Europe,Germany,Bavaria,,Nuremberg
5.75.133.220,4,42,photovoltaique.info,DE,Europe,Western Europe,Germany,Bavaria,,Nuremberg
188.34.203.177,4,2,phpgangsta.de,DE,Europe,Western Europe,Germany,Bavaria,,Nuremberg
85.10.200.208,4,18,phwien.ac.at,DE,Europe,Western Europe,Germany,Bavaria,,Nuremberg
49.12.231.189,4,4,phytodoc.de,DE,Europe,Western Europe,Germany,Bavaria,,Nuremberg
213.109.163.18,4,68,piffl-medien.de,DE,Europe,Western Europe,Germany,Bavaria,,Nuremberg
49.12.165.148,4,10,pijlman-kantoormeubelen.nl,DE,Europe,Western Europe,Germany,Bavaria,,Nuremberg
78.47.72.135,4,23,pik.net.ua,DE,Europe,Western Europe,Germany,Bavaria,,Nuremberg
152.53.21.117,4,24,pikapods.com,DE,Europe,Western Europe,Germany,Bavaria,,Nuremberg
213.136.72.19,4,4,pilliewillie.nl,DE,Europe,Western Europe,Germany,Bavaria,,Nuremberg
49.13.203.174,4,12,pilotpen.de,DE,Europe,Western Europe,Germany,Bavaria,,Nuremberg
116.202.44.77,4,-322099,pinkribbon-deutschland.de,DE,Europe,Western Europe,Germany,Bavaria,,Nuremberg
162.55.221.64,4,5,pipe01.net,DE,Europe,Western Europe,Germany,Bavaria,,Nuremberg
202.61.202.81,4,37,piranha-bytes.com,DE,Europe,Western Europe,Germany,Bavaria,,Nuremberg
78.46.227.162,4,5,piratenpartei-bayern.de,DE,Europe,Western Europe,Germany,Bavaria,,Nuremberg
94.130.56.131,4,41,piratenpartei.de,DE,Europe,Western Europe,Germany,Bavaria,,Nuremberg
159.69.20.87,4,4,piratesummit.com,DE,Europe,Western Europe,Germany,Bavaria,,Nuremberg
37.120.164.117,4,4,piware.de,DE,Europe,Western Europe,Germany,Bavaria,,Nuremberg
116.203.53.141,4,26,pixelfed.fr,DE,Europe,Western Europe,Germany,Bavaria,,Nuremberg
195.201.227.4,4,23,pizzeriatimoteo.com,DE,Europe,Western Europe,Germany,Bavaria,,Nuremberg
193.26.157.125,4,19,pjms.com.pk,DE,Europe,Western Europe,Germany,Bavaria,,Nuremberg
78.46.178.133,4,32,pkgbuild.com,DE,Europe,Western Europe,Germany,Bavaria,,Nuremberg
188.34.128.86,4,24,planka.app,DE,Europe,Western Europe,Germany,Bavaria,,Nuremberg
167.235.25.252,4,23,plasmatrap.com,DE,Europe,Western Europe,Germany,Bavaria,,Nuremberg
168.119.162.92,4,5,plastik-i-havet.dk,DE,Europe,Western Europe,Germany,Bavaria,,Nuremberg
188.68.42.174,4,4,playfeist.net,DE,Europe,Western Europe,Germany,Bavaria,,Nuremberg
116.203.5.117,4,6,pluta.net,DE,Europe,Western Europe,Germany,Bavaria,,Nuremberg
162.55.54.90,4,4,pm-wissen.com,DE,Europe,Western Europe,Germany,Bavaria,,Nuremberg
185.228.137.112,4,8,pn.org,DE,Europe,Western Europe,Germany,Bavaria,,Nuremberg
173.249.57.27,4,3,poble-espanyol.com,DE,Europe,Western Europe,Germany,Bavaria,,Nuremberg
157.90.227.170,4,40,podcast.de,DE,Europe,Western Europe,Germany,Bavaria,,Nuremberg
5.45.110.216,4,8,pokepedia.fr,DE,Europe,Western Europe,Germany,Bavaria,,Nuremberg
5.189.150.29,4,13,policy.hu,DE,Europe,Western Europe,Germany,Bavaria,,Nuremberg
195.201.21.25,4,6,poligrafo.it,DE,Europe,Western Europe,Germany,Bavaria,,Nuremberg
195.201.103.101,4,7,pompegarbarino.com,DE,Europe,Western Europe,Germany,Bavaria,,Nuremberg
88.198.217.223,4,13,pools.sg,DE,Europe,Western Europe,Germany,Bavaria,,Nuremberg
142.132.166.78,4,42,portalmix.com,DE,Europe,Western Europe,Germany,Bavaria,,Nuremberg
85.10.213.79,4,15,ports.co.za,DE,Europe,Western Europe,Germany,Bavaria,,Nuremberg
173.249.26.233,4,39,portuzzel.com,DE,Europe,Western Europe,Germany,Bavaria,,Nuremberg
116.202.44.85,4,5,porzellanikon.org,DE,Europe,Western Europe,Germany,Bavaria,,Nuremberg
159.69.31.156,4,13,poterealpopolo.org,DE,Europe,Western Europe,Germany,Bavaria,,Nuremberg
159.69.129.243,4,21,pr-cy.su,DE,Europe,Western Europe,Germany,Bavaria,,Nuremberg
46.38.226.35,4,56,prater.at,DE,Europe,Western Europe,Germany,Bavaria,,Nuremberg
161.97.118.78,4,14,pravyprostor.cz,DE,Europe,Western Europe,Germany,Bavaria,,Nuremberg
159.69.39.7,4,31,premier-qms.org,DE,Europe,Western Europe,Germany,Bavaria,,Nuremberg
213.239.241.71,4,100,premiumconvest.de,DE,Europe,Western Europe,Germany,Bavaria,,Nuremberg
195.201.135.63,4,55,prepaway.biz,DE,Europe,Western Europe,Germany,Bavaria,,Nuremberg
88.198.233.0,4,69,pressmatrix.com,DE,Europe,Western Europe,Germany,Bavaria,,Nuremberg
161.97.81.10,4,69,pressperu.com,DE,Europe,Western Europe,Germany,Bavaria,,Nuremberg
213.136.74.140,4,48,price2spy.com,DE,Europe,Western Europe,Germany,Bavaria,,Nuremberg
168.119.175.215,4,45,prideinstem.org,DE,Europe,Western Europe,Germany,Bavaria,,Nuremberg
167.235.158.5,4,74,primalfear.de,DE,Europe,Western Europe,Germany,Bavaria,,Nuremberg
195.201.4.139,4,123,prime-pc.md,DE,Europe,Western Europe,Germany,Bavaria,,Nuremberg
104.152.49.205,4,21,primeelectronicsug.com,DE,Europe,Western Europe,Germany,Bavaria,,Nuremberg
188.34.201.186,4,30,primopianomolise.it,DE,Europe,Western Europe,Germany,Bavaria,,Nuremberg
23.88.110.84,4,7,printershub.com.ua,DE,Europe,Western Europe,Germany,Bavaria,,Nuremberg
195.201.45.145,4,19,prisma.de,DE,Europe,Western Europe,Germany,Bavaria,,Nuremberg
152.53.23.200,4,65,pro-igel.de,DE,Europe,Western Europe,Germany,Bavaria,,Nuremberg
78.47.92.45,4,26,pro-radio.ru,DE,Europe,Western Europe,Germany,Bavaria,,Nuremberg
78.47.51.37,4,83,productchart.com,DE,Europe,Western Europe,Germany,Bavaria,,Nuremberg
167.235.66.228,4,20,professionearchitetto.it,DE,Europe,Western Europe,Germany,Bavaria,,Nuremberg
88.198.156.15,4,86,programfiles.com,DE,Europe,Western Europe,Germany,Bavaria,,Nuremberg
188.68.47.155,4,4,project-management-knowledge.com,DE,Europe,Western Europe,Germany,Bavaria,,Nuremberg
85.10.203.164,4,64,project1917.ru,DE,Europe,Western Europe,Germany,Bavaria,,Nuremberg
167.86.91.8,4,45,projectsgallery.eu,DE,Europe,Western Europe,Germany,Bavaria,,Nuremberg
159.69.209.28,4,20,projektwerk.com,DE,Europe,Western Europe,Germany,Bavaria,,Nuremberg
116.202.79.136,4,7,propertyheads.com,DE,Europe,Western Europe,Germany,Bavaria,,Nuremberg
188.68.40.193,4,2,pruvisto.org,DE,Europe,Western Europe,Germany,Bavaria,,Nuremberg
157.90.225.225,4,48,pswebdesignonline.nl,DE,Europe,Western Europe,Germany,Bavaria,,Nuremberg
89.58.1.89,4,27,psxtools.de,DE,Europe,Western Europe,Germany,Bavaria,,Nuremberg
195.201.114.143,4,76748,public.cat,DE,Europe,Western Europe,Germany,Bavaria,,Nuremberg
95.111.254.135,4,48,publicpolicyexchange.co.uk,DE,Europe,Western Europe,Germany,Bavaria,,Nuremberg
116.203.87.184,4,39,publicsectorcatering.co.uk,DE,Europe,Western Europe,Germany,Bavaria,,Nuremberg
5.189.143.198,4,44,pufbih.ba,DE,Europe,Western Europe,Germany,Bavaria,,Nuremberg
78.47.9.60,4,13,punctumbooks.com,DE,Europe,Western Europe,Germany,Bavaria,,Nuremberg
167.235.67.172,4,19,punkt.ch,DE,Europe,Western Europe,Germany,Bavaria,,Nuremberg
116.203.179.12,4,25,pupia.tv,DE,Europe,Western Europe,Germany,Bavaria,,Nuremberg
185.233.105.81,4,2,purkersdorf-online.at,DE,Europe,Western Europe,Germany,Bavaria,,Nuremberg
116.203.155.49,4,25,put.as,DE,Europe,Western Europe,Germany,Bavaria,,Nuremberg
142.132.160.79,4,6,puuruiteten.nl,DE,Europe,Western Europe,Germany,Bavaria,,Nuremberg
49.12.163.138,4,15,puzzle-english.com,DE,Europe,Western Europe,Germany,Bavaria,,Nuremberg
213.239.221.164,4,4,pwarde.nl,DE,Europe,Western Europe,Germany,Bavaria,,Nuremberg
128.140.47.252,4,5,qfi.org,DE,Europe,Western Europe,Germany,Bavaria,,Nuremberg
5.75.151.20,4,3,qr1.at,DE,Europe,Western Europe,Germany,Bavaria,,Nuremberg
49.13.43.238,4,12,quadral.com,DE,Europe,Western Europe,Germany,Bavaria,,Nuremberg
168.119.226.205,4,13,quantower.com,DE,Europe,Western Europe,Germany,Bavaria,,Nuremberg
202.61.233.24,4,10,quickgamma.de,DE,Europe,Western Europe,Germany,Bavaria,,Nuremberg
78.47.100.33,4,6,quintessence-publishing.com,DE,Europe,Western Europe,Germany,Bavaria,,Nuremberg
188.68.47.199,4,1,quizduellforum-test.de,DE,Europe,Western Europe,Germany,Bavaria,,Nuremberg
195.201.34.244,4,7,quotidianoenergia.it,DE,Europe,Western Europe,Germany,Bavaria,,Nuremberg
49.13.230.108,4,55,rabincenter.org.il,DE,Europe,Western Europe,Germany,Bavaria,,Nuremberg
116.203.214.240,4,77,radioblackout.org,DE,Europe,Western Europe,Germany,Bavaria,,Nuremberg
157.90.18.165,4,15,radiomuenchen.net,DE,Europe,Western Europe,Germany,Bavaria,,Nuremberg
195.201.98.245,4,54,radsport-rennrad.de,DE,Europe,Western Europe,Germany,Bavaria,,Nuremberg
78.47.253.130,4,27,railwaysafrica.com,DE,Europe,Western Europe,Germany,Bavaria,,Nuremberg
202.61.255.198,4,11,rally-maps.com,DE,Europe,Western Europe,Germany,Bavaria,,Nuremberg
2.56.98.131,4,56,rapidmail.wiki,DE,Europe,Western Europe,Germany,Bavaria,,Nuremberg
78.47.227.127,4,87,raskrikavanje.rs,DE,Europe,Western Europe,Germany,Bavaria,,Nuremberg
78.46.238.235,4,20,raum-und-zeit.com,DE,Europe,Western Europe,Germany,Bavaria,,Nuremberg
116.203.75.71,4,5,raymii.org,DE,Europe,Western Europe,Germany,Bavaria,,Nuremberg
62.171.128.201,4,4,rb-hosting.de,DE,Europe,Western Europe,Germany,Bavaria,,Nuremberg
78.47.231.245,4,4,rc3.world,DE,Europe,Western Europe,Germany,Bavaria,,Nuremberg
65.108.178.222,4,51,reachoutberlin.de,DE,Europe,Western Europe,Germany,Bavaria,,Nuremberg
116.202.181.98,4,16,read.cash,DE,Europe,Western Europe,Germany,Bavaria,,Nuremberg
78.47.205.166,4,5,recaptcha.cloud,DE,Europe,Western Europe,Germany,Bavaria,,Nuremberg
185.163.116.216,4,36,rechnerphotovoltaik.de,DE,Europe,Western Europe,Germany,Bavaria,,Nuremberg
213.136.85.62,4,16,redebuck.com,DE,Europe,Western Europe,Germany,Bavaria,,Nuremberg
213.239.227.111,4,34,rededuca.net,DE,Europe,Western Europe,Germany,Bavaria,,Nuremberg
159.69.199.227,4,39,redmedical.de,DE,Europe,Western Europe,Germany,Bavaria,,Nuremberg
94.130.180.163,4,49,rednoize.com,DE,Europe,Western Europe,Germany,Bavaria,,Nuremberg
128.140.100.127,4,54,reflecta.de,DE,Europe,Western Europe,Germany,Bavaria,,Nuremberg
202.61.195.28,4,35,regent.ch,DE,Europe,Western Europe,Germany,Bavaria,,Nuremberg
78.47.220.195,4,25,regex101.com,DE,Europe,Western Europe,Germany,Bavaria,,Nuremberg
5.75.179.104,4,61,regionalgeschichte.net,DE,Europe,Western Europe,Germany,Bavaria,,Nuremberg
213.136.74.129,4,34,regiondigital.com,DE,Europe,Western Europe,Germany,Bavaria,,Nuremberg
173.249.23.59,4,27,reinerstilesets.de,DE,Europe,Western Europe,Germany,Bavaria,,Nuremberg
195.201.47.99,4,82,reise.de,DE,Europe,Western Europe,Germany,Bavaria,,Nuremberg
167.233.8.84,4,22,reisemobil-international.de,DE,Europe,Western Europe,Germany,Bavaria,,Nuremberg
23.88.60.102,4,32,reiteralm.at,DE,Europe,Western Europe,Germany,Bavaria,,Nuremberg
5.189.135.23,4,50,reitermania.de,DE,Europe,Western Europe,Germany,Bavaria,,Nuremberg
157.90.16.104,4,8,renhyd.org,DE,Europe,Western Europe,Germany,Bavaria,,Nuremberg
157.90.164.82,4,21,repost.uz,DE,Europe,Western Europe,Germany,Bavaria,,Nuremberg
188.34.206.223,4,21,reservehotel.net,DE,Europe,Western Europe,Germany,Bavaria,,Nuremberg
167.233.11.181,4,35,reservio.com,DE,Europe,Western Europe,Germany,Bavaria,,Nuremberg
188.68.47.208,4,67,restless-legs.org,DE,Europe,Western Europe,Germany,Bavaria,,Nuremberg
195.201.248.4,4,3,retsch.com,DE,Europe,Western Europe,Germany,Bavaria,,Nuremberg
65.108.188.128,4,7,revistabyte.es,DE,Europe,Western Europe,Germany,Bavaria,,Nuremberg
173.249.50.125,4,34,revolutionarygamesstudio.com,DE,Europe,Western Europe,Germany,Bavaria,,Nuremberg
136.243.125.66,4,12,rezeptwelt.de,DE,Europe,Western Europe,Germany,Bavaria,,Nuremberg
88.198.147.170,4,11,ricettario-bimby.it,DE,Europe,Western Europe,Germany,Bavaria,,Nuremberg
89.58.31.35,4,10,richard.at,DE,Europe,Western Europe,Germany,Bavaria,,Nuremberg
159.69.34.166,4,19,ridderroeland.nl,DE,Europe,Western Europe,Germany,Bavaria,,Nuremberg
88.99.171.236,4,4,rika.at,DE,Europe,Western Europe,Germany,Bavaria,,Nuremberg
5.252.225.216,4,3,rne.eu,DE,Europe,Western Europe,Germany,Bavaria,,Nuremberg
195.201.17.46,4,16,robbe.de,DE,Europe,Western Europe,Germany,Bavaria,,Nuremberg
116.202.139.160,4,42,robeka.ir,DE,Europe,Western Europe,Germany,Bavaria,,Nuremberg
85.10.213.191,4,41,robinpopesafaris.net,DE,Europe,Western Europe,Germany,Bavaria,,Nuremberg
94.16.107.235,4,1,robinsonliste.de,DE,Europe,Western Europe,Germany,Bavaria,,Nuremberg
195.201.252.170,4,6,robohub.org,DE,Europe,Western Europe,Germany,Bavaria,,Nuremberg
159.69.172.228,4,59,roboter-bausatz.de,DE,Europe,Western Europe,Germany,Bavaria,,Nuremberg
188.34.132.200,4,43,rockwavefestival.gr,DE,Europe,Western Europe,Germany,Bavaria,,Nuremberg
116.203.214.103,4,36,roda.hr,DE,Europe,Western Europe,Germany,Bavaria,,Nuremberg
89.58.0.154,4,45,roesle.com,DE,Europe,Western Europe,Germany,Bavaria,,Nuremberg
78.46.181.232,4,81,roetgen.de,DE,Europe,Western Europe,Germany,Bavaria,,Nuremberg
78.47.60.127,4,52,roma.de,DE,Europe,Western Europe,Germany,Bavaria,,Nuremberg
173.212.199.19,4,18,roman-colosseum.info,DE,Europe,Western Europe,Germany,Bavaria,,Nuremberg
128.140.8.172,4,39,romantikhotels.com,DE,Europe,Western Europe,Germany,Bavaria,,Nuremberg
188.68.44.32,4,42,ronindojo.io,DE,Europe,Western Europe,Germany,Bavaria,,Nuremberg
49.13.235.149,4,22,roomsforafrica.com,DE,Europe,Western Europe,Germany,Bavaria,,Nuremberg
194.59.204.109,4,57,rosaelefanten.org,DE,Europe,Western Europe,Germany,Bavaria,,Nuremberg
168.119.118.104,4,57,rosalux.org.br,DE,Europe,Western Europe,Germany,Bavaria,,Nuremberg
167.235.162.88,4,57,rossanaorlandi.com,DE,Europe,Western Europe,Germany,Bavaria,,Nuremberg
159.69.214.117,4,56,rotel.de,DE,Europe,Western Europe,Germany,Bavaria,,Nuremberg
5.75.172.217,4,43,rototomsunsplash.com,DE,Europe,Western Europe,Germany,Bavaria,,Nuremberg
167.235.107.117,4,33,rowe-oil.com,DE,Europe,Western Europe,Germany,Bavaria,,Nuremberg
144.91.76.79,4,3,rowy.net,DE,Europe,Western Europe,Germany,Bavaria,,Nuremberg
159.69.132.200,4,3,rr206.de,DE,Europe,Western Europe,Germany,Bavaria,,Nuremberg
207.180.210.245,4,4,rtnb.bi,DE,Europe,Western Europe,Germany,Bavaria,,Nuremberg
94.130.169.230,4,30,rubikon.news,DE,Europe,Western Europe,Germany,Bavaria,,Nuremberg
207.180.249.74,4,2,ruinergame.com,DE,Europe,Western Europe,Germany,Bavaria,,Nuremberg
91.204.45.180,4,38,rundblick-unna.de,DE,Europe,Western Europe,Germany,Bavaria,,Nuremberg
157.90.232.192,4,28,rundresa.se,DE,Europe,Western Europe,Germany,Bavaria,,Nuremberg
78.46.232.209,4,17,rusbank.net,DE,Europe,Western Europe,Germany,Bavaria,,Nuremberg
159.69.194.156,4,27,russkie.org,DE,Europe,Western Europe,Germany,Bavaria,,Nuremberg
193.30.123.71,4,7,rvgl.org,DE,Europe,Western Europe,Germany,Bavaria,,Nuremberg
168.119.170.211,4,8,s48.org,DE,Europe,Western Europe,Germany,Bavaria,,Nuremberg
62.171.178.252,4,32,saabsportugal.com,DE,Europe,Western Europe,Germany,Bavaria,,Nuremberg
5.75.128.251,4,16,sabrangindia.in,DE,Europe,Western Europe,Germany,Bavaria,,Nuremberg
213.239.219.130,4,32,sacoorhealth.pt,DE,Europe,Western Europe,Germany,Bavaria,,Nuremberg
85.10.213.153,4,21,sagoodnews.co.za,DE,Europe,Western Europe,Germany,Bavaria,,Nuremberg
164.68.119.115,4,7,sahabatqq.app,DE,Europe,Western Europe,Germany,Bavaria,,Nuremberg
195.201.133.187,4,8,sahistory.org.za,DE,Europe,Western Europe,Germany,Bavaria,,Nuremberg
207.180.251.126,4,2,salairemoyen.com,DE,Europe,Western Europe,Germany,Bavaria,,Nuremberg
91.107.238.115,4,10,salzburger-seenland.at,DE,Europe,Western Europe,Germany,Bavaria,,Nuremberg
168.119.161.89,4,4,sam-solutions.com,DE,Europe,Western Europe,Germany,Bavaria,,Nuremberg
116.202.187.158,4,11,sana.de,DE,Europe,Western Europe,Germany,Bavaria,,Nuremberg
85.10.213.46,4,23,sanccob.co.za,DE,Europe,Western Europe,Germany,Bavaria,,Nuremberg
37.120.183.99,4,10,sandiline.com,DE,Europe,Western Europe,Germany,Bavaria,,Nuremberg
49.13.33.177,4,4,sanfrancescoassisi.org,DE,Europe,Western Europe,Germany,Bavaria,,Nuremberg
116.203.10.127,4,5,sanvigilio.com,DE,Europe,Western Europe,Germany,Bavaria,,Nuremberg
31.7.187.221,4,14,sardc.net,DE,Europe,Western Europe,Germany,Bavaria,,Nuremberg
159.69.155.217,4,4,sarov.net,DE,Europe,Western Europe,Germany,Bavaria,,Nuremberg
193.30.120.181,4,33,sat1nrw.de,DE,Europe,Western Europe,Germany,Bavaria,,Nuremberg
168.119.43.146,4,32,satgurutravel.com,DE,Europe,Western Europe,Germany,Bavaria,,Nuremberg
78.47.88.213,4,179883,saturn-fc.ru,DE,Europe,Western Europe,Germany,Bavaria,,Nuremberg
202.61.232.85,4,2,savetheinternet.info,DE,Europe,Western Europe,Germany,Bavaria,,Nuremberg
213.136.78.41,4,3,sbilanciamoci.info,DE,Europe,Western Europe,Germany,Bavaria,,Nuremberg
188.68.47.190,4,4,sc-neubulach.de,DE,Europe,Western Europe,Germany,Bavaria,,Nuremberg
195.201.38.204,4,3,scenaripolitici.com,DE,Europe,Western Europe,Germany,Bavaria,,Nuremberg
173.212.249.125,4,44,schandmaul.de,DE,Europe,Western Europe,Germany,Bavaria,,Nuremberg
167.233.13.60,4,92,scheidung.de,DE,Europe,Western Europe,Germany,Bavaria,,Nuremberg
89.58.48.42,4,60,scheune.org,DE,Europe,Western Europe,Germany,Bavaria,,Nuremberg
116.203.112.46,4,16,schildi.chat,DE,Europe,Western Europe,Germany,Bavaria,,Nuremberg
157.90.228.21,4,5,schlosshotel-friedrichsruhe.de,DE,Europe,Western Europe,Germany,Bavaria,,Nuremberg
159.69.199.182,4,5,schmitten.at,DE,Europe,Western Europe,Germany,Bavaria,,Nuremberg
116.203.159.190,4,2,schoenen-dunk.de,DE,Europe,Western Europe,Germany,Bavaria,,Nuremberg
49.13.157.121,4,7,schoenstatt.org,DE,Europe,Western Europe,Germany,Bavaria,,Nuremberg
88.198.34.76,4,183,schrankmonster.de,DE,Europe,Western Europe,Germany,Bavaria,,Nuremberg
91.204.46.76,4,7,schulpsychologie.de,DE,Europe,Western Europe,Germany,Bavaria,,Nuremberg
45.9.63.65,4,70,schwabenpark.de,DE,Europe,Western Europe,Germany,Bavaria,,Nuremberg
5.252.224.204,4,12,scovillescale.org,DE,Europe,Western Europe,Germany,Bavaria,,Nuremberg
195.201.222.171,4,4,scpaderborn07.de,DE,Europe,Western Europe,Germany,Bavaria,,Nuremberg
116.203.227.212,4,4,script.sh,DE,Europe,Western Europe,Germany,Bavaria,,Nuremberg
185.162.248.108,4,2,scssoft.com,DE,Europe,Western Europe,Germany,Bavaria,,Nuremberg
116.203.130.132,4,3,sdg6data.org,DE,Europe,Western Europe,Germany,Bavaria,,Nuremberg
116.203.83.208,4,6,se-atlas.de,DE,Europe,Western Europe,Germany,Bavaria,,Nuremberg
88.198.44.136,4,23,secnetix.de,DE,Europe,Western Europe,Germany,Bavaria,,Nuremberg
159.69.42.69,4,23,securingindustry.com,DE,Europe,Western Europe,Germany,Bavaria,,Nuremberg
89.58.37.228,4,20,segelflug.de,DE,Europe,Western Europe,Germany,Bavaria,,Nuremberg
157.90.185.8,4,6,segu-geschichte.de,DE,Europe,Western Europe,Germany,Bavaria,,Nuremberg
159.69.111.248,4,13,seliton.bg,DE,Europe,Western Europe,Germany,Bavaria,,Nuremberg
116.203.70.231,4,9,selux.com,DE,Europe,Western Europe,Germany,Bavaria,,Nuremberg
195.201.78.208,4,22,semeng.ir,DE,Europe,Western Europe,Germany,Bavaria,,Nuremberg
159.69.173.244,4,7,sempionenews.it,DE,Europe,Western Europe,Germany,Bavaria,,Nuremberg
167.86.81.77,4,2,sendbox.fr,DE,Europe,Western Europe,Germany,Bavaria,,Nuremberg
88.198.164.83,4,6,sendegate.de,DE,Europe,Western Europe,Germany,Bavaria,,Nuremberg
207.180.213.88,4,11,senegalaisement.com,DE,Europe,Western Europe,Germany,Bavaria,,Nuremberg
83.135.48.65,4,3,senioren-ratgeber.de,DE,Europe,Western Europe,Germany,Bavaria,,Nuremberg
157.90.167.36,4,11,seniorenbueros.org,DE,Europe,Western Europe,Germany,Bavaria,,Nuremberg
162.55.153.147,4,35,senler.ru,DE,Europe,Western Europe,Germany,Bavaria,,Nuremberg
5.75.137.135,4,-46920,seogeek.nl,DE,Europe,Western Europe,Germany,Bavaria,,Nuremberg
213.239.215.141,4,29,serpentine.com,DE,Europe,Western Europe,Germany,Bavaria,,Nuremberg
116.203.88.49,4,20,servicebloggarna.se,DE,Europe,Western Europe,Germany,Bavaria,,Nuremberg
162.55.213.100,4,42,setasign.de,DE,Europe,Western Europe,Germany,Bavaria,,Nuremberg
78.47.82.133,4,0,sfml-dev.org,DE,Europe,Western Europe,Germany,Bavaria,,Nuremberg
116.203.120.223,4,4,sfmobiliteit.nl,DE,Europe,Western Europe,Germany,Bavaria,,Nuremberg
159.69.205.60,4,13,sfv.de,DE,Europe,Western Europe,Germany,Bavaria,,Nuremberg
5.75.147.173,4,3,sharkey.world,DE,Europe,Western Europe,Germany,Bavaria,,Nuremberg
157.90.116.128,4,3,shazoo.ru,DE,Europe,Western Europe,Germany,Bavaria,,Nuremberg
116.203.208.123,4,7,sherry.wine,DE,Europe,Western Europe,Germany,Bavaria,,Nuremberg
213.239.215.239,4,4,shiftphones.com,DE,Europe,Western Europe,Germany,Bavaria,,Nuremberg
31.7.187.233,4,4,shipilev.net,DE,Europe,Western Europe,Germany,Bavaria,,Nuremberg
195.201.95.150,4,7,shoddy.site,DE,Europe,Western Europe,Germany,Bavaria,,Nuremberg
5.75.186.12,4,4,shop-worlds.com,DE,Europe,Western Europe,Germany,Bavaria,,Nuremberg
213.239.210.157,4,3,shopauskunft.de,DE,Europe,Western Europe,Germany,Bavaria,,Nuremberg
128.140.7.126,4,14,shoppingposten.dk,DE,Europe,Western Europe,Germany,Bavaria,,Nuremberg
213.133.99.219,4,8,shopvote.de,DE,Europe,Western Europe,Germany,Bavaria,,Nuremberg
5.75.170.128,4,6,showradyo.com.tr,DE,Europe,Western Europe,Germany,Bavaria,,Nuremberg
46.4.70.116,4,4,shpock.com,DE,Europe,Western Europe,Germany,Bavaria,,Nuremberg
46.4.134.8,4,7,shpock.com,DE,Europe,Western Europe,Germany,Bavaria,,Nuremberg
176.9.15.229,4,6,shpock.com,DE,Europe,Western Europe,Germany,Bavaria,,Nuremberg
49.13.163.157,4,59,sidcot.org.uk,DE,Europe,Western Europe,Germany,Bavaria,,Nuremberg
91.204.46.121,4,23,siduction.org,DE,Europe,Western Europe,Germany,Bavaria,,Nuremberg
167.235.144.222,4,25,sikker-nethandel.dk,DE,Europe,Western Europe,Germany,Bavaria,,Nuremberg
5.189.136.111,4,7,silkwaywest.com,DE,Europe,Western Europe,Germany,Bavaria,,Nuremberg
116.202.183.221,4,-404342,silvretta-bielerhoehe.at,DE,Europe,Western Europe,Germany,Bavaria,,Nuremberg
5.189.170.47,4,22,simplythebest.net,DE,Europe,Western Europe,Germany,Bavaria,,Nuremberg
49.13.194.103,4,7,singinwhale.com,DE,Europe,Western Europe,Germany,Bavaria,,Nuremberg
213.239.217.120,4,25,sislieskort.org,DE,Europe,Western Europe,Germany,Bavaria,,Nuremberg
88.198.36.249,4,441,site-norte.pt,DE,Europe,Western Europe,Germany,Bavaria,,Nuremberg
213.239.216.136,4,4,sitesoverzicht.nl,DE,Europe,Western Europe,Germany,Bavaria,,Nuremberg
213.239.207.158,4,24,skala-campus.org,DE,Europe,Western Europe,Germany,Bavaria,,Nuremberg
207.180.240.172,4,13,skannet.com.ng,DE,Europe,Western Europe,Germany,Bavaria,,Nuremberg
49.12.93.194,4,15,skewed.de,DE,Europe,Western Europe,Germany,Bavaria,,Nuremberg
157.90.113.215,4,14,skiarlberg.at,DE,Europe,Western Europe,Germany,Bavaria,,Nuremberg
85.10.198.55,4,53,skrooge.org,DE,Europe,Western Europe,Germany,Bavaria,,Nuremberg
5.189.140.138,4,9,skyglow.buzz,DE,Europe,Western Europe,Germany,Bavaria,,Nuremberg
207.180.231.239,4,13,skyrospanorama.gr,DE,Europe,Western Europe,Germany,Bavaria,,Nuremberg
168.119.46.62,4,6,skywell.software,DE,Europe,Western Europe,Germany,Bavaria,,Nuremberg
116.202.203.74,4,29,slidelizard.com,DE,Europe,Western Europe,Germany,Bavaria,,Nuremberg
195.201.98.41,4,24,slightlymagic.net,DE,Europe,Western Europe,Germany,Bavaria,,Nuremberg
5.75.132.54,4,9,slotenmakersamsterdam.nl,DE,Europe,Western Europe,Germany,Bavaria,,Nuremberg
159.69.77.193,4,16,slv.com,DE,Europe,Western Europe,Germany,Bavaria,,Nuremberg
159.69.96.138,4,5,slv.com,DE,Europe,Western Europe,Germany,Bavaria,,Nuremberg
167.235.221.26,4,6,smart-stb.net,DE,Europe,Western Europe,Germany,Bavaria,,Nuremberg
85.10.224.169,4,20,smartgenius.de,DE,Europe,Western Europe,Germany,Bavaria,,Nuremberg
23.88.106.6,4,32,smartphone.ua,DE,Europe,Western Europe,Germany,Bavaria,,Nuremberg
5.75.181.88,4,14,smartphonepolis.nl,DE,Europe,Western Europe,Germany,Bavaria,,Nuremberg
94.130.97.81,4,7,smartstream.tv,DE,Europe,Western Europe,Germany,Bavaria,,Nuremberg
88.198.32.150,4,31,smartwatch.de,DE,Europe,Western Europe,Germany,Bavaria,,Nuremberg
168.119.233.95,4,45,smmp.de,DE,Europe,Western Europe,Germany,Bavaria,,Nuremberg
217.6.17.10,4,3,snogard.de,DE,Europe,Western Europe,Germany,Bavaria,,Nuremberg
161.97.90.96,4,10,snowarena.lt,DE,Europe,Western Europe,Germany,Bavaria,,Nuremberg
195.201.116.118,4,73,snowparadise.sk,DE,Europe,Western Europe,Germany,Bavaria,,Nuremberg
173.212.231.212,4,3,sns.hu,DE,Europe,Western Europe,Germany,Bavaria,,Nuremberg
91.204.46.124,4,74,soccerlobby.de,DE,Europe,Western Europe,Germany,Bavaria,,Nuremberg
167.86.75.112,4,16,socisell.com,DE,Europe,Western Europe,Germany,Bavaria,,Nuremberg
185.183.156.167,4,9,sofaconcerts.org,DE,Europe,Western Europe,Germany,Bavaria,,Nuremberg
5.189.162.96,4,38,sofiyakhan.com,DE,Europe,Western Europe,Germany,Bavaria,,Nuremberg
116.203.219.66,4,8,softrview.com,DE,Europe,Western Europe,Germany,Bavaria,,Nuremberg
116.203.87.203,4,17,soiloil.se,DE,Europe,Western Europe,Germany,Bavaria,,Nuremberg
116.203.189.100,4,25,sokol.energy,DE,Europe,Western Europe,Germany,Bavaria,,Nuremberg
89.58.36.172,4,14,solarmax.com,DE,Europe,Western Europe,Germany,Bavaria,,Nuremberg
213.239.218.21,4,-264088,solarpep.nl,DE,Europe,Western Europe,Germany,Bavaria,,Nuremberg
88.198.104.244,4,29,solidarity4all.gr,DE,Europe,Western Europe,Germany,Bavaria,,Nuremberg
94.130.191.215,4,8,solomarketing.es,DE,Europe,Western Europe,Germany,Bavaria,,Nuremberg
116.202.79.134,4,4,sonderpreis-baumarkt.de,DE,Europe,Western Europe,Germany,Bavaria,,Nuremberg
173.212.212.249,4,19,sonjabakker.nl,DE,Europe,Western Europe,Germany,Bavaria,,Nuremberg
49.13.229.162,4,21,sonnenkraft.com,DE,Europe,Western Europe,Germany,Bavaria,,Nuremberg
185.183.157.253,4,10,sosblog.com,DE,Europe,Western Europe,Germany,Bavaria,,Nuremberg
188.34.132.225,4,7,sosyalevin.com,DE,Europe,Western Europe,Germany,Bavaria,,Nuremberg
167.235.107.200,4,7,sotrender.com,DE,Europe,Western Europe,Germany,Bavaria,,Nuremberg
31.172.114.133,4,0,southside.de,DE,Europe,Western Europe,Germany,Bavaria,,Nuremberg
213.239.209.83,4,34,sozialgerichtsbarkeit.de,DE,Europe,Western Europe,Germany,Bavaria,,Nuremberg
91.204.46.91,4,72,sp-codes.de,DE,Europe,Western Europe,Germany,Bavaria,,Nuremberg
94.130.183.117,4,3,spaces.ru,DE,Europe,Western Europe,Germany,Bavaria,,Nuremberg
85.235.66.218,4,179,spacetimetravel.org,DE,Europe,Western Europe,Germany,Bavaria,,Nuremberg
188.68.47.9,4,3,spadafora.de,DE,Europe,Western Europe,Germany,Bavaria,,Nuremberg
168.119.24.40,4,27,spandidos-publications.com,DE,Europe,Western Europe,Germany,Bavaria,,Nuremberg
94.130.185.129,4,105,sphinxsearch.com,DE,Europe,Western Europe,Germany,Bavaria,,Nuremberg
49.12.226.52,4,40,spio.de,DE,Europe,Western Europe,Germany,Bavaria,,Nuremberg
162.55.59.218,4,0,spiritlibrary.com,DE,Europe,Western Europe,Germany,Bavaria,,Nuremberg
159.69.13.37,4,71,spoc.com.ua,DE,Europe,Western Europe,Germany,Bavaria,,Nuremberg
162.55.155.146,4,33,sport1.de,DE,Europe,Western Europe,Germany,Bavaria,,Nuremberg
88.99.188.221,4,46,sportforbusiness.com,DE,Europe,Western Europe,Germany,Bavaria,,Nuremberg
195.201.92.86,4,43,sprachbloggeur.de,DE,Europe,Western Europe,Germany,Bavaria,,Nuremberg
116.203.12.69,4,-12451,sprachcaffe.de,DE,Europe,Western Europe,Germany,Bavaria,,Nuremberg
85.10.202.77,4,46,sprashivai.ru,DE,Europe,Western Europe,Germany,Bavaria,,Nuremberg
78.47.121.67,4,17,sprutcam.com,DE,Europe,Western Europe,Germany,Bavaria,,Nuremberg
89.58.27.129,4,4,squeet.me,DE,Europe,Western Europe,Germany,Bavaria,,Nuremberg
167.233.14.16,4,10,srh-berlin.de,DE,Europe,Western Europe,Germany,Bavaria,,Nuremberg
91.204.46.88,4,4,ssdev.org,DE,Europe,Western Europe,Germany,Bavaria,,Nuremberg
94.130.190.129,4,9,sslpool.de,DE,Europe,Western Europe,Germany,Bavaria,,Nuremberg
168.119.169.47,4,67,stabilo.com,DE,Europe,Western Europe,Germany,Bavaria,,Nuremberg
5.189.169.230,4,58,stablehorde.net,DE,Europe,Western Europe,Germany,Bavaria,,Nuremberg
128.140.38.18,4,3,stadt-und-werk.de,DE,Europe,Western Europe,Germany,Bavaria,,Nuremberg
116.202.177.75,4,157,stadtausstellung.at,DE,Europe,Western Europe,Germany,Bavaria,,Nuremberg
78.47.48.18,4,62,stadtdesign.com,DE,Europe,Western Europe,Germany,Bavaria,,Nuremberg
46.38.230.46,4,12,stadtfest.berlin,DE,Europe,Western Europe,Germany,Bavaria,,Nuremberg
167.233.11.254,4,19,stadthunde.com,DE,Europe,Western Europe,Germany,Bavaria,,Nuremberg
202.61.243.1,4,93,stadtmuseum.de,DE,Europe,Western Europe,Germany,Bavaria,,Nuremberg
78.47.208.63,4,8,stadtradeln.de,DE,Europe,Western Europe,Germany,Bavaria,,Nuremberg
159.69.156.178,4,41,staedelschule.de,DE,Europe,Western Europe,Germany,Bavaria,,Nuremberg
167.235.153.29,4,37,stageplaza.nl,DE,Europe,Western Europe,Germany,Bavaria,,Nuremberg
157.90.164.67,4,66,staggmusic.com,DE,Europe,Western Europe,Germany,Bavaria,,Nuremberg
128.140.64.2,4,2,startupsafari.com,DE,Europe,Western Europe,Germany,Bavaria,,Nuremberg
85.10.195.117,4,3,statista-research.com,DE,Europe,Western Europe,Germany,Bavaria,,Nuremberg
89.58.52.35,4,38,steamcardexchange.net,DE,Europe,Western Europe,Germany,Bavaria,,Nuremberg
173.212.223.222,4,33,steelfluid.it,DE,Europe,Western Europe,Germany,Bavaria,,Nuremberg
173.212.196.46,4,5,stephanskirche.at,DE,Europe,Western Europe,Germany,Bavaria,,Nuremberg
37.120.179.243,4,17,stern-verkehr.at,DE,Europe,Western Europe,Germany,Bavaria,,Nuremberg
167.233.14.214,4,27,stfalcon.com,DE,Europe,Western Europe,Germany,Bavaria,,Nuremberg
78.46.183.178,4,3,stift-engelszell.at,DE,Europe,Western Europe,Germany,Bavaria,,Nuremberg
188.34.201.206,4,16,stiftungssuche.de,DE,Europe,Western Europe,Germany,Bavaria,,Nuremberg
94.130.189.171,4,19,stillwakesthedeep.com,DE,Europe,Western Europe,Germany,Bavaria,,Nuremberg
5.189.149.245,4,13,stipendiumhungaricum.hu,DE,Europe,Western Europe,Germany,Bavaria,,Nuremberg
116.202.247.176,4,19,stoffkontor.eu,DE,Europe,Western Europe,Germany,Bavaria,,Nuremberg
78.47.75.66,4,13,stooq.com,DE,Europe,Western Europe,Germany,Bavaria,,Nuremberg
116.203.244.179,4,20,storeapps.org,DE,Europe,Western Europe,Germany,Bavaria,,Nuremberg
78.47.111.177,4,43,strathspey.org,DE,Europe,Western Europe,Germany,Bavaria,,Nuremberg
168.119.232.124,4,46,stromectolbest.com,DE,Europe,Western Europe,Germany,Bavaria,,Nuremberg
116.202.247.225,4,64,studentenwerk-dresden.de,DE,Europe,Western Europe,Germany,Bavaria,,Nuremberg
213.133.99.41,4,45,studio-link.de,DE,Europe,Western Europe,Germany,Bavaria,,Nuremberg
167.235.18.133,4,12,studiumplus.de,DE,Europe,Western Europe,Germany,Bavaria,,Nuremberg
167.235.110.130,4,43,stvo.de,DE,Europe,Western Europe,Germany,Bavaria,,Nuremberg
78.47.232.106,4,11,subwaytosally.com,DE,Europe,Western Europe,Germany,Bavaria,,Nuremberg
195.201.112.86,4,25,suckless.org,DE,Europe,Western Europe,Germany,Bavaria,,Nuremberg
185.207.107.5,4,28,sueden.social,DE,Europe,Western Europe,Germany,Bavaria,,Nuremberg
162.55.208.83,4,4,sugerfries.com,DE,Europe,Western Europe,Germany,Bavaria,,Nuremberg
5.75.157.185,4,7,sumo-digital.com,DE,Europe,Western Europe,Germany,Bavaria,,Nuremberg
128.140.5.104,4,4,sundair.com,DE,Europe,Western Europe,Germany,Bavaria,,Nuremberg
116.203.142.93,4,7,sunstar.ch,DE,Europe,Western Europe,Germany,Bavaria,,Nuremberg
173.249.14.27,4,3,super-sconti.com,DE,Europe,Western Europe,Germany,Bavaria,,Nuremberg
23.88.51.35,4,0,superapple.cz,DE,Europe,Western Europe,Germany,Bavaria,,Nuremberg
159.69.143.125,4,4,supermarktcheck.de,DE,Europe,Western Europe,Germany,Bavaria,,Nuremberg
173.212.229.233,4,38,superseoplus.com,DE,Europe,Western Europe,Germany,Bavaria,,Nuremberg
65.108.180.179,4,3,supersinglesdating.com,DE,Europe,Western Europe,Germany,Bavaria,,Nuremberg
116.202.182.185,4,28,supplies4all.nl,DE,Europe,Western Europe,Germany,Bavaria,,Nuremberg
78.47.150.120,4,1,surteco.com,DE,Europe,Western Europe,Germany,Bavaria,,Nuremberg
195.128.101.6,4,21,survival-kompass.de,DE,Europe,Western Europe,Germany,Bavaria,,Nuremberg
162.55.154.58,4,16,sushipoint.nl,DE,Europe,Western Europe,Germany,Bavaria,,Nuremberg
144.91.82.104,4,31,svadbann.ru,DE,Europe,Western Europe,Germany,Bavaria,,Nuremberg
116.203.225.250,4,9,sveri.de,DE,Europe,Western Europe,Germany,Bavaria,,Nuremberg
195.201.145.101,4,1,svss-uspda.ch,DE,Europe,Western Europe,Germany,Bavaria,,Nuremberg
202.61.197.211,4,7,swdec.de,DE,Europe,Western Europe,Germany,Bavaria,,Nuremberg
49.12.167.110,4,7,sweet-baby.eu,DE,Europe,Western Europe,Germany,Bavaria,,Nuremberg
159.69.229.131,4,4,swekshya.com.np,DE,Europe,Western Europe,Germany,Bavaria,,Nuremberg
213.109.160.95,4,9,swissfire.ch,DE,Europe,Western Europe,Germany,Bavaria,,Nuremberg
185.228.139.41,4,8,swisswaffen.com,DE,Europe,Western Europe,Germany,Bavaria,,Nuremberg
88.198.105.48,4,29,synchronkartei.de,DE,Europe,Western Europe,Germany,Bavaria,,Nuremberg
202.61.237.161,4,4,synology-wiki.de,DE,Europe,Western Europe,Germany,Bavaria,,Nuremberg
91.132.146.101,4,3,systemshock.org,DE,Europe,Western Europe,Germany,Bavaria,,Nuremberg
116.203.166.40,4,-5,syumatsu.jp,DE,Europe,Western Europe,Germany,Bavaria,,Nuremberg
193.26.156.211,4,2,szene-salzburg.net,DE,Europe,Western Europe,Germany,Bavaria,,Nuremberg
162.55.59.40,4,3,szimpatika.hu,DE,Europe,Western Europe,Germany,Bavaria,,Nuremberg
173.249.55.177,4,21,tabletennisbazaar.com,DE,Europe,Western Europe,Germany,Bavaria,,Nuremberg
202.61.248.122,4,6,tacobu.de,DE,Europe,Western Europe,Germany,Bavaria,,Nuremberg
159.69.212.238,4,43,tageswoche.ch,DE,Europe,Western Europe,Germany,Bavaria,,Nuremberg
195.201.248.136,4,46,talention.com,DE,Europe,Western Europe,Germany,Bavaria,,Nuremberg
213.239.227.114,4,1485,tangosix.rs,DE,Europe,Western Europe,Germany,Bavaria,,Nuremberg
94.130.77.194,4,12,tatoeba.org,DE,Europe,Western Europe,Germany,Bavaria,,Nuremberg
5.45.104.45,4,-282,tauschbu.de,DE,Europe,Western Europe,Germany,Bavaria,,Nuremberg
157.90.173.34,4,12,tavria.org.ua,DE,Europe,Western Europe,Germany,Bavaria,,Nuremberg
46.38.231.185,4,4,tc.de,DE,Europe,Western Europe,Germany,Bavaria,,Nuremberg
138.201.232.102,4,4,tchernovaudio.com,DE,Europe,Western Europe,Germany,Bavaria,,Nuremberg
138.201.232.92,4,4,tchernovcable.com,DE,Europe,Western Europe,Germany,Bavaria,,Nuremberg
62.171.191.150,4,2,tcmwiki.com,DE,Europe,Western Europe,Germany,Bavaria,,Nuremberg
78.47.154.66,4,13,teachfirst.de,DE,Europe,Western Europe,Germany,Bavaria,,Nuremberg
88.198.34.240,4,93,techinfus.com,DE,Europe,Western Europe,Germany,Bavaria,,Nuremberg
173.249.44.55,4,10,techlabs.by,DE,Europe,Western Europe,Germany,Bavaria,,Nuremberg
5.189.135.86,4,3,techmediatune.com,DE,Europe,Western Europe,Germany,Bavaria,,Nuremberg
207.180.247.67,4,95,technikum29.de,DE,Europe,Western Europe,Germany,Bavaria,,Nuremberg
94.130.78.215,4,70,techxmedia.com,DE,Europe,Western Europe,Germany,Bavaria,,Nuremberg
159.69.193.215,4,6,teeningapalmen.nl,DE,Europe,Western Europe,Germany,Bavaria,,Nuremberg
195.201.115.180,4,16,teilzeitreisender.de,DE,Europe,Western Europe,Germany,Bavaria,,Nuremberg
116.203.183.139,4,38,teknikviden.dk,DE,Europe,Western Europe,Germany,Bavaria,,Nuremberg
116.202.253.196,4,62,televisiewinkel.nl,DE,Europe,Western Europe,Germany,Bavaria,,Nuremberg
116.203.8.59,4,45,teltarif.de,DE,Europe,Western Europe,Germany,Bavaria,,Nuremberg
78.47.134.202,4,10,teltarif.de,DE,Europe,Western Europe,Germany,Bavaria,,Nuremberg
94.16.104.171,4,3,tempr.email,DE,Europe,Western Europe,Germany,Bavaria,,Nuremberg
159.69.24.114,4,59,termemerano.it,DE,Europe,Western Europe,Germany,Bavaria,,Nuremberg
88.99.174.225,4,36,terra-alicante.com,DE,Europe,Western Europe,Germany,Bavaria,,Nuremberg
85.10.232.164,4,3,testhipex.io,DE,Europe,Western Europe,Germany,Bavaria,,Nuremberg
128.140.33.0,4,25,teufelberger.com,DE,Europe,Western Europe,Germany,Bavaria,,Nuremberg
23.88.59.224,4,48,teufelhof.com,DE,Europe,Western Europe,Germany,Bavaria,,Nuremberg
116.203.0.152,4,25,textbookrevolution.org,DE,Europe,Western Europe,Germany,Bavaria,,Nuremberg
116.203.152.253,4,22,textbroker.ru,DE,Europe,Western Europe,Germany,Bavaria,,Nuremberg
88.99.190.74,4,22,textilvergehen.de,DE,Europe,Western Europe,Germany,Bavaria,,Nuremberg
159.69.95.112,4,5,tgram.ru,DE,Europe,Western Europe,Germany,Bavaria,,Nuremberg
157.90.27.215,4,22,tharrosnews.gr,DE,Europe,Western Europe,Germany,Bavaria,,Nuremberg
45.136.28.186,4,3,the-aupair.co.za,DE,Europe,Western Europe,Germany,Bavaria,,Nuremberg
167.235.78.221,4,11,the-federation.info,DE,Europe,Western Europe,Germany,Bavaria,,Nuremberg
94.130.230.117,4,18,thearmoredpatrol.com,DE,Europe,Western Europe,Germany,Bavaria,,Nuremberg
94.130.172.100,4,5,theater-kr-mg.de,DE,Europe,Western Europe,Germany,Bavaria,,Nuremberg
213.239.215.183,4,3,theaterakademie.de,DE,Europe,Western Europe,Germany,Bavaria,,Nuremberg
157.90.226.152,4,1,theaterencyclopedie.nl,DE,Europe,Western Europe,Germany,Bavaria,,Nuremberg
168.119.237.140,4,13,theatrenational.be,DE,Europe,Western Europe,Germany,Bavaria,,Nuremberg
159.69.29.221,4,96,thebookofman.com,DE,Europe,Western Europe,Germany,Bavaria,,Nuremberg
128.140.103.206,4,8,thecreambar.hu,DE,Europe,Western Europe,Germany,Bavaria,,Nuremberg
85.10.207.74,4,17,thehighwaystar.com,DE,Europe,Western Europe,Germany,Bavaria,,Nuremberg
37.221.195.125,4,9,thejh.net,DE,Europe,Western Europe,Germany,Bavaria,,Nuremberg
162.55.53.209,4,9,thekompany.com,DE,Europe,Western Europe,Germany,Bavaria,,Nuremberg
159.69.88.71,4,52,thememattic.com,DE,Europe,Western Europe,Germany,Bavaria,,Nuremberg
162.55.55.170,4,23,themewarrior.com,DE,Europe,Western Europe,Germany,Bavaria,,Nuremberg
94.130.78.52,4,4,thenew.institute,DE,Europe,Western Europe,Germany,Bavaria,,Nuremberg
116.203.112.82,4,26,theobroma-cacao.de,DE,Europe,Western Europe,Germany,Bavaria,,Nuremberg
88.198.33.85,4,14,theoplayer.com,DE,Europe,Western Europe,Germany,Bavaria,,Nuremberg
37.120.168.16,4,5,theralupa.de,DE,Europe,Western Europe,Germany,Bavaria,,Nuremberg
188.40.221.177,4,26,theukedu.com,DE,Europe,Western Europe,Germany,Bavaria,,Nuremberg
5.75.173.218,4,18,theuxda.com,DE,Europe,Western Europe,Germany,Bavaria,,Nuremberg
185.183.156.38,4,8,thevaluable.dev,DE,Europe,Western Europe,Germany,Bavaria,,Nuremberg
62.171.166.123,4,4,thevedantahospitals.com,DE,Europe,Western Europe,Germany,Bavaria,,Nuremberg
116.202.44.81,4,16,thevintageknob.org,DE,Europe,Western Europe,Germany,Bavaria,,Nuremberg
85.10.206.236,4,37,thewaternetwork.com,DE,Europe,Western Europe,Germany,Bavaria,,Nuremberg
167.86.78.125,4,36,thomasgericke.de,DE,Europe,Western Europe,Germany,Bavaria,,Nuremberg
195.201.44.124,4,2,thoraxklinik-heidelberg.de,DE,Europe,Western Europe,Germany,Bavaria,,Nuremberg
5.75.158.40,4,28,thqnordic.com,DE,Europe,Western Europe,Germany,Bavaria,,Nuremberg
202.61.251.72,4,3,thueringen.link,DE,Europe,Western Europe,Germany,Bavaria,,Nuremberg
159.69.6.253,4,5,tiaft.org,DE,Europe,Western Europe,Germany,Bavaria,,Nuremberg
116.203.228.37,4,3,tiande.ru,DE,Europe,Western Europe,Germany,Bavaria,,Nuremberg
49.13.195.233,4,11,tician.de,DE,Europe,Western Europe,Germany,Bavaria,,Nuremberg
195.201.96.192,4,35,tierwelt-herberstein.at,DE,Europe,Western Europe,Germany,Bavaria,,Nuremberg
5.189.188.110,4,4,tifosibianconeri.com,DE,Europe,Western Europe,Germany,Bavaria,,Nuremberg
164.68.124.92,4,35,tikolu.net,DE,Europe,Western Europe,Germany,Bavaria,,Nuremberg
202.61.193.199,4,63,tiksi.net,DE,Europe,Western Europe,Germany,Bavaria,,Nuremberg
173.249.23.188,4,3,timemachine.eu,DE,Europe,Western Europe,Germany,Bavaria,,Nuremberg
207.180.245.201,4,1,times.si,DE,Europe,Western Europe,Germany,Bavaria,,Nuremberg
116.203.207.187,4,7,timetac.com,DE,Europe,Western Europe,Germany,Bavaria,,Nuremberg
167.233.9.89,4,15,timmehosting.de,DE,Europe,Western Europe,Germany,Bavaria,,Nuremberg
159.69.92.179,4,14,tinnitus-liga.de,DE,Europe,Western Europe,Germany,Bavaria,,Nuremberg
128.140.11.83,4,4,tipodialberi.it,DE,Europe,Western Europe,Germany,Bavaria,,Nuremberg
136.243.127.66,4,37,tiposdearte.com,DE,Europe,Western Europe,Germany,Bavaria,,Nuremberg
159.69.198.55,4,-32659,tiroler-oberland.com,DE,Europe,Western Europe,Germany,Bavaria,,Nuremberg
116.203.213.72,4,315502,tns-infratest.com,DE,Europe,Western Europe,Germany,Bavaria,,Nuremberg
195.201.36.58,4,2,toamsterdam.ru,DE,Europe,Western Europe,Germany,Bavaria,,Nuremberg
159.69.129.73,4,5,tonies.de,DE,Europe,Western Europe,Germany,Bavaria,,Nuremberg
116.202.203.166,4,8,toolnation.nl,DE,Europe,Western Europe,Germany,Bavaria,,Nuremberg
195.201.188.82,4,13,toolspecial.com,DE,Europe,Western Europe,Germany,Bavaria,,Nuremberg
213.136.71.48,4,29,top-magazin.de,DE,Europe,Western Europe,Germany,Bavaria,,Nuremberg
195.201.188.56,4,33,top-zwembadshop.nl,DE,Europe,Western Europe,Germany,Bavaria,,Nuremberg
195.201.77.176,4,22,topfunf.de,DE,Europe,Western Europe,Germany,Bavaria,,Nuremberg
202.61.251.191,4,12,tosback.org,DE,Europe,Western Europe,Germany,Bavaria,,Nuremberg
116.202.183.165,4,18,totaljs.com,DE,Europe,Western Europe,Germany,Bavaria,,Nuremberg
78.47.112.11,4,37,tourismus-fulda.de,DE,Europe,Western Europe,Germany,Bavaria,,Nuremberg
173.212.228.206,4,13,tpf.hu,DE,Europe,Western Europe,Germany,Bavaria,,Nuremberg
88.198.207.34,4,59,tractrac.com,DE,Europe,Western Europe,Germany,Bavaria,,Nuremberg
159.69.3.175,4,26,trafficmaxx.de,DE,Europe,Western Europe,Germany,Bavaria,,Nuremberg
46.38.234.2,4,23,transcend.org,DE,Europe,Western Europe,Germany,Bavaria,,Nuremberg
116.203.86.55,4,24,transitung.se,DE,Europe,Western Europe,Germany,Bavaria,,Nuremberg
152.89.106.205,4,26,translatewiki.net,DE,Europe,Western Europe,Germany,Bavaria,,Nuremberg
46.38.249.187,4,4,travel-finder.com,DE,Europe,Western Europe,Germany,Bavaria,,Nuremberg
85.10.192.81,4,27,travelmassive.com,DE,Europe,Western Europe,Germany,Bavaria,,Nuremberg
195.201.248.15,4,30,travelscout24.de,DE,Europe,Western Europe,Germany,Bavaria,,Nuremberg
185.183.156.218,4,32,trendingtopics.eu,DE,Europe,Western Europe,Germany,Bavaria,,Nuremberg
23.88.59.39,4,39,trendtips.se,DE,Europe,Western Europe,Germany,Bavaria,,Nuremberg
88.198.198.106,4,19,trevira.de,DE,Europe,Western Europe,Germany,Bavaria,,Nuremberg
116.203.124.195,4,27,tribunaexpresso.pt,DE,Europe,Western Europe,Germany,Bavaria,,Nuremberg
159.69.132.215,4,43,trinkhorn.at,DE,Europe,Western Europe,Germany,Bavaria,,Nuremberg
157.90.233.205,4,27,trodat.net,DE,Europe,Western Europe,Germany,Bavaria,,Nuremberg
167.233.15.30,4,4,troet.cafe,DE,Europe,Western Europe,Germany,Bavaria,,Nuremberg
94.130.83.66,4,27,trouwartikelen.nl,DE,Europe,Western Europe,Germany,Bavaria,,Nuremberg
78.47.203.104,4,10,truede-dyrearter.dk,DE,Europe,Western Europe,Germany,Bavaria,,Nuremberg
207.180.255.250,4,12,truffes-fraiches.fr,DE,Europe,Western Europe,Germany,Bavaria,,Nuremberg
5.189.188.48,4,9,trufflecart.com,DE,Europe,Western Europe,Germany,Bavaria,,Nuremberg
88.198.114.6,4,6,trustyou.com,DE,Europe,Western Europe,Germany,Bavaria,,Nuremberg
88.198.114.4,4,6,trustyou.com,DE,Europe,Western Europe,Germany,Bavaria,,Nuremberg
116.203.24.133,4,-1444,tsaeurope.com,DE,Europe,Western Europe,Germany,Bavaria,,Nuremberg
85.10.205.58,4,5,tt-news.de,DE,Europe,Western Europe,Germany,Bavaria,,Nuremberg
91.204.46.79,4,9,tu9.de,DE,Europe,Western Europe,Germany,Bavaria,,Nuremberg
213.133.104.101,4,4,tugofwar-twif.org,DE,Europe,Western Europe,Germany,Bavaria,,Nuremberg
167.235.153.91,4,20,tuplus-idl.de,DE,Europe,Western Europe,Germany,Bavaria,,Nuremberg
159.69.110.15,4,3,tuugo.gr,DE,Europe,Western Europe,Germany,Bavaria,,Nuremberg
23.88.82.233,4,9023,tuxedocomputers.com,DE,Europe,Western Europe,Germany,Bavaria,,Nuremberg
94.130.57.174,4,9,tuxen.de,DE,Europe,Western Europe,Germany,Bavaria,,Nuremberg
80.241.215.88,4,3,tvbrowser.org,DE,Europe,Western Europe,Germany,Bavaria,,Nuremberg
168.119.228.92,4,12,tvbvideo.de,DE,Europe,Western Europe,Germany,Bavaria,,Nuremberg
94.16.110.194,4,11,tvmaze.com,DE,Europe,Western Europe,Germany,Bavaria,,Nuremberg
185.233.188.233,4,-18,tw-media.com,DE,Europe,Western Europe,Germany,Bavaria,,Nuremberg
46.38.251.6,4,14,twingotuningforum.de,DE,Europe,Western Europe,Germany,Bavaria,,Nuremberg
5.75.137.33,4,4,twipla.com,DE,Europe,Western Europe,Germany,Bavaria,,Nuremberg
23.88.99.219,4,4,ubermetrics-technologies.com,DE,Europe,Western Europe,Germany,Bavaria,,Nuremberg
144.91.99.96,4,5,ubuntudde.com,DE,Europe,Western Europe,Germany,Bavaria,,Nuremberg
88.198.204.148,4,4,uchmet.ru,DE,Europe,Western Europe,Germany,Bavaria,,Nuremberg
167.233.12.206,4,4,udk-berlin.de,DE,Europe,Western Europe,Germany,Bavaria,,Nuremberg
167.235.109.153,4,8,udv.de,DE,Europe,Western Europe,Germany,Bavaria,,Nuremberg
173.249.2.19,4,12,ugluu.mn,DE,Europe,Western Europe,Germany,Bavaria,,Nuremberg
152.53.33.95,4,3,uhren-stores.de,DE,Europe,Western Europe,Germany,Bavaria,,Nuremberg
49.13.204.254,4,4,ukragroconsult.com,DE,Europe,Western Europe,Germany,Bavaria,,Nuremberg
162.55.217.230,4,78,ukraine-latvia.com,DE,Europe,Western Europe,Germany,Bavaria,,Nuremberg
195.201.103.250,4,4,ulozisko.sk,DE,Europe,Western Europe,Germany,Bavaria,,Nuremberg
167.235.105.244,4,41,ultimateguard.com,DE,Europe,Western Europe,Germany,Bavaria,,Nuremberg
94.130.58.111,4,10,ultimatepp.org,DE,Europe,Western Europe,Germany,Bavaria,,Nuremberg
195.201.31.247,4,1,ulysses.app,DE,Europe,Western Europe,Germany,Bavaria,,Nuremberg
136.243.124.16,4,16,umweltzeichen.at,DE,Europe,Western Europe,Germany,Bavaria,,Nuremberg
202.61.232.25,4,24,unawave.de,DE,Europe,Western Europe,Germany,Bavaria,,Nuremberg
128.140.76.106,4,39,unbound.net,DE,Europe,Western Europe,Germany,Bavaria,,Nuremberg
94.130.179.179,4,2,uncareer.net,DE,Europe,Western Europe,Germany,Bavaria,,Nuremberg
85.10.251.211,4,5,uniabroad.ir,DE,Europe,Western Europe,Germany,Bavaria,,Nuremberg
168.119.201.8,4,31,uniassignment.com,DE,Europe,Western Europe,Germany,Bavaria,,Nuremberg
95.111.244.76,4,5,unidivers.fr,DE,Europe,Western Europe,Germany,Bavaria,,Nuremberg
159.69.134.135,4,4,unijobs.at,DE,Europe,Western Europe,Germany,Bavaria,,Nuremberg
49.13.44.227,4,7,unilu.ch,DE,Europe,Western Europe,Germany,Bavaria,,Nuremberg
185.162.249.140,4,28,uninformativ.de,DE,Europe,Western Europe,Germany,Bavaria,,Nuremberg
5.75.155.89,4,18,unisnab.net,DE,Europe,Western Europe,Germany,Bavaria,,Nuremberg
23.88.52.130,4,7,unitedfintech.com,DE,Europe,Western Europe,Germany,Bavaria,,Nuremberg
62.171.166.88,4,23,unitepc.edu.bo,DE,Europe,Western Europe,Germany,Bavaria,,Nuremberg
116.203.43.160,4,3,univ.cc,DE,Europe,Western Europe,Germany,Bavaria,,Nuremberg
88.99.188.85,4,5,unixboard.de,DE,Europe,Western Europe,Germany,Bavaria,,Nuremberg
94.130.224.144,4,-42893,unovi.com,DE,Europe,Western Europe,Germany,Bavaria,,Nuremberg
195.201.27.158,4,173894,unrailed-game.com,DE,Europe,Western Europe,Germany,Bavaria,,Nuremberg
88.198.185.88,4,6,unternehmenswelt.de,DE,Europe,Western Europe,Germany,Bavaria,,Nuremberg
88.198.205.250,4,52170,unvidi.com,DE,Europe,Western Europe,Germany,Bavaria,,Nuremberg
116.203.243.63,4,8,unyson.io,DE,Europe,Western Europe,Germany,Bavaria,,Nuremberg
167.86.86.227,4,26,uoa.ac.tz,DE,Europe,Western Europe,Germany,Bavaria,,Nuremberg
5.189.132.234,4,1,uofk.edu,DE,Europe,Western Europe,Germany,Bavaria,,Nuremberg
95.111.238.65,4,3,uoz.edu.krd,DE,Europe,Western Europe,Germany,Bavaria,,Nuremberg
31.172.113.125,4,3,upjers.com,DE,Europe,Western Europe,Germany,Bavaria,,Nuremberg
89.58.4.242,4,3,upr.si,DE,Europe,Western Europe,Germany,Bavaria,,Nuremberg
91.204.46.16,4,3,urban-transport-magazine.com,DE,Europe,Western Europe,Germany,Bavaria,,Nuremberg
23.88.106.219,4,-4,urbanista.de,DE,Europe,Western Europe,Germany,Bavaria,,Nuremberg
159.69.223.42,4,2,url.de,DE,Europe,Western Europe,Germany,Bavaria,,Nuremberg
195.201.20.160,4,6,utazomajom.hu,DE,Europe,Western Europe,Germany,Bavaria,,Nuremberg
167.235.70.136,4,4,utflyktsinfo.se,DE,Europe,Western Europe,Germany,Bavaria,,Nuremberg
159.69.158.156,4,4,utmagazine.ru,DE,Europe,Western Europe,Germany,Bavaria,,Nuremberg
159.69.153.252,4,5,utopia.lv,DE,Europe,Western Europe,Germany,Bavaria,,Nuremberg
95.111.226.243,4,4,uulyrics.com,DE,Europe,Western Europe,Germany,Bavaria,,Nuremberg
81.16.19.31,4,2,uvena.de,DE,Europe,Western Europe,Germany,Bavaria,,Nuremberg
128.140.32.202,4,3,uxeria.com,DE,Europe,Western Europe,Germany,Bavaria,,Nuremberg
85.10.193.57,4,12,v2v.cc,DE,Europe,Western Europe,Germany,Bavaria,,Nuremberg
116.203.222.27,4,5,vacuubrand.com,DE,Europe,Western Europe,Germany,Bavaria,,Nuremberg
157.90.233.236,4,-4,vakantiewoning.org,DE,Europe,Western Europe,Germany,Bavaria,,Nuremberg
162.55.158.176,4,34,valamar.com,DE,Europe,Western Europe,Germany,Bavaria,,Nuremberg
88.198.158.89,4,4,valentinog.com,DE,Europe,Western Europe,Germany,Bavaria,,Nuremberg
88.198.170.193,4,33,valki.com,DE,Europe,Western Europe,Germany,Bavaria,,Nuremberg
195.201.35.235,4,8,vamp-plugins.org,DE,Europe,Western Europe,Germany,Bavaria,,Nuremberg
213.239.209.170,4,4,vanbasco.com,DE,Europe,Western Europe,Germany,Bavaria,,Nuremberg
167.235.57.111,4,12,vandstand.dk,DE,Europe,Western Europe,Germany,Bavaria,,Nuremberg
49.12.89.8,4,11,vapoclope.fr,DE,Europe,Western Europe,Germany,Bavaria,,Nuremberg
161.97.71.109,4,12,varesepress.info,DE,Europe,Western Europe,Germany,Bavaria,,Nuremberg
116.203.9.223,4,2,vbb.de,DE,Europe,Western Europe,Germany,Bavaria,,Nuremberg
144.91.119.115,4,12,vbettr.org,DE,Europe,Western Europe,Germany,Bavaria,,Nuremberg
157.90.165.79,4,2,vdoe.de,DE,Europe,Western Europe,Germany,Bavaria,,Nuremberg
45.9.60.87,4,6,vds-ev.de,DE,Europe,Western Europe,Germany,Bavaria,,Nuremberg
85.10.221.116,4,50,vedes.com,DE,Europe,Western Europe,Germany,Bavaria,,Nuremberg
167.235.17.49,4,24,veganblatt.com,DE,Europe,Western Europe,Germany,Bavaria,,Nuremberg
159.69.210.118,4,71,veldsink.nl,DE,Europe,Western Europe,Germany,Bavaria,,Nuremberg
195.201.79.179,4,30,ven-to-lin.com,DE,Europe,Western Europe,Germany,Bavaria,,Nuremberg
162.55.50.103,4,8,verdadera-seduccion.com,DE,Europe,Western Europe,Germany,Bavaria,,Nuremberg
62.171.166.251,4,44,verdoos.com,DE,Europe,Western Europe,Germany,Bavaria,,Nuremberg
168.119.45.36,4,25,verfwinkel.nl,DE,Europe,Western Europe,Germany,Bavaria,,Nuremberg
49.12.231.33,4,28,verge-blockchain.info,DE,Europe,Western Europe,Germany,Bavaria,,Nuremberg
167.86.70.74,4,22,vertical-farming.net,DE,Europe,Western Europe,Germany,Bavaria,,Nuremberg
195.201.229.160,4,28,vgoru.org,DE,Europe,Western Europe,Germany,Bavaria,,Nuremberg
5.189.149.15,4,15,vibesofindia.com,DE,Europe,Western Europe,Germany,Bavaria,,Nuremberg
195.201.2.20,4,6,vidyawiki.com,DE,Europe,Western Europe,Germany,Bavaria,,Nuremberg
193.30.122.22,4,2,viennapass.com,DE,Europe,Western Europe,Germany,Bavaria,,Nuremberg
162.55.184.45,4,10,vigoe.es,DE,Europe,Western Europe,Germany,Bavaria,,Nuremberg
116.203.32.97,4,75,vikunja.io,DE,Europe,Western Europe,Germany,Bavaria,,Nuremberg
162.55.220.137,4,21,vilde-blomster.dk,DE,Europe,Western Europe,Germany,Bavaria,,Nuremberg
5.189.188.168,4,2,villapadierna.es,DE,Europe,Western Europe,Germany,Bavaria,,Nuremberg
168.119.25.90,4,9,vipermedical.nl,DE,Europe,Western Europe,Germany,Bavaria,,Nuremberg
157.90.40.116,4,8,vipole.com,DE,Europe,Western Europe,Germany,Bavaria,,Nuremberg
95.111.231.169,4,4,virginislandsnewsonline.com,DE,Europe,Western Europe,Germany,Bavaria,,Nuremberg
159.69.219.200,4,46,visafoto.com,DE,Europe,Western Europe,Germany,Bavaria,,Nuremberg
37.120.183.77,4,20,visiteger.com,DE,Europe,Western Europe,Germany,Bavaria,,Nuremberg
5.75.145.177,4,5,visitfiemme.it,DE,Europe,Western Europe,Germany,Bavaria,,Nuremberg
164.68.99.99,4,-9,visitmyphilippines.com,DE,Europe,Western Europe,Germany,Bavaria,,Nuremberg
116.202.180.150,4,22,visitvaldisole.it,DE,Europe,Western Europe,Germany,Bavaria,,Nuremberg
116.203.221.64,4,12,visitweb.com,DE,Europe,Western Europe,Germany,Bavaria,,Nuremberg
168.119.45.28,4,178,vita4you.gr,DE,Europe,Western Europe,Germany,Bavaria,,Nuremberg
116.202.63.30,4,37,vitalstoff-lexikon.de,DE,Europe,Western Europe,Germany,Bavaria,,Nuremberg
116.202.183.166,4,0,vitanas.de,DE,Europe,Western Europe,Germany,Bavaria,,Nuremberg
207.180.197.217,4,4,vitrekhezzane.com,DE,Europe,Western Europe,Germany,Bavaria,,Nuremberg
167.233.10.214,4,14,vivaconagua.org,DE,Europe,Western Europe,Germany,Bavaria,,Nuremberg
94.16.98.148,4,62,vlb.de,DE,Europe,Western Europe,Germany,Bavaria,,Nuremberg
94.16.98.132,4,4,vlbtix.de,DE,Europe,Western Europe,Germany,Bavaria,,Nuremberg
5.75.194.113,4,3,vnu.edu.ua,DE,Europe,Western Europe,Germany,Bavaria,,Nuremberg
78.47.172.230,4,43,vocaroo.com,DE,Europe,Western Europe,Germany,Bavaria,,Nuremberg
46.38.249.139,4,6,volkerbeck.de,DE,Europe,Western Europe,Germany,Bavaria,,Nuremberg
85.235.66.95,4,56,volkswoerterbuch.at,DE,Europe,Western Europe,Germany,Bavaria,,Nuremberg
88.99.168.34,4,28,vonnegut.ru,DE,Europe,Western Europe,Germany,Bavaria,,Nuremberg
193.30.123.29,4,52,voraffinity.de,DE,Europe,Western Europe,Germany,Bavaria,,Nuremberg
23.88.80.162,4,6,voria.gr,DE,Europe,Western Europe,Germany,Bavaria,,Nuremberg
195.128.103.199,4,71,vorleser.net,DE,Europe,Western Europe,Germany,Bavaria,,Nuremberg
5.189.142.100,4,40,vorot.ru,DE,Europe,Western Europe,Germany,Bavaria,,Nuremberg
88.198.149.222,4,21,vorsprung-online.de,DE,Europe,Western Europe,Germany,Bavaria,,Nuremberg
188.245.36.145,4,125,vossenhoek.nl,DE,Europe,Western Europe,Germany,Bavaria,,Nuremberg
202.61.199.75,4,2,vossloh-schwabe.com,DE,Europe,Western Europe,Germany,Bavaria,,Nuremberg
159.69.40.90,4,15,voukoder.org,DE,Europe,Western Europe,Germany,Bavaria,,Nuremberg
94.130.225.72,4,8,vvvv.org,DE,Europe,Western Europe,Germany,Bavaria,,Nuremberg
207.180.252.202,4,11,waelfawzy.com,DE,Europe,Western Europe,Germany,Bavaria,,Nuremberg
116.203.113.168,4,9,wagingersee.de,DE,Europe,Western Europe,Germany,Bavaria,,Nuremberg
148.251.254.59,4,5,walkingrandomly.com,DE,Europe,Western Europe,Germany,Bavaria,,Nuremberg
195.201.130.60,4,4,wallpaperscraft.com,DE,Europe,Western Europe,Germany,Bavaria,,Nuremberg
188.245.145.191,4,4,wapka.site,DE,Europe,Western Europe,Germany,Bavaria,,Nuremberg
5.45.109.189,4,2,wasserburger-stimme.de,DE,Europe,Western Europe,Germany,Bavaria,,Nuremberg
213.239.221.134,4,7,water2u.ru,DE,Europe,Western Europe,Germany,Bavaria,,Nuremberg
159.69.40.30,4,-2,wdv.de,DE,Europe,Western Europe,Germany,Bavaria,,Nuremberg
116.203.40.22,4,4,web-art-design.co.uk,DE,Europe,Western Europe,Germany,Bavaria,,Nuremberg
49.13.165.59,4,36,web-counter.net,DE,Europe,Western Europe,Germany,Bavaria,,Nuremberg
202.61.232.40,4,30,web-toolbox.net,DE,Europe,Western Europe,Germany,Bavaria,,Nuremberg
164.68.119.79,4,2,webabc.info,DE,Europe,Western Europe,Germany,Bavaria,,Nuremberg
185.207.107.13,4,17,webaist.ru,DE,Europe,Western Europe,Germany,Bavaria,,Nuremberg
116.202.205.32,4,6,webf1.ir,DE,Europe,Western Europe,Germany,Bavaria,,Nuremberg
88.99.172.67,4,12,webimagedownloader.com,DE,Europe,Western Europe,Germany,Bavaria,,Nuremberg
23.88.104.203,4,8,weborvos.hu,DE,Europe,Western Europe,Germany,Bavaria,,Nuremberg
159.69.42.106,4,27,websistent.com,DE,Europe,Western Europe,Germany,Bavaria,,Nuremberg
202.61.232.115,4,7,website-tutor.de,DE,Europe,Western Europe,Germany,Bavaria,,Nuremberg
116.203.44.94,4,35,webtribune.rs,DE,Europe,Western Europe,Germany,Bavaria,,Nuremberg
49.12.227.182,4,49,wegerer.at,DE,Europe,Western Europe,Germany,Bavaria,,Nuremberg
167.86.85.9,4,0,wehubspace.com,DE,Europe,Western Europe,Germany,Bavaria,,Nuremberg
85.10.201.71,4,5,weihnachtsstadt.de,DE,Europe,Western Europe,Germany,Bavaria,,Nuremberg
37.120.169.71,4,39,weilnetz.de,DE,Europe,Western Europe,Germany,Bavaria,,Nuremberg
185.233.188.251,4,6,weissenburg.de,DE,Europe,Western Europe,Germany,Bavaria,,Nuremberg
49.12.231.156,4,11,welding-alloys.com,DE,Europe,Western Europe,Germany,Bavaria,,Nuremberg
162.55.159.192,4,5,welectron.com,DE,Europe,Western Europe,Germany,Bavaria,,Nuremberg
78.47.93.120,4,6,well-typed.com,DE,Europe,Western Europe,Germany,Bavaria,,Nuremberg
78.47.176.82,4,20,wetlegband.com,DE,Europe,Western Europe,Germany,Bavaria,,Nuremberg
116.203.82.156,4,4,wettbewerbszentrale.de,DE,Europe,Western Europe,Germany,Bavaria,,Nuremberg
162.55.154.131,4,7,wetter.net,DE,Europe,Western Europe,Germany,Bavaria,,Nuremberg
37.120.171.250,4,4,wetter3.de,DE,Europe,Western Europe,Germany,Bavaria,,Nuremberg
195.201.47.83,4,19,wetteraukreis.de,DE,Europe,Western Europe,Germany,Bavaria,,Nuremberg
46.38.237.163,4,3,wfd.de,DE,Europe,Western Europe,Germany,Bavaria,,Nuremberg
91.204.46.154,4,2,whiskysteine.de,DE,Europe,Western Europe,Germany,Bavaria,,Nuremberg
88.99.173.229,4,13346,whocallsme.gr,DE,Europe,Western Europe,Germany,Bavaria,,Nuremberg
116.203.19.48,4,6,whpress.co.uk,DE,Europe,Western Europe,Germany,Bavaria,,Nuremberg
94.130.59.251,4,6,widepathcamper.com,DE,Europe,Western Europe,Germany,Bavaria,,Nuremberg
88.198.164.75,4,73,wieleroutfits.nl,DE,Europe,Western Europe,Germany,Bavaria,,Nuremberg
37.221.196.200,4,21,wima.de,DE,Europe,Western Europe,Germany,Bavaria,,Nuremberg
94.130.85.161,4,-120,winesofgreece.org,DE,Europe,Western Europe,Germany,Bavaria,,Nuremberg
49.13.45.115,4,13,wintershall.com,DE,Europe,Western Europe,Germany,Bavaria,,Nuremberg
78.47.2.37,4,2,wirtschaft-regional.net,DE,Europe,Western Europe,Germany,Bavaria,,Nuremberg
116.203.8.54,4,7,wirtschaftsdienst.eu,DE,Europe,Western Europe,Germany,Bavaria,,Nuremberg
159.69.149.23,4,4,wmasg.com,DE,Europe,Western Europe,Germany,Bavaria,,Nuremberg
91.204.46.34,4,10,wolgadeutsche.net,DE,Europe,Western Europe,Germany,Bavaria,,Nuremberg
94.130.78.199,4,6,womeninblack.org,DE,Europe,Western Europe,Germany,Bavaria,,Nuremberg
168.119.235.217,4,7,womenonwaves.org,DE,Europe,Western Europe,Germany,Bavaria,,Nuremberg
162.55.218.139,4,5,worldday.de,DE,Europe,Western Europe,Germany,Bavaria,,Nuremberg
116.203.14.40,4,4,worldofvolley.com,DE,Europe,Western Europe,Germany,Bavaria,,Nuremberg
202.61.232.46,4,2,worldsecuritynetwork.com,DE,Europe,Western Europe,Germany,Bavaria,,Nuremberg
95.111.241.115,4,7,worldstar.org,DE,Europe,Western Europe,Germany,Bavaria,,Nuremberg
188.68.47.114,4,5,wowgilden.net,DE,Europe,Western Europe,Germany,Bavaria,,Nuremberg
62.171.137.174,4,8,wpfastestcache.com,DE,Europe,Western Europe,Germany,Bavaria,,Nuremberg
159.69.1.73,4,-1,wphu.org,DE,Europe,Western Europe,Germany,Bavaria,,Nuremberg
85.10.215.139,4,18,writingstudio.co.za,DE,Europe,Western Europe,Germany,Bavaria,,Nuremberg
23.88.96.173,4,6,wtransnet.com,DE,Europe,Western Europe,Germany,Bavaria,,Nuremberg
185.22.222.168,4,8,wurzelimperium.de,DE,Europe,Western Europe,Germany,Bavaria,,Nuremberg
159.69.4.132,4,6,www-kurs.de,DE,Europe,Western Europe,Germany,Bavaria,,Nuremberg
173.212.231.191,4,6,wxpython.org,DE,Europe,Western Europe,Germany,Bavaria,,Nuremberg
88.99.175.92,4,3,wz-media.de,DE,Europe,Western Europe,Germany,Bavaria,,Nuremberg
45.142.179.218,4,3,xcsoar.org,DE,Europe,Western Europe,Germany,Bavaria,,Nuremberg
45.90.5.141,4,7,xenomai.org,DE,Europe,Western Europe,Germany,Bavaria,,Nuremberg
194.13.82.249,4,5,xlx900.de,DE,Europe,Western Europe,Germany,Bavaria,,Nuremberg
173.212.248.3,4,8,xmlmind.com,DE,Europe,Western Europe,Germany,Bavaria,,Nuremberg
116.203.84.151,4,45,xn--alltomunderhll-wib.se,DE,Europe,Western Europe,Germany,Bavaria,,Nuremberg
116.203.116.135,4,81,xn--bttremotion-l8a.se,DE,Europe,Western Europe,Germany,Bavaria,,Nuremberg
168.119.167.70,4,53,xn--casinonrden-mgb.dk,DE,Europe,Western Europe,Germany,Bavaria,,Nuremberg
128.140.99.116,4,70,xn--eknonominrden-qmb.se,DE,Europe,Western Europe,Germany,Bavaria,,Nuremberg
167.235.156.72,4,112,xn--ekonominrdar-cjb.se,DE,Europe,Western Europe,Germany,Bavaria,,Nuremberg
157.90.174.56,4,118,xn--familjenpventyr-8kbq.se,DE,Europe,Western Europe,Germany,Bavaria,,Nuremberg
185.243.11.47,4,75,xn--generator-datenschutzerklrung-pqc.de,DE,Europe,Western Europe,Germany,Bavaria,,Nuremberg
162.55.212.33,4,106,xn--gldenvedkunst-4fb.dk,DE,Europe,Western Europe,Germany,Bavaria,,Nuremberg
116.203.85.52,4,95,xn--hemmaptomten-ycb.se,DE,Europe,Western Europe,Germany,Bavaria,,Nuremberg
78.47.220.212,4,65,xn--hndvrkerposten-libt.dk,DE,Europe,Western Europe,Germany,Bavaria,,Nuremberg
116.203.120.244,4,27,xn--hverdagsglderne-6lb.dk,DE,Europe,Western Europe,Germany,Bavaria,,Nuremberg
116.203.127.195,4,62,xn--idrtsbloggen-8cb.dk,DE,Europe,Western Europe,Germany,Bavaria,,Nuremberg
88.198.180.29,4,13,xn--kledyrsverden-3fb.dk,DE,Europe,Western Europe,Germany,Bavaria,,Nuremberg
159.69.216.14,4,91,xn--konomisknyt-fgb.dk,DE,Europe,Western Europe,Germany,Bavaria,,Nuremberg
167.235.48.123,4,41,xn--konstnrsbloggen-5kb.se,DE,Europe,Western Europe,Germany,Bavaria,,Nuremberg
116.203.31.240,4,76,xn--madnrd-eya.dk,DE,Europe,Western Europe,Germany,Bavaria,,Nuremberg
159.69.219.11,4,7,xn--miljvenlige-produkter-tfc.dk,DE,Europe,Western Europe,Germany,Bavaria,,Nuremberg
167.235.75.12,4,75,xn--mltidsmekka-x8a.dk,DE,Europe,Western Europe,Germany,Bavaria,,Nuremberg
116.203.102.33,4,17,xn--motionfralla-bjb.se,DE,Europe,Western Europe,Germany,Bavaria,,Nuremberg
128.140.99.90,4,1,xn--ntbutikerna-l8a.se,DE,Europe,Western Europe,Germany,Bavaria,,Nuremberg
159.69.196.197,4,123,xn--pfrdmot-6wah.se,DE,Europe,Western Europe,Germany,Bavaria,,Nuremberg
157.90.21.183,4,6,xn--servicefrnoss-xfb.se,DE,Europe,Western Europe,Germany,Bavaria,,Nuremberg
5.75.142.236,4,61,xn--shoppnettet-18a.dk,DE,Europe,Western Europe,Germany,Bavaria,,Nuremberg
23.88.54.38,4,71,xn--spillemaskinerpnettet-62b.dk,DE,Europe,Western Europe,Germany,Bavaria,,Nuremberg
128.140.46.176,4,17,xn--sportnrd-s4a.se,DE,Europe,Western Europe,Germany,Bavaria,,Nuremberg
167.235.65.152,4,66,xn--sportsnrderne-hnb.dk,DE,Europe,Western Europe,Germany,Bavaria,,Nuremberg
116.203.11.182,4,19,xn--sterreich-z7a.at,DE,Europe,Western Europe,Germany,Bavaria,,Nuremberg
116.203.123.1,4,4,xn--strkogsund-e6a.dk,DE,Europe,Western Europe,Germany,Bavaria,,Nuremberg
116.203.83.65,4,6,xn--trningsnrden-hcb2x.se,DE,Europe,Western Europe,Germany,Bavaria,,Nuremberg
91.107.224.239,4,41,xn--underhllsfirmor-mlb.se,DE,Europe,Western Europe,Germany,Bavaria,,Nuremberg
116.203.23.91,4,16,xn--upplevelsgnget-fib.se,DE,Europe,Western Europe,Germany,Bavaria,,Nuremberg
128.140.100.213,4,79,xn--utpresa-gxa.se,DE,Europe,Western Europe,Germany,Bavaria,,Nuremberg
116.203.156.49,4,5,xn--vadskavita-x5a.se,DE,Europe,Western Europe,Germany,Bavaria,,Nuremberg
5.75.167.76,4,16,xn--vildmedsknhed-jnb.dk,DE,Europe,Western Europe,Germany,Bavaria,,Nuremberg
128.140.5.228,4,5,xn--vrldensfinanser-0kb.se,DE,Europe,Western Europe,Germany,Bavaria,,Nuremberg
116.203.84.247,4,3,xn--vrupplevelse-tcb.se,DE,Europe,Western Europe,Germany,Bavaria,,Nuremberg
173.249.50.87,4,-30,xn--wo-6ja.com,DE,Europe,Western Europe,Germany,Bavaria,,Nuremberg
159.69.237.21,4,7,xobor.com,DE,Europe,Western Europe,Germany,Bavaria,,Nuremberg
202.61.247.89,4,7,xonotic.org,DE,Europe,Western Europe,Germany,Bavaria,,Nuremberg
185.244.195.154,4,8,xor.de,DE,Europe,Western Europe,Germany,Bavaria,,Nuremberg
89.58.3.140,4,2,xtremelashes.si,DE,Europe,Western Europe,Germany,Bavaria,,Nuremberg
167.235.60.225,4,6,yadvashem-france.org,DE,Europe,Western Europe,Germany,Bavaria,,Nuremberg
85.10.195.157,4,4,yapp.co.uk,DE,Europe,Western Europe,Germany,Bavaria,,Nuremberg
164.68.106.89,4,-27,yaschicaagoro.com,DE,Europe,Western Europe,Germany,Bavaria,,Nuremberg
94.130.74.24,4,7,yaware.com,DE,Europe,Western Europe,Germany,Bavaria,,Nuremberg
195.201.43.218,4,5,yiiframework.com,DE,Europe,Western Europe,Germany,Bavaria,,Nuremberg
62.171.162.117,4,6,youdem.tv,DE,Europe,Western Europe,Germany,Bavaria,,Nuremberg
157.90.230.170,4,5,youloveit.com,DE,Europe,Western Europe,Germany,Bavaria,,Nuremberg
195.201.98.13,4,9,youqueen.com,DE,Europe,Western Europe,Germany,Bavaria,,Nuremberg
85.10.215.232,4,14,your-server.de,DE,Europe,Western Europe,Germany,Bavaria,,Nuremberg
161.97.116.110,4,5,youtube4kdownloader.com,DE,Europe,Western Europe,Germany,Bavaria,,Nuremberg
116.203.7.128,4,4,yoyogi-village.jp,DE,Europe,Western Europe,Germany,Bavaria,,Nuremberg
94.130.111.44,4,5,ysmu.am,DE,Europe,Western Europe,Germany,Bavaria,,Nuremberg
5.189.142.84,4,2,yurclub.ru,DE,Europe,Western Europe,Germany,Bavaria,,Nuremberg
188.68.52.246,4,9,z0r.de,DE,Europe,Western Europe,Germany,Bavaria,,Nuremberg
202.61.232.130,4,12,z1000-forum.de,DE,Europe,Western Europe,Germany,Bavaria,,Nuremberg
195.201.151.162,4,16,zagrebdox.net,DE,Europe,Western Europe,Germany,Bavaria,,Nuremberg
164.68.127.208,4,29,zainduz.eus,DE,Europe,Western Europe,Germany,Bavaria,,Nuremberg
142.132.164.219,4,12,zakupka.com,DE,Europe,Western Europe,Germany,Bavaria,,Nuremberg
37.120.166.217,4,11,zareksrece.si,DE,Europe,Western Europe,Germany,Bavaria,,Nuremberg
23.88.81.24,4,5,zcodesystem.com,DE,Europe,Western Europe,Germany,Bavaria,,Nuremberg
49.12.202.214,4,0,zdaemon.org,DE,Europe,Western Europe,Germany,Bavaria,,Nuremberg
94.130.174.159,4,6,zdenekpohlreich.cz,DE,Europe,Western Europe,Germany,Bavaria,,Nuremberg
168.119.172.106,4,12,zehn.de,DE,Europe,Western Europe,Germany,Bavaria,,Nuremberg
188.68.59.254,4,1,zeichentrickserien.de,DE,Europe,Western Europe,Germany,Bavaria,,Nuremberg
116.203.5.192,4,12,zeilersforum.nl,DE,Europe,Western Europe,Germany,Bavaria,,Nuremberg
159.69.148.154,4,3,zeit-statt-zeug.de,DE,Europe,Western Europe,Germany,Bavaria,,Nuremberg
45.9.60.64,4,26,zeitschrift-osteuropa.de,DE,Europe,Western Europe,Germany,Bavaria,,Nuremberg
202.61.232.106,4,12,zeitschrift-suburban.de,DE,Europe,Western Europe,Germany,Bavaria,,Nuremberg
116.203.213.209,4,3,zeldaspeedruns.com,DE,Europe,Western Europe,Germany,Bavaria,,Nuremberg
167.235.107.130,4,6,zelenaucionica.com,DE,Europe,Western Europe,Germany,Bavaria,,Nuremberg
49.12.164.154,4,5,zeppelin.am,DE,Europe,Western Europe,Germany,Bavaria,,Nuremberg
5.189.186.236,4,5,zeroscience.mk,DE,Europe,Western Europe,Germany,Bavaria,,Nuremberg
162.55.178.103,4,3,zhaket.com,DE,Europe,Western Europe,Germany,Bavaria,,Nuremberg
116.202.178.234,4,6,zhbluzern.ch,DE,Europe,Western Europe,Germany,Bavaria,,Nuremberg
144.91.119.216,4,2,zhurnal.mk,DE,Europe,Western Europe,Germany,Bavaria,,Nuremberg
167.235.57.124,4,26,ziegler-metall.de,DE,Europe,Western Europe,Germany,Bavaria,,Nuremberg
116.202.95.162,4,26,ziguratco.com,DE,Europe,Western Europe,Germany,Bavaria,,Nuremberg
159.69.130.41,4,15,zimad.com,DE,Europe,Western Europe,Germany,Bavaria,,Nuremberg
159.69.130.42,4,11,zimad.com,DE,Europe,Western Europe,Germany,Bavaria,,Nuremberg
159.69.130.43,4,17,zimad.com,DE,Europe,Western Europe,Germany,Bavaria,,Nuremberg
116.203.84.72,4,3,zlatkovic.com,DE,Europe,Western Europe,Germany,Bavaria,,Nuremberg
148.251.196.10,4,3,znakowarki.com,DE,Europe,Western Europe,Germany,Bavaria,,Nuremberg
157.90.24.245,4,5,znuny.org,DE,Europe,Western Europe,Germany,Bavaria,,Nuremberg
159.69.45.37,4,4,zona-m.net,DE,Europe,Western Europe,Germany,Bavaria,,Nuremberg
195.201.46.95,4,0,zonatlas.nl,DE,Europe,Western Europe,Germany,Bavaria,,Nuremberg
188.40.221.176,4,4,zoomikweb.com,DE,Europe,Western Europe,Germany,Bavaria,,Nuremberg
94.130.78.206,4,4,zoompo.com,DE,Europe,Western Europe,Germany,Bavaria,,Nuremberg
78.47.234.49,4,1,zorinaq.com,DE,Europe,Western Europe,Germany,Bavaria,,Nuremberg
37.120.172.168,4,16,zotlabs.org,DE,Europe,Western Europe,Germany,Bavaria,,Nuremberg
5.189.161.17,4,4,zrt.ru,DE,Europe,Western Europe,Germany,Bavaria,,Nuremberg
45.132.246.106,4,3,ztonline.ch,DE,Europe,Western Europe,Germany,Bavaria,,Nuremberg
195.201.149.70,4,4,zty.pe,DE,Europe,Western Europe,Germany,Bavaria,,Nuremberg
213.239.241.75,4,7,zu-fuss-zur-schule.de,DE,Europe,Western Europe,Germany,Bavaria,,Nuremberg
144.91.120.188,4,0,zz.lv,DE,Europe,Western Europe,Germany,Bavaria,,Nuremberg
