reflector_ip,ip_version,offset,description,country_code,region,sub_region,country_name,sub_division_1,sub_division_2,city
109.68.51.34,4,36,acp.at,DE,Europe,Western Europe,Germany,Bavaria,,Munich
213.155.86.222,4,49,alpine-rescue.org,DE,Europe,Western Europe,Germany,Bavaria,,Munich
213.155.81.23,4,118,altoetting.de,DE,Europe,Western Europe,Germany,Bavaria,,Munich
213.155.86.209,4,47,audi-technology-portal.de,DE,Europe,Western Europe,Germany,Bavaria,,Munich
213.155.86.148,4,1,audimedia.tv,DE,Europe,Western Europe,Germany,Bavaria,,Munich
213.155.86.230,4,24,audimedia.tv,DE,Europe,Western Europe,Germany,Bavaria,,Munich
213.155.86.202,4,6,audimedia.tv,DE,Europe,Western Europe,Germany,Bavaria,,Munich
80.241.223.71,4,10,aware.ie,DE,Europe,Western Europe,Germany,Bavaria,,Munich
80.241.216.24,4,4,bitblokes.de,DE,Europe,Western Europe,Germany,Bavaria,,Munich
212.114.128.66,4,15,buch24.de,DE,Europe,Western Europe,Germany,Bavaria,,Munich
213.155.86.243,4,3,buch7.de,DE,Europe,Western Europe,Germany,Bavaria,,Munich
213.179.137.56,4,14,cadenas.de,DE,Europe,Western Europe,Germany,Bavaria,,Munich
79.143.189.67,4,4,codelite.org,DE,Europe,Western Europe,Germany,Bavaria,,Munich
193.34.145.204,4,11,coopprogreso.org,DE,Europe,Western Europe,Germany,Bavaria,,Munich
185.2.103.117,4,4,czaswojny.pl,DE,Europe,Western Europe,Germany,Bavaria,,Munich
195.226.185.65,4,4,daytona.de,DE,Europe,Western Europe,Germany,Bavaria,,Munich
141.84.213.225,4,55,digitaleweltmagazin.de,DE,Europe,Western Europe,Germany,Bavaria,,Munich
92.123.133.14,4,6,dinsko.se,DE,Europe,Western Europe,Germany,Bavaria,,Munich
92.123.133.51,4,58,dinsko.se,DE,Europe,Western Europe,Germany,Bavaria,,Munich
82.135.58.27,4,5,divi.de,DE,Europe,Western Europe,Germany,Bavaria,,Munich
194.39.205.240,4,4,DNS Server: dns2.cheazey.net,DE,Europe,Western Europe,Germany,Bavaria,,Munich
82.135.31.211,4,75,DNS Server: host-82-135-31-211.customer.m-online.net,DE,Europe,Western Europe,Germany,Bavaria,,Munich
79.143.185.86,4,391,DNS Server: locust.juri.hamburg,DE,Europe,Western Europe,Germany,Bavaria,,Munich
91.194.90.165,4,385,DNS Server: vmd69831.contaboserver.net,DE,Europe,Western Europe,Germany,Bavaria,,Munich
80.241.212.192,4,-132832,DNS Server: vmi272962.contaboserver.net,DE,Europe,Western Europe,Germany,Bavaria,,Munich
193.34.102.190,4,5,ebv.com,DE,Europe,Western Europe,Germany,Bavaria,,Munich
79.143.190.237,4,-10074,eilo.org,DE,Europe,Western Europe,Germany,Bavaria,,Munich
79.143.187.202,4,27,escort10.com,DE,Europe,Western Europe,Germany,Bavaria,,Munich
80.241.218.178,4,3,fide.com,DE,Europe,Western Europe,Germany,Bavaria,,Munich
91.194.91.202,4,45,fotoalbum.eu,DE,Europe,Western Europe,Germany,Bavaria,,Munich
141.84.41.212,4,5,g-node.org,DE,Europe,Western Europe,Germany,Bavaria,,Munich
23.38.123.179,4,39,grandvision.it,DE,Europe,Western Europe,Germany,Bavaria,,Munich
23.38.123.136,4,32,grandvision.it,DE,Europe,Western Europe,Germany,Bavaria,,Munich
82.135.58.26,4,9,greencity.de,DE,Europe,Western Europe,Germany,Bavaria,,Munich
88.221.196.193,4,13,gse.it,DE,Europe,Western Europe,Germany,Bavaria,,Munich
88.221.196.160,4,15,gse.it,DE,Europe,Western Europe,Germany,Bavaria,,Munich
213.155.86.189,4,3,gut-erklaert.de,DE,Europe,Western Europe,Germany,Bavaria,,Munich
213.155.81.40,4,5,hawe.com,DE,Europe,Western Europe,Germany,Bavaria,,Munich
213.155.81.25,4,6,huber-se.com,DE,Europe,Western Europe,Germany,Bavaria,,Munich
93.104.203.20,4,29,ibusiness.de,DE,Europe,Western Europe,Germany,Bavaria,,Munich
178.248.242.125,4,3,infotiger.com,DE,Europe,Western Europe,Germany,Bavaria,,Munich
193.34.144.56,4,3,innovator24.com,DE,Europe,Western Europe,Germany,Bavaria,,Munich
213.155.86.183,4,3,krautreporter.de,DE,Europe,Western Europe,Germany,Bavaria,,Munich
88.221.196.115,4,21,kuantokusta.pt,DE,Europe,Western Europe,Germany,Bavaria,,Munich
88.221.196.184,4,20,kuantokusta.pt,DE,Europe,Western Europe,Germany,Bavaria,,Munich
80.241.216.193,4,368,latina-press.com,DE,Europe,Western Europe,Germany,Bavaria,,Munich
89.246.237.41,4,52,lehmanns.ch,DE,Europe,Western Europe,Germany,Bavaria,,Munich
89.246.237.42,4,72,lehmanns.de,DE,Europe,Western Europe,Germany,Bavaria,,Munich
193.34.145.205,4,8,loquesomos.org,DE,Europe,Western Europe,Germany,Bavaria,,Munich
82.135.58.89,4,2,lungenstiftung.de,DE,Europe,Western Europe,Germany,Bavaria,,Munich
193.164.133.90,4,90,mastertopforum.com,DE,Europe,Western Europe,Germany,Bavaria,,Munich
193.37.152.252,4,356,museum.hu,DE,Europe,Western Europe,Germany,Bavaria,,Munich
91.205.172.19,4,8811,myblogtime.com,DE,Europe,Western Europe,Germany,Bavaria,,Munich
93.104.203.22,4,31,neuhandeln.de,DE,Europe,Western Europe,Germany,Bavaria,,Munich
93.104.203.25,4,3,onetoone.de,DE,Europe,Western Europe,Germany,Bavaria,,Munich
62.245.181.52,4,209,Ookla Speedtest Server 45865: speedtest.m-online.net,DE,Europe,Western Europe,Germany,Bavaria,,Munich
82.135.8.34,4,56,openspf.org,DE,Europe,Western Europe,Germany,Bavaria,,Munich
193.34.145.202,4,52,order-essays.com,DE,Europe,Western Europe,Germany,Bavaria,,Munich
62.245.132.105,4,10,osadl.org,DE,Europe,Western Europe,Germany,Bavaria,,Munich
213.179.137.23,4,51,partcommunity.com,DE,Europe,Western Europe,Germany,Bavaria,,Munich
93.104.203.21,4,49,press1.de,DE,Europe,Western Europe,Germany,Bavaria,,Munich
138.246.225.71,4,30559,rdklabor.de,DE,Europe,Western Europe,Germany,Bavaria,,Munich
195.24.107.122,4,13,remax.de,DE,Europe,Western Europe,Germany,Bavaria,,Munich
23.219.84.176,4,15,rtl2.de,DE,Europe,Western Europe,Germany,Bavaria,,Munich
88.221.196.187,4,9,salvadorcaetano.pt,DE,Europe,Western Europe,Germany,Bavaria,,Munich
88.221.196.137,4,19,salvadorcaetano.pt,DE,Europe,Western Europe,Germany,Bavaria,,Munich
62.245.165.68,4,22,schaeferhunde.de,DE,Europe,Western Europe,Germany,Bavaria,,Munich
79.143.183.101,4,5,simpleportal.net,DE,Europe,Western Europe,Germany,Bavaria,,Munich
79.143.181.128,4,59,starlitemarbella.com,DE,Europe,Western Europe,Germany,Bavaria,,Munich
88.217.241.13,4,3,sternstunden.de,DE,Europe,Western Europe,Germany,Bavaria,,Munich
82.135.112.170,4,279304,stockfood.com,DE,Europe,Western Europe,Germany,Bavaria,,Munich
213.155.86.146,4,132,studyflix.de,DE,Europe,Western Europe,Germany,Bavaria,,Munich
79.143.176.75,4,3,subnetonline.com,DE,Europe,Western Europe,Germany,Bavaria,,Munich
178.248.242.99,4,16,testbiotech.org,DE,Europe,Western Europe,Germany,Bavaria,,Munich
213.155.86.129,4,5,unpoly.com,DE,Europe,Western Europe,Germany,Bavaria,,Munich
80.241.208.180,4,34,vrije-mens.org,DE,Europe,Western Europe,Germany,Bavaria,,Munich
82.135.58.41,4,7,wasserwacht.de,DE,Europe,Western Europe,Germany,Bavaria,,Munich
82.135.8.68,4,8,wochenanzeiger.de,DE,Europe,Western Europe,Germany,Bavaria,,Munich
