reflector_ip,ip_version,offset,description,country_code,region,sub_region,country_name,sub_division_1,sub_division_2,city
198.251.81.147,4,1122,agrimarketing.com,US,Americas,Northern America,United States of America,New York,,Staten Island
198.251.81.81,4,6,best4wp.com,US,Americas,Northern America,United States of America,New York,,Staten Island
45.43.19.225,4,33,cyborlink.com,US,Americas,Northern America,United States of America,New York,,Staten Island
198.98.54.213,4,3,cyraxx.wiki,US,Americas,Northern America,United States of America,New York,,Staten Island
198.251.83.106,4,5,expertcomapny.com,US,Americas,Northern America,United States of America,New York,,Staten Island
169.197.80.105,4,27,fictioneer.org,US,Americas,Northern America,United States of America,New York,,Staten Island
199.195.250.19,4,4,j7hotel.com,US,Americas,Northern America,United States of America,New York,,Staten Island
199.195.254.68,4,14,nadeko.net,US,Americas,Northern America,United States of America,New York,,Staten Island
198.251.81.49,4,20,newsdurhamregion.com,US,Americas,Northern America,United States of America,New York,,Staten Island
198.98.49.64,4,13,nomoreroominhell.com,US,Americas,Northern America,United States of America,New York,,Staten Island
170.39.214.101,4,24,oldnelsonfood.com,US,Americas,Northern America,United States of America,New York,,Staten Island
198.251.81.14,4,37,pesticidepros.com,US,Americas,Northern America,United States of America,New York,,Staten Island
198.98.48.235,4,26,repairmanjack.com,US,Americas,Northern America,United States of America,New York,,Staten Island
198.251.81.97,4,3,reznorhvac.com,US,Americas,Northern America,United States of America,New York,,Staten Island
198.98.61.35,4,6217,rpol.net,US,Americas,Northern America,United States of America,New York,,Staten Island
198.98.53.105,4,56,samiam.org,US,Americas,Northern America,United States of America,New York,,Staten Island
198.251.81.188,4,3,socialhustle.co.uk,US,Americas,Northern America,United States of America,New York,,Staten Island
198.251.83.217,4,4,sopeganit.in,US,Americas,Northern America,United States of America,New York,,Staten Island
198.98.57.239,4,1,usefuls247.com,US,Americas,Northern America,United States of America,New York,,Staten Island
198.98.60.34,4,-24379,xcancel.com,US,Americas,Northern America,United States of America,New York,,Staten Island
