reflector_ip,ip_version,offset,description,country_code,region,sub_region,country_name,sub_division_1,sub_division_2,city
144.208.127.145,4,7,12bytes.org,US,Americas,Northern America,United States of America,New York,,New York
185.213.26.75,4,3,3planesoft.com,US,Americas,Northern America,United States of America,New York,,New York
45.55.101.66,4,4,54below.com,US,Americas,Northern America,United States of America,New York,,New York
162.243.117.188,4,587268,abc.net,US,Americas,Northern America,United States of America,New York,,New York
184.153.67.36,4,18000593,alephnull.net,US,Americas,Northern America,United States of America,New York,,New York
104.114.72.200,4,86,alertsandiego.org,US,Americas,Northern America,United States of America,New York,,New York
104.114.72.195,4,12,alertsandiego.org,US,Americas,Northern America,United States of America,New York,,New York
192.241.167.71,4,3249916,alien8recordings.com,US,Americas,Northern America,United States of America,New York,,New York
66.165.251.199,4,78,amahi.org,US,Americas,Northern America,United States of America,New York,,New York
45.55.102.98,4,4,americanshakespearecenter.com,US,Americas,Northern America,United States of America,New York,,New York
192.241.191.186,4,6,amnistia.org.mx,US,Americas,Northern America,United States of America,New York,,New York
162.243.13.227,4,318655,amodestfeast.com,US,Americas,Northern America,United States of America,New York,,New York
185.254.198.63,4,-1,apk-dl.com,US,Americas,Northern America,United States of America,New York,,New York
192.241.169.153,4,42,aras.org,US,Americas,Northern America,United States of America,New York,,New York
162.243.229.13,4,9,arena17.com,US,Americas,Northern America,United States of America,New York,,New York
38.117.134.17,4,0,astron.com,US,Americas,Northern America,United States of America,New York,,New York
66.165.245.78,4,41,atyourbusiness.com,US,Americas,Northern America,United States of America,New York,,New York
65.98.90.66,4,1055,aural-innovations.com,US,Americas,Northern America,United States of America,New York,,New York
146.71.86.38,4,9,bd-hyd.com,US,Americas,Northern America,United States of America,New York,,New York
162.243.32.35,4,11,beachcatcher.com,US,Americas,Northern America,United States of America,New York,,New York
162.243.225.163,4,369947,ben-kiki.org,US,Americas,Northern America,United States of America,New York,,New York
162.243.52.14,4,13,billstclair.com,US,Americas,Northern America,United States of America,New York,,New York
107.191.99.5,4,11,bitcoincore.org,US,Americas,Northern America,United States of America,New York,,New York
23.29.112.240,4,9,boardingschoolreview.com,US,Americas,Northern America,United States of America,New York,,New York
162.243.39.216,4,8,boxerlist.com,US,Americas,Northern America,United States of America,New York,,New York
66.165.244.170,4,19,brothersgutters.com,US,Americas,Northern America,United States of America,New York,,New York
199.232.38.132,4,1,bso.org,US,Americas,Northern America,United States of America,New York,,New York
23.92.67.163,4,60,cablemod.com,US,Americas,Northern America,United States of America,New York,,New York
107.182.226.88,4,17,canadiancontent.net,US,Americas,Northern America,United States of America,New York,,New York
209.95.50.122,4,12,captioncall.com,US,Americas,Northern America,United States of America,New York,,New York
162.243.38.100,4,72,cenidh.org,US,Americas,Northern America,United States of America,New York,,New York
107.170.79.110,4,4,checnet.org,US,Americas,Northern America,United States of America,New York,,New York
23.29.112.242,4,52,communitycollegereview.com,US,Americas,Northern America,United States of America,New York,,New York
107.170.81.141,4,28,compraymudate.com,US,Americas,Northern America,United States of America,New York,,New York
66.165.246.164,4,6,configserver.com,US,Americas,Northern America,United States of America,New York,,New York
45.55.101.29,4,28,contemplativemind.org,US,Americas,Northern America,United States of America,New York,,New York
185.43.108.122,4,4,converses-outlet.com,US,Americas,Northern America,United States of America,New York,,New York
162.243.243.115,4,2,cozilee.com,US,Americas,Northern America,United States of America,New York,,New York
38.86.171.137,4,-4,credit-land.com,US,Americas,Northern America,United States of America,New York,,New York
185.254.197.79,4,3011,cricfree.io,US,Americas,Northern America,United States of America,New York,,New York
45.45.219.29,4,5,csmedcenter.com,US,Americas,Northern America,United States of America,New York,,New York
45.45.219.30,4,5,csmedcenter.com,US,Americas,Northern America,United States of America,New York,,New York
104.206.204.144,4,9,culeague.com,US,Americas,Northern America,United States of America,New York,,New York
162.120.71.108,4,21,cybergirly.com,US,Americas,Northern America,United States of America,New York,,New York
192.241.174.109,4,3,dabblet.com,US,Americas,Northern America,United States of America,New York,,New York
107.170.142.58,4,12,dangrover.com,US,Americas,Northern America,United States of America,New York,,New York
192.241.253.233,4,0,deepundergroundpoetry.com,US,Americas,Northern America,United States of America,New York,,New York
162.243.99.166,4,35,diamondessays.com,US,Americas,Northern America,United States of America,New York,,New York
46.19.209.185,4,5,didww.com,US,Americas,Northern America,United States of America,New York,,New York
46.19.209.183,4,8,didww.com,US,Americas,Northern America,United States of America,New York,,New York
162.243.65.187,4,20,digitalhit.com,US,Americas,Northern America,United States of America,New York,,New York
192.241.191.61,4,8,dirtymarkup.com,US,Americas,Northern America,United States of America,New York,,New York
192.241.248.55,4,6,distroscale.com,US,Americas,Northern America,United States of America,New York,,New York
45.55.100.124,4,32,dmuth.org,US,Americas,Northern America,United States of America,New York,,New York
217.79.254.130,4,4,DNS Server: 217-79-254-130.static.hvvc.us,US,Americas,Northern America,United States of America,New York,,New York
163.182.154.76,4,-14,DNS Server: 76.154.182.163.naturalwireless.com,US,Americas,Northern America,United States of America,New York,,New York
66.65.164.188,4,1620,DNS Server: cpe-66-65-164-188.nyc.res.rr.com,US,Americas,Northern America,United States of America,New York,,New York
208.89.96.171,4,1174,DNS Server: exchange.traxi.com,US,Americas,Northern America,United States of America,New York,,New York
24.39.127.26,4,6955,DNS Server: gen-024-039-127-26.biz.spectrum.com,US,Americas,Northern America,United States of America,New York,,New York
40.131.39.197,4,12453,DNS Server: h197.39.131.40.static.ip.windstream.net,US,Americas,Northern America,United States of America,New York,,New York
98.7.37.185,4,8866,DNS Server: mta-98-7-37-185.nyc.rr.com,US,Americas,Northern America,United States of America,New York,,New York
216.107.137.50,4,17,dogsvets.com,US,Americas,Northern America,United States of America,New York,,New York
107.191.99.29,4,4,domaingang.com,US,Americas,Northern America,United States of America,New York,,New York
45.55.102.213,4,6,don-lindsay-archive.org,US,Americas,Northern America,United States of America,New York,,New York
162.243.97.37,4,9,dradis.com,US,Americas,Northern America,United States of America,New York,,New York
23.19.225.56,4,28,ebimarketing.com,US,Americas,Northern America,United States of America,New York,,New York
104.145.235.231,4,-2,ecf.org.il,US,Americas,Northern America,United States of America,New York,,New York
107.170.169.199,4,10,email-guru.com,US,Americas,Northern America,United States of America,New York,,New York
192.241.172.58,4,14,emilyreviews.com,US,Americas,Northern America,United States of America,New York,,New York
66.165.246.170,4,34,enercon.com.ar,US,Americas,Northern America,United States of America,New York,,New York
162.243.0.196,4,28,envio.org.ni,US,Americas,Northern America,United States of America,New York,,New York
209.95.52.130,4,5,etatvasoft.com,US,Americas,Northern America,United States of America,New York,,New York
23.29.118.197,4,-18,exportadoresbrasileiros.com.br,US,Americas,Northern America,United States of America,New York,,New York
192.241.181.89,4,3,faximum.com,US,Americas,Northern America,United States of America,New York,,New York
45.55.102.92,4,25,financialexpress-bd.com,US,Americas,Northern America,United States of America,New York,,New York
192.241.240.50,4,9,fitstopxp.com,US,Americas,Northern America,United States of America,New York,,New York
184.174.114.13,4,4,flightlevel350.com,US,Americas,Northern America,United States of America,New York,,New York
65.98.103.122,4,3533706,flooble.com,US,Americas,Northern America,United States of America,New York,,New York
190.102.105.227,4,420,fonar.com,US,Americas,Northern America,United States of America,New York,,New York
107.170.141.33,4,114,fonts4free.net,US,Americas,Northern America,United States of America,New York,,New York
162.243.200.11,4,35,foodb.ca,US,Americas,Northern America,United States of America,New York,,New York
162.243.227.8,4,1829,forgottenchicago.com,US,Americas,Northern America,United States of America,New York,,New York
144.208.124.55,4,8,fuerteventura-forum.com,US,Americas,Northern America,United States of America,New York,,New York
216.187.9.201,4,11,furnishedquarters.com,US,Americas,Northern America,United States of America,New York,,New York
168.235.88.148,4,-6,ghisler.com,US,Americas,Northern America,United States of America,New York,,New York
107.170.54.196,4,2437287,gl-advert-delivery.com,US,Americas,Northern America,United States of America,New York,,New York
23.29.118.141,4,-9,globalrights.org,US,Americas,Northern America,United States of America,New York,,New York
23.92.78.216,4,3,govisithawaii.com,US,Americas,Northern America,United States of America,New York,,New York
208.123.116.74,4,16,granatcasino.com,US,Americas,Northern America,United States of America,New York,,New York
192.241.163.13,4,1164212,habariproject.org,US,Americas,Northern America,United States of America,New York,,New York
139.60.160.38,4,4,handyarchive.com,US,Americas,Northern America,United States of America,New York,,New York
104.145.235.88,4,1,harmj0y.net,US,Americas,Northern America,United States of America,New York,,New York
107.170.59.87,4,48,healthpowerhouse.com,US,Americas,Northern America,United States of America,New York,,New York
173.231.40.34,4,8,henrythehand.com,US,Americas,Northern America,United States of America,New York,,New York
107.170.21.112,4,8,heroicrelics.org,US,Americas,Northern America,United States of America,New York,,New York
209.208.110.86,4,301,hipermailer.com.ar,US,Americas,Northern America,United States of America,New York,,New York
23.105.128.11,4,67380,hofmann.org,US,Americas,Northern America,United States of America,New York,,New York
162.243.1.212,4,27,homeschoolon.com,US,Americas,Northern America,United States of America,New York,,New York
216.98.102.129,4,36,honda-ri.com,US,Americas,Northern America,United States of America,New York,,New York
209.95.52.152,4,4,i-gifts.su,US,Americas,Northern America,United States of America,New York,,New York
107.170.160.49,4,4,identi.ca,US,Americas,Northern America,United States of America,New York,,New York
144.208.127.117,4,9,ijsn.net,US,Americas,Northern America,United States of America,New York,,New York
159.203.155.10,4,6,imrussia.org,US,Americas,Northern America,United States of America,New York,,New York
162.243.4.56,4,1420328,inclusion.co.ke,US,Americas,Northern America,United States of America,New York,,New York
199.232.39.7,4,8,indi.ca,US,Americas,Northern America,United States of America,New York,,New York
162.243.47.94,4,65036,infomotions.com,US,Americas,Northern America,United States of America,New York,,New York
107.170.164.113,4,89,internalpointers.com,US,Americas,Northern America,United States of America,New York,,New York
192.241.165.201,4,6,ioscallrecorder.net,US,Americas,Northern America,United States of America,New York,,New York
45.55.103.11,4,2801,jacksonholetraveler.com,US,Americas,Northern America,United States of America,New York,,New York
162.243.7.132,4,35,jacksonimmuno.com,US,Americas,Northern America,United States of America,New York,,New York
104.131.200.142,4,5277377,jigsaw.org,US,Americas,Northern America,United States of America,New York,,New York
209.95.50.27,4,24,joomag.com,US,Americas,Northern America,United States of America,New York,,New York
216.107.137.52,4,5,kyourc.com,US,Americas,Northern America,United States of America,New York,,New York
192.241.183.225,4,2660778,ladyada.net,US,Americas,Northern America,United States of America,New York,,New York
185.213.26.132,4,32,latinosdelmundo.com,US,Americas,Northern America,United States of America,New York,,New York
104.131.213.144,4,23,lesbiemates.com,US,Americas,Northern America,United States of America,New York,,New York
69.36.182.72,4,25,letmegooglethat.com,US,Americas,Northern America,United States of America,New York,,New York
162.243.54.214,4,1845207,librenix.com,US,Americas,Northern America,United States of America,New York,,New York
162.243.54.209,4,9536,likee.tw,US,Americas,Northern America,United States of America,New York,,New York
107.191.99.162,4,1,liwc.app,US,Americas,Northern America,United States of America,New York,,New York
107.182.225.67,4,0,lizardpoint.com,US,Americas,Northern America,United States of America,New York,,New York
209.95.50.105,4,1,lo4d.com,US,Americas,Northern America,United States of America,New York,,New York
192.241.244.137,4,4,loaris.app,US,Americas,Northern America,United States of America,New York,,New York
192.241.188.56,4,38,loganix.net,US,Americas,Northern America,United States of America,New York,,New York
107.170.35.177,4,2410798,luvly.co,US,Americas,Northern America,United States of America,New York,,New York
107.182.225.31,4,1,machutravelperu.com,US,Americas,Northern America,United States of America,New York,,New York
107.170.105.41,4,2,makeitpersonal.co,US,Americas,Northern America,United States of America,New York,,New York
162.243.76.245,4,54,media56.com,US,Americas,Northern America,United States of America,New York,,New York
66.165.244.99,4,29,medieval-europe.eu,US,Americas,Northern America,United States of America,New York,,New York
104.225.216.213,4,16,megaleecher.net,US,Americas,Northern America,United States of America,New York,,New York
23.29.119.99,4,6,melodyloops.com,US,Americas,Northern America,United States of America,New York,,New York
162.243.53.179,4,3,menshaircuts.com,US,Americas,Northern America,United States of America,New York,,New York
192.241.181.41,4,-1,merchline.com,US,Americas,Northern America,United States of America,New York,,New York
64.31.24.186,4,8,metodoesolucoes.com.br,US,Americas,Northern America,United States of America,New York,,New York
192.241.186.184,4,29,mikeash.com,US,Americas,Northern America,United States of America,New York,,New York
66.165.235.210,4,2,mtexpo.com.br,US,Americas,Northern America,United States of America,New York,,New York
162.243.214.85,4,-11740,multichain.com,US,Americas,Northern America,United States of America,New York,,New York
192.241.166.166,4,89,musicforamerica.org,US,Americas,Northern America,United States of America,New York,,New York
66.165.234.106,4,2,myparishapp.com,US,Americas,Northern America,United States of America,New York,,New York
107.170.51.81,4,-121020,ncmonline.com,US,Americas,Northern America,United States of America,New York,,New York
104.131.222.197,4,4,newmediadenver.com,US,Americas,Northern America,United States of America,New York,,New York
66.206.1.194,4,6,newyorkbyrail.com,US,Americas,Northern America,United States of America,New York,,New York
199.38.181.83,4,6,nobandwidth.net,US,Americas,Northern America,United States of America,New York,,New York
192.241.246.48,4,63,norweco.com,US,Americas,Northern America,United States of America,New York,,New York
107.170.112.160,4,8,ocenaudio.com,US,Americas,Northern America,United States of America,New York,,New York
190.102.105.235,4,33,oeffentlicher-dienst.info,US,Americas,Northern America,United States of America,New York,,New York
174.138.177.173,4,25,onlinedigitalbookmark.com,US,Americas,Northern America,United States of America,New York,,New York
158.106.210.217,4,2111256,Ookla Speedtest Server 13098: speedtest.pilotfiber.com,US,Americas,Northern America,United States of America,New York,,New York
23.151.137.21,4,200,Ookla Speedtest Server 15735: speedtest.nyc.macarne.com,US,Americas,Northern America,United States of America,New York,,New York
154.27.119.2,4,261,Ookla Speedtest Server 21016: speedtest-server-nyc.starry.com,US,Americas,Northern America,United States of America,New York,,New York
160.202.167.59,4,286,Ookla Speedtest Server 46120: ny2.speedtest.gslnetworks.com,US,Americas,Northern America,United States of America,New York,,New York
64.185.225.129,4,246,Ookla Speedtest Server 51171: nyc1-speedtest.webnx.com,US,Americas,Northern America,United States of America,New York,,New York
107.170.63.163,4,10,openaps.org,US,Americas,Northern America,United States of America,New York,,New York
65.181.120.52,4,270,orangesmile.com,US,Americas,Northern America,United States of America,New York,,New York
185.43.108.134,4,37,orionfans.com,US,Americas,Northern America,United States of America,New York,,New York
162.243.214.163,4,159897,ozdeal.net,US,Americas,Northern America,United States of America,New York,,New York
45.55.101.192,4,45,paleycenter.org,US,Americas,Northern America,United States of America,New York,,New York
162.243.240.67,4,2,pbfcomics.com,US,Americas,Northern America,United States of America,New York,,New York
107.170.33.193,4,-149313,phenol-explorer.eu,US,Americas,Northern America,United States of America,New York,,New York
162.243.104.221,4,19151,pinklink.ca,US,Americas,Northern America,United States of America,New York,,New York
139.60.161.59,4,28,planetcalc.com,US,Americas,Northern America,United States of America,New York,,New York
184.174.114.158,4,3,playblackjack21.org,US,Americas,Northern America,United States of America,New York,,New York
91.237.143.103,4,3,plunge-in.at,US,Americas,Northern America,United States of America,New York,,New York
162.243.244.88,4,-53053,poetryx.com,US,Americas,Northern America,United States of America,New York,,New York
104.192.218.19,4,47,politicalaffairs.net,US,Americas,Northern America,United States of America,New York,,New York
107.155.100.118,4,17,poweredtemplates.com,US,Americas,Northern America,United States of America,New York,,New York
107.170.174.141,4,32,pricelabs.co,US,Americas,Northern America,United States of America,New York,,New York
209.95.52.110,4,56,print-driver.com,US,Americas,Northern America,United States of America,New York,,New York
23.29.112.245,4,63,privateschoolreview.com,US,Americas,Northern America,United States of America,New York,,New York
162.243.228.214,4,23,prpbooks.com,US,Americas,Northern America,United States of America,New York,,New York
23.29.112.248,4,69,publicschoolreview.com,US,Americas,Northern America,United States of America,New York,,New York
144.208.125.231,4,26,puneescorts1.in,US,Americas,Northern America,United States of America,New York,,New York
70.23.27.203,4,107,pyleaudio.com,US,Americas,Northern America,United States of America,New York,,New York
199.232.39.10,4,76,raffles.com,US,Americas,Northern America,United States of America,New York,,New York
23.29.112.249,4,66,ratemyfishtank.com,US,Americas,Northern America,United States of America,New York,,New York
162.243.64.59,4,29,re.cr,US,Americas,Northern America,United States of America,New York,,New York
162.243.234.131,4,-98613,recallguide.org,US,Americas,Northern America,United States of America,New York,,New York
162.120.71.87,4,15,remodelforums.com,US,Americas,Northern America,United States of America,New York,,New York
192.241.181.224,4,41,repoze.org,US,Americas,Northern America,United States of America,New York,,New York
89.187.179.215,4,54,restaurantguru.com,US,Americas,Northern America,United States of America,New York,,New York
38.86.171.145,4,217,rewardexpert.com,US,Americas,Northern America,United States of America,New York,,New York
162.243.24.125,4,21,ricmais.com.br,US,Americas,Northern America,United States of America,New York,,New York
129.85.244.162,4,7,rockefeller.edu,US,Americas,Northern America,United States of America,New York,,New York
192.241.183.221,4,4,rsjoomla.com,US,Americas,Northern America,United States of America,New York,,New York
162.243.20.169,4,2017848,rubyinside.com,US,Americas,Northern America,United States of America,New York,,New York
129.85.244.41,4,42,rucares.org,US,Americas,Northern America,United States of America,New York,,New York
151.101.45.91,4,10,rufflebutts.com,US,Americas,Northern America,United States of America,New York,,New York
172.96.166.250,4,0,samefo.ge,US,Americas,Northern America,United States of America,New York,,New York
159.203.154.65,4,7,sanon.org,US,Americas,Northern America,United States of America,New York,,New York
173.239.8.164,4,10,schematicheaven.com,US,Americas,Northern America,United States of America,New York,,New York
173.239.5.6,4,7,schematicheaven.com,US,Americas,Northern America,United States of America,New York,,New York
107.170.117.143,4,14883,sclegacy.com,US,Americas,Northern America,United States of America,New York,,New York
162.243.229.151,4,13371,scottberkun.com,US,Americas,Northern America,United States of America,New York,,New York
192.241.172.73,4,8,scrumblr.ca,US,Americas,Northern America,United States of America,New York,,New York
104.114.72.201,4,1,sddac.com,US,Americas,Northern America,United States of America,New York,,New York
104.114.72.192,4,0,sddac.com,US,Americas,Northern America,United States of America,New York,,New York
172.93.49.102,4,2,sgc-hosting.com,US,Americas,Northern America,United States of America,New York,,New York
129.250.47.99,4,-35138,shrubbery.net,US,Americas,Northern America,United States of America,New York,,New York
107.170.17.60,4,4,simsettlements.com,US,Americas,Northern America,United States of America,New York,,New York
162.243.59.251,4,16,smarterthemes.com,US,Americas,Northern America,United States of America,New York,,New York
192.241.240.123,4,1036906,sni.org,US,Americas,Northern America,United States of America,New York,,New York
66.23.202.34,4,14,snoopreport.com,US,Americas,Northern America,United States of America,New York,,New York
162.243.18.32,4,372580,so-il.org,US,Americas,Northern America,United States of America,New York,,New York
192.241.245.95,4,37,socialpsychology.org,US,Americas,Northern America,United States of America,New York,,New York
162.243.116.64,4,26,softorbits.com,US,Americas,Northern America,United States of America,New York,,New York
168.235.91.80,4,56,somalispot.com,US,Americas,Northern America,United States of America,New York,,New York
45.55.100.102,4,2,sopacnow.org,US,Americas,Northern America,United States of America,New York,,New York
104.131.221.246,4,7,speeddater.co.uk,US,Americas,Northern America,United States of America,New York,,New York
208.123.116.78,4,51,spheralsolar.com,US,Americas,Northern America,United States of America,New York,,New York
207.251.84.210,4,39,stealth.net,US,Americas,Northern America,United States of America,New York,,New York
199.232.37.124,4,144,stemcell.com,US,Americas,Northern America,United States of America,New York,,New York
128.59.241.85,4,8,stlr.org,US,Americas,Northern America,United States of America,New York,,New York
128.59.16.27,4,-5,stroustrup.com,US,Americas,Northern America,United States of America,New York,,New York
104.131.241.32,4,541307,sunna.info,US,Americas,Northern America,United States of America,New York,,New York
192.241.181.24,4,9,svn.com,US,Americas,Northern America,United States of America,New York,,New York
209.95.52.31,4,3,t1shopper.com,US,Americas,Northern America,United States of America,New York,,New York
107.170.114.201,4,0,t3db.ca,US,Americas,Northern America,United States of America,New York,,New York
209.95.51.187,4,-1,tanzil.info,US,Americas,Northern America,United States of America,New York,,New York
162.243.74.95,4,2,tapiriik.com,US,Americas,Northern America,United States of America,New York,,New York
107.182.225.101,4,5,tatvasoft.co.uk,US,Americas,Northern America,United States of America,New York,,New York
107.191.99.131,4,41,teamfortress.tv,US,Americas,Northern America,United States of America,New York,,New York
138.199.40.9,4,26,techpowerup.com,US,Americas,Northern America,United States of America,New York,,New York
23.92.78.214,4,3,templemount.org,US,Americas,Northern America,United States of America,New York,,New York
104.131.212.51,4,41,tenderbang.com,US,Americas,Northern America,United States of America,New York,,New York
162.243.24.7,4,3,tendermeets.com,US,Americas,Northern America,United States of America,New York,,New York
104.206.204.110,4,48,tents-bg.com,US,Americas,Northern America,United States of America,New York,,New York
192.241.244.192,4,990948,thebestcasescenario.com,US,Americas,Northern America,United States of America,New York,,New York
162.243.49.164,4,30,themefuse.com,US,Americas,Northern America,United States of America,New York,,New York
192.169.88.62,4,1,themontserratreporter.com,US,Americas,Northern America,United States of America,New York,,New York
162.243.121.232,4,36,thisismyjam.com,US,Americas,Northern America,United States of America,New York,,New York
107.170.76.182,4,3,tickerforum.org,US,Americas,Northern America,United States of America,New York,,New York
45.55.100.46,4,806716,timelinetheatre.com,US,Americas,Northern America,United States of America,New York,,New York
66.206.0.51,4,31,tomorrowsleep.com,US,Americas,Northern America,United States of America,New York,,New York
173.239.15.12,4,151458,totalproexpo.com,US,Americas,Northern America,United States of America,New York,,New York
162.243.6.157,4,4815981,tpww.net,US,Americas,Northern America,United States of America,New York,,New York
209.95.52.18,4,3,tradesmeninternational.com,US,Americas,Northern America,United States of America,New York,,New York
162.120.71.51,4,26,triketalk.com,US,Americas,Northern America,United States of America,New York,,New York
162.243.2.58,4,14,trueremedies.com,US,Americas,Northern America,United States of America,New York,,New York
209.95.52.135,4,-2,ts-market.com,US,Americas,Northern America,United States of America,New York,,New York
23.92.78.34,4,4,tuxreports.com,US,Americas,Northern America,United States of America,New York,,New York
192.241.184.110,4,3,ututo.org,US,Americas,Northern America,United States of America,New York,,New York
192.241.162.251,4,-1088226,vcexperts.com,US,Americas,Northern America,United States of America,New York,,New York
162.120.71.227,4,11,vegasfanatics.com,US,Americas,Northern America,United States of America,New York,,New York
162.243.222.89,4,12,vgmusic.com,US,Americas,Northern America,United States of America,New York,,New York
216.107.137.48,4,2,viagramall.top,US,Americas,Northern America,United States of America,New York,,New York
162.243.206.165,4,769625,viewstl.com,US,Americas,Northern America,United States of America,New York,,New York
107.170.77.193,4,141707,voodoopad.com,US,Americas,Northern America,United States of America,New York,,New York
174.128.43.94,4,3,votersunite.org,US,Americas,Northern America,United States of America,New York,,New York
98.142.107.123,4,515,warlinks.com,US,Americas,Northern America,United States of America,New York,,New York
185.254.197.149,4,14,wavesense.info,US,Americas,Northern America,United States of America,New York,,New York
172.93.49.252,4,16,wiby.org,US,Americas,Northern America,United States of America,New York,,New York
144.208.124.87,4,52,wikiality.com,US,Americas,Northern America,United States of America,New York,,New York
107.170.77.187,4,67,wikimapping.com,US,Americas,Northern America,United States of America,New York,,New York
107.170.28.205,4,58,willhackforsushi.com,US,Americas,Northern America,United States of America,New York,,New York
184.174.115.1,4,598,wiselivingjournal.com,US,Americas,Northern America,United States of America,New York,,New York
157.185.170.72,4,1,worldspinner.us,US,Americas,Northern America,United States of America,New York,,New York
157.185.170.108,4,3,worldspinner.us,US,Americas,Northern America,United States of America,New York,,New York
194.113.75.227,4,7,wpcrafter.com,US,Americas,Northern America,United States of America,New York,,New York
162.243.53.97,4,0,writerslabs.com,US,Americas,Northern America,United States of America,New York,,New York
64.31.53.154,4,47,writessay.org,US,Americas,Northern America,United States of America,New York,,New York
107.170.6.25,4,4,wrxatlanta.com,US,Americas,Northern America,United States of America,New York,,New York
147.75.40.150,4,5,wynnbet.com,US,Americas,Northern America,United States of America,New York,,New York
162.243.7.180,4,4,xn--sr8hvo.ws,US,Americas,Northern America,United States of America,New York,,New York
162.243.225.159,4,1938949,yellowbarn.org,US,Americas,Northern America,United States of America,New York,,New York
192.241.160.113,4,-38782,youthhawk.co.uk,US,Americas,Northern America,United States of America,New York,,New York
192.241.161.86,4,18,zachman.com,US,Americas,Northern America,United States of America,New York,,New York
162.243.126.125,4,10,zipzapmac.com,US,Americas,Northern America,United States of America,New York,,New York
162.243.228.108,4,-48647,zlio.com,US,Americas,Northern America,United States of America,New York,,New York
23.19.225.43,4,0,zomi.net,US,Americas,Northern America,United States of America,New York,,New York
192.241.186.41,4,-1,zspc.com,US,Americas,Northern America,United States of America,New York,,New York
