reflector_ip,ip_version,offset,description,country_code,region,sub_region,country_name,sub_division_1,sub_division_2,city
181.214.149.38,4,65,afana.com,US,Americas,Northern America,United States of America,New York,,Latham
173.198.197.59,4,4,atlasweb.cz,US,Americas,Northern America,United States of America,New York,,Latham
173.198.248.232,4,22,bookmybabes.co.in,US,Americas,Northern America,United States of America,New York,,Latham
173.198.205.252,4,9,bookyourgf.com,US,Americas,Northern America,United States of America,New York,,Latham
173.198.254.198,4,899,buffettworld.com,US,Americas,Northern America,United States of America,New York,,Latham
163.182.174.254,4,4,cbtrends.com,US,Americas,Northern America,United States of America,New York,,Latham
173.198.240.152,4,16,chessrivals.net,US,Americas,Northern America,United States of America,New York,,Latham
173.198.251.155,4,130,cityescortsdelhi.com,US,Americas,Northern America,United States of America,New York,,Latham
173.233.68.171,4,56,communityreachcenter.org,US,Americas,Northern America,United States of America,New York,,Latham
173.198.245.247,4,5,correttoregrammaticale.top,US,Americas,Northern America,United States of America,New York,,Latham
173.233.70.215,4,2,crazydipika.com,US,Americas,Northern America,United States of America,New York,,Latham
173.198.204.90,4,43,crc.org,US,Americas,Northern America,United States of America,New York,,Latham
173.198.234.8,4,5,dchats.top,US,Americas,Northern America,United States of America,New York,,Latham
173.198.233.174,4,4,dealbranza.com,US,Americas,Northern America,United States of America,New York,,Latham
173.233.66.91,4,31,delhi-call-girls.com,US,Americas,Northern America,United States of America,New York,,Latham
173.198.220.105,4,6,delhiescortsfun.com,US,Americas,Northern America,United States of America,New York,,Latham
173.198.238.58,4,3,dipikamehta.com,US,Americas,Northern America,United States of America,New York,,Latham
173.233.68.201,4,57,directoryvision.com,US,Americas,Northern America,United States of America,New York,,Latham
173.233.94.191,4,6,downinspector.com,US,Americas,Northern America,United States of America,New York,,Latham
173.198.241.7,4,44,dveryoptom.com,US,Americas,Northern America,United States of America,New York,,Latham
173.198.209.123,4,1,embassyhomepage.com,US,Americas,Northern America,United States of America,New York,,Latham
173.198.231.209,4,1,eurasiafuture.com,US,Americas,Northern America,United States of America,New York,,Latham
173.233.82.242,4,57,film.org,US,Americas,Northern America,United States of America,New York,,Latham
173.233.83.90,4,2,gayhookups.net,US,Americas,Northern America,United States of America,New York,,Latham
163.182.170.17,4,7,goodhouse.com.tw,US,Americas,Northern America,United States of America,New York,,Latham
173.198.198.11,4,10,harvoni.space,US,Americas,Northern America,United States of America,New York,,Latham
173.198.196.93,4,3,heavenmumbai.com,US,Americas,Northern America,United States of America,New York,,Latham
173.198.223.227,4,9,hotishadubey.com,US,Americas,Northern America,United States of America,New York,,Latham
173.198.194.23,4,10,isajain.com,US,Americas,Northern America,United States of America,New York,,Latham
173.198.233.55,4,3,jenakapoor.com,US,Americas,Northern America,United States of America,New York,,Latham
173.233.75.27,4,2,kavyalamba.com,US,Americas,Northern America,United States of America,New York,,Latham
173.198.235.126,4,10,lavocedinewyork.com,US,Americas,Northern America,United States of America,New York,,Latham
173.233.82.50,4,3,lawprudentia.com,US,Americas,Northern America,United States of America,New York,,Latham
173.233.68.249,4,62,logoorange.com,US,Americas,Northern America,United States of America,New York,,Latham
173.198.218.135,4,13,lowescouponn.com,US,Americas,Northern America,United States of America,New York,,Latham
173.233.64.158,4,13,modafiniludenrecept.space,US,Americas,Northern America,United States of America,New York,,Latham
173.198.254.162,4,28,monawalia.com,US,Americas,Northern America,United States of America,New York,,Latham
173.233.94.66,4,5,mpbusinessmag.com,US,Americas,Northern America,United States of America,New York,,Latham
173.198.197.213,4,3,msdipika.com,US,Americas,Northern America,United States of America,New York,,Latham
173.233.93.38,4,1,mumblit.com,US,Americas,Northern America,United States of America,New York,,Latham
173.198.220.141,4,34,nehababe.com,US,Americas,Northern America,United States of America,New York,,Latham
173.198.246.109,4,4,nehamumbai.com,US,Americas,Northern America,United States of America,New York,,Latham
173.198.223.205,4,3,nitachopra.com,US,Americas,Northern America,United States of America,New York,,Latham
173.233.89.149,4,26,noidacallgirls.com,US,Americas,Northern America,United States of America,New York,,Latham
173.198.226.142,4,28,noidacallgirlservice.com,US,Americas,Northern America,United States of America,New York,,Latham
173.233.70.114,4,2,oraoman.com,US,Americas,Northern America,United States of America,New York,,Latham
173.233.84.226,4,2,otranation.com,US,Americas,Northern America,United States of America,New York,,Latham
173.233.84.234,4,26,palestino.cl,US,Americas,Northern America,United States of America,New York,,Latham
173.198.220.153,4,22,petnetid.com,US,Americas,Northern America,United States of America,New York,,Latham
173.233.65.46,4,34,pia.org,US,Americas,Northern America,United States of America,New York,,Latham
173.198.193.132,4,3,preetydesai.com,US,Americas,Northern America,United States of America,New York,,Latham
173.198.232.120,4,56,rachnarawat.com,US,Americas,Northern America,United States of America,New York,,Latham
173.198.217.248,4,29,raipartygirl.com,US,Americas,Northern America,United States of America,New York,,Latham
173.233.85.39,4,10,ramyasen.com,US,Americas,Northern America,United States of America,New York,,Latham
163.182.170.165,4,19,rasnainternational.com,US,Americas,Northern America,United States of America,New York,,Latham
173.198.199.13,4,26,rentabeauties.com,US,Americas,Northern America,United States of America,New York,,Latham
173.233.66.106,4,2,rentyourbabes.com,US,Americas,Northern America,United States of America,New York,,Latham
173.198.215.17,4,8,riyabansal.com,US,Americas,Northern America,United States of America,New York,,Latham
173.198.246.75,4,3,riyabhatt.com,US,Americas,Northern America,United States of America,New York,,Latham
173.233.77.106,4,2,riyagarg.com,US,Americas,Northern America,United States of America,New York,,Latham
163.182.174.250,4,41,rooms101.com,US,Americas,Northern America,United States of America,New York,,Latham
163.182.168.85,4,61,russianbeautiess.com,US,Americas,Northern America,United States of America,New York,,Latham
173.198.244.45,4,4,sameerapatel.com,US,Americas,Northern America,United States of America,New York,,Latham
173.198.216.242,4,8,sexydelhicityescorts.com,US,Americas,Northern America,United States of America,New York,,Latham
173.198.234.59,4,2,shinaroy.com,US,Americas,Northern America,United States of America,New York,,Latham
173.233.84.42,4,2,shrutiescort.com,US,Americas,Northern America,United States of America,New York,,Latham
173.233.64.153,4,1,siyamathur.com,US,Americas,Northern America,United States of America,New York,,Latham
173.198.250.234,4,13,slivki24.club,US,Americas,Northern America,United States of America,New York,,Latham
173.198.234.163,4,6,snehakaur.com,US,Americas,Northern America,United States of America,New York,,Latham
173.198.226.229,4,68,sonamgarg.com,US,Americas,Northern America,United States of America,New York,,Latham
173.198.245.253,4,2,southbeauties.com,US,Americas,Northern America,United States of America,New York,,Latham
173.198.198.36,4,3,sportsnt.com.tw,US,Americas,Northern America,United States of America,New York,,Latham
173.198.193.103,4,22,sprites-inc.co.uk,US,Americas,Northern America,United States of America,New York,,Latham
173.198.234.146,4,7,stromectolrf.online,US,Americas,Northern America,United States of America,New York,,Latham
173.198.196.58,4,60,stylishdipika.com,US,Americas,Northern America,United States of America,New York,,Latham
173.233.89.66,4,3,swin55.online,US,Americas,Northern America,United States of America,New York,,Latham
173.198.205.144,4,7,tanyaahuja.com,US,Americas,Northern America,United States of America,New York,,Latham
173.198.221.167,4,4,tanyabansal.com,US,Americas,Northern America,United States of America,New York,,Latham
173.233.67.240,4,29,tinaoberoi.in,US,Americas,Northern America,United States of America,New York,,Latham
173.198.198.251,4,8,tradefolios.com,US,Americas,Northern America,United States of America,New York,,Latham
173.233.92.227,4,588,trsite.org,US,Americas,Northern America,United States of America,New York,,Latham
173.233.95.27,4,748,turnkeyinternet.net,US,Americas,Northern America,United States of America,New York,,Latham
173.233.84.149,4,7,usgcambodia.com,US,Americas,Northern America,United States of America,New York,,Latham
173.198.206.32,4,3,vipmodelshub.com,US,Americas,Northern America,United States of America,New York,,Latham
173.198.220.36,4,3,wpsuo.com,US,Americas,Northern America,United States of America,New York,,Latham
173.233.65.77,4,13,zaramirja.com,US,Americas,Northern America,United States of America,New York,,Latham
