reflector_ip,ip_version,offset,description,country_code,region,sub_region,country_name,sub_division_1,sub_division_2,city
179.61.232.222,4,2293,7go.pw,US,Americas,Northern America,United States of America,New York,,Buffalo
154.16.115.145,4,2289,7go.website,US,Americas,Northern America,United States of America,New York,,Buffalo
190.92.168.186,4,-1,ace4sure.com,US,Americas,Northern America,United States of America,New York,,Buffalo
65.181.111.161,4,2,acform.com,US,Americas,Northern America,United States of America,New York,,Buffalo
192.3.164.100,4,4,adztv.co.il,US,Americas,Northern America,United States of America,New York,,Buffalo
192.210.151.170,4,125,africancircuitsafaris.com,US,Americas,Northern America,United States of America,New York,,Buffalo
181.214.142.172,4,2,africasciencenews.org,US,Americas,Northern America,United States of America,New York,,Buffalo
198.20.167.150,4,38,allartclassic.com,US,Americas,Northern America,United States of America,New York,,Buffalo
198.144.188.142,4,3,allinterview.com,US,Americas,Northern America,United States of America,New York,,Buffalo
192.241.87.0,4,387,amoxicillinztab.com,US,Americas,Northern America,United States of America,New York,,Buffalo
65.181.111.251,4,7,ampi.org,US,Americas,Northern America,United States of America,New York,,Buffalo
198.23.253.90,4,28,amymedicalstaffing.com,US,Americas,Northern America,United States of America,New York,,Buffalo
154.16.114.250,4,25,anesi.com,US,Americas,Northern America,United States of America,New York,,Buffalo
104.145.237.76,4,14,arbitragemauto.pt,US,Americas,Northern America,United States of America,New York,,Buffalo
23.236.164.198,4,19,arch-teh.com,US,Americas,Northern America,United States of America,New York,,Buffalo
65.181.111.159,4,60,avc.edu.lr,US,Americas,Northern America,United States of America,New York,,Buffalo
65.181.111.145,4,8,aviacionaldia.com,US,Americas,Northern America,United States of America,New York,,Buffalo
65.181.111.30,4,0,avoision.com,US,Americas,Northern America,United States of America,New York,,Buffalo
192.250.225.62,4,2,bash.org,US,Americas,Northern America,United States of America,New York,,Buffalo
38.170.62.210,4,514,behaviour-driven.org,US,Americas,Northern America,United States of America,New York,,Buffalo
192.3.11.26,4,6,bitcoinknots.org,US,Americas,Northern America,United States of America,New York,,Buffalo
38.154.94.201,4,-1,biznewspost.com,US,Americas,Northern America,United States of America,New York,,Buffalo
192.186.132.118,4,-466,brainpulse.com,US,Americas,Northern America,United States of America,New York,,Buffalo
192.241.74.225,4,409,brisbaneorganicmarket.com,US,Americas,Northern America,United States of America,New York,,Buffalo
192.243.110.14,4,3,btoes.com,US,Americas,Northern America,United States of America,New York,,Buffalo
192.227.172.66,4,33,cahiralkshah.com,US,Americas,Northern America,United States of America,New York,,Buffalo
38.170.76.196,4,33,calresco.org,US,Americas,Northern America,United States of America,New York,,Buffalo
198.23.142.135,4,23,capcess.com,US,Americas,Northern America,United States of America,New York,,Buffalo
104.168.68.113,4,5,carl-jung.net,US,Americas,Northern America,United States of America,New York,,Buffalo
179.61.137.164,4,-9,cars-data.com,US,Americas,Northern America,United States of America,New York,,Buffalo
192.227.220.181,4,-7,cavandoragh.org,US,Americas,Northern America,United States of America,New York,,Buffalo
5.226.171.41,4,16,celebsfacts.com,US,Americas,Northern America,United States of America,New York,,Buffalo
172.245.13.98,4,12,chadstonetabletennis.com,US,Americas,Northern America,United States of America,New York,,Buffalo
65.181.111.124,4,9,chanjingzx.com,US,Americas,Northern America,United States of America,New York,,Buffalo
23.236.167.43,4,393,chck.info,US,Americas,Northern America,United States of America,New York,,Buffalo
198.245.64.196,4,-26,chemi-con.com,US,Americas,Northern America,United States of America,New York,,Buffalo
198.23.211.54,4,5,chicagovps.net,US,Americas,Northern America,United States of America,New York,,Buffalo
69.4.80.171,4,-228,chillspot1.com,US,Americas,Northern America,United States of America,New York,,Buffalo
23.95.102.154,4,1,chinemile.com,US,Americas,Northern America,United States of America,New York,,Buffalo
38.153.41.196,4,731,ciec.org,US,Americas,Northern America,United States of America,New York,,Buffalo
38.170.72.192,4,912,clannada.org,US,Americas,Northern America,United States of America,New York,,Buffalo
23.95.12.147,4,1,colocrossing.com,US,Americas,Northern America,United States of America,New York,,Buffalo
23.95.9.155,4,10,comenalco.com,US,Americas,Northern America,United States of America,New York,,Buffalo
107.173.134.28,4,31,commune-bourre.com,US,Americas,Northern America,United States of America,New York,,Buffalo
23.229.52.150,4,67,coronafm.net,US,Americas,Northern America,United States of America,New York,,Buffalo
23.95.164.196,4,1,corz.org,US,Americas,Northern America,United States of America,New York,,Buffalo
65.181.111.180,4,39,councilforeuropeanstudies.org,US,Americas,Northern America,United States of America,New York,,Buffalo
38.154.144.242,4,2848,couponswebdeal.com,US,Americas,Northern America,United States of America,New York,,Buffalo
198.20.175.106,4,18,crazzfiles.com,US,Americas,Northern America,United States of America,New York,,Buffalo
198.12.64.202,4,1,ctstate.edu,US,Americas,Northern America,United States of America,New York,,Buffalo
181.214.142.230,4,-1,cyprusinstitutes.com,US,Americas,Northern America,United States of America,New York,,Buffalo
192.3.11.24,4,24,dashjr.org,US,Americas,Northern America,United States of America,New York,,Buffalo
192.3.11.20,4,40,dashjr.org,US,Americas,Northern America,United States of America,New York,,Buffalo
198.23.211.106,4,1118,dglassandmirror.com,US,Americas,Northern America,United States of America,New York,,Buffalo
23.94.166.98,4,0,diannaobos.com,US,Americas,Northern America,United States of America,New York,,Buffalo
23.229.51.44,4,322,digiconegraphics.com,US,Americas,Northern America,United States of America,New York,,Buffalo
38.154.144.244,4,2832,digitalhikes.com,US,Americas,Northern America,United States of America,New York,,Buffalo
104.168.122.188,4,-9,DNS Server: 104-168-122-188-host.colocrossing.com,US,Americas,Northern America,United States of America,New York,,Buffalo
107.173.114.102,4,21,DNS Server: 107-173-114-102-host.colocrossing.com,US,Americas,Northern America,United States of America,New York,,Buffalo
172.245.187.126,4,-37145,DNS Server: 172-245-187-126-host.colocrossing.com,US,Americas,Northern America,United States of America,New York,,Buffalo
192.210.186.173,4,8,DNS Server: 192-210-186-173-host.colocrossing.com,US,Americas,Northern America,United States of America,New York,,Buffalo
192.3.165.102,4,2,DNS Server: 192-3-165-102-host.colocrossing.com,US,Americas,Northern America,United States of America,New York,,Buffalo
192.3.165.37,4,11,DNS Server: 192-3-165-37-host.colocrossing.com,US,Americas,Northern America,United States of America,New York,,Buffalo
23.95.164.149,4,2,DNS Server: 23-95-164-149-host.colocrossing.com,US,Americas,Northern America,United States of America,New York,,Buffalo
5.61.27.148,4,235,DNS Server: 5-61-27-148.nrp.co,US,Americas,Northern America,United States of America,New York,,Buffalo
98.5.243.104,4,416,DNS Server: cpe-98-5-243-104.buffalo.res.rr.com,US,Americas,Northern America,United States of America,New York,,Buffalo
172.245.118.121,4,147,DNS Server: phole.allns.fr,US,Americas,Northern America,United States of America,New York,,Buffalo
107.173.114.10,4,123,DNS Server: pi.de4.xyz,US,Americas,Northern America,United States of America,New York,,Buffalo
65.181.111.179,4,94,dsngrid.com,US,Americas,Northern America,United States of America,New York,,Buffalo
190.92.169.74,4,30,dumps4free.com,US,Americas,Northern America,United States of America,New York,,Buffalo
190.92.168.69,4,104,dumpsmate.com,US,Americas,Northern America,United States of America,New York,,Buffalo
192.250.231.89,4,0,dumpstool.com,US,Americas,Northern America,United States of America,New York,,Buffalo
66.248.241.160,4,93327,dusp.org,US,Americas,Northern America,United States of America,New York,,Buffalo
192.243.110.3,4,16,earthquestion.com,US,Americas,Northern America,United States of America,New York,,Buffalo
191.96.165.203,4,73,eldoradocountyweather.com,US,Americas,Northern America,United States of America,New York,,Buffalo
23.229.43.50,4,473,ereadcost.eu,US,Americas,Northern America,United States of America,New York,,Buffalo
198.20.179.190,4,384,esarch.info,US,Americas,Northern America,United States of America,New York,,Buffalo
23.94.70.207,4,16,excel-egy.com,US,Americas,Northern America,United States of America,New York,,Buffalo
69.4.80.74,4,-3,explaindio.com,US,Americas,Northern America,United States of America,New York,,Buffalo
65.181.111.167,4,1,face-and-emotion.com,US,Americas,Northern America,United States of America,New York,,Buffalo
198.23.176.214,4,5,flashydubai.com,US,Americas,Northern America,United States of America,New York,,Buffalo
23.95.101.130,4,25,fleurieupeninsulavisitorguide.com.au,US,Americas,Northern America,United States of America,New York,,Buffalo
192.250.231.168,4,7,flexpointmarketing.com,US,Americas,Northern America,United States of America,New York,,Buffalo
198.23.217.116,4,0,forbesmarket.net,US,Americas,Northern America,United States of America,New York,,Buffalo
181.214.31.161,4,24,fourthamendment.com,US,Americas,Northern America,United States of America,New York,,Buffalo
192.3.11.182,4,51,free-energy-info.co.uk,US,Americas,Northern America,United States of America,New York,,Buffalo
192.3.137.70,4,27,freewareppc.com,US,Americas,Northern America,United States of America,New York,,Buffalo
23.229.1.32,4,6,fromthewilderness.com,US,Americas,Northern America,United States of America,New York,,Buffalo
23.94.156.241,4,16,fundacaolasalle.org.br,US,Americas,Northern America,United States of America,New York,,Buffalo
65.181.111.241,4,10,gatheringofthevibes.com,US,Americas,Northern America,United States of America,New York,,Buffalo
107.175.38.78,4,3,gifer.com,US,Americas,Northern America,United States of America,New York,,Buffalo
65.181.111.146,4,40,goldandgreentaxi.com,US,Americas,Northern America,United States of America,New York,,Buffalo
192.3.201.45,4,35,gorillasafaritrails.com,US,Americas,Northern America,United States of America,New York,,Buffalo
181.214.142.78,4,42,greasylake.org,US,Americas,Northern America,United States of America,New York,,Buffalo
198.12.87.139,4,1039,gtjc.ca,US,Americas,Northern America,United States of America,New York,,Buffalo
154.16.115.226,4,-3,guiascostarica.com,US,Americas,Northern America,United States of America,New York,,Buffalo
65.181.111.122,4,-8,guntherlee.com,US,Americas,Northern America,United States of America,New York,,Buffalo
107.172.18.180,4,-1,h17.ru,US,Americas,Northern America,United States of America,New York,,Buffalo
190.92.171.214,4,37,harvardfiltration.com,US,Americas,Northern America,United States of America,New York,,Buffalo
107.175.37.167,4,1,henfred.me,US,Americas,Northern America,United States of America,New York,,Buffalo
23.229.29.112,4,488,hickoksports.com,US,Americas,Northern America,United States of America,New York,,Buffalo
23.95.103.172,4,1457609,hiphop-network.com,US,Americas,Northern America,United States of America,New York,,Buffalo
65.181.111.132,4,-2,hometutorbd.com,US,Americas,Northern America,United States of America,New York,,Buffalo
198.46.141.179,4,12,icsf.net,US,Americas,Northern America,United States of America,New York,,Buffalo
107.174.144.26,4,-7,ictsd.net,US,Americas,Northern America,United States of America,New York,,Buffalo
192.243.110.16,4,31,ifa.edu.pe,US,Americas,Northern America,United States of America,New York,,Buffalo
108.174.61.166,4,5,ifolder.ru,US,Americas,Northern America,United States of America,New York,,Buffalo
38.154.146.189,4,11,infopackets.com,US,Americas,Northern America,United States of America,New York,,Buffalo
192.250.231.1,4,0,instantdegrees.org,US,Americas,Northern America,United States of America,New York,,Buffalo
38.170.78.212,4,24,interestingprojects.com,US,Americas,Northern America,United States of America,New York,,Buffalo
192.250.231.3,4,47,isastutter.org,US,Americas,Northern America,United States of America,New York,,Buffalo
190.92.168.151,4,1,jcf.gov.jm,US,Americas,Northern America,United States of America,New York,,Buffalo
64.44.41.10,4,3,jpaulmorrison.com,US,Americas,Northern America,United States of America,New York,,Buffalo
96.9.241.99,4,3,kathygriffin.net,US,Americas,Northern America,United States of America,New York,,Buffalo
181.214.31.34,4,10,kev.store,US,Americas,Northern America,United States of America,New York,,Buffalo
162.245.85.194,4,3,khabarban.com,US,Americas,Northern America,United States of America,New York,,Buffalo
172.245.213.186,4,70,knowledgetimer.com,US,Americas,Northern America,United States of America,New York,,Buffalo
66.248.241.9,4,1,krotcinus.com,US,Americas,Northern America,United States of America,New York,,Buffalo
107.173.46.134,4,64,lacitybeat.com,US,Americas,Northern America,United States of America,New York,,Buffalo
65.181.111.173,4,-1,lascarelectronics.com,US,Americas,Northern America,United States of America,New York,,Buffalo
104.168.100.180,4,0,latterdaysaintartswiki.org,US,Americas,Northern America,United States of America,New York,,Buffalo
198.12.124.226,4,94,legalprofessionalsinc.org,US,Americas,Northern America,United States of America,New York,,Buffalo
192.198.104.235,4,378,lepetitchateauduvillard.com,US,Americas,Northern America,United States of America,New York,,Buffalo
38.153.47.134,4,941,lessframework.com,US,Americas,Northern America,United States of America,New York,,Buffalo
107.173.19.113,4,54,livingplacemarket.com,US,Americas,Northern America,United States of America,New York,,Buffalo
65.181.111.134,4,6,lostcrypt.com,US,Americas,Northern America,United States of America,New York,,Buffalo
192.227.150.111,4,-984984,manymoon.com,US,Americas,Northern America,United States of America,New York,,Buffalo
154.30.192.74,4,498,marsanomalyresearch.com,US,Americas,Northern America,United States of America,New York,,Buffalo
179.61.232.223,4,2342,med-top.net,US,Americas,Northern America,United States of America,New York,,Buffalo
107.172.88.134,4,4,meetbahim.co.il,US,Americas,Northern America,United States of America,New York,,Buffalo
190.92.169.60,4,9,meteo.cw,US,Americas,Northern America,United States of America,New York,,Buffalo
23.94.26.82,4,12,miantextile.com,US,Americas,Northern America,United States of America,New York,,Buffalo
65.181.111.178,4,5,milcentro.pe,US,Americas,Northern America,United States of America,New York,,Buffalo
65.181.111.175,4,3,mineralsbase.com,US,Americas,Northern America,United States of America,New York,,Buffalo
190.92.169.161,4,-1,mitchellhamline.edu,US,Americas,Northern America,United States of America,New York,,Buffalo
179.61.137.114,4,9,modelboatmayhem.co.uk,US,Americas,Northern America,United States of America,New York,,Buffalo
154.16.147.142,4,573,muamat.com,US,Americas,Northern America,United States of America,New York,,Buffalo
65.181.111.156,4,3,musefree.com,US,Americas,Northern America,United States of America,New York,,Buffalo
198.23.213.226,4,-3,muslimyouth.ca,US,Americas,Northern America,United States of America,New York,,Buffalo
192.186.139.225,4,725,mutualist.org,US,Americas,Northern America,United States of America,New York,,Buffalo
23.95.97.34,4,12,myantispyware.com,US,Americas,Northern America,United States of America,New York,,Buffalo
65.181.111.240,4,-1,mycoast2coastprinter.com,US,Americas,Northern America,United States of America,New York,,Buffalo
192.3.217.18,4,22,naturalpe.co.il,US,Americas,Northern America,United States of America,New York,,Buffalo
154.16.115.99,4,35,ndtsventures.com,US,Americas,Northern America,United States of America,New York,,Buffalo
172.245.14.58,4,32,newsmakingnews.com,US,Americas,Northern America,United States of America,New York,,Buffalo
65.181.111.123,4,7,neystadt.org,US,Americas,Northern America,United States of America,New York,,Buffalo
65.181.111.131,4,-10,ngugiwathiongo.com,US,Americas,Northern America,United States of America,New York,,Buffalo
172.245.161.131,4,857772,norvascamlodipinetce.com,US,Americas,Northern America,United States of America,New York,,Buffalo
23.94.30.178,4,7,noteworthysoftware.com,US,Americas,Northern America,United States of America,New York,,Buffalo
65.181.111.136,4,2,novostit.com,US,Americas,Northern America,United States of America,New York,,Buffalo
198.46.140.66,4,-5,officialbroncosfootball.com,US,Americas,Northern America,United States of America,New York,,Buffalo
65.181.111.242,4,0,old-time.com,US,Americas,Northern America,United States of America,New York,,Buffalo
198.245.66.130,4,21,olddutchfoods.ca,US,Americas,Northern America,United States of America,New York,,Buffalo
192.227.215.219,4,16,onegreenglobe.com,US,Americas,Northern America,United States of America,New York,,Buffalo
207.66.78.250,4,338,Ookla Speedtest Server 59672: speed08.gonetspeed.com,US,Americas,Northern America,United States of America,New York,,Buffalo
162.0.160.23,4,318,Ookla Speedtest Server 62458: speedtest-buffalo.greenlightnetworks.com,US,Americas,Northern America,United States of America,New York,,Buffalo
107.174.70.18,4,31,openphdguiding.org,US,Americas,Northern America,United States of America,New York,,Buffalo
181.214.142.2,4,15,orwelltoday.com,US,Americas,Northern America,United States of America,New York,,Buffalo
179.61.192.103,4,2,ourcivilisation.com,US,Americas,Northern America,United States of America,New York,,Buffalo
23.229.26.23,4,699,ourcomments.org,US,Americas,Northern America,United States of America,New York,,Buffalo
66.248.241.17,4,735,outfm.org,US,Americas,Northern America,United States of America,New York,,Buffalo
65.181.111.230,4,2,packagingxpert.com,US,Americas,Northern America,United States of America,New York,,Buffalo
192.3.201.235,4,11,pajarojaguar.org,US,Americas,Northern America,United States of America,New York,,Buffalo
181.214.142.175,4,-269,pawsitesonline.com,US,Americas,Northern America,United States of America,New York,,Buffalo
154.16.114.85,4,6,pcetravel.com,US,Americas,Northern America,United States of America,New York,,Buffalo
154.16.115.51,4,5,peacefulwarrior.com,US,Americas,Northern America,United States of America,New York,,Buffalo
23.94.20.130,4,47,pequenasgrandescosas.com,US,Americas,Northern America,United States of America,New York,,Buffalo
5.61.27.125,4,40,persianseven.ir,US,Americas,Northern America,United States of America,New York,,Buffalo
23.95.168.146,4,14,phpdelusions.net,US,Americas,Northern America,United States of America,New York,,Buffalo
23.236.158.51,4,-6,pizanoschicago.com,US,Americas,Northern America,United States of America,New York,,Buffalo
190.92.171.251,4,8,pmeasuring.com,US,Americas,Northern America,United States of America,New York,,Buffalo
65.181.111.238,4,45,populardirectory.org,US,Americas,Northern America,United States of America,New York,,Buffalo
65.181.111.181,4,23,procogs.com,US,Americas,Northern America,United States of America,New York,,Buffalo
65.181.111.232,4,29,procomme.com,US,Americas,Northern America,United States of America,New York,,Buffalo
65.181.111.128,4,45,psychedelicswonderland.com,US,Americas,Northern America,United States of America,New York,,Buffalo
65.181.111.250,4,52,puerto-lopez.com,US,Americas,Northern America,United States of America,New York,,Buffalo
38.154.119.71,4,702,qinlingyouxuan.com,US,Americas,Northern America,United States of America,New York,,Buffalo
65.181.111.151,4,10,reachoutmichigan.org,US,Americas,Northern America,United States of America,New York,,Buffalo
107.174.145.78,4,9,reddit-directory.com,US,Americas,Northern America,United States of America,New York,,Buffalo
190.92.169.113,4,8,redsymboltechnologies.com,US,Americas,Northern America,United States of America,New York,,Buffalo
65.181.111.144,4,21,richupdates.com,US,Americas,Northern America,United States of America,New York,,Buffalo
190.92.172.246,4,39,rockandrollgarage.com,US,Americas,Northern America,United States of America,New York,,Buffalo
65.181.111.169,4,27,roovet.com,US,Americas,Northern America,United States of America,New York,,Buffalo
65.181.111.143,4,69,roscoevillage.com,US,Americas,Northern America,United States of America,New York,,Buffalo
198.23.137.67,4,30,rrtt88.cn,US,Americas,Northern America,United States of America,New York,,Buffalo
190.92.169.13,4,2,sabahtourism.com,US,Americas,Northern America,United States of America,New York,,Buffalo
192.186.132.73,4,393,saerch.info,US,Americas,Northern America,United States of America,New York,,Buffalo
23.94.66.195,4,-261,scducks.com,US,Americas,Northern America,United States of America,New York,,Buffalo
65.181.111.231,4,-3,schooltserovani3.edu.ge,US,Americas,Northern America,United States of America,New York,,Buffalo
104.168.56.229,4,1366,seniorsonly.club,US,Americas,Northern America,United States of America,New York,,Buffalo
65.181.111.9,4,3,shovelbums.org,US,Americas,Northern America,United States of America,New York,,Buffalo
192.243.110.5,4,1,sigmabattleroyale.com,US,Americas,Northern America,United States of America,New York,,Buffalo
65.181.111.239,4,7,sikhs.org,US,Americas,Northern America,United States of America,New York,,Buffalo
65.181.111.157,4,2,simsfoundation.org,US,Americas,Northern America,United States of America,New York,,Buffalo
65.181.111.160,4,9,sireprinting.com,US,Americas,Northern America,United States of America,New York,,Buffalo
199.188.102.139,4,11,skycreatives.in,US,Americas,Northern America,United States of America,New York,,Buffalo
192.3.201.55,4,-5,sleepyjesus.net,US,Americas,Northern America,United States of America,New York,,Buffalo
107.175.75.66,4,0,smallvideosoft.com,US,Americas,Northern America,United States of America,New York,,Buffalo
172.245.27.167,4,23,smartgardenhome.com,US,Americas,Northern America,United States of America,New York,,Buffalo
192.243.110.18,4,22,socialtic.org,US,Americas,Northern America,United States of America,New York,,Buffalo
38.152.116.144,4,10,softkey.info,US,Americas,Northern America,United States of America,New York,,Buffalo
38.153.40.132,4,737,somaly.org,US,Americas,Northern America,United States of America,New York,,Buffalo
65.181.111.166,4,5,songwriterjunction.com,US,Americas,Northern America,United States of America,New York,,Buffalo
181.214.31.79,4,67,spaceacademy.net.au,US,Americas,Northern America,United States of America,New York,,Buffalo
65.181.111.125,4,1,sphinx-soft.com,US,Americas,Northern America,United States of America,New York,,Buffalo
23.94.81.123,4,-5,spicek2forsale.com,US,Americas,Northern America,United States of America,New York,,Buffalo
190.92.171.96,4,59,sprintzeal.com,US,Americas,Northern America,United States of America,New York,,Buffalo
191.96.165.20,4,-7,sqlmaestro.com,US,Americas,Northern America,United States of America,New York,,Buffalo
23.95.197.29,4,13,st-torico.info,US,Americas,Northern America,United States of America,New York,,Buffalo
192.3.201.105,4,2,statisticsmaldives.gov.mv,US,Americas,Northern America,United States of America,New York,,Buffalo
181.214.31.165,4,-2,stdhkbp.ac.id,US,Americas,Northern America,United States of America,New York,,Buffalo
191.101.50.190,4,-1,streetswing.com,US,Americas,Northern America,United States of America,New York,,Buffalo
65.181.111.28,4,11,sustainableindustries.com,US,Americas,Northern America,United States of America,New York,,Buffalo
198.23.223.142,4,11,svsp.ru,US,Americas,Northern America,United States of America,New York,,Buffalo
65.181.111.129,4,1,szc-group.com,US,Americas,Northern America,United States of America,New York,,Buffalo
65.181.111.185,4,0,taigtools.com,US,Americas,Northern America,United States of America,New York,,Buffalo
181.214.31.118,4,1,takemyonlineclassfast.com,US,Americas,Northern America,United States of America,New York,,Buffalo
65.181.111.229,4,-2,taught.info,US,Americas,Northern America,United States of America,New York,,Buffalo
192.241.89.194,4,-14638461,teenhelp.org,US,Americas,Northern America,United States of America,New York,,Buffalo
181.214.31.82,4,23,tetrap.com,US,Americas,Northern America,United States of America,New York,,Buffalo
181.214.31.155,4,88,thehowlinwolf.com,US,Americas,Northern America,United States of America,New York,,Buffalo
65.181.111.23,4,4,themirch.com,US,Americas,Northern America,United States of America,New York,,Buffalo
192.3.206.50,4,5,theopenpress.com,US,Americas,Northern America,United States of America,New York,,Buffalo
191.101.50.30,4,9,theosophy.org,US,Americas,Northern America,United States of America,New York,,Buffalo
192.3.201.145,4,-11,thesisleader.com,US,Americas,Northern America,United States of America,New York,,Buffalo
192.157.56.141,4,8,thespeedyspatula.com,US,Americas,Northern America,United States of America,New York,,Buffalo
192.157.56.139,4,0,thetype2experience.com,US,Americas,Northern America,United States of America,New York,,Buffalo
192.243.110.19,4,0,thewildhearts.com,US,Americas,Northern America,United States of America,New York,,Buffalo
107.174.36.159,4,37,timeforchangecounselling.com,US,Americas,Northern America,United States of America,New York,,Buffalo
179.61.192.250,4,7,tipradar.com,US,Americas,Northern America,United States of America,New York,,Buffalo
23.95.206.13,4,560,toto365mania.com,US,Americas,Northern America,United States of America,New York,,Buffalo
198.46.204.28,4,570,toto365site.com,US,Americas,Northern America,United States of America,New York,,Buffalo
23.94.187.6,4,2,tousquimica.com,US,Americas,Northern America,United States of America,New York,,Buffalo
154.16.119.235,4,7,townandstyle.com,US,Americas,Northern America,United States of America,New York,,Buffalo
65.181.111.32,4,10,transyasu.com,US,Americas,Northern America,United States of America,New York,,Buffalo
65.181.111.155,4,7,tucc.org,US,Americas,Northern America,United States of America,New York,,Buffalo
23.94.150.194,4,30,twinpinenetwork.com,US,Americas,Northern America,United States of America,New York,,Buffalo
198.20.164.178,4,3342,ultimatejobs.com,US,Americas,Northern America,United States of America,New York,,Buffalo
192.3.201.35,4,4,umat.edu.gh,US,Americas,Northern America,United States of America,New York,,Buffalo
173.211.81.11,4,11,up-00.com,US,Americas,Northern America,United States of America,New York,,Buffalo
65.181.111.126,4,5,uptoscreen.com,US,Americas,Northern America,United States of America,New York,,Buffalo
65.181.111.163,4,3,urdu123.com,US,Americas,Northern America,United States of America,New York,,Buffalo
181.214.31.78,4,1,usessaywriter.com,US,Americas,Northern America,United States of America,New York,,Buffalo
192.3.201.90,4,-2,usmchangout.com,US,Americas,Northern America,United States of America,New York,,Buffalo
192.250.231.141,4,14,vanogroup.com,US,Americas,Northern America,United States of America,New York,,Buffalo
179.61.192.104,4,10,velvetrevolution.us,US,Americas,Northern America,United States of America,New York,,Buffalo
192.227.228.252,4,-1,venith.net,US,Americas,Northern America,United States of America,New York,,Buffalo
65.181.111.8,4,65,vintagenewsdaily.com,US,Americas,Northern America,United States of America,New York,,Buffalo
65.181.111.142,4,5,vocalbop.com,US,Americas,Northern America,United States of America,New York,,Buffalo
38.154.144.245,4,2809,vpnblade.com,US,Americas,Northern America,United States of America,New York,,Buffalo
23.95.169.115,4,2,vvfit.com,US,Americas,Northern America,United States of America,New York,,Buffalo
190.92.172.220,4,8,wadav.com,US,Americas,Northern America,United States of America,New York,,Buffalo
23.95.197.112,4,4,walhello.com,US,Americas,Northern America,United States of America,New York,,Buffalo
172.245.30.224,4,4,waterbuckpump.com,US,Americas,Northern America,United States of America,New York,,Buffalo
65.181.111.13,4,13,wattstowers.us,US,Americas,Northern America,United States of America,New York,,Buffalo
192.243.110.20,4,16,webbsleuths.org,US,Americas,Northern America,United States of America,New York,,Buffalo
198.20.171.232,4,10,webmoves.net,US,Americas,Northern America,United States of America,New York,,Buffalo
65.181.111.133,4,1,webronhost.com,US,Americas,Northern America,United States of America,New York,,Buffalo
192.3.201.85,4,10,webser.ca,US,Americas,Northern America,United States of America,New York,,Buffalo
38.154.144.243,4,2812,webtechcoupons.net,US,Americas,Northern America,United States of America,New York,,Buffalo
96.243.16.5,4,4,weeklyhoroscope.com,US,Americas,Northern America,United States of America,New York,,Buffalo
191.101.50.240,4,-1,werebuild.eu,US,Americas,Northern America,United States of America,New York,,Buffalo
192.157.56.140,4,16,wikicorp.org,US,Americas,Northern America,United States of America,New York,,Buffalo
192.241.71.106,4,14277804,wordmodules.com,US,Americas,Northern America,United States of America,New York,,Buffalo
65.181.111.149,4,13,worldwindcentral.com,US,Americas,Northern America,United States of America,New York,,Buffalo
23.94.16.134,4,12,worthingcourtblog.com,US,Americas,Northern America,United States of America,New York,,Buffalo
181.214.31.81,4,-2,writer-elite.com,US,Americas,Northern America,United States of America,New York,,Buffalo
198.46.188.124,4,-2,wwfanclub.com,US,Americas,Northern America,United States of America,New York,,Buffalo
191.96.133.217,4,3,www.ukassignmenthelp.uk,US,Americas,Northern America,United States of America,New York,,Buffalo
65.181.111.162,4,2,wwwhubs.com,US,Americas,Northern America,United States of America,New York,,Buffalo
38.154.157.3,4,465,xenotabs.com,US,Americas,Northern America,United States of America,New York,,Buffalo
65.181.111.152,4,2,zodipedia.com,US,Americas,Northern America,United States of America,New York,,Buffalo
