reflector_ip,ip_version,offset,description,country_code,region,sub_region,country_name,sub_division_1,sub_division_2,city
210.244.72.15,4,10624,archi.com.tw,TW,Asia,Eastern Asia,Taiwan,Taichung City,,Taichung
61.221.12.18,4,32,autism.org.tw,TW,Asia,Eastern Asia,Taiwan,Taichung City,,Taichung
211.20.187.118,4,-162,b2bmit.com,TW,Asia,Eastern Asia,Taiwan,Taichung City,,Taichung
118.163.203.164,4,-10,beautiful-spacetime.com,TW,Asia,Eastern Asia,Taiwan,Taichung City,,Taichung
61.221.12.52,4,2,coolaler.com,TW,Asia,Eastern Asia,Taiwan,Taichung City,,Taichung
1.165.109.122,4,1812,DNS Server: 1-165-109-122.dynamic-ip.hinet.net,TW,Asia,Eastern Asia,Taiwan,Taichung City,,Taichung
1.165.119.247,4,26,DNS Server: 1-165-119-247.dynamic-ip.hinet.net,TW,Asia,Eastern Asia,Taiwan,Taichung City,,Taichung
1.165.132.227,4,79,DNS Server: 1-165-132-227.dynamic-ip.hinet.net,TW,Asia,Eastern Asia,Taiwan,Taichung City,,Taichung
1.165.139.196,4,2125,DNS Server: 1-165-139-196.dynamic-ip.hinet.net,TW,Asia,Eastern Asia,Taiwan,Taichung City,,Taichung
1.165.161.82,4,1701,DNS Server: 1-165-161-82.dynamic-ip.hinet.net,TW,Asia,Eastern Asia,Taiwan,Taichung City,,Taichung
1.165.206.119,4,-28801017,DNS Server: 1-165-206-119.dynamic-ip.hinet.net,TW,Asia,Eastern Asia,Taiwan,Taichung City,,Taichung
1.165.207.91,4,461,DNS Server: 1-165-207-91.dynamic-ip.hinet.net,TW,Asia,Eastern Asia,Taiwan,Taichung City,,Taichung
1.165.71.245,4,60,DNS Server: 1-165-71-245.dynamic-ip.hinet.net,TW,Asia,Eastern Asia,Taiwan,Taichung City,,Taichung
1.165.71.62,4,-113633,DNS Server: 1-165-71-62.dynamic-ip.hinet.net,TW,Asia,Eastern Asia,Taiwan,Taichung City,,Taichung
1.168.103.181,4,545,DNS Server: 1-168-103-181.dynamic-ip.hinet.net,TW,Asia,Eastern Asia,Taiwan,Taichung City,,Taichung
1.168.137.52,4,-28800411,DNS Server: 1-168-137-52.dynamic-ip.hinet.net,TW,Asia,Eastern Asia,Taiwan,Taichung City,,Taichung
1.168.142.151,4,1656,DNS Server: 1-168-142-151.dynamic-ip.hinet.net,TW,Asia,Eastern Asia,Taiwan,Taichung City,,Taichung
1.168.18.227,4,307,DNS Server: 1-168-18-227.dynamic-ip.hinet.net,TW,Asia,Eastern Asia,Taiwan,Taichung City,,Taichung
1.168.24.51,4,1707,DNS Server: 1-168-24-51.dynamic-ip.hinet.net,TW,Asia,Eastern Asia,Taiwan,Taichung City,,Taichung
1.168.3.6,4,1,DNS Server: 1-168-3-6.dynamic-ip.hinet.net,TW,Asia,Eastern Asia,Taiwan,Taichung City,,Taichung
1.168.38.147,4,-635047690,DNS Server: 1-168-38-147.dynamic-ip.hinet.net,TW,Asia,Eastern Asia,Taiwan,Taichung City,,Taichung
1.168.6.24,4,-28802359,DNS Server: 1-168-6-24.dynamic-ip.hinet.net,TW,Asia,Eastern Asia,Taiwan,Taichung City,,Taichung
1.168.78.113,4,509,DNS Server: 1-168-78-113.dynamic-ip.hinet.net,TW,Asia,Eastern Asia,Taiwan,Taichung City,,Taichung
1.168.97.101,4,694,DNS Server: 1-168-97-101.dynamic-ip.hinet.net,TW,Asia,Eastern Asia,Taiwan,Taichung City,,Taichung
1.170.109.114,4,-28800120,DNS Server: 1-170-109-114.dynamic-ip.hinet.net,TW,Asia,Eastern Asia,Taiwan,Taichung City,,Taichung
1.170.109.31,4,1552,DNS Server: 1-170-109-31.dynamic-ip.hinet.net,TW,Asia,Eastern Asia,Taiwan,Taichung City,,Taichung
1.170.116.145,4,85,DNS Server: 1-170-116-145.dynamic-ip.hinet.net,TW,Asia,Eastern Asia,Taiwan,Taichung City,,Taichung
1.170.36.148,4,89774,DNS Server: 1-170-36-148.dynamic-ip.hinet.net,TW,Asia,Eastern Asia,Taiwan,Taichung City,,Taichung
1.170.69.223,4,157,DNS Server: 1-170-69-223.dynamic-ip.hinet.net,TW,Asia,Eastern Asia,Taiwan,Taichung City,,Taichung
1.170.74.143,4,33,DNS Server: 1-170-74-143.dynamic-ip.hinet.net,TW,Asia,Eastern Asia,Taiwan,Taichung City,,Taichung
1.170.80.130,4,-28799414,DNS Server: 1-170-80-130.dynamic-ip.hinet.net,TW,Asia,Eastern Asia,Taiwan,Taichung City,,Taichung
1.170.81.222,4,1855,DNS Server: 1-170-81-222.dynamic-ip.hinet.net,TW,Asia,Eastern Asia,Taiwan,Taichung City,,Taichung
1.170.83.123,4,1669,DNS Server: 1-170-83-123.dynamic-ip.hinet.net,TW,Asia,Eastern Asia,Taiwan,Taichung City,,Taichung
1.170.84.216,4,140891,DNS Server: 1-170-84-216.dynamic-ip.hinet.net,TW,Asia,Eastern Asia,Taiwan,Taichung City,,Taichung
1.170.96.73,4,-28800033,DNS Server: 1-170-96-73.dynamic-ip.hinet.net,TW,Asia,Eastern Asia,Taiwan,Taichung City,,Taichung
1.170.98.115,4,-121,DNS Server: 1-170-98-115.dynamic-ip.hinet.net,TW,Asia,Eastern Asia,Taiwan,Taichung City,,Taichung
1.174.13.137,4,62,DNS Server: 1-174-13-137.dynamic-ip.hinet.net,TW,Asia,Eastern Asia,Taiwan,Taichung City,,Taichung
106.107.243.251,4,-28798957,DNS Server: 106.107.243.251.adsl.dynamic.seed.net.tw,TW,Asia,Eastern Asia,Taiwan,Taichung City,,Taichung
111.70.20.131,4,1395,DNS Server: 111-70-20-131.emome-ip.hinet.net,TW,Asia,Eastern Asia,Taiwan,Taichung City,,Taichung
114.33.53.151,4,-26048008,DNS Server: 114-33-53-151.hinet-ip.hinet.net,TW,Asia,Eastern Asia,Taiwan,Taichung City,,Taichung
118.163.188.168,4,21252014,DNS Server: 118-163-188-168.hinet-ip.hinet.net,TW,Asia,Eastern Asia,Taiwan,Taichung City,,Taichung
118.163.207.91,4,326,DNS Server: 118-163-207-91.hinet-ip.hinet.net,TW,Asia,Eastern Asia,Taiwan,Taichung City,,Taichung
123.241.252.251,4,11,DNS Server: 123-241-252-251.cctv.dynamic.tbcnet.net.tw,TW,Asia,Eastern Asia,Taiwan,Taichung City,,Taichung
125.227.77.87,4,114535,DNS Server: 125-227-77-87.hinet-ip.hinet.net,TW,Asia,Eastern Asia,Taiwan,Taichung City,,Taichung
125.227.89.44,4,-171,DNS Server: 125-227-89-44.hinet-ip.hinet.net,TW,Asia,Eastern Asia,Taiwan,Taichung City,,Taichung
125.230.144.214,4,1896,DNS Server: 125-230-144-214.dynamic-ip.hinet.net,TW,Asia,Eastern Asia,Taiwan,Taichung City,,Taichung
61.63.230.129,4,151,DNS Server: 129-230.63.61-savecom,TW,Asia,Eastern Asia,Taiwan,Taichung City,,Taichung
202.39.212.253,4,46,DNS Server: 202-39-212-253.hinet-ip.hinet.net,TW,Asia,Eastern Asia,Taiwan,Taichung City,,Taichung
220.134.34.30,4,-1033,DNS Server: 220-134-34-30.hinet-ip.hinet.net,TW,Asia,Eastern Asia,Taiwan,Taichung City,,Taichung
36.235.11.172,4,-2748166271,DNS Server: 36-235-11-172.dynamic-ip.hinet.net,TW,Asia,Eastern Asia,Taiwan,Taichung City,,Taichung
59.126.68.42,4,-886,DNS Server: 59-126-68-42.hinet-ip.hinet.net,TW,Asia,Eastern Asia,Taiwan,Taichung City,,Taichung
61.221.125.100,4,11,DNS Server: 61-221-125-100.hinet-ip.hinet.net,TW,Asia,Eastern Asia,Taiwan,Taichung City,,Taichung
61.221.126.186,4,27643023,DNS Server: dns.mactech.com.tw,TW,Asia,Eastern Asia,Taiwan,Taichung City,,Taichung
218.32.150.199,4,129788,DNS Server: dynamic.sdtv.net.tw,TW,Asia,Eastern Asia,Taiwan,Taichung City,,Taichung
219.84.168.188,4,612,eprice.com.hk,TW,Asia,Eastern Asia,Taiwan,Taichung City,,Taichung
219.84.168.168,4,595,eprice.com.tw,TW,Asia,Eastern Asia,Taiwan,Taichung City,,Taichung
175.183.3.134,4,26,jofu.tw,TW,Asia,Eastern Asia,Taiwan,Taichung City,,Taichung
211.72.215.60,4,-6821,meritlilin.com,TW,Asia,Eastern Asia,Taiwan,Taichung City,,Taichung
125.228.135.114,4,295,talk.tw,TW,Asia,Eastern Asia,Taiwan,Taichung City,,Taichung
59.125.33.123,4,3,tattpe.org.tw,TW,Asia,Eastern Asia,Taiwan,Taichung City,,Taichung
60.249.45.229,4,7,tou-ming.com,TW,Asia,Eastern Asia,Taiwan,Taichung City,,Taichung
59.125.33.57,4,5,trolley-store.com.tw,TW,Asia,Eastern Asia,Taiwan,Taichung City,,Taichung
125.227.94.21,4,2,ysponder.com.tw,TW,Asia,Eastern Asia,Taiwan,Taichung City,,Taichung
