reflector_ip,ip_version,offset,description,country_code,region,sub_region,country_name,sub_division_1,sub_division_2,city
80.88.87.206,4,777,abbigliamentotrestelle.it,IT,Europe,Southern Europe,Italy,Tuscany,Province of Arezzo,Arezzo
94.177.177.233,4,-21591498,acri.it,IT,Europe,Southern Europe,Italy,Tuscany,Province of Arezzo,Arezzo
46.37.26.28,4,7,agipronews.it,IT,Europe,Southern Europe,Italy,Tuscany,Province of Arezzo,Arezzo
93.186.249.115,4,6,agricolapiano.com,IT,Europe,Southern Europe,Italy,Tuscany,Province of Arezzo,Arezzo
80.88.87.204,4,49,albanesecerchi.it,IT,Europe,Southern Europe,Italy,Tuscany,Province of Arezzo,Arezzo
93.186.249.202,4,186,alguer.it,IT,Europe,Southern Europe,Italy,Tuscany,Province of Arezzo,Arezzo
80.88.87.200,4,359,alke.com,IT,Europe,Southern Europe,Italy,Tuscany,Province of Arezzo,Arezzo
5.249.135.26,4,20,alvolante.it,IT,Europe,Southern Europe,Italy,Tuscany,Province of Arezzo,Arezzo
80.88.87.160,4,177,ambrogiorobot.com,IT,Europe,Southern Europe,Italy,Tuscany,Province of Arezzo,Arezzo
94.177.184.22,4,5,amnotizie.it,IT,Europe,Southern Europe,Italy,Tuscany,Province of Arezzo,Arezzo
80.88.87.232,4,176,anev.org,IT,Europe,Southern Europe,Italy,Tuscany,Province of Arezzo,Arezzo
80.88.87.239,4,686,archiviodistatovenezia.it,IT,Europe,Southern Europe,Italy,Tuscany,Province of Arezzo,Arezzo
93.186.242.194,4,-38944,assosrlservizi.it,IT,Europe,Southern Europe,Italy,Tuscany,Province of Arezzo,Arezzo
94.177.223.60,4,12,autobelle.it,IT,Europe,Southern Europe,Italy,Tuscany,Province of Arezzo,Arezzo
94.177.174.58,4,1205,avmagazine.it,IT,Europe,Southern Europe,Italy,Tuscany,Province of Arezzo,Arezzo
80.88.84.235,4,29,avvocatodistrada.it,IT,Europe,Southern Europe,Italy,Tuscany,Province of Arezzo,Arezzo
80.211.68.172,4,8,bcin.ca,IT,Europe,Southern Europe,Italy,Tuscany,Province of Arezzo,Arezzo
80.88.84.222,4,39,biennaledemocrazia.it,IT,Europe,Southern Europe,Italy,Tuscany,Province of Arezzo,Arezzo
62.149.192.178,4,15,bigliettoveloce.it,IT,Europe,Southern Europe,Italy,Tuscany,Province of Arezzo,Arezzo
5.249.135.25,4,7,bimbisaniebelli.it,IT,Europe,Southern Europe,Italy,Tuscany,Province of Arezzo,Arezzo
93.186.249.113,4,58,bimfilm.com,IT,Europe,Southern Europe,Italy,Tuscany,Province of Arezzo,Arezzo
95.110.154.135,4,-40,bioversityinternational.org,IT,Europe,Southern Europe,Italy,Tuscany,Province of Arezzo,Arezzo
93.186.249.105,4,40,bistrotdevenise.com,IT,Europe,Southern Europe,Italy,Tuscany,Province of Arezzo,Arezzo
212.237.47.33,4,229767,bolina.it,IT,Europe,Southern Europe,Italy,Tuscany,Province of Arezzo,Arezzo
31.14.141.127,4,365,boltongroup.net,IT,Europe,Southern Europe,Italy,Tuscany,Province of Arezzo,Arezzo
80.88.87.168,4,111,bonex.it,IT,Europe,Southern Europe,Italy,Tuscany,Province of Arezzo,Arezzo
93.186.242.128,4,69639,borghipiubelliditalia.it,IT,Europe,Southern Europe,Italy,Tuscany,Province of Arezzo,Arezzo
80.88.87.218,4,802,bozzetto.com,IT,Europe,Southern Europe,Italy,Tuscany,Province of Arezzo,Arezzo
85.235.159.251,4,357,cagliaricalcio.com,IT,Europe,Southern Europe,Italy,Tuscany,Province of Arezzo,Arezzo
94.177.211.15,4,44,cairoeditore.it,IT,Europe,Southern Europe,Italy,Tuscany,Province of Arezzo,Arezzo
5.249.153.98,4,54,calcionapoli24.it,IT,Europe,Southern Europe,Italy,Tuscany,Province of Arezzo,Arezzo
212.237.21.39,4,-44,caliaitalia.com,IT,Europe,Southern Europe,Italy,Tuscany,Province of Arezzo,Arezzo
85.235.130.71,4,34,calibersrl.it,IT,Europe,Southern Europe,Italy,Tuscany,Province of Arezzo,Arezzo
93.186.249.62,4,47,camar.it,IT,Europe,Southern Europe,Italy,Tuscany,Province of Arezzo,Arezzo
93.186.242.203,4,5,canaleitalia.it,IT,Europe,Southern Europe,Italy,Tuscany,Province of Arezzo,Arezzo
94.177.171.238,4,29,cantierino.it,IT,Europe,Southern Europe,Italy,Tuscany,Province of Arezzo,Arezzo
93.186.242.142,4,17,cantinachitarra.it,IT,Europe,Southern Europe,Italy,Tuscany,Province of Arezzo,Arezzo
80.88.87.229,4,276,carpentecnica.com,IT,Europe,Southern Europe,Italy,Tuscany,Province of Arezzo,Arezzo
217.73.238.52,4,9,chiariglione.org,IT,Europe,Southern Europe,Italy,Tuscany,Province of Arezzo,Arezzo
94.177.205.6,4,1195,cibo360.it,IT,Europe,Southern Europe,Italy,Tuscany,Province of Arezzo,Arezzo
80.88.87.219,4,507,ciclotte.com,IT,Europe,Southern Europe,Italy,Tuscany,Province of Arezzo,Arezzo
62.149.192.226,4,173,cidim.it,IT,Europe,Southern Europe,Italy,Tuscany,Province of Arezzo,Arezzo
46.37.31.175,4,26,cinquequotidiano.it,IT,Europe,Southern Europe,Italy,Tuscany,Province of Arezzo,Arezzo
80.88.87.188,4,714,cislscuolavibovalentia.it,IT,Europe,Southern Europe,Italy,Tuscany,Province of Arezzo,Arezzo
93.186.248.94,4,145,clal.it,IT,Europe,Southern Europe,Italy,Tuscany,Province of Arezzo,Arezzo
94.177.176.33,4,61,climalteranti.it,IT,Europe,Southern Europe,Italy,Tuscany,Province of Arezzo,Arezzo
83.211.227.158,4,21,clouditalia.com,IT,Europe,Southern Europe,Italy,Tuscany,Province of Arezzo,Pieve al Toppo
95.110.158.83,4,17286,cnos-fap.it,IT,Europe,Southern Europe,Italy,Tuscany,Province of Arezzo,Arezzo
5.249.135.27,4,93,cosedicasa.com,IT,Europe,Southern Europe,Italy,Tuscany,Province of Arezzo,Arezzo
62.149.215.178,4,821,dagtur.it,IT,Europe,Southern Europe,Italy,Tuscany,Province of Arezzo,Arezzo
185.58.192.249,4,6,dalpescatore.com,IT,Europe,Southern Europe,Italy,Tuscany,Province of Arezzo,Arezzo
212.237.16.219,4,34,davinotti.com,IT,Europe,Southern Europe,Italy,Tuscany,Province of Arezzo,Arezzo
5.249.144.124,4,14,dehoniane.it,IT,Europe,Southern Europe,Italy,Tuscany,Province of Arezzo,Arezzo
212.237.4.162,4,85,DNS Server: arna.bio,IT,Europe,Southern Europe,Italy,Tuscany,Province of Arezzo,Arezzo
80.211.179.15,4,13,DNS Server: host15-179-211-80.serverdedicati.aruba.it,IT,Europe,Southern Europe,Italy,Tuscany,Province of Arezzo,Arezzo
5.249.157.17,4,114,DNS Server: host17-157-249-5.serverdedicati.aruba.it,IT,Europe,Southern Europe,Italy,Tuscany,Province of Arezzo,Arezzo
31.14.133.196,4,63,DNS Server: host196-133-14-31.serverdedicati.aruba.it,IT,Europe,Southern Europe,Italy,Tuscany,Province of Arezzo,Arezzo
85.235.148.58,4,-99183,dronet.org,IT,Europe,Southern Europe,Italy,Tuscany,Province of Arezzo,Arezzo
93.186.242.38,4,41,ducadalba.net,IT,Europe,Southern Europe,Italy,Tuscany,Province of Arezzo,Arezzo
80.88.87.207,4,244,duomofirenze.it,IT,Europe,Southern Europe,Italy,Tuscany,Province of Arezzo,Arezzo
77.81.236.22,4,28866,ecnews.it,IT,Europe,Southern Europe,Italy,Tuscany,Province of Arezzo,Arezzo
62.149.182.56,4,6,ecsc.eu,IT,Europe,Southern Europe,Italy,Tuscany,Province of Arezzo,Arezzo
62.149.215.139,4,820,effedieffe.com,IT,Europe,Southern Europe,Italy,Tuscany,Province of Arezzo,Arezzo
80.88.87.234,4,100,egoluce.com,IT,Europe,Southern Europe,Italy,Tuscany,Province of Arezzo,Arezzo
95.110.130.25,4,89,elbareport.it,IT,Europe,Southern Europe,Italy,Tuscany,Province of Arezzo,Arezzo
77.81.236.107,4,5936,emu.it,IT,Europe,Southern Europe,Italy,Tuscany,Province of Arezzo,Arezzo
93.186.250.105,4,15697,etnosemiotica.it,IT,Europe,Southern Europe,Italy,Tuscany,Province of Arezzo,Arezzo
85.235.137.200,4,5,euroinfosicilia.it,IT,Europe,Southern Europe,Italy,Tuscany,Province of Arezzo,Arezzo
80.211.70.27,4,-9781,europeangodatabase.eu,IT,Europe,Southern Europe,Italy,Tuscany,Province of Arezzo,Arezzo
31.14.132.60,4,1078,farmina.com,IT,Europe,Southern Europe,Italy,Tuscany,Province of Arezzo,Arezzo
80.88.87.165,4,221,federalists.eu,IT,Europe,Southern Europe,Italy,Tuscany,Province of Arezzo,Arezzo
94.177.181.213,4,42,federicofellini.it,IT,Europe,Southern Europe,Italy,Tuscany,Province of Arezzo,Arezzo
5.249.157.113,4,7,fico.it,IT,Europe,Southern Europe,Italy,Tuscany,Province of Arezzo,Arezzo
85.235.157.114,4,32,filtriindustriali.it,IT,Europe,Southern Europe,Italy,Tuscany,Province of Arezzo,Arezzo
80.88.84.228,4,12,firriato.it,IT,Europe,Southern Europe,Italy,Tuscany,Province of Arezzo,Arezzo
62.149.192.166,4,21,fondazionedisardegna.it,IT,Europe,Southern Europe,Italy,Tuscany,Province of Arezzo,Arezzo
80.88.87.198,4,278,fornopasticceriasarti.it,IT,Europe,Southern Europe,Italy,Tuscany,Province of Arezzo,Arezzo
80.88.87.211,4,69,forumdipace.org,IT,Europe,Southern Europe,Italy,Tuscany,Province of Arezzo,Arezzo
80.88.95.65,4,5842443,friulanapanini.com,IT,Europe,Southern Europe,Italy,Tuscany,Province of Arezzo,Arezzo
93.186.242.56,4,11,fuoriluogo.it,IT,Europe,Southern Europe,Italy,Tuscany,Province of Arezzo,Arezzo
62.149.199.218,4,732,galluccifaibano.com,IT,Europe,Southern Europe,Italy,Tuscany,Province of Arezzo,Arezzo
85.235.146.241,4,7,gangemieditore.com,IT,Europe,Southern Europe,Italy,Tuscany,Province of Arezzo,Arezzo
80.88.87.210,4,-464,gbcitalia.org,IT,Europe,Southern Europe,Italy,Tuscany,Province of Arezzo,Arezzo
188.213.169.243,4,87,genderbender.it,IT,Europe,Southern Europe,Italy,Tuscany,Province of Arezzo,Arezzo
46.37.17.32,4,6,gessi.it,IT,Europe,Southern Europe,Italy,Tuscany,Province of Arezzo,Arezzo
85.235.146.211,4,27,giglionews.it,IT,Europe,Southern Europe,Italy,Tuscany,Province of Arezzo,Arezzo
46.37.25.190,4,288,go2.it,IT,Europe,Southern Europe,Italy,Tuscany,Province of Arezzo,Arezzo
93.186.242.107,4,5,gonews.it,IT,Europe,Southern Europe,Italy,Tuscany,Province of Arezzo,Arezzo
62.149.227.100,4,13791099,gotoandplay.biz,IT,Europe,Southern Europe,Italy,Tuscany,Province of Arezzo,Arezzo
89.46.76.253,4,860,grandhotelparkers.it,IT,Europe,Southern Europe,Italy,Tuscany,Province of Arezzo,Arezzo
80.211.143.106,4,41,gratis.it,IT,Europe,Southern Europe,Italy,Tuscany,Province of Arezzo,Arezzo
93.186.242.145,4,27,greenreport.it,IT,Europe,Southern Europe,Italy,Tuscany,Province of Arezzo,Arezzo
80.88.87.209,4,467,hcconsultingsrl.com,IT,Europe,Southern Europe,Italy,Tuscany,Province of Arezzo,Arezzo
95.110.158.208,4,8,hiho.it,IT,Europe,Southern Europe,Italy,Tuscany,Province of Arezzo,Arezzo
80.88.87.184,4,936,hotel-montecarlo.it,IT,Europe,Southern Europe,Italy,Tuscany,Province of Arezzo,Arezzo
85.235.159.231,4,5,hotelbaglioni.it,IT,Europe,Southern Europe,Italy,Tuscany,Province of Arezzo,Arezzo
94.177.223.110,4,5,humanativaspa.it,IT,Europe,Southern Europe,Italy,Tuscany,Province of Arezzo,Arezzo
85.235.137.192,4,24,ianseo.net,IT,Europe,Southern Europe,Italy,Tuscany,Province of Arezzo,Arezzo
93.186.242.121,4,26,ibreviary.com,IT,Europe,Southern Europe,Italy,Tuscany,Province of Arezzo,Arezzo
93.186.242.32,4,7,iiscecchi.edu.it,IT,Europe,Southern Europe,Italy,Tuscany,Province of Arezzo,Arezzo
62.149.199.117,4,751,ilnarratore.com,IT,Europe,Southern Europe,Italy,Tuscany,Province of Arezzo,Arezzo
188.213.169.251,4,6,ilquotidiano.it,IT,Europe,Southern Europe,Italy,Tuscany,Province of Arezzo,Arezzo
93.186.244.85,4,27,ilturista.info,IT,Europe,Southern Europe,Italy,Tuscany,Province of Arezzo,Arezzo
89.46.70.24,4,215,inewsletter.cloud,IT,Europe,Southern Europe,Italy,Tuscany,Province of Arezzo,Arezzo
5.249.135.23,4,9,insella.it,IT,Europe,Southern Europe,Italy,Tuscany,Province of Arezzo,Arezzo
62.149.215.208,4,783,interferenza.com,IT,Europe,Southern Europe,Italy,Tuscany,Province of Arezzo,Arezzo
93.186.242.78,4,136,istruzioneveneto.gov.it,IT,Europe,Southern Europe,Italy,Tuscany,Province of Arezzo,Arezzo
94.177.174.192,4,15,italiachiamaitalia.it,IT,Europe,Southern Europe,Italy,Tuscany,Province of Arezzo,Arezzo
80.88.87.240,4,430,journal-of-nuclear-physics.com,IT,Europe,Southern Europe,Italy,Tuscany,Province of Arezzo,Arezzo
80.211.178.185,4,4,keats-shelley-house.org,IT,Europe,Southern Europe,Italy,Tuscany,Province of Arezzo,Arezzo
80.211.96.104,4,7,killedbymicrosoft.info,IT,Europe,Southern Europe,Italy,Tuscany,Province of Arezzo,Arezzo
94.177.211.90,4,10,la7.tv,IT,Europe,Southern Europe,Italy,Tuscany,Province of Arezzo,Arezzo
188.213.165.221,4,12,labottegadiparigi.com,IT,Europe,Southern Europe,Italy,Tuscany,Province of Arezzo,Arezzo
62.149.199.208,4,706,lagallerianazionale.com,IT,Europe,Southern Europe,Italy,Tuscany,Province of Arezzo,Arezzo
85.235.131.246,4,2590,lakegarda.com,IT,Europe,Southern Europe,Italy,Tuscany,Province of Arezzo,Arezzo
95.110.132.193,4,15,lanuovaprovincia.it,IT,Europe,Southern Europe,Italy,Tuscany,Province of Arezzo,Arezzo
80.88.87.175,4,559,larioenergy.net,IT,Europe,Southern Europe,Italy,Tuscany,Province of Arezzo,Arezzo
85.235.139.116,4,13,ledicoladelsud.it,IT,Europe,Southern Europe,Italy,Tuscany,Province of Arezzo,Arezzo
5.249.135.96,4,114,lefayresorts.com,IT,Europe,Southern Europe,Italy,Tuscany,Province of Arezzo,Arezzo
80.88.84.244,4,695,legambiente.com,IT,Europe,Southern Europe,Italy,Tuscany,Province of Arezzo,Arezzo
80.211.115.101,4,1014,leganavale.it,IT,Europe,Southern Europe,Italy,Tuscany,Province of Arezzo,Arezzo
80.88.87.192,4,112,lellaverde.it,IT,Europe,Southern Europe,Italy,Tuscany,Province of Arezzo,Arezzo
46.37.14.18,4,15,live-score.it,IT,Europe,Southern Europe,Italy,Tuscany,Province of Arezzo,Arezzo
5.249.145.231,4,5,ludomedia.it,IT,Europe,Southern Europe,Italy,Tuscany,Province of Arezzo,Arezzo
95.110.158.77,4,320052,lunarossachallenge.com,IT,Europe,Southern Europe,Italy,Tuscany,Province of Arezzo,Arezzo
188.213.164.165,4,75,macrolibrarsi.it,IT,Europe,Southern Europe,Italy,Tuscany,Province of Arezzo,Arezzo
85.235.130.60,4,12,magenta-mm.com,IT,Europe,Southern Europe,Italy,Tuscany,Province of Arezzo,Arezzo
94.177.199.235,4,117,mailmaster.it,IT,Europe,Southern Europe,Italy,Tuscany,Province of Arezzo,Arezzo
188.213.170.205,4,623,mastroberardino.com,IT,Europe,Southern Europe,Italy,Tuscany,Province of Arezzo,Arezzo
95.110.134.48,4,107525,megamodo.com,IT,Europe,Southern Europe,Italy,Tuscany,Province of Arezzo,Arezzo
80.88.87.249,4,383,meteopiateda.it,IT,Europe,Southern Europe,Italy,Tuscany,Province of Arezzo,Arezzo
95.110.145.91,4,16,moked.it,IT,Europe,Southern Europe,Italy,Tuscany,Province of Arezzo,Arezzo
80.211.237.85,4,27,molinari.it,IT,Europe,Southern Europe,Italy,Tuscany,Province of Arezzo,Arezzo
80.88.88.240,4,61402,motoclub-tingavert.it,IT,Europe,Southern Europe,Italy,Tuscany,Province of Arezzo,Arezzo
93.186.244.80,4,8,museosetacomo.com,IT,Europe,Southern Europe,Italy,Tuscany,Province of Arezzo,Arezzo
212.237.20.226,4,2,museowow.it,IT,Europe,Southern Europe,Italy,Tuscany,Province of Arezzo,Arezzo
62.149.215.190,4,721,napoli.com,IT,Europe,Southern Europe,Italy,Tuscany,Province of Arezzo,Arezzo
80.88.87.248,4,-390,nautorswan.com,IT,Europe,Southern Europe,Italy,Tuscany,Province of Arezzo,Arezzo
95.110.131.16,4,7,nobili.it,IT,Europe,Southern Europe,Italy,Tuscany,Province of Arezzo,Arezzo
93.186.244.136,4,16,noidonne.org,IT,Europe,Southern Europe,Italy,Tuscany,Province of Arezzo,Arezzo
95.110.159.30,4,1,nonsolocap.it,IT,Europe,Southern Europe,Italy,Tuscany,Province of Arezzo,Arezzo
80.88.87.178,4,558,nuovadirezionedidatticavasto.edu.it,IT,Europe,Southern Europe,Italy,Tuscany,Province of Arezzo,Arezzo
80.88.87.189,4,-84,officinalagana.it,IT,Europe,Southern Europe,Italy,Tuscany,Province of Arezzo,Arezzo
94.177.195.150,4,121,omnimoto.it,IT,Europe,Southern Europe,Italy,Tuscany,Province of Arezzo,Arezzo
93.186.247.18,4,29,ondarock.it,IT,Europe,Southern Europe,Italy,Tuscany,Province of Arezzo,Arezzo
31.14.130.68,4,434,Ookla Speedtest Server 40515: it1.speedtest.aruba.it,IT,Europe,Southern Europe,Italy,Tuscany,Province of Arezzo,Arezzo
80.211.139.78,4,38,opencaching.us,IT,Europe,Southern Europe,Italy,Tuscany,Province of Arezzo,Arezzo
80.88.84.220,4,5,orvietonews.it,IT,Europe,Southern Europe,Italy,Tuscany,Province of Arezzo,Arezzo
80.88.87.243,4,656,pablos.it,IT,Europe,Southern Europe,Italy,Tuscany,Province of Arezzo,Arezzo
93.186.242.179,4,4,paginainizio.com,IT,Europe,Southern Europe,Italy,Tuscany,Province of Arezzo,Arezzo
212.237.7.166,4,70,palazzoblu.it,IT,Europe,Southern Europe,Italy,Tuscany,Province of Arezzo,Arezzo
80.88.87.215,4,410,panevinomilano.com,IT,Europe,Southern Europe,Italy,Tuscany,Province of Arezzo,Arezzo
62.149.215.60,4,743,pasta-garofalo.com,IT,Europe,Southern Europe,Italy,Tuscany,Province of Arezzo,Arezzo
62.149.215.39,4,660,pastagarofalo.it,IT,Europe,Southern Europe,Italy,Tuscany,Province of Arezzo,Arezzo
80.88.84.232,4,52,perlapace.it,IT,Europe,Southern Europe,Italy,Tuscany,Province of Arezzo,Arezzo
94.177.174.140,4,2229912,piattaformasolidale.it,IT,Europe,Southern Europe,Italy,Tuscany,Province of Arezzo,Arezzo
46.37.14.19,4,25,piazze.it,IT,Europe,Southern Europe,Italy,Tuscany,Province of Arezzo,Arezzo
80.211.129.70,4,-6209,polistampa.com,IT,Europe,Southern Europe,Italy,Tuscany,Province of Arezzo,Arezzo
93.186.242.84,4,72,powersoft-audio.com,IT,Europe,Southern Europe,Italy,Tuscany,Province of Arezzo,Arezzo
46.37.14.16,4,57,prestitoweb.it,IT,Europe,Southern Europe,Italy,Tuscany,Province of Arezzo,Arezzo
46.37.14.11,4,18,previsionideltempo.it,IT,Europe,Southern Europe,Italy,Tuscany,Province of Arezzo,Arezzo
80.88.87.247,4,715,prosecco.it,IT,Europe,Southern Europe,Italy,Tuscany,Province of Arezzo,Arezzo
46.37.14.40,4,58,publinord.com,IT,Europe,Southern Europe,Italy,Tuscany,Province of Arezzo,Arezzo
94.177.174.183,4,68,radiocittaperta.it,IT,Europe,Southern Europe,Italy,Tuscany,Province of Arezzo,Arezzo
46.37.24.63,4,37,radionovelli.it,IT,Europe,Southern Europe,Italy,Tuscany,Province of Arezzo,Arezzo
80.88.84.242,4,1044,radiopico.it,IT,Europe,Southern Europe,Italy,Tuscany,Province of Arezzo,Arezzo
212.237.29.67,4,22150,radiopuntonuovo.it,IT,Europe,Southern Europe,Italy,Tuscany,Province of Arezzo,Arezzo
94.177.202.112,4,20,railfaneurope.net,IT,Europe,Southern Europe,Italy,Tuscany,Province of Arezzo,Arezzo
80.211.96.38,4,27,raymii.org,IT,Europe,Southern Europe,Italy,Tuscany,Province of Arezzo,Arezzo
80.88.84.240,4,945,redcircuits.com,IT,Europe,Southern Europe,Italy,Tuscany,Province of Arezzo,Arezzo
94.177.182.121,4,104,registri-tumori.it,IT,Europe,Southern Europe,Italy,Tuscany,Province of Arezzo,Arezzo
77.81.230.185,4,30,repetidora.ar,IT,Europe,Southern Europe,Italy,Tuscany,Province of Arezzo,Arezzo
93.186.242.185,4,6,reportergourmet.com,IT,Europe,Southern Europe,Italy,Tuscany,Province of Arezzo,Arezzo
85.235.131.222,4,1543,ricasoli.it,IT,Europe,Southern Europe,Italy,Tuscany,Province of Arezzo,Arezzo
195.225.169.197,4,2450,riccoeneri.com,IT,Europe,Southern Europe,Italy,Tuscany,Province of Arezzo,Arezzo
80.88.87.230,4,428,rifugioburigone.it,IT,Europe,Southern Europe,Italy,Tuscany,Province of Arezzo,Arezzo
85.235.157.118,4,1728,ristoranteyuri2.com,IT,Europe,Southern Europe,Italy,Tuscany,Province of Arezzo,Arezzo
62.149.201.153,4,23,sardegnalive.net,IT,Europe,Southern Europe,Italy,Tuscany,Province of Arezzo,Arezzo
80.88.87.196,4,337,scaleinlegnosrl.com,IT,Europe,Southern Europe,Italy,Tuscany,Province of Arezzo,Arezzo
85.235.130.70,4,795,scfelettrotecnica.it,IT,Europe,Southern Europe,Italy,Tuscany,Province of Arezzo,Arezzo
80.88.84.233,4,11,secolo-trentino.com,IT,Europe,Southern Europe,Italy,Tuscany,Province of Arezzo,Arezzo
93.186.242.177,4,5,seilbahnensulden.it,IT,Europe,Southern Europe,Italy,Tuscany,Province of Arezzo,Arezzo
95.110.129.222,4,45,seozoom.it,IT,Europe,Southern Europe,Italy,Tuscany,Province of Arezzo,Arezzo
212.237.48.35,4,-577,sermig.org,IT,Europe,Southern Europe,Italy,Tuscany,Province of Arezzo,Arezzo
93.186.247.194,4,5,sferisterio.it,IT,Europe,Southern Europe,Italy,Tuscany,Province of Arezzo,Arezzo
185.56.9.37,4,755,sharebot.it,IT,Europe,Southern Europe,Italy,Tuscany,Province of Arezzo,Arezzo
95.110.129.212,4,3,sidemast.org,IT,Europe,Southern Europe,Italy,Tuscany,Province of Arezzo,Arezzo
93.186.242.31,4,6,siracusanews.it,IT,Europe,Southern Europe,Italy,Tuscany,Province of Arezzo,Arezzo
46.37.14.27,4,4,siti.it,IT,Europe,Southern Europe,Italy,Tuscany,Province of Arezzo,Arezzo
85.235.142.21,4,26,skills4u.it,IT,Europe,Southern Europe,Italy,Tuscany,Province of Arezzo,Arezzo
89.36.209.120,4,34,softpointer.com,IT,Europe,Southern Europe,Italy,Tuscany,Province of Arezzo,Arezzo
80.88.87.205,4,338,soluzionidarredosrl.it,IT,Europe,Southern Europe,Italy,Tuscany,Province of Arezzo,Arezzo
93.186.242.28,4,15,soprintendenzaspecialeroma.it,IT,Europe,Southern Europe,Italy,Tuscany,Province of Arezzo,Arezzo
80.211.239.100,4,50,stanzeinaffitto.com,IT,Europe,Southern Europe,Italy,Tuscany,Province of Arezzo,Arezzo
80.211.66.83,4,155,starcomics.com,IT,Europe,Southern Europe,Italy,Tuscany,Province of Arezzo,Arezzo
80.88.87.203,4,732,studiolegaleterrazzano.it,IT,Europe,Southern Europe,Italy,Tuscany,Province of Arezzo,Arezzo
93.186.242.249,4,12,summer-festival.com,IT,Europe,Southern Europe,Italy,Tuscany,Province of Arezzo,Arezzo
94.177.162.87,4,6,surfcorner.it,IT,Europe,Southern Europe,Italy,Tuscany,Province of Arezzo,Arezzo
85.235.159.226,4,-1906,teatrodellatoscana.it,IT,Europe,Southern Europe,Italy,Tuscany,Province of Arezzo,Arezzo
62.149.194.73,4,108,teatroliricodicagliari.it,IT,Europe,Southern Europe,Italy,Tuscany,Province of Arezzo,Arezzo
95.110.149.199,4,106,telefonino.net,IT,Europe,Southern Europe,Italy,Tuscany,Province of Arezzo,Arezzo
95.110.132.79,4,4,teleradiopadrepio.it,IT,Europe,Southern Europe,Italy,Tuscany,Province of Arezzo,Arezzo
94.177.211.60,4,7,torinofc.it,IT,Europe,Southern Europe,Italy,Tuscany,Province of Arezzo,Arezzo
77.81.235.10,4,68,transportonline.com,IT,Europe,Southern Europe,Italy,Tuscany,Province of Arezzo,Arezzo
80.211.13.81,4,768,trivenetogoal.it,IT,Europe,Southern Europe,Italy,Tuscany,Province of Arezzo,Arezzo
95.110.159.180,4,25,tuttitalia.it,IT,Europe,Southern Europe,Italy,Tuscany,Province of Arezzo,Arezzo
80.88.87.159,4,848,vaielettrico.it,IT,Europe,Southern Europe,Italy,Tuscany,Province of Arezzo,Arezzo
95.110.154.27,4,5,valigiablu.it,IT,Europe,Southern Europe,Italy,Tuscany,Province of Arezzo,Arezzo
93.186.244.190,4,19,valtline.it,IT,Europe,Southern Europe,Italy,Tuscany,Province of Arezzo,Arezzo
95.110.157.51,4,1224,vedetta.org,IT,Europe,Southern Europe,Italy,Tuscany,Province of Arezzo,Arezzo
46.37.24.203,4,11,veritaeaffari.it,IT,Europe,Southern Europe,Italy,Tuscany,Province of Arezzo,Arezzo
62.149.128.72,4,17,vicenzae.org,IT,Europe,Southern Europe,Italy,Tuscany,Province of Arezzo,Arezzo
62.149.128.74,4,27,vicenzae.org,IT,Europe,Southern Europe,Italy,Tuscany,Province of Arezzo,Arezzo
62.149.128.163,4,33,vicenzae.org,IT,Europe,Southern Europe,Italy,Tuscany,Province of Arezzo,Arezzo
95.110.149.200,4,113,videogame.it,IT,Europe,Southern Europe,Italy,Tuscany,Province of Arezzo,Arezzo
46.37.14.14,4,11,videoitaliaproduction.com,IT,Europe,Southern Europe,Italy,Tuscany,Province of Arezzo,Arezzo
80.88.84.231,4,5,vigezzinacentovalli.com,IT,Europe,Southern Europe,Italy,Tuscany,Province of Arezzo,Arezzo
89.46.197.35,4,61,vigilfuoco.tv,IT,Europe,Southern Europe,Italy,Tuscany,Province of Arezzo,Arezzo
93.186.242.141,4,-12467,villacarlotta.it,IT,Europe,Southern Europe,Italy,Tuscany,Province of Arezzo,Arezzo
46.37.26.82,4,35,villadeicedri.it,IT,Europe,Southern Europe,Italy,Tuscany,Province of Arezzo,Arezzo
80.211.147.57,4,95,virtus.it,IT,Europe,Southern Europe,Italy,Tuscany,Province of Arezzo,Arezzo
95.110.149.207,4,119,webnews.it,IT,Europe,Southern Europe,Italy,Tuscany,Province of Arezzo,Arezzo
94.177.167.178,4,45,webratio.com,IT,Europe,Southern Europe,Italy,Tuscany,Province of Arezzo,Arezzo
95.110.149.204,4,34,wintricks.it,IT,Europe,Southern Europe,Italy,Tuscany,Province of Arezzo,Arezzo
62.149.128.166,4,11,xylexpo.com,IT,Europe,Southern Europe,Italy,Tuscany,Province of Arezzo,Arezzo
62.149.128.157,4,3,zucchero.it,IT,Europe,Southern Europe,Italy,Tuscany,Province of Arezzo,Arezzo
62.149.128.160,4,3,zucchero.it,IT,Europe,Southern Europe,Italy,Tuscany,Province of Arezzo,Arezzo
62.149.128.154,4,1,zucchero.it,IT,Europe,Southern Europe,Italy,Tuscany,Province of Arezzo,Arezzo
62.149.128.151,4,2,zucchero.it,IT,Europe,Southern Europe,Italy,Tuscany,Province of Arezzo,Arezzo
