reflector_ip,ip_version,offset,description,country_code,region,sub_region,country_name,sub_division_1,sub_division_2,city
200.152.177.46,4,4,4x4brasil.com.br,BR,Americas,Latin America and the Caribbean,Brazil,São Paulo,,Ribeirão Preto
185.239.210.15,4,1,66unblockedgames.com,BR,Americas,Latin America and the Caribbean,Brazil,São Paulo,,São Paulo
187.45.186.42,4,736,aa.org.br,BR,Americas,Latin America and the Caribbean,Brazil,São Paulo,,São Paulo
82.180.134.118,4,3,abag.com.br,BR,Americas,Latin America and the Caribbean,Brazil,São Paulo,,São Paulo
62.72.63.40,4,0,abejor.org.br,BR,Americas,Latin America and the Caribbean,Brazil,São Paulo,,São Paulo
82.180.159.36,4,4,abennacional.org.br,BR,Americas,Latin America and the Caribbean,Brazil,São Paulo,,São Paulo
185.139.2.219,4,6,abinee.org.br,BR,Americas,Latin America and the Caribbean,Brazil,São Paulo,,São Paulo
82.180.158.21,4,0,abpa-br.org,BR,Americas,Latin America and the Caribbean,Brazil,São Paulo,,São Paulo
82.112.247.239,4,4,abraciclo.com.br,BR,Americas,Latin America and the Caribbean,Brazil,São Paulo,,São Paulo
185.173.111.21,4,2,academiachinauy.edu.uy,BR,Americas,Latin America and the Caribbean,Brazil,São Paulo,,São Paulo
147.79.109.194,4,1,academiatlc.com,BR,Americas,Latin America and the Caribbean,Brazil,São Paulo,,São Paulo
191.241.229.253,4,-12,acaoeducativa.org.br,BR,Americas,Latin America and the Caribbean,Brazil,São Paulo,,São Paulo
187.102.157.83,4,19,acaoeducativa.org.br,BR,Americas,Latin America and the Caribbean,Brazil,São Paulo,,São Paulo
147.79.91.136,4,17,acij.org.ar,BR,Americas,Latin America and the Caribbean,Brazil,São Paulo,,São Paulo
195.200.3.155,4,19,adtgamer.com.br,BR,Americas,Latin America and the Caribbean,Brazil,São Paulo,,São Paulo
195.35.43.65,4,0,aepet.org.br,BR,Americas,Latin America and the Caribbean,Brazil,São Paulo,,São Paulo
45.151.121.82,4,5,agencianovaacao.com.br,BR,Americas,Latin America and the Caribbean,Brazil,São Paulo,,São Paulo
54.233.240.245,4,6,agenteimovel.com.br,BR,Americas,Latin America and the Caribbean,Brazil,São Paulo,,São Paulo
102.165.25.200,4,10,agorarn.com.br,BR,Americas,Latin America and the Caribbean,Brazil,São Paulo,,São Paulo
77.37.127.106,4,5,agrosmart.com.br,BR,Americas,Latin America and the Caribbean,Brazil,São Paulo,,São Paulo
34.95.253.60,4,6,ahkbrasil.com,BR,Americas,Latin America and the Caribbean,Brazil,São Paulo,,São Paulo
217.196.59.100,4,13,airports-terminal.com,BR,Americas,Latin America and the Caribbean,Brazil,São Paulo,,São Paulo
91.108.124.158,4,13,alafa.info,BR,Americas,Latin America and the Caribbean,Brazil,São Paulo,,São Paulo
66.22.76.78,4,13,alicorp.com.pe,BR,Americas,Latin America and the Caribbean,Brazil,São Paulo,,São Paulo
147.79.90.185,4,43,altabooks.com.br,BR,Americas,Latin America and the Caribbean,Brazil,São Paulo,,São Paulo
45.152.46.21,4,1,alvanista.com,BR,Americas,Latin America and the Caribbean,Brazil,São Paulo,,São Paulo
200.219.255.156,4,986,amazonia.org.br,BR,Americas,Latin America and the Caribbean,Brazil,São Paulo,,São Paulo
144.22.156.107,4,17,anbient.com,BR,Americas,Latin America and the Caribbean,Brazil,São Paulo,,São Paulo
77.37.127.160,4,1,androp.com.br,BR,Americas,Latin America and the Caribbean,Brazil,São Paulo,,São Paulo
93.127.188.40,4,16,aquinoticias.com,BR,Americas,Latin America and the Caribbean,Brazil,São Paulo,,São Paulo
5.188.238.169,4,28,argenpress.info,BR,Americas,Latin America and the Caribbean,Brazil,São Paulo,,Santana de Parnaíba
149.62.37.136,4,10,artstore.com.br,BR,Americas,Latin America and the Caribbean,Brazil,São Paulo,,São Paulo
35.198.56.30,4,34,asopat.com,BR,Americas,Latin America and the Caribbean,Brazil,São Paulo,,São Paulo
216.238.110.130,4,8,astroamerica.com,BR,Americas,Latin America and the Caribbean,Brazil,São Paulo,,Osasco
177.69.20.57,4,6,atena.org.br,BR,Americas,Latin America and the Caribbean,Brazil,São Paulo,,São Paulo
185.213.81.46,4,968,australianinfront.com.au,BR,Americas,Latin America and the Caribbean,Brazil,São Paulo,,São Paulo
147.79.88.171,4,3,avai.com.br,BR,Americas,Latin America and the Caribbean,Brazil,São Paulo,,São Paulo
82.112.247.238,4,47,bancodevida.com,BR,Americas,Latin America and the Caribbean,Brazil,São Paulo,,São Paulo
23.223.204.16,4,27,bancopan.com.br,BR,Americas,Latin America and the Caribbean,Brazil,São Paulo,,São Paulo
89.116.224.151,4,0,bandaturbo.com.br,BR,Americas,Latin America and the Caribbean,Brazil,São Paulo,,São Paulo
185.239.210.150,4,18,bds.edu.ar,BR,Americas,Latin America and the Caribbean,Brazil,São Paulo,,São Paulo
93.127.191.6,4,70,blogpot.com,BR,Americas,Latin America and the Caribbean,Brazil,São Paulo,,São Paulo
154.49.247.47,4,5,bluevertigo.com.ar,BR,Americas,Latin America and the Caribbean,Brazil,São Paulo,,São Paulo
66.22.29.17,4,8,bolsadesantiago.com,BR,Americas,Latin America and the Caribbean,Brazil,São Paulo,,São Paulo
35.215.237.182,4,7,br-ie.org,BR,Americas,Latin America and the Caribbean,Brazil,São Paulo,,São Paulo
177.52.160.16,4,226,brasilsulmudancas.com.br,BR,Americas,Latin America and the Caribbean,Brazil,São Paulo,,São Paulo
45.132.157.2,4,3,byinti.com,BR,Americas,Latin America and the Caribbean,Brazil,São Paulo,,São Paulo
223.27.112.128,4,4,cafetortoni.com.ar,BR,Americas,Latin America and the Caribbean,Brazil,São Paulo,,São Paulo
89.116.115.230,4,8,caminandoargentina.com,BR,Americas,Latin America and the Caribbean,Brazil,São Paulo,,São Paulo
147.79.92.90,4,3,camlibro.com.co,BR,Americas,Latin America and the Caribbean,Brazil,São Paulo,,São Paulo
149.100.155.137,4,14,carimbosemsaopaulo.com.br,BR,Americas,Latin America and the Caribbean,Brazil,São Paulo,,São Paulo
45.152.44.15,4,53,carlosvives.com,BR,Americas,Latin America and the Caribbean,Brazil,São Paulo,,São Paulo
185.173.111.16,4,2,cbcesports.com,BR,Americas,Latin America and the Caribbean,Brazil,São Paulo,,São Paulo
92.113.36.131,4,3,cbncuritiba.com.br,BR,Americas,Latin America and the Caribbean,Brazil,São Paulo,,São Paulo
62.72.10.38,4,3,certi.org.br,BR,Americas,Latin America and the Caribbean,Brazil,São Paulo,,São Paulo
193.123.96.2,4,1,china-cas.org,BR,Americas,Latin America and the Caribbean,Brazil,São Paulo,,Vinhedo
62.72.10.86,4,2,cia.org.ar,BR,Americas,Latin America and the Caribbean,Brazil,São Paulo,,São Paulo
195.200.3.213,4,8,ciclonovo.com.br,BR,Americas,Latin America and the Caribbean,Brazil,São Paulo,,São Paulo
62.72.10.236,4,13,cienciahoje.org.br,BR,Americas,Latin America and the Caribbean,Brazil,São Paulo,,São Paulo
85.31.229.133,4,4,ciencialatina.org,BR,Americas,Latin America and the Caribbean,Brazil,São Paulo,,São Paulo
149.18.50.18,4,-312287,cinepop.com.br,BR,Americas,Latin America and the Caribbean,Brazil,São Paulo,,São Paulo
66.22.28.177,4,4,ciriontechnologies.com,BR,Americas,Latin America and the Caribbean,Brazil,São Paulo,,São Paulo
200.155.173.74,4,5,climatempo.com.br,BR,Americas,Latin America and the Caribbean,Brazil,São Paulo,,São Paulo
159.138.208.112,4,21,cofen.gov.br,BR,Americas,Latin America and the Caribbean,Brazil,São Paulo,,São Paulo
159.138.208.107,4,19,cofen.gov.br,BR,Americas,Latin America and the Caribbean,Brazil,São Paulo,,São Paulo
159.138.208.110,4,20,cofen.gov.br,BR,Americas,Latin America and the Caribbean,Brazil,São Paulo,,São Paulo
147.79.89.116,4,4,comerciozapa.com.br,BR,Americas,Latin America and the Caribbean,Brazil,São Paulo,,São Paulo
45.151.121.229,4,8,comexdobrasil.com,BR,Americas,Latin America and the Caribbean,Brazil,São Paulo,,São Paulo
192.142.231.57,4,4,concursosfau.com.br,BR,Americas,Latin America and the Caribbean,Brazil,São Paulo,,São Paulo
82.180.158.97,4,4,conic.org.br,BR,Americas,Latin America and the Caribbean,Brazil,São Paulo,,São Paulo
77.37.127.29,4,3,cooperaccion.org.pe,BR,Americas,Latin America and the Caribbean,Brazil,São Paulo,,São Paulo
82.180.156.87,4,44,correiodobrasil.com.br,BR,Americas,Latin America and the Caribbean,Brazil,São Paulo,,São Paulo
66.22.28.13,4,5,correos.cl,BR,Americas,Latin America and the Caribbean,Brazil,São Paulo,,São Paulo
149.100.155.223,4,0,costaintima.com.ar,BR,Americas,Latin America and the Caribbean,Brazil,São Paulo,,São Paulo
147.79.92.75,4,3,cotrijal.com.br,BR,Americas,Latin America and the Caribbean,Brazil,São Paulo,,São Paulo
144.22.217.113,4,5,cpqd.com.br,BR,Americas,Latin America and the Caribbean,Brazil,São Paulo,,São Paulo
177.54.146.223,4,744,crfsp.org.br,BR,Americas,Latin America and the Caribbean,Brazil,São Paulo,,São Paulo
154.56.48.222,4,20,criticanarede.com,BR,Americas,Latin America and the Caribbean,Brazil,São Paulo,,São Paulo
86.38.190.22,4,9,crvascodagama.com,BR,Americas,Latin America and the Caribbean,Brazil,São Paulo,,São Paulo
201.48.32.103,4,313,ctbdigital.com.br,BR,Americas,Latin America and the Caribbean,Brazil,São Paulo,,São Paulo
216.238.98.22,4,3,cubaliteraria.com,BR,Americas,Latin America and the Caribbean,Brazil,São Paulo,,Osasco
82.180.159.1,4,24,curadas.com,BR,Americas,Latin America and the Caribbean,Brazil,São Paulo,,São Paulo
52.67.2.141,4,2,cutelyst.org,BR,Americas,Latin America and the Caribbean,Brazil,São Paulo,,São Paulo
82.180.159.51,4,2,dagema.digital,BR,Americas,Latin America and the Caribbean,Brazil,São Paulo,,São Paulo
77.37.127.165,4,4,davijah.com.br,BR,Americas,Latin America and the Caribbean,Brazil,São Paulo,,São Paulo
35.198.47.45,4,4,dermasthetic.com,BR,Americas,Latin America and the Caribbean,Brazil,São Paulo,,São Paulo
185.173.111.157,4,1,dgpc.com.ar,BR,Americas,Latin America and the Caribbean,Brazil,São Paulo,,São Paulo
149.100.155.144,4,3,diprotec.com.br,BR,Americas,Latin America and the Caribbean,Brazil,São Paulo,,São Paulo
138.186.172.214,4,31,DNS Server: 138-186-172-214.redebandalarga.net.br,BR,Americas,Latin America and the Caribbean,Brazil,São Paulo,,Carapicuíba
138.255.108.121,4,83,DNS Server: 138-255-108-121.rev.nocworldwifi.com.br,BR,Americas,Latin America and the Caribbean,Brazil,São Paulo,,Barueri
152.250.250.69,4,120,DNS Server: 152-250-250-69.user.vivozap.com.br,BR,Americas,Latin America and the Caribbean,Brazil,São Paulo,,São Paulo
177.139.163.26,4,-7368935,DNS Server: 177-139-163-26.dsl.telesp.net.br,BR,Americas,Latin America and the Caribbean,Brazil,São Paulo,,São Paulo
177.144.128.64,4,168,DNS Server: 177-144-128-64.user.vivozap.com.br,BR,Americas,Latin America and the Caribbean,Brazil,São Paulo,,Praia Grande
177.200.69.231,4,-52980135,DNS Server: 177-200-69-231.alcanstelecom.com.br,BR,Americas,Latin America and the Caribbean,Brazil,São Paulo,,Ribeirão Preto
177.55.54.67,4,100,DNS Server: 177-55-54-67.webbytelecom.com.br,BR,Americas,Latin America and the Caribbean,Brazil,São Paulo,,Maracaí
177.74.188.229,4,131,DNS Server: 177-74-188-229.alcanstelecom.com.br,BR,Americas,Latin America and the Caribbean,Brazil,São Paulo,,Ribeirão Preto
177.74.190.164,4,100,DNS Server: 177-74-190-164.alcanstelecom.com.br,BR,Americas,Latin America and the Caribbean,Brazil,São Paulo,,Ribeirão Preto
177.94.208.128,4,4601,DNS Server: 177-94-208-128.dsl.telesp.net.br,BR,Americas,Latin America and the Caribbean,Brazil,São Paulo,,São Paulo
177.23.250.47,4,126,DNS Server: 177.23.250.47.ursoftdns.com.br,BR,Americas,Latin America and the Caribbean,Brazil,São Paulo,,Santo André
179.108.104.172,4,1406524,DNS Server: 179-108-104-172.static.ctbctelecom.com.br,BR,Americas,Latin America and the Caribbean,Brazil,São Paulo,,São Paulo
179.191.245.87,4,24453,DNS Server: 179-191-245-87-dynamic.nrconexoes.com.br,BR,Americas,Latin America and the Caribbean,Brazil,São Paulo,,Rio Claro
179.93.100.18,4,1858,DNS Server: 179-93-100-18.user.vivozap.com.br,BR,Americas,Latin America and the Caribbean,Brazil,São Paulo,,São Paulo
179.99.245.209,4,255,DNS Server: 179-99-245-209.dsl.telesp.net.br,BR,Americas,Latin America and the Caribbean,Brazil,São Paulo,,São Paulo
186.201.220.34,4,-1037,DNS Server: 186-201-220-34.customer.tdatabrasil.net.br,BR,Americas,Latin America and the Caribbean,Brazil,São Paulo,,São Vicente
186.209.43.114,4,-61682,DNS Server: 186-209-43-114.netturbo.com.br,BR,Americas,Latin America and the Caribbean,Brazil,São Paulo,,Santos
186.227.163.199,4,13,DNS Server: 186-227-163-199.dattas.com.br,BR,Americas,Latin America and the Caribbean,Brazil,São Paulo,,Bady Bassitt
187.11.207.174,4,12820,DNS Server: 187-11-207-174.dsl.telesp.net.br,BR,Americas,Latin America and the Caribbean,Brazil,São Paulo,,Sorocaba
187.35.169.110,4,32309484,DNS Server: 187-35-169-110.dsl.telesp.net.br,BR,Americas,Latin America and the Caribbean,Brazil,São Paulo,,São Paulo
187.50.174.194,4,-56303,DNS Server: 187-50-174-194.customer.tdatabrasil.net.br,BR,Americas,Latin America and the Caribbean,Brazil,São Paulo,,São Paulo
187.50.204.11,4,35,DNS Server: 187-50-204-11.customer.tdatabrasil.net.br,BR,Americas,Latin America and the Caribbean,Brazil,São Paulo,,Piracicaba
187.50.88.106,4,12,DNS Server: 187-50-88-106.customer.tdatabrasil.net.br,BR,Americas,Latin America and the Caribbean,Brazil,São Paulo,,Campinas
187.8.182.1,4,49,DNS Server: 187-8-182-1.customer.tdatabrasil.net.br,BR,Americas,Latin America and the Caribbean,Brazil,São Paulo,,São Paulo
187.9.181.2,4,10,DNS Server: 187-9-181-2.customer.tdatabrasil.net.br,BR,Americas,Latin America and the Caribbean,Brazil,São Paulo,,São Paulo
187.93.73.138,4,47,DNS Server: 187-93-73-138.customer.tdatabrasil.net.br,BR,Americas,Latin America and the Caribbean,Brazil,São Paulo,,Vargem Grande Paulista
187.95.184.142,4,676,DNS Server: 187-95-184-142.vianet.net.br,BR,Americas,Latin America and the Caribbean,Brazil,São Paulo,,Jundiaí
187.121.156.166,4,2,DNS Server: 187.121.156.166.insidetelecom.com.br,BR,Americas,Latin America and the Caribbean,Brazil,São Paulo,,Araçatuba
187.95.18.51,4,1432,DNS Server: 187.95.18.51.netjacarei.NipCable.com,BR,Americas,Latin America and the Caribbean,Brazil,São Paulo,,Jacareí
189.1.153.223,4,885,DNS Server: 189-1-153-223-wlan.lpnet.com.br,BR,Americas,Latin America and the Caribbean,Brazil,São Paulo,,Jaú
189.108.16.206,4,8589,DNS Server: 189-108-16-206.customer.tdatabrasil.net.br,BR,Americas,Latin America and the Caribbean,Brazil,São Paulo,,São Paulo
189.19.254.196,4,4677,DNS Server: 189-19-254-196.dsl.telesp.net.br,BR,Americas,Latin America and the Caribbean,Brazil,São Paulo,,São Paulo
189.56.121.33,4,10,DNS Server: 189-56-121-33.customer.tdatabrasil.net.br,BR,Americas,Latin America and the Caribbean,Brazil,São Paulo,,São Paulo
189.56.123.82,4,26678,DNS Server: 189-56-123-82.customer.tdatabrasil.net.br,BR,Americas,Latin America and the Caribbean,Brazil,São Paulo,,São Paulo
189.56.162.181,4,13,DNS Server: 189-56-162-181.customer.tdatabrasil.net.br,BR,Americas,Latin America and the Caribbean,Brazil,São Paulo,,Santos
189.56.188.166,4,-3734622876,DNS Server: 189-56-188-166.customer.tdatabrasil.net.br,BR,Americas,Latin America and the Caribbean,Brazil,São Paulo,,Santos
189.56.96.186,4,-38185296,DNS Server: 189-56-96-186.customer.tdatabrasil.net.br,BR,Americas,Latin America and the Caribbean,Brazil,São Paulo,,São Paulo
189.78.142.32,4,9285731,DNS Server: 189-78-142-32.dsl.telesp.net.br,BR,Americas,Latin America and the Caribbean,Brazil,São Paulo,,São Carlos
189.91.231.115,4,-36332489,DNS Server: 189-91-231-115-wlan.lpnet.com.br,BR,Americas,Latin America and the Caribbean,Brazil,São Paulo,,Lençóis Paulista
191.13.135.23,4,104,DNS Server: 191-13-135-23.user.vivozap.com.br,BR,Americas,Latin America and the Caribbean,Brazil,São Paulo,,São Paulo
191.209.40.221,4,16,DNS Server: 191-209-40-221.user.vivozap.com.br,BR,Americas,Latin America and the Caribbean,Brazil,São Paulo,,Ribeirão Preto
191.209.99.143,4,162,DNS Server: 191-209-99-143.user.vivozap.com.br,BR,Americas,Latin America and the Caribbean,Brazil,São Paulo,,São Paulo
191.9.121.7,4,20663,DNS Server: 191-9-121-7.user.vivozap.com.br,BR,Americas,Latin America and the Caribbean,Brazil,São Paulo,,São Paulo
200.148.169.234,4,-44108341,DNS Server: 200-148-169-234.customer.tdatabrasil.net.br,BR,Americas,Latin America and the Caribbean,Brazil,São Paulo,,São Paulo
200.155.169.114,4,7211,DNS Server: 200-155-169-114.static.telium.net.br,BR,Americas,Latin America and the Caribbean,Brazil,São Paulo,,São Paulo
200.159.108.94,4,16,DNS Server: 200-159-108-94.customer.tdatabrasil.net.br,BR,Americas,Latin America and the Caribbean,Brazil,São Paulo,,Elias Fausto
200.171.88.168,4,229457,DNS Server: 200-171-88-168.dsl.telesp.net.br,BR,Americas,Latin America and the Caribbean,Brazil,São Paulo,,São Paulo
200.201.138.101,4,-62782,DNS Server: 200-201-138-101.static.telium.net.br,BR,Americas,Latin America and the Caribbean,Brazil,São Paulo,,São Paulo
200.204.161.218,4,20,DNS Server: 200-204-161-218.dsl.telesp.net.br,BR,Americas,Latin America and the Caribbean,Brazil,São Paulo,,São Paulo
200.205.248.243,4,13,DNS Server: 200-205-248-243.customer.tdatabrasil.net.br,BR,Americas,Latin America and the Caribbean,Brazil,São Paulo,,Araraquara
200.207.143.93,4,125,DNS Server: 200-207-143-93.dsl.telesp.net.br,BR,Americas,Latin America and the Caribbean,Brazil,São Paulo,,Sorocaba
200.229.78.84,4,9,DNS Server: 200-229-78-84.mustanet.com.br.78.229.200.in-addr.arpa,BR,Americas,Latin America and the Caribbean,Brazil,São Paulo,,Piracicaba
200.53.218.220,4,11508,DNS Server: 200.53.218.220.redfoxtelecom.com.br,BR,Americas,Latin America and the Caribbean,Brazil,São Paulo,,Guarulhos
201.16.214.164,4,577080,DNS Server: 201-016-214-164.static.ctbctelecom.com.br,BR,Americas,Latin America and the Caribbean,Brazil,São Paulo,,São Paulo
201.16.253.25,4,17,DNS Server: 201-016-253-025.static.ctbctelecom.com.br,BR,Americas,Latin America and the Caribbean,Brazil,São Paulo,,Jacareí
177.52.247.201,4,142,DNS Server: 201-247-52-177.vivasinternet.com.br,BR,Americas,Latin America and the Caribbean,Brazil,São Paulo,,Guararema
201.42.58.72,4,-6533350,DNS Server: 201-42-58-72.dsl.telesp.net.br,BR,Americas,Latin America and the Caribbean,Brazil,São Paulo,,São Bernardo do Campo
201.46.33.75,4,86113,DNS Server: 201-46-33-75.clientes.cilnet.com.br,BR,Americas,Latin America and the Caribbean,Brazil,São Paulo,,Cerquilho
201.54.232.42,4,26,DNS Server: 201-54-232-42-dns-bre.linktel.net.br,BR,Americas,Latin America and the Caribbean,Brazil,São Paulo,,Itapevi
201.46.28.191,4,-7909,DNS Server: 201.46.28.191.access.a85.com.br,BR,Americas,Latin America and the Caribbean,Brazil,São Paulo,,São Paulo
204.199.52.18,4,675827,DNS Server: 204-199-52-18.dia.static.centurylink.com.br,BR,Americas,Latin America and the Caribbean,Brazil,São Paulo,,São Paulo
216.238.98.60,4,50,DNS Server: 216.238.98.60.vultrusercontent.com,BR,Americas,Latin America and the Caribbean,Brazil,São Paulo,,Osasco
45.236.55.233,4,4,DNS Server: 233.55.236.45.fiberbandalarga.com.br,BR,Americas,Latin America and the Caribbean,Brazil,São Paulo,,São Paulo
187.62.191.3,4,8,DNS Server: 3.191.62.187.cnnet.com.br,BR,Americas,Latin America and the Caribbean,Brazil,São Paulo,,Bariri
45.163.40.82,4,6528,DNS Server: 45-163-40-082.gruponetsolution.com.br,BR,Americas,Latin America and the Caribbean,Brazil,São Paulo,,Taquarituba
45.163.86.175,4,35094,DNS Server: 45-163-86-175.dynamic.globallive.com.br,BR,Americas,Latin America and the Caribbean,Brazil,São Paulo,,Campinas
45.176.175.27,4,47108,DNS Server: 45-176-175-27.2bbandalarga.com.br,BR,Americas,Latin America and the Caribbean,Brazil,São Paulo,,Orindiúva
45.226.74.127,4,520,DNS Server: 45-226-74-127.ariastelecom.com.br,BR,Americas,Latin America and the Caribbean,Brazil,São Paulo,,São Paulo
45.238.228.252,4,20015,DNS Server: 45-238-228-252.static.redenetprovedor.com.br,BR,Americas,Latin America and the Caribbean,Brazil,São Paulo,,Bauru
45.231.90.29,4,-4829484,DNS Server: 45.231.90.29.jotazotelecom.com.br,BR,Americas,Latin America and the Caribbean,Brazil,São Paulo,,Itapirapuã Paulista
8.242.48.20,4,1939,DNS Server: 8-242-4X-20.centurylink.com.br,BR,Americas,Latin America and the Caribbean,Brazil,São Paulo,,São Paulo
8.242.48.97,4,38,DNS Server: 8-242-4X-97.centurylink.com.br,BR,Americas,Latin America and the Caribbean,Brazil,São Paulo,,São Paulo
186.224.105.50,4,38,DNS Server: cluster01.insidesign.com.br,BR,Americas,Latin America and the Caribbean,Brazil,São Paulo,,Ribeirão Preto
45.185.237.248,4,38,DNS Server: dinamic-248.237.185.45.vivanett.com.br,BR,Americas,Latin America and the Caribbean,Brazil,São Paulo,,Serrana
177.20.178.12,4,8006,DNS Server: dynamic-177-20-178-12.portalqueops.net.br,BR,Americas,Latin America and the Caribbean,Brazil,São Paulo,,Piracicaba
186.249.27.191,4,-131797,DNS Server: dynamic-186-249-27-191.telecominternet.net.br,BR,Americas,Latin America and the Caribbean,Brazil,São Paulo,,Cordeirópolis
54.94.226.225,4,98,DNS Server: ec2-54-94-226-225.sa-east-1.compute.amazonaws.com,BR,Americas,Latin America and the Caribbean,Brazil,São Paulo,,São Paulo
179.111.209.33,4,50,DNS Server: fw02.microgate.com.br,BR,Americas,Latin America and the Caribbean,Brazil,São Paulo,,São Paulo
72.44.21.239,4,28,DNS Server: globalnet.srv.br,BR,Americas,Latin America and the Caribbean,Brazil,São Paulo,,Suzano
132.255.73.248,4,1204,DNS Server: host-132-255-73-248.megaredes.net.br,BR,Americas,Latin America and the Caribbean,Brazil,São Paulo,,Primavera
132.255.73.255,4,15,DNS Server: host-132-255-73-255.megaredes.net.br,BR,Americas,Latin America and the Caribbean,Brazil,São Paulo,,Primavera
186.235.33.78,4,66398,DNS Server: hosts-186-235-33-78.zaaztelecom.com.br,BR,Americas,Latin America and the Caribbean,Brazil,São Paulo,,Cerqueira César
177.92.123.158,4,230,DNS Server: mvx-177-92-123-158.mundivox.com,BR,Americas,Latin America and the Caribbean,Brazil,São Paulo,,São Paulo
187.102.142.66,4,211,DNS Server: mvx-187-102-142-66.mundivox.com,BR,Americas,Latin America and the Caribbean,Brazil,São Paulo,,São Paulo
45.231.154.65,4,38602,DNS Server: proxerinternet.com.br,BR,Americas,Latin America and the Caribbean,Brazil,São Paulo,,Pirapora do Bom Jesus
190.109.79.118,4,156784,DNS Server: rev.190.109.79.118.inovetelecomunicacoes.net.br,BR,Americas,Latin America and the Caribbean,Brazil,São Paulo,,Campinas
77.37.127.94,4,12,docepresente.com.br,BR,Americas,Latin America and the Caribbean,Brazil,São Paulo,,São Paulo
2.59.150.208,4,1,dragabrieladalrosso.com.br,BR,Americas,Latin America and the Caribbean,Brazil,São Paulo,,São Paulo
54.94.155.202,4,0,dype.com.br,BR,Americas,Latin America and the Caribbean,Brazil,São Paulo,,São Paulo
187.102.244.21,4,3,ecommercebrasil.com.br,BR,Americas,Latin America and the Caribbean,Brazil,São Paulo,,São Paulo
193.203.180.253,4,3,econojournal.com.ar,BR,Americas,Latin America and the Caribbean,Brazil,São Paulo,,São Paulo
154.49.247.13,4,3,ecvitoria.com.br,BR,Americas,Latin America and the Caribbean,Brazil,São Paulo,,São Paulo
217.196.56.173,4,33,elhistoriador.com.ar,BR,Americas,Latin America and the Caribbean,Brazil,São Paulo,,São Paulo
177.154.147.203,4,15,eliane.com,BR,Americas,Latin America and the Caribbean,Brazil,São Paulo,,São Paulo
45.179.90.160,4,658,embelleze.com,BR,Americas,Latin America and the Caribbean,Brazil,São Paulo,,São Paulo
35.215.248.42,4,7,embrapii.org.br,BR,Americas,Latin America and the Caribbean,Brazil,São Paulo,,São Paulo
154.56.48.107,4,4,encantocortinas.com,BR,Americas,Latin America and the Caribbean,Brazil,São Paulo,,São Paulo
185.245.180.68,4,63,escoladocaminho.com,BR,Americas,Latin America and the Caribbean,Brazil,São Paulo,,São Paulo
45.152.46.30,4,17,escolhas.org,BR,Americas,Latin America and the Caribbean,Brazil,São Paulo,,São Paulo
77.37.127.44,4,6,ethernalro.com,BR,Americas,Latin America and the Caribbean,Brazil,São Paulo,,São Paulo
147.79.108.236,4,5,eureca.me,BR,Americas,Latin America and the Caribbean,Brazil,São Paulo,,São Paulo
147.79.108.199,4,3,eurolatinstudies.com,BR,Americas,Latin America and the Caribbean,Brazil,São Paulo,,São Paulo
45.152.46.188,4,3,expressrentautos.com,BR,Americas,Latin America and the Caribbean,Brazil,São Paulo,,São Paulo
149.100.155.129,4,9,f3tecnologia.com.br,BR,Americas,Latin America and the Caribbean,Brazil,São Paulo,,São Paulo
185.211.7.14,4,4,fafire.br,BR,Americas,Latin America and the Caribbean,Brazil,São Paulo,,São Paulo
92.113.36.154,4,1,faradaysec.com,BR,Americas,Latin America and the Caribbean,Brazil,São Paulo,,São Paulo
185.9.54.207,4,1,fasb.com.br,BR,Americas,Latin America and the Caribbean,Brazil,São Paulo,,São Paulo
201.55.32.226,4,14,fatecsp.br,BR,Americas,Latin America and the Caribbean,Brazil,São Paulo,,São Paulo
179.191.98.230,4,7,fecap.br,BR,Americas,Latin America and the Caribbean,Brazil,São Paulo,,São Paulo
181.215.46.243,4,26,feiradorolomogi.com.br,BR,Americas,Latin America and the Caribbean,Brazil,São Paulo,,Osasco
89.116.224.69,4,3,feitonasix.com.br,BR,Americas,Latin America and the Caribbean,Brazil,São Paulo,,São Paulo
177.170.10.149,4,-11708,fepaf.org.br,BR,Americas,Latin America and the Caribbean,Brazil,São Paulo,,São Paulo
195.35.40.197,4,14,file.org.br,BR,Americas,Latin America and the Caribbean,Brazil,São Paulo,,São Paulo
185.213.81.68,4,6,flexclean.com.br,BR,Americas,Latin America and the Caribbean,Brazil,São Paulo,,São Paulo
89.117.7.66,4,6,flightdeck.com.br,BR,Americas,Latin America and the Caribbean,Brazil,São Paulo,,São Paulo
185.211.7.6,4,16,fnlij.org.br,BR,Americas,Latin America and the Caribbean,Brazil,São Paulo,,São Paulo
177.52.160.63,4,1072,fontesville.com.br,BR,Americas,Latin America and the Caribbean,Brazil,São Paulo,,São Paulo
82.180.159.122,4,57,fopea.org,BR,Americas,Latin America and the Caribbean,Brazil,São Paulo,,São Paulo
78.111.102.100,4,3,foradoar.org,BR,Americas,Latin America and the Caribbean,Brazil,São Paulo,,São Paulo
78.111.102.106,4,2,foradoar.org,BR,Americas,Latin America and the Caribbean,Brazil,São Paulo,,São Paulo
187.102.244.43,4,2,foradoar.org,BR,Americas,Latin America and the Caribbean,Brazil,São Paulo,,São Paulo
18.228.21.147,4,5,forumseguranca.org.br,BR,Americas,Latin America and the Caribbean,Brazil,São Paulo,,São Paulo
35.247.200.188,4,10,fundacionsol.cl,BR,Americas,Latin America and the Caribbean,Brazil,São Paulo,,São Paulo
45.152.46.27,4,1,fundagan.org.co,BR,Americas,Latin America and the Caribbean,Brazil,São Paulo,,São Paulo
195.35.41.180,4,55,funturu.com,BR,Americas,Latin America and the Caribbean,Brazil,São Paulo,,São Paulo
147.79.88.243,4,0,gabinetedatransicao.com.br,BR,Americas,Latin America and the Caribbean,Brazil,São Paulo,,São Paulo
82.180.153.49,4,13,galeriaspacifico.com.ar,BR,Americas,Latin America and the Caribbean,Brazil,São Paulo,,São Paulo
172.233.1.120,4,-14,gazetabrasil.com.br,BR,Americas,Latin America and the Caribbean,Brazil,São Paulo,,São Paulo
35.215.225.55,4,6,ghorganics.com,BR,Americas,Latin America and the Caribbean,Brazil,São Paulo,,São Paulo
191.101.62.52,4,22,gipsyteam.com.br,BR,Americas,Latin America and the Caribbean,Brazil,São Paulo,,São Paulo
35.215.213.20,4,14,go2peru.com,BR,Americas,Latin America and the Caribbean,Brazil,São Paulo,,São Paulo
203.159.80.234,4,2,guaranifc.com.br,BR,Americas,Latin America and the Caribbean,Brazil,São Paulo,,Sorocaba
200.152.191.40,4,2,hagah.com.br,BR,Americas,Latin America and the Caribbean,Brazil,São Paulo,,Ribeirão Preto
45.152.46.125,4,24,highstuff.com,BR,Americas,Latin America and the Caribbean,Brazil,São Paulo,,São Paulo
89.116.115.157,4,2,hmlaw.com.br,BR,Americas,Latin America and the Caribbean,Brazil,São Paulo,,São Paulo
149.18.50.184,4,2,hnetsites.com.br,BR,Americas,Latin America and the Caribbean,Brazil,São Paulo,,São Paulo
35.247.255.203,4,6,ibccrim.org.br,BR,Americas,Latin America and the Caribbean,Brazil,São Paulo,,São Paulo
185.211.7.91,4,11,ibecensino.org.br,BR,Americas,Latin America and the Caribbean,Brazil,São Paulo,,São Paulo
15.229.60.254,4,3,ibgpconcursos.com.br,BR,Americas,Latin America and the Caribbean,Brazil,São Paulo,,São Paulo
54.232.109.197,4,5,ibgpconcursos.com.br,BR,Americas,Latin America and the Caribbean,Brazil,São Paulo,,São Paulo
185.173.111.224,4,4,idecan.org.br,BR,Americas,Latin America and the Caribbean,Brazil,São Paulo,,São Paulo
77.37.127.19,4,21,ieps.org.br,BR,Americas,Latin America and the Caribbean,Brazil,São Paulo,,São Paulo
154.49.247.168,4,3,imageagency.com.br,BR,Americas,Latin America and the Caribbean,Brazil,São Paulo,,São Paulo
144.22.207.102,4,3,impa.br,BR,Americas,Latin America and the Caribbean,Brazil,São Paulo,,São Paulo
119.8.73.248,4,91,infocampo.com.ar,BR,Americas,Latin America and the Caribbean,Brazil,São Paulo,,São Paulo
119.8.79.14,4,61,infotechnology.com,BR,Americas,Latin America and the Caribbean,Brazil,São Paulo,,São Paulo
119.8.87.48,4,2,infrasa.gov.br,BR,Americas,Latin America and the Caribbean,Brazil,São Paulo,,São Paulo
34.95.241.252,4,3,institutotomieohtake.org.br,BR,Americas,Latin America and the Caribbean,Brazil,São Paulo,,São Paulo
45.178.224.77,4,3,interprimetec.com.br,BR,Americas,Latin America and the Caribbean,Brazil,São Paulo,,Barueri
185.145.38.91,4,2,ipt.br,BR,Americas,Latin America and the Caribbean,Brazil,São Paulo,,São Paulo
62.72.62.228,4,2,issindustrial.com,BR,Americas,Latin America and the Caribbean,Brazil,São Paulo,,São Paulo
216.238.100.201,4,3,jmnoticia.com.br,BR,Americas,Latin America and the Caribbean,Brazil,São Paulo,,Osasco
45.225.80.29,4,-12,jmvstream.com,BR,Americas,Latin America and the Caribbean,Brazil,São Paulo,,São Paulo
195.35.41.210,4,3,jornaldiadia.com.br,BR,Americas,Latin America and the Caribbean,Brazil,São Paulo,,São Paulo
192.142.230.43,4,-6,jrs.digital,BR,Americas,Latin America and the Caribbean,Brazil,São Paulo,,São Paulo
195.200.3.167,4,2,judao.com.br,BR,Americas,Latin America and the Caribbean,Brazil,São Paulo,,São Paulo
167.88.35.228,4,2,juliapetit.com.br,BR,Americas,Latin America and the Caribbean,Brazil,São Paulo,,São Paulo
154.49.247.192,4,2,k10k.net,BR,Americas,Latin America and the Caribbean,Brazil,São Paulo,,São Paulo
89.116.115.76,4,19,kaseifu.biz,BR,Americas,Latin America and the Caribbean,Brazil,São Paulo,,São Paulo
62.72.62.31,4,12,kranec.ec,BR,Americas,Latin America and the Caribbean,Brazil,São Paulo,,São Paulo
93.127.188.200,4,20,landbroker.com.br,BR,Americas,Latin America and the Caribbean,Brazil,São Paulo,,São Paulo
34.151.213.219,4,2,leadster.com.br,BR,Americas,Latin America and the Caribbean,Brazil,São Paulo,,São Paulo
167.249.240.168,4,17,lightsystemsoft.com.br,BR,Americas,Latin America and the Caribbean,Brazil,São Paulo,,Iracemápolis
62.72.61.239,4,0,litci.org,BR,Americas,Latin America and the Caribbean,Brazil,São Paulo,,São Paulo
18.229.210.125,4,25,loja2.com.br,BR,Americas,Latin America and the Caribbean,Brazil,São Paulo,,São Paulo
187.109.36.173,4,8,macniteroi.com.br,BR,Americas,Latin America and the Caribbean,Brazil,São Paulo,,São Paulo
187.108.199.185,4,-8,macucosafari.com.br,BR,Americas,Latin America and the Caribbean,Brazil,São Paulo,,São Paulo
154.49.247.16,4,3,mamasijaya.do,BR,Americas,Latin America and the Caribbean,Brazil,São Paulo,,São Paulo
154.49.247.243,4,34,mantrabrain.com,BR,Americas,Latin America and the Caribbean,Brazil,São Paulo,,São Paulo
200.219.229.6,4,1234,marketbrindes.com.br,BR,Americas,Latin America and the Caribbean,Brazil,São Paulo,,São Paulo
200.201.204.37,4,69,marmorariacaragua.com.br,BR,Americas,Latin America and the Caribbean,Brazil,São Paulo,,São Paulo
200.201.217.116,4,32,marmorariajardimpaulista.com.br,BR,Americas,Latin America and the Caribbean,Brazil,São Paulo,,São Paulo
200.201.208.240,4,3,marmorariajardimpaulista.com.br,BR,Americas,Latin America and the Caribbean,Brazil,São Paulo,,São Paulo
177.52.160.17,4,1014,maujor.com,BR,Americas,Latin America and the Caribbean,Brazil,São Paulo,,São Paulo
119.8.77.137,4,32,mendozapost.com,BR,Americas,Latin America and the Caribbean,Brazil,São Paulo,,São Paulo
132.226.240.51,4,15,metodista.br,BR,Americas,Latin America and the Caribbean,Brazil,São Paulo,,São Paulo
82.180.159.139,4,2,mobilidadesampa.com.br,BR,Americas,Latin America and the Caribbean,Brazil,São Paulo,,São Paulo
154.49.247.71,4,33,momfit.pt,BR,Americas,Latin America and the Caribbean,Brazil,São Paulo,,São Paulo
23.219.67.23,4,4,natura.cl,BR,Americas,Latin America and the Caribbean,Brazil,São Paulo,,São Paulo
119.8.73.110,4,2,norton.com.ar,BR,Americas,Latin America and the Caribbean,Brazil,São Paulo,,São Paulo
35.247.224.108,4,21,novomomento.com.br,BR,Americas,Latin America and the Caribbean,Brazil,São Paulo,,São Paulo
192.142.231.199,4,772,npiconsultoria.com.br,BR,Americas,Latin America and the Caribbean,Brazil,São Paulo,,São Paulo
217.196.57.229,4,4,nucleoexpert.com,BR,Americas,Latin America and the Caribbean,Brazil,São Paulo,,São Paulo
195.200.3.53,4,-1,oakup.com.br,BR,Americas,Latin America and the Caribbean,Brazil,São Paulo,,São Paulo
52.67.98.226,4,12,oceane.com.br,BR,Americas,Latin America and the Caribbean,Brazil,São Paulo,,São Paulo
45.152.44.201,4,21,oficinabeiramarnorte.com.br,BR,Americas,Latin America and the Caribbean,Brazil,São Paulo,,São Paulo
144.22.243.235,4,32,oliberal.com,BR,Americas,Latin America and the Caribbean,Brazil,São Paulo,,São Paulo
154.56.48.144,4,29,omelhortrato.com,BR,Americas,Latin America and the Caribbean,Brazil,São Paulo,,São Paulo
66.22.76.160,4,15,omint.com.br,BR,Americas,Latin America and the Caribbean,Brazil,São Paulo,,São Paulo
179.108.84.118,4,159,Ookla Speedtest Server 1846: campinas.speedtest.acessoturbo.net.br,BR,Americas,Latin America and the Caribbean,Brazil,São Paulo,,Pedreira
45.225.56.20,4,242,Ookla Speedtest Server 15596: speedtest.evoxtelecom.com.br,BR,Americas,Latin America and the Caribbean,Brazil,São Paulo,,São Bernardo do Campo
191.37.67.229,4,-3706,Ookla Speedtest Server 16675: teste.wimaxprovedor.com.br,BR,Americas,Latin America and the Caribbean,Brazil,São Paulo,,Taboão da Serra
45.232.124.27,4,137185,Ookla Speedtest Server 17840: ookla.jrfiber.net.br,BR,Americas,Latin America and the Caribbean,Brazil,São Paulo,,Santo André
189.91.0.3,4,300,Ookla Speedtest Server 18341: vel-dvl.soumaster.com.br,BR,Americas,Latin America and the Caribbean,Brazil,São Paulo,,São Paulo
177.128.56.172,4,295,Ookla Speedtest Server 19063: speed.simconnect.com.br,BR,Americas,Latin America and the Caribbean,Brazil,São Paulo,,Paraguaçu Paulista
177.91.165.36,4,118,Ookla Speedtest Server 19147: speedtest.100limitetelecom.com.br,BR,Americas,Latin America and the Caribbean,Brazil,São Paulo,,Guarulhos
200.152.70.142,4,268,Ookla Speedtest Server 19751: fujin.tdkom.psi.br,BR,Americas,Latin America and the Caribbean,Brazil,São Paulo,,São Paulo
186.237.4.242,4,166,Ookla Speedtest Server 20459: speedtest.provale.com.br,BR,Americas,Latin America and the Caribbean,Brazil,São Paulo,,Guaratinguetá
45.163.148.70,4,210,Ookla Speedtest Server 21017: speed.fibervipinternetbandalarga.com.br,BR,Americas,Latin America and the Caribbean,Brazil,São Paulo,,Paraguaçu Paulista
170.81.23.226,4,375,Ookla Speedtest Server 21841: speed.worldfast.net.br,BR,Americas,Latin America and the Caribbean,Brazil,São Paulo,,São Paulo
45.163.40.226,4,233,Ookla Speedtest Server 23133: stmc.gruponetsolution.com.br,BR,Americas,Latin America and the Caribbean,Brazil,São Paulo,,Taquarituba
138.0.98.30,4,16774,Ookla Speedtest Server 23287: speedtest.megaconexao.com.br,BR,Americas,Latin America and the Caribbean,Brazil,São Paulo,,Osasco
170.233.64.18,4,239,Ookla Speedtest Server 24856: speedoc.migonet.com.br,BR,Americas,Latin America and the Caribbean,Brazil,São Paulo,,Osvaldo Cruz
45.185.71.246,4,374,Ookla Speedtest Server 29860: speed.dwnet.com.br,BR,Americas,Latin America and the Caribbean,Brazil,São Paulo,,São Paulo
45.190.112.10,4,351,Ookla Speedtest Server 33816: ns1.ruralnetbrasil.com.br,BR,Americas,Latin America and the Caribbean,Brazil,São Paulo,,Presidente Prudente
170.81.150.18,4,-111456,Ookla Speedtest Server 34975: ookla.mitelecom.net.br,BR,Americas,Latin America and the Caribbean,Brazil,São Paulo,,Santo Antônio do Pinhal
160.238.238.12,4,340,Ookla Speedtest Server 35558: crv.cravnet.net.br,BR,Americas,Latin America and the Caribbean,Brazil,São Paulo,,Ribeirão Preto
186.219.52.11,4,343,Ookla Speedtest Server 38805: velocidade.vialuxinternet.com.br,BR,Americas,Latin America and the Caribbean,Brazil,São Paulo,,Ribeirão Preto
200.170.249.11,4,331,Ookla Speedtest Server 39319: speedtest.noova.net.br,BR,Americas,Latin America and the Caribbean,Brazil,São Paulo,,São Paulo
45.182.57.132,4,318,Ookla Speedtest Server 40797: speedtest.prolinkservidor.com.br,BR,Americas,Latin America and the Caribbean,Brazil,São Paulo,,Charqueada
45.189.68.29,4,118814,Ookla Speedtest Server 41944: teste.speedjet.com.br,BR,Americas,Latin America and the Caribbean,Brazil,São Paulo,,São Paulo
190.11.216.20,4,404,Ookla Speedtest Server 43277: speedtest.conectagold.com.br,BR,Americas,Latin America and the Caribbean,Brazil,São Paulo,,São Paulo
186.26.90.2,4,222,Ookla Speedtest Server 46596: dtconnect-sp1.gnctelecom.com.br,BR,Americas,Latin America and the Caribbean,Brazil,São Paulo,,Taboão da Serra
192.141.116.8,4,74842,Ookla Speedtest Server 47051: fiberinovadoranet.inovadoranet.com.br,BR,Americas,Latin America and the Caribbean,Brazil,São Paulo,,Itapira
177.190.199.178,4,256,Ookla Speedtest Server 47219: speedtest.shombra.com.br,BR,Americas,Latin America and the Caribbean,Brazil,São Paulo,,São Bernardo do Campo
209.14.146.174,4,247,Ookla Speedtest Server 48893: teste.mutiwifi.com.br,BR,Americas,Latin America and the Caribbean,Brazil,São Paulo,,Barueri
181.191.8.79,4,320,Ookla Speedtest Server 49611: speedtest.ftthtelecom.com.br,BR,Americas,Latin America and the Caribbean,Brazil,São Paulo,,Orlândia
170.80.40.16,4,136,Ookla Speedtest Server 49817: speedtest2.infoassisnet.com.br,BR,Americas,Latin America and the Caribbean,Brazil,São Paulo,,Assis
187.32.194.104,4,-135797,Ookla Speedtest Server 52496: speedtest.mylinktelecom.com.br,BR,Americas,Latin America and the Caribbean,Brazil,São Paulo,,Laranjeiras
192.140.8.3,4,17044,Ookla Speedtest Server 52551: test.wjinternet.com.br,BR,Americas,Latin America and the Caribbean,Brazil,São Paulo,,São Paulo
45.226.77.10,4,303,Ookla Speedtest Server 53534: speedtest.navixtelecom.com.br,BR,Americas,Latin America and the Caribbean,Brazil,São Paulo,,Pitangueiras
149.78.200.75,4,241,Ookla Speedtest Server 53800: velocimetro-lnt.lvnetwork.com.br,BR,Americas,Latin America and the Caribbean,Brazil,São Paulo,,Barueri
170.231.157.4,4,193,Ookla Speedtest Server 53875: speedtest.netforcetelecom.com.br,BR,Americas,Latin America and the Caribbean,Brazil,São Paulo,,Ribeirão Preto
189.2.8.220,4,-281446,Ookla Speedtest Server 56542: spd57.claro.com.br,BR,Americas,Latin America and the Caribbean,Brazil,São Paulo,,Taboão da Serra
205.164.75.160,4,-1329,Ookla Speedtest Server 57450: velocidade.ultraconnection.com.br,BR,Americas,Latin America and the Caribbean,Brazil,São Paulo,,
179.189.23.91,4,333,Ookla Speedtest Server 57474: speedtest.speedtestlinknetelecomitb.com.br,BR,Americas,Latin America and the Caribbean,Brazil,São Paulo,,Itararé
143.0.28.66,4,266,Ookla Speedtest Server 57491: speedtest2.wfnet.net.br,BR,Americas,Latin America and the Caribbean,Brazil,São Paulo,,Itapetininga
186.219.232.251,4,338,Ookla Speedtest Server 58255: velocidade.torreforteinternet.com.br,BR,Americas,Latin America and the Caribbean,Brazil,São Paulo,,Palmital
200.9.118.48,4,171317,Ookla Speedtest Server 59174: serverspeed.americafibra.com.br,BR,Americas,Latin America and the Caribbean,Brazil,São Paulo,,Várzea Paulista
45.187.159.2,4,351,Ookla Speedtest Server 59673: sp1.saturnotechfibra.com.br,BR,Americas,Latin America and the Caribbean,Brazil,São Paulo,,Itaquaquecetuba
190.171.73.32,4,36742,Ookla Speedtest Server 59787: testnewvision.henrique.solutions,BR,Americas,Latin America and the Caribbean,Brazil,São Paulo,,São Bernardo do Campo
164.163.200.54,4,338,Ookla Speedtest Server 61949: velocidade.rapidatelecom.com.br,BR,Americas,Latin America and the Caribbean,Brazil,São Paulo,,Itapeva
138.36.212.23,4,190,Ookla Speedtest Server 62065: speedtest.voee.provsolutions.com.br,BR,Americas,Latin America and the Caribbean,Brazil,São Paulo,,Limeira
189.127.132.20,4,216,Ookla Speedtest Server 62227: teste.jsvtelecom.com.br,BR,Americas,Latin America and the Caribbean,Brazil,São Paulo,,São Bernardo do Campo
45.161.129.60,4,844014,Ookla Speedtest Server 62495: speedtest.velosch.net.br,BR,Americas,Latin America and the Caribbean,Brazil,São Paulo,,Diadema
191.242.36.22,4,232,Ookla Speedtest Server 62973: stmc.supervivo.com.br,BR,Americas,Latin America and the Caribbean,Brazil,São Paulo,,São Bernardo do Campo
200.115.115.21,4,-49516076,Ookla Speedtest Server 63107: ookla.globalwebfibra.net.br,BR,Americas,Latin America and the Caribbean,Brazil,São Paulo,,Diadema
45.233.36.38,4,-31251,Ookla Speedtest Server 63185: medidor.satynet.com.br,BR,Americas,Latin America and the Caribbean,Brazil,São Paulo,,São Bernardo do Campo
209.14.70.38,4,205,Ookla Speedtest Server 63214: sp.lufastudios.com,BR,Americas,Latin America and the Caribbean,Brazil,São Paulo,,Barueri
143.208.225.10,4,276,Ookla Speedtest Server 63831: stmc.acessopoint.com.br,BR,Americas,Latin America and the Caribbean,Brazil,São Paulo,,São Paulo
179.0.64.66,4,185,Ookla Speedtest Server 63921: teste.campo-link.com.br,BR,Americas,Latin America and the Caribbean,Brazil,São Paulo,,Campo Limpo Paulista
189.124.4.8,4,378,Ookla Speedtest Server 65157: speedtest.toplinknet.com.br,BR,Americas,Latin America and the Caribbean,Brazil,São Paulo,,Presidente Venceslau
138.0.143.196,4,381,Ookla Speedtest Server 65193: teste.mxbtelecom.com.br,BR,Americas,Latin America and the Caribbean,Brazil,São Paulo,,Valparaíso
177.74.80.5,4,148,Ookla Speedtest Server: hyper01.fokusnet.net.br,BR,Americas,Latin America and the Caribbean,Brazil,São Paulo,,Dracena
138.97.164.3,4,175,Ookla Speedtest Server: sp1.minutostelecom.com.br,BR,Americas,Latin America and the Caribbean,Brazil,São Paulo,,Campinas
191.247.242.4,4,178,Ookla Speedtest Server: spd4.claro.com.br,BR,Americas,Latin America and the Caribbean,Brazil,São Paulo,,Campinas
177.137.96.9,4,317,Ookla Speedtest Server: speedtest.exon.net.br,BR,Americas,Latin America and the Caribbean,Brazil,São Paulo,,Louveira
45.227.56.133,4,293,Ookla Speedtest Server: speedtest.fibernetfibra.com.br,BR,Americas,Latin America and the Caribbean,Brazil,São Paulo,,São Vicente
45.71.124.138,4,309,Ookla Speedtest Server: speedtest.fibranet.net.br,BR,Americas,Latin America and the Caribbean,Brazil,São Paulo,,Campinas
177.124.156.5,4,175783,Ookla Speedtest Server: speedtest.fortlinkfibra.com.br,BR,Americas,Latin America and the Caribbean,Brazil,São Paulo,,Itanhaém
45.233.51.232,4,324,Ookla Speedtest Server: speedtest.gfibra.com.br,BR,Americas,Latin America and the Caribbean,Brazil,São Paulo,,Itupeva
45.190.108.12,4,331,Ookla Speedtest Server: speedtest.iffc.com.br,BR,Americas,Latin America and the Caribbean,Brazil,São Paulo,,Indaiatuba
45.185.108.19,4,154,Ookla Speedtest Server: speedtest.mundialnet.net,BR,Americas,Latin America and the Caribbean,Brazil,São Paulo,,Campinas
200.152.17.53,4,202,Ookla Speedtest Server: speedtest.novaprovedora.com.br,BR,Americas,Latin America and the Caribbean,Brazil,São Paulo,,Indaiatuba
186.227.80.7,4,139,Ookla Speedtest Server: speedtest.sacranet.com.br,BR,Americas,Latin America and the Caribbean,Brazil,São Paulo,,Morro Agudo
191.5.240.30,4,-15,Ookla Speedtest Server: speedtest.varzeanet.com.br,BR,Americas,Latin America and the Caribbean,Brazil,São Paulo,,Várzea Paulista
45.230.131.3,4,219,Ookla Speedtest Server: speedtest.velocimetrovirtwiki.com.br,BR,Americas,Latin America and the Caribbean,Brazil,São Paulo,,Piracicaba
190.89.216.133,4,105,Ookla Speedtest Server: speedtest.veloxnett.com.br,BR,Americas,Latin America and the Caribbean,Brazil,São Paulo,,Jundiaí
177.55.60.135,4,9,Ookla Speedtest Server: speedtest.webbytelecom.com.br,BR,Americas,Latin America and the Caribbean,Brazil,São Paulo,,Assis
189.85.112.18,4,-189308,Ookla Speedtest Server: speedtest.webnettelecom.com.br,BR,Americas,Latin America and the Caribbean,Brazil,São Paulo,,Araras
177.52.104.25,4,90244,Ookla Speedtest Server: speedtest.xturbo.com.br,BR,Americas,Latin America and the Caribbean,Brazil,São Paulo,,Leme
200.106.148.22,4,58,Ookla Speedtest Server: speedtestcps.exon.net.br,BR,Americas,Latin America and the Caribbean,Brazil,São Paulo,,Campinas
177.136.98.74,4,-317942,Ookla Speedtest Server: speedtestperuibe.wsnetfibra.com.br,BR,Americas,Latin America and the Caribbean,Brazil,São Paulo,,Peruíbe
138.59.32.38,4,34,Ookla Speedtest Server: speedtupa.migonet.com.br,BR,Americas,Latin America and the Caribbean,Brazil,São Paulo,,Tupã
201.46.56.58,4,12,Ookla Speedtest Server: speedy.lybertynet.com.br,BR,Americas,Latin America and the Caribbean,Brazil,São Paulo,,Cerquilho
200.25.58.86,4,10,Ookla Speedtest Server: spt-sao1.edgeuno.com,BR,Americas,Latin America and the Caribbean,Brazil,São Paulo,,São Paulo
138.121.63.150,4,70,Ookla Speedtest Server: st.talklink.com.br,BR,Americas,Latin America and the Caribbean,Brazil,São Paulo,,Rio Claro
45.239.180.37,4,4,Ookla Speedtest Server: stmc.foxmir.com.br,BR,Americas,Latin America and the Caribbean,Brazil,São Paulo,,São Paulo
200.155.190.242,4,45517,Ookla Speedtest Server: teste.connectmastertelecom.com.br,BR,Americas,Latin America and the Caribbean,Brazil,São Paulo,,São Paulo
201.69.104.106,4,6856,Ookla Speedtest Server: teste.moovenet.com.br,BR,Americas,Latin America and the Caribbean,Brazil,São Paulo,,São Paulo
189.127.140.245,4,28,Ookla Speedtest Server: teste2.telnets.com.br,BR,Americas,Latin America and the Caribbean,Brazil,São Paulo,,Penápolis
187.121.200.22,4,5,Ookla Speedtest Server: testpiras.ntelecom.com.br,BR,Americas,Latin America and the Caribbean,Brazil,São Paulo,,Pirassununga
206.0.90.6,4,-6720,Ookla Speedtest Server: velocidade.clickfibratelecom.com.br,BR,Americas,Latin America and the Caribbean,Brazil,São Paulo,,Jundiaí
187.49.32.20,4,-12912,Ookla Speedtest Server: velocidade.maxiweb.com.br,BR,Americas,Latin America and the Caribbean,Brazil,São Paulo,,Jundiaí
177.221.137.234,4,33,Ookla Speedtest Server: velocidade.pcnetbrasil.com.br,BR,Americas,Latin America and the Caribbean,Brazil,São Paulo,,Cerqueira César
45.188.75.226,4,10,Ookla Speedtest Server: velocidade.spacenet.com.br,BR,Americas,Latin America and the Caribbean,Brazil,São Paulo,,Conchal
201.82.13.245,4,13,Ookla Speedtest Server: velocimetro-cps.virtua.com.br,BR,Americas,Latin America and the Caribbean,Brazil,São Paulo,,Campinas
186.233.16.24,4,1021,Ookla Speedtest Server: www.conchalnet.com.br,BR,Americas,Latin America and the Caribbean,Brazil,São Paulo,,Conchal
45.152.46.245,4,32,oreidaempilhadeira.com.br,BR,Americas,Latin America and the Caribbean,Brazil,São Paulo,,São Paulo
89.116.58.1,4,4,organizze.com.br,BR,Americas,Latin America and the Caribbean,Brazil,São Paulo,,São Paulo
189.50.110.14,4,-2,ortigoza.com.br,BR,Americas,Latin America and the Caribbean,Brazil,São Paulo,,Bauru
85.31.60.179,4,3,osaopaulo.org.br,BR,Americas,Latin America and the Caribbean,Brazil,São Paulo,,São Paulo
185.245.180.246,4,16,otca.org,BR,Americas,Latin America and the Caribbean,Brazil,São Paulo,,São Paulo
187.32.229.73,4,8,ovale.com.br,BR,Americas,Latin America and the Caribbean,Brazil,São Paulo,,São Paulo
147.79.88.176,4,1,pacifista.tv,BR,Americas,Latin America and the Caribbean,Brazil,São Paulo,,São Paulo
177.54.145.109,4,-1,palcomp3.com.br,BR,Americas,Latin America and the Caribbean,Brazil,São Paulo,,São Paulo
177.54.145.106,4,53,palcomp3.com.br,BR,Americas,Latin America and the Caribbean,Brazil,São Paulo,,São Paulo
177.54.145.110,4,0,palcomp3.com.br,BR,Americas,Latin America and the Caribbean,Brazil,São Paulo,,São Paulo
177.54.145.108,4,12,palcomp3.com.br,BR,Americas,Latin America and the Caribbean,Brazil,São Paulo,,São Paulo
82.112.247.126,4,16,pawbhau.com,BR,Americas,Latin America and the Caribbean,Brazil,São Paulo,,São Paulo
45.152.44.110,4,7,pcb.org.br,BR,Americas,Latin America and the Caribbean,Brazil,São Paulo,,São Paulo
177.52.160.222,4,24,pieroniconsultoria.com.br,BR,Americas,Latin America and the Caribbean,Brazil,São Paulo,,São Paulo
147.79.92.179,4,24,planejadorweb.com.br,BR,Americas,Latin America and the Caribbean,Brazil,São Paulo,,São Paulo
45.152.46.99,4,11,portalbromo.com,BR,Americas,Latin America and the Caribbean,Brazil,São Paulo,,São Paulo
159.138.208.131,4,26,portalcofen.gov.br,BR,Americas,Latin America and the Caribbean,Brazil,São Paulo,,São Paulo
159.138.208.143,4,20,portalcofen.gov.br,BR,Americas,Latin America and the Caribbean,Brazil,São Paulo,,São Paulo
159.138.208.105,4,40,portalcofen.gov.br,BR,Americas,Latin America and the Caribbean,Brazil,São Paulo,,São Paulo
82.180.156.28,4,30,portaldotransito.com.br,BR,Americas,Latin America and the Caribbean,Brazil,São Paulo,,São Paulo
54.94.196.116,4,2,portaliso.com,BR,Americas,Latin America and the Caribbean,Brazil,São Paulo,,São Paulo
195.200.3.149,4,26,portalrbn.com.br,BR,Americas,Latin America and the Caribbean,Brazil,São Paulo,,São Paulo
89.116.115.130,4,0,pousadatonymontana.com.br,BR,Americas,Latin America and the Caribbean,Brazil,São Paulo,,São Paulo
82.180.134.246,4,60,procuradaela.org.br,BR,Americas,Latin America and the Caribbean,Brazil,São Paulo,,São Paulo
187.102.244.76,4,67,profesionalsdr.store,BR,Americas,Latin America and the Caribbean,Brazil,São Paulo,,São Paulo
195.35.41.216,4,71,programacentelha.com.br,BR,Americas,Latin America and the Caribbean,Brazil,São Paulo,,São Paulo
66.22.76.97,4,51,protestosp.com.br,BR,Americas,Latin America and the Caribbean,Brazil,São Paulo,,São Paulo
200.201.133.212,4,0,r5produtora.com.br,BR,Americas,Latin America and the Caribbean,Brazil,São Paulo,,São Paulo
143.208.8.36,4,116,radiojovemrio.com.br,BR,Americas,Latin America and the Caribbean,Brazil,São Paulo,,São Paulo
45.152.46.112,4,79,radiosplendid.bo,BR,Americas,Latin America and the Caribbean,Brazil,São Paulo,,São Paulo
217.196.57.83,4,23,radiotransamerica.com.br,BR,Americas,Latin America and the Caribbean,Brazil,São Paulo,,São Paulo
154.49.247.206,4,26,rapiclic.com,BR,Americas,Latin America and the Caribbean,Brazil,São Paulo,,São Paulo
185.239.210.40,4,0,redebomdia.com.br,BR,Americas,Latin America and the Caribbean,Brazil,São Paulo,,São Paulo
185.239.210.35,4,21,redrental.com.br,BR,Americas,Latin America and the Caribbean,Brazil,São Paulo,,São Paulo
195.200.3.177,4,5,releas-e.com,BR,Americas,Latin America and the Caribbean,Brazil,São Paulo,,São Paulo
89.116.224.176,4,19,revistaapolice.com.br,BR,Americas,Latin America and the Caribbean,Brazil,São Paulo,,São Paulo
216.238.113.23,4,18,revistacapitaleconomico.com.br,BR,Americas,Latin America and the Caribbean,Brazil,São Paulo,,Osasco
34.95.255.102,4,4,revistacultivar.com.br,BR,Americas,Latin America and the Caribbean,Brazil,São Paulo,,São Paulo
34.151.220.116,4,2,riweb.com.br,BR,Americas,Latin America and the Caribbean,Brazil,São Paulo,,São Paulo
82.180.158.171,4,36,roupasnoatacado.com.br,BR,Americas,Latin America and the Caribbean,Brazil,São Paulo,,São Paulo
143.107.152.210,4,4,sbfisica.org.br,BR,Americas,Latin America and the Caribbean,Brazil,São Paulo,,Bauru
82.180.158.103,4,2,sbpc.org.br,BR,Americas,Latin America and the Caribbean,Brazil,São Paulo,,São Paulo
143.107.52.102,4,5,sbq.org.br,BR,Americas,Latin America and the Caribbean,Brazil,São Paulo,,São Paulo
18.228.208.238,4,1,seade.gov.br,BR,Americas,Latin America and the Caribbean,Brazil,São Paulo,,São Paulo
177.11.209.44,4,2567,seujorge.com,BR,Americas,Latin America and the Caribbean,Brazil,São Paulo,,Santos
177.52.160.60,4,481,seuspazio.com.br,BR,Americas,Latin America and the Caribbean,Brazil,São Paulo,,São Paulo
34.95.179.30,4,10,shoppingchina.com.py,BR,Americas,Latin America and the Caribbean,Brazil,São Paulo,,São Paulo
184.85.136.103,4,3,sicredi.com.br,BR,Americas,Latin America and the Caribbean,Brazil,São Paulo,,São Paulo
143.208.8.19,4,10,sindiquimicoscolorado.com.br,BR,Americas,Latin America and the Caribbean,Brazil,São Paulo,,São Paulo
45.239.40.31,4,11,sitesdomercado.com.br,BR,Americas,Latin America and the Caribbean,Brazil,São Paulo,,Campinas
154.49.247.162,4,4,sjsp.org.br,BR,Americas,Latin America and the Caribbean,Brazil,São Paulo,,São Paulo
82.112.247.125,4,15,solaresrio.com.br,BR,Americas,Latin America and the Caribbean,Brazil,São Paulo,,São Paulo
154.56.48.230,4,19,soumaislinux.com.br,BR,Americas,Latin America and the Caribbean,Brazil,São Paulo,,São Paulo
62.72.62.83,4,10,spazziohotel.com.br,BR,Americas,Latin America and the Caribbean,Brazil,São Paulo,,São Paulo
77.37.127.87,4,45,sportrecife.com.br,BR,Americas,Latin America and the Caribbean,Brazil,São Paulo,,São Paulo
154.49.247.150,4,4,sporty.com.ar,BR,Americas,Latin America and the Caribbean,Brazil,São Paulo,,São Paulo
177.54.145.107,4,28,sscdn.co,BR,Americas,Latin America and the Caribbean,Brazil,São Paulo,,São Paulo
185.239.210.64,4,4,taecmodulos.com.br,BR,Americas,Latin America and the Caribbean,Brazil,São Paulo,,São Paulo
154.49.247.148,4,3,takemyonlineexamforme.com,BR,Americas,Latin America and the Caribbean,Brazil,São Paulo,,São Paulo
170.82.174.30,4,26,thecap.com.br,BR,Americas,Latin America and the Caribbean,Brazil,São Paulo,,São Paulo
170.82.173.30,4,16,thecap.com.br,BR,Americas,Latin America and the Caribbean,Brazil,São Paulo,,São Paulo
93.127.210.231,4,0,thegirlscurls.com,BR,Americas,Latin America and the Caribbean,Brazil,São Paulo,,São Paulo
18.228.76.50,4,4,tofindmould.com,BR,Americas,Latin America and the Caribbean,Brazil,São Paulo,,São Paulo
35.198.7.224,4,35,topsony.com,BR,Americas,Latin America and the Caribbean,Brazil,São Paulo,,São Paulo
54.207.27.249,4,8,totalexpress.com.br,BR,Americas,Latin America and the Caribbean,Brazil,São Paulo,,São Paulo
54.94.73.112,4,8,totalexpress.com.br,BR,Americas,Latin America and the Caribbean,Brazil,São Paulo,,São Paulo
54.233.129.83,4,3,totalexpress.com.br,BR,Americas,Latin America and the Caribbean,Brazil,São Paulo,,São Paulo
151.101.249.124,4,5,tractorpartsasap.com,BR,Americas,Latin America and the Caribbean,Brazil,São Paulo,,São Paulo
89.116.115.10,4,4,ucp.br,BR,Americas,Latin America and the Caribbean,Brazil,São Paulo,,São Paulo
149.100.155.56,4,-1,udhec.com.br,BR,Americas,Latin America and the Caribbean,Brazil,São Paulo,,São Paulo
186.193.230.94,4,27,udop.com.br,BR,Americas,Latin America and the Caribbean,Brazil,São Paulo,,São Paulo
18.229.230.129,4,33877,uece.br,BR,Americas,Latin America and the Caribbean,Brazil,São Paulo,,São Paulo
54.232.162.15,4,33869,uece.br,BR,Americas,Latin America and the Caribbean,Brazil,São Paulo,,São Paulo
152.67.36.184,4,5,uerr.edu.br,BR,Americas,Latin America and the Caribbean,Brazil,São Paulo,,São Paulo
144.22.145.254,4,8,unemat.br,BR,Americas,Latin America and the Caribbean,Brazil,São Paulo,,São Paulo
185.139.2.143,4,2,unifeob.edu.br,BR,Americas,Latin America and the Caribbean,Brazil,São Paulo,,São Paulo
185.213.81.182,4,2172,unifil.br,BR,Americas,Latin America and the Caribbean,Brazil,São Paulo,,São Paulo
200.210.165.8,4,16,unisanta.br,BR,Americas,Latin America and the Caribbean,Brazil,São Paulo,,Santos
35.198.61.223,4,22,unisc.br,BR,Americas,Latin America and the Caribbean,Brazil,São Paulo,,São Paulo
35.198.32.34,4,20,unisc.br,BR,Americas,Latin America and the Caribbean,Brazil,São Paulo,,São Paulo
187.86.215.136,4,3114,unopar.com.br,BR,Americas,Latin America and the Caribbean,Brazil,São Paulo,,Santo André
187.86.215.135,4,2785,unopar.com.br,BR,Americas,Latin America and the Caribbean,Brazil,São Paulo,,Santo André
154.49.247.163,4,7,vegaspeoples.com,BR,Americas,Latin America and the Caribbean,Brazil,São Paulo,,São Paulo
170.82.173.15,4,21,verdesmares.com.br,BR,Americas,Latin America and the Caribbean,Brazil,São Paulo,,São Paulo
170.82.174.15,4,8,verdesmares.com.br,BR,Americas,Latin America and the Caribbean,Brazil,São Paulo,,São Paulo
170.82.173.10,4,2,vittude.com,BR,Americas,Latin America and the Caribbean,Brazil,São Paulo,,São Paulo
170.82.174.10,4,9,vittude.com,BR,Americas,Latin America and the Caribbean,Brazil,São Paulo,,São Paulo
35.198.48.77,4,7,walmartbrasil.com.br,BR,Americas,Latin America and the Caribbean,Brazil,São Paulo,,São Paulo
195.35.17.224,4,19,webcitizen.com.br,BR,Americas,Latin America and the Caribbean,Brazil,São Paulo,,São Paulo
82.180.153.184,4,1,webfun.com.br,BR,Americas,Latin America and the Caribbean,Brazil,São Paulo,,São Paulo
177.69.11.237,4,23,wk.com.br,BR,Americas,Latin America and the Caribbean,Brazil,São Paulo,,Santa Bárbara d'Oeste
35.198.35.247,4,-80,xlx300.net,BR,Americas,Latin America and the Caribbean,Brazil,São Paulo,,São Paulo
