reflector_ip,ip_version,offset,description,country_code,region,sub_region,country_name,sub_division_1,sub_division_2,city
177.185.134.194,4,78941,DNS Server: 177-185-134-194.static.isotelco.net.br,BR,Americas,Latin America and the Caribbean,Brazil,Maranhão,,Imperatriz
177.66.195.7,4,134,DNS Server: 177-66-195-7.wikitelecom.com.br,BR,Americas,Latin America and the Caribbean,Brazil,Maranhão,,São Luís
177.91.52.119,4,29741,DNS Server: 177-91-52-119.wikitelecom.com.br,BR,Americas,Latin America and the Caribbean,Brazil,Maranhão,,São José de Ribamar
201.182.66.37,4,11914,DNS Server: 37.66.182.201.equatorialtelecom.com,BR,Americas,Latin America and the Caribbean,Brazil,Maranhão,,São Luís
45.180.218.199,4,287,DNS Server: 45-180-218-199.starone.psi.br,BR,Americas,Latin America and the Caribbean,Brazil,Maranhão,,Rosário
186.227.187.13,4,1995,DNS Server: ip-186.227.187.13.veloster.com.br,BR,Americas,Latin America and the Caribbean,Brazil,Maranhão,,Imperatriz
177.105.208.17,4,-176436,DNS Server: reverse-208-017.portalmail.com.br,BR,Americas,Latin America and the Caribbean,Brazil,Maranhão,,Caxias
177.54.142.86,4,10,fsadu.org.br,BR,Americas,Latin America and the Caribbean,Brazil,Maranhão,,São Luís
131.100.219.2,4,426,Ookla Speedtest Server 33196: speedtest.balsasnet.com.br,BR,Americas,Latin America and the Caribbean,Brazil,Maranhão,,Fortaleza dos Nogueiras
191.37.1.186,4,386,Ookla Speedtest Server 40414: speedtest.ultrafibraspeedtest.com.br,BR,Americas,Latin America and the Caribbean,Brazil,Maranhão,,Santa Quitéria do Maranhão
200.11.111.250,4,171,Ookla Speedtest Server 53457: spd.gbnetma.com.br,BR,Americas,Latin America and the Caribbean,Brazil,Maranhão,,São Luís
38.172.213.7,4,179,Ookla Speedtest Server 54109: teste.deepconnect.com.br,BR,Americas,Latin America and the Caribbean,Brazil,Maranhão,,Balsas
45.224.122.246,4,173,Ookla Speedtest Server 54799: speedtest.enzonet.com.br,BR,Americas,Latin America and the Caribbean,Brazil,Maranhão,,São Luís
186.194.14.22,4,183,Ookla Speedtest Server 55660: speedtest.connecthouseazeitao.com,BR,Americas,Latin America and the Caribbean,Brazil,Maranhão,,São Domingos do Azeitão
45.232.40.26,4,297,Ookla Speedtest Server 55830: spt.dinamicapb.com,BR,Americas,Latin America and the Caribbean,Brazil,Maranhão,,Sucupira do Norte
191.37.3.176,4,364,Ookla Speedtest Server 56766: sp1.uau.net.br,BR,Americas,Latin America and the Caribbean,Brazil,Maranhão,,Anapurus
186.216.47.244,4,335,Ookla Speedtest Server 59686: testspeed.provline.com.br,BR,Americas,Latin America and the Caribbean,Brazil,Maranhão,,São José de Ribamar
45.167.143.10,4,155,Ookla Speedtest Server: ookla-tut.netfacilbandalarga.com.br,BR,Americas,Latin America and the Caribbean,Brazil,Maranhão,,Imperatriz
200.11.109.34,4,-25764,Ookla Speedtest Server: speed.mdnettelecom.net.br,BR,Americas,Latin America and the Caribbean,Brazil,Maranhão,,São Luís
45.161.248.90,4,26006627,Ookla Speedtest Server: speedtest.digitallinetelecom.com,BR,Americas,Latin America and the Caribbean,Brazil,Maranhão,,Colinas
200.1.125.196,4,312,Ookla Speedtest Server: speedtest.grupoceuma.com.br,BR,Americas,Latin America and the Caribbean,Brazil,Maranhão,,São Luís
131.72.164.198,4,146,Ookla Speedtest Server: speedtest.novanetonline.com.br,BR,Americas,Latin America and the Caribbean,Brazil,Maranhão,,Mirador
45.179.149.29,4,307,Ookla Speedtest Server: speedtest.redewebnet.net.br,BR,Americas,Latin America and the Caribbean,Brazil,Maranhão,,São Luís
170.233.203.132,4,-9056,Ookla Speedtest Server: speedtest.vipfibratelecom.com.br,BR,Americas,Latin America and the Caribbean,Brazil,Maranhão,,Pio XII
45.183.176.21,4,188,Ookla Speedtest Server: speedtest.vixel.com.br,BR,Americas,Latin America and the Caribbean,Brazil,Maranhão,,Itapecuru Mirim
177.47.92.26,4,174,Ookla Speedtest Server: speedteste.noveltytelecom-sac.com.br,BR,Americas,Latin America and the Caribbean,Brazil,Maranhão,,Trizidela do Vale
189.85.108.33,4,194,Ookla Speedtest Server: spt.conexaonet.com.br,BR,Americas,Latin America and the Caribbean,Brazil,Maranhão,,Lago Verde
179.51.178.3,4,19,Ookla Speedtest Server: spx.netsimas.com.br,BR,Americas,Latin America and the Caribbean,Brazil,Maranhão,,São José de Ribamar
45.186.120.1,4,22,Ookla Speedtest Server: teste.naredetelecom.com.br,BR,Americas,Latin America and the Caribbean,Brazil,Maranhão,,São Luís
168.0.20.2,4,159662,Ookla Speedtest Server: teste.pedreiras.iusecom.com.br,BR,Americas,Latin America and the Caribbean,Brazil,Maranhão,,Esperantinópolis
189.50.215.7,4,-1,Ookla Speedtest Server: teste.softec.net.br,BR,Americas,Latin America and the Caribbean,Brazil,Maranhão,,Timon
200.108.164.29,4,217,Ookla Speedtest Server: teste.vavatec.com.br,BR,Americas,Latin America and the Caribbean,Brazil,Maranhão,,São Luís
