reflector_ip,ip_version,offset,description,country_code,region,sub_region,country_name,sub_division_1,sub_division_2,city
177.155.88.19,4,31,acisji.com.br,BR,Americas,Latin America and the Caribbean,Brazil,Paraná,,Califórnia
185.238.230.67,4,4019,cebrap.org.br,BR,Americas,Latin America and the Caribbean,Brazil,Paraná,,Curitiba
200.150.67.246,4,-554,cieepr.org.br,BR,Americas,Latin America and the Caribbean,Brazil,Paraná,,Curitiba
177.92.107.5,4,4090987,crmpr.org.br,BR,Americas,Latin America and the Caribbean,Brazil,Paraná,,Curitiba
177.220.149.10,4,791,DNS Server: 10.149.220.177.dynamic.copel.net,BR,Americas,Latin America and the Caribbean,Brazil,Paraná,,Curitiba
138.185.72.109,4,1908,DNS Server: 109.72.185.138.g21telecom.com.br,BR,Americas,Latin America and the Caribbean,Brazil,Paraná,,Nova Esperança
200.150.74.142,4,79,DNS Server: 142.74.150.200.static.copel.net,BR,Americas,Latin America and the Caribbean,Brazil,Paraná,,Curitiba
160.238.203.130,4,333,DNS Server: 160-238-203-130.lsnet.com.br,BR,Americas,Latin America and the Caribbean,Brazil,Paraná,,Marechal Cândido Rondon
177.124.58.171,4,26209573,DNS Server: 171.58.124.177.static.horizonstelecom.com.br,BR,Americas,Latin America and the Caribbean,Brazil,Paraná,,Curitiba
177.38.54.23,4,-14177,DNS Server: 177-38-54-23.user.dynamic.hjnet.com.br,BR,Americas,Latin America and the Caribbean,Brazil,Paraná,,Santa Tereza do Oeste
177.135.93.131,4,16325,DNS Server: 177.135.93.131.static.gvt.net.br,BR,Americas,Latin America and the Caribbean,Brazil,Paraná,,Curitiba
187.95.125.180,4,-1618,DNS Server: 180.125.95.187.static.copel.net,BR,Americas,Latin America and the Caribbean,Brazil,Paraná,,Curitiba
187.19.101.33,4,13,DNS Server: 187-19-101-33.users.certto.com.br,BR,Americas,Latin America and the Caribbean,Brazil,Paraná,,Cascavel
189.26.6.174,4,588,DNS Server: 189.26.6.174.dynamic.adsl.gvt.net.br,BR,Americas,Latin America and the Caribbean,Brazil,Paraná,,Curitiba
189.58.99.195,4,97,DNS Server: 189.58.99.195.static.host.gvt.net.br,BR,Americas,Latin America and the Caribbean,Brazil,Paraná,,Foz do Iguaçu
200.150.66.11,4,32,DNS Server: 200-150-66-11-ipdireto.copel.net,BR,Americas,Latin America and the Caribbean,Brazil,Paraná,,Curitiba
177.220.156.202,4,677,DNS Server: 202.156.220.177.dynamic.copel.net,BR,Americas,Latin America and the Caribbean,Brazil,Paraná,,Curitiba
177.92.18.202,4,6,DNS Server: 202.18.92.177.static.copel.net,BR,Americas,Latin America and the Caribbean,Brazil,Paraná,,Curitiba
187.60.217.204,4,97656,DNS Server: 204.217.60.187.dynamic.ampernet.com.br,BR,Americas,Latin America and the Caribbean,Brazil,Paraná,,Francisco Beltrão
186.250.37.216,4,91,DNS Server: 216.37.250.186.in-addr.arpa.verointernet.com.br,BR,Americas,Latin America and the Caribbean,Brazil,Paraná,,Pato Branco
187.95.125.3,4,2,DNS Server: 3.125.95.187.static.copel.net,BR,Americas,Latin America and the Caribbean,Brazil,Paraná,,Curitiba
187.95.112.36,4,395,DNS Server: 36.112.95.187.static.copel.net,BR,Americas,Latin America and the Caribbean,Brazil,Paraná,,Curitiba
187.109.104.56,4,3895,DNS Server: 56.104.109.187.dynamic.ampernet.com.br,BR,Americas,Latin America and the Caribbean,Brazil,Paraná,,Pato Branco
179.189.21.60,4,3,DNS Server: 60.21.189.179.mottanet.net.br,BR,Americas,Latin America and the Caribbean,Brazil,Paraná,,Jaguariaíva
186.209.176.114,4,22,DNS Server: acesso-176-114.connet.com.br,BR,Americas,Latin America and the Caribbean,Brazil,Paraná,,Floresta
186.209.176.173,4,-20143053,DNS Server: acesso-176-173.connet.com.br,BR,Americas,Latin America and the Caribbean,Brazil,Paraná,,Floresta
186.209.177.12,4,-21034534,DNS Server: acesso-177-12.connet.com.br,BR,Americas,Latin America and the Caribbean,Brazil,Paraná,,Floresta
186.209.177.180,4,-41351838,DNS Server: acesso-177-180.connet.com.br,BR,Americas,Latin America and the Caribbean,Brazil,Paraná,,Floresta
186.209.177.234,4,-29291813,DNS Server: acesso-177-234.connet.com.br,BR,Americas,Latin America and the Caribbean,Brazil,Paraná,,Floresta
186.209.177.73,4,-4016,DNS Server: acesso-177-73.connet.com.br,BR,Americas,Latin America and the Caribbean,Brazil,Paraná,,Floresta
186.209.178.62,4,-40745717,DNS Server: acesso-178-62.connet.com.br,BR,Americas,Latin America and the Caribbean,Brazil,Paraná,,Floresta
186.209.180.138,4,-158599913,DNS Server: acesso-180-138.connet.com.br,BR,Americas,Latin America and the Caribbean,Brazil,Paraná,,Floresta
186.209.180.206,4,-13460,DNS Server: acesso-180-206.connet.com.br,BR,Americas,Latin America and the Caribbean,Brazil,Paraná,,Floresta
186.209.180.216,4,-3858,DNS Server: acesso-180-216.connet.com.br,BR,Americas,Latin America and the Caribbean,Brazil,Paraná,,Floresta
186.209.180.72,4,-5382295,DNS Server: acesso-180-72.connet.com.br,BR,Americas,Latin America and the Caribbean,Brazil,Paraná,,Floresta
186.209.180.90,4,-13387,DNS Server: acesso-180-90.connet.com.br,BR,Americas,Latin America and the Caribbean,Brazil,Paraná,,Floresta
186.209.181.10,4,-1186908,DNS Server: acesso-181-10.connet.com.br,BR,Americas,Latin America and the Caribbean,Brazil,Paraná,,Floresta
186.209.181.218,4,-18996,DNS Server: acesso-181-218.connet.com.br,BR,Americas,Latin America and the Caribbean,Brazil,Paraná,,Floresta
186.209.181.53,4,-29291907,DNS Server: acesso-181-53.connet.com.br,BR,Americas,Latin America and the Caribbean,Brazil,Paraná,,Floresta
186.209.181.80,4,-4342,DNS Server: acesso-181-80.connet.com.br,BR,Americas,Latin America and the Caribbean,Brazil,Paraná,,Floresta
186.209.182.142,4,9296839,DNS Server: acesso-182-142.connet.com.br,BR,Americas,Latin America and the Caribbean,Brazil,Paraná,,Floresta
186.209.183.164,4,18372822,DNS Server: acesso-183-164.connet.com.br,BR,Americas,Latin America and the Caribbean,Brazil,Paraná,,Floresta
187.115.10.50,4,98,DNS Server: bhealth.static.gvt.net.br,BR,Americas,Latin America and the Caribbean,Brazil,Paraná,,Cascavel
143.137.85.51,4,-46083006,DNS Server: clientes-85.51.dbug.com.br,BR,Americas,Latin America and the Caribbean,Brazil,Paraná,,Ponta Grossa
45.186.8.42,4,111186,Ookla Speedtest Server 13849: testador.jabanet.com.br,BR,Americas,Latin America and the Caribbean,Brazil,Paraná,,Ibaiti
186.237.159.11,4,6647,Ookla Speedtest Server 15223: teste.criadorweb.com.br,BR,Americas,Latin America and the Caribbean,Brazil,Paraná,,Cambé
138.121.59.253,4,195,Ookla Speedtest Server 15996: ns2.ifoz.com.br,BR,Americas,Latin America and the Caribbean,Brazil,Paraná,,Foz do Iguaçu
177.66.108.22,4,204,Ookla Speedtest Server 16304: slave.fusaonet.com.br,BR,Americas,Latin America and the Caribbean,Brazil,Paraná,,Toledo
177.66.108.23,4,212,Ookla Speedtest Server 17974: tupassi.fusaonet.com.br,BR,Americas,Latin America and the Caribbean,Brazil,Paraná,,Toledo
177.12.240.213,4,323,Ookla Speedtest Server 19198: speedtest.turbo10.com.br,BR,Americas,Latin America and the Caribbean,Brazil,Paraná,,Matelândia
186.249.218.139,4,178,Ookla Speedtest Server 19276: speedtestqtb.directwifi.com.br,BR,Americas,Latin America and the Caribbean,Brazil,Paraná,,Curitiba
186.249.218.140,4,318,Ookla Speedtest Server 19644: speedtestrbs.directwifi.com.br,BR,Americas,Latin America and the Caribbean,Brazil,Paraná,,Curitiba
170.79.63.6,4,139,Ookla Speedtest Server 19886: speedtest.info-bras.net.br,BR,Americas,Latin America and the Caribbean,Brazil,Paraná,,Iretama
177.72.28.11,4,278,Ookla Speedtest Server 19979: sp1.ncenternet.com.br,BR,Americas,Latin America and the Caribbean,Brazil,Paraná,,Assis Chateaubriand
177.129.172.21,4,-1157917,Ookla Speedtest Server 22729: speedtest.starbyte.com.br,BR,Americas,Latin America and the Caribbean,Brazil,Paraná,,Terra Boa
177.55.32.233,4,344,Ookla Speedtest Server 22744: speedtest.homenett.com.br,BR,Americas,Latin America and the Caribbean,Brazil,Paraná,,Nova Esperança
164.163.96.246,4,360,Ookla Speedtest Server 23976: speedtest.infomaistelecom.com.br,BR,Americas,Latin America and the Caribbean,Brazil,Paraná,,Carlópolis
177.38.160.78,4,5515,Ookla Speedtest Server 24001: speedtest.cepain.com.br,BR,Americas,Latin America and the Caribbean,Brazil,Paraná,,Assis Chateaubriand
177.73.208.28,4,257,Ookla Speedtest Server 24034: speedtest.terrarica.net,BR,Americas,Latin America and the Caribbean,Brazil,Paraná,,Terra Rica
191.5.48.11,4,272,Ookla Speedtest Server 24218: speedtest.viartelecom.com.br,BR,Americas,Latin America and the Caribbean,Brazil,Paraná,,Medianeira
177.67.72.2,4,328,Ookla Speedtest Server 24448: sp1.qualitynet.net.br,BR,Americas,Latin America and the Caribbean,Brazil,Paraná,,Goioerê
45.234.72.100,4,339,Ookla Speedtest Server 31381: speedtest.sofway.com.br,BR,Americas,Latin America and the Caribbean,Brazil,Paraná,,Curitiba
170.78.144.10,4,381,Ookla Speedtest Server 32808: ookla.orssatto.com.br,BR,Americas,Latin America and the Caribbean,Brazil,Paraná,,Catanduvas
45.231.92.30,4,50611,Ookla Speedtest Server 34551: speedtest.flexnettelecom.com.br,BR,Americas,Latin America and the Caribbean,Brazil,Paraná,,Alto Paraná
177.36.88.52,4,378,Ookla Speedtest Server 35176: speed3.deltainternet.net.br,BR,Americas,Latin America and the Caribbean,Brazil,Paraná,,Jaguapitã
177.36.88.53,4,315,Ookla Speedtest Server 35177: speed4.deltainternet.net.br,BR,Americas,Latin America and the Caribbean,Brazil,Paraná,,Jaguapitã
177.36.88.54,4,358,Ookla Speedtest Server 35178: speed5.deltainternet.net.br,BR,Americas,Latin America and the Caribbean,Brazil,Paraná,,Jaguapitã
189.36.245.15,4,315,Ookla Speedtest Server 42151: spt.fibernews.com.br,BR,Americas,Latin America and the Caribbean,Brazil,Paraná,,Curitiba
179.125.107.34,4,294,Ookla Speedtest Server 42375: speedtest.megatelecomnet.com.br,BR,Americas,Latin America and the Caribbean,Brazil,Paraná,,Prudentópolis
177.222.216.4,4,334,Ookla Speedtest Server 42523: teste.portouniao.tv.br,BR,Americas,Latin America and the Caribbean,Brazil,Paraná,,União da Vitória
187.62.228.2,4,321378,Ookla Speedtest Server 44406: speedtest.uptecnet.com.br,BR,Americas,Latin America and the Caribbean,Brazil,Paraná,,Chopinzinho
177.155.126.194,4,345,Ookla Speedtest Server 45201: speedtest.wi5.rio.br,BR,Americas,Latin America and the Caribbean,Brazil,Paraná,,Dois Vizinhos
179.109.96.30,4,192,Ookla Speedtest Server 45790: speedtest.navexinternet.com.br,BR,Americas,Latin America and the Caribbean,Brazil,Paraná,,Colombo
191.243.48.135,4,1290428,Ookla Speedtest Server 47210: speedtestesl.infoservic.com.br,BR,Americas,Latin America and the Caribbean,Brazil,Paraná,,Salto do Lontra
45.183.231.11,4,242,Ookla Speedtest Server 52370: speedtest.goldfibra.com.br,BR,Americas,Latin America and the Caribbean,Brazil,Paraná,,Curitiba
177.53.208.28,4,292,Ookla Speedtest Server 52904: speed.grnettelecom.com.br,BR,Americas,Latin America and the Caribbean,Brazil,Paraná,,Mato Rico
24.152.100.22,4,271,Ookla Speedtest Server 52982: teste.millennium.net.br,BR,Americas,Latin America and the Caribbean,Brazil,Paraná,,Lindoeste
167.250.160.134,4,198,Ookla Speedtest Server 54366: ookla.speedtestplusnet.com.br,BR,Americas,Latin America and the Caribbean,Brazil,Paraná,,Foz do Iguaçu
189.36.252.84,4,413937,Ookla Speedtest Server 55530: speedtest1.capitalnet.com.br,BR,Americas,Latin America and the Caribbean,Brazil,Paraná,,Fazenda Rio Grande
45.170.68.8,4,1105796,Ookla Speedtest Server 55794: speedtest.mocinternet.net.br,BR,Americas,Latin America and the Caribbean,Brazil,Paraná,,Maringá
177.221.152.29,4,225,Ookla Speedtest Server 56097: ookla.cbnnet.net.br,BR,Americas,Latin America and the Caribbean,Brazil,Paraná,,Francisco Alves
177.87.70.5,4,227,Ookla Speedtest Server 56661: velocidade.terres.net.br,BR,Americas,Latin America and the Caribbean,Brazil,Paraná,,Três Barras do Paraná
45.187.118.246,4,291,Ookla Speedtest Server 56837: teste.viafibraflashnet.com.br,BR,Americas,Latin America and the Caribbean,Brazil,Paraná,,Manoel Ribas
167.250.152.4,4,313,Ookla Speedtest Server 57733: speedtestpr.ateky.net.br,BR,Americas,Latin America and the Caribbean,Brazil,Paraná,,Pinhais
45.71.104.45,4,2946021,Ookla Speedtest Server 57971: teste.fibercom.net.br,BR,Americas,Latin America and the Caribbean,Brazil,Paraná,,Maringá
177.129.161.134,4,366,Ookla Speedtest Server 59416: speedtest.deltatele.com.br,BR,Americas,Latin America and the Caribbean,Brazil,Paraná,,Cafelândia
45.187.137.6,4,348,Ookla Speedtest Server 59709: speedtest.ttinet.com.br,BR,Americas,Latin America and the Caribbean,Brazil,Paraná,,Santo Antônio do Sudoeste
45.180.156.11,4,259,Ookla Speedtest Server 59737: speedtest.b3telecom.com.br,BR,Americas,Latin America and the Caribbean,Brazil,Paraná,,Ampére
177.36.185.185,4,22348354,Ookla Speedtest Server 59977: teste.brayansnet.com.br,BR,Americas,Latin America and the Caribbean,Brazil,Paraná,,Curitiba
45.189.178.197,4,330,Ookla Speedtest Server 60755: teste.stlk.com.br,BR,Americas,Latin America and the Caribbean,Brazil,Paraná,,Colombo
189.76.176.182,4,-18908,Ookla Speedtest Server 60907: speed-gre.zaaztelecom.com.br,BR,Americas,Latin America and the Caribbean,Brazil,Paraná,,Londrina
186.249.218.131,4,345,Ookla Speedtest Server 61756: speedtestfrg.directwifi.com.br,BR,Americas,Latin America and the Caribbean,Brazil,Paraná,,Curitiba
177.87.109.91,4,916169,Ookla Speedtest Server 62277: speedtest.tupnet.com.br,BR,Americas,Latin America and the Caribbean,Brazil,Paraná,,Tupãssi
181.191.116.4,4,307,Ookla Speedtest Server 62336: teste.nicfibratelecom.com.br,BR,Americas,Latin America and the Caribbean,Brazil,Paraná,,Telêmaco Borba
179.189.88.197,4,178,Ookla Speedtest Server 62975: velocidade.glinkinternet.com.br,BR,Americas,Latin America and the Caribbean,Brazil,Paraná,,Londrina
200.52.227.245,4,9671,Ookla Speedtest Server 63101: speedtest.hfgtelecom.com.br,BR,Americas,Latin America and the Caribbean,Brazil,Paraná,,Santa Fé
201.55.136.22,4,212,Ookla Speedtest Server 63174: teste.witelecom.com.br,BR,Americas,Latin America and the Caribbean,Brazil,Paraná,,Cianorte
45.187.80.26,4,347,Ookla Speedtest Server 64696: speedtest.fourfibras.com.br,BR,Americas,Latin America and the Caribbean,Brazil,Paraná,,Campina Grande do Sul
187.19.96.145,4,320,Ookla Speedtest Server: home.certto.com.br,BR,Americas,Latin America and the Caribbean,Brazil,Paraná,,Cascavel
177.70.248.15,4,331,Ookla Speedtest Server: ookla.prlink.com.br,BR,Americas,Latin America and the Caribbean,Brazil,Paraná,,Cambé
201.87.239.194,4,194,Ookla Speedtest Server: ookla.v10net.net.br,BR,Americas,Latin America and the Caribbean,Brazil,Paraná,,Umuarama
170.238.180.10,4,262,Ookla Speedtest Server: speed.globalnettelecom.com.br,BR,Americas,Latin America and the Caribbean,Brazil,Paraná,,Quarto Centenário
177.37.69.81,4,327,Ookla Speedtest Server: speedtest-jca.ultrat.com.br,BR,Americas,Latin America and the Caribbean,Brazil,Paraná,,Quedas do Iguaçu
168.196.216.66,4,-4091,Ookla Speedtest Server: speedtest.dwlink.com.br,BR,Americas,Latin America and the Caribbean,Brazil,Paraná,,Chopinzinho
45.71.140.17,4,285,Ookla Speedtest Server: speedtest.maripa.net.br,BR,Americas,Latin America and the Caribbean,Brazil,Paraná,,Maripá
191.243.50.7,4,-130784,Ookla Speedtest Server: speedtestefb.infoservic.com.br,BR,Americas,Latin America and the Caribbean,Brazil,Paraná,,Pranchita
131.72.88.22,4,176,Ookla Speedtest Server: teste.jrinternet.net.br,BR,Americas,Latin America and the Caribbean,Brazil,Paraná,,Assis Chateaubriand
177.124.52.12,4,160,Ookla Speedtest Server: velocimetro.sudonet.com.br,BR,Americas,Latin America and the Caribbean,Brazil,Paraná,,São João
200.150.109.197,4,-25341383,relici.org.br,BR,Americas,Latin America and the Caribbean,Brazil,Paraná,,Curitiba
189.90.65.203,4,4,uel.br,BR,Americas,Latin America and the Caribbean,Brazil,Paraná,,Londrina
186.233.154.103,4,3,uem.br,BR,Americas,Latin America and the Caribbean,Brazil,Paraná,,Maringá
186.233.154.104,4,1,uem.br,BR,Americas,Latin America and the Caribbean,Brazil,Paraná,,Maringá
200.201.24.31,4,17,uenp.edu.br,BR,Americas,Latin America and the Caribbean,Brazil,Paraná,,Guarapuava
200.134.33.60,4,18,unila.edu.br,BR,Americas,Latin America and the Caribbean,Brazil,Paraná,,Foz do Iguaçu
131.255.84.123,4,4,unioeste.br,BR,Americas,Latin America and the Caribbean,Brazil,Paraná,,Cascavel
177.91.39.69,4,15,unipar.br,BR,Americas,Latin America and the Caribbean,Brazil,Paraná,,Umuarama
