reflector_ip,ip_version,offset,description,country_code,region,sub_region,country_name,sub_division_1,sub_division_2,city
132.255.228.168,4,5327,DNS Server: 132-255-228-168.gigabytenetwork.com.br,BR,Americas,Latin America and the Caribbean,Brazil,Pará,,Canaã dos Carajás
138.186.16.6,4,-1417,DNS Server: 138-186-16-6.conectainternet.net.br,BR,Americas,Latin America and the Caribbean,Brazil,Pará,,Belém
170.150.222.243,4,419,DNS Server: 170.150.222.243.sostelecomsistema.com.br,BR,Americas,Latin America and the Caribbean,Brazil,Pará,,Tucumã
186.216.162.70,4,8397,DNS Server: 186.216.162.70.user.vctelecom.com.br,BR,Americas,Latin America and the Caribbean,Brazil,Pará,,Monte Dourado
177.36.242.13,4,-20674818,DNS Server: 242-36-177-13.grupojcc.com.br,BR,Americas,Latin America and the Caribbean,Brazil,Pará,,Conceição do Araguaia
138.117.37.253,4,10683135,DNS Server: 253-37-117-138.loginternet.com.br,BR,Americas,Latin America and the Caribbean,Brazil,Pará,,Belém
45.191.243.1,4,-7580,DNS Server: 45-191-243-1.nvnetwork.com.br,BR,Americas,Latin America and the Caribbean,Brazil,Pará,,Canaã dos Carajás
177.130.52.76,4,0,DNS Server: 76-52-130-177.redewsp.com.br,BR,Americas,Latin America and the Caribbean,Brazil,Pará,,Itaituba
200.129.129.10,4,2,ifpa.edu.br,BR,Americas,Latin America and the Caribbean,Brazil,Pará,,Belém
38.191.188.4,4,212,Ookla Speedtest Server 15829: speedtest.ion.com.br,BR,Americas,Latin America and the Caribbean,Brazil,Pará,,Belém
181.233.0.3,4,309,Ookla Speedtest Server 38786: speedtest.zeusnettelecom.com.br,BR,Americas,Latin America and the Caribbean,Brazil,Pará,,Ananindeua
177.66.104.116,4,280,Ookla Speedtest Server 45219: speedtest2.interconect.com.br,BR,Americas,Latin America and the Caribbean,Brazil,Pará,,Belém
200.152.19.14,4,-3829,Ookla Speedtest Server 48966: speedtest.cnet.net.br,BR,Americas,Latin America and the Caribbean,Brazil,Pará,,Ananindeua
189.14.112.7,4,55978,Ookla Speedtest Server 48972: speedtest.ngs.net.br,BR,Americas,Latin America and the Caribbean,Brazil,Pará,,Ananindeua
138.118.222.116,4,-1089674,Ookla Speedtest Server 50245: teste.cepainet.com.br,BR,Americas,Latin America and the Caribbean,Brazil,Pará,,Cametá
179.63.92.131,4,255,Ookla Speedtest Server 53817: speedtest.logotelecom.net.br,BR,Americas,Latin America and the Caribbean,Brazil,Pará,,Belém
45.190.138.221,4,1526896,Ookla Speedtest Server 54189: speedtest.wbstelecom.com.br,BR,Americas,Latin America and the Caribbean,Brazil,Pará,,Monte Alegre
200.53.64.22,4,-629690,Ookla Speedtest Server 54283: speed.systectelecom.net.br,BR,Americas,Latin America and the Caribbean,Brazil,Pará,,Redenção
181.233.93.18,4,227,Ookla Speedtest Server 54699: speedtest.netlifetelecom.net.br,BR,Americas,Latin America and the Caribbean,Brazil,Pará,,Belém
177.131.21.52,4,190,Ookla Speedtest Server 55180: speedtestblm.webflash.net.br,BR,Americas,Latin America and the Caribbean,Brazil,Pará,,Abaetetuba
186.216.160.25,4,77,Ookla Speedtest Server 55562: btestmcp.vocetelecom.vc,BR,Americas,Latin America and the Caribbean,Brazil,Pará,,Monte Dourado
186.216.160.21,4,150,Ookla Speedtest Server 55563: btestblm.vocetelecom.vc,BR,Americas,Latin America and the Caribbean,Brazil,Pará,,Monte Dourado
143.208.28.7,4,272,Ookla Speedtest Server 55752: speedtest.speednetpacaja.com.br,BR,Americas,Latin America and the Caribbean,Brazil,Pará,,Pacajá
177.124.142.13,4,301,Ookla Speedtest Server 56743: sptestes.topnetmarajo.com.br,BR,Americas,Latin America and the Caribbean,Brazil,Pará,,Soure
138.117.37.148,4,52636,Ookla Speedtest Server 57132: speedtest.lgwconect.com.br,BR,Americas,Latin America and the Caribbean,Brazil,Pará,,Belém
45.178.34.13,4,171,Ookla Speedtest Server 57276: teste.netprov.net.br,BR,Americas,Latin America and the Caribbean,Brazil,Pará,,Santa Bárbara do Pará
181.191.136.52,4,1677344,Ookla Speedtest Server 57494: teste.speedtestasatelecom.com.br,BR,Americas,Latin America and the Caribbean,Brazil,Pará,,Conceição do Araguaia
177.54.229.165,4,330,Ookla Speedtest Server 57688: ookla.bethelnet.net.br,BR,Americas,Latin America and the Caribbean,Brazil,Pará,,Parauapebas
45.190.136.63,4,306,Ookla Speedtest Server 58000: speedtest.provedoracesso.net,BR,Americas,Latin America and the Caribbean,Brazil,Pará,,Santarém
45.227.111.130,4,274,Ookla Speedtest Server 59601: speedtest2.connectatelecompa.com.br,BR,Americas,Latin America and the Caribbean,Brazil,Pará,,Gurupá
200.39.146.253,4,321,Ookla Speedtest Server 59834: teste.speednetpa.net.br,BR,Americas,Latin America and the Caribbean,Brazil,Pará,,Tomé-Açu
177.66.105.133,4,338,Ookla Speedtest Server 59905: ogoki.vellon.com.br,BR,Americas,Latin America and the Caribbean,Brazil,Pará,,Belém
177.66.105.134,4,326,Ookla Speedtest Server 59909: roblin.conectainternet.net.br,BR,Americas,Latin America and the Caribbean,Brazil,Pará,,Belém
138.117.37.156,4,299,Ookla Speedtest Server 60069: speedtest.cyberdata.com.br,BR,Americas,Latin America and the Caribbean,Brazil,Pará,,Belém
200.192.157.227,4,280,Ookla Speedtest Server 60277: ookla.tenonetfibra.com.br,BR,Americas,Latin America and the Caribbean,Brazil,Pará,,Belém
45.163.209.21,4,324,Ookla Speedtest Server 61766: speedtest.speedtestproevolution.com.br,BR,Americas,Latin America and the Caribbean,Brazil,Pará,,Ananindeua
200.24.103.254,4,198,Ookla Speedtest Server 62213: speedtest.tbttelecom.com.br,BR,Americas,Latin America and the Caribbean,Brazil,Pará,,Almeirim Municipality
189.127.153.88,4,38665,Ookla Speedtest Server 63033: netkairos.brsserver.com.br,BR,Americas,Latin America and the Caribbean,Brazil,Pará,,Marituba
138.36.203.126,4,26987,Ookla Speedtest Server 64674: speedtest.7sul.com.br,BR,Americas,Latin America and the Caribbean,Brazil,Pará,,Santana do Araguaia
200.178.97.148,4,-334444,Ookla Speedtest Server: spd50.claro.com.br,BR,Americas,Latin America and the Caribbean,Brazil,Pará,,Ananindeua
168.121.138.254,4,16062477,Ookla Speedtest Server: speedtest.portalconexao.com.br,BR,Americas,Latin America and the Caribbean,Brazil,Pará,,Bragança
168.195.153.46,4,155,Ookla Speedtest Server: speedtest.redevisualnet.com.br,BR,Americas,Latin America and the Caribbean,Brazil,Pará,,Monte Alegre
45.166.29.251,4,32,Ookla Speedtest Server: speedtest.solprovedor.com.br,BR,Americas,Latin America and the Caribbean,Brazil,Pará,,São João de Pirabas
186.209.220.25,4,198,Ookla Speedtest Server: speedtest1.gconecta.com.br,BR,Americas,Latin America and the Caribbean,Brazil,Pará,,Conceição do Araguaia
179.189.193.114,4,15888,Ookla Speedtest Server: speedtestnp.novanetnp.com.br,BR,Americas,Latin America and the Caribbean,Brazil,Pará,,Novo Progresso Municipality
170.78.92.124,4,189,Ookla Speedtest Server: speedtestspeednet.com.br,BR,Americas,Latin America and the Caribbean,Brazil,Pará,,Santarém
131.161.204.71,4,13,Ookla Speedtest Server: velocimetroatm.interlig.net,BR,Americas,Latin America and the Caribbean,Brazil,Pará,,Altamira
200.139.13.12,4,1,ufopa.edu.br,BR,Americas,Latin America and the Caribbean,Brazil,Pará,,Santarém
