reflector_ip,ip_version,offset,description,country_code,region,sub_region,country_name,sub_division_1,sub_division_2,city
201.48.255.119,4,12,andes.org.br,BR,Americas,Latin America and the Caribbean,Brazil,Pernambuco,,Jaboatão dos Guararapes
177.37.220.26,4,11009620,brisanet.com.br,BR,Americas,Latin America and the Caribbean,Brazil,Pernambuco,,Recife
177.37.220.25,4,37858,brisanet.com.br,BR,Americas,Latin America and the Caribbean,Brazil,Pernambuco,,Recife
177.36.15.66,4,-164940,chesf.gov.br,BR,Americas,Latin America and the Caribbean,Brazil,Pernambuco,,Recife
177.87.168.105,4,63,DNS Server: 105-168-87-177.asstelecom.com.br,BR,Americas,Latin America and the Caribbean,Brazil,Pernambuco,,Recife
168.196.41.23,4,215,DNS Server: 168-196-41-23.visuallink.net.br,BR,Americas,Latin America and the Caribbean,Brazil,Pernambuco,,Recife
179.109.104.71,4,68,DNS Server: 179-109-104-71.cmtelecompe.com.br,BR,Americas,Latin America and the Caribbean,Brazil,Pernambuco,,Petrolina
177.87.168.6,4,34,DNS Server: 6-168-87-177.asstelecom.com.br,BR,Americas,Latin America and the Caribbean,Brazil,Pernambuco,,Recife
45.234.101.236,4,28,DNS Server: fort1-236.fortlink.net.br,BR,Americas,Latin America and the Caribbean,Brazil,Pernambuco,,Recife
138.0.196.51,4,-16741,DNS Server: ip-138.0.196.51.dtel.com.br,BR,Americas,Latin America and the Caribbean,Brazil,Pernambuco,,Vitória de Santo Antão
45.6.136.231,4,-47537328,DNS Server: webprovedor.231.rainternet.com.br,BR,Americas,Latin America and the Caribbean,Brazil,Pernambuco,,Recife
192.144.96.15,4,198,Ookla Speedtest Server 15897: teste.linsnetme.net.br,BR,Americas,Latin America and the Caribbean,Brazil,Pernambuco,,Recife
45.229.80.246,4,320,Ookla Speedtest Server 19906: speedtest.techzone-provedor.net.br,BR,Americas,Latin America and the Caribbean,Brazil,Pernambuco,,Jatobá
170.83.199.102,4,257,Ookla Speedtest Server 24396: speedtest.starnetbandalarga.com.br,BR,Americas,Latin America and the Caribbean,Brazil,Pernambuco,,Dormentes
177.222.224.4,4,-388757,Ookla Speedtest Server 53484: teste.sertaonline.com.br,BR,Americas,Latin America and the Caribbean,Brazil,Pernambuco,,Sertânia
45.188.239.26,4,136,Ookla Speedtest Server 53485: teste.fibranetpe.com.br,BR,Americas,Latin America and the Caribbean,Brazil,Pernambuco,,Petrolina
177.221.40.121,4,460453,Ookla Speedtest Server 53536: speedtest.vcamlink.com.br,BR,Americas,Latin America and the Caribbean,Brazil,Pernambuco,,Recife
168.196.40.46,4,329,Ookla Speedtest Server 56266: speedtest.tiwisp.net.br,BR,Americas,Latin America and the Caribbean,Brazil,Pernambuco,,Recife
45.233.159.134,4,244,Ookla Speedtest Server 56399: teste.fidnet.net.br,BR,Americas,Latin America and the Caribbean,Brazil,Pernambuco,,Jaboatão dos Guararapes
45.224.208.34,4,262,Ookla Speedtest Server 56486: ookla.loglink.com.br,BR,Americas,Latin America and the Caribbean,Brazil,Pernambuco,,Olinda
181.233.92.27,4,248,Ookla Speedtest Server 56713: speedtest.edinetpe.com.br,BR,Americas,Latin America and the Caribbean,Brazil,Pernambuco,,Olinda
170.0.61.222,4,293,Ookla Speedtest Server 57206: teste.sejaticonnecte.com.br,BR,Americas,Latin America and the Caribbean,Brazil,Pernambuco,,Surubim
168.196.42.26,4,259,Ookla Speedtest Server 57777: speedtest.elohimfibra.com.br,BR,Americas,Latin America and the Caribbean,Brazil,Pernambuco,,Recife
201.140.239.32,4,4863,Ookla Speedtest Server 59691: teste.salomaotelecom.com.br,BR,Americas,Latin America and the Caribbean,Brazil,Pernambuco,,Recife
45.70.217.60,4,-19576,Ookla Speedtest Server 60489: speedtest.turboteste.com.br,BR,Americas,Latin America and the Caribbean,Brazil,Pernambuco,,Recife
179.109.104.18,4,14696,Ookla Speedtest Server 62359: velocidade.mx3telecom.com.br,BR,Americas,Latin America and the Caribbean,Brazil,Pernambuco,,Petrolina
177.93.72.106,4,264,Ookla Speedtest Server 63212: speedtest.soltelecomvsf.com.br,BR,Americas,Latin America and the Caribbean,Brazil,Pernambuco,,Lagoa Grande
168.196.42.184,4,292,Ookla Speedtest Server 63265: speedtest.arahnet.com.br,BR,Americas,Latin America and the Caribbean,Brazil,Pernambuco,,Recife
179.49.197.253,4,406,Ookla Speedtest Server 64561: spd.vallenettelecom.net.br,BR,Americas,Latin America and the Caribbean,Brazil,Pernambuco,,Petrolina
45.164.247.142,4,319,Ookla Speedtest Server 65387: speedtest.soutonet.com.br,BR,Americas,Latin America and the Caribbean,Brazil,Pernambuco,,Paulista
168.90.65.75,4,130,Ookla Speedtest Server: ookla.provedorsmart.com.br,BR,Americas,Latin America and the Caribbean,Brazil,Pernambuco,,Caruaru
45.232.52.26,4,127,Ookla Speedtest Server: ookla.souvipnet.com.br,BR,Americas,Latin America and the Caribbean,Brazil,Pernambuco,,São Joaquim do Monte
45.4.146.10,4,361,Ookla Speedtest Server: sp1.redecom.net.br,BR,Americas,Latin America and the Caribbean,Brazil,Pernambuco,,Santa Cruz do Capibaribe
45.224.24.17,4,18879049,Ookla Speedtest Server: sp1.redeviaconnect.net.br,BR,Americas,Latin America and the Caribbean,Brazil,Pernambuco,,Recife
45.5.6.168,4,241,Ookla Speedtest Server: sp1.vianettelecom.net.br,BR,Americas,Latin America and the Caribbean,Brazil,Pernambuco,,Brejo da Madre de Deus
200.215.225.188,4,279,Ookla Speedtest Server: speed.smartfibra.net.br,BR,Americas,Latin America and the Caribbean,Brazil,Pernambuco,,Jaboatão dos Guararapes
45.4.144.33,4,324,Ookla Speedtest Server: speedtest.paulistanettelecom.com.br,BR,Americas,Latin America and the Caribbean,Brazil,Pernambuco,,Santa Cruz do Capibaribe
190.89.244.22,4,312,Ookla Speedtest Server: speedtest.pgfcaruaru.com.br,BR,Americas,Latin America and the Caribbean,Brazil,Pernambuco,,Caruaru
45.183.148.13,4,170,Ookla Speedtest Server: speedtest.provedorfoxnet.com.br,BR,Americas,Latin America and the Caribbean,Brazil,Pernambuco,,Caruaru
45.4.144.50,4,7015,Ookla Speedtest Server: speedtest.soupowernet.com.br,BR,Americas,Latin America and the Caribbean,Brazil,Pernambuco,,Santa Cruz do Capibaribe
177.221.128.52,4,219,Ookla Speedtest Server: speedtest02.webconnecttelecom.com.br,BR,Americas,Latin America and the Caribbean,Brazil,Pernambuco,,Santa Maria do Cambucá
45.6.137.121,4,38862,Ookla Speedtest Server: speedtest2.provedorimperiofibra.tv.br,BR,Americas,Latin America and the Caribbean,Brazil,Pernambuco,,Recife
45.235.104.203,4,138143,Ookla Speedtest Server: speedtestmgn.ajustconsulting.com.br,BR,Americas,Latin America and the Caribbean,Brazil,Pernambuco,,Recife
45.4.151.10,4,296149,Ookla Speedtest Server: teste.toptelecom.psi.br,BR,Americas,Latin America and the Caribbean,Brazil,Pernambuco,,Surubim
138.94.212.30,4,18,Ookla Speedtest Server: velocimetro.mvdctelecom.com.br,BR,Americas,Latin America and the Caribbean,Brazil,Pernambuco,,Altinho
201.76.99.3,4,-12214442,Ookla Speedtest Server: www.vescnet.com.br,BR,Americas,Latin America and the Caribbean,Brazil,Pernambuco,,Recife
