reflector_ip,ip_version,offset,description,country_code,region,sub_region,country_name,sub_division_1,sub_division_2,city
83.222.7.34,4,-76246,adti.uz,UZ,Asia,Central Asia,Uzbekistan,Tashkent,,Tashkent
185.8.212.55,4,-4,agro.uz,UZ,Asia,Central Asia,Uzbekistan,,,
89.232.187.210,4,20,alutech-group.com,UZ,Asia,Central Asia,Uzbekistan,Tashkent,,Tashkent
91.212.89.54,4,92,arbuz.uz,UZ,Asia,Central Asia,Uzbekistan,,,
83.69.139.250,4,17,bastombuva.uz,UZ,Asia,Central Asia,Uzbekistan,,,
95.46.96.104,4,3,buxdu.uz,UZ,Asia,Central Asia,Uzbekistan,Tashkent,,Tashkent
84.54.115.70,4,1,cawater-info.net,UZ,Asia,Central Asia,Uzbekistan,Tashkent,,Tashkent
91.212.89.8,4,-15,cctld.uz,UZ,Asia,Central Asia,Uzbekistan,,,
91.212.89.49,4,7,constitution.uz,UZ,Asia,Central Asia,Uzbekistan,,,
195.158.14.74,4,-12,creditasia.uz,UZ,Asia,Central Asia,Uzbekistan,Tashkent,,Tashkent
213.148.20.70,4,2,daryo.uz,UZ,Asia,Central Asia,Uzbekistan,Tashkent,,Tashkent
185.74.7.84,4,536470,data.gov.uz,UZ,Asia,Central Asia,Uzbekistan,,,
146.120.18.67,4,10471,DNS Server: 146.120.18.67.ip.nano.uz,UZ,Asia,Central Asia,Uzbekistan,Tashkent,,Tashkent
146.120.19.15,4,6706680,DNS Server: 146.120.19.15.ip.nano.uz,UZ,Asia,Central Asia,Uzbekistan,Tashkent,,Tashkent
213.230.124.161,4,20,DNS Server: 161.64.uzpak.uz,UZ,Asia,Central Asia,Uzbekistan,Tashkent,,Tashkent
217.30.173.164,4,-2366,DNS Server: 217.30.173.164.static.ip.etc.uz,UZ,Asia,Central Asia,Uzbekistan,Tashkent,,Tashkent
213.230.126.228,4,-11,DNS Server: 228.126.uzpak.uz,UZ,Asia,Central Asia,Uzbekistan,Tashkent,,Tashkent
62.209.139.136,4,-492146684,DNS Server: 62.209.139.136.static.ip.tps.uz,UZ,Asia,Central Asia,Uzbekistan,Tashkent,,Tashkent
80.80.218.218,4,2852608,DNS Server: 80.80.218.218.static.ip.tps.uz,UZ,Asia,Central Asia,Uzbekistan,Tashkent,,Tashkent
87.237.232.106,4,-1,DNS Server: 87.237.232.106.static.ip.etc.uz,UZ,Asia,Central Asia,Uzbekistan,,,
87.237.233.65,4,18255,DNS Server: 87.237.233.65.static.ip.etc.uz,UZ,Asia,Central Asia,Uzbekistan,,,
87.237.238.150,4,-17238860,DNS Server: 87.237.238.150.static.ip.etc.uz,UZ,Asia,Central Asia,Uzbekistan,,,
87.237.238.170,4,6,DNS Server: 87.237.238.170.static.ip.etc.uz,UZ,Asia,Central Asia,Uzbekistan,,,
91.213.31.156,4,23843125,DNS Server: 91-213-31-156-ip.duplextel.uz,UZ,Asia,Central Asia,Uzbekistan,,,
91.213.31.40,4,179,DNS Server: 91-213-31-40-ip.duplextel.uz,UZ,Asia,Central Asia,Uzbekistan,,,
91.234.219.163,4,13470,DNS Server: 91.234.219.163.flink.uz,UZ,Asia,Central Asia,Uzbekistan,Tashkent,,Tashkent
91.240.13.86,4,50,DNS Server: 91.240.13.86.ip.nano.uz,UZ,Asia,Central Asia,Uzbekistan,Tashkent,,Tashkent
93.157.58.137,4,8694485,DNS Server: 93.157.58.137.ip-trans.turontelecom.uz,UZ,Asia,Central Asia,Uzbekistan,,,
94.158.53.158,4,4552,DNS Server: l3.uz,UZ,Asia,Central Asia,Uzbekistan,Tashkent,,Tashkent
84.54.64.35,4,131,DNS Server: ns3.uzpak.uz,UZ,Asia,Central Asia,Uzbekistan,Tashkent,,Tashkent
213.232.225.60,4,32,goldenpages.uz,UZ,Asia,Central Asia,Uzbekistan,Tashkent,,Tashkent
185.196.213.26,4,-9,gotovim.uz,UZ,Asia,Central Asia,Uzbekistan,,,
83.69.136.109,4,-9,gt-industrial.uk,UZ,Asia,Central Asia,Uzbekistan,,,
91.212.89.9,4,0,id.uz,UZ,Asia,Central Asia,Uzbekistan,,,
91.212.89.67,4,-14,istiqbolsari.uz,UZ,Asia,Central Asia,Uzbekistan,,,
185.228.88.15,4,1,kansler.uz,UZ,Asia,Central Asia,Uzbekistan,Tashkent,,Tashkent
83.69.139.151,4,29,kathaq.uz,UZ,Asia,Central Asia,Uzbekistan,,,
91.212.89.57,4,-12,mcfr.uz,UZ,Asia,Central Asia,Uzbekistan,,,
185.74.4.91,4,12,mtrk.uz,UZ,Asia,Central Asia,Uzbekistan,,,
83.69.139.158,4,136,nrm.uz,UZ,Asia,Central Asia,Uzbekistan,,,
83.69.139.168,4,-14,nurnews.uz,UZ,Asia,Central Asia,Uzbekistan,,,
185.196.213.39,4,84,nuu.uz,UZ,Asia,Central Asia,Uzbekistan,,,
81.95.225.174,4,77,Ookla Speedtest Server 5381: speed.uz,UZ,Asia,Central Asia,Uzbekistan,Tashkent,,Tashkent
91.188.128.147,4,52,Ookla Speedtest Server 17363: speedtest.ars.uz,UZ,Asia,Central Asia,Uzbekistan,Tashkent,,Tashkent
80.80.209.206,4,30,Ookla Speedtest Server: speedtest.tps.uz,UZ,Asia,Central Asia,Uzbekistan,Tashkent,,Tashkent
176.221.28.105,4,8,orzon.uz,UZ,Asia,Central Asia,Uzbekistan,Tashkent,,Tashkent
185.8.212.74,4,50,parliament.gov.uz,UZ,Asia,Central Asia,Uzbekistan,,,
84.54.74.198,4,-12,pochta.uz,UZ,Asia,Central Asia,Uzbekistan,Tashkent,,Tashkent
95.46.96.61,4,-28,podrobno.uz,UZ,Asia,Central Asia,Uzbekistan,Tashkent,,Tashkent
91.212.89.144,4,-3,president.uz,UZ,Asia,Central Asia,Uzbekistan,,,
89.249.63.162,4,58,prokuratura.uz,UZ,Asia,Central Asia,Uzbekistan,,,
185.8.212.42,4,36,regulation.gov.uz,UZ,Asia,Central Asia,Uzbekistan,,,
91.190.159.32,4,67,review.uz,UZ,Asia,Central Asia,Uzbekistan,,,
213.230.127.153,4,25,samo.uz,UZ,Asia,Central Asia,Uzbekistan,Tashkent,,Tashkent
195.158.11.139,4,69,sdtes.uz,UZ,Asia,Central Asia,Uzbekistan,Tashkent,,Tashkent
185.74.7.250,4,-135,stat.uz,UZ,Asia,Central Asia,Uzbekistan,,,
185.196.212.206,4,-10,tma.uz,UZ,Asia,Central Asia,Uzbekistan,,,
195.158.2.220,4,-2,tuit.uz,UZ,Asia,Central Asia,Uzbekistan,Tashkent,,Tashkent
91.212.89.68,4,-16,urganchshahar.uz,UZ,Asia,Central Asia,Uzbekistan,,,
194.93.25.170,4,-4,uwed.uz,UZ,Asia,Central Asia,Uzbekistan,Tashkent,,Tashkent
84.54.82.141,4,8,uzairways.com,UZ,Asia,Central Asia,Uzbekistan,Tashkent,,Tashkent
83.69.136.159,4,-5,uzbekistan.travel,UZ,Asia,Central Asia,Uzbekistan,,,
185.8.212.70,4,561,uzbektourism.uz,UZ,Asia,Central Asia,Uzbekistan,,,
91.212.89.6,4,-11,uzpse.uz,UZ,Asia,Central Asia,Uzbekistan,,,
81.95.225.242,4,-75,uzreport.uz,UZ,Asia,Central Asia,Uzbekistan,Tashkent,,Tashkent
83.69.129.17,4,-10,uzsci.net,UZ,Asia,Central Asia,Uzbekistan,,,
91.212.89.50,4,-10,uzsm.uz,UZ,Asia,Central Asia,Uzbekistan,,,
91.212.89.51,4,-11,vinsanoat.uz,UZ,Asia,Central Asia,Uzbekistan,,,
91.212.89.42,4,-14,www.uz,UZ,Asia,Central Asia,Uzbekistan,,,
185.196.212.52,4,-13,yugaysushi.ru,UZ,Asia,Central Asia,Uzbekistan,,,
91.190.159.49,4,-11,yuz.uz,UZ,Asia,Central Asia,Uzbekistan,,,
91.212.89.46,4,-14,ziyonet.uz,UZ,Asia,Central Asia,Uzbekistan,,,
91.212.89.11,4,-16,zn.uz,UZ,Asia,Central Asia,Uzbekistan,,,
