reflector_ip,ip_version,offset,description,country_code,region,sub_region,country_name,sub_division_1,sub_division_2,city
212.112.120.195,4,281,airport.kg,KG,Asia,Central Asia,Kyrgyzstan,Gorod Bishkek,,Bishkek
212.112.96.88,4,6,aknet.kg,KG,Asia,Central Asia,Kyrgyzstan,Gorod Bishkek,,Bishkek
212.112.96.87,4,6,aknet.kg,KG,Asia,Central Asia,Kyrgyzstan,Gorod Bishkek,,Bishkek
212.112.96.89,4,30,aknet.kg,KG,Asia,Central Asia,Kyrgyzstan,Gorod Bishkek,,Bishkek
212.42.119.10,4,1,bulbul.kg,KG,Asia,Central Asia,Kyrgyzstan,,,
176.126.165.71,4,7,climatehub.kg,KG,Asia,Central Asia,Kyrgyzstan,,,
195.38.168.118,4,-77,co.kg,KG,Asia,Central Asia,Kyrgyzstan,,,
195.38.162.93,4,-69,data.gov.kg,KG,Asia,Central Asia,Kyrgyzstan,,,
212.42.113.175,4,-729097354,DNS Server: 212-42-113-175.elcat.kg,KG,Asia,Central Asia,Kyrgyzstan,,,
213.145.149.166,4,46,DNS Server: 213-145-149-166.static.ktnet.kg,KG,Asia,Central Asia,Kyrgyzstan,,,
5.57.8.249,4,290630,DNS Server: 5-57-8-249.elcat.kg,KG,Asia,Central Asia,Kyrgyzstan,,,
77.235.18.2,4,239,DNS Server: 77-235-18-2.mega.kg,KG,Asia,Central Asia,Kyrgyzstan,Gorod Bishkek,,Bishkek
77.235.18.74,4,18904,DNS Server: 77-235-18-74.mega.kg,KG,Asia,Central Asia,Kyrgyzstan,Gorod Bishkek,,Bishkek
77.235.18.98,4,2,DNS Server: 77-235-18-98.mega.kg,KG,Asia,Central Asia,Kyrgyzstan,Gorod Bishkek,,Bishkek
77.235.27.18,4,634,DNS Server: 77-235-27-18.mega.kg,KG,Asia,Central Asia,Kyrgyzstan,Gorod Bishkek,,Bishkek
77.235.27.235,4,2282,DNS Server: 77-235-27-235.mega.kg,KG,Asia,Central Asia,Kyrgyzstan,Gorod Bishkek,,Bishkek
77.235.28.102,4,-3111,DNS Server: 77-235-28-102.mega.kg,KG,Asia,Central Asia,Kyrgyzstan,Gorod Bishkek,,Bishkek
80.72.179.138,4,40375,DNS Server: 80-72-179-138.pppoe.ktnet.kg,KG,Asia,Central Asia,Kyrgyzstan,,,
80.72.179.30,4,12476,DNS Server: 80-72-179-30.pppoe.ktnet.kg,KG,Asia,Central Asia,Kyrgyzstan,,,
85.113.16.18,4,2616,DNS Server: 85-113-16-18.static.ktnet.kg,KG,Asia,Central Asia,Kyrgyzstan,,,
85.113.18.209,4,-8042017,DNS Server: 85-113-18-209.static.ktnet.kg,KG,Asia,Central Asia,Kyrgyzstan,Jalal-Abad Region,,Tash-Kumyr
85.113.18.34,4,9423147,DNS Server: 85-113-18-34.static.ktnet.kg,KG,Asia,Central Asia,Kyrgyzstan,Jalal-Abad Region,,Tash-Kumyr
85.113.21.118,4,768,DNS Server: 85-113-21-118.static.ktnet.kg,KG,Asia,Central Asia,Kyrgyzstan,Issyk-Kul,,Cholpon-Ata
85.113.22.170,4,365,DNS Server: 85-113-22-170.static.ktnet.kg,KG,Asia,Central Asia,Kyrgyzstan,,,
85.113.28.117,4,72571,DNS Server: 85-113-28-117.static.ktnet.kg,KG,Asia,Central Asia,Kyrgyzstan,,,
85.113.30.10,4,386,DNS Server: 85-113-30-10.static.ktnet.kg,KG,Asia,Central Asia,Kyrgyzstan,Issyk-Kul,,Kyzyl-Suu
85.113.6.113,4,266,DNS Server: 85-113-6-113.static.ktnet.kg,KG,Asia,Central Asia,Kyrgyzstan,Batken,,Batken
85.113.7.154,4,24245,DNS Server: 85-113-7-154.static.ktnet.kg,KG,Asia,Central Asia,Kyrgyzstan,,,
85.113.9.73,4,1317,DNS Server: 85-113-9-73.static.ktnet.kg,KG,Asia,Central Asia,Kyrgyzstan,,,
92.245.114.129,4,946,DNS Server: 92-245-114-129.mega.kg,KG,Asia,Central Asia,Kyrgyzstan,Gorod Bishkek,,Bishkek
94.143.194.17,4,-8771,DNS Server: 94-143-194-17.elcat.kg,KG,Asia,Central Asia,Kyrgyzstan,,,
85.113.15.230,4,-15897789,edu.gov.kg,KG,Asia,Central Asia,Kyrgyzstan,,,
212.42.102.209,4,62,elcat.kg,KG,Asia,Central Asia,Kyrgyzstan,Gorod Bishkek,,Bishkek
176.126.165.70,4,3,infodesk.kg,KG,Asia,Central Asia,Kyrgyzstan,,,
176.126.165.32,4,1,islamdini.kg,KG,Asia,Central Asia,Kyrgyzstan,,,
85.113.10.226,4,7,kenesh.kg,KG,Asia,Central Asia,Kyrgyzstan,,,
81.20.16.84,4,4,krsu.edu.kg,KG,Asia,Central Asia,Kyrgyzstan,,,
212.42.122.145,4,319317,mineconom.gov.kg,KG,Asia,Central Asia,Kyrgyzstan,Gorod Bishkek,,Bishkek
91.207.28.65,4,8,oe.kg,KG,Asia,Central Asia,Kyrgyzstan,,,
212.2.230.79,4,1158,Ookla Speedtest Server 5308: oosrv.myhost.kg,KG,Asia,Central Asia,Kyrgyzstan,Gorod Bishkek,,Bishkek
91.192.65.166,4,204,Ookla Speedtest Server 5689: speedtest.beeline.kg,KG,Asia,Central Asia,Kyrgyzstan,Gorod Bishkek,,Bishkek
178.216.212.159,4,305,Ookla Speedtest Server 61344: test.tribute.kg,KG,Asia,Central Asia,Kyrgyzstan,,,
212.112.105.12,4,29,patent.kg,KG,Asia,Central Asia,Kyrgyzstan,Gorod Bishkek,,Bishkek
176.126.167.188,4,6,sputnik.kg,KG,Asia,Central Asia,Kyrgyzstan,,,
212.42.101.106,4,6,stat.gov.kg,KG,Asia,Central Asia,Kyrgyzstan,Gorod Bishkek,,Bishkek
212.42.101.113,4,94,stat.kg,KG,Asia,Central Asia,Kyrgyzstan,Gorod Bishkek,,Bishkek
91.207.28.94,4,-14,super.kg,KG,Asia,Central Asia,Kyrgyzstan,,,
212.2.227.212,4,27,vb.kg,KG,Asia,Central Asia,Kyrgyzstan,Gorod Bishkek,,Bishkek
77.220.204.65,4,-4,volunteer.kg,KG,Asia,Central Asia,Kyrgyzstan,Gorod Bishkek,,Bishkek
213.145.140.198,4,1304026,worldnomadgames.com,KG,Asia,Central Asia,Kyrgyzstan,,,
