reflector_ip,ip_version,offset,description,country_code,region,sub_region,country_name,sub_division_1,sub_division_2,city
185.33.54.14,4,4,3dviewer.net,HU,Europe,Eastern Europe,Hungary,,,
185.51.65.250,4,770,5percangol.hu,HU,Europe,Eastern Europe,Hungary,,,
185.187.75.121,4,5,777blog.hu,HU,Europe,Eastern Europe,Hungary,,,
82.141.138.41,4,6154,abplusz.hu,HU,Europe,Eastern Europe,Hungary,Pest County,,Fót
82.131.160.68,4,4,accenthotels.com,HU,Europe,Eastern Europe,Hungary,Budapest,,Budapest
193.16.218.150,4,-709970,adatbank.ro,HU,Europe,Eastern Europe,Hungary,,,
5.159.233.88,4,5,addel.hu,HU,Europe,Eastern Europe,Hungary,,,
217.13.97.42,4,6,adonika.hu,HU,Europe,Eastern Europe,Hungary,,,
81.0.120.91,4,4,adverticum.net,HU,Europe,Eastern Europe,Hungary,Budapest,,Budapest
62.112.195.166,4,3,aeropark.hu,HU,Europe,Eastern Europe,Hungary,Budapest,,Budapest
87.229.65.116,4,5,agraroldal.hu,HU,Europe,Eastern Europe,Hungary,,,
82.150.35.85,4,13,agria.hu,HU,Europe,Eastern Europe,Hungary,Budapest,,Budapest
185.208.227.116,4,658,agroforum.hu,HU,Europe,Eastern Europe,Hungary,,,
217.13.97.115,4,791,agrotrend.hu,HU,Europe,Eastern Europe,Hungary,,,
109.199.61.209,4,4,ahrt.hu,HU,Europe,Eastern Europe,Hungary,Fejér,,Mány
82.131.160.225,4,5,aida32.hu,HU,Europe,Eastern Europe,Hungary,Budapest,,Budapest
38.180.109.117,4,18,aidsomsk.ru,HU,Europe,Eastern Europe,Hungary,Budapest,,Budapest
185.208.226.137,4,127,airportal.hu,HU,Europe,Eastern Europe,Hungary,,,
185.111.88.110,4,1,ajtaci.sk,HU,Europe,Eastern Europe,Hungary,,,
185.51.188.74,4,860,akupunkturas-kezeles.hu,HU,Europe,Eastern Europe,Hungary,,,
185.33.54.1,4,31,akvaguru.hu,HU,Europe,Eastern Europe,Hungary,,,
88.151.99.75,4,4,alfavs.eu,HU,Europe,Eastern Europe,Hungary,,,
195.90.98.55,4,7,allatpatikapecs.hu,HU,Europe,Eastern Europe,Hungary,,,
185.51.65.166,4,4,amcham.hu,HU,Europe,Eastern Europe,Hungary,,,
87.229.102.148,4,5,amnesty.hu,HU,Europe,Eastern Europe,Hungary,,,
185.51.65.68,4,5,andrassyuni.eu,HU,Europe,Eastern Europe,Hungary,,,
195.111.2.95,4,15,apertusvr.org,HU,Europe,Eastern Europe,Hungary,Budapest,,Budapest
87.229.26.16,4,2035,aquaoptima.hu,HU,Europe,Eastern Europe,Hungary,,,
185.51.191.20,4,833,archishade.hu,HU,Europe,Eastern Europe,Hungary,,,
185.43.206.63,4,5,archlinexp.com,HU,Europe,Eastern Europe,Hungary,Borsod-Abaúj-Zemplén,,Miskolc
185.51.190.195,4,32,ardoboz.hu,HU,Europe,Eastern Europe,Hungary,,,
45.88.93.2,4,33,artmarketbudapest.hu,HU,Europe,Eastern Europe,Hungary,,,
94.125.176.29,4,67,atw.hu,HU,Europe,Eastern Europe,Hungary,,,
178.238.210.28,4,10,autoklub.hu,HU,Europe,Eastern Europe,Hungary,,,
185.161.74.181,4,9,autopalyamatrica.hu,HU,Europe,Eastern Europe,Hungary,Budapest,,Budapest
46.29.139.94,4,3,azenkutyam.hu,HU,Europe,Eastern Europe,Hungary,,,
79.172.253.20,4,3,babasegely.hu,HU,Europe,Eastern Europe,Hungary,,,
77.111.91.85,4,5,babaszoba.hu,HU,Europe,Eastern Europe,Hungary,,,
80.249.169.78,4,6,balassiintezet.hu,HU,Europe,Eastern Europe,Hungary,Pest County,,Pilisborosjenő
185.187.74.153,4,6,balaton.hu,HU,Europe,Eastern Europe,Hungary,,,
78.24.186.219,4,5,balatonfured.hu,HU,Europe,Eastern Europe,Hungary,,,
92.43.203.26,4,3,balatonfurediallatorvos.hu,HU,Europe,Eastern Europe,Hungary,,,
212.52.167.185,4,4,balintgazda.hu,HU,Europe,Eastern Europe,Hungary,,,
212.92.29.4,4,12,balmazujvaros.hu,HU,Europe,Eastern Europe,Hungary,Hajdú-Bihar,,Balmazújváros
94.199.49.21,4,6,balnabudapest.hu,HU,Europe,Eastern Europe,Hungary,,,
193.201.189.221,4,14,banjozsef.hu,HU,Europe,Eastern Europe,Hungary,Budapest,,Budapest
46.29.138.34,4,3,bankszovetseg.hu,HU,Europe,Eastern Europe,Hungary,,,
92.119.121.70,4,7,barabasi.com,HU,Europe,Eastern Europe,Hungary,,,
109.61.79.137,4,21,bardonreorg.hu,HU,Europe,Eastern Europe,Hungary,Budapest,,Budapest
88.151.99.87,4,21,barexkft.hu,HU,Europe,Eastern Europe,Hungary,,,
212.92.13.120,4,46,battanet.hu,HU,Europe,Eastern Europe,Hungary,Fejér,,Székesfehérvár
185.51.190.81,4,6,bazilika-esztergom.hu,HU,Europe,Eastern Europe,Hungary,,,
185.111.89.166,4,15,bekeltetes-csongrad.hu,HU,Europe,Eastern Europe,Hungary,,,
81.93.193.5,4,10,bekeltetesfejer.hu,HU,Europe,Eastern Europe,Hungary,Fejér,,Székesfehérvár
79.172.249.55,4,2,bekescsaba.hu,HU,Europe,Eastern Europe,Hungary,,,
87.229.72.155,4,2,berettyobne.hu,HU,Europe,Eastern Europe,Hungary,,,
212.108.220.4,4,-8,besencziarpad.hu,HU,Europe,Eastern Europe,Hungary,Budapest,,Budapest
185.43.206.166,4,31,bestmarkt.hu,HU,Europe,Eastern Europe,Hungary,Borsod-Abaúj-Zemplén,,Miskolc
79.172.210.49,4,4,bidf.hu,HU,Europe,Eastern Europe,Hungary,Budapest,,Budapest
79.139.60.174,4,4,bikemag.hu,HU,Europe,Eastern Europe,Hungary,Budapest,,Budapest
91.220.29.134,4,4,biletmaster.ro,HU,Europe,Eastern Europe,Hungary,,,
92.119.122.126,4,133,biobolteger.hu,HU,Europe,Eastern Europe,Hungary,,,
81.0.68.51,4,45,biokontroll.hu,HU,Europe,Eastern Europe,Hungary,Veszprém megye,,Ősi
217.144.56.121,4,6,bkik.hu,HU,Europe,Eastern Europe,Hungary,,,
92.43.203.14,4,15,bldtech.hu,HU,Europe,Eastern Europe,Hungary,,,
213.181.199.48,4,46,blog.hu,HU,Europe,Eastern Europe,Hungary,,,
213.181.199.51,4,3,blog.hu,HU,Europe,Eastern Europe,Hungary,,,
213.181.199.50,4,3,blog.hu,HU,Europe,Eastern Europe,Hungary,,,
213.181.199.49,4,8,blog.hu,HU,Europe,Eastern Europe,Hungary,,,
195.70.38.180,4,4,blogin.hu,HU,Europe,Eastern Europe,Hungary,Budapest,,Budapest
217.20.131.200,4,3,blogol.hu,HU,Europe,Eastern Europe,Hungary,,,
152.66.121.21,4,5,bme.hu,HU,Europe,Eastern Europe,Hungary,Budapest,,Budapest
193.224.41.8,4,1233897,bmf.hu,HU,Europe,Eastern Europe,Hungary,Budapest,,Budapest
185.80.48.178,4,57,bnpi.hu,HU,Europe,Eastern Europe,Hungary,,,
185.51.190.12,4,1035,botorka.ro,HU,Europe,Eastern Europe,Hungary,,,
37.220.138.58,4,16,bpugyvedikamara.hu,HU,Europe,Eastern Europe,Hungary,Budapest,,Budapest
91.227.139.235,4,4,budaikepkeret.hu,HU,Europe,Eastern Europe,Hungary,,,
193.178.119.78,4,32,budapestarena.hu,HU,Europe,Eastern Europe,Hungary,,,
5.56.35.6,4,3,budapestbylocals.com,HU,Europe,Eastern Europe,Hungary,,,
79.172.252.50,4,293,budapestgaleria.hu,HU,Europe,Eastern Europe,Hungary,,,
194.38.96.9,4,9,c3.hu,HU,Europe,Eastern Europe,Hungary,Heves County,,Egerbocs
77.111.91.34,4,15,cafeblog.hu,HU,Europe,Eastern Europe,Hungary,,,
185.33.54.8,4,22,camptourist.hu,HU,Europe,Eastern Europe,Hungary,,,
193.201.190.88,4,71,castrolmintabolt.hu,HU,Europe,Eastern Europe,Hungary,Budapest,,Budapest
185.43.207.66,4,7,cba.hu,HU,Europe,Eastern Europe,Hungary,Borsod-Abaúj-Zemplén,,Miskolc
79.172.211.66,4,27,ceedclub.hu,HU,Europe,Eastern Europe,Hungary,,,
178.238.222.25,4,948,ceeweb.org,HU,Europe,Eastern Europe,Hungary,,,
195.70.35.149,4,5,centrumnet.hu,HU,Europe,Eastern Europe,Hungary,Budapest,,Budapest
195.228.254.206,4,1,chillispot.org,HU,Europe,Eastern Europe,Hungary,Budapest,,Budapest
185.33.54.12,4,5,cinefest.hu,HU,Europe,Eastern Europe,Hungary,,,
92.43.203.17,4,11,civertan.hu,HU,Europe,Eastern Europe,Hungary,,,
79.172.209.132,4,-47,civilek.info,HU,Europe,Eastern Europe,Hungary,,,
79.139.58.125,4,36,civishir.hu,HU,Europe,Eastern Europe,Hungary,Budapest,,Budapest
87.229.104.112,4,7,confidenzacsapagy.hu,HU,Europe,Eastern Europe,Hungary,,,
95.131.48.202,4,14,cool-shop.eu,HU,Europe,Eastern Europe,Hungary,,,
95.131.50.86,4,-16102,coolcatalogue.eu,HU,Europe,Eastern Europe,Hungary,,,
193.23.139.142,4,5,coop.hu,HU,Europe,Eastern Europe,Hungary,,,
79.172.252.14,4,649,coralthemes.com,HU,Europe,Eastern Europe,Hungary,,,
78.24.184.230,4,412,core.hu,HU,Europe,Eastern Europe,Hungary,,,
193.32.235.201,4,12,corion.io,HU,Europe,Eastern Europe,Hungary,,,
92.43.203.156,4,3,csaladihaztervezes.hu,HU,Europe,Eastern Europe,Hungary,,,
95.131.50.8,4,6,csaladinet.hu,HU,Europe,Eastern Europe,Hungary,,,
193.201.186.194,4,2,csepel.hu,HU,Europe,Eastern Europe,Hungary,Budapest,,Budapest
185.33.54.18,4,6,csillagaszat.hu,HU,Europe,Eastern Europe,Hungary,,,
92.43.203.58,4,3,csodalatosmagyarorszag.hu,HU,Europe,Eastern Europe,Hungary,,,
178.238.222.172,4,252,cultura.hu,HU,Europe,Eastern Europe,Hungary,,,
217.65.97.100,4,55,data.hu,HU,Europe,Eastern Europe,Hungary,Fejér,,Dunaújváros
79.172.252.173,4,1025,ddnp.hu,HU,Europe,Eastern Europe,Hungary,,,
195.56.193.182,4,9,dension.com,HU,Europe,Eastern Europe,Hungary,Budapest,,Budapest
92.118.24.194,4,3,designgaleria.hu,HU,Europe,Eastern Europe,Hungary,Heves County,,Mikófalva
77.111.127.87,4,46,dianadahab.hu,HU,Europe,Eastern Europe,Hungary,,,
185.33.54.167,4,23,digitalhungary.hu,HU,Europe,Eastern Europe,Hungary,,,
193.224.89.131,4,21,digitalisjoletprogram.hu,HU,Europe,Eastern Europe,Hungary,Szabolcs-Szatmár-Bereg,,Nyíregyháza
79.172.217.232,4,49,dmsbp.hu,HU,Europe,Eastern Europe,Hungary,,,
91.83.235.125,4,-1217614,DNS Server: 125.235.pool.netchannel.hu,HU,Europe,Eastern Europe,Hungary,Csongrád megye,,Baks
91.83.235.129,4,32273,DNS Server: 129.235.pool.netchannel.hu,HU,Europe,Eastern Europe,Hungary,Csongrád megye,,Baks
91.83.64.129,4,52,DNS Server: 129.64.83.91.perfectpc.hu,HU,Europe,Eastern Europe,Hungary,Csongrád megye,,Szeged
91.83.64.185,4,512309,DNS Server: 185.64.83.91.perfectpc.hu,HU,Europe,Eastern Europe,Hungary,Csongrád megye,,Szeged
62.100.254.105,4,59,DNS Server: 254-105.oktavnet.hu,HU,Europe,Eastern Europe,Hungary,Fejér,,Velence
46.35.192.151,4,-47865980,DNS Server: 46-35-192-151.oroscom.hu,HU,Europe,Eastern Europe,Hungary,Bekes County,,Orosháza
46.107.228.164,4,35,DNS Server: 46.107.228.164.szatmarnet.hu,HU,Europe,Eastern Europe,Hungary,Budapest,,Budapest
46.107.228.97,4,126,DNS Server: 46.107.228.97.szatmarnet.hu,HU,Europe,Eastern Europe,Hungary,Budapest,,Budapest
46.107.231.70,4,240,DNS Server: 46.107.231.70.szatmarnet.hu,HU,Europe,Eastern Europe,Hungary,Budapest,,Budapest
94.199.48.243,4,17202,DNS Server: 48-243.oko-pc.hu,HU,Europe,Eastern Europe,Hungary,,,
79.122.109.148,4,102,DNS Server: 4F7A6D94.catv.pool.telekom.hu,HU,Europe,Eastern Europe,Hungary,Csongrád megye,,Hódmezővásárhely
81.182.91.251,4,142,DNS Server: 51B65BFB.dsl.pool.telekom.hu,HU,Europe,Eastern Europe,Hungary,Somogy County,,Siófok
81.182.94.54,4,-7315,DNS Server: 51B65E36.dsl.pool.telekom.hu,HU,Europe,Eastern Europe,Hungary,Somogy County,,Siófok
81.183.61.136,4,115632,DNS Server: 51B73D88.dsl.pool.telekom.hu,HU,Europe,Eastern Europe,Hungary,Baranya,,Pécs
84.2.205.216,4,48,DNS Server: 5402CDD8.dsl.pool.telekom.hu,HU,Europe,Eastern Europe,Hungary,Bács-Kiskun,,Kecskemét
86.59.149.88,4,4322,DNS Server: 563B9558.catv.pool.telekom.hu,HU,Europe,Eastern Europe,Hungary,Fejér,,Szabadegyháza
91.120.167.181,4,312,DNS Server: 5B78A7B5.dsl.pool.telekom.hu,HU,Europe,Eastern Europe,Hungary,Borsod-Abaúj-Zemplén,,Szerencs
91.83.232.6,4,10,DNS Server: 6.232.pool.szemernet.hu,HU,Europe,Eastern Europe,Hungary,Csongrád megye,,Baks
62.77.232.226,4,-26232053,DNS Server: 62.77.232.226.static.invitel.hu,HU,Europe,Eastern Europe,Hungary,Budapest,,Budapest
78.131.12.126,4,-94763,DNS Server: 78-131-12-126.static.digikabel.hu,HU,Europe,Eastern Europe,Hungary,Pest County,,Sződliget
78.131.12.155,4,47898,DNS Server: 78-131-12-155.static.digikabel.hu,HU,Europe,Eastern Europe,Hungary,Pest County,,Sződliget
78.131.88.3,4,-3297,DNS Server: 78-131-88-3.static.hdsnet.hu,HU,Europe,Eastern Europe,Hungary,Budapest,,Budapest
78.131.88.79,4,-26158,DNS Server: 78-131-88-79.static.hdsnet.hu,HU,Europe,Eastern Europe,Hungary,Budapest,,Budapest
79.172.236.61,4,91,DNS Server: 79-172-236-061.toldinet.hu,HU,Europe,Eastern Europe,Hungary,,,
79.172.236.165,4,-7199857,DNS Server: 79-172-236-165.toldinet.hu,HU,Europe,Eastern Europe,Hungary,,,
80.64.72.145,4,30,DNS Server: 80-64-72-145.static.acetelecom.hu,HU,Europe,Eastern Europe,Hungary,Budapest,,Budapest
80.64.76.129,4,352,DNS Server: 80-64-76-129.static.acetelecom.hu,HU,Europe,Eastern Europe,Hungary,Budapest,,Budapest
80.64.76.134,4,2648,DNS Server: 80-64-76-134.static.acetelecom.hu,HU,Europe,Eastern Europe,Hungary,Budapest,,Budapest
80.64.76.146,4,4332,DNS Server: 80-64-76-146.static.acetelecom.hu,HU,Europe,Eastern Europe,Hungary,Budapest,,Budapest
80.64.76.15,4,23,DNS Server: 80-64-76-15.static.acetelecom.hu,HU,Europe,Eastern Europe,Hungary,Budapest,,Budapest
80.64.76.168,4,12939,DNS Server: 80-64-76-168.static.acetelecom.hu,HU,Europe,Eastern Europe,Hungary,Budapest,,Budapest
80.64.76.17,4,40,DNS Server: 80-64-76-17.static.acetelecom.hu,HU,Europe,Eastern Europe,Hungary,Budapest,,Budapest
80.64.76.18,4,26,DNS Server: 80-64-76-18.static.acetelecom.hu,HU,Europe,Eastern Europe,Hungary,Budapest,,Budapest
80.64.76.6,4,236662,DNS Server: 80-64-76-6.static.acetelecom.hu,HU,Europe,Eastern Europe,Hungary,Budapest,,Budapest
81.16.192.63,4,519,DNS Server: 81.16.192.63.zt.hu,HU,Europe,Eastern Europe,Hungary,Zala County,,Cserszegtomaj
84.1.116.254,4,90,DNS Server: 84-1-116-254.pool.kapulan.hu,HU,Europe,Eastern Europe,Hungary,Győr-Moson-Sopron,,Kapuvár
84.1.150.58,4,10185894,DNS Server: 84-1-150-58.deltakon.hu,HU,Europe,Eastern Europe,Hungary,Budapest,,Budapest
134.255.116.18,4,164,DNS Server: 86FF7412.dsl.pool.telekom.hu,HU,Europe,Eastern Europe,Hungary,Pest County,,Cegléd
87.229.16.133,4,246,DNS Server: 87-229-16-133.saghysat.hu,HU,Europe,Eastern Europe,Hungary,Baranya,,Nagynyárád
87.229.54.17,4,6,DNS Server: 87-229-54-017.batonynet.hu,HU,Europe,Eastern Europe,Hungary,,,
87.229.54.145,4,7198278,DNS Server: 87-229-54-145.batonynet.hu,HU,Europe,Eastern Europe,Hungary,,,
87.97.60.116,4,-42772,DNS Server: 87-97-60-116.static.digikabel.hu,HU,Europe,Eastern Europe,Hungary,Budapest,,Budapest
87.97.60.156,4,40037,DNS Server: 87-97-60-156.static.digikabel.hu,HU,Europe,Eastern Europe,Hungary,Budapest,,Budapest
91.137.131.25,4,90,DNS Server: 91-137-131-25.opticon.hu,HU,Europe,Eastern Europe,Hungary,Jász-Nagykun-Szolnok,,Mezőtúr
91.82.175.23,4,54,DNS Server: 91.82.175.23.pool.invitel.hu,HU,Europe,Eastern Europe,Hungary,,,
92.118.27.72,4,2226,DNS Server: 92-118-27-72.hosts.mhosting.hu,HU,Europe,Eastern Europe,Hungary,Heves County,,Mikófalva
94.21.177.59,4,419114,DNS Server: 94-21-177-59.static.digikabel.hu,HU,Europe,Eastern Europe,Hungary,Budapest,,Budapest
94.21.228.198,4,110129,DNS Server: 94-21-228-198.pool.digikabel.hu,HU,Europe,Eastern Europe,Hungary,Budapest,,Budapest
94.21.243.229,4,2119,DNS Server: 94-21-243-229.static.digikabel.hu,HU,Europe,Eastern Europe,Hungary,Pest County,,Vecsés
94.21.243.35,4,53957,DNS Server: 94-21-243-35.static.digikabel.hu,HU,Europe,Eastern Europe,Hungary,Pest County,,Vecsés
95.140.36.64,4,-4441,DNS Server: 95-140-36-64.szervernet.hu,HU,Europe,Eastern Europe,Hungary,,,
95.140.36.69,4,16,DNS Server: 95-140-36-69.szervernet.hu,HU,Europe,Eastern Europe,Hungary,,,
89.135.193.253,4,6657,DNS Server: adsl-89-135-193-253.monradsl.monornet.hu,HU,Europe,Eastern Europe,Hungary,Budapest,,Budapest
89.186.99.208,4,60,DNS Server: adsl-99-208.globonet.hu,HU,Europe,Eastern Europe,Hungary,,,
188.157.72.233,4,10945,DNS Server: BC9D48E9.catv.pool.telekom.hu,HU,Europe,Eastern Europe,Hungary,Csongrád megye,,Szeged
188.142.233.253,4,58812,DNS Server: business-188-142-233-253.business.broadband.hu,HU,Europe,Eastern Europe,Hungary,Budapest,,Budapest
86.101.149.148,4,5,DNS Server: business-86-101-149-148.business.broadband.hu,HU,Europe,Eastern Europe,Hungary,Hajdú-Bihar,,Debrecen
86.101.233.85,4,18147,DNS Server: business-86-101-233-85.business.broadband.hu,HU,Europe,Eastern Europe,Hungary,Budapest,,Budapest
86.101.76.1,4,701,DNS Server: business-86-101-76-1.business.broadband.hu,HU,Europe,Eastern Europe,Hungary,Budapest,,Budapest
86.101.76.9,4,15,DNS Server: business-86-101-76-9.business.broadband.hu,HU,Europe,Eastern Europe,Hungary,Budapest,,Budapest
89.133.157.57,4,-50,DNS Server: business-89-133-157-57.business.broadband.hu,HU,Europe,Eastern Europe,Hungary,Budapest,,Budapest
89.133.8.25,4,63,DNS Server: business-89-133-8-25.business.broadband.hu,HU,Europe,Eastern Europe,Hungary,Budapest,,Budapest
89.135.192.37,4,12,DNS Server: business-89-135-192-37.business.broadband.hu,HU,Europe,Eastern Europe,Hungary,Budapest,,Budapest
89.135.247.130,4,49,DNS Server: business-89-135-247-130.business.broadband.hu,HU,Europe,Eastern Europe,Hungary,Somogy County,,Siófok
89.135.52.10,4,-39555,DNS Server: business-89-135-52-10.business.broadband.hu,HU,Europe,Eastern Europe,Hungary,Budapest,,Budapest
89.135.52.16,4,19376,DNS Server: business-89-135-52-16.business.broadband.hu,HU,Europe,Eastern Europe,Hungary,Budapest,,Budapest
89.135.52.29,4,20,DNS Server: business-89-135-52-29.business.broadband.hu,HU,Europe,Eastern Europe,Hungary,Budapest,,Budapest
46.107.27.230,4,-4219990578,DNS Server: c-ge200-0-0-10-2022.er0-sopron.net.telekom.hu,HU,Europe,Eastern Europe,Hungary,Budapest,,Budapest
84.1.98.190,4,5,DNS Server: c-vl2013.ar0-szekesfehervar.net.telekom.hu,HU,Europe,Eastern Europe,Hungary,Nógrád megye,,Rétság
86.101.57.229,4,95,DNS Server: catv-86-101-57-229.catv.fixed.vodafone.hu,HU,Europe,Eastern Europe,Hungary,Budapest,,Budapest
89.132.137.61,4,28794,DNS Server: catv-89-132-137-61.catv.fixed.vodafone.hu,HU,Europe,Eastern Europe,Hungary,Budapest,,Budapest
89.133.95.163,4,131,DNS Server: catv-89-133-95-163.catv.fixed.vodafone.hu,HU,Europe,Eastern Europe,Hungary,Hajdú-Bihar,,Debrecen
89.133.95.173,4,149,DNS Server: catv-89-133-95-173.catv.fixed.vodafone.hu,HU,Europe,Eastern Europe,Hungary,Hajdú-Bihar,,Debrecen
89.134.150.125,4,15,DNS Server: catv-89-134-150-125.catv.fixed.vodafone.hu,HU,Europe,Eastern Europe,Hungary,Budapest,,Budapest
89.134.183.229,4,42441,DNS Server: catv-89-134-183-229.catv.fixed.vodafone.hu,HU,Europe,Eastern Europe,Hungary,Győr-Moson-Sopron,,Győr
89.134.183.233,4,333,DNS Server: catv-89-134-183-233.catv.fixed.vodafone.hu,HU,Europe,Eastern Europe,Hungary,Győr-Moson-Sopron,,Győr
89.134.183.245,4,40859,DNS Server: catv-89-134-183-245.catv.fixed.vodafone.hu,HU,Europe,Eastern Europe,Hungary,Győr-Moson-Sopron,,Győr
89.134.183.249,4,6605,DNS Server: catv-89-134-183-249.catv.fixed.vodafone.hu,HU,Europe,Eastern Europe,Hungary,Győr-Moson-Sopron,,Győr
81.182.245.59,4,36158,DNS Server: center.balatonregion.hu,HU,Europe,Eastern Europe,Hungary,Budapest,,Budapest
77.221.37.86,4,369,DNS Server: dsl-2-086.wlan.isis-com.hu,HU,Europe,Eastern Europe,Hungary,Vas County,,Szombathely
31.46.42.149,4,4834,DNS Server: dsl1F2E2A95.fixip.t-online.hu,HU,Europe,Eastern Europe,Hungary,Budapest,,Budapest
81.182.243.24,4,214,DNS Server: dsl51B6F318.fixip.t-online.hu,HU,Europe,Eastern Europe,Hungary,Budapest,,Budapest
81.183.211.172,4,572,DNS Server: dsl51B7D3AC.fixip.t-online.hu,HU,Europe,Eastern Europe,Hungary,Budapest,,Budapest
81.183.212.194,4,0,DNS Server: dsl51B7D4C2.fixip.t-online.hu,HU,Europe,Eastern Europe,Hungary,Budapest,,Budapest
81.183.216.211,4,51541,DNS Server: dsl51B7D8D3.fixip.t-online.hu,HU,Europe,Eastern Europe,Hungary,Budapest,,Budapest
81.183.217.123,4,3831,DNS Server: dsl51B7D97B.fixip.t-online.hu,HU,Europe,Eastern Europe,Hungary,Budapest,,Budapest
81.183.223.33,4,25,DNS Server: dsl51B7DF21.fixip.t-online.hu,HU,Europe,Eastern Europe,Hungary,Budapest,,Budapest
81.183.234.83,4,64105,DNS Server: dsl51B7EA53.fixip.t-online.hu,HU,Europe,Eastern Europe,Hungary,Budapest,,Budapest
81.183.234.215,4,11981,DNS Server: dsl51B7EAD7.fixip.t-online.hu,HU,Europe,Eastern Europe,Hungary,Budapest,,Budapest
81.183.248.195,4,4645,DNS Server: dsl51B7F8C3.fixip.t-online.hu,HU,Europe,Eastern Europe,Hungary,Budapest,,Budapest
84.1.27.123,4,-22981,DNS Server: dsl54011B7B.fixip.t-online.hu,HU,Europe,Eastern Europe,Hungary,Budapest,,Budapest
84.1.34.139,4,48427,DNS Server: dsl5401228B.fixip.t-online.hu,HU,Europe,Eastern Europe,Hungary,Győr-Moson-Sopron,,Győr
84.2.58.4,4,83586,DNS Server: dsl54023A04.fixip.t-online.hu,HU,Europe,Eastern Europe,Hungary,Pest County,,Vác
188.6.164.43,4,22327,DNS Server: dslBC06A42B.fixip.t-online.hu,HU,Europe,Eastern Europe,Hungary,Budapest,,Budapest
188.6.165.9,4,260879,DNS Server: dslBC06A509.fixip.t-online.hu,HU,Europe,Eastern Europe,Hungary,Budapest,,Budapest
195.228.81.117,4,45,DNS Server: dslC3E45175.fixip.t-online.hu,HU,Europe,Eastern Europe,Hungary,Csongrád megye,,Szeged
193.6.173.5,4,106,DNS Server: fw2.ttre.hu,HU,Europe,Eastern Europe,Hungary,Hajdú-Bihar,,Debrecen
82.141.146.7,4,32,DNS Server: ge1.hatvan-pe0.gline.hu,HU,Europe,Eastern Europe,Hungary,Bács-Kiskun,,Kiskunfélegyháza
78.131.87.208,4,6,DNS Server: holoiroda.com,HU,Europe,Eastern Europe,Hungary,Budapest,,Budapest
87.242.47.132,4,-300421,DNS Server: host-87-242-47-132.prtelecom.hu,HU,Europe,Eastern Europe,Hungary,Bács-Kiskun,,Kiskunfélegyháza
84.2.226.174,4,355,DNS Server: ktv5402E2AE.fixip.t-online.hu,HU,Europe,Eastern Europe,Hungary,Budapest,,Budapest
195.228.189.230,4,423,DNS Server: lotus.digitalcity.hu,HU,Europe,Eastern Europe,Hungary,Budapest,,Budapest
79.120.177.106,4,11738,DNS Server: mail.andapresent.hu,HU,Europe,Eastern Europe,Hungary,Bács-Kiskun,,Balotaszállás
194.39.45.25,4,265,DNS Server: mail.toronyair.net,HU,Europe,Eastern Europe,Hungary,Budapest,,Budapest
80.98.194.41,4,236,DNS Server: mail.verga.hu,HU,Europe,Eastern Europe,Hungary,Budapest,,Budapest
82.141.128.226,4,259,DNS Server: mail1.mono-group.com,HU,Europe,Eastern Europe,Hungary,Pest County,,Fót
194.39.45.46,4,325,DNS Server: mbraptor.tech,HU,Europe,Eastern Europe,Hungary,Budapest,,Budapest
81.182.250.40,4,4166,DNS Server: mx.gylco.hu,HU,Europe,Eastern Europe,Hungary,Budapest,,Budapest
92.61.114.113,4,107,DNS Server: mx2.pingtomi.hu,HU,Europe,Eastern Europe,Hungary,,,
91.104.181.74,4,-7198461,DNS Server: netacc-gpn-104-181-74.pool.yettel.hu,HU,Europe,Eastern Europe,Hungary,,,
81.182.244.148,4,101,DNS Server: newborn.scale.hu,HU,Europe,Eastern Europe,Hungary,Budapest,,Budapest
94.199.48.245,4,17148,DNS Server: oko-pc.hu,HU,Europe,Eastern Europe,Hungary,,,
77.221.45.162,4,78529,DNS Server: rev.77-221-45-162.microsystem.hu,HU,Europe,Eastern Europe,Hungary,Somogy County,,Balatonboglár
185.43.205.213,4,109,DNS Server: sh.nosoul.hu,HU,Europe,Eastern Europe,Hungary,Borsod-Abaúj-Zemplén,,Miskolc
92.249.148.13,4,975,DNS Server: smtp.innosys.hu,HU,Europe,Eastern Europe,Hungary,Budapest,,Budapest
193.39.14.61,4,4,duen.hu,HU,Europe,Eastern Europe,Hungary,,,
185.111.88.113,4,13,dulovic.tech,HU,Europe,Eastern Europe,Hungary,,,
92.52.223.19,4,47,dumaszinhaz.hu,HU,Europe,Eastern Europe,Hungary,,,
94.199.177.25,4,4,durerkert.com,HU,Europe,Eastern Europe,Hungary,Budapest,,Budapest
185.33.54.9,4,7,e-nyelv.hu,HU,Europe,Eastern Europe,Hungary,,,
193.39.12.240,4,9,eblog.hu,HU,Europe,Eastern Europe,Hungary,,,
185.25.106.25,4,6,egrivar.hu,HU,Europe,Eastern Europe,Hungary,Pest County,,Tápióság
94.199.49.32,4,45,egyediajandekotletek.hu,HU,Europe,Eastern Europe,Hungary,,,
178.48.186.181,4,7,egyhazmegye.hu,HU,Europe,Eastern Europe,Hungary,Budapest,,Budapest
185.51.191.61,4,526,eitjumpstarter.eu,HU,Europe,Eastern Europe,Hungary,,,
193.138.127.100,4,71,ekultura.hu,HU,Europe,Eastern Europe,Hungary,,,
91.233.21.51,4,41,elitewatch.hu,HU,Europe,Eastern Europe,Hungary,,,
212.108.220.118,4,40,elobolygonk.hu,HU,Europe,Eastern Europe,Hungary,Budapest,,Budapest
193.188.140.35,4,15,eoldal.hu,HU,Europe,Eastern Europe,Hungary,,,
79.172.252.74,4,1119,epfkft.hu,HU,Europe,Eastern Europe,Hungary,,,
91.227.138.53,4,9,ephelis.hu,HU,Europe,Eastern Europe,Hungary,,,
87.229.98.99,4,15,epiteszforum.hu,HU,Europe,Eastern Europe,Hungary,,,
80.77.122.168,4,7,erdmost.hu,HU,Europe,Eastern Europe,Hungary,,,
92.118.26.108,4,5,eregistrator.hu,HU,Europe,Eastern Europe,Hungary,Heves County,,Mikófalva
195.228.156.23,4,2,esemenyhangositas.hu,HU,Europe,Eastern Europe,Hungary,Budapest,,Budapest
217.112.140.224,4,1073,esztergom.hu,HU,Europe,Eastern Europe,Hungary,,,
80.249.174.70,4,62,etterem.hu,HU,Europe,Eastern Europe,Hungary,Pest County,,Pilisborosjenő
185.51.190.188,4,577,europafit.hu,HU,Europe,Eastern Europe,Hungary,,,
91.233.21.70,4,58,europeer.eu,HU,Europe,Eastern Europe,Hungary,,,
80.249.168.94,4,77,euvonal.hu,HU,Europe,Eastern Europe,Hungary,Pest County,,Pilisborosjenő
79.172.252.44,4,743,eventoj.hu,HU,Europe,Eastern Europe,Hungary,,,
185.80.48.212,4,3,ezermester.hu,HU,Europe,Eastern Europe,Hungary,,,
91.144.96.97,4,58,fairplayinternational.org,HU,Europe,Eastern Europe,Hungary,Hajdú-Bihar,,Balmazújváros
185.111.89.224,4,16,felepulok.hu,HU,Europe,Eastern Europe,Hungary,,,
213.181.199.54,4,22,felnottkepzes.hu,HU,Europe,Eastern Europe,Hungary,,,
212.52.166.162,4,4,ferto-hansag.hu,HU,Europe,Eastern Europe,Hungary,,,
185.208.227.91,4,376,festekuzletek.hu,HU,Europe,Eastern Europe,Hungary,,,
185.51.191.59,4,387,filharmonia.hu,HU,Europe,Eastern Europe,Hungary,,,
185.33.54.3,4,10,filmarchiv.hu,HU,Europe,Eastern Europe,Hungary,,,
188.227.230.26,4,208482,filmhiradokonline.hu,HU,Europe,Eastern Europe,Hungary,,,
79.139.62.42,4,40,filmkatalogus.hu,HU,Europe,Eastern Europe,Hungary,Budapest,,Budapest
185.33.55.103,4,16,filmtekercs.hu,HU,Europe,Eastern Europe,Hungary,,,
89.107.253.60,4,38,fitvideo.hu,HU,Europe,Eastern Europe,Hungary,,,
91.227.138.37,4,4,flippermuzeum.hu,HU,Europe,Eastern Europe,Hungary,,,
178.238.210.103,4,2,florastudio.hu,HU,Europe,Eastern Europe,Hungary,,,
217.13.100.84,4,3,fmc.hu,HU,Europe,Eastern Europe,Hungary,,,
195.56.193.134,4,48,fono.hu,HU,Europe,Eastern Europe,Hungary,Budapest,,Budapest
193.68.51.187,4,11,footballbenchmark.com,HU,Europe,Eastern Europe,Hungary,Budapest,,Budapest
92.52.223.62,4,5,formula.hu,HU,Europe,Eastern Europe,Hungary,,,
37.221.215.116,4,48,freewb.ro,HU,Europe,Eastern Europe,Hungary,,,
84.2.35.59,4,3,futanet.hu,HU,Europe,Eastern Europe,Hungary,Budapest,,Budapest
46.107.233.226,4,3,fuzovelkifele.com,HU,Europe,Eastern Europe,Hungary,Szabolcs-Szatmár-Bereg,,Tuzsér
194.180.12.161,4,17,gamekapocs.hu,HU,Europe,Eastern Europe,Hungary,,,
80.77.123.115,4,16,gazdabolt.hu,HU,Europe,Eastern Europe,Hungary,,,
178.238.210.198,4,73,gemenczrt.hu,HU,Europe,Eastern Europe,Hungary,,,
212.52.167.40,4,79,geocaching.hu,HU,Europe,Eastern Europe,Hungary,,,
185.111.89.131,4,9,gisinternals.com,HU,Europe,Eastern Europe,Hungary,,,
79.172.205.155,4,12,globalgenetic.ro,HU,Europe,Eastern Europe,Hungary,,,
195.228.156.159,4,16,globomax.eu,HU,Europe,Eastern Europe,Hungary,Budapest,,Budapest
88.151.101.118,4,30,gondola.hu,HU,Europe,Eastern Europe,Hungary,,,
178.48.186.152,4,1,gorogkatolikus.hu,HU,Europe,Eastern Europe,Hungary,Budapest,,Budapest
94.199.52.240,4,3,gportal.hu,HU,Europe,Eastern Europe,Hungary,,,
92.43.203.185,4,2,grandinhr.eu,HU,Europe,Eastern Europe,Hungary,,,
80.77.124.84,4,11,greenfish.hu,HU,Europe,Eastern Europe,Hungary,,,
91.146.180.88,4,-4,grin.hu,HU,Europe,Eastern Europe,Hungary,Tolna County,,Bonyhád
91.83.237.218,4,129,gumivadasz.hu,HU,Europe,Eastern Europe,Hungary,Budapest,,Budapest
194.180.16.143,4,-3,gyor.hu,HU,Europe,Eastern Europe,Hungary,Somogy County,,Som
185.33.54.4,4,5,gyorgytea.hu,HU,Europe,Eastern Europe,Hungary,,,
79.172.209.120,4,-54,hajduszoboszlo.hu,HU,Europe,Eastern Europe,Hungary,,,
92.43.203.114,4,3,hajozas.hu,HU,Europe,Eastern Europe,Hungary,,,
92.43.203.144,4,5,hangulatvendeghaz.hu,HU,Europe,Eastern Europe,Hungary,,,
185.51.188.62,4,1558,harckocsik.hu,HU,Europe,Eastern Europe,Hungary,,,
193.142.209.23,4,8,harkakotony.hu,HU,Europe,Eastern Europe,Hungary,,,
87.229.72.53,4,7,haverok.hu,HU,Europe,Eastern Europe,Hungary,,,
195.56.77.52,4,3,hazassaghete.hu,HU,Europe,Eastern Europe,Hungary,,,
79.139.60.166,4,243531,haziallat.hu,HU,Europe,Eastern Europe,Hungary,Budapest,,Budapest
77.111.91.168,4,3,hazipatika.com,HU,Europe,Eastern Europe,Hungary,,,
195.90.114.35,4,1,hbmbekeltetes.hu,HU,Europe,Eastern Europe,Hungary,,,
185.51.65.70,4,2,hdke.hu,HU,Europe,Eastern Europe,Hungary,,,
185.51.188.42,4,434,hdsentinel.com,HU,Europe,Eastern Europe,Hungary,,,
178.238.222.50,4,1031,helikonkastely.hu,HU,Europe,Eastern Europe,Hungary,,,
139.28.140.152,4,1,helsinki.hu,HU,Europe,Eastern Europe,Hungary,,,
217.65.97.135,4,0,helyismeret.hu,HU,Europe,Eastern Europe,Hungary,Fejér,,Dunaújváros
193.201.185.171,4,-2,herend.com,HU,Europe,Eastern Europe,Hungary,Budapest,,Budapest
45.88.93.10,4,1,herpesztitkaink.hu,HU,Europe,Eastern Europe,Hungary,,,
195.228.76.104,4,-1,heviz.hu,HU,Europe,Eastern Europe,Hungary,Budapest,,Budapest
87.229.26.252,4,3,hhablak.hu,HU,Europe,Eastern Europe,Hungary,,,
87.229.73.232,4,1161,hifitness.hu,HU,Europe,Eastern Europe,Hungary,,,
92.43.203.175,4,-53,hircsarda.hu,HU,Europe,Eastern Europe,Hungary,,,
5.56.38.70,4,8,hirek.sk,HU,Europe,Eastern Europe,Hungary,,,
213.181.220.118,4,-179208,hirextra.hu,HU,Europe,Eastern Europe,Hungary,,,
185.68.73.200,4,23,hirlevelcenter.eu,HU,Europe,Eastern Europe,Hungary,,,
77.111.91.56,4,16,hirstart.hu,HU,Europe,Eastern Europe,Hungary,,,
87.229.26.121,4,1145,historia-bfured.hu,HU,Europe,Eastern Europe,Hungary,,,
80.64.64.2,4,662,hitelesen.com,HU,Europe,Eastern Europe,Hungary,Budapest,,Budapest
91.147.234.203,4,32183,hnp.hu,HU,Europe,Eastern Europe,Hungary,Hajdú-Bihar,,Debrecen
185.111.89.177,4,6,hodmezovasarhely.hu,HU,Europe,Eastern Europe,Hungary,,,
185.51.188.65,4,802,holloko.hu,HU,Europe,Eastern Europe,Hungary,,,
92.119.123.100,4,48,holtankoljak.hu,HU,Europe,Eastern Europe,Hungary,,,
193.138.125.39,4,2486334,homeserver.hu,HU,Europe,Eastern Europe,Hungary,Szabolcs-Szatmár-Bereg,,Nyíregyháza
92.119.122.95,4,4,honlap.hu,HU,Europe,Eastern Europe,Hungary,,,
195.228.254.149,4,3,hotspotsystem.com,HU,Europe,Eastern Europe,Hungary,Budapest,,Budapest
79.139.61.176,4,4,hpworld.co.hu,HU,Europe,Eastern Europe,Hungary,Budapest,,Budapest
88.151.99.57,4,3,hsbp.org,HU,Europe,Eastern Europe,Hungary,,,
31.46.27.37,4,5,hungaroring.hu,HU,Europe,Eastern Europe,Hungary,,,
92.119.122.43,4,4,hup.hu,HU,Europe,Eastern Europe,Hungary,,,
193.178.119.42,4,4,hupont.hu,HU,Europe,Eastern Europe,Hungary,,,
45.12.40.21,4,3,huszadikszazad.hu,HU,Europe,Eastern Europe,Hungary,,,
185.43.207.157,4,1,hwsw.hu,HU,Europe,Eastern Europe,Hungary,Borsod-Abaúj-Zemplén,,Miskolc
185.80.48.202,4,38,idegen-szavak.hu,HU,Europe,Eastern Europe,Hungary,,,
217.144.50.66,4,4,idokep.hu,HU,Europe,Eastern Europe,Hungary,,,
217.144.50.67,4,7,idokep.hu,HU,Europe,Eastern Europe,Hungary,,,
213.253.214.234,4,-14,ikk.hu,HU,Europe,Eastern Europe,Hungary,Budapest,,Budapest
193.32.233.69,4,4,imami.hu,HU,Europe,Eastern Europe,Hungary,,,
213.181.199.79,4,17,indafoto.hu,HU,Europe,Eastern Europe,Hungary,,,
213.181.199.80,4,14,indafoto.hu,HU,Europe,Eastern Europe,Hungary,,,
213.181.199.78,4,5,indafoto.hu,HU,Europe,Eastern Europe,Hungary,,,
213.181.199.81,4,16,indafoto.hu,HU,Europe,Eastern Europe,Hungary,,,
213.181.199.56,4,11,indapass.hu,HU,Europe,Eastern Europe,Hungary,,,
213.181.199.59,4,4,indapass.hu,HU,Europe,Eastern Europe,Hungary,,,
213.181.199.57,4,5,indapass.hu,HU,Europe,Eastern Europe,Hungary,,,
213.181.199.58,4,10,indapass.hu,HU,Europe,Eastern Europe,Hungary,,,
213.181.199.41,4,5,indavideo.hu,HU,Europe,Eastern Europe,Hungary,,,
213.181.199.40,4,3,indavideo.hu,HU,Europe,Eastern Europe,Hungary,,,
213.181.199.42,4,13,indavideo.hu,HU,Europe,Eastern Europe,Hungary,,,
213.181.199.43,4,9,indavideo.hu,HU,Europe,Eastern Europe,Hungary,,,
87.229.99.133,4,41,infostart.hu,HU,Europe,Eastern Europe,Hungary,,,
92.43.203.173,4,2,infoto.hu,HU,Europe,Eastern Europe,Hungary,,,
79.139.62.6,4,30,infovilag.hu,HU,Europe,Eastern Europe,Hungary,Budapest,,Budapest
194.180.19.170,4,6,ingatlannet.hu,HU,Europe,Eastern Europe,Hungary,Somogy County,,Som
217.116.46.151,4,22,ini.hu,HU,Europe,Eastern Europe,Hungary,Fejér,,Bodajk
194.180.19.152,4,3,instant-fogas.com,HU,Europe,Eastern Europe,Hungary,Somogy County,,Som
94.125.179.179,4,8,ipon.hu,HU,Europe,Eastern Europe,Hungary,,,
77.111.127.126,4,1278,iranyar.hu,HU,Europe,Eastern Europe,Hungary,,,
193.201.190.25,4,32,iranymagyarorszag.hu,HU,Europe,Eastern Europe,Hungary,Budapest,,Budapest
185.208.224.103,4,205,irodalmijelen.hu,HU,Europe,Eastern Europe,Hungary,,,
37.221.213.62,4,4,jatekok.hu,HU,Europe,Eastern Europe,Hungary,,,
91.220.29.106,4,6,jegymester.hu,HU,Europe,Eastern Europe,Hungary,,,
80.249.169.83,4,0,jobbadni.hu,HU,Europe,Eastern Europe,Hungary,Pest County,,Pilisborosjenő
185.208.227.211,4,80,jogiforum.hu,HU,Europe,Eastern Europe,Hungary,,,
109.61.67.39,4,1,jpm.hu,HU,Europe,Eastern Europe,Hungary,Baranya,,Pécs
195.228.152.169,4,4,jss.hu,HU,Europe,Eastern Europe,Hungary,Budapest,,Budapest
87.229.55.143,4,4,k-monitor.hu,HU,Europe,Eastern Europe,Hungary,,,
85.90.166.123,4,7,kaff.hu,HU,Europe,Eastern Europe,Hungary,Bács-Kiskun,,Kecskemét
94.199.48.80,4,4,kapitalis.hu,HU,Europe,Eastern Europe,Hungary,,,
5.159.233.36,4,23,kaposvarmost.hu,HU,Europe,Eastern Europe,Hungary,,,
185.80.48.36,4,28,kapu.hu,HU,Europe,Eastern Europe,Hungary,,,
185.111.89.132,4,18,katonajozsefszinhaz.hu,HU,Europe,Eastern Europe,Hungary,,,
88.151.101.119,4,3,kdnp.hu,HU,Europe,Eastern Europe,Hungary,,,
193.39.12.225,4,3,kemia.info,HU,Europe,Eastern Europe,Hungary,,,
79.172.252.66,4,328,keol.hu,HU,Europe,Eastern Europe,Hungary,,,
79.172.209.141,4,-29,keszthely.hu,HU,Europe,Eastern Europe,Hungary,,,
185.51.66.74,4,14,kieselbach.hu,HU,Europe,Eastern Europe,Hungary,,,
185.51.188.63,4,1791,kiralyfitness.hu,HU,Europe,Eastern Europe,Hungary,,,
79.172.213.67,4,18,kiralyikastely.hu,HU,Europe,Eastern Europe,Hungary,,,
193.23.139.115,4,39,kispest.hu,HU,Europe,Eastern Europe,Hungary,,,
93.88.196.96,4,4,kisvasut.hu,HU,Europe,Eastern Europe,Hungary,Budapest,,Budapest
185.43.207.111,4,3,kiszamolo.hu,HU,Europe,Eastern Europe,Hungary,Borsod-Abaúj-Zemplén,,Miskolc
185.75.192.90,4,7,kki.hu,HU,Europe,Eastern Europe,Hungary,Fejér,,Sárbogárd
213.181.222.43,4,50,klubkelemen.hu,HU,Europe,Eastern Europe,Hungary,,,
91.82.226.140,4,1,kmnp.hu,HU,Europe,Eastern Europe,Hungary,Budapest,,Budapest
185.51.191.55,4,324,knp.hu,HU,Europe,Eastern Europe,Hungary,,,
212.52.180.4,4,-17651,koloknet.hu,HU,Europe,Eastern Europe,Hungary,,,
157.181.227.78,4,131,komal.hu,HU,Europe,Eastern Europe,Hungary,Budapest,,Budapest
5.56.34.14,4,2,komplettbor.hu,HU,Europe,Eastern Europe,Hungary,,,
62.112.194.190,4,39,koncert.hu,HU,Europe,Eastern Europe,Hungary,Budapest,,Budapest
217.144.56.57,4,54,konkoly.hu,HU,Europe,Eastern Europe,Hungary,,,
79.172.252.43,4,1095,kopari.hu,HU,Europe,Eastern Europe,Hungary,,,
185.208.224.23,4,426,korosnagyharsany.hu,HU,Europe,Eastern Europe,Hungary,,,
185.80.48.27,4,3,kossuth.hu,HU,Europe,Eastern Europe,Hungary,,,
87.229.45.61,4,1861,koszeg.hu,HU,Europe,Eastern Europe,Hungary,,,
79.139.61.24,4,67,kovet.hu,HU,Europe,Eastern Europe,Hungary,Budapest,,Budapest
62.77.226.122,4,41,kozbeszerzes.hu,HU,Europe,Eastern Europe,Hungary,Budapest,,Budapest
95.140.33.141,4,-7,kozelben.hu,HU,Europe,Eastern Europe,Hungary,,,
217.144.56.7,4,46,kozmetikadunakeszi.hu,HU,Europe,Eastern Europe,Hungary,,,
92.43.203.179,4,7,krajcsovicz.hu,HU,Europe,Eastern Europe,Hungary,,,
193.224.191.6,4,4,kre.hu,HU,Europe,Eastern Europe,Hungary,Budapest,,Budapest
80.77.123.165,4,84,kreaturamedia.com,HU,Europe,Eastern Europe,Hungary,,,
185.33.55.24,4,3,krissz.hu,HU,Europe,Eastern Europe,Hungary,,,
193.224.177.188,4,696,krtk.hu,HU,Europe,Eastern Europe,Hungary,Budapest,,Budapest
185.111.89.173,4,5,kti.hu,HU,Europe,Eastern Europe,Hungary,,,
82.141.138.58,4,16,kulter.hu,HU,Europe,Eastern Europe,Hungary,Pest County,,Fót
193.224.218.24,4,36,kultura.hu,HU,Europe,Eastern Europe,Hungary,Budapest,,Budapest
92.43.203.193,4,6,lakberendezoszeged.hu,HU,Europe,Eastern Europe,Hungary,,,
188.227.226.122,4,5,laluciabudapest.com,HU,Europe,Eastern Europe,Hungary,,,
87.229.53.7,4,18,langlovagok.hu,HU,Europe,Eastern Europe,Hungary,,,
77.111.91.117,4,9,lap.hu,HU,Europe,Eastern Europe,Hungary,,,
5.56.32.201,4,3,lapokneked.hu,HU,Europe,Eastern Europe,Hungary,,,
87.229.98.173,4,2,laskod.hu,HU,Europe,Eastern Europe,Hungary,,,
79.139.61.131,4,4,lazaworx.com,HU,Europe,Eastern Europe,Hungary,Budapest,,Budapest
84.2.227.69,4,3207,legenda.hu,HU,Europe,Eastern Europe,Hungary,Budapest,,Budapest
81.0.120.14,4,64,lehetmas.hu,HU,Europe,Eastern Europe,Hungary,Budapest,,Budapest
82.150.37.11,4,8904,leier.hu,HU,Europe,Eastern Europe,Hungary,Budapest,,Budapest
91.227.138.34,4,44,lepesradio.hu,HU,Europe,Eastern Europe,Hungary,,,
79.172.252.60,4,542,levego.hu,HU,Europe,Eastern Europe,Hungary,,,
185.187.73.57,4,1,lezermindenkinek.hu,HU,Europe,Eastern Europe,Hungary,,,
78.24.186.52,4,23,librarius.hu,HU,Europe,Eastern Europe,Hungary,,,
87.229.104.229,4,2,linky.hu,HU,Europe,Eastern Europe,Hungary,,,
195.56.111.153,4,24,listamester.hu,HU,Europe,Eastern Europe,Hungary,,,
185.106.113.62,4,-56,lse.hu,HU,Europe,Eastern Europe,Hungary,Budapest,,Budapest
91.120.20.144,4,0,lutheran.hu,HU,Europe,Eastern Europe,Hungary,,,
193.68.62.100,4,9,mabisz.hu,HU,Europe,Eastern Europe,Hungary,Budapest,,Budapest
46.29.138.141,4,18,magro.hu,HU,Europe,Eastern Europe,Hungary,,,
92.43.203.171,4,-3,magyaringatlanadatbazis.hu,HU,Europe,Eastern Europe,Hungary,,,
185.140.108.85,4,-51,magyarkonyhaonline.hu,HU,Europe,Eastern Europe,Hungary,Baranya,,Garé
92.118.26.105,4,9,magyarmezogazdasag.hu,HU,Europe,Eastern Europe,Hungary,Heves County,,Mikófalva
46.29.139.34,4,11,magyarmuzeumok.hu,HU,Europe,Eastern Europe,Hungary,,,
212.52.180.30,4,2,magyarugyvedikamara.hu,HU,Europe,Eastern Europe,Hungary,,,
87.229.101.27,4,25,mahartpassnave.hu,HU,Europe,Eastern Europe,Hungary,,,
212.52.167.99,4,3,majfoltok.hu,HU,Europe,Eastern Europe,Hungary,,,
185.51.66.76,4,-583,maltai.hu,HU,Europe,Eastern Europe,Hungary,,,
193.225.4.123,4,10,mandadb.hu,HU,Europe,Eastern Europe,Hungary,Borsod-Abaúj-Zemplén,,Miskolc
79.172.249.69,4,34,mannerofspeaking.org,HU,Europe,Eastern Europe,Hungary,,,
77.111.91.139,4,22,marieclaire.hu,HU,Europe,Eastern Europe,Hungary,,,
178.238.222.17,4,857,markers.hu,HU,Europe,Eastern Europe,Hungary,,,
185.33.54.15,4,3,masfelfok.hu,HU,Europe,Eastern Europe,Hungary,,,
95.131.50.35,4,17,masnyelven.hu,HU,Europe,Eastern Europe,Hungary,,,
84.1.159.61,4,42,maszol.ro,HU,Europe,Eastern Europe,Hungary,Budapest,,Budapest
45.87.112.206,4,-21955,matyas-templom.hu,HU,Europe,Eastern Europe,Hungary,Hajdú-Bihar,,Hajdúhadház
185.33.54.92,4,5,mcse.hu,HU,Europe,Eastern Europe,Hungary,,,
195.228.156.46,4,3,mecsekerdo.hu,HU,Europe,Eastern Europe,Hungary,Budapest,,Budapest
92.43.200.111,4,24,mediacenter.hu,HU,Europe,Eastern Europe,Hungary,,,
193.138.125.65,4,63,mediball.hu,HU,Europe,Eastern Europe,Hungary,Szabolcs-Szatmár-Bereg,,Nyíregyháza
80.77.112.128,4,7,meevet.hu,HU,Europe,Eastern Europe,Hungary,,,
217.113.62.125,4,1,mek.hu,HU,Europe,Eastern Europe,Hungary,,,
79.139.61.25,4,4,mellrakforum.hu,HU,Europe,Eastern Europe,Hungary,Budapest,,Budapest
193.32.235.73,4,3,mesterteto.hu,HU,Europe,Eastern Europe,Hungary,,,
185.111.89.230,4,27,meszterkozmetika.hu,HU,Europe,Eastern Europe,Hungary,,,
185.111.89.13,4,25,met.com,HU,Europe,Eastern Europe,Hungary,,,
5.56.34.61,4,5,metaautoszerviz.hu,HU,Europe,Eastern Europe,Hungary,,,
81.0.69.116,4,32,metalelektro.hu,HU,Europe,Eastern Europe,Hungary,Veszprém megye,,Ősi
79.172.252.85,4,290,metroman.hu,HU,Europe,Eastern Europe,Hungary,,,
188.227.226.152,4,13,metubudapest.hu,HU,Europe,Eastern Europe,Hungary,,,
80.64.64.24,4,6,mindennapi.hu,HU,Europe,Eastern Europe,Hungary,Budapest,,Budapest
194.180.19.134,4,0,mirci.hu,HU,Europe,Eastern Europe,Hungary,Somogy County,,Som
84.206.68.34,4,297,miskolc.hu,HU,Europe,Eastern Europe,Hungary,Budapest,,Budapest
37.220.139.70,4,5,mke.hu,HU,Europe,Eastern Europe,Hungary,Budapest,,Budapest
185.80.51.136,4,5,mke.org.hu,HU,Europe,Eastern Europe,Hungary,,,
94.125.180.74,4,31,mkeh.gov.hu,HU,Europe,Eastern Europe,Hungary,,,
212.24.177.34,4,60,mkfe.hu,HU,Europe,Eastern Europe,Hungary,Budapest,,Budapest
79.172.249.5,4,29,mkik.hu,HU,Europe,Eastern Europe,Hungary,,,
195.70.57.117,4,8,mma.hu,HU,Europe,Eastern Europe,Hungary,Budapest,,Budapest
217.144.51.62,4,0,mmk.hu,HU,Europe,Eastern Europe,Hungary,,,
62.77.226.78,4,17774,mmkm.hu,HU,Europe,Eastern Europe,Hungary,Budapest,,Budapest
185.192.252.6,4,4,mmonline.hu,HU,Europe,Eastern Europe,Hungary,Budapest,,Budapest
195.228.152.157,4,570,mnv.hu,HU,Europe,Eastern Europe,Hungary,Budapest,,Budapest
185.51.66.215,4,4,mobilct.hu,HU,Europe,Eastern Europe,Hungary,,,
37.17.172.136,4,38,mobiloffelmenyon.hu,HU,Europe,Eastern Europe,Hungary,,,
79.172.249.246,4,7,mohacsibusojaras.hu,HU,Europe,Eastern Europe,Hungary,,,
185.111.89.226,4,3,mohosz.hu,HU,Europe,Eastern Europe,Hungary,,,
178.238.222.77,4,941,moldvaimagyarok.hu,HU,Europe,Eastern Europe,Hungary,,,
82.131.160.64,4,17,mome.hu,HU,Europe,Eastern Europe,Hungary,Budapest,,Budapest
178.238.222.53,4,799,monivendeglo.hu,HU,Europe,Eastern Europe,Hungary,,,
79.139.58.112,4,-23,morahalom.hu,HU,Europe,Eastern Europe,Hungary,Budapest,,Budapest
78.24.185.120,4,22,mozaweb.com,HU,Europe,Eastern Europe,Hungary,,,
212.52.164.12,4,36,mozgasvilag.hu,HU,Europe,Eastern Europe,Hungary,,,
185.33.55.25,4,45,mozinet.hu,HU,Europe,Eastern Europe,Hungary,,,
79.139.61.190,4,1,mr1-kossuth.hu,HU,Europe,Eastern Europe,Hungary,Budapest,,Budapest
89.133.144.73,4,64,mszt.hu,HU,Europe,Eastern Europe,Hungary,Budapest,,Budapest
91.120.21.126,4,2,mte.hu,HU,Europe,Eastern Europe,Hungary,,,
5.56.34.42,4,25,mtesz.hu,HU,Europe,Eastern Europe,Hungary,,,
185.161.207.67,4,1305,mti.hu,HU,Europe,Eastern Europe,Hungary,Budapest,,Budapest
185.192.252.154,4,74,muemlekem.hu,HU,Europe,Eastern Europe,Hungary,Budapest,,Budapest
185.51.188.59,4,1014,mujegpalya.hu,HU,Europe,Eastern Europe,Hungary,,,
87.229.120.60,4,122,multifly.aero,HU,Europe,Eastern Europe,Hungary,,,
195.56.240.94,4,2,mupa.hu,HU,Europe,Eastern Europe,Hungary,Budapest,,Budapest
94.125.180.71,4,3,musorcentrum.hu,HU,Europe,Eastern Europe,Hungary,,,
185.187.74.217,4,10,myonlineradio.hu,HU,Europe,Eastern Europe,Hungary,,,
109.61.0.43,4,5,nagyerdeigyogyaszat.hu,HU,Europe,Eastern Europe,Hungary,,,
212.52.166.121,4,28,nagymester.com,HU,Europe,Eastern Europe,Hungary,,,
91.83.231.244,4,6281,nagytv.hu,HU,Europe,Eastern Europe,Hungary,,,
185.33.53.40,4,21,naih.hu,HU,Europe,Eastern Europe,Hungary,,,
91.219.237.223,4,1,namecoin.info,HU,Europe,Eastern Europe,Hungary,Budapest,,Budapest
79.172.252.62,4,747,nane.hu,HU,Europe,Eastern Europe,Hungary,,,
5.56.32.191,4,2,napelemrendszer.info,HU,Europe,Eastern Europe,Hungary,,,
193.39.15.66,4,2,napidroid.hu,HU,Europe,Eastern Europe,Hungary,,,
193.39.15.17,4,-1,napihami.hu,HU,Europe,Eastern Europe,Hungary,,,
213.181.210.161,4,676,nepmesepont.hu,HU,Europe,Eastern Europe,Hungary,,,
80.77.124.67,4,52,network.hu,HU,Europe,Eastern Europe,Hungary,,,
185.187.72.123,4,4,nfi.hu,HU,Europe,Eastern Europe,Hungary,,,
5.56.38.113,4,72,nfsi.hu,HU,Europe,Eastern Europe,Hungary,,,
77.111.91.136,4,9,ng.hu,HU,Europe,Eastern Europe,Hungary,,,
78.24.187.40,4,-50,nhmus.hu,HU,Europe,Eastern Europe,Hungary,,,
185.51.191.48,4,546,njszt.hu,HU,Europe,Eastern Europe,Hungary,,,
77.111.91.71,4,38,nlc.hu,HU,Europe,Eastern Europe,Hungary,,,
77.111.91.221,4,5,nlcafe.hu,HU,Europe,Eastern Europe,Hungary,,,
80.249.171.120,4,0,nmi.hu,HU,Europe,Eastern Europe,Hungary,Pest County,,Pilisborosjenő
77.111.91.98,4,28,noklapja.hu,HU,Europe,Eastern Europe,Hungary,,,
92.119.120.200,4,28,nonprofit.hu,HU,Europe,Eastern Europe,Hungary,Budapest,,Budapest
77.111.91.155,4,58,nosalty.hu,HU,Europe,Eastern Europe,Hungary,,,
185.80.49.12,4,4,nyelvkonyvbolt.hu,HU,Europe,Eastern Europe,Hungary,,,
212.52.180.128,4,14,octogon.hu,HU,Europe,Eastern Europe,Hungary,,,
213.16.88.48,4,2569,oee.hu,HU,Europe,Eastern Europe,Hungary,,,
139.28.140.246,4,38,ofe.hu,HU,Europe,Eastern Europe,Hungary,,,
185.33.54.11,4,43,okotars.hu,HU,Europe,Eastern Europe,Hungary,,,
87.229.101.201,4,67,oktatas-informatika.hu,HU,Europe,Eastern Europe,Hungary,,,
78.24.185.67,4,57,olajwebshop.hu,HU,Europe,Eastern Europe,Hungary,,,
84.225.145.254,4,142,Ookla Speedtest Server 1697: speedtest.yettel.hu,HU,Europe,Eastern Europe,Hungary,Budapest,,Budapest
84.2.44.5,4,353,Ookla Speedtest Server 2073: speedtest.telekom.hu,HU,Europe,Eastern Europe,Hungary,Budapest,,Budapest
87.229.77.243,4,379,Ookla Speedtest Server 4246: speedtest.szerverplex.hu,HU,Europe,Eastern Europe,Hungary,Budapest,,Budapest
185.232.83.3,4,-619982,Ookla Speedtest Server 9720: gyor-speedtest.zt.hu,HU,Europe,Eastern Europe,Hungary,Hajdú-Bihar,,Debrecen
185.232.83.1,4,-619983,Ookla Speedtest Server 9743: nk-speedtest.zt.hu,HU,Europe,Eastern Europe,Hungary,Hajdú-Bihar,,Debrecen
185.232.83.2,4,-249337,Ookla Speedtest Server 9744: zeg-speedtest.zt.hu,HU,Europe,Eastern Europe,Hungary,Hajdú-Bihar,,Debrecen
195.228.59.44,4,434,Ookla Speedtest Server 12678: speedtest.digicomm.ro,HU,Europe,Eastern Europe,Hungary,,,
185.223.7.199,4,25930,Ookla Speedtest Server 18513: speedtest.kapulan.hu,HU,Europe,Eastern Europe,Hungary,Győr-Moson-Sopron,,Hövej
185.152.182.252,4,342,Ookla Speedtest Server 20386: sp02.wavecom.hu,HU,Europe,Eastern Europe,Hungary,Jász-Nagykun-Szolnok,,Szolnok
85.90.166.136,4,260,Ookla Speedtest Server 22794: speedtest2.opcnet.hu,HU,Europe,Eastern Europe,Hungary,Budapest,,Budapest
109.105.0.46,4,252,Ookla Speedtest Server 23082: speedtest.naracom.hu,HU,Europe,Eastern Europe,Hungary,Szabolcs-Szatmár-Bereg,,Kisvárda
185.232.83.0,4,-249227,Ookla Speedtest Server 28951: bp-speedtest.zt.hu,HU,Europe,Eastern Europe,Hungary,Hajdú-Bihar,,Debrecen
185.162.0.6,4,386,Ookla Speedtest Server 39655: speedtest.widenet.hu,HU,Europe,Eastern Europe,Hungary,Veszprém megye,,Zalahaláp
45.14.11.80,4,313,Ookla Speedtest Server 41195: bpspeedtest.giganet.hu,HU,Europe,Eastern Europe,Hungary,Szabolcs-Szatmár-Bereg,,Nagyhalász
87.229.51.2,4,426,Ookla Speedtest Server 44566: teszt2.novicom.hu,HU,Europe,Eastern Europe,Hungary,Fejér,,Velence
82.131.192.162,4,185,Ookla Speedtest Server 52922: speedtest.netsurfclub.hu,HU,Europe,Eastern Europe,Hungary,,,
185.90.84.4,4,311,Ookla Speedtest Server 60719: spgelka.satelit-kft.hu,HU,Europe,Eastern Europe,Hungary,Zala County,,Zalakaros
85.119.8.6,4,211,Ookla Speedtest Server: speedtest.borsodweb.hu,HU,Europe,Eastern Europe,Hungary,Borsod-Abaúj-Zemplén,,Miskolc
213.157.96.23,4,118,Ookla Speedtest Server: speedtest.internetx.hu,HU,Europe,Eastern Europe,Hungary,Bekes County,,Békéscsaba
85.90.162.145,4,184,Ookla Speedtest Server: speedtest.opticon.hu,HU,Europe,Eastern Europe,Hungary,Bács-Kiskun,,Kecskemét
193.138.125.32,4,3244,Ookla Speedtest Server: speedtest2.giganet.hu,HU,Europe,Eastern Europe,Hungary,Szabolcs-Szatmár-Bereg,,Nyíregyháza
91.83.64.2,4,4,Ookla Speedtest Server: www.netsurfclub.hu,HU,Europe,Eastern Europe,Hungary,Csongrád megye,,Szeged
212.92.8.23,4,4,Ookla Speedtest Server: www.orosnet.hu,HU,Europe,Eastern Europe,Hungary,Fejér,,Székesfehérvár
213.181.220.119,4,-179185,opera.hu,HU,Europe,Eastern Europe,Hungary,,,
80.77.113.139,4,29,operett.hu,HU,Europe,Eastern Europe,Hungary,,,
185.51.188.22,4,1184,optikhazoptika.hu,HU,Europe,Eastern Europe,Hungary,,,
79.172.252.131,4,782,orkenyszinhaz.hu,HU,Europe,Eastern Europe,Hungary,,,
92.43.203.182,4,33,oroscafe.hu,HU,Europe,Eastern Europe,Hungary,,,
87.229.45.38,4,37,oroszvilag.hu,HU,Europe,Eastern Europe,Hungary,,,
185.208.227.88,4,2304,otthoni-munka-penzkereset.com,HU,Europe,Eastern Europe,Hungary,,,
86.101.152.150,4,27,overwatchhungary.hu,HU,Europe,Eastern Europe,Hungary,Bekes County,,Orosháza
87.229.26.88,4,2,pagony.hu,HU,Europe,Eastern Europe,Hungary,,,
87.229.72.108,4,3224,paillasse.hu,HU,Europe,Eastern Europe,Hungary,,,
92.43.203.183,4,15,palyazatmenedzser.hu,HU,Europe,Eastern Europe,Hungary,,,
139.28.140.243,4,5,palyazatok.org,HU,Europe,Eastern Europe,Hungary,,,
217.13.97.63,4,19,panaszrendezes.hu,HU,Europe,Eastern Europe,Hungary,,,
87.229.58.10,4,1980,parlando.hu,HU,Europe,Eastern Europe,Hungary,,,
185.33.55.102,4,3,pataibicaj.hu,HU,Europe,Eastern Europe,Hungary,,,
193.39.14.2,4,4,pbkik.hu,HU,Europe,Eastern Europe,Hungary,,,
185.43.206.2,4,21,pcdome.hu,HU,Europe,Eastern Europe,Hungary,Borsod-Abaúj-Zemplén,,Miskolc
109.61.66.243,4,40,pecsiegyhazmegye.hu,HU,Europe,Eastern Europe,Hungary,Baranya,,Pécs
79.172.249.78,4,69,pedagogusok.hu,HU,Europe,Eastern Europe,Hungary,,,
79.172.252.91,4,837,peruutazas.hu,HU,Europe,Eastern Europe,Hungary,,,
79.120.178.33,4,35,pestbuda.hu,HU,Europe,Eastern Europe,Hungary,Bács-Kiskun,,Balotaszállás
79.172.249.130,4,8,pestmegye.hu,HU,Europe,Eastern Europe,Hungary,,,
188.227.225.105,4,307,pfla.hu,HU,Europe,Eastern Europe,Hungary,,,
87.229.26.162,4,24,phonedb.net,HU,Europe,Eastern Europe,Hungary,,,
79.172.252.11,4,781,pixelrain.hu,HU,Europe,Eastern Europe,Hungary,,,
5.56.33.150,4,-1,poet.hu,HU,Europe,Eastern Europe,Hungary,,,
79.139.62.183,4,27,politics.hu,HU,Europe,Eastern Europe,Hungary,Budapest,,Budapest
91.227.139.84,4,46,pontmagazin.hu,HU,Europe,Eastern Europe,Hungary,,,
213.181.199.38,4,18,port.hu,HU,Europe,Eastern Europe,Hungary,,,
213.181.199.36,4,16,port.hu,HU,Europe,Eastern Europe,Hungary,,,
213.181.199.37,4,5,port.hu,HU,Europe,Eastern Europe,Hungary,,,
213.181.199.39,4,33,port.hu,HU,Europe,Eastern Europe,Hungary,,,
195.70.35.159,4,47,portfolio.hu,HU,Europe,Eastern Europe,Hungary,Budapest,,Budapest
92.43.203.150,4,22,postaktiv.hu,HU,Europe,Eastern Europe,Hungary,,,
193.224.224.7,4,3,ppke.hu,HU,Europe,Eastern Europe,Hungary,,,
84.2.35.185,4,788,presstone.hu,HU,Europe,Eastern Europe,Hungary,Budapest,,Budapest
95.138.196.189,4,0,programturizmus.hu,HU,Europe,Eastern Europe,Hungary,,,
92.61.114.179,4,10,prohardver.hu,HU,Europe,Eastern Europe,Hungary,,,
217.13.97.120,4,8,promotions.hu,HU,Europe,Eastern Europe,Hungary,,,
195.70.38.125,4,53,property-forum.eu,HU,Europe,Eastern Europe,Hungary,Budapest,,Budapest
185.111.89.233,4,21,punte.eu,HU,Europe,Eastern Europe,Hungary,,,
87.229.73.154,4,3,qwqw.hu,HU,Europe,Eastern Europe,Hungary,,,
185.161.205.202,4,7,radio.hu,HU,Europe,Eastern Europe,Hungary,Budapest,,Budapest
185.161.205.196,4,39,radio.hu,HU,Europe,Eastern Europe,Hungary,Budapest,,Budapest
185.161.205.201,4,23,radio.hu,HU,Europe,Eastern Europe,Hungary,Budapest,,Budapest
185.161.205.204,4,29,radio.hu,HU,Europe,Eastern Europe,Hungary,Budapest,,Budapest
91.82.85.21,4,103,radio88.hu,HU,Europe,Eastern Europe,Hungary,Csongrád megye,,Szeged
79.172.241.202,4,19,ragna.ro,HU,Europe,Eastern Europe,Hungary,Nógrád megye,,Salgótarján
79.172.205.136,4,613,randevau.hu,HU,Europe,Eastern Europe,Hungary,,,
194.36.124.105,4,-1,receptneked.hu,HU,Europe,Eastern Europe,Hungary,,,
193.6.173.72,4,6,reformatus.hu,HU,Europe,Eastern Europe,Hungary,Hajdú-Bihar,,Debrecen
84.2.38.66,4,3,rendezvenyszervezo.com,HU,Europe,Eastern Europe,Hungary,Budapest,,Budapest
193.224.79.14,4,9,renyi.hu,HU,Europe,Eastern Europe,Hungary,Szabolcs-Szatmár-Bereg,,Nyíregyháza
80.77.124.165,4,813,retaildesignblog.net,HU,Europe,Eastern Europe,Hungary,,,
62.112.211.192,4,3,retroradio.hu,HU,Europe,Eastern Europe,Hungary,Budapest,,Budapest
87.229.104.110,4,-290,rev.hu,HU,Europe,Eastern Europe,Hungary,,,
185.75.192.3,4,13,revizoronline.com,HU,Europe,Eastern Europe,Hungary,Fejér,,Sárbogárd
62.77.230.196,4,13,richlife.hu,HU,Europe,Eastern Europe,Hungary,Csongrád megye,,Szeged
185.161.204.64,4,10,ridikul.hu,HU,Europe,Eastern Europe,Hungary,Budapest,,Budapest
185.161.204.65,4,32,ridikul.hu,HU,Europe,Eastern Europe,Hungary,Budapest,,Budapest
185.161.204.63,4,7,ridikul.hu,HU,Europe,Eastern Europe,Hungary,Budapest,,Budapest
178.238.222.15,4,1538,rockbook.hu,HU,Europe,Eastern Europe,Hungary,,,
195.70.36.8,4,61,rockysandstudio.com,HU,Europe,Eastern Europe,Hungary,Budapest,,Budapest
77.111.95.167,4,51,romaeducationfund.hu,HU,Europe,Eastern Europe,Hungary,,,
79.172.252.41,4,772,roxracing.eu,HU,Europe,Eastern Europe,Hungary,,,
80.77.112.67,4,18,rpg.hu,HU,Europe,Eastern Europe,Hungary,,,
185.92.118.12,4,30,rtl.hu,HU,Europe,Eastern Europe,Hungary,Bács-Kiskun,,Kunbaracs
193.39.14.137,4,-8,ruinpubs.com,HU,Europe,Eastern Europe,Hungary,,,
91.233.21.110,4,14,s-gold.hu,HU,Europe,Eastern Europe,Hungary,,,
77.111.89.94,4,11,saferinternet.hu,HU,Europe,Eastern Europe,Hungary,,,
193.224.106.131,4,66106,satellitetracking.eu,HU,Europe,Eastern Europe,Hungary,Szabolcs-Szatmár-Bereg,,Nyíregyháza
185.111.88.232,4,16,scd.sk,HU,Europe,Eastern Europe,Hungary,,,
213.181.222.25,4,12,segelyszervezet.hu,HU,Europe,Eastern Europe,Hungary,,,
195.228.149.19,4,18,selfstore.hu,HU,Europe,Eastern Europe,Hungary,Budapest,,Budapest
185.33.55.23,4,10,shakespearefesztival.hu,HU,Europe,Eastern Europe,Hungary,,,
91.227.138.39,4,5,shodostation.hu,HU,Europe,Eastern Europe,Hungary,,,
185.75.193.44,4,4,shoprenter.hu,HU,Europe,Eastern Europe,Hungary,Fejér,,Sárbogárd
193.194.159.61,4,14,sielok.hu,HU,Europe,Eastern Europe,Hungary,,,
87.229.99.1,4,32,SigmaNet Szolgaltato es Kereskedelm Ltd,HU,Europe,Eastern Europe,Hungary,,,
88.151.102.76,4,39,silentsignal.eu,HU,Europe,Eastern Europe,Hungary,,,
92.43.203.166,4,2,silvauniverse.com,HU,Europe,Eastern Europe,Hungary,,,
94.199.53.96,4,12,simplepartner.hu,HU,Europe,Eastern Europe,Hungary,,,
185.51.191.45,4,255,simplepay.hu,HU,Europe,Eastern Europe,Hungary,,,
212.92.23.185,4,39,site.hu,HU,Europe,Eastern Europe,Hungary,,,
185.111.90.219,4,5,sixide.com,HU,Europe,Eastern Europe,Hungary,,,
193.225.94.9,4,23,sk-szeged.hu,HU,Europe,Eastern Europe,Hungary,Somogy County,,Kaposvár
185.33.55.21,4,24,slagerlistak.hu,HU,Europe,Eastern Europe,Hungary,,,
77.111.127.116,4,206,soltisszinhaz.hu,HU,Europe,Eastern Europe,Hungary,,,
92.43.203.181,4,-33,solun.hu,HU,Europe,Eastern Europe,Hungary,,,
185.111.89.218,4,11,sos.hu,HU,Europe,Eastern Europe,Hungary,,,
193.39.14.175,4,8,sostozoo.hu,HU,Europe,Eastern Europe,Hungary,,,
185.80.49.249,4,36,spartanfitt.com,HU,Europe,Eastern Europe,Hungary,,,
92.43.203.199,4,111,spirithotel.hu,HU,Europe,Eastern Europe,Hungary,,,
194.180.19.179,4,31,sportmotor.hu,HU,Europe,Eastern Europe,Hungary,Somogy County,,Som
95.140.33.218,4,417,srv.hu,HU,Europe,Eastern Europe,Hungary,,,
77.111.91.228,4,38,startlap.hu,HU,Europe,Eastern Europe,Hungary,,,
77.111.91.61,4,4,story.hu,HU,Europe,Eastern Europe,Hungary,,,
80.77.123.59,4,4,stresszprevencio.hu,HU,Europe,Eastern Europe,Hungary,,,
87.97.76.20,4,0,strucckiado.hu,HU,Europe,Eastern Europe,Hungary,Budapest,,Budapest
193.68.57.114,4,36,suzuki.hu,HU,Europe,Eastern Europe,Hungary,Budapest,,Budapest
185.51.65.69,4,6,sysadminforum.hu,HU,Europe,Eastern Europe,Hungary,,,
92.119.122.167,4,3,szakiweb.hu,HU,Europe,Eastern Europe,Hungary,,,
193.28.86.171,4,3,szallashelytudakozo.hu,HU,Europe,Eastern Europe,Hungary,,,
217.13.97.44,4,3,szallaskeres.hu,HU,Europe,Eastern Europe,Hungary,,,
185.51.188.147,4,1058,szamos.hu,HU,Europe,Eastern Europe,Hungary,,,
91.227.139.189,4,3,szegeder.hu,HU,Europe,Eastern Europe,Hungary,,,
217.65.97.153,4,0,szegediszabadteri.hu,HU,Europe,Eastern Europe,Hungary,Fejér,,Dunaújváros
195.228.156.51,4,31,szekesfehervar.hu,HU,Europe,Eastern Europe,Hungary,Budapest,,Budapest
185.33.54.6,4,3,szekhelyszolgaltatas24.hu,HU,Europe,Eastern Europe,Hungary,,,
185.111.89.216,4,4,szekszardportal.hu,HU,Europe,Eastern Europe,Hungary,,,
178.238.222.47,4,608,szelidmotorosok.hu,HU,Europe,Eastern Europe,Hungary,,,
88.151.99.137,4,-52,szemorvostarsasag.hu,HU,Europe,Eastern Europe,Hungary,,,
193.225.109.9,4,1,szentiras.hu,HU,Europe,Eastern Europe,Hungary,Budapest,,Budapest
92.249.148.57,4,1,szepi.hu,HU,Europe,Eastern Europe,Hungary,Budapest,,Budapest
79.172.249.237,4,-1,szigetkoz-vizitura.hu,HU,Europe,Eastern Europe,Hungary,,,
185.33.53.117,4,3,sziklakorhaz.eu,HU,Europe,Eastern Europe,Hungary,,,
82.141.159.206,4,7244,szimpla.hu,HU,Europe,Eastern Europe,Hungary,Pest County,,Budaörs
217.20.131.8,4,-2,szinhaz.hu,HU,Europe,Eastern Europe,Hungary,,,
5.159.232.83,4,-587,szolnokepul.hu,HU,Europe,Eastern Europe,Hungary,,,
91.227.139.41,4,3,sztfh.hu,HU,Europe,Eastern Europe,Hungary,,,
178.238.222.19,4,730,sztmargitiskola.hu,HU,Europe,Eastern Europe,Hungary,,,
178.238.222.133,4,429,takitech.hu,HU,Europe,Eastern Europe,Hungary,,,
84.2.38.70,4,3,tamker.hu,HU,Europe,Eastern Europe,Hungary,Budapest,,Budapest
139.28.140.245,4,676,taracque.hu,HU,Europe,Eastern Europe,Hungary,,,
193.201.191.88,4,60,targem.ru,HU,Europe,Eastern Europe,Hungary,Budapest,,Budapest
185.51.191.99,4,8,tarhely.eu,HU,Europe,Eastern Europe,Hungary,,,
178.238.222.10,4,187,tarki.hu,HU,Europe,Eastern Europe,Hungary,,,
193.28.86.50,4,4,tata.hu,HU,Europe,Eastern Europe,Hungary,,,
77.111.127.145,4,-252,tattoostudiodachau.de,HU,Europe,Eastern Europe,Hungary,,,
79.172.215.131,4,4,tauri.hu,HU,Europe,Eastern Europe,Hungary,,,
91.82.220.18,4,8,taylorcrystal.hu,HU,Europe,Eastern Europe,Hungary,Budapest,,Budapest
193.201.190.9,4,1,te-food.com,HU,Europe,Eastern Europe,Hungary,Budapest,,Budapest
185.208.227.95,4,869,tech2.hu,HU,Europe,Eastern Europe,Hungary,,,
37.220.139.172,4,3,tehetseg.hu,HU,Europe,Eastern Europe,Hungary,Budapest,,Budapest
185.187.75.210,4,52,telefonguru.hu,HU,Europe,Eastern Europe,Hungary,,,
185.161.204.60,4,17,telesport.hu,HU,Europe,Eastern Europe,Hungary,Budapest,,Budapest
77.111.127.237,4,1419,tenyek-tevhitek.hu,HU,Europe,Eastern Europe,Hungary,,,
91.227.138.18,4,11,terapia24.hu,HU,Europe,Eastern Europe,Hungary,,,
185.51.191.50,4,855,terasz.hu,HU,Europe,Eastern Europe,Hungary,,,
195.56.77.123,4,10,terrorhaza.hu,HU,Europe,Eastern Europe,Hungary,,,
79.172.213.35,4,37,textilprint-mm.com,HU,Europe,Eastern Europe,Hungary,,,
87.229.85.95,4,37,theatreseagull.co.uk,HU,Europe,Eastern Europe,Hungary,,,
185.51.191.46,4,408,tihany.hu,HU,Europe,Eastern Europe,Hungary,,,
92.43.203.51,4,4,tisztitastechnologia.hu,HU,Europe,Eastern Europe,Hungary,,,
185.80.50.181,4,1,tixa.hu,HU,Europe,Eastern Europe,Hungary,,,
193.224.38.12,4,5,tk.hu,HU,Europe,Eastern Europe,Hungary,Budapest,,Budapest
193.188.141.58,4,3,tlap.hu,HU,Europe,Eastern Europe,Hungary,,,
87.229.65.20,4,4,tolltisztito.hu,HU,Europe,Eastern Europe,Hungary,,,
79.172.252.48,4,986,tomzol.hu,HU,Europe,Eastern Europe,Hungary,,,
185.111.89.228,4,6,topcegalapitas.eu,HU,Europe,Eastern Europe,Hungary,,,
188.227.224.100,4,9,tor.hu,HU,Europe,Eastern Europe,Hungary,,,
92.43.203.49,4,21,tramontana.co.hu,HU,Europe,Eastern Europe,Hungary,,,
92.52.223.9,4,8,travelminit.ro,HU,Europe,Eastern Europe,Hungary,,,
88.151.96.8,4,32,trendmagazin.hu,HU,Europe,Eastern Europe,Hungary,,,
139.28.140.244,4,33,treptemetalice.eu,HU,Europe,Eastern Europe,Hungary,,,
79.172.249.203,4,89,tropicarium.hu,HU,Europe,Eastern Europe,Hungary,,,
87.229.101.174,4,5,trustindex.io,HU,Europe,Eastern Europe,Hungary,,,
213.181.220.126,4,15,tucsokszekszard.hu,HU,Europe,Eastern Europe,Hungary,,,
185.111.89.220,4,4,tudas.hu,HU,Europe,Eastern Europe,Hungary,,,
79.172.241.55,4,2,tudastar.com,HU,Europe,Eastern Europe,Hungary,Nógrád megye,,Salgótarján
185.140.108.83,4,10,tudatosvasarlo.hu,HU,Europe,Eastern Europe,Hungary,Baranya,,Garé
212.52.167.41,4,10,turistautak.hu,HU,Europe,Eastern Europe,Hungary,,,
195.228.75.172,4,-195,tveger.hu,HU,Europe,Eastern Europe,Hungary,Budapest,,Budapest
109.61.0.33,4,12,tvnet.hu,HU,Europe,Eastern Europe,Hungary,,,
160.114.8.5,4,3,u-szeged.hu,HU,Europe,Eastern Europe,Hungary,Csongrád megye,,Szeged
92.119.121.114,4,9,ubuntu.hu,HU,Europe,Eastern Europe,Hungary,,,
84.1.159.35,4,401,uh.ro,HU,Europe,Eastern Europe,Hungary,Budapest,,Budapest
86.101.181.6,4,12,ujbuda.hu,HU,Europe,Eastern Europe,Hungary,Budapest,,Budapest
79.172.209.183,4,11,ujpest.hu,HU,Europe,Eastern Europe,Hungary,,,
185.51.188.68,4,2731,ujpestfc.hu,HU,Europe,Eastern Europe,Hungary,,,
5.56.33.1,4,23,uleshuzataruhaz.hu,HU,Europe,Eastern Europe,Hungary,,,
193.201.190.245,4,51,unas.hu,HU,Europe,Eastern Europe,Hungary,Budapest,,Budapest
193.225.32.89,4,6,uni-eszterhazy.hu,HU,Europe,Eastern Europe,Hungary,Heves County,,Eger
193.224.41.163,4,2,uni-obuda.hu,HU,Europe,Eastern Europe,Hungary,Budapest,,Budapest
193.225.187.198,4,-1,uniduna.hu,HU,Europe,Eastern Europe,Hungary,Fejér,,Dunaújváros
185.80.48.54,4,2,unnepikonyvhet.hu,HU,Europe,Eastern Europe,Hungary,,,
185.111.89.234,4,7,ural.hu,HU,Europe,Eastern Europe,Hungary,,,
80.64.64.30,4,681,urbanlegends.hu,HU,Europe,Eastern Europe,Hungary,Budapest,,Budapest
91.219.236.245,4,3,ustvdb.com,HU,Europe,Eastern Europe,Hungary,Bács-Kiskun,,Bács-Kiskun
92.118.26.21,4,8,utisugo.hu,HU,Europe,Eastern Europe,Hungary,Heves County,,Mikófalva
212.40.120.253,4,2,uw.hu,HU,Europe,Eastern Europe,Hungary,,,
77.221.43.121,4,5,vac.hu,HU,Europe,Eastern Europe,Hungary,,,
37.220.137.67,4,66426,vaciegyhazmegye.hu,HU,Europe,Eastern Europe,Hungary,Budapest,,Budapest
79.172.252.56,4,232,vajma.info,HU,Europe,Eastern Europe,Hungary,,,
178.238.222.83,4,150,valtodoktor.hu,HU,Europe,Eastern Europe,Hungary,,,
79.139.62.105,4,36,vanguardhungary.hu,HU,Europe,Eastern Europe,Hungary,Budapest,,Budapest
213.181.222.39,4,9,vasarely.hu,HU,Europe,Eastern Europe,Hungary,,,
185.80.51.105,4,32,vasarnapihirek.hu,HU,Europe,Eastern Europe,Hungary,,,
91.227.139.12,4,16,vasuttortenetipark.hu,HU,Europe,Eastern Europe,Hungary,,,
217.79.142.11,4,10,vehir.hu,HU,Europe,Eastern Europe,Hungary,Budapest,,Budapest
84.2.35.103,4,44,velo.hu,HU,Europe,Eastern Europe,Hungary,Budapest,,Budapest
185.161.74.122,4,8,vendegvaro.hu,HU,Europe,Eastern Europe,Hungary,Budapest,,Budapest
195.228.152.43,4,9,veresegyhaz.hu,HU,Europe,Eastern Europe,Hungary,Budapest,,Budapest
92.43.203.162,4,-31,veronikavilla.hu,HU,Europe,Eastern Europe,Hungary,,,
178.238.222.88,4,282,veszprem.hu,HU,Europe,Eastern Europe,Hungary,,,
217.79.142.100,4,1,veszpreminfo.hu,HU,Europe,Eastern Europe,Hungary,Budapest,,Budapest
188.227.226.137,4,-2,veszpremvolgy.hu,HU,Europe,Eastern Europe,Hungary,,,
77.111.91.89,4,4,vezess.hu,HU,Europe,Eastern Europe,Hungary,,,
212.52.181.122,4,43,vgyse.hu,HU,Europe,Eastern Europe,Hungary,,,
77.111.90.200,4,7,videoplayer.hu,HU,Europe,Eastern Europe,Hungary,,,
77.111.90.201,4,-1,videoplayer.hu,HU,Europe,Eastern Europe,Hungary,,,
193.225.222.4,4,22,videotorium.hu,HU,Europe,Eastern Europe,Hungary,Budapest,,Budapest
195.70.47.203,4,8603356,vigado.hu,HU,Europe,Eastern Europe,Hungary,Budapest,,Budapest
80.249.164.144,4,-1163656,vigszinhaz.hu,HU,Europe,Eastern Europe,Hungary,Pest County,,Pilisborosjenő
77.111.127.101,4,2649,vikuv-hydrokomplex.hu,HU,Europe,Eastern Europe,Hungary,,,
80.249.174.3,4,30,virasana.hu,HU,Europe,Eastern Europe,Hungary,Pest County,,Pilisborosjenő
185.51.191.56,4,303,visegrad.hu,HU,Europe,Eastern Europe,Hungary,,,
195.56.165.3,4,9,viszlaysport.hu,HU,Europe,Eastern Europe,Hungary,Budapest,,Budapest
185.208.224.223,4,1538,vital.hu,HU,Europe,Eastern Europe,Hungary,,,
92.43.203.178,4,150,vizcsap.hu,HU,Europe,Eastern Europe,Hungary,,,
185.111.89.212,4,36,vizilo-vizitura.hu,HU,Europe,Eastern Europe,Hungary,,,
80.77.122.144,4,3,vizslancs.hu,HU,Europe,Eastern Europe,Hungary,,,
79.139.61.188,4,51,voroskereszt.hu,HU,Europe,Eastern Europe,Hungary,Budapest,,Budapest
217.144.56.110,4,5,wayoflife.hu,HU,Europe,Eastern Europe,Hungary,,,
195.228.75.27,4,56,webshark.hu,HU,Europe,Eastern Europe,Hungary,Budapest,,Budapest
194.143.245.39,4,-4,welovebudapest.com,HU,Europe,Eastern Europe,Hungary,Fejér,,Székesfehérvár
81.0.120.158,4,1,welovebudapest.com,HU,Europe,Eastern Europe,Hungary,Budapest,,Budapest
213.181.199.17,4,2,welovebudapest.com,HU,Europe,Eastern Europe,Hungary,,,
213.181.199.15,4,7,welovebudapest.com,HU,Europe,Eastern Europe,Hungary,,,
213.181.199.16,4,3,welovebudapest.com,HU,Europe,Eastern Europe,Hungary,,,
81.0.120.157,4,9,welovebudapest.com,HU,Europe,Eastern Europe,Hungary,Budapest,,Budapest
213.181.199.14,4,1,welovebudapest.com,HU,Europe,Eastern Europe,Hungary,,,
92.119.122.99,4,5,westend.hu,HU,Europe,Eastern Europe,Hungary,,,
92.118.24.245,4,3,wharram.com,HU,Europe,Eastern Europe,Hungary,Heves County,,Mikófalva
5.56.37.3,4,0,wicomt.hu,HU,Europe,Eastern Europe,Hungary,,,
185.51.188.143,4,4183,wikiszotar.hu,HU,Europe,Eastern Europe,Hungary,,,
91.219.238.244,4,2,winmx.com,HU,Europe,Eastern Europe,Hungary,Budapest,,Budapest
193.39.14.121,4,14,worx.hu,HU,Europe,Eastern Europe,Hungary,,,
185.92.117.71,4,7,wsf.hu,HU,Europe,Eastern Europe,Hungary,Bács-Kiskun,,Kunbaracs
217.65.97.71,4,7,x3.hu,HU,Europe,Eastern Europe,Hungary,Fejér,,Dunaújváros
109.69.119.136,4,17,zalaegerszeg.hu,HU,Europe,Eastern Europe,Hungary,Zala County,,Zalaegerszeg
185.51.190.142,4,565,zalakaros.hu,HU,Europe,Eastern Europe,Hungary,,,
217.113.62.29,4,-1,zene.hu,HU,Europe,Eastern Europe,Hungary,,,
193.201.185.71,4,3,zenehaza.hu,HU,Europe,Eastern Europe,Hungary,Budapest,,Budapest
195.70.37.65,4,0,zeneszoveg.hu,HU,Europe,Eastern Europe,Hungary,Budapest,,Budapest
178.238.222.74,4,516,zoldlepes.hu,HU,Europe,Eastern Europe,Hungary,,,
178.238.210.53,4,1,zoom.hu,HU,Europe,Eastern Europe,Hungary,,,
94.21.0.214,4,11,zooszeged.hu,HU,Europe,Eastern Europe,Hungary,Budapest,,Budapest
195.56.55.225,4,4,zpok.hu,HU,Europe,Eastern Europe,Hungary,,,
185.111.89.170,4,3,zserbo.com,HU,Europe,Eastern Europe,Hungary,,,
89.107.251.25,4,-1,zsolnaynegyed.hu,HU,Europe,Eastern Europe,Hungary,Baranya,,Pécs
193.224.38.211,4,1,zti.hu,HU,Europe,Eastern Europe,Hungary,Budapest,,Budapest
185.43.205.153,4,5,zug.hu,HU,Europe,Eastern Europe,Hungary,Borsod-Abaúj-Zemplén,,Miskolc
193.23.139.22,4,0,zuglo.hu,HU,Europe,Eastern Europe,Hungary,,,
92.43.203.149,4,6,zuglodance-tanciskola.hu,HU,Europe,Eastern Europe,Hungary,,,
92.43.203.154,4,2,zuhanyszuro.hu,HU,Europe,Eastern Europe,Hungary,,,
