reflector_ip,ip_version,offset,description,country_code,region,sub_region,country_name,sub_division_1,sub_division_2,city
91.206.200.100,4,7,1k.com.ua,UA,Europe,Eastern Europe,Ukraine,,,
195.137.240.80,4,5,1plus1.ua,UA,Europe,Eastern Europe,Ukraine,,,
195.137.240.100,4,10,1plus1.ua,UA,Europe,Eastern Europe,Ukraine,,,
31.41.220.94,4,6,20.ua,UA,Europe,Eastern Europe,Ukraine,,,
194.61.52.108,4,6,24-my.info,UA,Europe,Eastern Europe,Ukraine,Kyiv City,,Kyiv
195.137.240.102,4,10,2plus2.ua,UA,Europe,Eastern Europe,Ukraine,,,
195.137.240.82,4,4,2plus2.ua,UA,Europe,Eastern Europe,Ukraine,,,
185.156.42.96,4,3,4caraudio.com.ua,UA,Europe,Eastern Europe,Ukraine,,,
212.111.214.100,4,4,5246.cc,UA,Europe,Eastern Europe,Ukraine,,,
212.111.214.34,4,6,5246.cc,UA,Europe,Eastern Europe,Ukraine,,,
185.104.45.12,4,4,5element.ua,UA,Europe,Eastern Europe,Ukraine,,,
178.20.157.249,4,35,7kanal.com.ua,UA,Europe,Eastern Europe,Ukraine,Kyiv City,,Kyiv
89.184.91.217,4,22,a-service.ua,UA,Europe,Eastern Europe,Ukraine,Kyiv City,,Kyiv
195.69.187.3,4,2,abcua.com,UA,Europe,Eastern Europe,Ukraine,,,
185.104.45.141,4,4,abiznes.com.ua,UA,Europe,Eastern Europe,Ukraine,,,
77.87.197.37,4,50,acoustic.ua,UA,Europe,Eastern Europe,Ukraine,Kyiv City,,Kyiv
212.26.128.166,4,6,adamant.ua,UA,Europe,Eastern Europe,Ukraine,Kyiv City,,Kyiv
194.44.38.217,4,30200,adm-pl.gov.ua,UA,Europe,Eastern Europe,Ukraine,Poltava Oblast,,Poltava
194.113.32.21,4,7,adv-sonata.com,UA,Europe,Eastern Europe,Ukraine,Kyiv Oblast,,
89.184.65.78,4,24,adv.vg,UA,Europe,Eastern Europe,Ukraine,Kyiv City,,Kyiv
185.104.45.6,4,24,advokats-zp.com.ua,UA,Europe,Eastern Europe,Ukraine,,,
89.184.77.56,4,32,agro-business.com.ua,UA,Europe,Eastern Europe,Ukraine,Kyiv City,,Kyiv
195.191.25.136,4,7,agroperspectiva.com,UA,Europe,Eastern Europe,Ukraine,,,
91.229.76.76,4,28,agrostory.com,UA,Europe,Eastern Europe,Ukraine,Kyiv City,,Kyiv
95.67.18.75,4,105,alfakid.com,UA,Europe,Eastern Europe,Ukraine,Kyiv City,,Kyiv
194.28.86.136,4,4,alfasmartagro.com,UA,Europe,Eastern Europe,Ukraine,,,
185.68.16.124,4,80,all3dp.com.ua,UA,Europe,Eastern Europe,Ukraine,,,
89.184.76.34,4,54,allbible.info,UA,Europe,Eastern Europe,Ukraine,Kyiv City,,Kyiv
62.149.6.106,4,4,allkharkov.ua,UA,Europe,Eastern Europe,Ukraine,Kyiv City,,Kyiv
92.112.196.32,4,30,alltastesgerman.club,UA,Europe,Eastern Europe,Ukraine,,,
185.104.45.22,4,3,altelaw.com.ua,UA,Europe,Eastern Europe,Ukraine,,,
91.222.136.2,4,2,alvaprivacy.ua,UA,Europe,Eastern Europe,Ukraine,,,
185.104.45.52,4,4,americanenglish.ua,UA,Europe,Eastern Europe,Ukraine,,,
77.87.193.228,4,2,amf.com.ua,UA,Europe,Eastern Europe,Ukraine,Kyiv City,,Kyiv
77.87.195.192,4,10,amnu.gov.ua,UA,Europe,Eastern Europe,Ukraine,Kyiv City,,Kyiv
89.184.73.148,4,8,amtool.com.ua,UA,Europe,Eastern Europe,Ukraine,Kyiv City,,Kyiv
89.184.74.27,4,26,amtool.ua,UA,Europe,Eastern Europe,Ukraine,Kyiv City,,Kyiv
185.69.154.8,4,200,andro-news.com,UA,Europe,Eastern Europe,Ukraine,,,
91.196.0.29,4,14,annetflowers.com.ua,UA,Europe,Eastern Europe,Ukraine,,,
194.28.85.100,4,8,aph.org.ua,UA,Europe,Eastern Europe,Ukraine,,,
176.107.185.30,4,5,apocalisselaica.net,UA,Europe,Eastern Europe,Ukraine,Kyiv City,,Kyiv
185.233.117.116,4,39,arendator.com.ua,UA,Europe,Eastern Europe,Ukraine,Kyiv City,,Kyiv
92.112.188.73,4,49,arka.sa,UA,Europe,Eastern Europe,Ukraine,,,
89.184.94.60,4,68,armyinform.com.ua,UA,Europe,Eastern Europe,Ukraine,Kyiv City,,Kyiv
185.124.10.74,4,24,art-trade.com.ua,UA,Europe,Eastern Europe,Ukraine,,,
77.120.122.50,4,19005,artukraine.com,UA,Europe,Eastern Europe,Ukraine,Kyiv City,,Kyiv
193.169.189.227,4,9,asiacentr.com.ua,UA,Europe,Eastern Europe,Ukraine,Kyiv City,,Kyiv
195.234.4.27,4,38,asmetalwork.com.ua,UA,Europe,Eastern Europe,Ukraine,,,
31.128.78.134,4,118,assistant.ua,UA,Europe,Eastern Europe,Ukraine,Vinnytsia,,Vinnytsia
89.184.73.193,4,31,astorgold.com.ua,UA,Europe,Eastern Europe,Ukraine,Kyiv City,,Kyiv
92.112.191.254,4,11,atheistalliance.org,UA,Europe,Eastern Europe,Ukraine,,,
185.156.43.190,4,8369700,atlasfestival.com,UA,Europe,Eastern Europe,Ukraine,,,
193.169.189.65,4,16,atlaskvartir.ua,UA,Europe,Eastern Europe,Ukraine,Kyiv City,,Kyiv
185.104.45.122,4,4,atriusconcert.agency,UA,Europe,Eastern Europe,Ukraine,,,
77.87.196.116,4,30,aub.org.ua,UA,Europe,Eastern Europe,Ukraine,Kyiv City,,Kyiv
185.65.247.153,4,4,auc.org.ua,UA,Europe,Eastern Europe,Ukraine,,,
62.149.30.4,4,-20506,auchan.ua,UA,Europe,Eastern Europe,Ukraine,Kyiv City,,Kyiv
93.190.45.6,4,57,audioheritage.net,UA,Europe,Eastern Europe,Ukraine,,,
185.253.218.211,4,18,audipower.lv,UA,Europe,Eastern Europe,Ukraine,,,
185.104.45.16,4,6,audit-invest.com.ua,UA,Europe,Eastern Europe,Ukraine,,,
89.184.93.87,4,4,authenticukraine.com.ua,UA,Europe,Eastern Europe,Ukraine,Kyiv City,,Kyiv
81.25.226.82,4,2,auto-7.com.ua,UA,Europe,Eastern Europe,Ukraine,Odessa,,Odesa
91.239.235.6,4,8,autoden.com.ua,UA,Europe,Eastern Europe,Ukraine,,,
195.234.4.62,4,16,autodoka.com.ua,UA,Europe,Eastern Europe,Ukraine,,,
185.174.221.16,4,56,autokraz.com.ua,UA,Europe,Eastern Europe,Ukraine,,,
89.184.69.139,4,2,autoshini.com,UA,Europe,Eastern Europe,Ukraine,Kyiv City,,Kyiv
91.203.4.45,4,3,aviafilm.com.ua,UA,Europe,Eastern Europe,Ukraine,Kyiv City,,Kyiv
185.68.16.5,4,6,avtocentr.com.ua,UA,Europe,Eastern Europe,Ukraine,,,
185.104.45.39,4,7,avtofast.com,UA,Europe,Eastern Europe,Ukraine,,,
93.190.40.130,4,195086,avtoradosti.com.ua,UA,Europe,Eastern Europe,Ukraine,,,
89.184.74.239,4,50,azov.org.ua,UA,Europe,Eastern Europe,Ukraine,Kyiv City,,Kyiv
185.67.1.92,4,38,babycenter.com.ua,UA,Europe,Eastern Europe,Ukraine,,,
89.184.70.73,4,10,bacadelo.com,UA,Europe,Eastern Europe,Ukraine,Kyiv City,,Kyiv
185.230.89.59,4,12,bailong-police.com.ua,UA,Europe,Eastern Europe,Ukraine,Kyiv Oblast,,
185.104.45.23,4,10,barometer.show,UA,Europe,Eastern Europe,Ukraine,,,
194.42.206.62,4,40,batiment-tunisie.com,UA,Europe,Eastern Europe,Ukraine,,,
185.65.246.22,4,3,baukron.com,UA,Europe,Eastern Europe,Ukraine,,,
185.67.2.204,4,21,baza.com.ua,UA,Europe,Eastern Europe,Ukraine,,,
91.195.53.16,4,9,bdf.gov.ua,UA,Europe,Eastern Europe,Ukraine,,,
185.233.118.140,4,5,bellamozzarella.com.ua,UA,Europe,Eastern Europe,Ukraine,Kyiv City,,Kyiv
195.64.155.154,4,6,benz.lv,UA,Europe,Eastern Europe,Ukraine,,,
77.120.99.7,4,21150,bestessayservicereviewhere.com,UA,Europe,Eastern Europe,Ukraine,Kyiv City,,Kyiv
195.248.234.5,4,22,besthosting.ua,UA,Europe,Eastern Europe,Ukraine,,,
185.104.45.54,4,4,bestsimilar.com,UA,Europe,Eastern Europe,Ukraine,,,
185.233.43.13,4,7,bettilt.xyz,UA,Europe,Eastern Europe,Ukraine,,,
89.184.68.169,4,25,bezzaryadki.com.ua,UA,Europe,Eastern Europe,Ukraine,Kyiv City,,Kyiv
193.239.71.100,4,157,bigmir.net,UA,Europe,Eastern Europe,Ukraine,,,
31.41.221.115,4,71,birdinflight.com,UA,Europe,Eastern Europe,Ukraine,,,
89.184.93.39,4,55,bit.ua,UA,Europe,Eastern Europe,Ukraine,Kyiv City,,Kyiv
195.191.24.32,4,21,bitemyapple.co,UA,Europe,Eastern Europe,Ukraine,,,
93.190.46.14,4,-133,bitte.net.ua,UA,Europe,Eastern Europe,Ukraine,,,
77.87.197.212,4,3,bizol.ua,UA,Europe,Eastern Europe,Ukraine,Kyiv City,,Kyiv
92.112.196.163,4,6,blazethemes.com,UA,Europe,Eastern Europe,Ukraine,,,
89.184.70.15,4,31,bls.ua,UA,Europe,Eastern Europe,Ukraine,Kyiv City,,Kyiv
91.218.212.151,4,5,bodocard.ua,UA,Europe,Eastern Europe,Ukraine,,,
193.169.188.210,4,23,bohdan-books.com,UA,Europe,Eastern Europe,Ukraine,Kyiv City,,Kyiv
185.156.42.107,4,8,bonvivant.ua,UA,Europe,Eastern Europe,Ukraine,,,
62.149.25.100,4,4,bookclub.ua,UA,Europe,Eastern Europe,Ukraine,Kyiv City,,Kyiv
185.174.174.228,4,10,bourgas.ru,UA,Europe,Eastern Europe,Ukraine,,,
91.223.223.149,4,19,brd24.com,UA,Europe,Eastern Europe,Ukraine,,,
89.184.88.90,4,16,bricks.ua,UA,Europe,Eastern Europe,Ukraine,Kyiv City,,Kyiv
91.209.235.90,4,0,bsmu.edu.ua,UA,Europe,Eastern Europe,Ukraine,,,
89.184.73.206,4,53,bunews.com.ua,UA,Europe,Eastern Europe,Ukraine,Kyiv City,,Kyiv
193.243.159.4,4,11,bus.com.ua,UA,Europe,Eastern Europe,Ukraine,,,
185.235.218.116,4,7,business.ua,UA,Europe,Eastern Europe,Ukraine,Kyiv Oblast,,
77.87.199.106,4,59,businessvisit.com.ua,UA,Europe,Eastern Europe,Ukraine,Kyiv City,,Kyiv
185.104.45.42,4,4,butuz.biz,UA,Europe,Eastern Europe,Ukraine,,,
80.245.112.15,4,7,c-pravda.ru,UA,Europe,Eastern Europe,Ukraine,Crimea,,Simferopol
185.233.36.202,4,15,cambridge.ua,UA,Europe,Eastern Europe,Ukraine,,,
92.112.188.221,4,11,canadianultrasound.com,UA,Europe,Eastern Europe,Ukraine,,,
91.200.40.103,4,11,casinolifemagazine.com,UA,Europe,Eastern Europe,Ukraine,,,
194.28.84.31,4,19,caviar.net.ua,UA,Europe,Eastern Europe,Ukraine,,,
212.26.131.198,4,-38239,ccu.gov.ua,UA,Europe,Eastern Europe,Ukraine,Kyiv City,,Kyiv
176.114.9.178,4,28,cedem.org.ua,UA,Europe,Eastern Europe,Ukraine,Kyiv Oblast,,
91.234.34.13,4,6,cenznet.com,UA,Europe,Eastern Europe,Ukraine,Kyiv Oblast,,
185.68.16.17,4,9,cerkva.info,UA,Europe,Eastern Europe,Ukraine,,,
176.119.25.196,4,-75,certproxywizard.com,UA,Europe,Eastern Europe,Ukraine,Kyiv City,,Kyiv
91.225.196.82,4,0,ch.ua,UA,Europe,Eastern Europe,Ukraine,Chernihiv,,Chernihiv
89.184.68.176,4,5,chainway.net.ua,UA,Europe,Eastern Europe,Ukraine,Kyiv City,,Kyiv
195.191.24.221,4,14,chamber.ua,UA,Europe,Eastern Europe,Ukraine,,,
176.120.38.190,4,-5,chernivtsy.eu,UA,Europe,Eastern Europe,Ukraine,Chernivtsi,,Chernivtsi
178.54.70.251,4,4,chernobyl.info,UA,Europe,Eastern Europe,Ukraine,Kyiv Oblast,,Vyshhorod
91.218.215.18,4,5,childdevelop.com.ua,UA,Europe,Eastern Europe,Ukraine,,,
185.254.192.166,4,25538,childrenofwar.gov.ua,UA,Europe,Eastern Europe,Ukraine,,,
217.77.211.91,4,5,chmnu.edu.ua,UA,Europe,Eastern Europe,Ukraine,Mykolaiv,,Mykolayiv
91.192.47.142,4,14,chnpu.edu.ua,UA,Europe,Eastern Europe,Ukraine,Chernihiv,,Chernihiv
89.184.79.125,4,7,citydoctor.com.ua,UA,Europe,Eastern Europe,Ukraine,Kyiv City,,Kyiv
185.104.45.109,4,6,cje.org.ua,UA,Europe,Eastern Europe,Ukraine,,,
185.67.1.245,4,11,club1.com.ua,UA,Europe,Eastern Europe,Ukraine,,,
185.233.39.41,4,37,coffeemag.com.ua,UA,Europe,Eastern Europe,Ukraine,,,
62.149.2.8,4,9,colocall.net,UA,Europe,Eastern Europe,Ukraine,Kyiv City,,Kyiv
91.239.234.14,4,41,comfortplus.com.ua,UA,Europe,Eastern Europe,Ukraine,,,
93.190.42.226,4,-785,confitur.com.ua,UA,Europe,Eastern Europe,Ukraine,,,
89.184.74.141,4,15,contek.com.ua,UA,Europe,Eastern Europe,Ukraine,Kyiv City,,Kyiv
185.104.45.24,4,4,conto.com.ua,UA,Europe,Eastern Europe,Ukraine,,,
185.233.41.2,4,4,control.ua,UA,Europe,Eastern Europe,Ukraine,,,
185.104.45.93,4,4,coolaser.clinic,UA,Europe,Eastern Europe,Ukraine,,,
185.104.45.166,4,4,cpd.gov.ua,UA,Europe,Eastern Europe,Ukraine,,,
31.42.187.42,4,6,crackbros.com,UA,Europe,Eastern Europe,Ukraine,,,
194.28.86.223,4,5,crb.com.ua,UA,Europe,Eastern Europe,Ukraine,,,
176.114.0.241,4,20,credit-agricole.ua,UA,Europe,Eastern Europe,Ukraine,Kyiv Oblast,,
80.245.112.5,4,164,crimea.com,UA,Europe,Eastern Europe,Ukraine,Crimea,,Simferopol
212.110.158.160,4,-8,crimea24.tv,UA,Europe,Eastern Europe,Ukraine,Crimea,,
81.162.64.149,4,9,crimeastar.net,UA,Europe,Eastern Europe,Ukraine,Crimea,,Bakhchysarai
185.67.2.89,4,4,cromia.ua,UA,Europe,Eastern Europe,Ukraine,,,
185.104.45.91,4,2,ctor.com.ua,UA,Europe,Eastern Europe,Ukraine,,,
89.184.77.13,4,50,culturepartnership.eu,UA,Europe,Eastern Europe,Ukraine,Kyiv City,,Kyiv
91.233.100.55,4,7,czo.gov.ua,UA,Europe,Eastern Europe,Ukraine,,,
185.68.16.36,4,4,dan-it.com.ua,UA,Europe,Eastern Europe,Ukraine,,,
91.206.226.84,4,648,darg.gov.ua,UA,Europe,Eastern Europe,Ukraine,,,
195.191.25.216,4,12,darkoderebornonion.com,UA,Europe,Eastern Europe,Ukraine,,,
185.68.16.156,4,4,darusya.com.ua,UA,Europe,Eastern Europe,Ukraine,,,
185.233.39.183,4,4,data-science-ua.com,UA,Europe,Eastern Europe,Ukraine,,,
176.97.124.214,4,105,databreaches.net,UA,Europe,Eastern Europe,Ukraine,,,
77.87.193.158,4,163,dec-edu.com,UA,Europe,Eastern Europe,Ukraine,Kyiv City,,Kyiv
89.184.82.89,4,6,dei.gov.ua,UA,Europe,Eastern Europe,Ukraine,Kyiv City,,Kyiv
185.104.45.2,4,6,dejure.foundation,UA,Europe,Eastern Europe,Ukraine,,,
89.184.65.21,4,940126,deka.ua,UA,Europe,Eastern Europe,Ukraine,Kyiv City,,Kyiv
185.104.45.15,4,4,derm.com.ua,UA,Europe,Eastern Europe,Ukraine,,,
77.87.196.192,4,13,desktopgames.com.ua,UA,Europe,Eastern Europe,Ukraine,Kyiv City,,Kyiv
77.87.198.155,4,39,desta.biz,UA,Europe,Eastern Europe,Ukraine,Kyiv City,,Kyiv
185.68.16.73,4,2,devolz.ua,UA,Europe,Eastern Europe,Ukraine,,,
89.184.74.8,4,8,diagram.com.ua,UA,Europe,Eastern Europe,Ukraine,Kyiv City,,Kyiv
91.200.113.139,4,22,dilo.net.ua,UA,Europe,Eastern Europe,Ukraine,Lviv,,Lviv
91.200.40.47,4,760,distributoram.com,UA,Europe,Eastern Europe,Ukraine,,,
77.222.132.6,4,43,divan.tv,UA,Europe,Eastern Europe,Ukraine,Kyiv City,,Kyiv
77.87.197.171,4,6,dixigroup.org,UA,Europe,Eastern Europe,Ukraine,Kyiv City,,Kyiv
217.20.167.17,4,6295,dkrp.gov.ua,UA,Europe,Eastern Europe,Ukraine,Kyiv City,,Kyiv
92.244.99.205,4,-37,dls.gov.ua,UA,Europe,Eastern Europe,Ukraine,Kyiv City,,Kyiv
91.193.131.34,4,2,dnepr.com,UA,Europe,Eastern Europe,Ukraine,Dnipropetrovsk Oblast,,Dnipro
88.81.239.196,4,8477116,dnipro-ukr.com.ua,UA,Europe,Eastern Europe,Ukraine,Kyiv City,,Kyiv
185.124.11.97,4,3,dnipro24.com.ua,UA,Europe,Eastern Europe,Ukraine,,,
94.179.147.10,4,14769,DNS Server: 10-147-179-94.pool.ukrtel.net,UA,Europe,Eastern Europe,Ukraine,,,
109.108.87.96,4,-49312,DNS Server: 109-108-87-96.kievnet.com.ua,UA,Europe,Eastern Europe,Ukraine,Kyiv City,,Kyiv
37.53.85.116,4,3497,DNS Server: 116-85-53-37.pool.ukrtel.net,UA,Europe,Eastern Europe,Ukraine,Kyiv City,,Kyiv
31.128.75.116,4,6,DNS Server: 116.31-pool.datagroup.com.ua,UA,Europe,Eastern Europe,Ukraine,Vinnytsia,,Vinnytsia
91.124.105.124,4,-27,DNS Server: 124-105-124-91.pool.ukrtel.net,UA,Europe,Eastern Europe,Ukraine,,,
85.198.128.22,4,116494,DNS Server: 128-22.trifle.net,UA,Europe,Eastern Europe,Ukraine,Dnipropetrovsk Oblast,,Dnipro
134.249.189.103,4,34908,DNS Server: 134-249-189-103.broadband.kyivstar.net,UA,Europe,Eastern Europe,Ukraine,Kyiv City,,Kyiv
31.43.15.18,4,10713,DNS Server: 16644.dks.com.ua,UA,Europe,Eastern Europe,Ukraine,Zhytomyr,,Zhytomyr
159.224.187.170,4,90,DNS Server: 170.187.224.159.triolan.net,UA,Europe,Eastern Europe,Ukraine,Zaporizhzhia,,Zaporizhzhya
176.8.72.114,4,-2387014,DNS Server: 176-8-72-114.broadband.kyivstar.net,UA,Europe,Eastern Europe,Ukraine,Kharkivs’ka Oblast’,,Lozova
178.136.2.208,4,-17732249,DNS Server: 178-136-1-208.static.vega-ua.net,UA,Europe,Eastern Europe,Ukraine,Kyiv City,,Kyiv
178.165.45.12,4,101878,DNS Server: 178-165-45-12-kh.maxnet.ua,UA,Europe,Eastern Europe,Ukraine,Kharkivs’ka Oblast’,,Kharkiv
185.226.113.180,4,8626,DNS Server: 185-226-113-180.broadband.tenet.odessa.ua,UA,Europe,Eastern Europe,Ukraine,Odessa,,Odesa
85.198.185.26,4,28463,DNS Server: 185-26.trifle.net,UA,Europe,Eastern Europe,Ukraine,Dnipropetrovsk Oblast,,Novomoskovsk
37.53.85.189,4,0,DNS Server: 189-85-53-37.pool.ukrtel.net,UA,Europe,Eastern Europe,Ukraine,Kyiv City,,Kyiv
46.37.207.191,4,7,DNS Server: 191.pool-46.37.207.icn.ua,UA,Europe,Eastern Europe,Ukraine,Odessa,,Odesa
192.162.233.96,4,22456159,DNS Server: 192-162-233-96.inaddr.vnstr.net,UA,Europe,Eastern Europe,Ukraine,Vinnytsia,,Khmilnyk
194.143.137.149,4,1160,DNS Server: 194.143.137.149.users.breezein.net,UA,Europe,Eastern Europe,Ukraine,Odessa,,Odesa
195.138.64.196,4,15776,DNS Server: 195-138-64-196.client-ip.tenet.odessa.ua,UA,Europe,Eastern Europe,Ukraine,Odessa,,Odesa
195.138.79.162,4,59,DNS Server: 195-138-79-162.client-ip.tenet.odessa.ua,UA,Europe,Eastern Europe,Ukraine,Odessa,,Odesa
109.86.182.203,4,13164656,DNS Server: 203.182.86.109.triolan.net,UA,Europe,Eastern Europe,Ukraine,Kharkivs’ka Oblast’,,Kharkiv
95.135.80.210,4,-52146338,DNS Server: 210-80-135-95.pool.ukrtel.net,UA,Europe,Eastern Europe,Ukraine,Ivano-Frankivsk Oblast,,Kolomyia
213.231.2.255,4,7,DNS Server: 213.231.2.255.users.breezein.net,UA,Europe,Eastern Europe,Ukraine,Odessa,,Odesa
159.224.182.216,4,11,DNS Server: 216.182.224.159.triolan.net,UA,Europe,Eastern Europe,Ukraine,Kyiv City,,Kyiv
217.24.175.91,4,1674,DNS Server: 217-24-175-91.dhcp.vega-ua.net,UA,Europe,Eastern Europe,Ukraine,Dnipropetrovsk Oblast,,Dnipro
159.224.13.218,4,29292001,DNS Server: 218.13.224.159.triolan.net,UA,Europe,Eastern Europe,Ukraine,Kharkivs’ka Oblast’,,Kharkiv
92.60.190.22,4,3023,DNS Server: 22.unassigned.domonet.ua,UA,Europe,Eastern Europe,Ukraine,Kyiv City,,Kyiv
185.46.222.110,4,10942,DNS Server: 222-46-185.net.arkada-x.com,UA,Europe,Eastern Europe,Ukraine,Lviv,,Lviv
178.150.15.226,4,13789,DNS Server: 226.15.150.178.triolan.net,UA,Europe,Eastern Europe,Ukraine,Kyiv City,,Kyiv
188.247.113.232,4,5123,DNS Server: 232.ipv4.datagroup.ua,UA,Europe,Eastern Europe,Ukraine,Kyiv City,,Kyiv
94.158.157.142,4,14564,DNS Server: 2774031.soborka.net,UA,Europe,Eastern Europe,Ukraine,Odessa,,Odesa
5.53.115.28,4,9359,DNS Server: 28.infotech.dataline.ua,UA,Europe,Eastern Europe,Ukraine,Kyiv City,,Kyiv
31.202.16.125,4,-53567219,DNS Server: 31-202-16-125-kh.maxnet.ua,UA,Europe,Eastern Europe,Ukraine,Kharkivs’ka Oblast’,,Kharkiv
31.202.161.148,4,2387,DNS Server: 31-202-161-148-kh.maxnet.ua,UA,Europe,Eastern Europe,Ukraine,Kharkivs’ka Oblast’,,Kharkiv
31.202.168.48,4,11168,DNS Server: 31-202-168-48-kh.maxnet.ua,UA,Europe,Eastern Europe,Ukraine,Kharkivs’ka Oblast’,,Kharkiv
31.40.183.249,4,1783,DNS Server: 31-40-183-249.ivcdon.net,UA,Europe,Eastern Europe,Ukraine,Donetsk,,Donetsk
46.160.88.181,4,58,DNS Server: 46-160-88-181-kh.maxnet.ua,UA,Europe,Eastern Europe,Ukraine,Kharkivs’ka Oblast’,,Kharkiv
213.160.138.58,4,9,DNS Server: 58-dup138.ldc.net,UA,Europe,Eastern Europe,Ukraine,Kyiv City,,Kyiv
46.201.245.67,4,12654,DNS Server: 67-245-201-46.pool.ukrtel.net,UA,Europe,Eastern Europe,Ukraine,Kyiv City,,Kyiv
77.109.21.186,4,3336,DNS Server: 77-109-21-186.static.peoplenet.ua,UA,Europe,Eastern Europe,Ukraine,Kharkivs’ka Oblast’,,Kharkiv
77.222.155.35,4,2085,DNS Server: 77-222-155-35-static.retail.datagroup.ua,UA,Europe,Eastern Europe,Ukraine,Dnipropetrovsk Oblast,,Dnipro
77.222.158.126,4,-1397126621,DNS Server: 77-222-158-126-static.retail.datagroup.ua,UA,Europe,Eastern Europe,Ukraine,Dnipropetrovsk Oblast,,Dnipro
109.86.224.77,4,4270,DNS Server: 77.224.86.109.triolan.net,UA,Europe,Eastern Europe,Ukraine,Kharkivs’ka Oblast’,,Kharkiv
79.143.35.82,4,24,DNS Server: 79.143.35.82.vntp.net,UA,Europe,Eastern Europe,Ukraine,Vinnytsia,,Vinnytsia
82.193.107.136,4,11397,DNS Server: 82.193.107.136.cl.ipnet.ua,UA,Europe,Eastern Europe,Ukraine,Kyiv City,,Kyiv
91.224.179.242,4,50604,DNS Server: 91-224-179-242.pool.tv9.net.ua,UA,Europe,Eastern Europe,Ukraine,Zakarpattia Oblast,,Berehove
91.237.109.151,4,66,DNS Server: 91-237-109-151.amik.dn.ua,UA,Europe,Eastern Europe,Ukraine,Donetsk,,Donetsk
146.158.30.143,4,1075,DNS Server: 93.171.172-143.static.likenet.dp.ua,UA,Europe,Eastern Europe,Ukraine,Dnipropetrovsk Oblast,,Dnipro
146.158.30.207,4,1266,DNS Server: 93.171.172-207.static.likenet.dp.ua,UA,Europe,Eastern Europe,Ukraine,Dnipropetrovsk Oblast,,Dnipro
94.153.203.42,4,-331,DNS Server: 94-153-203-42.ip.kyivstar.net,UA,Europe,Eastern Europe,Ukraine,Dnipropetrovsk Oblast,,Dnipro
95.158.55.136,4,24755773,DNS Server: 95.158.55.136.best.net.ua,UA,Europe,Eastern Europe,Ukraine,Kyiv Oblast,,Irpin
212.1.108.131,4,-1441,DNS Server: amb131.zt.ukrpack.ua,UA,Europe,Eastern Europe,Ukraine,Zhytomyr,,Zhytomyr
78.154.174.221,4,1015,DNS Server: bekar1-221.ett.com.ua,UA,Europe,Eastern Europe,Ukraine,Lviv,,Ozhydiv
62.80.167.225,4,-45560992,DNS Server: c.225.167.a228.static.cyfra.net,UA,Europe,Eastern Europe,Ukraine,Kyiv City,,Kyiv
93.183.211.210,4,28,DNS Server: cache.google.com,UA,Europe,Eastern Europe,Ukraine,,,
46.149.86.139,4,-36908,DNS Server: client-46-149-86-139.osnova.tv,UA,Europe,Eastern Europe,Ukraine,Chernihiv,,Chernihiv
178.34.159.215,4,70598,DNS Server: demux0-1073794891.SMFL-04-BRAS2.miranda-media.net,UA,Europe,Eastern Europe,Ukraine,Crimea,,Simferopol
194.38.20.218,4,6,DNS Server: dns-ukraine.netvpn.net,UA,Europe,Eastern Europe,Ukraine,Dnipropetrovsk Oblast,,Dnipro
195.177.236.66,4,27,DNS Server: fantom.vsmu.vinnica.ua,UA,Europe,Eastern Europe,Ukraine,,,
185.4.42.198,4,2973820,DNS Server: h198.onetel185.4.42.onetelecom.od.ua,UA,Europe,Eastern Europe,Ukraine,Odessa,,Odesa
78.30.198.10,4,50626,DNS Server: host-10-198-30-78.sevstar.net,UA,Europe,Eastern Europe,Ukraine,Sebastopol City,,Sevastopol
78.30.214.108,4,-44450,DNS Server: host-108-214-30-78.sevstar.net,UA,Europe,Eastern Europe,Ukraine,Sebastopol City,,Sevastopol
78.30.193.119,4,1891,DNS Server: host-119-193-30-78.sevstar.net,UA,Europe,Eastern Europe,Ukraine,Sebastopol City,,Sevastopol
78.30.200.119,4,-3342,DNS Server: host-119-200-30-78.sevstar.net,UA,Europe,Eastern Europe,Ukraine,Sebastopol City,,Sevastopol
78.30.203.125,4,1507,DNS Server: host-125-203-30-78.sevstar.net,UA,Europe,Eastern Europe,Ukraine,Sebastopol City,,Sevastopol
78.30.246.128,4,62,DNS Server: host-128-246-30-78.sevstar.net,UA,Europe,Eastern Europe,Ukraine,Sebastopol City,,Sevastopol
93.171.209.129,4,16071,DNS Server: host-129-209-171-93.revolan.net,UA,Europe,Eastern Europe,Ukraine,Sebastopol City,,Sevastopol
78.30.194.13,4,94652,DNS Server: host-13-194-30-78.sevstar.net,UA,Europe,Eastern Europe,Ukraine,Sebastopol City,,Sevastopol
93.171.209.131,4,50293,DNS Server: host-131-209-171-93.revolan.net,UA,Europe,Eastern Europe,Ukraine,Sebastopol City,,Sevastopol
5.149.223.134,4,-1392062271,DNS Server: host-134-223-149-5.sevstar.net,UA,Europe,Eastern Europe,Ukraine,Sebastopol City,,Sevastopol
78.30.243.138,4,8,DNS Server: host-138-243-30-78.sevstar.net,UA,Europe,Eastern Europe,Ukraine,Sebastopol City,,Sevastopol
78.30.253.142,4,-2147759697,DNS Server: host-142-253-30-78.sevstar.net,UA,Europe,Eastern Europe,Ukraine,Sebastopol City,,Sevastopol
78.30.243.152,4,32657,DNS Server: host-152-243-30-78.sevstar.net,UA,Europe,Eastern Europe,Ukraine,Sebastopol City,,Sevastopol
176.36.208.229,4,605,DNS Server: host-176-36-208-229.b024.la.net.ua,UA,Europe,Eastern Europe,Ukraine,Kyiv City,,Kyiv
176.36.219.128,4,33990,DNS Server: host-176-36-219-128.b024.la.net.ua,UA,Europe,Eastern Europe,Ukraine,Kyiv City,,Kyiv
176.36.241.22,4,8490604,DNS Server: host-176-36-241-22.b024.la.net.ua,UA,Europe,Eastern Europe,Ukraine,Kyiv City,,Kyiv
176.37.1.68,4,144,DNS Server: host-176-37-1-68.b025.la.net.ua,UA,Europe,Eastern Europe,Ukraine,Kyiv City,,Kyiv
176.37.11.204,4,3436,DNS Server: host-176-37-11-204.b025.la.net.ua,UA,Europe,Eastern Europe,Ukraine,Kyiv City,,Kyiv
176.37.46.163,4,2839,DNS Server: host-176-37-46-163.b025.la.net.ua,UA,Europe,Eastern Europe,Ukraine,Kyiv City,,Kyiv
176.38.178.54,4,-216793,DNS Server: host-176-38-178-54.b026.la.net.ua,UA,Europe,Eastern Europe,Ukraine,Kyiv City,,Kyiv
176.39.23.78,4,-2102058983,DNS Server: host-176-39-23-78.b027.la.net.ua,UA,Europe,Eastern Europe,Ukraine,Rivne,,Dubno
5.149.222.186,4,640,DNS Server: host-186-222-149-5.sevstar.net,UA,Europe,Eastern Europe,Ukraine,Sebastopol City,,Sevastopol
78.30.240.19,4,7683,DNS Server: host-19-240-30-78.sevstar.net,UA,Europe,Eastern Europe,Ukraine,Sebastopol City,,Sevastopol
193.228.132.39,4,5231,DNS Server: host-193.228.132.39.ardinvest.net,UA,Europe,Eastern Europe,Ukraine,Crimea,,Simferopol
193.228.134.195,4,58067,DNS Server: host-193.228.134.195.ardinvest.net,UA,Europe,Eastern Europe,Ukraine,Crimea,,Simferopol
194.187.150.154,4,-2112908553,DNS Server: host-194.187.150.154.ardinvest.net,UA,Europe,Eastern Europe,Ukraine,Crimea,,Simferopol
194.187.150.71,4,20098,DNS Server: host-194.187.150.71.ardinvest.net,UA,Europe,Eastern Europe,Ukraine,Crimea,,Simferopol
46.35.243.198,4,8,DNS Server: host-198-243-35-46.sevstar.net,UA,Europe,Eastern Europe,Ukraine,Sebastopol City,,Sevastopol
78.30.243.210,4,-242284637,DNS Server: host-210-243-30-78.sevstar.net,UA,Europe,Eastern Europe,Ukraine,Sebastopol City,,Sevastopol
5.149.215.224,4,-3257713880,DNS Server: host-224-215-149-5.sevstar.net,UA,Europe,Eastern Europe,Ukraine,Sebastopol City,,Sevastopol
78.30.194.253,4,14,DNS Server: host-253-194-30-78.sevstar.net,UA,Europe,Eastern Europe,Ukraine,Sebastopol City,,Sevastopol
31.134.89.46,4,4925,DNS Server: host-31-134-89-46.la.net.ua,UA,Europe,Eastern Europe,Ukraine,Rivne,,Rivne
78.30.197.31,4,54755,DNS Server: host-31-197-30-78.sevstar.net,UA,Europe,Eastern Europe,Ukraine,Sebastopol City,,Sevastopol
31.42.164.195,4,5106,DNS Server: host-31-42-164-195.pois.com.ua,UA,Europe,Eastern Europe,Ukraine,Khmelnytskyi Oblast,,Khmelnytskyi
5.58.0.206,4,4519,DNS Server: host-5-58-0-206.bitternet.ua,UA,Europe,Eastern Europe,Ukraine,Ternopil Oblast,,Ternopil
5.58.0.222,4,1451,DNS Server: host-5-58-0-222.bitternet.ua,UA,Europe,Eastern Europe,Ukraine,Ternopil Oblast,,Ternopil
5.58.108.151,4,666,DNS Server: host-5-58-108-151.bitternet.ua,UA,Europe,Eastern Europe,Ukraine,Ternopil Oblast,,Ternopil
5.58.11.85,4,4,DNS Server: host-5-58-11-85.bitternet.ua,UA,Europe,Eastern Europe,Ukraine,Ternopil Oblast,,Ternopil
5.58.110.197,4,830,DNS Server: host-5-58-110-197.bitternet.ua,UA,Europe,Eastern Europe,Ukraine,Ternopil Oblast,,Ternopil
5.58.114.238,4,-2146086545,DNS Server: host-5-58-114-238.bitternet.ua,UA,Europe,Eastern Europe,Ukraine,Ternopil Oblast,,Ternopil
5.58.126.220,4,4342,DNS Server: host-5-58-126-220.bitternet.ua,UA,Europe,Eastern Europe,Ukraine,Ternopil Oblast,,Ternopil
5.58.128.57,4,5633,DNS Server: host-5-58-128-57.bitternet.ua,UA,Europe,Eastern Europe,Ukraine,Ternopil Oblast,,Ternopil
5.58.13.41,4,27578,DNS Server: host-5-58-13-41.bitternet.ua,UA,Europe,Eastern Europe,Ukraine,Ternopil Oblast,,Ternopil
5.58.131.22,4,6540,DNS Server: host-5-58-131-22.bitternet.ua,UA,Europe,Eastern Europe,Ukraine,Ternopil Oblast,,Ternopil
5.58.134.76,4,3864,DNS Server: host-5-58-134-76.bitternet.ua,UA,Europe,Eastern Europe,Ukraine,Ternopil Oblast,,Ternopil
5.58.137.224,4,626,DNS Server: host-5-58-137-224.bitternet.ua,UA,Europe,Eastern Europe,Ukraine,Ternopil Oblast,,Ternopil
5.58.137.227,4,2499,DNS Server: host-5-58-137-227.bitternet.ua,UA,Europe,Eastern Europe,Ukraine,Ternopil Oblast,,Ternopil
5.58.137.91,4,-548,DNS Server: host-5-58-137-91.bitternet.ua,UA,Europe,Eastern Europe,Ukraine,Ternopil Oblast,,Ternopil
5.58.138.120,4,26498494,DNS Server: host-5-58-138-120.bitternet.ua,UA,Europe,Eastern Europe,Ukraine,Ternopil Oblast,,Ternopil
5.58.138.176,4,483,DNS Server: host-5-58-138-176.bitternet.ua,UA,Europe,Eastern Europe,Ukraine,Ternopil Oblast,,Ternopil
5.58.138.180,4,6594,DNS Server: host-5-58-138-180.bitternet.ua,UA,Europe,Eastern Europe,Ukraine,Ternopil Oblast,,Ternopil
5.58.138.22,4,548,DNS Server: host-5-58-138-22.bitternet.ua,UA,Europe,Eastern Europe,Ukraine,Ternopil Oblast,,Ternopil
5.58.138.47,4,3606,DNS Server: host-5-58-138-47.bitternet.ua,UA,Europe,Eastern Europe,Ukraine,Ternopil Oblast,,Ternopil
5.58.139.53,4,121,DNS Server: host-5-58-139-53.bitternet.ua,UA,Europe,Eastern Europe,Ukraine,Ternopil Oblast,,Ternopil
5.58.139.7,4,8,DNS Server: host-5-58-139-7.bitternet.ua,UA,Europe,Eastern Europe,Ukraine,Ternopil Oblast,,Ternopil
5.58.140.163,4,6,DNS Server: host-5-58-140-163.bitternet.ua,UA,Europe,Eastern Europe,Ukraine,Ternopil Oblast,,Ternopil
5.58.15.44,4,1640,DNS Server: host-5-58-15-44.bitternet.ua,UA,Europe,Eastern Europe,Ukraine,Ternopil Oblast,,Ternopil
5.58.157.231,4,-1008364560,DNS Server: host-5-58-157-231.bitternet.ua,UA,Europe,Eastern Europe,Ukraine,Ternopil Oblast,,Ternopil
5.58.16.231,4,27,DNS Server: host-5-58-16-231.bitternet.ua,UA,Europe,Eastern Europe,Ukraine,Ternopil Oblast,,Ternopil
5.58.17.43,4,13,DNS Server: host-5-58-17-43.bitternet.ua,UA,Europe,Eastern Europe,Ukraine,Ternopil Oblast,,Ternopil
5.58.18.131,4,9920,DNS Server: host-5-58-18-131.bitternet.ua,UA,Europe,Eastern Europe,Ukraine,Ternopil Oblast,,Ternopil
5.58.239.119,4,3940,DNS Server: host-5-58-239-119.bitternet.ua,UA,Europe,Eastern Europe,Ukraine,Ternopil Oblast,,Ternopil
5.58.242.124,4,18961,DNS Server: host-5-58-242-124.bitternet.ua,UA,Europe,Eastern Europe,Ukraine,Ternopil Oblast,,Ternopil
5.58.242.61,4,27776,DNS Server: host-5-58-242-61.bitternet.ua,UA,Europe,Eastern Europe,Ukraine,Ternopil Oblast,,Ternopil
5.58.245.249,4,13321,DNS Server: host-5-58-245-249.bitternet.ua,UA,Europe,Eastern Europe,Ukraine,Ternopil Oblast,,Ternopil
5.58.247.113,4,29,DNS Server: host-5-58-247-113.bitternet.ua,UA,Europe,Eastern Europe,Ukraine,Ternopil Oblast,,Ternopil
5.58.252.22,4,271,DNS Server: host-5-58-252-22.bitternet.ua,UA,Europe,Eastern Europe,Ukraine,Ternopil Oblast,,Ternopil
5.58.254.249,4,11266,DNS Server: host-5-58-254-249.bitternet.ua,UA,Europe,Eastern Europe,Ukraine,Ternopil Oblast,,Ternopil
5.58.254.98,4,357,DNS Server: host-5-58-254-98.bitternet.ua,UA,Europe,Eastern Europe,Ukraine,Ternopil Oblast,,Ternopil
5.58.29.136,4,28,DNS Server: host-5-58-29-136.bitternet.ua,UA,Europe,Eastern Europe,Ukraine,Ternopil Oblast,,Ternopil
5.58.3.220,4,-65,DNS Server: host-5-58-3-220.bitternet.ua,UA,Europe,Eastern Europe,Ukraine,Ternopil Oblast,,Ternopil
5.58.3.25,4,7,DNS Server: host-5-58-3-25.bitternet.ua,UA,Europe,Eastern Europe,Ukraine,Ternopil Oblast,,Ternopil
5.58.30.125,4,1867,DNS Server: host-5-58-30-125.bitternet.ua,UA,Europe,Eastern Europe,Ukraine,Ternopil Oblast,,Ternopil
5.58.37.104,4,7,DNS Server: host-5-58-37-104.bitternet.ua,UA,Europe,Eastern Europe,Ukraine,Ternopil Oblast,,Ternopil
5.58.38.169,4,1855,DNS Server: host-5-58-38-169.bitternet.ua,UA,Europe,Eastern Europe,Ukraine,Ternopil Oblast,,Ternopil
5.58.38.187,4,3587,DNS Server: host-5-58-38-187.bitternet.ua,UA,Europe,Eastern Europe,Ukraine,Ternopil Oblast,,Ternopil
5.58.38.238,4,654,DNS Server: host-5-58-38-238.bitternet.ua,UA,Europe,Eastern Europe,Ukraine,Ternopil Oblast,,Ternopil
5.58.4.85,4,2115,DNS Server: host-5-58-4-85.bitternet.ua,UA,Europe,Eastern Europe,Ukraine,Ternopil Oblast,,Ternopil
5.58.41.9,4,5611,DNS Server: host-5-58-41-9.bitternet.ua,UA,Europe,Eastern Europe,Ukraine,Ternopil Oblast,,Ternopil
5.58.42.113,4,56,DNS Server: host-5-58-42-113.bitternet.ua,UA,Europe,Eastern Europe,Ukraine,Ternopil Oblast,,Ternopil
5.58.45.236,4,9400011,DNS Server: host-5-58-45-236.bitternet.ua,UA,Europe,Eastern Europe,Ukraine,Ternopil Oblast,,Ternopil
5.58.52.150,4,14250,DNS Server: host-5-58-52-150.bitternet.ua,UA,Europe,Eastern Europe,Ukraine,Ternopil Oblast,,Ternopil
5.58.55.183,4,69188,DNS Server: host-5-58-55-183.bitternet.ua,UA,Europe,Eastern Europe,Ukraine,Ternopil Oblast,,Ternopil
5.58.55.66,4,28173,DNS Server: host-5-58-55-66.bitternet.ua,UA,Europe,Eastern Europe,Ukraine,Ternopil Oblast,,Ternopil
5.58.70.70,4,34,DNS Server: host-5-58-70-70.bitternet.ua,UA,Europe,Eastern Europe,Ukraine,Ternopil Oblast,,Ternopil
5.58.79.117,4,192,DNS Server: host-5-58-79-117.bitternet.ua,UA,Europe,Eastern Europe,Ukraine,Ternopil Oblast,,Ternopil
5.58.88.211,4,10695,DNS Server: host-5-58-88-211.bitternet.ua,UA,Europe,Eastern Europe,Ukraine,Ternopil Oblast,,Ternopil
5.58.95.228,4,13,DNS Server: host-5-58-95-228.bitternet.ua,UA,Europe,Eastern Europe,Ukraine,Ternopil Oblast,,Ternopil
37.139.104.50,4,44194,DNS Server: host-50-104-139-37.sevstar.net,UA,Europe,Eastern Europe,Ukraine,Sebastopol City,,Sevastopol
178.219.245.50,4,97,DNS Server: host-50-245-219-178.sevstar.net,UA,Europe,Eastern Europe,Ukraine,Sebastopol City,,Sevastopol
78.30.214.56,4,13192,DNS Server: host-56-214-30-78.sevstar.net,UA,Europe,Eastern Europe,Ukraine,Sebastopol City,,Sevastopol
78.30.239.58,4,-1872000492,DNS Server: host-58-239-30-78.sevstar.net,UA,Europe,Eastern Europe,Ukraine,Sebastopol City,,Sevastopol
78.30.215.6,4,1,DNS Server: host-6-215-30-78.sevstar.net,UA,Europe,Eastern Europe,Ukraine,Sebastopol City,,Sevastopol
37.139.97.62,4,18581,DNS Server: host-62-97-139-37.sevstar.net,UA,Europe,Eastern Europe,Ukraine,Sebastopol City,,Sevastopol
78.30.249.63,4,135,DNS Server: host-63-249-30-78.sevstar.net,UA,Europe,Eastern Europe,Ukraine,Sebastopol City,,Sevastopol
31.28.254.64,4,422,DNS Server: host-64-254-28-31.sevstar.net,UA,Europe,Eastern Europe,Ukraine,Sebastopol City,,Sevastopol
46.35.225.70,4,14510,DNS Server: host-70-225-35-46.sevstar.net,UA,Europe,Eastern Europe,Ukraine,Sebastopol City,,Sevastopol
91.215.60.157,4,19,DNS Server: host-91.215.60.157.ardinvest.net,UA,Europe,Eastern Europe,Ukraine,Crimea,,Simferopol
93.170.146.174,4,-14781004,DNS Server: host174-146-170-93.foboss.net,UA,Europe,Eastern Europe,Ukraine,Mykolaiv,,Pervomaisk
178.16.82.57,4,3684,DNS Server: host57-82-16-178.reedlan.com,UA,Europe,Eastern Europe,Ukraine,Sebastopol City,,Sevastopol
95.47.148.218,4,3651,DNS Server: i218.vpdn3.tks.sumy.ua,UA,Europe,Eastern Europe,Ukraine,Sumy,,Sumy
95.47.149.49,4,8927,DNS Server: i49.vpdn4.tks.sumy.ua,UA,Europe,Eastern Europe,Ukraine,Sumy,,Sumy
212.1.104.5,4,6,DNS Server: infocom.cv.ua,UA,Europe,Eastern Europe,Ukraine,Chernivtsi,,Chernivtsi
195.234.79.213,4,2736,DNS Server: InstitutPidgotovkiKa-gw.lukyan65d67-1.kie.ua.wnet.kie.wnet.ua,UA,Europe,Eastern Europe,Ukraine,Kyiv City,,Kyiv
85.193.64.39,4,47,DNS Server: internet.volnamobile.ru,UA,Europe,Eastern Europe,Ukraine,Crimea,,
178.212.102.76,4,14974897,DNS Server: ip-178-212-102-76.network.lviv.ua,UA,Europe,Eastern Europe,Ukraine,Lviv,,Lviv
62.80.184.172,4,-2901,DNS Server: ip-62-80-184-172.cyfra.net,UA,Europe,Eastern Europe,Ukraine,Kyiv City,,Kyiv
91.236.114.66,4,2027,DNS Server: ip-66.114.236.91.ip-service.net.ru,UA,Europe,Eastern Europe,Ukraine,Crimea,,
91.200.114.52,4,98,DNS Server: ip-91-200-114-52.network.lviv.ua,UA,Europe,Eastern Europe,Ukraine,Lviv,,Lviv
91.241.237.42,4,41,DNS Server: ip-91-241-237-42.static.east.net.ua,UA,Europe,Eastern Europe,Ukraine,,,
80.245.118.138,4,35,DNS Server: ip138-118-245-80.crelcom.ru,UA,Europe,Eastern Europe,Ukraine,Crimea,,Simferopol
5.59.198.9,4,44104,DNS Server: kopiyka.net,UA,Europe,Eastern Europe,Ukraine,Lviv,,Lviv
185.126.253.45,4,13085,DNS Server: kram.gov.ua,UA,Europe,Eastern Europe,Ukraine,Kyiv City,,Kyiv
95.158.6.154,4,930,DNS Server: kuehne-nagel.best.net.ua,UA,Europe,Eastern Europe,Ukraine,Kyiv Oblast,,Irpin
85.223.233.38,4,360,DNS Server: ll-38.233.223.85.dp.sovam.net.ua,UA,Europe,Eastern Europe,Ukraine,Dnipropetrovsk Oblast,,Dnipro
195.78.69.142,4,301,DNS Server: mail.thedigital.gov.ua,UA,Europe,Eastern Europe,Ukraine,Kyiv City,,Kyiv
212.113.46.74,4,-24372,DNS Server: mns.cv.ua,UA,Europe,Eastern Europe,Ukraine,,,
213.227.192.136,4,814,DNS Server: nsb.vega.com.ua,UA,Europe,Eastern Europe,Ukraine,,,
213.179.228.4,4,245,DNS Server: nss3.ukrtel.net,UA,Europe,Eastern Europe,Ukraine,,,
109.86.86.33,4,-7867351,DNS Server: pirs.tvpark.ua,UA,Europe,Eastern Europe,Ukraine,Kyiv City,,Kyiv
79.135.198.18,4,25991,DNS Server: pool-198-18-pppoe.icn.od.ua,UA,Europe,Eastern Europe,Ukraine,Odessa,,Fontanka
91.210.179.88,4,188,DNS Server: pool.giga.net.ru,UA,Europe,Eastern Europe,Ukraine,Crimea,,Simferopol
31.148.151.77,4,-716,DNS Server: pppoe-31-148-151-77.customer.ternet.com.ua,UA,Europe,Eastern Europe,Ukraine,Ternopil Oblast,,Ternopil
195.66.200.100,4,9698,DNS Server: rage-zone.ml,UA,Europe,Eastern Europe,Ukraine,Odessa,,Odesa
95.67.21.231,4,356,DNS Server: robotainter-231.cosmonova.net.ua,UA,Europe,Eastern Europe,Ukraine,Kyiv City,,Kyiv
176.104.59.191,4,1204,DNS Server: s-176-104-59-191.under.net.ua,UA,Europe,Eastern Europe,Ukraine,Kyiv City,,Kyiv
194.9.37.63,4,10949,DNS Server: s-194-9-37-63.under.net.ua,UA,Europe,Eastern Europe,Ukraine,,,
176.98.80.97,4,-7531,DNS Server: umanupszn.gov.ua,UA,Europe,Eastern Europe,Ukraine,Cherkasy Oblast,,Uman
95.47.164.179,4,1945,DNS Server: unallocated179.unioncom.net.ua,UA,Europe,Eastern Europe,Ukraine,Kyiv City,,Kyiv
93.171.218.166,4,323,DNS Server: undefined-166,UA,Europe,Eastern Europe,Ukraine,Crimea,,Kerch
194.24.190.9,4,267,DNS Server: undefined-190-9.tvoetv.com.ru,UA,Europe,Eastern Europe,Ukraine,Sebastopol City,,Sevastopol
213.111.121.178,4,28925,DNS Server: unused-213.111.121.178.bilink.ua,UA,Europe,Eastern Europe,Ukraine,Kyiv City,,Kyiv
193.192.37.178,4,222,DNS Server: vpn178-37-192-193.lds.online,UA,Europe,Eastern Europe,Ukraine,Luhansk,,Luhansk
185.174.220.11,4,6,dokuchaevsk.info,UA,Europe,Eastern Europe,Ukraine,,,
194.28.86.114,4,30,domashniy.com.ua,UA,Europe,Eastern Europe,Ukraine,,,
62.149.27.200,4,48,domik.net,UA,Europe,Eastern Europe,Ukraine,Kyiv City,,Kyiv
77.52.182.98,4,39,don-sky.org.ua,UA,Europe,Eastern Europe,Ukraine,Odessa,,Balta
62.149.5.12,4,107088,donor.org.ua,UA,Europe,Eastern Europe,Ukraine,Kyiv City,,Kyiv
91.239.234.167,4,4,dovzhenkocentre.org,UA,Europe,Eastern Europe,Ukraine,,,
195.64.190.1,4,8,dp.gov.ua,UA,Europe,Eastern Europe,Ukraine,,,
194.150.107.20,4,5,dpchas.com.ua,UA,Europe,Eastern Europe,Ukraine,Dnipropetrovsk Oblast,,Dnipro
91.194.251.23,4,24,dream.net.ua,UA,Europe,Eastern Europe,Ukraine,Kyiv City,,Kyiv
89.184.73.65,4,56,drobak.com.ua,UA,Europe,Eastern Europe,Ukraine,Kyiv City,,Kyiv
91.203.63.75,4,84,dropmefiles.com.ua,UA,Europe,Eastern Europe,Ukraine,Dnipropetrovsk Oblast,,Dnipro
185.174.220.61,4,2,ds7.com.ua,UA,Europe,Eastern Europe,Ukraine,,,
77.88.197.6,4,-2,dsbt.gov.ua,UA,Europe,Eastern Europe,Ukraine,,,
89.184.72.81,4,7,dspu.edu.ua,UA,Europe,Eastern Europe,Ukraine,Kyiv City,,Kyiv
89.184.79.187,4,9,dveribelorussii.md,UA,Europe,Eastern Europe,Ukraine,Kyiv City,,Kyiv
185.68.16.149,4,4,dvnshu.com,UA,Europe,Eastern Europe,Ukraine,,,
194.28.85.252,4,3,dzyga.com,UA,Europe,Eastern Europe,Ukraine,,,
91.239.233.29,4,18,e-altsest.com,UA,Europe,Eastern Europe,Ukraine,,,
185.104.45.17,4,4,e-decor.com.ua,UA,Europe,Eastern Europe,Ukraine,,,
45.129.97.9,4,61915,e-schools.info,UA,Europe,Eastern Europe,Ukraine,,,
185.104.45.95,4,6,easyel.com.ua,UA,Europe,Eastern Europe,Ukraine,,,
89.184.90.176,4,7,ecoaction.org.ua,UA,Europe,Eastern Europe,Ukraine,Kyiv City,,Kyiv
185.68.16.94,4,90,econa.org.ua,UA,Europe,Eastern Europe,Ukraine,,,
89.184.88.99,4,4,ecosoft.ua,UA,Europe,Eastern Europe,Ukraine,Kyiv City,,Kyiv
185.104.45.60,4,3,ecotechnica.com.ua,UA,Europe,Eastern Europe,Ukraine,,,
78.109.19.21,4,21,ecsambo.org,UA,Europe,Eastern Europe,Ukraine,,,
77.87.196.28,4,5,eden.ua,UA,Europe,Eastern Europe,Ukraine,Kyiv City,,Kyiv
89.184.77.198,4,20,edukation.com.ua,UA,Europe,Eastern Europe,Ukraine,Kyiv City,,Kyiv
77.120.109.205,4,49,ek.ua,UA,Europe,Eastern Europe,Ukraine,Kyiv City,,Kyiv
89.184.70.105,4,88,electrica-shop.com.ua,UA,Europe,Eastern Europe,Ukraine,Kyiv City,,Kyiv
185.68.16.197,4,102,electrichouse.com.ua,UA,Europe,Eastern Europe,Ukraine,,,
217.76.194.115,4,9,elektrovesti.net,UA,Europe,Eastern Europe,Ukraine,Kyiv City,,Kyiv
185.68.16.19,4,37,elit-web.ua,UA,Europe,Eastern Europe,Ukraine,,,
195.12.59.36,4,9,elitzoo.com.ua,UA,Europe,Eastern Europe,Ukraine,Kyiv City,,Kyiv
185.65.245.190,4,10,elvorti.com,UA,Europe,Eastern Europe,Ukraine,,,
89.184.76.102,4,7,emarket.ua,UA,Europe,Eastern Europe,Ukraine,Kyiv City,,Kyiv
194.54.88.133,4,39,emarketing.com.ua,UA,Europe,Eastern Europe,Ukraine,,,
195.248.234.114,4,7,eo.gov.ua,UA,Europe,Eastern Europe,Ukraine,,,
185.68.16.22,4,4,eos-klinkier.com.ua,UA,Europe,Eastern Europe,Ukraine,,,
89.184.90.15,4,7,epo.org.ua,UA,Europe,Eastern Europe,Ukraine,Kyiv City,,Kyiv
185.104.45.83,4,4,epos.ua,UA,Europe,Eastern Europe,Ukraine,,,
77.222.139.43,4,119,ersel.com.ua,UA,Europe,Eastern Europe,Ukraine,Kyiv City,,Kyiv
139.28.37.239,4,14,essentialsclothinguk.com,UA,Europe,Eastern Europe,Ukraine,Kyiv City,,Kyiv
77.87.199.207,4,19,estet-portal.com,UA,Europe,Eastern Europe,Ukraine,Kyiv City,,Kyiv
77.83.103.100,4,11,esu.com.ua,UA,Europe,Eastern Europe,Ukraine,,,
185.156.43.158,4,11,etnodim.com.ua,UA,Europe,Eastern Europe,Ukraine,,,
185.68.16.55,4,60,eubam.org,UA,Europe,Eastern Europe,Ukraine,,,
91.218.212.85,4,25,eurabota.ua,UA,Europe,Eastern Europe,Ukraine,,,
213.160.150.149,4,13102,eurolab.ua,UA,Europe,Eastern Europe,Ukraine,Kyiv City,,Kyiv
195.216.226.16,4,5,euroosvita.net,UA,Europe,Eastern Europe,Ukraine,,,
185.104.45.117,4,8,eurosiz.ua,UA,Europe,Eastern Europe,Ukraine,,,
185.68.16.110,4,25,evakuator-ua.com,UA,Europe,Eastern Europe,Ukraine,,,
92.112.187.21,4,3,executive-clean.com,UA,Europe,Eastern Europe,Ukraine,,,
89.184.76.145,4,12,expert.com.ua,UA,Europe,Eastern Europe,Ukraine,Kyiv City,,Kyiv
185.156.43.119,4,5,expetro.com.ua,UA,Europe,Eastern Europe,Ukraine,,,
185.254.194.90,4,5,export.gov.ua,UA,Europe,Eastern Europe,Ukraine,,,
195.248.225.63,4,280,extremstyle.ua,UA,Europe,Eastern Europe,Ukraine,,,
194.28.87.164,4,21,fanat.ua,UA,Europe,Eastern Europe,Ukraine,,,
93.170.123.39,4,-4,fanatiki.com,UA,Europe,Eastern Europe,Ukraine,Lviv,,Lviv
62.149.25.84,4,9,fashionweek.ua,UA,Europe,Eastern Europe,Ukraine,Kyiv City,,Kyiv
93.190.41.234,4,-146,fastdrive.com.ua,UA,Europe,Eastern Europe,Ukraine,,,
185.156.43.187,4,48,favor.com.ua,UA,Europe,Eastern Europe,Ukraine,,,
77.87.193.24,4,37,favoritti.com,UA,Europe,Eastern Europe,Ukraine,Kyiv City,,Kyiv
91.196.0.6,4,734,fcdnipro.ua,UA,Europe,Eastern Europe,Ukraine,,,
31.131.16.210,4,1095604,femto.com.ua,UA,Europe,Eastern Europe,Ukraine,Lviv,,Lviv
81.17.138.62,4,3,feskov.ua,UA,Europe,Eastern Europe,Ukraine,Kharkivs’ka Oblast’,,Kharkiv
185.104.45.112,4,10,ffr.org.ua,UA,Europe,Eastern Europe,Ukraine,,,
185.233.38.235,4,4,fhu.com.ua,UA,Europe,Eastern Europe,Ukraine,,,
91.234.33.173,4,46,fifaua.org,UA,Europe,Eastern Europe,Ukraine,Kyiv Oblast,,
91.218.212.51,4,6,film.ua,UA,Europe,Eastern Europe,Ukraine,,,
185.68.16.7,4,5,finbalance.com.ua,UA,Europe,Eastern Europe,Ukraine,,,
185.65.246.28,4,4,fishingstock.ua,UA,Europe,Eastern Europe,Ukraine,,,
77.87.196.233,4,31,fit4brain.com,UA,Europe,Eastern Europe,Ukraine,Kyiv City,,Kyiv
92.112.189.15,4,41,flashugnews.com,UA,Europe,Eastern Europe,Ukraine,,,
194.33.180.208,4,5,flora24.com.ua,UA,Europe,Eastern Europe,Ukraine,Kyiv City,,Kyiv
89.184.77.47,4,9,floristics.info,UA,Europe,Eastern Europe,Ukraine,Kyiv City,,Kyiv
92.112.197.204,4,3,fonmarketplace.com,UA,Europe,Eastern Europe,Ukraine,,,
62.149.25.33,4,143,footwear.ua,UA,Europe,Eastern Europe,Ukraine,Kyiv City,,Kyiv
194.28.172.238,4,8,formodessa.com,UA,Europe,Eastern Europe,Ukraine,,,
89.184.74.193,4,5,forter.com.ua,UA,Europe,Eastern Europe,Ukraine,Kyiv City,,Kyiv
185.68.16.165,4,6,forumsadovodov.com.ua,UA,Europe,Eastern Europe,Ukraine,,,
83.137.88.13,4,3,forward-bank.com,UA,Europe,Eastern Europe,Ukraine,,,
185.68.16.78,4,16,forwardprint.com.ua,UA,Europe,Eastern Europe,Ukraine,,,
185.68.16.103,4,32,foxmart.ua,UA,Europe,Eastern Europe,Ukraine,,,
94.176.197.158,4,188,fpsu.org.ua,UA,Europe,Eastern Europe,Ukraine,Kyiv City,,Kyiv
194.0.200.202,4,8,freehost.com.ua,UA,Europe,Eastern Europe,Ukraine,,,
195.248.234.85,4,14,froster.org,UA,Europe,Eastern Europe,Ukraine,,,
185.104.45.130,4,4,fru.ua,UA,Europe,Eastern Europe,Ukraine,,,
91.200.40.49,4,757,full-chip.net,UA,Europe,Eastern Europe,Ukraine,,,
213.169.83.14,4,55,funduk.ua,UA,Europe,Eastern Europe,Ukraine,,,
45.154.116.150,4,32,fungodoctor.com.ua,UA,Europe,Eastern Europe,Ukraine,Kyiv Oblast,,
89.184.77.193,4,9,funquest.com.ua,UA,Europe,Eastern Europe,Ukraine,Kyiv City,,Kyiv
89.184.78.74,4,4,fw-daily.com,UA,Europe,Eastern Europe,Ukraine,Kyiv City,,Kyiv
185.68.16.59,4,39,galactic.org.ua,UA,Europe,Eastern Europe,Ukraine,,,
193.169.188.254,4,5,gambling-law-us.com,UA,Europe,Eastern Europe,Ukraine,Kyiv City,,Kyiv
92.112.189.127,4,6,garagetransformed.com,UA,Europe,Eastern Europe,Ukraine,,,
91.206.30.88,4,6,garantpartners.com.ua,UA,Europe,Eastern Europe,Ukraine,,,
185.233.38.24,4,10,gazda.ua,UA,Europe,Eastern Europe,Ukraine,,,
89.184.79.135,4,94,geniusmarketing.me,UA,Europe,Eastern Europe,Ukraine,Kyiv City,,Kyiv
193.150.97.16,4,47,geoapteka.ua,UA,Europe,Eastern Europe,Ukraine,,,
194.28.86.15,4,10,gik-team.com,UA,Europe,Eastern Europe,Ukraine,,,
91.234.24.27,4,17,giznet.net,UA,Europe,Eastern Europe,Ukraine,Odessa,,Dachne
185.104.45.107,4,6,glamglow.com.ua,UA,Europe,Eastern Europe,Ukraine,,,
195.138.81.101,4,1,glasweb.com,UA,Europe,Eastern Europe,Ukraine,Odessa,,Odesa
31.41.216.88,4,8,globalweb.net.ua,UA,Europe,Eastern Europe,Ukraine,,,
89.184.91.59,4,6,globusbank.com.ua,UA,Europe,Eastern Europe,Ukraine,Kyiv City,,Kyiv
185.46.90.26,4,-31918,gms.net,UA,Europe,Eastern Europe,Ukraine,,,
89.184.72.122,4,37,gogetnews.info,UA,Europe,Eastern Europe,Ukraine,Kyiv City,,Kyiv
195.64.224.189,4,6,golos.com.ua,UA,Europe,Eastern Europe,Ukraine,,,
89.184.95.225,4,6,golosua.com,UA,Europe,Eastern Europe,Ukraine,Kyiv City,,Kyiv
91.225.138.215,4,27,gorodkiev.com.ua,UA,Europe,Eastern Europe,Ukraine,,,
185.68.16.154,4,2,goroshina.ua,UA,Europe,Eastern Europe,Ukraine,,,
185.233.37.67,4,4,grade.ua,UA,Europe,Eastern Europe,Ukraine,,,
185.104.45.163,4,6,grainexpo.com.ua,UA,Europe,Eastern Europe,Ukraine,,,
77.87.193.198,4,52,grandbiser.com,UA,Europe,Eastern Europe,Ukraine,Kyiv City,,Kyiv
185.104.45.139,4,36,grandeco.com.ua,UA,Europe,Eastern Europe,Ukraine,,,
195.191.25.238,4,21,grandinstrument.ua,UA,Europe,Eastern Europe,Ukraine,,,
185.104.45.116,4,7,gruzar.com.ua,UA,Europe,Eastern Europe,Ukraine,,,
185.68.16.53,4,3,gutains.com.ua,UA,Europe,Eastern Europe,Ukraine,,,
185.168.131.128,4,1830,gx.net.ua,UA,Europe,Eastern Europe,Ukraine,,,
185.104.45.135,4,3,hairlife.ru,UA,Europe,Eastern Europe,Ukraine,,,
185.104.45.33,4,5,hammer.com.ua,UA,Europe,Eastern Europe,Ukraine,,,
178.20.157.132,4,3,hardfitness.com.ua,UA,Europe,Eastern Europe,Ukraine,Kyiv City,,Kyiv
130.0.235.103,4,-6653,hasan.com.ua,UA,Europe,Eastern Europe,Ukraine,Kyiv City,,Kyiv
185.104.45.97,4,6,hawaiisecuritycameras.com,UA,Europe,Eastern Europe,Ukraine,,,
91.232.31.230,4,5,health-ua.com,UA,Europe,Eastern Europe,Ukraine,Mykolaiv,,Mykolayiv
185.68.16.190,4,6,helianth-tour.com,UA,Europe,Eastern Europe,Ukraine,,,
185.25.117.162,4,6,heroesportal.net,UA,Europe,Eastern Europe,Ukraine,,,
91.194.251.87,4,6,hiblogger.net,UA,Europe,Eastern Europe,Ukraine,Kyiv City,,Kyiv
89.184.68.36,4,-2,hitfm.ua,UA,Europe,Eastern Europe,Ukraine,Kyiv City,,Kyiv
77.120.121.243,4,8323491,hnb.com.ua,UA,Europe,Eastern Europe,Ukraine,Kyiv City,,Kyiv
212.111.212.228,4,3,hneu.edu.ua,UA,Europe,Eastern Europe,Ukraine,,,
91.228.146.10,4,13,ho.ua,UA,Europe,Eastern Europe,Ukraine,,,
89.184.68.12,4,20,hod-konem.com,UA,Europe,Eastern Europe,Ukraine,Kyiv City,,Kyiv
77.87.194.74,4,67,holodomorct.org,UA,Europe,Eastern Europe,Ukraine,Kyiv City,,Kyiv
91.200.40.10,4,826,holstprint.com.ua,UA,Europe,Eastern Europe,Ukraine,,,
185.68.16.207,4,53,home-divan.ru,UA,Europe,Eastern Europe,Ukraine,,,
194.28.84.131,4,5,honda.ua,UA,Europe,Eastern Europe,Ukraine,,,
185.68.16.131,4,45,hostgid.net,UA,Europe,Eastern Europe,Ukraine,,,
77.120.124.80,4,12,hrliga.com,UA,Europe,Eastern Europe,Ukraine,Kyiv City,,Kyiv
91.200.41.251,4,49,hvosting.ua,UA,Europe,Eastern Europe,Ukraine,,,
77.87.194.209,4,5,hyundai.com.ua,UA,Europe,Eastern Europe,Ukraine,Kyiv City,,Kyiv
185.68.16.28,4,6,i-posud.com.ua,UA,Europe,Eastern Europe,Ukraine,,,
89.184.95.72,4,35,icm.com.ua,UA,Europe,Eastern Europe,Ukraine,Kyiv City,,Kyiv
91.208.115.38,4,-8,idgod.ph,UA,Europe,Eastern Europe,Ukraine,,,
31.41.217.68,4,48,idgu.edu.ua,UA,Europe,Eastern Europe,Ukraine,,,
89.184.74.212,4,11,iea.gov.ua,UA,Europe,Eastern Europe,Ukraine,Kyiv City,,Kyiv
91.195.53.30,4,16,ier.com.ua,UA,Europe,Eastern Europe,Ukraine,,,
185.68.16.72,4,20,ifix.ua,UA,Europe,Eastern Europe,Ukraine,,,
89.184.78.139,4,9,iforum.ua,UA,Europe,Eastern Europe,Ukraine,Kyiv City,,Kyiv
176.111.63.44,4,6,igniteoutsourcing.com,UA,Europe,Eastern Europe,Ukraine,Kherson Oblast,,Velyka Oleksandrivka
212.111.193.193,4,4,iitta.gov.ua,UA,Europe,Eastern Europe,Ukraine,,,
212.111.192.250,4,4,iitta.gov.ua,UA,Europe,Eastern Europe,Ukraine,,,
89.184.89.223,4,12,ikra-shop.com.ua,UA,Europe,Eastern Europe,Ukraine,Kyiv City,,Kyiv
89.184.76.249,4,28,ilenta.com,UA,Europe,Eastern Europe,Ukraine,Kyiv City,,Kyiv
185.68.16.39,4,27,ilt.ua,UA,Europe,Eastern Europe,Ukraine,,,
195.66.210.31,4,10,im.ge,UA,Europe,Eastern Europe,Ukraine,,,
195.191.25.9,4,10,imbf.org,UA,Europe,Eastern Europe,Ukraine,,,
195.39.197.221,4,3,imena.ua,UA,Europe,Eastern Europe,Ukraine,Kyiv City,,Kyiv
193.239.68.43,4,24593414,img.com.ua,UA,Europe,Eastern Europe,Ukraine,,,
62.149.28.83,4,5,imzo.gov.ua,UA,Europe,Eastern Europe,Ukraine,Kyiv City,,Kyiv
194.28.84.123,4,4,industriya.com,UA,Europe,Eastern Europe,Ukraine,,,
92.112.190.54,4,57,inlabs.la,UA,Europe,Eastern Europe,Ukraine,,,
31.41.221.243,4,8,inmart.online,UA,Europe,Eastern Europe,Ukraine,,,
89.184.72.9,4,19,innet-trading.com,UA,Europe,Eastern Europe,Ukraine,Kyiv City,,Kyiv
89.184.88.136,4,24,insait.ua,UA,Europe,Eastern Europe,Ukraine,Kyiv City,,Kyiv
31.131.24.40,4,2,inspired.com.ua,UA,Europe,Eastern Europe,Ukraine,Lviv,,Lviv
194.28.172.205,4,-275,institutfrancais-ukraine.com,UA,Europe,Eastern Europe,Ukraine,,,
77.87.199.124,4,34,interia.com.ua,UA,Europe,Eastern Europe,Ukraine,Kyiv City,,Kyiv
185.174.220.72,4,4,internetmosque.net,UA,Europe,Eastern Europe,Ukraine,,,
89.184.90.94,4,22,interpipe.biz,UA,Europe,Eastern Europe,Ukraine,Kyiv City,,Kyiv
91.239.234.70,4,14,ipvnews.org,UA,Europe,Eastern Europe,Ukraine,,,
185.104.45.40,4,4,isarastrology.org,UA,Europe,Eastern Europe,Ukraine,,,
89.184.79.214,4,36,istore.ua,UA,Europe,Eastern Europe,Ukraine,Kyiv City,,Kyiv
185.104.45.98,4,2,istroy.com.ua,UA,Europe,Eastern Europe,Ukraine,,,
77.87.199.37,4,49,it-kharkiv.com,UA,Europe,Eastern Europe,Ukraine,Kyiv City,,Kyiv
91.209.51.6,4,60,it-tv.org,UA,Europe,Eastern Europe,Ukraine,,,
89.184.78.214,4,81,itarena.ua,UA,Europe,Eastern Europe,Ukraine,Kyiv City,,Kyiv
89.184.78.203,4,32,itc-compass.com,UA,Europe,Eastern Europe,Ukraine,Kyiv City,,Kyiv
134.249.129.195,4,3,itkr.com.ua,UA,Europe,Eastern Europe,Ukraine,Kyiv City,,Kyiv
185.156.41.6,4,4,iurii.com,UA,Europe,Eastern Europe,Ukraine,,,
185.68.16.4,4,4,ivepl.com.ua,UA,Europe,Eastern Europe,Ukraine,,,
194.28.86.30,4,7,izmail-city.com,UA,Europe,Eastern Europe,Ukraine,,,
91.200.40.29,4,767,izmail-tour.com,UA,Europe,Eastern Europe,Ukraine,,,
89.184.76.241,4,16,izmail.es,UA,Europe,Eastern Europe,Ukraine,Kyiv City,,Kyiv
195.191.25.40,4,34,jewelshop.com.ua,UA,Europe,Eastern Europe,Ukraine,,,
82.144.223.84,4,2,jkg-portal.com.ua,UA,Europe,Eastern Europe,Ukraine,Kyiv City,,Kyiv
91.206.201.62,4,13490,jnsm.com.ua,UA,Europe,Eastern Europe,Ukraine,,,
178.20.158.124,4,2,jobs.ua,UA,Europe,Eastern Europe,Ukraine,Kyiv City,,Kyiv
91.222.138.122,4,14,joomla-master.org,UA,Europe,Eastern Europe,Ukraine,,,
91.239.234.10,4,6,jpoil.com.ua,UA,Europe,Eastern Europe,Ukraine,,,
89.184.79.129,4,6,juridicheskij-supermarket.ua,UA,Europe,Eastern Europe,Ukraine,Kyiv City,,Kyiv
89.184.82.219,4,-1036053,justsay.ru,UA,Europe,Eastern Europe,Ukraine,Kyiv City,,Kyiv
91.231.85.28,4,45,kalambus.com,UA,Europe,Eastern Europe,Ukraine,,,
185.237.206.162,4,7,kalush.info,UA,Europe,Eastern Europe,Ukraine,,,
185.233.117.209,4,2,karpataljalap.net,UA,Europe,Eastern Europe,Ukraine,Kyiv City,,Kyiv
91.200.40.48,4,752,katyababash.com,UA,Europe,Eastern Europe,Ukraine,,,
92.112.92.50,4,11,kavbet.org,UA,Europe,Eastern Europe,Ukraine,,,
193.189.127.180,4,91803,kdu.edu.ua,UA,Europe,Eastern Europe,Ukraine,Poltava Oblast,,Kremenchug
95.47.123.226,4,3,keaz.com.ua,UA,Europe,Eastern Europe,Ukraine,Dnipropetrovsk Oblast,,Dnipro
185.68.16.169,4,4,kendoguide.org,UA,Europe,Eastern Europe,Ukraine,,,
193.107.172.124,4,4,kharkiv.com,UA,Europe,Eastern Europe,Ukraine,,,
89.184.76.170,4,5,khersonci.com.ua,UA,Europe,Eastern Europe,Ukraine,Kyiv City,,Kyiv
78.152.160.15,4,3,khmelnytskyi.ua,UA,Europe,Eastern Europe,Ukraine,Khmelnytskyi Oblast,,Khmelnytskyi
194.28.84.70,4,-17510,kibit.edu.ua,UA,Europe,Eastern Europe,Ukraine,,,
89.184.68.161,4,-3,kidstaff.com.ua,UA,Europe,Eastern Europe,Ukraine,Kyiv City,,Kyiv
212.113.38.115,4,1910,kievisp.com,UA,Europe,Eastern Europe,Ukraine,Kyiv City,,Kyiv
185.68.16.98,4,3,kievkayaks.com,UA,Europe,Eastern Europe,Ukraine,,,
77.87.195.195,4,36,kiis.com.ua,UA,Europe,Eastern Europe,Ukraine,Kyiv City,,Kyiv
31.131.24.20,4,5,kinder-moda.com.ua,UA,Europe,Eastern Europe,Ukraine,Lviv,,Lviv
91.194.251.147,4,51,kino-teatr.ua,UA,Europe,Eastern Europe,Ukraine,Kyiv City,,Kyiv
185.68.16.23,4,26,kino.net.ua,UA,Europe,Eastern Europe,Ukraine,,,
212.42.83.135,4,43,kinoafisha.ua,UA,Europe,Eastern Europe,Ukraine,,,
195.248.234.111,4,-775,kinogallery.com,UA,Europe,Eastern Europe,Ukraine,,,
91.200.41.203,4,20,kinowar.com,UA,Europe,Eastern Europe,Ukraine,,,
195.234.4.61,4,4,kitsunekko.net,UA,Europe,Eastern Europe,Ukraine,,,
185.68.16.205,4,52,klitschko-brothers.com,UA,Europe,Eastern Europe,Ukraine,,,
195.211.153.50,4,2,klyf.com.ua,UA,Europe,Eastern Europe,Ukraine,,,
78.152.160.245,4,4,km-oblrada.gov.ua,UA,Europe,Eastern Europe,Ukraine,Khmelnytskyi Oblast,,Khmelnytskyi
193.201.116.3,4,3,km.ua,UA,Europe,Eastern Europe,Ukraine,,,
91.200.40.114,4,6,kmbilka.com.ua,UA,Europe,Eastern Europe,Ukraine,,,
89.184.73.207,4,6,kms.com.ua,UA,Europe,Eastern Europe,Ukraine,Kyiv City,,Kyiv
45.12.1.24,4,-2,kmspico.io,UA,Europe,Eastern Europe,Ukraine,,,
193.254.216.206,4,3,kneu.edu.ua,UA,Europe,Eastern Europe,Ukraine,,,
31.128.182.4,4,17,knmu.edu.ua,UA,Europe,Eastern Europe,Ukraine,,,
185.233.38.88,4,25,knpu.gov.ua,UA,Europe,Eastern Europe,Ukraine,,,
91.202.128.77,4,236369,knu.ua,UA,Europe,Eastern Europe,Ukraine,Kyiv City,,Kyiv
185.104.45.58,4,17,knukim.edu.ua,UA,Europe,Eastern Europe,Ukraine,,,
212.109.61.162,4,-1,kolokray.com,UA,Europe,Eastern Europe,Ukraine,Kyiv City,,Kyiv
185.124.11.99,4,38,kolomyia24.com.ua,UA,Europe,Eastern Europe,Ukraine,,,
185.68.16.71,4,3,kolos-consulting.com,UA,Europe,Eastern Europe,Ukraine,,,
31.41.221.14,4,27,kombat.com.ua,UA,Europe,Eastern Europe,Ukraine,,,
62.149.5.36,4,8,konkors.com.ua,UA,Europe,Eastern Europe,Ukraine,Kyiv City,,Kyiv
185.68.16.31,4,8,konotop24.org.ua,UA,Europe,Eastern Europe,Ukraine,,,
77.87.192.113,4,10,koruna.ua,UA,Europe,Eastern Europe,Ukraine,Kyiv City,,Kyiv
178.20.154.4,4,10801119,kosmodrom.com.ua,UA,Europe,Eastern Europe,Ukraine,Kyiv City,,Kyiv
193.227.210.62,4,3,koveltaxi.com.ua,UA,Europe,Eastern Europe,Ukraine,,,
80.91.164.19,4,49,kpi.ua,UA,Europe,Eastern Europe,Ukraine,Kyiv City,,
91.212.203.46,4,19,kpnu.edu.ua,UA,Europe,Eastern Europe,Ukraine,,,
91.239.233.100,4,412,kr-rada.gov.ua,UA,Europe,Eastern Europe,Ukraine,,,
89.184.79.183,4,123,kremenchug.info,UA,Europe,Eastern Europe,Ukraine,Kyiv City,,Kyiv
193.106.203.11,4,11,krm.gov.ua,UA,Europe,Eastern Europe,Ukraine,,,
194.28.86.125,4,34,krolevets.com,UA,Europe,Eastern Europe,Ukraine,,,
62.182.84.119,4,-6,kronopolo.com,UA,Europe,Eastern Europe,Ukraine,Kyiv City,,Kyiv
217.20.175.6,4,10,kronverskiy.ru,UA,Europe,Eastern Europe,Ukraine,Kyiv City,,Kyiv
185.104.45.160,4,7,kss-kaskad.org.ua,UA,Europe,Eastern Europe,Ukraine,,,
176.111.60.171,4,120,ktc.ua,UA,Europe,Eastern Europe,Ukraine,Kherson Oblast,,Velyka Oleksandrivka
77.87.192.83,4,6,ktozvonit.com.ua,UA,Europe,Eastern Europe,Ukraine,Kyiv City,,Kyiv
89.184.76.220,4,8,kuchma.org.ua,UA,Europe,Eastern Europe,Ukraine,Kyiv City,,Kyiv
89.184.91.149,4,31,kult-mebeli.com.ua,UA,Europe,Eastern Europe,Ukraine,Kyiv City,,Kyiv
185.104.45.84,4,22,kupit-gazobeton.com.ua,UA,Europe,Eastern Europe,Ukraine,,,
194.28.172.200,4,4,kurkul.com,UA,Europe,Eastern Europe,Ukraine,,,
91.200.40.45,4,859,kuzya.ua,UA,Europe,Eastern Europe,Ukraine,,,
213.160.146.51,4,26,kvs.gov.ua,UA,Europe,Eastern Europe,Ukraine,Kyiv City,,Kyiv
185.68.16.128,4,74,kvsz.com,UA,Europe,Eastern Europe,Ukraine,,,
185.124.10.129,4,6,kyiv-future.com.ua,UA,Europe,Eastern Europe,Ukraine,,,
89.184.74.113,4,4,kyivmaps.com,UA,Europe,Eastern Europe,Ukraine,Kyiv City,,Kyiv
185.68.16.70,4,3,kyivski.info,UA,Europe,Eastern Europe,Ukraine,,,
185.104.45.13,4,5,kymu.edu.ua,UA,Europe,Eastern Europe,Ukraine,,,
185.253.218.123,4,38,la2portal.com.ua,UA,Europe,Eastern Europe,Ukraine,Kyiv City,,Kyiv
178.20.152.157,4,99,ladan.com.ua,UA,Europe,Eastern Europe,Ukraine,Kyiv City,,Kyiv
91.239.232.41,4,28,laminat-parketdoska.com.ua,UA,Europe,Eastern Europe,Ukraine,,,
178.20.154.213,4,35,laserhouse.com.ua,UA,Europe,Eastern Europe,Ukraine,Kyiv City,,Kyiv
185.68.17.163,4,3,laserville.com,UA,Europe,Eastern Europe,Ukraine,,,
194.28.173.200,4,25,latifundist.com,UA,Europe,Eastern Europe,Ukraine,,,
89.184.76.190,4,4,lavra.ua,UA,Europe,Eastern Europe,Ukraine,Kyiv City,,Kyiv
185.68.16.25,4,3,lawgaw.com.ua,UA,Europe,Eastern Europe,Ukraine,,,
77.120.110.220,4,99,lawyer.ua,UA,Europe,Eastern Europe,Ukraine,Kyiv City,,Kyiv
194.44.147.22,4,-120,ldufk.edu.ua,UA,Europe,Eastern Europe,Ukraine,Lviv,,Lviv
185.68.16.153,4,3,le-vele.com.ua,UA,Europe,Eastern Europe,Ukraine,,,
195.182.194.174,4,12,leave-russia.org,UA,Europe,Eastern Europe,Ukraine,Lviv,,Lviv
91.200.40.38,4,54,ledass.com.ua,UA,Europe,Eastern Europe,Ukraine,,,
91.220.101.184,4,11,legzocasino.hu,UA,Europe,Eastern Europe,Ukraine,,,
91.222.137.38,4,7,leva.com.ua,UA,Europe,Eastern Europe,Ukraine,,,
193.218.118.42,4,45,library.lol,UA,Europe,Eastern Europe,Ukraine,Kyiv City,,Kyiv
185.233.116.20,4,1,like-themes.com,UA,Europe,Eastern Europe,Ukraine,Kyiv City,,Kyiv
176.114.3.207,4,5,likicontrol.com.ua,UA,Europe,Eastern Europe,Ukraine,Kyiv Oblast,,
195.248.225.65,4,-315,linija-svitla.ua,UA,Europe,Eastern Europe,Ukraine,,,
91.200.40.2,4,-438,linux.org.ua,UA,Europe,Eastern Europe,Ukraine,,,
89.184.68.20,4,69,liraland.ua,UA,Europe,Eastern Europe,Ukraine,Kyiv City,,Kyiv
194.28.172.226,4,18,litopys.org.ua,UA,Europe,Eastern Europe,Ukraine,,,
92.112.197.208,4,4,livesportworld.com,UA,Europe,Eastern Europe,Ukraine,,,
89.184.78.6,4,8,lks.ua,UA,Europe,Eastern Europe,Ukraine,Kyiv City,,Kyiv
193.193.193.93,4,-2185,ln.com.ua,UA,Europe,Eastern Europe,Ukraine,,,
195.24.145.118,4,577151,loga.gov.ua,UA,Europe,Eastern Europe,Ukraine,Dnipropetrovsk Oblast,,Dnipro
45.134.173.163,4,-9,lookmovie.ag,UA,Europe,Eastern Europe,Ukraine,,,
185.187.81.230,4,325,loungefm.com.ua,UA,Europe,Eastern Europe,Ukraine,,,
89.184.76.235,4,31,loveprint.com.ua,UA,Europe,Eastern Europe,Ukraine,Kyiv City,,Kyiv
91.200.41.28,4,68,loveyouhome.ua,UA,Europe,Eastern Europe,Ukraine,,,
185.91.75.16,4,31,lowcostbooks.com.ua,UA,Europe,Eastern Europe,Ukraine,Lviv,,Lviv
178.212.110.31,4,-18755,lpnu.ua,UA,Europe,Eastern Europe,Ukraine,Lviv,,Lviv
195.234.4.26,4,3,ltd.ua,UA,Europe,Eastern Europe,Ukraine,,,
77.87.196.220,4,11,lubimivka.com,UA,Europe,Eastern Europe,Ukraine,Kyiv City,,Kyiv
89.184.89.159,4,22,luxgroups.ua,UA,Europe,Eastern Europe,Ukraine,Kyiv City,,Kyiv
193.150.88.11,4,-6512,luxoptica.ua,UA,Europe,Eastern Europe,Ukraine,,,
193.238.23.1,4,-1272,lviv.net,UA,Europe,Eastern Europe,Ukraine,,,
193.19.230.130,4,-1272,lviv.net,UA,Europe,Eastern Europe,Ukraine,Kharkivs’ka Oblast’,,Kharkiv
185.68.16.112,4,2,lvivpost.net,UA,Europe,Eastern Europe,Ukraine,,,
185.68.16.122,4,2,lwo.aero,UA,Europe,Eastern Europe,Ukraine,,,
92.112.189.41,4,5,lyricadp.online,UA,Europe,Eastern Europe,Ukraine,,,
91.244.124.89,4,1,m1.tv,UA,Europe,Eastern Europe,Ukraine,,,
31.41.220.194,4,34,m2motors.com.ua,UA,Europe,Eastern Europe,Ukraine,,,
185.124.10.100,4,4,m3cargo.com,UA,Europe,Eastern Europe,Ukraine,,,
89.184.74.41,4,8,macmillanukraine.com,UA,Europe,Eastern Europe,Ukraine,Kyiv City,,Kyiv
91.239.233.145,4,12,macstore.org.ua,UA,Europe,Eastern Europe,Ukraine,,,
185.68.16.143,4,6,madmike.com.ua,UA,Europe,Eastern Europe,Ukraine,,,
194.28.86.161,4,13,magdek.com.ua,UA,Europe,Eastern Europe,Ukraine,,,
89.184.78.145,4,7,magniflex.ua,UA,Europe,Eastern Europe,Ukraine,Kyiv City,,Kyiv
193.105.70.75,4,22,magnolia-tv.com,UA,Europe,Eastern Europe,Ukraine,,,
178.20.156.198,4,3,makivka.com,UA,Europe,Eastern Europe,Ukraine,Kyiv City,,Kyiv
185.68.16.99,4,1,malls.ua,UA,Europe,Eastern Europe,Ukraine,,,
176.114.9.30,4,5,mamabook.com.ua,UA,Europe,Eastern Europe,Ukraine,Kyiv Oblast,,
91.205.18.71,4,52,mapsland.com,UA,Europe,Eastern Europe,Ukraine,Kyiv City,,Kyiv
195.248.234.110,4,22,marathon.ua,UA,Europe,Eastern Europe,Ukraine,,,
185.68.16.105,4,63,margunas.com.ua,UA,Europe,Eastern Europe,Ukraine,,,
77.87.197.245,4,51,maristella.com.ua,UA,Europe,Eastern Europe,Ukraine,Kyiv City,,Kyiv
91.239.232.212,4,7,market-24.com.ua,UA,Europe,Eastern Europe,Ukraine,,,
89.184.93.71,4,4,marketmebeli.com,UA,Europe,Eastern Europe,Ukraine,Kyiv City,,Kyiv
193.169.188.66,4,34,martin.com.ua,UA,Europe,Eastern Europe,Ukraine,Kyiv City,,Kyiv
92.112.188.185,4,43,marveljacket.com,UA,Europe,Eastern Europe,Ukraine,,,
77.87.196.30,4,20,maxiclimate.com.ua,UA,Europe,Eastern Europe,Ukraine,Kyiv City,,Kyiv
93.190.45.81,4,0,maxlift.info,UA,Europe,Eastern Europe,Ukraine,,,
217.196.160.19,4,7,maxnet.ua,UA,Europe,Eastern Europe,Ukraine,Ternopil Oblast,,Ternopil
89.184.78.215,4,28,mayak.org.ua,UA,Europe,Eastern Europe,Ukraine,Kyiv City,,Kyiv
185.68.16.80,4,3,maybel.ua,UA,Europe,Eastern Europe,Ukraine,,,
193.169.188.189,4,4,mazdaclub.ua,UA,Europe,Eastern Europe,Ukraine,Kyiv City,,Kyiv
89.184.73.84,4,4,mbastrategy.ua,UA,Europe,Eastern Europe,Ukraine,Kyiv City,,Kyiv
81.17.134.48,4,814,mbk.com.ua,UA,Europe,Eastern Europe,Ukraine,Kharkivs’ka Oblast’,,Kharkiv
81.17.128.2,4,1,mbk.com.ua,UA,Europe,Eastern Europe,Ukraine,Kharkivs’ka Oblast’,,Kharkiv
77.87.195.32,4,3,mcgroup.com.ua,UA,Europe,Eastern Europe,Ukraine,Kyiv City,,Kyiv
195.138.68.91,4,2,mclub.com.ua,UA,Europe,Eastern Europe,Ukraine,Odessa,,Odesa
91.222.137.241,4,2,mcstore.com.ua,UA,Europe,Eastern Europe,Ukraine,,,
89.184.78.45,4,21,mdclinics.com.ua,UA,Europe,Eastern Europe,Ukraine,Kyiv City,,Kyiv
212.66.58.7,4,6,mdomtv.net,UA,Europe,Eastern Europe,Ukraine,Donetsk,,Donetsk
217.77.211.132,4,12,mdu.edu.ua,UA,Europe,Eastern Europe,Ukraine,Mykolaiv,,Mykolayiv
91.203.147.211,4,17,mebel-fabrik.com.ua,UA,Europe,Eastern Europe,Ukraine,Kyiv City,,Kyiv
83.150.204.66,4,40,mebelok.com,UA,Europe,Eastern Europe,Ukraine,,,
91.206.200.198,4,43,meblens.com.ua,UA,Europe,Eastern Europe,Ukraine,,,
62.149.5.102,4,60,med-magazin.ua,UA,Europe,Eastern Europe,Ukraine,Kyiv City,,Kyiv
89.184.74.49,4,5,medcity.ua,UA,Europe,Eastern Europe,Ukraine,Kyiv City,,Kyiv
45.94.157.217,4,7,mediamapa.com.ua,UA,Europe,Eastern Europe,Ukraine,Lviv,,Lviv
91.194.251.225,4,8,mediananny.com,UA,Europe,Eastern Europe,Ukraine,Kyiv City,,Kyiv
185.104.45.28,4,7,medicina.ua,UA,Europe,Eastern Europe,Ukraine,,,
62.149.23.194,4,2,medtechnika.com.ua,UA,Europe,Eastern Europe,Ukraine,Kyiv City,,Kyiv
194.54.80.94,4,1330303,medtehnikalife.com.ua,UA,Europe,Eastern Europe,Ukraine,,,
91.206.200.121,4,44,megapari-bk.com,UA,Europe,Eastern Europe,Ukraine,,,
37.52.54.116,4,-13579,memory.gov.ua,UA,Europe,Eastern Europe,Ukraine,Kyiv City,,Kyiv
185.156.42.98,4,79,memorybook.org.ua,UA,Europe,Eastern Europe,Ukraine,,,
89.184.90.103,4,94,menslife.com,UA,Europe,Eastern Europe,Ukraine,Kyiv City,,Kyiv
185.68.16.194,4,25,merehead.com,UA,Europe,Eastern Europe,Ukraine,,,
91.216.232.45,4,30,meteo.gov.ua,UA,Europe,Eastern Europe,Ukraine,,,
77.87.192.194,4,17,metroui.org.ua,UA,Europe,Eastern Europe,Ukraine,Kyiv City,,Kyiv
195.39.197.223,4,2,mirohost.net,UA,Europe,Eastern Europe,Ukraine,Kyiv City,,Kyiv
62.122.204.251,4,8,miromark.com.ua,UA,Europe,Eastern Europe,Ukraine,Ivano-Frankivsk Oblast,,Ivano-Frankivsk
77.87.193.129,4,11,mirpola-dekora.com.ua,UA,Europe,Eastern Europe,Ukraine,Kyiv City,,Kyiv
185.233.117.82,4,6,mistaua.com,UA,Europe,Eastern Europe,Ukraine,Kyiv City,,Kyiv
185.68.16.167,4,61,mistercat.com.ua,UA,Europe,Eastern Europe,Ukraine,,,
46.164.169.29,4,7,mixw.net,UA,Europe,Eastern Europe,Ukraine,,,
93.190.40.195,4,-140,mnau.edu.ua,UA,Europe,Eastern Europe,Ukraine,,,
89.184.90.10,4,12,mnogomest.info,UA,Europe,Eastern Europe,Ukraine,Kyiv City,,Kyiv
193.200.255.37,4,-207919,modnaledi.com.ua,UA,Europe,Eastern Europe,Ukraine,,,
91.223.216.24,4,44,mojbred.com,UA,Europe,Eastern Europe,Ukraine,,,
45.154.117.20,4,39,molbuk.ua,UA,Europe,Eastern Europe,Ukraine,Kyiv Oblast,,
31.131.31.128,4,3530,moldfootball.com,UA,Europe,Eastern Europe,Ukraine,Lviv,,Lviv
185.230.88.181,4,10,molod-kredit.gov.ua,UA,Europe,Eastern Europe,Ukraine,Kyiv Oblast,,
185.168.130.230,4,3,morozov.com.ua,UA,Europe,Eastern Europe,Ukraine,,,
31.41.216.78,4,6,motion-design.org.ua,UA,Europe,Eastern Europe,Ukraine,,,
89.184.69.233,4,0,mozayka.com.ua,UA,Europe,Eastern Europe,Ukraine,Kyiv City,,Kyiv
185.104.45.44,4,4,mp2007.com.ua,UA,Europe,Eastern Europe,Ukraine,,,
185.68.16.32,4,3,mriyae.com.ua,UA,Europe,Eastern Europe,Ukraine,,,
185.104.45.132,4,14,mskukraine.com,UA,Europe,Eastern Europe,Ukraine,,,
185.128.235.3,4,3,msl.ua,UA,Europe,Eastern Europe,Ukraine,Kyiv City,,Kyiv
77.222.150.122,4,3,msl.ua,UA,Europe,Eastern Europe,Ukraine,Dnipropetrovsk Oblast,,Dnipro
185.68.16.184,4,81,music112.com.ua,UA,Europe,Eastern Europe,Ukraine,,,
91.197.129.127,4,55,my-addr.com,UA,Europe,Eastern Europe,Ukraine,,,
185.104.45.50,4,32,mybtmailx.com,UA,Europe,Eastern Europe,Ukraine,,,
185.68.16.142,4,26,mycitroen.club,UA,Europe,Eastern Europe,Ukraine,,,
62.149.0.215,4,35,mycounter.ua,UA,Europe,Eastern Europe,Ukraine,Kyiv City,,Kyiv
89.184.72.90,4,6,mycountry.com.ua,UA,Europe,Eastern Europe,Ukraine,Kyiv City,,Kyiv
91.196.52.205,4,8,myip-address.com,UA,Europe,Eastern Europe,Ukraine,Lviv,,Lviv
185.104.45.144,4,3,mypaydayloancash.com,UA,Europe,Eastern Europe,Ukraine,,,
92.112.187.32,4,41,myvafinancials.com,UA,Europe,Eastern Europe,Ukraine,,,
77.87.194.92,4,7,naas.gov.ua,UA,Europe,Eastern Europe,Ukraine,Kyiv City,,Kyiv
77.120.109.207,4,8,nadavi.com.ua,UA,Europe,Eastern Europe,Ukraine,Kyiv City,,Kyiv
185.65.244.185,4,12,naftusia.com,UA,Europe,Eastern Europe,Ukraine,,,
185.68.16.45,4,47,naiukraine.com,UA,Europe,Eastern Europe,Ukraine,,,
195.54.163.111,4,101,nalench.com,UA,Europe,Eastern Europe,Ukraine,,,
185.104.45.70,4,3,napolke.com.ua,UA,Europe,Eastern Europe,Ukraine,,,
195.140.246.4,4,31903,naqa.gov.ua,UA,Europe,Eastern Europe,Ukraine,,,
89.184.68.74,4,0,nashigroshi.org,UA,Europe,Eastern Europe,Ukraine,Kyiv City,,Kyiv
89.184.68.185,4,17,nature-revive.org,UA,Europe,Eastern Europe,Ukraine,Kyiv City,,Kyiv
195.178.145.165,4,13,nau.edu.ua,UA,Europe,Eastern Europe,Ukraine,,,
91.142.175.20,4,-30165,nazk.gov.ua,UA,Europe,Eastern Europe,Ukraine,Kyiv City,,Kyiv
89.184.72.111,4,6,nazva.net,UA,Europe,Eastern Europe,Ukraine,Kyiv City,,Kyiv
62.182.84.39,4,-7,nbastorecanada.ca,UA,Europe,Eastern Europe,Ukraine,Kyiv City,,Kyiv
77.87.195.88,4,5,nbc.ua,UA,Europe,Eastern Europe,Ukraine,Kyiv City,,Kyiv
185.68.16.56,4,3,nbookpart.com.ua,UA,Europe,Eastern Europe,Ukraine,,,
194.44.11.133,4,2,nbuv.gov.ua,UA,Europe,Eastern Europe,Ukraine,,,
185.68.16.9,4,4,ndiv.net,UA,Europe,Eastern Europe,Ukraine,,,
91.223.223.236,4,3,ndt-welding.com,UA,Europe,Eastern Europe,Ukraine,,,
193.19.229.165,4,2,neboley.com.ua,UA,Europe,Eastern Europe,Ukraine,Kharkivs’ka Oblast’,,Kharkiv
89.184.89.39,4,10,nefterynok.info,UA,Europe,Eastern Europe,Ukraine,Kyiv City,,Kyiv
185.156.42.99,4,5,neolit.ua,UA,Europe,Eastern Europe,Ukraine,,,
31.41.216.91,4,9,neuroradiology.org.ua,UA,Europe,Eastern Europe,Ukraine,,,
185.68.16.193,4,4,newdesign.com.ua,UA,Europe,Eastern Europe,Ukraine,,,
89.184.72.170,4,26,newhorizons.com.ua,UA,Europe,Eastern Europe,Ukraine,Kyiv City,,Kyiv
194.60.69.12,4,1832651,news2000.com.ua,UA,Europe,Eastern Europe,Ukraine,Kyiv City,,Kyiv
91.200.60.83,4,5,nibulon.com,UA,Europe,Eastern Europe,Ukraine,,,
45.12.2.63,4,0,nikefactorys.us,UA,Europe,Eastern Europe,Ukraine,,,
195.191.25.147,4,2,nikolia.com.ua,UA,Europe,Eastern Europe,Ukraine,,,
185.104.45.157,4,4,nikoss.com.ua,UA,Europe,Eastern Europe,Ukraine,,,
5.181.248.211,4,2,nkau.gov.ua,UA,Europe,Eastern Europe,Ukraine,Kyiv City,,Kyiv
92.112.186.170,4,3,nlsigns.com,UA,Europe,Eastern Europe,Ukraine,,,
185.67.1.214,4,5,nltu.edu.ua,UA,Europe,Eastern Europe,Ukraine,,,
185.237.206.136,4,6,nmiu.org,UA,Europe,Eastern Europe,Ukraine,,,
89.184.68.9,4,0,nobu.com.ua,UA,Europe,Eastern Europe,Ukraine,Kyiv City,,Kyiv
91.220.101.43,4,1,nomer.org,UA,Europe,Eastern Europe,Ukraine,,,
185.68.16.93,4,23,non-profit.nl,UA,Europe,Eastern Europe,Ukraine,,,
185.128.233.66,4,5,novaposhta.ua,UA,Europe,Eastern Europe,Ukraine,Kyiv City,,Kyiv
89.184.85.86,4,7,novaposhta.ua,UA,Europe,Eastern Europe,Ukraine,Kyiv City,,Kyiv
213.108.75.167,4,4,nplu.org,UA,Europe,Eastern Europe,Ukraine,Kyiv City,,Kyiv
212.111.197.11,4,-500254,npu.edu.ua,UA,Europe,Eastern Europe,Ukraine,Kyiv City,,Kyiv
91.225.138.153,4,20,nrada.gov.ua,UA,Europe,Eastern Europe,Ukraine,,,
89.184.77.238,4,10,nrfu.org.ua,UA,Europe,Eastern Europe,Ukraine,Kyiv City,,Kyiv
94.158.46.103,4,7,ntop.tv,UA,Europe,Eastern Europe,Ukraine,Luhansk,,Luhansk
193.107.172.116,4,2,nuczu.edu.ua,UA,Europe,Eastern Europe,Ukraine,,,
194.44.112.4,4,14,nung.edu.ua,UA,Europe,Eastern Europe,Ukraine,Volyn,,Novovolynsk
217.77.209.242,4,4,nuos.edu.ua,UA,Europe,Eastern Europe,Ukraine,Mykolaiv,,Mykolayiv
193.93.12.74,4,39,nuph.edu.ua,UA,Europe,Eastern Europe,Ukraine,Poltava Oblast,,Poltava
178.20.153.142,4,6,nusta.edu.ua,UA,Europe,Eastern Europe,Ukraine,Kyiv City,,Kyiv
185.250.23.18,4,48,obliksoft.com.ua,UA,Europe,Eastern Europe,Ukraine,Kyiv City,,Kyiv
185.68.16.121,4,30,obys.agency,UA,Europe,Eastern Europe,Ukraine,,,
89.184.91.154,4,21,ocean-wood.com,UA,Europe,Eastern Europe,Ukraine,Kyiv City,,Kyiv
185.67.2.10,4,32,odds2win.bet,UA,Europe,Eastern Europe,Ukraine,,,
185.68.16.129,4,18,odesskiy.com,UA,Europe,Eastern Europe,Ukraine,,,
193.0.61.149,4,30,offers.com.ua,UA,Europe,Eastern Europe,Ukraine,,,
193.105.210.36,4,16,ogo.ua,UA,Europe,Eastern Europe,Ukraine,,,
91.192.105.30,4,17,oiff.com.ua,UA,Europe,Eastern Europe,Ukraine,,,
185.68.16.191,4,4,okeanelzy.com,UA,Europe,Eastern Europe,Ukraine,,,
91.217.254.53,4,27,okey-motel.com.ua,UA,Europe,Eastern Europe,Ukraine,,,
194.54.88.132,4,34,okna-komfort.com.ua,UA,Europe,Eastern Europe,Ukraine,,,
194.54.88.134,4,15,okna-plastik.com.ua,UA,Europe,Eastern Europe,Ukraine,,,
31.41.221.72,4,-27825,oknograd.com.ua,UA,Europe,Eastern Europe,Ukraine,,,
31.131.18.23,4,17,olta.ua,UA,Europe,Eastern Europe,Ukraine,Lviv,,Lviv
92.112.189.81,4,23,omnilit.com,UA,Europe,Eastern Europe,Ukraine,,,
185.168.128.116,4,8,omr.gov.ua,UA,Europe,Eastern Europe,Ukraine,,,
91.239.232.47,4,5,oncolife.com.ua,UA,Europe,Eastern Europe,Ukraine,,,
185.128.235.121,4,60,onlinecorrector.com.ua,UA,Europe,Eastern Europe,Ukraine,Kyiv City,,Kyiv
91.230.25.102,4,9,Ookla Speedtest Server 1607: speedtest2.kvant.if.ua,UA,Europe,Eastern Europe,Ukraine,,,
178.210.192.26,4,1036337,Ookla Speedtest Server 1724: speed.cn.zp.ua,UA,Europe,Eastern Europe,Ukraine,Zaporizhzhia,,Zaporizhzhya
192.162.112.23,4,256,Ookla Speedtest Server 2121: st1.iconnect.net.ua,UA,Europe,Eastern Europe,Ukraine,Poltava Oblast,,Lubny
185.126.112.13,4,441,Ookla Speedtest Server 2299: mk.speedtest.omnilance.com,UA,Europe,Eastern Europe,Ukraine,Mykolaiv,,Mykolayiv
193.106.144.27,4,358,Ookla Speedtest Server 2558: test.campus-rv.net,UA,Europe,Eastern Europe,Ukraine,Rivne,,Rivne
91.236.251.13,4,340,Ookla Speedtest Server 3211: sp1.speedtest.vn.ua,UA,Europe,Eastern Europe,Ukraine,Vinnytsia,,Vinnytsia
81.24.208.8,4,320,Ookla Speedtest Server 3336: speedtest.trion.mk.ua,UA,Europe,Eastern Europe,Ukraine,Mykolaiv,,Mykolayiv
95.67.49.122,4,322,Ookla Speedtest Server 5447: speedtest.cosmonova.net,UA,Europe,Eastern Europe,Ukraine,Kyiv City,,Kyiv
91.224.178.3,4,205,Ookla Speedtest Server 5501: speedserver.tv9.net.ua,UA,Europe,Eastern Europe,Ukraine,Zakarpattia Oblast,,Berehove
212.26.128.168,4,291,Ookla Speedtest Server 5884: speedtest.adamant.net,UA,Europe,Eastern Europe,Ukraine,Kyiv City,,Kyiv
176.122.99.72,4,2484,Ookla Speedtest Server 6088: st1.utelecom.com.ua,UA,Europe,Eastern Europe,Ukraine,Kyiv City,,Kyiv
176.122.99.73,4,-822877,Ookla Speedtest Server 6099: st2.utelecom.com.ua,UA,Europe,Eastern Europe,Ukraine,Kyiv City,,Kyiv
91.200.55.8,4,-52866,Ookla Speedtest Server 6103: st3.utelecom.com.ua,UA,Europe,Eastern Europe,Ukraine,Dnipropetrovsk Oblast,,Marhanets
194.8.147.147,4,321,Ookla Speedtest Server 6291: spdt.intelekt.cv.ua,UA,Europe,Eastern Europe,Ukraine,Chernivtsi,,Chernivtsi
46.63.116.122,4,392,Ookla Speedtest Server 6330: speedtest0.x-city.ua,UA,Europe,Eastern Europe,Ukraine,Khmelnytskyi Oblast,,Khmelnytskyi
78.30.254.33,4,335,Ookla Speedtest Server 6819: speedtest.sevstar.net,UA,Europe,Eastern Europe,Ukraine,Sebastopol City,,Sevastopol
109.200.156.202,4,151,Ookla Speedtest Server 9069: st.azinet.ru,UA,Europe,Eastern Europe,Ukraine,Crimea,,Simferopol
176.122.108.67,4,-592388,Ookla Speedtest Server 9239: st5.utelecom.com.ua,UA,Europe,Eastern Europe,Ukraine,Vinnytsia,,Haisyn
46.175.160.83,4,398,Ookla Speedtest Server 12110: speed.norma4.ks.ua,UA,Europe,Eastern Europe,Ukraine,Kherson Oblast,,Kherson
193.93.216.52,4,319078,Ookla Speedtest Server 12786: speedtest.astra.in.ua,UA,Europe,Eastern Europe,Ukraine,Lviv,,Lviv
78.152.160.30,4,310,Ookla Speedtest Server 15531: spt.ic.km.ua,UA,Europe,Eastern Europe,Ukraine,Khmelnytskyi Oblast,,Khmelnytskyi
193.33.189.2,4,7,Ookla Speedtest Server 16181: vinasterisk.net,UA,Europe,Eastern Europe,Ukraine,,,
77.52.198.14,4,225,Ookla Speedtest Server 16747: speedtest.vodafone.ua,UA,Europe,Eastern Europe,Ukraine,Kyiv City,,Kyiv
45.89.90.11,4,195,Ookla Speedtest Server 17398: speedtest.kopiyka.org,UA,Europe,Eastern Europe,Ukraine,Lviv,,Lviv
91.195.90.15,4,277,Ookla Speedtest Server 17485: speedtest.gigabit.zp.ua,UA,Europe,Eastern Europe,Ukraine,Zaporizhzhia,,Zaporizhzhya
185.181.16.18,4,136,Ookla Speedtest Server 17498: speedtest.civ.dp.ua,UA,Europe,Eastern Europe,Ukraine,Dnipropetrovsk Oblast,,Dnipro
193.228.2.5,4,132,Ookla Speedtest Server 18317: speedtest.slav.dn.ua,UA,Europe,Eastern Europe,Ukraine,Kyiv City,,Kyiv
195.114.96.30,4,260,Ookla Speedtest Server 19219: speedtest.itlux.net,UA,Europe,Eastern Europe,Ukraine,Ivano-Frankivsk Oblast,,Nadvirna
195.191.168.230,4,199,Ookla Speedtest Server 20040: speedtest.sim.if.ua,UA,Europe,Eastern Europe,Ukraine,Ivano-Frankivsk Oblast,,Ivano-Frankivsk
176.101.223.114,4,292,Ookla Speedtest Server 20740: speedtest.cdc.ua,UA,Europe,Eastern Europe,Ukraine,Dnipropetrovsk Oblast,,Dnipro
195.24.146.2,4,277,Ookla Speedtest Server 20953: speedtest.trifle.net,UA,Europe,Eastern Europe,Ukraine,Dnipropetrovsk Oblast,,Dnipro
195.69.134.131,4,223,Ookla Speedtest Server 21332: speedtest.vega.com.ua,UA,Europe,Eastern Europe,Ukraine,,,
31.148.207.10,4,327,Ookla Speedtest Server 21523: speedtest.magicom.net.ua,UA,Europe,Eastern Europe,Ukraine,Khmelnytskyi Oblast,,Khmelnytskyi
193.246.146.20,4,384,Ookla Speedtest Server 21900: speedtest.limnet.com.ua,UA,Europe,Eastern Europe,Ukraine,Lviv,,Sambir
185.86.79.107,4,-112548,Ookla Speedtest Server 22130: speedtest.gmhost.com.ua,UA,Europe,Eastern Europe,Ukraine,Kyiv City,,Kyiv
45.14.108.46,4,306,Ookla Speedtest Server 22290: speedtest.eurotele.com.ua,UA,Europe,Eastern Europe,Ukraine,Kyiv City,,Kyiv
91.225.199.131,4,222,Ookla Speedtest Server 23129: speedtest.ultranet.com.ua,UA,Europe,Eastern Europe,Ukraine,Chernihiv,,Chernihiv
31.128.253.3,4,277,Ookla Speedtest Server 23431: ookla.vilan.if.ua,UA,Europe,Eastern Europe,Ukraine,Ivano-Frankivsk Oblast,,Nizhniy Verbizh
93.171.241.12,4,366,Ookla Speedtest Server 24003: speedtest.m-tele.com.ua,UA,Europe,Eastern Europe,Ukraine,Kyiv City,,Kyiv
93.171.241.14,4,378,Ookla Speedtest Server 24004: speedtest.i-tele.com.ua,UA,Europe,Eastern Europe,Ukraine,Kyiv City,,Kyiv
91.223.136.185,4,420,Ookla Speedtest Server 24325: speed.sannet.dn.ua,UA,Europe,Eastern Europe,Ukraine,Donetsk,,Kostyantynivka
80.254.15.166,4,412,Ookla Speedtest Server 25594: mini2.express.net.ua,UA,Europe,Eastern Europe,Ukraine,Zaporizhzhia,,Zaporizhzhya
212.58.161.209,4,-9636497,Ookla Speedtest Server 25946: speedtest01.lifecell.com.ua,UA,Europe,Eastern Europe,Ukraine,Kyiv City,,
193.41.63.234,4,352,Ookla Speedtest Server 29554: srv01-okl-dne.kyivstar.ua,UA,Europe,Eastern Europe,Ukraine,,,
94.158.80.205,4,371,Ookla Speedtest Server 31875: lg.hls.tv,UA,Europe,Eastern Europe,Ukraine,Kyiv Oblast,,Kriukivshchyna
193.93.12.190,4,-215,Ookla Speedtest Server 32144: speedtest.solver.net.ua,UA,Europe,Eastern Europe,Ukraine,Poltava Oblast,,Poltava
213.231.5.55,4,335,Ookla Speedtest Server 32663: fido.odessa.ua,UA,Europe,Eastern Europe,Ukraine,Odessa,,Odesa
213.231.2.124,4,313,Ookla Speedtest Server 32708: speedtest.paket.ua,UA,Europe,Eastern Europe,Ukraine,Odessa,,Odesa
77.52.196.108,4,284,Ookla Speedtest Server 32903: kharkovspeedtest.vodafone.ua,UA,Europe,Eastern Europe,Ukraine,Kharkivs’ka Oblast’,,Kharkiv
185.183.92.17,4,295,Ookla Speedtest Server 33217: speedtest.vom.lutsk.ua,UA,Europe,Eastern Europe,Ukraine,Volyn,,Lutsk
92.60.177.7,4,10794661,Ookla Speedtest Server 33632: sp1.prolvl.net,UA,Europe,Eastern Europe,Ukraine,Kyiv City,,Kyiv
176.105.221.50,4,363,Ookla Speedtest Server 39411: speedtest.homenet.ua,UA,Europe,Eastern Europe,Ukraine,Kyiv City,,Kyiv
193.142.219.1,4,419,Ookla Speedtest Server 39932: speedtest.ir.net.ua,UA,Europe,Eastern Europe,Ukraine,,,
194.42.112.5,4,415,Ookla Speedtest Server 40778: speedtest.ikstelecom.net.ua,UA,Europe,Eastern Europe,Ukraine,Kyiv City,,Kyiv
91.237.109.10,4,455,Ookla Speedtest Server 41734: speedtest.amik.dn.ua,UA,Europe,Eastern Europe,Ukraine,Donetsk,,Donetsk
62.122.206.147,4,349,Ookla Speedtest Server 42072: speedtest.uteam.ua,UA,Europe,Eastern Europe,Ukraine,Ivano-Frankivsk Oblast,,Ivano-Frankivsk
178.20.152.31,4,455,Ookla Speedtest Server 44026: speedtest.freehost.com.ua,UA,Europe,Eastern Europe,Ukraine,Kyiv City,,Kyiv
31.42.178.15,4,417,Ookla Speedtest Server 44290: speedtest.winet.com.ua,UA,Europe,Eastern Europe,Ukraine,Khmelnytskyi Oblast,,Shepetivka
93.170.1.3,4,271,Ookla Speedtest Server 44926: sp1.dianet.online,UA,Europe,Eastern Europe,Ukraine,Zaporizhzhia,,Zaporizhzhya
94.231.180.108,4,-4013,Ookla Speedtest Server 45321: speedtest.kozova.net,UA,Europe,Eastern Europe,Ukraine,Ternopil Oblast,,Kozova
95.46.32.70,4,400,Ookla Speedtest Server 45583: speedtest.ipplus.com.ua,UA,Europe,Eastern Europe,Ukraine,Lviv,,Vynnyky
93.170.170.55,4,415,Ookla Speedtest Server 45599: speedtest.pronet.net.ua,UA,Europe,Eastern Europe,Ukraine,Ivano-Frankivsk Oblast,,Kosiv
46.149.48.6,4,869,Ookla Speedtest Server 46921: spodessa1.regiontv.com.ua,UA,Europe,Eastern Europe,Ukraine,Odessa,,Odesa
94.125.121.69,4,415,Ookla Speedtest Server 47717: speed.ukr-com.net,UA,Europe,Eastern Europe,Ukraine,Kyiv City,,Kyiv
185.94.219.101,4,215,Ookla Speedtest Server 47731: speedtest-zv.znet.lviv.ua,UA,Europe,Eastern Europe,Ukraine,Lviv,,Lviv
193.142.219.161,4,275,Ookla Speedtest Server 48409: speedtest.deepline.net.ua,UA,Europe,Eastern Europe,Ukraine,,,
195.128.231.35,4,348,Ookla Speedtest Server 48762: speedtest.ku.net.ua,UA,Europe,Eastern Europe,Ukraine,Donetsk,,Kurakhove
176.124.128.23,4,401,Ookla Speedtest Server 49253: speedtest.gulfstream.cv.ua,UA,Europe,Eastern Europe,Ukraine,Chernivtsi,,Chernivtsi
195.78.39.158,4,229,Ookla Speedtest Server 51334: speedtest0.gtu.net.ua,UA,Europe,Eastern Europe,Ukraine,Khmelnytskyi Oblast,,Khmelnytskyi
195.85.219.2,4,329,Ookla Speedtest Server 52031: speedtest.commfort.rv.ua,UA,Europe,Eastern Europe,Ukraine,,,
91.247.39.232,4,275,Ookla Speedtest Server 53218: speedtest.performance.uz.ua,UA,Europe,Eastern Europe,Ukraine,Zakarpattia Oblast,,Uzhhorod
77.93.41.70,4,247,Ookla Speedtest Server 53292: speedtest.infocom.zp.ua,UA,Europe,Eastern Europe,Ukraine,Zaporizhzhia,,Zaporizhzhya
193.32.70.133,4,252,Ookla Speedtest Server 54287: speedtest.euro-net.com.ua,UA,Europe,Eastern Europe,Ukraine,Poltava Oblast,,Hlobyne
46.175.248.31,4,266,Ookla Speedtest Server 54974: speedtest.xatanet.zp.ua,UA,Europe,Eastern Europe,Ukraine,Zaporizhzhia,,Zaporizhzhya
46.231.231.13,4,98,Ookla Speedtest Server 55797: st.redline.net.ua,UA,Europe,Eastern Europe,Ukraine,,,
194.39.225.3,4,209,Ookla Speedtest Server 56058: speedtest.nashnet.in.ua,UA,Europe,Eastern Europe,Ukraine,Zakarpattia Oblast,,Uzhhorod
195.216.210.13,4,120,Ookla Speedtest Server 56244: speedtest.onlinedn.ru,UA,Europe,Eastern Europe,Ukraine,Donetsk,,Donetsk
91.224.171.16,4,300,Ookla Speedtest Server 56250: speedtest.expres.cc,UA,Europe,Eastern Europe,Ukraine,Zakarpattia Oblast,,Vynohradiv
194.60.77.19,4,348,Ookla Speedtest Server 56488: speedtestnet.eurocomputer.com.ua,UA,Europe,Eastern Europe,Ukraine,Zakarpattia Oblast,,Irshava
91.227.180.14,4,341,Ookla Speedtest Server 56858: speedtest.utels.ua,UA,Europe,Eastern Europe,Ukraine,Kyiv City,,Kyiv
178.209.82.212,4,336,Ookla Speedtest Server 57911: speedtestwa1.sweet.tv,UA,Europe,Eastern Europe,Ukraine,,,
91.239.136.106,4,342,Ookla Speedtest Server 58019: speed.seti.ua,UA,Europe,Eastern Europe,Ukraine,Kherson Oblast,,Nova Kakhovka
45.132.57.17,4,377,Ookla Speedtest Server 58874: speedtest.coolnet.com.ua,UA,Europe,Eastern Europe,Ukraine,Volyn,,Lutsk
91.197.70.104,4,399,Ookla Speedtest Server 59238: mjhoster.net,UA,Europe,Eastern Europe,Ukraine,Lviv,,Lviv
213.174.5.245,4,259,Ookla Speedtest Server 59245: speedtest.rawa.com.ua,UA,Europe,Eastern Europe,Ukraine,Lviv,,Rava-Ruska
84.234.108.22,4,325,Ookla Speedtest Server 60343: mail.citylan.net.ua,UA,Europe,Eastern Europe,Ukraine,Kyiv City,,Kyiv
78.154.179.103,4,296,Ookla Speedtest Server 60366: testoptifiber.net,UA,Europe,Eastern Europe,Ukraine,Vinnytsia,,Vinnytsia
91.214.139.251,4,350,Ookla Speedtest Server 60882: speedtest2.homenet.ua,UA,Europe,Eastern Europe,Ukraine,Lviv,,Lviv
31.148.149.8,4,319,Ookla Speedtest Server 61177: speedtest-nd.netgroup.ua,UA,Europe,Eastern Europe,Ukraine,Ivano-Frankivsk Oblast,,Ivano-Frankivsk
91.201.232.43,4,199,Ookla Speedtest Server 61838: ookla.lc.lviv.ua,UA,Europe,Eastern Europe,Ukraine,Lviv,,Lviv
185.179.215.7,4,231,Ookla Speedtest Server 62237: bras2.startele.com.ua,UA,Europe,Eastern Europe,Ukraine,Zakarpattia Oblast,,Mukachevo
45.90.16.15,4,326,Ookla Speedtest Server 62509: speedtest.okinet.com.ua,UA,Europe,Eastern Europe,Ukraine,Kyiv City,,Kyiv
94.76.107.62,4,317,Ookla Speedtest Server 62769: sp3.o3.ua,UA,Europe,Eastern Europe,Ukraine,,,
194.44.21.139,4,363,Ookla Speedtest Server 63497: speedtest.starnet.lutsk.ua,UA,Europe,Eastern Europe,Ukraine,Lviv,,Lviv
91.198.31.11,4,148,Ookla Speedtest Server: cso.com.ua,UA,Europe,Eastern Europe,Ukraine,Lviv,,Zolochiv
95.215.157.14,4,195,Ookla Speedtest Server: speedtest.dr.network.lviv.ua,UA,Europe,Eastern Europe,Ukraine,Lviv,,Lviv
91.234.0.4,4,202,Ookla Speedtest Server: speedtest.hata.net.ua,UA,Europe,Eastern Europe,Ukraine,Kyiv Oblast,,Pereiaslav
91.230.25.94,4,128,Ookla Speedtest Server: speedtest.kvant.if.ua,UA,Europe,Eastern Europe,Ukraine,,,
62.205.132.249,4,1090,Ookla Speedtest Server: speedtest.netassist.ua,UA,Europe,Eastern Europe,Ukraine,Kyiv City,,Kyiv
82.207.79.76,4,1490,Ookla Speedtest Server: speedtest.ukrtelecom.ua,UA,Europe,Eastern Europe,Ukraine,Kyiv City,,Kyiv
80.252.241.12,4,6,Ookla Speedtest Server: speedtest.wildpark.net,UA,Europe,Eastern Europe,Ukraine,Mykolaiv,,Mykolayiv
194.242.100.12,4,-90,Ookla Speedtest Server: speedtest1.tim.ua,UA,Europe,Eastern Europe,Ukraine,Chernihiv,,Pryluky
178.20.156.185,4,26,open.ua,UA,Europe,Eastern Europe,Ukraine,Kyiv City,,Kyiv
194.33.180.61,4,8,open4business.com.ua,UA,Europe,Eastern Europe,Ukraine,Kyiv City,,Kyiv
185.104.45.10,4,6,optics-pro.com.ua,UA,Europe,Eastern Europe,Ukraine,,,
185.68.16.24,4,27,opu.ua,UA,Europe,Eastern Europe,Ukraine,,,
185.68.16.140,4,56,orbita23.com,UA,Europe,Eastern Europe,Ukraine,,,
185.104.45.128,4,3,orthodoxy.org.ua,UA,Europe,Eastern Europe,Ukraine,,,
212.111.212.70,4,-536,osau.edu.ua,UA,Europe,Eastern Europe,Ukraine,,,
95.46.32.97,4,0,osonnya.com,UA,Europe,Eastern Europe,Ukraine,Lviv,,Vynnyky
185.68.16.95,4,20,otdel.com.ua,UA,Europe,Eastern Europe,Ukraine,,,
31.41.220.195,4,97,otvetim.com.ua,UA,Europe,Eastern Europe,Ukraine,,,
195.137.240.89,4,2,ovva.tv,UA,Europe,Eastern Europe,Ukraine,,,
195.137.240.109,4,4,ovva.tv,UA,Europe,Eastern Europe,Ukraine,,,
77.87.194.105,4,5,oxford-med.com.ua,UA,Europe,Eastern Europe,Ukraine,Kyiv City,,Kyiv
91.239.232.88,4,16,pack.ua,UA,Europe,Eastern Europe,Ukraine,,,
195.191.24.174,4,4,packo.com.ua,UA,Europe,Eastern Europe,Ukraine,,,
185.68.16.245,4,17,pamjatnik.com.ua,UA,Europe,Eastern Europe,Ukraine,,,
62.182.84.243,4,4,pandora-charmssaleclearance.us,UA,Europe,Eastern Europe,Ukraine,Kyiv City,,Kyiv
91.205.17.192,4,524680,parus.ua,UA,Europe,Eastern Europe,Ukraine,Kyiv City,,Kyiv
176.103.56.72,4,5863,parusplus.com.ua,UA,Europe,Eastern Europe,Ukraine,Kharkivs’ka Oblast’,,Kharkiv
185.104.45.119,4,48,pathofscience.org,UA,Europe,Eastern Europe,Ukraine,,,
178.20.154.150,4,44,patrioty.org.ua,UA,Europe,Eastern Europe,Ukraine,Kyiv City,,Kyiv
89.184.65.127,4,9,pawnbat.com,UA,Europe,Eastern Europe,Ukraine,Kyiv City,,Kyiv
89.184.68.56,4,63,pcweek.ua,UA,Europe,Eastern Europe,Ukraine,Kyiv City,,Kyiv
109.201.246.197,4,28021,pdau.edu.ua,UA,Europe,Eastern Europe,Ukraine,Poltava Oblast,,Poltava
195.138.69.231,4,17,pdpu.edu.ua,UA,Europe,Eastern Europe,Ukraine,Odessa,,Odesa
185.68.16.126,4,8,pep.org.ua,UA,Europe,Eastern Europe,Ukraine,,,
147.78.117.33,4,55,perec.fm,UA,Europe,Eastern Europe,Ukraine,,,
195.191.25.21,4,52,perfectum.ua,UA,Europe,Eastern Europe,Ukraine,,,
185.68.16.33,4,5,perlina.net.ua,UA,Europe,Eastern Europe,Ukraine,,,
185.156.41.187,4,8,pfl.ua,UA,Europe,Eastern Europe,Ukraine,,,
185.68.16.158,4,8,pfp.com.ua,UA,Europe,Eastern Europe,Ukraine,,,
91.239.232.36,4,8,pik-tesla.com.ua,UA,Europe,Eastern Europe,Ukraine,,,
62.149.7.45,4,5,piligrim.ua,UA,Europe,Eastern Europe,Ukraine,Kyiv City,,Kyiv
93.190.46.133,4,-116,pint77.com,UA,Europe,Eastern Europe,Ukraine,,,
91.200.40.92,4,994,pkind.com.ua,UA,Europe,Eastern Europe,Ukraine,,,
195.64.154.155,4,36,pl.com.ua,UA,Europe,Eastern Europe,Ukraine,,,
31.41.216.67,4,44,planetarebusov.com,UA,Europe,Eastern Europe,Ukraine,,,
185.104.45.78,4,5,platfor.ma,UA,Europe,Eastern Europe,Ukraine,,,
91.205.16.66,4,4,pnpu.edu.ua,UA,Europe,Eastern Europe,Ukraine,Kyiv City,,Kyiv
91.219.60.79,4,31,pochaev.org.ua,UA,Europe,Eastern Europe,Ukraine,Kyiv City,,Kyiv
185.67.1.83,4,42,podolfitness.com.ua,UA,Europe,Eastern Europe,Ukraine,,,
77.88.252.42,4,61,poetryclub.com.ua,UA,Europe,Eastern Europe,Ukraine,,,
95.158.22.28,4,71,poglyad.tv,UA,Europe,Eastern Europe,Ukraine,Kyiv Oblast,,Bucha
185.68.16.117,4,35,polimer.ltd,UA,Europe,Eastern Europe,Ukraine,,,
91.222.137.198,4,2123,poltava.info,UA,Europe,Eastern Europe,Ukraine,,,
194.54.88.33,4,35,polyinform.com.ua,UA,Europe,Eastern Europe,Ukraine,,,
193.178.144.111,4,40,pon.org.ua,UA,Europe,Eastern Europe,Ukraine,Kyiv City,,Kyiv
185.156.43.220,4,20,portes.ua,UA,Europe,Eastern Europe,Ukraine,,,
185.104.45.140,4,41,ports.ua,UA,Europe,Eastern Europe,Ukraine,,,
185.68.16.118,4,24,posetiteley.net.ua,UA,Europe,Eastern Europe,Ukraine,,,
185.104.45.48,4,51,posudmeister.ua,UA,Europe,Eastern Europe,Ukraine,,,
89.184.74.37,4,38,poverkhnost.tv,UA,Europe,Eastern Europe,Ukraine,Kyiv City,,Kyiv
193.106.202.250,4,10,powernet.com.ua,UA,Europe,Eastern Europe,Ukraine,,,
62.149.0.23,4,6,poznayka.ru,UA,Europe,Eastern Europe,Ukraine,Kyiv City,,Kyiv
77.87.194.60,4,32,pravda.press,UA,Europe,Eastern Europe,Ukraine,Kyiv City,,Kyiv
178.20.158.103,4,49,presa.ua,UA,Europe,Eastern Europe,Ukraine,Kyiv City,,Kyiv
185.68.16.111,4,67,preskub.com.ua,UA,Europe,Eastern Europe,Ukraine,,,
89.184.75.213,4,27,pressorg24.com,UA,Europe,Eastern Europe,Ukraine,Kyiv City,,Kyiv
185.68.16.47,4,69,pribory.biz,UA,Europe,Eastern Europe,Ukraine,,,
185.69.153.96,4,14,primehouse.com.ua,UA,Europe,Eastern Europe,Ukraine,,,
91.222.136.252,4,68,printer.org.ua,UA,Europe,Eastern Europe,Ukraine,,,
176.107.176.66,4,33,pro-consulting.ua,UA,Europe,Eastern Europe,Ukraine,Kyiv City,,Kyiv
194.28.86.105,4,44,pro1c.org.ua,UA,Europe,Eastern Europe,Ukraine,,,
91.203.4.44,4,39,prochurch.info,UA,Europe,Eastern Europe,Ukraine,Kyiv City,,Kyiv
89.184.76.40,4,9,prodj.com.ua,UA,Europe,Eastern Europe,Ukraine,Kyiv City,,Kyiv
62.149.26.52,4,1588165,proext.com,UA,Europe,Eastern Europe,Ukraine,Kyiv City,,Kyiv
185.233.42.19,4,3,profi-credit.com.ua,UA,Europe,Eastern Europe,Ukraine,,,
91.234.35.249,4,1658,profi.ua,UA,Europe,Eastern Europe,Ukraine,Kyiv Oblast,,
185.104.45.25,4,124,profiplast.org,UA,Europe,Eastern Europe,Ukraine,,,
185.233.37.160,4,48,profiwins.com.ua,UA,Europe,Eastern Europe,Ukraine,,,
77.123.155.94,4,11,profootball.ua,UA,Europe,Eastern Europe,Ukraine,Kyiv City,,Kyiv
185.68.16.176,4,22,profoptica.com.ua,UA,Europe,Eastern Europe,Ukraine,,,
185.124.9.61,4,64,profpereklad.ua,UA,Europe,Eastern Europe,Ukraine,,,
89.184.69.86,4,26,promobud.ua,UA,Europe,Eastern Europe,Ukraine,Kyiv City,,Kyiv
176.105.232.151,4,6,prott.online,UA,Europe,Eastern Europe,Ukraine,Lviv,,Lviv
31.131.18.79,4,14,pryvitop.net.ua,UA,Europe,Eastern Europe,Ukraine,Lviv,,Lviv
45.94.156.70,4,14,psihoterapevt-kiev.com.ua,UA,Europe,Eastern Europe,Ukraine,Lviv,,Lviv
93.190.41.220,4,38,pstu.edu,UA,Europe,Eastern Europe,Ukraine,,,
193.169.188.152,4,5,psy-practice.com,UA,Europe,Eastern Europe,Ukraine,Kyiv City,,Kyiv
91.205.16.133,4,49,psylib.org.ua,UA,Europe,Eastern Europe,Ukraine,Kyiv City,,Kyiv
77.87.199.250,4,32,puet.edu.ua,UA,Europe,Eastern Europe,Ukraine,Kyiv City,,Kyiv
193.200.173.151,4,-474,pustunchik.ua,UA,Europe,Eastern Europe,Ukraine,,,
89.184.77.128,4,6,pzu.com.ua,UA,Europe,Eastern Europe,Ukraine,Kyiv City,,Kyiv
185.104.45.72,4,3,qna.com.ua,UA,Europe,Eastern Europe,Ukraine,,,
91.204.94.246,4,-74676,rada-poltava.gov.ua,UA,Europe,Eastern Europe,Ukraine,,,
95.46.73.220,4,4,rada-uzhgorod.gov.ua,UA,Europe,Eastern Europe,Ukraine,Zakarpattia Oblast,,Uzhhorod
195.234.4.57,4,67,rada.com.ua,UA,Europe,Eastern Europe,Ukraine,,,
89.184.69.170,4,109,radioroks.ua,UA,Europe,Eastern Europe,Ukraine,Kyiv City,,Kyiv
185.68.16.113,4,7,railinsider.com.ua,UA,Europe,Eastern Europe,Ukraine,,,
193.0.142.165,4,1366,rashodniki.net.ua,UA,Europe,Eastern Europe,Ukraine,,,
194.0.200.204,4,94538,ratinggroup.com.ua,UA,Europe,Eastern Europe,Ukraine,,,
185.68.16.91,4,40,ratinggroup.ua,UA,Europe,Eastern Europe,Ukraine,,,
31.131.24.136,4,44,rau.ua,UA,Europe,Eastern Europe,Ukraine,Lviv,,Lviv
176.114.7.104,4,63,realdom.com.ua,UA,Europe,Eastern Europe,Ukraine,Kyiv Oblast,,
89.184.92.104,4,59,realgazeta.com.ua,UA,Europe,Eastern Europe,Ukraine,Kyiv City,,Kyiv
91.200.40.73,4,-487,rebus1.com,UA,Europe,Eastern Europe,Ukraine,,,
77.120.119.25,4,22,receptika.ua,UA,Europe,Eastern Europe,Ukraine,Kyiv City,,Kyiv
185.104.45.173,4,5,recipespancakes.com,UA,Europe,Eastern Europe,Ukraine,,,
89.184.69.209,4,48,reform.energy,UA,Europe,Eastern Europe,Ukraine,Kyiv City,,Kyiv
89.184.92.26,4,11,rental-power.com.ua,UA,Europe,Eastern Europe,Ukraine,Kyiv City,,Kyiv
89.184.66.83,4,28,rezina.ua,UA,Europe,Eastern Europe,Ukraine,Kyiv City,,Kyiv
31.41.220.92,4,33,ria.ua,UA,Europe,Eastern Europe,Ukraine,,,
91.200.43.64,4,5,rid.org.ua,UA,Europe,Eastern Europe,Ukraine,,,
194.44.175.95,4,3,risu.org.ua,UA,Europe,Eastern Europe,Ukraine,Rivne,,Rivne
91.203.147.87,4,14,rivne-news.com.ua,UA,Europe,Eastern Europe,Ukraine,Kyiv City,,Kyiv
45.94.157.17,4,6,rivne1.tv,UA,Europe,Eastern Europe,Ukraine,Lviv,,Lviv
185.68.16.8,4,15,rivnenews.com.ua,UA,Europe,Eastern Europe,Ukraine,,,
91.228.147.20,4,29,robik.net,UA,Europe,Eastern Europe,Ukraine,,,
185.104.45.146,4,49,roditeli.ua,UA,Europe,Eastern Europe,Ukraine,,,
185.104.45.145,4,42,rolivka.online,UA,Europe,Eastern Europe,Ukraine,,,
91.239.233.38,4,27,rollershop.com.ua,UA,Europe,Eastern Europe,Ukraine,,,
185.68.16.202,4,2,romashka-moda.com.ua,UA,Europe,Eastern Europe,Ukraine,,,
213.169.83.158,4,12,romsat.ua,UA,Europe,Eastern Europe,Ukraine,,,
89.184.79.154,4,10,romstal.ua,UA,Europe,Eastern Europe,Ukraine,Kyiv City,,Kyiv
185.104.45.134,4,15,royal-service.ua,UA,Europe,Eastern Europe,Ukraine,,,
80.90.224.53,4,6,roznica.com.ua,UA,Europe,Eastern Europe,Ukraine,Odessa,,Odesa
185.104.45.3,4,6,rpr.org.ua,UA,Europe,Eastern Europe,Ukraine,,,
77.120.120.231,4,23,rstcars.com,UA,Europe,Eastern Europe,Ukraine,Kyiv City,,Kyiv
62.244.25.73,4,7,rtkorr.com,UA,Europe,Eastern Europe,Ukraine,Kyiv City,,Kyiv
185.91.75.28,4,15,runigma.com.ua,UA,Europe,Eastern Europe,Ukraine,Lviv,,Lviv
89.184.73.102,4,64,ruporzt.com.ua,UA,Europe,Eastern Europe,Ukraine,Kyiv City,,Kyiv
91.234.199.128,4,9,rutor2go.com,UA,Europe,Eastern Europe,Ukraine,,,
176.111.61.167,4,17,saee.gov.ua,UA,Europe,Eastern Europe,Ukraine,Kherson Oblast,,Velyka Oleksandrivka
212.1.77.173,4,59,sai.gov.ua,UA,Europe,Eastern Europe,Ukraine,Kyiv City,,Kyiv
194.28.172.247,4,6,salad.com.ua,UA,Europe,Eastern Europe,Ukraine,,,
89.184.69.142,4,7,salonlustr.com.ua,UA,Europe,Eastern Europe,Ukraine,Kyiv City,,Kyiv
185.68.16.46,4,4,samisdat.com.ua,UA,Europe,Eastern Europe,Ukraine,,,
185.104.45.165,4,4,samokat.ua,UA,Europe,Eastern Europe,Ukraine,,,
185.104.45.51,4,12,sanchobag.com.ua,UA,Europe,Eastern Europe,Ukraine,,,
185.68.16.174,4,4,sanmei-ua.com,UA,Europe,Eastern Europe,Ukraine,,,
185.68.16.63,4,32,sat.ua,UA,Europe,Eastern Europe,Ukraine,,,
185.104.45.67,4,3,saveukraineua.org,UA,Europe,Eastern Europe,Ukraine,,,
89.184.72.49,4,6,sd.net.ua,UA,Europe,Eastern Europe,Ukraine,Kyiv City,,Kyiv
185.67.3.63,4,3,sdp-studio.com.ua,UA,Europe,Eastern Europe,Ukraine,,,
89.184.65.27,4,940102,secunda.com.ua,UA,Europe,Eastern Europe,Ukraine,Kyiv City,,Kyiv
91.239.232.46,4,11,security-hub.com.ua,UA,Europe,Eastern Europe,Ukraine,,,
91.218.214.188,4,41,seo-akademiya.com,UA,Europe,Eastern Europe,Ukraine,,,
185.124.10.51,4,19,seo-live.com,UA,Europe,Eastern Europe,Ukraine,,,
185.68.16.38,4,22,seosolution.ua,UA,Europe,Eastern Europe,Ukraine,,,
178.20.158.239,4,8,sergeidovlatov.com,UA,Europe,Eastern Europe,Ukraine,Kyiv City,,Kyiv
89.184.74.208,4,59,set.ua,UA,Europe,Eastern Europe,Ukraine,Kyiv City,,Kyiv
213.59.161.38,4,12,sev.gov.ru,UA,Europe,Eastern Europe,Ukraine,Sebastopol City,,Sevastopol
78.30.254.13,4,1,sevstar.net,UA,Europe,Eastern Europe,Ukraine,Sebastopol City,,Sevastopol
185.104.45.106,4,33,shopgun.com.ua,UA,Europe,Eastern Europe,Ukraine,,,
185.68.16.41,4,12,shopline.com.ua,UA,Europe,Eastern Europe,Ukraine,,,
185.104.45.71,4,28,shopsecret.com.ua,UA,Europe,Eastern Europe,Ukraine,,,
91.234.33.14,4,8,shukach.com,UA,Europe,Eastern Europe,Ukraine,Kyiv Oblast,,
185.253.218.120,4,8,sibirskoezdorovie.com.ua,UA,Europe,Eastern Europe,Ukraine,,,
185.252.24.61,4,4,sillanium.com,UA,Europe,Eastern Europe,Ukraine,Kyiv Oblast,,
193.47.166.208,4,45,simadm.ru,UA,Europe,Eastern Europe,Ukraine,Crimea,,
89.184.76.76,4,7,simplyroad.ua,UA,Europe,Eastern Europe,Ukraine,Kyiv City,,Kyiv
89.184.94.114,4,7,sinitargaming.com,UA,Europe,Eastern Europe,Ukraine,Kyiv City,,Kyiv
212.42.73.103,4,7,sinoptik.ua,UA,Europe,Eastern Europe,Ukraine,,,
91.202.109.55,4,3,siteua.org,UA,Europe,Eastern Europe,Ukraine,,,
185.68.16.13,4,8,sitniks.ua,UA,Europe,Eastern Europe,Ukraine,,,
91.222.137.178,4,5,skachat-prilozhenie.com,UA,Europe,Eastern Europe,Ukraine,,,
89.184.75.57,4,6,slavuta-mvk.gov.ua,UA,Europe,Eastern Europe,Ukraine,Kyiv City,,Kyiv
185.104.45.14,4,3,slinko.com.ua,UA,Europe,Eastern Europe,Ukraine,,,
185.156.41.194,4,6,slovnyk.ua,UA,Europe,Eastern Europe,Ukraine,,,
195.189.246.9,4,8,slovopedia.org.ua,UA,Europe,Eastern Europe,Ukraine,,,
185.68.16.61,4,4,smartdesigne.biz,UA,Europe,Eastern Europe,Ukraine,,,
91.202.75.140,4,971308,smida.gov.ua,UA,Europe,Eastern Europe,Ukraine,Kyiv City,,Kyiv
185.253.218.91,4,44,snu.edu.ua,UA,Europe,Eastern Europe,Ukraine,,,
92.112.197.89,4,26,sobrasa.org,UA,Europe,Eastern Europe,Ukraine,,,
185.233.42.228,4,6,socportal.info,UA,Europe,Eastern Europe,Ukraine,,,
92.112.187.48,4,25,soft2share.com,UA,Europe,Eastern Europe,Ukraine,,,
195.64.225.95,4,31,softlira.com.ua,UA,Europe,Eastern Europe,Ukraine,,,
185.241.109.188,4,42,softlist.com.ua,UA,Europe,Eastern Europe,Ukraine,,,
194.28.85.112,4,15,soippo.edu.ua,UA,Europe,Eastern Europe,Ukraine,,,
194.28.86.77,4,-2700455,sophie-decor.com.ua,UA,Europe,Eastern Europe,Ukraine,,,
185.104.45.81,4,4,spaceman-jogo.com.br,UA,Europe,Eastern Europe,Ukraine,,,
94.45.145.12,4,33,spfu.gov.ua,UA,Europe,Eastern Europe,Ukraine,,,
185.104.45.142,4,36,spider-hoodie.org,UA,Europe,Eastern Europe,Ukraine,,,
195.191.25.159,4,3,spool.com.ua,UA,Europe,Eastern Europe,Ukraine,,,
89.184.77.112,4,8,sport-engine.com,UA,Europe,Eastern Europe,Ukraine,Kyiv City,,Kyiv
185.68.16.211,4,60,sport-power.com.ua,UA,Europe,Eastern Europe,Ukraine,,,
194.54.81.46,4,5,sporthappy.com.ua,UA,Europe,Eastern Europe,Ukraine,,,
31.172.65.221,4,2,sportonline.ua,UA,Europe,Eastern Europe,Ukraine,Kyiv City,,Kyiv
46.254.107.12,4,21,sportprof.com.ua,UA,Europe,Eastern Europe,Ukraine,,,
91.200.40.64,4,9,sportsbettingoperator.com,UA,Europe,Eastern Europe,Ukraine,,,
185.233.119.59,4,10,sportsummit.ua,UA,Europe,Eastern Europe,Ukraine,Kyiv City,,Kyiv
185.66.91.211,4,6,springfieldspringfield.co.uk,UA,Europe,Eastern Europe,Ukraine,,,
185.68.16.21,4,3,st-sophia.org.ua,UA,Europe,Eastern Europe,Ukraine,,,
163.171.137.16,4,4,stnn.cc,UA,Europe,Eastern Europe,Ukraine,Kyiv City,,Kyiv
213.133.160.37,4,10,stockworld.com.ua,UA,Europe,Eastern Europe,Ukraine,,,
185.68.16.164,4,2,stroimvmeste.com.ua,UA,Europe,Eastern Europe,Ukraine,,,
185.65.244.20,4,2,sudonull.com,UA,Europe,Eastern Europe,Ukraine,,,
77.87.193.182,4,7,sundaynews.info,UA,Europe,Eastern Europe,Ukraine,Kyiv City,,Kyiv
45.94.158.170,4,25,super.com.ua,UA,Europe,Eastern Europe,Ukraine,Lviv,,Lviv
194.28.173.100,4,10,superagronom.com,UA,Europe,Eastern Europe,Ukraine,,,
91.239.233.23,4,99,superkniga.com.ua,UA,Europe,Eastern Europe,Ukraine,,,
185.67.1.196,4,42,supersound.com.ua,UA,Europe,Eastern Europe,Ukraine,,,
213.160.158.194,4,1670,survarium.com,UA,Europe,Eastern Europe,Ukraine,Kyiv City,,Kyiv
185.104.45.29,4,4,svan.com.ua,UA,Europe,Eastern Europe,Ukraine,,,
185.156.42.49,4,12,svetlovodsk.com.ua,UA,Europe,Eastern Europe,Ukraine,,,
194.28.84.97,4,18,svit-matrasiv.com.ua,UA,Europe,Eastern Europe,Ukraine,,,
91.200.40.21,4,882,svitmedu.com,UA,Europe,Eastern Europe,Ukraine,,,
195.234.214.26,4,2,svoboda.fm,UA,Europe,Eastern Europe,Ukraine,,,
185.156.42.22,4,3,sworld.com.ua,UA,Europe,Eastern Europe,Ukraine,,,
91.219.60.108,4,638,ta-odessa.com,UA,Europe,Eastern Europe,Ukraine,Kyiv City,,Kyiv
195.248.234.115,4,17,takprosto.cc,UA,Europe,Eastern Europe,Ukraine,,,
91.239.234.99,4,20,tashkenttimes.uz,UA,Europe,Eastern Europe,Ukraine,,,
45.87.90.120,4,16,tavriya.com.ua,UA,Europe,Eastern Europe,Ukraine,Lviv,,Lviv
195.138.80.34,4,4,te.net.ua,UA,Europe,Eastern Europe,Ukraine,Odessa,,Odesa
185.69.152.107,4,38,tellme.com.ua,UA,Europe,Eastern Europe,Ukraine,,,
185.104.45.101,4,72,tellur.com.ua,UA,Europe,Eastern Europe,Ukraine,,,
77.87.195.44,4,23,temis.ua,UA,Europe,Eastern Europe,Ukraine,Kyiv City,,Kyiv
185.104.45.164,4,45,teplahatka.com,UA,Europe,Eastern Europe,Ukraine,,,
185.68.16.50,4,48,teplo-hata.com.ua,UA,Europe,Eastern Europe,Ukraine,,,
194.28.172.92,4,50,teplobud-pcf.com,UA,Europe,Eastern Europe,Ukraine,,,
185.104.45.114,4,24,terchy.com,UA,Europe,Eastern Europe,Ukraine,,,
88.151.12.10,4,66,ternopilcity.gov.ua,UA,Europe,Eastern Europe,Ukraine,,,
185.68.16.57,4,74,ternovka4school.org.ua,UA,Europe,Eastern Europe,Ukraine,,,
185.104.45.124,4,2,test.org.ua,UA,Europe,Eastern Europe,Ukraine,,,
195.137.240.84,4,51,tet.tv,UA,Europe,Eastern Europe,Ukraine,,,
195.137.240.104,4,4,tet.tv,UA,Europe,Eastern Europe,Ukraine,,,
185.104.45.167,4,4,texbi.ua,UA,Europe,Eastern Europe,Ukraine,,,
185.68.16.125,4,8,thealphacentauri.net,UA,Europe,Eastern Europe,Ukraine,,,
91.234.32.2,4,2,thehost.ua,UA,Europe,Eastern Europe,Ukraine,Kyiv Oblast,,
91.234.33.3,4,3,thehost.ua,UA,Europe,Eastern Europe,Ukraine,Kyiv Oblast,,
89.184.83.77,4,-6798,theinsider.ua,UA,Europe,Eastern Europe,Ukraine,Kyiv City,,Kyiv
185.68.16.139,4,15,thepancakes.eu,UA,Europe,Eastern Europe,Ukraine,,,
176.97.113.27,4,2,timebusinessnews.com,UA,Europe,Eastern Europe,Ukraine,,,
89.184.79.31,4,7,timeua.info,UA,Europe,Eastern Europe,Ukraine,Kyiv City,,Kyiv
195.138.69.237,4,4,tochmash.ua,UA,Europe,Eastern Europe,Ukraine,Odessa,,Odesa
77.120.21.51,4,-51418,topnews.media,UA,Europe,Eastern Europe,Ukraine,Khmelnytskyi Oblast,,Khmelnytskyi
185.68.19.144,4,16,toprating.casino,UA,Europe,Eastern Europe,Ukraine,,,
89.184.68.44,4,2,toyota-ua.com,UA,Europe,Eastern Europe,Ukraine,Kyiv City,,Kyiv
77.87.192.171,4,9,toyota.com.ua,UA,Europe,Eastern Europe,Ukraine,Kyiv City,,Kyiv
89.184.69.28,4,22,trademaster.ua,UA,Europe,Eastern Europe,Ukraine,Kyiv City,,Kyiv
31.41.216.70,4,17,tradicia.com.ua,UA,Europe,Eastern Europe,Ukraine,,,
185.68.16.15,4,18,trados.com.ua,UA,Europe,Eastern Europe,Ukraine,,,
185.68.16.27,4,3,trans-port.com.ua,UA,Europe,Eastern Europe,Ukraine,,,
185.68.16.150,4,96,treba-solutions.com,UA,Europe,Eastern Europe,Ukraine,,,
185.68.16.210,4,32,tribun.com.ua,UA,Europe,Eastern Europe,Ukraine,,,
62.182.86.209,4,5,trilema.com,UA,Europe,Eastern Europe,Ukraine,Kyiv City,,Kyiv
185.68.16.108,4,2,trioteks.com.ua,UA,Europe,Eastern Europe,Ukraine,,,
92.112.187.29,4,4,truekatana.org,UA,Europe,Eastern Europe,Ukraine,,,
195.191.24.212,4,-181,tsoua.com,UA,Europe,Eastern Europe,Ukraine,,,
185.68.16.11,4,1,turboseo.net.ua,UA,Europe,Eastern Europe,Ukraine,,,
185.68.16.29,4,18,turzona.com.ua,UA,Europe,Eastern Europe,Ukraine,,,
77.123.138.205,4,30,tuthost.ua,UA,Europe,Eastern Europe,Ukraine,Kyiv City,,Kyiv
176.103.50.239,4,22,tvsubs.net,UA,Europe,Eastern Europe,Ukraine,Kharkivs’ka Oblast’,,Kharkiv
92.112.188.23,4,6,twominenglish.com,UA,Europe,Eastern Europe,Ukraine,,,
185.68.16.151,4,7,u-tor.com,UA,Europe,Eastern Europe,Ukraine,,,
185.104.45.36,4,3,ua-ds.com.ua,UA,Europe,Eastern Europe,Ukraine,,,
89.184.72.65,4,25,ua-today.com,UA,Europe,Eastern Europe,Ukraine,Kyiv City,,Kyiv
91.229.78.170,4,11,ua.market,UA,Europe,Eastern Europe,Ukraine,Kyiv City,,Kyiv
185.68.16.49,4,2,uaa.org.ua,UA,Europe,Eastern Europe,Ukraine,,,
77.87.193.181,4,12,uaf.org.ua,UA,Europe,Eastern Europe,Ukraine,Kyiv City,,Kyiv
194.28.86.203,4,20,ualifeline.com.ua,UA,Europe,Eastern Europe,Ukraine,,,
185.68.16.67,4,15,uamon.com,UA,Europe,Eastern Europe,Ukraine,,,
185.104.45.102,4,12,uanimals.org,UA,Europe,Eastern Europe,Ukraine,,,
212.109.61.167,4,30,uap.org.ua,UA,Europe,Eastern Europe,Ukraine,Kyiv City,,Kyiv
195.64.225.206,4,23,uaport.net,UA,Europe,Eastern Europe,Ukraine,,,
194.44.214.24,4,16,uar.net,UA,Europe,Eastern Europe,Ukraine,Lviv,,Lviv
195.137.240.108,4,34,uatoday.tv,UA,Europe,Eastern Europe,Ukraine,,,
195.137.240.88,4,21,uatoday.tv,UA,Europe,Eastern Europe,Ukraine,,,
185.237.206.6,4,5,uazakon.com,UA,Europe,Eastern Europe,Ukraine,,,
45.129.97.197,4,2,uba.ua,UA,Europe,Eastern Europe,Ukraine,,,
185.68.16.173,4,3,uchkombinat.com.ua,UA,Europe,Eastern Europe,Ukraine,,,
89.184.74.160,4,7,uga.ua,UA,Europe,Eastern Europe,Ukraine,Kyiv City,,Kyiv
185.69.153.47,4,6,uhl-mash.com.ua,UA,Europe,Eastern Europe,Ukraine,,,
176.114.14.160,4,7,uhsp.edu.ua,UA,Europe,Eastern Europe,Ukraine,,,
185.67.3.147,4,29,ukr-inform.com,UA,Europe,Eastern Europe,Ukraine,,,
31.131.22.243,4,27,ukrainaincognita.com,UA,Europe,Eastern Europe,Ukraine,Lviv,,Lviv
185.39.224.104,4,2,ukraine.com.ua,UA,Europe,Eastern Europe,Ukraine,,,
217.196.160.115,4,18,ukraineforum.com.ua,UA,Europe,Eastern Europe,Ukraine,Ternopil Oblast,,Ternopil
185.68.16.75,4,1,ukrainepravo.com,UA,Europe,Eastern Europe,Ukraine,,,
89.184.90.29,4,7,ukraineworld.org,UA,Europe,Eastern Europe,Ukraine,Kyiv City,,Kyiv
185.65.244.90,4,17,ukrajina.today,UA,Europe,Eastern Europe,Ukraine,,,
185.104.45.96,4,30,ukrautoprom.com.ua,UA,Europe,Eastern Europe,Ukraine,,,
91.218.214.18,4,24,ukrbasket.net,UA,Europe,Eastern Europe,Ukraine,,,
176.111.63.99,4,160,ukrboard.com.ua,UA,Europe,Eastern Europe,Ukraine,Kherson Oblast,,Velyka Oleksandrivka
194.44.147.62,4,3,ukrcensus.gov.ua,UA,Europe,Eastern Europe,Ukraine,Lviv,,Lviv
194.28.84.197,4,55,ukrchess.org.ua,UA,Europe,Eastern Europe,Ukraine,,,
178.255.179.123,4,-338227,ukrexport.gov.ua,UA,Europe,Eastern Europe,Ukraine,,,
185.104.45.147,4,29,ukrferry.com,UA,Europe,Eastern Europe,Ukraine,,,
193.169.189.89,4,5,ukrfun.com.ua,UA,Europe,Eastern Europe,Ukraine,Kyiv City,,Kyiv
77.87.199.95,4,41,ukrfunds.com.ua,UA,Europe,Eastern Europe,Ukraine,Kyiv City,,Kyiv
185.65.244.118,4,20,ukrhealth.net,UA,Europe,Eastern Europe,Ukraine,,,
185.68.16.179,4,5,ukrion.com.ua,UA,Europe,Eastern Europe,Ukraine,,,
194.54.83.122,4,42,ukrlib.com.ua,UA,Europe,Eastern Europe,Ukraine,,,
193.200.255.34,4,-1378,ukrlife.org,UA,Europe,Eastern Europe,Ukraine,,,
185.68.16.137,4,1,ukrlife.tv,UA,Europe,Eastern Europe,Ukraine,,,
62.149.0.11,4,1416,ukrlit.org,UA,Europe,Eastern Europe,Ukraine,Kyiv City,,Kyiv
185.104.45.63,4,15,ukrnafta.com,UA,Europe,Eastern Europe,Ukraine,,,
91.231.84.4,4,1039,ukrnames.com,UA,Europe,Eastern Europe,Ukraine,,,
185.67.3.44,4,-92660,ukrnews24.net,UA,Europe,Eastern Europe,Ukraine,,,
89.184.95.76,4,46,ukroboronprom.com.ua,UA,Europe,Eastern Europe,Ukraine,Kyiv City,,Kyiv
194.28.84.191,4,2,ukrpart.org,UA,Europe,Eastern Europe,Ukraine,,,
213.160.144.254,4,40,ukrpatent.org,UA,Europe,Eastern Europe,Ukraine,Kyiv City,,Kyiv
194.44.31.38,4,17,ukrweb.net,UA,Europe,Eastern Europe,Ukraine,Lviv,,Lviv
62.149.29.98,4,49,ukrzoloto.ua,UA,Europe,Eastern Europe,Ukraine,Kyiv City,,Kyiv
176.105.232.254,4,4,uksatse.ua,UA,Europe,Eastern Europe,Ukraine,Lviv,,Lviv
185.68.16.88,4,3,uku.com.ua,UA,Europe,Eastern Europe,Ukraine,,,
77.120.113.139,4,8,ukurier.gov.ua,UA,Europe,Eastern Europe,Ukraine,Kyiv City,,Kyiv
185.68.16.196,4,17,ulf.com.ua,UA,Europe,Eastern Europe,Ukraine,,,
217.20.175.5,4,42,ultras.lv,UA,Europe,Eastern Europe,Ukraine,Kyiv City,,Kyiv
77.87.192.133,4,21,un.org.ua,UA,Europe,Eastern Europe,Ukraine,Kyiv City,,Kyiv
171.25.204.51,4,731,uni-sport.edu.ua,UA,Europe,Eastern Europe,Ukraine,,,
193.227.115.132,4,368,uniqa.ua,UA,Europe,Eastern Europe,Ukraine,,,
185.68.16.175,4,4,unique-u.biz,UA,Europe,Eastern Europe,Ukraine,,,
185.104.45.125,4,8,unit.city,UA,Europe,Eastern Europe,Ukraine,,,
89.184.76.203,4,37,universalna.com,UA,Europe,Eastern Europe,Ukraine,Kyiv City,,Kyiv
62.149.0.151,4,13,unt.ua,UA,Europe,Eastern Europe,Ukraine,Kyiv City,,Kyiv
185.68.16.43,4,7,uos.ua,UA,Europe,Eastern Europe,Ukraine,,,
194.28.87.25,4,19,upl.ua,UA,Europe,Eastern Europe,Ukraine,,,
212.111.212.55,4,3,uran.ua,UA,Europe,Eastern Europe,Ukraine,,,
176.119.30.59,4,45,usersdrive.com,UA,Europe,Eastern Europe,Ukraine,,,
185.250.20.192,4,6,usfa.gov.ua,UA,Europe,Eastern Europe,Ukraine,Kyiv City,,Kyiv
77.87.195.27,4,9,utp.com.ua,UA,Europe,Eastern Europe,Ukraine,Kyiv City,,Kyiv
45.89.91.78,4,4,uw0wu.com,UA,Europe,Eastern Europe,Ukraine,Lviv,,Lviv
89.184.89.250,4,7,uwf.org.ua,UA,Europe,Eastern Europe,Ukraine,Kyiv City,,Kyiv
185.233.36.29,4,5,uzhgorod.in,UA,Europe,Eastern Europe,Ukraine,,,
185.104.45.27,4,21,uzhhorodka.com.ua,UA,Europe,Eastern Europe,Ukraine,,,
176.105.232.25,4,7,uzhnu.edu.ua,UA,Europe,Eastern Europe,Ukraine,Lviv,,Lviv
185.68.16.101,4,4,v-skladchinu.com.ua,UA,Europe,Eastern Europe,Ukraine,,,
193.200.255.44,4,1612,v.ua,UA,Europe,Eastern Europe,Ukraine,,,
195.60.70.5,4,24,VAK Ltd.,UA,Europe,Eastern Europe,Ukraine,Poltava Oblast,,Poltava
77.222.135.210,4,108,vaks.gov.ua,UA,Europe,Eastern Europe,Ukraine,Kyiv City,,Kyiv
91.196.54.115,4,6,varta1.com.ua,UA,Europe,Eastern Europe,Ukraine,Lviv,,Lviv
185.68.16.97,4,7,vashbit.com,UA,Europe,Eastern Europe,Ukraine,,,
193.169.189.186,4,26269249,vasilkov.city,UA,Europe,Eastern Europe,Ukraine,Kyiv City,,Kyiv
193.200.255.30,4,1280,vdd.com.ua,UA,Europe,Eastern Europe,Ukraine,,,
185.68.16.10,4,14,vdruzhkovke.net,UA,Europe,Eastern Europe,Ukraine,,,
185.124.11.91,4,14,velesritual.com.ua,UA,Europe,Eastern Europe,Ukraine,,,
185.104.45.65,4,49,velles-shop.com.ua,UA,Europe,Eastern Europe,Ukraine,,,
185.68.16.104,4,25,velodrug.com,UA,Europe,Eastern Europe,Ukraine,,,
185.104.45.120,4,31,veloforum.net,UA,Europe,Eastern Europe,Ukraine,,,
91.239.232.65,4,24,velomania.com.ua,UA,Europe,Eastern Europe,Ukraine,,,
95.67.14.185,4,4,veneto.ua,UA,Europe,Eastern Europe,Ukraine,Kyiv City,,Kyiv
88.218.191.98,4,9,venko.com.ua,UA,Europe,Eastern Europe,Ukraine,,,
77.87.195.219,4,15,ventels.com.ua,UA,Europe,Eastern Europe,Ukraine,Kyiv City,,Kyiv
185.156.41.68,4,5,ventolux.ua,UA,Europe,Eastern Europe,Ukraine,,,
185.67.2.5,4,681,vertical-soft.com,UA,Europe,Eastern Europe,Ukraine,,,
95.215.157.210,4,4,vgolos.com.ua,UA,Europe,Eastern Europe,Ukraine,Lviv,,Lviv
212.68.160.1,4,1336,viaduk.net,UA,Europe,Eastern Europe,Ukraine,,,
185.68.16.183,4,38,viagra911.com.ua,UA,Europe,Eastern Europe,Ukraine,,,
195.137.240.87,4,14,viasat.ua,UA,Europe,Eastern Europe,Ukraine,,,
195.137.240.107,4,7,viasat.ua,UA,Europe,Eastern Europe,Ukraine,,,
91.218.212.199,4,6,vibori.co.ua,UA,Europe,Eastern Europe,Ukraine,,,
193.0.61.245,4,6,victoriasecret.com.ua,UA,Europe,Eastern Europe,Ukraine,,,
62.122.152.24,4,-773575,videoprobki.ua,UA,Europe,Eastern Europe,Ukraine,,,
62.122.152.23,4,-773574,videoprobki.ua,UA,Europe,Eastern Europe,Ukraine,,,
62.122.152.22,4,-773574,videoprobki.ua,UA,Europe,Eastern Europe,Ukraine,,,
62.122.152.21,4,-773576,videoprobki.ua,UA,Europe,Eastern Europe,Ukraine,,,
91.205.18.70,4,98,vidiani.com,UA,Europe,Eastern Europe,Ukraine,Kyiv City,,Kyiv
185.104.45.108,4,26,vidpochynok.net,UA,Europe,Eastern Europe,Ukraine,,,
195.95.233.68,4,2,vikka.ua,UA,Europe,Eastern Europe,Ukraine,,,
185.104.45.138,4,20,villa-azov.com,UA,Europe,Eastern Europe,Ukraine,,,
194.28.174.227,4,10,vinbazar.com,UA,Europe,Eastern Europe,Ukraine,,,
81.30.160.44,4,3,vinnitsa.com,UA,Europe,Eastern Europe,Ukraine,Vinnytsia,,Vinnytsia
185.68.16.79,4,15,vinyllight.ca,UA,Europe,Eastern Europe,Ukraine,,,
77.87.193.210,4,7,vipyork.com.ua,UA,Europe,Eastern Europe,Ukraine,Kyiv City,,Kyiv
91.239.233.24,4,7,virtusinterpress.org,UA,Europe,Eastern Europe,Ukraine,,,
92.112.189.12,4,2,visitbudapest.travel,UA,Europe,Eastern Europe,Ukraine,,,
185.104.45.41,4,2,visium.com.ua,UA,Europe,Eastern Europe,Ukraine,,,
195.64.225.20,4,66,visti.net,UA,Europe,Eastern Europe,Ukraine,,,
185.91.75.3,4,39,vitamax.ua,UA,Europe,Eastern Europe,Ukraine,Lviv,,Lviv
89.184.91.146,4,8,vitannya.com.ua,UA,Europe,Eastern Europe,Ukraine,Kyiv City,,Kyiv
185.67.2.16,4,16,vitava.com.ua,UA,Europe,Eastern Europe,Ukraine,,,
185.252.24.243,4,19,viva.ua,UA,Europe,Eastern Europe,Ukraine,Kyiv Oblast,,
185.68.16.171,4,61,vkfinspo.com,UA,Europe,Eastern Europe,Ukraine,,,
45.135.0.30,4,28,vkruiz.com,UA,Europe,Eastern Europe,Ukraine,,,
185.66.91.103,4,73,vkspeed.com,UA,Europe,Eastern Europe,Ukraine,,,
77.120.117.18,4,40,vlasenko.net,UA,Europe,Eastern Europe,Ukraine,Kyiv City,,Kyiv
185.104.45.80,4,8,vlasno.info,UA,Europe,Eastern Europe,Ukraine,,,
193.243.158.11,4,9,vn.ua,UA,Europe,Eastern Europe,Ukraine,,,
195.177.236.76,4,-5112,vnmu.edu.ua,UA,Europe,Eastern Europe,Ukraine,,,
194.146.143.10,4,14,vntu.edu.ua,UA,Europe,Eastern Europe,Ukraine,,,
176.102.34.146,4,16,vobu.ua,UA,Europe,Eastern Europe,Ukraine,Kyiv City,,Kyiv
91.200.40.89,4,-11,vodenet.com.ua,UA,Europe,Eastern Europe,Ukraine,,,
185.104.45.87,4,29,volodymyrmylifemyrulstop.online,UA,Europe,Eastern Europe,Ukraine,,,
31.41.216.85,4,70,voltolinacomponents.com,UA,Europe,Eastern Europe,Ukraine,,,
185.104.45.162,4,2,volunteer.country,UA,Europe,Eastern Europe,Ukraine,,,
89.184.77.102,4,37,volyninfo.com,UA,Europe,Eastern Europe,Ukraine,Kyiv City,,Kyiv
185.68.16.18,4,6,vorskla.com.ua,UA,Europe,Eastern Europe,Ukraine,,,
94.131.246.43,4,43,vpoltave.info,UA,Europe,Eastern Europe,Ukraine,,,
185.68.16.14,4,3,vrsaliansauto.com.ua,UA,Europe,Eastern Europe,Ukraine,,,
195.248.235.242,4,52,vsau.org,UA,Europe,Eastern Europe,Ukraine,,,
77.120.117.86,4,57,vse.ua,UA,Europe,Eastern Europe,Ukraine,Kyiv City,,Kyiv
194.1.195.46,4,1460,vsei.ua,UA,Europe,Eastern Europe,Ukraine,Kyiv City,,Kyiv
185.104.45.148,4,51,vsi-slova.com.ua,UA,Europe,Eastern Europe,Ukraine,,,
185.174.174.220,4,3,vspu.edu.ua,UA,Europe,Eastern Europe,Ukraine,,,
176.111.61.25,4,0,vsupport.club,UA,Europe,Eastern Europe,Ukraine,Kherson Oblast,,Velyka Oleksandrivka
185.68.16.185,4,22,w2w.com.ua,UA,Europe,Eastern Europe,Ukraine,,,
185.68.16.100,4,6,walls-decor.com.ua,UA,Europe,Eastern Europe,Ukraine,,,
89.184.73.225,4,14,walton.biz,UA,Europe,Eastern Europe,Ukraine,Kyiv City,,Kyiv
193.93.55.25,4,4,wanqingsun.com,UA,Europe,Eastern Europe,Ukraine,,,
185.104.45.31,4,1,wd.ua,UA,Europe,Eastern Europe,Ukraine,,,
185.124.9.122,4,73,web-creator.org,UA,Europe,Eastern Europe,Ukraine,,,
185.68.16.20,4,4,web-promo.ua,UA,Europe,Eastern Europe,Ukraine,,,
185.68.16.123,4,7,webmax.com.ua,UA,Europe,Eastern Europe,Ukraine,,,
91.218.214.32,4,-275865,webplus.info,UA,Europe,Eastern Europe,Ukraine,,,
185.104.45.11,4,30,webpromotion.com.ua,UA,Europe,Eastern Europe,Ukraine,,,
185.104.45.38,4,7,webzarobitok.com,UA,Europe,Eastern Europe,Ukraine,,,
89.184.73.158,4,18,wedding.ua,UA,Europe,Eastern Europe,Ukraine,Kyiv City,,Kyiv
176.114.3.27,4,3,week.life,UA,Europe,Eastern Europe,Ukraine,Kyiv Oblast,,
89.184.74.196,4,9,wellcrypto.io,UA,Europe,Eastern Europe,Ukraine,Kyiv City,,Kyiv
89.184.94.25,4,11,weltex.com.ua,UA,Europe,Eastern Europe,Ukraine,Kyiv City,,Kyiv
195.191.25.253,4,7,what-is.com.ua,UA,Europe,Eastern Europe,Ukraine,,,
91.222.137.223,4,3,winnerauto.ua,UA,Europe,Eastern Europe,Ukraine,,,
91.239.234.30,4,10,wlm.org.ua,UA,Europe,Eastern Europe,Ukraine,,,
89.184.82.117,4,42,wog.ua,UA,Europe,Eastern Europe,Ukraine,Kyiv City,,Kyiv
89.184.68.106,4,20,womanadvice.ru,UA,Europe,Eastern Europe,Ukraine,Kyiv City,,Kyiv
91.200.40.74,4,815,wonderbox.ua,UA,Europe,Eastern Europe,Ukraine,,,
185.104.45.110,4,15,world-press.org,UA,Europe,Eastern Europe,Ukraine,,,
77.120.102.145,4,5,worldnewsage.com,UA,Europe,Eastern Europe,Ukraine,Kyiv City,,Kyiv
185.104.45.137,4,2,wp-puzzle.com,UA,Europe,Eastern Europe,Ukraine,,,
89.184.79.27,4,11,wpcalc.com,UA,Europe,Eastern Europe,Ukraine,Kyiv City,,Kyiv
91.222.136.87,4,1,xado.com,UA,Europe,Eastern Europe,Ukraine,,,
91.223.180.93,4,89,xn----7sbbaqhlkm9ah9aiq.net,UA,Europe,Eastern Europe,Ukraine,Kyiv Oblast,,
91.206.200.104,4,102,xn----7sbqc1ahc7afe2lrdf.com,UA,Europe,Eastern Europe,Ukraine,,,
93.190.45.5,4,41,xn--41-4lcpj.xn--j1amh,UA,Europe,Eastern Europe,Ukraine,,,
195.12.59.57,4,72,xn--80aaahwfaullzm.com.ua,UA,Europe,Eastern Europe,Ukraine,Kyiv City,,Kyiv
193.47.166.204,4,68,xn--e1afeoglahgd.xn--p1ai,UA,Europe,Eastern Europe,Ukraine,Crimea,,
89.184.89.203,4,6,yaltavesti.com,UA,Europe,Eastern Europe,Ukraine,Kyiv City,,Kyiv
31.131.22.61,4,8,yampil.info,UA,Europe,Eastern Europe,Ukraine,Lviv,,Lviv
185.68.16.90,4,4,yekaterinburg1.ru,UA,Europe,Eastern Europe,Ukraine,,,
185.68.16.51,4,6,yes-valiza.com.ua,UA,Europe,Eastern Europe,Ukraine,,,
193.218.118.93,4,7,ymp4.download,UA,Europe,Eastern Europe,Ukraine,Kyiv City,,Kyiv
193.200.173.213,4,36,yur-gazeta.com,UA,Europe,Eastern Europe,Ukraine,,,
185.104.45.126,4,17,zabor-vn.com,UA,Europe,Eastern Europe,Ukraine,,,
89.184.78.152,4,32,zagorodna.com,UA,Europe,Eastern Europe,Ukraine,Kyiv City,,Kyiv
195.54.163.133,4,1613,zai4atka.com,UA,Europe,Eastern Europe,Ukraine,,,
212.1.100.6,4,7,zakarpat-rada.gov.ua,UA,Europe,Eastern Europe,Ukraine,Volyn,,Lutsk
185.9.40.133,4,767,zakupki.com.ua,UA,Europe,Eastern Europe,Ukraine,,,
91.223.223.113,4,11,zakvaski.com,UA,Europe,Eastern Europe,Ukraine,,,
77.123.131.90,4,167650,zarya-lugansk.com,UA,Europe,Eastern Europe,Ukraine,Kyiv City,,Kyiv
178.20.158.44,4,9,zdravoe.com,UA,Europe,Eastern Europe,Ukraine,Kyiv City,,Kyiv
91.200.40.69,4,967,zelenadacha.com.ua,UA,Europe,Eastern Europe,Ukraine,,,
185.68.16.133,4,46,zemledelie.org,UA,Europe,Eastern Europe,Ukraine,,,
185.104.45.37,4,23,zerno-ua.com,UA,Europe,Eastern Europe,Ukraine,,,
193.107.74.184,4,5,zht.gov.ua,UA,Europe,Eastern Europe,Ukraine,Zhytomyr,,Zhytomyr
185.104.45.133,4,7,zhytomyr-online.com,UA,Europe,Eastern Europe,Ukraine,,,
89.184.70.2,4,4,zib.com.ua,UA,Europe,Eastern Europe,Ukraine,Kyiv City,,Kyiv
45.94.159.104,4,12,zimbabwe-stock-exchange.com,UA,Europe,Eastern Europe,Ukraine,Lviv,,Lviv
185.68.16.177,4,23,zmt.com.ua,UA,Europe,Eastern Europe,Ukraine,,,
212.26.146.18,4,6,znaimo.gov.ua,UA,Europe,Eastern Europe,Ukraine,Kyiv City,,Kyiv
92.112.187.23,4,4,znakomstva.guru,UA,Europe,Eastern Europe,Ukraine,,,
46.164.150.220,4,48,zoda.gov.ua,UA,Europe,Eastern Europe,Ukraine,,,
94.179.117.178,4,-4,zp.gov.ua,UA,Europe,Eastern Europe,Ukraine,,,
80.254.6.205,4,-3,zp.gov.ua,UA,Europe,Eastern Europe,Ukraine,Zaporizhzhia,,Zaporizhzhya
91.228.147.12,4,3,zponline.com.ua,UA,Europe,Eastern Europe,Ukraine,,,
93.190.41.73,4,0,zsmu.edu.ua,UA,Europe,Eastern Europe,Ukraine,,,
195.69.222.130,4,3,zt.ua,UA,Europe,Eastern Europe,Ukraine,Zhytomyr,,Zhytomyr
91.200.40.54,4,358,zubrag.com,UA,Europe,Eastern Europe,Ukraine,,,
91.228.146.12,4,15,zzzz.su,UA,Europe,Eastern Europe,Ukraine,,,
