reflector_ip,ip_version,offset,description,country_code,region,sub_region,country_name,sub_division_1,sub_division_2,city
91.215.153.240,4,4,1win-ozbekiston.com,BG,Europe,Eastern Europe,Bulgaria,Sofia-Capital,,Sofia
194.153.145.104,4,0,abv.bg,BG,Europe,Eastern Europe,Bulgaria,,,
78.128.43.129,4,4,africanspicesafaris.com,BG,Europe,Eastern Europe,Bulgaria,,,
79.124.76.20,4,324,agencymarvel.com,BG,Europe,Eastern Europe,Bulgaria,,,
78.128.8.188,4,-528,air.bg,BG,Europe,Eastern Europe,Bulgaria,,,
195.42.142.12,4,8,airtravelgenius.com,BG,Europe,Eastern Europe,Bulgaria,,,
77.85.202.5,4,11,albena.bg,BG,Europe,Eastern Europe,Bulgaria,Pazardzhik,,Velingrad
91.148.168.17,4,-25060,album.bg,BG,Europe,Eastern Europe,Bulgaria,,,
82.118.229.98,4,5,alo.bg,BG,Europe,Eastern Europe,Bulgaria,,,
194.12.224.185,4,3,antelopeaudio.com,BG,Europe,Eastern Europe,Bulgaria,,,
195.123.224.150,4,3,apmcontrols.com.ua,BG,Europe,Eastern Europe,Bulgaria,Sofia,,
176.103.62.57,4,20641,arma-lux.com.ua,BG,Europe,Eastern Europe,Bulgaria,Sofia,,
91.148.141.93,4,17,arriva-personal.de,BG,Europe,Eastern Europe,Bulgaria,Sofia-Capital,,Sofia
45.136.198.137,4,5,atlant-mo.ru,BG,Europe,Eastern Europe,Bulgaria,,,
185.176.40.159,4,14,atspace.com,BG,Europe,Eastern Europe,Bulgaria,,,
87.118.185.19,4,25,audibg.com,BG,Europe,Eastern Europe,Bulgaria,Sofia-Capital,,Sofia
79.124.60.187,4,22791979,avxhm.se,BG,Europe,Eastern Europe,Bulgaria,,,
185.176.40.79,4,6,awardspace.co.uk,BG,Europe,Eastern Europe,Bulgaria,,,
78.128.8.27,4,7,azbukivedi-bg.com,BG,Europe,Eastern Europe,Bulgaria,,,
217.174.153.32,4,10,bahamasair.com,BG,Europe,Eastern Europe,Bulgaria,Dobrich,,Dobrich
185.176.40.116,4,7,bahraniapps.com,BG,Europe,Eastern Europe,Bulgaria,,,
91.196.126.39,4,6,banskoski.com,BG,Europe,Eastern Europe,Bulgaria,,,
213.191.221.71,4,26,bas.bg,BG,Europe,Eastern Europe,Bulgaria,,,
185.184.62.2,4,5,belferi.com,BG,Europe,Eastern Europe,Bulgaria,,,
185.31.121.136,4,945,benmatthews.eu,BG,Europe,Eastern Europe,Bulgaria,,,
195.8.223.230,4,8,bgflash.com,BG,Europe,Eastern Europe,Bulgaria,,,
94.156.218.6,4,-70,bgnes.com,BG,Europe,Eastern Europe,Bulgaria,Sofia-Capital,,Sofia
78.142.63.44,4,5,bh668.net,BG,Europe,Eastern Europe,Bulgaria,,,
78.128.81.116,4,-36602,binary-options-brokers-reviews.com,BG,Europe,Eastern Europe,Bulgaria,,,
176.103.63.187,4,3,bookmaker-expert.com,BG,Europe,Eastern Europe,Bulgaria,Sofia,,
195.8.222.71,4,11,bookpress.gr,BG,Europe,Eastern Europe,Bulgaria,,,
78.130.136.12,4,4,botevgrad.com,BG,Europe,Eastern Europe,Bulgaria,Lovech,,Teteven
193.22.248.238,4,-1792,bse-sofia.bg,BG,Europe,Eastern Europe,Bulgaria,,,
84.54.134.51,4,4,btu.bg,BG,Europe,Eastern Europe,Bulgaria,Burgas,,Burgas
217.174.149.192,4,996,budiveren.com,BG,Europe,Eastern Europe,Bulgaria,,,
195.8.223.74,4,4,bulgariamall.bg,BG,Europe,Eastern Europe,Bulgaria,,,
178.255.220.21,4,33,bulgariatravel.org,BG,Europe,Eastern Europe,Bulgaria,,,
185.31.123.35,4,-6522,bullfax.com,BG,Europe,Eastern Europe,Bulgaria,,,
46.40.73.254,4,9,bulsat.com,BG,Europe,Eastern Europe,Bulgaria,Stara Zagora,,Stara Zagora
78.128.43.193,4,4,caboverdeairlines.com,BG,Europe,Eastern Europe,Bulgaria,,,
195.42.142.35,4,21,cardboardcitizens.org.uk,BG,Europe,Eastern Europe,Bulgaria,,,
185.228.26.13,4,7,ceb.bg,BG,Europe,Eastern Europe,Bulgaria,,,
78.128.43.103,4,3,celestialheavens.com,BG,Europe,Eastern Europe,Bulgaria,,,
212.91.176.210,4,-23801,centralnaavtogara.bg,BG,Europe,Eastern Europe,Bulgaria,Sofia-Capital,,Sofia
185.176.40.100,4,12,chaoticshiny.com,BG,Europe,Eastern Europe,Bulgaria,,,
185.176.40.94,4,7,christianschoch.ch,BG,Europe,Eastern Europe,Bulgaria,,,
193.8.4.50,4,-1,ciela.com,BG,Europe,Eastern Europe,Bulgaria,Sofia-Capital,,Sofia
217.174.149.166,4,-1,cilect.org,BG,Europe,Eastern Europe,Bulgaria,,,
193.192.48.68,4,8,cinefish.bg,BG,Europe,Eastern Europe,Bulgaria,,,
217.174.149.69,4,7,contourairlines.com,BG,Europe,Eastern Europe,Bulgaria,,,
217.174.148.206,4,5,crane.aero,BG,Europe,Eastern Europe,Bulgaria,,,
91.132.60.93,4,3,crc.bg,BG,Europe,Eastern Europe,Bulgaria,,,
217.12.203.78,4,-633,credit-n.ru,BG,Europe,Eastern Europe,Bulgaria,Sofia,,
87.120.200.50,4,4,cross.bg,BG,Europe,Eastern Europe,Bulgaria,,,
91.215.153.115,4,7,cvet-forum.ru,BG,Europe,Eastern Europe,Bulgaria,Sofia-Capital,,Sofia
195.85.215.10,4,4,daigaz.com,BG,Europe,Eastern Europe,Bulgaria,Sofia-Capital,,Sofia
79.98.104.7,4,22,dailystar.com.lb,BG,Europe,Eastern Europe,Bulgaria,Sofia-Capital,,Sofia
91.196.126.37,4,4,darik.bg,BG,Europe,Eastern Europe,Bulgaria,,,
84.238.193.22,4,19,dariknews.bg,BG,Europe,Eastern Europe,Bulgaria,,,
78.142.47.210,4,2,dentalesthetic.biz,BG,Europe,Eastern Europe,Bulgaria,,,
185.203.119.204,4,4,dero.io,BG,Europe,Eastern Europe,Bulgaria,Sofia-Capital,,Sofia
185.80.0.212,4,-156456,desant.net,BG,Europe,Eastern Europe,Bulgaria,,,
195.42.142.115,4,72,devopedia.org,BG,Europe,Eastern Europe,Bulgaria,,,
195.110.25.238,4,4186,dfz.bg,BG,Europe,Eastern Europe,Bulgaria,,,
193.68.21.3,4,6,digsys.bg,BG,Europe,Eastern Europe,Bulgaria,,,
185.80.0.95,4,5,dmrbulgaria.net,BG,Europe,Eastern Europe,Bulgaria,,,
94.156.77.109,4,4,dnesbg.com,BG,Europe,Eastern Europe,Bulgaria,,,
77.71.114.44,4,2,dnesplus.bg,BG,Europe,Eastern Europe,Bulgaria,,,
95.168.224.139,4,24,DNS Server: 139-224-168-95.filibe.net,BG,Europe,Eastern Europe,Bulgaria,Plovdiv,,Plovdiv
94.26.53.141,4,22538,DNS Server: 141.53.26.94.tbc.bg,BG,Europe,Eastern Europe,Bulgaria,Sofia-Capital,,Sofia
87.254.184.37,4,63813,DNS Server: 14261.telnet.bg,BG,Europe,Eastern Europe,Bulgaria,,,
151.237.141.109,4,65693,DNS Server: 151-237-141-109.btc-net.bg,BG,Europe,Eastern Europe,Bulgaria,Varna,,Varna
151.237.111.135,4,49,DNS Server: 151.237.111.135.pronet.bg,BG,Europe,Eastern Europe,Bulgaria,Sofia-Capital,,Novi Iskar
88.80.158.57,4,166,DNS Server: 158-57.rodopibg.net,BG,Europe,Eastern Europe,Bulgaria,Pazardzhik,,Velingrad
94.236.225.163,4,3343,DNS Server: 163.225.236.94-optic-com.eu,BG,Europe,Eastern Europe,Bulgaria,Sofia-Capital,,Sofia
178.239.224.223,4,10,DNS Server: 178.239.224.223.vidin.net,BG,Europe,Eastern Europe,Bulgaria,Vidin,,Vidin
185.97.75.111,4,23773,DNS Server: 185-97-75-111.i-net.bg,BG,Europe,Eastern Europe,Bulgaria,Sofia-Capital,,Sofia
188.126.6.8,4,3615,DNS Server: 188-126-6-8.nadejda.net,BG,Europe,Eastern Europe,Bulgaria,Sofia-Capital,,Sofia
109.104.216.20,4,163587,DNS Server: 20.216.104.109.static-ip.bergon.net,BG,Europe,Eastern Europe,Bulgaria,Dobrich,,General Toshevo
85.217.207.230,4,15571,DNS Server: 207-230.thezone.bg,BG,Europe,Eastern Europe,Bulgaria,Veliko Tarnovo,,Sistov
212.5.128.173,4,2924,DNS Server: 212-5-128-173.ip.btc-net.bg,BG,Europe,Eastern Europe,Bulgaria,Sofia-Capital,,Sofia
212.5.128.66,4,-13,DNS Server: 212-5-128-66.ip.btc-net.bg,BG,Europe,Eastern Europe,Bulgaria,Sofia-Capital,,Sofia
212.5.154.218,4,3,DNS Server: 212-5-154-218.btc-net.bg,BG,Europe,Eastern Europe,Bulgaria,Sofia-Capital,,Sofia
212.5.159.4,4,15,DNS Server: 212-5-159-4.ip.btc-net.bg,BG,Europe,Eastern Europe,Bulgaria,Sofia-Capital,,Sofia
213.91.143.246,4,950828,DNS Server: 213-91-143-246.ip.btc-net.bg,BG,Europe,Eastern Europe,Bulgaria,Plovdiv,,Plovdiv
213.91.165.234,4,15742,DNS Server: 213-91-165-234.ip.btc-net.bg,BG,Europe,Eastern Europe,Bulgaria,Sofia-Capital,,Sofia
213.91.195.139,4,-46720,DNS Server: 213-91-195-139.ip.btc-net.bg,BG,Europe,Eastern Europe,Bulgaria,Sofia-Capital,,Sofia
213.91.211.168,4,20673048,DNS Server: 213-91-211-168.btc-net.bg,BG,Europe,Eastern Europe,Bulgaria,Stara Zagora,,Kazanlak
213.91.212.58,4,-27497,DNS Server: 213-91-212-58.ip.btc-net.bg,BG,Europe,Eastern Europe,Bulgaria,Shumen,,Shumen
109.104.215.28,4,12235,DNS Server: 28.215.104.109.static-ip.bergon.net,BG,Europe,Eastern Europe,Bulgaria,Dobrich,,Dobrich
37.157.187.187,4,21785,DNS Server: 37-157-187-187.net1.bg,BG,Europe,Eastern Europe,Bulgaria,,,
151.237.40.58,4,-741346706,DNS Server: 40-58.nastech.bg,BG,Europe,Eastern Europe,Bulgaria,Stara Zagora,,Kazanlak
46.10.109.67,4,633455,DNS Server: 46-10-109-67.ip.btc-net.bg,BG,Europe,Eastern Europe,Bulgaria,Varna,,Varna
46.10.158.51,4,127,DNS Server: 46-10-158-51.ip.btc-net.bg,BG,Europe,Eastern Europe,Bulgaria,Sofia-Capital,,Sofia
46.10.196.122,4,1085,DNS Server: 46-10-196-122.ip.btc-net.bg,BG,Europe,Eastern Europe,Bulgaria,Sofia-Capital,,Sofia
46.249.86.53,4,1061,DNS Server: 46-249-86-53.net1.bg,BG,Europe,Eastern Europe,Bulgaria,Sofia-Capital,,Sofia
46.55.253.26,4,138966,DNS Server: 46.55.253.26.vps.ipacct.com,BG,Europe,Eastern Europe,Bulgaria,,,
87.252.163.48,4,1100,DNS Server: 48-163-252-87.filibe.net,BG,Europe,Eastern Europe,Bulgaria,Plovdiv,,Plovdiv
5.32.132.85,4,-4540,DNS Server: 5.32.132.85.ipacct.bg,BG,Europe,Eastern Europe,Bulgaria,Blagoevgrad,,Yakoruda
77.71.44.6,4,669,DNS Server: 6-44.asparuhovo.net,BG,Europe,Eastern Europe,Bulgaria,Varna,,Varna
62.176.103.178,4,1285,DNS Server: 62-176-103-178.ip.btc-net.bg,BG,Europe,Eastern Europe,Bulgaria,Yambol,,Yambol
62.73.103.134,4,51,DNS Server: 62-73-103-134.ip.btc-net.bg,BG,Europe,Eastern Europe,Bulgaria,Plovdiv,,Plovdiv
62.73.95.231,4,51,DNS Server: 62-73-95-231.ip.btc-net.bg,BG,Europe,Eastern Europe,Bulgaria,Sofia-Capital,,Sofia
77.246.217.94,4,25200171,DNS Server: 77-246-217-94.future-bg.net,BG,Europe,Eastern Europe,Bulgaria,,,
77.76.31.49,4,58,DNS Server: 77-76-31-49.ip.btc-net.bg,BG,Europe,Eastern Europe,Bulgaria,Sofia-Capital,,Sofia
77.85.111.247,4,305,DNS Server: 77-85-111-247.ip.btc-net.bg,BG,Europe,Eastern Europe,Bulgaria,Burgas,,Burgas
77.85.164.45,4,59,DNS Server: 77-85-164-45.ip.btc-net.bg,BG,Europe,Eastern Europe,Bulgaria,Sofia-Capital,,Sofia
77.85.194.207,4,9,DNS Server: 77-85-194-207.ip.btc-net.bg,BG,Europe,Eastern Europe,Bulgaria,Pazardzhik,,Velingrad
77.85.195.234,4,479,DNS Server: 77-85-195-234.ip.btc-net.bg,BG,Europe,Eastern Europe,Bulgaria,Pazardzhik,,Velingrad
77.85.196.114,4,45,DNS Server: 77-85-196-114.ip.btc-net.bg,BG,Europe,Eastern Europe,Bulgaria,Pazardzhik,,Velingrad
77.85.197.139,4,-5422,DNS Server: 77-85-197-139.ip.btc-net.bg,BG,Europe,Eastern Europe,Bulgaria,Pazardzhik,,Velingrad
77.85.89.90,4,330,DNS Server: 77-85-89-90.ip.btc-net.bg,BG,Europe,Eastern Europe,Bulgaria,Plovdiv,,Plovdiv
78.154.8.159,4,100,DNS Server: 78-154-8-159.ip.btc-net.bg,BG,Europe,Eastern Europe,Bulgaria,Sofia-Capital,,Sofia
78.83.17.197,4,96,DNS Server: 78-83-17-197.spectrumnet.bg,BG,Europe,Eastern Europe,Bulgaria,Varna,,Varna
78.83.55.210,4,117,DNS Server: 78-83-55-210.spectrumnet.bg,BG,Europe,Eastern Europe,Bulgaria,Sofia-Capital,,Sofia
78.83.71.93,4,84,DNS Server: 78-83-71-93.spectrumnet.bg,BG,Europe,Eastern Europe,Bulgaria,Sofia-Capital,,Sofia
78.83.75.234,4,236,DNS Server: 78-83-75-234.spectrumnet.bg,BG,Europe,Eastern Europe,Bulgaria,Sofia-Capital,,Sofia
78.83.80.107,4,314,DNS Server: 78-83-80-107.spectrumnet.bg,BG,Europe,Eastern Europe,Bulgaria,Plovdiv,,Plovdiv
78.83.83.29,4,118,DNS Server: 78-83-83-29.spectrumnet.bg,BG,Europe,Eastern Europe,Bulgaria,Plovdiv,,Plovdiv
78.83.92.155,4,534,DNS Server: 78-83-92-155.spectrumnet.bg,BG,Europe,Eastern Europe,Bulgaria,Plovdiv,,Plovdiv
79.100.106.13,4,-10137812,DNS Server: 79-100-106-13.ip.btc-net.bg,BG,Europe,Eastern Europe,Bulgaria,Burgas,,Burgas
79.100.162.95,4,102,DNS Server: 79-100-162-95.ip.btc-net.bg,BG,Europe,Eastern Europe,Bulgaria,Haskovo,,Svilengrad
79.100.17.141,4,119,DNS Server: 79-100-17-141.ip.btc-net.bg,BG,Europe,Eastern Europe,Bulgaria,Sofia-Capital,,Sofia
80.72.80.12,4,4,DNS Server: 80.72.80.12.coresnet.bg,BG,Europe,Eastern Europe,Bulgaria,,,
82.137.89.244,4,1779,DNS Server: 82-137-89-244.ip.btc-net.bg,BG,Europe,Eastern Europe,Bulgaria,Varna,,Varna
83.228.106.130,4,118,DNS Server: 83-228-106-130.ip.btc-net.bg,BG,Europe,Eastern Europe,Bulgaria,Ruse,,Rousse
83.228.124.106,4,176203,DNS Server: 83-228-124-106.ip.btc-net.bg,BG,Europe,Eastern Europe,Bulgaria,Sofia-Capital,,Sofia
83.228.90.168,4,34176,DNS Server: 83-228-90-168.btc-net.bg,BG,Europe,Eastern Europe,Bulgaria,Vratsa,,Vratsa
84.22.3.114,4,1956,DNS Server: 84-22-3-114-man.etronet.com,BG,Europe,Eastern Europe,Bulgaria,Pleven,,Pleven
84.238.140.98,4,-25452768,DNS Server: 84-238-140-98.btc-net.bg,BG,Europe,Eastern Europe,Bulgaria,Burgas,,Burgas
84.40.112.31,4,21,DNS Server: 84-40-112-31.net1.bg,BG,Europe,Eastern Europe,Bulgaria,Sofia-Capital,,Sofia
84.40.67.100,4,-36528326,DNS Server: 84-40-67-100.net1.bg,BG,Europe,Eastern Europe,Bulgaria,Sofia-Capital,,Sofia
84.40.69.145,4,62390,DNS Server: 84-40-69-145.net1.bg,BG,Europe,Eastern Europe,Bulgaria,Sofia-Capital,,Sofia
84.40.91.18,4,12762,DNS Server: 84-40-91-18.net1.bg,BG,Europe,Eastern Europe,Bulgaria,Sofia-Capital,,Sofia
85.118.64.194,4,-4221097705,DNS Server: 85-118-64-194.mtel.net,BG,Europe,Eastern Europe,Bulgaria,Sofia-Capital,,Sofia
85.187.164.167,4,3294,DNS Server: 85-187-164-167.ip.ggn.bg,BG,Europe,Eastern Europe,Bulgaria,Yambol,,Yambol
85.187.172.182,4,208,DNS Server: 85-187-172-182.ip.ggn.bg,BG,Europe,Eastern Europe,Bulgaria,Yambol,,Yambol
85.187.30.193,4,71,DNS Server: 85-187-30-193.ip.btc-net.bg,BG,Europe,Eastern Europe,Bulgaria,Yambol,,Yambol
85.91.149.102,4,4971,DNS Server: 85-91-149-102.spectrumnet.bg,BG,Europe,Eastern Europe,Bulgaria,Sofia-Capital,,Sofia
85.187.17.58,4,8964,DNS Server: 85.187.17.58.ipacct.net,BG,Europe,Eastern Europe,Bulgaria,,,
85.187.183.107,4,-4404751,DNS Server: 85.187.183.107.euroxp.net,BG,Europe,Eastern Europe,Bulgaria,Stara Zagora,,Stara Zagora
85.187.42.112,4,7060,DNS Server: 85.187.42.112.ngnetbg.com,BG,Europe,Eastern Europe,Bulgaria,Burgas,,Burgas
85.187.42.219,4,-4073399623,DNS Server: 85.187.42.219.ngnetbg.com,BG,Europe,Eastern Europe,Bulgaria,Burgas,,Burgas
85.187.42.39,4,27442,DNS Server: 85.187.42.39.ngnetbg.com,BG,Europe,Eastern Europe,Bulgaria,Burgas,,Burgas
85.187.5.103,4,31805,DNS Server: 85.187.5.103.ipacct.net,BG,Europe,Eastern Europe,Bulgaria,,,
87.121.132.239,4,-218684013,DNS Server: 87-121-132-239.bulsattv.com,BG,Europe,Eastern Europe,Bulgaria,Pazardzhik,,Byaga
89.106.109.235,4,5,DNS Server: 89.106.109.235.unicsbg.net,BG,Europe,Eastern Europe,Bulgaria,Gabrovo,,Gabrovo
92.247.247.187,4,8874,DNS Server: 92-247-247-187.spectrumnet.bg,BG,Europe,Eastern Europe,Bulgaria,Sofia-Capital,,Sofia
94.156.172.137,4,-7118804,DNS Server: 94.156.172.137.neterra.net,BG,Europe,Eastern Europe,Bulgaria,Razgrad,,Razgrad
95.42.219.237,4,36267,DNS Server: 95-42-219-237.ip.btc-net.bg,BG,Europe,Eastern Europe,Bulgaria,Sofia-Capital,,Sofia
95.42.22.30,4,58996,DNS Server: 95-42-22-30.ip.btc-net.bg,BG,Europe,Eastern Europe,Bulgaria,Sofia-Capital,,Sofia
95.42.221.245,4,83680,DNS Server: 95-42-221-245.ip.btc-net.bg,BG,Europe,Eastern Europe,Bulgaria,Sofia-Capital,,Sofia
95.42.48.76,4,4418,DNS Server: 95-42-48-76.ip.btc-net.bg,BG,Europe,Eastern Europe,Bulgaria,Sofia-Capital,,Sofia
95.43.101.183,4,38722,DNS Server: 95-43-101-183.ip.btc-net.bg,BG,Europe,Eastern Europe,Bulgaria,Sofia-Capital,,Sofia
95.43.199.30,4,51,DNS Server: 95-43-199-30.ip.btc-net.bg,BG,Europe,Eastern Europe,Bulgaria,Sofia-Capital,,Sofia
95.43.199.6,4,-8131,DNS Server: 95-43-199-6.ip.btc-net.bg,BG,Europe,Eastern Europe,Bulgaria,Sofia-Capital,,Sofia
95.43.227.218,4,-24628,DNS Server: 95-43-227-218.ip.btc-net.bg,BG,Europe,Eastern Europe,Bulgaria,,,
95.43.228.149,4,-2151311972,DNS Server: 95-43-228-149.ip.btc-net.bg,BG,Europe,Eastern Europe,Bulgaria,,,
95.43.228.188,4,29630524,DNS Server: 95-43-228-188.ip.btc-net.bg,BG,Europe,Eastern Europe,Bulgaria,,,
95.43.242.119,4,118,DNS Server: 95-43-242-119.ip.btc-net.bg,BG,Europe,Eastern Europe,Bulgaria,Razgrad,,Razgrad
95.43.242.238,4,-71298,DNS Server: 95-43-242-238.ip.btc-net.bg,BG,Europe,Eastern Europe,Bulgaria,Razgrad,,Razgrad
95.43.254.53,4,-63888,DNS Server: 95-43-254-53.ip.btc-net.bg,BG,Europe,Eastern Europe,Bulgaria,Razgrad,,Loznitsa
95.87.254.86,4,1473879,DNS Server: 95-87-254-86.net1.bg,BG,Europe,Eastern Europe,Bulgaria,Sofia-Capital,,Sofia
87.126.166.65,4,-38156,DNS Server: allsoftbg.com,BG,Europe,Eastern Europe,Bulgaria,Shumen,,Shumen
78.108.247.47,4,-33004,DNS Server: app.vi-soft.net,BG,Europe,Eastern Europe,Bulgaria,,,
46.253.8.190,4,-18212235,DNS Server: bulgartel.bg,BG,Europe,Eastern Europe,Bulgaria,Sofia,,Ihtiman
84.43.199.45,4,153,DNS Server: cable-84-43-199-45.mnet.bg,BG,Europe,Eastern Europe,Bulgaria,Varna,,Varna
84.43.207.18,4,3045,DNS Server: cable-84-43-207-18.mnet.bg,BG,Europe,Eastern Europe,Bulgaria,Varna,,Varna
84.43.241.78,4,8,DNS Server: cable-84-43-241-78.mnet.bg,BG,Europe,Eastern Europe,Bulgaria,Varna,,Varna
94.236.200.196,4,8368,DNS Server: citybuild.pppoe.optic-com.eu,BG,Europe,Eastern Europe,Bulgaria,Sofia-Capital,,Sofia
94.155.193.194,4,19568,DNS Server: clients-pools.cooolbox.bg,BG,Europe,Eastern Europe,Bulgaria,Sofia-Capital,,Sofia
94.155.153.81,4,3,DNS Server: clients-pools.pl.cooolbox.bg,BG,Europe,Eastern Europe,Bulgaria,Plovdiv,,Plovdiv
94.155.138.76,4,22461,DNS Server: clients-pools.sf.cooolbox.bg,BG,Europe,Eastern Europe,Bulgaria,Sofia-Capital,,Sofia
94.155.231.227,4,-1416924168,DNS Server: clients-pools.vt.cooolbox.bg,BG,Europe,Eastern Europe,Bulgaria,Plovdiv,,Plovdiv
89.215.168.130,4,70384,DNS Server: domainserver.mastersbg.com,BG,Europe,Eastern Europe,Bulgaria,,,
81.161.247.25,4,106,DNS Server: fkts-srv1.tu-sofia.bg,BG,Europe,Eastern Europe,Bulgaria,,,
84.242.168.183,4,167441,DNS Server: free-dialup-84.242.160.183.Burgas.dialup.0rbitel.net,BG,Europe,Eastern Europe,Bulgaria,Sofia-Capital,,Sofia
84.242.172.200,4,39396,DNS Server: free-dialup-84.242.172.200.Lovech.dialup.0rbitel.net,BG,Europe,Eastern Europe,Bulgaria,Sofia-Capital,,Sofia
78.130.247.161,4,17,DNS Server: ge-0.aggregation.cooolbox.bg,BG,Europe,Eastern Europe,Bulgaria,Plovdiv,,Plovdiv
78.83.128.137,4,1,DNS Server: home-78-83-128-137.optinet.bg,BG,Europe,Eastern Europe,Bulgaria,Yambol,,Yambol
77.71.62.125,4,31878,DNS Server: host-125-62-71-77.vnlan.net,BG,Europe,Eastern Europe,Bulgaria,Varna,,Varna
78.128.35.76,4,10314,DNS Server: host.35.76.bol-bg.com,BG,Europe,Eastern Europe,Bulgaria,Sofia-Capital,,Sofia
78.128.50.170,4,1587,DNS Server: host.50.170.bol-bg.com,BG,Europe,Eastern Europe,Bulgaria,Sofia-Capital,,Sofia
78.128.70.227,4,-151946237,DNS Server: host.70.227.bol-bg.com,BG,Europe,Eastern Europe,Bulgaria,Sofia-Capital,,Sofia
185.108.141.114,4,3,DNS Server: host.netx.bg,BG,Europe,Eastern Europe,Bulgaria,Sofia-Capital,,Sofia
45.84.187.6,4,14495983,DNS Server: host18784456.burgasnet.com,BG,Europe,Eastern Europe,Bulgaria,Burgas,,Burgas
83.143.146.43,4,77,DNS Server: hst-146-43.orlandonet.net,BG,Europe,Eastern Europe,Bulgaria,Sofia-Capital,,Sofia
77.71.83.114,4,-13951574,DNS Server: ip-114-83-71-77.varnalan.com,BG,Europe,Eastern Europe,Bulgaria,Varna,,Varna
109.104.213.141,4,28,DNS Server: ip-141.net-213.bergon.net,BG,Europe,Eastern Europe,Bulgaria,Dobrich,,Dobrich
77.71.21.188,4,718,DNS Server: ip-188-21-71-77.varnalan.com,BG,Europe,Eastern Europe,Bulgaria,Varna,,Varna
109.104.223.216,4,543,DNS Server: ip-216.net-223.bergon.net,BG,Europe,Eastern Europe,Bulgaria,Dobrich,,General Toshevo
77.71.15.227,4,85732,DNS Server: ip-227-15-71-77.topoli.net,BG,Europe,Eastern Europe,Bulgaria,Varna,,Varna
82.118.243.189,4,-96146,DNS Server: ip-243-189.telepoint.bg,BG,Europe,Eastern Europe,Bulgaria,,,
46.238.42.166,4,5072,DNS Server: ip-46-238-42-166.home.megalan.bg,BG,Europe,Eastern Europe,Bulgaria,Sofia-Capital,,Sofia
77.71.69.6,4,1044,DNS Server: ip-6-69-71-77.varnalan.com,BG,Europe,Eastern Europe,Bulgaria,Varna,,Varna
77.238.83.133,4,7416,DNS Server: ip-77.238.83.133.fiber1.bg,BG,Europe,Eastern Europe,Bulgaria,Sofia-Capital,,Sofia
79.124.84.180,4,134,DNS Server: ip-84-180.telepoint.bg,BG,Europe,Eastern Europe,Bulgaria,,,
95.111.73.97,4,5491,DNS Server: ip-95-111-73-97.home.megalan.bg,BG,Europe,Eastern Europe,Bulgaria,Sofia-Capital,,Sofia
95.111.82.213,4,-51471316,DNS Server: ip-95-111-82-213.home.megalan.bg,BG,Europe,Eastern Europe,Bulgaria,Sofia-Capital,,Sofia
95.87.27.227,4,12563,DNS Server: ip-95-87-27-227.trakiacable.bg,BG,Europe,Eastern Europe,Bulgaria,Stara Zagora,,Stara Zagora
164.138.217.45,4,363,DNS Server: jmd2yx8e.superdnsserver.net,BG,Europe,Eastern Europe,Bulgaria,,,
82.103.72.242,4,-264139,DNS Server: ma3x.bl.spnet.net,BG,Europe,Eastern Europe,Bulgaria,Sofia-Capital,,Sofia
46.47.84.248,4,313,DNS Server: mail.2mprint.bg,BG,Europe,Eastern Europe,Bulgaria,Sofia-Capital,,Sofia
95.43.243.78,4,479,DNS Server: mail.simbg.co,BG,Europe,Eastern Europe,Bulgaria,Razgrad,,Razgrad
92.247.90.158,4,300,DNS Server: mail2.chavo.biz,BG,Europe,Eastern Europe,Bulgaria,Sofia-Capital,,Sofia
37.120.152.235,4,10870,DNS Server: mail3.drawoarwheel.com,BG,Europe,Eastern Europe,Bulgaria,Sofia,,
77.76.190.71,4,193140,DNS Server: man-71-190-vr.m-real.net,BG,Europe,Eastern Europe,Bulgaria,Vratsa,,Vratsa
91.204.221.165,4,342,DNS Server: mbal.rakovski.biz,BG,Europe,Eastern Europe,Bulgaria,,,
195.230.10.15,4,21555,DNS Server: newtek.tea.bg,BG,Europe,Eastern Europe,Bulgaria,Sofia-Capital,,Sofia
87.120.228.1,4,33440,DNS Server: ns.telecompbg.com,BG,Europe,Eastern Europe,Bulgaria,Sofia-Capital,,Sofia
46.253.13.90,4,-43737,DNS Server: pppoe-46.253.13.90.opticnet-bg.net,BG,Europe,Eastern Europe,Bulgaria,Sofia,,Ihtiman
87.120.1.233,4,-493740981,DNS Server: pppoe-87-120-1-233.citybs.net,BG,Europe,Eastern Europe,Bulgaria,Burgas,,Burgas
87.121.86.63,4,261,DNS Server: pppoe-87-121-86-63.citybs.net,BG,Europe,Eastern Europe,Bulgaria,,,
185.35.177.34,4,-17147333,DNS Server: reverse.itvnet.bg,BG,Europe,Eastern Europe,Bulgaria,Stara Zagora,,Kazanlak
213.130.70.98,4,-79,DNS Server: Scortel.netissat.net,BG,Europe,Eastern Europe,Bulgaria,,,
193.201.240.58,4,15345,DNS Server: share1.ma3x.net,BG,Europe,Eastern Europe,Bulgaria,,,
89.215.177.55,4,24634,DNS Server: unknown.ddns-lan.rakovski.ekk.bg,BG,Europe,Eastern Europe,Bulgaria,,,
217.9.239.18,4,351,DNS Server: unknown.interbgc.com,BG,Europe,Eastern Europe,Bulgaria,,,
217.145.86.12,4,71,DNS Server: UNNAMED.varna.net,BG,Europe,Eastern Europe,Bulgaria,Varna,,Varna
89.106.117.0,4,383,DNS Server: vidin-117-0.vidaoptics.com,BG,Europe,Eastern Europe,Bulgaria,Vidin,,Vidin
89.106.123.0,4,385,DNS Server: vidin-123-0.vidaoptics.com,BG,Europe,Eastern Europe,Bulgaria,Vidin,,Vidin
89.106.125.0,4,192,DNS Server: vidin-125-0.vidaoptics.com,BG,Europe,Eastern Europe,Bulgaria,,,
84.54.147.27,4,3384,DNS Server: vlan-147-game-27.comnet.bg,BG,Europe,Eastern Europe,Bulgaria,Burgas,,Burgas
94.236.193.70,4,285,DNS Server: vpn.novacom.bg,BG,Europe,Eastern Europe,Bulgaria,Sofia-Capital,,Sofia
87.236.177.137,4,232,DNS Server: vps19996.hosted-by-eurohoster.org,BG,Europe,Eastern Europe,Bulgaria,,,
85.130.97.26,4,178,DNS Server: vps2.ms-link.com,BG,Europe,Eastern Europe,Bulgaria,,,
213.226.11.210,4,363,DNS Server: wimax-pool-11-210.mtel.net,BG,Europe,Eastern Europe,Bulgaria,Sofia-Capital,,Sofia
217.145.83.174,4,3,domains-register.com,BG,Europe,Eastern Europe,Bulgaria,Varna,,Varna
79.124.76.10,4,10,domholidays.com,BG,Europe,Eastern Europe,Bulgaria,,,
194.153.145.119,4,1,dox.bg,BG,Europe,Eastern Europe,Bulgaria,,,
78.128.76.19,4,5,dubaichronicle.com,BG,Europe,Eastern Europe,Bulgaria,Sofia-Capital,,Sofia
79.124.90.109,4,-189448,duma.bg,BG,Europe,Eastern Europe,Bulgaria,Blagoevgrad,,Gotse Delchev
91.215.154.165,4,4,duster-clubs.ru,BG,Europe,Eastern Europe,Bulgaria,Sofia-Capital,,Sofia
93.123.118.27,4,2,dyn.ch,BG,Europe,Eastern Europe,Bulgaria,Sofia,,
217.174.148.151,4,6,eaafcameroon.org,BG,Europe,Eastern Europe,Bulgaria,,,
84.238.193.26,4,86,edna.bg,BG,Europe,Eastern Europe,Bulgaria,,,
78.128.43.69,4,42,elite-pharma.com,BG,Europe,Eastern Europe,Bulgaria,,,
185.176.43.102,4,15,enature.com,BG,Europe,Eastern Europe,Bulgaria,,,
217.79.36.252,4,39,eshop.bg,BG,Europe,Eastern Europe,Bulgaria,Sofia-Capital,,Sofia
195.42.142.39,4,3,ethiopia-insight.com,BG,Europe,Eastern Europe,Bulgaria,,,
195.8.222.42,4,6,eurogeologists.eu,BG,Europe,Eastern Europe,Bulgaria,,,
193.68.158.70,4,30,europe.bg,BG,Europe,Eastern Europe,Bulgaria,Pleven,,Slavyanovo
87.121.150.41,4,-9,exoticholiday.bg,BG,Europe,Eastern Europe,Bulgaria,,,
78.128.127.54,4,3,fahrzeugtechnik-kruse.de,BG,Europe,Eastern Europe,Bulgaria,Sofia-Capital,,Sofia
79.98.104.12,4,9,fair.bg,BG,Europe,Eastern Europe,Bulgaria,Sofia-Capital,,Sofia
79.98.104.206,4,3,fantelas.net,BG,Europe,Eastern Europe,Bulgaria,Sofia-Capital,,Sofia
78.128.60.42,4,523,flyslm.com,BG,Europe,Eastern Europe,Bulgaria,,,
195.8.223.35,4,3,foodbusinessafrica.com,BG,Europe,Eastern Europe,Bulgaria,,,
91.210.190.123,4,6,footballtransfer.com.ua,BG,Europe,Eastern Europe,Bulgaria,,,
78.142.63.38,4,795,forojuridico.com,BG,Europe,Eastern Europe,Bulgaria,,,
213.91.202.229,4,528235,fortnoks.net,BG,Europe,Eastern Europe,Bulgaria,Sofia-Capital,,Sofia
164.138.220.147,4,59,framar.bg,BG,Europe,Eastern Europe,Bulgaria,,,
185.123.188.150,4,6,freead1.net,BG,Europe,Eastern Europe,Bulgaria,,,
78.142.63.113,4,-35953,friv.cm,BG,Europe,Eastern Europe,Bulgaria,,,
82.118.229.242,4,3,frognews.bg,BG,Europe,Eastern Europe,Bulgaria,,,
91.215.219.129,4,535637,fwme.eu,BG,Europe,Eastern Europe,Bulgaria,Sofia-Capital,,Sofia
83.228.105.246,4,8,gabrovo.bg,BG,Europe,Eastern Europe,Bulgaria,Ruse,,Rousse
87.120.207.235,4,3,gospodari.com,BG,Europe,Eastern Europe,Bulgaria,,,
130.185.232.75,4,75,grreporter.info,BG,Europe,Eastern Europe,Bulgaria,,,
195.189.82.66,4,2,gtabg.net,BG,Europe,Eastern Europe,Bulgaria,,,
79.98.111.192,4,12,guide-bulgaria.com,BG,Europe,Eastern Europe,Bulgaria,Sofia-Capital,,Sofia
194.48.248.81,4,2,hamsterkombat.zone,BG,Europe,Eastern Europe,Bulgaria,,,
185.55.231.52,4,4,happy.bg,BG,Europe,Eastern Europe,Bulgaria,,,
195.24.88.66,4,-3,haskovo.net,BG,Europe,Eastern Europe,Bulgaria,Haskovo,,Haskovo
82.118.225.4,4,-659437,hitechreview.com,BG,Europe,Eastern Europe,Bulgaria,,,
217.174.152.52,4,680,hkagentsltd.com,BG,Europe,Eastern Europe,Bulgaria,Dobrich,,Dobrich
195.123.224.220,4,54,homeocean.com.ua,BG,Europe,Eastern Europe,Bulgaria,Sofia,,
79.124.63.185,4,14,hotnews.bg,BG,Europe,Eastern Europe,Bulgaria,,,
195.69.164.134,4,-2458395,icnhost.net,BG,Europe,Eastern Europe,Bulgaria,,,
185.176.40.215,4,7,icommercemarketing.com,BG,Europe,Eastern Europe,Bulgaria,,,
78.128.60.135,4,3,iiitm.ac.in,BG,Europe,Eastern Europe,Bulgaria,,,
195.8.222.36,4,46,ima.org.uk,BG,Europe,Eastern Europe,Bulgaria,,,
212.5.51.85,4,2,imagiware.com,BG,Europe,Eastern Europe,Bulgaria,,,
79.124.90.43,4,3,imotera.com,BG,Europe,Eastern Europe,Bulgaria,Blagoevgrad,,Gotse Delchev
85.14.28.174,4,65,imoti.net,BG,Europe,Eastern Europe,Bulgaria,Sofia-Capital,,Sofia
78.128.98.201,4,2,imperiaonline.org,BG,Europe,Eastern Europe,Bulgaria,,,
78.128.98.202,4,2,imperiaonline.org,BG,Europe,Eastern Europe,Bulgaria,,,
78.142.47.22,4,18,indah-education.nl,BG,Europe,Eastern Europe,Bulgaria,,,
78.128.6.162,4,15,inews.bg,BG,Europe,Eastern Europe,Bulgaria,,,
79.98.107.7,4,1094522,infostock.bg,BG,Europe,Eastern Europe,Bulgaria,Sofia-Capital,,Sofia
193.68.190.3,4,5,io-bas.bg,BG,Europe,Eastern Europe,Bulgaria,Pleven,,Slavyanovo
85.14.37.45,4,243313,ipacbc-bgtr.eu,BG,Europe,Eastern Europe,Bulgaria,,,
195.85.215.215,4,2,ipacct.com,BG,Europe,Eastern Europe,Bulgaria,Sofia-Capital,,Sofia
91.230.230.20,4,6,ivelinabozilova.com,BG,Europe,Eastern Europe,Bulgaria,,,
212.5.51.47,4,4,iztok-zapad.eu,BG,Europe,Eastern Europe,Bulgaria,,,
86.104.15.62,4,3,join-mozart-festival.org,BG,Europe,Eastern Europe,Bulgaria,Sofia-Capital,,Sofia
87.121.150.37,4,-372141,journey.bg,BG,Europe,Eastern Europe,Bulgaria,,,
46.249.70.3,4,271,julimaruli.com,BG,Europe,Eastern Europe,Bulgaria,Sofia-Capital,,Sofia
79.124.76.125,4,1163,kantabs.com,BG,Europe,Eastern Europe,Bulgaria,,,
77.246.216.3,4,4,karadimov.info,BG,Europe,Eastern Europe,Bulgaria,,,
217.174.153.233,4,6,kazanlak.com,BG,Europe,Eastern Europe,Bulgaria,Dobrich,,Dobrich
78.128.43.237,4,4,kedai168app.com,BG,Europe,Eastern Europe,Bulgaria,,,
185.176.40.112,4,3,kenwright.com,BG,Europe,Eastern Europe,Bulgaria,,,
94.156.177.53,4,3,kms-full.com,BG,Europe,Eastern Europe,Bulgaria,,,
195.42.143.24,4,49,kragujevac.rs,BG,Europe,Eastern Europe,Bulgaria,,,
217.174.153.144,4,4,labomatic.com.sa,BG,Europe,Eastern Europe,Bulgaria,Dobrich,,Dobrich
193.203.198.157,4,1,ladypopular.com,BG,Europe,Eastern Europe,Bulgaria,,,
185.176.40.56,4,8,leagueofgentlemen.co.uk,BG,Europe,Eastern Europe,Bulgaria,,,
86.104.15.60,4,9,ledsf.com,BG,Europe,Eastern Europe,Bulgaria,Sofia-Capital,,Sofia
195.191.35.102,4,14,levski.bg,BG,Europe,Eastern Europe,Bulgaria,Sofia-Capital,,Sofia
193.8.4.133,4,792,lex.bg,BG,Europe,Eastern Europe,Bulgaria,Sofia-Capital,,Sofia
82.118.229.66,4,39,linux-bg.org,BG,Europe,Eastern Europe,Bulgaria,,,
86.104.15.69,4,2,lisa-stansfield.com,BG,Europe,Eastern Europe,Bulgaria,Sofia-Capital,,Sofia
185.123.188.163,4,39,liternet.bg,BG,Europe,Eastern Europe,Bulgaria,,,
91.206.228.15,4,39,livetv.ru,BG,Europe,Eastern Europe,Bulgaria,,,
79.98.107.139,4,3,lter-europe.net,BG,Europe,Eastern Europe,Bulgaria,Sofia-Capital,,Sofia
185.205.210.248,4,3,ltobet1.com,BG,Europe,Eastern Europe,Bulgaria,Sofia-Capital,,Sofia
185.117.82.66,4,3,ludost.net,BG,Europe,Eastern Europe,Bulgaria,,,
79.124.76.236,4,53,macecraft.com,BG,Europe,Eastern Europe,Bulgaria,,,
193.201.172.98,4,3,mail.bg,BG,Europe,Eastern Europe,Bulgaria,,,
195.8.222.33,4,7,manzaratourism.com,BG,Europe,Eastern Europe,Bulgaria,,,
77.77.151.176,4,38,mapcrow.info,BG,Europe,Eastern Europe,Bulgaria,Sofia-Capital,,Sofia
78.128.60.189,4,13,markhumphrys.com,BG,Europe,Eastern Europe,Bulgaria,,,
93.123.118.183,4,30,menshealthweek.org.au,BG,Europe,Eastern Europe,Bulgaria,Sofia,,
93.152.174.18,4,13,metropolitan.bg,BG,Europe,Eastern Europe,Bulgaria,Sofia-Capital,,Sofia
185.55.229.7,4,540120,mgu.bg,BG,Europe,Eastern Europe,Bulgaria,,,
91.148.168.144,4,304,mi2n.com,BG,Europe,Eastern Europe,Bulgaria,,,
185.31.121.158,4,9,migcombg.com,BG,Europe,Eastern Europe,Bulgaria,,,
5.104.175.194,4,0,mirogled.com,BG,Europe,Eastern Europe,Bulgaria,,,
217.174.149.198,4,1002,mksbg.com,BG,Europe,Eastern Europe,Bulgaria,,,
193.192.48.154,4,21,mobilebulgaria.com,BG,Europe,Eastern Europe,Bulgaria,,,
84.54.185.127,4,26196968,modul-modus.com,BG,Europe,Eastern Europe,Bulgaria,Burgas,,Burgas
84.238.193.171,4,13,monitor.bg,BG,Europe,Eastern Europe,Bulgaria,,,
185.123.188.43,4,33,moreto.net,BG,Europe,Eastern Europe,Bulgaria,,,
79.124.17.100,4,33,mplayerhq.hu,BG,Europe,Eastern Europe,Bulgaria,,,
85.14.37.47,4,4,mrrb.bg,BG,Europe,Eastern Europe,Bulgaria,,,
194.141.67.7,4,64,mu-pleven.bg,BG,Europe,Eastern Europe,Bulgaria,Gabrovo,,Gabrovo
194.48.248.46,4,39,myjaxxwallet.us,BG,Europe,Eastern Europe,Bulgaria,,,
87.236.177.203,4,30,nagievonline.com,BG,Europe,Eastern Europe,Bulgaria,,,
79.124.75.137,4,141,namore.info,BG,Europe,Eastern Europe,Bulgaria,,,
78.128.76.237,4,88,narodnopozoriste.rs,BG,Europe,Eastern Europe,Bulgaria,Sofia-Capital,,Sofia
82.147.128.140,4,21,nationallibrary.bg,BG,Europe,Eastern Europe,Bulgaria,Sofia-Capital,,Sofia
79.98.109.132,4,-97,ndk.bg,BG,Europe,Eastern Europe,Bulgaria,Sofia-Capital,,Sofia
84.238.193.158,4,4,netinfocompany.bg,BG,Europe,Eastern Europe,Bulgaria,,,
164.138.217.72,4,36,newage.bg,BG,Europe,Eastern Europe,Bulgaria,,,
164.138.216.77,4,4,ngobg.info,BG,Europe,Eastern Europe,Bulgaria,,,
195.8.222.39,4,8,nmnhs.com,BG,Europe,Eastern Europe,Bulgaria,,,
82.118.234.36,4,4,nolfrevival.tk,BG,Europe,Eastern Europe,Bulgaria,Sofia-Capital,,Sofia
195.42.142.26,4,5,novinar.bg,BG,Europe,Eastern Europe,Bulgaria,,,
82.119.92.230,4,24,novini.bg,BG,Europe,Eastern Europe,Bulgaria,,,
87.239.152.133,4,22,obekti.bg,BG,Europe,Eastern Europe,Bulgaria,,,
185.230.247.104,4,75,offroad-bulgaria.com,BG,Europe,Eastern Europe,Bulgaria,,,
212.39.75.76,4,171,Ookla Speedtest Server 1917: xnet-st1.contact.bg,BG,Europe,Eastern Europe,Bulgaria,Pleven,,Pleven
84.54.129.94,4,512713,Ookla Speedtest Server 2294: speedtest.comnet.bg,BG,Europe,Eastern Europe,Bulgaria,Burgas,,Burgas
87.121.0.44,4,-1677677,Ookla Speedtest Server 8312: sp1.neterra.net,BG,Europe,Eastern Europe,Bulgaria,,,
87.121.51.18,4,296,Ookla Speedtest Server 9103: sp1.retecomtv.com,BG,Europe,Eastern Europe,Bulgaria,Burgas,,Saint Vlas
85.187.244.108,4,181,Ookla Speedtest Server 17787: speed.skynet.bg,BG,Europe,Eastern Europe,Bulgaria,Sofia-Capital,,Sofia
37.46.114.4,4,695997,Ookla Speedtest Server 19016: bg.altushost.com,BG,Europe,Eastern Europe,Bulgaria,Sofia-Capital,,Sofia
83.97.65.247,4,270,Ookla Speedtest Server 30204: speedtest1.unacs.bg,BG,Europe,Eastern Europe,Bulgaria,,,
95.169.214.100,4,310,Ookla Speedtest Server 32966: speedtest.lin.bg,BG,Europe,Eastern Europe,Bulgaria,,,
213.183.62.34,4,338,Ookla Speedtest Server 38115: speedtest-sof.melbicom.net,BG,Europe,Eastern Europe,Bulgaria,Sofia-Capital,,Sofia
45.84.185.253,4,135184,Ookla Speedtest Server 42756: speed.vis21.net,BG,Europe,Eastern Europe,Bulgaria,Burgas,,Burgas
212.50.10.110,4,360,Ookla Speedtest Server 48776: nspeed.a1.bg,BG,Europe,Eastern Europe,Bulgaria,Sofia-Capital,,Sofia
87.120.254.102,4,257,Ookla Speedtest Server 53190: speedtest.vps.bg,BG,Europe,Eastern Europe,Bulgaria,,,
212.5.51.11,4,321,Ookla Speedtest Server 57118: speedtest.demabg.com,BG,Europe,Eastern Europe,Bulgaria,,,
85.187.243.9,4,129,Ookla Speedtest Server 63331: test.villagenet-bg.com,BG,Europe,Eastern Europe,Bulgaria,Burgas,,Burgas
212.50.10.98,4,340,Ookla Speedtest Server 63479: vspeed.a1.bg,BG,Europe,Eastern Europe,Bulgaria,Varna,,Varna
87.119.111.19,4,-6997550,Ookla Speedtest Server 64183: radio.rn-tv.com,BG,Europe,Eastern Europe,Bulgaria,Burgas,,Burgas
206.148.22.69,4,448,Ookla Speedtest Server 65090: sof.speedtest.gslnetworks.com,BG,Europe,Eastern Europe,Bulgaria,Sofia-Capital,,Sofia
213.16.56.13,4,257,Ookla Speedtest Server: host.tvskat.net,BG,Europe,Eastern Europe,Bulgaria,Burgas,,Burgas
78.142.1.49,4,272,Ookla Speedtest Server: speedtest.dtp-bg.bg,BG,Europe,Eastern Europe,Bulgaria,,,
89.215.246.5,4,148,Ookla Speedtest Server: speedtest.linkbg.com,BG,Europe,Eastern Europe,Bulgaria,Plovdiv,,Hisarya
93.175.246.2,4,26,Ookla Speedtest Server: www.aidabg.net,BG,Europe,Eastern Europe,Bulgaria,,,
78.128.60.116,4,5,opelclub.bg,BG,Europe,Eastern Europe,Bulgaria,,,
91.215.155.10,4,3,open4u.co.uk,BG,Europe,Eastern Europe,Bulgaria,Sofia-Capital,,Sofia
91.247.36.104,4,50,openj-gate.com,BG,Europe,Eastern Europe,Bulgaria,Sofia-Capital,,Sofia
185.55.229.87,4,-159422,operasofia.bg,BG,Europe,Eastern Europe,Bulgaria,,,
78.128.9.49,4,15,opoznai.bg,BG,Europe,Eastern Europe,Bulgaria,,,
79.98.104.4,4,38,organic4greenlivings.com,BG,Europe,Eastern Europe,Bulgaria,Sofia-Capital,,Sofia
94.103.125.15,4,3,packetvideo.com,BG,Europe,Eastern Europe,Bulgaria,,,
79.98.104.6,4,82,paperland.bg,BG,Europe,Eastern Europe,Bulgaria,Sofia-Capital,,Sofia
84.238.193.49,4,12,pariteni.bg,BG,Europe,Eastern Europe,Bulgaria,,,
31.13.218.54,4,15,payner.bg,BG,Europe,Eastern Europe,Bulgaria,Sofia-Capital,,Sofia
79.124.90.103,4,-634803,pcmania.bg,BG,Europe,Eastern Europe,Bulgaria,Blagoevgrad,,Gotse Delchev
79.98.107.137,4,29,pensoft.eu,BG,Europe,Eastern Europe,Bulgaria,Sofia-Capital,,Sofia
185.199.38.37,4,22,pest-control.bg,BG,Europe,Eastern Europe,Bulgaria,,,
91.230.193.114,4,78,petel.bg,BG,Europe,Eastern Europe,Bulgaria,,,
195.230.15.160,4,1,pfcslavia.com,BG,Europe,Eastern Europe,Bulgaria,Sofia-Capital,,Sofia
45.89.245.108,4,19,pharmacy-xl.org,BG,Europe,Eastern Europe,Bulgaria,,,
87.121.91.7,4,42,photo-forum.net,BG,Europe,Eastern Europe,Bulgaria,,,
77.95.232.13,4,21,picbg.net,BG,Europe,Eastern Europe,Bulgaria,,,
87.120.176.136,4,678401,planeta.tv,BG,Europe,Eastern Europe,Bulgaria,,,
185.123.189.25,4,70,pleper.com,BG,Europe,Eastern Europe,Bulgaria,,,
87.246.47.66,4,9,pleven.bg,BG,Europe,Eastern Europe,Bulgaria,,,
185.176.40.152,4,8,plogger.org,BG,Europe,Eastern Europe,Bulgaria,,,
82.118.225.48,4,364,pmcammo.com,BG,Europe,Eastern Europe,Bulgaria,,,
195.42.142.24,4,3,pmfun.com,BG,Europe,Eastern Europe,Bulgaria,,,
91.230.193.226,4,-234016,pochivka.bg,BG,Europe,Eastern Europe,Bulgaria,,,
79.124.44.156,4,30,pogled.info,BG,Europe,Eastern Europe,Bulgaria,,,
195.8.223.89,4,1,politeianet.gr,BG,Europe,Eastern Europe,Bulgaria,,,
212.5.51.66,4,-2516,popnable.com,BG,Europe,Eastern Europe,Bulgaria,,,
79.110.62.16,4,18,powerhouserec.com,BG,Europe,Eastern Europe,Bulgaria,,,
79.124.76.213,4,58,pravoslavie.bg,BG,Europe,Eastern Europe,Bulgaria,,,
78.128.76.196,4,71,precisionairtz.com,BG,Europe,Eastern Europe,Bulgaria,Sofia-Capital,,Sofia
85.14.4.135,4,22,profit.bg,BG,Europe,Eastern Europe,Bulgaria,Sofia-Capital,,Sofia
185.196.101.220,4,27,properstatus.com,BG,Europe,Eastern Europe,Bulgaria,Sofia-Capital,,Sofia
217.174.148.236,4,34,puls.bg,BG,Europe,Eastern Europe,Bulgaria,,,
94.156.177.250,4,33,pumaoutletonline.com,BG,Europe,Eastern Europe,Bulgaria,,,
212.5.51.52,4,5,quintadocrasto.pt,BG,Europe,Eastern Europe,Bulgaria,,,
94.156.24.77,4,13,radiofresh.bg,BG,Europe,Eastern Europe,Bulgaria,,,
195.191.35.74,4,38,radiotangra.com,BG,Europe,Eastern Europe,Bulgaria,Sofia-Capital,,Sofia
82.118.243.237,4,-282302,readera.org,BG,Europe,Eastern Europe,Bulgaria,,,
193.68.96.1,4,50,register.bg,BG,Europe,Eastern Europe,Bulgaria,,,
79.124.16.214,4,587,reha.bg,BG,Europe,Eastern Europe,Bulgaria,,,
87.121.90.189,4,6,remixshop.com,BG,Europe,Eastern Europe,Bulgaria,,,
195.8.222.24,4,5,rewriting-the-rules.com,BG,Europe,Eastern Europe,Bulgaria,,,
79.98.105.18,4,2,ringlet.net,BG,Europe,Eastern Europe,Bulgaria,Sofia-Capital,,Sofia
79.98.107.85,4,5,riojournal.com,BG,Europe,Eastern Europe,Bulgaria,Sofia-Capital,,Sofia
193.107.37.210,4,-379671,rozali.com,BG,Europe,Eastern Europe,Bulgaria,,,
78.128.60.10,4,6,rtaiknown.com,BG,Europe,Eastern Europe,Bulgaria,,,
195.42.142.18,4,54,rudnikov.com,BG,Europe,Eastern Europe,Bulgaria,,,
195.123.226.119,4,81,rus.bg,BG,Europe,Eastern Europe,Bulgaria,Sofia,,
185.31.121.155,4,14790,rusbg.com,BG,Europe,Eastern Europe,Bulgaria,,,
79.98.110.20,4,894,ruse-bg.eu,BG,Europe,Eastern Europe,Bulgaria,Sofia-Capital,,Sofia
87.118.185.133,4,4,ruskovets.com,BG,Europe,Eastern Europe,Bulgaria,Sofia-Capital,,Sofia
79.98.111.175,4,2,s21.com.gt,BG,Europe,Eastern Europe,Bulgaria,Sofia-Capital,,Sofia
78.128.8.201,4,39,saleleads.net,BG,Europe,Eastern Europe,Bulgaria,,,
87.118.140.232,4,13,sam-kinti.com,BG,Europe,Eastern Europe,Bulgaria,Lovech,,Lovech
94.72.143.150,4,6,schafpudel-vom-eichwald.de,BG,Europe,Eastern Europe,Bulgaria,Sofia-Capital,,Sofia
78.128.60.144,4,8,schrijf.be,BG,Europe,Eastern Europe,Bulgaria,,,
87.120.13.118,4,-248,servizstroj.com,BG,Europe,Eastern Europe,Bulgaria,Burgas,,Burgas
185.176.40.210,4,6,shipbroman.com,BG,Europe,Eastern Europe,Bulgaria,,,
217.174.149.112,4,373,silentium.com,BG,Europe,Eastern Europe,Bulgaria,,,
84.238.193.137,4,7,sinoptik.bg,BG,Europe,Eastern Europe,Bulgaria,,,
93.152.232.155,4,401541,skycode.com,BG,Europe,Eastern Europe,Bulgaria,Sofia-Capital,,Sofia
91.215.219.133,4,535615,slimex365.com,BG,Europe,Eastern Europe,Bulgaria,Sofia-Capital,,Sofia
82.147.128.2,4,-29243312,sliven.net,BG,Europe,Eastern Europe,Bulgaria,Sofia-Capital,,Sofia
77.78.142.105,4,12,smart-f.eu,BG,Europe,Eastern Europe,Bulgaria,Sofia-Capital,,Sofia
195.123.226.149,4,20,smartlook.com.ua,BG,Europe,Eastern Europe,Bulgaria,Sofia,,
87.239.152.50,4,42,soccerbets365.com,BG,Europe,Eastern Europe,Bulgaria,,,
164.138.217.187,4,23,sofia-airport.bg,BG,Europe,Eastern Europe,Bulgaria,,,
193.194.140.2,4,37,sofiaecho.com,BG,Europe,Eastern Europe,Bulgaria,,,
87.120.195.244,4,945,sofiatech.bg,BG,Europe,Eastern Europe,Bulgaria,,,
193.203.198.196,4,29,sofiawars.com,BG,Europe,Eastern Europe,Bulgaria,,,
85.14.4.130,4,105,sportal.bg,BG,Europe,Eastern Europe,Bulgaria,Sofia-Capital,,Sofia
185.176.40.84,4,14,sportsontheweb.net,BG,Europe,Eastern Europe,Bulgaria,,,
217.174.152.23,4,6,srwassoc.net,BG,Europe,Eastern Europe,Bulgaria,Dobrich,,Dobrich
94.155.93.108,4,25,statehouse.gov.sc,BG,Europe,Eastern Europe,Bulgaria,,,
78.128.60.156,4,22,stefanovikashti.net,BG,Europe,Eastern Europe,Bulgaria,,,
62.176.76.131,4,-27,store.bg,BG,Europe,Eastern Europe,Bulgaria,Sofia-Capital,,Sofia
79.98.104.13,4,2,stoyanovlegalpractice.com,BG,Europe,Eastern Europe,Bulgaria,Sofia-Capital,,Sofia
91.210.190.138,4,5,svitlodar.org.ua,BG,Europe,Eastern Europe,Bulgaria,,,
194.141.86.103,4,22693,swu.bg,BG,Europe,Eastern Europe,Bulgaria,Gabrovo,,Gabrovo
78.128.8.196,4,63,techamuse.com,BG,Europe,Eastern Europe,Bulgaria,,,
185.176.40.125,4,1,tekcities.com,BG,Europe,Eastern Europe,Bulgaria,,,
84.238.193.170,4,5,telegraph.bg,BG,Europe,Eastern Europe,Bulgaria,,,
217.174.152.180,4,112,theblogpress.com,BG,Europe,Eastern Europe,Bulgaria,Dobrich,,Dobrich
82.118.225.66,4,360,thehundredsclothing.com,BG,Europe,Eastern Europe,Bulgaria,,,
185.176.40.180,4,64,themanime.org,BG,Europe,Eastern Europe,Bulgaria,,,
185.55.229.91,4,5374,themayor.eu,BG,Europe,Eastern Europe,Bulgaria,,,
217.174.148.18,4,2,themza.com,BG,Europe,Eastern Europe,Bulgaria,,,
217.174.149.13,4,30,thenorthfacejacket.org,BG,Europe,Eastern Europe,Bulgaria,,,
78.128.43.92,4,54633,threecar-bg.com,BG,Europe,Eastern Europe,Bulgaria,,,
78.128.76.240,4,1090,titanfitnessclub.com,BG,Europe,Eastern Europe,Bulgaria,Sofia-Capital,,Sofia
176.103.62.103,4,34,topcasinoexpert.com,BG,Europe,Eastern Europe,Bulgaria,Sofia,,
79.98.111.110,4,17,topsport.bg,BG,Europe,Eastern Europe,Bulgaria,Sofia-Capital,,Sofia
79.98.104.133,4,4,toxylact.com,BG,Europe,Eastern Europe,Bulgaria,Sofia-Capital,,Sofia
78.128.43.93,4,9,trasdocar.org,BG,Europe,Eastern Europe,Bulgaria,,,
87.121.90.117,4,36,tribune.bg,BG,Europe,Eastern Europe,Bulgaria,,,
91.210.191.118,4,3,truetorrents.ru,BG,Europe,Eastern Europe,Bulgaria,,,
185.176.40.194,4,5,tsuhanshinbun.com,BG,Europe,Eastern Europe,Bulgaria,,,
81.161.240.3,4,-1,tu-sofia.bg,BG,Europe,Eastern Europe,Bulgaria,,,
194.141.15.6,4,21,tugab.bg,BG,Europe,Eastern Europe,Bulgaria,Gabrovo,,Gabrovo
62.204.132.34,4,3,turbobg.com,BG,Europe,Eastern Europe,Bulgaria,Ruse,,Rousse
217.174.152.33,4,372,tutorsploit.com,BG,Europe,Eastern Europe,Bulgaria,Dobrich,,Dobrich
193.108.32.26,4,-926079,uacg.bg,BG,Europe,Eastern Europe,Bulgaria,,,
193.30.228.192,4,4,uctm.edu,BG,Europe,Eastern Europe,Bulgaria,,,
195.42.142.13,4,7,udg.org.uk,BG,Europe,Eastern Europe,Bulgaria,,,
194.141.79.8,4,7,ue-varna.bg,BG,Europe,Eastern Europe,Bulgaria,Gabrovo,,Gabrovo
185.241.60.205,4,1240,uni-plovdiv.bg,BG,Europe,Eastern Europe,Bulgaria,,,
91.210.88.69,4,8,uni-ruse.bg,BG,Europe,Eastern Europe,Bulgaria,Ruse,,Rousse
62.44.96.51,4,16,uni-sofia.bg,BG,Europe,Eastern Europe,Bulgaria,Sofia-Capital,,Sofia
195.20.24.15,4,-1,uni-svishtov.bg,BG,Europe,Eastern Europe,Bulgaria,,,
194.141.8.30,4,9,unibit.bg,BG,Europe,Eastern Europe,Bulgaria,Gabrovo,,Gabrovo
91.230.230.195,4,18,unitrade-bg.com,BG,Europe,Eastern Europe,Bulgaria,,,
91.215.154.24,4,19,universalinternetlibrary.ru,BG,Europe,Eastern Europe,Bulgaria,Sofia-Capital,,Sofia
217.174.148.171,4,-1,usainbolt.com,BG,Europe,Eastern Europe,Bulgaria,,,
185.239.124.50,4,18,varna24.bg,BG,Europe,Eastern Europe,Bulgaria,,,
84.238.193.121,4,14,vesti.bg,BG,Europe,Eastern Europe,Bulgaria,,,
78.83.209.239,4,2,vfu.bg,BG,Europe,Eastern Europe,Bulgaria,,,
78.128.42.170,4,74,videoclip.bg,BG,Europe,Eastern Europe,Bulgaria,,,
91.215.153.65,4,40,vilejski-uezd.by,BG,Europe,Eastern Europe,Bulgaria,Sofia-Capital,,Sofia
78.128.79.7,4,103,visitbulgaria.net,BG,Europe,Eastern Europe,Bulgaria,Sofia-Capital,,Sofia
91.215.219.130,4,535605,votecataratas.com,BG,Europe,Eastern Europe,Bulgaria,Sofia-Capital,,Sofia
194.12.229.232,4,9,vuzf.bg,BG,Europe,Eastern Europe,Bulgaria,,,
194.141.118.115,4,57,weather.bg,BG,Europe,Eastern Europe,Bulgaria,Gabrovo,,Gabrovo
79.98.111.122,4,23,webcafe.bg,BG,Europe,Eastern Europe,Bulgaria,Sofia-Capital,,Sofia
185.176.40.161,4,32,webspell.org,BG,Europe,Eastern Europe,Bulgaria,,,
78.128.76.134,4,576,wedding-focus.com,BG,Europe,Eastern Europe,Bulgaria,Sofia-Capital,,Sofia
217.174.152.200,4,203,wedskenya.com,BG,Europe,Eastern Europe,Bulgaria,Dobrich,,Dobrich
185.176.40.96,4,3,weirdus.com,BG,Europe,Eastern Europe,Bulgaria,,,
195.8.222.25,4,6,wen.org.uk,BG,Europe,Eastern Europe,Bulgaria,,,
82.118.230.66,4,73,wikinger-turnier.de,BG,Europe,Eastern Europe,Bulgaria,Sofia-Capital,,Sofia
79.98.104.180,4,2,wirelessdevnet.com,BG,Europe,Eastern Europe,Bulgaria,Sofia-Capital,,Sofia
217.174.149.68,4,7,wjarr.com,BG,Europe,Eastern Europe,Bulgaria,,,
78.128.81.250,4,5,wowamazing.com,BG,Europe,Eastern Europe,Bulgaria,,,
78.128.8.161,4,32,www.socialfollowers.uk,BG,Europe,Eastern Europe,Bulgaria,,,
212.5.51.96,4,45,xn--80aafgxmfqdjl.xn--90ae,BG,Europe,Eastern Europe,Bulgaria,,,
91.215.216.238,4,12,zachatie.org,BG,Europe,Eastern Europe,Bulgaria,Sofia-Capital,,Sofia
185.165.96.20,4,-211,zaharmanli.bg,BG,Europe,Eastern Europe,Bulgaria,,,
93.152.175.8,4,2,zavinagi.org,BG,Europe,Eastern Europe,Bulgaria,Sofia-Capital,,Sofia
91.210.190.92,4,12,zdorovia.com.ua,BG,Europe,Eastern Europe,Bulgaria,,,
93.123.32.13,4,5,zdravei.bg,BG,Europe,Eastern Europe,Bulgaria,,,
78.128.60.72,4,4,zhtnbxh.org,BG,Europe,Eastern Europe,Bulgaria,,,
45.136.198.221,4,10,zkprb.ru,BG,Europe,Eastern Europe,Bulgaria,,,
94.155.47.65,4,939,zkrsm.mk,BG,Europe,Eastern Europe,Bulgaria,,,
193.142.0.132,4,2,znanieto.net,BG,Europe,Eastern Europe,Bulgaria,,,
185.117.83.139,4,3,zoiper.com,BG,Europe,Eastern Europe,Bulgaria,,,
