reflector_ip,ip_version,offset,description,country_code,region,sub_region,country_name,sub_division_1,sub_division_2,city
46.28.106.178,4,0,agslunecnice.cz,CZ,Europe,Eastern Europe,Czechia,Jihočeský kraj,České Budějovice District,České Budějovice
46.28.105.29,4,0,artsearch.us,CZ,Europe,Eastern Europe,Czechia,Jihočeský kraj,České Budějovice District,České Budějovice
46.28.105.9,4,22,atelierjitro.cz,CZ,Europe,Eastern Europe,Czechia,Jihočeský kraj,České Budějovice District,České Budějovice
46.28.107.225,4,16,auktiva.cz,CZ,Europe,Eastern Europe,Czechia,Jihočeský kraj,České Budějovice District,České Budějovice
46.28.105.105,4,4,autavrabek.cz,CZ,Europe,Eastern Europe,Czechia,Jihočeský kraj,České Budějovice District,České Budějovice
46.28.110.68,4,6,bau-monitoring.at,CZ,Europe,Eastern Europe,Czechia,Jihočeský kraj,České Budějovice District,České Budějovice
46.28.106.155,4,46,budgetbakers.com,CZ,Europe,Eastern Europe,Czechia,Jihočeský kraj,České Budějovice District,České Budějovice
46.13.10.11,4,28,casinoadmiral.cz,CZ,Europe,Eastern Europe,Czechia,Jihočeský kraj,České Budějovice District,České Budějovice
46.28.106.190,4,1,celkomservis.cz,CZ,Europe,Eastern Europe,Czechia,Jihočeský kraj,České Budějovice District,České Budějovice
46.28.106.37,4,7,ceske-hry.cz,CZ,Europe,Eastern Europe,Czechia,Jihočeský kraj,České Budějovice District,České Budějovice
46.28.105.81,4,0,ceske-souteze.cz,CZ,Europe,Eastern Europe,Czechia,Jihočeský kraj,České Budějovice District,České Budějovice
176.74.220.164,4,296,ceskereality.cz,CZ,Europe,Eastern Europe,Czechia,Jihočeský kraj,České Budějovice District,České Budějovice
176.74.220.134,4,53,ceskestavby.cz,CZ,Europe,Eastern Europe,Czechia,Jihočeský kraj,České Budějovice District,České Budějovice
46.28.105.13,4,5,chatadoubravka.cz,CZ,Europe,Eastern Europe,Czechia,Jihočeský kraj,České Budějovice District,České Budějovice
46.28.106.212,4,1,cmkos.cz,CZ,Europe,Eastern Europe,Czechia,Jihočeský kraj,České Budějovice District,České Budějovice
46.28.106.230,4,0,csve.cz,CZ,Europe,Eastern Europe,Czechia,Jihočeský kraj,České Budějovice District,České Budějovice
46.28.106.51,4,2,czech-bioimaging.cz,CZ,Europe,Eastern Europe,Czechia,Jihočeský kraj,České Budějovice District,České Budějovice
46.28.111.98,4,0,czechdesign.cz,CZ,Europe,Eastern Europe,Czechia,Jihočeský kraj,České Budějovice District,České Budějovice
46.28.105.84,4,1,dance-extravaganza.cz,CZ,Europe,Eastern Europe,Czechia,Jihočeský kraj,České Budějovice District,České Budějovice
46.28.105.149,4,1,diamondcare.cz,CZ,Europe,Eastern Europe,Czechia,Jihočeský kraj,České Budějovice District,České Budějovice
89.24.184.133,4,10,dolezel.info,CZ,Europe,Eastern Europe,Czechia,Jihočeský kraj,České Budějovice District,České Budějovice
46.28.105.92,4,0,e-cluny.cz,CZ,Europe,Eastern Europe,Czechia,Jihočeský kraj,České Budějovice District,České Budějovice
46.28.106.210,4,4,esperanto.cz,CZ,Europe,Eastern Europe,Czechia,Jihočeský kraj,České Budějovice District,České Budějovice
46.28.105.111,4,26,farnostbobrova.cz,CZ,Europe,Eastern Europe,Czechia,Jihočeský kraj,České Budějovice District,České Budějovice
46.28.111.182,4,2106,flaska.net,CZ,Europe,Eastern Europe,Czechia,Jihočeský kraj,České Budějovice District,České Budějovice
46.28.106.236,4,-2,floorplans.cz,CZ,Europe,Eastern Europe,Czechia,Jihočeský kraj,České Budějovice District,České Budějovice
46.28.106.151,4,2,free-decompiler.com,CZ,Europe,Eastern Europe,Czechia,Jihočeský kraj,České Budějovice District,České Budějovice
46.28.106.66,4,26,funnyos.cz,CZ,Europe,Eastern Europe,Czechia,Jihočeský kraj,České Budějovice District,České Budějovice
46.28.106.187,4,13,gamaxmotor.cz,CZ,Europe,Eastern Europe,Czechia,Jihočeský kraj,České Budějovice District,České Budějovice
46.28.106.79,4,5,gilendor.cz,CZ,Europe,Eastern Europe,Czechia,Jihočeský kraj,České Budějovice District,České Budějovice
46.28.105.79,4,4,goldmemory.cz,CZ,Europe,Eastern Europe,Czechia,Jihočeský kraj,České Budějovice District,České Budějovice
46.28.105.54,4,2,iconsfeed.com,CZ,Europe,Eastern Europe,Czechia,Jihočeský kraj,České Budějovice District,České Budějovice
46.28.105.143,4,-1,ivancice.cz,CZ,Europe,Eastern Europe,Czechia,Jihočeský kraj,České Budějovice District,České Budějovice
176.74.220.135,4,129,jihoceskedivadlo.cz,CZ,Europe,Eastern Europe,Czechia,Jihočeský kraj,České Budějovice District,České Budějovice
91.209.77.41,4,35,jobgirl24.ru,CZ,Europe,Eastern Europe,Czechia,Jihočeský kraj,České Budějovice District,České Budějovice
46.28.105.118,4,-1,kadet-ck.cz,CZ,Europe,Eastern Europe,Czechia,Jihočeský kraj,České Budějovice District,České Budějovice
46.28.109.123,4,-1,khanovaskola.cz,CZ,Europe,Eastern Europe,Czechia,Jihočeský kraj,České Budějovice District,České Budějovice
46.28.109.132,4,8,klastertepla.cz,CZ,Europe,Eastern Europe,Czechia,Jihočeský kraj,České Budějovice District,České Budějovice
46.28.105.68,4,9,kocarky-vesela.cz,CZ,Europe,Eastern Europe,Czechia,Jihočeský kraj,České Budějovice District,České Budějovice
46.28.108.218,4,38,komarno.sk,CZ,Europe,Eastern Europe,Czechia,Jihočeský kraj,České Budějovice District,České Budějovice
46.28.106.35,4,8,kosmo.cz,CZ,Europe,Eastern Europe,Czechia,Jihočeský kraj,České Budějovice District,České Budějovice
46.28.106.32,4,1,lexa-posel.cz,CZ,Europe,Eastern Europe,Czechia,Jihočeský kraj,České Budějovice District,České Budějovice
46.28.106.76,4,35,mcdanielz.eu,CZ,Europe,Eastern Europe,Czechia,Jihočeský kraj,České Budějovice District,České Budějovice
46.28.105.140,4,-1,meditor.cz,CZ,Europe,Eastern Europe,Czechia,Jihočeský kraj,České Budějovice District,České Budějovice
46.28.106.228,4,38,medlicker.com,CZ,Europe,Eastern Europe,Czechia,Jihočeský kraj,České Budějovice District,České Budějovice
176.74.217.163,4,26,metalexpert.com,CZ,Europe,Eastern Europe,Czechia,Jihočeský kraj,České Budějovice District,České Budějovice
46.28.105.136,4,56,mnof.cz,CZ,Europe,Eastern Europe,Czechia,Jihočeský kraj,České Budějovice District,České Budějovice
46.28.106.188,4,1,msmzizkov.cz,CZ,Europe,Eastern Europe,Czechia,Jihočeský kraj,České Budějovice District,České Budějovice
46.28.105.71,4,45,nakupnidivadlo.cz,CZ,Europe,Eastern Europe,Czechia,Jihočeský kraj,České Budějovice District,České Budějovice
46.28.108.203,4,0,naucmese.cz,CZ,Europe,Eastern Europe,Czechia,Jihočeský kraj,České Budějovice District,České Budějovice
46.28.105.113,4,-2,nejstromecky.cz,CZ,Europe,Eastern Europe,Czechia,Jihočeský kraj,České Budějovice District,České Budějovice
46.28.106.64,4,8,nepomuk.cz,CZ,Europe,Eastern Europe,Czechia,Jihočeský kraj,České Budějovice District,České Budějovice
46.28.106.208,4,2,ohrazenice.cz,CZ,Europe,Eastern Europe,Czechia,Jihočeský kraj,České Budějovice District,České Budějovice
46.28.108.233,4,18,ok2it.com,CZ,Europe,Eastern Europe,Czechia,Jihočeský kraj,České Budějovice District,České Budějovice
46.28.106.173,4,11,olympik.cz,CZ,Europe,Eastern Europe,Czechia,Jihočeský kraj,České Budějovice District,České Budějovice
92.62.225.11,4,319,Ookla Speedtest Server 9567: speedtest-10g.starnet.cz,CZ,Europe,Eastern Europe,Czechia,Jihočeský kraj,České Budějovice District,České Budějovice
188.120.220.120,4,87223,Ookla Speedtest Server: speed1.vyladeny.cz,CZ,Europe,Eastern Europe,Czechia,Jihočeský kraj,České Budějovice District,České Budějovice
95.80.230.253,4,79,Ookla Speedtest Server: speedtest.skylan.cz,CZ,Europe,Eastern Europe,Czechia,Jihočeský kraj,Tábor District,Veselí nad Lužnicí
46.28.106.31,4,87,opu.cz,CZ,Europe,Eastern Europe,Czechia,Jihočeský kraj,České Budějovice District,České Budějovice
92.62.226.5,4,59,pcvcomp.cz,CZ,Europe,Eastern Europe,Czechia,Jihočeský kraj,České Budějovice District,České Budějovice
46.28.109.137,4,2492,pensionedinburgh.com,CZ,Europe,Eastern Europe,Czechia,Jihočeský kraj,České Budějovice District,České Budějovice
46.28.106.23,4,34,prague-plasticsurgery.com,CZ,Europe,Eastern Europe,Czechia,Jihočeský kraj,České Budějovice District,České Budějovice
46.28.108.206,4,38,praguecc.cz,CZ,Europe,Eastern Europe,Czechia,Jihočeský kraj,České Budějovice District,České Budějovice
176.74.218.170,4,58,prnwatch.com,CZ,Europe,Eastern Europe,Czechia,Jihočeský kraj,České Budějovice District,České Budějovice
46.28.106.221,4,48,ranapece.cz,CZ,Europe,Eastern Europe,Czechia,Jihočeský kraj,České Budějovice District,České Budějovice
46.28.106.154,4,5,rc-modely-hruby.cz,CZ,Europe,Eastern Europe,Czechia,Jihočeský kraj,České Budějovice District,České Budějovice
46.28.106.205,4,65,reptarium.cz,CZ,Europe,Eastern Europe,Czechia,Jihočeský kraj,České Budějovice District,České Budějovice
46.28.105.114,4,48,retrofotr.cz,CZ,Europe,Eastern Europe,Czechia,Jihočeský kraj,České Budějovice District,České Budějovice
176.74.219.29,4,10,ros-audit.com,CZ,Europe,Eastern Europe,Czechia,Jihočeský kraj,České Budějovice District,České Budějovice
46.28.106.40,4,-1,roxy.cz,CZ,Europe,Eastern Europe,Czechia,Jihočeský kraj,České Budějovice District,České Budějovice
46.28.110.192,4,-1,rw-designer.com,CZ,Europe,Eastern Europe,Czechia,Jihočeský kraj,České Budějovice District,České Budějovice
46.28.105.83,4,-2,schalke04.cz,CZ,Europe,Eastern Europe,Czechia,Jihočeský kraj,České Budějovice District,České Budějovice
46.28.110.178,4,-5,schoolsunited.cz,CZ,Europe,Eastern Europe,Czechia,Jihočeský kraj,České Budějovice District,České Budějovice
46.28.111.151,4,4,shopsys.cz,CZ,Europe,Eastern Europe,Czechia,Jihočeský kraj,České Budějovice District,České Budějovice
46.28.111.146,4,40,sikland.cz,CZ,Europe,Eastern Europe,Czechia,Jihočeský kraj,České Budějovice District,České Budějovice
46.28.109.186,4,4,singlvkuchyni.cz,CZ,Europe,Eastern Europe,Czechia,Jihočeský kraj,České Budějovice District,České Budějovice
46.28.106.194,4,8,slovacko.cz,CZ,Europe,Eastern Europe,Czechia,Jihočeský kraj,České Budějovice District,České Budějovice
46.28.107.245,4,113,sportcentral.cz,CZ,Europe,Eastern Europe,Czechia,Jihočeský kraj,České Budějovice District,České Budějovice
46.28.111.226,4,107,sportlemons.net,CZ,Europe,Eastern Europe,Czechia,Jihočeský kraj,České Budějovice District,České Budějovice
46.28.109.212,4,18,sporttube.sk,CZ,Europe,Eastern Europe,Czechia,Jihočeský kraj,České Budějovice District,České Budějovice
46.28.106.60,4,27,stefajir.cz,CZ,Europe,Eastern Europe,Czechia,Jihočeský kraj,České Budějovice District,České Budějovice
46.28.105.61,4,30,suchevazby.cz,CZ,Europe,Eastern Europe,Czechia,Jihočeský kraj,České Budějovice District,České Budějovice
46.28.109.214,4,0,technistone.com,CZ,Europe,Eastern Europe,Czechia,Jihočeský kraj,České Budějovice District,České Budějovice
46.28.105.73,4,4,totalita.cz,CZ,Europe,Eastern Europe,Czechia,Jihočeský kraj,České Budějovice District,České Budějovice
46.28.106.218,4,118,tourist-destinations.com,CZ,Europe,Eastern Europe,Czechia,Jihočeský kraj,České Budějovice District,České Budějovice
46.28.105.107,4,30,tred.cz,CZ,Europe,Eastern Europe,Czechia,Jihočeský kraj,České Budějovice District,České Budějovice
46.28.106.81,4,15,trikotisk.cz,CZ,Europe,Eastern Europe,Czechia,Jihočeský kraj,České Budějovice District,České Budějovice
46.28.106.63,4,14,uhli-janmaria.cz,CZ,Europe,Eastern Europe,Czechia,Jihočeský kraj,České Budějovice District,České Budějovice
46.28.105.70,4,-2,unesco-mediain.cz,CZ,Europe,Eastern Europe,Czechia,Jihočeský kraj,České Budějovice District,České Budějovice
46.28.105.133,4,5,urbandroid.org,CZ,Europe,Eastern Europe,Czechia,Jihočeský kraj,České Budějovice District,České Budějovice
46.28.106.200,4,3,utf.cz,CZ,Europe,Eastern Europe,Czechia,Jihočeský kraj,České Budějovice District,České Budějovice
46.28.106.169,4,0,vabec.sk,CZ,Europe,Eastern Europe,Czechia,Jihočeský kraj,České Budějovice District,České Budějovice
46.28.105.2,4,0,vampireshop.cz,CZ,Europe,Eastern Europe,Czechia,Jihočeský kraj,České Budějovice District,České Budějovice
46.28.106.222,4,0,vurv.cz,CZ,Europe,Eastern Europe,Czechia,Jihočeský kraj,České Budějovice District,České Budějovice
46.28.105.4,4,13,webnito.cz,CZ,Europe,Eastern Europe,Czechia,Jihočeský kraj,České Budějovice District,České Budějovice
46.28.106.68,4,9,webovastranka.cz,CZ,Europe,Eastern Europe,Czechia,Jihočeský kraj,České Budějovice District,České Budějovice
46.28.107.84,4,-206960,wifihw.cz,CZ,Europe,Eastern Europe,Czechia,Jihočeský kraj,České Budějovice District,České Budějovice
46.28.105.128,4,-1,zahradkari.cz,CZ,Europe,Eastern Europe,Czechia,Jihočeský kraj,České Budějovice District,České Budějovice
46.28.106.33,4,5,zamek-slavkov.cz,CZ,Europe,Eastern Europe,Czechia,Jihočeský kraj,České Budějovice District,České Budějovice
46.28.108.93,4,25,zamekletovice.cz,CZ,Europe,Eastern Europe,Czechia,Jihočeský kraj,České Budějovice District,České Budějovice
176.74.220.136,4,63,zamky-hrady.cz,CZ,Europe,Eastern Europe,Czechia,Jihočeský kraj,České Budějovice District,České Budějovice
46.28.105.142,4,7,zarezervovat.cz,CZ,Europe,Eastern Europe,Czechia,Jihočeský kraj,České Budějovice District,České Budějovice
176.74.220.60,4,8,zavuch.info,CZ,Europe,Eastern Europe,Czechia,Jihočeský kraj,České Budějovice District,České Budějovice
46.28.105.129,4,10,zdravi-ok.cz,CZ,Europe,Eastern Europe,Czechia,Jihočeský kraj,České Budějovice District,České Budějovice
46.28.106.25,4,9,zdravysvet.eu,CZ,Europe,Eastern Europe,Czechia,Jihočeský kraj,České Budějovice District,České Budějovice
46.28.109.160,4,-1,zhodnoceni-penez.cz,CZ,Europe,Eastern Europe,Czechia,Jihočeský kraj,České Budějovice District,České Budějovice
46.28.105.148,4,-1,ztracenaexistence.cz,CZ,Europe,Eastern Europe,Czechia,Jihočeský kraj,České Budějovice District,České Budějovice
