reflector_ip,ip_version,offset,description,country_code,region,sub_region,country_name,sub_division_1,sub_division_2,city
219.129.239.35,4,24,0668.com,CN,Asia,Eastern Asia,China,Guangdong,,Guangzhou
183.6.211.61,4,30,12306.cn,CN,Asia,Eastern Asia,China,Guangdong,,Guangzhou
8.134.50.91,4,40,21cl.net,CN,Asia,Eastern Asia,China,Guangdong,,Guangzhou
193.112.121.57,4,39,52codes.net,CN,Asia,Eastern Asia,China,Guangdong,,Guangzhou
58.63.244.82,4,30,56.com,CN,Asia,Eastern Asia,China,Guangdong,,Guangzhou
183.6.211.254,4,30,72e.net,CN,Asia,Eastern Asia,China,Guangdong,,Guangzhou
81.71.74.210,4,174,aad.fit,CN,Asia,Eastern Asia,China,Guangdong,,Guangzhou
8.134.69.194,4,29,aeroht.com,CN,Asia,Eastern Asia,China,Guangdong,,Guangzhou
106.53.63.118,4,41,autoguangzhou.com.cn,CN,Asia,Eastern Asia,China,Guangdong,,Guangzhou
121.9.201.143,4,25,baicai.com,CN,Asia,Eastern Asia,China,Guangdong,,Guangzhou
139.9.42.242,4,47,baiyou100.com,CN,Asia,Eastern Asia,China,Guangdong,,Guangzhou
8.134.58.0,4,42,battery-expo.com,CN,Asia,Eastern Asia,China,Guangdong,,Guangzhou
113.108.87.223,4,24,ca168.com,CN,Asia,Eastern Asia,China,Guangdong,,Guangzhou
193.112.152.101,4,24,civilwords.com.cn,CN,Asia,Eastern Asia,China,Guangdong,,Guangzhou
8.134.104.22,4,41,ciya.cn,CN,Asia,Eastern Asia,China,Guangdong,,Guangzhou
8.138.59.84,4,60,conprofetech.com,CN,Asia,Eastern Asia,China,Guangdong,,Guangzhou
8.134.142.145,4,26,cqipc.net,CN,Asia,Eastern Asia,China,Guangdong,,Guangzhou
8.134.190.203,4,958759,ctgf163.com,CN,Asia,Eastern Asia,China,Guangdong,,Guangzhou
183.6.102.71,4,39,dataguru.cn,CN,Asia,Eastern Asia,China,Guangdong,,Guangzhou
202.104.121.50,4,-3658711459,dpxq.gov.cn,CN,Asia,Eastern Asia,China,Guangdong,,Guangzhou
139.9.61.211,4,28,e-dunhuang.com,CN,Asia,Eastern Asia,China,Guangdong,,Guangzhou
8.134.104.161,4,78,emcmark.com,CN,Asia,Eastern Asia,China,Guangdong,,Guangzhou
121.14.87.26,4,-1400879,emkt.com.cn,CN,Asia,Eastern Asia,China,Guangdong,,Guangzhou
14.152.79.198,4,14,flyme.com,CN,Asia,Eastern Asia,China,Guangdong,,Guangzhou
81.71.163.201,4,33,fumi.com,CN,Asia,Eastern Asia,China,Guangdong,,Guangzhou
8.134.39.154,4,47,gd-winsun.com,CN,Asia,Eastern Asia,China,Guangdong,,Guangzhou
14.23.155.170,4,551,gdrice.cn,CN,Asia,Eastern Asia,China,Guangdong,,Guangzhou
59.38.123.54,4,37,guxiang.com,CN,Asia,Eastern Asia,China,Guangdong,,Guangzhou
116.31.96.91,4,30,gz111.com,CN,Asia,Eastern Asia,China,Guangdong,,Guangzhou
124.71.84.194,4,28,hrloo.com,CN,Asia,Eastern Asia,China,Guangdong,,Guangzhou
8.138.153.104,4,20,imalan.cn,CN,Asia,Eastern Asia,China,Guangdong,,Guangzhou
8.138.145.164,4,47,imququ.com,CN,Asia,Eastern Asia,China,Guangdong,,Guangzhou
121.14.220.10,4,41,jarencai.com,CN,Asia,Eastern Asia,China,Guangdong,,Guangzhou
8.134.184.142,4,33,jgfts.com,CN,Asia,Eastern Asia,China,Guangdong,,Guangzhou
110.41.218.15,4,33,jieshun.cn,CN,Asia,Eastern Asia,China,Guangdong,,Guangzhou
110.41.220.38,4,-12,jieshun.cn,CN,Asia,Eastern Asia,China,Guangdong,,Guangzhou
121.9.201.137,4,14,jobui.com,CN,Asia,Eastern Asia,China,Guangdong,,Guangzhou
106.52.144.26,4,26,kongminghu.com,CN,Asia,Eastern Asia,China,Guangdong,,Guangzhou
8.134.102.2,4,118,leiuu.com,CN,Asia,Eastern Asia,China,Guangdong,,Guangzhou
202.104.121.97,4,-3658711453,lg.gov.cn,CN,Asia,Eastern Asia,China,Guangdong,,Guangzhou
8.134.93.75,4,24,liaolihua.com,CN,Asia,Eastern Asia,China,Guangdong,,Guangzhou
193.112.82.210,4,36,lovepor.cn,CN,Asia,Eastern Asia,China,Guangdong,,Guangzhou
14.152.79.179,4,-55,meizu.cn,CN,Asia,Eastern Asia,China,Guangdong,,Guangzhou
14.152.79.252,4,-56,meizu.com,CN,Asia,Eastern Asia,China,Guangdong,,Guangzhou
81.71.162.216,4,29,mjjcn.com,CN,Asia,Eastern Asia,China,Guangdong,,Guangzhou
8.134.129.66,4,25,niaocao56.com,CN,Asia,Eastern Asia,China,Guangdong,,Guangzhou
14.29.116.215,4,18,outdoors.com.cn,CN,Asia,Eastern Asia,China,Guangdong,,Guangzhou
8.134.114.204,4,31,pooban.com,CN,Asia,Eastern Asia,China,Guangdong,,Guangzhou
121.204.130.23,4,59,ptfish.com,CN,Asia,Eastern Asia,China,Guangdong,,Guangzhou
8.134.104.7,4,35,qfxww.com.cn,CN,Asia,Eastern Asia,China,Guangdong,,Guangzhou
106.53.108.67,4,20,qiuziti.com,CN,Asia,Eastern Asia,China,Guangdong,,Guangzhou
8.134.248.76,4,31,qlchat.com,CN,Asia,Eastern Asia,China,Guangdong,,Guangzhou
8.134.139.26,4,24,quanxue.cn,CN,Asia,Eastern Asia,China,Guangdong,,Guangzhou
8.138.129.231,4,37,rfid-china.com,CN,Asia,Eastern Asia,China,Guangdong,,Guangzhou
124.71.30.231,4,27,shanling.com,CN,Asia,Eastern Asia,China,Guangdong,,Guangzhou
110.41.219.222,4,30,shenzhentong.com,CN,Asia,Eastern Asia,China,Guangdong,,Guangzhou
110.41.221.221,4,-24,shenzhentong.com,CN,Asia,Eastern Asia,China,Guangdong,,Guangzhou
110.41.54.221,4,25,sjzl19.com,CN,Asia,Eastern Asia,China,Guangdong,,Guangzhou
122.9.205.254,4,46,skyworthdigital.com,CN,Asia,Eastern Asia,China,Guangdong,,Guangzhou
59.36.220.239,4,159,sofreight.com,CN,Asia,Eastern Asia,China,Guangdong,,Guangzhou
8.138.134.140,4,25,suibao.com,CN,Asia,Eastern Asia,China,Guangdong,,Guangzhou
202.104.121.51,4,-3658711467,szlh.gov.cn,CN,Asia,Eastern Asia,China,Guangdong,,Guangzhou
202.104.121.60,4,-3658711462,szlhq.gov.cn,CN,Asia,Eastern Asia,China,Guangdong,,Guangzhou
202.104.121.56,4,-3658711466,szpsq.gov.cn,CN,Asia,Eastern Asia,China,Guangdong,,Guangzhou
8.134.101.32,4,19,szztyh.com.cn,CN,Asia,Eastern Asia,China,Guangdong,,Guangzhou
8.134.143.89,4,27,tbadc.com,CN,Asia,Eastern Asia,China,Guangdong,,Guangzhou
111.227.116.8,4,29,tkgame.com,CN,Asia,Eastern Asia,China,Guangdong,,Guangzhou
8.134.66.196,4,26,tmicos.com,CN,Asia,Eastern Asia,China,Guangdong,,Guangzhou
124.71.110.110,4,32,vuln.cn,CN,Asia,Eastern Asia,China,Guangdong,,Guangzhou
106.52.59.253,4,19,wayoto.com,CN,Asia,Eastern Asia,China,Guangdong,,Guangzhou
8.134.49.224,4,24,wealink.com,CN,Asia,Eastern Asia,China,Guangdong,,Guangzhou
8.138.122.54,4,57,webyee.com,CN,Asia,Eastern Asia,China,Guangdong,,Guangzhou
8.138.166.205,4,29,xdbird.com,CN,Asia,Eastern Asia,China,Guangdong,,Guangzhou
116.31.96.89,4,5,xinhua.gov.cn,CN,Asia,Eastern Asia,China,Guangdong,,Guangzhou
8.138.84.206,4,20,xplanner.com.cn,CN,Asia,Eastern Asia,China,Guangdong,,Guangzhou
116.205.146.25,4,-54,yl1001.com,CN,Asia,Eastern Asia,China,Guangdong,,Guangzhou
116.205.146.80,4,21,yl1001.com,CN,Asia,Eastern Asia,China,Guangdong,,Guangzhou
116.205.146.150,4,24,yl1001.com,CN,Asia,Eastern Asia,China,Guangdong,,Guangzhou
125.94.240.82,4,24,yy.com,CN,Asia,Eastern Asia,China,Guangdong,,Guangzhou
81.71.162.33,4,30,zengrong.net,CN,Asia,Eastern Asia,China,Guangdong,,Guangzhou
8.134.57.220,4,26,zgguohe.com,CN,Asia,Eastern Asia,China,Guangdong,,Guangzhou
202.105.182.154,4,-1490868653,zhlead.com,CN,Asia,Eastern Asia,China,Guangdong,,Guangzhou
