reflector_ip,ip_version,offset,description,country_code,region,sub_region,country_name,sub_division_1,sub_division_2,city
5.45.112.235,4,4,20th.su,EE,Europe,Northern Europe,Estonia,Ida-Virumaa,Jõhvi vald,Jõhvi
5.45.120.156,4,5,4love4you.ru,EE,Europe,Northern Europe,Estonia,Ida-Virumaa,Jõhvi vald,Jõhvi
5.101.115.228,4,5,4x4.media,EE,Europe,Northern Europe,Estonia,Ida-Virumaa,Jõhvi vald,Jõhvi
5.101.180.147,4,3,abordazh.com,EE,Europe,Northern Europe,Estonia,Ida-Virumaa,Jõhvi vald,Jõhvi
5.101.123.224,4,7,agbina-grass.ru,EE,Europe,Northern Europe,Estonia,Ida-Virumaa,Jõhvi vald,Jõhvi
46.36.221.208,4,25,airgun.org.ru,EE,Europe,Northern Europe,Estonia,Ida-Virumaa,Jõhvi vald,Jõhvi
5.45.114.137,4,20,akb02.ru,EE,Europe,Northern Europe,Estonia,Ida-Virumaa,Jõhvi vald,Jõhvi
5.101.179.198,4,125,alfamotori.ru,EE,Europe,Northern Europe,Estonia,Ida-Virumaa,Jõhvi vald,Jõhvi
5.45.124.59,4,41,all-smeta.ru,EE,Europe,Northern Europe,Estonia,Ida-Virumaa,Jõhvi vald,Jõhvi
159.253.18.123,4,9,allprint.moscow,EE,Europe,Northern Europe,Estonia,Ida-Virumaa,Jõhvi vald,Jõhvi
159.253.19.143,4,201,altertravel.ru,EE,Europe,Northern Europe,Estonia,Ida-Virumaa,Jõhvi vald,Jõhvi
5.101.114.138,4,-3,ams-photo-software.com,EE,Europe,Northern Europe,Estonia,Ida-Virumaa,Jõhvi vald,Jõhvi
5.45.125.173,4,40,androidis.ru,EE,Europe,Northern Europe,Estonia,Ida-Virumaa,Jõhvi vald,Jõhvi
46.36.219.238,4,25,animalmeet.ru,EE,Europe,Northern Europe,Estonia,Ida-Virumaa,Jõhvi vald,Jõhvi
185.4.75.222,4,29,antor.ru,EE,Europe,Northern Europe,Estonia,Ida-Virumaa,Jõhvi vald,Jõhvi
185.4.73.9,4,4,artonline.ru,EE,Europe,Northern Europe,Estonia,Ida-Virumaa,Jõhvi vald,Jõhvi
159.253.19.222,4,89,artsforum.ru,EE,Europe,Northern Europe,Estonia,Ida-Virumaa,Jõhvi vald,Jõhvi
46.36.219.113,4,9,atlas100.ru,EE,Europe,Northern Europe,Estonia,Ida-Virumaa,Jõhvi vald,Jõhvi
46.36.219.14,4,8,autodoc24.ru,EE,Europe,Northern Europe,Estonia,Ida-Virumaa,Jõhvi vald,Jõhvi
46.36.216.232,4,12,autoshcool.ru,EE,Europe,Northern Europe,Estonia,Ida-Virumaa,Jõhvi vald,Jõhvi
5.101.113.60,4,13,avto-blogger.ru,EE,Europe,Northern Europe,Estonia,Ida-Virumaa,Jõhvi vald,Jõhvi
159.253.18.130,4,62,avtoliga.net,EE,Europe,Northern Europe,Estonia,Ida-Virumaa,Jõhvi vald,Jõhvi
159.253.20.226,4,79,avtoportal76.ru,EE,Europe,Northern Europe,Estonia,Ida-Virumaa,Jõhvi vald,Jõhvi
185.4.74.25,4,6,baltimorechronicle.com,EE,Europe,Northern Europe,Estonia,Ida-Virumaa,Jõhvi vald,Jõhvi
159.253.22.110,4,5,bankomatchik.ru,EE,Europe,Northern Europe,Estonia,Ida-Virumaa,Jõhvi vald,Jõhvi
46.36.219.243,4,35,barbosu.ru,EE,Europe,Northern Europe,Estonia,Ida-Virumaa,Jõhvi vald,Jõhvi
159.253.22.147,4,6,baseus1.ru,EE,Europe,Northern Europe,Estonia,Ida-Virumaa,Jõhvi vald,Jõhvi
46.36.221.84,4,12,bazamayak.ru,EE,Europe,Northern Europe,Estonia,Ida-Virumaa,Jõhvi vald,Jõhvi
5.45.115.165,4,12,berdichev.info,EE,Europe,Northern Europe,Estonia,Ida-Virumaa,Jõhvi vald,Jõhvi
5.45.120.42,4,39,bitcoin24.su,EE,Europe,Northern Europe,Estonia,Ida-Virumaa,Jõhvi vald,Jõhvi
159.253.20.35,4,12,blagovest-info.ru,EE,Europe,Northern Europe,Estonia,Ida-Virumaa,Jõhvi vald,Jõhvi
159.253.23.13,4,5,bonbone.ru,EE,Europe,Northern Europe,Estonia,Ida-Virumaa,Jõhvi vald,Jõhvi
46.36.223.243,4,5,carsinspections.com,EE,Europe,Northern Europe,Estonia,Ida-Virumaa,Jõhvi vald,Jõhvi
46.36.222.59,4,3,china-spec.ru,EE,Europe,Northern Europe,Estonia,Ida-Virumaa,Jõhvi vald,Jõhvi
159.253.22.254,4,5,cinemotionlab.com,EE,Europe,Northern Europe,Estonia,Ida-Virumaa,Jõhvi vald,Jõhvi
159.253.18.17,4,4,ciranova.ru,EE,Europe,Northern Europe,Estonia,Ida-Virumaa,Jõhvi vald,Jõhvi
5.45.124.43,4,5,club-kia.com,EE,Europe,Northern Europe,Estonia,Ida-Virumaa,Jõhvi vald,Jõhvi
185.4.75.141,4,5,cskamoskva.ru,EE,Europe,Northern Europe,Estonia,Ida-Virumaa,Jõhvi vald,Jõhvi
46.36.217.34,4,2,cuba-tut.ru,EE,Europe,Northern Europe,Estonia,Ida-Virumaa,Jõhvi vald,Jõhvi
159.253.18.43,4,3,d-mebela.ru,EE,Europe,Northern Europe,Estonia,Ida-Virumaa,Jõhvi vald,Jõhvi
159.253.22.138,4,8,dadaeda.ru,EE,Europe,Northern Europe,Estonia,Ida-Virumaa,Jõhvi vald,Jõhvi
46.36.218.124,4,36,dancesport.ru,EE,Europe,Northern Europe,Estonia,Ida-Virumaa,Jõhvi vald,Jõhvi
46.36.216.151,4,32,didrov.ru,EE,Europe,Northern Europe,Estonia,Ida-Virumaa,Jõhvi vald,Jõhvi
5.45.116.204,4,7,directtravel.ru,EE,Europe,Northern Europe,Estonia,Ida-Virumaa,Jõhvi vald,Jõhvi
5.101.127.9,4,27,dnr-board.com,EE,Europe,Northern Europe,Estonia,Ida-Virumaa,Jõhvi vald,Jõhvi
91.146.70.24,4,171353,DNS Server: 70024.fill.ee,EE,Europe,Northern Europe,Estonia,Ida-Virumaa,Narva linn,Narva
91.146.86.248,4,67,DNS Server: 86248.fill.ee,EE,Europe,Northern Europe,Estonia,Ida-Virumaa,Narva linn,Narva
46.36.217.37,4,20,dombusin.com,EE,Europe,Northern Europe,Estonia,Ida-Virumaa,Jõhvi vald,Jõhvi
5.101.176.10,4,5,doorinworld.ru,EE,Europe,Northern Europe,Estonia,Ida-Virumaa,Jõhvi vald,Jõhvi
5.45.112.118,4,4,dpthemes.com,EE,Europe,Northern Europe,Estonia,Ida-Virumaa,Jõhvi vald,Jõhvi
46.36.219.165,4,-22,egaist.info,EE,Europe,Northern Europe,Estonia,Ida-Virumaa,Jõhvi vald,Jõhvi
185.4.74.204,4,34,eizvestia.com,EE,Europe,Northern Europe,Estonia,Ida-Virumaa,Jõhvi vald,Jõhvi
5.45.117.64,4,14,ekostil-salon.ru,EE,Europe,Northern Europe,Estonia,Ida-Virumaa,Jõhvi vald,Jõhvi
5.101.114.180,4,4,energo-24.ru,EE,Europe,Northern Europe,Estonia,Ida-Virumaa,Jõhvi vald,Jõhvi
46.36.222.194,4,5,exbets.ru,EE,Europe,Northern Europe,Estonia,Ida-Virumaa,Jõhvi vald,Jõhvi
5.45.125.34,4,24,f1comp.ru,EE,Europe,Northern Europe,Estonia,Ida-Virumaa,Jõhvi vald,Jõhvi
159.253.22.120,4,4,fcmx.net,EE,Europe,Northern Europe,Estonia,Ida-Virumaa,Jõhvi vald,Jõhvi
5.45.121.101,4,13,fialki.su,EE,Europe,Northern Europe,Estonia,Ida-Virumaa,Jõhvi vald,Jõhvi
5.101.179.207,4,26,find-seller.ru,EE,Europe,Northern Europe,Estonia,Ida-Virumaa,Jõhvi vald,Jõhvi
159.253.18.37,4,50,forlord.ru,EE,Europe,Northern Europe,Estonia,Ida-Virumaa,Jõhvi vald,Jõhvi
159.253.19.132,4,3,forumdate.ru,EE,Europe,Northern Europe,Estonia,Ida-Virumaa,Jõhvi vald,Jõhvi
5.101.115.98,4,8,foundico.com,EE,Europe,Northern Europe,Estonia,Ida-Virumaa,Jõhvi vald,Jõhvi
5.45.116.223,4,24,free-software.com.ua,EE,Europe,Northern Europe,Estonia,Ida-Virumaa,Jõhvi vald,Jõhvi
5.101.127.46,4,10,frocus.net,EE,Europe,Northern Europe,Estonia,Ida-Virumaa,Jõhvi vald,Jõhvi
5.45.126.217,4,4,fulledu.ru,EE,Europe,Northern Europe,Estonia,Ida-Virumaa,Jõhvi vald,Jõhvi
46.36.223.121,4,21,garagebiz.ru,EE,Europe,Northern Europe,Estonia,Ida-Virumaa,Jõhvi vald,Jõhvi
46.36.223.63,4,14,gemorroya-net.ru,EE,Europe,Northern Europe,Estonia,Ida-Virumaa,Jõhvi vald,Jõhvi
46.36.223.54,4,23,ginix.com,EE,Europe,Northern Europe,Estonia,Ida-Virumaa,Jõhvi vald,Jõhvi
185.4.75.23,4,10,gladpwnz.ru,EE,Europe,Northern Europe,Estonia,Ida-Virumaa,Jõhvi vald,Jõhvi
159.253.18.155,4,99373,goodgame.rs,EE,Europe,Northern Europe,Estonia,Ida-Virumaa,Jõhvi vald,Jõhvi
5.45.115.171,4,9,gpsmarker.ru,EE,Europe,Northern Europe,Estonia,Ida-Virumaa,Jõhvi vald,Jõhvi
46.36.223.233,4,38,greets.ru,EE,Europe,Northern Europe,Estonia,Ida-Virumaa,Jõhvi vald,Jõhvi
5.45.116.14,4,4,h-freed.ru,EE,Europe,Northern Europe,Estonia,Ida-Virumaa,Jõhvi vald,Jõhvi
46.36.221.127,4,7,hellomonaco.com,EE,Europe,Northern Europe,Estonia,Ida-Virumaa,Jõhvi vald,Jõhvi
5.101.180.52,4,12,hockeyclub.ru,EE,Europe,Northern Europe,Estonia,Ida-Virumaa,Jõhvi vald,Jõhvi
46.36.217.108,4,38,homeidea.ru,EE,Europe,Northern Europe,Estonia,Ida-Virumaa,Jõhvi vald,Jõhvi
5.45.117.63,4,4,homemediaserver.ru,EE,Europe,Northern Europe,Estonia,Ida-Virumaa,Jõhvi vald,Jõhvi
46.36.223.139,4,5191,hostdb.ru,EE,Europe,Northern Europe,Estonia,Ida-Virumaa,Jõhvi vald,Jõhvi
5.101.119.133,4,5,hubstub.ru,EE,Europe,Northern Europe,Estonia,Ida-Virumaa,Jõhvi vald,Jõhvi
5.101.114.186,4,34,i2r.ru,EE,Europe,Northern Europe,Estonia,Ida-Virumaa,Jõhvi vald,Jõhvi
5.45.119.164,4,75,inetlog.ru,EE,Europe,Northern Europe,Estonia,Ida-Virumaa,Jõhvi vald,Jõhvi
5.45.116.8,4,56,infinite-soul.org,EE,Europe,Northern Europe,Estonia,Ida-Virumaa,Jõhvi vald,Jõhvi
5.45.118.186,4,2,intercap.ru,EE,Europe,Northern Europe,Estonia,Ida-Virumaa,Jõhvi vald,Jõhvi
5.45.125.143,4,18,interesnyefakty.org,EE,Europe,Northern Europe,Estonia,Ida-Virumaa,Jõhvi vald,Jõhvi
5.45.127.79,4,2,inweb.ua,EE,Europe,Northern Europe,Estonia,Ida-Virumaa,Jõhvi vald,Jõhvi
5.101.115.49,4,66,iskra-news.info,EE,Europe,Northern Europe,Estonia,Ida-Virumaa,Jõhvi vald,Jõhvi
5.45.120.212,4,4,iswin.ru,EE,Europe,Northern Europe,Estonia,Ida-Virumaa,Jõhvi vald,Jõhvi
159.253.20.16,4,5,itecgroup.ru,EE,Europe,Northern Europe,Estonia,Ida-Virumaa,Jõhvi vald,Jõhvi
46.36.219.218,4,2,jjew.ru,EE,Europe,Northern Europe,Estonia,Ida-Virumaa,Jõhvi vald,Jõhvi
5.45.124.82,4,17,kaermorhen.ru,EE,Europe,Northern Europe,Estonia,Ida-Virumaa,Jõhvi vald,Jõhvi
159.253.21.83,4,103482,kazanreporter.ru,EE,Europe,Northern Europe,Estonia,Ida-Virumaa,Jõhvi vald,Jõhvi
185.4.72.2,4,3,klstr.ru,EE,Europe,Northern Europe,Estonia,Ida-Virumaa,Jõhvi vald,Jõhvi
5.101.179.30,4,29,korabli.eu,EE,Europe,Northern Europe,Estonia,Ida-Virumaa,Jõhvi vald,Jõhvi
159.253.21.72,4,39,kosmetichka.ru,EE,Europe,Northern Europe,Estonia,Ida-Virumaa,Jõhvi vald,Jõhvi
5.45.123.112,4,20,krasotkaepil.ru,EE,Europe,Northern Europe,Estonia,Ida-Virumaa,Jõhvi vald,Jõhvi
5.101.180.86,4,48,kripipasta.com,EE,Europe,Northern Europe,Estonia,Ida-Virumaa,Jõhvi vald,Jõhvi
46.36.216.114,4,6,kursy-programmistov.ru,EE,Europe,Northern Europe,Estonia,Ida-Virumaa,Jõhvi vald,Jõhvi
159.253.21.135,4,103,ladyfashioniser.com,EE,Europe,Northern Europe,Estonia,Ida-Virumaa,Jõhvi vald,Jõhvi
159.253.19.43,4,7,lemonsport.sk,EE,Europe,Northern Europe,Estonia,Ida-Virumaa,Jõhvi vald,Jõhvi
5.45.126.218,4,3,lovelytutorials.com,EE,Europe,Northern Europe,Estonia,Ida-Virumaa,Jõhvi vald,Jõhvi
185.4.73.39,4,6,mafia-game.ru,EE,Europe,Northern Europe,Estonia,Ida-Virumaa,Jõhvi vald,Jõhvi
46.36.218.169,4,139,make-self.net,EE,Europe,Northern Europe,Estonia,Ida-Virumaa,Jõhvi vald,Jõhvi
185.4.72.18,4,3,mamako.ua,EE,Europe,Northern Europe,Estonia,Ida-Virumaa,Jõhvi vald,Jõhvi
46.36.218.253,4,33,marqer.online,EE,Europe,Northern Europe,Estonia,Ida-Virumaa,Jõhvi vald,Jõhvi
46.36.220.41,4,60,masterclassy.ru,EE,Europe,Northern Europe,Estonia,Ida-Virumaa,Jõhvi vald,Jõhvi
159.253.20.102,4,9,me-forum.ru,EE,Europe,Northern Europe,Estonia,Ida-Virumaa,Jõhvi vald,Jõhvi
159.253.21.34,4,6,mehgrad.ru,EE,Europe,Northern Europe,Estonia,Ida-Virumaa,Jõhvi vald,Jõhvi
185.4.72.160,4,16,mentaframework.org,EE,Europe,Northern Europe,Estonia,Ida-Virumaa,Jõhvi vald,Jõhvi
5.101.180.15,4,22237,mestam.info,EE,Europe,Northern Europe,Estonia,Ida-Virumaa,Jõhvi vald,Jõhvi
159.253.21.119,4,9,metallicheckiy-portal.ru,EE,Europe,Northern Europe,Estonia,Ida-Virumaa,Jõhvi vald,Jõhvi
5.45.117.201,4,10,microsin.net,EE,Europe,Northern Europe,Estonia,Ida-Virumaa,Jõhvi vald,Jõhvi
159.253.21.115,4,7,midoma.ru,EE,Europe,Northern Europe,Estonia,Ida-Virumaa,Jõhvi vald,Jõhvi
5.45.112.142,4,27,mining-enc.ru,EE,Europe,Northern Europe,Estonia,Ida-Virumaa,Jõhvi vald,Jõhvi
159.253.23.153,4,40,mokka-club.com,EE,Europe,Northern Europe,Estonia,Ida-Virumaa,Jõhvi vald,Jõhvi
5.45.123.221,4,38,molodaja-semja.ru,EE,Europe,Northern Europe,Estonia,Ida-Virumaa,Jõhvi vald,Jõhvi
5.45.112.126,4,40,morozovadance.ru,EE,Europe,Northern Europe,Estonia,Ida-Virumaa,Jõhvi vald,Jõhvi
159.253.21.136,4,32,myboard.com.ua,EE,Europe,Northern Europe,Estonia,Ida-Virumaa,Jõhvi vald,Jõhvi
5.45.122.199,4,11,mzk2.ru,EE,Europe,Northern Europe,Estonia,Ida-Virumaa,Jõhvi vald,Jõhvi
5.101.180.162,4,20,nacekomie.ru,EE,Europe,Northern Europe,Estonia,Ida-Virumaa,Jõhvi vald,Jõhvi
159.253.22.121,4,7,nedvigimost72.ru,EE,Europe,Northern Europe,Estonia,Ida-Virumaa,Jõhvi vald,Jõhvi
46.36.218.72,4,5,neurohive.io,EE,Europe,Northern Europe,Estonia,Ida-Virumaa,Jõhvi vald,Jõhvi
5.45.114.72,4,35,news-rasha.ru,EE,Europe,Northern Europe,Estonia,Ida-Virumaa,Jõhvi vald,Jõhvi
159.253.19.160,4,13,newsib.net,EE,Europe,Northern Europe,Estonia,Ida-Virumaa,Jõhvi vald,Jõhvi
5.101.181.86,4,4,nfs-world.com,EE,Europe,Northern Europe,Estonia,Ida-Virumaa,Jõhvi vald,Jõhvi
5.45.122.23,4,8,nimak.ru,EE,Europe,Northern Europe,Estonia,Ida-Virumaa,Jõhvi vald,Jõhvi
5.101.181.97,4,3,niva-club.net,EE,Europe,Northern Europe,Estonia,Ida-Virumaa,Jõhvi vald,Jõhvi
5.101.114.108,4,6,nkj.ru,EE,Europe,Northern Europe,Estonia,Ida-Virumaa,Jõhvi vald,Jõhvi
159.253.18.248,4,16,novgaz-rzn.ru,EE,Europe,Northern Europe,Estonia,Ida-Virumaa,Jõhvi vald,Jõhvi
46.36.222.216,4,4,novomoskov.ru,EE,Europe,Northern Europe,Estonia,Ida-Virumaa,Jõhvi vald,Jõhvi
5.45.127.185,4,5,novostiua.net,EE,Europe,Northern Europe,Estonia,Ida-Virumaa,Jõhvi vald,Jõhvi
5.45.123.45,4,9,np.by,EE,Europe,Northern Europe,Estonia,Ida-Virumaa,Jõhvi vald,Jõhvi
46.36.217.238,4,4,nr2.com.ua,EE,Europe,Northern Europe,Estonia,Ida-Virumaa,Jõhvi vald,Jõhvi
5.101.117.214,4,5,nvf-sobor.com.ua,EE,Europe,Northern Europe,Estonia,Ida-Virumaa,Jõhvi vald,Jõhvi
5.101.114.61,4,34,nvip.com.ua,EE,Europe,Northern Europe,Estonia,Ida-Virumaa,Jõhvi vald,Jõhvi
5.45.114.71,4,15,obob.tv,EE,Europe,Northern Europe,Estonia,Ida-Virumaa,Jõhvi vald,Jõhvi
91.146.94.236,4,306,Ookla Speedtest Server 32983: speedtest.fill.ee,EE,Europe,Northern Europe,Estonia,Ida-Virumaa,Narva linn,Narva
5.101.116.118,4,6,openreviewhub.org,EE,Europe,Northern Europe,Estonia,Ida-Virumaa,Jõhvi vald,Jõhvi
185.4.72.120,4,2,oteatre.info,EE,Europe,Northern Europe,Estonia,Ida-Virumaa,Jõhvi vald,Jõhvi
46.36.222.48,4,6,oxford-school.com.ua,EE,Europe,Northern Europe,Estonia,Ida-Virumaa,Jõhvi vald,Jõhvi
5.45.123.60,4,8,ozersk.ru,EE,Europe,Northern Europe,Estonia,Ida-Virumaa,Jõhvi vald,Jõhvi
5.101.180.219,4,72,paketrassada.ru,EE,Europe,Northern Europe,Estonia,Ida-Virumaa,Jõhvi vald,Jõhvi
185.4.72.63,4,31,parkgarten.ru,EE,Europe,Northern Europe,Estonia,Ida-Virumaa,Jõhvi vald,Jõhvi
5.45.127.215,4,57,partnerusa.net,EE,Europe,Northern Europe,Estonia,Ida-Virumaa,Jõhvi vald,Jõhvi
46.36.216.107,4,4,pddmaster.ru,EE,Europe,Northern Europe,Estonia,Ida-Virumaa,Jõhvi vald,Jõhvi
159.253.18.58,4,59,penta-club.ru,EE,Europe,Northern Europe,Estonia,Ida-Virumaa,Jõhvi vald,Jõhvi
46.36.222.105,4,34,perfectsolutionlabs.com,EE,Europe,Northern Europe,Estonia,Ida-Virumaa,Jõhvi vald,Jõhvi
5.45.121.31,4,8,peterburg.ru,EE,Europe,Northern Europe,Estonia,Ida-Virumaa,Jõhvi vald,Jõhvi
46.36.221.220,4,15,petz.ru,EE,Europe,Northern Europe,Estonia,Ida-Virumaa,Jõhvi vald,Jõhvi
5.45.127.188,4,10,photo-monster.ru,EE,Europe,Northern Europe,Estonia,Ida-Virumaa,Jõhvi vald,Jõhvi
159.253.20.5,4,18,photo-monster.ru,EE,Europe,Northern Europe,Estonia,Ida-Virumaa,Jõhvi vald,Jõhvi
185.4.74.49,4,58,photodiva.net,EE,Europe,Northern Europe,Estonia,Ida-Virumaa,Jõhvi vald,Jõhvi
185.4.75.61,4,31,photogeek.ru,EE,Europe,Northern Europe,Estonia,Ida-Virumaa,Jõhvi vald,Jõhvi
5.45.114.53,4,59,phpbb-work.ru,EE,Europe,Northern Europe,Estonia,Ida-Virumaa,Jõhvi vald,Jõhvi
5.45.114.3,4,26,piko-shop.ru,EE,Europe,Northern Europe,Estonia,Ida-Virumaa,Jõhvi vald,Jõhvi
159.253.21.232,4,5,pilomaterial.info,EE,Europe,Northern Europe,Estonia,Ida-Virumaa,Jõhvi vald,Jõhvi
5.101.112.206,4,16,pkpribor.ru,EE,Europe,Northern Europe,Estonia,Ida-Virumaa,Jõhvi vald,Jõhvi
185.4.75.60,4,6,playback.ru,EE,Europe,Northern Europe,Estonia,Ida-Virumaa,Jõhvi vald,Jõhvi
5.101.117.177,4,14,plmaster.ru,EE,Europe,Northern Europe,Estonia,Ida-Virumaa,Jõhvi vald,Jõhvi
46.36.218.130,4,20,pnevmopodveska-club.ru,EE,Europe,Northern Europe,Estonia,Ida-Virumaa,Jõhvi vald,Jõhvi
46.36.222.21,4,16,podmash.ru,EE,Europe,Northern Europe,Estonia,Ida-Virumaa,Jõhvi vald,Jõhvi
5.45.126.220,4,20,podrujka.com,EE,Europe,Northern Europe,Estonia,Ida-Virumaa,Jõhvi vald,Jõhvi
5.45.121.85,4,11,polemika.com.ua,EE,Europe,Northern Europe,Estonia,Ida-Virumaa,Jõhvi vald,Jõhvi
185.4.73.27,4,6,pomni24.ru,EE,Europe,Northern Europe,Estonia,Ida-Virumaa,Jõhvi vald,Jõhvi
5.101.123.151,4,28,popcake.tv,EE,Europe,Northern Europe,Estonia,Ida-Virumaa,Jõhvi vald,Jõhvi
46.36.223.31,4,43,porti.ru,EE,Europe,Northern Europe,Estonia,Ida-Virumaa,Jõhvi vald,Jõhvi
5.45.112.204,4,40,pravdabeslana.ru,EE,Europe,Northern Europe,Estonia,Ida-Virumaa,Jõhvi vald,Jõhvi
5.45.112.162,4,38,profinews.com.ua,EE,Europe,Northern Europe,Estonia,Ida-Virumaa,Jõhvi vald,Jõhvi
5.101.112.19,4,31,profstrah.ru,EE,Europe,Northern Europe,Estonia,Ida-Virumaa,Jõhvi vald,Jõhvi
46.36.223.109,4,4,progastromed.ru,EE,Europe,Northern Europe,Estonia,Ida-Virumaa,Jõhvi vald,Jõhvi
185.4.75.194,4,56,prohunt.su,EE,Europe,Northern Europe,Estonia,Ida-Virumaa,Jõhvi vald,Jõhvi
46.36.220.223,4,75,prom23.ru,EE,Europe,Northern Europe,Estonia,Ida-Virumaa,Jõhvi vald,Jõhvi
5.45.115.5,4,68,prometey.org,EE,Europe,Northern Europe,Estonia,Ida-Virumaa,Jõhvi vald,Jõhvi
5.101.179.249,4,53,promoteukraine.org,EE,Europe,Northern Europe,Estonia,Ida-Virumaa,Jõhvi vald,Jõhvi
159.253.19.32,4,5,pugofka.com,EE,Europe,Northern Europe,Estonia,Ida-Virumaa,Jõhvi vald,Jõhvi
5.45.121.246,4,34,pushkinska.net,EE,Europe,Northern Europe,Estonia,Ida-Virumaa,Jõhvi vald,Jõhvi
46.36.217.198,4,5,python-scripts.com,EE,Europe,Northern Europe,Estonia,Ida-Virumaa,Jõhvi vald,Jõhvi
5.101.123.22,4,10,qumo.ru,EE,Europe,Northern Europe,Estonia,Ida-Virumaa,Jõhvi vald,Jõhvi
46.36.216.183,4,6,rahillymotor.com,EE,Europe,Northern Europe,Estonia,Ida-Virumaa,Jõhvi vald,Jõhvi
46.36.220.4,4,20,railwaymarket.ru,EE,Europe,Northern Europe,Estonia,Ida-Virumaa,Jõhvi vald,Jõhvi
159.253.18.13,4,20,readme.md,EE,Europe,Northern Europe,Estonia,Ida-Virumaa,Jõhvi vald,Jõhvi
185.4.73.99,4,30,religio.ru,EE,Europe,Northern Europe,Estonia,Ida-Virumaa,Jõhvi vald,Jõhvi
5.45.127.246,4,5,robotbox.net,EE,Europe,Northern Europe,Estonia,Ida-Virumaa,Jõhvi vald,Jõhvi
5.101.113.109,4,5,rosexport.su,EE,Europe,Northern Europe,Estonia,Ida-Virumaa,Jõhvi vald,Jõhvi
5.101.179.190,4,6,rosfincom.ru,EE,Europe,Northern Europe,Estonia,Ida-Virumaa,Jõhvi vald,Jõhvi
159.253.23.250,4,4,rtn.one,EE,Europe,Northern Europe,Estonia,Ida-Virumaa,Jõhvi vald,Jõhvi
5.101.121.191,4,33,ru-news.ru,EE,Europe,Northern Europe,Estonia,Ida-Virumaa,Jõhvi vald,Jõhvi
46.36.220.130,4,33,ruchnoi.ru,EE,Europe,Northern Europe,Estonia,Ida-Virumaa,Jõhvi vald,Jõhvi
5.101.181.95,4,8807,rusmnb.ru,EE,Europe,Northern Europe,Estonia,Ida-Virumaa,Jõhvi vald,Jõhvi
5.45.123.79,4,12,russian-polymer.ru,EE,Europe,Northern Europe,Estonia,Ida-Virumaa,Jõhvi vald,Jõhvi
5.101.117.176,4,3,rwr.ru,EE,Europe,Northern Europe,Estonia,Ida-Virumaa,Jõhvi vald,Jõhvi
185.4.73.32,4,4,rybalka44.ru,EE,Europe,Northern Europe,Estonia,Ida-Virumaa,Jõhvi vald,Jõhvi
5.45.126.170,4,7,s-parfum-shop.ru,EE,Europe,Northern Europe,Estonia,Ida-Virumaa,Jõhvi vald,Jõhvi
5.45.122.88,4,7,saia-plc.ru,EE,Europe,Northern Europe,Estonia,Ida-Virumaa,Jõhvi vald,Jõhvi
5.45.114.55,4,16,salonveronika.ru,EE,Europe,Northern Europe,Estonia,Ida-Virumaa,Jõhvi vald,Jõhvi
185.4.72.192,4,44843,scambinance.com,EE,Europe,Northern Europe,Estonia,Ida-Virumaa,Jõhvi vald,Jõhvi
5.101.119.210,4,4,sdelaisebe.ru,EE,Europe,Northern Europe,Estonia,Ida-Virumaa,Jõhvi vald,Jõhvi
5.45.119.147,4,9,sdelanounih.ru,EE,Europe,Northern Europe,Estonia,Ida-Virumaa,Jõhvi vald,Jõhvi
5.101.117.202,4,47,seti.ee,EE,Europe,Northern Europe,Estonia,Ida-Virumaa,Jõhvi vald,Jõhvi
159.253.20.201,4,25,sevastopolnews.info,EE,Europe,Northern Europe,Estonia,Ida-Virumaa,Jõhvi vald,Jõhvi
5.45.122.201,4,6,shakin.ru,EE,Europe,Northern Europe,Estonia,Ida-Virumaa,Jõhvi vald,Jõhvi
159.253.19.209,4,3,shkolaprazdnika.ru,EE,Europe,Northern Europe,Estonia,Ida-Virumaa,Jõhvi vald,Jõhvi
46.36.217.250,4,4,sinonim.org,EE,Europe,Northern Europe,Estonia,Ida-Virumaa,Jõhvi vald,Jõhvi
5.101.115.164,4,2,sitesco.ru,EE,Europe,Northern Europe,Estonia,Ida-Virumaa,Jõhvi vald,Jõhvi
5.45.117.175,4,8,sjthemes.com,EE,Europe,Northern Europe,Estonia,Ida-Virumaa,Jõhvi vald,Jõhvi
5.45.115.78,4,41,skinguru.ru,EE,Europe,Northern Europe,Estonia,Ida-Virumaa,Jõhvi vald,Jõhvi
5.45.121.44,4,10,skuky.net,EE,Europe,Northern Europe,Estonia,Ida-Virumaa,Jõhvi vald,Jõhvi
5.45.116.209,4,17,slideshow-forum.com,EE,Europe,Northern Europe,Estonia,Ida-Virumaa,Jõhvi vald,Jõhvi
185.4.73.168,4,19,smaslom.ru,EE,Europe,Northern Europe,Estonia,Ida-Virumaa,Jõhvi vald,Jõhvi
5.101.114.242,4,3,smthemes.com,EE,Europe,Northern Europe,Estonia,Ida-Virumaa,Jõhvi vald,Jõhvi
46.36.221.79,4,45,spb-velo.ru,EE,Europe,Northern Europe,Estonia,Ida-Virumaa,Jõhvi vald,Jõhvi
5.101.181.99,4,0,sport-in-my-life.ru,EE,Europe,Northern Europe,Estonia,Ida-Virumaa,Jõhvi vald,Jõhvi
5.45.121.130,4,4729,sportbalans.ru,EE,Europe,Northern Europe,Estonia,Ida-Virumaa,Jõhvi vald,Jõhvi
159.253.20.184,4,3,stena.ee,EE,Europe,Northern Europe,Estonia,Ida-Virumaa,Jõhvi vald,Jõhvi
159.253.18.19,4,41,strategy4you.ru,EE,Europe,Northern Europe,Estonia,Ida-Virumaa,Jõhvi vald,Jõhvi
5.101.180.132,4,95,studway.com.ua,EE,Europe,Northern Europe,Estonia,Ida-Virumaa,Jõhvi vald,Jõhvi
185.4.73.216,4,56159,superiorrealty.net,EE,Europe,Northern Europe,Estonia,Ida-Virumaa,Jõhvi vald,Jõhvi
5.101.127.194,4,9,suvorov-krasnodar.ru,EE,Europe,Northern Europe,Estonia,Ida-Virumaa,Jõhvi vald,Jõhvi
185.4.75.207,4,24,sweetsensations.fr,EE,Europe,Northern Europe,Estonia,Ida-Virumaa,Jõhvi vald,Jõhvi
159.253.18.98,4,10,tdauto.lv,EE,Europe,Northern Europe,Estonia,Ida-Virumaa,Jõhvi vald,Jõhvi
159.253.21.200,4,61,teoriya.ru,EE,Europe,Northern Europe,Estonia,Ida-Virumaa,Jõhvi vald,Jõhvi
46.36.218.178,4,27,theme.today,EE,Europe,Northern Europe,Estonia,Ida-Virumaa,Jõhvi vald,Jõhvi
46.36.223.150,4,2,tktl.ru,EE,Europe,Northern Europe,Estonia,Ida-Virumaa,Jõhvi vald,Jõhvi
185.4.74.146,4,2,tlttimes.ru,EE,Europe,Northern Europe,Estonia,Ida-Virumaa,Jõhvi vald,Jõhvi
5.45.118.244,4,24,tntmusic.ru,EE,Europe,Northern Europe,Estonia,Ida-Virumaa,Jõhvi vald,Jõhvi
46.36.217.106,4,34,touchg.ru,EE,Europe,Northern Europe,Estonia,Ida-Virumaa,Jõhvi vald,Jõhvi
185.4.74.229,4,9,touristyonline.ru,EE,Europe,Northern Europe,Estonia,Ida-Virumaa,Jõhvi vald,Jõhvi
46.36.219.230,4,23,traffnews.com,EE,Europe,Northern Europe,Estonia,Ida-Virumaa,Jõhvi vald,Jõhvi
46.36.218.21,4,15,travelerschat.com,EE,Europe,Northern Europe,Estonia,Ida-Virumaa,Jõhvi vald,Jõhvi
159.253.18.192,4,10,tssz.ru,EE,Europe,Northern Europe,Estonia,Ida-Virumaa,Jõhvi vald,Jõhvi
185.4.72.32,4,9,ttnews.ru,EE,Europe,Northern Europe,Estonia,Ida-Virumaa,Jõhvi vald,Jõhvi
185.4.74.211,4,8,typejournal.ru,EE,Europe,Northern Europe,Estonia,Ida-Virumaa,Jõhvi vald,Jõhvi
5.45.115.149,4,14,uapress.info,EE,Europe,Northern Europe,Estonia,Ida-Virumaa,Jõhvi vald,Jõhvi
5.45.127.154,4,10,umka.com,EE,Europe,Northern Europe,Estonia,Ida-Virumaa,Jõhvi vald,Jõhvi
159.253.19.119,4,6465,vdforum.ru,EE,Europe,Northern Europe,Estonia,Ida-Virumaa,Jõhvi vald,Jõhvi
5.45.119.130,4,17,velocat.ru,EE,Europe,Northern Europe,Estonia,Ida-Virumaa,Jõhvi vald,Jõhvi
5.101.181.64,4,23,vertikal-nn.ru,EE,Europe,Northern Europe,Estonia,Ida-Virumaa,Jõhvi vald,Jõhvi
46.36.216.186,4,4,vgspb.ru,EE,Europe,Northern Europe,Estonia,Ida-Virumaa,Jõhvi vald,Jõhvi
46.36.221.201,4,4,vsem-instrumenti.ru,EE,Europe,Northern Europe,Estonia,Ida-Virumaa,Jõhvi vald,Jõhvi
46.36.222.61,4,10,vsyarybalka.ru,EE,Europe,Northern Europe,Estonia,Ida-Virumaa,Jõhvi vald,Jõhvi
5.101.181.155,4,-1954,womenclub.ru,EE,Europe,Northern Europe,Estonia,Ida-Virumaa,Jõhvi vald,Jõhvi
46.36.221.146,4,4,wordexpert.ru,EE,Europe,Northern Europe,Estonia,Ida-Virumaa,Jõhvi vald,Jõhvi
46.36.223.194,4,23,wow-helper.ru,EE,Europe,Northern Europe,Estonia,Ida-Virumaa,Jõhvi vald,Jõhvi
5.45.124.125,4,6,www96.ru,EE,Europe,Northern Europe,Estonia,Ida-Virumaa,Jõhvi vald,Jõhvi
5.101.124.12,4,5,x-zona.su,EE,Europe,Northern Europe,Estonia,Ida-Virumaa,Jõhvi vald,Jõhvi
5.45.124.221,4,71544,xage.ru,EE,Europe,Northern Europe,Estonia,Ida-Virumaa,Jõhvi vald,Jõhvi
159.253.18.78,4,14,yachol.online,EE,Europe,Northern Europe,Estonia,Ida-Virumaa,Jõhvi vald,Jõhvi
5.45.123.58,4,7,ynks.net,EE,Europe,Northern Europe,Estonia,Ida-Virumaa,Jõhvi vald,Jõhvi
5.101.126.98,4,37,zakon-auto.ru,EE,Europe,Northern Europe,Estonia,Ida-Virumaa,Jõhvi vald,Jõhvi
159.253.18.234,4,9,zefirgood1.ru,EE,Europe,Northern Europe,Estonia,Ida-Virumaa,Jõhvi vald,Jõhvi
