reflector_ip,ip_version,offset,description,country_code,region,sub_region,country_name,sub_division_1,sub_division_2,city
117.6.160.34,4,20,4vn.eu,VN,Asia,South-eastern Asia,Viet Nam,Hanoi,,Hanoi
210.245.8.139,4,-9,alphabooks.vn,VN,Asia,South-eastern Asia,Viet Nam,Hanoi,,Hanoi
125.212.214.71,4,9,anely.co.kr,VN,Asia,South-eastern Asia,Viet Nam,Hanoi,,Hanoi
210.245.8.137,4,-4,antamtour.vn,VN,Asia,South-eastern Asia,Viet Nam,Hanoi,,Hanoi
101.99.3.118,4,6,asdoor.vn,VN,Asia,South-eastern Asia,Viet Nam,Hanoi,,Hanoi
14.225.10.19,4,76774,autopro.com.vn,VN,Asia,South-eastern Asia,Viet Nam,Hanoi,,Hanoi
222.255.28.245,4,33,avt.edu.vn,VN,Asia,South-eastern Asia,Viet Nam,Hanoi,,Hanoi
113.160.72.22,4,522,bachmai.gov.vn,VN,Asia,South-eastern Asia,Viet Nam,Hanoi,,Hanoi
171.244.50.41,4,0,baobinhphuoc.com.vn,VN,Asia,South-eastern Asia,Viet Nam,Hanoi,,Hanoi
183.91.14.82,4,336196,baoninhbinh.org.vn,VN,Asia,South-eastern Asia,Viet Nam,Hanoi,,Hanoi
125.212.229.34,4,1,baophutho.vn,VN,Asia,South-eastern Asia,Viet Nam,Hanoi,,Hanoi
113.191.41.63,4,7,baoquangbinh.vn,VN,Asia,South-eastern Asia,Viet Nam,Hanoi,,Hanoi
171.244.50.5,4,2,baoquangninh.vn,VN,Asia,South-eastern Asia,Viet Nam,Hanoi,,Hanoi
125.212.229.45,4,3,baothanhhoa.vn,VN,Asia,South-eastern Asia,Viet Nam,Hanoi,,Hanoi
123.16.13.70,4,-2796,bdstanlong.vn,VN,Asia,South-eastern Asia,Viet Nam,Hanoi,,Hanoi
14.224.253.246,4,259527,bdu.edu.vn,VN,Asia,South-eastern Asia,Viet Nam,Hanoi,,Hanoi
210.245.8.132,4,-8,beemart.vn,VN,Asia,South-eastern Asia,Viet Nam,Hanoi,,Hanoi
103.121.90.249,4,20545,benhhen.vn,VN,Asia,South-eastern Asia,Viet Nam,Hanoi,,Hanoi
118.68.218.150,4,-3,bestprice.vn,VN,Asia,South-eastern Asia,Viet Nam,Hanoi,,Hanoi
14.225.10.20,4,-24831,bizflycloud.vn,VN,Asia,South-eastern Asia,Viet Nam,Hanoi,,Hanoi
103.121.89.86,4,10354,bkns.biz,VN,Asia,South-eastern Asia,Viet Nam,Hanoi,,Hanoi
103.121.88.5,4,2,bkns.vn,VN,Asia,South-eastern Asia,Viet Nam,Hanoi,,Hanoi
125.212.138.86,4,7,bluezone.gov.vn,VN,Asia,South-eastern Asia,Viet Nam,Hanoi,,Hanoi
171.244.34.240,4,20,btani.edu.vn,VN,Asia,South-eastern Asia,Viet Nam,Hanoi,,Hanoi
14.225.32.225,4,12,btgcp.gov.vn,VN,Asia,South-eastern Asia,Viet Nam,Hanoi,,Hanoi
210.245.21.115,4,5,cand.com.vn,VN,Asia,South-eastern Asia,Viet Nam,Hanoi,,Hanoi
14.177.232.31,4,3,chiasesuckhoe.com,VN,Asia,South-eastern Asia,Viet Nam,Hanoi,,Hanoi
125.212.217.37,4,68232,congtudonghaiphong.com,VN,Asia,South-eastern Asia,Viet Nam,Hanoi,,Hanoi
103.121.89.116,4,83226,coolingtower.vn,VN,Asia,South-eastern Asia,Viet Nam,Hanoi,,Hanoi
103.139.42.53,4,6,cuahangmypham.vn,VN,Asia,South-eastern Asia,Viet Nam,Hanoi,,Hanoi
58.186.80.48,4,-126,customs.gov.vn,VN,Asia,South-eastern Asia,Viet Nam,Hanoi,,Hanoi
125.212.138.85,4,10,danang.gov.vn,VN,Asia,South-eastern Asia,Viet Nam,Hanoi,,Hanoi
171.244.34.213,4,4629,daynauanthanhmai.com,VN,Asia,South-eastern Asia,Viet Nam,Hanoi,,Hanoi
103.179.188.146,4,6,dbk.vn,VN,Asia,South-eastern Asia,Viet Nam,Hanoi,,Hanoi
171.244.32.151,4,-46934,decalthuonghai.com,VN,Asia,South-eastern Asia,Viet Nam,Hanoi,,Hanoi
103.75.185.15,4,3,dichvubocxepdainam.com,VN,Asia,South-eastern Asia,Viet Nam,Hanoi,,Hanoi
27.72.126.193,4,264164,dienbien.edu.vn,VN,Asia,South-eastern Asia,Viet Nam,Hanoi,,Hanoi
113.160.144.2,4,-70372,dienbien.gov.vn,VN,Asia,South-eastern Asia,Viet Nam,Hanoi,,Hanoi
103.75.184.19,4,4,diendanmevabe.com,VN,Asia,South-eastern Asia,Viet Nam,Hanoi,,Hanoi
103.81.86.90,4,7077,diendanthammy.net,VN,Asia,South-eastern Asia,Viet Nam,Hanoi,,Hanoi
125.212.216.61,4,44,dienthoaivui.com.vn,VN,Asia,South-eastern Asia,Viet Nam,Hanoi,,Hanoi
125.212.216.6,4,57,dienthoaivui.com.vn,VN,Asia,South-eastern Asia,Viet Nam,Hanoi,,Hanoi
210.245.8.140,4,-8,dkt.com.vn,VN,Asia,South-eastern Asia,Viet Nam,Hanoi,,Hanoi
210.245.52.37,4,-25202276,DNS Server: 210-245-52-fiber-net-static-ip.fpt.vn,VN,Asia,South-eastern Asia,Viet Nam,Hanoi,,Hanoi
171.244.50.89,4,13,doisongvietnam.vn,VN,Asia,South-eastern Asia,Viet Nam,Hanoi,,Hanoi
125.212.229.32,4,4,donghoduyanh.com,VN,Asia,South-eastern Asia,Viet Nam,Hanoi,,Hanoi
42.113.206.28,4,2,dtinews.vn,VN,Asia,South-eastern Asia,Viet Nam,Hanoi,,Hanoi
171.244.35.201,4,-51487,dulichvietnam.com.vn,VN,Asia,South-eastern Asia,Viet Nam,Hanoi,,Hanoi
210.245.8.81,4,-9,ebh.vn,VN,Asia,South-eastern Asia,Viet Nam,Hanoi,,Hanoi
113.20.119.31,4,76,erosbeauty.vn,VN,Asia,South-eastern Asia,Viet Nam,Hanoi,,Hanoi
103.75.187.24,4,14,etgo.vn,VN,Asia,South-eastern Asia,Viet Nam,Hanoi,,Hanoi
103.75.185.38,4,2,eyelight.vn,VN,Asia,South-eastern Asia,Viet Nam,Hanoi,,Hanoi
171.244.43.108,4,5,forbes.vn,VN,Asia,South-eastern Asia,Viet Nam,Hanoi,,Hanoi
42.113.207.119,4,5,gamehub.vn,VN,Asia,South-eastern Asia,Viet Nam,Hanoi,,Hanoi
14.225.10.16,4,76766,genk.vn,VN,Asia,South-eastern Asia,Viet Nam,Hanoi,,Hanoi
14.225.10.17,4,-3,giadinh.net.vn,VN,Asia,South-eastern Asia,Viet Nam,Hanoi,,Hanoi
203.171.29.85,4,-13632,giaoduc.edu.vn,VN,Asia,South-eastern Asia,Viet Nam,Hanoi,,Hanoi
210.245.31.100,4,-368,gso.gov.vn,VN,Asia,South-eastern Asia,Viet Nam,Hanoi,,Hanoi
27.72.127.172,4,-2147179002,haiduongdost.gov.vn,VN,Asia,South-eastern Asia,Viet Nam,Hanoi,,Hanoi
103.121.91.105,4,-134,hangngoainhap.com.vn,VN,Asia,South-eastern Asia,Viet Nam,Hanoi,,Hanoi
103.75.187.194,4,50,hanoioperahouse.org.vn,VN,Asia,South-eastern Asia,Viet Nam,Hanoi,,Hanoi
171.244.17.74,4,-52209868,hatinhtea.com.vn,VN,Asia,South-eastern Asia,Viet Nam,Hanoi,,Hanoi
125.212.138.22,4,4,hcmiu.edu.vn,VN,Asia,South-eastern Asia,Viet Nam,Hanoi,,Hanoi
125.212.217.9,4,3,hcom.vn,VN,Asia,South-eastern Asia,Viet Nam,Hanoi,,Hanoi
103.121.89.34,4,21510,heovktgame.club,VN,Asia,South-eastern Asia,Viet Nam,Hanoi,,Hanoi
125.212.221.48,4,-111583,hmahome.net,VN,Asia,South-eastern Asia,Viet Nam,Hanoi,,Hanoi
101.99.18.75,4,111770,hoaphat.com.vn,VN,Asia,South-eastern Asia,Viet Nam,Hanoi,,Hanoi
1.53.252.33,4,7,hoc24.vn,VN,Asia,South-eastern Asia,Viet Nam,Hanoi,,Hanoi
125.212.209.59,4,706604,honghavietnam.vn,VN,Asia,South-eastern Asia,Viet Nam,Hanoi,,Hanoi
14.225.5.43,4,27002,hoplucgroup.vn,VN,Asia,South-eastern Asia,Viet Nam,Hanoi,,Hanoi
118.70.222.134,4,-9,hou.edu.vn,VN,Asia,South-eastern Asia,Viet Nam,Hanoi,,Hanoi
171.254.11.242,4,-2142658054,hpmu.edu.vn,VN,Asia,South-eastern Asia,Viet Nam,Hanoi,,Hanoi
117.0.21.198,4,-8,hungyen.gov.vn,VN,Asia,South-eastern Asia,Viet Nam,Hanoi,,Hanoi
14.225.23.19,4,43,imexcuulong.vn,VN,Asia,South-eastern Asia,Viet Nam,Hanoi,,Hanoi
103.75.186.244,4,1,imuabanbds.vn,VN,Asia,South-eastern Asia,Viet Nam,Hanoi,,Hanoi
103.121.90.64,4,7,in24g.com,VN,Asia,South-eastern Asia,Viet Nam,Hanoi,,Hanoi
171.244.16.100,4,33,intergarmentcorp.com,VN,Asia,South-eastern Asia,Viet Nam,Hanoi,,Hanoi
171.244.57.116,4,3,ipos.vn,VN,Asia,South-eastern Asia,Viet Nam,Hanoi,,Hanoi
171.244.0.91,4,-20,kelo-cote.com.vn,VN,Asia,South-eastern Asia,Viet Nam,Hanoi,,Hanoi
14.225.10.15,4,-5,kenh14.vn,VN,Asia,South-eastern Asia,Viet Nam,Hanoi,,Hanoi
171.244.32.131,4,-45699,khothepmiennam.vn,VN,Asia,South-eastern Asia,Viet Nam,Hanoi,,Hanoi
125.212.217.35,4,68228,lancannhom.com,VN,Asia,South-eastern Asia,Viet Nam,Hanoi,,Hanoi
171.244.46.68,4,4726,laodong.com.vn,VN,Asia,South-eastern Asia,Viet Nam,Hanoi,,Hanoi
125.212.221.243,4,51526,lioasaigon.vn,VN,Asia,South-eastern Asia,Viet Nam,Hanoi,,Hanoi
103.75.187.17,4,2,lombom.com,VN,Asia,South-eastern Asia,Viet Nam,Hanoi,,Hanoi
103.121.89.232,4,-626,longchimdep.net,VN,Asia,South-eastern Asia,Viet Nam,Hanoi,,Hanoi
14.225.10.31,4,1186327,lotus.vn,VN,Asia,South-eastern Asia,Viet Nam,Hanoi,,Hanoi
14.225.7.145,4,10,loxocongnghiep.com,VN,Asia,South-eastern Asia,Viet Nam,Hanoi,,Hanoi
171.244.16.78,4,267857,lumi.vn,VN,Asia,South-eastern Asia,Viet Nam,Hanoi,,Hanoi
103.121.90.242,4,170066,lury.vn,VN,Asia,South-eastern Asia,Viet Nam,Hanoi,,Hanoi
210.245.30.157,4,-14,mailinh.vn,VN,Asia,South-eastern Asia,Viet Nam,Hanoi,,Hanoi
210.245.8.143,4,-6,memoryzone.com.vn,VN,Asia,South-eastern Asia,Viet Nam,Hanoi,,Hanoi
42.117.3.126,4,18,mogi.vn,VN,Asia,South-eastern Asia,Viet Nam,Hanoi,,Hanoi
222.255.122.81,4,42,montgomerielinks.com,VN,Asia,South-eastern Asia,Viet Nam,Hanoi,,Hanoi
125.212.218.7,4,18,mykubet.com,VN,Asia,South-eastern Asia,Viet Nam,Hanoi,,Hanoi
210.245.8.130,4,0,mysapo.net,VN,Asia,South-eastern Asia,Viet Nam,Hanoi,,Hanoi
171.244.40.148,4,17,nafosted.gov.vn,VN,Asia,South-eastern Asia,Viet Nam,Hanoi,,Hanoi
171.244.34.10,4,13,nanogenpharma-vet.vn,VN,Asia,South-eastern Asia,Viet Nam,Hanoi,,Hanoi
125.212.205.91,4,5,ngoisao.vn,VN,Asia,South-eastern Asia,Viet Nam,Hanoi,,Hanoi
103.75.185.18,4,2,nhadat.vn,VN,Asia,South-eastern Asia,Viet Nam,Hanoi,,Hanoi
103.75.187.217,4,-347,nhahanghq.com,VN,Asia,South-eastern Asia,Viet Nam,Hanoi,,Hanoi
14.225.10.22,4,-10,nld.com.vn,VN,Asia,South-eastern Asia,Viet Nam,Hanoi,,Hanoi
118.70.116.23,4,26,nuce.edu.vn,VN,Asia,South-eastern Asia,Viet Nam,Hanoi,,Hanoi
14.160.32.140,4,20,nxbgd.vn,VN,Asia,South-eastern Asia,Viet Nam,Hanoi,,Hanoi
103.121.90.8,4,27,offshore.vn,VN,Asia,South-eastern Asia,Viet Nam,Hanoi,,Hanoi
27.68.226.129,4,296,Ookla Speedtest Server 9903: speedtestkv1a.viettel.vn,VN,Asia,South-eastern Asia,Viet Nam,Hanoi,,Hanoi
113.164.16.66,4,644182,Ookla Speedtest Server 17756: speedtest5.vtn.com.vn,VN,Asia,South-eastern Asia,Viet Nam,Hanoi,,Hanoi
113.164.8.250,4,-312158,Ookla Speedtest Server 17758: speedtest3.vtn.com.vn,VN,Asia,South-eastern Asia,Viet Nam,Hanoi,,Hanoi
27.67.51.168,4,180,Ookla Speedtest Server 54467: speedtest2.spntelecom.vn,VN,Asia,South-eastern Asia,Viet Nam,Hanoi,,Hanoi
125.212.192.234,4,33,phunumoi.net.vn,VN,Asia,South-eastern Asia,Viet Nam,Hanoi,,Hanoi
14.225.10.18,4,42,phunuvietnam.vn,VN,Asia,South-eastern Asia,Viet Nam,Hanoi,,Hanoi
103.173.254.159,4,2221,quangcaomaihuong.com,VN,Asia,South-eastern Asia,Viet Nam,Hanoi,,Hanoi
103.121.89.82,4,1038,ruouvang24h.vn,VN,Asia,South-eastern Asia,Viet Nam,Hanoi,,Hanoi
14.225.18.24,4,6,salekit.com,VN,Asia,South-eastern Asia,Viet Nam,Hanoi,,Hanoi
14.225.18.25,4,23,salekit.vn,VN,Asia,South-eastern Asia,Viet Nam,Hanoi,,Hanoi
171.244.27.69,4,101,shinhan.com.vn,VN,Asia,South-eastern Asia,Viet Nam,Hanoi,,Hanoi
125.212.235.44,4,3,shopdunk.com,VN,Asia,South-eastern Asia,Viet Nam,Hanoi,,Hanoi
125.212.138.21,4,-1,sonla.gov.vn,VN,Asia,South-eastern Asia,Viet Nam,Hanoi,,Hanoi
14.225.19.51,4,13,sosanhnha.com,VN,Asia,South-eastern Asia,Viet Nam,Hanoi,,Hanoi
222.255.119.55,4,151568,tanhoamai.com.vn,VN,Asia,South-eastern Asia,Viet Nam,Hanoi,,Hanoi
125.212.138.53,4,0,tapchicongsan.org.vn,VN,Asia,South-eastern Asia,Viet Nam,Hanoi,,Hanoi
116.104.51.204,4,15,tbump.edu.vn,VN,Asia,South-eastern Asia,Viet Nam,Hanoi,,Hanoi
125.212.225.224,4,482715,thebank.vn,VN,Asia,South-eastern Asia,Viet Nam,Hanoi,,Hanoi
103.81.86.194,4,319,thptcathai.edu.vn,VN,Asia,South-eastern Asia,Viet Nam,Hanoi,,Hanoi
125.212.138.54,4,32,thuathienhue.edu.vn,VN,Asia,South-eastern Asia,Viet Nam,Hanoi,,Hanoi
103.75.187.93,4,-2,thuenhanguyencan.vn,VN,Asia,South-eastern Asia,Viet Nam,Hanoi,,Hanoi
42.112.59.46,4,15,thuonggiaonline.vn,VN,Asia,South-eastern Asia,Viet Nam,Hanoi,,Hanoi
125.212.233.140,4,20,thuonghieucongluan.com.vn,VN,Asia,South-eastern Asia,Viet Nam,Hanoi,,Hanoi
125.212.201.62,4,-722935,tienganh123.com,VN,Asia,South-eastern Asia,Viet Nam,Hanoi,,Hanoi
14.225.8.157,4,34,timan.vn,VN,Asia,South-eastern Asia,Viet Nam,Hanoi,,Hanoi
42.1.94.140,4,-1269,tinhkhongphapngu.net,VN,Asia,South-eastern Asia,Viet Nam,Hanoi,,Hanoi
171.244.37.40,4,7,tinhte.vn,VN,Asia,South-eastern Asia,Viet Nam,Hanoi,,Hanoi
171.244.37.50,4,35,tinhte.vn,VN,Asia,South-eastern Asia,Viet Nam,Hanoi,,Hanoi
14.225.5.148,4,-3270474,tinthanhjsc.com,VN,Asia,South-eastern Asia,Viet Nam,Hanoi,,Hanoi
14.225.27.231,4,18,tmu.edu.vn,VN,Asia,South-eastern Asia,Viet Nam,Hanoi,,Hanoi
125.212.217.20,4,5,totolink.vn,VN,Asia,South-eastern Asia,Viet Nam,Hanoi,,Hanoi
103.75.187.19,4,-4,tranhdaquychicuong.com,VN,Asia,South-eastern Asia,Viet Nam,Hanoi,,Hanoi
222.255.27.66,4,4,ttvn.vn,VN,Asia,South-eastern Asia,Viet Nam,Hanoi,,Hanoi
14.224.146.3,4,16864,tuyensinh.cdntv.edu.vn,VN,Asia,South-eastern Asia,Viet Nam,Hanoi,,Hanoi
125.212.221.103,4,-253,tynbags.vn,VN,Asia,South-eastern Asia,Viet Nam,Hanoi,,Hanoi
14.225.18.38,4,5,unica.vn,VN,Asia,South-eastern Asia,Viet Nam,Hanoi,,Hanoi
210.86.230.114,4,7,vast.gov.vn,VN,Asia,South-eastern Asia,Viet Nam,Hanoi,,Hanoi
14.225.19.74,4,11,vatgia.com,VN,Asia,South-eastern Asia,Viet Nam,Hanoi,,Hanoi
14.225.10.8,4,232019,vccorp.vn,VN,Asia,South-eastern Asia,Viet Nam,Hanoi,,Hanoi
222.255.27.180,4,-6,vccorp.vn,VN,Asia,South-eastern Asia,Viet Nam,Hanoi,,Hanoi
210.245.8.134,4,-5,vecom.vn,VN,Asia,South-eastern Asia,Viet Nam,Hanoi,,Hanoi
171.244.30.211,4,-13,vieon.vn,VN,Asia,South-eastern Asia,Viet Nam,Hanoi,,Hanoi
103.121.90.146,4,-16,vietjack.com,VN,Asia,South-eastern Asia,Viet Nam,Hanoi,,Hanoi
210.245.8.133,4,-6,vietmap.vn,VN,Asia,South-eastern Asia,Viet Nam,Hanoi,,Hanoi
103.81.86.37,4,6722,vietmoz.net,VN,Asia,South-eastern Asia,Viet Nam,Hanoi,,Hanoi
14.225.31.125,4,36,vietq.vn,VN,Asia,South-eastern Asia,Viet Nam,Hanoi,,Hanoi
171.244.39.97,4,-12,vietrade.gov.vn,VN,Asia,South-eastern Asia,Viet Nam,Hanoi,,Hanoi
125.212.138.87,4,-20,viettelidc.com.vn,VN,Asia,South-eastern Asia,Viet Nam,Hanoi,,Hanoi
125.212.138.88,4,-13,viettelidc.com.vn,VN,Asia,South-eastern Asia,Viet Nam,Hanoi,,Hanoi
125.212.138.24,4,-23,viettelpost.com.vn,VN,Asia,South-eastern Asia,Viet Nam,Hanoi,,Hanoi
171.244.59.85,4,-5112,viettelstore.vn,VN,Asia,South-eastern Asia,Viet Nam,Hanoi,,Hanoi
171.244.59.84,4,-5128,viettelstore.vn,VN,Asia,South-eastern Asia,Viet Nam,Hanoi,,Hanoi
58.187.8.10,4,-23,viettimes.vn,VN,Asia,South-eastern Asia,Viet Nam,Hanoi,,Hanoi
125.212.224.192,4,59,vinfast-vinh.vn,VN,Asia,South-eastern Asia,Viet Nam,Hanoi,,Hanoi
210.86.231.146,4,-228773,vjs.ac.vn,VN,Asia,South-eastern Asia,Viet Nam,Hanoi,,Hanoi
222.255.27.179,4,-19,vneconomy.com.vn,VN,Asia,South-eastern Asia,Viet Nam,Hanoi,,Hanoi
113.190.253.229,4,28689,VNPT Corp 2,VN,Asia,South-eastern Asia,Viet Nam,Hanoi,,Hanoi
203.171.20.231,4,-9,voer.edu.vn,VN,Asia,South-eastern Asia,Viet Nam,Hanoi,,Hanoi
125.212.213.154,4,-111124,voh.com.vn,VN,Asia,South-eastern Asia,Viet Nam,Hanoi,,Hanoi
103.75.184.21,4,34,vongxep.info,VN,Asia,South-eastern Asia,Viet Nam,Hanoi,,Hanoi
58.187.8.9,4,-21,vovworld.vn,VN,Asia,South-eastern Asia,Viet Nam,Hanoi,,Hanoi
14.225.10.7,4,-24827,vtv.vn,VN,Asia,South-eastern Asia,Viet Nam,Hanoi,,Hanoi
103.81.86.76,4,-186966,weblogistics.vn,VN,Asia,South-eastern Asia,Viet Nam,Hanoi,,Hanoi
125.212.211.227,4,496,wildlifeatrisk.org,VN,Asia,South-eastern Asia,Viet Nam,Hanoi,,Hanoi
125.212.205.93,4,-256883,xahoi.com.vn,VN,Asia,South-eastern Asia,Viet Nam,Hanoi,,Hanoi
125.212.224.207,4,58,xatrivietnam.vn,VN,Asia,South-eastern Asia,Viet Nam,Hanoi,,Hanoi
183.91.14.198,4,-25,xaydung.org,VN,Asia,South-eastern Asia,Viet Nam,Hanoi,,Hanoi
125.212.217.8,4,20,xaydunglongkhanh.com,VN,Asia,South-eastern Asia,Viet Nam,Hanoi,,Hanoi
42.112.59.9,4,-29,zingnews.vn,VN,Asia,South-eastern Asia,Viet Nam,Hanoi,,Hanoi
42.112.59.12,4,-4,znews.vn,VN,Asia,South-eastern Asia,Viet Nam,Hanoi,,Hanoi
42.112.59.10,4,-23,znews.vn,VN,Asia,South-eastern Asia,Viet Nam,Hanoi,,Hanoi
