reflector_ip,ip_version,offset,description,country_code,region,sub_region,country_name,sub_division_1,sub_division_2,city
137.74.182.129,4,6,3eo.ir,FR,Europe,Western Europe,France,Île-de-France,Seine-Saint-Denis,Rosny-sous-Bois
137.74.182.128,4,9,aqaed.com,FR,Europe,Western Europe,France,Île-de-France,Seine-Saint-Denis,Rosny-sous-Bois
137.74.182.164,4,9,assistant-juridique.fr,FR,Europe,Western Europe,France,Île-de-France,Seine-Saint-Denis,Rosny-sous-Bois
137.74.163.158,4,8,coh2.org,FR,Europe,Western Europe,France,Île-de-France,Seine-Saint-Denis,Rosny-sous-Bois
137.74.148.126,4,4,control-webpanel.com,FR,Europe,Western Europe,France,Île-de-France,Seine-Saint-Denis,Rosny-sous-Bois
137.74.187.104,4,349,hackthissite.org,FR,Europe,Western Europe,France,Île-de-France,Seine-Saint-Denis,Rosny-sous-Bois
137.74.187.100,4,326,hackthissite.org,FR,Europe,Western Europe,France,Île-de-France,Seine-Saint-Denis,Rosny-sous-Bois
137.74.187.101,4,353,hackthissite.org,FR,Europe,Western Europe,France,Île-de-France,Seine-Saint-Denis,Rosny-sous-Bois
137.74.187.103,4,357,hackthissite.org,FR,Europe,Western Europe,France,Île-de-France,Seine-Saint-Denis,Rosny-sous-Bois
137.74.187.102,4,330,hackthissite.org,FR,Europe,Western Europe,France,Île-de-France,Seine-Saint-Denis,Rosny-sous-Bois
137.74.187.132,4,326,hts.io,FR,Europe,Western Europe,France,Île-de-France,Seine-Saint-Denis,Rosny-sous-Bois
137.74.187.131,4,323,hts.io,FR,Europe,Western Europe,France,Île-de-France,Seine-Saint-Denis,Rosny-sous-Bois
137.74.187.130,4,325,hts.io,FR,Europe,Western Europe,France,Île-de-France,Seine-Saint-Denis,Rosny-sous-Bois
88.84.141.27,4,2,jtl-url.de,FR,Europe,Western Europe,France,Île-de-France,Seine-Saint-Denis,Rosny-sous-Bois
137.74.165.57,4,544,lobourse.com,FR,Europe,Western Europe,France,Île-de-France,Seine-Saint-Denis,Rosny-sous-Bois
137.74.181.226,4,46,officiel-prevention.com,FR,Europe,Western Europe,France,Île-de-France,Seine-Saint-Denis,Rosny-sous-Bois
137.74.140.241,4,48,paris.fr,FR,Europe,Western Europe,France,Île-de-France,Seine-Saint-Denis,Rosny-sous-Bois
137.74.156.172,4,18,plan-international.fr,FR,Europe,Western Europe,France,Île-de-France,Seine-Saint-Denis,Rosny-sous-Bois
137.74.189.92,4,31,prelude-ids.org,FR,Europe,Western Europe,France,Île-de-France,Seine-Saint-Denis,Rosny-sous-Bois
137.74.151.146,4,3,qrlogin.info,FR,Europe,Western Europe,France,Île-de-France,Seine-Saint-Denis,Rosny-sous-Bois
137.74.187.48,4,116635,ralphmag.org,FR,Europe,Western Europe,France,Île-de-France,Seine-Saint-Denis,Rosny-sous-Bois
137.74.181.183,4,2,tastevin-bourgogne.com,FR,Europe,Western Europe,France,Île-de-France,Seine-Saint-Denis,Rosny-sous-Bois
137.74.180.76,4,13,tipjes.nl,FR,Europe,Western Europe,France,Île-de-France,Seine-Saint-Denis,Rosny-sous-Bois
137.74.140.148,4,20,vacances-scolaires-calendrier.fr,FR,Europe,Western Europe,France,Île-de-France,Seine-Saint-Denis,Rosny-sous-Bois
137.74.164.49,4,3582,wittgenstein.it,FR,Europe,Western Europe,France,Île-de-France,Seine-Saint-Denis,Rosny-sous-Bois
