reflector_ip,ip_version,offset,description,country_code,region,sub_region,country_name,sub_division_1,sub_division_2,city
141.95.255.173,4,2,admin-linux.fr,FR,Europe,Western Europe,France,Île-de-France,Seine-Saint-Denis,Aubervilliers
104.238.190.103,4,24,allhtml.com,FR,Europe,Western Europe,France,Île-de-France,Seine-Saint-Denis,Aubervilliers
141.95.144.158,4,4,alsol.fr,FR,Europe,Western Europe,France,Île-de-France,Seine-Saint-Denis,Aubervilliers
95.179.214.59,4,5,amnistia.net,FR,Europe,Western Europe,France,Île-de-France,Seine-Saint-Denis,Aubervilliers
141.95.154.89,4,4,antennasud.com,FR,Europe,Western Europe,France,Île-de-France,Seine-Saint-Denis,Aubervilliers
141.95.232.123,4,25,atozgardening.com,FR,Europe,Western Europe,France,Île-de-France,Seine-Saint-Denis,Aubervilliers
141.95.153.166,4,8,boolsite.net,FR,Europe,Western Europe,France,Île-de-France,Seine-Saint-Denis,Aubervilliers
199.247.13.29,4,5,bytecoin.org,FR,Europe,Western Europe,France,Île-de-France,Seine-Saint-Denis,Aubervilliers
141.95.205.29,4,110,desbrasenplus.com,FR,Europe,Western Europe,France,Île-de-France,Seine-Saint-Denis,Aubervilliers
141.95.149.63,4,329,detective-banque.fr,FR,Europe,Western Europe,France,Île-de-France,Seine-Saint-Denis,Aubervilliers
141.95.147.46,4,112,DNS Server: ns3213593.ip-141-95-147.eu,FR,Europe,Western Europe,France,Île-de-France,Seine-Saint-Denis,Aubervilliers
141.95.203.139,4,1,dryjanuary.fr,FR,Europe,Western Europe,France,Île-de-France,Seine-Saint-Denis,Aubervilliers
141.95.147.190,4,-1,edu-set.fr,FR,Europe,Western Europe,France,Île-de-France,Seine-Saint-Denis,Aubervilliers
141.95.175.169,4,9,entreprise-et-droit.com,FR,Europe,Western Europe,France,Île-de-France,Seine-Saint-Denis,Aubervilliers
141.95.171.199,4,6,eskimoz.co.uk,FR,Europe,Western Europe,France,Île-de-France,Seine-Saint-Denis,Aubervilliers
108.61.209.155,4,4,excel-downloads.com,FR,Europe,Western Europe,France,Île-de-France,Seine-Saint-Denis,Aubervilliers
95.179.210.191,4,67,france-bioimaging.org,FR,Europe,Western Europe,France,Île-de-France,Seine-Saint-Denis,Aubervilliers
141.95.238.1,4,16,freecycle.org,FR,Europe,Western Europe,France,Île-de-France,Seine-Saint-Denis,Aubervilliers
141.95.241.72,4,7,galerie-com.com,FR,Europe,Western Europe,France,Île-de-France,Seine-Saint-Denis,Aubervilliers
141.95.206.135,4,39,grupodanigarcia.com,FR,Europe,Western Europe,France,Île-de-France,Seine-Saint-Denis,Aubervilliers
141.95.232.126,4,78,haropaports.com,FR,Europe,Western Europe,France,Île-de-France,Seine-Saint-Denis,Aubervilliers
141.95.178.148,4,85,info-ler.fr,FR,Europe,Western Europe,France,Île-de-France,Seine-Saint-Denis,Aubervilliers
107.191.46.247,4,154,infomesh.net,FR,Europe,Western Europe,France,Île-de-France,Seine-Saint-Denis,Aubervilliers
141.95.153.100,4,4,jolicode.com,FR,Europe,Western Europe,France,Île-de-France,Seine-Saint-Denis,Aubervilliers
141.95.147.232,4,38,laudate.fr,FR,Europe,Western Europe,France,Île-de-France,Seine-Saint-Denis,Aubervilliers
141.95.192.10,4,14,le-coran.com,FR,Europe,Western Europe,France,Île-de-France,Seine-Saint-Denis,Aubervilliers
141.95.222.66,4,3,lecubegarges.fr,FR,Europe,Western Europe,France,Île-de-France,Seine-Saint-Denis,Aubervilliers
141.95.169.131,4,918,lucidar.me,FR,Europe,Western Europe,France,Île-de-France,Seine-Saint-Denis,Aubervilliers
141.95.175.145,4,2,maligue2.fr,FR,Europe,Western Europe,France,Île-de-France,Seine-Saint-Denis,Aubervilliers
141.95.171.6,4,3,matelpro.com,FR,Europe,Western Europe,France,Île-de-France,Seine-Saint-Denis,Aubervilliers
141.95.158.63,4,3,mediateur-consommation-smp.fr,FR,Europe,Western Europe,France,Île-de-France,Seine-Saint-Denis,Aubervilliers
141.95.204.52,4,7,meta-defense.fr,FR,Europe,Western Europe,France,Île-de-France,Seine-Saint-Denis,Aubervilliers
141.95.157.7,4,4,millon.com,FR,Europe,Western Europe,France,Île-de-France,Seine-Saint-Denis,Aubervilliers
136.244.113.204,4,8,mobilax.fr,FR,Europe,Western Europe,France,Île-de-France,Seine-Saint-Denis,Aubervilliers
141.95.157.195,4,16,mon-essence.fr,FR,Europe,Western Europe,France,Île-de-France,Seine-Saint-Denis,Aubervilliers
141.95.157.196,4,2,mon-essence.fr,FR,Europe,Western Europe,France,Île-de-France,Seine-Saint-Denis,Aubervilliers
141.95.232.19,4,2,motomag.com,FR,Europe,Western Europe,France,Île-de-France,Seine-Saint-Denis,Aubervilliers
95.179.221.103,4,27,mybravenet.com,FR,Europe,Western Europe,France,Île-de-France,Seine-Saint-Denis,Aubervilliers
185.212.226.87,4,3,net-investissement.fr,FR,Europe,Western Europe,France,Île-de-France,Seine-Saint-Denis,Aubervilliers
2.18.177.103,4,39,nexans.com,FR,Europe,Western Europe,France,Île-de-France,Seine-Saint-Denis,Aubervilliers
2.18.177.80,4,10,nexans.com,FR,Europe,Western Europe,France,Île-de-France,Seine-Saint-Denis,Aubervilliers
217.69.12.77,4,63,opportunites-digitales.com,FR,Europe,Western Europe,France,Île-de-France,Seine-Saint-Denis,Aubervilliers
141.95.226.18,4,9,osp.org.pl,FR,Europe,Western Europe,France,Île-de-France,Seine-Saint-Denis,Aubervilliers
217.69.3.183,4,88,our-homeplanet.com,FR,Europe,Western Europe,France,Île-de-France,Seine-Saint-Denis,Aubervilliers
141.95.185.96,4,45,ovsfashion.com,FR,Europe,Western Europe,France,Île-de-France,Seine-Saint-Denis,Aubervilliers
141.95.155.205,4,8,petrossian.fr,FR,Europe,Western Europe,France,Île-de-France,Seine-Saint-Denis,Aubervilliers
217.69.15.122,4,14,photoglory.net,FR,Europe,Western Europe,France,Île-de-France,Seine-Saint-Denis,Aubervilliers
141.95.255.124,4,16952,plaques-immatriculation.info,FR,Europe,Western Europe,France,Île-de-France,Seine-Saint-Denis,Aubervilliers
141.95.247.203,4,14,plateau-urbain.com,FR,Europe,Western Europe,France,Île-de-France,Seine-Saint-Denis,Aubervilliers
140.82.55.15,4,31,poolp.org,FR,Europe,Western Europe,France,Île-de-France,Seine-Saint-Denis,Aubervilliers
185.212.225.147,4,48,porteus.org,FR,Europe,Western Europe,France,Île-de-France,Seine-Saint-Denis,Aubervilliers
141.95.193.201,4,73,printindustry-cm.com,FR,Europe,Western Europe,France,Île-de-France,Seine-Saint-Denis,Aubervilliers
141.95.158.226,4,5,qckl.net,FR,Europe,Western Europe,France,Île-de-France,Seine-Saint-Denis,Aubervilliers
185.212.225.130,4,53,radio6.fr,FR,Europe,Western Europe,France,Île-de-France,Seine-Saint-Denis,Aubervilliers
185.212.227.12,4,224,recy.net,FR,Europe,Western Europe,France,Île-de-France,Seine-Saint-Denis,Aubervilliers
141.95.172.177,4,11,reviews.tn,FR,Europe,Western Europe,France,Île-de-France,Seine-Saint-Denis,Aubervilliers
141.95.158.249,4,9,seaberyat.com,FR,Europe,Western Europe,France,Île-de-France,Seine-Saint-Denis,Aubervilliers
141.95.174.216,4,50,sesamath.net,FR,Europe,Western Europe,France,Île-de-France,Seine-Saint-Denis,Aubervilliers
141.95.148.154,4,52,sportips.fr,FR,Europe,Western Europe,France,Île-de-France,Seine-Saint-Denis,Aubervilliers
136.244.117.130,4,4,sportslivet.dk,FR,Europe,Western Europe,France,Île-de-France,Seine-Saint-Denis,Aubervilliers
141.95.155.200,4,38,srokacompany.com,FR,Europe,Western Europe,France,Île-de-France,Seine-Saint-Denis,Aubervilliers
141.95.185.97,4,46,stefanel.com,FR,Europe,Western Europe,France,Île-de-France,Seine-Saint-Denis,Aubervilliers
95.179.210.127,4,27,teknologiunivers.dk,FR,Europe,Western Europe,France,Île-de-France,Seine-Saint-Denis,Aubervilliers
141.95.160.162,4,61,terrabotanica.fr,FR,Europe,Western Europe,France,Île-de-France,Seine-Saint-Denis,Aubervilliers
45.77.61.165,4,26,The Constant Company LLC,FR,Europe,Western Europe,France,Île-de-France,Seine-Saint-Denis,Aubervilliers
217.69.13.225,4,7,tipsomdjur.se,FR,Europe,Western Europe,France,Île-de-France,Seine-Saint-Denis,Aubervilliers
45.63.115.115,4,3,tnn.fr,FR,Europe,Western Europe,France,Île-de-France,Seine-Saint-Denis,Aubervilliers
95.179.208.16,4,9,tomssko.no,FR,Europe,Western Europe,France,Île-de-France,Seine-Saint-Denis,Aubervilliers
141.95.173.4,4,21,trasmapi.com,FR,Europe,Western Europe,France,Île-de-France,Seine-Saint-Denis,Aubervilliers
141.95.145.230,4,13,uatlantica.pt,FR,Europe,Western Europe,France,Île-de-France,Seine-Saint-Denis,Aubervilliers
141.95.151.167,4,1,uniscite.fr,FR,Europe,Western Europe,France,Île-de-France,Seine-Saint-Denis,Aubervilliers
140.82.55.11,4,11,ussartf.org,FR,Europe,Western Europe,France,Île-de-France,Seine-Saint-Denis,Aubervilliers
141.95.145.162,4,14,waalaxy.com,FR,Europe,Western Europe,France,Île-de-France,Seine-Saint-Denis,Aubervilliers
141.95.172.123,4,13,webmuseo.com,FR,Europe,Western Europe,France,Île-de-France,Seine-Saint-Denis,Aubervilliers
199.247.13.150,4,40,webtcl.co.uk,FR,Europe,Western Europe,France,Île-de-France,Seine-Saint-Denis,Aubervilliers
217.69.14.196,4,12,wingateweb.com,FR,Europe,Western Europe,France,Île-de-France,Seine-Saint-Denis,Aubervilliers
173.199.70.235,4,15,xn--mltidsbiksen-tcb.dk,FR,Europe,Western Europe,France,Île-de-France,Seine-Saint-Denis,Aubervilliers
