reflector_ip,ip_version,offset,description,country_code,region,sub_region,country_name,sub_division_1,sub_division_2,city
176.62.168.78,4,-26,addemar.com,BE,Europe,Western Europe,Belgium,Flanders,East Flanders Province,Ghent
5.134.4.176,4,132,alfen.com,BE,Europe,Western Europe,Belgium,Flanders,Antwerp Province,Antwerp
5.134.6.43,4,-3,amsterdamse-school.nl,BE,Europe,Western Europe,Belgium,Flanders,Antwerp Province,Antwerp
193.105.73.28,4,50,andenne.be,BE,Europe,Western Europe,Belgium,Flanders,East Flanders Province,Ghent
46.19.2.9,4,11,artandpopularculture.com,BE,Europe,Western Europe,Belgium,Flanders,East Flanders Province,Letterhoutem
176.62.168.218,4,-16,autoveiligheid.be,BE,Europe,Western Europe,Belgium,Flanders,East Flanders Province,Ghent
5.134.7.232,4,71,autoworld.be,BE,Europe,Western Europe,Belgium,Flanders,Antwerp Province,Antwerp
193.191.132.22,4,22,awt.be,BE,Europe,Western Europe,Belgium,Flanders,East Flanders Province,Oosterzele
5.134.5.24,4,23,bbeu.org,BE,Europe,Western Europe,Belgium,Flanders,Antwerp Province,Antwerp
5.134.4.22,4,10,belchicken.com,BE,Europe,Western Europe,Belgium,Flanders,Antwerp Province,Antwerp
5.134.6.110,4,37,biodermal.nl,BE,Europe,Western Europe,Belgium,Flanders,Antwerp Province,Antwerp
5.134.5.48,4,8,bivolino.com,BE,Europe,Western Europe,Belgium,Flanders,Antwerp Province,Antwerp
5.134.7.184,4,6,bosplus.be,BE,Europe,Western Europe,Belgium,Flanders,Antwerp Province,Antwerp
176.62.167.56,4,43,bram.us,BE,Europe,Western Europe,Belgium,Flanders,East Flanders Province,Ghent
5.134.7.107,4,25,bunnybunch.nl,BE,Europe,Western Europe,Belgium,Flanders,Antwerp Province,Antwerp
5.134.7.157,4,5,bycs.org,BE,Europe,Western Europe,Belgium,Flanders,Antwerp Province,Antwerp
176.62.173.155,4,12,cajou.be,BE,Europe,Western Europe,Belgium,Flanders,East Flanders Province,Ghent
176.62.170.21,4,-30,caritasinternational.be,BE,Europe,Western Europe,Belgium,Flanders,East Flanders Province,Ghent
176.62.170.182,4,-35,centrale.brussels,BE,Europe,Western Europe,Belgium,Flanders,East Flanders Province,Ghent
5.134.6.41,4,2,choco-story-brugge.be,BE,Europe,Western Europe,Belgium,Flanders,Antwerp Province,Antwerp
5.134.7.226,4,32,cinematek.be,BE,Europe,Western Europe,Belgium,Flanders,Antwerp Province,Antwerp
176.62.168.137,4,-30,cinemazed.be,BE,Europe,Western Europe,Belgium,Flanders,East Flanders Province,Ghent
176.62.173.247,4,8,coalitionfortheicc.org,BE,Europe,Western Europe,Belgium,Flanders,East Flanders Province,Ghent
176.62.173.249,4,11,connectedautomateddriving.eu,BE,Europe,Western Europe,Belgium,Flanders,East Flanders Province,Ghent
5.134.7.227,4,7,conservatoriummaastricht.nl,BE,Europe,Western Europe,Belgium,Flanders,Antwerp Province,Antwerp
5.134.6.213,4,101,crisp.be,BE,Europe,Western Europe,Belgium,Flanders,Antwerp Province,Antwerp
23.55.97.238,4,6,cvs.com,BE,Europe,Western Europe,Belgium,Flanders,Flemish Brabant Province,Diegem
5.134.4.38,4,26,dailybits.be,BE,Europe,Western Europe,Belgium,Flanders,Antwerp Province,Antwerp
176.62.173.237,4,8,dansendeberen.be,BE,Europe,Western Europe,Belgium,Flanders,East Flanders Province,Ghent
5.134.6.55,4,26,davitamon.nl,BE,Europe,Western Europe,Belgium,Flanders,Antwerp Province,Antwerp
176.62.168.176,4,-16,debameubelen.be,BE,Europe,Western Europe,Belgium,Flanders,East Flanders Province,Ghent
176.62.173.27,4,60,dekringwinkel.be,BE,Europe,Western Europe,Belgium,Flanders,East Flanders Province,Ghent
176.62.168.29,4,-29,depressie.nl,BE,Europe,Western Europe,Belgium,Flanders,East Flanders Province,Ghent
81.247.107.128,4,33,DNS Server: 128.107-247-81.adsl-dyn.isp.belgacom.be,BE,Europe,Western Europe,Belgium,Flanders,Antwerp Province,Antwerp
87.66.186.140,4,20,DNS Server: 140.186-66-87.adsl-dyn.isp.belgacom.be,BE,Europe,Western Europe,Belgium,Flanders,West Flanders Province,Tielt
81.242.198.184,4,65,DNS Server: 184.198-242-81.adsl-dyn.isp.belgacom.be,BE,Europe,Western Europe,Belgium,Flanders,West Flanders Province,Kuurne
91.180.235.224,4,239780,DNS Server: 224.235-180-91.adsl-dyn.isp.belgacom.be,BE,Europe,Western Europe,Belgium,Flanders,East Flanders Province,Ghent
87.64.16.29,4,75,DNS Server: 29.16-64-87.adsl-dyn.isp.belgacom.be,BE,Europe,Western Europe,Belgium,Flanders,Antwerp Province,Edegem
91.179.91.60,4,53,DNS Server: 60.91-179-91.adsl-dyn.isp.belgacom.be,BE,Europe,Western Europe,Belgium,Flanders,East Flanders Province,Oordegem
87.65.238.61,4,31,DNS Server: 61.238-65-87.adsl-dyn.isp.belgacom.be,BE,Europe,Western Europe,Belgium,Flanders,East Flanders Province,Ghent
109.132.6.65,4,40,DNS Server: 65.6-132-109.adsl-dyn.isp.belgacom.be,BE,Europe,Western Europe,Belgium,Flanders,Antwerp Province,Antwerp
87.65.15.90,4,37,DNS Server: 90.15-65-87.adsl-dyn.isp.belgacom.be,BE,Europe,Western Europe,Belgium,Flanders,East Flanders Province,Aalst
91.180.232.95,4,136,DNS Server: 95.232-180-91.adsl-dyn.isp.belgacom.be,BE,Europe,Western Europe,Belgium,Flanders,East Flanders Province,Ghent
83.134.123.101,4,108,DNS Server: ip-83-134-123-101.dsl.scarlet.be,BE,Europe,Western Europe,Belgium,Flanders,Antwerp Province,Mechelen
5.134.5.121,4,30,docs4opendebate.be,BE,Europe,Western Europe,Belgium,Flanders,Antwerp Province,Antwerp
86.39.2.178,4,27,dommel.be,BE,Europe,Western Europe,Belgium,Flanders,Antwerp Province,Antwerp
176.62.167.15,4,16,droitsquotidiens.be,BE,Europe,Western Europe,Belgium,Flanders,East Flanders Province,Ghent
176.62.169.242,4,-33,dvhardware.net,BE,Europe,Western Europe,Belgium,Flanders,East Flanders Province,Ghent
5.134.7.5,4,-2,eaae.be,BE,Europe,Western Europe,Belgium,Flanders,Antwerp Province,Antwerp
5.134.6.160,4,2,ebf.eu,BE,Europe,Western Europe,Belgium,Flanders,Antwerp Province,Antwerp
212.71.0.128,4,10,edpnet.be,BE,Europe,Western Europe,Belgium,Flanders,Antwerp Province,Antwerp
212.71.8.128,4,11,edpnet.be,BE,Europe,Western Europe,Belgium,Flanders,Antwerp Province,Antwerp
212.71.0.129,4,9,edpnet.be,BE,Europe,Western Europe,Belgium,Flanders,Antwerp Province,Antwerp
212.71.8.129,4,6,edpnet.be,BE,Europe,Western Europe,Belgium,Flanders,Antwerp Province,Antwerp
5.134.5.17,4,65,eias.org,BE,Europe,Western Europe,Belgium,Flanders,Antwerp Province,Antwerp
176.62.169.193,4,-10,eortc.org,BE,Europe,Western Europe,Belgium,Flanders,East Flanders Province,Ghent
5.134.7.19,4,-2,escovloeren.nl,BE,Europe,Western Europe,Belgium,Flanders,Antwerp Province,Antwerp
176.62.173.83,4,10,essenscia.be,BE,Europe,Western Europe,Belgium,Flanders,East Flanders Province,Ghent
5.134.6.182,4,25,etno.eu,BE,Europe,Western Europe,Belgium,Flanders,Antwerp Province,Antwerp
193.105.73.17,4,8,eurima.org,BE,Europe,Western Europe,Belgium,Flanders,East Flanders Province,Ghent
176.62.173.210,4,7,eurocarers.org,BE,Europe,Western Europe,Belgium,Flanders,East Flanders Province,Ghent
176.62.169.209,4,-22,europanostra.org,BE,Europe,Western Europe,Belgium,Flanders,East Flanders Province,Ghent
5.134.5.28,4,28,eurosif.org,BE,Europe,Western Europe,Belgium,Flanders,Antwerp Province,Antwerp
5.134.7.106,4,9,familienaam.be,BE,Europe,Western Europe,Belgium,Flanders,Antwerp Province,Antwerp
176.62.170.39,4,18,fecava.org,BE,Europe,Western Europe,Belgium,Flanders,East Flanders Province,Ghent
176.62.173.218,4,37,fiatcoupeclub.org,BE,Europe,Western Europe,Belgium,Flanders,East Flanders Province,Ghent
176.62.173.219,4,46,fibreguard.com,BE,Europe,Western Europe,Belgium,Flanders,East Flanders Province,Ghent
176.62.167.116,4,51,filipdujardin.be,BE,Europe,Western Europe,Belgium,Flanders,East Flanders Province,Ghent
176.62.173.114,4,56,filmmusiccritics.org,BE,Europe,Western Europe,Belgium,Flanders,East Flanders Province,Ghent
2.17.107.129,4,13,flanders.be,BE,Europe,Western Europe,Belgium,Flanders,Flemish Brabant Province,Diegem
88.221.83.194,4,4,flanders.be,BE,Europe,Western Europe,Belgium,Flanders,Flemish Brabant Province,Diegem
37.148.180.124,4,4,flexmail.eu,BE,Europe,Western Europe,Belgium,Flanders,Antwerp Province,Wortel
5.134.7.0,4,-2,florealgroup.be,BE,Europe,Western Europe,Belgium,Flanders,Antwerp Province,Antwerp
176.62.168.227,4,-31,fluorocarbons.org,BE,Europe,Western Europe,Belgium,Flanders,East Flanders Province,Ghent
31.22.22.140,4,3,fosdem.org,BE,Europe,Western Europe,Belgium,Flanders,Flemish Brabant Province,Zaventem
176.62.173.211,4,7,fotostulens.be,BE,Europe,Western Europe,Belgium,Flanders,East Flanders Province,Ghent
5.134.4.193,4,-2,fransmasereelcentrum.be,BE,Europe,Western Europe,Belgium,Flanders,Antwerp Province,Antwerp
5.134.5.200,4,16,frietmuseum.be,BE,Europe,Western Europe,Belgium,Flanders,Antwerp Province,Antwerp
193.58.112.106,4,32,gabi-journal.net,BE,Europe,Western Europe,Belgium,Flanders,Limburg Province,Hasselt
5.134.4.194,4,10,gaia.be,BE,Europe,Western Europe,Belgium,Flanders,Antwerp Province,Antwerp
88.221.83.251,4,6,gap.co.uk,BE,Europe,Western Europe,Belgium,Flanders,Flemish Brabant Province,Diegem
2.17.107.112,4,17,gap.co.uk,BE,Europe,Western Europe,Belgium,Flanders,Flemish Brabant Province,Diegem
5.134.4.199,4,64,gesi.org,BE,Europe,Western Europe,Belgium,Flanders,Antwerp Province,Antwerp
5.134.6.219,4,4,gie.eu,BE,Europe,Western Europe,Belgium,Flanders,Antwerp Province,Antwerp
5.134.7.119,4,33,giignl.org,BE,Europe,Western Europe,Belgium,Flanders,Antwerp Province,Antwerp
5.134.4.124,4,3,goedgezind.be,BE,Europe,Western Europe,Belgium,Flanders,Antwerp Province,Antwerp
5.134.7.124,4,19,gottmer.nl,BE,Europe,Western Europe,Belgium,Flanders,Antwerp Province,Antwerp
5.134.5.198,4,9,gratiscursus.be,BE,Europe,Western Europe,Belgium,Flanders,Antwerp Province,Antwerp
109.68.160.157,4,2,gwg.org,BE,Europe,Western Europe,Belgium,Flanders,Flemish Brabant Province,Zaventem
176.62.172.141,4,11,hallerbos.be,BE,Europe,Western Europe,Belgium,Flanders,East Flanders Province,Ghent
5.134.6.157,4,2,hangar.flights,BE,Europe,Western Europe,Belgium,Flanders,Antwerp Province,Antwerp
81.95.125.201,4,8,hdl-concept.be,BE,Europe,Western Europe,Belgium,Flanders,West Flanders Province,Bruges
5.134.7.117,4,19,helmutlotti.com,BE,Europe,Western Europe,Belgium,Flanders,Antwerp Province,Antwerp
5.134.4.79,4,9,hertog-jan.com,BE,Europe,Western Europe,Belgium,Flanders,Antwerp Province,Antwerp
176.62.173.143,4,7,hetanker.be,BE,Europe,Western Europe,Belgium,Flanders,East Flanders Province,Ghent
5.134.7.120,4,73,hofmandujardin.nl,BE,Europe,Western Europe,Belgium,Flanders,Antwerp Province,Antwerp
176.62.172.29,4,6,hofvancleve.com,BE,Europe,Western Europe,Belgium,Flanders,East Flanders Province,Ghent
5.134.6.45,4,3,honda-engines-eu.com,BE,Europe,Western Europe,Belgium,Flanders,Antwerp Province,Antwerp
5.134.4.97,4,0,howest.be,BE,Europe,Western Europe,Belgium,Flanders,Antwerp Province,Antwerp
5.134.5.147,4,8,hzs.be,BE,Europe,Western Europe,Belgium,Flanders,Antwerp Province,Antwerp
176.62.165.131,4,14,iadllaw.org,BE,Europe,Western Europe,Belgium,Flanders,East Flanders Province,Ghent
176.62.169.31,4,-9,ilovetechno.be,BE,Europe,Western Europe,Belgium,Flanders,East Flanders Province,Ghent
37.72.162.40,4,407,indymedia.be,BE,Europe,Western Europe,Belgium,Flanders,West Flanders Province,Mesen
176.62.169.147,4,-6,inforegio.be,BE,Europe,Western Europe,Belgium,Flanders,East Flanders Province,Ghent
5.134.4.113,4,35,innotec.pro,BE,Europe,Western Europe,Belgium,Flanders,Antwerp Province,Antwerp
176.62.173.9,4,10,ipisresearch.be,BE,Europe,Western Europe,Belgium,Flanders,East Flanders Province,Ghent
193.190.137.158,4,76189,irceline.be,BE,Europe,Western Europe,Belgium,Flanders,Antwerp Province,Edegem
5.134.5.184,4,21,itdaily.be,BE,Europe,Western Europe,Belgium,Flanders,Antwerp Province,Antwerp
2.17.107.130,4,5,jll.de,BE,Europe,Western Europe,Belgium,Flanders,Flemish Brabant Province,Diegem
176.62.173.91,4,1,julieslifestyle.com,BE,Europe,Western Europe,Belgium,Flanders,East Flanders Province,Ghent
5.134.7.35,4,0,kaap.be,BE,Europe,Western Europe,Belgium,Flanders,Antwerp Province,Antwerp
176.62.169.194,4,-31,kbdb.be,BE,Europe,Western Europe,Belgium,Flanders,East Flanders Province,Ghent
5.134.7.118,4,31,kikirpa.be,BE,Europe,Western Europe,Belgium,Flanders,Antwerp Province,Antwerp
217.19.231.100,4,-17,klascement.net,BE,Europe,Western Europe,Belgium,Flanders,East Flanders Province,Ghent
5.134.4.119,4,8,klimaat.be,BE,Europe,Western Europe,Belgium,Flanders,Antwerp Province,Antwerp
5.134.4.222,4,8,km.be,BE,Europe,Western Europe,Belgium,Flanders,Antwerp Province,Antwerp
31.193.176.77,4,1072,knx-fr.com,BE,Europe,Western Europe,Belgium,Flanders,East Flanders Province,Herzele
176.62.173.1,4,15,kunstenfestivalwatou.be,BE,Europe,Western Europe,Belgium,Flanders,East Flanders Province,Ghent
176.62.170.227,4,-31,kvab.be,BE,Europe,Western Europe,Belgium,Flanders,East Flanders Province,Ghent
5.134.5.77,4,26,kvk.be,BE,Europe,Western Europe,Belgium,Flanders,Antwerp Province,Antwerp
176.62.173.43,4,5,lesballetscdela.be,BE,Europe,Western Europe,Belgium,Flanders,East Flanders Province,Ghent
176.62.170.40,4,-30,liberiapastandpresent.org,BE,Europe,Western Europe,Belgium,Flanders,East Flanders Province,Ghent
5.134.0.234,4,127,lostfrequencies.com,BE,Europe,Western Europe,Belgium,Flanders,Antwerp Province,Antwerp
176.62.168.54,4,-23,m2c2.be,BE,Europe,Western Europe,Belgium,Flanders,East Flanders Province,Ghent
5.134.6.177,4,11,mach4metal.com,BE,Europe,Western Europe,Belgium,Flanders,Antwerp Province,Antwerp
176.62.169.46,4,-17,madshrimps.be,BE,Europe,Western Europe,Belgium,Flanders,East Flanders Province,Ghent
5.134.6.59,4,2,mainsquarefestival.fr,BE,Europe,Western Europe,Belgium,Flanders,Antwerp Province,Antwerp
79.174.131.26,4,16,maniera.be,BE,Europe,Western Europe,Belgium,Flanders,East Flanders Province,Ghent
23.55.96.226,4,48,manoramamax.com,BE,Europe,Western Europe,Belgium,Flanders,Flemish Brabant Province,Diegem
176.62.169.126,4,-34,manutti.com,BE,Europe,Western Europe,Belgium,Flanders,East Flanders Province,Ghent
176.62.173.243,4,11,mettersinforma.it,BE,Europe,Western Europe,Belgium,Flanders,East Flanders Province,Ghent
62.182.58.34,4,3,milow.com,BE,Europe,Western Europe,Belgium,Flanders,West Flanders Province,Koksijde
5.134.4.101,4,4,mrdh.nl,BE,Europe,Western Europe,Belgium,Flanders,Antwerp Province,Antwerp
5.134.7.158,4,29,muiderslot.nl,BE,Europe,Western Europe,Belgium,Flanders,Antwerp Province,Antwerp
5.134.5.23,4,85,natan.be,BE,Europe,Western Europe,Belgium,Flanders,Antwerp Province,Antwerp
5.134.4.201,4,0,ngi.be,BE,Europe,Western Europe,Belgium,Flanders,Antwerp Province,Antwerp
5.134.7.8,4,15,nima.nl,BE,Europe,Western Europe,Belgium,Flanders,Antwerp Province,Antwerp
5.134.4.156,4,8,nnieuws.be,BE,Europe,Western Europe,Belgium,Flanders,Antwerp Province,Antwerp
5.134.6.40,4,13,noprofitonpandemic.eu,BE,Europe,Western Europe,Belgium,Flanders,Antwerp Province,Antwerp
176.62.168.127,4,27,oascities.org,BE,Europe,Western Europe,Belgium,Flanders,East Flanders Province,Ghent
176.62.173.41,4,17,oceanclub.es,BE,Europe,Western Europe,Belgium,Flanders,East Flanders Province,Ghent
176.62.167.104,4,10,ocmw-info-cpas.be,BE,Europe,Western Europe,Belgium,Flanders,East Flanders Province,Ghent
5.134.5.10,4,6,ofrudgieri.com,BE,Europe,Western Europe,Belgium,Flanders,Antwerp Province,Antwerp
5.134.6.175,4,20,olmenhorst.nl,BE,Europe,Western Europe,Belgium,Flanders,Antwerp Province,Antwerp
212.71.0.110,4,452,Ookla Speedtest Server 40400: speedtest.edpnet.net,BE,Europe,Western Europe,Belgium,Flanders,Antwerp Province,Antwerp
176.62.165.57,4,2,oplossing.be,BE,Europe,Western Europe,Belgium,Flanders,East Flanders Province,Ghent
176.62.165.102,4,41,optometrie.nl,BE,Europe,Western Europe,Belgium,Flanders,East Flanders Province,Ghent
176.62.173.241,4,24,orocos.org,BE,Europe,Western Europe,Belgium,Flanders,East Flanders Province,Ghent
91.183.89.111,4,27,overbyte.be,BE,Europe,Western Europe,Belgium,Flanders,Flemish Brabant Province,Aarschot
5.134.6.150,4,7,palmsens.com,BE,Europe,Western Europe,Belgium,Flanders,Antwerp Province,Antwerp
176.62.165.178,4,7,petitsriens.be,BE,Europe,Western Europe,Belgium,Flanders,East Flanders Province,Ghent
5.134.7.203,4,11,pharma.be,BE,Europe,Western Europe,Belgium,Flanders,Antwerp Province,Antwerp
176.62.172.252,4,58,pianc.org,BE,Europe,Western Europe,Belgium,Flanders,East Flanders Province,Ghent
31.22.22.8,4,22,playable.nl,BE,Europe,Western Europe,Belgium,Flanders,Flemish Brabant Province,Zaventem
5.134.4.24,4,13,poeziecentrum.be,BE,Europe,Western Europe,Belgium,Flanders,Antwerp Province,Antwerp
5.134.4.100,4,29,pointerpro.com,BE,Europe,Western Europe,Belgium,Flanders,Antwerp Province,Antwerp
5.134.6.52,4,36,polisnetwork.eu,BE,Europe,Western Europe,Belgium,Flanders,Antwerp Province,Antwerp
185.21.134.2,4,26,politeia.be,BE,Europe,Western Europe,Belgium,Flanders,East Flanders Province,Dendermonde
62.182.60.78,4,81,priorweb.be,BE,Europe,Western Europe,Belgium,Flanders,West Flanders Province,Koksijde
5.134.4.28,4,47,publiq.be,BE,Europe,Western Europe,Belgium,Flanders,Antwerp Province,Antwerp
5.134.7.185,4,15,pure-original.com,BE,Europe,Western Europe,Belgium,Flanders,Antwerp Province,Antwerp
176.62.169.238,4,97,radiocentraal.be,BE,Europe,Western Europe,Belgium,Flanders,East Flanders Province,Ghent
176.62.170.73,4,2,ravago.com,BE,Europe,Western Europe,Belgium,Flanders,East Flanders Province,Ghent
5.134.5.47,4,47,redactie24.be,BE,Europe,Western Europe,Belgium,Flanders,Antwerp Province,Antwerp
176.62.168.141,4,-22,renovate-europe.eu,BE,Europe,Western Europe,Belgium,Flanders,East Flanders Province,Ghent
5.134.7.229,4,9,river-cleanup.org,BE,Europe,Western Europe,Belgium,Flanders,Antwerp Province,Antwerp
5.134.4.133,4,34,ropsten.be,BE,Europe,Western Europe,Belgium,Flanders,Antwerp Province,Antwerp
5.134.5.43,4,37,rubiomonocoat.com,BE,Europe,Western Europe,Belgium,Flanders,Antwerp Province,Antwerp
176.62.173.90,4,6,sanicole.com,BE,Europe,Western Europe,Belgium,Flanders,East Flanders Province,Ghent
5.134.7.30,4,6,sccm.nl,BE,Europe,Western Europe,Belgium,Flanders,Antwerp Province,Antwerp
176.62.169.48,4,-32,scriptiebank.be,BE,Europe,Western Europe,Belgium,Flanders,East Flanders Province,Ghent
176.62.170.5,4,-33,sdds.be,BE,Europe,Western Europe,Belgium,Flanders,East Flanders Province,Ghent
176.62.167.214,4,47,sensualbusiness.com,BE,Europe,Western Europe,Belgium,Flanders,East Flanders Province,Ghent
5.134.4.211,4,26,sentiance.com,BE,Europe,Western Europe,Belgium,Flanders,Antwerp Province,Antwerp
5.134.4.191,4,10,sintbaafskathedraal.be,BE,Europe,Western Europe,Belgium,Flanders,Antwerp Province,Antwerp
5.134.6.53,4,18,skal.nl,BE,Europe,Western Europe,Belgium,Flanders,Antwerp Province,Antwerp
5.134.4.205,4,11,smappee.com,BE,Europe,Western Europe,Belgium,Flanders,Antwerp Province,Antwerp
5.134.4.77,4,44,soloya.be,BE,Europe,Western Europe,Belgium,Flanders,Antwerp Province,Antwerp
5.134.7.18,4,83,speelgoedmuseum.be,BE,Europe,Western Europe,Belgium,Flanders,Antwerp Province,Antwerp
5.134.7.121,4,27,staantribune.nl,BE,Europe,Western Europe,Belgium,Flanders,Antwerp Province,Antwerp
176.62.170.38,4,32,standaarduitgeverij.be,BE,Europe,Western Europe,Belgium,Flanders,East Flanders Province,Ghent
176.62.173.25,4,19,suitupnow.nl,BE,Europe,Western Europe,Belgium,Flanders,East Flanders Province,Ghent
185.179.91.65,4,26550,sweetslyrics.com,BE,Europe,Western Europe,Belgium,Flanders,East Flanders Province,Ghent
5.134.4.220,4,3,syntra-mvl.be,BE,Europe,Western Europe,Belgium,Flanders,Antwerp Province,Antwerp
5.134.7.9,4,9,tele-onthaal.be,BE,Europe,Western Europe,Belgium,Flanders,Antwerp Province,Antwerp
5.134.4.157,4,4,thebulletin.be,BE,Europe,Western Europe,Belgium,Flanders,Antwerp Province,Antwerp
176.62.169.208,4,13,theinternetofthings.eu,BE,Europe,Western Europe,Belgium,Flanders,East Flanders Province,Ghent
5.134.7.228,4,111,thepack.news,BE,Europe,Western Europe,Belgium,Flanders,Antwerp Province,Antwerp
176.62.170.9,4,-30,thermesdespa.com,BE,Europe,Western Europe,Belgium,Flanders,East Flanders Province,Ghent
176.62.167.68,4,6,togethermag.eu,BE,Europe,Western Europe,Belgium,Flanders,East Flanders Province,Ghent
176.62.173.194,4,7,toneelhuis.be,BE,Europe,Western Europe,Belgium,Flanders,East Flanders Province,Ghent
5.134.5.5,4,15,tragewegen.be,BE,Europe,Western Europe,Belgium,Flanders,Antwerp Province,Antwerp
5.134.4.110,4,16,transgenderinfo.be,BE,Europe,Western Europe,Belgium,Flanders,Antwerp Province,Antwerp
5.134.6.153,4,14,trappistwestmalle.be,BE,Europe,Western Europe,Belgium,Flanders,Antwerp Province,Antwerp
176.62.173.45,4,44,travelingintuscany.com,BE,Europe,Western Europe,Belgium,Flanders,East Flanders Province,Ghent
5.134.7.198,4,13,trip.nl,BE,Europe,Western Europe,Belgium,Flanders,Antwerp Province,Antwerp
185.18.148.23,4,5,tvvisie.be,BE,Europe,Western Europe,Belgium,Flanders,West Flanders Province,Oostkamp
176.62.168.150,4,-31,ucamco.com,BE,Europe,Western Europe,Belgium,Flanders,East Flanders Province,Ghent
88.221.83.192,4,10,unigro.be,BE,Europe,Western Europe,Belgium,Flanders,Flemish Brabant Province,Diegem
2.17.107.122,4,3,unigro.be,BE,Europe,Western Europe,Belgium,Flanders,Flemish Brabant Province,Diegem
5.134.4.197,4,5,ursi.org,BE,Europe,Western Europe,Belgium,Flanders,Antwerp Province,Antwerp
5.134.7.37,4,7,uusikielemme.fi,BE,Europe,Western Europe,Belgium,Flanders,Antwerp Province,Antwerp
176.62.165.58,4,14,veggiedeli.nl,BE,Europe,Western Europe,Belgium,Flanders,East Flanders Province,Ghent
176.62.169.33,4,-29,vennbahn.eu,BE,Europe,Western Europe,Belgium,Flanders,East Flanders Province,Ghent
5.134.6.114,4,16,viapass.be,BE,Europe,Western Europe,Belgium,Flanders,Antwerp Province,Antwerp
5.134.4.40,4,53,vlaamsbouwmeester.be,BE,Europe,Western Europe,Belgium,Flanders,Antwerp Province,Antwerp
5.134.7.202,4,51,vlaamsekunstcollectie.be,BE,Europe,Western Europe,Belgium,Flanders,Antwerp Province,Antwerp
5.134.7.196,4,94,vlaanderen-circulair.be,BE,Europe,Western Europe,Belgium,Flanders,Antwerp Province,Antwerp
176.62.173.88,4,82,vnz.be,BE,Europe,Western Europe,Belgium,Flanders,East Flanders Province,Ghent
5.134.4.42,4,109,voetbal24.be,BE,Europe,Western Europe,Belgium,Flanders,Antwerp Province,Antwerp
176.62.170.91,4,19,vosesoftware.com,BE,Europe,Western Europe,Belgium,Flanders,East Flanders Province,Ghent
176.62.170.152,4,19,vrede.be,BE,Europe,Western Europe,Belgium,Flanders,East Flanders Province,Ghent
185.18.148.240,4,3,waasland-beveren.be,BE,Europe,Western Europe,Belgium,Flanders,West Flanders Province,Oostkamp
5.134.7.159,4,5,wanadoo.be,BE,Europe,Western Europe,Belgium,Flanders,Antwerp Province,Antwerp
176.62.165.33,4,15,weblounge.be,BE,Europe,Western Europe,Belgium,Flanders,East Flanders Province,Ghent
5.134.4.103,4,8,wonenbijseptember.nl,BE,Europe,Western Europe,Belgium,Flanders,Antwerp Province,Antwerp
5.134.7.230,4,13,worlddayofremembrance.org,BE,Europe,Western Europe,Belgium,Flanders,Antwerp Province,Antwerp
5.134.5.26,4,8,xeikon.com,BE,Europe,Western Europe,Belgium,Flanders,Antwerp Province,Antwerp
176.62.170.226,4,-33,xior.be,BE,Europe,Western Europe,Belgium,Flanders,East Flanders Province,Ghent
5.134.5.3,4,4,youthforum.org,BE,Europe,Western Europe,Belgium,Flanders,Antwerp Province,Antwerp
176.62.173.13,4,11,z33.be,BE,Europe,Western Europe,Belgium,Flanders,East Flanders Province,Ghent
5.134.7.115,4,6,zelfmoord1813.be,BE,Europe,Western Europe,Belgium,Flanders,Antwerp Province,Antwerp
5.134.5.13,4,10,zenrealestates.be,BE,Europe,Western Europe,Belgium,Flanders,Antwerp Province,Antwerp
176.62.167.177,4,2,zitacomics.be,BE,Europe,Western Europe,Belgium,Flanders,East Flanders Province,Ghent
176.62.173.233,4,5,zythos.be,BE,Europe,Western Europe,Belgium,Flanders,East Flanders Province,Ghent
