reflector_ip,ip_version,offset,description,country_code,region,sub_region,country_name,sub_division_1,sub_division_2,city
5.45.72.165,4,221143,1001guru.ru,NL,Europe,Western Europe,Netherlands,Flevoland,,Dronten
5.45.72.224,4,221136,1001guru.ru,NL,Europe,Western Europe,Netherlands,Flevoland,,Dronten
178.159.42.223,4,28,1win-indian.in,NL,Europe,Western Europe,Netherlands,Flevoland,,Dronten
185.209.23.52,4,2,1xbet-zerkalo-1.ru,NL,Europe,Western Europe,Netherlands,Flevoland,,Dronten
5.45.72.132,4,43,advi.club,NL,Europe,Western Europe,Netherlands,Flevoland,,Dronten
92.119.112.195,4,7,albumstar.ru,NL,Europe,Western Europe,Netherlands,Flevoland,,Dronten
92.119.113.224,4,129,aviatorplaygame.com,NL,Europe,Western Europe,Netherlands,Flevoland,,Dronten
45.141.29.171,4,37,bedrijfsuitje.nl,NL,Europe,Western Europe,Netherlands,Flevoland,,Dronten
185.198.165.70,4,42,beersfan.ru,NL,Europe,Western Europe,Netherlands,Flevoland,,Dronten
185.32.180.209,4,5,bolen-kot.net.ru,NL,Europe,Western Europe,Netherlands,Flevoland,,Dronten
5.45.76.88,4,47,car-number.com,NL,Europe,Western Europe,Netherlands,Flevoland,,Dronten
185.15.209.140,4,31,casinotice.com,NL,Europe,Western Europe,Netherlands,Flevoland,,Dronten
185.198.164.6,4,18,cherubicsoft.com,NL,Europe,Western Europe,Netherlands,Flevoland,,Dronten
88.151.32.43,4,13,climateinstitute.org.au,NL,Europe,Western Europe,Netherlands,Flevoland,,Dronten
31.42.188.96,4,-1,darkghost.org.ua,NL,Europe,Western Europe,Netherlands,Flevoland,,Dronten
185.198.167.110,4,2,devilgame.org,NL,Europe,Western Europe,Netherlands,Flevoland,,Dronten
185.198.167.109,4,4,devilgame.org,NL,Europe,Western Europe,Netherlands,Flevoland,,Dronten
91.90.194.171,4,-5941905,DNS Server: 1st.among.moe,NL,Europe,Western Europe,Netherlands,Flevoland,,Dronten
86.105.252.74,4,61,DNS Server: ip-86-105-252-74-81088.vps.hosted-by-mvps.net,NL,Europe,Western Europe,Netherlands,Flevoland,,Dronten
86.106.181.116,4,-2,dropispy.com,NL,Europe,Western Europe,Netherlands,Flevoland,,Dronten
185.253.219.218,4,78,drugwiki.org,NL,Europe,Western Europe,Netherlands,Flevoland,,Dronten
185.15.210.147,4,47,ellemarket.com,NL,Europe,Western Europe,Netherlands,Flevoland,,Dronten
185.198.164.176,4,4,encyclopaediaislamica.com,NL,Europe,Western Europe,Netherlands,Flevoland,,Dronten
5.45.78.5,4,1,exchanger24.org,NL,Europe,Western Europe,Netherlands,Flevoland,,Dronten
5.61.57.82,4,70,filmix.net,NL,Europe,Western Europe,Netherlands,Flevoland,,Dronten
45.88.107.38,4,19,firstnews.ru,NL,Europe,Western Europe,Netherlands,Flevoland,,Dronten
5.61.56.204,4,3,flibusta.site,NL,Europe,Western Europe,Netherlands,Flevoland,,Dronten
45.81.225.73,4,84,forexsklad.org,NL,Europe,Western Europe,Netherlands,Flevoland,,Dronten
176.57.68.98,4,2,fortuna-opt.com.ua,NL,Europe,Western Europe,Netherlands,Flevoland,,Dronten
85.209.90.110,4,30,fost.ws,NL,Europe,Western Europe,Netherlands,Flevoland,,Dronten
185.32.180.112,4,-14,foulard.ru,NL,Europe,Western Europe,Netherlands,Flevoland,,Dronten
213.166.70.96,4,5,ftabs.ru,NL,Europe,Western Europe,Netherlands,Flevoland,,Dronten
88.218.118.87,4,-121,gilat.com,NL,Europe,Western Europe,Netherlands,Flevoland,,Dronten
88.218.118.64,4,29,gk8.io,NL,Europe,Western Europe,Netherlands,Flevoland,,Dronten
212.86.109.187,4,9,gostei.ru,NL,Europe,Western Europe,Netherlands,Flevoland,,Dronten
5.61.58.130,4,17010,grif-fan.ru,NL,Europe,Western Europe,Netherlands,Flevoland,,Dronten
195.245.112.113,4,660,hilaryclub.ru,NL,Europe,Western Europe,Netherlands,Flevoland,,Dronten
45.81.227.194,4,0,homsk.com,NL,Europe,Western Europe,Netherlands,Flevoland,,Dronten
185.161.208.229,4,21,jabberworld.info,NL,Europe,Western Europe,Netherlands,Flevoland,,Dronten
194.147.142.147,4,7,khedmatazma.com,NL,Europe,Western Europe,Netherlands,Flevoland,,Dronten
95.215.205.165,4,40,knigka.info,NL,Europe,Western Europe,Netherlands,Flevoland,,Dronten
88.218.118.21,4,-1031,kokam.com,NL,Europe,Western Europe,Netherlands,Flevoland,,Dronten
185.206.212.29,4,6,kptd55.ru,NL,Europe,Western Europe,Netherlands,Flevoland,,Dronten
185.198.165.250,4,18,lechebka.su,NL,Europe,Western Europe,Netherlands,Flevoland,,Dronten
92.119.113.158,4,64,lenafaure.com,NL,Europe,Western Europe,Netherlands,Flevoland,,Dronten
185.32.180.195,4,78,levanna.ru,NL,Europe,Western Europe,Netherlands,Flevoland,,Dronten
5.45.74.143,4,5,lingust.ru,NL,Europe,Western Europe,Netherlands,Flevoland,,Dronten
194.147.33.52,4,4,lngcongress.com,NL,Europe,Western Europe,Netherlands,Flevoland,,Dronten
185.181.165.252,4,1,lslife.com.ua,NL,Europe,Western Europe,Netherlands,Flevoland,,Dronten
213.166.70.124,4,3,mailwizz-training.ru,NL,Europe,Western Europe,Netherlands,Flevoland,,Dronten
88.218.118.58,4,636,masa.co.il,NL,Europe,Western Europe,Netherlands,Flevoland,,Dronten
93.115.16.124,4,11,matkaji.net,NL,Europe,Western Europe,Netherlands,Flevoland,,Dronten
213.166.68.104,4,7,meming.world,NL,Europe,Western Europe,Netherlands,Flevoland,,Dronten
5.61.59.141,4,-359160,mod-site.net,NL,Europe,Western Europe,Netherlands,Flevoland,,Dronten
45.88.104.106,4,18,moviesjoy.today,NL,Europe,Western Europe,Netherlands,Flevoland,,Dronten
185.36.188.38,4,52,nau.ua,NL,Europe,Western Europe,Netherlands,Flevoland,,Dronten
213.166.71.206,4,49,neurons.biz,NL,Europe,Western Europe,Netherlands,Flevoland,,Dronten
185.253.219.219,4,16,newrezume.org,NL,Europe,Western Europe,Netherlands,Flevoland,,Dronten
193.111.153.21,4,-2,osvitoria.media,NL,Europe,Western Europe,Netherlands,Flevoland,,Dronten
5.45.72.202,4,57,pidruchniki.com,NL,Europe,Western Europe,Netherlands,Flevoland,,Dronten
185.181.165.238,4,40,press-centr.com,NL,Europe,Western Europe,Netherlands,Flevoland,,Dronten
45.147.199.198,4,16,pryaniki.org,NL,Europe,Western Europe,Netherlands,Flevoland,,Dronten
194.242.45.36,4,387,rostov-site.ru,NL,Europe,Western Europe,Netherlands,Flevoland,,Dronten
88.218.118.47,4,40,rummikub.com,NL,Europe,Western Europe,Netherlands,Flevoland,,Dronten
185.181.165.129,4,1,s-host.com.ua,NL,Europe,Western Europe,Netherlands,Flevoland,,Dronten
213.166.71.34,4,41,seamacgames.com,NL,Europe,Western Europe,Netherlands,Flevoland,,Dronten
213.166.69.216,4,15,sk1.online,NL,Europe,Western Europe,Netherlands,Flevoland,,Dronten
5.61.56.182,4,1,slotmashine.ru,NL,Europe,Western Europe,Netherlands,Flevoland,,Dronten
195.245.113.251,4,16,soccerland.ru,NL,Europe,Western Europe,Netherlands,Flevoland,,Dronten
195.245.112.84,4,2,soldaty-online.com,NL,Europe,Western Europe,Netherlands,Flevoland,,Dronten
92.119.113.169,4,4,sonnysautorepairinc.com,NL,Europe,Western Europe,Netherlands,Flevoland,,Dronten
5.45.72.182,4,18,speechgen.io,NL,Europe,Western Europe,Netherlands,Flevoland,,Dronten
5.45.75.95,4,13,studbooks.net,NL,Europe,Western Europe,Netherlands,Flevoland,,Dronten
92.119.112.107,4,28,studexchange.ru,NL,Europe,Western Europe,Netherlands,Flevoland,,Dronten
5.45.74.108,4,74,studme.org,NL,Europe,Western Europe,Netherlands,Flevoland,,Dronten
5.45.74.77,4,73,studref.com,NL,Europe,Western Europe,Netherlands,Flevoland,,Dronten
5.45.72.163,4,34,studwood.ru,NL,Europe,Western Europe,Netherlands,Flevoland,,Dronten
5.61.52.14,4,-2,sugarstacks.com,NL,Europe,Western Europe,Netherlands,Flevoland,,Dronten
91.90.192.25,4,3,tegos-zagruzki.ru,NL,Europe,Western Europe,Netherlands,Flevoland,,Dronten
185.15.209.152,4,3,tendersontime.com,NL,Europe,Western Europe,Netherlands,Flevoland,,Dronten
195.245.113.139,4,8,thetradable.com,NL,Europe,Western Europe,Netherlands,Flevoland,,Dronten
213.166.70.208,4,0,timeallnews.ru,NL,Europe,Western Europe,Netherlands,Flevoland,,Dronten
185.154.12.147,4,1,tingo-forum.ru,NL,Europe,Western Europe,Netherlands,Flevoland,,Dronten
45.141.29.133,4,6,tinq.nl,NL,Europe,Western Europe,Netherlands,Flevoland,,Dronten
45.12.215.195,4,68,topcasinoratings.ru,NL,Europe,Western Europe,Netherlands,Flevoland,,Dronten
185.198.164.178,4,9,torgtah.ru,NL,Europe,Western Europe,Netherlands,Flevoland,,Dronten
88.218.118.10,4,-20,ussl.co.il,NL,Europe,Western Europe,Netherlands,Flevoland,,Dronten
92.119.113.26,4,19,uz-vezemo.com,NL,Europe,Western Europe,Netherlands,Flevoland,,Dronten
92.119.113.200,4,19,vavada-bonus.com,NL,Europe,Western Europe,Netherlands,Flevoland,,Dronten
5.45.78.171,4,25,via-midgard.info,NL,Europe,Western Europe,Netherlands,Flevoland,,Dronten
45.12.214.178,4,5,vikiinfo.ru,NL,Europe,Western Europe,Netherlands,Flevoland,,Dronten
91.223.123.239,4,54,virtruletka18.ru,NL,Europe,Western Europe,Netherlands,Flevoland,,Dronten
5.45.76.19,4,55,vnz.su,NL,Europe,Western Europe,Netherlands,Flevoland,,Dronten
92.119.113.117,4,89,vodkakazino.pro,NL,Europe,Western Europe,Netherlands,Flevoland,,Dronten
45.88.106.39,4,80,vse-knigi.org,NL,Europe,Western Europe,Netherlands,Flevoland,,Dronten
5.45.75.20,4,6361467,vshkole.com,NL,Europe,Western Europe,Netherlands,Flevoland,,Dronten
185.253.219.41,4,-3,vstup.info,NL,Europe,Western Europe,Netherlands,Flevoland,,Dronten
92.119.113.20,4,8,winda.top,NL,Europe,Western Europe,Netherlands,Flevoland,,Dronten
45.81.224.136,4,0,xbet-france.com,NL,Europe,Western Europe,Netherlands,Flevoland,,Dronten
178.159.42.39,4,111,xn--d1ai6ai.xn--p1ai,NL,Europe,Western Europe,Netherlands,Flevoland,,Dronten
91.90.192.62,4,51,zarabotat-v-internete.biz,NL,Europe,Western Europe,Netherlands,Flevoland,,Dronten
5.61.54.176,4,3,zdorovaya-life.ru,NL,Europe,Western Europe,Netherlands,Flevoland,,Dronten
5.61.54.32,4,11,zdorovie-natsii.ru,NL,Europe,Western Europe,Netherlands,Flevoland,,Dronten
5.61.55.95,4,21,zigry.net,NL,Europe,Western Europe,Netherlands,Flevoland,,Dronten
45.81.225.237,4,1,znayu.org,NL,Europe,Western Europe,Netherlands,Flevoland,,Dronten
5.45.73.118,4,221111,zumfit.ru,NL,Europe,Western Europe,Netherlands,Flevoland,,Dronten
