reflector_ip,ip_version,offset,description,country_code,region,sub_region,country_name,sub_division_1,sub_division_2,city
154.216.14.139,4,8,029jinggangya.com,SC,Africa,Sub-Saharan Africa,Seychelles,,,
154.216.12.104,4,9,15an.com,SC,Africa,Sub-Saharan Africa,Seychelles,,,
156.236.72.188,4,569473,1v34.com,SC,Africa,Sub-Saharan Africa,Seychelles,,,
154.91.15.242,4,12,221033.com,SC,Africa,Sub-Saharan Africa,Seychelles,,,
154.213.128.94,4,2,243ty.com,SC,Africa,Sub-Saharan Africa,Seychelles,,,
154.213.63.131,4,2,3199.cn,SC,Africa,Sub-Saharan Africa,Seychelles,,,
154.216.14.190,4,10,3388920.com,SC,Africa,Sub-Saharan Africa,Seychelles,,,
103.211.219.68,4,-22,51jsyy.com,SC,Africa,Sub-Saharan Africa,Seychelles,,,
154.91.98.15,4,2,52rizhaolvcha.com,SC,Africa,Sub-Saharan Africa,Seychelles,,,
154.86.16.54,4,-106,55354.cc,SC,Africa,Sub-Saharan Africa,Seychelles,,,
154.86.16.187,4,-105,55354.cc,SC,Africa,Sub-Saharan Africa,Seychelles,,,
154.86.16.218,4,-108,55354.cc,SC,Africa,Sub-Saharan Africa,Seychelles,,,
154.198.53.112,4,48,55354.cc,SC,Africa,Sub-Saharan Africa,Seychelles,,,
154.197.14.95,4,-23,56980.cc,SC,Africa,Sub-Saharan Africa,Seychelles,,,
154.197.14.55,4,-20,56980.cc,SC,Africa,Sub-Saharan Africa,Seychelles,,,
154.197.14.131,4,-19,56980.cc,SC,Africa,Sub-Saharan Africa,Seychelles,,,
156.247.63.55,4,66,56980.cc,SC,Africa,Sub-Saharan Africa,Seychelles,,,
154.197.14.101,4,-20,56980.cc,SC,Africa,Sub-Saharan Africa,Seychelles,,,
156.247.63.58,4,65,56980.cc,SC,Africa,Sub-Saharan Africa,Seychelles,,,
154.198.53.47,4,9,727895.com,SC,Africa,Sub-Saharan Africa,Seychelles,,,
154.198.53.36,4,3,727895.com,SC,Africa,Sub-Saharan Africa,Seychelles,,,
154.91.98.176,4,7,8765321.com,SC,Africa,Sub-Saharan Africa,Seychelles,,,
154.86.27.194,4,-11,99819824.com,SC,Africa,Sub-Saharan Africa,Seychelles,,,
154.86.27.183,4,-14,99819824.com,SC,Africa,Sub-Saharan Africa,Seychelles,,,
154.86.27.190,4,-14,99819824.com,SC,Africa,Sub-Saharan Africa,Seychelles,,,
103.211.218.14,4,67,astrologysupport.com,SC,Africa,Sub-Saharan Africa,Seychelles,,,
2.57.215.138,4,34,bitcoinprofitpro.com,SC,Africa,Sub-Saharan Africa,Seychelles,,,
154.91.99.207,4,6,bjgreedq.com,SC,Africa,Sub-Saharan Africa,Seychelles,,,
154.222.239.178,4,999,bjtsds.com,SC,Africa,Sub-Saharan Africa,Seychelles,,,
154.216.12.131,4,11,bkmsayb.com,SC,Africa,Sub-Saharan Africa,Seychelles,,,
154.205.104.205,4,-5,caah-kqem.com,SC,Africa,Sub-Saharan Africa,Seychelles,,,
154.91.24.71,4,12,cangdaoyun.com,SC,Africa,Sub-Saharan Africa,Seychelles,,,
45.141.59.185,4,1,careskit.com,SC,Africa,Sub-Saharan Africa,Seychelles,La Rivière Anglaise,,Victoria
154.216.12.188,4,8,cdjlcjz.com,SC,Africa,Sub-Saharan Africa,Seychelles,,,
154.91.98.190,4,6,chaohuiji.com,SC,Africa,Sub-Saharan Africa,Seychelles,,,
154.213.113.81,4,8,chduibao.com,SC,Africa,Sub-Saharan Africa,Seychelles,,,
154.213.113.94,4,7,chenyukg.com,SC,Africa,Sub-Saharan Africa,Seychelles,,,
154.213.46.88,4,3,chfasht.com,SC,Africa,Sub-Saharan Africa,Seychelles,,,
154.213.46.90,4,4,china-mige.com,SC,Africa,Sub-Saharan Africa,Seychelles,,,
154.91.98.92,4,5,chinahbgc.com,SC,Africa,Sub-Saharan Africa,Seychelles,,,
154.216.33.10,4,-2,chqxqj.com,SC,Africa,Sub-Saharan Africa,Seychelles,,,
154.213.224.247,4,5,cnheguo.com,SC,Africa,Sub-Saharan Africa,Seychelles,,,
154.222.239.177,4,999,cnlswc.com,SC,Africa,Sub-Saharan Africa,Seychelles,,,
154.213.224.244,4,3,congyinkeji.com,SC,Africa,Sub-Saharan Africa,Seychelles,,,
156.232.88.2,4,3,coredevini.org,SC,Africa,Sub-Saharan Africa,Seychelles,,,
154.222.234.21,4,7,cqhwgjg.com,SC,Africa,Sub-Saharan Africa,Seychelles,,,
154.216.14.130,4,8,cshipw.com,SC,Africa,Sub-Saharan Africa,Seychelles,,,
154.216.12.136,4,10,csxsq.com,SC,Africa,Sub-Saharan Africa,Seychelles,,,
156.226.58.199,4,18,curiemag.com,SC,Africa,Sub-Saharan Africa,Seychelles,,,
154.216.34.104,4,0,cvvision.cn,SC,Africa,Sub-Saharan Africa,Seychelles,,,
154.213.224.246,4,6,cvx4.com,SC,Africa,Sub-Saharan Africa,Seychelles,,,
154.213.113.93,4,4,cwwee.com,SC,Africa,Sub-Saharan Africa,Seychelles,,,
154.91.117.60,4,18,czzddbj.com,SC,Africa,Sub-Saharan Africa,Seychelles,,,
156.236.167.53,4,7036,dafankeji.com,SC,Africa,Sub-Saharan Africa,Seychelles,,,
154.213.63.129,4,3,diangon.com,SC,Africa,Sub-Saharan Africa,Seychelles,,,
156.236.170.33,4,0,dlbljsj.cn,SC,Africa,Sub-Saharan Africa,Seychelles,,,
217.114.41.170,4,2,DNS Server: delamination.plazareg.com,SC,Africa,Sub-Saharan Africa,Seychelles,,,
217.114.41.86,4,66,DNS Server: neapolitan.squadramfo.com,SC,Africa,Sub-Saharan Africa,Seychelles,,,
154.91.91.27,4,0,downg.com,SC,Africa,Sub-Saharan Africa,Seychelles,,,
154.91.91.38,4,3,downg.com,SC,Africa,Sub-Saharan Africa,Seychelles,,,
154.91.91.59,4,21,downg.com,SC,Africa,Sub-Saharan Africa,Seychelles,,,
154.213.46.89,4,7,dslrhzpoem.com,SC,Africa,Sub-Saharan Africa,Seychelles,,,
154.213.245.196,4,4,dtdcnt.com,SC,Africa,Sub-Saharan Africa,Seychelles,,,
154.91.1.207,4,2,duddells.co,SC,Africa,Sub-Saharan Africa,Seychelles,,,
103.211.218.60,4,201,dxminds.com,SC,Africa,Sub-Saharan Africa,Seychelles,,,
154.213.41.216,4,2,eaiduocom.com,SC,Africa,Sub-Saharan Africa,Seychelles,,,
154.213.17.238,4,28,edeng.cn,SC,Africa,Sub-Saharan Africa,Seychelles,,,
156.232.88.6,4,6,essayhelper.us,SC,Africa,Sub-Saharan Africa,Seychelles,,,
154.91.91.17,4,55,eviloctal.com,SC,Africa,Sub-Saharan Africa,Seychelles,,,
154.91.91.45,4,81,eviloctal.com,SC,Africa,Sub-Saharan Africa,Seychelles,,,
154.91.91.25,4,3142,eviloctal.com,SC,Africa,Sub-Saharan Africa,Seychelles,,,
154.91.91.42,4,1,eviloctal.com,SC,Africa,Sub-Saharan Africa,Seychelles,,,
154.213.46.93,4,9,fansiquannao.com,SC,Africa,Sub-Saharan Africa,Seychelles,,,
156.226.36.239,4,5,fnxue.com,SC,Africa,Sub-Saharan Africa,Seychelles,,,
154.223.3.99,4,18,gaoxinchuang.com,SC,Africa,Sub-Saharan Africa,Seychelles,,,
154.91.117.172,4,37,gdhgqc.com,SC,Africa,Sub-Saharan Africa,Seychelles,,,
154.216.14.144,4,9,gdtuanhua.com,SC,Africa,Sub-Saharan Africa,Seychelles,,,
154.213.113.87,4,60,gotianyu.com,SC,Africa,Sub-Saharan Africa,Seychelles,,,
154.197.50.87,4,11,grnled.com,SC,Africa,Sub-Saharan Africa,Seychelles,,,
154.213.113.90,4,0,guolvqi9.com,SC,Africa,Sub-Saharan Africa,Seychelles,,,
154.91.98.62,4,7,gygjsmc.cn,SC,Africa,Sub-Saharan Africa,Seychelles,,,
156.236.165.61,4,7034,gzbbgy.com,SC,Africa,Sub-Saharan Africa,Seychelles,,,
154.91.117.46,4,6,gzhczhujiang.com,SC,Africa,Sub-Saharan Africa,Seychelles,,,
154.213.41.196,4,4,gzllmjkgl.com,SC,Africa,Sub-Saharan Africa,Seychelles,,,
154.213.46.76,4,5,gzxpchem.com,SC,Africa,Sub-Saharan Africa,Seychelles,,,
154.91.98.108,4,4,gzyjjs.com,SC,Africa,Sub-Saharan Africa,Seychelles,,,
154.213.224.252,4,4,hanyuinformation.com,SC,Africa,Sub-Saharan Africa,Seychelles,,,
154.213.224.249,4,6,haymao.com,SC,Africa,Sub-Saharan Africa,Seychelles,,,
154.213.51.12,4,10,hbclwhw.com,SC,Africa,Sub-Saharan Africa,Seychelles,,,
154.213.239.125,4,8,hbjtqhgs.com,SC,Africa,Sub-Saharan Africa,Seychelles,,,
156.226.43.32,4,5,hclgas.com,SC,Africa,Sub-Saharan Africa,Seychelles,,,
154.213.113.91,4,0,hdglxs.com,SC,Africa,Sub-Saharan Africa,Seychelles,,,
154.213.32.247,4,14,hebeihengzheng.com,SC,Africa,Sub-Saharan Africa,Seychelles,,,
154.213.224.248,4,5,hefeigangtie.com,SC,Africa,Sub-Saharan Africa,Seychelles,,,
156.236.147.172,4,4500,hostingslots.com,SC,Africa,Sub-Saharan Africa,Seychelles,,,
154.198.134.67,4,8,hsjmjz.com,SC,Africa,Sub-Saharan Africa,Seychelles,,,
154.222.239.90,4,8,huacaiart.com,SC,Africa,Sub-Saharan Africa,Seychelles,,,
154.223.3.96,4,8,huahaoyuanyuan.com,SC,Africa,Sub-Saharan Africa,Seychelles,,,
154.222.239.176,4,993,huayuejishi.com,SC,Africa,Sub-Saharan Africa,Seychelles,,,
154.222.238.200,4,994,huazhongbxg.com,SC,Africa,Sub-Saharan Africa,Seychelles,,,
154.213.113.88,4,2,hxlh888.com,SC,Africa,Sub-Saharan Africa,Seychelles,,,
154.91.98.219,4,6,hzxycm.com,SC,Africa,Sub-Saharan Africa,Seychelles,,,
154.207.212.235,4,29,ic1000.net,SC,Africa,Sub-Saharan Africa,Seychelles,,,
154.213.41.219,4,7,icheclub.com,SC,Africa,Sub-Saharan Africa,Seychelles,,,
154.91.98.21,4,20,igdky.com,SC,Africa,Sub-Saharan Africa,Seychelles,,,
154.216.14.140,4,11,jcsd666.com,SC,Africa,Sub-Saharan Africa,Seychelles,,,
154.213.54.3,4,3,jeerong.com,SC,Africa,Sub-Saharan Africa,Seychelles,,,
156.236.73.163,4,19,jfcap.cn,SC,Africa,Sub-Saharan Africa,Seychelles,,,
154.213.113.86,4,0,jhly8.com,SC,Africa,Sub-Saharan Africa,Seychelles,,,
154.213.41.221,4,5,jiachenghuihuang.com,SC,Africa,Sub-Saharan Africa,Seychelles,,,
154.91.117.103,4,4,jiaxunip.com,SC,Africa,Sub-Saharan Africa,Seychelles,,,
154.213.41.200,4,5,jihucar.com,SC,Africa,Sub-Saharan Africa,Seychelles,,,
154.197.20.45,4,-22,jisuzimu.com,SC,Africa,Sub-Saharan Africa,Seychelles,,,
154.197.20.8,4,-23,jisuzimu.com,SC,Africa,Sub-Saharan Africa,Seychelles,,,
154.197.17.179,4,-19,jisuzimu.com,SC,Africa,Sub-Saharan Africa,Seychelles,,,
154.197.17.193,4,-19,jisuzimu.com,SC,Africa,Sub-Saharan Africa,Seychelles,,,
154.213.224.245,4,5,jlzhaofang.com,SC,Africa,Sub-Saharan Africa,Seychelles,,,
154.216.13.179,4,8,joywto.com,SC,Africa,Sub-Saharan Africa,Seychelles,,,
154.213.113.83,4,3,jrfw360.com,SC,Africa,Sub-Saharan Africa,Seychelles,,,
154.213.46.69,4,4,jsjswx.com,SC,Africa,Sub-Saharan Africa,Seychelles,,,
154.213.113.85,4,2,juwangpay.com,SC,Africa,Sub-Saharan Africa,Seychelles,,,
103.211.219.133,4,-340,kaashivinfotech.com,SC,Africa,Sub-Saharan Africa,Seychelles,,,
154.213.41.223,4,2,kscwy.com,SC,Africa,Sub-Saharan Africa,Seychelles,,,
154.216.12.145,4,8,ksysjfc.com,SC,Africa,Sub-Saharan Africa,Seychelles,,,
154.91.99.217,4,30,lbshengtaimu.com,SC,Africa,Sub-Saharan Africa,Seychelles,,,
156.236.167.52,4,7034,lbswxy.com,SC,Africa,Sub-Saharan Africa,Seychelles,,,
154.222.237.95,4,80,lejiayz.com,SC,Africa,Sub-Saharan Africa,Seychelles,,,
185.85.122.11,4,15,lembstroy.ru,SC,Africa,Sub-Saharan Africa,Seychelles,,,
154.91.99.154,4,8,lhqxiaoshou.com,SC,Africa,Sub-Saharan Africa,Seychelles,,,
154.213.38.245,4,1,lhzhongyuan.com,SC,Africa,Sub-Saharan Africa,Seychelles,,,
154.216.13.187,4,7,lingdushangcheng.com,SC,Africa,Sub-Saharan Africa,Seychelles,,,
154.205.105.199,4,-6,lsdmuzic.com,SC,Africa,Sub-Saharan Africa,Seychelles,,,
154.91.99.151,4,3,luomi100.com,SC,Africa,Sub-Saharan Africa,Seychelles,,,
154.91.98.41,4,9,macs-batteries.com,SC,Africa,Sub-Saharan Africa,Seychelles,,,
154.91.99.244,4,5,maicheonline.com,SC,Africa,Sub-Saharan Africa,Seychelles,,,
154.222.237.100,4,9,makeuprainbow.com,SC,Africa,Sub-Saharan Africa,Seychelles,,,
156.236.145.169,4,4464,mediterraneoshoproma.com,SC,Africa,Sub-Saharan Africa,Seychelles,,,
103.211.219.36,4,1002,metromsk.com,SC,Africa,Sub-Saharan Africa,Seychelles,,,
154.91.98.238,4,4,msachina-tool.com,SC,Africa,Sub-Saharan Africa,Seychelles,,,
154.91.98.49,4,10,mxscbz.com,SC,Africa,Sub-Saharan Africa,Seychelles,,,
154.91.247.49,4,24,myfiledown.com,SC,Africa,Sub-Saharan Africa,Seychelles,,,
154.216.13.130,4,31,myjlyhb.com,SC,Africa,Sub-Saharan Africa,Seychelles,,,
154.197.22.221,4,-18,n700.top,SC,Africa,Sub-Saharan Africa,Seychelles,,,
156.247.14.214,4,1,netfisher.com,SC,Africa,Sub-Saharan Africa,Seychelles,,,
156.226.61.211,4,147,new-balanceshoes.com,SC,Africa,Sub-Saharan Africa,Seychelles,,,
195.245.81.5,4,-17,nomorelyrics.net,SC,Africa,Sub-Saharan Africa,Seychelles,,,
45.150.66.10,4,454356,novafile.com,SC,Africa,Sub-Saharan Africa,Seychelles,La Rivière Anglaise,,Victoria
154.216.14.131,4,9,ntys888.com,SC,Africa,Sub-Saharan Africa,Seychelles,,,
154.223.3.101,4,10,nxjdfood.com,SC,Africa,Sub-Saharan Africa,Seychelles,,,
154.213.113.92,4,2,nyww551.com,SC,Africa,Sub-Saharan Africa,Seychelles,,,
154.213.187.117,4,302,Ookla Speedtest Server 61804: speedtest.macht-dicht.de,SC,Africa,Sub-Saharan Africa,Seychelles,,,
41.220.110.239,4,345,Ookla Speedtest Server 63798: speedtest.intelvision.sc,SC,Africa,Sub-Saharan Africa,Seychelles,La Rivière Anglaise,,Victoria
154.83.31.113,4,1103,pc6.com,SC,Africa,Sub-Saharan Africa,Seychelles,,,
154.84.19.126,4,1107,pc6.com,SC,Africa,Sub-Saharan Africa,Seychelles,,,
154.84.22.144,4,1100,pc6.com,SC,Africa,Sub-Saharan Africa,Seychelles,,,
103.211.219.46,4,12,pilgrimagetour.in,SC,Africa,Sub-Saharan Africa,Seychelles,,,
45.89.69.169,4,9,prorab2.ru,SC,Africa,Sub-Saharan Africa,Seychelles,,,
154.91.99.65,4,20,puyangpx.com,SC,Africa,Sub-Saharan Africa,Seychelles,,,
154.207.215.222,4,0,qdxinhongfei.com,SC,Africa,Sub-Saharan Africa,Seychelles,,,
154.91.98.40,4,6,qh-toys.com,SC,Africa,Sub-Saharan Africa,Seychelles,,,
154.213.113.84,4,5,qihejianshe.com,SC,Africa,Sub-Saharan Africa,Seychelles,,,
154.207.215.141,4,5,qxrdjx.com,SC,Africa,Sub-Saharan Africa,Seychelles,,,
154.91.117.99,4,26,qzcgzb.com,SC,Africa,Sub-Saharan Africa,Seychelles,,,
154.216.14.134,4,42,rainbowcui.com,SC,Africa,Sub-Saharan Africa,Seychelles,,,
154.216.42.183,4,11,rglfst.com,SC,Africa,Sub-Saharan Africa,Seychelles,,,
154.213.113.82,4,9,rijulianmeng.com,SC,Africa,Sub-Saharan Africa,Seychelles,,,
154.213.113.89,4,33,ruzhoufeiyi.com,SC,Africa,Sub-Saharan Africa,Seychelles,,,
154.213.38.246,4,34,sasteams.com,SC,Africa,Sub-Saharan Africa,Seychelles,,,
146.19.188.7,4,25849,school-2.com,SC,Africa,Sub-Saharan Africa,Seychelles,,,
154.216.13.134,4,11,scyonglian.com,SC,Africa,Sub-Saharan Africa,Seychelles,,,
154.213.46.92,4,10,senhonghuahui.com,SC,Africa,Sub-Saharan Africa,Seychelles,,,
154.213.41.203,4,11,senkai18.com,SC,Africa,Sub-Saharan Africa,Seychelles,,,
154.91.99.107,4,7,sg0536.com,SC,Africa,Sub-Saharan Africa,Seychelles,,,
156.247.11.63,4,3482,sg588.tw,SC,Africa,Sub-Saharan Africa,Seychelles,,,
154.223.3.100,4,9,shandongxiongdi.com,SC,Africa,Sub-Saharan Africa,Seychelles,,,
154.213.224.243,4,2,shuhan185.com,SC,Africa,Sub-Saharan Africa,Seychelles,,,
154.213.224.251,4,4,shuiguo130.com,SC,Africa,Sub-Saharan Africa,Seychelles,,,
154.91.117.30,4,5,sjz-thgg.com,SC,Africa,Sub-Saharan Africa,Seychelles,,,
154.205.88.124,4,22,sodu2020.com,SC,Africa,Sub-Saharan Africa,Seychelles,,,
154.216.12.175,4,5,sszxfw.com,SC,Africa,Sub-Saharan Africa,Seychelles,,,
154.223.3.226,4,41,stillwaterscene.com,SC,Africa,Sub-Saharan Africa,Seychelles,,,
154.213.41.205,4,4,successroadcc.com,SC,Africa,Sub-Saharan Africa,Seychelles,,,
154.91.117.181,4,6,sudi19.com,SC,Africa,Sub-Saharan Africa,Seychelles,,,
154.213.46.91,4,2,sxhtyk.com,SC,Africa,Sub-Saharan Africa,Seychelles,,,
154.213.54.2,4,5,syshuaxun.com,SC,Africa,Sub-Saharan Africa,Seychelles,,,
154.205.70.43,4,58378,taisha.org,SC,Africa,Sub-Saharan Africa,Seychelles,,,
154.216.14.142,4,10,tanghehu.com,SC,Africa,Sub-Saharan Africa,Seychelles,,,
103.211.218.31,4,26,tech2globe.com,SC,Africa,Sub-Saharan Africa,Seychelles,,,
154.86.24.106,4,-3,theme.net.cn,SC,Africa,Sub-Saharan Africa,Seychelles,,,
154.86.24.91,4,-9,theme.net.cn,SC,Africa,Sub-Saharan Africa,Seychelles,,,
154.86.24.88,4,46,theme.net.cn,SC,Africa,Sub-Saharan Africa,Seychelles,,,
156.226.35.41,4,18,thenomadicgourmet.com,SC,Africa,Sub-Saharan Africa,Seychelles,,,
154.91.29.244,4,7,thetruthaboutonlinedating.com,SC,Africa,Sub-Saharan Africa,Seychelles,,,
154.223.3.97,4,34,tikudq.com,SC,Africa,Sub-Saharan Africa,Seychelles,,,
103.211.218.106,4,680,tnincometax.gov.in,SC,Africa,Sub-Saharan Africa,Seychelles,,,
154.216.42.184,4,4,tongpaodata.com,SC,Africa,Sub-Saharan Africa,Seychelles,,,
154.216.42.185,4,1,tsdyzj.com,SC,Africa,Sub-Saharan Africa,Seychelles,,,
154.216.42.186,4,4,tsingchloroplast.com,SC,Africa,Sub-Saharan Africa,Seychelles,,,
154.83.17.215,4,10638,tuufy.com,SC,Africa,Sub-Saharan Africa,Seychelles,,,
154.91.22.3,4,28,useitup.org,SC,Africa,Sub-Saharan Africa,Seychelles,,,
154.197.15.94,4,6,uu9cah4ur2.vip,SC,Africa,Sub-Saharan Africa,Seychelles,,,
154.197.15.221,4,8,uu9cah4ur2.vip,SC,Africa,Sub-Saharan Africa,Seychelles,,,
154.197.15.225,4,5,uu9cah4ur2.vip,SC,Africa,Sub-Saharan Africa,Seychelles,,,
154.216.42.187,4,4,wanchengqczl.com,SC,Africa,Sub-Saharan Africa,Seychelles,,,
154.216.42.188,4,6,wenji-ai.com,SC,Africa,Sub-Saharan Africa,Seychelles,,,
156.236.172.10,4,2,whjtwy.com,SC,Africa,Sub-Saharan Africa,Seychelles,,,
154.213.51.13,4,4,wnhfkj.com,SC,Africa,Sub-Saharan Africa,Seychelles,,,
154.216.42.189,4,6,woodtnc.com,SC,Africa,Sub-Saharan Africa,Seychelles,,,
156.226.39.51,4,-6,worthpedia.com,SC,Africa,Sub-Saharan Africa,Seychelles,,,
154.216.14.136,4,-19,wszdjk.com,SC,Africa,Sub-Saharan Africa,Seychelles,,,
154.223.3.94,4,-15,wxeasou.com,SC,Africa,Sub-Saharan Africa,Seychelles,,,
154.216.13.170,4,-17,wxmudi.com,SC,Africa,Sub-Saharan Africa,Seychelles,,,
154.91.98.48,4,-18,xgzlhx.com,SC,Africa,Sub-Saharan Africa,Seychelles,,,
154.216.13.184,4,-18,xhbqzx.com,SC,Africa,Sub-Saharan Africa,Seychelles,,,
154.213.41.226,4,4,xiaoniumeiche.com,SC,Africa,Sub-Saharan Africa,Seychelles,,,
154.216.42.190,4,1,xiaoxiantazi.com,SC,Africa,Sub-Saharan Africa,Seychelles,,,
154.213.41.213,4,5,xiduoballetschool.com,SC,Africa,Sub-Saharan Africa,Seychelles,,,
154.216.13.132,4,-17,ximalayaboke.com,SC,Africa,Sub-Saharan Africa,Seychelles,,,
154.216.14.135,4,-16,xingtaijunchi.com,SC,Africa,Sub-Saharan Africa,Seychelles,,,
154.223.3.95,4,-18,xintiao87.com,SC,Africa,Sub-Saharan Africa,Seychelles,,,
154.216.13.131,4,-17,xixinlingfz.com,SC,Africa,Sub-Saharan Africa,Seychelles,,,
154.213.224.250,4,4,xsbnnk.com,SC,Africa,Sub-Saharan Africa,Seychelles,,,
154.213.52.228,4,-6,xsharness.com,SC,Africa,Sub-Saharan Africa,Seychelles,,,
154.222.238.92,4,-22,xthuateng.cn,SC,Africa,Sub-Saharan Africa,Seychelles,,,
154.213.38.248,4,2,xuehuanbao.com,SC,Africa,Sub-Saharan Africa,Seychelles,,,
154.91.117.54,4,-17,xuntaibz.com,SC,Africa,Sub-Saharan Africa,Seychelles,,,
156.226.43.30,4,-14,yanhe12.com,SC,Africa,Sub-Saharan Africa,Seychelles,,,
154.213.249.209,4,0,ycjhkj.cn,SC,Africa,Sub-Saharan Africa,Seychelles,,,
156.236.168.47,4,7036,ycyche.com,SC,Africa,Sub-Saharan Africa,Seychelles,,,
154.216.12.130,4,-11,yfoline.com,SC,Africa,Sub-Saharan Africa,Seychelles,,,
154.213.46.82,4,0,ygdjshfw.com,SC,Africa,Sub-Saharan Africa,Seychelles,,,
154.213.46.94,4,4,yibang-tech.com,SC,Africa,Sub-Saharan Africa,Seychelles,,,
154.216.14.161,4,-14,yichengyuce.com,SC,Africa,Sub-Saharan Africa,Seychelles,,,
154.213.41.208,4,8,yinfeng-edu.com,SC,Africa,Sub-Saharan Africa,Seychelles,,,
154.223.3.98,4,-16,yinghua008.com,SC,Africa,Sub-Saharan Africa,Seychelles,,,
154.216.13.153,4,-19,yizhiwangtech.com,SC,Africa,Sub-Saharan Africa,Seychelles,,,
154.91.98.121,4,-16,ymnhmy.com,SC,Africa,Sub-Saharan Africa,Seychelles,,,
154.83.16.167,4,-10000,ynjlgc.com,SC,Africa,Sub-Saharan Africa,Seychelles,,,
154.91.241.219,4,-290,yorda.cn,SC,Africa,Sub-Saharan Africa,Seychelles,,,
154.222.239.182,4,959,ytsqfdm.com,SC,Africa,Sub-Saharan Africa,Seychelles,,,
154.222.238.201,4,954,yunanganggeban.com,SC,Africa,Sub-Saharan Africa,Seychelles,,,
154.213.41.214,4,4,yunfukaisuo.com,SC,Africa,Sub-Saharan Africa,Seychelles,,,
154.213.38.247,4,3,ywnianfu.com,SC,Africa,Sub-Saharan Africa,Seychelles,,,
154.197.18.218,4,-25,yxsbep.com,SC,Africa,Sub-Saharan Africa,Seychelles,,,
154.197.22.197,4,-21,yxsbep.com,SC,Africa,Sub-Saharan Africa,Seychelles,,,
154.197.22.169,4,-21,yxsbep.com,SC,Africa,Sub-Saharan Africa,Seychelles,,,
154.197.18.194,4,-25,yxsbep.com,SC,Africa,Sub-Saharan Africa,Seychelles,,,
154.91.99.11,4,-17,yycolor-me.com,SC,Africa,Sub-Saharan Africa,Seychelles,,,
154.216.34.197,4,5,zhesheng999.com,SC,Africa,Sub-Saharan Africa,Seychelles,,,
154.216.13.133,4,-17,zhihongmu.com,SC,Africa,Sub-Saharan Africa,Seychelles,,,
154.91.117.35,4,-21,zhuzaocanzhuoyi.com,SC,Africa,Sub-Saharan Africa,Seychelles,,,
154.213.41.211,4,5,zldhome.com,SC,Africa,Sub-Saharan Africa,Seychelles,,,
154.223.3.6,4,-14,zqqljj.com,SC,Africa,Sub-Saharan Africa,Seychelles,,,
154.213.245.194,4,2,zsdljr.com,SC,Africa,Sub-Saharan Africa,Seychelles,,,
154.86.31.234,4,-23,zxfdc.com.cn,SC,Africa,Sub-Saharan Africa,Seychelles,,,
154.216.12.187,4,-17,zzhuilai.com,SC,Africa,Sub-Saharan Africa,Seychelles,,,
