reflector_ip,ip_version,offset,description,country_code,region,sub_region,country_name,sub_division_1,sub_division_2,city
156.250.173.184,4,4,0755shouhui.com,ZA,Africa,Sub-Saharan Africa,South Africa,Gauteng,,Johannesburg
156.250.154.74,4,4,0818dzqc.com,ZA,Africa,Sub-Saharan Africa,South Africa,Gauteng,,Johannesburg
41.185.120.102,4,0,1-grid.com,ZA,Africa,Sub-Saharan Africa,South Africa,,,
156.250.154.81,4,4,13989553197.com,ZA,Africa,Sub-Saharan Africa,South Africa,Gauteng,,Johannesburg
168.76.210.220,4,11,15ttianqi.com,ZA,Africa,Sub-Saharan Africa,South Africa,,,
156.250.249.123,4,5,17bala.com,ZA,Africa,Sub-Saharan Africa,South Africa,Gauteng,,Johannesburg
168.76.110.117,4,23,1nongwang.com,ZA,Africa,Sub-Saharan Africa,South Africa,,,
156.250.173.183,4,4,2016happy.com,ZA,Africa,Sub-Saharan Africa,South Africa,Gauteng,,Johannesburg
168.76.254.235,4,21,21jsr.com,ZA,Africa,Sub-Saharan Africa,South Africa,,,
160.124.134.250,4,9,247goods4u.com,ZA,Africa,Sub-Saharan Africa,South Africa,,,
129.232.187.232,4,-21080,263chat.com,ZA,Africa,Sub-Saharan Africa,South Africa,,,
160.124.1.30,4,5,315259.com,ZA,Africa,Sub-Saharan Africa,South Africa,,,
156.250.225.19,4,4,360yundou.com,ZA,Africa,Sub-Saharan Africa,South Africa,Gauteng,,Johannesburg
197.242.150.247,4,3,3d-car-shows.com,ZA,Africa,Sub-Saharan Africa,South Africa,,,
156.250.120.67,4,6,4appes.com,ZA,Africa,Sub-Saharan Africa,South Africa,Gauteng,,Johannesburg
160.124.204.3,4,4,4q8.cn,ZA,Africa,Sub-Saharan Africa,South Africa,,,
160.124.18.136,4,14,524255.com,ZA,Africa,Sub-Saharan Africa,South Africa,,,
160.124.6.168,4,6,8ut.cn,ZA,Africa,Sub-Saharan Africa,South Africa,,,
160.124.52.232,4,5,92zyb.com,ZA,Africa,Sub-Saharan Africa,South Africa,,,
160.124.166.57,4,-1,999ems.com,ZA,Africa,Sub-Saharan Africa,South Africa,,,
160.124.216.87,4,4,99xinfang.com,ZA,Africa,Sub-Saharan Africa,South Africa,,,
197.221.12.179,4,4,aadexpo.co.za,ZA,Africa,Sub-Saharan Africa,South Africa,Western Cape,,Somerset West
102.218.215.114,4,618,abiastateuniversity.edu.ng,ZA,Africa,Sub-Saharan Africa,South Africa,,,
168.76.248.122,4,48,acecardtricks.com,ZA,Africa,Sub-Saharan Africa,South Africa,,,
129.232.138.229,4,51,adams.africa,ZA,Africa,Sub-Saharan Africa,South Africa,,,
196.216.2.36,4,78,afnog.org,ZA,Africa,Sub-Saharan Africa,South Africa,,,
41.203.18.6,4,7,africanminds.co.za,ZA,Africa,Sub-Saharan Africa,South Africa,,,
129.232.136.14,4,4,africanofilter.org,ZA,Africa,Sub-Saharan Africa,South Africa,,,
129.232.165.58,4,3,afrikabotanicals.com,ZA,Africa,Sub-Saharan Africa,South Africa,,,
196.216.3.4,4,-231,afrinic.net,ZA,Africa,Sub-Saharan Africa,South Africa,,,
41.185.65.152,4,10,agriorbit.com,ZA,Africa,Sub-Saharan Africa,South Africa,,,
196.22.142.106,4,5,aha.co.za,ZA,Africa,Sub-Saharan Africa,South Africa,,,
156.253.103.204,4,1098,ahhaixiang.cn,ZA,Africa,Sub-Saharan Africa,South Africa,Gauteng,,Johannesburg
160.124.243.158,4,4,ahjhyy.com,ZA,Africa,Sub-Saharan Africa,South Africa,,,
160.124.155.172,4,6,ahmaoshun.com,ZA,Africa,Sub-Saharan Africa,South Africa,,,
160.124.214.66,4,7,ahxcjj.com,ZA,Africa,Sub-Saharan Africa,South Africa,,,
160.124.134.249,4,1,aicheyoudao.com,ZA,Africa,Sub-Saharan Africa,South Africa,,,
41.204.202.5,4,4,aidc.org.za,ZA,Africa,Sub-Saharan Africa,South Africa,,,
165.3.35.92,4,-4,aipxw.com,ZA,Africa,Sub-Saharan Africa,South Africa,,,
165.3.38.20,4,5,ajpsp.com,ZA,Africa,Sub-Saharan Africa,South Africa,,,
196.22.132.230,4,2,algoafm.co.za,ZA,Africa,Sub-Saharan Africa,South Africa,,,
66.22.96.29,4,7,allangray.co.za,ZA,Africa,Sub-Saharan Africa,South Africa,Gauteng,,Johannesburg
102.130.125.200,4,966,alu-cab.com,ZA,Africa,Sub-Saharan Africa,South Africa,,,
197.221.10.89,4,27,amabhungane.org,ZA,Africa,Sub-Saharan Africa,South Africa,Western Cape,,Somerset West
160.124.5.196,4,0,amassvip.com,ZA,Africa,Sub-Saharan Africa,South Africa,,,
156.38.133.2,4,17,ananzi.co.za,ZA,Africa,Sub-Saharan Africa,South Africa,Gauteng,,Pretoria
197.242.144.253,4,1064,anceasterncape.org.za,ZA,Africa,Sub-Saharan Africa,South Africa,,,
168.76.27.225,4,10,anvanshop.com,ZA,Africa,Sub-Saharan Africa,South Africa,,,
156.250.64.170,4,-3751,aopukj.com,ZA,Africa,Sub-Saharan Africa,South Africa,Gauteng,,Johannesburg
168.76.249.100,4,30,aperturastudios.com,ZA,Africa,Sub-Saharan Africa,South Africa,,,
102.130.115.60,4,4354,art2zenga.co.za,ZA,Africa,Sub-Saharan Africa,South Africa,,,
129.232.138.100,4,13,artefacts.co.za,ZA,Africa,Sub-Saharan Africa,South Africa,,,
168.76.120.37,4,46,asp1.com.cn,ZA,Africa,Sub-Saharan Africa,South Africa,,,
41.203.18.191,4,3,assaf.org.za,ZA,Africa,Sub-Saharan Africa,South Africa,,,
160.119.248.51,4,12,assignmenthelp.co.za,ZA,Africa,Sub-Saharan Africa,South Africa,,,
196.21.185.104,4,-20,astro4dev.org,ZA,Africa,Sub-Saharan Africa,South Africa,Western Cape,,Cape Town
197.221.14.97,4,3,atomtraining.co.za,ZA,Africa,Sub-Saharan Africa,South Africa,Western Cape,,Somerset West
156.38.230.157,4,36,auditexcel.co.za,ZA,Africa,Sub-Saharan Africa,South Africa,Gauteng,,Pretoria
129.232.138.180,4,4,autozone.co.za,ZA,Africa,Sub-Saharan Africa,South Africa,,,
156.38.250.207,4,46,awieforum.org,ZA,Africa,Sub-Saharan Africa,South Africa,Gauteng,,Pretoria
168.76.97.239,4,29,azdagir.com,ZA,Africa,Sub-Saharan Africa,South Africa,,,
196.22.132.29,4,4,azura-retreats.com,ZA,Africa,Sub-Saharan Africa,South Africa,,,
102.209.85.90,4,9,b4i.travel,ZA,Africa,Sub-Saharan Africa,South Africa,,,
156.250.242.195,4,4,baoyinman.com,ZA,Africa,Sub-Saharan Africa,South Africa,Gauteng,,Johannesburg
41.203.18.189,4,6,barloworld.com,ZA,Africa,Sub-Saharan Africa,South Africa,,,
129.232.243.181,4,11,bashewa.com,ZA,Africa,Sub-Saharan Africa,South Africa,,,
196.22.142.125,4,6,basketofhope.co.za,ZA,Africa,Sub-Saharan Africa,South Africa,,,
129.232.138.186,4,10,bayharbour.co.za,ZA,Africa,Sub-Saharan Africa,South Africa,,,
160.124.18.132,4,78,bbpdz.com,ZA,Africa,Sub-Saharan Africa,South Africa,,,
160.124.66.74,4,6,bdsbc.cn,ZA,Africa,Sub-Saharan Africa,South Africa,,,
156.250.242.234,4,6,beavervr.com,ZA,Africa,Sub-Saharan Africa,South Africa,Gauteng,,Johannesburg
168.76.248.111,4,28,beidouit.com.cn,ZA,Africa,Sub-Saharan Africa,South Africa,,,
102.130.117.180,4,483,belahost.co.za,ZA,Africa,Sub-Saharan Africa,South Africa,,,
196.22.132.7,4,6,bellevuestellenbosch.co.za,ZA,Africa,Sub-Saharan Africa,South Africa,,,
41.185.8.119,4,-7,bestmeatbutchery.com,ZA,Africa,Sub-Saharan Africa,South Africa,,,
168.76.133.99,4,40,bhgvcop.com,ZA,Africa,Sub-Saharan Africa,South Africa,,,
160.124.127.240,4,32,bhqxsw.cn,ZA,Africa,Sub-Saharan Africa,South Africa,,,
156.253.79.15,4,21325112,biciqy.com,ZA,Africa,Sub-Saharan Africa,South Africa,Gauteng,,Johannesburg
197.221.2.130,4,4,biggameparks.org,ZA,Africa,Sub-Saharan Africa,South Africa,Western Cape,,Somerset West
168.76.164.185,4,23,bike768.com,ZA,Africa,Sub-Saharan Africa,South Africa,,,
156.38.250.151,4,7,birdlife.org.za,ZA,Africa,Sub-Saharan Africa,South Africa,Gauteng,,Pretoria
160.124.205.146,4,0,bj-hshzjk.com,ZA,Africa,Sub-Saharan Africa,South Africa,,,
160.124.187.178,4,0,bjhuayuanfa.com,ZA,Africa,Sub-Saharan Africa,South Africa,,,
154.0.166.15,4,5,blackbookmedia.co.za,ZA,Africa,Sub-Saharan Africa,South Africa,,,
196.40.97.159,4,3,blacksash.org.za,ZA,Africa,Sub-Saharan Africa,South Africa,,,
197.221.2.34,4,7,blockchainafrica.co,ZA,Africa,Sub-Saharan Africa,South Africa,Western Cape,,Somerset West
197.221.10.164,4,7,bloemfonteincourant.co.za,ZA,Africa,Sub-Saharan Africa,South Africa,Western Cape,,Somerset West
41.203.16.29,4,42,bloodlions.org,ZA,Africa,Sub-Saharan Africa,South Africa,,,
154.0.160.152,4,17,blue-chip.co.za,ZA,Africa,Sub-Saharan Africa,South Africa,,,
156.253.117.137,4,-9986,blueflame-jp.com,ZA,Africa,Sub-Saharan Africa,South Africa,Gauteng,,Johannesburg
66.22.96.118,4,8,bluetrain.co.za,ZA,Africa,Sub-Saharan Africa,South Africa,Gauteng,,Johannesburg
197.234.132.100,4,1,bmc.org.za,ZA,Africa,Sub-Saharan Africa,South Africa,Gauteng,,Johannesburg
168.76.100.26,4,27,bolaeuro2016.com,ZA,Africa,Sub-Saharan Africa,South Africa,,,
156.38.230.130,4,248,bookdash.org,ZA,Africa,Sub-Saharan Africa,South Africa,Gauteng,,Pretoria
164.160.89.122,4,18,boschrivierwines.co.za,ZA,Africa,Sub-Saharan Africa,South Africa,Gauteng,,Johannesburg
197.221.10.201,4,4,boston.co.za,ZA,Africa,Sub-Saharan Africa,South Africa,Western Cape,,Somerset West
160.119.253.34,4,384474,bot-tz.org,ZA,Africa,Sub-Saharan Africa,South Africa,,,
129.232.243.154,4,9,brabys.com,ZA,Africa,Sub-Saharan Africa,South Africa,,,
196.22.132.181,4,6,brainsurgeonsdiet.com,ZA,Africa,Sub-Saharan Africa,South Africa,,,
197.189.229.58,4,9,bubblegumclub.co.za,ZA,Africa,Sub-Saharan Africa,South Africa,,,
160.119.101.164,4,4,buildcoza.co.za,ZA,Africa,Sub-Saharan Africa,South Africa,Western Cape,,Cape Town
156.250.154.82,4,5,bzgycp.com,ZA,Africa,Sub-Saharan Africa,South Africa,Gauteng,,Johannesburg
156.38.203.5,4,5,caa.co.za,ZA,Africa,Sub-Saharan Africa,South Africa,Gauteng,,Pretoria
196.250.194.226,4,2,cablemap.info,ZA,Africa,Sub-Saharan Africa,South Africa,KwaZulu-Natal,,Durban
196.22.132.251,4,4,cabriere.co.za,ZA,Africa,Sub-Saharan Africa,South Africa,,,
160.124.104.28,4,60,caigenxiangshop.com,ZA,Africa,Sub-Saharan Africa,South Africa,,,
102.219.84.58,4,4,cajnewsafrica.com,ZA,Africa,Sub-Saharan Africa,South Africa,,,
196.40.97.130,4,3,canopytour.co.za,ZA,Africa,Sub-Saharan Africa,South Africa,,,
196.40.97.215,4,12,cansa.org.za,ZA,Africa,Sub-Saharan Africa,South Africa,,,
197.221.1.20,4,6,capejewel.com,ZA,Africa,Sub-Saharan Africa,South Africa,Western Cape,,Somerset West
197.221.14.7,4,2,capepoint.co.za,ZA,Africa,Sub-Saharan Africa,South Africa,Western Cape,,Somerset West
139.84.233.209,4,4,capetownbicyclemap.co.za,ZA,Africa,Sub-Saharan Africa,South Africa,Western Cape,,Durbanville
196.22.132.8,4,5,capetowncycletour.com,ZA,Africa,Sub-Saharan Africa,South Africa,,,
197.221.2.62,4,12,capetowndiamondmuseum.org,ZA,Africa,Sub-Saharan Africa,South Africa,Western Cape,,Somerset West
197.242.145.173,4,-154,capewinelands.gov.za,ZA,Africa,Sub-Saharan Africa,South Africa,,,
154.0.173.95,4,18346,cardioroutier.com,ZA,Africa,Sub-Saharan Africa,South Africa,,,
41.203.16.221,4,9,careforwild.co.za,ZA,Africa,Sub-Saharan Africa,South Africa,,,
160.124.228.236,4,10,casgenome.com,ZA,Africa,Sub-Saharan Africa,South Africa,,,
13.244.188.58,4,23,cashbuild.co.za,ZA,Africa,Sub-Saharan Africa,South Africa,Western Cape,,Cape Town
197.221.14.50,4,42,castleofgoodhope.co.za,ZA,Africa,Sub-Saharan Africa,South Africa,Western Cape,,Somerset West
197.242.155.147,4,6,cbiindex.com,ZA,Africa,Sub-Saharan Africa,South Africa,,,
197.221.10.229,4,9,cbn.co.za,ZA,Africa,Sub-Saharan Africa,South Africa,Western Cape,,Somerset West
168.76.30.180,4,31,cdele.cn,ZA,Africa,Sub-Saharan Africa,South Africa,,,
197.221.10.125,4,4,cge.org.za,ZA,Africa,Sub-Saharan Africa,South Africa,Western Cape,,Somerset West
156.250.96.229,4,29,cgtdglass.com,ZA,Africa,Sub-Saharan Africa,South Africa,Gauteng,,Johannesburg
160.124.26.167,4,5,chancetw.com,ZA,Africa,Sub-Saharan Africa,South Africa,,,
160.124.129.75,4,1,chaodianyunchong.com,ZA,Africa,Sub-Saharan Africa,South Africa,,,
160.124.95.217,4,3,chaoyuewl8.com,ZA,Africa,Sub-Saharan Africa,South Africa,,,
160.124.22.195,4,4,chaxunzhengshu.com,ZA,Africa,Sub-Saharan Africa,South Africa,,,
156.155.252.72,4,1,cheetah.co.za,ZA,Africa,Sub-Saharan Africa,South Africa,KwaZulu-Natal,,Durban
154.0.165.44,4,53,chimurengachronic.co.za,ZA,Africa,Sub-Saharan Africa,South Africa,,,
156.250.144.15,4,3,china-copartner.com,ZA,Africa,Sub-Saharan Africa,South Africa,Gauteng,,Johannesburg
160.124.22.196,4,5,china-ifs.com,ZA,Africa,Sub-Saharan Africa,South Africa,,,
156.250.160.171,4,3,china3dfocus.net,ZA,Africa,Sub-Saharan Africa,South Africa,Gauteng,,Johannesburg
168.76.195.126,4,8,chinasanxin.cn,ZA,Africa,Sub-Saharan Africa,South Africa,,,
197.221.2.5,4,3,chobenationalpark.co.za,ZA,Africa,Sub-Saharan Africa,South Africa,Western Cape,,Somerset West
160.124.89.126,4,9,chucai66.com,ZA,Africa,Sub-Saharan Africa,South Africa,,,
156.250.152.98,4,2,chunchengyigou.com,ZA,Africa,Sub-Saharan Africa,South Africa,Gauteng,,Johannesburg
156.38.203.76,4,33,cidb.org.za,ZA,Africa,Sub-Saharan Africa,South Africa,Gauteng,,Pretoria
102.218.215.3,4,65,cittinfo.com,ZA,Africa,Sub-Saharan Africa,South Africa,,,
156.155.252.79,4,1,classifiedfly.co.za,ZA,Africa,Sub-Saharan Africa,South Africa,KwaZulu-Natal,,Durban
164.160.91.16,4,23,clcessentials.co.za,ZA,Africa,Sub-Saharan Africa,South Africa,Gauteng,,Johannesburg
129.232.193.92,4,27,cloudcabinet.co.za,ZA,Africa,Sub-Saharan Africa,South Africa,,,
156.250.144.16,4,9,clqc97.com,ZA,Africa,Sub-Saharan Africa,South Africa,Gauteng,,Johannesburg
156.250.149.43,4,3,cnyudao.com,ZA,Africa,Sub-Saharan Africa,South Africa,Gauteng,,Johannesburg
197.242.67.58,4,10,coct.co,ZA,Africa,Sub-Saharan Africa,South Africa,,,
197.189.216.98,4,8,colourcopyshop.co.za,ZA,Africa,Sub-Saharan Africa,South Africa,,,
197.221.14.35,4,2,conservationaction.co.za,ZA,Africa,Sub-Saharan Africa,South Africa,Western Cape,,Somerset West
41.185.65.96,4,77,cosafa.com,ZA,Africa,Sub-Saharan Africa,South Africa,,,
164.160.91.36,4,3,costcogasguide.com,ZA,Africa,Sub-Saharan Africa,South Africa,Gauteng,,Johannesburg
129.232.249.79,4,44,cottars.com,ZA,Africa,Sub-Saharan Africa,South Africa,,,
168.76.72.11,4,10,cqjchyys.com,ZA,Africa,Sub-Saharan Africa,South Africa,,,
168.76.244.114,4,31,cqyjmj.com,ZA,Africa,Sub-Saharan Africa,South Africa,,,
196.22.142.146,4,2,cramsurvey.org,ZA,Africa,Sub-Saharan Africa,South Africa,,,
196.22.142.143,4,12,creationwines.com,ZA,Africa,Sub-Saharan Africa,South Africa,,,
156.38.250.202,4,46,cricket.co.za,ZA,Africa,Sub-Saharan Africa,South Africa,Gauteng,,Pretoria
129.232.138.55,4,7,crown.co.za,ZA,Africa,Sub-Saharan Africa,South Africa,,,
196.22.142.49,4,1053,crushmag-online.com,ZA,Africa,Sub-Saharan Africa,South Africa,,,
156.250.144.17,4,5,csconsultanting.com,ZA,Africa,Sub-Saharan Africa,South Africa,Gauteng,,Johannesburg
129.232.249.247,4,6,csos.org.za,ZA,Africa,Sub-Saharan Africa,South Africa,,,
41.203.16.41,4,7,csvr.org.za,ZA,Africa,Sub-Saharan Africa,South Africa,,,
129.232.251.118,4,9,cticc.co.za,ZA,Africa,Sub-Saharan Africa,South Africa,,,
164.160.91.54,4,4,ctph.org,ZA,Africa,Sub-Saharan Africa,South Africa,Gauteng,,Johannesburg
168.76.248.108,4,37,cute-e-cool.com,ZA,Africa,Sub-Saharan Africa,South Africa,,,
160.124.166.28,4,0,cuttingfoldingmachine.com,ZA,Africa,Sub-Saharan Africa,South Africa,,,
168.76.210.218,4,44,cxjingsen.com,ZA,Africa,Sub-Saharan Africa,South Africa,,,
160.124.225.85,4,2,cxxun.com,ZA,Africa,Sub-Saharan Africa,South Africa,,,
20.87.10.8,4,12,cyclelab.com,ZA,Africa,Sub-Saharan Africa,South Africa,Gauteng,,Johannesburg
168.76.23.237,4,6,da087.com,ZA,Africa,Sub-Saharan Africa,South Africa,,,
168.76.235.201,4,8,daniwenhua.com,ZA,Africa,Sub-Saharan Africa,South Africa,,,
160.124.104.20,4,76,dasifanglaobao.com,ZA,Africa,Sub-Saharan Africa,South Africa,,,
160.124.1.140,4,3,dawangang.com,ZA,Africa,Sub-Saharan Africa,South Africa,,,
156.250.20.5,4,58,daxishi.com.cn,ZA,Africa,Sub-Saharan Africa,South Africa,Gauteng,,Johannesburg
156.250.144.22,4,3,dd-lightingshow.com,ZA,Africa,Sub-Saharan Africa,South Africa,Gauteng,,Johannesburg
154.0.163.69,4,1188,dealerinfo.co.za,ZA,Africa,Sub-Saharan Africa,South Africa,,,
102.218.215.133,4,63650,debenhamfear.com,ZA,Africa,Sub-Saharan Africa,South Africa,,,
41.203.16.211,4,4,delheim.com,ZA,Africa,Sub-Saharan Africa,South Africa,,,
156.250.149.59,4,25,delson-consultancy.com,ZA,Africa,Sub-Saharan Africa,South Africa,Gauteng,,Johannesburg
102.218.213.75,4,616,deltastate.gov.ng,ZA,Africa,Sub-Saharan Africa,South Africa,,,
41.203.18.2,4,2,designandprint.co.za,ZA,Africa,Sub-Saharan Africa,South Africa,,,
197.242.146.90,4,34,destinyconnect.com,ZA,Africa,Sub-Saharan Africa,South Africa,,,
41.203.18.62,4,3,dewildt.co.za,ZA,Africa,Sub-Saharan Africa,South Africa,,,
160.124.104.27,4,1,dfk777.com,ZA,Africa,Sub-Saharan Africa,South Africa,,,
156.250.227.35,4,8,dggugai.com,ZA,Africa,Sub-Saharan Africa,South Africa,Gauteng,,Johannesburg
160.124.166.50,4,2,dgjiabeimei.com,ZA,Africa,Sub-Saharan Africa,South Africa,,,
168.76.210.213,4,11,dglisenjd.com,ZA,Africa,Sub-Saharan Africa,South Africa,,,
168.76.107.106,4,18,diazuco.com,ZA,Africa,Sub-Saharan Africa,South Africa,,,
154.0.173.83,4,41,die-christen.co.za,ZA,Africa,Sub-Saharan Africa,South Africa,,,
196.41.127.42,4,3,dikalagroup.co.za,ZA,Africa,Sub-Saharan Africa,South Africa,,,
154.0.175.223,4,81,discoverpilates.co.za,ZA,Africa,Sub-Saharan Africa,South Africa,,,
156.253.116.167,4,-9993,discoveryshows.com,ZA,Africa,Sub-Saharan Africa,South Africa,Gauteng,,Johannesburg
41.204.202.4,4,2,districtsix.co.za,ZA,Africa,Sub-Saharan Africa,South Africa,,,
102.165.170.174,4,-43236621,DNS Server: 102-165-170.wttx-communications.co.za,ZA,Africa,Sub-Saharan Africa,South Africa,Gauteng,,Pretoria
102.182.117.179,4,10320,DNS Server: 102-182-117-179.ip.afrihost.capetown,ZA,Africa,Sub-Saharan Africa,South Africa,Western Cape,,Cape Town
102.182.93.35,4,31,DNS Server: 102-182-93-35.ip.afrihost.joburg,ZA,Africa,Sub-Saharan Africa,South Africa,Gauteng,,Farrarmere
102.22.62.20,4,-74099,DNS Server: 102-22-62-20.bethnet.co.za,ZA,Africa,Sub-Saharan Africa,South Africa,Free State,,Clarens
102.22.62.71,4,12,DNS Server: 102-22-62-71.bethnet.co.za,ZA,Africa,Sub-Saharan Africa,South Africa,Free State,,Clarens
102.221.12.46,4,418,DNS Server: 102-221-12-46.techwoodtrading.co.za,ZA,Africa,Sub-Saharan Africa,South Africa,Mpumalanga,,Middelburg
102.221.14.20,4,-2762,DNS Server: 102-221-14-20.techwoodtrading.co.za,ZA,Africa,Sub-Saharan Africa,South Africa,Mpumalanga,,Middelburg
102.221.14.82,4,-49410061,DNS Server: 102-221-14-82.techwoodtrading.co.za,ZA,Africa,Sub-Saharan Africa,South Africa,Mpumalanga,,Middelburg
102.39.6.221,4,84,DNS Server: 102-39-6-221.vox.co.za,ZA,Africa,Sub-Saharan Africa,South Africa,Gauteng,,Kempton Park
102.214.203.75,4,151930,DNS Server: 102.214.203.75.techtribe.network,ZA,Africa,Sub-Saharan Africa,South Africa,Western Cape,,Paarl
156.155.194.164,4,9147,DNS Server: 156-155-194-164.ip.internet.co.za,ZA,Africa,Sub-Saharan Africa,South Africa,KwaZulu-Natal,,Durban
156.155.236.37,4,22151,DNS Server: 156-155-236-37.ip.internet.co.za,ZA,Africa,Sub-Saharan Africa,South Africa,Eastern Cape,,Port Elizabeth
156.155.241.214,4,23240,DNS Server: 156-155-241-214.ip.internet.co.za,ZA,Africa,Sub-Saharan Africa,South Africa,KwaZulu-Natal,,Durban
169.1.254.224,4,-7198785,DNS Server: 169-1-254-224.ip.afrihost.co.za,ZA,Africa,Sub-Saharan Africa,South Africa,Western Cape,,Cape Town
102.221.198.177,4,443,DNS Server: 177.198.221.102.dimension5.co.za,ZA,Africa,Sub-Saharan Africa,South Africa,Mpumalanga,,Ermelo
102.221.197.18,4,104,DNS Server: 18.197.221.102.dimension5.co.za,ZA,Africa,Sub-Saharan Africa,South Africa,Mpumalanga,,Ermelo
192.143.230.163,4,1995,DNS Server: 192-143-230-163.ip.airmobile.co.za,ZA,Africa,Sub-Saharan Africa,South Africa,Gauteng,,Pretoria
196.208.40.4,4,6,DNS Server: 196-208-40-4.ip.broadband.ddii.network,ZA,Africa,Sub-Saharan Africa,South Africa,Western Cape,,Cape Town
197.155.100.31,4,46874,DNS Server: 197-155-100-31.sainet.co.za,ZA,Africa,Sub-Saharan Africa,South Africa,Western Cape,,Cape Town
197.221.183.133,4,19358,DNS Server: 197-221-183-133.sainet.co.za,ZA,Africa,Sub-Saharan Africa,South Africa,Western Cape,,Cape Town
197.221.183.183,4,23529,DNS Server: 197-221-183-183.sainet.co.za,ZA,Africa,Sub-Saharan Africa,South Africa,Western Cape,,Cape Town
197.221.184.245,4,44212,DNS Server: 197-221-184-245.sainet.co.za,ZA,Africa,Sub-Saharan Africa,South Africa,Western Cape,,Cape Town
197.234.172.31,4,3,DNS Server: 197-234-172-31.cipherwave.net,ZA,Africa,Sub-Saharan Africa,South Africa,Gauteng,,Sandton
197.90.203.50,4,43188,DNS Server: 197-90-203-50.hff.mweb.co.za,ZA,Africa,Sub-Saharan Africa,South Africa,Gauteng,,Benoni
156.38.141.28,4,21,DNS Server: 28.141.38.156.reverse.xneelo.net,ZA,Africa,Sub-Saharan Africa,South Africa,Gauteng,,Pretoria
154.117.133.58,4,155,DNS Server: 58-133-117-154.bitcointernet.co.za,ZA,Africa,Sub-Saharan Africa,South Africa,Gauteng,,Johannesburg
154.117.159.60,4,14747,DNS Server: 60-159-117-154.bitcointernet.co.za,ZA,Africa,Sub-Saharan Africa,South Africa,Gauteng,,Waterkloof
102.248.9.110,4,1010,DNS Server: 8ta-248-9-110.telkomadsl.co.za,ZA,Africa,Sub-Saharan Africa,South Africa,Gauteng,,Boksburg
41.180.14.73,4,11,DNS Server: core-02-hvld-10gig-0-0-1-995-xdsl.co.za,ZA,Africa,Sub-Saharan Africa,South Africa,Gauteng,,Pretoria
102.140.112.101,4,24,DNS Server: ctn-dnscache.dk.net.za,ZA,Africa,Sub-Saharan Africa,South Africa,Western Cape,,Vredenburg
102.164.12.43,4,14,DNS Server: cust.capricom.net.12.164.102.in-addr.arpa,ZA,Africa,Sub-Saharan Africa,South Africa,Limpopo,,Polokwane
102.164.3.238,4,30811460,DNS Server: cust.capricom.net.3.164.102.in-addr.arpa,ZA,Africa,Sub-Saharan Africa,South Africa,Limpopo,,Polokwane
196.25.130.126,4,27,DNS Server: drakensberg-boys-choir-school-gw.telkom-ipnet.co.za,ZA,Africa,Sub-Saharan Africa,South Africa,Gauteng,,Johannesburg
197.245.211.118,4,118,DNS Server: dsl-197-245-211-118.voxdsl.co.za,ZA,Africa,Sub-Saharan Africa,South Africa,Gauteng,,Kempton Park
197.245.22.186,4,3,DNS Server: dsl-197-245-22-186.voxdsl.co.za,ZA,Africa,Sub-Saharan Africa,South Africa,KwaZulu-Natal,,Durban
197.245.244.28,4,53137,DNS Server: dsl-197-245-244-28.voxdsl.co.za,ZA,Africa,Sub-Saharan Africa,South Africa,Gauteng,,Johannesburg
197.245.244.49,4,5,DNS Server: dsl-197-245-244-49.voxdsl.co.za,ZA,Africa,Sub-Saharan Africa,South Africa,Gauteng,,Johannesburg
197.245.247.121,4,60,DNS Server: dsl-197-245-247-121.voxdsl.co.za,ZA,Africa,Sub-Saharan Africa,South Africa,Gauteng,,Johannesburg
197.234.206.249,4,20741334,DNS Server: gene-206-249.agc.net.za,ZA,Africa,Sub-Saharan Africa,South Africa,Gauteng,,Johannesburg
197.234.207.83,4,-34182,DNS Server: gene-207-83.agc.net.za,ZA,Africa,Sub-Saharan Africa,South Africa,Gauteng,,Johannesburg
196.15.242.104,4,19,DNS Server: heineken.zaisp.net,ZA,Africa,Sub-Saharan Africa,South Africa,Free State,,Parys
169.255.36.38,4,-7199682,DNS Server: hst-169-255-36-38.123net.link,ZA,Africa,Sub-Saharan Africa,South Africa,KwaZulu-Natal,,Umhlanga
102.132.169.181,4,15846,DNS Server: n88l-cust.coolideas.co.za,ZA,Africa,Sub-Saharan Africa,South Africa,Gauteng,,Johannesburg
196.25.155.102,4,-34193089,DNS Server: national-electricity-regulator-gw.telkom-ipnet.co.za,ZA,Africa,Sub-Saharan Africa,South Africa,Limpopo,,Thohoyandou
154.0.170.132,4,170,DNS Server: pewpew.dedicated.co.za,ZA,Africa,Sub-Saharan Africa,South Africa,,,
102.130.122.109,4,113,DNS Server: ruralnerd.co.za,ZA,Africa,Sub-Saharan Africa,South Africa,,,
41.23.113.113,4,17168022,DNS Server: vc-41-23-113-113.umts.vodacom.co.za,ZA,Africa,Sub-Saharan Africa,South Africa,Western Cape,,Stellenbosch
41.23.113.133,4,-36851536,DNS Server: vc-41-23-113-133.umts.vodacom.co.za,ZA,Africa,Sub-Saharan Africa,South Africa,Western Cape,,Stellenbosch
41.23.113.150,4,-1850354,DNS Server: vc-41-23-113-150.umts.vodacom.co.za,ZA,Africa,Sub-Saharan Africa,South Africa,Western Cape,,Stellenbosch
41.23.113.213,4,-17984435,DNS Server: vc-41-23-113-213.umts.vodacom.co.za,ZA,Africa,Sub-Saharan Africa,South Africa,Western Cape,,Stellenbosch
41.23.113.86,4,14878863,DNS Server: vc-41-23-113-86.umts.vodacom.co.za,ZA,Africa,Sub-Saharan Africa,South Africa,Western Cape,,Stellenbosch
41.23.114.25,4,-23427717,DNS Server: vc-41-23-114-25.umts.vodacom.co.za,ZA,Africa,Sub-Saharan Africa,South Africa,Western Cape,,Stellenbosch
41.23.115.51,4,19811904,DNS Server: vc-41-23-115-51.umts.vodacom.co.za,ZA,Africa,Sub-Saharan Africa,South Africa,Western Cape,,Stellenbosch
41.23.184.40,4,-45652596,DNS Server: vc-41-23-184-40.umts.vodacom.co.za,ZA,Africa,Sub-Saharan Africa,South Africa,Western Cape,,Cape Town
41.23.184.54,4,-15217002,DNS Server: vc-41-23-184-54.umts.vodacom.co.za,ZA,Africa,Sub-Saharan Africa,South Africa,Western Cape,,Cape Town
41.23.234.114,4,-44690053,DNS Server: vc-41-23-234-114.umts.vodacom.co.za,ZA,Africa,Sub-Saharan Africa,South Africa,Gauteng,,Johannesburg
41.23.234.88,4,21615686,DNS Server: vc-41-23-234-88.umts.vodacom.co.za,ZA,Africa,Sub-Saharan Africa,South Africa,Gauteng,,Johannesburg
41.23.240.115,4,17448346,DNS Server: vc-41-23-240-115.umts.vodacom.co.za,ZA,Africa,Sub-Saharan Africa,South Africa,Western Cape,,Goodwood
41.23.240.216,4,25607881,DNS Server: vc-41-23-240-216.umts.vodacom.co.za,ZA,Africa,Sub-Saharan Africa,South Africa,Western Cape,,Goodwood
41.23.253.134,4,-39752985,DNS Server: vc-41-23-253-134.umts.vodacom.co.za,ZA,Africa,Sub-Saharan Africa,South Africa,Western Cape,,Goodwood
41.23.99.247,4,26600392,DNS Server: vc-41-23-99-247.umts.vodacom.co.za,ZA,Africa,Sub-Saharan Africa,South Africa,Gauteng,,Johannesburg
105.244.179.225,4,1460,DNS Server: vc-gp-n-105-244-179-225.umts.vodacom.co.za,ZA,Africa,Sub-Saharan Africa,South Africa,Western Cape,,Cape Town
160.124.166.39,4,10,dnsd08.com,ZA,Africa,Sub-Saharan Africa,South Africa,,,
154.0.169.74,4,21,doctoraseem.com,ZA,Africa,Sub-Saharan Africa,South Africa,,,
41.203.16.153,4,4,domesticflights-southafrica.co.za,ZA,Africa,Sub-Saharan Africa,South Africa,,,
196.61.224.139,4,626,dominican.co.za,ZA,Africa,Sub-Saharan Africa,South Africa,Gauteng,,Johannesburg
168.76.254.143,4,35,dongbayishu.com,ZA,Africa,Sub-Saharan Africa,South Africa,,,
129.232.251.8,4,9,dronecouncil.africa,ZA,Africa,Sub-Saharan Africa,South Africa,,,
156.250.173.165,4,3,dsaluminum.com,ZA,Africa,Sub-Saharan Africa,South Africa,Gauteng,,Johannesburg
160.124.166.51,4,-2,duoduozhongcaipiao.com,ZA,Africa,Sub-Saharan Africa,South Africa,,,
168.76.152.74,4,12,dwhkg.com,ZA,Africa,Sub-Saharan Africa,South Africa,,,
160.124.1.27,4,6,dycz88888.com,ZA,Africa,Sub-Saharan Africa,South Africa,,,
160.124.70.69,4,-3,dytgym.com,ZA,Africa,Sub-Saharan Africa,South Africa,,,
160.124.225.84,4,3,dzczfc.com,ZA,Africa,Sub-Saharan Africa,South Africa,,,
160.124.5.201,4,-1,e-yunyou.com,ZA,Africa,Sub-Saharan Africa,South Africa,,,
41.185.8.254,4,-3,earthlife.org.za,ZA,Africa,Sub-Saharan Africa,South Africa,,,
168.76.212.196,4,9,eastleighskips.com,ZA,Africa,Sub-Saharan Africa,South Africa,,,
168.76.27.232,4,3,eatwearwander.com,ZA,Africa,Sub-Saharan Africa,South Africa,,,
102.130.122.114,4,2465,ebasa.co.za,ZA,Africa,Sub-Saharan Africa,South Africa,,,
156.38.154.7,4,600,ecogra.org,ZA,Africa,Sub-Saharan Africa,South Africa,Gauteng,,Pretoria
160.124.216.82,4,28,eddiniar.com,ZA,Africa,Sub-Saharan Africa,South Africa,,,
196.40.97.154,4,17,ee.co.za,ZA,Africa,Sub-Saharan Africa,South Africa,,,
129.232.249.114,4,7,ehospice.com,ZA,Africa,Sub-Saharan Africa,South Africa,,,
156.250.210.71,4,4,ehtx.org.cn,ZA,Africa,Sub-Saharan Africa,South Africa,Gauteng,,Johannesburg
129.232.138.47,4,23,eisa.org,ZA,Africa,Sub-Saharan Africa,South Africa,,,
196.22.142.60,4,12,eisa.org.za,ZA,Africa,Sub-Saharan Africa,South Africa,,,
160.124.205.144,4,3,elan365.com,ZA,Africa,Sub-Saharan Africa,South Africa,,,
102.219.84.20,4,2,empiredoors.co.za,ZA,Africa,Sub-Saharan Africa,South Africa,,,
102.218.215.9,4,1566,energydynamicsafrica.co.ke,ZA,Africa,Sub-Saharan Africa,South Africa,,,
154.0.171.205,4,13081,enviropaedia.com,ZA,Africa,Sub-Saharan Africa,South Africa,,,
164.160.91.53,4,15,eprop.co.za,ZA,Africa,Sub-Saharan Africa,South Africa,Gauteng,,Johannesburg
156.38.203.81,4,-18,erasa.co.za,ZA,Africa,Sub-Saharan Africa,South Africa,Gauteng,,Pretoria
196.22.132.25,4,12,ergc.co.za,ZA,Africa,Sub-Saharan Africa,South Africa,,,
168.76.54.214,4,24,erwater.cn,ZA,Africa,Sub-Saharan Africa,South Africa,,,
197.221.12.104,4,62,etoshanationalpark.co.za,ZA,Africa,Sub-Saharan Africa,South Africa,Western Cape,,Somerset West
41.185.65.91,4,25,faceadrenalin.com,ZA,Africa,Sub-Saharan Africa,South Africa,,,
160.124.129.76,4,97,fairview-culture.com,ZA,Africa,Sub-Saharan Africa,South Africa,,,
197.221.14.16,4,12,fammarais.co.za,ZA,Africa,Sub-Saharan Africa,South Africa,Western Cape,,Somerset West
197.221.12.236,4,23,fanews.co.za,ZA,Africa,Sub-Saharan Africa,South Africa,Western Cape,,Somerset West
160.124.166.53,4,2,fanghaojj.com,ZA,Africa,Sub-Saharan Africa,South Africa,,,
197.221.14.174,4,4,fanrpan.org,ZA,Africa,Sub-Saharan Africa,South Africa,Western Cape,,Somerset West
160.124.199.198,4,8,faw-vw-service.com,ZA,Africa,Sub-Saharan Africa,South Africa,,,
102.130.127.48,4,49,fedhealth.co.za,ZA,Africa,Sub-Saharan Africa,South Africa,,,
168.76.224.57,4,24,feiaodq.cn,ZA,Africa,Sub-Saharan Africa,South Africa,,,
156.250.144.6,4,10,feiyingwenhuawang.com,ZA,Africa,Sub-Saharan Africa,South Africa,Gauteng,,Johannesburg
160.119.248.125,4,7,fic.gov.za,ZA,Africa,Sub-Saharan Africa,South Africa,,,
41.76.211.171,4,3,finglobal.com,ZA,Africa,Sub-Saharan Africa,South Africa,,,
139.84.227.107,4,0,fipumj.ac.id,ZA,Africa,Sub-Saharan Africa,South Africa,Western Cape,,Durbanville
129.232.251.110,4,4,fitpa.co.za,ZA,Africa,Sub-Saharan Africa,South Africa,,,
156.38.230.37,4,15,fixunix.com,ZA,Africa,Sub-Saharan Africa,South Africa,Gauteng,,Pretoria
156.250.154.86,4,1,fjlaonongbao.com,ZA,Africa,Sub-Saharan Africa,South Africa,Gauteng,,Johannesburg
160.124.35.214,4,3,fjskl.com.cn,ZA,Africa,Sub-Saharan Africa,South Africa,,,
160.124.216.95,4,4,fjter.com,ZA,Africa,Sub-Saharan Africa,South Africa,,,
156.253.85.58,4,21325130,fjtnyn.com,ZA,Africa,Sub-Saharan Africa,South Africa,Gauteng,,Johannesburg
160.124.22.197,4,38,flowdancegem.com,ZA,Africa,Sub-Saharan Africa,South Africa,,,
196.22.132.115,4,9,flycemair.co.za,ZA,Africa,Sub-Saharan Africa,South Africa,,,
154.0.175.130,4,15,flymango.africa,ZA,Africa,Sub-Saharan Africa,South Africa,,,
160.124.159.98,4,2,fmall360.com,ZA,Africa,Sub-Saharan Africa,South Africa,,,
156.38.212.115,4,-12016,fmm.co.za,ZA,Africa,Sub-Saharan Africa,South Africa,Gauteng,,Pretoria
156.250.20.9,4,7,fnnbs.com,ZA,Africa,Sub-Saharan Africa,South Africa,Gauteng,,Johannesburg
196.22.132.148,4,23,followthetrack.wine,ZA,Africa,Sub-Saharan Africa,South Africa,,,
156.250.20.6,4,4,fortunedragonhk.com,ZA,Africa,Sub-Saharan Africa,South Africa,Gauteng,,Johannesburg
102.218.215.44,4,668,fortunekenya.com,ZA,Africa,Sub-Saharan Africa,South Africa,,,
196.40.97.218,4,1,franschhoek.org.za,ZA,Africa,Sub-Saharan Africa,South Africa,,,
197.221.2.4,4,12,freemarketfoundation.com,ZA,Africa,Sub-Saharan Africa,South Africa,Western Cape,,Somerset West
168.76.104.1,4,19,friv5000.com,ZA,Africa,Sub-Saharan Africa,South Africa,,,
160.124.129.77,4,5,fsfanjia.com,ZA,Africa,Sub-Saharan Africa,South Africa,,,
168.76.248.125,4,30,fsqianxun.com,ZA,Africa,Sub-Saharan Africa,South Africa,,,
160.119.248.110,4,4,fukashere.edu.ng,ZA,Africa,Sub-Saharan Africa,South Africa,,,
156.253.80.216,4,1098,fulibiz.cn,ZA,Africa,Sub-Saharan Africa,South Africa,Gauteng,,Johannesburg
197.221.2.31,4,9,futureclimateafrica.org,ZA,Africa,Sub-Saharan Africa,South Africa,Western Cape,,Somerset West
197.221.14.5,4,4,fynrestaurant.com,ZA,Africa,Sub-Saharan Africa,South Africa,Western Cape,,Somerset West
160.124.166.23,4,0,fz623.com,ZA,Africa,Sub-Saharan Africa,South Africa,,,
156.250.209.23,4,2,fzzyy.com,ZA,Africa,Sub-Saharan Africa,South Africa,Gauteng,,Johannesburg
156.250.144.23,4,2,gamechain365.com,ZA,Africa,Sub-Saharan Africa,South Africa,Gauteng,,Johannesburg
168.76.253.130,4,11,gameyes.com,ZA,Africa,Sub-Saharan Africa,South Africa,,,
156.250.227.37,4,28,gangzhouqcc.com,ZA,Africa,Sub-Saharan Africa,South Africa,Gauteng,,Johannesburg
168.76.112.35,4,31,gaoming8.cn,ZA,Africa,Sub-Saharan Africa,South Africa,,,
41.76.109.44,4,9,gauteng.net,ZA,Africa,Sub-Saharan Africa,South Africa,,,
156.253.79.3,4,21325129,gdqc168.com,ZA,Africa,Sub-Saharan Africa,South Africa,Gauteng,,Johannesburg
196.22.132.110,4,10,gearburn.com,ZA,Africa,Sub-Saharan Africa,South Africa,,,
129.232.138.141,4,437,genderlinks.org.za,ZA,Africa,Sub-Saharan Africa,South Africa,,,
168.76.211.222,4,9,germantravelplanner.com,ZA,Africa,Sub-Saharan Africa,South Africa,,,
156.250.144.7,4,3,gewu-china.com,ZA,Africa,Sub-Saharan Africa,South Africa,Gauteng,,Johannesburg
168.76.245.98,4,29,ghetelecom.com,ZA,Africa,Sub-Saharan Africa,South Africa,,,
102.130.123.114,4,579,globalasthmareport.org,ZA,Africa,Sub-Saharan Africa,South Africa,,,
156.38.230.29,4,13,globex360.co.za,ZA,Africa,Sub-Saharan Africa,South Africa,Gauteng,,Pretoria
41.203.18.18,4,11,goldrestaurant.co.za,ZA,Africa,Sub-Saharan Africa,South Africa,,,
102.130.117.18,4,1006,golimpopo.com,ZA,Africa,Sub-Saharan Africa,South Africa,,,
41.203.18.15,4,19,gondwanagr.co.za,ZA,Africa,Sub-Saharan Africa,South Africa,,,
168.76.210.198,4,18,goodchip-nanjing.com,ZA,Africa,Sub-Saharan Africa,South Africa,,,
41.72.154.202,4,7,goodthingsguy.com,ZA,Africa,Sub-Saharan Africa,South Africa,,,
129.232.136.185,4,90,googlerank.co.za,ZA,Africa,Sub-Saharan Africa,South Africa,,,
139.84.231.57,4,1,goplacesdigital.com,ZA,Africa,Sub-Saharan Africa,South Africa,Western Cape,,Durbanville
154.0.162.83,4,6,graduates24.com,ZA,Africa,Sub-Saharan Africa,South Africa,,,
129.232.249.60,4,-1822,greatplainsfoundation.com,ZA,Africa,Sub-Saharan Africa,South Africa,,,
41.203.16.7,4,2,greyhound.co.za,ZA,Africa,Sub-Saharan Africa,South Africa,,,
41.76.109.62,4,0,grootconstantia.co.za,ZA,Africa,Sub-Saharan Africa,South Africa,,,
156.250.255.22,4,5,gstianren.com,ZA,Africa,Sub-Saharan Africa,South Africa,Gauteng,,Johannesburg
168.76.158.175,4,25,guaiken.com,ZA,Africa,Sub-Saharan Africa,South Africa,,,
160.124.141.28,4,4,guangdiantongtg.com,ZA,Africa,Sub-Saharan Africa,South Africa,,,
160.124.129.78,4,6,guanzhehg.com,ZA,Africa,Sub-Saharan Africa,South Africa,,,
156.253.112.236,4,-2147,guhfn.com,ZA,Africa,Sub-Saharan Africa,South Africa,Gauteng,,Johannesburg
156.253.112.226,4,-2144,guhfr.com,ZA,Africa,Sub-Saharan Africa,South Africa,Gauteng,,Johannesburg
41.185.20.194,4,4,guzzle.co.za,ZA,Africa,Sub-Saharan Africa,South Africa,,,
168.76.252.207,4,6,gybzjc.com,ZA,Africa,Sub-Saharan Africa,South Africa,,,
160.124.225.66,4,3,gzguitaijianzhu.com,ZA,Africa,Sub-Saharan Africa,South Africa,,,
168.76.210.200,4,7,gzhzwl888.com,ZA,Africa,Sub-Saharan Africa,South Africa,,,
160.124.5.194,4,1,h5links.com,ZA,Africa,Sub-Saharan Africa,South Africa,,,
156.38.203.223,4,0,hadithanswers.com,ZA,Africa,Sub-Saharan Africa,South Africa,Gauteng,,Pretoria
160.124.129.79,4,3,haiqiudt.com,ZA,Africa,Sub-Saharan Africa,South Africa,,,
156.250.144.28,4,4,haiyanbz.com,ZA,Africa,Sub-Saharan Africa,South Africa,Gauteng,,Johannesburg
160.124.104.25,4,4,hangzhouaijunshengwu.com,ZA,Africa,Sub-Saharan Africa,South Africa,,,
160.124.129.80,4,5,hanqibaby.com,ZA,Africa,Sub-Saharan Africa,South Africa,,,
168.76.252.92,4,23,hao4321.cn,ZA,Africa,Sub-Saharan Africa,South Africa,,,
156.253.112.235,4,-2148,haocns.com,ZA,Africa,Sub-Saharan Africa,South Africa,Gauteng,,Johannesburg
156.250.144.5,4,5,haoxiguan1.com,ZA,Africa,Sub-Saharan Africa,South Africa,Gauteng,,Johannesburg
160.124.156.76,4,2,haoyunshuichan.com,ZA,Africa,Sub-Saharan Africa,South Africa,,,
197.221.10.36,4,4,harbourhouse.co.za,ZA,Africa,Sub-Saharan Africa,South Africa,Western Cape,,Somerset West
154.0.163.172,4,6,harmonyclinic.co.za,ZA,Africa,Sub-Saharan Africa,South Africa,,,
197.242.67.160,4,11,harvesttable.co.za,ZA,Africa,Sub-Saharan Africa,South Africa,,,
196.40.97.229,4,2,hautehayah.co.za,ZA,Africa,Sub-Saharan Africa,South Africa,,,
197.221.10.44,4,3,haval-gwm.co.mz,ZA,Africa,Sub-Saharan Africa,South Africa,Western Cape,,Somerset West
168.76.103.98,4,34,hayryl.com,ZA,Africa,Sub-Saharan Africa,South Africa,,,
168.76.103.99,4,18,hbqmjd.com,ZA,Africa,Sub-Saharan Africa,South Africa,,,
160.124.22.198,4,3,hbszdzzyqc.com,ZA,Africa,Sub-Saharan Africa,South Africa,,,
197.221.10.123,4,9,heartfm.co.za,ZA,Africa,Sub-Saharan Africa,South Africa,Western Cape,,Somerset West
156.250.144.24,4,5,hebtggs.com,ZA,Africa,Sub-Saharan Africa,South Africa,Gauteng,,Johannesburg
197.221.2.217,4,9,hellkom.co.za,ZA,Africa,Sub-Saharan Africa,South Africa,Western Cape,,Somerset West
102.222.124.10,4,4,hemptons.co.za,ZA,Africa,Sub-Saharan Africa,South Africa,,,
160.124.225.67,4,21,henanhuijin.com,ZA,Africa,Sub-Saharan Africa,South Africa,,,
160.124.245.39,4,10,hengjiamuban.com,ZA,Africa,Sub-Saharan Africa,South Africa,,,
160.124.50.113,4,0,heye100.cn,ZA,Africa,Sub-Saharan Africa,South Africa,,,
156.250.144.25,4,6,hflvban.com,ZA,Africa,Sub-Saharan Africa,South Africa,Gauteng,,Johannesburg
156.253.122.231,4,0,hnbby.com.cn,ZA,Africa,Sub-Saharan Africa,South Africa,Gauteng,,Johannesburg
160.124.107.245,4,0,hnbrth.com,ZA,Africa,Sub-Saharan Africa,South Africa,,,
156.250.161.23,4,5,hnwsdzp.com,ZA,Africa,Sub-Saharan Africa,South Africa,Gauteng,,Johannesburg
129.232.204.194,4,18,home-dzine.co.za,ZA,Africa,Sub-Saharan Africa,South Africa,,,
160.124.155.168,4,41,homeartcn.com,ZA,Africa,Sub-Saharan Africa,South Africa,,,
156.250.20.8,4,4,honghaimuqiang.com,ZA,Africa,Sub-Saharan Africa,South Africa,Gauteng,,Johannesburg
160.124.22.199,4,5,hongxinjindian.com,ZA,Africa,Sub-Saharan Africa,South Africa,,,
156.250.149.62,4,4,hongyefz.com,ZA,Africa,Sub-Saharan Africa,South Africa,Gauteng,,Johannesburg
156.250.154.88,4,5,hongyun888888.com,ZA,Africa,Sub-Saharan Africa,South Africa,Gauteng,,Johannesburg
168.76.133.97,4,25,hongzhuai.com,ZA,Africa,Sub-Saharan Africa,South Africa,,,
160.124.235.116,4,17,housedp.com,ZA,Africa,Sub-Saharan Africa,South Africa,,,
41.203.18.229,4,6,housingfinanceafrica.org,ZA,Africa,Sub-Saharan Africa,South Africa,,,
156.253.85.30,4,21325113,hq906.com,ZA,Africa,Sub-Saharan Africa,South Africa,Gauteng,,Johannesburg
160.124.70.44,4,-1,hrbaron.com,ZA,Africa,Sub-Saharan Africa,South Africa,,,
129.232.157.42,4,15,hrfuture.net,ZA,Africa,Sub-Saharan Africa,South Africa,,,
160.124.26.176,4,2,hrhp77.com,ZA,Africa,Sub-Saharan Africa,South Africa,,,
196.22.142.219,4,5,htxt.co.za,ZA,Africa,Sub-Saharan Africa,South Africa,,,
168.76.107.107,4,18,huangjinbie.com,ZA,Africa,Sub-Saharan Africa,South Africa,,,
156.250.144.21,4,4,huaxuetianxia.com,ZA,Africa,Sub-Saharan Africa,South Africa,Gauteng,,Johannesburg
156.250.227.32,4,4,huayaozhongke.com,ZA,Africa,Sub-Saharan Africa,South Africa,Gauteng,,Johannesburg
156.250.144.26,4,3,hudemule.com,ZA,Africa,Sub-Saharan Africa,South Africa,Gauteng,,Johannesburg
197.221.0.122,4,5,hughmasekela.co.za,ZA,Africa,Sub-Saharan Africa,South Africa,Western Cape,,Somerset West
160.124.22.200,4,4,huibozhongan.com,ZA,Africa,Sub-Saharan Africa,South Africa,,,
102.222.124.11,4,3,humanstoryboard.co.za,ZA,Africa,Sub-Saharan Africa,South Africa,,,
160.124.22.201,4,4,huoangonline.com,ZA,Africa,Sub-Saharan Africa,South Africa,,,
168.76.78.40,4,11,huodongzaixian.com,ZA,Africa,Sub-Saharan Africa,South Africa,,,
168.76.211.193,4,8,hy-ark.com,ZA,Africa,Sub-Saharan Africa,South Africa,,,
168.76.253.248,4,9,hzinfo.com,ZA,Africa,Sub-Saharan Africa,South Africa,,,
160.124.166.52,4,0,hzjinjin.com,ZA,Africa,Sub-Saharan Africa,South Africa,,,
156.250.152.113,4,2,hzsaiya.com,ZA,Africa,Sub-Saharan Africa,South Africa,Gauteng,,Johannesburg
129.232.136.84,4,21,iabsa.net,ZA,Africa,Sub-Saharan Africa,South Africa,,,
41.203.18.34,4,5,iassa.co.za,ZA,Africa,Sub-Saharan Africa,South Africa,,,
156.38.230.51,4,37,icc.co.za,ZA,Africa,Sub-Saharan Africa,South Africa,Gauteng,,Pretoria
168.76.30.176,4,65,icfcoach.cn,ZA,Africa,Sub-Saharan Africa,South Africa,,,
102.220.86.228,4,8,ichikowitzfoundation.com,ZA,Africa,Sub-Saharan Africa,South Africa,,,
102.130.117.20,4,1869,icimodels.com,ZA,Africa,Sub-Saharan Africa,South Africa,,,
196.22.132.226,4,17,idc.co.za,ZA,Africa,Sub-Saharan Africa,South Africa,,,
41.185.8.232,4,7,ijr.org.za,ZA,Africa,Sub-Saharan Africa,South Africa,,,
129.232.249.211,4,10,inafricaandbeyond.com,ZA,Africa,Sub-Saharan Africa,South Africa,,,
168.76.248.113,4,33,incolchesteressexlocalarea.com,ZA,Africa,Sub-Saharan Africa,South Africa,,,
165.73.84.117,4,29,inforegulator.org.za,ZA,Africa,Sub-Saharan Africa,South Africa,KwaZulu-Natal,,Durban
129.232.138.113,4,12,insideguide.co.za,ZA,Africa,Sub-Saharan Africa,South Africa,,,
197.221.2.51,4,33,intergate-immigration.com,ZA,Africa,Sub-Saharan Africa,South Africa,Western Cape,,Somerset West
196.22.142.247,4,31,invasives.org.za,ZA,Africa,Sub-Saharan Africa,South Africa,,,
156.253.80.213,4,1116,iodxdlu.cn,ZA,Africa,Sub-Saharan Africa,South Africa,Gauteng,,Johannesburg
160.119.250.161,4,12,iperqueno.info,ZA,Africa,Sub-Saharan Africa,South Africa,,,
41.185.80.106,4,-1,irba.co.za,ZA,Africa,Sub-Saharan Africa,South Africa,,,
196.22.142.157,4,6,isasa.org,ZA,Africa,Sub-Saharan Africa,South Africa,,,
197.242.65.21,4,2,itnewsafrica.com,ZA,Africa,Sub-Saharan Africa,South Africa,,,
168.76.102.126,4,18,ivorybrites.com,ZA,Africa,Sub-Saharan Africa,South Africa,,,
160.124.186.23,4,3,iyunshequ.com,ZA,Africa,Sub-Saharan Africa,South Africa,,,
129.232.136.133,4,8,iziko.org.za,ZA,Africa,Sub-Saharan Africa,South Africa,,,
129.232.233.226,4,4,jacana.co.za,ZA,Africa,Sub-Saharan Africa,South Africa,,,
156.38.218.178,4,2,jackpotpredictions.com.ng,ZA,Africa,Sub-Saharan Africa,South Africa,Gauteng,,Pretoria
156.250.152.102,4,-1,jetway-fer.com,ZA,Africa,Sub-Saharan Africa,South Africa,Gauteng,,Johannesburg
156.250.111.123,4,5,jiajutao.com,ZA,Africa,Sub-Saharan Africa,South Africa,Gauteng,,Johannesburg
160.124.22.202,4,3,jianji168.com,ZA,Africa,Sub-Saharan Africa,South Africa,,,
160.124.22.203,4,3,jianzhengmingxing.com,ZA,Africa,Sub-Saharan Africa,South Africa,,,
160.124.22.204,4,6,jiaoyijiaocheng.com,ZA,Africa,Sub-Saharan Africa,South Africa,,,
168.76.244.126,4,29,jieruitest.com,ZA,Africa,Sub-Saharan Africa,South Africa,,,
156.250.152.99,4,3,jimotuanfangwang.com,ZA,Africa,Sub-Saharan Africa,South Africa,Gauteng,,Johannesburg
168.76.253.82,4,19,jindeer.cn,ZA,Africa,Sub-Saharan Africa,South Africa,,,
168.76.233.207,4,7,jinlianlink.com,ZA,Africa,Sub-Saharan Africa,South Africa,,,
160.124.22.205,4,4,jisutaoke.com,ZA,Africa,Sub-Saharan Africa,South Africa,,,
156.250.134.92,4,5,jjattorney.com.cn,ZA,Africa,Sub-Saharan Africa,South Africa,Gauteng,,Johannesburg
160.124.6.175,4,4,jkx886.com,ZA,Africa,Sub-Saharan Africa,South Africa,,,
103.44.61.152,4,1,jlbaochew.com,ZA,Africa,Sub-Saharan Africa,South Africa,,,
103.44.61.204,4,1,jlbaochew.com,ZA,Africa,Sub-Saharan Africa,South Africa,,,
168.76.196.99,4,6,jlhxsn.cn,ZA,Africa,Sub-Saharan Africa,South Africa,,,
156.250.227.45,4,0,jme6770.com,ZA,Africa,Sub-Saharan Africa,South Africa,Gauteng,,Johannesburg
156.250.144.27,4,3,jnborui.com,ZA,Africa,Sub-Saharan Africa,South Africa,Gauteng,,Johannesburg
168.76.57.212,4,21,jnjunxiang.com,ZA,Africa,Sub-Saharan Africa,South Africa,,,
160.124.211.182,4,6,jnmsyjx.com,ZA,Africa,Sub-Saharan Africa,South Africa,,,
156.250.144.9,4,3,jnyxby.com,ZA,Africa,Sub-Saharan Africa,South Africa,Gauteng,,Johannesburg
156.38.203.43,4,16,joburg.co.za,ZA,Africa,Sub-Saharan Africa,South Africa,Gauteng,,Pretoria
197.221.14.106,4,4,joesbeerhouse.com,ZA,Africa,Sub-Saharan Africa,South Africa,Western Cape,,Somerset West
197.221.14.29,4,5,johnnyclegg.com,ZA,Africa,Sub-Saharan Africa,South Africa,Western Cape,,Somerset West
168.76.119.61,4,29,joigdhso.com,ZA,Africa,Sub-Saharan Africa,South Africa,,,
168.76.112.34,4,34,joigdhso.com,ZA,Africa,Sub-Saharan Africa,South Africa,,,
164.160.91.11,4,7,jordanwines.com,ZA,Africa,Sub-Saharan Africa,South Africa,Gauteng,,Johannesburg
156.250.154.93,4,4,joymovingkids.com,ZA,Africa,Sub-Saharan Africa,South Africa,Gauteng,,Johannesburg
156.250.154.87,4,1,jsx-edu.com,ZA,Africa,Sub-Saharan Africa,South Africa,Gauteng,,Johannesburg
168.76.30.179,4,31,jsydsh.com,ZA,Africa,Sub-Saharan Africa,South Africa,,,
168.76.55.212,4,22,jsytlt.com,ZA,Africa,Sub-Saharan Africa,South Africa,,,
168.76.252.157,4,6,jszczgs.com,ZA,Africa,Sub-Saharan Africa,South Africa,,,
160.124.22.206,4,9,jumeiyoujiang.com,ZA,Africa,Sub-Saharan Africa,South Africa,,,
160.124.1.28,4,4,junrenjiaxiao.com,ZA,Africa,Sub-Saharan Africa,South Africa,,,
160.124.155.169,4,5,junzhang888.com,ZA,Africa,Sub-Saharan Africa,South Africa,,,
197.221.2.38,4,4,jusben.com,ZA,Africa,Sub-Saharan Africa,South Africa,Western Cape,,Somerset West
20.87.26.103,4,-8,juta.co.za,ZA,Africa,Sub-Saharan Africa,South Africa,Gauteng,,Johannesburg
168.76.234.197,4,5,juyuegears.com,ZA,Africa,Sub-Saharan Africa,South Africa,,,
160.124.156.67,4,-1,jwdjy.com,ZA,Africa,Sub-Saharan Africa,South Africa,,,
160.124.1.26,4,1,jxchuanshu.com,ZA,Africa,Sub-Saharan Africa,South Africa,,,
160.124.163.213,4,-1,jxhong.com,ZA,Africa,Sub-Saharan Africa,South Africa,,,
160.124.240.199,4,1,jxranxin.cn,ZA,Africa,Sub-Saharan Africa,South Africa,,,
156.250.144.4,4,2,jxyuge.com,ZA,Africa,Sub-Saharan Africa,South Africa,Gauteng,,Johannesburg
160.124.22.207,4,5,jy10hb.com,ZA,Africa,Sub-Saharan Africa,South Africa,,,
102.222.124.15,4,4,k53rsa.co.za,ZA,Africa,Sub-Saharan Africa,South Africa,,,
160.124.22.208,4,2,kaiweihua08.com,ZA,Africa,Sub-Saharan Africa,South Africa,,,
164.160.91.35,4,2,kangaroomothercare.com,ZA,Africa,Sub-Saharan Africa,South Africa,Gauteng,,Johannesburg
168.76.161.71,4,8,kangyuan789.com,ZA,Africa,Sub-Saharan Africa,South Africa,,,
156.38.203.62,4,6,kanonkop.co.za,ZA,Africa,Sub-Saharan Africa,South Africa,Gauteng,,Pretoria
102.130.114.179,4,1071,katokenya.org,ZA,Africa,Sub-Saharan Africa,South Africa,,,
129.232.138.73,4,9,kavangozambezi.org,ZA,Africa,Sub-Saharan Africa,South Africa,,,
197.242.156.176,4,11,kayafm.co.za,ZA,Africa,Sub-Saharan Africa,South Africa,,,
154.0.160.172,4,6,kdconsulting.co.za,ZA,Africa,Sub-Saharan Africa,South Africa,,,
156.253.112.232,4,-2145,kdfcb.com,ZA,Africa,Sub-Saharan Africa,South Africa,Gauteng,,Johannesburg
156.253.112.233,4,-2147,kdfcg.com,ZA,Africa,Sub-Saharan Africa,South Africa,Gauteng,,Johannesburg
156.253.112.231,4,-2142,kdfcm.com,ZA,Africa,Sub-Saharan Africa,South Africa,Gauteng,,Johannesburg
165.3.35.91,4,-4,kevinvalk.com,ZA,Africa,Sub-Saharan Africa,South Africa,,,
156.253.113.35,4,38,kfgqgs.top,ZA,Africa,Sub-Saharan Africa,South Africa,Gauteng,,Johannesburg
156.253.85.52,4,21325113,kinglymy.com,ZA,Africa,Sub-Saharan Africa,South Africa,Gauteng,,Johannesburg
196.22.132.19,4,9,kleinconstantia.com,ZA,Africa,Sub-Saharan Africa,South Africa,,,
41.222.53.178,4,151,kleinezalze.co.za,ZA,Africa,Sub-Saharan Africa,South Africa,,,
168.76.144.197,4,3,kmqcrj.com,ZA,Africa,Sub-Saharan Africa,South Africa,,,
160.119.248.129,4,24,knightnet.co.za,ZA,Africa,Sub-Saharan Africa,South Africa,,,
197.221.10.220,4,26,knysnaelephantpark.co.za,ZA,Africa,Sub-Saharan Africa,South Africa,Western Cape,,Somerset West
160.124.214.121,4,32,kobebasketballshoes.net,ZA,Africa,Sub-Saharan Africa,South Africa,,,
160.124.18.135,4,11,konglongboss.com,ZA,Africa,Sub-Saharan Africa,South Africa,,,
102.130.112.66,4,2370,kragdag.co.za,ZA,Africa,Sub-Saharan Africa,South Africa,,,
156.38.203.80,4,7,krier.co.za,ZA,Africa,Sub-Saharan Africa,South Africa,Gauteng,,Pretoria
129.232.251.55,4,5,ktechs.co.za,ZA,Africa,Sub-Saharan Africa,South Africa,,,
168.76.133.104,4,25,ktpsd.com,ZA,Africa,Sub-Saharan Africa,South Africa,,,
160.124.243.154,4,9,kuaikedapanji.com,ZA,Africa,Sub-Saharan Africa,South Africa,,,
160.124.22.209,4,4,kuajinghome.com,ZA,Africa,Sub-Saharan Africa,South Africa,,,
160.124.243.145,4,3,kuntaiyuanhuanbao.com,ZA,Africa,Sub-Saharan Africa,South Africa,,,
154.0.166.115,4,3,kusa.co.za,ZA,Africa,Sub-Saharan Africa,South Africa,,,
160.124.72.36,4,-7,kyhuanbao.com,ZA,Africa,Sub-Saharan Africa,South Africa,,,
160.124.104.23,4,3,kym818.com,ZA,Africa,Sub-Saharan Africa,South Africa,,,
160.124.186.25,4,4,kyunshop.com,ZA,Africa,Sub-Saharan Africa,South Africa,,,
41.204.202.41,4,5,laatwaaipapagaai.org,ZA,Africa,Sub-Saharan Africa,South Africa,,,
129.232.249.137,4,4,lacolombe.co.za,ZA,Africa,Sub-Saharan Africa,South Africa,,,
197.221.0.24,4,15,landcruiserclub.co.za,ZA,Africa,Sub-Saharan Africa,South Africa,Western Cape,,Somerset West
160.124.166.49,4,2,lanrenyan.com,ZA,Africa,Sub-Saharan Africa,South Africa,,,
196.22.142.170,4,4,lapetiteferme.co.za,ZA,Africa,Sub-Saharan Africa,South Africa,,,
156.38.230.7,4,8,laptoponline.co.za,ZA,Africa,Sub-Saharan Africa,South Africa,Gauteng,,Pretoria
197.189.232.186,4,9,laurenbeukes.com,ZA,Africa,Sub-Saharan Africa,South Africa,,,
196.41.123.53,4,1051395,law.za,ZA,Africa,Sub-Saharan Africa,South Africa,,,
164.160.89.50,4,2,lc4.epublish.co.za,ZA,Africa,Sub-Saharan Africa,South Africa,Gauteng,,Johannesburg
41.185.8.155,4,7,leaptraining.co.za,ZA,Africa,Sub-Saharan Africa,South Africa,,,
156.38.203.147,4,10,leeucollection.com,ZA,Africa,Sub-Saharan Africa,South Africa,Gauteng,,Pretoria
209.203.41.6,4,29,legacyhotels.co.za,ZA,Africa,Sub-Saharan Africa,South Africa,Western Cape,,Cape Town
156.38.203.130,4,12,legal-aid.co.za,ZA,Africa,Sub-Saharan Africa,South Africa,Gauteng,,Pretoria
41.76.108.147,4,-2,legalwise.co.za,ZA,Africa,Sub-Saharan Africa,South Africa,,,
197.242.148.255,4,2,lestimes.com,ZA,Africa,Sub-Saharan Africa,South Africa,,,
31.43.191.18,4,92,letsupload.co,ZA,Africa,Sub-Saharan Africa,South Africa,,,
160.124.129.90,4,148,letuiapp.com,ZA,Africa,Sub-Saharan Africa,South Africa,,,
156.253.114.82,4,1098,lgtfzmq.cn,ZA,Africa,Sub-Saharan Africa,South Africa,Gauteng,,Johannesburg
168.76.107.108,4,32,lianghaotb.com,ZA,Africa,Sub-Saharan Africa,South Africa,,,
160.124.186.239,4,2,liangyicai.com,ZA,Africa,Sub-Saharan Africa,South Africa,,,
160.124.129.91,4,5,liebianbaohe.com,ZA,Africa,Sub-Saharan Africa,South Africa,,,
154.0.167.88,4,1124,lifeaftermatric.co.za,ZA,Africa,Sub-Saharan Africa,South Africa,,,
102.22.80.182,4,139,lionsands.com,ZA,Africa,Sub-Saharan Africa,South Africa,Gauteng,,Johannesburg
168.76.210.221,4,10,liyujin.com,ZA,Africa,Sub-Saharan Africa,South Africa,,,
160.124.104.21,4,0,lngwpmh.com,ZA,Africa,Sub-Saharan Africa,South Africa,,,
156.250.73.9,4,6,lnwange.com,ZA,Africa,Sub-Saharan Africa,South Africa,Gauteng,,Johannesburg
41.203.18.210,4,10,lrc.org.za,ZA,Africa,Sub-Saharan Africa,South Africa,,,
160.124.22.210,4,4,lskuanmao.com,ZA,Africa,Sub-Saharan Africa,South Africa,,,
156.253.112.228,4,-2138,lsptf.com,ZA,Africa,Sub-Saharan Africa,South Africa,Gauteng,,Johannesburg
160.124.186.17,4,5,lubanpf.com,ZA,Africa,Sub-Saharan Africa,South Africa,,,
156.250.144.8,4,2,lvjieoa.com,ZA,Africa,Sub-Saharan Africa,South Africa,Gauteng,,Johannesburg
168.76.216.214,4,9,lxggcl.com,ZA,Africa,Sub-Saharan Africa,South Africa,,,
156.250.154.79,4,3,lxxjd.com,ZA,Africa,Sub-Saharan Africa,South Africa,Gauteng,,Johannesburg
160.124.166.31,4,0,lygfydj.com,ZA,Africa,Sub-Saharan Africa,South Africa,,,
160.124.225.68,4,2,m0712.com,ZA,Africa,Sub-Saharan Africa,South Africa,,,
102.221.51.84,4,22,m2engineering.co.za,ZA,Africa,Sub-Saharan Africa,South Africa,,,
160.124.159.90,4,1,madeindna.com,ZA,Africa,Sub-Saharan Africa,South Africa,,,
102.221.51.103,4,2,mafokosecurity.co.za,ZA,Africa,Sub-Saharan Africa,South Africa,,,
160.124.48.246,4,12,maibiaozhi.com,ZA,Africa,Sub-Saharan Africa,South Africa,,,
154.0.167.73,4,1193,makena.co.za,ZA,Africa,Sub-Saharan Africa,South Africa,,,
129.232.249.104,4,5,malamala.com,ZA,Africa,Sub-Saharan Africa,South Africa,,,
129.232.138.244,4,61,mandelahouse.com,ZA,Africa,Sub-Saharan Africa,South Africa,,,
41.204.202.49,4,63,markettheatre.co.za,ZA,Africa,Sub-Saharan Africa,South Africa,,,
41.216.184.184,4,-5,maskenzone.com,ZA,Africa,Sub-Saharan Africa,South Africa,,,
197.155.21.78,4,1,mastodon.africa,ZA,Africa,Sub-Saharan Africa,South Africa,Western Cape,,Cape Town
156.253.87.4,4,21325115,mbjyyjh.com,ZA,Africa,Sub-Saharan Africa,South Africa,Gauteng,,Johannesburg
160.124.22.211,4,18,mbkj8.com,ZA,Africa,Sub-Saharan Africa,South Africa,,,
41.149.77.202,4,5830,mcdonalds.co.za,ZA,Africa,Sub-Saharan Africa,South Africa,Gauteng,,Centurion
156.250.187.174,4,0,mchoix.cn,ZA,Africa,Sub-Saharan Africa,South Africa,Gauteng,,Johannesburg
196.22.132.6,4,7,mcidirecthire.com,ZA,Africa,Sub-Saharan Africa,South Africa,,,
168.76.111.66,4,57,mecoproduct.com,ZA,Africa,Sub-Saharan Africa,South Africa,,,
41.185.65.213,4,81,mediamonitoringafrica.org,ZA,Africa,Sub-Saharan Africa,South Africa,,,
41.180.70.131,4,28,mediaupdate.co.za,ZA,Africa,Sub-Saharan Africa,South Africa,Gauteng,,Centurion
41.204.198.10,4,69,medpages.info,ZA,Africa,Sub-Saharan Africa,South Africa,,,
156.250.154.91,4,7,meegir.com,ZA,Africa,Sub-Saharan Africa,South Africa,Gauteng,,Johannesburg
160.124.72.246,4,1,meilvled.com,ZA,Africa,Sub-Saharan Africa,South Africa,,,
160.124.225.82,4,1,meixiluo.com,ZA,Africa,Sub-Saharan Africa,South Africa,,,
160.124.22.212,4,4,meta-gd.com,ZA,Africa,Sub-Saharan Africa,South Africa,,,
160.124.143.156,4,3,mf71.com,ZA,Africa,Sub-Saharan Africa,South Africa,,,
156.250.152.95,4,0,mfvape.com,ZA,Africa,Sub-Saharan Africa,South Africa,Gauteng,,Johannesburg
160.124.129.94,4,4,mfxiaoyang.com,ZA,Africa,Sub-Saharan Africa,South Africa,,,
154.0.174.213,4,4,migration.org.za,ZA,Africa,Sub-Saharan Africa,South Africa,,,
160.124.199.197,4,11,mii-ro.com,ZA,Africa,Sub-Saharan Africa,South Africa,,,
156.253.85.10,4,21325114,mingrui003.com,ZA,Africa,Sub-Saharan Africa,South Africa,Gauteng,,Johannesburg
156.155.252.83,4,1,mixinpeople.co.za,ZA,Africa,Sub-Saharan Africa,South Africa,KwaZulu-Natal,,Durban
168.76.30.182,4,37,mj1818.com,ZA,Africa,Sub-Saharan Africa,South Africa,,,
168.76.28.225,4,2,mkmali.net,ZA,Africa,Sub-Saharan Africa,South Africa,,,
129.232.138.114,4,8,mkqmovers.co.za,ZA,Africa,Sub-Saharan Africa,South Africa,,,
197.221.14.108,4,21,mlfwines.com,ZA,Africa,Sub-Saharan Africa,South Africa,Western Cape,,Somerset West
156.250.20.12,4,4,mlltsc.com,ZA,Africa,Sub-Saharan Africa,South Africa,Gauteng,,Johannesburg
160.124.22.213,4,64,mm-damao.com,ZA,Africa,Sub-Saharan Africa,South Africa,,,
154.0.175.51,4,2,mmstadium.com,ZA,Africa,Sub-Saharan Africa,South Africa,,,
168.76.248.112,4,38,mobilespraytanspecialist.com,ZA,Africa,Sub-Saharan Africa,South Africa,,,
41.203.7.178,4,8,monkeyland.co.za,ZA,Africa,Sub-Saharan Africa,South Africa,,,
197.242.145.93,4,13,moremaestates.co.za,ZA,Africa,Sub-Saharan Africa,South Africa,,,
197.221.12.112,4,4,mountainpassessouthafrica.co.za,ZA,Africa,Sub-Saharan Africa,South Africa,Western Cape,,Somerset West
197.221.14.26,4,3,moyo.co.za,ZA,Africa,Sub-Saharan Africa,South Africa,Western Cape,,Somerset West
197.221.12.173,4,5,mpumalanga.com,ZA,Africa,Sub-Saharan Africa,South Africa,Western Cape,,Somerset West
156.253.112.229,4,-2143,mreey.com,ZA,Africa,Sub-Saharan Africa,South Africa,Gauteng,,Johannesburg
156.253.112.227,4,-2138,mrggl.com,ZA,Africa,Sub-Saharan Africa,South Africa,Gauteng,,Johannesburg
168.76.252.242,4,5,msnshell.cn,ZA,Africa,Sub-Saharan Africa,South Africa,,,
41.203.16.215,4,7,mtnfootball.com,ZA,Africa,Sub-Saharan Africa,South Africa,,,
160.124.129.97,4,37,muchuancaoping.com,ZA,Africa,Sub-Saharan Africa,South Africa,,,
156.250.4.107,4,-1241,musicaccoustic.com,ZA,Africa,Sub-Saharan Africa,South Africa,Gauteng,,Johannesburg
154.0.161.191,4,7,mut.ac.za,ZA,Africa,Sub-Saharan Africa,South Africa,,,
129.232.162.41,4,23,myfinance-online.co.za,ZA,Africa,Sub-Saharan Africa,South Africa,,,
13.244.198.220,4,39,myschool.co.za,ZA,Africa,Sub-Saharan Africa,South Africa,Western Cape,,Cape Town
168.76.210.219,4,23,mzchhb.com,ZA,Africa,Sub-Saharan Africa,South Africa,,,
196.22.132.173,4,28,nag.co.za,ZA,Africa,Sub-Saharan Africa,South Africa,,,
156.253.119.146,4,-9978,najemwroclaw.com,ZA,Africa,Sub-Saharan Africa,South Africa,Gauteng,,Johannesburg
196.22.132.55,4,9,namibian.org,ZA,Africa,Sub-Saharan Africa,South Africa,,,
129.232.249.121,4,5,nasmus.co.za,ZA,Africa,Sub-Saharan Africa,South Africa,,,
160.124.186.18,4,33,nb-hongyuantong.com,ZA,Africa,Sub-Saharan Africa,South Africa,,,
156.250.152.101,4,1,nbxsdwl.com,ZA,Africa,Sub-Saharan Africa,South Africa,Gauteng,,Johannesburg
168.76.253.250,4,18,nccc120.com,ZA,Africa,Sub-Saharan Africa,South Africa,,,
197.242.151.224,4,-2020,ncr.org.za,ZA,Africa,Sub-Saharan Africa,South Africa,,,
129.232.135.114,4,12,nellen.co.za,ZA,Africa,Sub-Saharan Africa,South Africa,,,
154.0.164.130,4,-3,nelsonmandelachildrensfund.com,ZA,Africa,Sub-Saharan Africa,South Africa,,,
168.76.234.212,4,-366,nemofang.com,ZA,Africa,Sub-Saharan Africa,South Africa,,,
168.76.23.226,4,44,netbraces.com,ZA,Africa,Sub-Saharan Africa,South Africa,,,
129.232.251.70,4,5,nexushub.co.za,ZA,Africa,Sub-Saharan Africa,South Africa,,,
165.73.83.60,4,648,nfvf.co.za,ZA,Africa,Sub-Saharan Africa,South Africa,KwaZulu-Natal,,Durban
154.70.153.11,4,6,nikehyperchasesp.com,ZA,Africa,Sub-Saharan Africa,South Africa,,,
156.250.201.22,4,0,nixiangliuxue.com,ZA,Africa,Sub-Saharan Africa,South Africa,Gauteng,,Johannesburg
160.124.243.146,4,3,njguojian.com,ZA,Africa,Sub-Saharan Africa,South Africa,,,
168.76.245.100,4,29,njsfky.com,ZA,Africa,Sub-Saharan Africa,South Africa,,,
156.250.227.34,4,3,njwangju888.com,ZA,Africa,Sub-Saharan Africa,South Africa,Gauteng,,Johannesburg
154.0.175.57,4,5,nlcsa.org.za,ZA,Africa,Sub-Saharan Africa,South Africa,,,
160.124.22.215,4,3,nlfxcy.com,ZA,Africa,Sub-Saharan Africa,South Africa,,,
156.250.144.20,4,0,nnslzhw.com,ZA,Africa,Sub-Saharan Africa,South Africa,Gauteng,,Johannesburg
168.76.111.69,4,19,nongpinchu.com,ZA,Africa,Sub-Saharan Africa,South Africa,,,
41.204.200.137,4,4,noseweek.co.za,ZA,Africa,Sub-Saharan Africa,South Africa,,,
164.151.137.35,4,-1832,npa.gov.za,ZA,Africa,Sub-Saharan Africa,South Africa,Gauteng,,Pretoria
160.124.114.47,4,1,nqbtv.com,ZA,Africa,Sub-Saharan Africa,South Africa,,,
156.38.230.52,4,19,nsri.org.za,ZA,Africa,Sub-Saharan Africa,South Africa,Gauteng,,Pretoria
160.124.155.174,4,3,ntbdbs.com,ZA,Africa,Sub-Saharan Africa,South Africa,,,
160.124.66.76,4,5,ntjhhc.com,ZA,Africa,Sub-Saharan Africa,South Africa,,,
160.124.205.112,4,8,ntmjjt.com,ZA,Africa,Sub-Saharan Africa,South Africa,,,
129.232.138.170,4,2,nul.ls,ZA,Africa,Sub-Saharan Africa,South Africa,,,
41.185.64.200,4,9,numsa.org.za,ZA,Africa,Sub-Saharan Africa,South Africa,,,
156.253.110.20,4,-9,nuobisenlin.com,ZA,Africa,Sub-Saharan Africa,South Africa,Gauteng,,Johannesburg
20.164.37.31,4,6,nust.ac.zw,ZA,Africa,Sub-Saharan Africa,South Africa,Gauteng,,Johannesburg
168.76.30.177,4,40,nxckws.com,ZA,Africa,Sub-Saharan Africa,South Africa,,,
160.124.22.216,4,4,nxzxgr.com,ZA,Africa,Sub-Saharan Africa,South Africa,,,
156.250.201.10,4,2,nygylpt.com,ZA,Africa,Sub-Saharan Africa,South Africa,Gauteng,,Johannesburg
160.124.26.187,4,2,oahelp.cn,ZA,Africa,Sub-Saharan Africa,South Africa,,,
197.221.10.88,4,4,oceanbasket.com,ZA,Africa,Sub-Saharan Africa,South Africa,Western Cape,,Somerset West
168.76.133.103,4,23,ocnnmx.com,ZA,Africa,Sub-Saharan Africa,South Africa,,,
129.232.178.121,4,32593,oerafrica.org,ZA,Africa,Sub-Saharan Africa,South Africa,,,
168.76.255.241,4,81275,ofyuan.com,ZA,Africa,Sub-Saharan Africa,South Africa,,,
197.242.157.67,4,68,onlinecarparts.co.za,ZA,Africa,Sub-Saharan Africa,South Africa,,,
102.22.81.75,4,0,onlinecasino-southafrica.co.za,ZA,Africa,Sub-Saharan Africa,South Africa,Gauteng,,Johannesburg
168.76.244.125,4,30,oo-immo.com,ZA,Africa,Sub-Saharan Africa,South Africa,,,
196.22.132.143,4,7,ooba.co.za,ZA,Africa,Sub-Saharan Africa,South Africa,,,
41.50.0.110,4,229,Ookla Speedtest Server 1620: speedtest.cellc.co.za,ZA,Africa,Sub-Saharan Africa,South Africa,Gauteng,,Johannesburg
41.208.11.219,4,352,Ookla Speedtest Server 2962: speedtest.tb.mtn.co.za,ZA,Africa,Sub-Saharan Africa,South Africa,,,
41.223.32.74,4,339,Ookla Speedtest Server 5868: speedtest-pri.rsaweb.co.za,ZA,Africa,Sub-Saharan Africa,South Africa,,,
196.41.124.19,4,252,Ookla Speedtest Server 5921: speedtest.cybersmart.co.za,ZA,Africa,Sub-Saharan Africa,South Africa,,,
169.255.38.66,4,182,Ookla Speedtest Server 6200: sp1.123net.link,ZA,Africa,Sub-Saharan Africa,South Africa,KwaZulu-Natal,,Umhlanga
102.210.53.254,4,301,Ookla Speedtest Server 14625: speedtestjhb.neurotel.co.za,ZA,Africa,Sub-Saharan Africa,South Africa,Gauteng,,Johannesburg
160.19.114.106,4,350,Ookla Speedtest Server 14749: sp1.interworks.in,ZA,Africa,Sub-Saharan Africa,South Africa,Western Cape,,Hermanus
164.160.80.11,4,370,Ookla Speedtest Server 15379: ookla.iclix.co.za,ZA,Africa,Sub-Saharan Africa,South Africa,Northern Cape,,Kimberley
102.210.132.14,4,211,Ookla Speedtest Server 15621: bigbullynetworks.neurotel.co.za,ZA,Africa,Sub-Saharan Africa,South Africa,,,
192.145.128.53,4,339,Ookla Speedtest Server 16565: speedtest-ct1.mindthespeed.co.za,ZA,Africa,Sub-Saharan Africa,South Africa,KwaZulu-Natal,,Durban
102.164.0.2,4,-4,Ookla Speedtest Server 18191: speedtest.capricom.co.za,ZA,Africa,Sub-Saharan Africa,South Africa,Limpopo,,Polokwane
154.119.184.98,4,173,Ookla Speedtest Server 18420: speedtest-dbn-01.ecn.co.za,ZA,Africa,Sub-Saharan Africa,South Africa,KwaZulu-Natal,,Kloof
160.119.238.117,4,300,Ookla Speedtest Server 18503: speedtest.cpt.websquad.co.za,ZA,Africa,Sub-Saharan Africa,South Africa,Western Cape,,Cape Town
154.119.166.178,4,101,Ookla Speedtest Server 18633: speedtest-jhb-01.ecn.co.za,ZA,Africa,Sub-Saharan Africa,South Africa,Gauteng,,Pretoria
102.165.64.110,4,195,Ookla Speedtest Server 19897: speedtest.wibernet.co.za,ZA,Africa,Sub-Saharan Africa,South Africa,Western Cape,,Cape Town
41.208.48.210,4,129,Ookla Speedtest Server 20253: speedtest.bl.mtn.co.za,ZA,Africa,Sub-Saharan Africa,South Africa,,,
102.134.153.10,4,202,Ookla Speedtest Server 20934: speedtest.vaalnetworking.co.za,ZA,Africa,Sub-Saharan Africa,South Africa,Gauteng,,Vanderbijlpark
41.73.39.5,4,297,Ookla Speedtest Server 21325: ctspeed.rain.co.za,ZA,Africa,Sub-Saharan Africa,South Africa,Western Cape,,Cape Town
41.73.50.249,4,323,Ookla Speedtest Server 21439: jhbspeed.rain.co.za,ZA,Africa,Sub-Saharan Africa,South Africa,Gauteng,,Johannesburg
154.119.224.182,4,263,Ookla Speedtest Server 23109: ookla.reflex.co.za,ZA,Africa,Sub-Saharan Africa,South Africa,Gauteng,,Johannesburg
81.26.74.5,4,236,Ookla Speedtest Server 23147: speedtest.firstnet.joburg,ZA,Africa,Sub-Saharan Africa,South Africa,Gauteng,,Gauteng
41.79.23.8,4,363,Ookla Speedtest Server 23339: zatjnb01-ookla1.syrex.co.za,ZA,Africa,Sub-Saharan Africa,South Africa,Gauteng,,Johannesburg
102.140.112.222,4,1374,Ookla Speedtest Server 29256: speedtest.dkwireless.co.za,ZA,Africa,Sub-Saharan Africa,South Africa,Western Cape,,Vredenburg
102.214.232.18,4,285,Ookla Speedtest Server 33441: speedtest.ctecg.co.za,ZA,Africa,Sub-Saharan Africa,South Africa,Mpumalanga,,Groblersdal
169.255.171.121,4,303,Ookla Speedtest Server 34146: speedtest-paarl.ibits.co.za,ZA,Africa,Sub-Saharan Africa,South Africa,Western Cape,,Wellington
169.255.171.122,4,363,Ookla Speedtest Server 34147: speedtest-wellington.ibits.co.za,ZA,Africa,Sub-Saharan Africa,South Africa,Western Cape,,Wellington
102.165.120.234,4,2773,Ookla Speedtest Server 38938: speedtest.bdcwireless.co.za,ZA,Africa,Sub-Saharan Africa,South Africa,Western Cape,,Hermanus
154.0.2.42,4,374,Ookla Speedtest Server 40732: tengig.cisp.co.za,ZA,Africa,Sub-Saharan Africa,South Africa,Gauteng,,Johannesburg
196.201.239.98,4,258,Ookla Speedtest Server 46779: speedtest-ookla-srv-jhb.level-7.co.za,ZA,Africa,Sub-Saharan Africa,South Africa,Gauteng,,Pretoria
102.141.235.130,4,268,Ookla Speedtest Server 47477: ookla.gvsc.co.za,ZA,Africa,Sub-Saharan Africa,South Africa,,,
102.135.240.213,4,316,Ookla Speedtest Server 48238: cpt-ter-speedtest1-vl145.atomic.ac,ZA,Africa,Sub-Saharan Africa,South Africa,Western Cape,,Cape Town
41.78.244.222,4,215,Ookla Speedtest Server 48683: ookla.tech5.co.za,ZA,Africa,Sub-Saharan Africa,South Africa,KwaZulu-Natal,,Durban
102.66.160.82,4,254,Ookla Speedtest Server 53661: speedtest.nhub.co.za,ZA,Africa,Sub-Saharan Africa,South Africa,Mpumalanga,,Nelspruit
102.221.196.254,4,242,Ookla Speedtest Server 53683: spd.dimension5.co.za,ZA,Africa,Sub-Saharan Africa,South Africa,Mpumalanga,,Ermelo
102.176.238.82,4,266,Ookla Speedtest Server 54233: speed.edgeconnect.co.za,ZA,Africa,Sub-Saharan Africa,South Africa,KwaZulu-Natal,,Durban
196.250.193.242,4,333,Ookla Speedtest Server 57315: ooklacpt.tech5.co.za,ZA,Africa,Sub-Saharan Africa,South Africa,Western Cape,,Cape Town
34.1.222.96,4,185,Ookla Speedtest Server 62798: speedtest6.pumainternational.org,ZA,Africa,Sub-Saharan Africa,South Africa,Gauteng,,Johannesburg
102.220.87.86,4,229,Ookla Speedtest Server 63093: speedtest.cloudafrica.net,ZA,Africa,Sub-Saharan Africa,South Africa,,,
102.222.156.138,4,292,Ookla Speedtest Server 63561: jhb1.za.speedtest.ncryptd.net,ZA,Africa,Sub-Saharan Africa,South Africa,Gauteng,,Johannesburg
156.38.207.138,4,346,Ookla Speedtest Server 63842: speedtest.urbanwave.co.za,ZA,Africa,Sub-Saharan Africa,South Africa,Gauteng,,Johannesburg
41.208.50.219,4,273,Ookla Speedtest Server: speedtest.mtnbusiness.co.za,ZA,Africa,Sub-Saharan Africa,South Africa,,,
41.160.0.40,4,293,Ookla Speedtest Server: speedtest.neotel.co.za,ZA,Africa,Sub-Saharan Africa,South Africa,Eastern Cape,,Mthatha
139.84.230.123,4,12,oolite.org,ZA,Africa,Sub-Saharan Africa,South Africa,Western Cape,,Durbanville
156.253.80.208,4,1097,oonyhzu.cn,ZA,Africa,Sub-Saharan Africa,South Africa,Gauteng,,Johannesburg
102.130.123.199,4,976,opportunitydesk.info,ZA,Africa,Sub-Saharan Africa,South Africa,,,
197.221.14.119,4,5,oscarpistorius.com,ZA,Africa,Sub-Saharan Africa,South Africa,Western Cape,,Somerset West
102.218.215.25,4,678,otienoamisilaw.com,ZA,Africa,Sub-Saharan Africa,South Africa,,,
168.76.245.99,4,29,ourplayboy.com,ZA,Africa,Sub-Saharan Africa,South Africa,,,
41.203.18.63,4,4,outtheboxthemes.com,ZA,Africa,Sub-Saharan Africa,South Africa,,,
41.185.8.148,4,15,overlandx.com,ZA,Africa,Sub-Saharan Africa,South Africa,,,
197.221.12.145,4,17,ozcf.co.za,ZA,Africa,Sub-Saharan Africa,South Africa,Western Cape,,Somerset West
156.250.149.188,4,5,paca-mania.com,ZA,Africa,Sub-Saharan Africa,South Africa,Gauteng,,Johannesburg
156.253.112.230,4,-2144,paitetx.com,ZA,Africa,Sub-Saharan Africa,South Africa,Gauteng,,Johannesburg
160.124.26.189,4,1,pawtasticwalks.com,ZA,Africa,Sub-Saharan Africa,South Africa,,,
154.0.166.107,4,35,peaceparks.org,ZA,Africa,Sub-Saharan Africa,South Africa,,,
160.124.166.32,4,16,pengxiang2c.com,ZA,Africa,Sub-Saharan Africa,South Africa,,,
168.76.210.222,4,10,perfectchinastone.com,ZA,Africa,Sub-Saharan Africa,South Africa,,,
168.76.244.124,4,34,pgjiage.com,ZA,Africa,Sub-Saharan Africa,South Africa,,,
168.76.100.23,4,33,phrip.com,ZA,Africa,Sub-Saharan Africa,South Africa,,,
156.250.152.105,4,16,picassopay.com,ZA,Africa,Sub-Saharan Africa,South Africa,Gauteng,,Johannesburg
156.250.154.83,4,2,pingdunewcity.com,ZA,Africa,Sub-Saharan Africa,South Africa,Gauteng,,Johannesburg
168.76.254.233,4,-22,pinu99.com,ZA,Africa,Sub-Saharan Africa,South Africa,,,
160.124.225.69,4,2,pinyoukeji.com,ZA,Africa,Sub-Saharan Africa,South Africa,,,
156.250.64.174,4,-3733,pinyuncloud.com,ZA,Africa,Sub-Saharan Africa,South Africa,Gauteng,,Johannesburg
129.232.135.141,4,396,placementpartner.com,ZA,Africa,Sub-Saharan Africa,South Africa,,,
160.119.252.105,4,5,platformtimes.com.ng,ZA,Africa,Sub-Saharan Africa,South Africa,Western Cape,,Cape Town
102.130.122.156,4,3003,plett-tourism.co.za,ZA,Africa,Sub-Saharan Africa,South Africa,,,
197.221.14.31,4,5,portfoliocollection.com,ZA,Africa,Sub-Saharan Africa,South Africa,Western Cape,,Somerset West
156.38.223.154,4,316,power987.co.za,ZA,Africa,Sub-Saharan Africa,South Africa,Gauteng,,Pretoria
156.253.113.221,4,-1962,printerscoventry.com,ZA,Africa,Sub-Saharan Africa,South Africa,Gauteng,,Johannesburg
41.72.159.202,4,37,printitza.co.za,ZA,Africa,Sub-Saharan Africa,South Africa,,,
164.160.91.30,4,20,productionwarehouse.co.za,ZA,Africa,Sub-Saharan Africa,South Africa,Gauteng,,Johannesburg
196.30.218.162,4,29,profiledata.co.za,ZA,Africa,Sub-Saharan Africa,South Africa,Gauteng,,Johannesburg
156.38.203.233,4,46,propertywheel.co.za,ZA,Africa,Sub-Saharan Africa,South Africa,Gauteng,,Pretoria
156.38.250.102,4,10,provincialgovernment.co.za,ZA,Africa,Sub-Saharan Africa,South Africa,Gauteng,,Pretoria
129.232.249.138,4,28,ps-engineering.co.za,ZA,Africa,Sub-Saharan Africa,South Africa,,,
196.22.132.28,4,6,pulseaudit.com,ZA,Africa,Sub-Saharan Africa,South Africa,,,
196.40.97.188,4,27,pumbacamp.co.za,ZA,Africa,Sub-Saharan Africa,South Africa,,,
168.76.163.213,4,5,punchirep.com,ZA,Africa,Sub-Saharan Africa,South Africa,,,
196.22.143.102,4,-17,pwc.co.za,ZA,Africa,Sub-Saharan Africa,South Africa,,,
156.250.64.169,4,-3748,qdswtt.com,ZA,Africa,Sub-Saharan Africa,South Africa,Gauteng,,Johannesburg
156.250.144.19,4,0,qdtingge.com,ZA,Africa,Sub-Saharan Africa,South Africa,Gauteng,,Johannesburg
160.124.186.26,4,-1,qfengkeji.com,ZA,Africa,Sub-Saharan Africa,South Africa,,,
160.124.243.144,4,4,qhkuaizhi.com,ZA,Africa,Sub-Saharan Africa,South Africa,,,
160.124.22.217,4,3,qianshancaijing.com,ZA,Africa,Sub-Saharan Africa,South Africa,,,
156.250.20.14,4,7,qiaopaitongyi.com,ZA,Africa,Sub-Saharan Africa,South Africa,Gauteng,,Johannesburg
160.124.22.218,4,5,qibaihufu.com,ZA,Africa,Sub-Saharan Africa,South Africa,,,
156.250.152.100,4,1,qibantuliao.com,ZA,Africa,Sub-Saharan Africa,South Africa,Gauteng,,Johannesburg
160.124.22.219,4,4,qigenjixie.com,ZA,Africa,Sub-Saharan Africa,South Africa,,,
160.124.22.220,4,1,qikvww.com,ZA,Africa,Sub-Saharan Africa,South Africa,,,
168.76.248.119,4,33,qingdaoxinhe.com,ZA,Africa,Sub-Saharan Africa,South Africa,,,
160.124.22.221,4,5,qingfengzui.com,ZA,Africa,Sub-Saharan Africa,South Africa,,,
168.76.161.201,4,6,qingsonglaw.com,ZA,Africa,Sub-Saharan Africa,South Africa,,,
156.250.154.84,4,3,qinlong52.com,ZA,Africa,Sub-Saharan Africa,South Africa,Gauteng,,Johannesburg
156.250.154.89,4,5,qituanjian.com,ZA,Africa,Sub-Saharan Africa,South Africa,Gauteng,,Johannesburg
156.250.152.109,4,6,qiyepeixun168.com,ZA,Africa,Sub-Saharan Africa,South Africa,Gauteng,,Johannesburg
160.124.22.222,4,5,ql023h.com,ZA,Africa,Sub-Saharan Africa,South Africa,,,
197.221.14.41,4,-1,queendommedia.com,ZA,Africa,Sub-Saharan Africa,South Africa,Western Cape,,Somerset West
160.124.243.155,4,7,qykjapp.com,ZA,Africa,Sub-Saharan Africa,South Africa,,,
160.124.129.100,4,2,qyy365.com,ZA,Africa,Sub-Saharan Africa,South Africa,,,
168.76.230.51,4,7,qzweisi.com,ZA,Africa,Sub-Saharan Africa,South Africa,,,
151.101.227.10,4,55,raffles.com,ZA,Africa,Sub-Saharan Africa,South Africa,Western Cape,,Cape Town
41.73.51.11,4,14,rain.co.za,ZA,Africa,Sub-Saharan Africa,South Africa,Gauteng,,Johannesburg
160.124.242.116,4,51,rainbowevergreen.com,ZA,Africa,Sub-Saharan Africa,South Africa,,,
197.221.2.35,4,14,randrefinery.com,ZA,Africa,Sub-Saharan Africa,South Africa,Western Cape,,Somerset West
41.203.18.53,4,49,rapecrisis.org.za,ZA,Africa,Sub-Saharan Africa,South Africa,,,
102.130.123.200,4,30,rapidlearningafrica.com,ZA,Africa,Sub-Saharan Africa,South Africa,,,
154.0.166.169,4,48,rawoctane.co.za,ZA,Africa,Sub-Saharan Africa,South Africa,,,
160.124.205.111,4,29,rbjiashan.com,ZA,Africa,Sub-Saharan Africa,South Africa,,,
160.124.225.83,4,20,redfortera520.com,ZA,Africa,Sub-Saharan Africa,South Africa,,,
102.215.92.10,4,36,registerdomain.co.za,ZA,Africa,Sub-Saharan Africa,South Africa,,,
196.29.59.9,4,7,registry.net.za,ZA,Africa,Sub-Saharan Africa,South Africa,,,
129.232.149.194,4,34,rehabhelper.co.za,ZA,Africa,Sub-Saharan Africa,South Africa,,,
169.1.24.242,4,54,responsiblegambling.org.za,ZA,Africa,Sub-Saharan Africa,South Africa,Gauteng,,Pretoria
160.124.104.6,4,18,rh0813.com,ZA,Africa,Sub-Saharan Africa,South Africa,,,
156.38.250.198,4,29,rhinolion.co.za,ZA,Africa,Sub-Saharan Africa,South Africa,Gauteng,,Pretoria
102.130.122.96,4,2,rindx.com,ZA,Africa,Sub-Saharan Africa,South Africa,,,
129.232.136.26,4,21,robotics.org.za,ZA,Africa,Sub-Saharan Africa,South Africa,,,
160.124.129.103,4,22,rongii365.com,ZA,Africa,Sub-Saharan Africa,South Africa,,,
146.231.128.43,4,35,ru.ac.za,ZA,Africa,Sub-Saharan Africa,South Africa,Eastern Cape,,Grahamstown
156.250.154.85,4,25,ruidehengxing.com,ZA,Africa,Sub-Saharan Africa,South Africa,Gauteng,,Johannesburg
160.124.22.223,4,64,ruoshui-inc.com,ZA,Africa,Sub-Saharan Africa,South Africa,,,
41.203.18.27,4,9,rustenvrede.com,ZA,Africa,Sub-Saharan Africa,South Africa,,,
160.124.22.224,4,5,ryhdvd.com,ZA,Africa,Sub-Saharan Africa,South Africa,,,
168.76.103.120,4,16,rzsdhx.com,ZA,Africa,Sub-Saharan Africa,South Africa,,,
197.221.12.210,4,4,sa4x4.co.za,ZA,Africa,Sub-Saharan Africa,South Africa,Western Cape,,Somerset West
164.160.91.37,4,3,saairforce.co.za,ZA,Africa,Sub-Saharan Africa,South Africa,Gauteng,,Johannesburg
196.21.206.16,4,-22,saasta.ac.za,ZA,Africa,Sub-Saharan Africa,South Africa,Eastern Cape,,East London
41.72.145.42,4,14,sabisabi.com,ZA,Africa,Sub-Saharan Africa,South Africa,,,
197.242.149.187,4,503,sabreakingnews.co.za,ZA,Africa,Sub-Saharan Africa,South Africa,,,
154.0.175.150,4,2,sacbc.org.za,ZA,Africa,Sub-Saharan Africa,South Africa,,,
154.0.161.224,4,52,sace.org.za,ZA,Africa,Sub-Saharan Africa,South Africa,,,
154.0.161.145,4,60,sacities.net,ZA,Africa,Sub-Saharan Africa,South Africa,,,
41.203.18.241,4,17,sacoronavirus.co.za,ZA,Africa,Sub-Saharan Africa,South Africa,,,
169.255.28.220,4,4,sacp.org.za,ZA,Africa,Sub-Saharan Africa,South Africa,,,
154.0.164.145,4,3,sahpra.org.za,ZA,Africa,Sub-Saharan Africa,South Africa,,,
154.0.165.172,4,8,sahrc.org.za,ZA,Africa,Sub-Saharan Africa,South Africa,,,
196.22.132.31,4,8,saice.org.za,ZA,Africa,Sub-Saharan Africa,South Africa,,,
197.221.2.27,4,22,saicsit.org,ZA,Africa,Sub-Saharan Africa,South Africa,Western Cape,,Somerset West
129.232.249.136,4,5,saipa.co.za,ZA,Africa,Sub-Saharan Africa,South Africa,,,
196.40.97.228,4,2,salga.org.za,ZA,Africa,Sub-Saharan Africa,South Africa,,,
196.21.185.68,4,1,salt.ac.za,ZA,Africa,Sub-Saharan Africa,South Africa,Western Cape,,Cape Town
160.124.166.33,4,13,salty-egg.com,ZA,Africa,Sub-Saharan Africa,South Africa,,,
197.242.151.189,4,5,samint.co.za,ZA,Africa,Sub-Saharan Africa,South Africa,,,
168.76.217.197,4,20,samsungdigitallocks.com,ZA,Africa,Sub-Saharan Africa,South Africa,,,
41.203.16.131,4,14,sanbi.org,ZA,Africa,Sub-Saharan Africa,South Africa,,,
168.76.253.59,4,-24,sanmaor.com,ZA,Africa,Sub-Saharan Africa,South Africa,,,
156.253.103.211,4,1096,sanminghulan.com,ZA,Africa,Sub-Saharan Africa,South Africa,Gauteng,,Johannesburg
13.245.210.27,4,13,sapeople.com,ZA,Africa,Sub-Saharan Africa,South Africa,Western Cape,,Cape Town
41.185.8.115,4,6,saphalaafrica.co.za,ZA,Africa,Sub-Saharan Africa,South Africa,,,
129.232.136.19,4,22,sarooibos.co.za,ZA,Africa,Sub-Saharan Africa,South Africa,,,
197.189.200.130,4,4505,sarpn.org,ZA,Africa,Sub-Saharan Africa,South Africa,,,
41.185.8.93,4,43,savarsitystudent.co.za,ZA,Africa,Sub-Saharan Africa,South Africa,,,
196.40.97.177,4,12,sawomenfightback.com,ZA,Africa,Sub-Saharan Africa,South Africa,,,
160.124.243.130,4,2,scdzkt.com,ZA,Africa,Sub-Saharan Africa,South Africa,,,
156.250.144.11,4,2,scgfbb.com,ZA,Africa,Sub-Saharan Africa,South Africa,Gauteng,,Johannesburg
154.0.171.155,4,321,scienceinafrica.co.za,ZA,Africa,Sub-Saharan Africa,South Africa,,,
168.76.252.143,4,3,scjianju.com,ZA,Africa,Sub-Saharan Africa,South Africa,,,
160.124.22.225,4,3,scpanheng.com,ZA,Africa,Sub-Saharan Africa,South Africa,,,
129.232.251.167,4,29,screenafrica.com,ZA,Africa,Sub-Saharan Africa,South Africa,,,
160.124.22.226,4,2,scydshs.com,ZA,Africa,Sub-Saharan Africa,South Africa,,,
160.124.129.104,4,5,sczkgrj.com,ZA,Africa,Sub-Saharan Africa,South Africa,,,
156.253.90.101,4,4043,sdabmall.com,ZA,Africa,Sub-Saharan Africa,South Africa,Gauteng,,Johannesburg
168.76.252.6,4,21,sdbwfs.cn,ZA,Africa,Sub-Saharan Africa,South Africa,,,
156.250.149.52,4,1,sdhenggong.com,ZA,Africa,Sub-Saharan Africa,South Africa,Gauteng,,Johannesburg
196.22.142.5,4,5,sdinet.org,ZA,Africa,Sub-Saharan Africa,South Africa,,,
156.250.144.10,4,4,sdlfhw.com,ZA,Africa,Sub-Saharan Africa,South Africa,Gauteng,,Johannesburg
168.76.133.100,4,24,sdmbnlk.com,ZA,Africa,Sub-Saharan Africa,South Africa,,,
160.124.243.139,4,3,sdrxdg.com,ZA,Africa,Sub-Saharan Africa,South Africa,,,
160.124.155.166,4,2,sdwbb.com,ZA,Africa,Sub-Saharan Africa,South Africa,,,
197.221.14.23,4,16,section27.org.za,ZA,Africa,Sub-Saharan Africa,South Africa,Western Cape,,Somerset West
156.38.154.21,4,1170,seniorservice.co.za,ZA,Africa,Sub-Saharan Africa,South Africa,Gauteng,,Pretoria
160.124.166.30,4,26,senlinqizhen.com,ZA,Africa,Sub-Saharan Africa,South Africa,,,
196.22.142.202,4,3,seri-sa.org,ZA,Africa,Sub-Saharan Africa,South Africa,,,
160.124.129.105,4,6,sffsqwe666.com,ZA,Africa,Sub-Saharan Africa,South Africa,,,
160.124.22.227,4,4,shaheyishu.com,ZA,Africa,Sub-Saharan Africa,South Africa,,,
156.250.154.73,4,2,shandai360.com,ZA,Africa,Sub-Saharan Africa,South Africa,Gauteng,,Johannesburg
160.124.166.48,4,1,shangshuart.com,ZA,Africa,Sub-Saharan Africa,South Africa,,,
105.19.58.129,4,198420,sharenet.co.za,ZA,Africa,Sub-Saharan Africa,South Africa,Western Cape,,Cape Town
197.189.204.18,4,5,shark.co.za,ZA,Africa,Sub-Saharan Africa,South Africa,,,
196.22.142.100,4,1,sharksrugby.co.za,ZA,Africa,Sub-Saharan Africa,South Africa,,,
41.203.16.184,4,7,sharkwatchsa.com,ZA,Africa,Sub-Saharan Africa,South Africa,,,
160.124.166.34,4,0,shengwwl.com,ZA,Africa,Sub-Saharan Africa,South Africa,,,
168.76.210.211,4,5,shengyuanpm.com,ZA,Africa,Sub-Saharan Africa,South Africa,,,
160.124.155.171,4,6,shhangyue.com,ZA,Africa,Sub-Saharan Africa,South Africa,,,
156.250.242.197,4,4,shihuitaiqian.com,ZA,Africa,Sub-Saharan Africa,South Africa,Gauteng,,Johannesburg
156.250.158.190,4,0,shinkuan.com,ZA,Africa,Sub-Saharan Africa,South Africa,Gauteng,,Johannesburg
156.250.20.13,4,6,shjt-hotel.com,ZA,Africa,Sub-Saharan Africa,South Africa,Gauteng,,Johannesburg
160.124.166.25,4,0,shliangzhe.com,ZA,Africa,Sub-Saharan Africa,South Africa,,,
168.76.160.196,4,3,shqdfy.com,ZA,Africa,Sub-Saharan Africa,South Africa,,,
156.250.152.92,4,1,shtycygl.com,ZA,Africa,Sub-Saharan Africa,South Africa,Gauteng,,Johannesburg
160.124.241.158,4,0,shtygd88.com,ZA,Africa,Sub-Saharan Africa,South Africa,,,
156.250.152.111,4,2,shuaishangquanxin.com,ZA,Africa,Sub-Saharan Africa,South Africa,Gauteng,,Johannesburg
160.124.22.228,4,4,shunminrenli.com,ZA,Africa,Sub-Saharan Africa,South Africa,,,
154.0.173.64,4,3,shutterdoor.co.za,ZA,Africa,Sub-Saharan Africa,South Africa,,,
160.124.49.196,4,0,shuttleandcharter.com,ZA,Africa,Sub-Saharan Africa,South Africa,,,
156.250.154.90,4,5,shuxinxf.com,ZA,Africa,Sub-Saharan Africa,South Africa,Gauteng,,Johannesburg
160.124.104.202,4,4,shyhlabor.com,ZA,Africa,Sub-Saharan Africa,South Africa,,,
160.124.155.170,4,0,shyj8888.com,ZA,Africa,Sub-Saharan Africa,South Africa,,,
160.124.18.137,4,11,shylzx118.com,ZA,Africa,Sub-Saharan Africa,South Africa,,,
156.250.111.102,4,7,sidedm.com,ZA,Africa,Sub-Saharan Africa,South Africa,Gauteng,,Johannesburg
197.242.144.195,4,36,sif.sc,ZA,Africa,Sub-Saharan Africa,South Africa,,,
102.218.215.28,4,1009,signetexporters.com,ZA,Africa,Sub-Saharan Africa,South Africa,,,
41.203.18.239,4,10,silvashaw.co.za,ZA,Africa,Sub-Saharan Africa,South Africa,,,
41.76.208.44,4,709,simonstown.com,ZA,Africa,Sub-Saharan Africa,South Africa,,,
168.76.252.109,4,19,sinkiang-tide.com,ZA,Africa,Sub-Saharan Africa,South Africa,,,
160.124.72.41,4,-9,sipuxueyuan.com,ZA,Africa,Sub-Saharan Africa,South Africa,,,
154.66.196.241,4,29,sitebydesign.co.za,ZA,Africa,Sub-Saharan Africa,South Africa,,,
156.38.250.205,4,4,sitesdeapostas.co.mz,ZA,Africa,Sub-Saharan Africa,South Africa,Gauteng,,Pretoria
154.0.167.69,4,-27,siyakhula.org,ZA,Africa,Sub-Saharan Africa,South Africa,,,
197.221.50.110,4,7,siyavula.com,ZA,Africa,Sub-Saharan Africa,South Africa,,,
197.221.12.70,4,18,ska.ac.za,ZA,Africa,Sub-Saharan Africa,South Africa,Western Cape,,Somerset West
168.76.133.102,4,31,skldhjgoi.com,ZA,Africa,Sub-Saharan Africa,South Africa,,,
168.76.120.213,4,38,skxox.com,ZA,Africa,Sub-Saharan Africa,South Africa,,,
156.250.149.55,4,7,smgjbbuy.com,ZA,Africa,Sub-Saharan Africa,South Africa,Gauteng,,Johannesburg
41.203.16.84,4,79,smu.ac.za,ZA,Africa,Sub-Saharan Africa,South Africa,,,
154.0.163.176,4,478,sntr.co.za,ZA,Africa,Sub-Saharan Africa,South Africa,,,
168.76.150.82,4,5,societyinnova.com,ZA,Africa,Sub-Saharan Africa,South Africa,,,
129.232.251.59,4,9,sossusvlei.org,ZA,Africa,Sub-Saharan Africa,South Africa,,,
197.221.10.112,4,4,southafrica.to,ZA,Africa,Sub-Saharan Africa,South Africa,Western Cape,,Somerset West
129.232.138.188,4,24,southernguild.co.za,ZA,Africa,Sub-Saharan Africa,South Africa,,,
129.232.249.3,4,15,southsouthnorth.org,ZA,Africa,Sub-Saharan Africa,South Africa,,,
129.232.251.196,4,3,spier.co.za,ZA,Africa,Sub-Saharan Africa,South Africa,,,
41.204.200.66,4,9,sportsite.co.za,ZA,Africa,Sub-Saharan Africa,South Africa,,,
102.218.215.20,4,1665,sportsmonthly.co.ke,ZA,Africa,Sub-Saharan Africa,South Africa,,,
196.22.142.128,4,11,sportsscientists.com,ZA,Africa,Sub-Saharan Africa,South Africa,,,
156.38.250.63,4,87,spu.ac.za,ZA,Africa,Sub-Saharan Africa,South Africa,Gauteng,,Pretoria
160.124.5.199,4,43,sqrqsj.com,ZA,Africa,Sub-Saharan Africa,South Africa,,,
160.124.243.153,4,17,sr18787.com,ZA,Africa,Sub-Saharan Africa,South Africa,,,
160.124.129.98,4,3,ssswu168.com,ZA,Africa,Sub-Saharan Africa,South Africa,,,
160.124.18.130,4,13,starlightidol.com,ZA,Africa,Sub-Saharan Africa,South Africa,,,
156.38.203.50,4,30,starplexmaintenance.co.za,ZA,Africa,Sub-Saharan Africa,South Africa,Gauteng,,Pretoria
197.221.2.13,4,19,startingelectronics.org,ZA,Africa,Sub-Saharan Africa,South Africa,Western Cape,,Somerset West
156.38.193.218,4,90,statecapture.org.za,ZA,Africa,Sub-Saharan Africa,South Africa,Gauteng,,Pretoria
41.185.8.61,4,4,statsbots.org.bw,ZA,Africa,Sub-Saharan Africa,South Africa,,,
156.38.250.80,4,8,steenbergfarm.com,ZA,Africa,Sub-Saharan Africa,South Africa,Gauteng,,Pretoria
139.84.226.219,4,70,stikesdutagama.ac.id,ZA,Africa,Sub-Saharan Africa,South Africa,Western Cape,,Durbanville
196.22.142.249,4,19,stonehurstwines.com,ZA,Africa,Sub-Saharan Africa,South Africa,,,
156.38.230.31,4,5,studentconnects.co.za,ZA,Africa,Sub-Saharan Africa,South Africa,Gauteng,,Pretoria
160.124.76.93,4,25,subangjituan.com,ZA,Africa,Sub-Saharan Africa,South Africa,,,
156.250.242.235,4,0,subarsar.com,ZA,Africa,Sub-Saharan Africa,South Africa,Gauteng,,Johannesburg
160.124.225.70,4,11,suliaogoo.com,ZA,Africa,Sub-Saharan Africa,South Africa,,,
197.242.67.49,4,7,sundownsfc.co.za,ZA,Africa,Sub-Saharan Africa,South Africa,,,
160.124.22.229,4,1,suoshanglock.com,ZA,Africa,Sub-Saharan Africa,South Africa,,,
156.253.114.216,4,-1973,suzhouyaokai.com,ZA,Africa,Sub-Saharan Africa,South Africa,Gauteng,,Johannesburg
41.203.18.69,4,9,svri.org,ZA,Africa,Sub-Saharan Africa,South Africa,,,
160.124.166.36,4,1,svwshop.com,ZA,Africa,Sub-Saharan Africa,South Africa,,,
41.216.184.163,4,8,swazi-host.com,ZA,Africa,Sub-Saharan Africa,South Africa,,,
139.84.238.246,4,4,swazimission.co.za,ZA,Africa,Sub-Saharan Africa,South Africa,Western Cape,,Durbanville
156.250.154.76,4,2,sxdailiqian.com,ZA,Africa,Sub-Saharan Africa,South Africa,Gauteng,,Johannesburg
160.124.22.230,4,3,sxhbps.com,ZA,Africa,Sub-Saharan Africa,South Africa,,,
160.124.166.29,4,2,sxhuanong.com,ZA,Africa,Sub-Saharan Africa,South Africa,,,
168.76.253.129,4,9,sxrc.net,ZA,Africa,Sub-Saharan Africa,South Africa,,,
156.250.144.12,4,1,sxwlgyc.com,ZA,Africa,Sub-Saharan Africa,South Africa,Gauteng,,Johannesburg
156.250.20.15,4,7,sxwlh.cn,ZA,Africa,Sub-Saharan Africa,South Africa,Gauteng,,Johannesburg
160.124.129.106,4,3,syketang.com,ZA,Africa,Sub-Saharan Africa,South Africa,,,
156.250.242.236,4,-1,sysyf.com,ZA,Africa,Sub-Saharan Africa,South Africa,Gauteng,,Johannesburg
160.124.129.89,4,0,sz219.com,ZA,Africa,Sub-Saharan Africa,South Africa,,,
156.250.227.46,4,53,szacror.com,ZA,Africa,Sub-Saharan Africa,South Africa,Gauteng,,Johannesburg
160.124.129.88,4,5,szganqi.com,ZA,Africa,Sub-Saharan Africa,South Africa,,,
156.250.152.91,4,1,szgofine.com,ZA,Africa,Sub-Saharan Africa,South Africa,Gauteng,,Johannesburg
156.253.85.57,4,21325112,szhm167.com,ZA,Africa,Sub-Saharan Africa,South Africa,Gauteng,,Johannesburg
168.76.245.124,4,30,szpswitch.com,ZA,Africa,Sub-Saharan Africa,South Africa,,,
156.250.216.91,4,1,szqls.com,ZA,Africa,Sub-Saharan Africa,South Africa,Gauteng,,Johannesburg
168.76.253.191,4,20,szsazf.cn,ZA,Africa,Sub-Saharan Africa,South Africa,,,
156.250.152.108,4,0,szxhgj-sw.com,ZA,Africa,Sub-Saharan Africa,South Africa,Gauteng,,Johannesburg
160.124.166.26,4,0,szyoupinzhixuan.com,ZA,Africa,Sub-Saharan Africa,South Africa,,,
160.124.243.136,4,0,szyuehun.com,ZA,Africa,Sub-Saharan Africa,South Africa,,,
160.124.22.231,4,4,szyycb.com,ZA,Africa,Sub-Saharan Africa,South Africa,,,
156.38.250.68,4,5,tac.org.za,ZA,Africa,Sub-Saharan Africa,South Africa,Gauteng,,Pretoria
156.253.80.211,4,1098,taisuiye.com,ZA,Africa,Sub-Saharan Africa,South Africa,Gauteng,,Johannesburg
41.204.200.68,4,5,tandysinclair.com,ZA,Africa,Sub-Saharan Africa,South Africa,,,
156.250.206.86,4,4,tanyoulife.com,ZA,Africa,Sub-Saharan Africa,South Africa,Gauteng,,Johannesburg
160.124.22.232,4,4,taojindi888.com,ZA,Africa,Sub-Saharan Africa,South Africa,,,
160.124.22.233,4,4,taoxcx.com,ZA,Africa,Sub-Saharan Africa,South Africa,,,
168.76.152.75,4,1,tauruslhfund.com,ZA,Africa,Sub-Saharan Africa,South Africa,,,
160.124.22.234,4,6,tcwcra6.com,ZA,Africa,Sub-Saharan Africa,South Africa,,,
102.130.123.224,4,3,tech-u.edu.ng,ZA,Africa,Sub-Saharan Africa,South Africa,,,
197.189.231.226,4,71,techandtag.co.za,ZA,Africa,Sub-Saharan Africa,South Africa,,,
154.0.160.66,4,4209,techsmart.co.za,ZA,Africa,Sub-Saharan Africa,South Africa,,,
197.221.14.3,4,7,tectonic.co.za,ZA,Africa,Sub-Saharan Africa,South Africa,Western Cape,,Somerset West
129.232.148.34,4,8,texxandthecity.com,ZA,Africa,Sub-Saharan Africa,South Africa,,,
156.38.230.227,4,17,thandaisland.com,ZA,Africa,Sub-Saharan Africa,South Africa,Gauteng,,Pretoria
41.185.8.153,4,8,thebioscope.co.za,ZA,Africa,Sub-Saharan Africa,South Africa,,,
197.221.2.20,4,46,theforge.co.za,ZA,Africa,Sub-Saharan Africa,South Africa,Western Cape,,Somerset West
197.221.14.64,4,4,thegalileo.co.za,ZA,Africa,Sub-Saharan Africa,South Africa,Western Cape,,Somerset West
197.242.67.127,4,1633,thegardener.co.za,ZA,Africa,Sub-Saharan Africa,South Africa,,,
154.0.172.198,4,497,thelastmile.best,ZA,Africa,Sub-Saharan Africa,South Africa,,,
197.242.67.144,4,888,thenewage.co.za,ZA,Africa,Sub-Saharan Africa,South Africa,,,
129.232.223.155,4,0,theoldbiscuitmill.co.za,ZA,Africa,Sub-Saharan Africa,South Africa,,,
168.76.248.126,4,29,thepcaid.com,ZA,Africa,Sub-Saharan Africa,South Africa,,,
102.211.205.98,4,4,thepetdirectory.co.za,ZA,Africa,Sub-Saharan Africa,South Africa,,,
41.185.64.145,4,6,theplaygrounds.co.za,ZA,Africa,Sub-Saharan Africa,South Africa,,,
129.232.149.178,4,2,thepost.co.ls,ZA,Africa,Sub-Saharan Africa,South Africa,,,
156.38.230.215,4,5,therockrestaurantzanzibar.com,ZA,Africa,Sub-Saharan Africa,South Africa,Gauteng,,Pretoria
129.232.249.14,4,15,thestormers.com,ZA,Africa,Sub-Saharan Africa,South Africa,,,
129.232.249.13,4,5,thetestkitchen.co.za,ZA,Africa,Sub-Saharan Africa,South Africa,,,
168.76.27.249,4,6,thyferries.com,ZA,Africa,Sub-Saharan Africa,South Africa,,,
160.124.129.99,4,2,tiandashen.com,ZA,Africa,Sub-Saharan Africa,South Africa,,,
168.76.245.125,4,33,tianhaipv.com,ZA,Africa,Sub-Saharan Africa,South Africa,,,
168.76.252.135,4,18,tieyaobanll.com,ZA,Africa,Sub-Saharan Africa,South Africa,,,
102.218.215.137,4,68169,tipcrewblog.com,ZA,Africa,Sub-Saharan Africa,South Africa,,,
154.0.162.214,4,27,tips.org.za,ZA,Africa,Sub-Saharan Africa,South Africa,,,
41.204.209.246,4,220,tixsa.co.za,ZA,Africa,Sub-Saharan Africa,South Africa,,,
168.76.246.100,4,32,tjmejfm.com,ZA,Africa,Sub-Saharan Africa,South Africa,,,
168.76.158.179,4,23,tkpsx.com,ZA,Africa,Sub-Saharan Africa,South Africa,,,
160.124.22.235,4,4,tnhgln.com,ZA,Africa,Sub-Saharan Africa,South Africa,,,
197.242.156.18,4,15,tokara.com,ZA,Africa,Sub-Saharan Africa,South Africa,,,
197.221.14.109,4,1,tolken.co.za,ZA,Africa,Sub-Saharan Africa,South Africa,Western Cape,,Somerset West
129.232.251.249,4,899,tongabezi.com,ZA,Africa,Sub-Saharan Africa,South Africa,,,
160.124.156.68,4,2,tongenmall.com,ZA,Africa,Sub-Saharan Africa,South Africa,,,
168.76.141.52,4,2,tongshiqing.com,ZA,Africa,Sub-Saharan Africa,South Africa,,,
168.76.248.121,4,59,topdogbehaviour.com,ZA,Africa,Sub-Saharan Africa,South Africa,,,
168.76.249.97,4,45,topvaluepainting.com,ZA,Africa,Sub-Saharan Africa,South Africa,,,
41.185.8.54,4,28,tourismnorthwest.co.za,ZA,Africa,Sub-Saharan Africa,South Africa,,,
160.124.22.236,4,4,toutiaojingcai.com,ZA,Africa,Sub-Saharan Africa,South Africa,,,
196.40.97.11,4,12,trainingteachers.org.za,ZA,Africa,Sub-Saharan Africa,South Africa,,,
66.22.96.1,4,22,transnet.net,ZA,Africa,Sub-Saharan Africa,South Africa,Gauteng,,Johannesburg
66.22.96.11,4,31,transnetnationalportsauthority.net,ZA,Africa,Sub-Saharan Africa,South Africa,Gauteng,,Johannesburg
197.189.237.186,4,37,travelinginspain.com,ZA,Africa,Sub-Saharan Africa,South Africa,,,
168.76.10.212,4,5,trksjx.com,ZA,Africa,Sub-Saharan Africa,South Africa,,,
154.66.204.99,4,1667,truthcoffee.com,ZA,Africa,Sub-Saharan Africa,South Africa,,,
168.76.253.156,4,11,tstrpj.cn,ZA,Africa,Sub-Saharan Africa,South Africa,,,
139.84.236.88,4,11,tubidy.la,ZA,Africa,Sub-Saharan Africa,South Africa,Western Cape,,Durbanville
154.0.174.214,4,58006,turbocash.net,ZA,Africa,Sub-Saharan Africa,South Africa,,,
156.38.144.210,4,23,turftalk.co.za,ZA,Africa,Sub-Saharan Africa,South Africa,Gauteng,,Pretoria
196.40.97.176,4,17,tutu.org.za,ZA,Africa,Sub-Saharan Africa,South Africa,,,
160.124.22.237,4,9,tygnbhg.com,ZA,Africa,Sub-Saharan Africa,South Africa,,,
160.124.22.238,4,5,tzchaifeng.com,ZA,Africa,Sub-Saharan Africa,South Africa,,,
102.218.215.52,4,-27121,uasingishuchamber.co.ke,ZA,Africa,Sub-Saharan Africa,South Africa,,,
168.76.133.101,4,21,uhbalk.com,ZA,Africa,Sub-Saharan Africa,South Africa,,,
197.242.67.153,4,6,ul.ac.za,ZA,Africa,Sub-Saharan Africa,South Africa,,,
164.151.136.119,4,55,umalusi.org.za,ZA,Africa,Sub-Saharan Africa,South Africa,Gauteng,,Pretoria
156.250.20.16,4,4,uniworking.com,ZA,Africa,Sub-Saharan Africa,South Africa,Gauteng,,Johannesburg
196.41.123.126,4,1,uppereastside.co.za,ZA,Africa,Sub-Saharan Africa,South Africa,,,
197.221.10.177,4,20,usaf.ac.za,ZA,Africa,Sub-Saharan Africa,South Africa,Western Cape,,Somerset West
156.38.250.69,4,5,uwc.ac.za,ZA,Africa,Sub-Saharan Africa,South Africa,Gauteng,,Pretoria
196.22.132.76,4,18,vfplus.org.za,ZA,Africa,Sub-Saharan Africa,South Africa,,,
196.22.132.14,4,9,victoria-falls-safari-lodge.com,ZA,Africa,Sub-Saharan Africa,South Africa,,,
160.124.166.46,4,94,vip-cang.com,ZA,Africa,Sub-Saharan Africa,South Africa,,,
129.232.136.150,4,9,visi.co.za,ZA,Africa,Sub-Saharan Africa,South Africa,,,
197.221.165.100,4,187744,visiteasterncape.co.za,ZA,Africa,Sub-Saharan Africa,South Africa,Western Cape,,Cape Town
41.204.200.13,4,14,visitknysna.co.za,ZA,Africa,Sub-Saharan Africa,South Africa,,,
168.76.210.216,4,-15,visweisi.com,ZA,Africa,Sub-Saharan Africa,South Africa,,,
160.124.243.141,4,2,vrqjkj.com,ZA,Africa,Sub-Saharan Africa,South Africa,,,
160.124.18.131,4,11,vwjsg.com,ZA,Africa,Sub-Saharan Africa,South Africa,,,
165.3.35.88,4,-1,wangyishi.net,ZA,Africa,Sub-Saharan Africa,South Africa,,,
160.124.35.204,4,3,wapxy.cn,ZA,Africa,Sub-Saharan Africa,South Africa,,,
41.76.212.145,4,5,warwickwine.com,ZA,Africa,Sub-Saharan Africa,South Africa,,,
168.76.30.178,4,12,watch666.com,ZA,Africa,Sub-Saharan Africa,South Africa,,,
129.232.136.222,4,7,waterfallguesthouse.co.za,ZA,Africa,Sub-Saharan Africa,South Africa,,,
129.232.138.98,4,7,waterkloofwines.co.za,ZA,Africa,Sub-Saharan Africa,South Africa,,,
196.22.142.119,4,9,we-care.co.za,ZA,Africa,Sub-Saharan Africa,South Africa,,,
196.29.59.27,4,2,web.za,ZA,Africa,Sub-Saharan Africa,South Africa,,,
102.130.117.240,4,2488,web4africa.com,ZA,Africa,Sub-Saharan Africa,South Africa,,,
102.213.4.242,4,30,webspacebar.co.za,ZA,Africa,Sub-Saharan Africa,South Africa,,,
41.185.8.62,4,77,wefixcomputers.co.za,ZA,Africa,Sub-Saharan Africa,South Africa,,,
156.250.152.103,4,3,weidemingsijy.com,ZA,Africa,Sub-Saharan Africa,South Africa,Gauteng,,Johannesburg
156.253.80.210,4,1071,weizhenlian.com,ZA,Africa,Sub-Saharan Africa,South Africa,Gauteng,,Johannesburg
160.124.22.239,4,2,wenju160.com,ZA,Africa,Sub-Saharan Africa,South Africa,,,
197.221.12.223,4,2,werksmans.com,ZA,Africa,Sub-Saharan Africa,South Africa,Western Cape,,Somerset West
160.119.193.127,4,153,wessa.org.za,ZA,Africa,Sub-Saharan Africa,South Africa,KwaZulu-Natal,,Durban
197.221.2.37,4,5,whatiftheworld.com,ZA,Africa,Sub-Saharan Africa,South Africa,Western Cape,,Somerset West
160.124.1.29,4,5,whhye.com,ZA,Africa,Sub-Saharan Africa,South Africa,,,
156.250.154.92,4,12,whjajfdc.com,ZA,Africa,Sub-Saharan Africa,South Africa,Gauteng,,Johannesburg
160.124.243.135,4,9,whxcphs.com,ZA,Africa,Sub-Saharan Africa,South Africa,,,
168.76.92.211,4,38,wil-shemon.com,ZA,Africa,Sub-Saharan Africa,South Africa,,,
154.0.171.153,4,614,wildlifecollege.org.za,ZA,Africa,Sub-Saharan Africa,South Africa,,,
129.232.138.172,4,7,wimpy.co.za,ZA,Africa,Sub-Saharan Africa,South Africa,,,
197.242.67.196,4,17,wineland.co.za,ZA,Africa,Sub-Saharan Africa,South Africa,,,
196.40.97.160,4,37,wineroute.co.za,ZA,Africa,Sub-Saharan Africa,South Africa,,,
156.38.154.14,4,859,winetram.co.za,ZA,Africa,Sub-Saharan Africa,South Africa,Gauteng,,Pretoria
156.250.144.2,4,3,wl690.com,ZA,Africa,Sub-Saharan Africa,South Africa,Gauteng,,Johannesburg
129.232.136.216,4,18,womenshealthsa.co.za,ZA,Africa,Sub-Saharan Africa,South Africa,,,
168.76.151.65,4,-20,worldpaca.com,ZA,Africa,Sub-Saharan Africa,South Africa,,,
154.0.166.235,4,19,wpa-pool.com,ZA,Africa,Sub-Saharan Africa,South Africa,,,
102.222.124.16,4,1,wpapool.com,ZA,Africa,Sub-Saharan Africa,South Africa,,,
197.242.87.9,4,803,writerswrite.co.za,ZA,Africa,Sub-Saharan Africa,South Africa,,,
102.134.47.31,4,6,wstkj.com,ZA,Africa,Sub-Saharan Africa,South Africa,,,
156.38.250.223,4,2,wtgf.org,ZA,Africa,Sub-Saharan Africa,South Africa,Gauteng,,Pretoria
160.124.205.145,4,5,wutongxfj.com,ZA,Africa,Sub-Saharan Africa,South Africa,,,
168.76.228.108,4,-18,wwhsssj.com,ZA,Africa,Sub-Saharan Africa,South Africa,,,
168.76.255.26,4,100,wwjtsp.com,ZA,Africa,Sub-Saharan Africa,South Africa,,,
198.54.8.55,4,20,www.gov.za,ZA,Africa,Sub-Saharan Africa,South Africa,,,
160.124.255.172,4,4,wxcfzx.com,ZA,Africa,Sub-Saharan Africa,South Africa,,,
160.124.156.69,4,0,wxshangmao.com,ZA,Africa,Sub-Saharan Africa,South Africa,,,
160.124.129.109,4,0,wxzhucheng.com,ZA,Africa,Sub-Saharan Africa,South Africa,,,
156.250.144.18,4,4,x1kzhi.com,ZA,Africa,Sub-Saharan Africa,South Africa,Gauteng,,Johannesburg
168.76.252.49,4,-2,xashn.com,ZA,Africa,Sub-Saharan Africa,South Africa,,,
160.124.205.138,4,3,xawbqx.com,ZA,Africa,Sub-Saharan Africa,South Africa,,,
160.124.129.111,4,3,xayhjscl.com,ZA,Africa,Sub-Saharan Africa,South Africa,,,
168.76.252.206,4,-21,xblcar.com,ZA,Africa,Sub-Saharan Africa,South Africa,,,
156.253.80.209,4,1070,xbygcyx.cn,ZA,Africa,Sub-Saharan Africa,South Africa,Gauteng,,Johannesburg
160.124.205.110,4,5,xczxcollege.com,ZA,Africa,Sub-Saharan Africa,South Africa,,,
160.124.225.71,4,2,xd-box.com,ZA,Africa,Sub-Saharan Africa,South Africa,,,
160.124.22.240,4,2,xgwlkj999.com,ZA,Africa,Sub-Saharan Africa,South Africa,,,
160.124.26.171,4,-1,xhbsy168.com,ZA,Africa,Sub-Saharan Africa,South Africa,,,
156.250.193.107,4,-2,xhsgtgs.cn,ZA,Africa,Sub-Saharan Africa,South Africa,Gauteng,,Johannesburg
160.124.104.22,4,2,xialinjianzhu.com,ZA,Africa,Sub-Saharan Africa,South Africa,,,
160.124.241.152,4,2,xiaocaowangluokeji.com,ZA,Africa,Sub-Saharan Africa,South Africa,,,
160.124.22.241,4,6,xiaoshibuxiao.com,ZA,Africa,Sub-Saharan Africa,South Africa,,,
160.124.22.242,4,5,xiaoyaobowo.com,ZA,Africa,Sub-Saharan Africa,South Africa,,,
160.124.104.5,4,1,xichaxiangmai.com,ZA,Africa,Sub-Saharan Africa,South Africa,,,
168.76.255.10,4,2,xichong8.cn,ZA,Africa,Sub-Saharan Africa,South Africa,,,
160.124.129.101,4,3,xigezh.com,ZA,Africa,Sub-Saharan Africa,South Africa,,,
160.124.114.35,4,-5,xilonghui.com,ZA,Africa,Sub-Saharan Africa,South Africa,,,
168.76.252.77,4,-18,xilubbs.com,ZA,Africa,Sub-Saharan Africa,South Africa,,,
160.124.129.113,4,4,xingyunmanghedao.com,ZA,Africa,Sub-Saharan Africa,South Africa,,,
160.124.225.72,4,2,xinhe100.com,ZA,Africa,Sub-Saharan Africa,South Africa,,,
160.124.26.161,4,2,xinhuiheshi.com,ZA,Africa,Sub-Saharan Africa,South Africa,,,
156.253.114.42,4,12,xinlaq.top,ZA,Africa,Sub-Saharan Africa,South Africa,Gauteng,,Johannesburg
156.250.144.13,4,4,xinlugong.com,ZA,Africa,Sub-Saharan Africa,South Africa,Gauteng,,Johannesburg
160.124.129.92,4,3,xinyjy.com,ZA,Africa,Sub-Saharan Africa,South Africa,,,
41.203.18.177,4,-635,xipixi-official.com,ZA,Africa,Sub-Saharan Africa,South Africa,,,
168.76.70.42,4,6,xiuhome.com,ZA,Africa,Sub-Saharan Africa,South Africa,,,
156.250.154.80,4,5,xmhzns.com,ZA,Africa,Sub-Saharan Africa,South Africa,Gauteng,,Johannesburg
156.250.156.18,4,3,xoxoniao.com,ZA,Africa,Sub-Saharan Africa,South Africa,Gauteng,,Johannesburg
160.124.22.243,4,4,xrufmwh.com,ZA,Africa,Sub-Saharan Africa,South Africa,,,
160.124.22.244,4,4,xs-meta.com,ZA,Africa,Sub-Saharan Africa,South Africa,,,
156.250.133.154,4,3,xtxywd.com,ZA,Africa,Sub-Saharan Africa,South Africa,Gauteng,,Johannesburg
160.124.6.174,4,1,xupinrz.com,ZA,Africa,Sub-Saharan Africa,South Africa,,,
156.250.154.94,4,2,xxfldd.com,ZA,Africa,Sub-Saharan Africa,South Africa,Gauteng,,Johannesburg
168.76.246.107,4,4,xxhansen.com,ZA,Africa,Sub-Saharan Africa,South Africa,,,
168.76.110.115,4,-10,xydbxg168.com,ZA,Africa,Sub-Saharan Africa,South Africa,,,
160.124.129.93,4,4,xykj168-sl.com,ZA,Africa,Sub-Saharan Africa,South Africa,,,
168.76.164.215,4,-22,xyojiashijie.com,ZA,Africa,Sub-Saharan Africa,South Africa,,,
160.124.22.245,4,3,xywd13.com,ZA,Africa,Sub-Saharan Africa,South Africa,,,
168.76.164.219,4,-21,xyxunbao.com,ZA,Africa,Sub-Saharan Africa,South Africa,,,
160.124.22.246,4,3,xyzsls.com,ZA,Africa,Sub-Saharan Africa,South Africa,,,
168.76.107.105,4,-2,xzhbcc.com,ZA,Africa,Sub-Saharan Africa,South Africa,,,
168.76.159.197,4,-17,xzleiyi.com,ZA,Africa,Sub-Saharan Africa,South Africa,,,
168.76.163.210,4,-15,xzliudian.com,ZA,Africa,Sub-Saharan Africa,South Africa,,,
168.76.158.195,4,-18,xzrunqian.com,ZA,Africa,Sub-Saharan Africa,South Africa,,,
168.76.253.64,4,17,xzsbck.cn,ZA,Africa,Sub-Saharan Africa,South Africa,,,
156.250.184.77,4,4,xztlmzj.com,ZA,Africa,Sub-Saharan Africa,South Africa,Gauteng,,Johannesburg
156.253.85.13,4,21325084,xztyoxygen.com,ZA,Africa,Sub-Saharan Africa,South Africa,Gauteng,,Johannesburg
168.76.159.222,4,-20,xzyuefan.com,ZA,Africa,Sub-Saharan Africa,South Africa,,,
168.76.163.211,4,-16,xzzheigong.com,ZA,Africa,Sub-Saharan Africa,South Africa,,,
156.250.144.14,4,7,yamiloantech.com,ZA,Africa,Sub-Saharan Africa,South Africa,Gauteng,,Johannesburg
168.76.162.222,4,-18,yanglaoyanglao.com,ZA,Africa,Sub-Saharan Africa,South Africa,,,
156.253.85.55,4,21325089,yangshengtuliao.com,ZA,Africa,Sub-Saharan Africa,South Africa,Gauteng,,Johannesburg
168.76.160.203,4,-18,yangtaigang.com,ZA,Africa,Sub-Saharan Africa,South Africa,,,
168.76.161.218,4,-18,yangzidianshang.com,ZA,Africa,Sub-Saharan Africa,South Africa,,,
160.124.186.27,4,3,yayuanet.com,ZA,Africa,Sub-Saharan Africa,South Africa,,,
168.76.163.204,4,-15,yazhoujc.com,ZA,Africa,Sub-Saharan Africa,South Africa,,,
160.124.199.203,4,5,yb-tea.com,ZA,Africa,Sub-Saharan Africa,South Africa,,,
156.253.85.31,4,21325091,ychhsd.com,ZA,Africa,Sub-Saharan Africa,South Africa,Gauteng,,Johannesburg
156.250.206.93,4,5,ycjx8.com,ZA,Africa,Sub-Saharan Africa,South Africa,Gauteng,,Johannesburg
156.250.144.3,4,3,ycsqlxz.com,ZA,Africa,Sub-Saharan Africa,South Africa,Gauteng,,Johannesburg
168.76.226.40,4,-20,yda360.cn,ZA,Africa,Sub-Saharan Africa,South Africa,,,
168.76.161.219,4,-20,ydzzdb.com,ZA,Africa,Sub-Saharan Africa,South Africa,,,
168.76.164.201,4,-15,yesunitl.com,ZA,Africa,Sub-Saharan Africa,South Africa,,,
160.124.241.153,4,2,yeyajico.com,ZA,Africa,Sub-Saharan Africa,South Africa,,,
160.124.22.247,4,6,yf2em.com,ZA,Africa,Sub-Saharan Africa,South Africa,,,
168.76.164.197,4,-17,yfdbdc.com,ZA,Africa,Sub-Saharan Africa,South Africa,,,
160.124.66.60,4,3,yh31.com,ZA,Africa,Sub-Saharan Africa,South Africa,,,
168.76.163.217,4,-17,yhcgmcjcc.com,ZA,Africa,Sub-Saharan Africa,South Africa,,,
168.76.163.222,4,-17,yianwx.com,ZA,Africa,Sub-Saharan Africa,South Africa,,,
168.76.161.195,4,-18,yibafire.com,ZA,Africa,Sub-Saharan Africa,South Africa,,,
160.124.129.114,4,2,yichunhudong.com,ZA,Africa,Sub-Saharan Africa,South Africa,,,
156.253.114.70,4,1076,yifahao.com,ZA,Africa,Sub-Saharan Africa,South Africa,Gauteng,,Johannesburg
168.76.161.216,4,-17,yifengjiale.com,ZA,Africa,Sub-Saharan Africa,South Africa,,,
168.76.164.211,4,-18,yifuha.com,ZA,Africa,Sub-Saharan Africa,South Africa,,,
168.76.159.211,4,-16,yijianliwenhua.com,ZA,Africa,Sub-Saharan Africa,South Africa,,,
160.124.129.102,4,9,yijianyun365.com,ZA,Africa,Sub-Saharan Africa,South Africa,,,
168.76.164.209,4,-19,yikongyingxiao.com,ZA,Africa,Sub-Saharan Africa,South Africa,,,
168.76.159.208,4,-20,yimingjiajudian.com,ZA,Africa,Sub-Saharan Africa,South Africa,,,
156.250.16.77,4,-20,yipgw.cn,ZA,Africa,Sub-Saharan Africa,South Africa,Gauteng,,Johannesburg
168.76.162.216,4,-17,yipiaopay.com,ZA,Africa,Sub-Saharan Africa,South Africa,,,
168.76.164.193,4,-24,yiquzhongguo.com,ZA,Africa,Sub-Saharan Africa,South Africa,,,
168.76.163.194,4,-23,yiriyitui.com,ZA,Africa,Sub-Saharan Africa,South Africa,,,
168.76.157.193,4,-16,yirotong.com,ZA,Africa,Sub-Saharan Africa,South Africa,,,
168.76.160.195,4,-19,yisouyoupu.com,ZA,Africa,Sub-Saharan Africa,South Africa,,,
168.76.160.216,4,-16,yiyishengmall.com,ZA,Africa,Sub-Saharan Africa,South Africa,,,
160.124.129.107,4,6,yiyuangongyinglian.com,ZA,Africa,Sub-Saharan Africa,South Africa,,,
160.124.129.115,4,4,yizhixue8.com,ZA,Africa,Sub-Saharan Africa,South Africa,,,
160.124.186.14,4,4,ylhjhs.com,ZA,Africa,Sub-Saharan Africa,South Africa,,,
156.250.152.68,4,1,yljbcoop.com,ZA,Africa,Sub-Saharan Africa,South Africa,Gauteng,,Johannesburg
168.76.163.203,4,-21,ymgogogo.com,ZA,Africa,Sub-Saharan Africa,South Africa,,,
168.76.162.220,4,-14,ynbetter.com,ZA,Africa,Sub-Saharan Africa,South Africa,,,
168.76.245.123,4,6,ynchanghong.com,ZA,Africa,Sub-Saharan Africa,South Africa,,,
168.76.158.211,4,-21,ynhansun.com,ZA,Africa,Sub-Saharan Africa,South Africa,,,
168.76.164.198,4,-14,ynhaozai.com,ZA,Africa,Sub-Saharan Africa,South Africa,,,
168.76.162.199,4,-24,ynhuida.com,ZA,Africa,Sub-Saharan Africa,South Africa,,,
168.76.163.199,4,-19,ynqfgszc.com,ZA,Africa,Sub-Saharan Africa,South Africa,,,
160.124.205.109,4,2,ynscpx.com,ZA,Africa,Sub-Saharan Africa,South Africa,,,
168.76.164.204,4,-14,ynshunxiang.com,ZA,Africa,Sub-Saharan Africa,South Africa,,,
168.76.158.214,4,-18,ynxsdzy.com,ZA,Africa,Sub-Saharan Africa,South Africa,,,
196.22.142.136,4,2,yomzansi.com,ZA,Africa,Sub-Saharan Africa,South Africa,,,
156.250.152.87,4,2,yongdaozhitaikeji.com,ZA,Africa,Sub-Saharan Africa,South Africa,Gauteng,,Johannesburg
160.124.22.248,4,7,yonghebio.com,ZA,Africa,Sub-Saharan Africa,South Africa,,,
160.124.18.133,4,15,yongjiabc.com,ZA,Africa,Sub-Saharan Africa,South Africa,,,
168.76.160.210,4,-12,yonglivehicle.com,ZA,Africa,Sub-Saharan Africa,South Africa,,,
156.250.154.78,4,0,yongshenglin.com,ZA,Africa,Sub-Saharan Africa,South Africa,Gauteng,,Johannesburg
160.124.129.116,4,7,youdao190403.com,ZA,Africa,Sub-Saharan Africa,South Africa,,,
156.250.152.110,4,2,youfusci.com,ZA,Africa,Sub-Saharan Africa,South Africa,Gauteng,,Johannesburg
156.250.227.41,4,0,youhoinfo.com,ZA,Africa,Sub-Saharan Africa,South Africa,Gauteng,,Johannesburg
160.124.225.73,4,3,youjiaxuetang.com,ZA,Africa,Sub-Saharan Africa,South Africa,,,
168.76.163.216,4,-16,youliandou.com,ZA,Africa,Sub-Saharan Africa,South Africa,,,
168.76.72.9,4,-12,youyue1314.com,ZA,Africa,Sub-Saharan Africa,South Africa,,,
160.124.156.66,4,1,youyueshanghai.com,ZA,Africa,Sub-Saharan Africa,South Africa,,,
160.124.129.108,4,3,yqyept.com,ZA,Africa,Sub-Saharan Africa,South Africa,,,
160.124.225.74,4,4,ysjtsspjc.com,ZA,Africa,Sub-Saharan Africa,South Africa,,,
168.76.157.216,4,-18,ysmedicalcare.com,ZA,Africa,Sub-Saharan Africa,South Africa,,,
168.76.255.248,4,81225,ysy2019.com,ZA,Africa,Sub-Saharan Africa,South Africa,,,
168.76.158.196,4,-26,ytaohui.com,ZA,Africa,Sub-Saharan Africa,South Africa,,,
168.76.161.210,4,-16,ytdeqin.com,ZA,Africa,Sub-Saharan Africa,South Africa,,,
168.76.164.222,4,-17,ytfengniao.com,ZA,Africa,Sub-Saharan Africa,South Africa,,,
168.76.162.218,4,-16,ytlianying.com,ZA,Africa,Sub-Saharan Africa,South Africa,,,
168.76.159.198,4,-16,ytluoshen.com,ZA,Africa,Sub-Saharan Africa,South Africa,,,
160.124.225.75,4,4,ytnongjia.com,ZA,Africa,Sub-Saharan Africa,South Africa,,,
160.124.156.186,4,3,ytwanlixiang.com,ZA,Africa,Sub-Saharan Africa,South Africa,,,
168.76.159.202,4,-17,ytyfcn.com,ZA,Africa,Sub-Saharan Africa,South Africa,,,
160.124.22.249,4,4,ytyishu.com,ZA,Africa,Sub-Saharan Africa,South Africa,,,
168.76.160.222,4,-20,yuanchengh.com,ZA,Africa,Sub-Saharan Africa,South Africa,,,
168.76.163.202,4,-19,yuandianxiu.com,ZA,Africa,Sub-Saharan Africa,South Africa,,,
168.76.161.196,4,-20,yuanfudashi.com,ZA,Africa,Sub-Saharan Africa,South Africa,,,
168.76.159.221,4,-18,yuanhengyz.com,ZA,Africa,Sub-Saharan Africa,South Africa,,,
168.76.163.198,4,-20,yuanyicaiwu.com,ZA,Africa,Sub-Saharan Africa,South Africa,,,
168.76.158.218,4,-19,yuegzu.com,ZA,Africa,Sub-Saharan Africa,South Africa,,,
160.124.225.79,4,3,yufangyan.com,ZA,Africa,Sub-Saharan Africa,South Africa,,,
160.124.22.250,4,4,yunduanbao1.com,ZA,Africa,Sub-Saharan Africa,South Africa,,,
168.76.162.215,4,-20,yunjiudt.com,ZA,Africa,Sub-Saharan Africa,South Africa,,,
160.124.129.87,4,4,yunqijinshi.com,ZA,Africa,Sub-Saharan Africa,South Africa,,,
160.124.18.134,4,13,yunshengzy.com,ZA,Africa,Sub-Saharan Africa,South Africa,,,
168.76.161.222,4,-21,yuweikujianzhan.com,ZA,Africa,Sub-Saharan Africa,South Africa,,,
156.250.227.40,4,5,ywcdpower.com,ZA,Africa,Sub-Saharan Africa,South Africa,Gauteng,,Johannesburg
168.76.158.198,4,-16,ywosun.com,ZA,Africa,Sub-Saharan Africa,South Africa,,,
168.76.161.198,4,-10,yxhall.com,ZA,Africa,Sub-Saharan Africa,South Africa,,,
156.250.227.42,4,2,yxmuju168.com,ZA,Africa,Sub-Saharan Africa,South Africa,Gauteng,,Johannesburg
160.124.205.97,4,2,yxqyy.com,ZA,Africa,Sub-Saharan Africa,South Africa,,,
160.124.129.117,4,2,yymkeji.com,ZA,Africa,Sub-Saharan Africa,South Africa,,,
156.250.152.97,4,0,yyx6688.com,ZA,Africa,Sub-Saharan Africa,South Africa,Gauteng,,Johannesburg
156.250.152.66,4,3,yzgbyg.com,ZA,Africa,Sub-Saharan Africa,South Africa,Gauteng,,Johannesburg
168.76.162.221,4,-14,yzhengyuan.com,ZA,Africa,Sub-Saharan Africa,South Africa,,,
168.76.157.206,4,-22,yzjinteng.com,ZA,Africa,Sub-Saharan Africa,South Africa,,,
168.76.252.216,4,-23,yzjygd.com,ZA,Africa,Sub-Saharan Africa,South Africa,,,
168.76.34.8,4,-23,yzktw.com.cn,ZA,Africa,Sub-Saharan Africa,South Africa,,,
156.250.154.77,4,3,yzlshuxue.com,ZA,Africa,Sub-Saharan Africa,South Africa,Gauteng,,Johannesburg
168.76.158.221,4,-18,yzmcsf.com,ZA,Africa,Sub-Saharan Africa,South Africa,,,
160.124.22.251,4,4,yzmeikang.com,ZA,Africa,Sub-Saharan Africa,South Africa,,,
168.76.159.206,4,-20,yznuonuo.com,ZA,Africa,Sub-Saharan Africa,South Africa,,,
160.124.22.252,4,1,yzpengsheng.com,ZA,Africa,Sub-Saharan Africa,South Africa,,,
160.124.141.29,4,-2,yzpwxl.com,ZA,Africa,Sub-Saharan Africa,South Africa,,,
168.76.163.201,4,-16,yzzeyu.com,ZA,Africa,Sub-Saharan Africa,South Africa,,,
129.232.249.120,4,14,zadna.org.za,ZA,Africa,Sub-Saharan Africa,South Africa,,,
160.124.166.47,4,1,zbzsvalve.com,ZA,Africa,Sub-Saharan Africa,South Africa,,,
156.253.85.18,4,21325103,zcant.com,ZA,Africa,Sub-Saharan Africa,South Africa,Gauteng,,Johannesburg
168.76.141.49,4,-21,zcguangruijx.com,ZA,Africa,Sub-Saharan Africa,South Africa,,,
168.76.157.215,4,-18,zgbaoding.com,ZA,Africa,Sub-Saharan Africa,South Africa,,,
168.76.158.219,4,-14,zgdqys.com,ZA,Africa,Sub-Saharan Africa,South Africa,,,
160.124.129.112,4,3,zgmc668.com,ZA,Africa,Sub-Saharan Africa,South Africa,,,
168.76.163.195,4,-21,zgnengyun.com,ZA,Africa,Sub-Saharan Africa,South Africa,,,
160.124.225.92,4,1,zgqmjj.com,ZA,Africa,Sub-Saharan Africa,South Africa,,,
160.124.129.86,4,4,zgweibao.com,ZA,Africa,Sub-Saharan Africa,South Africa,,,
168.76.161.197,4,-22,zgweisou.com,ZA,Africa,Sub-Saharan Africa,South Africa,,,
168.76.159.218,4,-16,zgxiliang.com,ZA,Africa,Sub-Saharan Africa,South Africa,,,
168.76.159.200,4,-19,zgxuandao.com,ZA,Africa,Sub-Saharan Africa,South Africa,,,
168.76.163.212,4,-20,zgyintong.com,ZA,Africa,Sub-Saharan Africa,South Africa,,,
168.76.159.196,4,-14,zgyuejiu.com,ZA,Africa,Sub-Saharan Africa,South Africa,,,
156.250.152.67,4,1,zgz01.com,ZA,Africa,Sub-Saharan Africa,South Africa,Gauteng,,Johannesburg
168.76.161.220,4,-18,zhanyouwangluo.com,ZA,Africa,Sub-Saharan Africa,South Africa,,,
156.250.149.56,4,3,zhaocaihezi.com,ZA,Africa,Sub-Saharan Africa,South Africa,Gauteng,,Johannesburg
168.76.160.194,4,-15,zhaxxw.com,ZA,Africa,Sub-Saharan Africa,South Africa,,,
160.124.22.253,4,3,zhayouji-jinlu.com,ZA,Africa,Sub-Saharan Africa,South Africa,,,
160.124.129.95,4,4,zhengsuyi.com,ZA,Africa,Sub-Saharan Africa,South Africa,,,
160.124.225.81,4,11,zhenniu365.com,ZA,Africa,Sub-Saharan Africa,South Africa,,,
156.250.154.75,4,5,zhenyangshipping.com,ZA,Africa,Sub-Saharan Africa,South Africa,Gauteng,,Johannesburg
168.76.78.10,4,-15,zhenyaogujian.cn,ZA,Africa,Sub-Saharan Africa,South Africa,,,
160.124.205.108,4,2,zheyulihua.com,ZA,Africa,Sub-Saharan Africa,South Africa,,,
160.124.129.85,4,4,zhichuang13.com,ZA,Africa,Sub-Saharan Africa,South Africa,,,
168.76.160.218,4,-19,zhihuiqb.com,ZA,Africa,Sub-Saharan Africa,South Africa,,,
168.76.162.200,4,-18,zhilianyungc.com,ZA,Africa,Sub-Saharan Africa,South Africa,,,
156.250.152.107,4,6,zhimeidoll.com,ZA,Africa,Sub-Saharan Africa,South Africa,Gauteng,,Johannesburg
156.250.227.38,4,3,zhiyunqingfeng.com,ZA,Africa,Sub-Saharan Africa,South Africa,Gauteng,,Johannesburg
168.76.157.196,4,-20,zhiyunshequgou.com,ZA,Africa,Sub-Saharan Africa,South Africa,,,
168.76.160.212,4,-13,zhizhuanw.com,ZA,Africa,Sub-Saharan Africa,South Africa,,,
160.124.129.84,4,1,zhjingshang.com,ZA,Africa,Sub-Saharan Africa,South Africa,,,
160.124.22.254,4,4,zhleilu.com,ZA,Africa,Sub-Saharan Africa,South Africa,,,
168.76.158.220,4,-18,zhliehuo.com,ZA,Africa,Sub-Saharan Africa,South Africa,,,
156.250.227.47,4,1,zhongnancen.com,ZA,Africa,Sub-Saharan Africa,South Africa,Gauteng,,Johannesburg
160.124.52.252,4,0,zhongyangjidi.com,ZA,Africa,Sub-Saharan Africa,South Africa,,,
160.124.104.203,4,2,zhuoyuep2p.com,ZA,Africa,Sub-Saharan Africa,South Africa,,,
168.76.159.214,4,-10,zhxiyuan.com,ZA,Africa,Sub-Saharan Africa,South Africa,,,
156.253.85.19,4,21325090,zhyaqiuji.com,ZA,Africa,Sub-Saharan Africa,South Africa,Gauteng,,Johannesburg
168.76.160.217,4,-12,zhyecheng.com,ZA,Africa,Sub-Saharan Africa,South Africa,,,
168.76.254.230,4,-14,zifuzs.com,ZA,Africa,Sub-Saharan Africa,South Africa,,,
129.232.186.104,4,261,zimbabwetourism.net,ZA,Africa,Sub-Saharan Africa,South Africa,,,
129.232.213.109,4,577,zimparks.org.zw,ZA,Africa,Sub-Saharan Africa,South Africa,,,
154.0.174.244,4,1948,zintofs.co.za,ZA,Africa,Sub-Saharan Africa,South Africa,,,
41.185.8.154,4,8,ziwaphi.com,ZA,Africa,Sub-Saharan Africa,South Africa,,,
156.250.227.44,4,18,zjdingai.com,ZA,Africa,Sub-Saharan Africa,South Africa,Gauteng,,Johannesburg
168.76.160.193,4,-16,zjhuachenyinran.com,ZA,Africa,Sub-Saharan Africa,South Africa,,,
168.76.160.200,4,-16,zkxljy.com,ZA,Africa,Sub-Saharan Africa,South Africa,,,
160.124.166.24,4,2,zmdddht.com,ZA,Africa,Sub-Saharan Africa,South Africa,,,
168.76.157.208,4,-14,zmeifa.com,ZA,Africa,Sub-Saharan Africa,South Africa,,,
156.250.227.43,4,-1,zmjd2006.com,ZA,Africa,Sub-Saharan Africa,South Africa,Gauteng,,Johannesburg
168.76.70.43,4,13,znjj.tv,ZA,Africa,Sub-Saharan Africa,South Africa,,,
156.250.227.33,4,-1,zonecci.com,ZA,Africa,Sub-Saharan Africa,South Africa,Gauteng,,Johannesburg
160.124.129.96,4,5,zqxsrz.com,ZA,Africa,Sub-Saharan Africa,South Africa,,,
160.124.175.123,4,4,zs-mc.com,ZA,Africa,Sub-Saharan Africa,South Africa,,,
160.124.129.83,4,4,zsbinqi.com,ZA,Africa,Sub-Saharan Africa,South Africa,,,
168.76.163.214,4,-22,zschuangtuo.com,ZA,Africa,Sub-Saharan Africa,South Africa,,,
160.124.129.82,4,3,zsht86.com,ZA,Africa,Sub-Saharan Africa,South Africa,,,
168.76.161.212,4,-21,zswaibao.com,ZA,Africa,Sub-Saharan Africa,South Africa,,,
168.76.162.206,4,-21,zsweiniu.com,ZA,Africa,Sub-Saharan Africa,South Africa,,,
168.76.162.213,4,-18,zszhifa.com,ZA,Africa,Sub-Saharan Africa,South Africa,,,
168.76.160.221,4,-17,zuimeisn.com,ZA,Africa,Sub-Saharan Africa,South Africa,,,
160.124.225.80,4,3,zuimugroup.com,ZA,Africa,Sub-Saharan Africa,South Africa,,,
197.221.0.242,4,4,zulu.org.za,ZA,Africa,Sub-Saharan Africa,South Africa,Western Cape,,Somerset West
160.124.104.7,4,-2,zuoerjia.com,ZA,Africa,Sub-Saharan Africa,South Africa,,,
168.76.72.12,4,-18,zwjlock.com,ZA,Africa,Sub-Saharan Africa,South Africa,,,
160.124.104.24,4,-3,zyhello.com,ZA,Africa,Sub-Saharan Africa,South Africa,,,
168.76.161.204,4,-20,zyhongxiang.com,ZA,Africa,Sub-Saharan Africa,South Africa,,,
156.253.80.212,4,1066,zzfeicuitech.com,ZA,Africa,Sub-Saharan Africa,South Africa,Gauteng,,Johannesburg
156.253.112.234,4,-2172,zzoodq.com,ZA,Africa,Sub-Saharan Africa,South Africa,Gauteng,,Johannesburg
160.124.129.81,4,3,zzqunzhaosz.com,ZA,Africa,Sub-Saharan Africa,South Africa,,,
168.76.162.210,4,-24,zzsdjgsk.com,ZA,Africa,Sub-Saharan Africa,South Africa,,,
160.124.129.110,4,2,zztiankun.com,ZA,Africa,Sub-Saharan Africa,South Africa,,,
