reflector_ip,ip_version,offset,description,country_code,region,sub_region,country_name,sub_division_1,sub_division_2,city
72.18.132.28,4,19,blue-anvil.com,US,Americas,Northern America,United States of America,Colorado,,Denver
72.18.132.130,4,34,buddhanet.info,US,Americas,Northern America,United States of America,Colorado,,Denver
72.18.132.129,4,35,buddhanet.net,US,Americas,Northern America,United States of America,Colorado,,Denver
72.18.132.172,4,336,businessbazaar.biz,US,Americas,Northern America,United States of America,Colorado,,Denver
164.47.20.207,4,6,ccconline.org,US,Americas,Northern America,United States of America,Colorado,,Denver
72.18.142.84,4,631,cip.gov.ag,US,Americas,Northern America,United States of America,Colorado,,Denver
198.255.104.126,4,6,classiccardb.com,US,Americas,Northern America,United States of America,Colorado,,Denver
75.148.123.25,4,4536,critters.org,US,Americas,Northern America,United States of America,Colorado,,Denver
75.166.60.175,4,11,DNS Server: 75-166-60-175.hlrn.qwest.net,US,Americas,Northern America,United States of America,Colorado,,Denver
97.118.241.59,4,8,DNS Server: 97-118-241-59.hlrn.qwest.net,US,Americas,Northern America,United States of America,Colorado,,Denver
174.128.235.250,4,6,eq2wire.com,US,Americas,Northern America,United States of America,Colorado,,Denver
72.18.158.242,4,670,inplainsite.org,US,Americas,Northern America,United States of America,Colorado,,Denver
72.18.132.151,4,4,iwraw-ap.org,US,Americas,Northern America,United States of America,Colorado,,Denver
50.214.28.50,4,-42681273,kitsunet.net,US,Americas,Northern America,United States of America,Colorado,,Denver
173.164.49.81,4,3,mchome.net,US,Americas,Northern America,United States of America,Colorado,,Denver
139.64.165.210,4,10,melaninbook.com,US,Americas,Northern America,United States of America,Colorado,,Denver
216.120.200.151,4,4,mirusbio.com,US,Americas,Northern America,United States of America,Colorado,,Denver
198.255.8.4,4,323,Ookla Speedtest Server 9912: lg-dene.fdcservers.net,US,Americas,Northern America,United States of America,Colorado,,Denver
216.75.117.10,4,219,Ookla Speedtest Server 24079: den11-speedtest01.as15108.com,US,Americas,Northern America,United States of America,Colorado,,Denver
69.160.176.255,4,-15010,Ookla Speedtest Server 55925: denver-speedtest.commnetbroadband.com,US,Americas,Northern America,United States of America,Colorado,,Denver
69.28.109.20,4,312,Ookla Speedtest Server 63940: den-speedtest.net.sangoma.net,US,Americas,Northern America,United States of America,Colorado,,Denver
67.207.125.211,4,300,Ookla Speedtest Server 64798: dende0004speedtestserver01.wiline.com,US,Americas,Northern America,United States of America,Colorado,,Denver
72.18.132.134,4,375,productivedreams.com,US,Americas,Northern America,United States of America,Colorado,,Denver
97.122.75.214,4,50,scottlabs.io,US,Americas,Northern America,United States of America,Colorado,,Denver
173.248.157.214,4,9,sv-anuncios.com,US,Americas,Northern America,United States of America,Colorado,,Denver
216.160.182.223,4,6,welcomehome.org,US,Americas,Northern America,United States of America,Colorado,,Denver
173.248.157.219,4,3,wpwebhost.com,US,Americas,Northern America,United States of America,Colorado,,Denver
