reflector_ip,ip_version,offset,description,country_code,region,sub_region,country_name,sub_division_1,sub_division_2,city
61.183.150.169,4,-125858,95579.com,CN,Asia,Eastern Asia,China,Hubei,,Wuhan
61.183.52.197,4,71,anquanke.com,CN,Asia,Eastern Asia,China,Hubei,,Wuhan
61.183.52.207,4,26,anquanke.com,CN,Asia,Eastern Asia,China,Hubei,,Wuhan
221.232.128.68,4,-2,ccgp-hubei.gov.cn,CN,Asia,Eastern Asia,China,Hubei,,Wuhan
221.232.78.24,4,-197,cjn.cn,CN,Asia,Eastern Asia,China,Hubei,,Wuhan
61.183.52.210,4,23,ctibet.org.cn,CN,Asia,Eastern Asia,China,Hubei,,Wuhan
61.183.52.194,4,24,ctibet.org.cn,CN,Asia,Eastern Asia,China,Hubei,,Wuhan
111.47.131.86,4,25,dubbing.tech,CN,Asia,Eastern Asia,China,Hubei,,Wuhan
221.232.157.76,4,557106,hbhtcm.com,CN,Asia,Eastern Asia,China,Hubei,,Wuhan
61.183.174.52,4,288,hbsy.cn,CN,Asia,Eastern Asia,China,Hubei,,Wuhan
27.17.50.29,4,79,huazhongcnc.com,CN,Asia,Eastern Asia,China,Hubei,,Wuhan
61.183.52.215,4,48,qufu.gov.cn,CN,Asia,Eastern Asia,China,Hubei,,Wuhan
111.47.131.223,4,48,superweb999.com,CN,Asia,Eastern Asia,China,Hubei,,Wuhan
111.48.138.225,4,28,superweb999.com,CN,Asia,Eastern Asia,China,Hubei,,Wuhan
61.183.52.217,4,45,wenshang.gov.cn,CN,Asia,Eastern Asia,China,Hubei,,Wuhan
61.183.52.216,4,21,wenshang.gov.cn,CN,Asia,Eastern Asia,China,Hubei,,Wuhan
221.232.65.51,4,29,whtcc.edu.cn,CN,Asia,Eastern Asia,China,Hubei,,Wuhan
61.183.52.218,4,17,wxrb.com,CN,Asia,Eastern Asia,China,Hubei,,Wuhan
61.183.9.137,4,14,xinxizhichuang.com,CN,Asia,Eastern Asia,China,Hubei,,Wuhan
