reflector_ip,ip_version,offset,description,country_code,region,sub_region,country_name,sub_division_1,sub_division_2,city
51.68.155.39,4,5,2i.cz,PL,Europe,Eastern Europe,Poland,Mazovia,,Warsaw
79.98.145.42,4,4,42.pl,PL,Europe,Eastern Europe,Poland,Mazovia,,Warsaw
90.156.228.76,4,2,4israel.co.il,PL,Europe,Eastern Europe,Poland,Mazovia,,Warsaw
31.186.83.196,4,5,adresowo.pl,PL,Europe,Eastern Europe,Poland,Mazovia,,Warsaw
195.78.67.22,4,17,agro-mix.pl,PL,Europe,Eastern Europe,Poland,Mazovia,,Warsaw
77.73.129.44,4,27,aimmy.app,PL,Europe,Eastern Europe,Poland,Mazovia,,Warsaw
31.186.81.254,4,16,airport-poznan.com.pl,PL,Europe,Eastern Europe,Poland,Mazovia,,Warsaw
51.83.129.114,4,20,akademiasztuki.eu,PL,Europe,Eastern Europe,Poland,Mazovia,,Warsaw
51.77.58.240,4,175,alabamaindex.com,PL,Europe,Eastern Europe,Poland,Mazovia,,Warsaw
195.78.67.44,4,2,apptorium.com,PL,Europe,Eastern Europe,Poland,Mazovia,,Warsaw
51.83.250.113,4,63,aquael.pl,PL,Europe,Eastern Europe,Poland,Mazovia,,Warsaw
54.38.138.141,4,4,artefakt.pl,PL,Europe,Eastern Europe,Poland,Mazovia,,Warsaw
193.0.88.1,4,8,astrouw.edu.pl,PL,Europe,Eastern Europe,Poland,Mazovia,,Warsaw
128.204.223.44,4,31,autokrata.pl,PL,Europe,Eastern Europe,Poland,Mazovia,,Warsaw
77.83.100.101,4,36,avonok.pl,PL,Europe,Eastern Europe,Poland,Mazovia,,Warsaw
51.68.138.55,4,5,b4sport.pl,PL,Europe,Eastern Europe,Poland,Mazovia,,Warsaw
137.74.5.148,4,9,baza-firm.com.pl,PL,Europe,Eastern Europe,Poland,Mazovia,,Warsaw
149.86.225.38,4,11,bestbuyviag.com,PL,Europe,Eastern Europe,Poland,Mazovia,,Warsaw
77.83.100.14,4,13,betreuung-efo.eu,PL,Europe,Eastern Europe,Poland,Mazovia,,Warsaw
80.72.36.54,4,-9,bialystokonline.pl,PL,Europe,Eastern Europe,Poland,Mazovia,,Warsaw
195.238.187.162,4,6,bip-e.pl,PL,Europe,Eastern Europe,Poland,Mazovia,,Warsaw
217.28.146.20,4,74,bip.org.pl,PL,Europe,Eastern Europe,Poland,Mazovia,,Płock
51.68.154.86,4,6,bittogether.com,PL,Europe,Eastern Europe,Poland,Mazovia,,Warsaw
77.83.100.107,4,22,blife.com.ua,PL,Europe,Eastern Europe,Poland,Mazovia,,Warsaw
217.182.201.238,4,3,bohateron.pl,PL,Europe,Eastern Europe,Poland,Mazovia,,Warsaw
185.36.168.223,4,9,bonislawska.pl,PL,Europe,Eastern Europe,Poland,Mazovia,,Warsaw
212.91.27.9,4,56340,budnet.pl,PL,Europe,Eastern Europe,Poland,Mazovia,,Warsaw
193.70.125.49,4,6,byline24.com,PL,Europe,Eastern Europe,Poland,Mazovia,,Warsaw
51.77.58.229,4,9,calculemus.org,PL,Europe,Eastern Europe,Poland,Mazovia,,Warsaw
31.186.83.164,4,47,camelliagrill.net,PL,Europe,Eastern Europe,Poland,Mazovia,,Warsaw
85.194.241.50,4,16,cefarm24.pl,PL,Europe,Eastern Europe,Poland,Mazovia,,Warsaw
185.36.170.11,4,8,cgm.pl,PL,Europe,Eastern Europe,Poland,Mazovia,,Warsaw
193.70.94.65,4,7,chocolissimo.pl,PL,Europe,Eastern Europe,Poland,Mazovia,,Warsaw
185.122.139.85,4,14,chorzow.eu,PL,Europe,Eastern Europe,Poland,Mazovia,,Miasto Ogród Komorów
34.116.240.52,4,27,classical.com,PL,Europe,Eastern Europe,Poland,Mazovia,,Warsaw
185.36.169.219,4,-77,clearsolar.pl,PL,Europe,Eastern Europe,Poland,Mazovia,,Warsaw
195.78.67.54,4,44,columb-sklep.pl,PL,Europe,Eastern Europe,Poland,Mazovia,,Warsaw
195.78.67.61,4,3,copymate.app,PL,Europe,Eastern Europe,Poland,Mazovia,,Warsaw
79.137.71.21,4,6,cracow.pl,PL,Europe,Eastern Europe,Poland,Mazovia,,Warsaw
51.83.140.181,4,49,creativeunicorn.eu,PL,Europe,Eastern Europe,Poland,Mazovia,,Warsaw
91.185.189.246,4,41,cssi.com.pl,PL,Europe,Eastern Europe,Poland,Mazovia,,Warsaw
51.83.129.184,4,3,cstore.pl,PL,Europe,Eastern Europe,Poland,Mazovia,,Warsaw
137.74.7.213,4,40,dabrowa.pl,PL,Europe,Eastern Europe,Poland,Mazovia,,Warsaw
146.59.58.38,4,24,daper.net,PL,Europe,Eastern Europe,Poland,Mazovia,,Warsaw
91.185.185.169,4,391,dedietrich.pl,PL,Europe,Eastern Europe,Poland,Mazovia,,Warsaw
51.83.128.218,4,12943,deniot.com,PL,Europe,Eastern Europe,Poland,Mazovia,,Warsaw
51.68.139.123,4,6,di.com.pl,PL,Europe,Eastern Europe,Poland,Mazovia,,Warsaw
31.11.132.161,4,187520,DNS Server: 031011132161.warszawa.vectranet.pl,PL,Europe,Eastern Europe,Poland,Mazovia,,Warsaw
31.11.133.1,4,5067,DNS Server: 031011133001.warszawa.vectranet.pl,PL,Europe,Eastern Europe,Poland,Mazovia,,Warsaw
31.11.204.241,4,10976,DNS Server: 031011204241.business.static.vectranet.pl,PL,Europe,Eastern Europe,Poland,Mazovia,,Warsaw
78.88.121.107,4,129558,DNS Server: 078088121107.dzierzoniow.vectranet.pl,PL,Europe,Eastern Europe,Poland,Mazovia,,Żuromin
78.88.188.26,4,10271,DNS Server: 078088188026.swietochlowice.vectranet.pl,PL,Europe,Eastern Europe,Poland,Mazovia,,Warsaw
78.88.188.98,4,11046,DNS Server: 078088188098.swietochlowice.vectranet.pl,PL,Europe,Eastern Europe,Poland,Mazovia,,Warsaw
78.88.188.122,4,32039,DNS Server: 078088188122.swietochlowice.vectranet.pl,PL,Europe,Eastern Europe,Poland,Mazovia,,Warsaw
78.88.188.182,4,5349,DNS Server: 078088188182.swietochlowice.vectranet.pl,PL,Europe,Eastern Europe,Poland,Mazovia,,Warsaw
78.88.188.206,4,5143,DNS Server: 078088188206.swietochlowice.vectranet.pl,PL,Europe,Eastern Europe,Poland,Mazovia,,Warsaw
88.156.164.122,4,120479,DNS Server: 088156164122.unknown.vectranet.pl,PL,Europe,Eastern Europe,Poland,Mazovia,,Warsaw
88.156.164.210,4,7431,DNS Server: 088156164210.unknown.vectranet.pl,PL,Europe,Eastern Europe,Poland,Mazovia,,Warsaw
88.156.165.102,4,45979,DNS Server: 088156165102.unknown.vectranet.pl,PL,Europe,Eastern Europe,Poland,Mazovia,,Warsaw
88.156.166.94,4,310045,DNS Server: 088156166094.unknown.vectranet.pl,PL,Europe,Eastern Europe,Poland,Mazovia,,Warsaw
88.156.167.34,4,96,DNS Server: 088156167034.unknown.vectranet.pl,PL,Europe,Eastern Europe,Poland,Mazovia,,Warsaw
91.238.232.150,4,6084,DNS Server: 091238232150.bielskobiala.vectranet.pl,PL,Europe,Eastern Europe,Poland,Mazovia,,Warsaw
91.238.233.122,4,98231,DNS Server: 091238233122.bielskobiala.vectranet.pl,PL,Europe,Eastern Europe,Poland,Mazovia,,Warsaw
93.105.156.9,4,125150,DNS Server: 093105156009.business.static.vectranet.pl,PL,Europe,Eastern Europe,Poland,Mazovia,,Warsaw
95.160.31.73,4,28001,DNS Server: 095160031073.business.static.vectranet.pl,PL,Europe,Eastern Europe,Poland,Mazovia,,Warsaw
95.160.116.6,4,70593,DNS Server: 095160116006.swietochlowice.vectranet.pl,PL,Europe,Eastern Europe,Poland,Mazovia,,Warsaw
95.160.116.34,4,46303,DNS Server: 095160116034.swietochlowice.vectranet.pl,PL,Europe,Eastern Europe,Poland,Mazovia,,Warsaw
95.160.116.38,4,21353,DNS Server: 095160116038.swietochlowice.vectranet.pl,PL,Europe,Eastern Europe,Poland,Mazovia,,Warsaw
95.160.116.110,4,100020,DNS Server: 095160116110.swietochlowice.vectranet.pl,PL,Europe,Eastern Europe,Poland,Mazovia,,Warsaw
95.160.116.190,4,6745,DNS Server: 095160116190.swietochlowice.vectranet.pl,PL,Europe,Eastern Europe,Poland,Mazovia,,Warsaw
95.160.116.234,4,88,DNS Server: 095160116234.swietochlowice.vectranet.pl,PL,Europe,Eastern Europe,Poland,Mazovia,,Warsaw
95.160.117.47,4,24604,DNS Server: 095160117047.swietochlowice.vectranet.pl,PL,Europe,Eastern Europe,Poland,Mazovia,,Warsaw
95.160.118.11,4,10100,DNS Server: 095160118011.swietochlowice.vectranet.pl,PL,Europe,Eastern Europe,Poland,Mazovia,,Warsaw
95.160.230.148,4,78816,DNS Server: 095160230148.unknown.vectranet.pl,PL,Europe,Eastern Europe,Poland,Mazovia,,Mszczonów
95.160.237.97,4,4288,DNS Server: 095160237097.unknown.vectranet.pl,PL,Europe,Eastern Europe,Poland,Mazovia,,Mszczonów
91.227.63.105,4,99,DNS Server: 105.pool-63.klikom.net,PL,Europe,Eastern Europe,Poland,Mazovia,,Radom
109.106.4.107,4,20178009,DNS Server: 109-106-4-107.interwan.pl,PL,Europe,Eastern Europe,Poland,Mazovia,,Dębe Wielkie
109.106.6.128,4,-32065072,DNS Server: 109-106-6-128.interwan.pl,PL,Europe,Eastern Europe,Poland,Mazovia,,Dębe Wielkie
90.156.231.108,4,-19,DNS Server: 1169417-cc72875.tw1.ru,PL,Europe,Eastern Europe,Poland,Mazovia,,Warsaw
185.189.126.185,4,37,DNS Server: 126185.radom.unitelmedia.pl,PL,Europe,Eastern Europe,Poland,Mazovia,,Radom
81.200.154.126,4,114,DNS Server: 1275921-cf53765.tw1.ru,PL,Europe,Eastern Europe,Poland,Mazovia,,Warsaw
178.235.148.35,4,-9271947,DNS Server: 178235148035.business.static.vectranet.pl,PL,Europe,Eastern Europe,Poland,Mazovia,,Warsaw
212.106.1.13,4,-1764708292,DNS Server: 212-106-1-13.static.ip.netia.com.pl,PL,Europe,Eastern Europe,Poland,Mazovia,,Warsaw
213.241.61.12,4,8069,DNS Server: 213-241-61-12.static.ip.netia.com.pl,PL,Europe,Eastern Europe,Poland,Mazovia,,Warsaw
5.185.94.131,4,1014,DNS Server: 5.185.94.131.ipv4.public.orange.pl,PL,Europe,Eastern Europe,Poland,Mazovia,,Warsaw
78.11.44.46,4,58,DNS Server: 78-11-44-46.static.ip.netia.com.pl,PL,Europe,Eastern Europe,Poland,Mazovia,,Warsaw
81.18.206.2,4,7,DNS Server: 81-18-206-2.static.chello.pl,PL,Europe,Eastern Europe,Poland,Mazovia,,Warsaw
82.160.97.242,4,35,DNS Server: 82-160-97-242.tktelekom.pl,PL,Europe,Eastern Europe,Poland,Mazovia,,Żyrardów
82.160.97.243,4,43,DNS Server: 82-160-97-243.tktelekom.pl,PL,Europe,Eastern Europe,Poland,Mazovia,,Żyrardów
82.160.97.245,4,25,DNS Server: 82-160-97-245.tktelekom.pl,PL,Europe,Eastern Europe,Poland,Mazovia,,Żyrardów
82.214.135.118,4,-88322,DNS Server: 82-214-135-118.itsa.net.pl,PL,Europe,Eastern Europe,Poland,Mazovia,,Warsaw
82.214.166.226,4,-1327,DNS Server: 82-214-166-226.itsa.net.pl,PL,Europe,Eastern Europe,Poland,Mazovia,,Warsaw
83.0.102.138,4,22,DNS Server: 83.0.102.138.internetdsl.tpnet.pl,PL,Europe,Eastern Europe,Poland,Mazovia,,Warsaw
83.220.116.108,4,47,DNS Server: 83.220.116.108.umts.static.t-mobile.pl,PL,Europe,Eastern Europe,Poland,Mazovia,,Warsaw
83.5.245.189,4,26877,DNS Server: 83.5.245.189.ipv4.supernova.orange.pl,PL,Europe,Eastern Europe,Poland,Mazovia,,Warsaw
84.10.21.22,4,297017,DNS Server: 84-10-21-22.static.chello.pl,PL,Europe,Eastern Europe,Poland,Mazovia,,Warsaw
84.10.60.186,4,-3267428445,DNS Server: 84-10-60-186.static.chello.pl,PL,Europe,Eastern Europe,Poland,Mazovia,,Warsaw
85.222.104.150,4,49001,DNS Server: 85-222-104-150.dynamic.chello.pl,PL,Europe,Eastern Europe,Poland,Mazovia,,Warsaw
85.222.120.162,4,-84375,DNS Server: 85-222-120-162.dynamic.chello.pl,PL,Europe,Eastern Europe,Poland,Mazovia,,Warsaw
85.222.124.6,4,-33012,DNS Server: 85-222-124-6.dynamic.chello.pl,PL,Europe,Eastern Europe,Poland,Mazovia,,Warsaw
85.222.66.158,4,-683447846,DNS Server: 85-222-66-158.dynamic.chello.pl,PL,Europe,Eastern Europe,Poland,Mazovia,,Warsaw
85.222.94.42,4,30,DNS Server: 85-222-94-42.dynamic.chello.pl,PL,Europe,Eastern Europe,Poland,Mazovia,,Warsaw
94.240.35.102,4,0,DNS Server: 94-240-35-102.lukman.pl,PL,Europe,Eastern Europe,Poland,Mazovia,,Warsaw
94.240.46.4,4,2,DNS Server: 94-240-46-4.lukman.pl,PL,Europe,Eastern Europe,Poland,Mazovia,,Cegłów
94.75.116.234,4,36,DNS Server: 94-75-116-234.home.aster.pl,PL,Europe,Eastern Europe,Poland,Mazovia,,Parzniew
83.17.70.38,4,61852,DNS Server: amo38.internetdsl.tpnet.pl,PL,Europe,Eastern Europe,Poland,Mazovia,,Warsaw
83.17.70.39,4,62055,DNS Server: amo39.internetdsl.tpnet.pl,PL,Europe,Eastern Europe,Poland,Mazovia,,Warsaw
31.0.169.75,4,233727,DNS Server: apn-31-0-169-75.static.gprs.plus.pl,PL,Europe,Eastern Europe,Poland,Mazovia,,Warsaw
81.15.151.6,4,125,DNS Server: boza-wola,PL,Europe,Eastern Europe,Poland,Mazovia,,Warsaw
91.193.12.196,4,4011,DNS Server: cpe-91-193-12-196.promontel.net.pl,PL,Europe,Eastern Europe,Poland,Mazovia,,Kozienice
83.19.115.131,4,2969,DNS Server: cwh131.internetdsl.tpnet.pl.A.115.19.83.in-addr.arpa,PL,Europe,Eastern Europe,Poland,Mazovia,,Warsaw
51.68.139.183,4,9465,DNS Server: dancebookwarszawa.pl,PL,Europe,Eastern Europe,Poland,Mazovia,,Warsaw
78.152.31.133,4,123,DNS Server: dhcp78-152-31-133.eaw.com.pl,PL,Europe,Eastern Europe,Poland,Mazovia,,Ostrołęka
83.14.215.110,4,99,DNS Server: eeh110.internetdsl.tpnet.pl,PL,Europe,Eastern Europe,Poland,Mazovia,,Warsaw
83.12.80.148,4,23,DNS Server: gdc148.internetdsl.tpnet.pl,PL,Europe,Eastern Europe,Poland,Mazovia,,Warsaw
80.52.206.90,4,13,DNS Server: gxa90.internetdsl.tpnet.pl,PL,Europe,Eastern Europe,Poland,Mazovia,,Warsaw
79.98.147.146,4,66,DNS Server: h4F629392.cli.nitronet.pl,PL,Europe,Eastern Europe,Poland,Mazovia,,Warsaw
79.187.45.226,4,8867794,DNS Server: hbt226.internetdsl.tpnet.pl,PL,Europe,Eastern Europe,Poland,Mazovia,,Konstancin-Jeziorna
185.25.219.12,4,3489,DNS Server: host-185-25-219-12.jmdi.pl,PL,Europe,Eastern Europe,Poland,Mazovia,,Warsaw
213.156.100.83,4,8783,DNS Server: host-213.156.100.83.lunet.eu,PL,Europe,Eastern Europe,Poland,Mazovia,,Marki
80.238.124.210,4,-80084,DNS Server: host-80-238-124-210.jmdi.pl,PL,Europe,Eastern Europe,Poland,Mazovia,,Warsaw
85.115.213.70,4,8,DNS Server: host-85-115-213-70.wawtel.pl,PL,Europe,Eastern Europe,Poland,Mazovia,,Warsaw
185.236.109.132,4,14,DNS Server: host185236109-132.telnaptelecom.pl,PL,Europe,Eastern Europe,Poland,Mazovia,,Warsaw
37.130.29.199,4,30,DNS Server: host199.v29.interkam.pl,PL,Europe,Eastern Europe,Poland,Mazovia,,Sochaczew
80.53.94.58,4,38,DNS Server: hq58.internetdsl.tpnet.pl,PL,Europe,Eastern Europe,Poland,Mazovia,,Warsaw
89.250.194.78,4,283551,DNS Server: ip-89-250-194-78.rev.snt.net.pl,PL,Europe,Eastern Europe,Poland,Mazovia,,Warsaw
89.250.197.225,4,8990,DNS Server: ip-89-250-197-225.rev.snt.net.pl,PL,Europe,Eastern Europe,Poland,Mazovia,,Warsaw
89.250.207.69,4,58,DNS Server: ip-89-250-207-69.rev.snt.net.pl,PL,Europe,Eastern Europe,Poland,Mazovia,,Warsaw
217.28.153.27,4,449,DNS Server: m027.c153.petrotel.pl,PL,Europe,Eastern Europe,Poland,Mazovia,,Płock
178.73.51.106,4,51,DNS Server: nat-bem2-106.aster.pl,PL,Europe,Eastern Europe,Poland,Mazovia,,Warsaw
80.72.40.34,4,83,DNS Server: no1.pl,PL,Europe,Eastern Europe,Poland,Mazovia,,Warsaw
95.51.59.114,4,24744,DNS Server: och114.internetdsl.tpnet.pl,PL,Europe,Eastern Europe,Poland,Mazovia,,Warsaw
95.51.74.78,4,1267,DNS Server: ocw78.internetdsl.tpnet.pl,PL,Europe,Eastern Europe,Poland,Mazovia,,Warsaw
46.170.151.42,4,22891744,DNS Server: ovv42.internetdsl.tpnet.pl,PL,Europe,Eastern Europe,Poland,Mazovia,,Warsaw
78.31.150.6,4,1826,DNS Server: PC-150-6.wegrow.domtel.com.pl,PL,Europe,Eastern Europe,Poland,Mazovia,,Węgrów
185.236.96.68,4,295,DNS Server: poczta-podgik.pwz.pl,PL,Europe,Eastern Europe,Poland,Mazovia,,Warsaw
5.185.1.131,4,249,DNS Server: public-gprs694850.centertel.pl,PL,Europe,Eastern Europe,Poland,Mazovia,,Chyliczki
5.185.2.56,4,257,DNS Server: public-gprs695031.centertel.pl,PL,Europe,Eastern Europe,Poland,Mazovia,,Chyliczki
5.185.2.96,4,397,DNS Server: public-gprs695071.centertel.pl,PL,Europe,Eastern Europe,Poland,Mazovia,,Chyliczki
5.185.2.213,4,4680,DNS Server: public-gprs695188.centertel.pl,PL,Europe,Eastern Europe,Poland,Mazovia,,Chyliczki
5.185.10.242,4,10901,DNS Server: public-gprs697265.centertel.pl,PL,Europe,Eastern Europe,Poland,Mazovia,,Chyliczki
5.185.11.50,4,311,DNS Server: public-gprs697329.centertel.pl,PL,Europe,Eastern Europe,Poland,Mazovia,,Chyliczki
5.185.13.35,4,347,DNS Server: public-gprs697826.centertel.pl,PL,Europe,Eastern Europe,Poland,Mazovia,,Chyliczki
5.185.87.174,4,337,DNS Server: public716909.centertel.pl,PL,Europe,Eastern Europe,Poland,Mazovia,,Warsaw
5.185.91.144,4,865138,DNS Server: public717903.centertel.pl,PL,Europe,Eastern Europe,Poland,Mazovia,,Warsaw
5.185.96.232,4,1173,DNS Server: public719271.centertel.pl,PL,Europe,Eastern Europe,Poland,Mazovia,,Warsaw
185.170.35.60,4,-32400671,DNS Server: xt150.35.3C.stansat.pl,PL,Europe,Eastern Europe,Poland,Mazovia,,Ożarów Mazowiecki
185.170.35.69,4,-6915479,DNS Server: xt150.35.45.stansat.pl,PL,Europe,Eastern Europe,Poland,Mazovia,,Ożarów Mazowiecki
83.243.35.132,4,-6881031,DNS Server: xt2384.stansat.pl,PL,Europe,Eastern Europe,Poland,Mazovia,,Ożarów Mazowiecki
83.243.37.53,4,-6921096,DNS Server: xt2535.stansat.pl,PL,Europe,Eastern Europe,Poland,Mazovia,,Ożarów Mazowiecki
5.188.108.129,4,352,DNS Server: yhji13.eecnter.com,PL,Europe,Eastern Europe,Poland,Mazovia,,Warsaw
5.188.108.134,4,238,DNS Server: yhji14.eecnter.com,PL,Europe,Eastern Europe,Poland,Mazovia,,Warsaw
193.222.135.31,4,9,domodi.pl,PL,Europe,Eastern Europe,Poland,Mazovia,,Warsaw
193.222.135.32,4,12,domodi.pl,PL,Europe,Eastern Europe,Poland,Mazovia,,Warsaw
51.68.131.165,4,12,donovan.ie,PL,Europe,Eastern Europe,Poland,Mazovia,,Warsaw
185.36.169.152,4,387,dragmetohell.net,PL,Europe,Eastern Europe,Poland,Mazovia,,Warsaw
195.167.156.219,4,4,drirenaeris.com,PL,Europe,Eastern Europe,Poland,Mazovia,,Warsaw
195.238.187.164,4,7,duw.pl,PL,Europe,Eastern Europe,Poland,Mazovia,,Warsaw
148.81.198.62,4,26,dwutygodnik.com,PL,Europe,Eastern Europe,Poland,Mazovia,,Warsaw
54.37.233.22,4,6,e-gfaop.org,PL,Europe,Eastern Europe,Poland,Mazovia,,Warsaw
185.36.171.17,4,4,e-pisanie-prac.pl,PL,Europe,Eastern Europe,Poland,Mazovia,,Warsaw
91.185.190.165,4,3,e-zikoapteka.pl,PL,Europe,Eastern Europe,Poland,Mazovia,,Warsaw
77.79.248.35,4,-210,easyprofits.com,PL,Europe,Eastern Europe,Poland,Mazovia,,Warsaw
195.78.67.37,4,19,edk.org.pl,PL,Europe,Eastern Europe,Poland,Mazovia,,Warsaw
51.83.250.236,4,10,eer.ru,PL,Europe,Eastern Europe,Poland,Mazovia,,Warsaw
193.222.135.241,4,15,eholiday.pl,PL,Europe,Eastern Europe,Poland,Mazovia,,Warsaw
31.186.83.98,4,49,ekokalendarz.pl,PL,Europe,Eastern Europe,Poland,Mazovia,,Warsaw
51.77.61.197,4,68,elms.pl,PL,Europe,Eastern Europe,Poland,Mazovia,,Warsaw
185.36.171.139,4,4,equishop.com,PL,Europe,Eastern Europe,Poland,Mazovia,,Warsaw
51.83.226.243,4,4,erc20.tech,PL,Europe,Eastern Europe,Poland,Mazovia,,Warsaw
51.68.153.55,4,32,esanok.pl,PL,Europe,Eastern Europe,Poland,Mazovia,,Warsaw
193.222.135.55,4,8,essanews.com,PL,Europe,Eastern Europe,Poland,Mazovia,,Warsaw
217.25.95.121,4,-18,estate-barcelona.com,PL,Europe,Eastern Europe,Poland,Mazovia,,Warsaw
195.78.67.158,4,5,extrem-billiger.de,PL,Europe,Eastern Europe,Poland,Mazovia,,Warsaw
195.78.67.51,4,7,eye.fi,PL,Europe,Eastern Europe,Poland,Mazovia,,Warsaw
185.2.114.164,4,50,fabrykaform.pl,PL,Europe,Eastern Europe,Poland,Mazovia,,Warsaw
91.185.184.232,4,87,fachowcy.pl,PL,Europe,Eastern Europe,Poland,Mazovia,,Warsaw
212.91.27.7,4,101,fantastyka.pl,PL,Europe,Eastern Europe,Poland,Mazovia,,Warsaw
85.194.241.237,4,28,favore.pl,PL,Europe,Eastern Europe,Poland,Mazovia,,Warsaw
77.83.100.44,4,11,fdlx.com,PL,Europe,Eastern Europe,Poland,Mazovia,,Warsaw
217.149.242.212,4,727,filharmonia.pl,PL,Europe,Eastern Europe,Poland,Mazovia,,Warsaw
185.36.169.30,4,-1,fmshop.pl,PL,Europe,Eastern Europe,Poland,Mazovia,,Warsaw
195.78.67.45,4,3,fshoq.com,PL,Europe,Eastern Europe,Poland,Mazovia,,Warsaw
213.189.52.21,4,15,gabident.pl,PL,Europe,Eastern Europe,Poland,Mazovia,,Warsaw
185.36.169.24,4,60,galeria-arsenal.pl,PL,Europe,Eastern Europe,Poland,Mazovia,,Warsaw
51.83.186.18,4,49,gardenspace.pl,PL,Europe,Eastern Europe,Poland,Mazovia,,Warsaw
195.78.66.148,4,2,gclubvip.pro,PL,Europe,Eastern Europe,Poland,Mazovia,,Warsaw
195.238.187.172,4,24,gif.gov.pl,PL,Europe,Eastern Europe,Poland,Mazovia,,Warsaw
51.77.48.9,4,33,gifzona.ru,PL,Europe,Eastern Europe,Poland,Mazovia,,Warsaw
51.68.139.19,4,23,giodo.gov.pl,PL,Europe,Eastern Europe,Poland,Mazovia,,Warsaw
88.220.45.96,4,41,gios.gov.pl,PL,Europe,Eastern Europe,Poland,Mazovia,,Hornówek
185.36.169.113,4,-135,gmaptool.eu,PL,Europe,Eastern Europe,Poland,Mazovia,,Warsaw
193.70.125.122,4,-417346,greinplast.pl,PL,Europe,Eastern Europe,Poland,Mazovia,,Warsaw
195.78.67.70,4,2,gtwmedia.pl,PL,Europe,Eastern Europe,Poland,Mazovia,,Warsaw
195.238.187.169,4,22,gum.gov.pl,PL,Europe,Eastern Europe,Poland,Mazovia,,Warsaw
185.36.169.167,4,8,gwp.pl,PL,Europe,Eastern Europe,Poland,Mazovia,,Warsaw
51.68.139.246,4,0,h16free.com,PL,Europe,Eastern Europe,Poland,Mazovia,,Warsaw
193.222.135.109,4,1,handimania.com,PL,Europe,Eastern Europe,Poland,Mazovia,,Warsaw
195.78.66.152,4,28,harmonick.pl,PL,Europe,Eastern Europe,Poland,Mazovia,,Warsaw
51.68.140.13,4,6,herber.pl,PL,Europe,Eastern Europe,Poland,Mazovia,,Warsaw
193.222.135.51,4,46,homebook.pl,PL,Europe,Eastern Europe,Poland,Mazovia,,Warsaw
146.59.59.82,4,4,hpstone.eu,PL,Europe,Eastern Europe,Poland,Mazovia,,Warsaw
51.83.253.234,4,5,ibles.pl,PL,Europe,Eastern Europe,Poland,Mazovia,,Warsaw
54.37.233.142,4,47,ibud.ua,PL,Europe,Eastern Europe,Poland,Mazovia,,Warsaw
195.78.66.144,4,30,ichf.edu.pl,PL,Europe,Eastern Europe,Poland,Mazovia,,Warsaw
195.78.67.55,4,5,icppc.pl,PL,Europe,Eastern Europe,Poland,Mazovia,,Warsaw
34.116.168.113,4,28,impactcee.com,PL,Europe,Eastern Europe,Poland,Mazovia,,Warsaw
195.78.67.49,4,154,informatyk.edu.pl,PL,Europe,Eastern Europe,Poland,Mazovia,,Warsaw
91.185.185.99,4,31,instaling.pl,PL,Europe,Eastern Europe,Poland,Mazovia,,Warsaw
148.81.199.12,4,112,instytut-teatralny.pl,PL,Europe,Eastern Europe,Poland,Mazovia,,Warsaw
195.187.144.250,4,15,instytutpileckiego.pl,PL,Europe,Eastern Europe,Poland,Mazovia,,Błonie
31.186.86.110,4,4,ispan.pl,PL,Europe,Eastern Europe,Poland,Mazovia,,Warsaw
212.91.26.112,4,-31,istotne.pl,PL,Europe,Eastern Europe,Poland,Mazovia,,Warsaw
195.78.67.19,4,4,jard.pl,PL,Europe,Eastern Europe,Poland,Mazovia,,Warsaw
146.59.68.167,4,9,jim.org,PL,Europe,Eastern Europe,Poland,Mazovia,,Warsaw
51.83.130.180,4,1,jmest.org,PL,Europe,Eastern Europe,Poland,Mazovia,,Warsaw
51.68.155.228,4,3,joyreactor.com,PL,Europe,Eastern Europe,Poland,Mazovia,,Warsaw
193.70.94.47,4,5,joyreactor.ru,PL,Europe,Eastern Europe,Poland,Mazovia,,Warsaw
195.78.66.238,4,3,kariera24.info,PL,Europe,Eastern Europe,Poland,Mazovia,,Warsaw
193.222.135.227,4,1,kazimierzdolny.pl,PL,Europe,Eastern Europe,Poland,Mazovia,,Warsaw
193.239.81.50,4,1096292,kdm.pl,PL,Europe,Eastern Europe,Poland,Mazovia,,Warsaw
51.83.187.59,4,15,klinikabocian.pl,PL,Europe,Eastern Europe,Poland,Mazovia,,Warsaw
195.78.67.142,4,10,knetmich.de,PL,Europe,Eastern Europe,Poland,Mazovia,,Warsaw
91.211.91.38,4,39,knigoland.com.ua,PL,Europe,Eastern Europe,Poland,Mazovia,,
77.83.100.30,4,16,kobieco.edu.pl,PL,Europe,Eastern Europe,Poland,Mazovia,,Warsaw
128.204.218.95,4,132,kolbuszowiak.info,PL,Europe,Eastern Europe,Poland,Mazovia,,Warsaw
79.133.207.101,4,443,kom.pl,PL,Europe,Eastern Europe,Poland,Mazovia,,Warsaw
195.78.67.71,4,4,komissezam.pl,PL,Europe,Eastern Europe,Poland,Mazovia,,Warsaw
80.72.35.35,4,59,kross.pl,PL,Europe,Eastern Europe,Poland,Mazovia,,Warsaw
51.68.141.62,4,6,krystynajanda.pl,PL,Europe,Eastern Europe,Poland,Mazovia,,Warsaw
51.83.140.208,4,9,ksiazka.net.pl,PL,Europe,Eastern Europe,Poland,Mazovia,,Warsaw
195.78.66.103,4,1,ksiegarnialichen.pl,PL,Europe,Eastern Europe,Poland,Mazovia,,Warsaw
217.149.243.232,4,31,ksse.com.pl,PL,Europe,Eastern Europe,Poland,Mazovia,,Warsaw
79.133.195.76,4,2,kzgw.gov.pl,PL,Europe,Eastern Europe,Poland,Mazovia,,Warsaw
146.59.58.170,4,4,lacostejeans.com,PL,Europe,Eastern Europe,Poland,Mazovia,,Warsaw
85.232.224.166,4,30,lasy.gov.pl,PL,Europe,Eastern Europe,Poland,Mazovia,,Warsaw
128.204.223.62,4,20,laweta-pomoc-drogowa-holowanie.pl,PL,Europe,Eastern Europe,Poland,Mazovia,,Warsaw
94.75.84.94,4,12,lazienki-krolewskie.pl,PL,Europe,Eastern Europe,Poland,Mazovia,,Warsaw
195.78.67.69,4,4,leba-atrakcje.pl,PL,Europe,Eastern Europe,Poland,Mazovia,,Warsaw
195.78.66.137,4,58,legannieruchomosci.pl,PL,Europe,Eastern Europe,Poland,Mazovia,,Warsaw
195.78.66.161,4,33,liceum-lipusz.pl,PL,Europe,Eastern Europe,Poland,Mazovia,,Warsaw
195.78.67.11,4,1,liive.de,PL,Europe,Eastern Europe,Poland,Mazovia,,Warsaw
195.94.213.153,4,15,lotnictwo.net.pl,PL,Europe,Eastern Europe,Poland,Mazovia,,Grodzisk Mazowiecki
195.78.66.96,4,1,lubartow.pl,PL,Europe,Eastern Europe,Poland,Mazovia,,Warsaw
85.194.246.19,4,3,majsterkowo.pl,PL,Europe,Eastern Europe,Poland,Mazovia,,Warsaw
79.137.71.72,4,43,mass-online.org,PL,Europe,Eastern Europe,Poland,Mazovia,,Warsaw
195.78.67.60,4,20,mazowia.eu,PL,Europe,Eastern Europe,Poland,Mazovia,,Warsaw
195.78.67.36,4,27,medicom.pl,PL,Europe,Eastern Europe,Poland,Mazovia,,Warsaw
91.214.126.235,4,15,megogo.net,PL,Europe,Eastern Europe,Poland,Mazovia,,Warsaw
91.214.126.236,4,12,megogo.net,PL,Europe,Eastern Europe,Poland,Mazovia,,Warsaw
91.214.126.239,4,6,megogo.net,PL,Europe,Eastern Europe,Poland,Mazovia,,Warsaw
91.214.126.237,4,4,megogo.net,PL,Europe,Eastern Europe,Poland,Mazovia,,Warsaw
91.214.126.238,4,4,megogo.net,PL,Europe,Eastern Europe,Poland,Mazovia,,Warsaw
91.214.126.234,4,8,megogo.net,PL,Europe,Eastern Europe,Poland,Mazovia,,Warsaw
212.91.26.8,4,64,meteomodel.pl,PL,Europe,Eastern Europe,Poland,Mazovia,,Warsaw
213.189.55.209,4,4,mgsm.pl,PL,Europe,Eastern Europe,Poland,Mazovia,,Warsaw
195.238.187.173,4,79,mimowszystko.org,PL,Europe,Eastern Europe,Poland,Mazovia,,Warsaw
85.194.241.79,4,65,mirrari.pl,PL,Europe,Eastern Europe,Poland,Mazovia,,Warsaw
195.78.66.230,4,2,moman.pl,PL,Europe,Eastern Europe,Poland,Mazovia,,Warsaw
80.72.38.18,4,-139,mosquito-sklep.pl,PL,Europe,Eastern Europe,Poland,Mazovia,,Warsaw
195.78.66.13,4,2,moto-fan.pl,PL,Europe,Eastern Europe,Poland,Mazovia,,Warsaw
195.78.67.48,4,26,motoalbum.pl,PL,Europe,Eastern Europe,Poland,Mazovia,,Warsaw
51.83.250.1,4,3,mp3store.pl,PL,Europe,Eastern Europe,Poland,Mazovia,,Warsaw
77.79.227.183,4,-13,mpolska24.pl,PL,Europe,Eastern Europe,Poland,Mazovia,,Warsaw
195.78.66.78,4,2,mtpkormoran.pl,PL,Europe,Eastern Europe,Poland,Mazovia,,Warsaw
51.77.53.201,4,2,music.lt,PL,Europe,Eastern Europe,Poland,Mazovia,,Warsaw
51.68.154.102,4,25,myneta.info,PL,Europe,Eastern Europe,Poland,Mazovia,,Warsaw
137.74.1.205,4,75,myneta.info,PL,Europe,Eastern Europe,Poland,Mazovia,,Warsaw
54.38.137.220,4,17,myphone.pl,PL,Europe,Eastern Europe,Poland,Mazovia,,Warsaw
51.77.48.11,4,23,mysekret.ru,PL,Europe,Eastern Europe,Poland,Mazovia,,Warsaw
5.196.42.180,4,885,myslepozytywnie.pl,PL,Europe,Eastern Europe,Poland,Mazovia,,Warsaw
51.83.236.14,4,25,mysticfestival.pl,PL,Europe,Eastern Europe,Poland,Mazovia,,Warsaw
195.78.67.52,4,5,nailtrends.pl,PL,Europe,Eastern Europe,Poland,Mazovia,,Warsaw
91.185.185.178,4,233,naturaparkopoczno.pl,PL,Europe,Eastern Europe,Poland,Mazovia,,Warsaw
195.78.67.28,4,2,nautilus.net.pl,PL,Europe,Eastern Europe,Poland,Mazovia,,Warsaw
37.235.48.193,4,-58722,neteasy.pl,PL,Europe,Eastern Europe,Poland,Mazovia,,Warsaw
195.167.159.36,4,80,netmark.pl,PL,Europe,Eastern Europe,Poland,Mazovia,,Warsaw
217.17.41.147,4,2,netstrefa.pl,PL,Europe,Eastern Europe,Poland,Mazovia,,Warsaw
51.83.186.221,4,1,neuronwriter.com,PL,Europe,Eastern Europe,Poland,Mazovia,,Warsaw
195.78.66.39,4,2,neweasterneurope.eu,PL,Europe,Eastern Europe,Poland,Mazovia,,Warsaw
149.86.225.22,4,13244,newsnationuk.com,PL,Europe,Eastern Europe,Poland,Mazovia,,Warsaw
195.78.66.214,4,3,newsy.co.pl,PL,Europe,Eastern Europe,Poland,Mazovia,,Warsaw
148.81.200.236,4,-30251,nifc.pl,PL,Europe,Eastern Europe,Poland,Mazovia,,Warsaw
137.74.9.155,4,3,nlnv.de,PL,Europe,Eastern Europe,Poland,Mazovia,,Warsaw
193.222.135.61,4,19,nocowanie.pl,PL,Europe,Eastern Europe,Poland,Mazovia,,Warsaw
91.185.190.190,4,-5,notodo.pl,PL,Europe,Eastern Europe,Poland,Mazovia,,Warsaw
31.186.82.193,4,4,nstrefa.pl,PL,Europe,Eastern Europe,Poland,Mazovia,,Warsaw
195.78.66.143,4,36,numizmatyka24.pl,PL,Europe,Eastern Europe,Poland,Mazovia,,Warsaw
195.78.66.120,4,15,odermatol.com,PL,Europe,Eastern Europe,Poland,Mazovia,,Warsaw
51.77.44.99,4,41,of.pl,PL,Europe,Eastern Europe,Poland,Mazovia,,Warsaw
91.185.187.159,4,40,ogloszenia24m.pl,PL,Europe,Eastern Europe,Poland,Mazovia,,Warsaw
193.0.96.218,4,4,oi.edu.pl,PL,Europe,Eastern Europe,Poland,Mazovia,,Warsaw
185.36.169.158,4,36,ojcow.pl,PL,Europe,Eastern Europe,Poland,Mazovia,,Warsaw
213.189.54.98,4,168,okwritemyessay.com,PL,Europe,Eastern Europe,Poland,Mazovia,,Warsaw
185.234.208.23,4,3,Ookla Speedtest Server 15940: speedtest.toneticgroup.pl,PL,Europe,Eastern Europe,Poland,Mazovia,,Kobyłka
213.189.53.91,4,164,Ookla Speedtest Server 16566: waw-speedtest.zedware-neoftt.us.kg,PL,Europe,Eastern Europe,Poland,Mazovia,,Warsaw
93.95.119.10,4,225,Ookla Speedtest Server 16567: speedtest.summerhosting.pl,PL,Europe,Eastern Europe,Poland,Mazovia,,Warsaw
80.51.20.253,4,254,Ookla Speedtest Server 21112: speedtest.pgnet.com.pl,PL,Europe,Eastern Europe,Poland,Mazovia,,Legionowo
109.233.89.131,4,-3406485,Ookla Speedtest Server 21615: speedtest.jmdi.pl,PL,Europe,Eastern Europe,Poland,Mazovia,,Warsaw
217.17.34.130,4,246,Ookla Speedtest Server 21679: speedtest-ng.atman.pl,PL,Europe,Eastern Europe,Poland,Mazovia,,Warsaw
194.140.250.34,4,239716,Ookla Speedtest Server 40981: plj.pl,PL,Europe,Eastern Europe,Poland,Mazovia,,Nadarzyn
91.198.56.130,4,387,Ookla Speedtest Server 57725: speedtestookla.bluekom.pl,PL,Europe,Eastern Europe,Poland,Mazovia,,Nasielsk
37.109.21.164,4,289,Ookla Speedtest Server 60317: speedtestooklabal1.plus.pl,PL,Europe,Eastern Europe,Poland,Mazovia,,Piaseczno
37.109.21.172,4,326,Ookla Speedtest Server 60355: speedtestooklagro1.plus.pl,PL,Europe,Eastern Europe,Poland,Mazovia,,Piaseczno
37.109.21.180,4,269,Ookla Speedtest Server 60356: speedtestooklapoz1.plus.pl,PL,Europe,Eastern Europe,Poland,Mazovia,,Piaseczno
212.180.141.130,4,310,Ookla Speedtest Server 61843: smtest.supermedia.pl,PL,Europe,Eastern Europe,Poland,Mazovia,,Warsaw
193.222.135.72,4,-1,open.fm,PL,Europe,Eastern Europe,Poland,Mazovia,,Warsaw
51.83.237.109,4,65,optyczne.pl,PL,Europe,Eastern Europe,Poland,Mazovia,,Ożarów Mazowiecki
80.72.42.237,4,178861,orpeg.pl,PL,Europe,Eastern Europe,Poland,Mazovia,,Warsaw
85.232.224.172,4,18,paih.gov.pl,PL,Europe,Eastern Europe,Poland,Mazovia,,Warsaw
217.149.243.229,4,71,paiz.gov.pl,PL,Europe,Eastern Europe,Poland,Mazovia,,Warsaw
91.185.187.181,4,46,pamiec-nadzieja.org.pl,PL,Europe,Eastern Europe,Poland,Mazovia,,Warsaw
51.68.155.201,4,4,panoptykon.org,PL,Europe,Eastern Europe,Poland,Mazovia,,Warsaw
195.78.67.32,4,50,parafia-tumlin.pl,PL,Europe,Eastern Europe,Poland,Mazovia,,Warsaw
195.78.67.13,4,44,pasja-informatyki.pl,PL,Europe,Eastern Europe,Poland,Mazovia,,Warsaw
31.186.86.51,4,4,pbpkrosno.com,PL,Europe,Eastern Europe,Poland,Mazovia,,Warsaw
31.186.83.249,4,301,pccentre.pl,PL,Europe,Eastern Europe,Poland,Mazovia,,Warsaw
51.83.133.217,4,42,perfekt-dom.pl,PL,Europe,Eastern Europe,Poland,Mazovia,,Warsaw
195.78.67.75,4,4,pewnybiznes.info,PL,Europe,Eastern Europe,Poland,Mazovia,,Warsaw
195.78.67.72,4,34,phcomputer.pl,PL,Europe,Eastern Europe,Poland,Mazovia,,Warsaw
51.77.50.234,4,39,pikio.pl,PL,Europe,Eastern Europe,Poland,Mazovia,,Warsaw
137.74.0.66,4,4,piotrskarga.pl,PL,Europe,Eastern Europe,Poland,Mazovia,,Warsaw
77.79.220.125,4,39,pkspolonus.pl,PL,Europe,Eastern Europe,Poland,Mazovia,,Warsaw
185.2.115.175,4,21,playgwent.com,PL,Europe,Eastern Europe,Poland,Mazovia,,Warsaw
77.83.100.33,4,5,playway.com,PL,Europe,Eastern Europe,Poland,Mazovia,,Warsaw
217.28.146.25,4,0,plocman.com,PL,Europe,Eastern Europe,Poland,Mazovia,,Płock
54.38.137.109,4,12,plp7.ru,PL,Europe,Eastern Europe,Poland,Mazovia,,Warsaw
91.185.185.211,4,30,pmm.org.pl,PL,Europe,Eastern Europe,Poland,Mazovia,,Warsaw
85.194.244.127,4,14,pociagdokariery.pl,PL,Europe,Eastern Europe,Poland,Mazovia,,Warsaw
51.68.154.152,4,70,poddebiczak.pl,PL,Europe,Eastern Europe,Poland,Mazovia,,Warsaw
195.117.15.33,4,32,pol.social,PL,Europe,Eastern Europe,Poland,Mazovia,,Radziejowice
195.78.66.45,4,29,polskapraca.info,PL,Europe,Eastern Europe,Poland,Mazovia,,Warsaw
195.78.67.17,4,14,polskibiznes.info,PL,Europe,Eastern Europe,Poland,Mazovia,,Warsaw
195.78.67.188,4,34,polskibiznes24.pl,PL,Europe,Eastern Europe,Poland,Mazovia,,Warsaw
51.83.236.90,4,13,porsche.pl,PL,Europe,Eastern Europe,Poland,Mazovia,,Warsaw
185.122.139.101,4,4,portalsamorzadowy.pl,PL,Europe,Eastern Europe,Poland,Mazovia,,Miasto Ogród Komorów
51.77.42.18,4,21,portel.pl,PL,Europe,Eastern Europe,Poland,Mazovia,,Warsaw
195.78.67.217,4,20,praca-biznes.pl,PL,Europe,Eastern Europe,Poland,Mazovia,,Warsaw
217.149.249.40,4,2,praca.pl,PL,Europe,Eastern Europe,Poland,Mazovia,,Warsaw
195.78.66.18,4,67,primasort.catering,PL,Europe,Eastern Europe,Poland,Mazovia,,Warsaw
51.77.59.94,4,70,projectmind.pl,PL,Europe,Eastern Europe,Poland,Mazovia,,Warsaw
77.79.251.51,4,62,prolifter.pl,PL,Europe,Eastern Europe,Poland,Mazovia,,Warsaw
137.74.5.134,4,15,promocja-hotelu.pl,PL,Europe,Eastern Europe,Poland,Mazovia,,Warsaw
195.78.67.30,4,8,psew.pl,PL,Europe,Eastern Europe,Poland,Mazovia,,Warsaw
31.186.83.239,4,36,psychologia.edu.pl,PL,Europe,Eastern Europe,Poland,Mazovia,,Warsaw
212.87.9.84,4,104,psychologia.pl,PL,Europe,Eastern Europe,Poland,Mazovia,,Warsaw
31.186.81.235,4,66,publisherspanel.com,PL,Europe,Eastern Europe,Poland,Mazovia,,Warsaw
185.151.244.131,4,7,puzkarapuz.ru,PL,Europe,Eastern Europe,Poland,Mazovia,,Warsaw
213.189.58.107,4,4,qpony.pl,PL,Europe,Eastern Europe,Poland,Mazovia,,Warsaw
217.182.74.155,4,3,quarticon.com,PL,Europe,Eastern Europe,Poland,Mazovia,,Warsaw
87.204.82.166,4,14,qubushotel.com,PL,Europe,Eastern Europe,Poland,Mazovia,,Grodzisk Mazowiecki
193.0.79.160,4,-18,radiokampus.fm,PL,Europe,Eastern Europe,Poland,Mazovia,,Warsaw
146.59.54.56,4,109,radioszczecin.pl,PL,Europe,Eastern Europe,Poland,Mazovia,,Warsaw
51.68.142.34,4,41,radnik.pl,PL,Europe,Eastern Europe,Poland,Mazovia,,Warsaw
128.204.218.193,4,-12,reedukacja.com.pl,PL,Europe,Eastern Europe,Poland,Mazovia,,Warsaw
195.78.67.15,4,48,regranulaty24.pl,PL,Europe,Eastern Europe,Poland,Mazovia,,Warsaw
31.186.86.189,4,33,reha-dom.pl,PL,Europe,Eastern Europe,Poland,Mazovia,,Warsaw
176.107.131.88,4,15,rio2013.com,PL,Europe,Eastern Europe,Poland,Mazovia,,Warsaw
213.189.56.206,4,45,rk.edu.pl,PL,Europe,Eastern Europe,Poland,Mazovia,,Warsaw
51.83.131.175,4,17,rockmetal.pl,PL,Europe,Eastern Europe,Poland,Mazovia,,Warsaw
94.75.85.110,4,51,rockserwis.pl,PL,Europe,Eastern Europe,Poland,Mazovia,,Warsaw
51.83.253.211,4,31,roomadmin.pl,PL,Europe,Eastern Europe,Poland,Mazovia,,Warsaw
77.79.239.202,4,765,royalchemicals.com,PL,Europe,Eastern Europe,Poland,Mazovia,,Warsaw
51.77.33.10,4,2,russhanson.org,PL,Europe,Eastern Europe,Poland,Mazovia,,Warsaw
195.78.66.233,4,2,rynek-ksiazki.pl,PL,Europe,Eastern Europe,Poland,Mazovia,,Warsaw
51.77.44.234,4,2,sadyogrody.pl,PL,Europe,Eastern Europe,Poland,Mazovia,,Warsaw
79.133.204.230,4,18,savemaxint.com,PL,Europe,Eastern Europe,Poland,Mazovia,,Warsaw
51.68.156.78,4,11,securitum.com,PL,Europe,Eastern Europe,Poland,Mazovia,,Warsaw
51.68.154.150,4,10,sekurak.pl,PL,Europe,Eastern Europe,Poland,Mazovia,,Warsaw
91.185.190.109,4,24,sendspace.pl,PL,Europe,Eastern Europe,Poland,Mazovia,,Warsaw
31.186.83.240,4,-134,senga.pl,PL,Europe,Eastern Europe,Poland,Mazovia,,Warsaw
79.133.196.125,4,17,senior.gov.pl,PL,Europe,Eastern Europe,Poland,Mazovia,,Warsaw
128.204.218.63,4,38,serv00.com,PL,Europe,Eastern Europe,Poland,Mazovia,,Warsaw
128.204.218.48,4,41,serv00.net,PL,Europe,Eastern Europe,Poland,Mazovia,,Warsaw
212.91.26.216,4,20,sfora.pl,PL,Europe,Eastern Europe,Poland,Mazovia,,Warsaw
85.194.245.87,4,4,sieciaki.pl,PL,Europe,Eastern Europe,Poland,Mazovia,,Warsaw
195.78.67.29,4,3,sieradzki.pl,PL,Europe,Eastern Europe,Poland,Mazovia,,Warsaw
51.68.154.221,4,44,sistani.org,PL,Europe,Eastern Europe,Poland,Mazovia,,Warsaw
195.78.66.60,4,18,sklep-biustonosze.pl,PL,Europe,Eastern Europe,Poland,Mazovia,,Warsaw
51.77.43.65,4,3,skyclinic.pl,PL,Europe,Eastern Europe,Poland,Mazovia,,Warsaw
195.78.67.31,4,5,slezanie.eu,PL,Europe,Eastern Europe,Poland,Mazovia,,Warsaw
195.78.67.12,4,1,slupca.pl,PL,Europe,Eastern Europe,Poland,Mazovia,,Warsaw
195.78.67.27,4,19,smartage.pl,PL,Europe,Eastern Europe,Poland,Mazovia,,Warsaw
212.180.245.165,4,-119,smcloud.net,PL,Europe,Eastern Europe,Poland,Mazovia,,Warsaw
77.83.100.7,4,38,solargaps.com,PL,Europe,Eastern Europe,Poland,Mazovia,,Warsaw
51.77.54.95,4,6,southbaltic.eu,PL,Europe,Eastern Europe,Poland,Mazovia,,Warsaw
51.77.46.160,4,12,speedtest.pl,PL,Europe,Eastern Europe,Poland,Mazovia,,Warsaw
51.77.43.111,4,58,speedwaynews.pl,PL,Europe,Eastern Europe,Poland,Mazovia,,Warsaw
151.115.33.143,4,25,sport24.by,PL,Europe,Eastern Europe,Poland,Mazovia,,Warsaw
195.78.66.124,4,28,statscore.com,PL,Europe,Eastern Europe,Poland,Mazovia,,Warsaw
34.116.137.133,4,23,stethome.com,PL,Europe,Eastern Europe,Poland,Mazovia,,Warsaw
31.186.82.144,4,68,studio-blaszczyk.pl,PL,Europe,Eastern Europe,Poland,Mazovia,,Warsaw
195.78.67.40,4,12,studioesflores.pl,PL,Europe,Eastern Europe,Poland,Mazovia,,Warsaw
51.77.35.115,4,10,sumuun.net,PL,Europe,Eastern Europe,Poland,Mazovia,,Warsaw
51.68.146.57,4,9,sunrisesystem.pl,PL,Europe,Eastern Europe,Poland,Mazovia,,Warsaw
51.68.147.58,4,1,superszkolna.pl,PL,Europe,Eastern Europe,Poland,Mazovia,,Warsaw
51.77.42.79,4,4,svforum.pl,PL,Europe,Eastern Europe,Poland,Mazovia,,Warsaw
109.125.199.37,4,203627,swiatkoni.pl,PL,Europe,Eastern Europe,Poland,Mazovia,,Siedlce
85.194.241.193,4,183,swidnik.edu.pl,PL,Europe,Eastern Europe,Poland,Mazovia,,Warsaw
195.78.67.65,4,5,synapse.network,PL,Europe,Eastern Europe,Poland,Mazovia,,Warsaw
77.79.233.41,4,10,syskonf.pl,PL,Europe,Eastern Europe,Poland,Mazovia,,Warsaw
195.78.67.16,4,3,szkolna.net,PL,Europe,Eastern Europe,Poland,Mazovia,,Warsaw
195.78.67.206,4,8,ta-praca.pl,PL,Europe,Eastern Europe,Poland,Mazovia,,Warsaw
37.120.211.50,4,4,taniya.info,PL,Europe,Eastern Europe,Poland,Mazovia,,Warsaw
85.194.240.219,4,5,targeo.pl,PL,Europe,Eastern Europe,Poland,Mazovia,,Warsaw
212.91.26.158,4,354,tawerna-gothic.pl,PL,Europe,Eastern Europe,Poland,Mazovia,,Warsaw
212.91.26.80,4,21,tcup.pl,PL,Europe,Eastern Europe,Poland,Mazovia,,Warsaw
85.194.246.71,4,-14,teatrstudio.pl,PL,Europe,Eastern Europe,Poland,Mazovia,,Warsaw
195.78.67.57,4,10,techpolska.pl,PL,Europe,Eastern Europe,Poland,Mazovia,,Warsaw
77.83.100.124,4,4,telegraf.design,PL,Europe,Eastern Europe,Poland,Mazovia,,Warsaw
51.77.33.204,4,62,telewizjarepublika.pl,PL,Europe,Eastern Europe,Poland,Mazovia,,Warsaw
185.36.169.2,4,80,tesorimoda.com,PL,Europe,Eastern Europe,Poland,Mazovia,,Warsaw
51.83.249.158,4,33,thedailynewsegypt.com,PL,Europe,Eastern Europe,Poland,Mazovia,,Warsaw
195.78.67.38,4,3,timekeeper.pl,PL,Europe,Eastern Europe,Poland,Mazovia,,Warsaw
128.204.218.69,4,2,tmwip-chelm.org.pl,PL,Europe,Eastern Europe,Poland,Mazovia,,Warsaw
51.83.131.20,4,5,totalcasinobonus.pl,PL,Europe,Eastern Europe,Poland,Mazovia,,Warsaw
212.91.27.39,4,5,totemat.pl,PL,Europe,Eastern Europe,Poland,Mazovia,,Warsaw
77.79.248.141,4,44,tourmedica.pl,PL,Europe,Eastern Europe,Poland,Mazovia,,Warsaw
51.77.42.91,4,8,tpn.pl,PL,Europe,Eastern Europe,Poland,Mazovia,,Warsaw
217.17.41.136,4,19,transit-finder.com,PL,Europe,Eastern Europe,Poland,Mazovia,,Warsaw
51.83.128.4,4,1,trurofarmersmarket.co.uk,PL,Europe,Eastern Europe,Poland,Mazovia,,Warsaw
185.36.169.173,4,160,turkisharchaeonews.net,PL,Europe,Eastern Europe,Poland,Mazovia,,Warsaw
195.78.67.41,4,3,tutek.eu,PL,Europe,Eastern Europe,Poland,Mazovia,,Warsaw
195.78.67.66,4,2,tutlo.com,PL,Europe,Eastern Europe,Poland,Mazovia,,Warsaw
54.38.48.212,4,-264085,twinstar.cz,PL,Europe,Eastern Europe,Poland,Mazovia,,Warsaw
85.202.102.13,4,9,tygodniksiedlecki.com,PL,Europe,Eastern Europe,Poland,Mazovia,,Siedlce
195.78.67.39,4,2,ulanspa.pl,PL,Europe,Eastern Europe,Poland,Mazovia,,Warsaw
195.238.187.168,4,7,ure.gov.pl,PL,Europe,Eastern Europe,Poland,Mazovia,,Warsaw
77.79.248.122,4,25,vader.pl,PL,Europe,Eastern Europe,Poland,Mazovia,,Warsaw
195.78.66.109,4,38,veritas-opieka.pl,PL,Europe,Eastern Europe,Poland,Mazovia,,Warsaw
137.74.9.221,4,17,vfeditions.com,PL,Europe,Eastern Europe,Poland,Mazovia,,Warsaw
51.83.225.23,4,7,vin-info.com,PL,Europe,Eastern Europe,Poland,Mazovia,,Warsaw
51.83.225.62,4,4,vindecoder.pl,PL,Europe,Eastern Europe,Poland,Mazovia,,Warsaw
77.79.239.194,4,817,visitveniceca.com,PL,Europe,Eastern Europe,Poland,Mazovia,,Warsaw
51.83.236.112,4,18,vizz.pl,PL,Europe,Eastern Europe,Poland,Mazovia,,Warsaw
51.77.42.19,4,-7200439,vm-manager.org,PL,Europe,Eastern Europe,Poland,Mazovia,,Warsaw
195.78.67.42,4,5,w-lubelskie.pl,PL,Europe,Eastern Europe,Poland,Mazovia,,Warsaw
195.78.66.201,4,5,wadowice.pl,PL,Europe,Eastern Europe,Poland,Mazovia,,Warsaw
31.186.82.38,4,18,warszawa1939.pl,PL,Europe,Eastern Europe,Poland,Mazovia,,Warsaw
195.78.67.18,4,2,wbdo.pl,PL,Europe,Eastern Europe,Poland,Mazovia,,Warsaw
195.78.66.141,4,4,webbay.pl,PL,Europe,Eastern Europe,Poland,Mazovia,,Warsaw
51.77.48.8,4,4,whoyougle.ru,PL,Europe,Eastern Europe,Poland,Mazovia,,Warsaw
195.78.66.252,4,5,wiktormajak.com.pl,PL,Europe,Eastern Europe,Poland,Mazovia,,Warsaw
195.78.67.67,4,5,wildmoose.pl,PL,Europe,Eastern Europe,Poland,Mazovia,,Warsaw
51.83.217.99,4,2,winrar.pl,PL,Europe,Eastern Europe,Poland,Mazovia,,Warsaw
80.72.42.228,4,10481090,wlaczpolske.pl,PL,Europe,Eastern Europe,Poland,Mazovia,,Warsaw
80.48.69.254,4,3,wlodawa.pl,PL,Europe,Eastern Europe,Poland,Mazovia,,Sokołów Podlaski
51.77.44.236,4,2,wnp.pl,PL,Europe,Eastern Europe,Poland,Mazovia,,Warsaw
51.77.44.235,4,4,wnp.pl,PL,Europe,Eastern Europe,Poland,Mazovia,,Warsaw
195.78.67.64,4,14,woco.pl,PL,Europe,Eastern Europe,Poland,Mazovia,,Warsaw
79.133.195.77,4,1061,wody.gov.pl,PL,Europe,Eastern Europe,Poland,Mazovia,,Warsaw
195.78.67.20,4,4,wojciechnowakowski.com,PL,Europe,Eastern Europe,Poland,Mazovia,,Warsaw
128.204.219.231,4,7,wroclaw-effatha.pl,PL,Europe,Eastern Europe,Poland,Mazovia,,Warsaw
79.133.196.99,4,4,wspierajseniora.pl,PL,Europe,Eastern Europe,Poland,Mazovia,,Warsaw
212.91.26.153,4,-133,wszystkoconajwazniejsze.pl,PL,Europe,Eastern Europe,Poland,Mazovia,,Warsaw
195.78.66.229,4,2,wszystkoociasteczkach.pl,PL,Europe,Eastern Europe,Poland,Mazovia,,Warsaw
51.77.42.12,4,21652,wygodnadieta.pl,PL,Europe,Eastern Europe,Poland,Mazovia,,Warsaw
195.78.67.21,4,3,wynajemautokarow.eu,PL,Europe,Eastern Europe,Poland,Mazovia,,Warsaw
51.83.130.67,4,63,xn--guidetilhndvrk-tibt.dk,PL,Europe,Eastern Europe,Poland,Mazovia,,Warsaw
195.78.66.65,4,13,xn--lenachatka-57b.pl,PL,Europe,Eastern Europe,Poland,Mazovia,,Warsaw
51.83.130.33,4,74,xn--magasinethndvrk-qlbu.dk,PL,Europe,Eastern Europe,Poland,Mazovia,,Warsaw
51.68.137.241,4,24,xn--nthandelsmagasinet-ltb.se,PL,Europe,Eastern Europe,Poland,Mazovia,,Warsaw
51.68.137.237,4,24,xn--pengavrlden-q8a.se,PL,Europe,Eastern Europe,Poland,Mazovia,,Warsaw
51.83.130.68,4,5,xn--rdomhantverkare-hlb.se,PL,Europe,Eastern Europe,Poland,Mazovia,,Warsaw
51.83.128.110,4,4,xn--resaivg-bxa.se,PL,Europe,Eastern Europe,Poland,Mazovia,,Warsaw
51.68.139.134,4,47,xn--sportlskaren-kcb.se,PL,Europe,Eastern Europe,Poland,Mazovia,,Warsaw
51.83.130.32,4,7,xn--underhllochservice-9tb.se,PL,Europe,Eastern Europe,Poland,Mazovia,,Warsaw
51.68.137.239,4,2,xn--webshopfralla-pmb.se,PL,Europe,Eastern Europe,Poland,Mazovia,,Warsaw
77.79.248.195,4,4,youlead.pl,PL,Europe,Eastern Europe,Poland,Mazovia,,Warsaw
195.78.67.50,4,9,zamek-lublin.pl,PL,Europe,Eastern Europe,Poland,Mazovia,,Warsaw
85.194.241.55,4,8,zamekryn.pl,PL,Europe,Eastern Europe,Poland,Mazovia,,Warsaw
195.78.66.236,4,13,zareczeni.com.pl,PL,Europe,Eastern Europe,Poland,Mazovia,,Warsaw
95.48.192.203,4,14,zegluga.com.pl,PL,Europe,Eastern Europe,Poland,Mazovia,,Młynarze
85.194.246.226,4,148,zeus-software.com,PL,Europe,Eastern Europe,Poland,Mazovia,,Warsaw
79.133.196.88,4,3,zlotetarasy.pl,PL,Europe,Eastern Europe,Poland,Mazovia,,Warsaw
212.180.187.182,4,13,zosprp.pl,PL,Europe,Eastern Europe,Poland,Mazovia,,Warsaw
195.78.66.4,4,2,zpaf.pl,PL,Europe,Eastern Europe,Poland,Mazovia,,Warsaw
83.238.107.112,4,-856,zpav.pl,PL,Europe,Eastern Europe,Poland,Mazovia,,Warsaw
128.204.218.97,4,3,zpodworkanastadion.pl,PL,Europe,Eastern Europe,Poland,Mazovia,,Warsaw
128.204.216.206,4,-6,zwrotnikraka.pl,PL,Europe,Eastern Europe,Poland,Mazovia,,Warsaw
