reflector_ip,ip_version,offset,description,country_code,region,sub_region,country_name,sub_division_1,sub_division_2,city
210.245.83.199,4,4451,36phophuong.vn,VN,Asia,South-eastern Asia,Viet Nam,Hà Nam Province,,
210.245.89.4,4,-160128,antt.vn,VN,Asia,South-eastern Asia,Viet Nam,Hà Nam Province,,
210.245.90.247,4,10,ark-usa.com.vn,VN,Asia,South-eastern Asia,Viet Nam,Hà Nam Province,,
210.245.90.205,4,-94,congnghebitcoin.com,VN,Asia,South-eastern Asia,Viet Nam,Hà Nam Province,,
210.245.90.209,4,1267,congtynhacviet.com,VN,Asia,South-eastern Asia,Viet Nam,Hà Nam Province,,
210.245.125.87,4,19,haravan.com,VN,Asia,South-eastern Asia,Viet Nam,Hà Nam Province,,
210.245.86.43,4,11,heco.vn,VN,Asia,South-eastern Asia,Viet Nam,Hà Nam Province,,
210.245.90.203,4,609,hiephoisango.vn,VN,Asia,South-eastern Asia,Viet Nam,Hà Nam Province,,
210.245.90.250,4,-9,hoanghunglaw.vn,VN,Asia,South-eastern Asia,Viet Nam,Hà Nam Province,,
210.245.90.230,4,196903,huongnghiepaau.com,VN,Asia,South-eastern Asia,Viet Nam,Hà Nam Province,,
210.245.89.9,4,-580343,infomoney.vn,VN,Asia,South-eastern Asia,Viet Nam,Hà Nam Province,,
210.245.90.231,4,-7,khogiare.com,VN,Asia,South-eastern Asia,Viet Nam,Hà Nam Province,,
210.245.90.222,4,1222,nhagiaobuibachlien.net,VN,Asia,South-eastern Asia,Viet Nam,Hà Nam Province,,
210.245.125.93,4,17,thecoffeehouse.com,VN,Asia,South-eastern Asia,Viet Nam,Hà Nam Province,,
210.245.86.52,4,7,thuthuymosaic.vn,VN,Asia,South-eastern Asia,Viet Nam,Hà Nam Province,,
210.245.83.196,4,4361,thuvienbachkhoa.net,VN,Asia,South-eastern Asia,Viet Nam,Hà Nam Province,,
210.245.86.87,4,13,tienhung.com.vn,VN,Asia,South-eastern Asia,Viet Nam,Hà Nam Province,,
210.245.108.215,4,-50131898,timviec365.vn,VN,Asia,South-eastern Asia,Viet Nam,Hà Nam Province,,
210.245.124.163,4,5983236,todaytv.vn,VN,Asia,South-eastern Asia,Viet Nam,Hà Nam Province,,
210.245.89.79,4,3,trathaoduoctruongxuan.com,VN,Asia,South-eastern Asia,Viet Nam,Hà Nam Province,,
210.245.120.107,4,1,urekamedia.com,VN,Asia,South-eastern Asia,Viet Nam,Hà Nam Province,,
210.245.86.62,4,13975,varans.vn,VN,Asia,South-eastern Asia,Viet Nam,Hà Nam Province,,
210.245.94.130,4,-21079,vmms.vn,VN,Asia,South-eastern Asia,Viet Nam,Hà Nam Province,,
210.245.87.117,4,-586,vnav.vn,VN,Asia,South-eastern Asia,Viet Nam,Hà Nam Province,,
