reflector_ip,ip_version,offset,description,country_code,region,sub_region,country_name,sub_division_1,sub_division_2,city
150.107.31.55,4,330,14apartment.com,TH,Asia,South-eastern Asia,Thailand,Rayong,,Rayong
150.107.31.77,4,5,2bfox.com,TH,Asia,South-eastern Asia,Thailand,Rayong,,Rayong
150.107.31.69,4,1329,all-final.com,TH,Asia,South-eastern Asia,Thailand,Rayong,,Rayong
150.107.31.40,4,175,appservnetwork.com,TH,Asia,South-eastern Asia,Thailand,Rayong,,Rayong
150.107.30.20,4,556625,dungdong.com,TH,Asia,South-eastern Asia,Thailand,Rayong,,Rayong
150.107.31.41,4,173,edupark.co.th,TH,Asia,South-eastern Asia,Thailand,Rayong,,Rayong
150.107.31.73,4,1889,jplanet.co.th,TH,Asia,South-eastern Asia,Thailand,Rayong,,Rayong
150.107.31.74,4,1339,mugendaibkk.com,TH,Asia,South-eastern Asia,Thailand,Rayong,,Rayong
150.107.31.57,4,356,patrweb.com,TH,Asia,South-eastern Asia,Thailand,Rayong,,Rayong
150.107.31.45,4,1518,phuket-fantasea.com,TH,Asia,South-eastern Asia,Thailand,Rayong,,Rayong
150.107.31.64,4,677,ricemill.co.th,TH,Asia,South-eastern Asia,Thailand,Rayong,,Rayong
150.107.31.43,4,44,samuiluxurytravel.com,TH,Asia,South-eastern Asia,Thailand,Rayong,,Rayong
150.107.31.75,4,7,sinmag.co.th,TH,Asia,South-eastern Asia,Thailand,Rayong,,Rayong
150.107.31.65,4,681,tantusmarina.com,TH,Asia,South-eastern Asia,Thailand,Rayong,,Rayong
150.107.31.62,4,872,thaiappraisal.org,TH,Asia,South-eastern Asia,Thailand,Rayong,,Rayong
150.107.31.66,4,83,thep2train.com,TH,Asia,South-eastern Asia,Thailand,Rayong,,Rayong
150.107.28.18,4,-88,xn--22cap5dwcq3d9ac1l0f.com,TH,Asia,South-eastern Asia,Thailand,Rayong,,Rayong
150.107.31.60,4,-124,xn--72cf6ad2ded3e7dtb3ewb5df.com,TH,Asia,South-eastern Asia,Thailand,Rayong,,Rayong
150.107.31.48,4,2507,zukzon.com,TH,Asia,South-eastern Asia,Thailand,Rayong,,Rayong
