reflector_ip,ip_version,offset,description,country_code,region,sub_region,country_name,sub_division_1,sub_division_2,city
207.244.247.117,4,9,24x7wpsupport.com,US,Americas,Northern America,United States of America,Missouri,,St Louis
144.126.133.208,4,6,5xue.com,US,Americas,Northern America,United States of America,Missouri,,St Louis
5.57.213.7,4,1,actioninvestornetwork.com,US,Americas,Northern America,United States of America,Missouri,,St Louis
209.145.56.42,4,58,agreenhand.com,US,Americas,Northern America,United States of America,Missouri,,St Louis
207.244.252.79,4,47,alakmalak.com,US,Americas,Northern America,United States of America,Missouri,,St Louis
148.72.171.20,4,66,allvipp.com,US,Americas,Northern America,United States of America,Missouri,,St Louis
154.38.167.134,4,7,anime-baka.com,US,Americas,Northern America,United States of America,Missouri,,St Louis
69.64.32.89,4,11,animeblogger.net,US,Americas,Northern America,United States of America,Missouri,,St Louis
148.72.144.226,4,21,anthrowiki.at,US,Americas,Northern America,United States of America,Missouri,,St Louis
209.126.100.169,4,258,archidose.org,US,Americas,Northern America,United States of America,Missouri,,St Louis
154.53.44.148,4,48,ardorseo.com,US,Americas,Northern America,United States of America,Missouri,,St Louis
207.244.229.14,4,4,ask-aladdin.com,US,Americas,Northern America,United States of America,Missouri,,St Louis
140.150.219.107,4,75,aussieearners.com,US,Americas,Northern America,United States of America,Missouri,,St Louis
213.109.149.33,4,6,bamboo.org,US,Americas,Northern America,United States of America,Missouri,,St Louis
154.38.163.57,4,28,barkingcrab.com,US,Americas,Northern America,United States of America,Missouri,,St Louis
207.244.245.143,4,33,biasly.com,US,Americas,Northern America,United States of America,Missouri,,St Louis
148.72.155.234,4,41,biblia.work,US,Americas,Northern America,United States of America,Missouri,,St Louis
207.244.246.91,4,9,blacksnetwork.net,US,Americas,Northern America,United States of America,Missouri,,St Louis
209.126.123.12,4,15,blgospot.com,US,Americas,Northern America,United States of America,Missouri,,St Louis
140.150.219.104,4,70,bluecorkscrew.com,US,Americas,Northern America,United States of America,Missouri,,St Louis
207.244.249.74,4,-12,bluehillfarm.com,US,Americas,Northern America,United States of America,Missouri,,St Louis
5.180.151.108,4,14,buddymantra.com,US,Americas,Northern America,United States of America,Missouri,,St Louis
207.244.236.227,4,4,buzops.com,US,Americas,Northern America,United States of America,Missouri,,St Louis
91.205.223.53,4,2139,cambridge.es,US,Americas,Northern America,United States of America,Missouri,,St Louis
173.224.122.241,4,295,cbgbss.com,US,Americas,Northern America,United States of America,Missouri,,St Louis
207.244.253.167,4,4,cebas.com,US,Americas,Northern America,United States of America,Missouri,,St Louis
144.126.154.7,4,20,checksix-online.com,US,Americas,Northern America,United States of America,Missouri,,St Louis
94.72.115.174,4,7,chrysler-factory-warranty.com,US,Americas,Northern America,United States of America,Missouri,,St Louis
62.3.57.187,4,292,cityofbryan.com,US,Americas,Northern America,United States of America,Missouri,,St Louis
154.12.253.239,4,14,ciucuracao.org,US,Americas,Northern America,United States of America,Missouri,,St Louis
207.244.255.94,4,2,cloodo.com,US,Americas,Northern America,United States of America,Missouri,,St Louis
209.145.58.229,4,19,commonedge.org,US,Americas,Northern America,United States of America,Missouri,,St Louis
209.145.51.33,4,3,comunicaffe.it,US,Americas,Northern America,United States of America,Missouri,,St Louis
46.253.135.170,4,627,concordebattery.com,US,Americas,Northern America,United States of America,Missouri,,St Louis
194.238.31.100,4,183,cultureatz.com,US,Americas,Northern America,United States of America,Missouri,,St Louis
69.64.54.143,4,3,curacaochronicle.com,US,Americas,Northern America,United States of America,Missouri,,St Louis
142.214.221.163,4,437,customautotrim.com,US,Americas,Northern America,United States of America,Missouri,,St Louis
154.53.47.80,4,11,delawarecountysheriff.org,US,Americas,Northern America,United States of America,Missouri,,St Louis
213.109.149.67,4,5,demoapus-wp.com,US,Americas,Northern America,United States of America,Missouri,,St Louis
69.64.39.206,4,1,deusquefaz.com.br,US,Americas,Northern America,United States of America,Missouri,,St Louis
209.239.112.24,4,13,digicamhistory.com,US,Americas,Northern America,United States of America,Missouri,,St Louis
50.30.32.5,4,42,digitalsrj.com,US,Americas,Northern America,United States of America,Missouri,,St Louis
24.207.158.251,4,6166,DNS Server: 024-207-158-251.res.spectrum.com,US,Americas,Northern America,United States of America,Missouri,,St Louis
71.10.184.57,4,0,DNS Server: 071-010-184-057.res.spectrum.com,US,Americas,Northern America,United States of America,Missouri,,St Louis
144.253.116.27,4,106,DNS Server: 144-253-116-027.biz.spectrum.com,US,Americas,Northern America,United States of America,Missouri,,St Louis
209.126.119.14,4,46,DNS Server: condor2285.startdedicated.com,US,Americas,Northern America,United States of America,Missouri,,St Louis
144.126.134.7,4,254,DNS Server: vmi1119595.contaboserver.net,US,Americas,Northern America,United States of America,Missouri,,St Louis
209.126.4.187,4,317,DNS Server: vmi371938.contaboserver.net,US,Americas,Northern America,United States of America,Missouri,,St Louis
207.244.247.173,4,291,DNS Server: vmi404757.contaboserver.net,US,Americas,Northern America,United States of America,Missouri,,St Louis
209.126.84.75,4,146,DNS Server: vmi579925.contaboserver.net,US,Americas,Northern America,United States of America,Missouri,,St Louis
207.244.237.221,4,182,DNS Server: vmi901906.contaboserver.net,US,Americas,Northern America,United States of America,Missouri,,St Louis
69.64.58.217,4,0,dns-checker.com,US,Americas,Northern America,United States of America,Missouri,,St Louis
209.145.57.37,4,5,dominustech.xyz,US,Americas,Northern America,United States of America,Missouri,,St Louis
148.72.144.250,4,26,earnvisits.com,US,Americas,Northern America,United States of America,Missouri,,St Louis
154.38.171.230,4,43,easylife.tw,US,Americas,Northern America,United States of America,Missouri,,St Louis
209.126.124.112,4,8,ecardmax.com,US,Americas,Northern America,United States of America,Missouri,,St Louis
62.146.181.147,4,5,educarconamor.com,US,Americas,Northern America,United States of America,Missouri,,St Louis
207.244.252.212,4,18,elcastellano.org,US,Americas,Northern America,United States of America,Missouri,,St Louis
148.72.155.171,4,-145,elheraldodesaltillo.mx,US,Americas,Northern America,United States of America,Missouri,,St Louis
148.72.177.241,4,1,eltiempo.com.ve,US,Americas,Northern America,United States of America,Missouri,,St Louis
207.244.250.158,4,55,envisionsolutionsnow.com,US,Americas,Northern America,United States of America,Missouri,,St Louis
140.150.197.150,4,54542,espaciologopedico.com,US,Americas,Northern America,United States of America,Missouri,,St Louis
209.126.127.59,4,5,fabricadesoftware.mx,US,Americas,Northern America,United States of America,Missouri,,St Louis
144.126.129.174,4,5,faceitsalon.com,US,Americas,Northern America,United States of America,Missouri,,St Louis
207.244.237.41,4,5,facemedstore.com,US,Americas,Northern America,United States of America,Missouri,,St Louis
62.122.191.12,4,10,fallible.com,US,Americas,Northern America,United States of America,Missouri,,St Louis
154.53.46.7,4,29,faxaju.com.br,US,Americas,Northern America,United States of America,Missouri,,St Louis
62.233.38.21,4,8,feministvoices.com,US,Americas,Northern America,United States of America,Missouri,,St Louis
209.145.56.131,4,6,fipr.org,US,Americas,Northern America,United States of America,Missouri,,St Louis
173.224.123.99,4,6,flagonsworkshop.net,US,Americas,Northern America,United States of America,Missouri,,St Louis
148.72.158.95,4,17,frasesypensamientos.com.ar,US,Americas,Northern America,United States of America,Missouri,,St Louis
209.145.62.118,4,43,freeslots99.com,US,Americas,Northern America,United States of America,Missouri,,St Louis
154.53.44.4,4,18,gilbertogil.com.br,US,Americas,Northern America,United States of America,Missouri,,St Louis
209.145.57.14,4,83,gitstar-ranking.com,US,Americas,Northern America,United States of America,Missouri,,St Louis
207.244.243.31,4,10,glimmerconnect.com,US,Americas,Northern America,United States of America,Missouri,,St Louis
109.205.186.8,4,12,goldmenu.com,US,Americas,Northern America,United States of America,Missouri,,St Louis
148.72.158.137,4,18,gotop100.com,US,Americas,Northern America,United States of America,Missouri,,St Louis
77.72.82.20,4,50,gracegems.org,US,Americas,Northern America,United States of America,Missouri,,St Louis
209.126.87.60,4,24,grshah.com,US,Americas,Northern America,United States of America,Missouri,,St Louis
154.12.226.210,4,3,grupoorbe.net,US,Americas,Northern America,United States of America,Missouri,,St Louis
157.173.207.227,4,-2,grupoperuinnova.edu.pe,US,Americas,Northern America,United States of America,Missouri,,St Louis
148.72.155.4,4,-175,hb-studios.com,US,Americas,Northern America,United States of America,Missouri,,St Louis
78.142.243.34,4,236,heavensinspirations.com,US,Americas,Northern America,United States of America,Missouri,,St Louis
91.247.172.154,4,610,heyco.com,US,Americas,Northern America,United States of America,Missouri,,St Louis
144.126.133.179,4,4,hlogc.com,US,Americas,Northern America,United States of America,Missouri,,St Louis
209.145.59.179,4,39,homen.garden,US,Americas,Northern America,United States of America,Missouri,,St Louis
207.38.89.119,4,7,host-tec.net,US,Americas,Northern America,United States of America,Missouri,,St Louis
213.109.149.60,4,7,houdah.com,US,Americas,Northern America,United States of America,Missouri,,St Louis
78.142.243.36,4,1142,hourstimetracking.com,US,Americas,Northern America,United States of America,Missouri,,St Louis
209.126.2.242,4,2,howardhousebnb.com,US,Americas,Northern America,United States of America,Missouri,,St Louis
209.126.124.134,4,16,hunch.net,US,Americas,Northern America,United States of America,Missouri,,St Louis
207.244.224.8,4,18,icefi.org,US,Americas,Northern America,United States of America,Missouri,,St Louis
12.41.228.11,4,171,iistl.org,US,Americas,Northern America,United States of America,Missouri,,St Louis
207.244.255.49,4,5,illustratedteacup.com,US,Americas,Northern America,United States of America,Missouri,,St Louis
213.109.149.9,4,9,imagenex.com,US,Americas,Northern America,United States of America,Missouri,,St Louis
12.41.112.87,4,14,indoff.com,US,Americas,Northern America,United States of America,Missouri,,St Louis
212.52.11.66,4,1026,insulation.org,US,Americas,Northern America,United States of America,Missouri,,St Louis
209.145.50.187,4,12,interreviewed.com,US,Americas,Northern America,United States of America,Missouri,,St Louis
209.145.57.53,4,-3,iwriteessays.com,US,Americas,Northern America,United States of America,Missouri,,St Louis
140.150.215.236,4,21,japanesebaseball.com,US,Americas,Northern America,United States of America,Missouri,,St Louis
154.12.224.7,4,13,jaybabani.com,US,Americas,Northern America,United States of America,Missouri,,St Louis
109.205.186.34,4,2,jeffawards.org,US,Americas,Northern America,United States of America,Missouri,,St Louis
213.109.149.17,4,5,jic-magic.com,US,Americas,Northern America,United States of America,Missouri,,St Louis
207.244.253.63,4,2,k6.com.br,US,Americas,Northern America,United States of America,Missouri,,St Louis
85.239.242.219,4,1,keepnitreal.net,US,Americas,Northern America,United States of America,Missouri,,St Louis
209.126.106.27,4,615,krt-carts.com,US,Americas,Northern America,United States of America,Missouri,,St Louis
209.126.0.101,4,3,laordendelacerveza.com,US,Americas,Northern America,United States of America,Missouri,,St Louis
199.217.113.218,4,1,last-memories.com,US,Americas,Northern America,United States of America,Missouri,,St Louis
209.126.106.159,4,1,laverdad.com,US,Americas,Northern America,United States of America,Missouri,,St Louis
173.224.124.71,4,15,lecanalauditif.ca,US,Americas,Northern America,United States of America,Missouri,,St Louis
66.94.119.71,4,6,legitgov.org,US,Americas,Northern America,United States of America,Missouri,,St Louis
194.238.28.102,4,37,libretechni.ca,US,Americas,Northern America,United States of America,Missouri,,St Louis
85.239.244.133,4,28,logomagicians.com,US,Americas,Northern America,United States of America,Missouri,,St Louis
209.126.11.249,4,7,logopoppin.com,US,Americas,Northern America,United States of America,Missouri,,St Louis
144.126.137.125,4,5,magsstore.com,US,Americas,Northern America,United States of America,Missouri,,St Louis
148.72.170.191,4,8,managebystats.com,US,Americas,Northern America,United States of America,Missouri,,St Louis
154.53.42.128,4,45,marina.mil.pe,US,Americas,Northern America,United States of America,Missouri,,St Louis
173.224.122.237,4,800,megamarijuanastore.com,US,Americas,Northern America,United States of America,Missouri,,St Louis
148.72.144.212,4,16,metvuw.com,US,Americas,Northern America,United States of America,Missouri,,St Louis
209.126.107.92,4,7,micahcarrick.com,US,Americas,Northern America,United States of America,Missouri,,St Louis
209.126.84.253,4,30,micoequipment.com,US,Americas,Northern America,United States of America,Missouri,,St Louis
5.172.176.14,4,19,midwestoutreach.org,US,Americas,Northern America,United States of America,Missouri,,St Louis
148.72.171.24,4,1,military-quotes.com,US,Americas,Northern America,United States of America,Missouri,,St Louis
144.126.159.130,4,3,mindanaotimes.net,US,Americas,Northern America,United States of America,Missouri,,St Louis
37.72.136.5,4,22,misshosting.com,US,Americas,Northern America,United States of America,Missouri,,St Louis
37.72.136.11,4,102,misssite.com,US,Americas,Northern America,United States of America,Missouri,,St Louis
12.43.95.118,4,1,mmallc.com,US,Americas,Northern America,United States of America,Missouri,,St Louis
91.242.252.160,4,187,mmtlibrary.org,US,Americas,Northern America,United States of America,Missouri,,St Louis
207.244.247.188,4,2,mohcky.com,US,Americas,Northern America,United States of America,Missouri,,St Louis
209.126.6.129,4,8,movie-sounds.org,US,Americas,Northern America,United States of America,Missouri,,St Louis
144.126.157.248,4,3,mstwotoes.com,US,Americas,Northern America,United States of America,Missouri,,St Louis
207.244.254.30,4,20,muralhas.com.br,US,Americas,Northern America,United States of America,Missouri,,St Louis
207.244.246.2,4,15,myflixerto.pro,US,Americas,Northern America,United States of America,Missouri,,St Louis
207.244.253.50,4,3,mymedistore.com,US,Americas,Northern America,United States of America,Missouri,,St Louis
209.126.0.98,4,8,mytodayshoroscope.com,US,Americas,Northern America,United States of America,Missouri,,St Louis
144.126.140.234,4,10,mywikibiz.com,US,Americas,Northern America,United States of America,Missouri,,St Louis
76.235.94.33,4,13,naken.cc,US,Americas,Northern America,United States of America,Missouri,,St Louis
154.38.165.248,4,9,neurodifferent.me,US,Americas,Northern America,United States of America,Missouri,,St Louis
209.126.105.16,4,2,newstrackindia.com,US,Americas,Northern America,United States of America,Missouri,,St Louis
144.126.137.242,4,10,noticiasbarquisimeto.com,US,Americas,Northern America,United States of America,Missouri,,St Louis
45.86.37.135,4,848,nscsports.org,US,Americas,Northern America,United States of America,Missouri,,St Louis
209.126.119.66,4,3,numbeo.com,US,Americas,Northern America,United States of America,Missouri,,St Louis
148.72.172.192,4,5,numberonemusic.com,US,Americas,Northern America,United States of America,Missouri,,St Louis
144.126.141.133,4,2,nybreaking.com,US,Americas,Northern America,United States of America,Missouri,,St Louis
207.244.230.28,4,4,nycmoov.com,US,Americas,Northern America,United States of America,Missouri,,St Louis
209.126.6.14,4,10,ohmygoodness.com,US,Americas,Northern America,United States of America,Missouri,,St Louis
209.126.6.108,4,9,ohmygoodness.com,US,Americas,Northern America,United States of America,Missouri,,St Louis
207.244.244.132,4,39,ohmygoodness.com,US,Americas,Northern America,United States of America,Missouri,,St Louis
142.214.208.194,4,13,opc.org,US,Americas,Northern America,United States of America,Missouri,,St Louis
69.64.45.211,4,8,osakanikkei.com,US,Americas,Northern America,United States of America,Missouri,,St Louis
144.126.134.16,4,7,ourehelp.com,US,Americas,Northern America,United States of America,Missouri,,St Louis
78.142.243.76,4,992,ozarkradionews.com,US,Americas,Northern America,United States of America,Missouri,,St Louis
148.72.158.146,4,13,papik.pro,US,Americas,Northern America,United States of America,Missouri,,St Louis
144.126.131.196,4,25,parklinlaw.com,US,Americas,Northern America,United States of America,Missouri,,St Louis
207.244.228.240,4,4,paylessplumbingofcharlotte.com,US,Americas,Northern America,United States of America,Missouri,,St Louis
207.244.252.236,4,21,pi-nutrition.com,US,Americas,Northern America,United States of America,Missouri,,St Louis
209.126.103.132,4,21,pictriev.com,US,Americas,Northern America,United States of America,Missouri,,St Louis
78.142.243.64,4,1601,pina.chat,US,Americas,Northern America,United States of America,Missouri,,St Louis
154.53.44.45,4,18,playersstats.com,US,Americas,Northern America,United States of America,Missouri,,St Louis
209.126.124.231,4,2,pointcast.com,US,Americas,Northern America,United States of America,Missouri,,St Louis
148.72.144.147,4,12,prematuridade.com,US,Americas,Northern America,United States of America,Missouri,,St Louis
209.145.57.112,4,63,presslayouts.com,US,Americas,Northern America,United States of America,Missouri,,St Louis
78.142.243.82,4,374,princetonhistory.org,US,Americas,Northern America,United States of America,Missouri,,St Louis
207.244.234.10,4,46,pro.radio,US,Americas,Northern America,United States of America,Missouri,,St Louis
207.244.236.77,4,22,proandragogica.org,US,Americas,Northern America,United States of America,Missouri,,St Louis
207.244.247.89,4,58,productsreviews.us,US,Americas,Northern America,United States of America,Missouri,,St Louis
209.145.53.146,4,4,propaneva.com,US,Americas,Northern America,United States of America,Missouri,,St Louis
209.126.11.171,4,6,qantumthemes.com,US,Americas,Northern America,United States of America,Missouri,,St Louis
212.18.102.189,4,7,quebecinternational.ca,US,Americas,Northern America,United States of America,Missouri,,St Louis
207.244.250.19,4,32,queermusicheritage.com,US,Americas,Northern America,United States of America,Missouri,,St Louis
154.53.47.129,4,3,quotelicious.com,US,Americas,Northern America,United States of America,Missouri,,St Louis
154.38.170.140,4,23,randami.cl,US,Americas,Northern America,United States of America,Missouri,,St Louis
209.126.5.131,4,11,recording-history.org,US,Americas,Northern America,United States of America,Missouri,,St Louis
207.38.89.149,4,26,redcrossug.org,US,Americas,Northern America,United States of America,Missouri,,St Louis
148.72.177.100,4,249,redstormscientific.com,US,Americas,Northern America,United States of America,Missouri,,St Louis
46.31.66.157,4,875,resourceworld.com,US,Americas,Northern America,United States of America,Missouri,,St Louis
209.126.127.121,4,12,ringsidereport.com,US,Americas,Northern America,United States of America,Missouri,,St Louis
209.126.0.211,4,79,roulettephysics.com,US,Americas,Northern America,United States of America,Missouri,,St Louis
62.3.51.164,4,951,roundtablegroup.com,US,Americas,Northern America,United States of America,Missouri,,St Louis
154.38.170.171,4,42,routerctrl.com,US,Americas,Northern America,United States of America,Missouri,,St Louis
209.126.118.12,4,1,rxmed.com,US,Americas,Northern America,United States of America,Missouri,,St Louis
207.244.255.210,4,8,safetyrestore.com,US,Americas,Northern America,United States of America,Missouri,,St Louis
154.38.162.185,4,2,satelliteguys.us,US,Americas,Northern America,United States of America,Missouri,,St Louis
209.126.3.8,4,329,savviformalwear.com,US,Americas,Northern America,United States of America,Missouri,,St Louis
209.126.12.162,4,10,sbcgloballogin.com,US,Americas,Northern America,United States of America,Missouri,,St Louis
142.214.201.26,4,21,scanews.com,US,Americas,Northern America,United States of America,Missouri,,St Louis
62.3.57.186,4,178,schwartzperformance.com,US,Americas,Northern America,United States of America,Missouri,,St Louis
144.126.158.16,4,12,search.bg,US,Americas,Northern America,United States of America,Missouri,,St Louis
207.38.90.89,4,20,searchyellowdirectory.com,US,Americas,Northern America,United States of America,Missouri,,St Louis
207.244.250.163,4,27,sellacious.com,US,Americas,Northern America,United States of America,Missouri,,St Louis
209.126.84.63,4,14,sema.com.mx,US,Americas,Northern America,United States of America,Missouri,,St Louis
173.224.122.251,4,138,sensiflexsupply.com,US,Americas,Northern America,United States of America,Missouri,,St Louis
154.38.160.53,4,4,sheisl0ved.com,US,Americas,Northern America,United States of America,Missouri,,St Louis
85.239.240.105,4,27,snopes2.com,US,Americas,Northern America,United States of America,Missouri,,St Louis
157.173.204.75,4,0,stikeswirahusada.ac.id,US,Americas,Northern America,United States of America,Missouri,,St Louis
62.122.191.14,4,5,surplusshed.com,US,Americas,Northern America,United States of America,Missouri,,St Louis
207.244.231.225,4,7,sysprobs.com,US,Americas,Northern America,United States of America,Missouri,,St Louis
213.109.149.57,4,16,tdogmedia.com,US,Americas,Northern America,United States of America,Missouri,,St Louis
209.126.86.214,4,6,tecni.com,US,Americas,Northern America,United States of America,Missouri,,St Louis
89.117.145.15,4,5,tecteem.com,US,Americas,Northern America,United States of America,Missouri,,St Louis
185.187.235.69,4,12,thefreeadforums.com,US,Americas,Northern America,United States of America,Missouri,,St Louis
192.104.39.168,4,7995,theplantlist.org,US,Americas,Northern America,United States of America,Missouri,,St Louis
207.244.246.54,4,11,thepressreleaseengine.com,US,Americas,Northern America,United States of America,Missouri,,St Louis
207.244.230.176,4,18,thisistrue.com,US,Americas,Northern America,United States of America,Missouri,,St Louis
207.244.235.52,4,-4,tkroanoke.com,US,Americas,Northern America,United States of America,Missouri,,St Louis
199.217.115.158,4,29,tomhull.com,US,Americas,Northern America,United States of America,Missouri,,St Louis
154.38.172.160,4,1321,top4download.com,US,Americas,Northern America,United States of America,Missouri,,St Louis
209.126.107.104,4,66,topfranchise.com,US,Americas,Northern America,United States of America,Missouri,,St Louis
209.126.113.213,4,24,touristlink.com,US,Americas,Northern America,United States of America,Missouri,,St Louis
213.109.149.52,4,37,trainghiemnhatban.net,US,Americas,Northern America,United States of America,Missouri,,St Louis
157.173.207.204,4,4,ts-ci.com,US,Americas,Northern America,United States of America,Missouri,,St Louis
207.244.248.19,4,22,uancv.edu.pe,US,Americas,Northern America,United States of America,Missouri,,St Louis
209.239.115.5,4,-223,uggstore.co.il,US,Americas,Northern America,United States of America,Missouri,,St Louis
207.244.243.182,4,244,unat.edu.pe,US,Americas,Northern America,United States of America,Missouri,,St Louis
209.126.104.117,4,-899326,unix.com,US,Americas,Northern America,United States of America,Missouri,,St Louis
154.12.231.19,4,9,ustimespost.com,US,Americas,Northern America,United States of America,Missouri,,St Louis
173.224.122.243,4,210,vandenbrakel.eu,US,Americas,Northern America,United States of America,Missouri,,St Louis
213.109.149.41,4,10,virtual-egyptian-museum.org,US,Americas,Northern America,United States of America,Missouri,,St Louis
209.126.102.155,4,62,virusfm.ru,US,Americas,Northern America,United States of America,Missouri,,St Louis
85.239.240.113,4,0,vnreal.net,US,Americas,Northern America,United States of America,Missouri,,St Louis
207.244.254.180,4,4,wawcase.com,US,Americas,Northern America,United States of America,Missouri,,St Louis
209.126.2.174,4,3,weatherandclimate.com,US,Americas,Northern America,United States of America,Missouri,,St Louis
209.126.119.123,4,-161114,websitetrafficspy.com,US,Americas,Northern America,United States of America,Missouri,,St Louis
207.244.237.57,4,2,webstick.nl,US,Americas,Northern America,United States of America,Missouri,,St Louis
173.224.122.250,4,928,weeddyz.com,US,Americas,Northern America,United States of America,Missouri,,St Louis
192.104.39.153,4,2583,wfoplantlist.org,US,Americas,Northern America,United States of America,Missouri,,St Louis
154.12.255.217,4,5,wordsanswers.info,US,Americas,Northern America,United States of America,Missouri,,St Louis
212.52.11.70,4,40558,workforce50.com,US,Americas,Northern America,United States of America,Missouri,,St Louis
192.104.39.151,4,-24,worldfloraonline.org,US,Americas,Northern America,United States of America,Missouri,,St Louis
209.145.61.1,4,24,worldtimetodays.com,US,Americas,Northern America,United States of America,Missouri,,St Louis
209.126.2.187,4,-2570,x64bitdownload.com,US,Americas,Northern America,United States of America,Missouri,,St Louis
