reflector_ip,ip_version,offset,description,country_code,region,sub_region,country_name,sub_division_1,sub_division_2,city
79.175.125.219,4,5,arte.it,RS,Europe,Southern Europe,Serbia,Belgrade,,Belgrade
217.24.17.44,4,71,beograd.com,RS,Europe,Southern Europe,Serbia,Belgrade,,Belgrade
185.119.89.80,4,15,biepag.eu,RS,Europe,Southern Europe,Serbia,Belgrade,,Belgrade
185.102.77.45,4,46,biroaura.co.rs,RS,Europe,Southern Europe,Serbia,Belgrade,,Belgrade
185.241.214.84,4,3071,craftsmanspace.com,RS,Europe,Southern Europe,Serbia,Belgrade,,Belgrade
185.241.214.85,4,3070,demostat.rs,RS,Europe,Southern Europe,Serbia,Belgrade,,Belgrade
185.119.88.139,4,6,depoistanbul.net,RS,Europe,Southern Europe,Serbia,Belgrade,,Belgrade
178.220.121.98,4,72,DNS Server: 178-220-121-98.dynamic.isp.telekom.rs,RS,Europe,Southern Europe,Serbia,Belgrade,,Belgrade
178.222.249.245,4,6048,DNS Server: 178-222-249-245.static.isp.telekom.rs,RS,Europe,Southern Europe,Serbia,Belgrade,,Belgrade
178.222.250.29,4,5,DNS Server: 178-222-250-29.static.isp.telekom.rs,RS,Europe,Southern Europe,Serbia,Belgrade,,Belgrade
77.46.176.17,4,-1142,DNS Server: 77-46-176-17.dynamic.isp.telekom.rs,RS,Europe,Southern Europe,Serbia,Belgrade,,Belgrade
79.101.104.162,4,81,DNS Server: 79-101-104-162.static.isp.telekom.rs,RS,Europe,Southern Europe,Serbia,Belgrade,,Belgrade
79.101.160.83,4,692999,DNS Server: 79-101-160-83.static.isp.telekom.rs,RS,Europe,Southern Europe,Serbia,Belgrade,,Belgrade
91.150.103.59,4,36,DNS Server: 91-150-103-59.static.isp.telekom.rs,RS,Europe,Southern Europe,Serbia,Belgrade,,Belgrade
91.150.107.215,4,3477,DNS Server: 91-150-107-215.dynamic.isp.telekom.rs,RS,Europe,Southern Europe,Serbia,Belgrade,,Belgrade
91.150.126.174,4,-53092369,DNS Server: 91-150-126-174.static.isp.telekom.rs,RS,Europe,Southern Europe,Serbia,Belgrade,,Belgrade
91.150.126.178,4,151484,DNS Server: 91-150-126-178.static.isp.telekom.rs,RS,Europe,Southern Europe,Serbia,Belgrade,,Belgrade
91.150.126.182,4,42103,DNS Server: 91-150-126-182.static.isp.telekom.rs,RS,Europe,Southern Europe,Serbia,Belgrade,,Belgrade
91.150.126.60,4,32,DNS Server: 91-150-126-60.static.isp.telekom.rs,RS,Europe,Southern Europe,Serbia,Belgrade,,Belgrade
93.86.242.63,4,11196963,DNS Server: 93-86-242-63.static.isp.telekom.rs,RS,Europe,Southern Europe,Serbia,Belgrade,,Belgrade
93.86.255.186,4,97,DNS Server: 93-86-255-186.static.isp.telekom.rs,RS,Europe,Southern Europe,Serbia,Belgrade,,Belgrade
93.86.60.136,4,3002,DNS Server: 93-86-60-136.static.isp.telekom.rs,RS,Europe,Southern Europe,Serbia,Belgrade,,Belgrade
93.86.62.127,4,59421,DNS Server: 93-86-62-127.static.isp.telekom.rs,RS,Europe,Southern Europe,Serbia,Belgrade,,Belgrade
93.86.62.40,4,56,DNS Server: 93-86-62-40.static.isp.telekom.rs,RS,Europe,Southern Europe,Serbia,Belgrade,,Belgrade
89.216.103.45,4,26,DNS Server: cable-89-216-103-45.static.sbb.rs,RS,Europe,Southern Europe,Serbia,Belgrade,,Belgrade
89.216.118.100,4,150,DNS Server: cable-89-216-118-100.static.sbb.rs,RS,Europe,Southern Europe,Serbia,Belgrade,,Belgrade
89.216.121.98,4,131,DNS Server: cable-89-216-121-98.static.sbb.rs,RS,Europe,Southern Europe,Serbia,Belgrade,,Belgrade
89.216.21.182,4,6683,DNS Server: cable-89-216-21-182.static.sbb.rs,RS,Europe,Southern Europe,Serbia,Belgrade,,Belgrade
89.216.25.76,4,-37930582,DNS Server: cable-89-216-25-76.static.sbb.rs,RS,Europe,Southern Europe,Serbia,Belgrade,,Belgrade
89.216.98.125,4,14488,DNS Server: cable-89-216-98-125.static.sbb.rs,RS,Europe,Southern Europe,Serbia,Belgrade,,Belgrade
109.111.229.198,4,-25335525,DNS Server: free-229-198.mediaworksit.net,RS,Europe,Southern Europe,Serbia,Belgrade,,Belgrade
109.121.52.206,4,-7199847,DNS Server: ip-109-121-52-206.oriontelekom.rs,RS,Europe,Southern Europe,Serbia,Belgrade,,Belgrade
79.175.68.79,4,25,europeanwesternbalkans.com,RS,Europe,Southern Europe,Serbia,Belgrade,,Belgrade
109.111.253.124,4,49,galerijamaticesrpske.rs,RS,Europe,Southern Europe,Serbia,Belgrade,,Belgrade
147.91.209.71,4,6,kg.ac.rs,RS,Europe,Southern Europe,Serbia,Belgrade,,Belgrade
89.216.44.8,4,-3649398,kicksta.co,RS,Europe,Southern Europe,Serbia,Belgrade,,Belgrade
109.92.21.73,4,1025697,knjizara.com,RS,Europe,Southern Europe,Serbia,Belgrade,,Belgrade
185.119.89.92,4,10,koms.rs,RS,Europe,Southern Europe,Serbia,Belgrade,,Belgrade
77.105.36.149,4,820,kustendorf-filmandmusicfestival.org,RS,Europe,Southern Europe,Serbia,Belgrade,,Belgrade
77.105.34.180,4,8126,lutrijasrbije.rs,RS,Europe,Southern Europe,Serbia,Belgrade,,Belgrade
79.175.68.47,4,11,mascom.rs,RS,Europe,Southern Europe,Serbia,Belgrade,,Belgrade
185.119.89.151,4,-1,mc.rs,RS,Europe,Southern Europe,Serbia,Belgrade,,Belgrade
217.24.18.112,4,1786575,megatrend.edu.rs,RS,Europe,Southern Europe,Serbia,Belgrade,,Belgrade
77.105.36.176,4,485,mgb.org.rs,RS,Europe,Southern Europe,Serbia,Belgrade,,Belgrade
77.105.36.174,4,646,montenegrostars.com,RS,Europe,Southern Europe,Serbia,Belgrade,,Belgrade
77.105.36.17,4,6,nikolalepojevic5.com,RS,Europe,Southern Europe,Serbia,Belgrade,,Belgrade
77.105.38.222,4,4,nis.eu,RS,Europe,Southern Europe,Serbia,Belgrade,,Belgrade
77.105.21.7,4,8,nis.rs,RS,Europe,Southern Europe,Serbia,Belgrade,,Belgrade
212.200.189.49,4,19,novakdjokovic.com,RS,Europe,Southern Europe,Serbia,Belgrade,,Belgrade
185.119.89.29,4,0,nsuzivo.rs,RS,Europe,Southern Europe,Serbia,Belgrade,,Belgrade
212.200.255.137,4,-4682,nsz.gov.rs,RS,Europe,Southern Europe,Serbia,Belgrade,,Belgrade
109.245.25.164,4,373,Ookla Speedtest Server 14476: speedtest2.yettel.rs,RS,Europe,Southern Europe,Serbia,Belgrade,,Belgrade
212.200.230.251,4,337,Ookla Speedtest Server 20191: speedtest2.mts.rs,RS,Europe,Southern Europe,Serbia,Belgrade,,Belgrade
212.200.230.249,4,406,Ookla Speedtest Server 25034: speedtest3.mts.rs,RS,Europe,Southern Europe,Serbia,Belgrade,,Belgrade
77.243.16.48,4,420,Ookla Speedtest Server 41390: speedtest.a1.rs,RS,Europe,Southern Europe,Serbia,Belgrade,,Belgrade
109.233.191.194,4,351,Ookla Speedtest Server 41771: speedtest.nextfiber.rs,RS,Europe,Southern Europe,Serbia,Belgrade,,Belgrade
212.200.230.227,4,317,Ookla Speedtest Server 43446: speedtest4.mts.rs,RS,Europe,Southern Europe,Serbia,Belgrade,,Belgrade
185.119.90.90,4,312,Ookla Speedtest Server 48906: lg.unlimited.rs,RS,Europe,Southern Europe,Serbia,Belgrade,,Belgrade
77.105.21.20,4,5,oriontelekom.rs,RS,Europe,Southern Europe,Serbia,Belgrade,,Belgrade
77.105.38.74,4,537,paragraf.rs,RS,Europe,Southern Europe,Serbia,Belgrade,,Belgrade
185.102.77.47,4,14,plantaze.com,RS,Europe,Southern Europe,Serbia,Belgrade,,Belgrade
79.175.127.162,4,2,politikin-zabavnik.rs,RS,Europe,Southern Europe,Serbia,Belgrade,,Belgrade
185.119.89.160,4,13,portomontenegro.com,RS,Europe,Southern Europe,Serbia,Belgrade,,Belgrade
217.24.18.5,4,6,predovic.com,RS,Europe,Southern Europe,Serbia,Belgrade,,Belgrade
185.119.88.102,4,72,progdvb.com,RS,Europe,Southern Europe,Serbia,Belgrade,,Belgrade
185.119.89.240,4,82,rabek.org,RS,Europe,Southern Europe,Serbia,Belgrade,,Belgrade
185.119.89.212,4,8,romanet.me,RS,Europe,Southern Europe,Serbia,Belgrade,,Belgrade
185.119.89.230,4,36,rtk.co.rs,RS,Europe,Southern Europe,Serbia,Belgrade,,Belgrade
77.105.21.18,4,24394,rts.rs,RS,Europe,Southern Europe,Serbia,Belgrade,,Belgrade
212.200.255.139,4,22,rtv.rs,RS,Europe,Southern Europe,Serbia,Belgrade,,Belgrade
109.245.215.226,4,-104621,sajam.net,RS,Europe,Southern Europe,Serbia,Belgrade,,Belgrade
217.24.18.122,4,6,sk.rs,RS,Europe,Southern Europe,Serbia,Belgrade,,Belgrade
185.119.88.254,4,781,smedia.rs,RS,Europe,Southern Europe,Serbia,Belgrade,,Belgrade
185.119.88.50,4,0,suerf.org,RS,Europe,Southern Europe,Serbia,Belgrade,,Belgrade
77.105.36.120,4,59,transparentnost.org.rs,RS,Europe,Southern Europe,Serbia,Belgrade,,Belgrade
185.119.89.170,4,0,trcanje.rs,RS,Europe,Southern Europe,Serbia,Belgrade,,Belgrade
185.102.77.42,4,-183,trenkic.rs,RS,Europe,Southern Europe,Serbia,Belgrade,,Belgrade
77.105.36.155,4,959,uscarriers.net,RS,Europe,Southern Europe,Serbia,Belgrade,,Belgrade
185.119.89.23,4,6,vojvodina.gov.rs,RS,Europe,Southern Europe,Serbia,Belgrade,,Belgrade
185.119.88.60,4,10,webcaffe.ws,RS,Europe,Southern Europe,Serbia,Belgrade,,Belgrade
185.119.89.176,4,-1,zlatnistandard.rs,RS,Europe,Southern Europe,Serbia,Belgrade,,Belgrade
185.102.77.140,4,356,zuov.gov.rs,RS,Europe,Southern Europe,Serbia,Belgrade,,Belgrade
