reflector_ip,ip_version,offset,description,country_code,region,sub_region,country_name,sub_division_1,sub_division_2,city
31.22.4.112,4,5,0fees.us,GB,Europe,Northern Europe,United Kingdom,England,North Tyneside,Whitley Bay
31.22.4.10,4,2,260mb.net,GB,Europe,Northern Europe,United Kingdom,England,North Tyneside,Whitley Bay
31.22.4.48,4,25,bicycledude.com,GB,Europe,Northern Europe,United Kingdom,England,North Tyneside,Whitley Bay
31.22.4.94,4,6,espiber.cl,GB,Europe,Northern Europe,United Kingdom,England,North Tyneside,Whitley Bay
31.22.4.67,4,39,freethemes4all.com,GB,Europe,Northern Europe,United Kingdom,England,North Tyneside,Whitley Bay
31.22.7.56,4,22,freevnn.com,GB,Europe,Northern Europe,United Kingdom,England,North Tyneside,Whitley Bay
31.22.4.240,4,3,healthywellness.site,GB,Europe,Northern Europe,United Kingdom,England,North Tyneside,Whitley Bay
31.22.7.243,4,4,laughlinjetskinv.com,GB,Europe,Northern Europe,United Kingdom,England,North Tyneside,Whitley Bay
31.22.7.45,4,11,loftoutlet.co.uk,GB,Europe,Northern Europe,United Kingdom,England,North Tyneside,Whitley Bay
31.22.4.26,4,3,miponline.in,GB,Europe,Northern Europe,United Kingdom,England,North Tyneside,Whitley Bay
31.22.4.235,4,6,ngohq.com,GB,Europe,Northern Europe,United Kingdom,England,North Tyneside,Whitley Bay
31.22.4.81,4,19,outsource-online.net,GB,Europe,Northern Europe,United Kingdom,England,North Tyneside,Whitley Bay
31.22.4.114,4,2,peakdistrictonline.co.uk,GB,Europe,Northern Europe,United Kingdom,England,North Tyneside,Whitley Bay
31.22.4.101,4,33,petervis.com,GB,Europe,Northern Europe,United Kingdom,England,North Tyneside,Whitley Bay
31.22.4.108,4,20,pilartorres.es,GB,Europe,Northern Europe,United Kingdom,England,North Tyneside,Whitley Bay
31.22.4.145,4,51,steve-p.org,GB,Europe,Northern Europe,United Kingdom,England,North Tyneside,Whitley Bay
31.22.4.39,4,7,thechronicleshopper.com,GB,Europe,Northern Europe,United Kingdom,England,North Tyneside,Whitley Bay
31.22.4.44,4,14,thetaggy.com,GB,Europe,Northern Europe,United Kingdom,England,North Tyneside,Whitley Bay
31.22.4.50,4,4,thuonghieudoanhnghiep.vn,GB,Europe,Northern Europe,United Kingdom,England,North Tyneside,Whitley Bay
31.22.4.109,4,5,tureken.com,GB,Europe,Northern Europe,United Kingdom,England,North Tyneside,Whitley Bay
31.22.4.234,4,5,wuaze.com,GB,Europe,Northern Europe,United Kingdom,England,North Tyneside,Whitley Bay
31.22.4.11,4,4,xtreemhost.com,GB,Europe,Northern Europe,United Kingdom,England,North Tyneside,Whitley Bay
