reflector_ip,ip_version,offset,description,country_code,region,sub_region,country_name,sub_division_1,sub_division_2,city
172.97.100.25,4,13,516arts.org,US,Americas,Northern America,United States of America,New Mexico,,Taos
172.97.101.91,4,7,adobegallery.com,US,Americas,Northern America,United States of America,New Mexico,,Taos
209.182.254.101,4,73,afte.org,US,Americas,Northern America,United States of America,New Mexico,,Taos
172.97.100.226,4,14,americannursetoday.com,US,Americas,Northern America,United States of America,New Mexico,,Taos
172.97.102.141,4,33,andrewharvey.net,US,Americas,Northern America,United States of America,New Mexico,,Taos
172.97.100.158,4,45,andrewsobel.com,US,Americas,Northern America,United States of America,New Mexico,,Taos
172.97.100.27,4,64,astrofix.net,US,Americas,Northern America,United States of America,New Mexico,,Taos
172.97.102.121,4,11,bristolmountain.com,US,Americas,Northern America,United States of America,New Mexico,,Taos
209.188.114.35,4,26,brownrice.com,US,Americas,Northern America,United States of America,New Mexico,,Taos
209.182.253.121,4,39,callforentry.org,US,Americas,Northern America,United States of America,New Mexico,,Taos
209.182.252.70,4,6,duransrx.com,US,Americas,Northern America,United States of America,New Mexico,,Taos
172.97.100.199,4,14,fantasyfootballmaverick.com,US,Americas,Northern America,United States of America,New Mexico,,Taos
172.97.100.197,4,2,farmingtonnm.org,US,Americas,Northern America,United States of America,New Mexico,,Taos
209.182.255.202,4,7,gem.wiki,US,Americas,Northern America,United States of America,New Mexico,,Taos
209.182.255.51,4,8,helmsbakerydistrict.com,US,Americas,Northern America,United States of America,New Mexico,,Taos
172.97.101.210,4,3,housingnm.org,US,Americas,Northern America,United States of America,New Mexico,,Taos
172.97.101.142,4,3,innofthegovernors.com,US,Americas,Northern America,United States of America,New Mexico,,Taos
172.97.102.224,4,18,janetlansbury.com,US,Americas,Northern America,United States of America,New Mexico,,Taos
209.182.255.242,4,5,jemezpueblo.org,US,Americas,Northern America,United States of America,New Mexico,,Taos
209.182.255.185,4,8,judychicago.com,US,Americas,Northern America,United States of America,New Mexico,,Taos
209.182.252.172,4,7,lospoblanos.com,US,Americas,Northern America,United States of America,New Mexico,,Taos
172.97.100.227,4,9,mansfieldplumbing.com,US,Americas,Northern America,United States of America,New Mexico,,Taos
209.182.253.239,4,10,marblebrewery.com,US,Americas,Northern America,United States of America,New Mexico,,Taos
172.97.102.100,4,13,mtnhomehealth.com,US,Americas,Northern America,United States of America,New Mexico,,Taos
209.182.254.96,4,10,newmexicohistory.org,US,Americas,Northern America,United States of America,New Mexico,,Taos
209.182.253.83,4,11,nmfilm.com,US,Americas,Northern America,United States of America,New Mexico,,Taos
172.97.101.233,4,8,nmwild.org,US,Americas,Northern America,United States of America,New Mexico,,Taos
209.182.253.25,4,6,plumepoetry.com,US,Americas,Northern America,United States of America,New Mexico,,Taos
172.97.102.179,4,73,rockandrollparadise.com,US,Americas,Northern America,United States of America,New Mexico,,Taos
172.97.102.198,4,6,santafecountynm.gov,US,Americas,Northern America,United States of America,New Mexico,,Taos
172.97.101.117,4,16,santafespirits.com,US,Americas,Northern America,United States of America,New Mexico,,Taos
172.97.101.103,4,20,sebokwiki.org,US,Americas,Northern America,United States of America,New Mexico,,Taos
209.182.253.154,4,16,tagalonglovely.com,US,Americas,Northern America,United States of America,New Mexico,,Taos
209.182.254.46,4,3,taosnet.com,US,Americas,Northern America,United States of America,New Mexico,,Taos
209.182.252.239,4,3,tenthousandwaves.com,US,Americas,Northern America,United States of America,New Mexico,,Taos
209.182.255.86,4,20,vanengelen.com,US,Americas,Northern America,United States of America,New Mexico,,Taos
209.182.254.109,4,8,wesst.org,US,Americas,Northern America,United States of America,New Mexico,,Taos
209.182.252.177,4,32,westaf.org,US,Americas,Northern America,United States of America,New Mexico,,Taos
209.182.253.78,4,1,xynergy.com,US,Americas,Northern America,United States of America,New Mexico,,Taos
