reflector_ip,ip_version,offset,description,country_code,region,sub_region,country_name,sub_division_1,sub_division_2,city
1.172.170.204,4,-28803847,DNS Server: 1-172-170-204.dynamic-ip.hinet.net,TW,Asia,Eastern Asia,Taiwan,Kaohsiung,,Kaohsiung
1.172.174.64,4,-26642594,DNS Server: 1-172-174-64.dynamic-ip.hinet.net,TW,Asia,Eastern Asia,Taiwan,Kaohsiung,,Kaohsiung
1.172.178.132,4,389,DNS Server: 1-172-178-132.dynamic-ip.hinet.net,TW,Asia,Eastern Asia,Taiwan,Kaohsiung,,Kaohsiung
1.172.179.226,4,19658,DNS Server: 1-172-179-226.dynamic-ip.hinet.net,TW,Asia,Eastern Asia,Taiwan,Kaohsiung,,Kaohsiung
1.172.228.178,4,1971,DNS Server: 1-172-228-178.dynamic-ip.hinet.net,TW,Asia,Eastern Asia,Taiwan,Kaohsiung,,Kaohsiung
1.172.48.85,4,1885,DNS Server: 1-172-48-85.dynamic-ip.hinet.net,TW,Asia,Eastern Asia,Taiwan,Kaohsiung,,Kaohsiung
1.173.93.104,4,61,DNS Server: 1-173-93-104.dynamic-ip.hinet.net,TW,Asia,Eastern Asia,Taiwan,Kaohsiung,,Kaohsiung
1.174.100.184,4,57,DNS Server: 1-174-100-184.dynamic-ip.hinet.net,TW,Asia,Eastern Asia,Taiwan,Kaohsiung,,Kaohsiung
1.174.101.131,4,141,DNS Server: 1-174-101-131.dynamic-ip.hinet.net,TW,Asia,Eastern Asia,Taiwan,Kaohsiung,,Kaohsiung
1.174.103.23,4,1732,DNS Server: 1-174-103-23.dynamic-ip.hinet.net,TW,Asia,Eastern Asia,Taiwan,Kaohsiung,,Kaohsiung
1.174.104.98,4,-178,DNS Server: 1-174-104-98.dynamic-ip.hinet.net,TW,Asia,Eastern Asia,Taiwan,Kaohsiung,,Kaohsiung
1.174.106.2,4,-140,DNS Server: 1-174-106-2.dynamic-ip.hinet.net,TW,Asia,Eastern Asia,Taiwan,Kaohsiung,,Kaohsiung
1.174.109.131,4,2178,DNS Server: 1-174-109-131.dynamic-ip.hinet.net,TW,Asia,Eastern Asia,Taiwan,Kaohsiung,,Kaohsiung
1.174.109.99,4,1857,DNS Server: 1-174-109-99.dynamic-ip.hinet.net,TW,Asia,Eastern Asia,Taiwan,Kaohsiung,,Kaohsiung
1.174.115.128,4,289,DNS Server: 1-174-115-128.dynamic-ip.hinet.net,TW,Asia,Eastern Asia,Taiwan,Kaohsiung,,Kaohsiung
1.174.115.168,4,-28800518,DNS Server: 1-174-115-168.dynamic-ip.hinet.net,TW,Asia,Eastern Asia,Taiwan,Kaohsiung,,Kaohsiung
1.174.116.45,4,1747,DNS Server: 1-174-116-45.dynamic-ip.hinet.net,TW,Asia,Eastern Asia,Taiwan,Kaohsiung,,Kaohsiung
1.174.117.128,4,2275,DNS Server: 1-174-117-128.dynamic-ip.hinet.net,TW,Asia,Eastern Asia,Taiwan,Kaohsiung,,Kaohsiung
1.174.129.11,4,1664,DNS Server: 1-174-129-11.dynamic-ip.hinet.net,TW,Asia,Eastern Asia,Taiwan,Kaohsiung,,Kaohsiung
1.174.129.208,4,2228,DNS Server: 1-174-129-208.dynamic-ip.hinet.net,TW,Asia,Eastern Asia,Taiwan,Kaohsiung,,Kaohsiung
1.174.140.46,4,1817,DNS Server: 1-174-140-46.dynamic-ip.hinet.net,TW,Asia,Eastern Asia,Taiwan,Kaohsiung,,Kaohsiung
1.174.68.13,4,-28799356,DNS Server: 1-174-68-13.dynamic-ip.hinet.net,TW,Asia,Eastern Asia,Taiwan,Kaohsiung,,Kaohsiung
1.174.69.208,4,-28803530,DNS Server: 1-174-69-208.dynamic-ip.hinet.net,TW,Asia,Eastern Asia,Taiwan,Kaohsiung,,Kaohsiung
1.174.89.8,4,-28794343,DNS Server: 1-174-89-8.dynamic-ip.hinet.net,TW,Asia,Eastern Asia,Taiwan,Kaohsiung,,Kaohsiung
1.174.92.23,4,88,DNS Server: 1-174-92-23.dynamic-ip.hinet.net,TW,Asia,Eastern Asia,Taiwan,Kaohsiung,,Kaohsiung
1.174.95.187,4,-81359,DNS Server: 1-174-95-187.dynamic-ip.hinet.net,TW,Asia,Eastern Asia,Taiwan,Kaohsiung,,Kaohsiung
1.175.113.160,4,1405,DNS Server: 1-175-113-160.dynamic-ip.hinet.net,TW,Asia,Eastern Asia,Taiwan,Kaohsiung,,Kaohsiung
1.175.192.61,4,574,DNS Server: 1-175-192-61.dynamic-ip.hinet.net,TW,Asia,Eastern Asia,Taiwan,Kaohsiung,,Kaohsiung
1.175.206.85,4,242,DNS Server: 1-175-206-85.dynamic-ip.hinet.net,TW,Asia,Eastern Asia,Taiwan,Kaohsiung,,Kaohsiung
122.117.143.113,4,106,DNS Server: 122-117-143-113.hinet-ip.hinet.net,TW,Asia,Eastern Asia,Taiwan,Kaohsiung,,Kaohsiung
122.117.151.111,4,7,DNS Server: 122-117-151-111.hinet-ip.hinet.net,TW,Asia,Eastern Asia,Taiwan,Kaohsiung,,Kaohsiung
125.227.235.49,4,4,DNS Server: 125-227-235-49.hinet-ip.hinet.net,TW,Asia,Eastern Asia,Taiwan,Kaohsiung,,Kaohsiung
203.69.232.60,4,-8741442,DNS Server: 203-69-232-60.hinet-ip.hinet.net,TW,Asia,Eastern Asia,Taiwan,Kaohsiung,,Kaohsiung
211.22.209.2,4,4,DNS Server: 211-22-209-2.hinet-ip.hinet.net,TW,Asia,Eastern Asia,Taiwan,Kaohsiung,,Zuoying
211.72.99.88,4,5,DNS Server: 211-72-99-88.hinet-ip.hinet.net,TW,Asia,Eastern Asia,Taiwan,Kaohsiung,,Kaohsiung
218.161.101.130,4,128,DNS Server: 218-161-101-130.hinet-ip.hinet.net,TW,Asia,Eastern Asia,Taiwan,Kaohsiung,,Kaohsiung
218.161.118.51,4,-28799145,DNS Server: 218-161-118-51.hinet-ip.hinet.net,TW,Asia,Eastern Asia,Taiwan,Kaohsiung,,Zuoying
220.134.162.104,4,-128897,DNS Server: 220-134-162-104.hinet-ip.hinet.net,TW,Asia,Eastern Asia,Taiwan,Kaohsiung,,Kaohsiung
36.236.167.193,4,7,DNS Server: 36-236-167-193.dynamic-ip.hinet.net,TW,Asia,Eastern Asia,Taiwan,Kaohsiung,,Kaohsiung
59.120.116.235,4,-28799724,DNS Server: 59-120-116-235.hinet-ip.hinet.net,TW,Asia,Eastern Asia,Taiwan,Kaohsiung,,Kaohsiung
59.125.155.62,4,31589930,DNS Server: 59-125-155-62.hinet-ip.hinet.net,TW,Asia,Eastern Asia,Taiwan,Kaohsiung,,Kaohsiung
59.127.173.45,4,37,DNS Server: 59-127-173-45.hinet-ip.hinet.net,TW,Asia,Eastern Asia,Taiwan,Kaohsiung,,Kaohsiung
60.249.145.122,4,3,DNS Server: 60-249-145-122.hinet-ip.hinet.net,TW,Asia,Eastern Asia,Taiwan,Kaohsiung,,Kaohsiung
122.117.41.80,4,7,duckart.pro,TW,Asia,Eastern Asia,Taiwan,Kaohsiung,,Kaohsiung
59.120.254.212,4,-1232,foxpro.com.tw,TW,Asia,Eastern Asia,Taiwan,Kaohsiung,,Kaohsiung
60.249.179.122,4,2,lionfree.net,TW,Asia,Eastern Asia,Taiwan,Kaohsiung,,Kaohsiung
59.120.118.168,4,12,ppt.cc,TW,Asia,Eastern Asia,Taiwan,Kaohsiung,,Kaohsiung
163.16.5.180,4,29,study-area.org,TW,Asia,Eastern Asia,Taiwan,Kaohsiung,,Kaohsiung
