reflector_ip,ip_version,offset,description,country_code,region,sub_region,country_name,sub_division_1,sub_division_2,city
84.22.107.251,4,5,appel.nl,NL,Europe,Western Europe,Netherlands,Utrecht,,Woerden
84.22.102.253,4,26,ber-art.nl,NL,Europe,Western Europe,Netherlands,Utrecht,,Woerden
84.22.103.207,4,6,bits-chips.nl,NL,Europe,Western Europe,Netherlands,Utrecht,,Woerden
84.22.105.9,4,51,clintel.nl,NL,Europe,Western Europe,Netherlands,Utrecht,,Woerden
84.22.109.77,4,8,czyborra.com,NL,Europe,Western Europe,Netherlands,Utrecht,,Woerden
84.22.97.151,4,6,esb.nu,NL,Europe,Western Europe,Netherlands,Utrecht,,Woerden
84.22.98.212,4,693894,hostinginnederland.nl,NL,Europe,Western Europe,Netherlands,Utrecht,,Woerden
84.22.97.251,4,62,impact-investor.com,NL,Europe,Western Europe,Netherlands,Utrecht,,Woerden
84.22.100.164,4,-29683,kaasmarkt.nl,NL,Europe,Western Europe,Netherlands,Utrecht,,Woerden
84.22.115.195,4,343,kindenziekenhuis.nl,NL,Europe,Western Europe,Netherlands,Utrecht,,Woerden
84.22.103.168,4,12,klikaanklikuit.nl,NL,Europe,Western Europe,Netherlands,Utrecht,,Woerden
84.22.100.12,4,22,legendsworld.net,NL,Europe,Western Europe,Netherlands,Utrecht,,Woerden
84.22.110.126,4,887,myopeninghours.co.uk,NL,Europe,Western Europe,Netherlands,Utrecht,,Woerden
84.22.96.194,4,10,nobian.com,NL,Europe,Western Europe,Netherlands,Utrecht,,Woerden
84.22.101.57,4,4,noraonline.nl,NL,Europe,Western Europe,Netherlands,Utrecht,,Woerden
84.22.117.19,4,51,oemmotorparts.com,NL,Europe,Western Europe,Netherlands,Utrecht,,Woerden
84.22.97.162,4,9,persberichtenrotterdam.nl,NL,Europe,Western Europe,Netherlands,Utrecht,,Woerden
84.22.114.94,4,51,pifworld.com,NL,Europe,Western Europe,Netherlands,Utrecht,,Woerden
84.22.114.145,4,4,piratenpartij.nl,NL,Europe,Western Europe,Netherlands,Utrecht,,Woerden
84.22.103.51,4,84835,redrc.net,NL,Europe,Western Europe,Netherlands,Utrecht,,Woerden
84.22.109.49,4,10,salland1.nl,NL,Europe,Western Europe,Netherlands,Utrecht,,Woerden
84.22.106.35,4,9,screensaversplanet.com,NL,Europe,Western Europe,Netherlands,Utrecht,,Woerden
84.22.107.165,4,31,skbwinterswijk.nl,NL,Europe,Western Europe,Netherlands,Utrecht,,Woerden
84.22.96.44,4,6,slingeland.nl,NL,Europe,Western Europe,Netherlands,Utrecht,,Woerden
84.22.110.35,4,13,snappymail.eu,NL,Europe,Western Europe,Netherlands,Utrecht,,Woerden
84.22.98.112,4,43,spek.cc,NL,Europe,Western Europe,Netherlands,Utrecht,,Woerden
84.22.103.111,4,49,stiva.nl,NL,Europe,Western Europe,Netherlands,Utrecht,,Woerden
84.22.96.247,4,-47,stroom.nl,NL,Europe,Western Europe,Netherlands,Utrecht,,Woerden
84.22.115.35,4,1618,tmannetje.nl,NL,Europe,Western Europe,Netherlands,Utrecht,,Woerden
84.22.96.250,4,46,victronenergy.fr,NL,Europe,Western Europe,Netherlands,Utrecht,,Woerden
84.22.109.14,4,3,vntg.com,NL,Europe,Western Europe,Netherlands,Utrecht,,Woerden
84.22.114.24,4,52,vreeken.nl,NL,Europe,Western Europe,Netherlands,Utrecht,,Woerden
84.22.116.147,4,138,vrijemeid.nl,NL,Europe,Western Europe,Netherlands,Utrecht,,Woerden
84.22.120.51,4,8,wearetravellers.nl,NL,Europe,Western Europe,Netherlands,Utrecht,,Woerden
84.22.103.59,4,43,wikilovesmonuments.org,NL,Europe,Western Europe,Netherlands,Utrecht,,Woerden
84.22.116.3,4,25,zelfenergieproduceren.nl,NL,Europe,Western Europe,Netherlands,Utrecht,,Woerden
84.22.105.203,4,33,zelfenergieproduceren.nl,NL,Europe,Western Europe,Netherlands,Utrecht,,Woerden
