reflector_ip,ip_version,offset,description,country_code,region,sub_region,country_name,sub_division_1,sub_division_2,city
95.211.203.210,4,10,4sport.ua,NL,Europe,Western Europe,Netherlands,Utrecht,,Maarssen
95.211.148.47,4,5,adtarget.me,NL,Europe,Western Europe,Netherlands,Utrecht,,Maarssen
95.211.231.76,4,7,artlabjo.com,NL,Europe,Western Europe,Netherlands,Utrecht,,Maarssen
95.211.191.35,4,654,berudo.ru,NL,Europe,Western Europe,Netherlands,Utrecht,,Maarssen
95.211.189.138,4,31,biosemiotic.com,NL,Europe,Western Europe,Netherlands,Utrecht,,Maarssen
95.211.184.118,4,0,centarsrce.org,NL,Europe,Western Europe,Netherlands,Utrecht,,Maarssen
95.211.185.122,4,4,cryoutcreations.eu,NL,Europe,Western Europe,Netherlands,Utrecht,,Maarssen
95.211.138.73,4,16,dhs.nu,NL,Europe,Western Europe,Netherlands,Utrecht,,Maarssen
95.211.211.205,4,-36,djvu.online,NL,Europe,Western Europe,Netherlands,Utrecht,,Maarssen
95.211.200.52,4,2218636,filefactory.com,NL,Europe,Western Europe,Netherlands,Utrecht,,Maarssen
95.211.222.85,4,6678722,filipinofoodstore.com,NL,Europe,Western Europe,Netherlands,Utrecht,,Maarssen
95.211.238.240,4,2,halfnote.gr,NL,Europe,Western Europe,Netherlands,Utrecht,,Maarssen
95.211.197.162,4,245,jankoatwarpspeed.com,NL,Europe,Western Europe,Netherlands,Utrecht,,Maarssen
95.211.224.153,4,1633,kulichki.net,NL,Europe,Western Europe,Netherlands,Utrecht,,Maarssen
95.211.189.152,4,84,linuxelectrons.com,NL,Europe,Western Europe,Netherlands,Utrecht,,Maarssen
95.211.197.229,4,27,megadownload.net,NL,Europe,Western Europe,Netherlands,Utrecht,,Maarssen
95.211.144.79,4,1223,mindlyapp.com,NL,Europe,Western Europe,Netherlands,Utrecht,,Maarssen
95.211.226.103,4,111,mirgif.com,NL,Europe,Western Europe,Netherlands,Utrecht,,Maarssen
95.211.216.182,4,3,moowy.be,NL,Europe,Western Europe,Netherlands,Utrecht,,Maarssen
95.211.227.90,4,98,mypets.by,NL,Europe,Western Europe,Netherlands,Utrecht,,Maarssen
95.211.148.58,4,13,ruwest.ru,NL,Europe,Western Europe,Netherlands,Utrecht,,Maarssen
95.211.204.172,4,11,seedr.cc,NL,Europe,Western Europe,Netherlands,Utrecht,,Maarssen
95.211.228.67,4,15,skinwp.ru,NL,Europe,Western Europe,Netherlands,Utrecht,,Maarssen
95.211.197.140,4,26,softoware.org,NL,Europe,Western Europe,Netherlands,Utrecht,,Maarssen
95.211.137.112,4,0,suicidecommando.be,NL,Europe,Western Europe,Netherlands,Utrecht,,Maarssen
95.211.223.35,4,4,testimania.com,NL,Europe,Western Europe,Netherlands,Utrecht,,Maarssen
95.211.228.155,4,4,tordini.org,NL,Europe,Western Europe,Netherlands,Utrecht,,Maarssen
95.211.138.10,4,4,unigine.com,NL,Europe,Western Europe,Netherlands,Utrecht,,Maarssen
95.211.203.221,4,-18,vlaamsechambresdhotes.com,NL,Europe,Western Europe,Netherlands,Utrecht,,Maarssen
95.211.218.10,4,25,windows-noob.com,NL,Europe,Western Europe,Netherlands,Utrecht,,Maarssen
