reflector_ip,ip_version,offset,description,country_code,region,sub_region,country_name,sub_division_1,sub_division_2,city
194.61.52.108,4,6,24-my.info,UA,Europe,Eastern Europe,Ukraine,Kyiv City,,Kyiv
178.20.157.249,4,35,7kanal.com.ua,UA,Europe,Eastern Europe,Ukraine,Kyiv City,,Kyiv
89.184.91.217,4,22,a-service.ua,UA,Europe,Eastern Europe,Ukraine,Kyiv City,,Kyiv
77.87.197.37,4,50,acoustic.ua,UA,Europe,Eastern Europe,Ukraine,Kyiv City,,Kyiv
212.26.128.166,4,6,adamant.ua,UA,Europe,Eastern Europe,Ukraine,Kyiv City,,Kyiv
89.184.65.78,4,24,adv.vg,UA,Europe,Eastern Europe,Ukraine,Kyiv City,,Kyiv
89.184.77.56,4,32,agro-business.com.ua,UA,Europe,Eastern Europe,Ukraine,Kyiv City,,Kyiv
91.229.76.76,4,28,agrostory.com,UA,Europe,Eastern Europe,Ukraine,Kyiv City,,Kyiv
95.67.18.75,4,105,alfakid.com,UA,Europe,Eastern Europe,Ukraine,Kyiv City,,Kyiv
89.184.76.34,4,54,allbible.info,UA,Europe,Eastern Europe,Ukraine,Kyiv City,,Kyiv
62.149.6.106,4,4,allkharkov.ua,UA,Europe,Eastern Europe,Ukraine,Kyiv City,,Kyiv
77.87.193.228,4,2,amf.com.ua,UA,Europe,Eastern Europe,Ukraine,Kyiv City,,Kyiv
77.87.195.192,4,10,amnu.gov.ua,UA,Europe,Eastern Europe,Ukraine,Kyiv City,,Kyiv
89.184.73.148,4,8,amtool.com.ua,UA,Europe,Eastern Europe,Ukraine,Kyiv City,,Kyiv
89.184.74.27,4,26,amtool.ua,UA,Europe,Eastern Europe,Ukraine,Kyiv City,,Kyiv
176.107.185.30,4,5,apocalisselaica.net,UA,Europe,Eastern Europe,Ukraine,Kyiv City,,Kyiv
185.233.117.116,4,39,arendator.com.ua,UA,Europe,Eastern Europe,Ukraine,Kyiv City,,Kyiv
89.184.94.60,4,68,armyinform.com.ua,UA,Europe,Eastern Europe,Ukraine,Kyiv City,,Kyiv
77.120.122.50,4,19005,artukraine.com,UA,Europe,Eastern Europe,Ukraine,Kyiv City,,Kyiv
193.169.189.227,4,9,asiacentr.com.ua,UA,Europe,Eastern Europe,Ukraine,Kyiv City,,Kyiv
89.184.73.193,4,31,astorgold.com.ua,UA,Europe,Eastern Europe,Ukraine,Kyiv City,,Kyiv
193.169.189.65,4,16,atlaskvartir.ua,UA,Europe,Eastern Europe,Ukraine,Kyiv City,,Kyiv
77.87.196.116,4,30,aub.org.ua,UA,Europe,Eastern Europe,Ukraine,Kyiv City,,Kyiv
62.149.30.4,4,-20506,auchan.ua,UA,Europe,Eastern Europe,Ukraine,Kyiv City,,Kyiv
89.184.93.87,4,4,authenticukraine.com.ua,UA,Europe,Eastern Europe,Ukraine,Kyiv City,,Kyiv
89.184.69.139,4,2,autoshini.com,UA,Europe,Eastern Europe,Ukraine,Kyiv City,,Kyiv
91.203.4.45,4,3,aviafilm.com.ua,UA,Europe,Eastern Europe,Ukraine,Kyiv City,,Kyiv
89.184.74.239,4,50,azov.org.ua,UA,Europe,Eastern Europe,Ukraine,Kyiv City,,Kyiv
89.184.70.73,4,10,bacadelo.com,UA,Europe,Eastern Europe,Ukraine,Kyiv City,,Kyiv
185.233.118.140,4,5,bellamozzarella.com.ua,UA,Europe,Eastern Europe,Ukraine,Kyiv City,,Kyiv
77.120.99.7,4,21150,bestessayservicereviewhere.com,UA,Europe,Eastern Europe,Ukraine,Kyiv City,,Kyiv
89.184.68.169,4,25,bezzaryadki.com.ua,UA,Europe,Eastern Europe,Ukraine,Kyiv City,,Kyiv
89.184.93.39,4,55,bit.ua,UA,Europe,Eastern Europe,Ukraine,Kyiv City,,Kyiv
77.87.197.212,4,3,bizol.ua,UA,Europe,Eastern Europe,Ukraine,Kyiv City,,Kyiv
89.184.70.15,4,31,bls.ua,UA,Europe,Eastern Europe,Ukraine,Kyiv City,,Kyiv
193.169.188.210,4,23,bohdan-books.com,UA,Europe,Eastern Europe,Ukraine,Kyiv City,,Kyiv
62.149.25.100,4,4,bookclub.ua,UA,Europe,Eastern Europe,Ukraine,Kyiv City,,Kyiv
89.184.88.90,4,16,bricks.ua,UA,Europe,Eastern Europe,Ukraine,Kyiv City,,Kyiv
89.184.73.206,4,53,bunews.com.ua,UA,Europe,Eastern Europe,Ukraine,Kyiv City,,Kyiv
77.87.199.106,4,59,businessvisit.com.ua,UA,Europe,Eastern Europe,Ukraine,Kyiv City,,Kyiv
212.26.131.198,4,-38239,ccu.gov.ua,UA,Europe,Eastern Europe,Ukraine,Kyiv City,,Kyiv
176.119.25.196,4,-75,certproxywizard.com,UA,Europe,Eastern Europe,Ukraine,Kyiv City,,Kyiv
89.184.68.176,4,5,chainway.net.ua,UA,Europe,Eastern Europe,Ukraine,Kyiv City,,Kyiv
89.184.79.125,4,7,citydoctor.com.ua,UA,Europe,Eastern Europe,Ukraine,Kyiv City,,Kyiv
62.149.2.8,4,9,colocall.net,UA,Europe,Eastern Europe,Ukraine,Kyiv City,,Kyiv
89.184.74.141,4,15,contek.com.ua,UA,Europe,Eastern Europe,Ukraine,Kyiv City,,Kyiv
89.184.77.13,4,50,culturepartnership.eu,UA,Europe,Eastern Europe,Ukraine,Kyiv City,,Kyiv
77.87.193.158,4,163,dec-edu.com,UA,Europe,Eastern Europe,Ukraine,Kyiv City,,Kyiv
89.184.82.89,4,6,dei.gov.ua,UA,Europe,Eastern Europe,Ukraine,Kyiv City,,Kyiv
89.184.65.21,4,940126,deka.ua,UA,Europe,Eastern Europe,Ukraine,Kyiv City,,Kyiv
77.87.196.192,4,13,desktopgames.com.ua,UA,Europe,Eastern Europe,Ukraine,Kyiv City,,Kyiv
77.87.198.155,4,39,desta.biz,UA,Europe,Eastern Europe,Ukraine,Kyiv City,,Kyiv
89.184.74.8,4,8,diagram.com.ua,UA,Europe,Eastern Europe,Ukraine,Kyiv City,,Kyiv
77.222.132.6,4,43,divan.tv,UA,Europe,Eastern Europe,Ukraine,Kyiv City,,Kyiv
77.87.197.171,4,6,dixigroup.org,UA,Europe,Eastern Europe,Ukraine,Kyiv City,,Kyiv
217.20.167.17,4,6295,dkrp.gov.ua,UA,Europe,Eastern Europe,Ukraine,Kyiv City,,Kyiv
92.244.99.205,4,-37,dls.gov.ua,UA,Europe,Eastern Europe,Ukraine,Kyiv City,,Kyiv
88.81.239.196,4,8477116,dnipro-ukr.com.ua,UA,Europe,Eastern Europe,Ukraine,Kyiv City,,Kyiv
109.108.87.96,4,-49312,DNS Server: 109-108-87-96.kievnet.com.ua,UA,Europe,Eastern Europe,Ukraine,Kyiv City,,Kyiv
37.53.85.116,4,3497,DNS Server: 116-85-53-37.pool.ukrtel.net,UA,Europe,Eastern Europe,Ukraine,Kyiv City,,Kyiv
134.249.189.103,4,34908,DNS Server: 134-249-189-103.broadband.kyivstar.net,UA,Europe,Eastern Europe,Ukraine,Kyiv City,,Kyiv
178.136.2.208,4,-17732249,DNS Server: 178-136-1-208.static.vega-ua.net,UA,Europe,Eastern Europe,Ukraine,Kyiv City,,Kyiv
37.53.85.189,4,0,DNS Server: 189-85-53-37.pool.ukrtel.net,UA,Europe,Eastern Europe,Ukraine,Kyiv City,,Kyiv
159.224.182.216,4,11,DNS Server: 216.182.224.159.triolan.net,UA,Europe,Eastern Europe,Ukraine,Kyiv City,,Kyiv
92.60.190.22,4,3023,DNS Server: 22.unassigned.domonet.ua,UA,Europe,Eastern Europe,Ukraine,Kyiv City,,Kyiv
178.150.15.226,4,13789,DNS Server: 226.15.150.178.triolan.net,UA,Europe,Eastern Europe,Ukraine,Kyiv City,,Kyiv
188.247.113.232,4,5123,DNS Server: 232.ipv4.datagroup.ua,UA,Europe,Eastern Europe,Ukraine,Kyiv City,,Kyiv
5.53.115.28,4,9359,DNS Server: 28.infotech.dataline.ua,UA,Europe,Eastern Europe,Ukraine,Kyiv City,,Kyiv
213.160.138.58,4,9,DNS Server: 58-dup138.ldc.net,UA,Europe,Eastern Europe,Ukraine,Kyiv City,,Kyiv
46.201.245.67,4,12654,DNS Server: 67-245-201-46.pool.ukrtel.net,UA,Europe,Eastern Europe,Ukraine,Kyiv City,,Kyiv
82.193.107.136,4,11397,DNS Server: 82.193.107.136.cl.ipnet.ua,UA,Europe,Eastern Europe,Ukraine,Kyiv City,,Kyiv
62.80.167.225,4,-45560992,DNS Server: c.225.167.a228.static.cyfra.net,UA,Europe,Eastern Europe,Ukraine,Kyiv City,,Kyiv
176.36.208.229,4,605,DNS Server: host-176-36-208-229.b024.la.net.ua,UA,Europe,Eastern Europe,Ukraine,Kyiv City,,Kyiv
176.36.219.128,4,33990,DNS Server: host-176-36-219-128.b024.la.net.ua,UA,Europe,Eastern Europe,Ukraine,Kyiv City,,Kyiv
176.36.241.22,4,8490604,DNS Server: host-176-36-241-22.b024.la.net.ua,UA,Europe,Eastern Europe,Ukraine,Kyiv City,,Kyiv
176.37.1.68,4,144,DNS Server: host-176-37-1-68.b025.la.net.ua,UA,Europe,Eastern Europe,Ukraine,Kyiv City,,Kyiv
176.37.11.204,4,3436,DNS Server: host-176-37-11-204.b025.la.net.ua,UA,Europe,Eastern Europe,Ukraine,Kyiv City,,Kyiv
176.37.46.163,4,2839,DNS Server: host-176-37-46-163.b025.la.net.ua,UA,Europe,Eastern Europe,Ukraine,Kyiv City,,Kyiv
176.38.178.54,4,-216793,DNS Server: host-176-38-178-54.b026.la.net.ua,UA,Europe,Eastern Europe,Ukraine,Kyiv City,,Kyiv
195.234.79.213,4,2736,DNS Server: InstitutPidgotovkiKa-gw.lukyan65d67-1.kie.ua.wnet.kie.wnet.ua,UA,Europe,Eastern Europe,Ukraine,Kyiv City,,Kyiv
62.80.184.172,4,-2901,DNS Server: ip-62-80-184-172.cyfra.net,UA,Europe,Eastern Europe,Ukraine,Kyiv City,,Kyiv
185.126.253.45,4,13085,DNS Server: kram.gov.ua,UA,Europe,Eastern Europe,Ukraine,Kyiv City,,Kyiv
195.78.69.142,4,301,DNS Server: mail.thedigital.gov.ua,UA,Europe,Eastern Europe,Ukraine,Kyiv City,,Kyiv
109.86.86.33,4,-7867351,DNS Server: pirs.tvpark.ua,UA,Europe,Eastern Europe,Ukraine,Kyiv City,,Kyiv
95.67.21.231,4,356,DNS Server: robotainter-231.cosmonova.net.ua,UA,Europe,Eastern Europe,Ukraine,Kyiv City,,Kyiv
176.104.59.191,4,1204,DNS Server: s-176-104-59-191.under.net.ua,UA,Europe,Eastern Europe,Ukraine,Kyiv City,,Kyiv
95.47.164.179,4,1945,DNS Server: unallocated179.unioncom.net.ua,UA,Europe,Eastern Europe,Ukraine,Kyiv City,,Kyiv
213.111.121.178,4,28925,DNS Server: unused-213.111.121.178.bilink.ua,UA,Europe,Eastern Europe,Ukraine,Kyiv City,,Kyiv
62.149.27.200,4,48,domik.net,UA,Europe,Eastern Europe,Ukraine,Kyiv City,,Kyiv
62.149.5.12,4,107088,donor.org.ua,UA,Europe,Eastern Europe,Ukraine,Kyiv City,,Kyiv
91.194.251.23,4,24,dream.net.ua,UA,Europe,Eastern Europe,Ukraine,Kyiv City,,Kyiv
89.184.73.65,4,56,drobak.com.ua,UA,Europe,Eastern Europe,Ukraine,Kyiv City,,Kyiv
89.184.72.81,4,7,dspu.edu.ua,UA,Europe,Eastern Europe,Ukraine,Kyiv City,,Kyiv
89.184.79.187,4,9,dveribelorussii.md,UA,Europe,Eastern Europe,Ukraine,Kyiv City,,Kyiv
89.184.90.176,4,7,ecoaction.org.ua,UA,Europe,Eastern Europe,Ukraine,Kyiv City,,Kyiv
89.184.88.99,4,4,ecosoft.ua,UA,Europe,Eastern Europe,Ukraine,Kyiv City,,Kyiv
77.87.196.28,4,5,eden.ua,UA,Europe,Eastern Europe,Ukraine,Kyiv City,,Kyiv
89.184.77.198,4,20,edukation.com.ua,UA,Europe,Eastern Europe,Ukraine,Kyiv City,,Kyiv
77.120.109.205,4,49,ek.ua,UA,Europe,Eastern Europe,Ukraine,Kyiv City,,Kyiv
89.184.70.105,4,88,electrica-shop.com.ua,UA,Europe,Eastern Europe,Ukraine,Kyiv City,,Kyiv
217.76.194.115,4,9,elektrovesti.net,UA,Europe,Eastern Europe,Ukraine,Kyiv City,,Kyiv
195.12.59.36,4,9,elitzoo.com.ua,UA,Europe,Eastern Europe,Ukraine,Kyiv City,,Kyiv
89.184.76.102,4,7,emarket.ua,UA,Europe,Eastern Europe,Ukraine,Kyiv City,,Kyiv
89.184.90.15,4,7,epo.org.ua,UA,Europe,Eastern Europe,Ukraine,Kyiv City,,Kyiv
77.222.139.43,4,119,ersel.com.ua,UA,Europe,Eastern Europe,Ukraine,Kyiv City,,Kyiv
139.28.37.239,4,14,essentialsclothinguk.com,UA,Europe,Eastern Europe,Ukraine,Kyiv City,,Kyiv
77.87.199.207,4,19,estet-portal.com,UA,Europe,Eastern Europe,Ukraine,Kyiv City,,Kyiv
213.160.150.149,4,13102,eurolab.ua,UA,Europe,Eastern Europe,Ukraine,Kyiv City,,Kyiv
89.184.76.145,4,12,expert.com.ua,UA,Europe,Eastern Europe,Ukraine,Kyiv City,,Kyiv
62.149.25.84,4,9,fashionweek.ua,UA,Europe,Eastern Europe,Ukraine,Kyiv City,,Kyiv
77.87.193.24,4,37,favoritti.com,UA,Europe,Eastern Europe,Ukraine,Kyiv City,,Kyiv
77.87.196.233,4,31,fit4brain.com,UA,Europe,Eastern Europe,Ukraine,Kyiv City,,Kyiv
194.33.180.208,4,5,flora24.com.ua,UA,Europe,Eastern Europe,Ukraine,Kyiv City,,Kyiv
89.184.77.47,4,9,floristics.info,UA,Europe,Eastern Europe,Ukraine,Kyiv City,,Kyiv
62.149.25.33,4,143,footwear.ua,UA,Europe,Eastern Europe,Ukraine,Kyiv City,,Kyiv
89.184.74.193,4,5,forter.com.ua,UA,Europe,Eastern Europe,Ukraine,Kyiv City,,Kyiv
94.176.197.158,4,188,fpsu.org.ua,UA,Europe,Eastern Europe,Ukraine,Kyiv City,,Kyiv
89.184.77.193,4,9,funquest.com.ua,UA,Europe,Eastern Europe,Ukraine,Kyiv City,,Kyiv
89.184.78.74,4,4,fw-daily.com,UA,Europe,Eastern Europe,Ukraine,Kyiv City,,Kyiv
193.169.188.254,4,5,gambling-law-us.com,UA,Europe,Eastern Europe,Ukraine,Kyiv City,,Kyiv
89.184.79.135,4,94,geniusmarketing.me,UA,Europe,Eastern Europe,Ukraine,Kyiv City,,Kyiv
89.184.91.59,4,6,globusbank.com.ua,UA,Europe,Eastern Europe,Ukraine,Kyiv City,,Kyiv
89.184.72.122,4,37,gogetnews.info,UA,Europe,Eastern Europe,Ukraine,Kyiv City,,Kyiv
89.184.95.225,4,6,golosua.com,UA,Europe,Eastern Europe,Ukraine,Kyiv City,,Kyiv
77.87.193.198,4,52,grandbiser.com,UA,Europe,Eastern Europe,Ukraine,Kyiv City,,Kyiv
178.20.157.132,4,3,hardfitness.com.ua,UA,Europe,Eastern Europe,Ukraine,Kyiv City,,Kyiv
130.0.235.103,4,-6653,hasan.com.ua,UA,Europe,Eastern Europe,Ukraine,Kyiv City,,Kyiv
91.194.251.87,4,6,hiblogger.net,UA,Europe,Eastern Europe,Ukraine,Kyiv City,,Kyiv
89.184.68.36,4,-2,hitfm.ua,UA,Europe,Eastern Europe,Ukraine,Kyiv City,,Kyiv
77.120.121.243,4,8323491,hnb.com.ua,UA,Europe,Eastern Europe,Ukraine,Kyiv City,,Kyiv
89.184.68.12,4,20,hod-konem.com,UA,Europe,Eastern Europe,Ukraine,Kyiv City,,Kyiv
77.87.194.74,4,67,holodomorct.org,UA,Europe,Eastern Europe,Ukraine,Kyiv City,,Kyiv
77.120.124.80,4,12,hrliga.com,UA,Europe,Eastern Europe,Ukraine,Kyiv City,,Kyiv
77.87.194.209,4,5,hyundai.com.ua,UA,Europe,Eastern Europe,Ukraine,Kyiv City,,Kyiv
89.184.95.72,4,35,icm.com.ua,UA,Europe,Eastern Europe,Ukraine,Kyiv City,,Kyiv
89.184.74.212,4,11,iea.gov.ua,UA,Europe,Eastern Europe,Ukraine,Kyiv City,,Kyiv
89.184.78.139,4,9,iforum.ua,UA,Europe,Eastern Europe,Ukraine,Kyiv City,,Kyiv
89.184.89.223,4,12,ikra-shop.com.ua,UA,Europe,Eastern Europe,Ukraine,Kyiv City,,Kyiv
89.184.76.249,4,28,ilenta.com,UA,Europe,Eastern Europe,Ukraine,Kyiv City,,Kyiv
195.39.197.221,4,3,imena.ua,UA,Europe,Eastern Europe,Ukraine,Kyiv City,,Kyiv
62.149.28.83,4,5,imzo.gov.ua,UA,Europe,Eastern Europe,Ukraine,Kyiv City,,Kyiv
89.184.72.9,4,19,innet-trading.com,UA,Europe,Eastern Europe,Ukraine,Kyiv City,,Kyiv
89.184.88.136,4,24,insait.ua,UA,Europe,Eastern Europe,Ukraine,Kyiv City,,Kyiv
77.87.199.124,4,34,interia.com.ua,UA,Europe,Eastern Europe,Ukraine,Kyiv City,,Kyiv
89.184.90.94,4,22,interpipe.biz,UA,Europe,Eastern Europe,Ukraine,Kyiv City,,Kyiv
89.184.79.214,4,36,istore.ua,UA,Europe,Eastern Europe,Ukraine,Kyiv City,,Kyiv
77.87.199.37,4,49,it-kharkiv.com,UA,Europe,Eastern Europe,Ukraine,Kyiv City,,Kyiv
89.184.78.214,4,81,itarena.ua,UA,Europe,Eastern Europe,Ukraine,Kyiv City,,Kyiv
89.184.78.203,4,32,itc-compass.com,UA,Europe,Eastern Europe,Ukraine,Kyiv City,,Kyiv
134.249.129.195,4,3,itkr.com.ua,UA,Europe,Eastern Europe,Ukraine,Kyiv City,,Kyiv
89.184.76.241,4,16,izmail.es,UA,Europe,Eastern Europe,Ukraine,Kyiv City,,Kyiv
82.144.223.84,4,2,jkg-portal.com.ua,UA,Europe,Eastern Europe,Ukraine,Kyiv City,,Kyiv
178.20.158.124,4,2,jobs.ua,UA,Europe,Eastern Europe,Ukraine,Kyiv City,,Kyiv
89.184.79.129,4,6,juridicheskij-supermarket.ua,UA,Europe,Eastern Europe,Ukraine,Kyiv City,,Kyiv
89.184.82.219,4,-1036053,justsay.ru,UA,Europe,Eastern Europe,Ukraine,Kyiv City,,Kyiv
185.233.117.209,4,2,karpataljalap.net,UA,Europe,Eastern Europe,Ukraine,Kyiv City,,Kyiv
89.184.76.170,4,5,khersonci.com.ua,UA,Europe,Eastern Europe,Ukraine,Kyiv City,,Kyiv
89.184.68.161,4,-3,kidstaff.com.ua,UA,Europe,Eastern Europe,Ukraine,Kyiv City,,Kyiv
212.113.38.115,4,1910,kievisp.com,UA,Europe,Eastern Europe,Ukraine,Kyiv City,,Kyiv
77.87.195.195,4,36,kiis.com.ua,UA,Europe,Eastern Europe,Ukraine,Kyiv City,,Kyiv
91.194.251.147,4,51,kino-teatr.ua,UA,Europe,Eastern Europe,Ukraine,Kyiv City,,Kyiv
89.184.73.207,4,6,kms.com.ua,UA,Europe,Eastern Europe,Ukraine,Kyiv City,,Kyiv
91.202.128.77,4,236369,knu.ua,UA,Europe,Eastern Europe,Ukraine,Kyiv City,,Kyiv
212.109.61.162,4,-1,kolokray.com,UA,Europe,Eastern Europe,Ukraine,Kyiv City,,Kyiv
62.149.5.36,4,8,konkors.com.ua,UA,Europe,Eastern Europe,Ukraine,Kyiv City,,Kyiv
77.87.192.113,4,10,koruna.ua,UA,Europe,Eastern Europe,Ukraine,Kyiv City,,Kyiv
178.20.154.4,4,10801119,kosmodrom.com.ua,UA,Europe,Eastern Europe,Ukraine,Kyiv City,,Kyiv
89.184.79.183,4,123,kremenchug.info,UA,Europe,Eastern Europe,Ukraine,Kyiv City,,Kyiv
62.182.84.119,4,-6,kronopolo.com,UA,Europe,Eastern Europe,Ukraine,Kyiv City,,Kyiv
217.20.175.6,4,10,kronverskiy.ru,UA,Europe,Eastern Europe,Ukraine,Kyiv City,,Kyiv
77.87.192.83,4,6,ktozvonit.com.ua,UA,Europe,Eastern Europe,Ukraine,Kyiv City,,Kyiv
89.184.76.220,4,8,kuchma.org.ua,UA,Europe,Eastern Europe,Ukraine,Kyiv City,,Kyiv
89.184.91.149,4,31,kult-mebeli.com.ua,UA,Europe,Eastern Europe,Ukraine,Kyiv City,,Kyiv
213.160.146.51,4,26,kvs.gov.ua,UA,Europe,Eastern Europe,Ukraine,Kyiv City,,Kyiv
89.184.74.113,4,4,kyivmaps.com,UA,Europe,Eastern Europe,Ukraine,Kyiv City,,Kyiv
185.253.218.123,4,38,la2portal.com.ua,UA,Europe,Eastern Europe,Ukraine,Kyiv City,,Kyiv
178.20.152.157,4,99,ladan.com.ua,UA,Europe,Eastern Europe,Ukraine,Kyiv City,,Kyiv
178.20.154.213,4,35,laserhouse.com.ua,UA,Europe,Eastern Europe,Ukraine,Kyiv City,,Kyiv
89.184.76.190,4,4,lavra.ua,UA,Europe,Eastern Europe,Ukraine,Kyiv City,,Kyiv
77.120.110.220,4,99,lawyer.ua,UA,Europe,Eastern Europe,Ukraine,Kyiv City,,Kyiv
193.218.118.42,4,45,library.lol,UA,Europe,Eastern Europe,Ukraine,Kyiv City,,Kyiv
185.233.116.20,4,1,like-themes.com,UA,Europe,Eastern Europe,Ukraine,Kyiv City,,Kyiv
89.184.68.20,4,69,liraland.ua,UA,Europe,Eastern Europe,Ukraine,Kyiv City,,Kyiv
89.184.78.6,4,8,lks.ua,UA,Europe,Eastern Europe,Ukraine,Kyiv City,,Kyiv
89.184.76.235,4,31,loveprint.com.ua,UA,Europe,Eastern Europe,Ukraine,Kyiv City,,Kyiv
77.87.196.220,4,11,lubimivka.com,UA,Europe,Eastern Europe,Ukraine,Kyiv City,,Kyiv
89.184.89.159,4,22,luxgroups.ua,UA,Europe,Eastern Europe,Ukraine,Kyiv City,,Kyiv
89.184.74.41,4,8,macmillanukraine.com,UA,Europe,Eastern Europe,Ukraine,Kyiv City,,Kyiv
89.184.78.145,4,7,magniflex.ua,UA,Europe,Eastern Europe,Ukraine,Kyiv City,,Kyiv
178.20.156.198,4,3,makivka.com,UA,Europe,Eastern Europe,Ukraine,Kyiv City,,Kyiv
91.205.18.71,4,52,mapsland.com,UA,Europe,Eastern Europe,Ukraine,Kyiv City,,Kyiv
77.87.197.245,4,51,maristella.com.ua,UA,Europe,Eastern Europe,Ukraine,Kyiv City,,Kyiv
89.184.93.71,4,4,marketmebeli.com,UA,Europe,Eastern Europe,Ukraine,Kyiv City,,Kyiv
193.169.188.66,4,34,martin.com.ua,UA,Europe,Eastern Europe,Ukraine,Kyiv City,,Kyiv
77.87.196.30,4,20,maxiclimate.com.ua,UA,Europe,Eastern Europe,Ukraine,Kyiv City,,Kyiv
89.184.78.215,4,28,mayak.org.ua,UA,Europe,Eastern Europe,Ukraine,Kyiv City,,Kyiv
193.169.188.189,4,4,mazdaclub.ua,UA,Europe,Eastern Europe,Ukraine,Kyiv City,,Kyiv
89.184.73.84,4,4,mbastrategy.ua,UA,Europe,Eastern Europe,Ukraine,Kyiv City,,Kyiv
77.87.195.32,4,3,mcgroup.com.ua,UA,Europe,Eastern Europe,Ukraine,Kyiv City,,Kyiv
89.184.78.45,4,21,mdclinics.com.ua,UA,Europe,Eastern Europe,Ukraine,Kyiv City,,Kyiv
91.203.147.211,4,17,mebel-fabrik.com.ua,UA,Europe,Eastern Europe,Ukraine,Kyiv City,,Kyiv
62.149.5.102,4,60,med-magazin.ua,UA,Europe,Eastern Europe,Ukraine,Kyiv City,,Kyiv
89.184.74.49,4,5,medcity.ua,UA,Europe,Eastern Europe,Ukraine,Kyiv City,,Kyiv
91.194.251.225,4,8,mediananny.com,UA,Europe,Eastern Europe,Ukraine,Kyiv City,,Kyiv
62.149.23.194,4,2,medtechnika.com.ua,UA,Europe,Eastern Europe,Ukraine,Kyiv City,,Kyiv
37.52.54.116,4,-13579,memory.gov.ua,UA,Europe,Eastern Europe,Ukraine,Kyiv City,,Kyiv
89.184.90.103,4,94,menslife.com,UA,Europe,Eastern Europe,Ukraine,Kyiv City,,Kyiv
77.87.192.194,4,17,metroui.org.ua,UA,Europe,Eastern Europe,Ukraine,Kyiv City,,Kyiv
195.39.197.223,4,2,mirohost.net,UA,Europe,Eastern Europe,Ukraine,Kyiv City,,Kyiv
77.87.193.129,4,11,mirpola-dekora.com.ua,UA,Europe,Eastern Europe,Ukraine,Kyiv City,,Kyiv
185.233.117.82,4,6,mistaua.com,UA,Europe,Eastern Europe,Ukraine,Kyiv City,,Kyiv
89.184.90.10,4,12,mnogomest.info,UA,Europe,Eastern Europe,Ukraine,Kyiv City,,Kyiv
89.184.69.233,4,0,mozayka.com.ua,UA,Europe,Eastern Europe,Ukraine,Kyiv City,,Kyiv
185.128.235.3,4,3,msl.ua,UA,Europe,Eastern Europe,Ukraine,Kyiv City,,Kyiv
62.149.0.215,4,35,mycounter.ua,UA,Europe,Eastern Europe,Ukraine,Kyiv City,,Kyiv
89.184.72.90,4,6,mycountry.com.ua,UA,Europe,Eastern Europe,Ukraine,Kyiv City,,Kyiv
77.87.194.92,4,7,naas.gov.ua,UA,Europe,Eastern Europe,Ukraine,Kyiv City,,Kyiv
77.120.109.207,4,8,nadavi.com.ua,UA,Europe,Eastern Europe,Ukraine,Kyiv City,,Kyiv
89.184.68.74,4,0,nashigroshi.org,UA,Europe,Eastern Europe,Ukraine,Kyiv City,,Kyiv
89.184.68.185,4,17,nature-revive.org,UA,Europe,Eastern Europe,Ukraine,Kyiv City,,Kyiv
91.142.175.20,4,-30165,nazk.gov.ua,UA,Europe,Eastern Europe,Ukraine,Kyiv City,,Kyiv
89.184.72.111,4,6,nazva.net,UA,Europe,Eastern Europe,Ukraine,Kyiv City,,Kyiv
62.182.84.39,4,-7,nbastorecanada.ca,UA,Europe,Eastern Europe,Ukraine,Kyiv City,,Kyiv
77.87.195.88,4,5,nbc.ua,UA,Europe,Eastern Europe,Ukraine,Kyiv City,,Kyiv
89.184.89.39,4,10,nefterynok.info,UA,Europe,Eastern Europe,Ukraine,Kyiv City,,Kyiv
89.184.72.170,4,26,newhorizons.com.ua,UA,Europe,Eastern Europe,Ukraine,Kyiv City,,Kyiv
194.60.69.12,4,1832651,news2000.com.ua,UA,Europe,Eastern Europe,Ukraine,Kyiv City,,Kyiv
5.181.248.211,4,2,nkau.gov.ua,UA,Europe,Eastern Europe,Ukraine,Kyiv City,,Kyiv
89.184.68.9,4,0,nobu.com.ua,UA,Europe,Eastern Europe,Ukraine,Kyiv City,,Kyiv
185.128.233.66,4,5,novaposhta.ua,UA,Europe,Eastern Europe,Ukraine,Kyiv City,,Kyiv
89.184.85.86,4,7,novaposhta.ua,UA,Europe,Eastern Europe,Ukraine,Kyiv City,,Kyiv
213.108.75.167,4,4,nplu.org,UA,Europe,Eastern Europe,Ukraine,Kyiv City,,Kyiv
212.111.197.11,4,-500254,npu.edu.ua,UA,Europe,Eastern Europe,Ukraine,Kyiv City,,Kyiv
89.184.77.238,4,10,nrfu.org.ua,UA,Europe,Eastern Europe,Ukraine,Kyiv City,,Kyiv
178.20.153.142,4,6,nusta.edu.ua,UA,Europe,Eastern Europe,Ukraine,Kyiv City,,Kyiv
185.250.23.18,4,48,obliksoft.com.ua,UA,Europe,Eastern Europe,Ukraine,Kyiv City,,Kyiv
89.184.91.154,4,21,ocean-wood.com,UA,Europe,Eastern Europe,Ukraine,Kyiv City,,Kyiv
185.128.235.121,4,60,onlinecorrector.com.ua,UA,Europe,Eastern Europe,Ukraine,Kyiv City,,Kyiv
95.67.49.122,4,322,Ookla Speedtest Server 5447: speedtest.cosmonova.net,UA,Europe,Eastern Europe,Ukraine,Kyiv City,,Kyiv
212.26.128.168,4,291,Ookla Speedtest Server 5884: speedtest.adamant.net,UA,Europe,Eastern Europe,Ukraine,Kyiv City,,Kyiv
176.122.99.72,4,2484,Ookla Speedtest Server 6088: st1.utelecom.com.ua,UA,Europe,Eastern Europe,Ukraine,Kyiv City,,Kyiv
176.122.99.73,4,-822877,Ookla Speedtest Server 6099: st2.utelecom.com.ua,UA,Europe,Eastern Europe,Ukraine,Kyiv City,,Kyiv
77.52.198.14,4,225,Ookla Speedtest Server 16747: speedtest.vodafone.ua,UA,Europe,Eastern Europe,Ukraine,Kyiv City,,Kyiv
193.228.2.5,4,132,Ookla Speedtest Server 18317: speedtest.slav.dn.ua,UA,Europe,Eastern Europe,Ukraine,Kyiv City,,Kyiv
185.86.79.107,4,-112548,Ookla Speedtest Server 22130: speedtest.gmhost.com.ua,UA,Europe,Eastern Europe,Ukraine,Kyiv City,,Kyiv
45.14.108.46,4,306,Ookla Speedtest Server 22290: speedtest.eurotele.com.ua,UA,Europe,Eastern Europe,Ukraine,Kyiv City,,Kyiv
93.171.241.12,4,366,Ookla Speedtest Server 24003: speedtest.m-tele.com.ua,UA,Europe,Eastern Europe,Ukraine,Kyiv City,,Kyiv
93.171.241.14,4,378,Ookla Speedtest Server 24004: speedtest.i-tele.com.ua,UA,Europe,Eastern Europe,Ukraine,Kyiv City,,Kyiv
92.60.177.7,4,10794661,Ookla Speedtest Server 33632: sp1.prolvl.net,UA,Europe,Eastern Europe,Ukraine,Kyiv City,,Kyiv
176.105.221.50,4,363,Ookla Speedtest Server 39411: speedtest.homenet.ua,UA,Europe,Eastern Europe,Ukraine,Kyiv City,,Kyiv
194.42.112.5,4,415,Ookla Speedtest Server 40778: speedtest.ikstelecom.net.ua,UA,Europe,Eastern Europe,Ukraine,Kyiv City,,Kyiv
178.20.152.31,4,455,Ookla Speedtest Server 44026: speedtest.freehost.com.ua,UA,Europe,Eastern Europe,Ukraine,Kyiv City,,Kyiv
94.125.121.69,4,415,Ookla Speedtest Server 47717: speed.ukr-com.net,UA,Europe,Eastern Europe,Ukraine,Kyiv City,,Kyiv
91.227.180.14,4,341,Ookla Speedtest Server 56858: speedtest.utels.ua,UA,Europe,Eastern Europe,Ukraine,Kyiv City,,Kyiv
84.234.108.22,4,325,Ookla Speedtest Server 60343: mail.citylan.net.ua,UA,Europe,Eastern Europe,Ukraine,Kyiv City,,Kyiv
45.90.16.15,4,326,Ookla Speedtest Server 62509: speedtest.okinet.com.ua,UA,Europe,Eastern Europe,Ukraine,Kyiv City,,Kyiv
62.205.132.249,4,1090,Ookla Speedtest Server: speedtest.netassist.ua,UA,Europe,Eastern Europe,Ukraine,Kyiv City,,Kyiv
82.207.79.76,4,1490,Ookla Speedtest Server: speedtest.ukrtelecom.ua,UA,Europe,Eastern Europe,Ukraine,Kyiv City,,Kyiv
178.20.156.185,4,26,open.ua,UA,Europe,Eastern Europe,Ukraine,Kyiv City,,Kyiv
194.33.180.61,4,8,open4business.com.ua,UA,Europe,Eastern Europe,Ukraine,Kyiv City,,Kyiv
77.87.194.105,4,5,oxford-med.com.ua,UA,Europe,Eastern Europe,Ukraine,Kyiv City,,Kyiv
62.182.84.243,4,4,pandora-charmssaleclearance.us,UA,Europe,Eastern Europe,Ukraine,Kyiv City,,Kyiv
91.205.17.192,4,524680,parus.ua,UA,Europe,Eastern Europe,Ukraine,Kyiv City,,Kyiv
178.20.154.150,4,44,patrioty.org.ua,UA,Europe,Eastern Europe,Ukraine,Kyiv City,,Kyiv
89.184.65.127,4,9,pawnbat.com,UA,Europe,Eastern Europe,Ukraine,Kyiv City,,Kyiv
89.184.68.56,4,63,pcweek.ua,UA,Europe,Eastern Europe,Ukraine,Kyiv City,,Kyiv
62.149.7.45,4,5,piligrim.ua,UA,Europe,Eastern Europe,Ukraine,Kyiv City,,Kyiv
91.205.16.66,4,4,pnpu.edu.ua,UA,Europe,Eastern Europe,Ukraine,Kyiv City,,Kyiv
91.219.60.79,4,31,pochaev.org.ua,UA,Europe,Eastern Europe,Ukraine,Kyiv City,,Kyiv
193.178.144.111,4,40,pon.org.ua,UA,Europe,Eastern Europe,Ukraine,Kyiv City,,Kyiv
89.184.74.37,4,38,poverkhnost.tv,UA,Europe,Eastern Europe,Ukraine,Kyiv City,,Kyiv
62.149.0.23,4,6,poznayka.ru,UA,Europe,Eastern Europe,Ukraine,Kyiv City,,Kyiv
77.87.194.60,4,32,pravda.press,UA,Europe,Eastern Europe,Ukraine,Kyiv City,,Kyiv
178.20.158.103,4,49,presa.ua,UA,Europe,Eastern Europe,Ukraine,Kyiv City,,Kyiv
89.184.75.213,4,27,pressorg24.com,UA,Europe,Eastern Europe,Ukraine,Kyiv City,,Kyiv
176.107.176.66,4,33,pro-consulting.ua,UA,Europe,Eastern Europe,Ukraine,Kyiv City,,Kyiv
91.203.4.44,4,39,prochurch.info,UA,Europe,Eastern Europe,Ukraine,Kyiv City,,Kyiv
89.184.76.40,4,9,prodj.com.ua,UA,Europe,Eastern Europe,Ukraine,Kyiv City,,Kyiv
62.149.26.52,4,1588165,proext.com,UA,Europe,Eastern Europe,Ukraine,Kyiv City,,Kyiv
77.123.155.94,4,11,profootball.ua,UA,Europe,Eastern Europe,Ukraine,Kyiv City,,Kyiv
89.184.69.86,4,26,promobud.ua,UA,Europe,Eastern Europe,Ukraine,Kyiv City,,Kyiv
193.169.188.152,4,5,psy-practice.com,UA,Europe,Eastern Europe,Ukraine,Kyiv City,,Kyiv
91.205.16.133,4,49,psylib.org.ua,UA,Europe,Eastern Europe,Ukraine,Kyiv City,,Kyiv
77.87.199.250,4,32,puet.edu.ua,UA,Europe,Eastern Europe,Ukraine,Kyiv City,,Kyiv
89.184.77.128,4,6,pzu.com.ua,UA,Europe,Eastern Europe,Ukraine,Kyiv City,,Kyiv
89.184.69.170,4,109,radioroks.ua,UA,Europe,Eastern Europe,Ukraine,Kyiv City,,Kyiv
89.184.92.104,4,59,realgazeta.com.ua,UA,Europe,Eastern Europe,Ukraine,Kyiv City,,Kyiv
77.120.119.25,4,22,receptika.ua,UA,Europe,Eastern Europe,Ukraine,Kyiv City,,Kyiv
89.184.69.209,4,48,reform.energy,UA,Europe,Eastern Europe,Ukraine,Kyiv City,,Kyiv
89.184.92.26,4,11,rental-power.com.ua,UA,Europe,Eastern Europe,Ukraine,Kyiv City,,Kyiv
89.184.66.83,4,28,rezina.ua,UA,Europe,Eastern Europe,Ukraine,Kyiv City,,Kyiv
91.203.147.87,4,14,rivne-news.com.ua,UA,Europe,Eastern Europe,Ukraine,Kyiv City,,Kyiv
89.184.79.154,4,10,romstal.ua,UA,Europe,Eastern Europe,Ukraine,Kyiv City,,Kyiv
77.120.120.231,4,23,rstcars.com,UA,Europe,Eastern Europe,Ukraine,Kyiv City,,Kyiv
62.244.25.73,4,7,rtkorr.com,UA,Europe,Eastern Europe,Ukraine,Kyiv City,,Kyiv
89.184.73.102,4,64,ruporzt.com.ua,UA,Europe,Eastern Europe,Ukraine,Kyiv City,,Kyiv
212.1.77.173,4,59,sai.gov.ua,UA,Europe,Eastern Europe,Ukraine,Kyiv City,,Kyiv
89.184.69.142,4,7,salonlustr.com.ua,UA,Europe,Eastern Europe,Ukraine,Kyiv City,,Kyiv
89.184.72.49,4,6,sd.net.ua,UA,Europe,Eastern Europe,Ukraine,Kyiv City,,Kyiv
89.184.65.27,4,940102,secunda.com.ua,UA,Europe,Eastern Europe,Ukraine,Kyiv City,,Kyiv
178.20.158.239,4,8,sergeidovlatov.com,UA,Europe,Eastern Europe,Ukraine,Kyiv City,,Kyiv
89.184.74.208,4,59,set.ua,UA,Europe,Eastern Europe,Ukraine,Kyiv City,,Kyiv
89.184.76.76,4,7,simplyroad.ua,UA,Europe,Eastern Europe,Ukraine,Kyiv City,,Kyiv
89.184.94.114,4,7,sinitargaming.com,UA,Europe,Eastern Europe,Ukraine,Kyiv City,,Kyiv
89.184.75.57,4,6,slavuta-mvk.gov.ua,UA,Europe,Eastern Europe,Ukraine,Kyiv City,,Kyiv
91.202.75.140,4,971308,smida.gov.ua,UA,Europe,Eastern Europe,Ukraine,Kyiv City,,Kyiv
89.184.77.112,4,8,sport-engine.com,UA,Europe,Eastern Europe,Ukraine,Kyiv City,,Kyiv
31.172.65.221,4,2,sportonline.ua,UA,Europe,Eastern Europe,Ukraine,Kyiv City,,Kyiv
185.233.119.59,4,10,sportsummit.ua,UA,Europe,Eastern Europe,Ukraine,Kyiv City,,Kyiv
163.171.137.16,4,4,stnn.cc,UA,Europe,Eastern Europe,Ukraine,Kyiv City,,Kyiv
77.87.193.182,4,7,sundaynews.info,UA,Europe,Eastern Europe,Ukraine,Kyiv City,,Kyiv
213.160.158.194,4,1670,survarium.com,UA,Europe,Eastern Europe,Ukraine,Kyiv City,,Kyiv
91.219.60.108,4,638,ta-odessa.com,UA,Europe,Eastern Europe,Ukraine,Kyiv City,,Kyiv
77.87.195.44,4,23,temis.ua,UA,Europe,Eastern Europe,Ukraine,Kyiv City,,Kyiv
89.184.83.77,4,-6798,theinsider.ua,UA,Europe,Eastern Europe,Ukraine,Kyiv City,,Kyiv
89.184.79.31,4,7,timeua.info,UA,Europe,Eastern Europe,Ukraine,Kyiv City,,Kyiv
89.184.68.44,4,2,toyota-ua.com,UA,Europe,Eastern Europe,Ukraine,Kyiv City,,Kyiv
77.87.192.171,4,9,toyota.com.ua,UA,Europe,Eastern Europe,Ukraine,Kyiv City,,Kyiv
89.184.69.28,4,22,trademaster.ua,UA,Europe,Eastern Europe,Ukraine,Kyiv City,,Kyiv
62.182.86.209,4,5,trilema.com,UA,Europe,Eastern Europe,Ukraine,Kyiv City,,Kyiv
77.123.138.205,4,30,tuthost.ua,UA,Europe,Eastern Europe,Ukraine,Kyiv City,,Kyiv
89.184.72.65,4,25,ua-today.com,UA,Europe,Eastern Europe,Ukraine,Kyiv City,,Kyiv
91.229.78.170,4,11,ua.market,UA,Europe,Eastern Europe,Ukraine,Kyiv City,,Kyiv
77.87.193.181,4,12,uaf.org.ua,UA,Europe,Eastern Europe,Ukraine,Kyiv City,,Kyiv
212.109.61.167,4,30,uap.org.ua,UA,Europe,Eastern Europe,Ukraine,Kyiv City,,Kyiv
89.184.74.160,4,7,uga.ua,UA,Europe,Eastern Europe,Ukraine,Kyiv City,,Kyiv
89.184.90.29,4,7,ukraineworld.org,UA,Europe,Eastern Europe,Ukraine,Kyiv City,,Kyiv
193.169.189.89,4,5,ukrfun.com.ua,UA,Europe,Eastern Europe,Ukraine,Kyiv City,,Kyiv
77.87.199.95,4,41,ukrfunds.com.ua,UA,Europe,Eastern Europe,Ukraine,Kyiv City,,Kyiv
62.149.0.11,4,1416,ukrlit.org,UA,Europe,Eastern Europe,Ukraine,Kyiv City,,Kyiv
89.184.95.76,4,46,ukroboronprom.com.ua,UA,Europe,Eastern Europe,Ukraine,Kyiv City,,Kyiv
213.160.144.254,4,40,ukrpatent.org,UA,Europe,Eastern Europe,Ukraine,Kyiv City,,Kyiv
62.149.29.98,4,49,ukrzoloto.ua,UA,Europe,Eastern Europe,Ukraine,Kyiv City,,Kyiv
77.120.113.139,4,8,ukurier.gov.ua,UA,Europe,Eastern Europe,Ukraine,Kyiv City,,Kyiv
217.20.175.5,4,42,ultras.lv,UA,Europe,Eastern Europe,Ukraine,Kyiv City,,Kyiv
77.87.192.133,4,21,un.org.ua,UA,Europe,Eastern Europe,Ukraine,Kyiv City,,Kyiv
89.184.76.203,4,37,universalna.com,UA,Europe,Eastern Europe,Ukraine,Kyiv City,,Kyiv
62.149.0.151,4,13,unt.ua,UA,Europe,Eastern Europe,Ukraine,Kyiv City,,Kyiv
185.250.20.192,4,6,usfa.gov.ua,UA,Europe,Eastern Europe,Ukraine,Kyiv City,,Kyiv
77.87.195.27,4,9,utp.com.ua,UA,Europe,Eastern Europe,Ukraine,Kyiv City,,Kyiv
89.184.89.250,4,7,uwf.org.ua,UA,Europe,Eastern Europe,Ukraine,Kyiv City,,Kyiv
77.222.135.210,4,108,vaks.gov.ua,UA,Europe,Eastern Europe,Ukraine,Kyiv City,,Kyiv
193.169.189.186,4,26269249,vasilkov.city,UA,Europe,Eastern Europe,Ukraine,Kyiv City,,Kyiv
95.67.14.185,4,4,veneto.ua,UA,Europe,Eastern Europe,Ukraine,Kyiv City,,Kyiv
77.87.195.219,4,15,ventels.com.ua,UA,Europe,Eastern Europe,Ukraine,Kyiv City,,Kyiv
91.205.18.70,4,98,vidiani.com,UA,Europe,Eastern Europe,Ukraine,Kyiv City,,Kyiv
77.87.193.210,4,7,vipyork.com.ua,UA,Europe,Eastern Europe,Ukraine,Kyiv City,,Kyiv
89.184.91.146,4,8,vitannya.com.ua,UA,Europe,Eastern Europe,Ukraine,Kyiv City,,Kyiv
77.120.117.18,4,40,vlasenko.net,UA,Europe,Eastern Europe,Ukraine,Kyiv City,,Kyiv
176.102.34.146,4,16,vobu.ua,UA,Europe,Eastern Europe,Ukraine,Kyiv City,,Kyiv
89.184.77.102,4,37,volyninfo.com,UA,Europe,Eastern Europe,Ukraine,Kyiv City,,Kyiv
77.120.117.86,4,57,vse.ua,UA,Europe,Eastern Europe,Ukraine,Kyiv City,,Kyiv
194.1.195.46,4,1460,vsei.ua,UA,Europe,Eastern Europe,Ukraine,Kyiv City,,Kyiv
89.184.73.225,4,14,walton.biz,UA,Europe,Eastern Europe,Ukraine,Kyiv City,,Kyiv
89.184.73.158,4,18,wedding.ua,UA,Europe,Eastern Europe,Ukraine,Kyiv City,,Kyiv
89.184.74.196,4,9,wellcrypto.io,UA,Europe,Eastern Europe,Ukraine,Kyiv City,,Kyiv
89.184.94.25,4,11,weltex.com.ua,UA,Europe,Eastern Europe,Ukraine,Kyiv City,,Kyiv
89.184.82.117,4,42,wog.ua,UA,Europe,Eastern Europe,Ukraine,Kyiv City,,Kyiv
89.184.68.106,4,20,womanadvice.ru,UA,Europe,Eastern Europe,Ukraine,Kyiv City,,Kyiv
77.120.102.145,4,5,worldnewsage.com,UA,Europe,Eastern Europe,Ukraine,Kyiv City,,Kyiv
89.184.79.27,4,11,wpcalc.com,UA,Europe,Eastern Europe,Ukraine,Kyiv City,,Kyiv
195.12.59.57,4,72,xn--80aaahwfaullzm.com.ua,UA,Europe,Eastern Europe,Ukraine,Kyiv City,,Kyiv
89.184.89.203,4,6,yaltavesti.com,UA,Europe,Eastern Europe,Ukraine,Kyiv City,,Kyiv
193.218.118.93,4,7,ymp4.download,UA,Europe,Eastern Europe,Ukraine,Kyiv City,,Kyiv
89.184.78.152,4,32,zagorodna.com,UA,Europe,Eastern Europe,Ukraine,Kyiv City,,Kyiv
77.123.131.90,4,167650,zarya-lugansk.com,UA,Europe,Eastern Europe,Ukraine,Kyiv City,,Kyiv
178.20.158.44,4,9,zdravoe.com,UA,Europe,Eastern Europe,Ukraine,Kyiv City,,Kyiv
89.184.70.2,4,4,zib.com.ua,UA,Europe,Eastern Europe,Ukraine,Kyiv City,,Kyiv
212.26.146.18,4,6,znaimo.gov.ua,UA,Europe,Eastern Europe,Ukraine,Kyiv City,,Kyiv
