reflector_ip,ip_version,offset,description,country_code,region,sub_region,country_name,sub_division_1,sub_division_2,city
123.129.227.25,4,586,51credit.com,CN,Asia,Eastern Asia,China,Shandong,,Dongying
123.129.226.32,4,462,cannews.com.cn,CN,Asia,Eastern Asia,China,Shandong,,Dongying
123.129.226.3,4,1556,cannews.com.cn,CN,Asia,Eastern Asia,China,Shandong,,Dongying
123.129.226.37,4,473,chinania.org.cn,CN,Asia,Eastern Asia,China,Shandong,,Dongying
123.129.226.7,4,1560,chinania.org.cn,CN,Asia,Eastern Asia,China,Shandong,,Dongying
123.129.226.39,4,455,firsthospital.cn,CN,Asia,Eastern Asia,China,Shandong,,Dongying
123.129.226.31,4,1554,firsthospital.cn,CN,Asia,Eastern Asia,China,Shandong,,Dongying
123.129.227.52,4,551,gamehome.tv,CN,Asia,Eastern Asia,China,Shandong,,Dongying
123.129.227.66,4,1319,gpsuu.com,CN,Asia,Eastern Asia,China,Shandong,,Dongying
123.129.196.44,4,-6,im286.com,CN,Asia,Eastern Asia,China,Shandong,,Dongying
123.129.224.247,4,927,itdog.cn,CN,Asia,Eastern Asia,China,Shandong,,Dongying
123.129.226.50,4,1575,nia.gov.cn,CN,Asia,Eastern Asia,China,Shandong,,Dongying
123.129.219.230,4,1011,p2peye.com,CN,Asia,Eastern Asia,China,Shandong,,Dongying
123.129.226.49,4,1532,pdhr.com,CN,Asia,Eastern Asia,China,Shandong,,Dongying
123.129.226.8,4,451,peric.ac.cn,CN,Asia,Eastern Asia,China,Shandong,,Dongying
123.129.226.34,4,460,peric.ac.cn,CN,Asia,Eastern Asia,China,Shandong,,Dongying
123.129.224.22,4,4,qqtn.com,CN,Asia,Eastern Asia,China,Shandong,,Dongying
123.129.227.47,4,585,rsdown.cn,CN,Asia,Eastern Asia,China,Shandong,,Dongying
123.129.227.31,4,546,shanghairolexmasters.com,CN,Asia,Eastern Asia,China,Shandong,,Dongying
123.129.224.192,4,-21,yt84009.xyz,CN,Asia,Eastern Asia,China,Shandong,,Dongying
123.129.227.54,4,531,yxdown.com,CN,Asia,Eastern Asia,China,Shandong,,Dongying
123.129.219.119,4,215,zzjie.com,CN,Asia,Eastern Asia,China,Shandong,,Dongying
