reflector_ip,ip_version,offset,description,country_code,region,sub_region,country_name,sub_division_1,sub_division_2,city
8.217.116.66,4,8,01.ai,HK,Asia,Eastern Asia,Hong Kong,,,Hong Kong
8.212.76.251,4,9,030buy.net,HK,Asia,Eastern Asia,Hong Kong,,,Hong Kong
154.206.161.112,4,10,0379it.com,HK,Asia,Eastern Asia,Hong Kong,,,Hong Kong
154.206.153.100,4,11,057939.com,HK,Asia,Eastern Asia,Hong Kong,,,Hong Kong
47.243.178.218,4,11,05sun.com,HK,Asia,Eastern Asia,Hong Kong,,,Hong Kong
154.206.160.68,4,10,07oa.com,HK,Asia,Eastern Asia,Hong Kong,,,Hong Kong
129.226.179.203,4,-16,0971.net,HK,Asia,Eastern Asia,Hong Kong,,,Hong Kong
35.215.152.35,4,10,10-fo.net,HK,Asia,Eastern Asia,Hong Kong,,,Hong Kong
47.243.78.103,4,12,11.com,HK,Asia,Eastern Asia,Hong Kong,,,Hong Kong
47.238.46.90,4,10,110ok.com,HK,Asia,Eastern Asia,Hong Kong,,,Hong Kong
8.218.196.228,4,10,1415926.mobi,HK,Asia,Eastern Asia,Hong Kong,,,Hong Kong
20.189.121.39,4,12,1488.com,HK,Asia,Eastern Asia,Hong Kong,,,Hong Kong
8.217.33.64,4,7,15307.com,HK,Asia,Eastern Asia,Hong Kong,,,Hong Kong
8.210.37.241,4,10,1688wan.com,HK,Asia,Eastern Asia,Hong Kong,,,Hong Kong
35.215.162.3,4,10,17678fa.com,HK,Asia,Eastern Asia,Hong Kong,,,Hong Kong
43.155.71.215,4,-18,176mw.net,HK,Asia,Eastern Asia,Hong Kong,,,Hong Kong
154.214.101.88,4,6,1971chsreunion.com,HK,Asia,Eastern Asia,Hong Kong,,,Hong Kong
156.234.208.53,4,12,1978r.com,HK,Asia,Eastern Asia,Hong Kong,,,Hong Kong
156.226.122.211,4,10,20thcenturyredux.com,HK,Asia,Eastern Asia,Hong Kong,,,Hong Kong
154.197.182.34,4,4,2ufy5.cn,HK,Asia,Eastern Asia,Hong Kong,,,Hong Kong
47.243.199.150,4,9,301gm.com,HK,Asia,Eastern Asia,Hong Kong,,,Hong Kong
165.154.224.21,4,14,305988.com,HK,Asia,Eastern Asia,Hong Kong,,,Hong Kong
165.154.224.29,4,15,305988.com,HK,Asia,Eastern Asia,Hong Kong,,,Hong Kong
165.154.224.149,4,14,305988.com,HK,Asia,Eastern Asia,Hong Kong,,,Hong Kong
8.210.41.123,4,9,3bi.net,HK,Asia,Eastern Asia,Hong Kong,,,Hong Kong
47.242.206.101,4,10,3d-airmesh.com,HK,Asia,Eastern Asia,Hong Kong,,,Hong Kong
47.52.211.56,4,9,45fan.com,HK,Asia,Eastern Asia,Hong Kong,,,Hong Kong
43.135.117.78,4,-15,51taonan.com,HK,Asia,Eastern Asia,Hong Kong,,,Hong Kong
43.154.196.225,4,-9,51xiansuo.cn,HK,Asia,Eastern Asia,Hong Kong,,,Hong Kong
206.119.101.87,4,7,52dopod.net,HK,Asia,Eastern Asia,Hong Kong,,,Hong Kong
47.239.76.27,4,7,52fx.cn,HK,Asia,Eastern Asia,Hong Kong,,,Hong Kong
206.119.101.54,4,5,52jingyan.com,HK,Asia,Eastern Asia,Hong Kong,,,Hong Kong
101.32.22.93,4,-14,52zzl.com,HK,Asia,Eastern Asia,Hong Kong,,,Hong Kong
154.38.118.39,4,6,56980.cc,HK,Asia,Eastern Asia,Hong Kong,,,Hong Kong
154.19.70.193,4,6,56980.cc,HK,Asia,Eastern Asia,Hong Kong,,,Hong Kong
154.19.70.154,4,5,58634.cc,HK,Asia,Eastern Asia,Hong Kong,,,Hong Kong
154.31.179.168,4,12,5a0.cn,HK,Asia,Eastern Asia,Hong Kong,,,Hong Kong
101.33.117.236,4,-17,5icool.org,HK,Asia,Eastern Asia,Hong Kong,,,Hong Kong
43.128.14.68,4,-13,5kym.cn,HK,Asia,Eastern Asia,Hong Kong,,,Hong Kong
47.238.126.126,4,6,64.sb,HK,Asia,Eastern Asia,Hong Kong,,,Hong Kong
154.23.179.43,4,3,64.sb,HK,Asia,Eastern Asia,Hong Kong,,,Hong Kong
47.57.1.154,4,8,680.com,HK,Asia,Eastern Asia,Hong Kong,,,Hong Kong
8.218.67.239,4,10,6sxq.com,HK,Asia,Eastern Asia,Hong Kong,,,Hong Kong
101.32.27.33,4,-16,72177.com,HK,Asia,Eastern Asia,Hong Kong,,,Hong Kong
103.244.226.202,4,11,727895.com,HK,Asia,Eastern Asia,Hong Kong,,,Hong Kong
34.92.83.184,4,6,777-gt.net,HK,Asia,Eastern Asia,Hong Kong,,,Hong Kong
107.148.15.165,4,7,7feeds.com,HK,Asia,Eastern Asia,Hong Kong,,,Hong Kong
35.215.155.15,4,11,825438.com,HK,Asia,Eastern Asia,Hong Kong,,,Hong Kong
156.234.237.38,4,10,88152.com,HK,Asia,Eastern Asia,Hong Kong,,,Hong Kong
154.89.104.246,4,7,8885427.com,HK,Asia,Eastern Asia,Hong Kong,,,Hong Kong
47.242.80.187,4,9,8898game.com,HK,Asia,Eastern Asia,Hong Kong,,,Hong Kong
156.224.129.151,4,-37284084,918dompets.com,HK,Asia,Eastern Asia,Hong Kong,,,Hong Kong
43.198.116.181,4,-13,91ajs.com,HK,Asia,Eastern Asia,Hong Kong,,,Hong Kong
154.194.147.77,4,7,91yixindai.com,HK,Asia,Eastern Asia,Hong Kong,,,Hong Kong
154.206.153.101,4,9,9300777.com,HK,Asia,Eastern Asia,Hong Kong,,,Hong Kong
124.156.186.192,4,-17,969g.com,HK,Asia,Eastern Asia,Hong Kong,,,Hong Kong
43.134.195.133,4,-17,9tj.net,HK,Asia,Eastern Asia,Hong Kong,,,Hong Kong
154.214.116.10,4,8,aaaviags.com,HK,Asia,Eastern Asia,Hong Kong,,,Hong Kong
35.215.178.101,4,11,aahfoundation.org,HK,Asia,Eastern Asia,Hong Kong,,,Hong Kong
34.92.110.214,4,6,aawaaart.com,HK,Asia,Eastern Asia,Hong Kong,,,Hong Kong
156.234.16.230,4,8,abuproban.com,HK,Asia,Eastern Asia,Hong Kong,,,Hong Kong
156.239.205.238,4,30,abvaa.com,HK,Asia,Eastern Asia,Hong Kong,,,Hong Kong
159.138.14.240,4,9,acadsoc.com.cn,HK,Asia,Eastern Asia,Hong Kong,,,Hong Kong
119.8.247.35,4,30,acadsoc.com.cn,HK,Asia,Eastern Asia,Hong Kong,,,Hong Kong
159.138.14.236,4,15,acadsoc.com.cn,HK,Asia,Eastern Asia,Hong Kong,,,Hong Kong
119.8.247.17,4,10,acadsoc.com.cn,HK,Asia,Eastern Asia,Hong Kong,,,Hong Kong
8.210.96.142,4,10,acconsys.com,HK,Asia,Eastern Asia,Hong Kong,,,Hong Kong
8.210.88.227,4,12,acuteangle.com,HK,Asia,Eastern Asia,Hong Kong,,,Hong Kong
43.154.164.58,4,0,adamtianxia.com,HK,Asia,Eastern Asia,Hong Kong,,,Hong Kong
156.234.35.47,4,7,adorkablii.com,HK,Asia,Eastern Asia,Hong Kong,,,Hong Kong
154.19.204.234,4,7533,afinance.cn,HK,Asia,Eastern Asia,Hong Kong,,,Hong Kong
154.214.112.106,4,9,ah112.cn,HK,Asia,Eastern Asia,Hong Kong,,,Hong Kong
154.206.130.242,4,5,ahjcjy.cn,HK,Asia,Eastern Asia,Hong Kong,,,Hong Kong
35.241.65.65,4,5,ahydrozide.com,HK,Asia,Eastern Asia,Hong Kong,,,Hong Kong
154.38.88.86,4,8,ahyyfsjc.com,HK,Asia,Eastern Asia,Hong Kong,,,Hong Kong
154.214.70.153,4,14,aide001.com,HK,Asia,Eastern Asia,Hong Kong,,,Hong Kong
47.75.26.180,4,9,ailab.cn,HK,Asia,Eastern Asia,Hong Kong,,,Hong Kong
47.242.161.136,4,8,ailvxing.com,HK,Asia,Eastern Asia,Hong Kong,,,Hong Kong
8.217.102.27,4,11,aipaihang.net,HK,Asia,Eastern Asia,Hong Kong,,,Hong Kong
35.215.172.5,4,15,airlinescareer.org,HK,Asia,Eastern Asia,Hong Kong,,,Hong Kong
8.210.162.224,4,27,aiwanba.net,HK,Asia,Eastern Asia,Hong Kong,,,Hong Kong
156.234.150.67,4,10,ajxker.com,HK,Asia,Eastern Asia,Hong Kong,,,Hong Kong
154.216.86.69,4,2,aladingplus.com,HK,Asia,Eastern Asia,Hong Kong,,,Hong Kong
47.242.67.82,4,9,alipansou.com,HK,Asia,Eastern Asia,Hong Kong,,,Hong Kong
156.234.21.10,4,18,allaccess-radio.net,HK,Asia,Eastern Asia,Hong Kong,,,Hong Kong
156.234.130.129,4,7,allegratablet.com,HK,Asia,Eastern Asia,Hong Kong,,,Hong Kong
8.218.121.6,4,11,allmei.com,HK,Asia,Eastern Asia,Hong Kong,,,Hong Kong
154.21.201.183,4,85978,alzhai.com,HK,Asia,Eastern Asia,Hong Kong,,,Hong Kong
156.234.17.80,4,10,anhuayiyuan.com,HK,Asia,Eastern Asia,Hong Kong,,,Hong Kong
34.92.45.205,4,5,anhui.cc,HK,Asia,Eastern Asia,Hong Kong,,,Hong Kong
18.163.37.252,4,-12,antonoil.com,HK,Asia,Eastern Asia,Hong Kong,,,Hong Kong
156.234.198.152,4,11,aomeple.com,HK,Asia,Eastern Asia,Hong Kong,,,Hong Kong
52.175.12.42,4,26,arbor-technology.com,HK,Asia,Eastern Asia,Hong Kong,,,Hong Kong
23.222.75.162,4,11,arcadis-us.com,HK,Asia,Eastern Asia,Hong Kong,,,Hong Kong
8.218.72.155,4,12,arctime.org,HK,Asia,Eastern Asia,Hong Kong,,,Hong Kong
35.215.164.178,4,10,arimidexa.com,HK,Asia,Eastern Asia,Hong Kong,,,Hong Kong
154.206.147.187,4,13,arxy4th.cn,HK,Asia,Eastern Asia,Hong Kong,,,Hong Kong
156.234.20.236,4,7,atacrograf.com,HK,Asia,Eastern Asia,Hong Kong,,,Hong Kong
47.75.90.185,4,85,atoolbox.net,HK,Asia,Eastern Asia,Hong Kong,,,Hong Kong
47.56.27.193,4,9,automation-pt.com,HK,Asia,Eastern Asia,Hong Kong,,,Hong Kong
156.234.131.215,4,4,aygjj.com,HK,Asia,Eastern Asia,Hong Kong,,,Hong Kong
156.245.92.7,4,31,ayosditoph.com,HK,Asia,Eastern Asia,Hong Kong,,,Hong Kong
8.218.138.220,4,10,azg168.cn,HK,Asia,Eastern Asia,Hong Kong,,,Hong Kong
35.215.134.30,4,10,azithromycingn.com,HK,Asia,Eastern Asia,Hong Kong,,,Hong Kong
35.215.136.31,4,9,azxykj.com,HK,Asia,Eastern Asia,Hong Kong,,,Hong Kong
154.31.168.105,4,13,bafcgj.com,HK,Asia,Eastern Asia,Hong Kong,,,Hong Kong
47.75.94.104,4,6,baishirun.com,HK,Asia,Eastern Asia,Hong Kong,,,Hong Kong
209.58.186.34,4,11,balita.ph,HK,Asia,Eastern Asia,Hong Kong,,,Hong Kong
8.217.107.94,4,8,baozoumanhua.com,HK,Asia,Eastern Asia,Hong Kong,,,Hong Kong
154.194.147.75,4,21,basidi168.com,HK,Asia,Eastern Asia,Hong Kong,,,Hong Kong
43.154.113.229,4,-8,bau.com.hk,HK,Asia,Eastern Asia,Hong Kong,,,Hong Kong
156.234.218.251,4,46,bay-head-nj.com,HK,Asia,Eastern Asia,Hong Kong,,,Hong Kong
154.39.115.131,4,7,bbsmax.com,HK,Asia,Eastern Asia,Hong Kong,,,Hong Kong
47.75.69.43,4,39,bccn.net,HK,Asia,Eastern Asia,Hong Kong,,,Hong Kong
154.216.103.157,4,0,bearcatgo.com,HK,Asia,Eastern Asia,Hong Kong,,,Hong Kong
43.155.70.192,4,-5,beautyleg.net,HK,Asia,Eastern Asia,Hong Kong,,,Hong Kong
8.210.196.198,4,10,bee.com,HK,Asia,Eastern Asia,Hong Kong,,,Hong Kong
47.76.230.63,4,9,berallebags.com,HK,Asia,Eastern Asia,Hong Kong,,,Hong Kong
34.150.50.3,4,6,bestbuymaleenhancement.com,HK,Asia,Eastern Asia,Hong Kong,,,Hong Kong
34.92.123.218,4,2,bestdissertationwritingservice.net,HK,Asia,Eastern Asia,Hong Kong,,,Hong Kong
35.241.127.154,4,4,bestsugarmommasites.org,HK,Asia,Eastern Asia,Hong Kong,,,Hong Kong
8.217.27.226,4,8,bgi.com,HK,Asia,Eastern Asia,Hong Kong,,,Hong Kong
43.132.173.27,4,8,biji.io,HK,Asia,Eastern Asia,Hong Kong,,,Hong Kong
154.206.207.178,4,32,bimaclassifieds.com,HK,Asia,Eastern Asia,Hong Kong,,,Hong Kong
156.234.14.239,4,9,bjsabd.com,HK,Asia,Eastern Asia,Hong Kong,,,Hong Kong
8.218.189.56,4,9,block-machinery.cn,HK,Asia,Eastern Asia,Hong Kong,,,Hong Kong
43.154.162.208,4,-13,bmfsfw.com,HK,Asia,Eastern Asia,Hong Kong,,,Hong Kong
34.96.210.129,4,9,boardroomvu.com,HK,Asia,Eastern Asia,Hong Kong,,,Hong Kong
8.217.148.175,4,28,bongda24.vn,HK,Asia,Eastern Asia,Hong Kong,,,Hong Kong
150.109.72.172,4,-15,bonuscloud.club,HK,Asia,Eastern Asia,Hong Kong,,,Hong Kong
47.52.198.197,4,10,boox.com,HK,Asia,Eastern Asia,Hong Kong,,,Hong Kong
8.218.134.119,4,18,borewang.com,HK,Asia,Eastern Asia,Hong Kong,,,Hong Kong
8.218.162.34,4,11,boya-mic.com,HK,Asia,Eastern Asia,Hong Kong,,,Hong Kong
103.214.22.55,4,51,brandee.edu.vn,HK,Asia,Eastern Asia,Hong Kong,,,Hong Kong
47.243.133.114,4,8,breo.com,HK,Asia,Eastern Asia,Hong Kong,,,Hong Kong
156.234.187.148,4,24,buychlonsp.com,HK,Asia,Eastern Asia,Hong Kong,,,Hong Kong
156.234.48.131,4,69,buyhytop.com,HK,Asia,Eastern Asia,Hong Kong,,,Hong Kong
47.52.143.93,4,11,bwghost.me,HK,Asia,Eastern Asia,Hong Kong,,,Hong Kong
8.217.242.71,4,29,bybm.com.cn,HK,Asia,Eastern Asia,Hong Kong,,,Hong Kong
202.170.91.56,4,7,bytom.io,HK,Asia,Eastern Asia,Hong Kong,,,Hong Kong
43.128.3.6,4,-12,c4rc.com,HK,Asia,Eastern Asia,Hong Kong,,,Hong Kong
8.212.17.45,4,8,caibaojian.com,HK,Asia,Eastern Asia,Hong Kong,,,Hong Kong
156.234.112.218,4,8,calcialtrol.com,HK,Asia,Eastern Asia,Hong Kong,,,Hong Kong
35.215.159.211,4,30,captainfreecasino.com,HK,Asia,Eastern Asia,Hong Kong,,,Hong Kong
107.148.15.12,4,24522,cascohr.com,HK,Asia,Eastern Asia,Hong Kong,,,Hong Kong
34.92.62.12,4,6,casinoslotsccw.com,HK,Asia,Eastern Asia,Hong Kong,,,Hong Kong
35.241.98.145,4,5,casumo-casino.top,HK,Asia,Eastern Asia,Hong Kong,,,Hong Kong
154.206.200.75,4,22,cbundiorganizing.com,HK,Asia,Eastern Asia,Hong Kong,,,Hong Kong
43.154.210.131,4,-14,ccplay.cn,HK,Asia,Eastern Asia,Hong Kong,,,Hong Kong
8.218.169.159,4,14,cenforcesildenafil.com,HK,Asia,Eastern Asia,Hong Kong,,,Hong Kong
156.234.16.231,4,14,cetirtec.com,HK,Asia,Eastern Asia,Hong Kong,,,Hong Kong
119.28.89.96,4,-14,cfbwz.com,HK,Asia,Eastern Asia,Hong Kong,,,Hong Kong
154.215.126.34,4,12,cglingyu.com,HK,Asia,Eastern Asia,Hong Kong,,,Hong Kong
47.91.240.156,4,8,cguiw.com,HK,Asia,Eastern Asia,Hong Kong,,,Hong Kong
190.92.231.104,4,52,chainup.com,HK,Asia,Eastern Asia,Hong Kong,,,Hong Kong
156.234.199.84,4,10,changemr.com,HK,Asia,Eastern Asia,Hong Kong,,,Hong Kong
154.19.207.208,4,7,changtu.com,HK,Asia,Eastern Asia,Hong Kong,,,Hong Kong
154.38.81.84,4,11,chanson.net.cn,HK,Asia,Eastern Asia,Hong Kong,,,Hong Kong
154.194.144.162,4,12,chaohuangcoldchain.com,HK,Asia,Eastern Asia,Hong Kong,,,Hong Kong
8.223.17.146,4,7,chashebao.com,HK,Asia,Eastern Asia,Hong Kong,,,Hong Kong
47.240.20.99,4,13,chb66.com,HK,Asia,Eastern Asia,Hong Kong,,,Hong Kong
47.52.234.144,4,15,chcnav.com,HK,Asia,Eastern Asia,Hong Kong,,,Hong Kong
156.239.205.226,4,51,chdcdesign.com,HK,Asia,Eastern Asia,Hong Kong,,,Hong Kong
154.206.161.110,4,32,cheapjordansaleshoes.com,HK,Asia,Eastern Asia,Hong Kong,,,Hong Kong
154.206.161.111,4,15,cheapjordansonlinesale.com,HK,Asia,Eastern Asia,Hong Kong,,,Hong Kong
154.194.144.163,4,34,chechedianguanjia.com,HK,Asia,Eastern Asia,Hong Kong,,,Hong Kong
8.212.77.69,4,9,chemdrug.com,HK,Asia,Eastern Asia,Hong Kong,,,Hong Kong
154.194.144.164,4,9,chenfengwlkj.com,HK,Asia,Eastern Asia,Hong Kong,,,Hong Kong
8.217.79.135,4,10,chengdubbs.net,HK,Asia,Eastern Asia,Hong Kong,,,Hong Kong
43.135.73.53,4,-87926,chfair.com,HK,Asia,Eastern Asia,Hong Kong,,,Hong Kong
154.194.144.165,4,7,china-far.com,HK,Asia,Eastern Asia,Hong Kong,,,Hong Kong
47.243.126.64,4,10,china-gold.com,HK,Asia,Eastern Asia,Hong Kong,,,Hong Kong
47.243.181.99,4,9,china-holiday.com,HK,Asia,Eastern Asia,Hong Kong,,,Hong Kong
35.215.130.189,4,13,china-pin.info,HK,Asia,Eastern Asia,Hong Kong,,,Hong Kong
119.28.60.147,4,-19,china95.net,HK,Asia,Eastern Asia,Hong Kong,,,Hong Kong
154.31.248.135,4,-463381,chinadmoz.com.cn,HK,Asia,Eastern Asia,Hong Kong,,,Hong Kong
159.138.9.85,4,8,chinadrtv.com,HK,Asia,Eastern Asia,Hong Kong,,,Hong Kong
8.218.203.93,4,7,chinaexhibition.com,HK,Asia,Eastern Asia,Hong Kong,,,Hong Kong
47.90.14.203,4,5,chinagugen.com,HK,Asia,Eastern Asia,Hong Kong,,,Hong Kong
47.76.38.72,4,6,chinakong.com,HK,Asia,Eastern Asia,Hong Kong,,,Hong Kong
152.32.191.88,4,9,chinaliuxue.com.cn,HK,Asia,Eastern Asia,Hong Kong,,,Hong Kong
43.154.67.114,4,-13,chinandt.com.cn,HK,Asia,Eastern Asia,Hong Kong,,,Hong Kong
8.210.154.70,4,7,chinapyg.com,HK,Asia,Eastern Asia,Hong Kong,,,Hong Kong
47.244.231.28,4,7,chinawmf.org.cn,HK,Asia,Eastern Asia,Hong Kong,,,Hong Kong
8.210.63.137,4,7,chinesean.com,HK,Asia,Eastern Asia,Hong Kong,,,Hong Kong
8.210.155.20,4,8,chinesefn.com,HK,Asia,Eastern Asia,Hong Kong,,,Hong Kong
47.52.22.131,4,7,chintglobal.com,HK,Asia,Eastern Asia,Hong Kong,,,Hong Kong
35.220.231.234,4,6,chnqc315.org,HK,Asia,Eastern Asia,Hong Kong,,,Hong Kong
47.76.191.139,4,9,chongwu.cc,HK,Asia,Eastern Asia,Hong Kong,,,Hong Kong
47.242.249.13,4,10,chstny.cn,HK,Asia,Eastern Asia,Hong Kong,,,Hong Kong
8.210.106.75,4,9,chtf.com,HK,Asia,Eastern Asia,Hong Kong,,,Hong Kong
154.194.144.166,4,9,chuandazhiapp.com,HK,Asia,Eastern Asia,Hong Kong,,,Hong Kong
154.194.144.167,4,7,chuangban99.com,HK,Asia,Eastern Asia,Hong Kong,,,Hong Kong
154.194.144.168,4,8,chuangyanbuy.com,HK,Asia,Eastern Asia,Hong Kong,,,Hong Kong
190.92.235.89,4,9,chuhai.edu.hk,HK,Asia,Eastern Asia,Hong Kong,,,Hong Kong
154.194.147.78,4,5,chuiju123.com,HK,Asia,Eastern Asia,Hong Kong,,,Hong Kong
154.194.144.169,4,7,chuxueb.com,HK,Asia,Eastern Asia,Hong Kong,,,Hong Kong
156.234.92.140,4,7,cialisuqpor.com,HK,Asia,Eastern Asia,Hong Kong,,,Hong Kong
35.220.211.211,4,4,citychurchabq.org,HK,Asia,Eastern Asia,Hong Kong,,,Hong Kong
47.52.46.99,4,41,cityu.edu.mo,HK,Asia,Eastern Asia,Hong Kong,,,Hong Kong
154.194.144.171,4,16,cj-jyl.com,HK,Asia,Eastern Asia,Hong Kong,,,Hong Kong
154.194.144.170,4,8,cjbjff.com,HK,Asia,Eastern Asia,Hong Kong,,,Hong Kong
154.194.144.172,4,97,ckdiczgtxc.com,HK,Asia,Eastern Asia,Hong Kong,,,Hong Kong
154.197.231.123,4,14,clipartmax.com,HK,Asia,Eastern Asia,Hong Kong,,,Hong Kong
156.234.111.37,4,51,clonidtop.com,HK,Asia,Eastern Asia,Hong Kong,,,Hong Kong
34.96.166.252,4,6,clouddatatrain.biz,HK,Asia,Eastern Asia,Hong Kong,,,Hong Kong
154.194.144.173,4,26,clw919.com,HK,Asia,Eastern Asia,Hong Kong,,,Hong Kong
8.210.40.128,4,9,cmsone.cc,HK,Asia,Eastern Asia,Hong Kong,,,Hong Kong
154.216.110.115,4,4,cnbaomin.com,HK,Asia,Eastern Asia,Hong Kong,,,Hong Kong
159.138.6.86,4,15,cnbaoxianw.com,HK,Asia,Eastern Asia,Hong Kong,,,Hong Kong
47.244.187.240,4,8,cnfood.com,HK,Asia,Eastern Asia,Hong Kong,,,Hong Kong
47.238.116.74,4,8,cnw-highlights.org,HK,Asia,Eastern Asia,Hong Kong,,,Hong Kong
8.210.159.212,4,8,cnzx315.com,HK,Asia,Eastern Asia,Hong Kong,,,Hong Kong
206.119.1.210,4,5,cocoron-hz.com,HK,Asia,Eastern Asia,Hong Kong,,,Hong Kong
35.215.160.205,4,10,cocotierlodge-nosybe.com,HK,Asia,Eastern Asia,Hong Kong,,,Hong Kong
103.6.86.203,4,968330,coffeejp.com,HK,Asia,Eastern Asia,Hong Kong,,,Hong Kong
43.129.206.181,4,-13,comairrotron.com,HK,Asia,Eastern Asia,Hong Kong,,,Hong Kong
8.210.157.232,4,10,comparison.cn,HK,Asia,Eastern Asia,Hong Kong,,,Hong Kong
47.242.16.68,4,12,coyada.com,HK,Asia,Eastern Asia,Hong Kong,,,Hong Kong
35.215.133.138,4,12,cpkj116868.com,HK,Asia,Eastern Asia,Hong Kong,,,Hong Kong
35.215.152.160,4,32,cpkj16688.com,HK,Asia,Eastern Asia,Hong Kong,,,Hong Kong
154.194.144.174,4,6,cqgxrc.com,HK,Asia,Eastern Asia,Hong Kong,,,Hong Kong
154.194.144.175,4,9,cqminrui.com,HK,Asia,Eastern Asia,Hong Kong,,,Hong Kong
154.215.114.209,4,8,cqtzm168.cn,HK,Asia,Eastern Asia,Hong Kong,,,Hong Kong
156.234.152.119,4,32,crestatin.com,HK,Asia,Eastern Asia,Hong Kong,,,Hong Kong
35.215.137.33,4,10,crocilismen.com,HK,Asia,Eastern Asia,Hong Kong,,,Hong Kong
8.218.193.164,4,7,crxsoso.com,HK,Asia,Eastern Asia,Hong Kong,,,Hong Kong
34.150.123.71,4,99,csbc.com.tw,HK,Asia,Eastern Asia,Hong Kong,,,Hong Kong
154.194.144.176,4,9,csdeeplove.com,HK,Asia,Eastern Asia,Hong Kong,,,Hong Kong
8.217.81.203,4,13,csdndocs.com,HK,Asia,Eastern Asia,Hong Kong,,,Hong Kong
8.218.227.64,4,43,csds-burner.com,HK,Asia,Eastern Asia,Hong Kong,,,Hong Kong
119.8.62.0,4,6,cse.edu.cn,HK,Asia,Eastern Asia,Hong Kong,,,Hong Kong
43.132.175.57,4,-15,cssmoban.com,HK,Asia,Eastern Asia,Hong Kong,,,Hong Kong
154.194.144.177,4,9,csyongda.com,HK,Asia,Eastern Asia,Hong Kong,,,Hong Kong
47.56.193.8,4,9,ctdisk.com,HK,Asia,Eastern Asia,Hong Kong,,,Hong Kong
47.56.109.241,4,11,ctdisk.com,HK,Asia,Eastern Asia,Hong Kong,,,Hong Kong
103.21.220.4,4,9,cudans105.com,HK,Asia,Eastern Asia,Hong Kong,,,Hong Kong
129.226.172.152,4,-15,cukv.com,HK,Asia,Eastern Asia,Hong Kong,,,Hong Kong
8.217.122.33,4,6,cupfox.love,HK,Asia,Eastern Asia,Hong Kong,,,Hong Kong
47.76.183.68,4,9,cupfox.love,HK,Asia,Eastern Asia,Hong Kong,,,Hong Kong
8.217.49.180,4,9,cupfox.love,HK,Asia,Eastern Asia,Hong Kong,,,Hong Kong
47.75.126.150,4,20,cx368.com,HK,Asia,Eastern Asia,Hong Kong,,,Hong Kong
154.216.110.125,4,6,cxceco.com,HK,Asia,Eastern Asia,Hong Kong,,,Hong Kong
156.234.86.69,4,8,cyberkilla.com,HK,Asia,Eastern Asia,Hong Kong,,,Hong Kong
154.194.150.103,4,5,czbggs.com,HK,Asia,Eastern Asia,Hong Kong,,,Hong Kong
154.89.104.241,4,10,czbsbldq.com,HK,Asia,Eastern Asia,Hong Kong,,,Hong Kong
154.38.118.32,4,3,da168.cn,HK,Asia,Eastern Asia,Hong Kong,,,Hong Kong
154.194.144.178,4,7,dadabew.com,HK,Asia,Eastern Asia,Hong Kong,,,Hong Kong
154.194.144.179,4,8,daguoshengshicn.com,HK,Asia,Eastern Asia,Hong Kong,,,Hong Kong
8.218.178.121,4,59,dahan.com.tw,HK,Asia,Eastern Asia,Hong Kong,,,Hong Kong
154.194.144.180,4,8,damokaoroufan.com,HK,Asia,Eastern Asia,Hong Kong,,,Hong Kong
8.217.109.89,4,8,danji6.com,HK,Asia,Eastern Asia,Hong Kong,,,Hong Kong
43.154.246.62,4,-11,danmanba.cc,HK,Asia,Eastern Asia,Hong Kong,,,Hong Kong
35.215.159.63,4,10,dataroom.biz,HK,Asia,Eastern Asia,Hong Kong,,,Hong Kong
34.96.247.198,4,10,datingonlinehot.com,HK,Asia,Eastern Asia,Hong Kong,,,Hong Kong
154.194.147.76,4,9,daxiasc.com,HK,Asia,Eastern Asia,Hong Kong,,,Hong Kong
154.206.142.226,4,15,daydreamspin.com,HK,Asia,Eastern Asia,Hong Kong,,,Hong Kong
47.238.235.12,4,32,dayehuangyangqiu.com,HK,Asia,Eastern Asia,Hong Kong,,,Hong Kong
154.194.144.181,4,8,dayoubaoxian.com,HK,Asia,Eastern Asia,Hong Kong,,,Hong Kong
8.212.113.162,4,6,ddc.net.cn,HK,Asia,Eastern Asia,Hong Kong,,,Hong Kong
38.207.133.24,4,4,ddd.com,HK,Asia,Eastern Asia,Hong Kong,,,Hong Kong
154.194.144.182,4,7,ddlmapp.com,HK,Asia,Eastern Asia,Hong Kong,,,Hong Kong
38.181.16.23,4,0,dechengtaiji.com,HK,Asia,Eastern Asia,Hong Kong,,,Hong Kong
129.226.134.135,4,3,deerchao.net,HK,Asia,Eastern Asia,Hong Kong,,,Hong Kong
47.57.7.65,4,13,deljia.cn,HK,Asia,Eastern Asia,Hong Kong,,,Hong Kong
154.206.204.66,4,21,deportes216.com,HK,Asia,Eastern Asia,Hong Kong,,,Hong Kong
154.214.70.156,4,49,dfhuchou.com,HK,Asia,Eastern Asia,Hong Kong,,,Hong Kong
156.234.148.203,4,7,dgshunfafa.com,HK,Asia,Eastern Asia,Hong Kong,,,Hong Kong
35.215.169.113,4,9,dhserb.com,HK,Asia,Eastern Asia,Hong Kong,,,Hong Kong
154.194.130.244,4,15,dianka333.com,HK,Asia,Eastern Asia,Hong Kong,,,Hong Kong
8.218.62.241,4,7,dingtreehk.com,HK,Asia,Eastern Asia,Hong Kong,,,Hong Kong
154.197.181.55,4,3,djdydjh.cn,HK,Asia,Eastern Asia,Hong Kong,,,Hong Kong
156.240.43.169,4,14,dluelot.com,HK,Asia,Eastern Asia,Hong Kong,,,Hong Kong
5.188.33.195,4,105,DNS Server: a1.ytdx.cc,HK,Asia,Eastern Asia,Hong Kong,,,Hong Kong
119.13.92.87,4,15,DNS Server: ecs-119-13-92-87.compute.hwclouds-dns.com,HK,Asia,Eastern Asia,Hong Kong,,,Hong Kong
154.26.193.209,4,10,dntcq.com,HK,Asia,Eastern Asia,Hong Kong,,,Hong Kong
43.155.104.53,4,9,dobot.cc,HK,Asia,Eastern Asia,Hong Kong,,,Hong Kong
154.38.89.73,4,45,dongjihuanleya.cn,HK,Asia,Eastern Asia,Hong Kong,,,Hong Kong
154.91.6.149,4,32,dongtaimanhua.com,HK,Asia,Eastern Asia,Hong Kong,,,Hong Kong
34.92.44.218,4,8,doxycyclinesale.pro,HK,Asia,Eastern Asia,Hong Kong,,,Hong Kong
154.216.127.134,4,5,dr-algae.com,HK,Asia,Eastern Asia,Hong Kong,,,Hong Kong
154.194.144.183,4,5,droneserviceplay.com,HK,Asia,Eastern Asia,Hong Kong,,,Hong Kong
156.240.50.185,4,20,drxyrecf.cn,HK,Asia,Eastern Asia,Hong Kong,,,Hong Kong
43.154.19.19,4,-14,dslmsrq.com,HK,Asia,Eastern Asia,Hong Kong,,,Hong Kong
154.214.112.102,4,8,dtnacnr.cn,HK,Asia,Eastern Asia,Hong Kong,,,Hong Kong
156.234.201.189,4,4,dtshot.com,HK,Asia,Eastern Asia,Hong Kong,,,Hong Kong
154.214.71.99,4,16,dujhx.com,HK,Asia,Eastern Asia,Hong Kong,,,Hong Kong
154.194.144.184,4,7,duolimihotels.com,HK,Asia,Eastern Asia,Hong Kong,,,Hong Kong
47.52.247.99,4,14,dute.org,HK,Asia,Eastern Asia,Hong Kong,,,Hong Kong
103.75.117.33,4,7,dwhd.org,HK,Asia,Eastern Asia,Hong Kong,,,Hong Kong
154.38.83.72,4,8,dwqydl.com,HK,Asia,Eastern Asia,Hong Kong,,,Hong Kong
154.23.145.118,4,10,dytoyjp.com,HK,Asia,Eastern Asia,Hong Kong,,,Hong Kong
154.23.159.250,4,11,dzpcjx.com,HK,Asia,Eastern Asia,Hong Kong,,,Hong Kong
47.76.222.159,4,7,e-keli.com,HK,Asia,Eastern Asia,Hong Kong,,,Hong Kong
43.128.31.121,4,-15,e2esoft.com,HK,Asia,Eastern Asia,Hong Kong,,,Hong Kong
47.243.53.125,4,9,ea666.cn,HK,Asia,Eastern Asia,Hong Kong,,,Hong Kong
47.242.199.33,4,12,eait.co,HK,Asia,Eastern Asia,Hong Kong,,,Hong Kong
103.27.79.57,4,5,easy-sheds.com,HK,Asia,Eastern Asia,Hong Kong,,,Hong Kong
149.129.94.168,4,12,easyai.tech,HK,Asia,Eastern Asia,Hong Kong,,,Hong Kong
119.8.38.212,4,2022,easyrgb.com,HK,Asia,Eastern Asia,Hong Kong,,,Hong Kong
8.212.56.226,4,10,ecar168.cn,HK,Asia,Eastern Asia,Hong Kong,,,Hong Kong
34.92.187.151,4,5,edpharmsn.com,HK,Asia,Eastern Asia,Hong Kong,,,Hong Kong
129.226.167.242,4,-14,edusunrising.com,HK,Asia,Eastern Asia,Hong Kong,,,Hong Kong
47.52.142.177,4,9,eduydt.com,HK,Asia,Eastern Asia,Hong Kong,,,Hong Kong
47.242.164.7,4,9,eduzhe.com,HK,Asia,Eastern Asia,Hong Kong,,,Hong Kong
154.214.112.112,4,10,eemyihu.cn,HK,Asia,Eastern Asia,Hong Kong,,,Hong Kong
154.214.112.100,4,15,efwpmkk.cn,HK,Asia,Eastern Asia,Hong Kong,,,Hong Kong
119.28.179.104,4,844,elecdz.cn,HK,Asia,Eastern Asia,Hong Kong,,,Hong Kong
34.92.153.58,4,4,elimite.shop,HK,Asia,Eastern Asia,Hong Kong,,,Hong Kong
114.29.236.247,4,20,emkei.cz,HK,Asia,Eastern Asia,Hong Kong,,,Hong Kong
47.57.143.43,4,9,emqx.io,HK,Asia,Eastern Asia,Hong Kong,,,Hong Kong
47.52.132.13,4,23,emuch.net,HK,Asia,Eastern Asia,Hong Kong,,,Hong Kong
154.214.114.67,4,7,enerjimakine.com,HK,Asia,Eastern Asia,Hong Kong,,,Hong Kong
156.226.87.169,4,9,enshizp.com,HK,Asia,Eastern Asia,Hong Kong,,,Hong Kong
20.255.106.8,4,10,enterdesk.com,HK,Asia,Eastern Asia,Hong Kong,,,Hong Kong
47.57.9.53,4,6,eoemarket.com,HK,Asia,Eastern Asia,Hong Kong,,,Hong Kong
154.39.70.135,4,6,eootai.com,HK,Asia,Eastern Asia,Hong Kong,,,Hong Kong
154.214.112.111,4,9,eoridpe.cn,HK,Asia,Eastern Asia,Hong Kong,,,Hong Kong
8.210.178.154,4,15,epathchina.com,HK,Asia,Eastern Asia,Hong Kong,,,Hong Kong
47.57.68.28,4,34,epay.com,HK,Asia,Eastern Asia,Hong Kong,,,Hong Kong
154.214.112.108,4,7,eqvhitc.cn,HK,Asia,Eastern Asia,Hong Kong,,,Hong Kong
47.90.41.38,4,7,essachina.com,HK,Asia,Eastern Asia,Hong Kong,,,Hong Kong
35.215.152.107,4,11,everyday-apps.com,HK,Asia,Eastern Asia,Hong Kong,,,Hong Kong
8.210.11.161,4,8,exetools.com,HK,Asia,Eastern Asia,Hong Kong,,,Hong Kong
156.226.122.142,4,8571,exujing.com,HK,Asia,Eastern Asia,Hong Kong,,,Hong Kong
154.31.227.186,4,40,fabang.com,HK,Asia,Eastern Asia,Hong Kong,,,Hong Kong
156.234.251.30,4,50,fafuoc.com,HK,Asia,Eastern Asia,Hong Kong,,,Hong Kong
8.210.133.46,4,6,famiba.com,HK,Asia,Eastern Asia,Hong Kong,,,Hong Kong
119.28.83.110,4,-6,fastsoso.cn,HK,Asia,Eastern Asia,Hong Kong,,,Hong Kong
154.194.144.185,4,9,fawoj.com,HK,Asia,Eastern Asia,Hong Kong,,,Hong Kong
154.89.104.242,4,11,fbyouxi.com,HK,Asia,Eastern Asia,Hong Kong,,,Hong Kong
47.238.119.169,4,9,feifeicms.co,HK,Asia,Eastern Asia,Hong Kong,,,Hong Kong
154.216.103.135,4,24,fengshouwuyou.com,HK,Asia,Eastern Asia,Hong Kong,,,Hong Kong
154.215.116.149,4,11,fengyun001.cn,HK,Asia,Eastern Asia,Hong Kong,,,Hong Kong
47.57.136.78,4,7,fhyx.hk,HK,Asia,Eastern Asia,Hong Kong,,,Hong Kong
8.218.132.229,4,17,filfox.info,HK,Asia,Eastern Asia,Hong Kong,,,Hong Kong
156.226.116.186,4,7,financasportugal.com,HK,Asia,Eastern Asia,Hong Kong,,,Hong Kong
47.238.203.178,4,24,finchui.com,HK,Asia,Eastern Asia,Hong Kong,,,Hong Kong
47.242.27.89,4,7,fkdcheg.cn,HK,Asia,Eastern Asia,Hong Kong,,,Hong Kong
101.32.76.235,4,-17,fmxk.ac.cn,HK,Asia,Eastern Asia,Hong Kong,,,Hong Kong
45.207.9.216,4,3,fodizi.com,HK,Asia,Eastern Asia,Hong Kong,,,Hong Kong
150.109.61.38,4,-11,fon.org.cn,HK,Asia,Eastern Asia,Hong Kong,,,Hong Kong
47.91.153.87,4,6,forngo.org,HK,Asia,Eastern Asia,Hong Kong,,,Hong Kong
8.217.42.160,4,10,foundry.org.hk,HK,Asia,Eastern Asia,Hong Kong,,,Hong Kong
38.181.16.15,4,1,four-well.com,HK,Asia,Eastern Asia,Hong Kong,,,Hong Kong
47.52.101.195,4,54,freestick.cn,HK,Asia,Eastern Asia,Hong Kong,,,Hong Kong
154.23.147.118,4,5,fsboowners.com,HK,Asia,Eastern Asia,Hong Kong,,,Hong Kong
156.234.205.119,4,35,fsbox.net,HK,Asia,Eastern Asia,Hong Kong,,,Hong Kong
43.154.53.244,4,-13,fsbus.com,HK,Asia,Eastern Asia,Hong Kong,,,Hong Kong
154.194.144.186,4,11,fslianyin.com,HK,Asia,Eastern Asia,Hong Kong,,,Hong Kong
154.194.144.187,4,8,fsqlyc.com,HK,Asia,Eastern Asia,Hong Kong,,,Hong Kong
154.194.144.188,4,8,fsyoumei.com,HK,Asia,Eastern Asia,Hong Kong,,,Hong Kong
154.214.112.113,4,9,fulibon.cn,HK,Asia,Eastern Asia,Hong Kong,,,Hong Kong
154.214.112.104,4,7,fuliotj.cn,HK,Asia,Eastern Asia,Hong Kong,,,Hong Kong
154.214.112.101,4,5,fulizup.cn,HK,Asia,Eastern Asia,Hong Kong,,,Hong Kong
154.194.144.189,4,9,funderstudy.com,HK,Asia,Eastern Asia,Hong Kong,,,Hong Kong
47.240.170.235,4,7,funsens.com,HK,Asia,Eastern Asia,Hong Kong,,,Hong Kong
156.234.172.91,4,7,futouzs.com,HK,Asia,Eastern Asia,Hong Kong,,,Hong Kong
154.89.104.231,4,5,fxtjypt.com,HK,Asia,Eastern Asia,Hong Kong,,,Hong Kong
8.217.82.191,4,7,fxzyou.cn,HK,Asia,Eastern Asia,Hong Kong,,,Hong Kong
156.234.33.13,4,6,fzmfood.com,HK,Asia,Eastern Asia,Hong Kong,,,Hong Kong
156.234.49.83,4,8,fzsdszs.com,HK,Asia,Eastern Asia,Hong Kong,,,Hong Kong
107.151.207.88,4,-12,fzyshcn.com,HK,Asia,Eastern Asia,Hong Kong,,,Hong Kong
156.226.125.92,4,17,galgalesh.com,HK,Asia,Eastern Asia,Hong Kong,,,Hong Kong
154.214.112.99,4,19,gamegeeker.cn,HK,Asia,Eastern Asia,Hong Kong,,,Hong Kong
154.89.104.232,4,40,gameshishi.com,HK,Asia,Eastern Asia,Hong Kong,,,Hong Kong
47.76.26.156,4,21,ganenn.com,HK,Asia,Eastern Asia,Hong Kong,,,Hong Kong
156.234.190.150,4,48,gatortin.com,HK,Asia,Eastern Asia,Hong Kong,,,Hong Kong
154.214.64.68,4,34,gblvwv.com,HK,Asia,Eastern Asia,Hong Kong,,,Hong Kong
154.194.144.190,4,6,gddaolugongcheng.com,HK,Asia,Eastern Asia,Hong Kong,,,Hong Kong
154.194.145.130,4,10,gdjx188.com,HK,Asia,Eastern Asia,Hong Kong,,,Hong Kong
203.205.137.76,4,-32,gdtimg.com,HK,Asia,Eastern Asia,Hong Kong,,,Hong Kong
203.205.136.80,4,-20,gdtimg.com,HK,Asia,Eastern Asia,Hong Kong,,,Hong Kong
203.205.137.181,4,-18,gdtimg.com,HK,Asia,Eastern Asia,Hong Kong,,,Hong Kong
47.242.158.6,4,7,gelonghui.com,HK,Asia,Eastern Asia,Hong Kong,,,Hong Kong
154.214.95.48,4,7,gemhanhe.com,HK,Asia,Eastern Asia,Hong Kong,,,Hong Kong
35.215.167.96,4,9,geramipl.com,HK,Asia,Eastern Asia,Hong Kong,,,Hong Kong
156.234.70.23,4,14,gerkia.com.cn,HK,Asia,Eastern Asia,Hong Kong,,,Hong Kong
35.215.186.170,4,9,geschirrverleih.info,HK,Asia,Eastern Asia,Hong Kong,,,Hong Kong
156.234.86.3,4,5,getolmetan.com,HK,Asia,Eastern Asia,Hong Kong,,,Hong Kong
35.215.179.32,4,12,getvgraed.com,HK,Asia,Eastern Asia,Hong Kong,,,Hong Kong
8.212.75.216,4,9,gezila.com,HK,Asia,Eastern Asia,Hong Kong,,,Hong Kong
154.194.145.131,4,5,gfniuzha.com,HK,Asia,Eastern Asia,Hong Kong,,,Hong Kong
154.214.112.109,4,9,gfsdsw.cn,HK,Asia,Eastern Asia,Hong Kong,,,Hong Kong
154.214.112.110,4,8,gggljjm.cn,HK,Asia,Eastern Asia,Hong Kong,,,Hong Kong
47.57.7.24,4,10,gigadevice.com,HK,Asia,Eastern Asia,Hong Kong,,,Hong Kong
34.96.225.57,4,4,gilgplullbororo6.top,HK,Asia,Eastern Asia,Hong Kong,,,Hong Kong
8.210.208.10,4,9,gk99.com,HK,Asia,Eastern Asia,Hong Kong,,,Hong Kong
154.214.117.199,4,8,gkftrps.cn,HK,Asia,Eastern Asia,Hong Kong,,,Hong Kong
43.129.223.133,4,-8,glofang.com,HK,Asia,Eastern Asia,Hong Kong,,,Hong Kong
34.96.160.243,4,5,gma-karma.com,HK,Asia,Eastern Asia,Hong Kong,,,Hong Kong
154.214.64.69,4,25,gmtmao.com,HK,Asia,Eastern Asia,Hong Kong,,,Hong Kong
8.217.87.213,4,20,godox.com,HK,Asia,Eastern Asia,Hong Kong,,,Hong Kong
38.207.194.99,4,19,goeth2.com,HK,Asia,Eastern Asia,Hong Kong,,,Hong Kong
47.244.110.216,4,15,gooood.hk,HK,Asia,Eastern Asia,Hong Kong,,,Hong Kong
165.154.7.136,4,58,growthman.cn,HK,Asia,Eastern Asia,Hong Kong,,,Hong Kong
154.12.60.226,4,6778,growthman.cn,HK,Asia,Eastern Asia,Hong Kong,,,Hong Kong
47.52.216.187,4,11,gsialliance.net,HK,Asia,Eastern Asia,Hong Kong,,,Hong Kong
154.89.104.229,4,7,gslthw.com,HK,Asia,Eastern Asia,Hong Kong,,,Hong Kong
47.243.26.210,4,45,gudumami.cn,HK,Asia,Eastern Asia,Hong Kong,,,Hong Kong
154.194.145.132,4,9,gulugulu6.com,HK,Asia,Eastern Asia,Hong Kong,,,Hong Kong
154.194.145.133,4,9,gumicms.com,HK,Asia,Eastern Asia,Hong Kong,,,Hong Kong
154.194.145.134,4,17,guowufy.com,HK,Asia,Eastern Asia,Hong Kong,,,Hong Kong
154.31.248.5,4,426574,gxdxw.cn,HK,Asia,Eastern Asia,Hong Kong,,,Hong Kong
154.194.145.135,4,6,gyjingli.com,HK,Asia,Eastern Asia,Hong Kong,,,Hong Kong
154.215.112.112,4,6,gyxnsmfwyjjq.com,HK,Asia,Eastern Asia,Hong Kong,,,Hong Kong
43.129.198.102,4,-15,gzchaosheng.cn,HK,Asia,Eastern Asia,Hong Kong,,,Hong Kong
154.31.178.169,4,8,gzdzgyxx.com,HK,Asia,Eastern Asia,Hong Kong,,,Hong Kong
154.194.143.222,4,10,gzhpfb.com,HK,Asia,Eastern Asia,Hong Kong,,,Hong Kong
154.31.166.158,4,10,gzhuiyan.com.cn,HK,Asia,Eastern Asia,Hong Kong,,,Hong Kong
154.214.69.175,4,15,gzkuihou.com,HK,Asia,Eastern Asia,Hong Kong,,,Hong Kong
154.91.6.136,4,7,gzmq88.com,HK,Asia,Eastern Asia,Hong Kong,,,Hong Kong
154.206.230.161,4,24,gzybgc.com,HK,Asia,Eastern Asia,Hong Kong,,,Hong Kong
8.218.9.52,4,10,haemophilia.org.hk,HK,Asia,Eastern Asia,Hong Kong,,,Hong Kong
154.216.86.67,4,4,hahuanya.com,HK,Asia,Eastern Asia,Hong Kong,,,Hong Kong
47.243.204.7,4,7,haiermedical.com,HK,Asia,Eastern Asia,Hong Kong,,,Hong Kong
43.132.205.123,4,0,haiguangjy.com,HK,Asia,Eastern Asia,Hong Kong,,,Hong Kong
154.31.166.22,4,47,hailizulin.com,HK,Asia,Eastern Asia,Hong Kong,,,Hong Kong
154.216.86.70,4,7,haisiqiaoshang.com,HK,Asia,Eastern Asia,Hong Kong,,,Hong Kong
43.154.146.169,4,-12,haitao.com,HK,Asia,Eastern Asia,Hong Kong,,,Hong Kong
154.194.145.136,4,10,haixingquan.com,HK,Asia,Eastern Asia,Hong Kong,,,Hong Kong
47.91.129.219,4,10,hao.wang,HK,Asia,Eastern Asia,Hong Kong,,,Hong Kong
34.96.172.237,4,7,haodaflask.com,HK,Asia,Eastern Asia,Hong Kong,,,Hong Kong
47.238.170.18,4,8,haohand.com,HK,Asia,Eastern Asia,Hong Kong,,,Hong Kong
107.151.204.172,4,28532,haoke2.com,HK,Asia,Eastern Asia,Hong Kong,,,Hong Kong
206.119.11.182,4,15,haozhegai.com,HK,Asia,Eastern Asia,Hong Kong,,,Hong Kong
156.234.251.199,4,6,harbournet.cn,HK,Asia,Eastern Asia,Hong Kong,,,Hong Kong
35.215.174.248,4,9,hardwarehydraulic.com,HK,Asia,Eastern Asia,Hong Kong,,,Hong Kong
156.234.155.114,4,11,hbcjlp.com,HK,Asia,Eastern Asia,Hong Kong,,,Hong Kong
118.193.41.203,4,158611,hbcl.cn,HK,Asia,Eastern Asia,Hong Kong,,,Hong Kong
47.238.254.226,4,8,hbmwgs.com,HK,Asia,Eastern Asia,Hong Kong,,,Hong Kong
154.194.145.137,4,8,hbyijings.com,HK,Asia,Eastern Asia,Hong Kong,,,Hong Kong
154.194.145.138,4,7,heifengyi.com,HK,Asia,Eastern Asia,Hong Kong,,,Hong Kong
156.226.97.206,4,7,hejia-ele.net,HK,Asia,Eastern Asia,Hong Kong,,,Hong Kong
47.244.141.238,4,23,helos-lighting.com,HK,Asia,Eastern Asia,Hong Kong,,,Hong Kong
154.194.145.139,4,35,helpyousuccess.com,HK,Asia,Eastern Asia,Hong Kong,,,Hong Kong
154.194.145.140,4,7,hengjun66.com,HK,Asia,Eastern Asia,Hong Kong,,,Hong Kong
156.234.131.201,4,1,henkuaiwang.com,HK,Asia,Eastern Asia,Hong Kong,,,Hong Kong
47.90.92.184,4,7,hereinuk.com,HK,Asia,Eastern Asia,Hong Kong,,,Hong Kong
154.194.145.141,4,9,hesign-mm.com,HK,Asia,Eastern Asia,Hong Kong,,,Hong Kong
154.194.145.142,4,8,hfbanxia.com,HK,Asia,Eastern Asia,Hong Kong,,,Hong Kong
156.239.205.227,4,25,hhgd01.com,HK,Asia,Eastern Asia,Hong Kong,,,Hong Kong
43.129.27.156,4,-14,hhhtmcmq.com,HK,Asia,Eastern Asia,Hong Kong,,,Hong Kong
47.244.163.87,4,6,hiall.com.cn,HK,Asia,Eastern Asia,Hong Kong,,,Hong Kong
47.75.87.77,4,9,hiendlife.com,HK,Asia,Eastern Asia,Hong Kong,,,Hong Kong
38.181.34.24,4,-13078,hififans.cn,HK,Asia,Eastern Asia,Hong Kong,,,Hong Kong
8.210.29.189,4,11,hkatv.com,HK,Asia,Eastern Asia,Hong Kong,,,Hong Kong
154.194.178.185,4,9,hksunbright.cn,HK,Asia,Eastern Asia,Hong Kong,,,Hong Kong
154.89.104.235,4,8,hljklwlkj.com,HK,Asia,Eastern Asia,Hong Kong,,,Hong Kong
35.215.137.137,4,9,hnamkswqo.com,HK,Asia,Eastern Asia,Hong Kong,,,Hong Kong
38.47.206.101,4,-114751,hncloud.com,HK,Asia,Eastern Asia,Hong Kong,,,Hong Kong
154.206.147.170,4,11,hnjldsc.com,HK,Asia,Eastern Asia,Hong Kong,,,Hong Kong
34.150.101.120,4,22,homeenterprise.net,HK,Asia,Eastern Asia,Hong Kong,,,Hong Kong
154.216.86.72,4,3,hongjing1588.com,HK,Asia,Eastern Asia,Hong Kong,,,Hong Kong
47.83.12.99,4,19,hongweimingye.com,HK,Asia,Eastern Asia,Hong Kong,,,Hong Kong
123.58.218.74,4,17,horizoncoltd.com,HK,Asia,Eastern Asia,Hong Kong,,,Hong Kong
35.215.170.36,4,9,hoscillia.com,HK,Asia,Eastern Asia,Hong Kong,,,Hong Kong
47.52.203.141,4,38,hougong3000.com,HK,Asia,Eastern Asia,Hong Kong,,,Hong Kong
156.234.182.132,4,9,hrbdljt.cn,HK,Asia,Eastern Asia,Hong Kong,,,Hong Kong
43.129.185.220,4,-10,hsnewjordan.com,HK,Asia,Eastern Asia,Hong Kong,,,Hong Kong
156.239.205.228,4,27,huaizhijiuye.com,HK,Asia,Eastern Asia,Hong Kong,,,Hong Kong
154.31.251.139,4,-463373,huajiang.cc,HK,Asia,Eastern Asia,Hong Kong,,,Hong Kong
154.214.70.158,4,16,huanqiujicai.com,HK,Asia,Eastern Asia,Hong Kong,,,Hong Kong
154.26.203.244,4,9,huanqiwang.cn,HK,Asia,Eastern Asia,Hong Kong,,,Hong Kong
154.214.66.30,4,14,huasen119.com,HK,Asia,Eastern Asia,Hong Kong,,,Hong Kong
8.217.81.223,4,7,huilan12333.com,HK,Asia,Eastern Asia,Hong Kong,,,Hong Kong
154.216.86.84,4,5,huiliyuanlin.com,HK,Asia,Eastern Asia,Hong Kong,,,Hong Kong
35.215.166.85,4,9,huiwenedn.com,HK,Asia,Eastern Asia,Hong Kong,,,Hong Kong
154.214.69.176,4,16,huliangzhan.com,HK,Asia,Eastern Asia,Hong Kong,,,Hong Kong
47.52.101.71,4,5,hunshameipai.com,HK,Asia,Eastern Asia,Hong Kong,,,Hong Kong
47.240.248.9,4,7,huway.com,HK,Asia,Eastern Asia,Hong Kong,,,Hong Kong
38.47.241.118,4,4,hxdskjc.com,HK,Asia,Eastern Asia,Hong Kong,,,Hong Kong
154.31.161.107,4,8,hxmjg188.com,HK,Asia,Eastern Asia,Hong Kong,,,Hong Kong
103.21.220.76,4,8,hydra2web.fm,HK,Asia,Eastern Asia,Hong Kong,,,Hong Kong
47.75.188.155,4,7,hypersku.com,HK,Asia,Eastern Asia,Hong Kong,,,Hong Kong
156.234.218.25,4,9,hz-nano.com,HK,Asia,Eastern Asia,Hong Kong,,,Hong Kong
154.31.174.74,4,8,hzdfzc.com,HK,Asia,Eastern Asia,Hong Kong,,,Hong Kong
47.76.197.76,4,7,hzeiger.com,HK,Asia,Eastern Asia,Hong Kong,,,Hong Kong
156.234.140.239,4,11,hzhxtfsb.com,HK,Asia,Eastern Asia,Hong Kong,,,Hong Kong
47.90.60.153,4,10,i-mad.com,HK,Asia,Eastern Asia,Hong Kong,,,Hong Kong
129.226.53.121,4,-15,i7391.com,HK,Asia,Eastern Asia,Hong Kong,,,Hong Kong
156.234.204.129,4,15,ibaclofeno.com,HK,Asia,Eastern Asia,Hong Kong,,,Hong Kong
47.242.124.78,4,8,ibangke.net,HK,Asia,Eastern Asia,Hong Kong,,,Hong Kong
47.242.82.83,4,8,icem.org,HK,Asia,Eastern Asia,Hong Kong,,,Hong Kong
156.234.11.3,4,11,ideasjugosas.com,HK,Asia,Eastern Asia,Hong Kong,,,Hong Kong
43.129.158.133,4,5,idiadem.com,HK,Asia,Eastern Asia,Hong Kong,,,Hong Kong
47.242.26.174,4,5,iev.cn,HK,Asia,Eastern Asia,Hong Kong,,,Hong Kong
47.90.21.61,4,18,ifengweekly.com,HK,Asia,Eastern Asia,Hong Kong,,,Hong Kong
43.155.85.196,4,6,ifeve.com,HK,Asia,Eastern Asia,Hong Kong,,,Hong Kong
47.56.131.119,4,38,iflight-rc.com,HK,Asia,Eastern Asia,Hong Kong,,,Hong Kong
8.210.59.162,4,21,ihaomeijia.com,HK,Asia,Eastern Asia,Hong Kong,,,Hong Kong
156.234.218.59,4,6,ihker.com,HK,Asia,Eastern Asia,Hong Kong,,,Hong Kong
43.154.111.192,4,-13,ihostloc.com,HK,Asia,Eastern Asia,Hong Kong,,,Hong Kong
47.57.191.92,4,9,ik123.com,HK,Asia,Eastern Asia,Hong Kong,,,Hong Kong
47.243.39.0,4,8,iliferobot.cn,HK,Asia,Eastern Asia,Hong Kong,,,Hong Kong
47.242.76.101,4,7,ilovetranslation.com,HK,Asia,Eastern Asia,Hong Kong,,,Hong Kong
8.210.136.169,4,28,imerduo.com,HK,Asia,Eastern Asia,Hong Kong,,,Hong Kong
101.32.181.59,4,-16,imjmj.com,HK,Asia,Eastern Asia,Hong Kong,,,Hong Kong
156.234.204.197,4,9,impulsblog.com,HK,Asia,Eastern Asia,Hong Kong,,,Hong Kong
38.207.223.35,4,8,incdoor.com,HK,Asia,Eastern Asia,Hong Kong,,,Hong Kong
156.234.86.43,4,3,indocins.com,HK,Asia,Eastern Asia,Hong Kong,,,Hong Kong
47.75.9.151,4,6,industrysourcing.net,HK,Asia,Eastern Asia,Hong Kong,,,Hong Kong
154.206.200.4,4,24,infantbabynewborn.com,HK,Asia,Eastern Asia,Hong Kong,,,Hong Kong
94.74.120.101,4,7,infocomm-india.com,HK,Asia,Eastern Asia,Hong Kong,,,Hong Kong
43.154.4.104,4,-17,infras.cn,HK,Asia,Eastern Asia,Hong Kong,,,Hong Kong
8.210.114.158,4,5,ins.com.cn,HK,Asia,Eastern Asia,Hong Kong,,,Hong Kong
154.23.144.101,4,24,instantmedjoint.com,HK,Asia,Eastern Asia,Hong Kong,,,Hong Kong
47.244.18.141,4,19,interzum-guangzhou.com,HK,Asia,Eastern Asia,Hong Kong,,,Hong Kong
154.31.219.242,4,38,iosfuzhu.com,HK,Asia,Eastern Asia,Hong Kong,,,Hong Kong
47.91.150.90,4,1222,ipanelonline.com,HK,Asia,Eastern Asia,Hong Kong,,,Hong Kong
150.109.50.203,4,-11,ipchaxun.com,HK,Asia,Eastern Asia,Hong Kong,,,Hong Kong
47.243.123.208,4,8,isme.fun,HK,Asia,Eastern Asia,Hong Kong,,,Hong Kong
47.239.192.250,4,9,itb-china.com,HK,Asia,Eastern Asia,Hong Kong,,,Hong Kong
47.242.37.74,4,6,itdoor.net,HK,Asia,Eastern Asia,Hong Kong,,,Hong Kong
8.212.74.138,4,6,ixiumei.com,HK,Asia,Eastern Asia,Hong Kong,,,Hong Kong
47.243.86.74,4,10,ixuexi.cf,HK,Asia,Eastern Asia,Hong Kong,,,Hong Kong
156.234.31.68,4,11,iyalion.com,HK,Asia,Eastern Asia,Hong Kong,,,Hong Kong
118.26.38.96,4,5,iyd.wang,HK,Asia,Eastern Asia,Hong Kong,,,Hong Kong
49.0.230.53,4,15,jctrans.com,HK,Asia,Eastern Asia,Hong Kong,,,Hong Kong
154.216.86.85,4,-1,jdgi00.com,HK,Asia,Eastern Asia,Hong Kong,,,Hong Kong
159.138.2.109,4,8,jdonline.com.hk,HK,Asia,Eastern Asia,Hong Kong,,,Hong Kong
154.64.248.45,4,8,jfcap.cn,HK,Asia,Eastern Asia,Hong Kong,,,Hong Kong
8.218.69.17,4,6,jfcaps.com,HK,Asia,Eastern Asia,Hong Kong,,,Hong Kong
103.207.68.75,4,9,jhjvvbh.cn,HK,Asia,Eastern Asia,Hong Kong,,,Hong Kong
47.244.56.228,4,8,jiachangzz.com,HK,Asia,Eastern Asia,Hong Kong,,,Hong Kong
206.119.0.208,4,5,jiakejishu.com,HK,Asia,Eastern Asia,Hong Kong,,,Hong Kong
154.216.110.116,4,1,jiangxichaoyue.com,HK,Asia,Eastern Asia,Hong Kong,,,Hong Kong
8.217.210.199,4,10,jiaochengzhijia.com,HK,Asia,Eastern Asia,Hong Kong,,,Hong Kong
47.52.114.90,4,8,jiasongchina.com,HK,Asia,Eastern Asia,Hong Kong,,,Hong Kong
154.216.110.108,4,-4,jieshou365.com,HK,Asia,Eastern Asia,Hong Kong,,,Hong Kong
47.242.2.78,4,7,jingos.com,HK,Asia,Eastern Asia,Hong Kong,,,Hong Kong
47.242.236.163,4,7,jingsuanwu.com,HK,Asia,Eastern Asia,Hong Kong,,,Hong Kong
8.210.162.55,4,6,jinhailang.com,HK,Asia,Eastern Asia,Hong Kong,,,Hong Kong
47.90.20.104,4,8,jinkosolar.com,HK,Asia,Eastern Asia,Hong Kong,,,Hong Kong
43.129.67.178,4,-17,jintaicnc.com,HK,Asia,Eastern Asia,Hong Kong,,,Hong Kong
154.216.67.198,4,-1,jintaihuojia.com,HK,Asia,Eastern Asia,Hong Kong,,,Hong Kong
154.214.69.174,4,15,jinxianjinbo.com,HK,Asia,Eastern Asia,Hong Kong,,,Hong Kong
154.26.198.43,4,-6451,jishuqq.com,HK,Asia,Eastern Asia,Hong Kong,,,Hong Kong
156.234.141.84,4,-351,jiubiandaili.com,HK,Asia,Eastern Asia,Hong Kong,,,Hong Kong
154.89.81.49,4,2362532,jiubianhttp.com,HK,Asia,Eastern Asia,Hong Kong,,,Hong Kong
101.33.124.121,4,-13,jiuyan.com.cn,HK,Asia,Eastern Asia,Hong Kong,,,Hong Kong
128.1.145.137,4,8,jixietop.top,HK,Asia,Eastern Asia,Hong Kong,,,Hong Kong
45.207.136.35,4,1098937,jiziyy.com,HK,Asia,Eastern Asia,Hong Kong,,,Hong Kong
123.58.210.92,4,7,jjqqj.com,HK,Asia,Eastern Asia,Hong Kong,,,Hong Kong
156.234.156.194,4,2,jk-hz.com,HK,Asia,Eastern Asia,Hong Kong,,,Hong Kong
154.19.205.12,4,8,jk51.com,HK,Asia,Eastern Asia,Hong Kong,,,Hong Kong
156.234.251.250,4,9,jngfjc.com,HK,Asia,Eastern Asia,Hong Kong,,,Hong Kong
8.210.99.175,4,7,jnsaite.com,HK,Asia,Eastern Asia,Hong Kong,,,Hong Kong
47.242.106.179,4,9,jnxlzx.cn,HK,Asia,Eastern Asia,Hong Kong,,,Hong Kong
8.210.130.177,4,8,jocm.us,HK,Asia,Eastern Asia,Hong Kong,,,Hong Kong
8.210.198.75,4,9,joebm.com,HK,Asia,Eastern Asia,Hong Kong,,,Hong Kong
156.234.131.216,4,4,joginesolar.com,HK,Asia,Eastern Asia,Hong Kong,,,Hong Kong
156.234.35.16,4,10,johnharrow.com,HK,Asia,Eastern Asia,Hong Kong,,,Hong Kong
159.138.43.193,4,284177,joyousreading.com,HK,Asia,Eastern Asia,Hong Kong,,,Hong Kong
43.134.207.91,4,12,jpghd.com,HK,Asia,Eastern Asia,Hong Kong,,,Hong Kong
154.89.104.243,4,7,jsaoya.com,HK,Asia,Eastern Asia,Hong Kong,,,Hong Kong
154.216.86.86,4,1,jsdanjuanji.com,HK,Asia,Eastern Asia,Hong Kong,,,Hong Kong
154.216.74.58,4,5,jszhuanbang.com,HK,Asia,Eastern Asia,Hong Kong,,,Hong Kong
47.57.5.165,4,12,jujumaow.com,HK,Asia,Eastern Asia,Hong Kong,,,Hong Kong
35.215.153.83,4,8,juliasbanabread.com,HK,Asia,Eastern Asia,Hong Kong,,,Hong Kong
47.56.127.110,4,8,jumpstarter.hk,HK,Asia,Eastern Asia,Hong Kong,,,Hong Kong
156.234.141.82,4,-296,justenfashion.com,HK,Asia,Eastern Asia,Hong Kong,,,Hong Kong
35.215.171.7,4,8,justtadafilix.com,HK,Asia,Eastern Asia,Hong Kong,,,Hong Kong
154.216.74.62,4,4,juxiangkongjiandesign.com,HK,Asia,Eastern Asia,Hong Kong,,,Hong Kong
154.26.198.233,4,7,jxbh2018.com,HK,Asia,Eastern Asia,Hong Kong,,,Hong Kong
156.234.131.143,4,7,jxjxfl.cn,HK,Asia,Eastern Asia,Hong Kong,,,Hong Kong
154.216.127.146,4,0,jyscoin.com,HK,Asia,Eastern Asia,Hong Kong,,,Hong Kong
43.154.14.149,4,-16,jzxw.cn,HK,Asia,Eastern Asia,Hong Kong,,,Hong Kong
154.194.130.183,4,11,kaifafishing.com,HK,Asia,Eastern Asia,Hong Kong,,,Hong Kong
154.216.103.134,4,1,kailiaojijiage.com,HK,Asia,Eastern Asia,Hong Kong,,,Hong Kong
152.32.172.225,4,54,kaixin1680.cn,HK,Asia,Eastern Asia,Hong Kong,,,Hong Kong
159.138.55.51,4,8,kanqq.com,HK,Asia,Eastern Asia,Hong Kong,,,Hong Kong
8.217.191.116,4,6,kao100.com,HK,Asia,Eastern Asia,Hong Kong,,,Hong Kong
47.242.84.14,4,6,kaviation-tools.com,HK,Asia,Eastern Asia,Hong Kong,,,Hong Kong
154.214.69.177,4,17,kayiguanjia.com,HK,Asia,Eastern Asia,Hong Kong,,,Hong Kong
156.234.35.126,4,4,keltybasecamp.com,HK,Asia,Eastern Asia,Hong Kong,,,Hong Kong
154.214.69.182,4,15,ketai88.com,HK,Asia,Eastern Asia,Hong Kong,,,Hong Kong
156.239.205.229,4,25,kflygs.com,HK,Asia,Eastern Asia,Hong Kong,,,Hong Kong
156.224.184.196,4,106,kindpng.com,HK,Asia,Eastern Asia,Hong Kong,,,Hong Kong
47.76.180.216,4,11,king-kerry.com,HK,Asia,Eastern Asia,Hong Kong,,,Hong Kong
123.58.217.8,4,2,kuaibo.com,HK,Asia,Eastern Asia,Hong Kong,,,Hong Kong
8.210.252.144,4,10,kuaixin.net,HK,Asia,Eastern Asia,Hong Kong,,,Hong Kong
156.234.110.125,4,11,kulunkan.com,HK,Asia,Eastern Asia,Hong Kong,,,Hong Kong
154.194.182.55,4,-6958861,kxqcxs.com,HK,Asia,Eastern Asia,Hong Kong,,,Hong Kong
154.214.112.105,4,8,lalaknh.cn,HK,Asia,Eastern Asia,Hong Kong,,,Hong Kong
156.234.88.40,4,10,lamotrictal.com,HK,Asia,Eastern Asia,Hong Kong,,,Hong Kong
119.13.78.67,4,22,laojintuan.com,HK,Asia,Eastern Asia,Hong Kong,,,Hong Kong
154.19.198.172,4,8,laoreads.com,HK,Asia,Eastern Asia,Hong Kong,,,Hong Kong
154.216.86.82,4,-1,laxhydps.com,HK,Asia,Eastern Asia,Hong Kong,,,Hong Kong
47.76.131.114,4,7,lcdwiki.com,HK,Asia,Eastern Asia,Hong Kong,,,Hong Kong
154.89.106.34,4,9,ldb169.com,HK,Asia,Eastern Asia,Hong Kong,,,Hong Kong
47.243.87.89,4,9,ldcap.com,HK,Asia,Eastern Asia,Hong Kong,,,Hong Kong
156.234.245.157,4,10,leadgrowths.com,HK,Asia,Eastern Asia,Hong Kong,,,Hong Kong
35.215.186.235,4,19,leepvigras.com,HK,Asia,Eastern Asia,Hong Kong,,,Hong Kong
47.244.129.171,4,13,lehmanlaw.com,HK,Asia,Eastern Asia,Hong Kong,,,Hong Kong
43.129.228.95,4,-16,leiyuge.com,HK,Asia,Eastern Asia,Hong Kong,,,Hong Kong
8.210.79.225,4,10,leranl.com,HK,Asia,Eastern Asia,Hong Kong,,,Hong Kong
8.210.249.69,4,9,lexing.com.cn,HK,Asia,Eastern Asia,Hong Kong,,,Hong Kong
154.89.104.240,4,4,lhhq-china.com,HK,Asia,Eastern Asia,Hong Kong,,,Hong Kong
35.215.148.128,4,11,liao1.com,HK,Asia,Eastern Asia,Hong Kong,,,Hong Kong
47.238.86.146,4,8,ligonggong.com,HK,Asia,Eastern Asia,Hong Kong,,,Hong Kong
8.210.86.187,4,9,linux.cn,HK,Asia,Eastern Asia,Hong Kong,,,Hong Kong
47.243.228.97,4,7,linuxdiyf.com,HK,Asia,Eastern Asia,Hong Kong,,,Hong Kong
47.238.47.193,4,14,linuxeye.com,HK,Asia,Eastern Asia,Hong Kong,,,Hong Kong
47.57.117.148,4,7,liosun.com,HK,Asia,Eastern Asia,Hong Kong,,,Hong Kong
8.210.110.124,4,174542,lipin.com,HK,Asia,Eastern Asia,Hong Kong,,,Hong Kong
119.28.54.212,4,-17,liumingye.cn,HK,Asia,Eastern Asia,Hong Kong,,,Hong Kong
47.76.134.28,4,6,liweiart.com,HK,Asia,Eastern Asia,Hong Kong,,,Hong Kong
154.216.103.141,4,6,lixiangyungou.com,HK,Asia,Eastern Asia,Hong Kong,,,Hong Kong
47.242.3.239,4,8,lizemedical.com,HK,Asia,Eastern Asia,Hong Kong,,,Hong Kong
8.210.170.142,4,14,lizhi.io,HK,Asia,Eastern Asia,Hong Kong,,,Hong Kong
47.238.33.102,4,11,longyu.cc,HK,Asia,Eastern Asia,Hong Kong,,,Hong Kong
8.210.201.97,4,6,lsbin.com,HK,Asia,Eastern Asia,Hong Kong,,,Hong Kong
154.216.103.156,4,2,lshdessb.com,HK,Asia,Eastern Asia,Hong Kong,,,Hong Kong
35.220.176.144,4,4,luckytigercasino.top,HK,Asia,Eastern Asia,Hong Kong,,,Hong Kong
47.76.67.203,4,11,lvmae.com,HK,Asia,Eastern Asia,Hong Kong,,,Hong Kong
154.216.86.83,4,2,lychunqing.com,HK,Asia,Eastern Asia,Hong Kong,,,Hong Kong
43.154.90.96,4,-16,lyhrdl.com,HK,Asia,Eastern Asia,Hong Kong,,,Hong Kong
154.26.197.248,4,9,lyndenace.com,HK,Asia,Eastern Asia,Hong Kong,,,Hong Kong
154.89.104.239,4,9,lywrg.com,HK,Asia,Eastern Asia,Hong Kong,,,Hong Kong
154.26.196.34,4,-6455,lz13.cn,HK,Asia,Eastern Asia,Hong Kong,,,Hong Kong
154.89.102.176,4,9,lzbangde.com,HK,Asia,Eastern Asia,Hong Kong,,,Hong Kong
154.206.130.229,4,4,lzdynt.com,HK,Asia,Eastern Asia,Hong Kong,,,Hong Kong
47.75.52.50,4,37,macbl.com,HK,Asia,Eastern Asia,Hong Kong,,,Hong Kong
156.239.205.230,4,72,maijiatv.com,HK,Asia,Eastern Asia,Hong Kong,,,Hong Kong
35.215.189.162,4,10,makingonlinenews.net,HK,Asia,Eastern Asia,Hong Kong,,,Hong Kong
35.220.175.175,4,3,malelove-finder.com,HK,Asia,Eastern Asia,Hong Kong,,,Hong Kong
34.92.211.162,4,3,mansethaberleri.net,HK,Asia,Eastern Asia,Hong Kong,,,Hong Kong
154.216.103.149,4,49,maotaichun100.com,HK,Asia,Eastern Asia,Hong Kong,,,Hong Kong
34.92.49.168,4,2,marylandmushroomsstore.com,HK,Asia,Eastern Asia,Hong Kong,,,Hong Kong
47.57.247.207,4,8,mb5u.com,HK,Asia,Eastern Asia,Hong Kong,,,Hong Kong
156.224.24.63,4,239,mbdianzicheng.com,HK,Asia,Eastern Asia,Hong Kong,,,Hong Kong
43.132.126.62,4,-16,mcmap.cc,HK,Asia,Eastern Asia,Hong Kong,,,Hong Kong
47.91.209.133,4,9,mcutech.net,HK,Asia,Eastern Asia,Hong Kong,,,Hong Kong
8.210.76.243,4,7,mdui.org,HK,Asia,Eastern Asia,Hong Kong,,,Hong Kong
43.128.42.181,4,0,mega-hn.com,HK,Asia,Eastern Asia,Hong Kong,,,Hong Kong
156.234.94.153,4,15,megajobalert.com,HK,Asia,Eastern Asia,Hong Kong,,,Hong Kong
190.92.252.117,4,12,megapce.com,HK,Asia,Eastern Asia,Hong Kong,,,Hong Kong
154.206.227.180,4,35,meijiabanjt.com,HK,Asia,Eastern Asia,Hong Kong,,,Hong Kong
206.119.101.93,4,13,meinvs.com,HK,Asia,Eastern Asia,Hong Kong,,,Hong Kong
156.234.178.8,4,10,meirunchina.com,HK,Asia,Eastern Asia,Hong Kong,,,Hong Kong
52.175.34.95,4,10,meishic.com,HK,Asia,Eastern Asia,Hong Kong,,,Hong Kong
8.210.53.218,4,32,meishujia.cn,HK,Asia,Eastern Asia,Hong Kong,,,Hong Kong
43.154.112.119,4,-12,menubarx.app,HK,Asia,Eastern Asia,Hong Kong,,,Hong Kong
43.132.199.137,4,-14,metacharacter.cn,HK,Asia,Eastern Asia,Hong Kong,,,Hong Kong
154.39.114.141,4,6,metalnews.cn,HK,Asia,Eastern Asia,Hong Kong,,,Hong Kong
8.212.53.83,4,35,metatopnews.org,HK,Asia,Eastern Asia,Hong Kong,,,Hong Kong
35.215.155.167,4,11,metformina.net,HK,Asia,Eastern Asia,Hong Kong,,,Hong Kong
156.234.190.129,4,7,metformini.com,HK,Asia,Eastern Asia,Hong Kong,,,Hong Kong
156.234.204.235,4,23,methocarbaxin.com,HK,Asia,Eastern Asia,Hong Kong,,,Hong Kong
118.193.46.126,4,5,mhcf.net,HK,Asia,Eastern Asia,Hong Kong,,,Hong Kong
47.76.124.196,4,6,mhjy.net,HK,Asia,Eastern Asia,Hong Kong,,,Hong Kong
47.243.231.185,4,48,mhwz.cn,HK,Asia,Eastern Asia,Hong Kong,,,Hong Kong
35.215.160.240,4,19,miamislots.net,HK,Asia,Eastern Asia,Hong Kong,,,Hong Kong
34.92.224.242,4,4,midsummerlifedream.com,HK,Asia,Eastern Asia,Hong Kong,,,Hong Kong
8.218.20.58,4,24,militarybarrier.com,HK,Asia,Eastern Asia,Hong Kong,,,Hong Kong
119.28.225.81,4,-15,minicreo.com,HK,Asia,Eastern Asia,Hong Kong,,,Hong Kong
119.8.60.60,4,5,minio.org.cn,HK,Asia,Eastern Asia,Hong Kong,,,Hong Kong
20.205.63.200,4,7,mipro.com.tw,HK,Asia,Eastern Asia,Hong Kong,,,Hong Kong
154.214.112.103,4,10,mivqsqj.cn,HK,Asia,Eastern Asia,Hong Kong,,,Hong Kong
47.90.59.103,4,9,mixgovr.com,HK,Asia,Eastern Asia,Hong Kong,,,Hong Kong
119.8.51.137,4,22,mixmarvel.com,HK,Asia,Eastern Asia,Hong Kong,,,Hong Kong
47.52.26.78,4,11,mlog.club,HK,Asia,Eastern Asia,Hong Kong,,,Hong Kong
156.234.178.222,4,10,mmdontstop.com,HK,Asia,Eastern Asia,Hong Kong,,,Hong Kong
154.214.69.166,4,18,mmmm1688.com,HK,Asia,Eastern Asia,Hong Kong,,,Hong Kong
43.129.219.26,4,-17,mo8.cc,HK,Asia,Eastern Asia,Hong Kong,,,Hong Kong
43.154.82.252,4,-14,mobanbus.cn,HK,Asia,Eastern Asia,Hong Kong,,,Hong Kong
8.217.13.2,4,7,mobantu.com,HK,Asia,Eastern Asia,Hong Kong,,,Hong Kong
156.234.212.214,4,9,mojikontakti.com,HK,Asia,Eastern Asia,Hong Kong,,,Hong Kong
43.134.208.184,4,-15,mokeyjay.com,HK,Asia,Eastern Asia,Hong Kong,,,Hong Kong
35.215.128.238,4,9,mokids.me,HK,Asia,Eastern Asia,Hong Kong,,,Hong Kong
8.218.5.158,4,11,moliyly.com,HK,Asia,Eastern Asia,Hong Kong,,,Hong Kong
156.240.2.27,4,-19055,moo9995.com,HK,Asia,Eastern Asia,Hong Kong,,,Hong Kong
47.56.12.96,4,13,mookbus.com,HK,Asia,Eastern Asia,Hong Kong,,,Hong Kong
47.240.33.35,4,23,mooring.com.cn,HK,Asia,Eastern Asia,Hong Kong,,,Hong Kong
35.220.195.62,4,12,motor-tuning.net,HK,Asia,Eastern Asia,Hong Kong,,,Hong Kong
103.21.220.71,4,6,moviekidsnews.com,HK,Asia,Eastern Asia,Hong Kong,,,Hong Kong
35.241.85.217,4,4,mpgpress.com,HK,Asia,Eastern Asia,Hong Kong,,,Hong Kong
8.210.25.62,4,14,mretv.com,HK,Asia,Eastern Asia,Hong Kong,,,Hong Kong
35.215.171.83,4,10,msdmco.org,HK,Asia,Eastern Asia,Hong Kong,,,Hong Kong
35.215.136.232,4,10,mtehomelife.com,HK,Asia,Eastern Asia,Hong Kong,,,Hong Kong
43.132.158.69,4,-13,mtyyw.com,HK,Asia,Eastern Asia,Hong Kong,,,Hong Kong
47.242.245.198,4,46,muqin.com.cn,HK,Asia,Eastern Asia,Hong Kong,,,Hong Kong
47.242.246.161,4,8,mxhaitao.com,HK,Asia,Eastern Asia,Hong Kong,,,Hong Kong
154.214.97.253,4,84,myaffordablequalityinsurance.com,HK,Asia,Eastern Asia,Hong Kong,,,Hong Kong
150.109.119.111,4,-2,mychg.org,HK,Asia,Eastern Asia,Hong Kong,,,Hong Kong
154.216.86.87,4,4,mysenjia.com,HK,Asia,Eastern Asia,Hong Kong,,,Hong Kong
47.238.45.254,4,6,myubbs.com,HK,Asia,Eastern Asia,Hong Kong,,,Hong Kong
47.242.199.139,4,12,myuwell.com,HK,Asia,Eastern Asia,Hong Kong,,,Hong Kong
129.226.164.97,4,45,myvrgame.cn,HK,Asia,Eastern Asia,Hong Kong,,,Hong Kong
154.89.104.237,4,22,myyunmima.com,HK,Asia,Eastern Asia,Hong Kong,,,Hong Kong
47.75.186.112,4,21,mzzhao.com,HK,Asia,Eastern Asia,Hong Kong,,,Hong Kong
34.96.199.163,4,2,nationalmalldesign.org,HK,Asia,Eastern Asia,Hong Kong,,,Hong Kong
101.32.189.195,4,-16,nbrczp.com,HK,Asia,Eastern Asia,Hong Kong,,,Hong Kong
154.194.145.143,4,9,nbs-fl.com,HK,Asia,Eastern Asia,Hong Kong,,,Hong Kong
47.52.90.236,4,9,nbtif.com,HK,Asia,Eastern Asia,Hong Kong,,,Hong Kong
47.76.246.72,4,10,nbxieheng.cn,HK,Asia,Eastern Asia,Hong Kong,,,Hong Kong
47.57.236.63,4,223,nd.com.cn,HK,Asia,Eastern Asia,Hong Kong,,,Hong Kong
154.214.70.157,4,19,neimenggusst.com,HK,Asia,Eastern Asia,Hong Kong,,,Hong Kong
47.91.249.75,4,6,neocha.com,HK,Asia,Eastern Asia,Hong Kong,,,Hong Kong
47.52.101.69,4,7,neriandhu.com,HK,Asia,Eastern Asia,Hong Kong,,,Hong Kong
47.238.234.227,4,8,netis-systems.com,HK,Asia,Eastern Asia,Hong Kong,,,Hong Kong
156.224.128.196,4,3,nicepng.com,HK,Asia,Eastern Asia,Hong Kong,,,Hong Kong
34.92.180.120,4,28,nike-mercurial.org,HK,Asia,Eastern Asia,Hong Kong,,,Hong Kong
47.243.253.72,4,10,niubull.com,HK,Asia,Eastern Asia,Hong Kong,,,Hong Kong
156.234.148.219,4,6,njdufang.com,HK,Asia,Eastern Asia,Hong Kong,,,Hong Kong
47.238.128.233,4,10,njyxwx.com,HK,Asia,Eastern Asia,Hong Kong,,,Hong Kong
8.218.169.227,4,10,nmgjxffm.com,HK,Asia,Eastern Asia,Hong Kong,,,Hong Kong
8.210.7.180,4,6,nmgzszhjc.com,HK,Asia,Eastern Asia,Hong Kong,,,Hong Kong
35.215.153.183,4,10,noprescriptioncanada.com,HK,Asia,Eastern Asia,Hong Kong,,,Hong Kong
152.32.172.122,4,8,norgein.com,HK,Asia,Eastern Asia,Hong Kong,,,Hong Kong
47.76.193.210,4,7,northtimes.com,HK,Asia,Eastern Asia,Hong Kong,,,Hong Kong
47.75.54.240,4,63,nqidi.com,HK,Asia,Eastern Asia,Hong Kong,,,Hong Kong
47.76.229.163,4,9,ntg-holdings.com,HK,Asia,Eastern Asia,Hong Kong,,,Hong Kong
43.152.14.32,4,-1,nweon.com,HK,Asia,Eastern Asia,Hong Kong,,,Hong Kong
43.152.23.34,4,-5,nweon.com,HK,Asia,Eastern Asia,Hong Kong,,,Hong Kong
43.152.25.102,4,-1,nweon.com,HK,Asia,Eastern Asia,Hong Kong,,,Hong Kong
156.234.202.48,4,10,nwxdt.com,HK,Asia,Eastern Asia,Hong Kong,,,Hong Kong
156.234.202.47,4,11,nwxwb.com,HK,Asia,Eastern Asia,Hong Kong,,,Hong Kong
43.129.165.125,4,-14,nxw.so,HK,Asia,Eastern Asia,Hong Kong,,,Hong Kong
8.218.107.176,4,11,nzdao.cn,HK,Asia,Eastern Asia,Hong Kong,,,Hong Kong
154.12.62.152,4,-217,nztw.org,HK,Asia,Eastern Asia,Hong Kong,,,Hong Kong
156.240.50.184,4,19,ohgwzme.cn,HK,Asia,Eastern Asia,Hong Kong,,,Hong Kong
156.234.47.112,4,15,ok3588.com,HK,Asia,Eastern Asia,Hong Kong,,,Hong Kong
149.104.189.136,4,11,okdhhs.net,HK,Asia,Eastern Asia,Hong Kong,,,Hong Kong
43.199.115.124,4,-6,okx.com,HK,Asia,Eastern Asia,Hong Kong,,,Hong Kong
129.226.63.76,4,-11,oldmanemu.net,HK,Asia,Eastern Asia,Hong Kong,,,Hong Kong
35.215.149.192,4,11,online-slots-games.net,HK,Asia,Eastern Asia,Hong Kong,,,Hong Kong
35.215.148.98,4,9,onlinedatingsuccessguide.com,HK,Asia,Eastern Asia,Hong Kong,,,Hong Kong
103.77.210.183,4,336,Ookla Speedtest Server 62193: speedtest.hk210.hkg.cn.ctcsci.com,HK,Asia,Eastern Asia,Hong Kong,,,Hong Kong
129.226.69.139,4,-13,opencv.org.cn,HK,Asia,Eastern Asia,Hong Kong,,,Hong Kong
43.154.106.66,4,4,openv.com,HK,Asia,Eastern Asia,Hong Kong,,,Hong Kong
47.76.62.167,4,11,openv.tv,HK,Asia,Eastern Asia,Hong Kong,,,Hong Kong
156.234.61.176,4,11,oprolevorter.com,HK,Asia,Eastern Asia,Hong Kong,,,Hong Kong
119.8.247.44,4,18,orangenews.hk,HK,Asia,Eastern Asia,Hong Kong,,,Hong Kong
119.8.247.39,4,7,orangenews.hk,HK,Asia,Eastern Asia,Hong Kong,,,Hong Kong
159.138.14.223,4,25,orangenews.hk,HK,Asia,Eastern Asia,Hong Kong,,,Hong Kong
159.138.14.225,4,6,orangenews.hk,HK,Asia,Eastern Asia,Hong Kong,,,Hong Kong
154.89.91.136,4,7,orderciali.com,HK,Asia,Eastern Asia,Hong Kong,,,Hong Kong
47.52.248.125,4,46,oreilly.com.cn,HK,Asia,Eastern Asia,Hong Kong,,,Hong Kong
156.234.112.219,4,18,oxcareptal.com,HK,Asia,Eastern Asia,Hong Kong,,,Hong Kong
47.242.26.229,4,41,partszf.com,HK,Asia,Eastern Asia,Hong Kong,,,Hong Kong
34.96.173.166,4,2,paulingcatalogue.org,HK,Asia,Eastern Asia,Hong Kong,,,Hong Kong
34.92.154.17,4,23,paxil.cyou,HK,Asia,Eastern Asia,Hong Kong,,,Hong Kong
34.150.122.96,4,9,paxlovid.pro,HK,Asia,Eastern Asia,Hong Kong,,,Hong Kong
156.234.222.205,4,7,pbuvj.com,HK,Asia,Eastern Asia,Hong Kong,,,Hong Kong
154.89.111.9,4,13,pcwanli.com,HK,Asia,Eastern Asia,Hong Kong,,,Hong Kong
119.13.78.137,4,10,pdafans.com.cn,HK,Asia,Eastern Asia,Hong Kong,,,Hong Kong
129.226.172.196,4,3,pengstys.com,HK,Asia,Eastern Asia,Hong Kong,,,Hong Kong
154.216.72.214,4,28,percutalfa.com,HK,Asia,Eastern Asia,Hong Kong,,,Hong Kong
156.234.152.42,4,63,perinceon.com,HK,Asia,Eastern Asia,Hong Kong,,,Hong Kong
47.76.169.171,4,18,pet86.com,HK,Asia,Eastern Asia,Hong Kong,,,Hong Kong
8.210.10.150,4,23,petrobino.com,HK,Asia,Eastern Asia,Hong Kong,,,Hong Kong
154.89.90.180,4,7,pgautosale.com,HK,Asia,Eastern Asia,Hong Kong,,,Hong Kong
156.234.140.197,4,17,phigoedu.com,HK,Asia,Eastern Asia,Hong Kong,,,Hong Kong
34.92.26.112,4,3,philly-injury-law.com,HK,Asia,Eastern Asia,Hong Kong,,,Hong Kong
47.243.86.181,4,10,pick-fun.com,HK,Asia,Eastern Asia,Hong Kong,,,Hong Kong
156.224.168.4,4,37,pikpng.com,HK,Asia,Eastern Asia,Hong Kong,,,Hong Kong
206.119.3.146,4,17,pingbandayin.com,HK,Asia,Eastern Asia,Hong Kong,,,Hong Kong
156.234.236.59,4,32,planixbuy.com,HK,Asia,Eastern Asia,Hong Kong,,,Hong Kong
154.215.112.105,4,20,plswhg.com,HK,Asia,Eastern Asia,Hong Kong,,,Hong Kong
156.224.175.59,4,3,pngfind.com,HK,Asia,Eastern Asia,Hong Kong,,,Hong Kong
154.197.160.68,4,3,pngitem.com,HK,Asia,Eastern Asia,Hong Kong,,,Hong Kong
154.197.224.100,4,7,pngkey.com,HK,Asia,Eastern Asia,Hong Kong,,,Hong Kong
156.224.143.4,4,13,pngkit.com,HK,Asia,Eastern Asia,Hong Kong,,,Hong Kong
154.197.56.4,4,9,pnstudy.com,HK,Asia,Eastern Asia,Hong Kong,,,Hong Kong
47.244.104.234,4,67,polkaproject.com,HK,Asia,Eastern Asia,Hong Kong,,,Hong Kong
154.23.152.66,4,-1022,ppcn.net,HK,Asia,Eastern Asia,Hong Kong,,,Hong Kong
8.212.77.10,4,36,pptok.com,HK,Asia,Eastern Asia,Hong Kong,,,Hong Kong
47.238.39.202,4,69,prcfe.com,HK,Asia,Eastern Asia,Hong Kong,,,Hong Kong
35.215.189.14,4,41,prednisone247.com,HK,Asia,Eastern Asia,Hong Kong,,,Hong Kong
35.215.181.202,4,38,prednisoneizi.com,HK,Asia,Eastern Asia,Hong Kong,,,Hong Kong
47.91.188.79,4,7,prouvon.com.cn,HK,Asia,Eastern Asia,Hong Kong,,,Hong Kong
149.129.116.2,4,70,pub163.com,HK,Asia,Eastern Asia,Hong Kong,,,Hong Kong
154.206.166.33,4,11,purebizgains.com,HK,Asia,Eastern Asia,Hong Kong,,,Hong Kong
47.240.63.93,4,26,pythontab.com,HK,Asia,Eastern Asia,Hong Kong,,,Hong Kong
156.234.240.29,4,15,qglobalconsulting.com,HK,Asia,Eastern Asia,Hong Kong,,,Hong Kong
34.92.24.86,4,3,qichengedu.org,HK,Asia,Eastern Asia,Hong Kong,,,Hong Kong
154.31.248.2,4,426571,qingkai.com,HK,Asia,Eastern Asia,Hong Kong,,,Hong Kong
47.240.67.186,4,8,qingye.world,HK,Asia,Eastern Asia,Hong Kong,,,Hong Kong
8.210.225.225,4,9,qipaoxian.com,HK,Asia,Eastern Asia,Hong Kong,,,Hong Kong
8.218.31.115,4,7,qj.com.cn,HK,Asia,Eastern Asia,Hong Kong,,,Hong Kong
154.19.204.128,4,7505,qqbaobao.com,HK,Asia,Eastern Asia,Hong Kong,,,Hong Kong
149.104.148.251,4,5,qqe2.com,HK,Asia,Eastern Asia,Hong Kong,,,Hong Kong
154.31.173.147,4,9,quan09.com,HK,Asia,Eastern Asia,Hong Kong,,,Hong Kong
8.210.42.16,4,10,quanboo.com,HK,Asia,Eastern Asia,Hong Kong,,,Hong Kong
8.217.189.1,4,10,quanfff.com,HK,Asia,Eastern Asia,Hong Kong,,,Hong Kong
47.243.40.229,4,8,quanji.net,HK,Asia,Eastern Asia,Hong Kong,,,Hong Kong
156.234.96.217,4,19,quanmingongyang.com,HK,Asia,Eastern Asia,Hong Kong,,,Hong Kong
156.234.96.199,4,6,quanmingozc.com,HK,Asia,Eastern Asia,Hong Kong,,,Hong Kong
47.243.192.91,4,15,quanyou0931.com,HK,Asia,Eastern Asia,Hong Kong,,,Hong Kong
154.23.152.120,4,16,quecxx.com,HK,Asia,Eastern Asia,Hong Kong,,,Hong Kong
156.234.16.232,4,40,quetiquel.com,HK,Asia,Eastern Asia,Hong Kong,,,Hong Kong
156.234.112.136,4,9,qy-bearing.com,HK,Asia,Eastern Asia,Hong Kong,,,Hong Kong
154.89.104.228,4,7,qy1106.com,HK,Asia,Eastern Asia,Hong Kong,,,Hong Kong
43.128.57.238,4,-9,qyhs.xn--fiqs8s,HK,Asia,Eastern Asia,Hong Kong,,,Hong Kong
47.52.7.13,4,48,rapoo.com,HK,Asia,Eastern Asia,Hong Kong,,,Hong Kong
216.250.97.52,4,13,rechtslexikon.net,HK,Asia,Eastern Asia,Hong Kong,,,Hong Kong
47.242.232.187,4,36,redflag-linux.com,HK,Asia,Eastern Asia,Hong Kong,,,Hong Kong
43.154.92.22,4,18,redis.com.cn,HK,Asia,Eastern Asia,Hong Kong,,,Hong Kong
8.218.190.44,4,31,redis.net.cn,HK,Asia,Eastern Asia,Hong Kong,,,Hong Kong
124.156.186.199,4,13,refond.com,HK,Asia,Eastern Asia,Hong Kong,,,Hong Kong
119.28.51.22,4,0,resonatehousehold.com,HK,Asia,Eastern Asia,Hong Kong,,,Hong Kong
8.210.210.5,4,44,retens.hk,HK,Asia,Eastern Asia,Hong Kong,,,Hong Kong
35.220.206.240,4,15,rhtnet.top,HK,Asia,Eastern Asia,Hong Kong,,,Hong Kong
47.243.232.42,4,56,richenfinance.com,HK,Asia,Eastern Asia,Hong Kong,,,Hong Kong
107.148.13.124,4,7082,ririsao.vip,HK,Asia,Eastern Asia,Hong Kong,,,Hong Kong
107.148.13.135,4,7081,ririsao7.com,HK,Asia,Eastern Asia,Hong Kong,,,Hong Kong
107.148.13.136,4,7082,ririsao8.com,HK,Asia,Eastern Asia,Hong Kong,,,Hong Kong
107.148.13.138,4,7082,ririsao9.com,HK,Asia,Eastern Asia,Hong Kong,,,Hong Kong
154.39.122.183,4,25,riyugroup.com,HK,Asia,Eastern Asia,Hong Kong,,,Hong Kong
34.92.234.7,4,2,roaring21casino.top,HK,Asia,Eastern Asia,Hong Kong,,,Hong Kong
93.95.114.20,4,1311,rocleiden.nl,HK,Asia,Eastern Asia,Hong Kong,,,Hong Kong
103.21.220.45,4,7,royalcollegeofpharmacy.com,HK,Asia,Eastern Asia,Hong Kong,,,Hong Kong
107.148.13.64,4,7115,rriav3.com,HK,Asia,Eastern Asia,Hong Kong,,,Hong Kong
107.148.13.67,4,7081,rriav4.com,HK,Asia,Eastern Asia,Hong Kong,,,Hong Kong
47.244.49.56,4,23,rtmworld.com,HK,Asia,Eastern Asia,Hong Kong,,,Hong Kong
171.22.193.35,4,26,ruanjianbuluo.com,HK,Asia,Eastern Asia,Hong Kong,,,Hong Kong
43.129.232.173,4,-4,runlite.cn,HK,Asia,Eastern Asia,Hong Kong,,,Hong Kong
156.234.141.80,4,15,rushing-sh.com,HK,Asia,Eastern Asia,Hong Kong,,,Hong Kong
154.216.86.121,4,21,rxycm.com,HK,Asia,Eastern Asia,Hong Kong,,,Hong Kong
47.242.57.105,4,6,rz114.cn,HK,Asia,Eastern Asia,Hong Kong,,,Hong Kong
8.210.234.219,4,8,s-cms.cn,HK,Asia,Eastern Asia,Hong Kong,,,Hong Kong
47.76.31.47,4,24,safety-brake.com,HK,Asia,Eastern Asia,Hong Kong,,,Hong Kong
156.224.243.146,4,2,sandianyixian.com,HK,Asia,Eastern Asia,Hong Kong,,,Hong Kong
43.154.140.196,4,9,sanwen.net,HK,Asia,Eastern Asia,Hong Kong,,,Hong Kong
38.181.22.91,4,13,saocdn.net,HK,Asia,Eastern Asia,Hong Kong,,,Hong Kong
104.143.33.25,4,4,saocdn.net,HK,Asia,Eastern Asia,Hong Kong,,,Hong Kong
8.218.162.192,4,5,saramonic.com,HK,Asia,Eastern Asia,Hong Kong,,,Hong Kong
8.218.100.253,4,14,sass.hk,HK,Asia,Eastern Asia,Hong Kong,,,Hong Kong
34.92.109.131,4,11,sat-plus.net,HK,Asia,Eastern Asia,Hong Kong,,,Hong Kong
154.89.104.252,4,8,sbepgz.cn,HK,Asia,Eastern Asia,Hong Kong,,,Hong Kong
47.242.48.183,4,17,scry.info,HK,Asia,Eastern Asia,Hong Kong,,,Hong Kong
154.91.6.168,4,21,scsngd.com,HK,Asia,Eastern Asia,Hong Kong,,,Hong Kong
47.76.65.66,4,22,scstock.com,HK,Asia,Eastern Asia,Hong Kong,,,Hong Kong
154.215.112.113,4,5,scxnks.com,HK,Asia,Eastern Asia,Hong Kong,,,Hong Kong
43.129.94.9,4,-18,sdjncc.com,HK,Asia,Eastern Asia,Hong Kong,,,Hong Kong
47.239.243.34,4,9,sdlw-jx.com,HK,Asia,Eastern Asia,Hong Kong,,,Hong Kong
8.218.54.244,4,5,sdrc315.com,HK,Asia,Eastern Asia,Hong Kong,,,Hong Kong
47.242.145.137,4,8,sdscbc.com,HK,Asia,Eastern Asia,Hong Kong,,,Hong Kong
154.216.86.80,4,2,sdshaosheng.com,HK,Asia,Eastern Asia,Hong Kong,,,Hong Kong
154.26.200.106,4,19,selaudi.net,HK,Asia,Eastern Asia,Hong Kong,,,Hong Kong
203.205.136.157,4,-21,sf-international.com,HK,Asia,Eastern Asia,Hong Kong,,,Hong Kong
119.28.164.32,4,21,sf-international.com,HK,Asia,Eastern Asia,Hong Kong,,,Hong Kong
154.216.103.152,4,4,sh-feiduo.com,HK,Asia,Eastern Asia,Hong Kong,,,Hong Kong
156.234.141.85,4,-316,sh-kmc.com,HK,Asia,Eastern Asia,Hong Kong,,,Hong Kong
154.214.65.47,4,31,shanghzc.com,HK,Asia,Eastern Asia,Hong Kong,,,Hong Kong
35.215.159.35,4,9,sheilasshaveclub.com,HK,Asia,Eastern Asia,Hong Kong,,,Hong Kong
154.216.103.153,4,5,shengdaost.com,HK,Asia,Eastern Asia,Hong Kong,,,Hong Kong
154.89.81.48,4,2362530,shenghua2008.com,HK,Asia,Eastern Asia,Hong Kong,,,Hong Kong
154.91.6.139,4,9,shengninghua.com,HK,Asia,Eastern Asia,Hong Kong,,,Hong Kong
154.214.69.181,4,16,shenlianclass.com,HK,Asia,Eastern Asia,Hong Kong,,,Hong Kong
154.206.129.214,4,7,sheqd.cn,HK,Asia,Eastern Asia,Hong Kong,,,Hong Kong
156.224.200.50,4,3,shhaosy.com,HK,Asia,Eastern Asia,Hong Kong,,,Hong Kong
154.216.127.136,4,-2,shiputx.com,HK,Asia,Eastern Asia,Hong Kong,,,Hong Kong
8.210.17.51,4,9,shiruini.com,HK,Asia,Eastern Asia,Hong Kong,,,Hong Kong
123.58.213.240,4,-39922,shjf.com,HK,Asia,Eastern Asia,Hong Kong,,,Hong Kong
156.234.239.41,4,22,shopvibehair.com,HK,Asia,Eastern Asia,Hong Kong,,,Hong Kong
35.241.69.196,4,8,shortnews247.com,HK,Asia,Eastern Asia,Hong Kong,,,Hong Kong
43.154.80.50,4,-13,shouyouzhijia.net,HK,Asia,Eastern Asia,Hong Kong,,,Hong Kong
154.214.71.101,4,15,shoxinzhe.com,HK,Asia,Eastern Asia,Hong Kong,,,Hong Kong
154.19.64.56,4,0,shsahsh.com,HK,Asia,Eastern Asia,Hong Kong,,,Hong Kong
154.206.205.115,4,18,shtrgd.com,HK,Asia,Eastern Asia,Hong Kong,,,Hong Kong
8.210.229.251,4,6,shudoo.com,HK,Asia,Eastern Asia,Hong Kong,,,Hong Kong
47.91.235.20,4,9,shuyong.net,HK,Asia,Eastern Asia,Hong Kong,,,Hong Kong
156.234.83.37,4,8,shzzsy.com.cn,HK,Asia,Eastern Asia,Hong Kong,,,Hong Kong
8.210.229.134,4,7,sibspress.org,HK,Asia,Eastern Asia,Hong Kong,,,Hong Kong
35.215.186.193,4,11,sildenafilfwcg.com,HK,Asia,Eastern Asia,Hong Kong,,,Hong Kong
35.215.186.112,4,37,silitech-us.com,HK,Asia,Eastern Asia,Hong Kong,,,Hong Kong
154.23.148.118,4,7,sims3cheat.com,HK,Asia,Eastern Asia,Hong Kong,,,Hong Kong
156.234.166.226,4,25,sinesofthetimes.com,HK,Asia,Eastern Asia,Hong Kong,,,Hong Kong
154.194.150.243,4,6,sinodis-ehr.com,HK,Asia,Eastern Asia,Hong Kong,,,Hong Kong
47.91.130.55,4,323,sinolingua.com.cn,HK,Asia,Eastern Asia,Hong Kong,,,Hong Kong
8.212.17.16,4,46,siteserver.cn,HK,Asia,Eastern Asia,Hong Kong,,,Hong Kong
154.214.69.187,4,18,sjz-huaheng.com,HK,Asia,Eastern Asia,Hong Kong,,,Hong Kong
154.23.129.116,4,50,sjzxpjx.com,HK,Asia,Eastern Asia,Hong Kong,,,Hong Kong
154.23.129.126,4,41,sjzxpjx.com,HK,Asia,Eastern Asia,Hong Kong,,,Hong Kong
154.23.129.122,4,41,sjzxpjx.com,HK,Asia,Eastern Asia,Hong Kong,,,Hong Kong
154.23.129.125,4,39,sjzxpjx.com,HK,Asia,Eastern Asia,Hong Kong,,,Hong Kong
154.23.129.118,4,76,sjzxpjx.com,HK,Asia,Eastern Asia,Hong Kong,,,Hong Kong
43.154.4.125,4,-13,sjzzhizhi.com,HK,Asia,Eastern Asia,Hong Kong,,,Hong Kong
47.242.186.251,4,8,sketchcn.com,HK,Asia,Eastern Asia,Hong Kong,,,Hong Kong
47.76.67.19,4,35,sltp88.com,HK,Asia,Eastern Asia,Hong Kong,,,Hong Kong
47.242.61.103,4,18,sltp88.com,HK,Asia,Eastern Asia,Hong Kong,,,Hong Kong
34.96.163.200,4,27,sltp88.com,HK,Asia,Eastern Asia,Hong Kong,,,Hong Kong
8.212.46.161,4,14,smartshanghai.com,HK,Asia,Eastern Asia,Hong Kong,,,Hong Kong
47.90.120.54,4,5,smcnn.com,HK,Asia,Eastern Asia,Hong Kong,,,Hong Kong
156.234.148.202,4,5,smilehehe.com,HK,Asia,Eastern Asia,Hong Kong,,,Hong Kong
47.242.161.201,4,14,smilesaddlery.com,HK,Asia,Eastern Asia,Hong Kong,,,Hong Kong
8.210.53.190,4,11,smspinverify.com,HK,Asia,Eastern Asia,Hong Kong,,,Hong Kong
154.216.110.98,4,20,snailcx.com,HK,Asia,Eastern Asia,Hong Kong,,,Hong Kong
35.220.154.157,4,40,snapatar.com,HK,Asia,Eastern Asia,Hong Kong,,,Hong Kong
119.12.174.204,4,9,snzholding.com,HK,Asia,Eastern Asia,Hong Kong,,,Hong Kong
156.234.99.66,4,18,sodo.vip,HK,Asia,Eastern Asia,Hong Kong,,,Hong Kong
34.92.49.42,4,26,solinguen.com,HK,Asia,Eastern Asia,Hong Kong,,,Hong Kong
156.224.138.220,4,44,sommarbutik.com,HK,Asia,Eastern Asia,Hong Kong,,,Hong Kong
154.31.243.30,4,52,songtai8.com,HK,Asia,Eastern Asia,Hong Kong,,,Hong Kong
47.76.175.162,4,8,soueast-motor.com,HK,Asia,Eastern Asia,Hong Kong,,,Hong Kong
156.234.94.171,4,14,spiroaldact.com,HK,Asia,Eastern Asia,Hong Kong,,,Hong Kong
149.104.188.154,4,9,spjxsb.cn,HK,Asia,Eastern Asia,Hong Kong,,,Hong Kong
156.234.100.118,4,6,sportracon.com,HK,Asia,Eastern Asia,Hong Kong,,,Hong Kong
47.243.64.211,4,6,sqnet.cn,HK,Asia,Eastern Asia,Hong Kong,,,Hong Kong
47.242.115.176,4,10,storeweb.cn,HK,Asia,Eastern Asia,Hong Kong,,,Hong Kong
156.234.16.252,4,46,stromectolis.com,HK,Asia,Eastern Asia,Hong Kong,,,Hong Kong
154.89.113.85,4,6,stsh56.com,HK,Asia,Eastern Asia,Hong Kong,,,Hong Kong
47.240.20.166,4,5,stu51.com,HK,Asia,Eastern Asia,Hong Kong,,,Hong Kong
8.218.8.40,4,9,suncrown.com,HK,Asia,Eastern Asia,Hong Kong,,,Hong Kong
47.75.112.192,4,6,suntekstore.com,HK,Asia,Eastern Asia,Hong Kong,,,Hong Kong
8.212.40.104,4,6,supdropshipping.com,HK,Asia,Eastern Asia,Hong Kong,,,Hong Kong
159.138.31.102,4,7,swithk.com,HK,Asia,Eastern Asia,Hong Kong,,,Hong Kong
149.129.115.128,4,9,sword.studio,HK,Asia,Eastern Asia,Hong Kong,,,Hong Kong
8.212.10.206,4,13,swydt.com,HK,Asia,Eastern Asia,Hong Kong,,,Hong Kong
156.234.148.209,4,3,sxhygongcheng.com,HK,Asia,Eastern Asia,Hong Kong,,,Hong Kong
34.96.166.39,4,7,sxmingliang.com,HK,Asia,Eastern Asia,Hong Kong,,,Hong Kong
154.89.104.238,4,6,sxsenlang.com,HK,Asia,Eastern Asia,Hong Kong,,,Hong Kong
154.216.103.155,4,-1,syjunmu.com,HK,Asia,Eastern Asia,Hong Kong,,,Hong Kong
154.215.96.132,4,10,sysjqb.com,HK,Asia,Eastern Asia,Hong Kong,,,Hong Kong
156.234.44.212,4,9,sytianyitang.com,HK,Asia,Eastern Asia,Hong Kong,,,Hong Kong
47.76.44.85,4,13,sz3e.com,HK,Asia,Eastern Asia,Hong Kong,,,Hong Kong
154.91.6.165,4,30,szaibei.com,HK,Asia,Eastern Asia,Hong Kong,,,Hong Kong
47.52.236.64,4,18,szaidehua.com,HK,Asia,Eastern Asia,Hong Kong,,,Hong Kong
47.244.43.173,4,9,szantai.group,HK,Asia,Eastern Asia,Hong Kong,,,Hong Kong
156.239.205.236,4,25,szge776.com,HK,Asia,Eastern Asia,Hong Kong,,,Hong Kong
156.240.3.61,4,18,szggy.com,HK,Asia,Eastern Asia,Hong Kong,,,Hong Kong
43.135.120.120,4,-12,szluosiji.com,HK,Asia,Eastern Asia,Hong Kong,,,Hong Kong
154.194.130.162,4,9,szmfzxcm.com,HK,Asia,Eastern Asia,Hong Kong,,,Hong Kong
123.58.218.46,4,7,szsydq.com,HK,Asia,Eastern Asia,Hong Kong,,,Hong Kong
156.239.205.231,4,26,szysdsh.com,HK,Asia,Eastern Asia,Hong Kong,,,Hong Kong
35.215.171.137,4,7,tadafilax.com,HK,Asia,Eastern Asia,Hong Kong,,,Hong Kong
35.215.178.191,4,9,tadalafil1st.com,HK,Asia,Eastern Asia,Hong Kong,,,Hong Kong
35.215.167.180,4,7,tadalafilolgf.com,HK,Asia,Eastern Asia,Hong Kong,,,Hong Kong
156.234.141.86,4,11,taihongshengwu.com,HK,Asia,Eastern Asia,Hong Kong,,,Hong Kong
43.132.125.17,4,-8,taiwanzhenglun5.com,HK,Asia,Eastern Asia,Hong Kong,,,Hong Kong
47.91.133.82,4,8,taiyuanrx.com,HK,Asia,Eastern Asia,Hong Kong,,,Hong Kong
154.216.86.71,4,0,talaiyun.com,HK,Asia,Eastern Asia,Hong Kong,,,Hong Kong
156.234.128.34,4,8,tamsulomax.com,HK,Asia,Eastern Asia,Hong Kong,,,Hong Kong
156.234.112.146,4,12,targowisko.net,HK,Asia,Eastern Asia,Hong Kong,,,Hong Kong
43.132.193.231,4,-14,tblyj.com,HK,Asia,Eastern Asia,Hong Kong,,,Hong Kong
156.234.182.230,4,11,tbwnvz.cn,HK,Asia,Eastern Asia,Hong Kong,,,Hong Kong
156.234.209.186,4,8,tcscience.com,HK,Asia,Eastern Asia,Hong Kong,,,Hong Kong
35.220.244.193,4,2,term-paper-help.org,HK,Asia,Eastern Asia,Hong Kong,,,Hong Kong
124.156.138.205,4,4,testmart.cn,HK,Asia,Eastern Asia,Hong Kong,,,Hong Kong
35.215.181.205,4,17,testosteroneboosters2022.com,HK,Asia,Eastern Asia,Hong Kong,,,Hong Kong
156.234.156.215,4,35,tewagg.com,HK,Asia,Eastern Asia,Hong Kong,,,Hong Kong
154.206.128.39,4,7,tfysw.com,HK,Asia,Eastern Asia,Hong Kong,,,Hong Kong
156.234.148.206,4,8,tgb8341.com,HK,Asia,Eastern Asia,Hong Kong,,,Hong Kong
118.193.38.19,4,8,tgfcer.com,HK,Asia,Eastern Asia,Hong Kong,,,Hong Kong
47.244.21.17,4,17,thatsmandarin.com,HK,Asia,Eastern Asia,Hong Kong,,,Hong Kong
154.89.101.136,4,8,thebestown.com,HK,Asia,Eastern Asia,Hong Kong,,,Hong Kong
154.194.166.248,4,187,thefithousewife.com,HK,Asia,Eastern Asia,Hong Kong,,,Hong Kong
154.214.89.53,4,8,thepetiteprofessional.com,HK,Asia,Eastern Asia,Hong Kong,,,Hong Kong
35.215.171.198,4,6,therealcount.com,HK,Asia,Eastern Asia,Hong Kong,,,Hong Kong
43.129.196.182,4,-18,thornbird.org,HK,Asia,Eastern Asia,Hong Kong,,,Hong Kong
47.76.240.172,4,39,thscore.vip,HK,Asia,Eastern Asia,Hong Kong,,,Hong Kong
47.91.145.21,4,32,thunlp.org,HK,Asia,Eastern Asia,Hong Kong,,,Hong Kong
154.31.253.154,4,-463346,tianqizhubo.com,HK,Asia,Eastern Asia,Hong Kong,,,Hong Kong
47.76.40.14,4,5,timeyespr.com,HK,Asia,Eastern Asia,Hong Kong,,,Hong Kong
47.52.7.165,4,9,titicaca.co.uk,HK,Asia,Eastern Asia,Hong Kong,,,Hong Kong
149.104.178.51,4,4,tj-hl.com.cn,HK,Asia,Eastern Asia,Hong Kong,,,Hong Kong
154.216.74.59,4,1,tjhyzjksja.com,HK,Asia,Eastern Asia,Hong Kong,,,Hong Kong
154.206.153.99,4,7,tlyzd.com,HK,Asia,Eastern Asia,Hong Kong,,,Hong Kong
8.210.75.226,4,5,tm-robot.com,HK,Asia,Eastern Asia,Hong Kong,,,Hong Kong
43.128.56.91,4,-15,tmml.top,HK,Asia,Eastern Asia,Hong Kong,,,Hong Kong
47.243.142.8,4,10,tnet.hk,HK,Asia,Eastern Asia,Hong Kong,,,Hong Kong
156.226.76.243,4,2370,tnfsz.com,HK,Asia,Eastern Asia,Hong Kong,,,Hong Kong
47.76.182.137,4,6,to5l.cn,HK,Asia,Eastern Asia,Hong Kong,,,Hong Kong
47.243.90.76,4,7,tom365.com,HK,Asia,Eastern Asia,Hong Kong,,,Hong Kong
47.242.111.186,4,7,tongbi.org,HK,Asia,Eastern Asia,Hong Kong,,,Hong Kong
154.91.6.135,4,8,tongdiaosuchangjia.com,HK,Asia,Eastern Asia,Hong Kong,,,Hong Kong
47.76.175.229,4,17,topsurf.ca,HK,Asia,Eastern Asia,Hong Kong,,,Hong Kong
47.238.52.144,4,9,totoglory.com,HK,Asia,Eastern Asia,Hong Kong,,,Hong Kong
154.194.129.211,4,35,tritonrecruitment.com,HK,Asia,Eastern Asia,Hong Kong,,,Hong Kong
154.194.145.144,4,6,tsfhkj888.com,HK,Asia,Eastern Asia,Hong Kong,,,Hong Kong
47.243.41.252,4,9,ttymq.com,HK,Asia,Eastern Asia,Hong Kong,,,Hong Kong
154.194.145.145,4,4,tuku689.com,HK,Asia,Eastern Asia,Hong Kong,,,Hong Kong
8.217.130.165,4,10,tuohuxie.com,HK,Asia,Eastern Asia,Hong Kong,,,Hong Kong
35.215.181.64,4,9,tvnewsroom.online,HK,Asia,Eastern Asia,Hong Kong,,,Hong Kong
101.32.29.115,4,-10,tvs51.com,HK,Asia,Eastern Asia,Hong Kong,,,Hong Kong
154.194.145.146,4,7,txbusan.com,HK,Asia,Eastern Asia,Hong Kong,,,Hong Kong
154.194.145.147,4,5,txxqfcchxf.com,HK,Asia,Eastern Asia,Hong Kong,,,Hong Kong
8.218.193.253,4,8,tymphany.com,HK,Asia,Eastern Asia,Hong Kong,,,Hong Kong
154.194.145.148,4,7,tzuhgo.com,HK,Asia,Eastern Asia,Hong Kong,,,Hong Kong
154.194.145.149,4,6,tzyz00.com,HK,Asia,Eastern Asia,Hong Kong,,,Hong Kong
47.90.13.112,4,17,uisweb.com,HK,Asia,Eastern Asia,Hong Kong,,,Hong Kong
43.159.197.151,4,0,upantool.com,HK,Asia,Eastern Asia,Hong Kong,,,Hong Kong
206.119.2.209,4,11,uqasha.com,HK,Asia,Eastern Asia,Hong Kong,,,Hong Kong
35.215.143.224,4,12,usgamex.com,HK,Asia,Eastern Asia,Hong Kong,,,Hong Kong
45.249.247.12,4,-21,uxlink.io,HK,Asia,Eastern Asia,Hong Kong,,,Hong Kong
47.243.237.111,4,-15,uyuyao.com,HK,Asia,Eastern Asia,Hong Kong,,,Hong Kong
203.205.137.236,4,-31,v.qq.com,HK,Asia,Eastern Asia,Hong Kong,,,Hong Kong
154.89.104.234,4,-8,v99923.com,HK,Asia,Eastern Asia,Hong Kong,,,Hong Kong
119.28.53.254,4,-13,valsa.store,HK,Asia,Eastern Asia,Hong Kong,,,Hong Kong
35.220.151.214,4,15,valuesindia.org,HK,Asia,Eastern Asia,Hong Kong,,,Hong Kong
43.198.33.123,4,-13,vedabase.net,HK,Asia,Eastern Asia,Hong Kong,,,Hong Kong
47.90.13.101,4,-10,ventoy.net,HK,Asia,Eastern Asia,Hong Kong,,,Hong Kong
47.52.69.71,4,1141,verisilicon.com,HK,Asia,Eastern Asia,Hong Kong,,,Hong Kong
20.6.128.141,4,28,vfcat.com,HK,Asia,Eastern Asia,Hong Kong,,,Hong Kong
103.21.220.7,4,-22,vietnamoriginal.com,HK,Asia,Eastern Asia,Hong Kong,,,Hong Kong
35.215.180.100,4,8,vigmg.com,HK,Asia,Eastern Asia,Hong Kong,,,Hong Kong
35.215.140.236,4,12,vintagecomputersforsale.net,HK,Asia,Eastern Asia,Hong Kong,,,Hong Kong
34.96.147.168,4,1,virtualdatasystems.net,HK,Asia,Eastern Asia,Hong Kong,,,Hong Kong
124.156.151.177,4,2535,vjsun.com,HK,Asia,Eastern Asia,Hong Kong,,,Hong Kong
35.215.136.82,4,8,voltapowers.com,HK,Asia,Eastern Asia,Hong Kong,,,Hong Kong
47.242.207.214,4,-10,wangfz.com,HK,Asia,Eastern Asia,Hong Kong,,,Hong Kong
156.234.156.206,4,-20,waprnm.cn,HK,Asia,Eastern Asia,Hong Kong,,,Hong Kong
154.194.145.150,4,-18,water-zy.com,HK,Asia,Eastern Asia,Hong Kong,,,Hong Kong
47.242.113.203,4,-14,waterforex.com,HK,Asia,Eastern Asia,Hong Kong,,,Hong Kong
8.217.142.155,4,11,wavlink.com,HK,Asia,Eastern Asia,Hong Kong,,,Hong Kong
154.194.145.151,4,-11,wbeoc.com,HK,Asia,Eastern Asia,Hong Kong,,,Hong Kong
154.194.145.152,4,30,weiaimiyu99.com,HK,Asia,Eastern Asia,Hong Kong,,,Hong Kong
154.194.145.153,4,-16,weilaiguolv0015.com,HK,Asia,Eastern Asia,Hong Kong,,,Hong Kong
154.194.145.154,4,-7,weimiao26.com,HK,Asia,Eastern Asia,Hong Kong,,,Hong Kong
154.194.145.155,4,-13,weiquanyouxuan.com,HK,Asia,Eastern Asia,Hong Kong,,,Hong Kong
156.234.235.133,4,-6,weisanbo.com,HK,Asia,Eastern Asia,Hong Kong,,,Hong Kong
154.89.86.57,4,20712377,weishangdaiban.com,HK,Asia,Eastern Asia,Hong Kong,,,Hong Kong
129.226.59.226,4,-9,wemine.hk,HK,Asia,Eastern Asia,Hong Kong,,,Hong Kong
156.234.71.241,4,-9,wfaobo.cn,HK,Asia,Eastern Asia,Hong Kong,,,Hong Kong
154.214.69.183,4,-3,wfjmws.com,HK,Asia,Eastern Asia,Hong Kong,,,Hong Kong
206.119.19.88,4,6,wfplant.com,HK,Asia,Eastern Asia,Hong Kong,,,Hong Kong
154.38.82.87,4,-20,whcxfz.com,HK,Asia,Eastern Asia,Hong Kong,,,Hong Kong
154.216.86.73,4,8,whdsmt.com,HK,Asia,Eastern Asia,Hong Kong,,,Hong Kong
156.239.206.5,4,38,wheeler-ukraine.com,HK,Asia,Eastern Asia,Hong Kong,,,Hong Kong
156.234.178.78,4,-19,whhjjt.com.cn,HK,Asia,Eastern Asia,Hong Kong,,,Hong Kong
156.234.74.69,4,-3,whmumoon.com,HK,Asia,Eastern Asia,Hong Kong,,,Hong Kong
156.234.141.73,4,-16,whshanxue.com,HK,Asia,Eastern Asia,Hong Kong,,,Hong Kong
47.91.249.211,4,10,winaso.com,HK,Asia,Eastern Asia,Hong Kong,,,Hong Kong
154.194.145.156,4,-14,winbond1.com,HK,Asia,Eastern Asia,Hong Kong,,,Hong Kong
47.90.57.0,4,-22,winpcba.com,HK,Asia,Eastern Asia,Hong Kong,,,Hong Kong
47.91.143.205,4,-14,wisdomir.com,HK,Asia,Eastern Asia,Hong Kong,,,Hong Kong
156.239.205.232,4,25,wkt01.com,HK,Asia,Eastern Asia,Hong Kong,,,Hong Kong
47.76.95.14,4,-19,wo-ow.cn,HK,Asia,Eastern Asia,Hong Kong,,,Hong Kong
154.194.145.157,4,-24,wowhohvisa.com,HK,Asia,Eastern Asia,Hong Kong,,,Hong Kong
154.216.110.104,4,12,wrefeedandmill.com,HK,Asia,Eastern Asia,Hong Kong,,,Hong Kong
35.215.148.236,4,9,wudanlin.com,HK,Asia,Eastern Asia,Hong Kong,,,Hong Kong
154.216.74.61,4,19,wudingbar.com,HK,Asia,Eastern Asia,Hong Kong,,,Hong Kong
156.239.205.237,4,41,wujing33.com,HK,Asia,Eastern Asia,Hong Kong,,,Hong Kong
8.218.148.6,4,-17,wukongzhiku.com,HK,Asia,Eastern Asia,Hong Kong,,,Hong Kong
104.143.47.92,4,2,wuyouqp.com,HK,Asia,Eastern Asia,Hong Kong,,,Hong Kong
154.194.145.158,4,-17,ww1vv1.com,HK,Asia,Eastern Asia,Hong Kong,,,Hong Kong
47.240.5.85,4,-11,www.my,HK,Asia,Eastern Asia,Hong Kong,,,Hong Kong
38.207.219.109,4,-13,wxymj.com,HK,Asia,Eastern Asia,Hong Kong,,,Hong Kong
154.194.146.98,4,-18,wytcsc.com,HK,Asia,Eastern Asia,Hong Kong,,,Hong Kong
156.234.222.211,4,-20,wzhailiang.com,HK,Asia,Eastern Asia,Hong Kong,,,Hong Kong
154.194.146.99,4,-20,wzshengshun.com,HK,Asia,Eastern Asia,Hong Kong,,,Hong Kong
206.119.13.179,4,-19,xaxhc.com,HK,Asia,Eastern Asia,Hong Kong,,,Hong Kong
156.234.188.88,4,-19,xazetine.com,HK,Asia,Eastern Asia,Hong Kong,,,Hong Kong
8.217.131.59,4,-18,xbeibeix.com,HK,Asia,Eastern Asia,Hong Kong,,,Hong Kong
154.194.146.100,4,-20,xbm028.com,HK,Asia,Eastern Asia,Hong Kong,,,Hong Kong
20.205.27.187,4,7,xcgyljb.com,HK,Asia,Eastern Asia,Hong Kong,,,Hong Kong
154.89.104.233,4,-17,xflaiyang.com,HK,Asia,Eastern Asia,Hong Kong,,,Hong Kong
169.150.222.217,4,-4,xgcartoon.com,HK,Asia,Eastern Asia,Hong Kong,,,Hong Kong
156.234.131.202,4,-21,xgoxgd.com,HK,Asia,Eastern Asia,Hong Kong,,,Hong Kong
8.217.45.253,4,-18,xia-zai.com,HK,Asia,Eastern Asia,Hong Kong,,,Hong Kong
8.218.56.247,4,-18,xialala.com,HK,Asia,Eastern Asia,Hong Kong,,,Hong Kong
119.8.126.225,4,-18,xiangmu.com,HK,Asia,Eastern Asia,Hong Kong,,,Hong Kong
118.26.36.233,4,-16,xiangshuaimjg.com,HK,Asia,Eastern Asia,Hong Kong,,,Hong Kong
119.28.24.178,4,-16,xianham.com,HK,Asia,Eastern Asia,Hong Kong,,,Hong Kong
154.194.146.101,4,-14,xianyun1.com,HK,Asia,Eastern Asia,Hong Kong,,,Hong Kong
47.91.253.3,4,-16,xiaochi234.com,HK,Asia,Eastern Asia,Hong Kong,,,Hong Kong
154.216.110.106,4,2,xiaoqianting.com,HK,Asia,Eastern Asia,Hong Kong,,,Hong Kong
156.234.251.236,4,-17,xiaoyuan123.cn,HK,Asia,Eastern Asia,Hong Kong,,,Hong Kong
8.217.69.30,4,-18,xinda-chemical.com,HK,Asia,Eastern Asia,Hong Kong,,,Hong Kong
47.242.196.107,4,-21,xindeda.com,HK,Asia,Eastern Asia,Hong Kong,,,Hong Kong
154.216.127.145,4,1,xinghongds.com,HK,Asia,Eastern Asia,Hong Kong,,,Hong Kong
20.2.90.70,4,13,xingwoqiufa.com,HK,Asia,Eastern Asia,Hong Kong,,,Hong Kong
20.2.89.238,4,7,xingwoqiufa.com,HK,Asia,Eastern Asia,Hong Kong,,,Hong Kong
20.6.129.198,4,8,xingwoqiufa.com,HK,Asia,Eastern Asia,Hong Kong,,,Hong Kong
154.206.160.252,4,-20,xingyecopper.com,HK,Asia,Eastern Asia,Hong Kong,,,Hong Kong
47.76.255.47,4,-18,xingyida168.com,HK,Asia,Eastern Asia,Hong Kong,,,Hong Kong
154.216.97.158,4,-5,xinhaikejigs.com,HK,Asia,Eastern Asia,Hong Kong,,,Hong Kong
154.91.6.130,4,-22,xinshangmeng1.com,HK,Asia,Eastern Asia,Hong Kong,,,Hong Kong
47.76.49.243,4,-13,xiongxiongkeji.com,HK,Asia,Eastern Asia,Hong Kong,,,Hong Kong
154.194.146.102,4,-19,xiuxianbao88.com,HK,Asia,Eastern Asia,Hong Kong,,,Hong Kong
20.2.234.127,4,24,xiyixiehui.com,HK,Asia,Eastern Asia,Hong Kong,,,Hong Kong
43.132.173.130,4,-12,xmdd188.com,HK,Asia,Eastern Asia,Hong Kong,,,Hong Kong
156.234.209.170,4,-18,xmestradi.com,HK,Asia,Eastern Asia,Hong Kong,,,Hong Kong
154.91.6.138,4,-18,xmjljz5152111.com,HK,Asia,Eastern Asia,Hong Kong,,,Hong Kong
154.31.227.76,4,13,xn--kpr60d5yzj3m.com,HK,Asia,Eastern Asia,Hong Kong,,,Hong Kong
43.199.45.50,4,-9,xn--rhq366gmcx82d.pom-awsseo.top,HK,Asia,Eastern Asia,Hong Kong,,,Hong Kong
20.2.87.205,4,32,xn--rhq366gmcx82d.pom-awsseo.top,HK,Asia,Eastern Asia,Hong Kong,,,Hong Kong
154.215.74.131,4,-28779731,xnb0971.com,HK,Asia,Eastern Asia,Hong Kong,,,Hong Kong
47.56.24.85,4,-17,xszrcw.com,HK,Asia,Eastern Asia,Hong Kong,,,Hong Kong
43.129.238.85,4,-15,xuebapan.com,HK,Asia,Eastern Asia,Hong Kong,,,Hong Kong
47.243.4.118,4,-15,xuetao365.com,HK,Asia,Eastern Asia,Hong Kong,,,Hong Kong
43.154.107.144,4,-14,xuetu123.com,HK,Asia,Eastern Asia,Hong Kong,,,Hong Kong
43.134.209.161,4,-17,xunlu.net,HK,Asia,Eastern Asia,Hong Kong,,,Hong Kong
20.205.30.219,4,31,xx1555.com,HK,Asia,Eastern Asia,Hong Kong,,,Hong Kong
107.148.45.116,4,1883940,xxc.one,HK,Asia,Eastern Asia,Hong Kong,,,Hong Kong
47.238.29.136,4,-15,xylrmfu.cn,HK,Asia,Eastern Asia,Hong Kong,,,Hong Kong
8.218.96.240,4,-15,xyyouqi.com,HK,Asia,Eastern Asia,Hong Kong,,,Hong Kong
206.119.126.30,4,333,xz1998.com,HK,Asia,Eastern Asia,Hong Kong,,,Hong Kong
47.52.95.150,4,-19,xz7.cn,HK,Asia,Eastern Asia,Hong Kong,,,Hong Kong
154.194.146.103,4,-17,xzlzgg.com,HK,Asia,Eastern Asia,Hong Kong,,,Hong Kong
47.76.175.244,4,-15,xzxindunbaoan.com,HK,Asia,Eastern Asia,Hong Kong,,,Hong Kong
154.89.104.226,4,-18,ya4g.com,HK,Asia,Eastern Asia,Hong Kong,,,Hong Kong
47.240.43.155,4,-15,yadingtour.com,HK,Asia,Eastern Asia,Hong Kong,,,Hong Kong
154.194.146.104,4,-17,yamatomedical.com,HK,Asia,Eastern Asia,Hong Kong,,,Hong Kong
154.89.104.244,4,-20,yamyamgo.com,HK,Asia,Eastern Asia,Hong Kong,,,Hong Kong
154.194.146.105,4,-10,yanqingxuanhuan.com,HK,Asia,Eastern Asia,Hong Kong,,,Hong Kong
154.89.106.35,4,-15,yansewenhua.com,HK,Asia,Eastern Asia,Hong Kong,,,Hong Kong
154.214.70.155,4,-6,ychxxs.com,HK,Asia,Eastern Asia,Hong Kong,,,Hong Kong
156.234.160.59,4,-21,ycjndlkm.com,HK,Asia,Eastern Asia,Hong Kong,,,Hong Kong
47.239.229.124,4,-20,yckceo.com,HK,Asia,Eastern Asia,Hong Kong,,,Hong Kong
47.76.53.163,4,-10,yczyxy.com,HK,Asia,Eastern Asia,Hong Kong,,,Hong Kong
154.197.221.6,4,8,yesfilm.com.cn,HK,Asia,Eastern Asia,Hong Kong,,,Hong Kong
152.32.175.174,4,-16,yibeian.net,HK,Asia,Eastern Asia,Hong Kong,,,Hong Kong
154.216.82.194,4,3,yigocn.com,HK,Asia,Eastern Asia,Hong Kong,,,Hong Kong
156.234.8.184,4,-15,yikuanbaopin.com,HK,Asia,Eastern Asia,Hong Kong,,,Hong Kong
8.217.246.128,4,-20,yingju.net,HK,Asia,Eastern Asia,Hong Kong,,,Hong Kong
156.234.182.186,4,-19,yingtj.com,HK,Asia,Eastern Asia,Hong Kong,,,Hong Kong
156.239.205.235,4,24,yingweiyun.com,HK,Asia,Eastern Asia,Hong Kong,,,Hong Kong
154.194.146.106,4,-18,yiniankezhan.com,HK,Asia,Eastern Asia,Hong Kong,,,Hong Kong
154.194.146.107,4,-20,yinsizhushou.com,HK,Asia,Eastern Asia,Hong Kong,,,Hong Kong
154.91.6.137,4,-17,yitijiao.com,HK,Asia,Eastern Asia,Hong Kong,,,Hong Kong
20.6.128.54,4,1,yixicom.com,HK,Asia,Eastern Asia,Hong Kong,,,Hong Kong
20.6.130.171,4,4,yixicom.com,HK,Asia,Eastern Asia,Hong Kong,,,Hong Kong
20.6.130.188,4,7,yixicom.com,HK,Asia,Eastern Asia,Hong Kong,,,Hong Kong
47.243.48.38,4,-13,yiyongtong.com,HK,Asia,Eastern Asia,Hong Kong,,,Hong Kong
156.239.205.233,4,25,yjfjjsj.com,HK,Asia,Eastern Asia,Hong Kong,,,Hong Kong
154.23.224.6,4,-17,ylsoa.com,HK,Asia,Eastern Asia,Hong Kong,,,Hong Kong
101.32.14.85,4,-11,ymgal.games,HK,Asia,Eastern Asia,Hong Kong,,,Hong Kong
156.234.96.201,4,-11,yndepu.cn,HK,Asia,Eastern Asia,Hong Kong,,,Hong Kong
154.194.146.108,4,-20,ynjlkeji.com,HK,Asia,Eastern Asia,Hong Kong,,,Hong Kong
8.210.237.158,4,-20,ynn5.cn,HK,Asia,Eastern Asia,Hong Kong,,,Hong Kong
156.234.131.213,4,-23,yongshengzl.cn,HK,Asia,Eastern Asia,Hong Kong,,,Hong Kong
154.194.146.109,4,-15,yosatextile.com,HK,Asia,Eastern Asia,Hong Kong,,,Hong Kong
8.217.210.29,4,-13,youchat.com,HK,Asia,Eastern Asia,Hong Kong,,,Hong Kong
156.234.203.85,4,-19,youchelushu.com,HK,Asia,Eastern Asia,Hong Kong,,,Hong Kong
156.234.251.201,4,-23,youpinhuocang.com,HK,Asia,Eastern Asia,Hong Kong,,,Hong Kong
43.154.94.77,4,6,youth.gov.hk,HK,Asia,Eastern Asia,Hong Kong,,,Hong Kong
47.89.25.131,4,82672,youwo.com,HK,Asia,Eastern Asia,Hong Kong,,,Hong Kong
8.218.9.228,4,-18,youxbbs.com,HK,Asia,Eastern Asia,Hong Kong,,,Hong Kong
154.214.69.178,4,-9,youxinzg.com,HK,Asia,Eastern Asia,Hong Kong,,,Hong Kong
47.242.109.175,4,-5,yoybuy.com,HK,Asia,Eastern Asia,Hong Kong,,,Hong Kong
47.90.55.130,4,-4,yoyopart.com,HK,Asia,Eastern Asia,Hong Kong,,,Hong Kong
8.210.7.14,4,-13,ypojie.com,HK,Asia,Eastern Asia,Hong Kong,,,Hong Kong
154.215.72.144,4,-15,yqwx123.com,HK,Asia,Eastern Asia,Hong Kong,,,Hong Kong
119.28.131.67,4,-8,yrhooks.com,HK,Asia,Eastern Asia,Hong Kong,,,Hong Kong
154.194.146.110,4,-20,ysln168.com,HK,Asia,Eastern Asia,Hong Kong,,,Hong Kong
154.194.146.111,4,-16,ytxiangxin88.com,HK,Asia,Eastern Asia,Hong Kong,,,Hong Kong
154.194.146.112,4,-15,yuanyan720.com,HK,Asia,Eastern Asia,Hong Kong,,,Hong Kong
154.215.96.133,4,-20,yuduoduo1688.com,HK,Asia,Eastern Asia,Hong Kong,,,Hong Kong
154.194.146.113,4,-14,yuedacapital.com,HK,Asia,Eastern Asia,Hong Kong,,,Hong Kong
154.214.70.154,4,-7,yuheng-group.com,HK,Asia,Eastern Asia,Hong Kong,,,Hong Kong
154.216.74.60,4,0,yuhunyx.com,HK,Asia,Eastern Asia,Hong Kong,,,Hong Kong
154.194.146.114,4,-13,yuluzp.com,HK,Asia,Eastern Asia,Hong Kong,,,Hong Kong
101.32.183.58,4,-14,yunduost.com,HK,Asia,Eastern Asia,Hong Kong,,,Hong Kong
8.217.75.229,4,-18,yuntumami.com,HK,Asia,Eastern Asia,Hong Kong,,,Hong Kong
47.76.69.12,4,-18,yupao.tv,HK,Asia,Eastern Asia,Hong Kong,,,Hong Kong
154.194.146.115,4,-17,yuxuangreen.com,HK,Asia,Eastern Asia,Hong Kong,,,Hong Kong
154.89.104.236,4,-14,yuyueyuhuo.com,HK,Asia,Eastern Asia,Hong Kong,,,Hong Kong
101.32.11.237,4,-20,yxbao.com,HK,Asia,Eastern Asia,Hong Kong,,,Hong Kong
47.238.135.71,4,-19,yxhxtcc.com,HK,Asia,Eastern Asia,Hong Kong,,,Hong Kong
154.23.224.7,4,-13,yy222.net,HK,Asia,Eastern Asia,Hong Kong,,,Hong Kong
20.255.60.255,4,9,yzsdaojia.com,HK,Asia,Eastern Asia,Hong Kong,,,Hong Kong
20.205.18.83,4,21,yzsdaojia.com,HK,Asia,Eastern Asia,Hong Kong,,,Hong Kong
20.6.129.44,4,21,yzsdaojia.com,HK,Asia,Eastern Asia,Hong Kong,,,Hong Kong
154.194.146.117,4,-14,yztonghu.com,HK,Asia,Eastern Asia,Hong Kong,,,Hong Kong
101.32.208.162,4,-11,zaodoctor.com,HK,Asia,Eastern Asia,Hong Kong,,,Hong Kong
154.206.230.166,4,12,zb-nqp.com,HK,Asia,Eastern Asia,Hong Kong,,,Hong Kong
156.234.160.50,4,-16,zb580.tv,HK,Asia,Eastern Asia,Hong Kong,,,Hong Kong
156.234.237.59,4,1,zbcup.com,HK,Asia,Eastern Asia,Hong Kong,,,Hong Kong
34.150.6.66,4,14,zcw4xb.com,HK,Asia,Eastern Asia,Hong Kong,,,Hong Kong
8.217.92.249,4,-7,zdxue.com,HK,Asia,Eastern Asia,Hong Kong,,,Hong Kong
47.242.77.19,4,-20,zgbbs.org,HK,Asia,Eastern Asia,Hong Kong,,,Hong Kong
156.234.156.205,4,-20,zgbite.com,HK,Asia,Eastern Asia,Hong Kong,,,Hong Kong
154.194.150.254,4,-17,zgjzyy.com,HK,Asia,Eastern Asia,Hong Kong,,,Hong Kong
154.194.146.118,4,-18,zglaijia.com,HK,Asia,Eastern Asia,Hong Kong,,,Hong Kong
8.210.148.204,4,-18,zgyhsj.com,HK,Asia,Eastern Asia,Hong Kong,,,Hong Kong
154.89.104.245,4,-17,zhanfengwl.com,HK,Asia,Eastern Asia,Hong Kong,,,Hong Kong
154.26.202.228,4,-10,zhangyongbushen.cn,HK,Asia,Eastern Asia,Hong Kong,,,Hong Kong
154.194.146.119,4,-20,zhaodezhu1818.com,HK,Asia,Eastern Asia,Hong Kong,,,Hong Kong
154.194.146.120,4,-15,zhaoduide520.com,HK,Asia,Eastern Asia,Hong Kong,,,Hong Kong
8.217.99.158,4,-13,zhaolu2.cn,HK,Asia,Eastern Asia,Hong Kong,,,Hong Kong
154.83.12.69,4,13850,zhen4k.com,HK,Asia,Eastern Asia,Hong Kong,,,Hong Kong
154.194.146.121,4,-20,zhenxiangsy.com,HK,Asia,Eastern Asia,Hong Kong,,,Hong Kong
8.217.41.29,4,-15,zhihuangjin.com,HK,Asia,Eastern Asia,Hong Kong,,,Hong Kong
154.194.146.122,4,-20,zhilengjiaoyipingtai.com,HK,Asia,Eastern Asia,Hong Kong,,,Hong Kong
154.194.146.123,4,-20,zhlandai.com,HK,Asia,Eastern Asia,Hong Kong,,,Hong Kong
47.56.106.95,4,-19,zhongboxinwen.com,HK,Asia,Eastern Asia,Hong Kong,,,Hong Kong
154.194.146.124,4,-17,zhongchuanxing.com,HK,Asia,Eastern Asia,Hong Kong,,,Hong Kong
154.194.146.125,4,-17,zhongfutangguoyiguan.com,HK,Asia,Eastern Asia,Hong Kong,,,Hong Kong
154.194.146.126,4,-22,zhongshida01.com,HK,Asia,Eastern Asia,Hong Kong,,,Hong Kong
154.215.110.98,4,-14,zhongyiwugou.com,HK,Asia,Eastern Asia,Hong Kong,,,Hong Kong
154.194.147.67,4,-16,zhtongfu.com,HK,Asia,Eastern Asia,Hong Kong,,,Hong Kong
154.194.147.68,4,-19,zhuozhongruanjian.com,HK,Asia,Eastern Asia,Hong Kong,,,Hong Kong
47.239.23.233,4,-10,ziboruijin.com,HK,Asia,Eastern Asia,Hong Kong,,,Hong Kong
43.129.25.62,4,-13,zike.cn,HK,Asia,Eastern Asia,Hong Kong,,,Hong Kong
35.215.189.55,4,10,zithromaxtabs.com,HK,Asia,Eastern Asia,Hong Kong,,,Hong Kong
154.194.147.69,4,-9,ziyuemom.com,HK,Asia,Eastern Asia,Hong Kong,,,Hong Kong
154.214.69.179,4,-11,zjser.com,HK,Asia,Eastern Asia,Hong Kong,,,Hong Kong
149.104.189.146,4,-20,zjyuesao.net,HK,Asia,Eastern Asia,Hong Kong,,,Hong Kong
47.56.11.171,4,-20,zmsq.com,HK,Asia,Eastern Asia,Hong Kong,,,Hong Kong
35.215.133.100,4,9,zonefortech.com,HK,Asia,Eastern Asia,Hong Kong,,,Hong Kong
35.215.145.75,4,13,zovirax4us.top,HK,Asia,Eastern Asia,Hong Kong,,,Hong Kong
154.194.147.70,4,-12,zpdt871j.com,HK,Asia,Eastern Asia,Hong Kong,,,Hong Kong
154.194.147.71,4,-20,zslvjin.com,HK,Asia,Eastern Asia,Hong Kong,,,Hong Kong
198.176.59.136,4,2,zsyouyu.com,HK,Asia,Eastern Asia,Hong Kong,,,Hong Kong
154.194.147.66,4,-16,ztccdq.com,HK,Asia,Eastern Asia,Hong Kong,,,Hong Kong
47.52.225.223,4,-15,zuoye5.com,HK,Asia,Eastern Asia,Hong Kong,,,Hong Kong
8.218.28.2,4,-13,zusms.com,HK,Asia,Eastern Asia,Hong Kong,,,Hong Kong
154.194.147.72,4,-17,zxovs.com,HK,Asia,Eastern Asia,Hong Kong,,,Hong Kong
154.214.95.254,4,-16,zxslcslhw.com,HK,Asia,Eastern Asia,Hong Kong,,,Hong Kong
152.32.128.246,4,-18,zxxyyy.cn,HK,Asia,Eastern Asia,Hong Kong,,,Hong Kong
20.2.83.166,4,8,zycsbz.com,HK,Asia,Eastern Asia,Hong Kong,,,Hong Kong
20.2.138.245,4,6,zycsbz.com,HK,Asia,Eastern Asia,Hong Kong,,,Hong Kong
40.81.28.181,4,7,zycsbz.com,HK,Asia,Eastern Asia,Hong Kong,,,Hong Kong
103.27.79.190,4,-20,zykj2016.com,HK,Asia,Eastern Asia,Hong Kong,,,Hong Kong
154.194.147.73,4,-23,zzdljk.com,HK,Asia,Eastern Asia,Hong Kong,,,Hong Kong
119.28.181.172,4,21754,zzglygf.com,HK,Asia,Eastern Asia,Hong Kong,,,Hong Kong
154.194.147.74,4,-16,zztontru.com,HK,Asia,Eastern Asia,Hong Kong,,,Hong Kong
