reflector_ip,ip_version,offset,description,country_code,region,sub_region,country_name,sub_division_1,sub_division_2,city
154.23.123.218,4,28714952,cyfsfk.com,HK,Asia,Eastern Asia,Hong Kong,Eastern,,Chai Wan
154.23.123.205,4,28714955,dh106.com,HK,Asia,Eastern Asia,Hong Kong,Eastern,,Chai Wan
116.48.144.195,4,387,DNS Server: 195.144.48.116.static.netvigator.com,HK,Asia,Eastern Asia,Hong Kong,Eastern,,North Point
154.23.60.74,4,650,eeydoo.com,HK,Asia,Eastern Asia,Hong Kong,Eastern,,Chai Wan
154.23.123.217,4,28714962,hzsihuai.com,HK,Asia,Eastern Asia,Hong Kong,Eastern,,Chai Wan
154.23.56.101,4,664,imagekuzaoxing.com,HK,Asia,Eastern Asia,Hong Kong,Eastern,,Chai Wan
154.23.123.219,4,28714960,jzxt2020.com,HK,Asia,Eastern Asia,Hong Kong,Eastern,,Chai Wan
154.23.123.222,4,28714966,mmyx9.com,HK,Asia,Eastern Asia,Hong Kong,Eastern,,Chai Wan
154.23.123.223,4,28714986,natoyua.com,HK,Asia,Eastern Asia,Hong Kong,Eastern,,Chai Wan
154.23.123.220,4,28714989,nihmoo.com,HK,Asia,Eastern Asia,Hong Kong,Eastern,,Chai Wan
154.23.123.221,4,28714973,pxaonn.com,HK,Asia,Eastern Asia,Hong Kong,Eastern,,Chai Wan
154.23.123.224,4,28714969,qzhongxiao.com,HK,Asia,Eastern Asia,Hong Kong,Eastern,,Chai Wan
154.23.123.226,4,28715009,rongii369.com,HK,Asia,Eastern Asia,Hong Kong,Eastern,,Chai Wan
154.23.123.225,4,28714974,sj95hb.com,HK,Asia,Eastern Asia,Hong Kong,Eastern,,Chai Wan
154.23.123.229,4,28714976,t91juwu.com,HK,Asia,Eastern Asia,Hong Kong,Eastern,,Chai Wan
154.23.122.196,4,28714963,xiaoneihenu.com,HK,Asia,Eastern Asia,Hong Kong,Eastern,,Chai Wan
154.23.123.228,4,28714952,xmjiuqing.com,HK,Asia,Eastern Asia,Hong Kong,Eastern,,Chai Wan
154.23.123.233,4,28714959,xmmiliao.com,HK,Asia,Eastern Asia,Hong Kong,Eastern,,Chai Wan
154.23.123.234,4,28714960,xmqidai.com,HK,Asia,Eastern Asia,Hong Kong,Eastern,,Chai Wan
154.23.123.232,4,28714958,xmweine.com,HK,Asia,Eastern Asia,Hong Kong,Eastern,,Chai Wan
154.23.123.231,4,28714958,xmzhenghe.com,HK,Asia,Eastern Asia,Hong Kong,Eastern,,Chai Wan
154.23.123.230,4,28714969,xqton.com,HK,Asia,Eastern Asia,Hong Kong,Eastern,,Chai Wan
154.23.123.227,4,28714964,xshuii.com,HK,Asia,Eastern Asia,Hong Kong,Eastern,,Chai Wan
154.23.122.195,4,28714960,xsp121.com,HK,Asia,Eastern Asia,Hong Kong,Eastern,,Chai Wan
154.23.123.235,4,28714959,xztaoxi.com,HK,Asia,Eastern Asia,Hong Kong,Eastern,,Chai Wan
154.23.122.197,4,28714960,ycyrhg.com,HK,Asia,Eastern Asia,Hong Kong,Eastern,,Chai Wan
154.23.121.199,4,28714957,ynnianlun.com,HK,Asia,Eastern Asia,Hong Kong,Eastern,,Chai Wan
154.23.122.198,4,28714959,youutrip.com,HK,Asia,Eastern Asia,Hong Kong,Eastern,,Chai Wan
154.23.121.198,4,28714960,yxb918.com,HK,Asia,Eastern Asia,Hong Kong,Eastern,,Chai Wan
154.23.123.201,4,28714963,zgyzba.com,HK,Asia,Eastern Asia,Hong Kong,Eastern,,Chai Wan
154.23.121.195,4,28714961,zzszhinuo.com,HK,Asia,Eastern Asia,Hong Kong,Eastern,,Chai Wan
