reflector_ip,ip_version,offset,description,country_code,region,sub_region,country_name,sub_division_1,sub_division_2,city
76.12.134.21,4,9,3gpp2.org,US,Americas,Northern America,United States of America,Delaware,,Wilmington
95.111.215.236,4,7,activenorcal.com,US,Americas,Northern America,United States of America,Delaware,,Wilmington
168.235.83.126,4,8,airsoftcanada.com,US,Americas,Northern America,United States of America,Delaware,,Wilmington
209.172.2.30,4,2259,atlaspress.co.uk,US,Americas,Northern America,United States of America,Delaware,,Wilmington
76.12.132.165,4,5761,brightbytes.com,US,Americas,Northern America,United States of America,Delaware,,Wilmington
168.235.93.72,4,8,cbaonline.org,US,Americas,Northern America,United States of America,Delaware,,Wilmington
173.252.167.20,4,4,cherrywoodauto.com,US,Americas,Northern America,United States of America,Delaware,,Wilmington
173.252.167.180,4,19,estudiandovirtual.com,US,Americas,Northern America,United States of America,Delaware,,Wilmington
168.235.82.113,4,126,explosion.party,US,Americas,Northern America,United States of America,Delaware,,Wilmington
173.252.167.40,4,9,firenancypelosi.com,US,Americas,Northern America,United States of America,Delaware,,Wilmington
168.235.93.133,4,-1,florenceaz.gov,US,Americas,Northern America,United States of America,Delaware,,Wilmington
168.235.82.8,4,9,healthcare6.com,US,Americas,Northern America,United States of America,Delaware,,Wilmington
173.252.167.80,4,-2,indoafricabio.com,US,Americas,Northern America,United States of America,Delaware,,Wilmington
173.252.167.170,4,2,magnet33.com,US,Americas,Northern America,United States of America,Delaware,,Wilmington
173.252.167.60,4,4,neelika.com,US,Americas,Northern America,United States of America,Delaware,,Wilmington
168.235.80.185,4,0,nt1k.com,US,Americas,Northern America,United States of America,Delaware,,Wilmington
173.252.167.140,4,24,omexpo.com,US,Americas,Northern America,United States of America,Delaware,,Wilmington
173.252.167.120,4,81,openwebdesign.org,US,Americas,Northern America,United States of America,Delaware,,Wilmington
209.172.2.40,4,2353,photographerfiji.com,US,Americas,Northern America,United States of America,Delaware,,Wilmington
76.12.67.189,4,56,pokeplushies.com,US,Americas,Northern America,United States of America,Delaware,,Wilmington
173.252.167.130,4,65,pulseasia.ph,US,Americas,Northern America,United States of America,Delaware,,Wilmington
209.172.2.100,4,3,qpack.co.uk,US,Americas,Northern America,United States of America,Delaware,,Wilmington
95.111.214.50,4,878,reviewme.com,US,Americas,Northern America,United States of America,Delaware,,Wilmington
209.172.2.39,4,2227,sehha.com,US,Americas,Northern America,United States of America,Delaware,,Wilmington
168.235.90.96,4,6,shortlink.net,US,Americas,Northern America,United States of America,Delaware,,Wilmington
173.252.167.90,4,3,staia-sw.ac.id,US,Americas,Northern America,United States of America,Delaware,,Wilmington
95.111.213.2,4,-15,technoven.com,US,Americas,Northern America,United States of America,Delaware,,Wilmington
173.252.167.190,4,0,wetakeyourexams.com,US,Americas,Northern America,United States of America,Delaware,,Wilmington
95.111.213.87,4,1909,zubaanbooks.com,US,Americas,Northern America,United States of America,Delaware,,Wilmington
