reflector_ip,ip_version,offset,description,country_code,region,sub_region,country_name,sub_division_1,sub_division_2,city
91.109.4.94,4,2,3forty.media,GB,Europe,Northern Europe,United Kingdom,England,Leeds,Leeds
46.32.255.222,4,19,adriancallaghan.co.uk,GB,Europe,Northern Europe,United Kingdom,England,Leeds,Leeds
79.170.44.110,4,43,air-master.co.uk,GB,Europe,Northern Europe,United Kingdom,England,Leeds,Leeds
46.32.230.53,4,24,alustforlife.com,GB,Europe,Northern Europe,United Kingdom,England,Leeds,Leeds
79.170.44.118,4,10,apexnepaltravel.com,GB,Europe,Northern Europe,United Kingdom,England,Leeds,Leeds
46.32.229.12,4,3,araynordesign.co.uk,GB,Europe,Northern Europe,United Kingdom,England,Leeds,Leeds
79.170.44.137,4,0,armedforces.co.uk,GB,Europe,Northern Europe,United Kingdom,England,Leeds,Leeds
46.32.254.168,4,27,ascoworld.com,GB,Europe,Northern Europe,United Kingdom,England,Leeds,Leeds
176.32.230.18,4,3,atasamente.ro,GB,Europe,Northern Europe,United Kingdom,England,Leeds,Leeds
91.109.5.184,4,41,bathales.com,GB,Europe,Northern Europe,United Kingdom,England,Leeds,Leeds
176.32.230.8,4,10,beautyx.co.uk,GB,Europe,Northern Europe,United Kingdom,England,Leeds,Leeds
79.170.44.150,4,60,bobbobricard.com,GB,Europe,Northern Europe,United Kingdom,England,Leeds,Leeds
176.32.225.28,4,592,bridgewebs.com,GB,Europe,Northern Europe,United Kingdom,England,Leeds,Leeds
46.32.252.158,4,9,britishhedgehogs.org.uk,GB,Europe,Northern Europe,United Kingdom,England,Leeds,Leeds
79.170.44.96,4,44,britishrestaurantawards.org,GB,Europe,Northern Europe,United Kingdom,England,Leeds,Leeds
176.32.225.35,4,391,bslzone.co.uk,GB,Europe,Northern Europe,United Kingdom,England,Leeds,Leeds
176.32.225.15,4,0,bulawayo24.com,GB,Europe,Northern Europe,United Kingdom,England,Leeds,Leeds
46.32.254.110,4,1,cantorion.org,GB,Europe,Northern Europe,United Kingdom,England,Leeds,Leeds
79.170.44.156,4,4,carbonindependent.org,GB,Europe,Northern Europe,United Kingdom,England,Leeds,Leeds
79.170.44.76,4,0,carbootjunction.com,GB,Europe,Northern Europe,United Kingdom,England,Leeds,Leeds
212.48.71.24,4,1,carnegieclub.co.uk,GB,Europe,Northern Europe,United Kingdom,England,Leeds,Leeds
79.170.44.111,4,23,cheapcarpetcleaners.co.uk,GB,Europe,Northern Europe,United Kingdom,England,Leeds,Leeds
79.170.44.103,4,2,cheapledtelevisions.co.uk,GB,Europe,Northern Europe,United Kingdom,England,Leeds,Leeds
79.170.40.48,4,68,cheapmicrowaveovens.co.uk,GB,Europe,Northern Europe,United Kingdom,England,Leeds,Leeds
79.170.43.15,4,6,cheapmonitors.co.uk,GB,Europe,Northern Europe,United Kingdom,England,Leeds,Leeds
79.170.42.2,4,2,cheapxbox.co.uk,GB,Europe,Northern Europe,United Kingdom,England,Leeds,Leeds
79.170.44.222,4,2,citizensadvice.co.uk,GB,Europe,Northern Europe,United Kingdom,England,Leeds,Leeds
217.199.187.57,4,92,citybrands.com.np,GB,Europe,Northern Europe,United Kingdom,England,Leeds,Leeds
46.32.252.162,4,2,colchesterartscentre.com,GB,Europe,Northern Europe,United Kingdom,England,Leeds,Leeds
79.170.44.95,4,2,complexconsulting.co.uk,GB,Europe,Northern Europe,United Kingdom,England,Leeds,Leeds
92.60.127.96,4,43,connage.co.uk,GB,Europe,Northern Europe,United Kingdom,England,Leeds,Leeds
79.170.40.240,4,1,cpat.org.uk,GB,Europe,Northern Europe,United Kingdom,England,Leeds,Leeds
212.48.69.114,4,1,cyprus-property-buyers.com,GB,Europe,Northern Europe,United Kingdom,England,Leeds,Leeds
212.48.70.192,4,20,dba.org.uk,GB,Europe,Northern Europe,United Kingdom,England,Leeds,Leeds
92.60.114.48,4,348,doglost.co.uk,GB,Europe,Northern Europe,United Kingdom,England,Leeds,Leeds
109.68.33.11,4,-3901,domainmonster.com,GB,Europe,Northern Europe,United Kingdom,England,Leeds,Leeds
195.62.28.14,4,2,dothegreenthing.com,GB,Europe,Northern Europe,United Kingdom,England,Leeds,Leeds
79.170.44.77,4,1,drivingmissdaisy.co.uk,GB,Europe,Northern Europe,United Kingdom,England,Leeds,Leeds
176.32.230.2,4,1,dup.org.uk,GB,Europe,Northern Europe,United Kingdom,England,Leeds,Leeds
176.32.230.19,4,21,dylanthomas.com,GB,Europe,Northern Europe,United Kingdom,England,Leeds,Leeds
79.170.40.224,4,0,earlyphotography.co.uk,GB,Europe,Northern Europe,United Kingdom,England,Leeds,Leeds
176.32.230.50,4,1,ehs.co.zw,GB,Europe,Northern Europe,United Kingdom,England,Leeds,Leeds
217.199.187.60,4,39,fiercepanda.co.uk,GB,Europe,Northern Europe,United Kingdom,England,Leeds,Leeds
79.170.42.3,4,35,flat33.com,GB,Europe,Northern Europe,United Kingdom,England,Leeds,Leeds
79.170.40.234,4,12,gandhisaving.com.np,GB,Europe,Northern Europe,United Kingdom,England,Leeds,Leeds
79.170.44.122,4,0,genderandeducation.com,GB,Europe,Northern Europe,United Kingdom,England,Leeds,Leeds
79.170.40.247,4,45,geniecomputing.co.uk,GB,Europe,Northern Europe,United Kingdom,England,Leeds,Leeds
79.170.40.170,4,21,ghalemdi.com,GB,Europe,Northern Europe,United Kingdom,England,Leeds,Leeds
79.170.44.80,4,8,gibraltarmaritime.com,GB,Europe,Northern Europe,United Kingdom,England,Leeds,Leeds
46.32.228.102,4,27,globalhealth5050.org,GB,Europe,Northern Europe,United Kingdom,England,Leeds,Leeds
46.32.254.50,4,3,globalpolicyjournal.com,GB,Europe,Northern Europe,United Kingdom,England,Leeds,Leeds
217.199.187.194,4,1,halalfocus.net,GB,Europe,Northern Europe,United Kingdom,England,Leeds,Leeds
79.170.40.178,4,4,hearingaidcenter.com.np,GB,Europe,Northern Europe,United Kingdom,England,Leeds,Leeds
46.32.225.75,4,1,heartinternet.co.uk,GB,Europe,Northern Europe,United Kingdom,England,Leeds,Leeds
109.68.33.18,4,-3943,horrible-histories.co.uk,GB,Europe,Northern Europe,United Kingdom,England,Leeds,Leeds
79.170.44.106,4,0,hughsgarden.co.uk,GB,Europe,Northern Europe,United Kingdom,England,Leeds,Leeds
212.48.84.200,4,0,hydropower-dams.com,GB,Europe,Northern Europe,United Kingdom,England,Leeds,Leeds
212.48.70.44,4,16,ilc-congress.eu,GB,Europe,Northern Europe,United Kingdom,England,Leeds,Leeds
79.170.44.81,4,1,inspiremagazine.org.uk,GB,Europe,Northern Europe,United Kingdom,England,Leeds,Leeds
46.32.252.214,4,46,isbi.com,GB,Europe,Northern Europe,United Kingdom,England,Leeds,Leeds
79.170.40.182,4,51,isea-web.org,GB,Europe,Northern Europe,United Kingdom,England,Leeds,Leeds
79.170.40.160,4,23,johnholcroft.com,GB,Europe,Northern Europe,United Kingdom,England,Leeds,Leeds
217.199.187.197,4,1,kaffefassett.com,GB,Europe,Northern Europe,United Kingdom,England,Leeds,Leeds
79.170.40.39,4,14,knutsford-royal-mayday.co.uk,GB,Europe,Northern Europe,United Kingdom,England,Leeds,Leeds
176.32.230.11,4,12,kvhss.edu.np,GB,Europe,Northern Europe,United Kingdom,England,Leeds,Leeds
79.170.40.166,4,2,labourmatters.co.zw,GB,Europe,Northern Europe,United Kingdom,England,Leeds,Leeds
217.199.187.64,4,25,launchgroundcontrol.co.uk,GB,Europe,Northern Europe,United Kingdom,England,Leeds,Leeds
79.170.40.52,4,0,lhapsangkarpo.com.np,GB,Europe,Northern Europe,United Kingdom,England,Leeds,Leeds
212.48.70.64,4,19,londonfriend.org.uk,GB,Europe,Northern Europe,United Kingdom,England,Leeds,Leeds
217.199.187.192,4,2,mahalaxmiornament.com.np,GB,Europe,Northern Europe,United Kingdom,England,Leeds,Leeds
217.199.160.198,4,2,maid2clean.co.uk,GB,Europe,Northern Europe,United Kingdom,England,Leeds,Leeds
79.170.40.183,4,94,mastermind.com.np,GB,Europe,Northern Europe,United Kingdom,England,Leeds,Leeds
79.170.40.161,4,8,maytree.org.uk,GB,Europe,Northern Europe,United Kingdom,England,Leeds,Leeds
91.109.4.166,4,59,meanniebee.com,GB,Europe,Northern Europe,United Kingdom,England,Leeds,Leeds
176.32.225.59,4,117,melodymaison.co.uk,GB,Europe,Northern Europe,United Kingdom,England,Leeds,Leeds
46.32.228.56,4,3,mgcc.co.uk,GB,Europe,Northern Europe,United Kingdom,England,Leeds,Leeds
79.170.40.46,4,3,midlandsindex.co.uk,GB,Europe,Northern Europe,United Kingdom,England,Leeds,Leeds
79.170.44.133,4,3,misakieducation.com.np,GB,Europe,Northern Europe,United Kingdom,England,Leeds,Leeds
212.48.70.73,4,47,miscarriageassociation.org.uk,GB,Europe,Northern Europe,United Kingdom,England,Leeds,Leeds
176.32.230.251,4,24,movinghere.org.uk,GB,Europe,Northern Europe,United Kingdom,England,Leeds,Leeds
176.32.230.43,4,49,muirfield.org.uk,GB,Europe,Northern Europe,United Kingdom,England,Leeds,Leeds
176.32.230.29,4,6,mypetsurvey.com,GB,Europe,Northern Europe,United Kingdom,England,Leeds,Leeds
212.48.68.198,4,69,natalieimbruglia.com,GB,Europe,Northern Europe,United Kingdom,England,Leeds,Leeds
217.199.160.67,4,0,nationalfilmawards.org,GB,Europe,Northern Europe,United Kingdom,England,Leeds,Leeds
217.199.187.69,4,11,nationalherbo.com,GB,Europe,Northern Europe,United Kingdom,England,Leeds,Leeds
217.199.187.199,4,56,necinsurance.co.zw,GB,Europe,Northern Europe,United Kingdom,England,Leeds,Leeds
79.170.44.202,4,45,newrymournedown.org,GB,Europe,Northern Europe,United Kingdom,England,Leeds,Leeds
79.170.44.117,4,24,nickymansfield.com,GB,Europe,Northern Europe,United Kingdom,England,Leeds,Leeds
79.170.44.148,4,10,noiseabatementsociety.com,GB,Europe,Northern Europe,United Kingdom,England,Leeds,Leeds
217.199.187.189,4,59,onlinebangers.co.uk,GB,Europe,Northern Europe,United Kingdom,England,Leeds,Leeds
79.170.44.147,4,0,otrbristol.org.uk,GB,Europe,Northern Europe,United Kingdom,England,Leeds,Leeds
217.199.187.195,4,3,packagingandfoodmachinary.com,GB,Europe,Northern Europe,United Kingdom,England,Leeds,Leeds
217.199.187.73,4,5,paxtonhouse.co.uk,GB,Europe,Northern Europe,United Kingdom,England,Leeds,Leeds
176.32.230.26,4,17,pcc.police.uk,GB,Europe,Northern Europe,United Kingdom,England,Leeds,Leeds
79.170.44.100,4,0,pemc.edu.np,GB,Europe,Northern Europe,United Kingdom,England,Leeds,Leeds
94.136.40.90,4,18,pencoedcomputer.co.uk,GB,Europe,Northern Europe,United Kingdom,England,Leeds,Leeds
79.170.44.155,4,30,pendragon.mu,GB,Europe,Northern Europe,United Kingdom,England,Leeds,Leeds
79.170.40.233,4,3,philatelicdatabase.com,GB,Europe,Northern Europe,United Kingdom,England,Leeds,Leeds
46.32.253.70,4,10,planet-tracker.org,GB,Europe,Northern Europe,United Kingdom,England,Leeds,Leeds
79.170.44.127,4,49,plant-identification.co.uk,GB,Europe,Northern Europe,United Kingdom,England,Leeds,Leeds
176.32.230.51,4,10,polarimagazine.com,GB,Europe,Northern Europe,United Kingdom,England,Leeds,Leeds
46.32.253.146,4,3601214,positivehealth.com,GB,Europe,Northern Europe,United Kingdom,England,Leeds,Leeds
79.170.40.172,4,2,prospectbooks.co.uk,GB,Europe,Northern Europe,United Kingdom,England,Leeds,Leeds
91.109.5.24,4,2,purelifeuk.co.uk,GB,Europe,Northern Europe,United Kingdom,England,Leeds,Leeds
79.170.40.163,4,60,radikls.co.uk,GB,Europe,Northern Europe,United Kingdom,England,Leeds,Leeds
79.170.44.83,4,1,ragley.co.uk,GB,Europe,Northern Europe,United Kingdom,England,Leeds,Leeds
79.170.40.32,4,52,rapleyweaning.com,GB,Europe,Northern Europe,United Kingdom,England,Leeds,Leeds
79.170.44.157,4,52,rapporttravels.com.np,GB,Europe,Northern Europe,United Kingdom,England,Leeds,Leeds
46.32.254.86,4,72,rarebits.co.uk,GB,Europe,Northern Europe,United Kingdom,England,Leeds,Leeds
79.170.44.102,4,17,reallyusefulproducts.co.uk,GB,Europe,Northern Europe,United Kingdom,England,Leeds,Leeds
46.32.230.82,4,20,rehabguide.co.uk,GB,Europe,Northern Europe,United Kingdom,England,Leeds,Leeds
79.170.40.43,4,15,remote-itsupport.co.uk,GB,Europe,Northern Europe,United Kingdom,England,Leeds,Leeds
79.170.40.38,4,0,reuk.co.uk,GB,Europe,Northern Europe,United Kingdom,England,Leeds,Leeds
176.32.230.6,4,49,rhslilygroup.org,GB,Europe,Northern Europe,United Kingdom,England,Leeds,Leeds
46.32.249.10,4,0,richardashcroft.com,GB,Europe,Northern Europe,United Kingdom,England,Leeds,Leeds
176.32.230.17,4,2,riscos.com,GB,Europe,Northern Europe,United Kingdom,England,Leeds,Leeds
81.99.245.10,4,-4135,robinlovelace.net,GB,Europe,Northern Europe,United Kingdom,England,Leeds,Leeds
176.32.230.28,4,29,romerotrust.org.uk,GB,Europe,Northern Europe,United Kingdom,England,Leeds,Leeds
79.170.44.115,4,24,royalobservatorygreenwich.org,GB,Europe,Northern Europe,United Kingdom,England,Leeds,Leeds
79.170.44.112,4,1,rugsdirect4u.com,GB,Europe,Northern Europe,United Kingdom,England,Leeds,Leeds
212.48.71.70,4,-18,saltairevillage.info,GB,Europe,Northern Europe,United Kingdom,England,Leeds,Leeds
176.32.230.27,4,27,saturday-club.org,GB,Europe,Northern Europe,United Kingdom,England,Leeds,Leeds
176.32.230.22,4,2,scec.edu.np,GB,Europe,Northern Europe,United Kingdom,England,Leeds,Leeds
79.170.44.93,4,0,schools-out.org.uk,GB,Europe,Northern Europe,United Kingdom,England,Leeds,Leeds
109.68.33.25,4,-3950,scoutpate.com,GB,Europe,Northern Europe,United Kingdom,England,Leeds,Leeds
79.170.40.175,4,1,sdr-kits.net,GB,Europe,Northern Europe,United Kingdom,England,Leeds,Leeds
79.170.44.145,4,6,seew.org.np,GB,Europe,Northern Europe,United Kingdom,England,Leeds,Leeds
176.32.230.16,4,0,seo25.com,GB,Europe,Northern Europe,United Kingdom,England,Leeds,Leeds
79.170.44.121,4,5,shmups.com,GB,Europe,Northern Europe,United Kingdom,England,Leeds,Leeds
79.170.40.232,4,4,sholop.com,GB,Europe,Northern Europe,United Kingdom,England,Leeds,Leeds
176.32.230.42,4,23,sicklecellsociety.org,GB,Europe,Northern Europe,United Kingdom,England,Leeds,Leeds
94.136.40.180,4,-1,site-fusion.co.uk,GB,Europe,Northern Europe,United Kingdom,England,Leeds,Leeds
217.199.187.196,4,1,skyemuseum.co.uk,GB,Europe,Northern Europe,United Kingdom,England,Leeds,Leeds
79.170.40.40,4,5,softmachines.org,GB,Europe,Northern Europe,United Kingdom,England,Leeds,Leeds
176.32.230.250,4,1,sscorwelass.org.uk,GB,Europe,Northern Europe,United Kingdom,England,Leeds,Leeds
176.32.230.249,4,26,startupbritain.org,GB,Europe,Northern Europe,United Kingdom,England,Leeds,Leeds
79.170.40.235,4,105,startuppr.co.uk,GB,Europe,Northern Europe,United Kingdom,England,Leeds,Leeds
79.170.40.248,4,20,stockportplaza.co.uk,GB,Europe,Northern Europe,United Kingdom,England,Leeds,Leeds
79.170.40.34,4,43,stonepigments.com,GB,Europe,Northern Europe,United Kingdom,England,Leeds,Leeds
217.199.187.65,4,8,swindon-business.net,GB,Europe,Northern Europe,United Kingdom,England,Leeds,Leeds
176.32.225.4,4,2,swing-tags.com,GB,Europe,Northern Europe,United Kingdom,England,Leeds,Leeds
79.170.40.54,4,1,switchingutilities.co.uk,GB,Europe,Northern Europe,United Kingdom,England,Leeds,Leeds
79.170.44.136,4,-1,swoyambhugarden.com.np,GB,Europe,Northern Europe,United Kingdom,England,Leeds,Leeds
176.32.230.7,4,57,synapses.co.uk,GB,Europe,Northern Europe,United Kingdom,England,Leeds,Leeds
94.136.40.51,4,1,talent-sport.co.uk,GB,Europe,Northern Europe,United Kingdom,England,Leeds,Leeds
79.170.44.120,4,4,teachinghistory100.org,GB,Europe,Northern Europe,United Kingdom,England,Leeds,Leeds
79.170.44.90,4,92,techmind.org,GB,Europe,Northern Europe,United Kingdom,England,Leeds,Leeds
217.199.160.46,4,20,thefanmuseum.org.uk,GB,Europe,Northern Europe,United Kingdom,England,Leeds,Leeds
212.67.214.70,4,864,thelatebay.com,GB,Europe,Northern Europe,United Kingdom,England,Leeds,Leeds
176.32.230.13,4,-1,thelittleloaf.com,GB,Europe,Northern Europe,United Kingdom,England,Leeds,Leeds
212.67.214.113,4,1069,thepoly.org,GB,Europe,Northern Europe,United Kingdom,England,Leeds,Leeds
79.170.40.33,4,22,theseedsite.co.uk,GB,Europe,Northern Europe,United Kingdom,England,Leeds,Leeds
79.170.44.86,4,21,toprankingames.com,GB,Europe,Northern Europe,United Kingdom,England,Leeds,Leeds
176.32.230.1,4,8,trainingground.guru,GB,Europe,Northern Europe,United Kingdom,England,Leeds,Leeds
176.32.230.14,4,14,tranters.co.uk,GB,Europe,Northern Europe,United Kingdom,England,Leeds,Leeds
217.199.187.74,4,1,trooping-the-colour.co.uk,GB,Europe,Northern Europe,United Kingdom,England,Leeds,Leeds
176.32.230.23,4,6,truedemocracy.net,GB,Europe,Northern Europe,United Kingdom,England,Leeds,Leeds
79.170.44.88,4,2,trunkrecords.com,GB,Europe,Northern Europe,United Kingdom,England,Leeds,Leeds
46.32.252.34,4,0,uktw.co.uk,GB,Europe,Northern Europe,United Kingdom,England,Leeds,Leeds
79.170.44.113,4,4,unilia.ac.mw,GB,Europe,Northern Europe,United Kingdom,England,Leeds,Leeds
79.170.40.35,4,1,uniquearts.org,GB,Europe,Northern Europe,United Kingdom,England,Leeds,Leeds
79.170.44.142,4,2,uniteldirect.co.uk,GB,Europe,Northern Europe,United Kingdom,England,Leeds,Leeds
79.170.44.78,4,1,unsolved-murders.co.uk,GB,Europe,Northern Europe,United Kingdom,England,Leeds,Leeds
79.170.40.168,4,2,uvguide.co.uk,GB,Europe,Northern Europe,United Kingdom,England,Leeds,Leeds
46.32.225.72,4,87,vps-10.com,GB,Europe,Northern Europe,United Kingdom,England,Leeds,Leeds
79.170.44.75,4,3,waho.org,GB,Europe,Northern Europe,United Kingdom,England,Leeds,Leeds
79.170.40.231,4,20,wakabaeducation.com,GB,Europe,Northern Europe,United Kingdom,England,Leeds,Leeds
79.170.40.177,4,0,watchguard-support.co.uk,GB,Europe,Northern Europe,United Kingdom,England,Leeds,Leeds
95.142.159.15,4,14,webfaction.com,GB,Europe,Northern Europe,United Kingdom,England,Leeds,Leeds
79.170.40.55,4,16,wimborne.co.uk,GB,Europe,Northern Europe,United Kingdom,England,Leeds,Leeds
79.170.44.107,4,1,wirewellelectronics.co.uk,GB,Europe,Northern Europe,United Kingdom,England,Leeds,Leeds
79.170.40.49,4,4,womenssporttrust.com,GB,Europe,Northern Europe,United Kingdom,England,Leeds,Leeds
79.170.44.101,4,0,worldwiderecovery.co.uk,GB,Europe,Northern Europe,United Kingdom,England,Leeds,Leeds
79.170.44.135,4,2,wysingartscentre.org,GB,Europe,Northern Europe,United Kingdom,England,Leeds,Leeds
46.32.252.70,4,1,youngbritishdesigners.com,GB,Europe,Northern Europe,United Kingdom,England,Leeds,Leeds
79.170.40.4,4,1,your-link.com,GB,Europe,Northern Europe,United Kingdom,England,Leeds,Leeds
217.199.187.193,4,4,zentiprint.co.uk,GB,Europe,Northern Europe,United Kingdom,England,Leeds,Leeds
