reflector_ip,ip_version,offset,description,country_code,region,sub_region,country_name,sub_division_1,sub_division_2,city
161.35.174.224,4,4,300x.ua,GB,Europe,Northern Europe,United Kingdom,England,Slough,Slough
2.20.12.89,4,81,abs-cbn.com,GB,Europe,Northern Europe,United Kingdom,England,Slough,Slough
2.20.12.106,4,14,abs-cbn.com,GB,Europe,Northern Europe,United Kingdom,England,Slough,Slough
2.20.12.96,4,45,abs-cbnnews.com,GB,Europe,Northern Europe,United Kingdom,England,Slough,Slough
2.20.12.71,4,17,abs-cbnnews.com,GB,Europe,Northern Europe,United Kingdom,England,Slough,Slough
157.245.28.233,4,33,accesscard.online,GB,Europe,Northern Europe,United Kingdom,England,Slough,Slough
188.166.138.240,4,3,acorngroup.co.uk,GB,Europe,Northern Europe,United Kingdom,England,Slough,Slough
64.227.32.195,4,6,acq5.com,GB,Europe,Northern Europe,United Kingdom,England,Slough,Slough
159.65.26.215,4,25,actualite.cd,GB,Europe,Northern Europe,United Kingdom,England,Slough,Slough
23.73.139.59,4,11,adobe.com,GB,Europe,Northern Europe,United Kingdom,England,Slough,Slough
23.73.139.66,4,11,adobe.com,GB,Europe,Northern Europe,United Kingdom,England,Slough,Slough
178.128.160.224,4,16,advanzpharma.com,GB,Europe,Northern Europe,United Kingdom,England,Slough,Slough
46.101.66.196,4,2108535,adworld.ie,GB,Europe,Northern Europe,United Kingdom,England,Slough,Slough
159.65.58.30,4,29,affinity.org.uk,GB,Europe,Northern Europe,United Kingdom,England,Slough,Slough
178.62.53.167,4,3,afimilk.com,GB,Europe,Northern Europe,United Kingdom,England,Slough,Slough
159.65.31.194,4,222,agea.com,GB,Europe,Northern Europe,United Kingdom,England,Slough,Slough
167.99.206.175,4,4,ai-steve.co.uk,GB,Europe,Northern Europe,United Kingdom,England,Slough,Slough
157.245.31.63,4,247608,airosportswear.com,GB,Europe,Northern Europe,United Kingdom,England,Slough,Slough
178.62.114.56,4,16,airport-parking-shop.co.uk,GB,Europe,Northern Europe,United Kingdom,England,Slough,Slough
46.101.30.130,4,10,akademiageopolityki.pl,GB,Europe,Northern Europe,United Kingdom,England,Slough,Slough
138.68.186.95,4,51,alderheycharity.org,GB,Europe,Northern Europe,United Kingdom,England,Slough,Slough
139.59.196.30,4,4,alf.nu,GB,Europe,Northern Europe,United Kingdom,England,Slough,Slough
178.62.127.76,4,90,allaboutshipping.co.uk,GB,Europe,Northern Europe,United Kingdom,England,Slough,Slough
159.89.250.134,4,35,alpinefrenchschool.com,GB,Europe,Northern Europe,United Kingdom,England,Slough,Slough
68.183.252.84,4,6,andrewsonline.co.uk,GB,Europe,Northern Europe,United Kingdom,England,Slough,Slough
134.209.27.69,4,76,andronis.com,GB,Europe,Northern Europe,United Kingdom,England,Slough,Slough
139.59.175.129,4,40,anfield-online.co.uk,GB,Europe,Northern Europe,United Kingdom,England,Slough,Slough
165.22.126.237,4,15,anglo-continental.com,GB,Europe,Northern Europe,United Kingdom,England,Slough,Slough
206.189.115.192,4,15,apartments.com.gh,GB,Europe,Northern Europe,United Kingdom,England,Slough,Slough
139.59.188.162,4,3795713,appgratis.com,GB,Europe,Northern Europe,United Kingdom,England,Slough,Slough
209.97.138.170,4,49,arci.it,GB,Europe,Northern Europe,United Kingdom,England,Slough,Slough
46.101.37.213,4,4,auroracoin.is,GB,Europe,Northern Europe,United Kingdom,England,Slough,Slough
139.59.198.161,4,36,autoweb.co.uk,GB,Europe,Northern Europe,United Kingdom,England,Slough,Slough
184.26.45.195,4,7,bananarepublic.com,GB,Europe,Northern Europe,United Kingdom,England,Slough,Slough
167.71.138.62,4,14,berryscoaches.co.uk,GB,Europe,Northern Europe,United Kingdom,England,Slough,Slough
2.18.27.163,4,8,big-direkt.de,GB,Europe,Northern Europe,United Kingdom,England,Slough,Slough
2.18.27.142,4,7,big-direkt.de,GB,Europe,Northern Europe,United Kingdom,England,Slough,Slough
178.62.2.6,4,43,biljettkiosken.se,GB,Europe,Northern Europe,United Kingdom,England,Slough,Slough
167.172.62.107,4,18,biologyonline.com,GB,Europe,Northern Europe,United Kingdom,England,Slough,Slough
46.101.84.32,4,5,bkrailway.co.uk,GB,Europe,Northern Europe,United Kingdom,England,Slough,Slough
68.183.252.101,4,36,blipinteractive.co.uk,GB,Europe,Northern Europe,United Kingdom,England,Slough,Slough
134.122.101.200,4,44,blocl.uk,GB,Europe,Northern Europe,United Kingdom,England,Slough,Slough
46.101.88.142,4,5,bluemarinefoundation.com,GB,Europe,Northern Europe,United Kingdom,England,Slough,Slough
157.245.37.245,4,3,bluetack.co.uk,GB,Europe,Northern Europe,United Kingdom,England,Slough,Slough
206.189.30.6,4,1540253,breastfeeding.support,GB,Europe,Northern Europe,United Kingdom,England,Slough,Slough
139.59.196.84,4,38,bristolcameras.co.uk,GB,Europe,Northern Europe,United Kingdom,England,Slough,Slough
81.149.21.254,4,18,British Telecommunications PLC 2,GB,Europe,Northern Europe,United Kingdom,England,Slough,Slough
138.68.135.133,4,7,bsas.org.uk,GB,Europe,Northern Europe,United Kingdom,England,Slough,Slough
159.89.248.121,4,3,bsccp.org.uk,GB,Europe,Northern Europe,United Kingdom,England,Slough,Slough
138.68.160.172,4,32,buildlineup.com,GB,Europe,Northern Europe,United Kingdom,England,Slough,Slough
157.245.35.6,4,14,burnsideroofing.co.uk,GB,Europe,Northern Europe,United Kingdom,England,Slough,Slough
178.62.22.135,4,60,businessenglishpod.com,GB,Europe,Northern Europe,United Kingdom,England,Slough,Slough
206.189.22.34,4,3,businessgraduatesassociation.com,GB,Europe,Northern Europe,United Kingdom,England,Slough,Slough
134.209.18.226,4,68,businessnameguide.com,GB,Europe,Northern Europe,United Kingdom,England,Slough,Slough
178.128.33.167,4,4,byevisa.com,GB,Europe,Northern Europe,United Kingdom,England,Slough,Slough
159.65.89.91,4,50,camelonparishchurch.org.uk,GB,Europe,Northern Europe,United Kingdom,England,Slough,Slough
209.97.190.160,4,4,camera-obscura.co.uk,GB,Europe,Northern Europe,United Kingdom,England,Slough,Slough
143.198.241.58,4,11,carbonneutral.com,GB,Europe,Northern Europe,United Kingdom,England,Slough,Slough
206.189.244.91,4,5,ccci.org.cy,GB,Europe,Northern Europe,United Kingdom,England,Slough,Slough
159.65.21.65,4,5,cdcgroup.com,GB,Europe,Northern Europe,United Kingdom,England,Slough,Slough
46.101.80.74,4,38,ceenews.info,GB,Europe,Northern Europe,United Kingdom,England,Slough,Slough
178.62.100.202,4,31,ceremoniagnp.com,GB,Europe,Northern Europe,United Kingdom,England,Slough,Slough
167.99.92.121,4,11,chagos-trust.org,GB,Europe,Northern Europe,United Kingdom,England,Slough,Slough
139.59.167.140,4,21,checkcompany.co.uk,GB,Europe,Northern Europe,United Kingdom,England,Slough,Slough
178.62.71.157,4,31,chortle.co.uk,GB,Europe,Northern Europe,United Kingdom,England,Slough,Slough
159.65.208.188,4,20,chotto-matte.com,GB,Europe,Northern Europe,United Kingdom,England,Slough,Slough
165.22.114.160,4,17,chris-lamb.co.uk,GB,Europe,Northern Europe,United Kingdom,England,Slough,Slough
23.73.138.194,4,45,cityline.ca,GB,Europe,Northern Europe,United Kingdom,England,Slough,Slough
23.73.137.242,4,145,cityline.ca,GB,Europe,Northern Europe,United Kingdom,England,Slough,Slough
167.172.50.18,4,25,clarkewillmott.com,GB,Europe,Northern Europe,United Kingdom,England,Slough,Slough
68.183.254.74,4,7,clintonsretail.com,GB,Europe,Northern Europe,United Kingdom,England,Slough,Slough
206.189.25.198,4,44,closeguantanamo.org,GB,Europe,Northern Europe,United Kingdom,England,Slough,Slough
139.59.198.199,4,48,colemak.com,GB,Europe,Northern Europe,United Kingdom,England,Slough,Slough
142.93.33.197,4,13,compensair.com,GB,Europe,Northern Europe,United Kingdom,England,Slough,Slough
213.146.167.25,4,24195,computerjobs.com,GB,Europe,Northern Europe,United Kingdom,England,Slough,Slough
213.146.167.30,4,24113,computerwork.com,GB,Europe,Northern Europe,United Kingdom,England,Slough,Slough
188.166.154.125,4,3,concentric.vc,GB,Europe,Northern Europe,United Kingdom,England,Slough,Slough
209.97.132.141,4,20,conversific.com,GB,Europe,Northern Europe,United Kingdom,England,Slough,Slough
139.59.197.80,4,108,coolcamping.co.uk,GB,Europe,Northern Europe,United Kingdom,England,Slough,Slough
178.62.74.230,4,71,coolcamping.com,GB,Europe,Northern Europe,United Kingdom,England,Slough,Slough
139.59.203.157,4,4,coolplaces.co.uk,GB,Europe,Northern Europe,United Kingdom,England,Slough,Slough
165.232.44.106,4,39,coventry.domains,GB,Europe,Northern Europe,United Kingdom,England,Slough,Slough
206.189.245.25,4,6,cpsa.co.uk,GB,Europe,Northern Europe,United Kingdom,England,Slough,Slough
188.166.168.220,4,4,craftedbygc.com,GB,Europe,Northern Europe,United Kingdom,England,Slough,Slough
144.126.224.111,4,4,creativemoment.co,GB,Europe,Northern Europe,United Kingdom,England,Slough,Slough
46.101.51.60,4,32,crittall-windows.co.uk,GB,Europe,Northern Europe,United Kingdom,England,Slough,Slough
178.62.74.206,4,16,cryptohack.org,GB,Europe,Northern Europe,United Kingdom,England,Slough,Slough
139.59.200.205,4,4,cucq.co.uk,GB,Europe,Northern Europe,United Kingdom,England,Slough,Slough
157.245.28.47,4,5,curacao-egaming.com,GB,Europe,Northern Europe,United Kingdom,England,Slough,Slough
178.128.44.221,4,4,cybertechhelp.com,GB,Europe,Northern Europe,United Kingdom,England,Slough,Slough
206.189.117.165,4,4,cycling.scot,GB,Europe,Northern Europe,United Kingdom,England,Slough,Slough
64.227.35.6,4,4,cyclingtimetrials.org.uk,GB,Europe,Northern Europe,United Kingdom,England,Slough,Slough
138.68.152.106,4,5,czechandspeake.com,GB,Europe,Northern Europe,United Kingdom,England,Slough,Slough
67.207.70.11,4,3,dawlish.com,GB,Europe,Northern Europe,United Kingdom,England,Slough,Slough
159.65.53.84,4,30,deadchannel.io,GB,Europe,Northern Europe,United Kingdom,England,Slough,Slough
178.62.4.155,4,75,dee-atkinson-harrison.co.uk,GB,Europe,Northern Europe,United Kingdom,England,Slough,Slough
138.68.138.208,4,346941,denfield.io,GB,Europe,Northern Europe,United Kingdom,England,Slough,Slough
206.189.245.237,4,15,dexters.co.uk,GB,Europe,Northern Europe,United Kingdom,England,Slough,Slough
46.101.92.167,4,15,diffsense.com,GB,Europe,Northern Europe,United Kingdom,England,Slough,Slough
142.93.35.198,4,49,diplom07.ru,GB,Europe,Northern Europe,United Kingdom,England,Slough,Slough
167.172.62.22,4,59,discoveryvideos.org,GB,Europe,Northern Europe,United Kingdom,England,Slough,Slough
206.189.120.102,4,6,dlplomanrussia.com,GB,Europe,Northern Europe,United Kingdom,England,Slough,Slough
209.97.186.124,4,20,dogforum.co.uk,GB,Europe,Northern Europe,United Kingdom,England,Slough,Slough
157.245.36.98,4,135,domaintools.dev,GB,Europe,Northern Europe,United Kingdom,England,Slough,Slough
167.99.192.146,4,7,dwscientific.com,GB,Europe,Northern Europe,United Kingdom,England,Slough,Slough
138.68.177.251,4,5,dyspraxiafoundation.org.uk,GB,Europe,Northern Europe,United Kingdom,England,Slough,Slough
209.97.143.16,4,3,easyelimu.com,GB,Europe,Northern Europe,United Kingdom,England,Slough,Slough
138.68.116.155,4,80,egopowerplus.co.uk,GB,Europe,Northern Europe,United Kingdom,England,Slough,Slough
64.227.45.125,4,49,ehorussia.com,GB,Europe,Northern Europe,United Kingdom,England,Slough,Slough
89.40.123.182,4,26,elfqrin.com,GB,Europe,Northern Europe,United Kingdom,England,Slough,Slough
178.62.1.224,4,27,embaixadalx.pt,GB,Europe,Northern Europe,United Kingdom,England,Slough,Slough
206.189.245.118,4,4,enei.org.uk,GB,Europe,Northern Europe,United Kingdom,England,Slough,Slough
209.97.138.43,4,24,englishchamberorchestra.co.uk,GB,Europe,Northern Europe,United Kingdom,England,Slough,Slough
138.68.176.43,4,17,eveuniversity.org,GB,Europe,Northern Europe,United Kingdom,England,Slough,Slough
178.128.47.70,4,66,falriver.co.uk,GB,Europe,Northern Europe,United Kingdom,England,Slough,Slough
46.101.72.233,4,20,familylives.org.uk,GB,Europe,Northern Europe,United Kingdom,England,Slough,Slough
23.73.138.192,4,15,fan590.com,GB,Europe,Northern Europe,United Kingdom,England,Slough,Slough
23.73.138.224,4,28,fan590.com,GB,Europe,Northern Europe,United Kingdom,England,Slough,Slough
64.227.45.65,4,44,farfuture.net,GB,Europe,Northern Europe,United Kingdom,England,Slough,Slough
167.71.130.112,4,41,fasterthanli.me,GB,Europe,Northern Europe,United Kingdom,England,Slough,Slough
142.93.42.34,4,5,feneticwellbeing.com,GB,Europe,Northern Europe,United Kingdom,England,Slough,Slough
178.128.44.197,4,10,fensa.org.uk,GB,Europe,Northern Europe,United Kingdom,England,Slough,Slough
178.62.17.184,4,8,fermanaghomagh.com,GB,Europe,Northern Europe,United Kingdom,England,Slough,Slough
64.227.33.73,4,10,fgmcri.org,GB,Europe,Northern Europe,United Kingdom,England,Slough,Slough
2.18.27.79,4,5,finewineandgoodspirits.com,GB,Europe,Northern Europe,United Kingdom,England,Slough,Slough
2.18.27.99,4,23,finewineandgoodspirits.com,GB,Europe,Northern Europe,United Kingdom,England,Slough,Slough
138.68.119.72,4,88,fishergerman.co.uk,GB,Europe,Northern Europe,United Kingdom,England,Slough,Slough
138.68.188.194,4,3,frankpmatthews.com,GB,Europe,Northern Europe,United Kingdom,England,Slough,Slough
46.101.79.203,4,3,freehealthvideos.com,GB,Europe,Northern Europe,United Kingdom,England,Slough,Slough
159.65.80.172,4,44,freelancerclub.net,GB,Europe,Northern Europe,United Kingdom,England,Slough,Slough
173.208.49.167,4,22,fridae.com,GB,Europe,Northern Europe,United Kingdom,England,Slough,Slough
188.166.137.193,4,13,frogthegambler.com,GB,Europe,Northern Europe,United Kingdom,England,Slough,Slough
46.101.74.33,4,5465354,frontdesign.se,GB,Europe,Northern Europe,United Kingdom,England,Slough,Slough
138.68.116.115,4,13,ftponline.com,GB,Europe,Northern Europe,United Kingdom,England,Slough,Slough
134.209.21.8,4,4,fustany.com,GB,Europe,Northern Europe,United Kingdom,England,Slough,Slough
159.65.90.20,4,4,galbraithgroup.com,GB,Europe,Northern Europe,United Kingdom,England,Slough,Slough
206.189.23.78,4,13,gamban.com,GB,Europe,Northern Europe,United Kingdom,England,Slough,Slough
159.65.49.98,4,48,garrysmod.org,GB,Europe,Northern Europe,United Kingdom,England,Slough,Slough
144.126.193.232,4,109,genderedintelligence.co.uk,GB,Europe,Northern Europe,United Kingdom,England,Slough,Slough
178.62.93.66,4,29,generation-online.org,GB,Europe,Northern Europe,United Kingdom,England,Slough,Slough
188.166.151.192,4,114,getbarenaked.net,GB,Europe,Northern Europe,United Kingdom,England,Slough,Slough
206.189.17.130,4,13,ggat.org.uk,GB,Europe,Northern Europe,United Kingdom,England,Slough,Slough
178.62.28.176,4,13,ggf.org.uk,GB,Europe,Northern Europe,United Kingdom,England,Slough,Slough
46.101.74.82,4,54,ghhin.org,GB,Europe,Northern Europe,United Kingdom,England,Slough,Slough
167.99.205.225,4,6,globalventuring.com,GB,Europe,Northern Europe,United Kingdom,England,Slough,Slough
165.227.226.17,4,44,gobrunch.com,GB,Europe,Northern Europe,United Kingdom,England,Slough,Slough
159.65.24.225,4,3,goznak-dlplomu.com,GB,Europe,Northern Europe,United Kingdom,England,Slough,Slough
161.35.170.144,4,5,hdtvtest.co.uk,GB,Europe,Northern Europe,United Kingdom,England,Slough,Slough
159.89.249.97,4,4,headphonecommute.com,GB,Europe,Northern Europe,United Kingdom,England,Slough,Slough
188.166.149.35,4,11,heathrow-airport-guide.co.uk,GB,Europe,Northern Europe,United Kingdom,England,Slough,Slough
159.65.215.87,4,10,heinekenjazzaldia.com,GB,Europe,Northern Europe,United Kingdom,England,Slough,Slough
139.59.181.62,4,9,hellooha.com,GB,Europe,Northern Europe,United Kingdom,England,Slough,Slough
167.172.54.149,4,44,homeimprovementvideos.org,GB,Europe,Northern Europe,United Kingdom,England,Slough,Slough
142.93.39.79,4,33,hotelrunner.com,GB,Europe,Northern Europe,United Kingdom,England,Slough,Slough
178.128.44.187,4,4,householdcavalry.co.uk,GB,Europe,Northern Europe,United Kingdom,England,Slough,Slough
159.65.82.113,4,8,hydeparkpicturehouse.co.uk,GB,Europe,Northern Europe,United Kingdom,England,Slough,Slough
167.99.198.193,4,6,icvanetwork.org,GB,Europe,Northern Europe,United Kingdom,England,Slough,Slough
159.65.60.165,4,7,idiplomanys.ru,GB,Europe,Northern Europe,United Kingdom,England,Slough,Slough
68.183.44.70,4,8,iffresearch.com,GB,Europe,Northern Europe,United Kingdom,England,Slough,Slough
46.101.6.14,4,5,imperialinnovations.co.uk,GB,Europe,Northern Europe,United Kingdom,England,Slough,Slough
167.99.82.171,4,66,inbrief.co.uk,GB,Europe,Northern Europe,United Kingdom,England,Slough,Slough
178.128.44.243,4,157,infomaxglobal.com,GB,Europe,Northern Europe,United Kingdom,England,Slough,Slough
134.209.20.103,4,23,interconnected.org,GB,Europe,Northern Europe,United Kingdom,England,Slough,Slough
178.62.126.131,4,18,internationalegg.com,GB,Europe,Northern Europe,United Kingdom,England,Slough,Slough
46.101.90.126,4,-300329,internationalhero.co.uk,GB,Europe,Northern Europe,United Kingdom,England,Slough,Slough
167.99.87.26,4,13,intfoundationgroup.co.uk,GB,Europe,Northern Europe,United Kingdom,England,Slough,Slough
209.97.188.211,4,26,inveraray-castle.com,GB,Europe,Northern Europe,United Kingdom,England,Slough,Slough
178.128.175.110,4,18,ipcisco.com,GB,Europe,Northern Europe,United Kingdom,England,Slough,Slough
138.68.177.157,4,3,ipnlf.org,GB,Europe,Northern Europe,United Kingdom,England,Slough,Slough
178.62.10.210,4,6,it-online.co.za,GB,Europe,Northern Europe,United Kingdom,England,Slough,Slough
46.101.91.54,4,6,ivoryresearch.com,GB,Europe,Northern Europe,United Kingdom,England,Slough,Slough
68.183.252.144,4,14,jackpetcheyfoundation.org.uk,GB,Europe,Northern Europe,United Kingdom,England,Slough,Slough
159.65.89.84,4,6,jazzfest.co.uk,GB,Europe,Northern Europe,United Kingdom,England,Slough,Slough
213.146.167.10,4,401,jobserve.com,GB,Europe,Northern Europe,United Kingdom,England,Slough,Slough
142.93.44.170,4,8,justpushstart.com,GB,Europe,Northern Europe,United Kingdom,England,Slough,Slough
157.245.44.71,4,9,keyloop.com,GB,Europe,Northern Europe,United Kingdom,England,Slough,Slough
209.97.180.156,4,-11,krantzuk.com,GB,Europe,Northern Europe,United Kingdom,England,Slough,Slough
23.73.139.19,4,5,kwai-video.com,GB,Europe,Northern Europe,United Kingdom,England,Slough,Slough
23.73.139.35,4,8,kwai-video.com,GB,Europe,Northern Europe,United Kingdom,England,Slough,Slough
209.97.180.136,4,4,kznwildlife.com,GB,Europe,Northern Europe,United Kingdom,England,Slough,Slough
143.198.240.186,4,5,lagosfashionweek.ng,GB,Europe,Northern Europe,United Kingdom,England,Slough,Slough
143.198.240.149,4,15,landmarkchambers.co.uk,GB,Europe,Northern Europe,United Kingdom,England,Slough,Slough
157.245.30.74,4,8,lbtc.co.uk,GB,Europe,Northern Europe,United Kingdom,England,Slough,Slough
138.68.132.134,4,18,learnalanguage.com,GB,Europe,Northern Europe,United Kingdom,England,Slough,Slough
209.97.188.220,4,16,leftfootforward.org,GB,Europe,Northern Europe,United Kingdom,England,Slough,Slough
188.166.152.170,4,37,legionellacontrol.org.uk,GB,Europe,Northern Europe,United Kingdom,England,Slough,Slough
64.227.41.12,4,35,leikhusid.is,GB,Europe,Northern Europe,United Kingdom,England,Slough,Slough
134.209.190.253,4,98,lemmy.cafe,GB,Europe,Northern Europe,United Kingdom,England,Slough,Slough
161.35.36.188,4,4,lesplusmaxsneakerspromofr.com,GB,Europe,Northern Europe,United Kingdom,England,Slough,Slough
159.65.215.54,4,151,lincolncathedral.com,GB,Europe,Northern Europe,United Kingdom,England,Slough,Slough
178.62.84.203,4,49,linuxserver.io,GB,Europe,Northern Europe,United Kingdom,England,Slough,Slough
167.99.81.65,4,10,londonspovertyprofile.org.uk,GB,Europe,Northern Europe,United Kingdom,England,Slough,Slough
159.223.246.46,4,30,lotsawahouse.org,GB,Europe,Northern Europe,United Kingdom,England,Slough,Slough
165.232.102.195,4,37,lovelylivtyler.com,GB,Europe,Northern Europe,United Kingdom,England,Slough,Slough
167.99.193.247,4,65,lowerstreet.co,GB,Europe,Northern Europe,United Kingdom,England,Slough,Slough
139.59.172.132,4,80,lukeplant.me.uk,GB,Europe,Northern Europe,United Kingdom,England,Slough,Slough
178.62.8.81,4,29,luxuryspaawards.com,GB,Europe,Northern Europe,United Kingdom,England,Slough,Slough
178.62.22.164,4,1176179,m-buy.ru,GB,Europe,Northern Europe,United Kingdom,England,Slough,Slough
138.68.169.40,4,22,macontrols.com,GB,Europe,Northern Europe,United Kingdom,England,Slough,Slough
178.62.117.31,4,3,madhavind.com,GB,Europe,Northern Europe,United Kingdom,England,Slough,Slough
142.93.45.158,4,2,makemelocal.com,GB,Europe,Northern Europe,United Kingdom,England,Slough,Slough
178.128.169.231,4,13,mapmytracks.com,GB,Europe,Northern Europe,United Kingdom,England,Slough,Slough
178.62.88.239,4,54,marc-newson.com,GB,Europe,Northern Europe,United Kingdom,England,Slough,Slough
178.128.41.7,4,75,mathstudyguide.co.za,GB,Europe,Northern Europe,United Kingdom,England,Slough,Slough
2.18.27.92,4,12,maxymiser.com,GB,Europe,Northern Europe,United Kingdom,England,Slough,Slough
2.18.27.97,4,27,maxymiser.com,GB,Europe,Northern Europe,United Kingdom,England,Slough,Slough
46.101.49.85,4,28,medicinespatentpool.org,GB,Europe,Northern Europe,United Kingdom,England,Slough,Slough
167.99.80.181,4,5,memorialscrollstrust.org,GB,Europe,Northern Europe,United Kingdom,England,Slough,Slough
178.62.112.134,4,344,memsec.co.uk,GB,Europe,Northern Europe,United Kingdom,England,Slough,Slough
104.248.169.168,4,20,messumswiltshire.com,GB,Europe,Northern Europe,United Kingdom,England,Slough,Slough
139.59.201.21,4,3,milesandbarr.co.uk,GB,Europe,Northern Europe,United Kingdom,England,Slough,Slough
178.62.65.136,4,3,mod-buildcraft.com,GB,Europe,Northern Europe,United Kingdom,England,Slough,Slough
206.189.120.114,4,16,modernartoxford.org.uk,GB,Europe,Northern Europe,United Kingdom,England,Slough,Slough
161.35.167.61,4,51,moviemakeronline.com,GB,Europe,Northern Europe,United Kingdom,England,Slough,Slough
159.65.209.186,4,41,multpl.com,GB,Europe,Northern Europe,United Kingdom,England,Slough,Slough
167.99.84.245,4,10,museucr7.com,GB,Europe,Northern Europe,United Kingdom,England,Slough,Slough
209.97.141.132,4,3,musselburgh-racecourse.co.uk,GB,Europe,Northern Europe,United Kingdom,England,Slough,Slough
178.62.9.171,4,4102424,myip.ru,GB,Europe,Northern Europe,United Kingdom,England,Slough,Slough
178.128.36.32,4,1158005,myriadrf.org,GB,Europe,Northern Europe,United Kingdom,England,Slough,Slough
143.198.242.237,4,16,mytimeactive.co.uk,GB,Europe,Northern Europe,United Kingdom,England,Slough,Slough
188.166.136.217,4,4,mywallst.com,GB,Europe,Northern Europe,United Kingdom,England,Slough,Slough
178.62.111.195,4,10,nam.org.uk,GB,Europe,Northern Europe,United Kingdom,England,Slough,Slough
161.35.170.216,4,65,nass.co.uk,GB,Europe,Northern Europe,United Kingdom,England,Slough,Slough
188.166.158.123,4,6,netbet.org,GB,Europe,Northern Europe,United Kingdom,England,Slough,Slough
67.207.69.210,4,147,neuroticweb.com,GB,Europe,Northern Europe,United Kingdom,England,Slough,Slough
209.97.181.151,4,19,newbettingoffers.co.uk,GB,Europe,Northern Europe,United Kingdom,England,Slough,Slough
23.73.138.249,4,12,newshunt.com,GB,Europe,Northern Europe,United Kingdom,England,Slough,Slough
23.73.138.226,4,25,newshunt.com,GB,Europe,Northern Europe,United Kingdom,England,Slough,Slough
206.189.120.195,4,9,nextwebdesign.co.uk,GB,Europe,Northern Europe,United Kingdom,England,Slough,Slough
104.248.162.58,4,4,nikeshoesoutlet.org.uk,GB,Europe,Northern Europe,United Kingdom,England,Slough,Slough
206.189.245.86,4,3,noblecars.com,GB,Europe,Northern Europe,United Kingdom,England,Slough,Slough
209.97.182.88,4,4,nobleisle.com,GB,Europe,Northern Europe,United Kingdom,England,Slough,Slough
46.101.27.111,4,6,nullsignal.games,GB,Europe,Northern Europe,United Kingdom,England,Slough,Slough
46.101.95.184,4,105269,oceanterminal.com,GB,Europe,Northern Europe,United Kingdom,England,Slough,Slough
167.71.129.33,4,11,ohmbrew.uk,GB,Europe,Northern Europe,United Kingdom,England,Slough,Slough
46.101.6.159,4,44,ondeapostar.pt,GB,Europe,Northern Europe,United Kingdom,England,Slough,Slough
138.68.190.100,4,85,onlinecasinonodeposit001.com,GB,Europe,Northern Europe,United Kingdom,England,Slough,Slough
139.59.198.62,4,33,openfoodnetwork.org.uk,GB,Europe,Northern Europe,United Kingdom,England,Slough,Slough
188.166.175.189,4,26,oxfordstreet.co.uk,GB,Europe,Northern Europe,United Kingdom,England,Slough,Slough
178.62.58.29,4,9,pallmallbarbers.com,GB,Europe,Northern Europe,United Kingdom,England,Slough,Slough
139.59.178.253,4,29,paramountcareers.uk,GB,Europe,Northern Europe,United Kingdom,England,Slough,Slough
138.68.190.167,4,42,paribahis1.info,GB,Europe,Northern Europe,United Kingdom,England,Slough,Slough
209.97.141.53,4,20,parksandgardens.org,GB,Europe,Northern Europe,United Kingdom,England,Slough,Slough
188.166.154.136,4,40,passionates.com,GB,Europe,Northern Europe,United Kingdom,England,Slough,Slough
167.99.195.167,4,35,paul-mellon-centre.ac.uk,GB,Europe,Northern Europe,United Kingdom,England,Slough,Slough
46.101.10.21,4,799249,pembrokecastle.co.uk,GB,Europe,Northern Europe,United Kingdom,England,Slough,Slough
167.99.201.127,4,32,perfocal.com,GB,Europe,Northern Europe,United Kingdom,England,Slough,Slough
46.101.46.137,4,26,perthstjohnstonefc.co.uk,GB,Europe,Northern Europe,United Kingdom,England,Slough,Slough
157.245.28.146,4,4,pettyson.co.uk,GB,Europe,Northern Europe,United Kingdom,England,Slough,Slough
159.65.17.212,4,45,pharmweb.net,GB,Europe,Northern Europe,United Kingdom,England,Slough,Slough
134.209.190.252,4,2,pikvm.org,GB,Europe,Northern Europe,United Kingdom,England,Slough,Slough
2.19.248.72,4,29,pnfp.com,GB,Europe,Northern Europe,United Kingdom,England,Slough,Slough
178.62.5.20,4,6,pokerdiscover.com,GB,Europe,Northern Europe,United Kingdom,England,Slough,Slough
104.248.162.233,4,15,poolescavern.co.uk,GB,Europe,Northern Europe,United Kingdom,England,Slough,Slough
178.128.47.179,4,7,portsmouthguildhall.org.uk,GB,Europe,Northern Europe,United Kingdom,England,Slough,Slough
178.128.45.144,4,50,prfire.co.uk,GB,Europe,Northern Europe,United Kingdom,England,Slough,Slough
167.71.133.216,4,-16,printnode.com,GB,Europe,Northern Europe,United Kingdom,England,Slough,Slough
104.248.169.127,4,20,privatehousestays.com,GB,Europe,Northern Europe,United Kingdom,England,Slough,Slough
144.126.226.109,4,56,prmoment.com,GB,Europe,Northern Europe,United Kingdom,England,Slough,Slough
178.62.127.55,4,26,prostomac.com,GB,Europe,Northern Europe,United Kingdom,England,Slough,Slough
46.101.64.38,4,237207,ptieducation.org,GB,Europe,Northern Europe,United Kingdom,England,Slough,Slough
2.18.27.90,4,26,pureformulas.com,GB,Europe,Northern Europe,United Kingdom,England,Slough,Slough
2.18.27.85,4,19,pureformulas.com,GB,Europe,Northern Europe,United Kingdom,England,Slough,Slough
165.232.34.249,4,99,radicalmotorsport.com,GB,Europe,Northern Europe,United Kingdom,England,Slough,Slough
139.59.176.251,4,81,radiplomy.com,GB,Europe,Northern Europe,United Kingdom,England,Slough,Slough
143.110.168.177,4,57,rahapelit-netissa.com,GB,Europe,Northern Europe,United Kingdom,England,Slough,Slough
188.166.175.153,4,38,rareplants.co.uk,GB,Europe,Northern Europe,United Kingdom,England,Slough,Slough
140.238.87.47,4,0,raymii.org,GB,Europe,Northern Europe,United Kingdom,England,Slough,Slough
159.65.17.210,4,3,raystede.org,GB,Europe,Northern Europe,United Kingdom,England,Slough,Slough
142.93.32.151,4,4,rbfrs.co.uk,GB,Europe,Northern Europe,United Kingdom,England,Slough,Slough
2.19.248.69,4,36,resso.com,GB,Europe,Northern Europe,United Kingdom,England,Slough,Slough
2.19.248.86,4,15,resso.com,GB,Europe,Northern Europe,United Kingdom,England,Slough,Slough
138.68.162.240,4,30,rightsinfo.org,GB,Europe,Northern Europe,United Kingdom,England,Slough,Slough
178.62.63.139,4,9,robinsonsbrewery.com,GB,Europe,Northern Europe,United Kingdom,England,Slough,Slough
159.65.18.163,4,3,robotical.io,GB,Europe,Northern Europe,United Kingdom,England,Slough,Slough
209.97.143.45,4,54,roddas.co.uk,GB,Europe,Northern Europe,United Kingdom,England,Slough,Slough
188.166.170.149,4,4702678,romecavalieri.com,GB,Europe,Northern Europe,United Kingdom,England,Slough,Slough
68.183.46.155,4,28,rudik-diploms-srednee.ru,GB,Europe,Northern Europe,United Kingdom,England,Slough,Slough
46.101.84.43,4,31,sallyclarke.com,GB,Europe,Northern Europe,United Kingdom,England,Slough,Slough
157.245.31.190,4,10,sandafayre.com,GB,Europe,Northern Europe,United Kingdom,England,Slough,Slough
188.166.175.37,4,4,scenicboattours.com,GB,Europe,Northern Europe,United Kingdom,England,Slough,Slough
159.65.82.215,4,32,seat-compare.com,GB,Europe,Northern Europe,United Kingdom,England,Slough,Slough
138.68.173.175,4,22,seeverbier.com,GB,Europe,Northern Europe,United Kingdom,England,Slough,Slough
184.26.44.139,4,16,sephora.com,GB,Europe,Northern Europe,United Kingdom,England,Slough,Slough
2.18.27.96,4,33,sephoravirtualartist.com,GB,Europe,Northern Europe,United Kingdom,England,Slough,Slough
2.18.27.77,4,11,sephoravirtualartist.com,GB,Europe,Northern Europe,United Kingdom,England,Slough,Slough
165.232.44.174,4,3,setcesp.org.br,GB,Europe,Northern Europe,United Kingdom,England,Slough,Slough
159.89.251.179,4,3,sevenonestudios.com,GB,Europe,Northern Europe,United Kingdom,England,Slough,Slough
2.20.12.74,4,15,shiksha.com,GB,Europe,Northern Europe,United Kingdom,England,Slough,Slough
2.20.12.100,4,1,shiksha.com,GB,Europe,Northern Europe,United Kingdom,England,Slough,Slough
188.166.151.21,4,7,shinobilifeonline.com,GB,Europe,Northern Europe,United Kingdom,England,Slough,Slough
178.62.73.133,4,1,shootinguk.co.uk,GB,Europe,Northern Europe,United Kingdom,England,Slough,Slough
139.59.202.110,4,19,simple-help.com,GB,Europe,Northern Europe,United Kingdom,England,Slough,Slough
167.172.48.246,4,-234048,sitegallery.org,GB,Europe,Northern Europe,United Kingdom,England,Slough,Slough
64.227.33.173,4,39,skiworld.co.uk,GB,Europe,Northern Europe,United Kingdom,England,Slough,Slough
178.62.15.141,4,4,slicejack.com,GB,Europe,Northern Europe,United Kingdom,England,Slough,Slough
178.62.66.33,4,21,smetoolkit.ng,GB,Europe,Northern Europe,United Kingdom,England,Slough,Slough
157.245.43.23,4,53,sockandawe.com,GB,Europe,Northern Europe,United Kingdom,England,Slough,Slough
178.62.100.36,4,32,soda.co.uk,GB,Europe,Northern Europe,United Kingdom,England,Slough,Slough
159.223.246.74,4,4,sota.org.uk,GB,Europe,Northern Europe,United Kingdom,England,Slough,Slough
68.183.254.167,4,38,soulcity.org.za,GB,Europe,Northern Europe,United Kingdom,England,Slough,Slough
142.93.35.206,4,84,southafrica.info,GB,Europe,Northern Europe,United Kingdom,England,Slough,Slough
178.62.56.26,4,5792,sports-facilities.co.uk,GB,Europe,Northern Europe,United Kingdom,England,Slough,Slough
159.89.248.199,4,10,statusq.org,GB,Europe,Northern Europe,United Kingdom,England,Slough,Slough
138.68.189.34,4,42,streetlevelphotoworks.org,GB,Europe,Northern Europe,United Kingdom,England,Slough,Slough
144.126.197.213,4,9,studiointernational.com,GB,Europe,Northern Europe,United Kingdom,England,Slough,Slough
206.189.246.194,4,6,subristow.co.uk,GB,Europe,Northern Europe,United Kingdom,England,Slough,Slough
2.19.248.82,4,75,subway.co.uk,GB,Europe,Northern Europe,United Kingdom,England,Slough,Slough
2.19.248.93,4,58,subway.co.uk,GB,Europe,Northern Europe,United Kingdom,England,Slough,Slough
138.68.145.173,4,14,sustainableaviation.co.uk,GB,Europe,Northern Europe,United Kingdom,England,Slough,Slough
165.22.116.218,4,52,svetilnikild.ru,GB,Europe,Northern Europe,United Kingdom,England,Slough,Slough
178.62.77.249,4,3,swann-morton.com,GB,Europe,Northern Europe,United Kingdom,England,Slough,Slough
188.166.145.226,4,2,szkt.hu,GB,Europe,Northern Europe,United Kingdom,England,Slough,Slough
46.101.27.188,4,468479,teacherhorizons.com,GB,Europe,Northern Europe,United Kingdom,England,Slough,Slough
46.101.64.125,4,4,tektura.com,GB,Europe,Northern Europe,United Kingdom,England,Slough,Slough
178.128.47.171,4,10,temnikova.shop,GB,Europe,Northern Europe,United Kingdom,England,Slough,Slough
159.65.209.214,4,19,theadvisory.co.uk,GB,Europe,Northern Europe,United Kingdom,England,Slough,Slough
144.126.226.175,4,13,theaficionados.com,GB,Europe,Northern Europe,United Kingdom,England,Slough,Slough
178.62.53.63,4,25,thebrunelmuseum.com,GB,Europe,Northern Europe,United Kingdom,England,Slough,Slough
67.207.68.74,4,14,thecirculars.org,GB,Europe,Northern Europe,United Kingdom,England,Slough,Slough
165.22.119.187,4,6,theidm.com,GB,Europe,Northern Europe,United Kingdom,England,Slough,Slough
167.99.88.200,4,37,themerchanthotel.com,GB,Europe,Northern Europe,United Kingdom,England,Slough,Slough
188.166.149.59,4,36,thenafl.co.uk,GB,Europe,Northern Europe,United Kingdom,England,Slough,Slough
134.122.99.211,4,8,theunderworldcamden.co.uk,GB,Europe,Northern Europe,United Kingdom,England,Slough,Slough
67.207.69.156,4,31,thingstogetme.com,GB,Europe,Northern Europe,United Kingdom,England,Slough,Slough
178.62.50.69,4,2,thriveapproach.com,GB,Europe,Northern Europe,United Kingdom,England,Slough,Slough
46.101.78.89,4,6,tibosoftware.com,GB,Europe,Northern Europe,United Kingdom,England,Slough,Slough
167.172.56.149,4,7,timeetc.com,GB,Europe,Northern Europe,United Kingdom,England,Slough,Slough
178.62.1.189,4,31,tinthepark.com,GB,Europe,Northern Europe,United Kingdom,England,Slough,Slough
165.22.123.139,4,25,top.domains,GB,Europe,Northern Europe,United Kingdom,England,Slough,Slough
188.166.137.235,4,6,towerhousewares.co.uk,GB,Europe,Northern Europe,United Kingdom,England,Slough,Slough
173.234.137.131,4,6,toyotaownersclub.com,GB,Europe,Northern Europe,United Kingdom,England,Slough,Slough
64.227.32.178,4,5,transformainsights.com,GB,Europe,Northern Europe,United Kingdom,England,Slough,Slough
167.71.135.253,4,15,tresco.co.uk,GB,Europe,Northern Europe,United Kingdom,England,Slough,Slough
167.99.80.207,4,3,trilliontrees.org,GB,Europe,Northern Europe,United Kingdom,England,Slough,Slough
104.248.174.37,4,8,turquoisemountain.org,GB,Europe,Northern Europe,United Kingdom,England,Slough,Slough
46.101.95.68,4,41,twgpp.org,GB,Europe,Northern Europe,United Kingdom,England,Slough,Slough
157.245.44.109,4,3,tyrelab.co.uk,GB,Europe,Northern Europe,United Kingdom,England,Slough,Slough
23.73.139.26,4,18,ucarecdn.com,GB,Europe,Northern Europe,United Kingdom,England,Slough,Slough
23.73.139.65,4,30,ucarecdn.com,GB,Europe,Northern Europe,United Kingdom,England,Slough,Slough
157.245.36.236,4,12,ukaop.org,GB,Europe,Northern Europe,United Kingdom,England,Slough,Slough
167.71.143.213,4,13,ukcdr.org.uk,GB,Europe,Northern Europe,United Kingdom,England,Slough,Slough
206.189.246.101,4,5,ukdataservice.ac.uk,GB,Europe,Northern Europe,United Kingdom,England,Slough,Slough
134.209.190.223,4,13,ukhealthradio.com,GB,Europe,Northern Europe,United Kingdom,England,Slough,Slough
89.36.220.39,4,23,ukradiolive.com,GB,Europe,Northern Europe,United Kingdom,England,Slough,Slough
165.227.236.98,4,4,underbellyfestival.com,GB,Europe,Northern Europe,United Kingdom,England,Slough,Slough
134.209.19.90,4,5,uniport.edu.ng,GB,Europe,Northern Europe,United Kingdom,England,Slough,Slough
134.209.22.226,4,5,unitaid.org,GB,Europe,Northern Europe,United Kingdom,England,Slough,Slough
165.22.125.166,4,42,unseen.co,GB,Europe,Northern Europe,United Kingdom,England,Slough,Slough
188.166.171.165,4,10,utalk.com,GB,Europe,Northern Europe,United Kingdom,England,Slough,Slough
159.89.250.244,4,5,uxpressia.com,GB,Europe,Northern Europe,United Kingdom,England,Slough,Slough
134.209.182.2,4,9,vabank-casino.com,GB,Europe,Northern Europe,United Kingdom,England,Slough,Slough
206.189.29.196,4,4671074,vcoderz.com,GB,Europe,Northern Europe,United Kingdom,England,Slough,Slough
46.101.12.130,4,5,victorvran.com,GB,Europe,Northern Europe,United Kingdom,England,Slough,Slough
159.223.244.148,4,8,viomundo.com.br,GB,Europe,Northern Europe,United Kingdom,England,Slough,Slough
104.248.163.44,4,27,virus.org,GB,Europe,Northern Europe,United Kingdom,England,Slough,Slough
209.97.188.41,4,17,visitherefordshire.co.uk,GB,Europe,Northern Europe,United Kingdom,England,Slough,Slough
167.99.94.132,4,5,vispring.com,GB,Europe,Northern Europe,United Kingdom,England,Slough,Slough
138.68.116.54,4,5317809,vitalynutrition.co.uk,GB,Europe,Northern Europe,United Kingdom,England,Slough,Slough
167.71.136.214,4,9,volteface.me,GB,Europe,Northern Europe,United Kingdom,England,Slough,Slough
2.18.27.146,4,8,water.ie,GB,Europe,Northern Europe,United Kingdom,England,Slough,Slough
2.18.27.154,4,7,water.ie,GB,Europe,Northern Europe,United Kingdom,England,Slough,Slough
178.128.163.104,4,16,wcac2022.org,GB,Europe,Northern Europe,United Kingdom,England,Slough,Slough
64.227.34.192,4,2,wearehourglass.org,GB,Europe,Northern Europe,United Kingdom,England,Slough,Slough
138.68.152.88,4,17,weeklyworker.co.uk,GB,Europe,Northern Europe,United Kingdom,England,Slough,Slough
178.62.88.88,4,11,welcometofife.com,GB,Europe,Northern Europe,United Kingdom,England,Slough,Slough
209.97.178.214,4,2,westminsterpapers.org,GB,Europe,Northern Europe,United Kingdom,England,Slough,Slough
178.62.0.189,4,12,whiterocktheatre.org.uk,GB,Europe,Northern Europe,United Kingdom,England,Slough,Slough
159.65.213.89,4,81,winningelevenblog.com,GB,Europe,Northern Europe,United Kingdom,England,Slough,Slough
165.232.108.234,4,11,wish.co.uk,GB,Europe,Northern Europe,United Kingdom,England,Slough,Slough
134.209.189.34,4,7,womensprize.com,GB,Europe,Northern Europe,United Kingdom,England,Slough,Slough
139.59.178.116,4,4,writeoutloud.net,GB,Europe,Northern Europe,United Kingdom,England,Slough,Slough
134.122.105.5,4,19,www.newbettingsites.uk,GB,Europe,Northern Europe,United Kingdom,England,Slough,Slough
157.245.45.67,4,3,xlx201.uk,GB,Europe,Northern Europe,United Kingdom,England,Slough,Slough
134.209.176.102,4,124,xn--80aajajavo3ag2a3c5b.xn--p1ai,GB,Europe,Northern Europe,United Kingdom,England,Slough,Slough
2.18.27.155,4,24,zee.com,GB,Europe,Northern Europe,United Kingdom,England,Slough,Slough
2.18.27.147,4,6,zee.com,GB,Europe,Northern Europe,United Kingdom,England,Slough,Slough
