reflector_ip,ip_version,offset,description,country_code,region,sub_region,country_name,sub_division_1,sub_division_2,city
185.182.56.122,4,108,alom.be,GB,Europe,Northern Europe,United Kingdom,England,Barking and Dagenham,Dagenham
185.182.56.225,4,44,arduinoforum.nl,GB,Europe,Northern Europe,United Kingdom,England,Barking and Dagenham,Dagenham
185.182.56.17,4,19,axc.nl,GB,Europe,Northern Europe,United Kingdom,England,Barking and Dagenham,Dagenham
185.182.56.86,4,21,bbtk-sidmar.be,GB,Europe,Northern Europe,United Kingdom,England,Barking and Dagenham,Dagenham
185.182.57.32,4,26,buddydive.com,GB,Europe,Northern Europe,United Kingdom,England,Barking and Dagenham,Dagenham
185.182.56.31,4,30,carpstore.nl,GB,Europe,Northern Europe,United Kingdom,England,Barking and Dagenham,Dagenham
185.182.56.116,4,57,cavedewittenberg.com,GB,Europe,Northern Europe,United Kingdom,England,Barking and Dagenham,Dagenham
185.182.59.30,4,19,cmceurope.be,GB,Europe,Northern Europe,United Kingdom,England,Barking and Dagenham,Dagenham
185.182.56.181,4,25,coolbegin.com,GB,Europe,Northern Europe,United Kingdom,England,Barking and Dagenham,Dagenham
185.182.56.95,4,14,cresa.de,GB,Europe,Northern Europe,United Kingdom,England,Barking and Dagenham,Dagenham
185.182.57.43,4,3,eosdigitaal.nl,GB,Europe,Northern Europe,United Kingdom,England,Barking and Dagenham,Dagenham
185.182.56.67,4,-5,fryslan4045.nl,GB,Europe,Northern Europe,United Kingdom,England,Barking and Dagenham,Dagenham
185.182.56.10,4,8,haaglandenclinics.nl,GB,Europe,Northern Europe,United Kingdom,England,Barking and Dagenham,Dagenham
185.182.56.170,4,25,huvepharma.com,GB,Europe,Northern Europe,United Kingdom,England,Barking and Dagenham,Dagenham
185.182.57.6,4,14,hygienicplusservices.nl,GB,Europe,Northern Europe,United Kingdom,England,Barking and Dagenham,Dagenham
185.182.56.121,4,3,ictonderwijsforum.nl,GB,Europe,Northern Europe,United Kingdom,England,Barking and Dagenham,Dagenham
185.182.56.185,4,25,jedi-computing.com,GB,Europe,Northern Europe,United Kingdom,England,Barking and Dagenham,Dagenham
185.182.57.46,4,50,jongekerk.nl,GB,Europe,Northern Europe,United Kingdom,England,Barking and Dagenham,Dagenham
185.182.56.149,4,-13,kattenkabinet.nl,GB,Europe,Northern Europe,United Kingdom,England,Barking and Dagenham,Dagenham
185.182.56.33,4,68,larsh.nl,GB,Europe,Northern Europe,United Kingdom,England,Barking and Dagenham,Dagenham
185.182.56.190,4,30,learnthelanguage.nl,GB,Europe,Northern Europe,United Kingdom,England,Barking and Dagenham,Dagenham
185.182.56.183,4,-23,lourdes-ekeren.be,GB,Europe,Northern Europe,United Kingdom,England,Barking and Dagenham,Dagenham
185.182.56.152,4,65,maven11.com,GB,Europe,Northern Europe,United Kingdom,England,Barking and Dagenham,Dagenham
185.182.57.207,4,15,mijnzzp.nl,GB,Europe,Northern Europe,United Kingdom,England,Barking and Dagenham,Dagenham
185.182.56.34,4,23,modamoda.nl,GB,Europe,Northern Europe,United Kingdom,England,Barking and Dagenham,Dagenham
185.182.56.81,4,18,myrofas.nl,GB,Europe,Northern Europe,United Kingdom,England,Barking and Dagenham,Dagenham
185.182.56.168,4,17,neerlandstuin.nl,GB,Europe,Northern Europe,United Kingdom,England,Barking and Dagenham,Dagenham
185.182.57.108,4,18,nieuwslog.nl,GB,Europe,Northern Europe,United Kingdom,England,Barking and Dagenham,Dagenham
185.182.57.5,4,13,obesitasvereniging.nl,GB,Europe,Northern Europe,United Kingdom,England,Barking and Dagenham,Dagenham
185.182.56.117,4,66,onlinefruitautomaat.net,GB,Europe,Northern Europe,United Kingdom,England,Barking and Dagenham,Dagenham
185.182.56.202,4,-11,petsworld.nl,GB,Europe,Northern Europe,United Kingdom,England,Barking and Dagenham,Dagenham
185.182.57.28,4,17,pi4utr.nl,GB,Europe,Northern Europe,United Kingdom,England,Barking and Dagenham,Dagenham
185.182.57.52,4,74,poelmansjan.com,GB,Europe,Northern Europe,United Kingdom,England,Barking and Dagenham,Dagenham
185.182.56.83,4,41,politics.be,GB,Europe,Northern Europe,United Kingdom,England,Barking and Dagenham,Dagenham
185.182.56.169,4,76,prijsvragengala.nl,GB,Europe,Northern Europe,United Kingdom,England,Barking and Dagenham,Dagenham
185.182.59.59,4,15,prosperitas.be,GB,Europe,Northern Europe,United Kingdom,England,Barking and Dagenham,Dagenham
185.182.56.64,4,27,rappe-randonneurs.nl,GB,Europe,Northern Europe,United Kingdom,England,Barking and Dagenham,Dagenham
185.182.57.99,4,21,reallinuxuser.com,GB,Europe,Northern Europe,United Kingdom,England,Barking and Dagenham,Dagenham
185.182.56.160,4,68,reisforum.nl,GB,Europe,Northern Europe,United Kingdom,England,Barking and Dagenham,Dagenham
185.182.56.217,4,17,robertstienezen.nl,GB,Europe,Northern Europe,United Kingdom,England,Barking and Dagenham,Dagenham
185.182.56.220,4,-19,robinrutten.nl,GB,Europe,Northern Europe,United Kingdom,England,Barking and Dagenham,Dagenham
185.182.56.193,4,26,rsgallery2.nl,GB,Europe,Northern Europe,United Kingdom,England,Barking and Dagenham,Dagenham
185.182.57.111,4,37,simoncinicancertherapy.com,GB,Europe,Northern Europe,United Kingdom,England,Barking and Dagenham,Dagenham
185.182.57.243,4,17,smart-repair.nl,GB,Europe,Northern Europe,United Kingdom,England,Barking and Dagenham,Dagenham
185.182.56.24,4,54,solarzaanstad.nl,GB,Europe,Northern Europe,United Kingdom,England,Barking and Dagenham,Dagenham
185.182.56.14,4,2,staaldraadonline.nl,GB,Europe,Northern Europe,United Kingdom,England,Barking and Dagenham,Dagenham
185.182.57.75,4,7,studenten-zorgverzekeringen.nl,GB,Europe,Northern Europe,United Kingdom,England,Barking and Dagenham,Dagenham
185.182.58.19,4,-7,theprisma.co.uk,GB,Europe,Northern Europe,United Kingdom,England,Barking and Dagenham,Dagenham
185.182.56.107,4,42,toporopa.eu,GB,Europe,Northern Europe,United Kingdom,England,Barking and Dagenham,Dagenham
185.182.56.156,4,-12,verhuisbedrijfdelft.nl,GB,Europe,Northern Europe,United Kingdom,England,Barking and Dagenham,Dagenham
185.182.56.167,4,-2,verhuizersrotterdam.nl,GB,Europe,Northern Europe,United Kingdom,England,Barking and Dagenham,Dagenham
185.182.56.211,4,159,vln.nl,GB,Europe,Northern Europe,United Kingdom,England,Barking and Dagenham,Dagenham
185.182.56.191,4,73,voordeligeverhuisservice.nl,GB,Europe,Northern Europe,United Kingdom,England,Barking and Dagenham,Dagenham
185.182.56.48,4,9,watchiwant.com,GB,Europe,Northern Europe,United Kingdom,England,Barking and Dagenham,Dagenham
185.182.56.68,4,23,weaponsystems.net,GB,Europe,Northern Europe,United Kingdom,England,Barking and Dagenham,Dagenham
91.151.10.7,4,25,weather2travel.com,GB,Europe,Northern Europe,United Kingdom,England,Barking and Dagenham,Dagenham
185.182.56.176,4,25,webjoel.nl,GB,Europe,Northern Europe,United Kingdom,England,Barking and Dagenham,Dagenham
185.182.57.101,4,10,westfriesarchief.nl,GB,Europe,Northern Europe,United Kingdom,England,Barking and Dagenham,Dagenham
185.182.59.22,4,19,wilfam.be,GB,Europe,Northern Europe,United Kingdom,England,Barking and Dagenham,Dagenham
185.182.56.134,4,36,wordgumbo.com,GB,Europe,Northern Europe,United Kingdom,England,Barking and Dagenham,Dagenham
185.182.56.93,4,5,world-geography-games.com,GB,Europe,Northern Europe,United Kingdom,England,Barking and Dagenham,Dagenham
185.182.56.12,4,9,wpg.be,GB,Europe,Northern Europe,United Kingdom,England,Barking and Dagenham,Dagenham
185.182.57.107,4,0,zhonghua-hu.be,GB,Europe,Northern Europe,United Kingdom,England,Barking and Dagenham,Dagenham
185.182.56.215,4,12,zuid-frankrijk.net,GB,Europe,Northern Europe,United Kingdom,England,Barking and Dagenham,Dagenham
