reflector_ip,ip_version,offset,description,country_code,region,sub_region,country_name,sub_division_1,sub_division_2,city
54.38.202.55,4,4,2020dodgeram.com,GB,Europe,Northern Europe,United Kingdom,England,Camden,Camden
45.86.153.0,4,4442,as200950.com,GB,Europe,Northern Europe,United Kingdom,England,Camden,Covent Garden
54.38.231.170,4,67,asobostudio.com,GB,Europe,Northern Europe,United Kingdom,England,Camden,Camden
54.38.213.165,4,40,cbdoilforanxiety.co.uk,GB,Europe,Northern Europe,United Kingdom,England,Camden,Camden
54.38.250.116,4,87,chausson.fr,GB,Europe,Northern Europe,United Kingdom,England,Camden,Camden
54.38.195.205,4,4,cracoviamaraton.pl,GB,Europe,Northern Europe,United Kingdom,England,Camden,Camden
54.38.197.247,4,87,digitalnorway.com,GB,Europe,Northern Europe,United Kingdom,England,Camden,Camden
77.44.6.132,4,2493102,DNS Server: 77-44-6-132.xdsl.business-dsl.co.uk,GB,Europe,Northern Europe,United Kingdom,England,Camden,Camden
78.110.164.157,4,41,englishblinds.co.uk,GB,Europe,Northern Europe,United Kingdom,England,Camden,Camden
54.38.230.220,4,5,eurosono.com,GB,Europe,Northern Europe,United Kingdom,England,Camden,Camden
54.38.194.18,4,2,fair.org.eg,GB,Europe,Northern Europe,United Kingdom,England,Camden,Camden
54.38.226.184,4,24,goldiracompanies.net,GB,Europe,Northern Europe,United Kingdom,England,Camden,Camden
54.38.220.84,4,42,hostarea.org,GB,Europe,Northern Europe,United Kingdom,England,Camden,Camden
213.121.189.106,4,-34349,isc.ac.uk,GB,Europe,Northern Europe,United Kingdom,England,Camden,Camden
54.38.214.73,4,33,iso27001security.com,GB,Europe,Northern Europe,United Kingdom,England,Camden,Camden
54.38.230.114,4,13,maxoutil.com,GB,Europe,Northern Europe,United Kingdom,England,Camden,Camden
54.38.230.9,4,11,mention.net,GB,Europe,Northern Europe,United Kingdom,England,Camden,Camden
88.97.38.141,4,47,mess.org,GB,Europe,Northern Europe,United Kingdom,England,Camden,Camden
54.38.232.100,4,29,mistergoodman.fr,GB,Europe,Northern Europe,United Kingdom,England,Camden,Camden
54.38.231.171,4,5,mon-droguiste.com,GB,Europe,Northern Europe,United Kingdom,England,Camden,Camden
54.38.220.85,4,5,mrwa.in,GB,Europe,Northern Europe,United Kingdom,England,Camden,Camden
54.38.195.113,4,4,ngo.pl,GB,Europe,Northern Europe,United Kingdom,England,Camden,Camden
54.38.215.92,4,28,pcuk.org,GB,Europe,Northern Europe,United Kingdom,England,Camden,Camden
54.38.192.55,4,59,pern.pl,GB,Europe,Northern Europe,United Kingdom,England,Camden,Camden
54.38.239.84,4,6,poloralphlaurenfactorystore.org.uk,GB,Europe,Northern Europe,United Kingdom,England,Camden,Camden
54.38.250.4,4,3,qiota.com,GB,Europe,Northern Europe,United Kingdom,England,Camden,Camden
54.38.226.132,4,27,radiopresence.com,GB,Europe,Northern Europe,United Kingdom,England,Camden,Camden
78.110.164.182,4,3,richdiamonds.com,GB,Europe,Northern Europe,United Kingdom,England,Camden,Camden
54.38.216.42,4,22,samedayloansonline.org,GB,Europe,Northern Europe,United Kingdom,England,Camden,Camden
54.38.245.174,4,4,scientelec.fr,GB,Europe,Northern Europe,United Kingdom,England,Camden,Camden
54.38.210.59,4,10,stylonic.nl,GB,Europe,Northern Europe,United Kingdom,England,Camden,Camden
51.155.1.124,4,16,sunderlandmessageboard.co.uk,GB,Europe,Northern Europe,United Kingdom,England,Camden,Camden
54.38.220.184,4,0,sydneylorraine.com,GB,Europe,Northern Europe,United Kingdom,England,Camden,Camden
54.38.193.208,4,1,synonim.net,GB,Europe,Northern Europe,United Kingdom,England,Camden,Camden
54.38.201.206,4,11,willawolnosc.pl,GB,Europe,Northern Europe,United Kingdom,England,Camden,Camden
54.38.193.109,4,35060,zapisz.net,GB,Europe,Northern Europe,United Kingdom,England,Camden,Camden
