reflector_ip,ip_version,offset,description,country_code,region,sub_region,country_name,sub_division_1,sub_division_2,city
45.32.179.232,4,5,accessplace.com,GB,Europe,Northern Europe,United Kingdom,England,Tower Hamlets,Whitechapel
194.146.24.196,4,28,angband.live,GB,Europe,Northern Europe,United Kingdom,England,Tower Hamlets,Canary Wharf
192.248.156.38,4,10,appetitecreative.com,GB,Europe,Northern Europe,United Kingdom,England,Tower Hamlets,Whitechapel
108.61.174.244,4,3,bizwiki.co.uk,GB,Europe,Northern Europe,United Kingdom,England,Tower Hamlets,Whitechapel
78.141.240.254,4,8,brendansadventures.com,GB,Europe,Northern Europe,United Kingdom,England,Tower Hamlets,Whitechapel
89.187.167.238,4,12,champdogs.co.uk,GB,Europe,Northern Europe,United Kingdom,England,Tower Hamlets,Canary Wharf
95.168.184.184,4,29,companydatashop.com,GB,Europe,Northern Europe,United Kingdom,England,Tower Hamlets,Canary Wharf
209.250.231.50,4,84,computationalculture.net,GB,Europe,Northern Europe,United Kingdom,England,Tower Hamlets,Whitechapel
5.253.252.130,4,-3149143546,DNS Server: 5.253.252.130-no-dns-yet.optinet.co.uk,GB,Europe,Northern Europe,United Kingdom,England,Tower Hamlets,Tower Hamlets
5.253.252.232,4,-3891982200,DNS Server: 5.253.252.232-no-dns-yet.optinet.co.uk,GB,Europe,Northern Europe,United Kingdom,England,Tower Hamlets,Tower Hamlets
5.253.253.215,4,-3891982162,DNS Server: 5.253.253.215-no-dns-yet.optinet.co.uk,GB,Europe,Northern Europe,United Kingdom,England,Tower Hamlets,Tower Hamlets
78.141.243.121,4,53,DNS Server: 78.141.243.121.vultrusercontent.com,GB,Europe,Northern Europe,United Kingdom,England,Tower Hamlets,Whitechapel
87.224.37.77,4,22,DNS Server: 87-224-37-77.spitfireuk.net,GB,Europe,Northern Europe,United Kingdom,England,Tower Hamlets,Tower Hamlets
95.179.193.65,4,5,DNS Server: 95.179.193.65.vultrusercontent.com,GB,Europe,Northern Europe,United Kingdom,England,Tower Hamlets,Whitechapel
87.242.227.201,4,-4261146823,DNS Server: host-87-242-227-201.ppp.onetel.net.uk,GB,Europe,Northern Europe,United Kingdom,England,Tower Hamlets,Tower Hamlets
104.238.172.38,4,84,ekips.co.uk,GB,Europe,Northern Europe,United Kingdom,England,Tower Hamlets,Whitechapel
192.248.172.128,4,80,eurydice.org,GB,Europe,Northern Europe,United Kingdom,England,Tower Hamlets,Whitechapel
45.76.139.61,4,12,exclusive-networks.com,GB,Europe,Northern Europe,United Kingdom,England,Tower Hamlets,Whitechapel
212.69.36.144,4,22,fast-rewind.com,GB,Europe,Northern Europe,United Kingdom,England,Tower Hamlets,Canary Wharf
45.77.59.245,4,39,fighterjetsworld.com,GB,Europe,Northern Europe,United Kingdom,England,Tower Hamlets,Whitechapel
103.105.50.114,4,11,firegirls.co.il,GB,Europe,Northern Europe,United Kingdom,England,Tower Hamlets,Canary Wharf
212.69.40.200,4,2,footballsquads.co.uk,GB,Europe,Northern Europe,United Kingdom,England,Tower Hamlets,Canary Wharf
209.250.226.140,4,14,for-robots.com,GB,Europe,Northern Europe,United Kingdom,England,Tower Hamlets,Whitechapel
185.164.136.179,4,22,frenchcarforum.co.uk,GB,Europe,Northern Europe,United Kingdom,England,Tower Hamlets,Canary Wharf
209.250.226.118,4,1,fussballtransfers.com,GB,Europe,Northern Europe,United Kingdom,England,Tower Hamlets,Whitechapel
94.229.76.211,4,-437,gogartys.ie,GB,Europe,Northern Europe,United Kingdom,England,Tower Hamlets,Canary Wharf
89.238.176.195,4,3,gonegold.com,GB,Europe,Northern Europe,United Kingdom,England,Tower Hamlets,Canary Wharf
104.238.174.70,4,4,gosvopros.ru,GB,Europe,Northern Europe,United Kingdom,England,Tower Hamlets,Whitechapel
78.141.196.212,4,33,homehow.co.uk,GB,Europe,Northern Europe,United Kingdom,England,Tower Hamlets,Whitechapel
212.69.36.50,4,3,idnet.com,GB,Europe,Northern Europe,United Kingdom,England,Tower Hamlets,Canary Wharf
193.9.113.199,4,38,image-perth.org,GB,Europe,Northern Europe,United Kingdom,England,Tower Hamlets,Canary Wharf
104.238.184.249,4,73,inasp.info,GB,Europe,Northern Europe,United Kingdom,England,Tower Hamlets,Whitechapel
141.98.100.36,4,18,incrysis.com,GB,Europe,Northern Europe,United Kingdom,England,Tower Hamlets,Canary Wharf
95.179.207.208,4,3,inthenews.co.uk,GB,Europe,Northern Europe,United Kingdom,England,Tower Hamlets,Whitechapel
192.248.175.132,4,32,isotonikstudios.com,GB,Europe,Northern Europe,United Kingdom,England,Tower Hamlets,Whitechapel
193.9.113.233,4,4,kccommunitynews.com,GB,Europe,Northern Europe,United Kingdom,England,Tower Hamlets,Canary Wharf
95.179.200.247,4,-103,lemmy.studio,GB,Europe,Northern Europe,United Kingdom,England,Tower Hamlets,Whitechapel
192.248.156.195,4,9,liamyoung.org,GB,Europe,Northern Europe,United Kingdom,England,Tower Hamlets,Whitechapel
45.76.143.90,4,5,livingreading.co.uk,GB,Europe,Northern Europe,United Kingdom,England,Tower Hamlets,Whitechapel
78.141.201.202,4,4,lnreview.co.uk,GB,Europe,Northern Europe,United Kingdom,England,Tower Hamlets,Whitechapel
45.77.58.123,4,222,muscletalk.co.uk,GB,Europe,Northern Europe,United Kingdom,England,Tower Hamlets,Whitechapel
104.238.173.176,4,30,myfreeoffice.com,GB,Europe,Northern Europe,United Kingdom,England,Tower Hamlets,Whitechapel
95.179.199.157,4,17,mythindex.com,GB,Europe,Northern Europe,United Kingdom,England,Tower Hamlets,Whitechapel
45.76.129.44,4,6,nextag.co.uk,GB,Europe,Northern Europe,United Kingdom,England,Tower Hamlets,Whitechapel
213.255.246.31,4,11,night.dog,GB,Europe,Northern Europe,United Kingdom,England,Tower Hamlets,Canary Wharf
185.30.233.241,4,4,nyweedlove.com,GB,Europe,Northern Europe,United Kingdom,England,Tower Hamlets,Canary Wharf
45.77.231.154,4,5,oldpulteney.com,GB,Europe,Northern Europe,United Kingdom,England,Tower Hamlets,Whitechapel
185.225.24.21,4,308,Ookla Speedtest Server 14283: speedtest.london.macarne.com,GB,Europe,Northern Europe,United Kingdom,England,Tower Hamlets,Tower Hamlets
197.148.66.54,4,215,Ookla Speedtest Server 16657: speedtest-ld8.mindthespeed.co.za,GB,Europe,Northern Europe,United Kingdom,England,Tower Hamlets,Tower Hamlets
212.82.94.119,4,223,Ookla Speedtest Server 46783: speedtest-london.its-tg.net,GB,Europe,Northern Europe,United Kingdom,England,Tower Hamlets,Canary Wharf
212.69.36.27,4,336,Ookla Speedtest Server 48505: ookla.idnet.net,GB,Europe,Northern Europe,United Kingdom,England,Tower Hamlets,Canary Wharf
185.121.24.2,4,294,Ookla Speedtest Server 58517: speedtest-lhr-01.pdx.net.uk,GB,Europe,Northern Europe,United Kingdom,England,Tower Hamlets,Tower Hamlets
46.227.207.14,4,369,Ookla Speedtest Server 59128: ixn.lon.uk.speedtest.faelix.net,GB,Europe,Northern Europe,United Kingdom,England,Tower Hamlets,Canary Wharf
102.177.127.130,4,164406,Ookla Speedtest Server 64387: ldn.speedtest.cmcnetworks.net,GB,Europe,Northern Europe,United Kingdom,England,Tower Hamlets,Tower Hamlets
45.76.142.15,4,3,orlan.net,GB,Europe,Northern Europe,United Kingdom,England,Tower Hamlets,Whitechapel
103.163.187.2,4,21,owngoalnigeria.com,GB,Europe,Northern Europe,United Kingdom,England,Tower Hamlets,Tower Hamlets
136.244.77.252,4,25,oxfordanimalethics.com,GB,Europe,Northern Europe,United Kingdom,England,Tower Hamlets,Whitechapel
45.32.176.201,4,27,peelhotels.co.uk,GB,Europe,Northern Europe,United Kingdom,England,Tower Hamlets,Whitechapel
192.248.162.241,4,43,pickmypostcode.com,GB,Europe,Northern Europe,United Kingdom,England,Tower Hamlets,Whitechapel
185.245.83.196,4,30,portobelloroad.co.uk,GB,Europe,Northern Europe,United Kingdom,England,Tower Hamlets,Canary Wharf
213.255.246.98,4,46,realmuscleforum.com,GB,Europe,Northern Europe,United Kingdom,England,Tower Hamlets,Canary Wharf
192.248.161.208,4,30,redaragon.com,GB,Europe,Northern Europe,United Kingdom,England,Tower Hamlets,Whitechapel
213.255.246.173,4,30,retrobike.co.uk,GB,Europe,Northern Europe,United Kingdom,England,Tower Hamlets,Canary Wharf
192.248.175.241,4,11,rezervasyonal.com,GB,Europe,Northern Europe,United Kingdom,England,Tower Hamlets,Whitechapel
185.245.83.125,4,1,rivmedia.co.uk,GB,Europe,Northern Europe,United Kingdom,England,Tower Hamlets,Canary Wharf
185.198.188.191,4,747,scottcinemas.co.uk,GB,Europe,Northern Europe,United Kingdom,England,Tower Hamlets,Canary Wharf
185.212.168.37,4,10,smokinaces.net,GB,Europe,Northern Europe,United Kingdom,England,Tower Hamlets,Canary Wharf
45.77.89.224,4,59,starkmedmotion.se,GB,Europe,Northern Europe,United Kingdom,England,Tower Hamlets,Whitechapel
185.42.222.171,4,27,thecinemalaser.com,GB,Europe,Northern Europe,United Kingdom,England,Tower Hamlets,Canary Wharf
185.42.222.172,4,2,thecinemalaser.com,GB,Europe,Northern Europe,United Kingdom,England,Tower Hamlets,Canary Wharf
78.141.233.10,4,50536,torresjrjr.com,GB,Europe,Northern Europe,United Kingdom,England,Tower Hamlets,Whitechapel
209.250.228.113,4,36,travellerrpg.com,GB,Europe,Northern Europe,United Kingdom,England,Tower Hamlets,Whitechapel
45.32.179.19,4,3,tseliot.com,GB,Europe,Northern Europe,United Kingdom,England,Tower Hamlets,Whitechapel
94.229.73.130,4,10,tunes-interiors.com,GB,Europe,Northern Europe,United Kingdom,England,Tower Hamlets,Canary Wharf
185.127.16.115,4,633,unmillenniumproject.org,GB,Europe,Northern Europe,United Kingdom,England,Tower Hamlets,Canary Wharf
78.141.226.157,4,21,usdnaira.com,GB,Europe,Northern Europe,United Kingdom,England,Tower Hamlets,Whitechapel
104.238.184.244,4,19,vholdr.com,GB,Europe,Northern Europe,United Kingdom,England,Tower Hamlets,Whitechapel
213.255.246.100,4,2,vwcaliforniaclub.com,GB,Europe,Northern Europe,United Kingdom,England,Tower Hamlets,Canary Wharf
45.77.227.62,4,52,webb-handel.se,GB,Europe,Northern Europe,United Kingdom,England,Tower Hamlets,Whitechapel
192.248.173.67,4,46,website.review,GB,Europe,Northern Europe,United Kingdom,England,Tower Hamlets,Whitechapel
217.138.195.83,4,6,witopia.com,GB,Europe,Northern Europe,United Kingdom,England,Tower Hamlets,Canary Wharf
95.179.206.236,4,79,xn--hobbyhjlp-12a.se,GB,Europe,Northern Europe,United Kingdom,England,Tower Hamlets,Whitechapel
45.76.130.62,4,4,xn--nyhedsvrdi-j6a.dk,GB,Europe,Northern Europe,United Kingdom,England,Tower Hamlets,Whitechapel
209.250.224.135,4,3,xn--upplevelserfralla-b0b.se,GB,Europe,Northern Europe,United Kingdom,England,Tower Hamlets,Whitechapel
78.141.229.29,4,52,zagdaily.com,GB,Europe,Northern Europe,United Kingdom,England,Tower Hamlets,Whitechapel
192.248.156.201,4,10,zebrabi.com,GB,Europe,Northern Europe,United Kingdom,England,Tower Hamlets,Whitechapel
45.32.183.112,4,5,zebrabi.com,GB,Europe,Northern Europe,United Kingdom,England,Tower Hamlets,Whitechapel
95.179.193.19,4,9,zeissopticians.co.uk,GB,Europe,Northern Europe,United Kingdom,England,Tower Hamlets,Whitechapel
185.237.13.238,4,2,zimamagazine.com,GB,Europe,Northern Europe,United Kingdom,England,Tower Hamlets,Canary Wharf
