reflector_ip,ip_version,offset,description,country_code,region,sub_region,country_name,sub_division_1,sub_division_2,city
65.20.76.97,4,-13,3nions.com,IN,Asia,Southern Asia,India,Maharashtra,,Mumbai
217.21.84.56,4,-32,44phone.com,IN,Asia,Southern Asia,India,Maharashtra,,Mumbai
154.41.234.88,4,-22,7eventzz.com,IN,Asia,Southern Asia,India,Maharashtra,,Mumbai
157.173.216.33,4,-24,82lottery.in,IN,Asia,Southern Asia,India,Maharashtra,,Mumbai
13.126.165.67,4,-2,91-cdn.com,IN,Asia,Southern Asia,India,Maharashtra,,Mumbai
178.16.136.98,4,-22,988betvn.net,IN,Asia,Southern Asia,India,Maharashtra,,Mumbai
3.108.140.77,4,-2,aaft.com,IN,Asia,Southern Asia,India,Maharashtra,,Mumbai
82.112.228.17,4,-23,aahanagroups.com,IN,Asia,Southern Asia,India,Maharashtra,,Mumbai
217.21.85.119,4,-22,abcrnews.com,IN,Asia,Southern Asia,India,Maharashtra,,Mumbai
93.127.208.100,4,-21,abhira.in,IN,Asia,Southern Asia,India,Maharashtra,,Mumbai
91.108.107.75,4,-21,abookmarking.com,IN,Asia,Southern Asia,India,Maharashtra,,Mumbai
89.117.157.92,4,-8,acharyamarathecollege.in,IN,Asia,Southern Asia,India,Maharashtra,,Mumbai
89.117.245.193,4,-15,actascientific.com,IN,Asia,Southern Asia,India,Maharashtra,,Mumbai
82.112.232.32,4,-20,actlings.com,IN,Asia,Southern Asia,India,Maharashtra,,Mumbai
114.143.200.242,4,-187104,actrec.gov.in,IN,Asia,Southern Asia,India,Maharashtra,,Mumbai
14.139.127.177,4,-187134,actrec.gov.in,IN,Asia,Southern Asia,India,Maharashtra,,Mumbai
13.234.95.152,4,-7,adgully.com,IN,Asia,Southern Asia,India,Maharashtra,,Mumbai
193.203.185.56,4,-14,adityaravishankar.com,IN,Asia,Southern Asia,India,Maharashtra,,Mumbai
89.117.188.220,4,11,ads2day.in,IN,Asia,Southern Asia,India,Maharashtra,,Mumbai
217.21.95.120,4,10,adswel.com,IN,Asia,Southern Asia,India,Maharashtra,,Mumbai
82.112.239.138,4,-21,aifpa.net,IN,Asia,Southern Asia,India,Maharashtra,,Mumbai
89.117.157.223,4,-14,ainetx.com,IN,Asia,Southern Asia,India,Maharashtra,,Mumbai
193.203.186.77,4,-20,airlinerpro.com,IN,Asia,Southern Asia,India,Maharashtra,,Mumbai
91.108.107.244,4,-24,ajankari.com,IN,Asia,Southern Asia,India,Maharashtra,,Mumbai
89.117.157.12,4,1,alletec.com,IN,Asia,Southern Asia,India,Maharashtra,,Mumbai
86.38.243.233,4,-21,allindiaescort.com,IN,Asia,Southern Asia,India,Maharashtra,,Mumbai
103.115.19.90,4,-30,allindiajobalerts.in,IN,Asia,Southern Asia,India,Maharashtra,,Mumbai
217.21.87.117,4,-13434,allsocialpannal.com,IN,Asia,Southern Asia,India,Maharashtra,,Mumbai
43.204.245.114,4,35,altbalaji.com,IN,Asia,Southern Asia,India,Maharashtra,,Mumbai
194.195.112.127,4,74,altnews.in,IN,Asia,Southern Asia,India,Maharashtra,,Mumbai
82.112.228.22,4,-25,amodinisystems.com,IN,Asia,Southern Asia,India,Maharashtra,,Mumbai
148.113.20.118,4,-6,amrapalijewels.com,IN,Asia,Southern Asia,India,Maharashtra,,Mumbai
157.173.216.90,4,-18,amrutdistilleries.com,IN,Asia,Southern Asia,India,Maharashtra,,Mumbai
13.235.204.31,4,26,analyticssteps.com,IN,Asia,Southern Asia,India,Maharashtra,,Mumbai
82.180.143.156,4,-4,anandgholap.net,IN,Asia,Southern Asia,India,Maharashtra,,Mumbai
217.21.89.159,4,26,androidnations.com,IN,Asia,Southern Asia,India,Maharashtra,,Mumbai
3.7.88.134,4,-165,appaswamy.com,IN,Asia,Southern Asia,India,Maharashtra,,Mumbai
3.6.24.4,4,14,appicial.com,IN,Asia,Southern Asia,India,Maharashtra,,Mumbai
82.112.229.14,4,-20,apressthemes.com,IN,Asia,Southern Asia,India,Maharashtra,,Mumbai
88.222.246.98,4,-23,archiesonline.com,IN,Asia,Southern Asia,India,Maharashtra,,Mumbai
89.117.188.207,4,-16,aromasofcoorg.com,IN,Asia,Southern Asia,India,Maharashtra,,Mumbai
178.16.136.234,4,-21,aroomittal.in,IN,Asia,Southern Asia,India,Maharashtra,,Mumbai
82.112.229.222,4,-14,arshadjamalchairmanmau.com,IN,Asia,Southern Asia,India,Maharashtra,,Mumbai
217.21.87.228,4,18928,artsspecial.com,IN,Asia,Southern Asia,India,Maharashtra,,Mumbai
82.112.229.218,4,-22,ashokkilam.com,IN,Asia,Southern Asia,India,Maharashtra,,Mumbai
13.234.134.134,4,-3,asianclinic.in,IN,Asia,Southern Asia,India,Maharashtra,,Mumbai
154.41.233.179,4,-18,askcorran.com,IN,Asia,Southern Asia,India,Maharashtra,,Mumbai
82.180.143.75,4,-25,astrologyswami.com,IN,Asia,Southern Asia,India,Maharashtra,,Mumbai
3.6.187.241,4,0,astrotalk.com,IN,Asia,Southern Asia,India,Maharashtra,,Mumbai
3.111.205.155,4,1,astrotalk.com,IN,Asia,Southern Asia,India,Maharashtra,,Mumbai
77.37.46.250,4,-9,astrovalue.com,IN,Asia,Southern Asia,India,Maharashtra,,Mumbai
89.117.188.242,4,-18,atellier.in,IN,Asia,Southern Asia,India,Maharashtra,,Mumbai
46.28.45.89,4,-20,atmaaims.com,IN,Asia,Southern Asia,India,Maharashtra,,Mumbai
88.222.247.235,4,-26,atoallinks.com,IN,Asia,Southern Asia,India,Maharashtra,,Mumbai
195.35.44.215,4,-19,attarwale.com,IN,Asia,Southern Asia,India,Maharashtra,,Mumbai
13.234.157.62,4,-4,autox.com,IN,Asia,Southern Asia,India,Maharashtra,,Mumbai
82.112.232.155,4,-22,avapro24.com,IN,Asia,Southern Asia,India,Maharashtra,,Mumbai
217.21.94.24,4,-16,axenontech.com,IN,Asia,Southern Asia,India,Maharashtra,,Mumbai
148.113.8.71,4,-2,ayurastroyoga.com,IN,Asia,Southern Asia,India,Maharashtra,,Mumbai
93.127.207.2,4,-23,babynamemeaningz.com,IN,Asia,Southern Asia,India,Maharashtra,,Mumbai
82.180.143.216,4,-13,backlinktrap.com,IN,Asia,Southern Asia,India,Maharashtra,,Mumbai
62.72.59.82,4,-15,backtooriginal.com,IN,Asia,Southern Asia,India,Maharashtra,,Mumbai
34.47.156.204,4,12,badabusiness.com,IN,Asia,Southern Asia,India,Maharashtra,,Mumbai
154.41.233.44,4,-21,bangalorenyt.in,IN,Asia,Southern Asia,India,Maharashtra,,Mumbai
91.108.107.163,4,-21,basicinfohub.com,IN,Asia,Southern Asia,India,Maharashtra,,Mumbai
193.203.185.217,4,-12,beadandbutton.com,IN,Asia,Southern Asia,India,Maharashtra,,Mumbai
103.211.217.180,4,-23,becomingias.com,IN,Asia,Southern Asia,India,Maharashtra,,Mumbai
89.117.188.189,4,-20,belgaumonline.com,IN,Asia,Southern Asia,India,Maharashtra,,Mumbai
35.244.60.162,4,19,betaout.com,IN,Asia,Southern Asia,India,Maharashtra,,Mumbai
89.117.157.102,4,-14,bhaijiworks.com,IN,Asia,Southern Asia,India,Maharashtra,,Mumbai
103.14.99.44,4,-20,bharatbook.com,IN,Asia,Southern Asia,India,Maharashtra,,Mumbai
88.222.241.87,4,-23,biharhelp.in,IN,Asia,Southern Asia,India,Maharashtra,,Mumbai
13.201.223.132,4,199064,bikaji.com,IN,Asia,Southern Asia,India,Maharashtra,,Mumbai
217.21.85.161,4,-21,bioguru.in,IN,Asia,Southern Asia,India,Maharashtra,,Mumbai
154.56.54.107,4,-20,biospectrumasia.com,IN,Asia,Southern Asia,India,Maharashtra,,Mumbai
62.72.14.51,4,-18,biospectrumindia.com,IN,Asia,Southern Asia,India,Maharashtra,,Mumbai
82.112.238.215,4,-4,birdsnbees.co.id,IN,Asia,Southern Asia,India,Maharashtra,,Mumbai
89.117.27.67,4,-13,birlatrimayaa.in,IN,Asia,Southern Asia,India,Maharashtra,,Mumbai
172.105.57.49,4,86194,bisleri.com,IN,Asia,Southern Asia,India,Maharashtra,,Mumbai
141.148.211.159,4,-19,bits-pilani.ac.in,IN,Asia,Southern Asia,India,Maharashtra,,Mumbai
46.28.47.25,4,-24,bizz4me.com,IN,Asia,Southern Asia,India,Maharashtra,,Mumbai
154.41.233.12,4,-19,bizzeonline.com,IN,Asia,Southern Asia,India,Maharashtra,,Mumbai
148.113.26.11,4,-155449,blisswebservices.com,IN,Asia,Southern Asia,India,Maharashtra,,Mumbai
193.203.185.96,4,-15,blogbursts.in,IN,Asia,Southern Asia,India,Maharashtra,,Mumbai
154.41.255.152,4,-22,blogdu.de,IN,Asia,Southern Asia,India,Maharashtra,,Mumbai
89.117.157.160,4,-16,blogearns.com,IN,Asia,Southern Asia,India,Maharashtra,,Mumbai
193.203.185.193,4,15,blogsflu.com,IN,Asia,Southern Asia,India,Maharashtra,,Mumbai
89.117.27.20,4,-23,blueweaveconsulting.com,IN,Asia,Southern Asia,India,Maharashtra,,Mumbai
3.110.246.34,4,0,bmu.edu.in,IN,Asia,Southern Asia,India,Maharashtra,,Mumbai
157.173.216.30,4,7,bongroup.org,IN,Asia,Southern Asia,India,Maharashtra,,Mumbai
45.79.123.93,4,-20,bookmein.in,IN,Asia,Southern Asia,India,Maharashtra,,Mumbai
46.28.45.79,4,33,bookviewzine.com,IN,Asia,Southern Asia,India,Maharashtra,,Mumbai
35.200.215.198,4,13,bounceinfinity.com,IN,Asia,Southern Asia,India,Maharashtra,,Mumbai
14.0.60.118,4,-10,bouncingball8-bd.com,IN,Asia,Southern Asia,India,Maharashtra,,Mumbai
89.117.188.234,4,-23,braceportdentistry.com,IN,Asia,Southern Asia,India,Maharashtra,,Mumbai
172.105.40.71,4,-21,brandknewmag.com,IN,Asia,Southern Asia,India,Maharashtra,,Mumbai
45.79.124.115,4,-14,brazzilmag.com,IN,Asia,Southern Asia,India,Maharashtra,,Mumbai
86.38.243.120,4,-17,breakout.in,IN,Asia,Southern Asia,India,Maharashtra,,Mumbai
89.117.27.66,4,-21,breezedecorators.com,IN,Asia,Southern Asia,India,Maharashtra,,Mumbai
154.56.52.204,4,-24,browntape.com,IN,Asia,Southern Asia,India,Maharashtra,,Mumbai
82.112.232.166,4,-23,bubblyhub.in,IN,Asia,Southern Asia,India,Maharashtra,,Mumbai
3.6.57.174,4,10,buildnext.in,IN,Asia,Southern Asia,India,Maharashtra,,Mumbai
15.206.119.39,4,6,businessmarketinsights.com,IN,Asia,Southern Asia,India,Maharashtra,,Mumbai
89.117.188.104,4,-25,businessnewsblog.net,IN,Asia,Southern Asia,India,Maharashtra,,Mumbai
154.41.233.140,4,-25,buyertimes.co.in,IN,Asia,Southern Asia,India,Maharashtra,,Mumbai
217.21.85.164,4,-19,buyyoutubeviewsindia.in,IN,Asia,Southern Asia,India,Maharashtra,,Mumbai
103.211.217.43,4,-19,bylancer.com,IN,Asia,Southern Asia,India,Maharashtra,,Mumbai
3.111.254.110,4,20,cabsat.com,IN,Asia,Southern Asia,India,Maharashtra,,Mumbai
194.238.17.151,4,-9,callgirlanytimes.com,IN,Asia,Southern Asia,India,Maharashtra,,Mumbai
62.72.28.242,4,19,callgirljodhpur.in,IN,Asia,Southern Asia,India,Maharashtra,,Mumbai
82.112.239.203,4,-18,callgirlsinnoida247.com,IN,Asia,Southern Asia,India,Maharashtra,,Mumbai
62.72.28.230,4,-19,callgirlvaranasi.in,IN,Asia,Southern Asia,India,Maharashtra,,Mumbai
89.117.157.225,4,-15,callmaya.in,IN,Asia,Southern Asia,India,Maharashtra,,Mumbai
217.21.90.100,4,-24,canvaslock.com,IN,Asia,Southern Asia,India,Maharashtra,,Mumbai
89.117.27.190,4,-23,carboncopy.info,IN,Asia,Southern Asia,India,Maharashtra,,Mumbai
217.21.91.152,4,-20,careerswami.com,IN,Asia,Southern Asia,India,Maharashtra,,Mumbai
157.173.216.222,4,-14,casinogrowthx.com,IN,Asia,Southern Asia,India,Maharashtra,,Mumbai
89.117.188.213,4,51,catchflame.com,IN,Asia,Southern Asia,India,Maharashtra,,Mumbai
172.105.39.27,4,-25,cdhfinechemical.com,IN,Asia,Southern Asia,India,Maharashtra,,Mumbai
82.112.232.90,4,-26,chandaokelle.com,IN,Asia,Southern Asia,India,Maharashtra,,Mumbai
89.116.133.145,4,-18,cheapciali.com,IN,Asia,Southern Asia,India,Maharashtra,,Mumbai
154.56.53.18,4,21,cheesehouse.com,IN,Asia,Southern Asia,India,Maharashtra,,Mumbai
86.38.243.40,4,-25,chinamarket.lk,IN,Asia,Southern Asia,India,Maharashtra,,Mumbai
89.117.188.187,4,-3,chromadent.com,IN,Asia,Southern Asia,India,Maharashtra,,Mumbai
89.117.188.132,4,-26,circularsawsindia.com,IN,Asia,Southern Asia,India,Maharashtra,,Mumbai
82.112.229.228,4,-10,civilnoteppt.com,IN,Asia,Southern Asia,India,Maharashtra,,Mumbai
193.202.45.16,4,-24,civilsir.com,IN,Asia,Southern Asia,India,Maharashtra,,Mumbai
148.113.1.196,4,6,cknaircollege.com,IN,Asia,Southern Asia,India,Maharashtra,,Mumbai
217.21.84.247,4,-19,classchalo.com,IN,Asia,Southern Asia,India,Maharashtra,,Mumbai
94.136.188.144,4,-23,classifiedsgulf.com,IN,Asia,Southern Asia,India,Maharashtra,,Mumbai
46.28.47.235,4,-17,classyescortschennai.com,IN,Asia,Southern Asia,India,Maharashtra,,Mumbai
82.112.232.230,4,30,claverfox.com,IN,Asia,Southern Asia,India,Maharashtra,,Mumbai
13.127.198.123,4,0,clickastro.com,IN,Asia,Southern Asia,India,Maharashtra,,Mumbai
3.7.132.19,4,-3,clickastro.com,IN,Asia,Southern Asia,India,Maharashtra,,Mumbai
43.204.182.139,4,-3,clickastro.com,IN,Asia,Southern Asia,India,Maharashtra,,Mumbai
43.204.18.143,4,6,clinicspots.com,IN,Asia,Southern Asia,India,Maharashtra,,Mumbai
178.16.136.189,4,-15,coderduck.com,IN,Asia,Southern Asia,India,Maharashtra,,Mumbai
91.108.107.18,4,-20,codingeek.com,IN,Asia,Southern Asia,India,Maharashtra,,Mumbai
217.21.87.253,4,18964,comalhandicraftleatherbag.com,IN,Asia,Southern Asia,India,Maharashtra,,Mumbai
217.21.94.46,4,-26,content-whale.com,IN,Asia,Southern Asia,India,Maharashtra,,Mumbai
157.173.216.160,4,-16,controlf5.in,IN,Asia,Southern Asia,India,Maharashtra,,Mumbai
82.180.142.109,4,-13,coolbreezelaundry.ae,IN,Asia,Southern Asia,India,Maharashtra,,Mumbai
194.61.31.157,4,5,countryclubmembership.in,IN,Asia,Southern Asia,India,Maharashtra,,Mumbai
89.116.133.51,4,-22,cpx-traffic.com,IN,Asia,Southern Asia,India,Maharashtra,,Mumbai
89.116.134.215,4,-17,craftyartapp.com,IN,Asia,Southern Asia,India,Maharashtra,,Mumbai
93.127.167.229,4,-22,croozi.com,IN,Asia,Southern Asia,India,Maharashtra,,Mumbai
86.38.243.201,4,-24,crvat.com,IN,Asia,Southern Asia,India,Maharashtra,,Mumbai
82.112.239.202,4,-23,cryptoalertscam.com,IN,Asia,Southern Asia,India,Maharashtra,,Mumbai
62.72.31.111,4,-22,cryptoknowmics.com,IN,Asia,Southern Asia,India,Maharashtra,,Mumbai
89.117.188.58,4,-20,ctgarl.com,IN,Asia,Southern Asia,India,Maharashtra,,Mumbai
35.244.58.167,4,13,cureskin.com,IN,Asia,Southern Asia,India,Maharashtra,,Mumbai
148.113.20.155,4,-30,cyanogenmods.org,IN,Asia,Southern Asia,India,Maharashtra,,Mumbai
91.108.107.92,4,-21,cyberpandit.org,IN,Asia,Southern Asia,India,Maharashtra,,Mumbai
82.112.228.8,4,-18,dangalgym.com,IN,Asia,Southern Asia,India,Maharashtra,,Mumbai
217.21.84.253,4,165,dassurgicals.com,IN,Asia,Southern Asia,India,Maharashtra,,Mumbai
213.210.21.50,4,-20,dealsshutter.com,IN,Asia,Southern Asia,India,Maharashtra,,Mumbai
45.79.122.222,4,-29,delhi-escorts.in,IN,Asia,Southern Asia,India,Maharashtra,,Mumbai
82.180.142.134,4,-13,delhiescortss.com,IN,Asia,Southern Asia,India,Maharashtra,,Mumbai
195.35.22.161,4,-21,delhimazza.com,IN,Asia,Southern Asia,India,Maharashtra,,Mumbai
89.117.157.244,4,-2,delhinyt.in,IN,Asia,Southern Asia,India,Maharashtra,,Mumbai
89.117.27.2,4,-20,delhitechnicalcampus.com,IN,Asia,Southern Asia,India,Maharashtra,,Mumbai
86.38.243.116,4,31,desertthemes.com,IN,Asia,Southern Asia,India,Maharashtra,,Mumbai
13.234.151.91,4,25,deshabhimani.com,IN,Asia,Southern Asia,India,Maharashtra,,Mumbai
45.79.127.53,4,-12,devalt.org,IN,Asia,Southern Asia,India,Maharashtra,,Mumbai
89.116.133.125,4,-18,devbhoomimedia.com,IN,Asia,Southern Asia,India,Maharashtra,,Mumbai
82.112.232.244,4,-26,devdigitalmedia.com,IN,Asia,Southern Asia,India,Maharashtra,,Mumbai
93.127.198.174,4,-22,dewabalak66.blog,IN,Asia,Southern Asia,India,Maharashtra,,Mumbai
172.105.55.23,4,-22,dhakachamber.com,IN,Asia,Southern Asia,India,Maharashtra,,Mumbai
82.112.229.238,4,-16,dianaescorts.in,IN,Asia,Southern Asia,India,Maharashtra,,Mumbai
89.117.157.109,4,-18,digeefy.com,IN,Asia,Southern Asia,India,Maharashtra,,Mumbai
149.100.147.116,4,-19,digiperform.com,IN,Asia,Southern Asia,India,Maharashtra,,Mumbai
82.180.143.96,4,41,digitallycrowd.com,IN,Asia,Southern Asia,India,Maharashtra,,Mumbai
82.112.232.79,4,-24,digitalsmagazine.com,IN,Asia,Southern Asia,India,Maharashtra,,Mumbai
193.203.185.128,4,-22,digitalvishnuacademy.in,IN,Asia,Southern Asia,India,Maharashtra,,Mumbai
156.67.105.170,4,-21,dmcalumniaus.org,IN,Asia,Southern Asia,India,Maharashtra,,Mumbai
89.117.157.116,4,-19,dmsdiagnostics.com,IN,Asia,Southern Asia,India,Maharashtra,,Mumbai
154.56.53.29,4,-18,dnaforensics.in,IN,Asia,Southern Asia,India,Maharashtra,,Mumbai
103.27.48.10,4,110351,DNS Server: 103.27.48.10.balajibroadband.com,IN,Asia,Southern Asia,India,Maharashtra,,Mumbai
27.0.56.150,4,19720847,DNS Server: 150-56-0-27.vasaicable.co.in,IN,Asia,Southern Asia,India,Maharashtra,,Mumbai
183.87.161.86,4,32795,DNS Server: 183.87.161.86.server.jprdigital.net,IN,Asia,Southern Asia,India,Maharashtra,,Mumbai
115.69.240.6,4,203,DNS Server: 6-240-69-115.vasaicable.co.in,IN,Asia,Southern Asia,India,Maharashtra,,Mumbai
182.70.125.244,4,369,DNS Server: abts-mum-static-244.125.70.182.airtelbroadband.in,IN,Asia,Southern Asia,India,Maharashtra,,Mumbai
35.154.249.83,4,52,DNS Server: ec2-35-154-249-83.ap-south-1.compute.amazonaws.com,IN,Asia,Southern Asia,India,Maharashtra,,Mumbai
182.71.145.153,4,-3617350313,DNS Server: nsg-static-153.145.71.182.airtel.in,IN,Asia,Southern Asia,India,Maharashtra,,Mumbai
13.126.61.105,4,21,doceree.com,IN,Asia,Southern Asia,India,Maharashtra,,Mumbai
52.66.98.88,4,38,doceree.com,IN,Asia,Southern Asia,India,Maharashtra,,Mumbai
193.203.161.179,4,-22,dostally.com,IN,Asia,Southern Asia,India,Maharashtra,,Mumbai
148.113.24.31,4,961,dragracingonline.com,IN,Asia,Southern Asia,India,Maharashtra,,Mumbai
217.21.87.187,4,-6,dralthaidi.com,IN,Asia,Southern Asia,India,Maharashtra,,Mumbai
82.180.164.145,4,29,drchonkarclinic.com,IN,Asia,Southern Asia,India,Maharashtra,,Mumbai
178.16.136.59,4,-37,drddvichitra.com,IN,Asia,Southern Asia,India,Maharashtra,,Mumbai
93.127.208.32,4,10,dreamzplacement.com,IN,Asia,Southern Asia,India,Maharashtra,,Mumbai
82.112.232.185,4,-4,dricki.com,IN,Asia,Southern Asia,India,Maharashtra,,Mumbai
192.177.75.159,4,-30,dsrvsindia.ac.in,IN,Asia,Southern Asia,India,Maharashtra,,Mumbai
13.127.33.231,4,-4,ducatindia.com,IN,Asia,Southern Asia,India,Maharashtra,,Mumbai
35.154.148.223,4,27,ducatindia.com,IN,Asia,Southern Asia,India,Maharashtra,,Mumbai
82.180.166.103,4,-24,dynamichealthstaff.com,IN,Asia,Southern Asia,India,Maharashtra,,Mumbai
172.105.59.136,4,-27,dynamitenews.com,IN,Asia,Southern Asia,India,Maharashtra,,Mumbai
46.28.47.141,4,-23,e-startupindia.com,IN,Asia,Southern Asia,India,Maharashtra,,Mumbai
194.195.112.221,4,-27,eaitsm.org,IN,Asia,Southern Asia,India,Maharashtra,,Mumbai
157.173.216.144,4,4,earthcycle.io,IN,Asia,Southern Asia,India,Maharashtra,,Mumbai
93.127.208.208,4,-24,ecoprotection.in,IN,Asia,Southern Asia,India,Maharashtra,,Mumbai
82.180.143.188,4,20,edchart.com,IN,Asia,Southern Asia,India,Maharashtra,,Mumbai
82.180.142.139,4,-7,eduindianews.com,IN,Asia,Southern Asia,India,Maharashtra,,Mumbai
82.180.166.250,4,-13,elen.in,IN,Asia,Southern Asia,India,Maharashtra,,Mumbai
93.127.208.221,4,-5,elitecools.com,IN,Asia,Southern Asia,India,Maharashtra,,Mumbai
178.16.136.247,4,20,eliteias.in,IN,Asia,Southern Asia,India,Maharashtra,,Mumbai
172.105.33.197,4,-26,elthelpline.com,IN,Asia,Southern Asia,India,Maharashtra,,Mumbai
217.21.84.2,4,-33,emailscrunch.com,IN,Asia,Southern Asia,India,Maharashtra,,Mumbai
3.6.158.92,4,-3,emiprotechnologies.com,IN,Asia,Southern Asia,India,Maharashtra,,Mumbai
82.180.164.172,4,15,empirenewswire.com,IN,Asia,Southern Asia,India,Maharashtra,,Mumbai
86.38.243.105,4,-18,enjoydelhi.in,IN,Asia,Southern Asia,India,Maharashtra,,Mumbai
89.117.188.110,4,-22,enrichingjourneys.com,IN,Asia,Southern Asia,India,Maharashtra,,Mumbai
129.226.35.231,4,0,epicmilling.com,IN,Asia,Southern Asia,India,Maharashtra,,Mumbai
3.109.255.192,4,0,equitypandit.com,IN,Asia,Southern Asia,India,Maharashtra,,Mumbai
195.35.4.132,4,1,eurodoor.in,IN,Asia,Southern Asia,India,Maharashtra,,Mumbai
3.110.34.161,4,41,euroschoolindia.com,IN,Asia,Southern Asia,India,Maharashtra,,Mumbai
62.72.28.123,4,-22,evts.co.in,IN,Asia,Southern Asia,India,Maharashtra,,Mumbai
192.46.209.114,4,-5,exceldatapro.com,IN,Asia,Southern Asia,India,Maharashtra,,Mumbai
172.105.63.144,4,-22,exploreyourcities.com,IN,Asia,Southern Asia,India,Maharashtra,,Mumbai
82.112.232.148,4,-18,ezine-articles.com,IN,Asia,Southern Asia,India,Maharashtra,,Mumbai
89.116.133.132,4,-23,ezineblog.org,IN,Asia,Southern Asia,India,Maharashtra,,Mumbai
52.183.142.165,4,44,factohr.com,IN,Asia,Southern Asia,India,Maharashtra,,Mumbai
65.20.85.51,4,9,famousastrologycentre.com,IN,Asia,Southern Asia,India,Maharashtra,,Mumbai
154.41.233.201,4,-20,farf.in,IN,Asia,Southern Asia,India,Maharashtra,,Mumbai
86.38.243.38,4,-20,farmfruitbasket.com,IN,Asia,Southern Asia,India,Maharashtra,,Mumbai
3.108.158.195,4,20,fddiindia.com,IN,Asia,Southern Asia,India,Maharashtra,,Mumbai
103.211.217.67,4,1790,felixhospital.com,IN,Asia,Southern Asia,India,Maharashtra,,Mumbai
93.127.208.104,4,-23,financeninsurance.com,IN,Asia,Southern Asia,India,Maharashtra,,Mumbai
82.112.232.216,4,-28,financewalk.com,IN,Asia,Southern Asia,India,Maharashtra,,Mumbai
193.203.185.179,4,-11,fitnessfire.in,IN,Asia,Southern Asia,India,Maharashtra,,Mumbai
91.108.108.225,4,-14,flickonclick.com,IN,Asia,Southern Asia,India,Maharashtra,,Mumbai
82.180.144.57,4,66,fliptrip.in,IN,Asia,Southern Asia,India,Maharashtra,,Mumbai
217.21.88.23,4,-26,followerbar.com,IN,Asia,Southern Asia,India,Maharashtra,,Mumbai
3.111.70.160,4,-2,forestessentialsindia.com,IN,Asia,Southern Asia,India,Maharashtra,,Mumbai
13.235.35.81,4,3,forestessentialsindia.com,IN,Asia,Southern Asia,India,Maharashtra,,Mumbai
217.21.84.216,4,8,franticpro.com,IN,Asia,Southern Asia,India,Maharashtra,,Mumbai
52.66.208.50,4,-1,frappe.io,IN,Asia,Southern Asia,India,Maharashtra,,Mumbai
13.200.157.65,4,-1,frappeframework.com,IN,Asia,Southern Asia,India,Maharashtra,,Mumbai
178.16.136.228,4,-22,functional.co.nz,IN,Asia,Southern Asia,India,Maharashtra,,Mumbai
170.187.250.235,4,2,fundoodata.com,IN,Asia,Southern Asia,India,Maharashtra,,Mumbai
82.180.143.43,4,-20,futureforyou.co,IN,Asia,Southern Asia,India,Maharashtra,,Mumbai
82.112.227.228,4,-25,gadvasu.in,IN,Asia,Southern Asia,India,Maharashtra,,Mumbai
195.35.5.147,4,-20,gaonconnection.com,IN,Asia,Southern Asia,India,Maharashtra,,Mumbai
65.20.75.56,4,-2,gethow.org,IN,Asia,Southern Asia,India,Maharashtra,,Mumbai
193.203.185.22,4,-23,getsethappy.com,IN,Asia,Southern Asia,India,Maharashtra,,Mumbai
82.112.229.240,4,-25,gettoplists.com,IN,Asia,Southern Asia,India,Maharashtra,,Mumbai
65.1.204.51,4,-2,giveindia.org,IN,Asia,Southern Asia,India,Maharashtra,,Mumbai
15.207.182.181,4,-3,giveindia.org,IN,Asia,Southern Asia,India,Maharashtra,,Mumbai
185.124.111.174,4,-24,gkv.ac.in,IN,Asia,Southern Asia,India,Maharashtra,,Mumbai
217.21.87.86,4,5,globalizewealth.com,IN,Asia,Southern Asia,India,Maharashtra,,Mumbai
89.117.188.133,4,-20,globalsocialbookmarks.com,IN,Asia,Southern Asia,India,Maharashtra,,Mumbai
46.28.45.199,4,-20,gmxdesign.com,IN,Asia,Southern Asia,India,Maharashtra,,Mumbai
172.105.252.75,4,13,go4expert.com,IN,Asia,Southern Asia,India,Maharashtra,,Mumbai
89.117.157.164,4,-22,goanyt.in,IN,Asia,Southern Asia,India,Maharashtra,,Mumbai
178.16.136.195,4,-13,goasexescort.co.in,IN,Asia,Southern Asia,India,Maharashtra,,Mumbai
82.180.166.208,4,-5,golocad.com,IN,Asia,Southern Asia,India,Maharashtra,,Mumbai
217.21.91.19,4,-21,goodlightscraps.com,IN,Asia,Southern Asia,India,Maharashtra,,Mumbai
89.117.157.87,4,-20,googlecrowdsource.com,IN,Asia,Southern Asia,India,Maharashtra,,Mumbai
185.199.53.64,4,-22,gosocial.co.id,IN,Asia,Southern Asia,India,Maharashtra,,Mumbai
217.21.84.151,4,3,greenaryworld.com,IN,Asia,Southern Asia,India,Maharashtra,,Mumbai
93.127.208.176,4,-17,greencleanguide.com,IN,Asia,Southern Asia,India,Maharashtra,,Mumbai
93.127.208.47,4,-14,greenpropertybd.com,IN,Asia,Southern Asia,India,Maharashtra,,Mumbai
217.21.91.110,4,-2,greenshield.life,IN,Asia,Southern Asia,India,Maharashtra,,Mumbai
3.108.219.70,4,22,gromo.in,IN,Asia,Southern Asia,India,Maharashtra,,Mumbai
193.202.44.207,4,-26,grotechminds.com,IN,Asia,Southern Asia,India,Maharashtra,,Mumbai
172.105.48.7,4,1,groupda.com,IN,Asia,Southern Asia,India,Maharashtra,,Mumbai
3.7.213.176,4,-2,gsebeservice.com,IN,Asia,Southern Asia,India,Maharashtra,,Mumbai
3.108.179.105,4,-5,gsebeservice.com,IN,Asia,Southern Asia,India,Maharashtra,,Mumbai
154.41.233.230,4,-18,gsrt.co.in,IN,Asia,Southern Asia,India,Maharashtra,,Mumbai
62.72.28.36,4,-21,guestpostvalley.com,IN,Asia,Southern Asia,India,Maharashtra,,Mumbai
35.200.171.190,4,13,gulflinkoverseas.com,IN,Asia,Southern Asia,India,Maharashtra,,Mumbai
157.173.216.45,4,-21,gullybet.info,IN,Asia,Southern Asia,India,Maharashtra,,Mumbai
91.108.107.29,4,-18,gurugram.wiki,IN,Asia,Southern Asia,India,Maharashtra,,Mumbai
115.112.149.173,4,-19052254,hal-india.co.in,IN,Asia,Southern Asia,India,Maharashtra,,Mumbai
172.105.43.192,4,2482,hamstech.com,IN,Asia,Southern Asia,India,Maharashtra,,Mumbai
149.100.146.85,4,-23,hankook-mart.com,IN,Asia,Southern Asia,India,Maharashtra,,Mumbai
195.35.44.132,4,-20,happytechnews.com,IN,Asia,Southern Asia,India,Maharashtra,,Mumbai
89.116.136.11,4,-17,haryanajobs.in,IN,Asia,Southern Asia,India,Maharashtra,,Mumbai
194.195.113.17,4,-23,hellomahi.com,IN,Asia,Southern Asia,India,Maharashtra,,Mumbai
91.108.107.32,4,7,helthynews.com,IN,Asia,Southern Asia,India,Maharashtra,,Mumbai
103.211.217.77,4,-14,highstreetgirls.com,IN,Asia,Southern Asia,India,Maharashtra,,Mumbai
62.72.28.130,4,-26,himsoftech.com,IN,Asia,Southern Asia,India,Maharashtra,,Mumbai
148.113.0.136,4,-16,hindustanuniv.ac.in,IN,Asia,Southern Asia,India,Maharashtra,,Mumbai
82.180.142.145,4,-19,homecareshoppe.com,IN,Asia,Southern Asia,India,Maharashtra,,Mumbai
195.35.44.219,4,-14,hopinfirst.com,IN,Asia,Southern Asia,India,Maharashtra,,Mumbai
217.21.84.10,4,-13,hospistore.in,IN,Asia,Southern Asia,India,Maharashtra,,Mumbai
91.108.107.147,4,4,hotdl.in,IN,Asia,Southern Asia,India,Maharashtra,,Mumbai
89.116.133.58,4,-18,hotgirlsindelhi.com,IN,Asia,Southern Asia,India,Maharashtra,,Mumbai
217.21.90.35,4,-18,hotsuratescort.com,IN,Asia,Southern Asia,India,Maharashtra,,Mumbai
82.112.230.1,4,-22,huyenbi.net,IN,Asia,Southern Asia,India,Maharashtra,,Mumbai
89.116.133.119,4,-23,hyperverge.co,IN,Asia,Southern Asia,India,Maharashtra,,Mumbai
82.180.142.98,4,-25,hytechcommunications.com,IN,Asia,Southern Asia,India,Maharashtra,,Mumbai
172.105.42.59,4,106,i-scholar.in,IN,Asia,Southern Asia,India,Maharashtra,,Mumbai
3.7.181.174,4,-3,iasscore.in,IN,Asia,Southern Asia,India,Maharashtra,,Mumbai
15.206.57.100,4,11,iasscore.in,IN,Asia,Southern Asia,India,Maharashtra,,Mumbai
15.206.76.16,4,9,iasscore.in,IN,Asia,Southern Asia,India,Maharashtra,,Mumbai
89.116.133.242,4,-1,iconicrealty.in,IN,Asia,Southern Asia,India,Maharashtra,,Mumbai
77.37.46.115,4,-12,idealstudyabroad.com,IN,Asia,Southern Asia,India,Maharashtra,,Mumbai
89.116.133.156,4,-22,ieltsdeal.com,IN,Asia,Southern Asia,India,Maharashtra,,Mumbai
89.117.157.77,4,2,ifuture.co.in,IN,Asia,Southern Asia,India,Maharashtra,,Mumbai
3.7.44.65,4,-9,iimaventures.com,IN,Asia,Southern Asia,India,Maharashtra,,Mumbai
35.154.4.90,4,5,iimnagpur.ac.in,IN,Asia,Southern Asia,India,Maharashtra,,Mumbai
93.127.208.174,4,-19,iisdet.com,IN,Asia,Southern Asia,India,Maharashtra,,Mumbai
217.21.95.65,4,-24,ijcrr.com,IN,Asia,Southern Asia,India,Maharashtra,,Mumbai
82.180.143.33,4,-26,ijpbs.net,IN,Asia,Southern Asia,India,Maharashtra,,Mumbai
89.117.188.239,4,-22,ijrap.net,IN,Asia,Southern Asia,India,Maharashtra,,Mumbai
65.2.19.42,4,3,imsindia.com,IN,Asia,Southern Asia,India,Maharashtra,,Mumbai
103.111.115.21,4,-42,india-1xbet.in,IN,Asia,Southern Asia,India,Maharashtra,,Mumbai
34.100.254.150,4,11,indiabix.com,IN,Asia,Southern Asia,India,Maharashtra,,Mumbai
45.79.122.63,4,-17,indiainternets.com,IN,Asia,Southern Asia,India,Maharashtra,,Mumbai
35.200.158.232,4,15,indianyellowpages.com,IN,Asia,Southern Asia,India,Maharashtra,,Mumbai
154.41.233.63,4,5,indorenyt.in,IN,Asia,Southern Asia,India,Maharashtra,,Mumbai
46.28.45.145,4,16,infaeon.com,IN,Asia,Southern Asia,India,Maharashtra,,Mumbai
13.201.198.31,4,31,infinixmobiles.in,IN,Asia,Southern Asia,India,Maharashtra,,Mumbai
192.46.215.189,4,-14,informalnewz.com,IN,Asia,Southern Asia,India,Maharashtra,,Mumbai
172.105.55.76,4,-12,informaticsglobal.com,IN,Asia,Southern Asia,India,Maharashtra,,Mumbai
217.21.87.224,4,19005,infosharingspace.com,IN,Asia,Southern Asia,India,Maharashtra,,Mumbai
172.105.33.133,4,-20,infostans.com,IN,Asia,Southern Asia,India,Maharashtra,,Mumbai
82.112.225.238,4,32,infotechlead.com,IN,Asia,Southern Asia,India,Maharashtra,,Mumbai
154.56.52.227,4,-13,inhawellness.com,IN,Asia,Southern Asia,India,Maharashtra,,Mumbai
217.21.91.89,4,27,inition.co.uk,IN,Asia,Southern Asia,India,Maharashtra,,Mumbai
82.112.232.187,4,-24,instantguestpost.com,IN,Asia,Southern Asia,India,Maharashtra,,Mumbai
217.21.85.71,4,-24,instantinkhub.in,IN,Asia,Southern Asia,India,Maharashtra,,Mumbai
82.112.224.201,4,47,internationalnewsandviews.com,IN,Asia,Southern Asia,India,Maharashtra,,Mumbai
154.56.53.130,4,-18,intlbm.com,IN,Asia,Southern Asia,India,Maharashtra,,Mumbai
3.6.212.146,4,-2,investmentguruindia.com,IN,Asia,Southern Asia,India,Maharashtra,,Mumbai
217.21.88.145,4,-24,ishabasu.com,IN,Asia,Southern Asia,India,Maharashtra,,Mumbai
52.66.185.92,4,-3,itel-india.com,IN,Asia,Southern Asia,India,Maharashtra,,Mumbai
3.108.145.151,4,-5,itel-india.com,IN,Asia,Southern Asia,India,Maharashtra,,Mumbai
13.126.246.212,4,-3,itel-india.com,IN,Asia,Southern Asia,India,Maharashtra,,Mumbai
82.180.142.116,4,-27,itglwf.org,IN,Asia,Southern Asia,India,Maharashtra,,Mumbai
3.108.138.142,4,-2,itm.edu,IN,Asia,Southern Asia,India,Maharashtra,,Mumbai
65.1.41.194,4,1,itm.edu,IN,Asia,Southern Asia,India,Maharashtra,,Mumbai
217.21.84.70,4,-27,itsgroups.in,IN,Asia,Southern Asia,India,Maharashtra,,Mumbai
89.117.157.234,4,-21,jaanuescorts.com,IN,Asia,Southern Asia,India,Maharashtra,,Mumbai
89.117.27.142,4,-4,jadebrush.ca,IN,Asia,Southern Asia,India,Maharashtra,,Mumbai
15.207.248.105,4,-3,jagvimal.com,IN,Asia,Southern Asia,India,Maharashtra,,Mumbai
3.6.192.128,4,2,jaipuria.ac.in,IN,Asia,Southern Asia,India,Maharashtra,,Mumbai
82.180.143.224,4,-7,jaspital.com,IN,Asia,Southern Asia,India,Maharashtra,,Mumbai
217.21.91.64,4,-25,jaunpurnews24.com,IN,Asia,Southern Asia,India,Maharashtra,,Mumbai
157.173.217.189,4,-17,javatutoring.com,IN,Asia,Southern Asia,India,Maharashtra,,Mumbai
82.112.229.160,4,-23,jharaphula.com,IN,Asia,Southern Asia,India,Maharashtra,,Mumbai
217.21.91.118,4,-26,jptbioacademy.com,IN,Asia,Southern Asia,India,Maharashtra,,Mumbai
15.206.87.142,4,8,jubilantbiosys.com,IN,Asia,Southern Asia,India,Maharashtra,,Mumbai
217.21.90.104,4,-24,justtravo.com,IN,Asia,Southern Asia,India,Maharashtra,,Mumbai
178.16.136.230,4,-22,justwords.in,IN,Asia,Southern Asia,India,Maharashtra,,Mumbai
93.127.208.238,4,-19,kaartal.com,IN,Asia,Southern Asia,India,Maharashtra,,Mumbai
82.112.229.116,4,-23,kaeron.in,IN,Asia,Southern Asia,India,Maharashtra,,Mumbai
154.56.52.148,4,-10,kalaari.com,IN,Asia,Southern Asia,India,Maharashtra,,Mumbai
13.234.68.42,4,29,kamair.com,IN,Asia,Southern Asia,India,Maharashtra,,Mumbai
193.203.186.173,4,-5,kamakoti.org,IN,Asia,Southern Asia,India,Maharashtra,,Mumbai
62.72.29.156,4,-20,kannattu.com,IN,Asia,Southern Asia,India,Maharashtra,,Mumbai
35.244.35.106,4,6,kaplindia.com,IN,Asia,Southern Asia,India,Maharashtra,,Mumbai
34.93.254.118,4,13,kapturecrm.com,IN,Asia,Southern Asia,India,Maharashtra,,Mumbai
157.173.216.6,4,11,karyesh.com,IN,Asia,Southern Asia,India,Maharashtra,,Mumbai
91.108.107.96,4,18,kashidigital.in,IN,Asia,Southern Asia,India,Maharashtra,,Mumbai
195.35.5.7,4,-25,kdu.ac.lk,IN,Asia,Southern Asia,India,Maharashtra,,Mumbai
43.204.62.111,4,71,kei-ind.com,IN,Asia,Southern Asia,India,Maharashtra,,Mumbai
148.113.8.154,4,4,kelaza.com,IN,Asia,Southern Asia,India,Maharashtra,,Mumbai
88.222.246.167,4,-20,kerala.com,IN,Asia,Southern Asia,India,Maharashtra,,Mumbai
195.35.4.220,4,-26,ketanchemicals.com,IN,Asia,Southern Asia,India,Maharashtra,,Mumbai
185.124.111.2,4,-22,kitchenequip.in,IN,Asia,Southern Asia,India,Maharashtra,,Mumbai
103.211.217.242,4,288,klippd.in,IN,Asia,Southern Asia,India,Maharashtra,,Mumbai
170.187.250.130,4,1353,knottyknitters.in,IN,Asia,Southern Asia,India,Maharashtra,,Mumbai
43.204.50.64,4,482924,kokuyocamlin.com,IN,Asia,Southern Asia,India,Maharashtra,,Mumbai
178.16.136.12,4,-17,kolkatacallgirlservices.com,IN,Asia,Southern Asia,India,Maharashtra,,Mumbai
193.202.45.215,4,10,konnectinsights.com,IN,Asia,Southern Asia,India,Maharashtra,,Mumbai
35.154.140.107,4,16,kpscrecruitment.in,IN,Asia,Southern Asia,India,Maharashtra,,Mumbai
148.113.4.243,4,-8,krish-recruitment.com,IN,Asia,Southern Asia,India,Maharashtra,,Mumbai
217.21.87.94,4,9,krishsoftsol.com,IN,Asia,Southern Asia,India,Maharashtra,,Mumbai
89.117.157.230,4,-21,kyrion.in,IN,Asia,Southern Asia,India,Maharashtra,,Mumbai
185.124.110.172,4,-26,lakhanisolution.com,IN,Asia,Southern Asia,India,Maharashtra,,Mumbai
157.173.216.210,4,24,larryjordan.biz,IN,Asia,Southern Asia,India,Maharashtra,,Mumbai
89.116.122.142,4,22,latbangbkkbnjatim.com,IN,Asia,Southern Asia,India,Maharashtra,,Mumbai
149.100.147.32,4,-12,laylyt.com,IN,Asia,Southern Asia,India,Maharashtra,,Mumbai
46.28.45.246,4,18,leedobd.org,IN,Asia,Southern Asia,India,Maharashtra,,Mumbai
52.66.43.1,4,-5,lepassagetoindia.com,IN,Asia,Southern Asia,India,Maharashtra,,Mumbai
217.21.87.78,4,-32,letscrawlnews.com,IN,Asia,Southern Asia,India,Maharashtra,,Mumbai
93.127.208.25,4,-26,letsnurture.com,IN,Asia,Southern Asia,India,Maharashtra,,Mumbai
82.180.142.238,4,-7,lisadsouza.com,IN,Asia,Southern Asia,India,Maharashtra,,Mumbai
3.109.107.210,4,23,livofy.com,IN,Asia,Southern Asia,India,Maharashtra,,Mumbai
13.127.35.145,4,-3,livofy.com,IN,Asia,Southern Asia,India,Maharashtra,,Mumbai
217.21.91.113,4,-25,lnainews.com,IN,Asia,Southern Asia,India,Maharashtra,,Mumbai
193.203.185.103,4,-24,logritha.com,IN,Asia,Southern Asia,India,Maharashtra,,Mumbai
172.105.56.115,4,1351,luckydice.in,IN,Asia,Southern Asia,India,Maharashtra,,Mumbai
148.113.1.235,4,-32,lyn65.com,IN,Asia,Southern Asia,India,Maharashtra,,Mumbai
148.113.16.60,4,-8,maidan.org.ua,IN,Asia,Southern Asia,India,Maharashtra,,Mumbai
194.195.118.183,4,3,manglorechemical.com,IN,Asia,Southern Asia,India,Maharashtra,,Mumbai
217.21.84.49,4,-27,manojkumar.online,IN,Asia,Southern Asia,India,Maharashtra,,Mumbai
172.105.62.200,4,61,maroc.net,IN,Asia,Southern Asia,India,Maharashtra,,Mumbai
34.93.49.158,4,23,marvelous90s.com,IN,Asia,Southern Asia,India,Maharashtra,,Mumbai
82.112.232.203,4,26,masalabox.com,IN,Asia,Southern Asia,India,Maharashtra,,Mumbai
35.244.59.151,4,34,matrimonialsindia.com,IN,Asia,Southern Asia,India,Maharashtra,,Mumbai
35.154.82.2,4,15,maxbhi.com,IN,Asia,Southern Asia,India,Maharashtra,,Mumbai
3.7.94.121,4,-4,maxlab.co.in,IN,Asia,Southern Asia,India,Maharashtra,,Mumbai
194.195.116.172,4,-16,mbauniverse.com,IN,Asia,Southern Asia,India,Maharashtra,,Mumbai
65.1.59.246,4,-5,mcc.edu.in,IN,Asia,Southern Asia,India,Maharashtra,,Mumbai
148.113.20.146,4,-5,medex.com.bd,IN,Asia,Southern Asia,India,Maharashtra,,Mumbai
213.210.21.94,4,-23,mehrangarh.org,IN,Asia,Southern Asia,India,Maharashtra,,Mumbai
157.173.217.212,4,-23,memes.co.in,IN,Asia,Southern Asia,India,Maharashtra,,Mumbai
93.127.169.136,4,-11,meridean.org,IN,Asia,Southern Asia,India,Maharashtra,,Mumbai
193.203.187.229,4,-18,meshhoney.com,IN,Asia,Southern Asia,India,Maharashtra,,Mumbai
157.173.216.19,4,-4,micom.net,IN,Asia,Southern Asia,India,Maharashtra,,Mumbai
178.16.136.225,4,-17,mightpost.com,IN,Asia,Southern Asia,India,Maharashtra,,Mumbai
154.41.255.27,4,-26,milanrasoi.com,IN,Asia,Southern Asia,India,Maharashtra,,Mumbai
89.117.157.247,4,-22,millenniumtech.co.za,IN,Asia,Southern Asia,India,Maharashtra,,Mumbai
89.117.157.176,4,-23,mirroreternally.com,IN,Asia,Southern Asia,India,Maharashtra,,Mumbai
82.112.232.129,4,-21,miska.co.in,IN,Asia,Southern Asia,India,Maharashtra,,Mumbai
195.35.44.61,4,-17,mlbjerseyscheap.us,IN,Asia,Southern Asia,India,Maharashtra,,Mumbai
89.116.133.232,4,-19,mlmonline.in,IN,Asia,Southern Asia,India,Maharashtra,,Mumbai
172.105.50.239,4,-20,mockers.in,IN,Asia,Southern Asia,India,Maharashtra,,Mumbai
82.180.164.159,4,-19,mohalicallgirls.com,IN,Asia,Southern Asia,India,Maharashtra,,Mumbai
91.108.109.208,4,-25,mohtawaco.com,IN,Asia,Southern Asia,India,Maharashtra,,Mumbai
89.117.27.74,4,-8,mountainkidsschool.com,IN,Asia,Southern Asia,India,Maharashtra,,Mumbai
46.28.44.212,4,-25,mpett.com,IN,Asia,Southern Asia,India,Maharashtra,,Mumbai
62.72.58.114,4,7,mudrafoods.in,IN,Asia,Southern Asia,India,Maharashtra,,Mumbai
154.41.233.66,4,-10,mumbaicricketacademy.com,IN,Asia,Southern Asia,India,Maharashtra,,Mumbai
35.200.242.62,4,-1,mumbailive.com,IN,Asia,Southern Asia,India,Maharashtra,,Mumbai
154.56.54.195,4,-25,musvcs.com,IN,Asia,Southern Asia,India,Maharashtra,,Mumbai
35.200.184.129,4,17,mycity4kids.com,IN,Asia,Southern Asia,India,Maharashtra,,Mumbai
65.20.70.207,4,-32,mydukaan.io,IN,Asia,Southern Asia,India,Maharashtra,,Mumbai
45.79.117.218,4,-10,myfinal11.in,IN,Asia,Southern Asia,India,Maharashtra,,Mumbai
82.180.144.174,4,438,myglobalhost.in,IN,Asia,Southern Asia,India,Maharashtra,,Mumbai
82.180.142.29,4,-27,myndscope.com,IN,Asia,Southern Asia,India,Maharashtra,,Mumbai
35.244.13.147,4,2,myraah.io,IN,Asia,Southern Asia,India,Maharashtra,,Mumbai
148.113.1.176,4,3,myselfie.co.za,IN,Asia,Southern Asia,India,Maharashtra,,Mumbai
217.21.93.20,4,-9,myshadicards.com,IN,Asia,Southern Asia,India,Maharashtra,,Mumbai
46.28.47.21,4,-15,mysterioustrip.com,IN,Asia,Southern Asia,India,Maharashtra,,Mumbai
82.180.140.143,4,-20,n-gage.com,IN,Asia,Southern Asia,India,Maharashtra,,Mumbai
89.117.27.132,4,-27,nadiastrologys.com,IN,Asia,Southern Asia,India,Maharashtra,,Mumbai
62.72.42.152,4,-8,nakodadcs.com,IN,Asia,Southern Asia,India,Maharashtra,,Mumbai
82.180.142.14,4,-26,nammatrip.in,IN,Asia,Southern Asia,India,Maharashtra,,Mumbai
82.112.239.47,4,-14,nancychopra.net,IN,Asia,Southern Asia,India,Maharashtra,,Mumbai
89.117.27.247,4,-26,nandsweets.com,IN,Asia,Southern Asia,India,Maharashtra,,Mumbai
82.180.142.168,4,-19,nanorealm.net,IN,Asia,Southern Asia,India,Maharashtra,,Mumbai
185.124.111.180,4,-17,nayaindia.com,IN,Asia,Southern Asia,India,Maharashtra,,Mumbai
89.117.27.38,4,-20,naybhadrahealthcare.com,IN,Asia,Southern Asia,India,Maharashtra,,Mumbai
178.16.139.96,4,-16,needlover.in,IN,Asia,Southern Asia,India,Maharashtra,,Mumbai
154.41.232.15,4,-13,neoito.com,IN,Asia,Southern Asia,India,Maharashtra,,Mumbai
217.21.87.177,4,-22,networkhunt.com,IN,Asia,Southern Asia,India,Maharashtra,,Mumbai
13.233.183.33,4,5,neuroon.com,IN,Asia,Southern Asia,India,Maharashtra,,Mumbai
157.173.216.38,4,37,newspostonline.com,IN,Asia,Southern Asia,India,Maharashtra,,Mumbai
172.105.49.120,4,53490,newstracklive.com,IN,Asia,Southern Asia,India,Maharashtra,,Mumbai
103.172.92.27,4,-39,newtrendings.com,IN,Asia,Southern Asia,India,Maharashtra,,Mumbai
217.21.90.164,4,-28,nextgenbiz.in,IN,Asia,Southern Asia,India,Maharashtra,,Mumbai
89.117.188.122,4,-14,nidhipradhan.com,IN,Asia,Southern Asia,India,Maharashtra,,Mumbai
89.117.188.47,4,-19,nirogherbs.com,IN,Asia,Southern Asia,India,Maharashtra,,Mumbai
195.35.44.155,4,-14,nobofeed.com,IN,Asia,Southern Asia,India,Maharashtra,,Mumbai
89.117.27.54,4,-17,nohatespeechmovement.org,IN,Asia,Southern Asia,India,Maharashtra,,Mumbai
217.21.87.218,4,18917,nuddely.in,IN,Asia,Southern Asia,India,Maharashtra,,Mumbai
103.14.99.124,4,-23,nujs.edu,IN,Asia,Southern Asia,India,Maharashtra,,Mumbai
209.182.232.108,4,-28,nyamansahu.in,IN,Asia,Southern Asia,India,Maharashtra,,Mumbai
62.72.28.198,4,-26,obiyaninfotech.com,IN,Asia,Southern Asia,India,Maharashtra,,Mumbai
52.66.96.70,4,6,odishabytes.com,IN,Asia,Southern Asia,India,Maharashtra,,Mumbai
43.205.52.233,4,4,odishabytes.com,IN,Asia,Southern Asia,India,Maharashtra,,Mumbai
93.127.208.18,4,-23,oncaonecenter.com,IN,Asia,Southern Asia,India,Maharashtra,,Mumbai
103.172.92.164,4,-1,oneworldnews.com,IN,Asia,Southern Asia,India,Maharashtra,,Mumbai
45.79.120.145,4,-41,onlineinterviewquestions.com,IN,Asia,Southern Asia,India,Maharashtra,,Mumbai
203.109.88.226,4,271,Ookla Speedtest Server 6451: sp1-viz.youbroadband.in,IN,Asia,Southern Asia,India,Maharashtra,,Mumbai
103.27.48.82,4,369,Ookla Speedtest Server 44963: speedtest.balajibroadband.com,IN,Asia,Southern Asia,India,Maharashtra,,Mumbai
103.140.26.11,4,181,Ookla Speedtest Server 48746: speedtest001.ssstpl.in,IN,Asia,Southern Asia,India,Maharashtra,,Mumbai
103.51.26.254,4,2514426,Ookla Speedtest Server 51683: sipl.speedtest.sukaininfoway.com,IN,Asia,Southern Asia,India,Maharashtra,,Mumbai
157.119.200.150,4,197,Ookla Speedtest Server 54091: speedtest4.fastfortechnologies.com,IN,Asia,Southern Asia,India,Maharashtra,,Mumbai
103.243.232.118,4,152,Ookla Speedtest Server 63121: srmakspeed.hostycare.in,IN,Asia,Southern Asia,India,Maharashtra,,Mumbai
103.85.181.202,4,302,Ookla Speedtest Server 63753: speedtest01.dataexpress.co.in,IN,Asia,Southern Asia,India,Maharashtra,,Mumbai
182.79.233.98,4,332,Ookla Speedtest Server 64429: speedtestspc1.airtel.in,IN,Asia,Southern Asia,India,Maharashtra,,Mumbai
103.145.18.234,4,129,Ookla Speedtest Server: speedtest.speedostar.in,IN,Asia,Southern Asia,India,Maharashtra,,Mumbai
103.212.141.6,4,28,Ookla Speedtest Server: speedtest.surat.vortexnetsol.com,IN,Asia,Southern Asia,India,Maharashtra,,Mumbai
103.123.235.219,4,-28,Ookla Speedtest Server: stmum.estointernet.in,IN,Asia,Southern Asia,India,Maharashtra,,Mumbai
13.126.110.37,4,3,oorwin.com,IN,Asia,Southern Asia,India,Maharashtra,,Mumbai
13.127.76.250,4,21,oorwin.com,IN,Asia,Southern Asia,India,Maharashtra,,Mumbai
89.116.133.78,4,-16,openaimaster.com,IN,Asia,Southern Asia,India,Maharashtra,,Mumbai
34.93.180.162,4,4,opendesignsin.com,IN,Asia,Southern Asia,India,Maharashtra,,Mumbai
89.117.188.244,4,-14,orgointeriors.in,IN,Asia,Southern Asia,India,Maharashtra,,Mumbai
62.72.28.96,4,-22,osminteriors.com,IN,Asia,Southern Asia,India,Maharashtra,,Mumbai
65.20.83.198,4,7,osou.ac.in,IN,Asia,Southern Asia,India,Maharashtra,,Mumbai
217.21.92.136,4,12,ovenc.com,IN,Asia,Southern Asia,India,Maharashtra,,Mumbai
217.21.95.119,4,-25,padmansha.com,IN,Asia,Southern Asia,India,Maharashtra,,Mumbai
65.20.71.86,4,-12,pagepakistan.com,IN,Asia,Southern Asia,India,Maharashtra,,Mumbai
45.79.127.55,4,44,palscity.com,IN,Asia,Southern Asia,India,Maharashtra,,Mumbai
192.177.75.15,4,-2,paskolavalue.com,IN,Asia,Southern Asia,India,Maharashtra,,Mumbai
82.180.142.121,4,-24,pencis.com,IN,Asia,Southern Asia,India,Maharashtra,,Mumbai
3.111.59.62,4,2,periyaruniversity.ac.in,IN,Asia,Southern Asia,India,Maharashtra,,Mumbai
82.112.234.29,4,-23,photofrnd.com,IN,Asia,Southern Asia,India,Maharashtra,,Mumbai
172.105.253.87,4,-11,plurance.com,IN,Asia,Southern Asia,India,Maharashtra,,Mumbai
89.117.188.91,4,-18,pmbausa.com,IN,Asia,Southern Asia,India,Maharashtra,,Mumbai
89.117.27.232,4,-19,poojascookery.com,IN,Asia,Southern Asia,India,Maharashtra,,Mumbai
86.38.243.67,4,-20,prabhatsahara.com,IN,Asia,Southern Asia,India,Maharashtra,,Mumbai
157.173.222.229,4,4,pragativadi.com,IN,Asia,Southern Asia,India,Maharashtra,,Mumbai
82.112.232.217,4,28,pratham.org,IN,Asia,Southern Asia,India,Maharashtra,,Mumbai
192.46.215.214,4,20,prestigesouthernstar.info,IN,Asia,Southern Asia,India,Maharashtra,,Mumbai
170.187.237.104,4,20,prestigesparkgrove.in,IN,Asia,Southern Asia,India,Maharashtra,,Mumbai
157.173.216.92,4,-11,procol.io,IN,Asia,Southern Asia,India,Maharashtra,,Mumbai
93.127.208.53,4,19,prosportsleague.com,IN,Asia,Southern Asia,India,Maharashtra,,Mumbai
93.127.207.94,4,49,pscoenergy.com,IN,Asia,Southern Asia,India,Maharashtra,,Mumbai
15.207.39.28,4,11,ptinews.com,IN,Asia,Southern Asia,India,Maharashtra,,Mumbai
193.203.185.130,4,-24,qainfinity.com,IN,Asia,Southern Asia,India,Maharashtra,,Mumbai
13.126.131.36,4,-4,qcin.org,IN,Asia,Southern Asia,India,Maharashtra,,Mumbai
89.117.188.54,4,-1,quickbookstoolhub.co,IN,Asia,Southern Asia,India,Maharashtra,,Mumbai
217.21.94.166,4,24,raddix.in,IN,Asia,Southern Asia,India,Maharashtra,,Mumbai
111.119.15.130,4,39,radiocity.in,IN,Asia,Southern Asia,India,Maharashtra,,Mumbai
3.111.101.65,4,9,railrecipe.com,IN,Asia,Southern Asia,India,Maharashtra,,Mumbai
62.72.13.113,4,25,rajasthancab.com,IN,Asia,Southern Asia,India,Maharashtra,,Mumbai
154.41.234.48,4,-14,rajasthandirect.com,IN,Asia,Southern Asia,India,Maharashtra,,Mumbai
89.117.27.51,4,40,rasayanjournal.co.in,IN,Asia,Southern Asia,India,Maharashtra,,Mumbai
89.117.157.61,4,-14,readnewsblog.com,IN,Asia,Southern Asia,India,Maharashtra,,Mumbai
178.16.136.248,4,-10,realbookmarking.com,IN,Asia,Southern Asia,India,Maharashtra,,Mumbai
82.112.224.169,4,-25,realmicentral.com,IN,Asia,Southern Asia,India,Maharashtra,,Mumbai
62.72.28.182,4,6,recruitmentresult.com,IN,Asia,Southern Asia,India,Maharashtra,,Mumbai
154.41.233.188,4,17,reikiandastrologypredictions.com,IN,Asia,Southern Asia,India,Maharashtra,,Mumbai
148.113.20.198,4,17,reportingaccounts.com,IN,Asia,Southern Asia,India,Maharashtra,,Mumbai
193.203.185.13,4,17,revivezone.com,IN,Asia,Southern Asia,India,Maharashtra,,Mumbai
82.112.229.167,4,-2,revoada.net,IN,Asia,Southern Asia,India,Maharashtra,,Mumbai
82.112.229.155,4,-24,richaescorts.com,IN,Asia,Southern Asia,India,Maharashtra,,Mumbai
154.41.255.34,4,-20,ripplehire.com,IN,Asia,Southern Asia,India,Maharashtra,,Mumbai
154.41.232.242,4,-19,rishikulyogshala.org,IN,Asia,Southern Asia,India,Maharashtra,,Mumbai
14.143.45.231,4,59,riya.travel,IN,Asia,Southern Asia,India,Maharashtra,,Mumbai
82.180.142.106,4,-23,rloan.in,IN,Asia,Southern Asia,India,Maharashtra,,Mumbai
94.136.185.244,4,-32,robonepal.com,IN,Asia,Southern Asia,India,Maharashtra,,Mumbai
82.180.167.169,4,-6,roseatehotels.com,IN,Asia,Southern Asia,India,Maharashtra,,Mumbai
195.35.44.189,4,-20,roshnikhanna.in,IN,Asia,Southern Asia,India,Maharashtra,,Mumbai
89.117.157.212,4,-15,rosymalhotra.com,IN,Asia,Southern Asia,India,Maharashtra,,Mumbai
86.38.243.102,4,-22,royalangels.in,IN,Asia,Southern Asia,India,Maharashtra,,Mumbai
15.207.183.91,4,7,rummypassion.com,IN,Asia,Southern Asia,India,Maharashtra,,Mumbai
3.6.211.250,4,1,rummypassion.com,IN,Asia,Southern Asia,India,Maharashtra,,Mumbai
3.7.128.152,4,-4,rummypassion.com,IN,Asia,Southern Asia,India,Maharashtra,,Mumbai
3.6.57.17,4,-5,sacnilk.com,IN,Asia,Southern Asia,India,Maharashtra,,Mumbai
195.35.44.20,4,-19,sadhana-india.org,IN,Asia,Southern Asia,India,Maharashtra,,Mumbai
93.127.208.217,4,-25,sahelishegadi.com,IN,Asia,Southern Asia,India,Maharashtra,,Mumbai
89.116.133.231,4,-26,sailorslife.in,IN,Asia,Southern Asia,India,Maharashtra,,Mumbai
82.112.229.15,4,2,sajiddesigns.com,IN,Asia,Southern Asia,India,Maharashtra,,Mumbai
157.173.216.56,4,-1,salvavidaspharma.com,IN,Asia,Southern Asia,India,Maharashtra,,Mumbai
13.126.95.156,4,0,samaylive.com,IN,Asia,Southern Asia,India,Maharashtra,,Mumbai
82.112.229.239,4,-18,samgalleria.com,IN,Asia,Southern Asia,India,Maharashtra,,Mumbai
217.21.85.180,4,-18,santoba.org,IN,Asia,Southern Asia,India,Maharashtra,,Mumbai
154.41.234.187,4,-24,sapagro.in,IN,Asia,Southern Asia,India,Maharashtra,,Mumbai
82.112.238.125,4,87,sarkariresult.rocks,IN,Asia,Southern Asia,India,Maharashtra,,Mumbai
43.205.32.92,4,54,sarvodayahospital.com,IN,Asia,Southern Asia,India,Maharashtra,,Mumbai
88.222.245.56,4,-21,sattakingg.net,IN,Asia,Southern Asia,India,Maharashtra,,Mumbai
194.238.18.21,4,-32,schools360.in,IN,Asia,Southern Asia,India,Maharashtra,,Mumbai
35.154.178.221,4,1,scmhrd.edu,IN,Asia,Southern Asia,India,Maharashtra,,Mumbai
172.105.43.173,4,-12,scoopempire.com,IN,Asia,Southern Asia,India,Maharashtra,,Mumbai
172.105.63.233,4,-21,searchika.com,IN,Asia,Southern Asia,India,Maharashtra,,Mumbai
154.56.54.227,4,-4,segisocial.com,IN,Asia,Southern Asia,India,Maharashtra,,Mumbai
178.16.136.192,4,-13,selectyouruniversity.com,IN,Asia,Southern Asia,India,Maharashtra,,Mumbai
89.116.33.193,4,6,sellyourgadget.shop,IN,Asia,Southern Asia,India,Maharashtra,,Mumbai
94.136.189.202,4,16,seoserviceinindia.co.in,IN,Asia,Southern Asia,India,Maharashtra,,Mumbai
82.112.229.154,4,-25,seotoolsay.com,IN,Asia,Southern Asia,India,Maharashtra,,Mumbai
217.21.85.250,4,-1,sethnik.com,IN,Asia,Southern Asia,India,Maharashtra,,Mumbai
62.72.42.111,4,1,sevenmentor.com,IN,Asia,Southern Asia,India,Maharashtra,,Mumbai
82.112.229.236,4,-23,sglobalacumen.com,IN,Asia,Southern Asia,India,Maharashtra,,Mumbai
93.127.208.11,4,-20,shapingrecipes.com,IN,Asia,Southern Asia,India,Maharashtra,,Mumbai
217.21.85.96,4,-23,shardahospital.in,IN,Asia,Southern Asia,India,Maharashtra,,Mumbai
217.21.92.149,4,-24,shellncore.ae,IN,Asia,Southern Asia,India,Maharashtra,,Mumbai
82.180.165.130,4,-17,sheriff.co.in,IN,Asia,Southern Asia,India,Maharashtra,,Mumbai
157.173.216.8,4,-22,shivlab.com,IN,Asia,Southern Asia,India,Maharashtra,,Mumbai
154.41.233.147,4,-24,shizaspa.com,IN,Asia,Southern Asia,India,Maharashtra,,Mumbai
149.100.146.246,4,-23,shkokka.com,IN,Asia,Southern Asia,India,Maharashtra,,Mumbai
89.117.157.127,4,-25,shotsblastingmachine.com,IN,Asia,Southern Asia,India,Maharashtra,,Mumbai
217.21.87.238,4,18925,shreedharflourmill.com,IN,Asia,Southern Asia,India,Maharashtra,,Mumbai
82.180.167.65,4,76,siddhantgroupedu.in,IN,Asia,Southern Asia,India,Maharashtra,,Mumbai
46.28.45.16,4,-17,signcitysa.com,IN,Asia,Southern Asia,India,Maharashtra,,Mumbai
89.116.33.40,4,0,simad.edu.so,IN,Asia,Southern Asia,India,Maharashtra,,Mumbai
45.79.117.22,4,29,simranroy.co.in,IN,Asia,Southern Asia,India,Maharashtra,,Mumbai
89.117.27.21,4,-26,simransoni.com,IN,Asia,Southern Asia,India,Maharashtra,,Mumbai
217.21.85.150,4,-24,simsvizag.com,IN,Asia,Southern Asia,India,Maharashtra,,Mumbai
217.21.95.74,4,-28,singhaniasoft.com,IN,Asia,Southern Asia,India,Maharashtra,,Mumbai
52.66.174.96,4,6,siu.edu.in,IN,Asia,Southern Asia,India,Maharashtra,,Mumbai
193.203.185.37,4,-24,sixthseal.com,IN,Asia,Southern Asia,India,Maharashtra,,Mumbai
178.16.136.92,4,10,skncosmetics.com,IN,Asia,Southern Asia,India,Maharashtra,,Mumbai
35.244.60.177,4,3,slaconsultantsindia.com,IN,Asia,Southern Asia,India,Maharashtra,,Mumbai
157.173.216.20,4,-20,smacs.in,IN,Asia,Southern Asia,India,Maharashtra,,Mumbai
149.100.146.178,4,-24,smpic.org,IN,Asia,Southern Asia,India,Maharashtra,,Mumbai
34.100.212.50,4,1,smytten.com,IN,Asia,Southern Asia,India,Maharashtra,,Mumbai
178.16.136.216,4,4,softgentechnologies.com,IN,Asia,Southern Asia,India,Maharashtra,,Mumbai
172.105.56.46,4,-5,softhunters.in,IN,Asia,Southern Asia,India,Maharashtra,,Mumbai
89.117.188.175,4,-20,somutravels.com,IN,Asia,Southern Asia,India,Maharashtra,,Mumbai
195.35.47.77,4,16,sonaidas.com,IN,Asia,Southern Asia,India,Maharashtra,,Mumbai
89.117.27.177,4,4,soniamittal.in,IN,Asia,Southern Asia,India,Maharashtra,,Mumbai
217.21.85.213,4,-9,sonyocareers.com,IN,Asia,Southern Asia,India,Maharashtra,,Mumbai
82.180.146.107,4,-19,specialityvalve.com,IN,Asia,Southern Asia,India,Maharashtra,,Mumbai
89.117.157.31,4,-17,sportsbugz.com,IN,Asia,Southern Asia,India,Maharashtra,,Mumbai
217.21.84.148,4,-15,spreadmyfiles.com,IN,Asia,Southern Asia,India,Maharashtra,,Mumbai
217.21.95.14,4,-13,srisaradadevi.com,IN,Asia,Southern Asia,India,Maharashtra,,Mumbai
45.79.121.100,4,-1,standardcoldpressedoil.com,IN,Asia,Southern Asia,India,Maharashtra,,Mumbai
217.21.91.236,4,-10,steammining.com,IN,Asia,Southern Asia,India,Maharashtra,,Mumbai
89.117.157.64,4,19,steeringmarine.com,IN,Asia,Southern Asia,India,Maharashtra,,Mumbai
217.21.90.130,4,-9,stellardigital.in,IN,Asia,Southern Asia,India,Maharashtra,,Mumbai
35.154.90.179,4,23,studyin-uk.in,IN,Asia,Southern Asia,India,Maharashtra,,Mumbai
3.7.245.215,4,20,studyin-uk.in,IN,Asia,Southern Asia,India,Maharashtra,,Mumbai
65.0.254.249,4,40,studyin-uk.in,IN,Asia,Southern Asia,India,Maharashtra,,Mumbai
217.21.94.200,4,-22,sujataarora.com,IN,Asia,Southern Asia,India,Maharashtra,,Mumbai
82.180.141.126,4,-31,sunrom.com,IN,Asia,Southern Asia,India,Maharashtra,,Mumbai
89.117.188.17,4,-3,superheuristics.com,IN,Asia,Southern Asia,India,Maharashtra,,Mumbai
34.93.226.246,4,52,swarajshop.com,IN,Asia,Southern Asia,India,Maharashtra,,Mumbai
35.154.227.236,4,-4,symlaw.ac.in,IN,Asia,Southern Asia,India,Maharashtra,,Mumbai
185.209.75.32,4,-22,synodcollege.edu.in,IN,Asia,Southern Asia,India,Maharashtra,,Mumbai
82.180.147.25,4,-24,tahaduth.com,IN,Asia,Southern Asia,India,Maharashtra,,Mumbai
82.180.141.129,4,-23,tajmeels.ae,IN,Asia,Southern Asia,India,Maharashtra,,Mumbai
82.112.229.197,4,-22,takarat.com,IN,Asia,Southern Asia,India,Maharashtra,,Mumbai
89.117.27.71,4,-25,takedating.com,IN,Asia,Southern Asia,India,Maharashtra,,Mumbai
82.180.140.214,4,-26,talkerscode.com,IN,Asia,Southern Asia,India,Maharashtra,,Mumbai
43.204.70.131,4,2,tallysolutions.com,IN,Asia,Southern Asia,India,Maharashtra,,Mumbai
65.2.7.208,4,3,tallysolutions.com,IN,Asia,Southern Asia,India,Maharashtra,,Mumbai
35.154.129.76,4,-1,tallysolutions.com,IN,Asia,Southern Asia,India,Maharashtra,,Mumbai
89.117.157.188,4,-19,tamilcinemanews.in,IN,Asia,Southern Asia,India,Maharashtra,,Mumbai
13.234.13.7,4,0,tapmi.edu.in,IN,Asia,Southern Asia,India,Maharashtra,,Mumbai
13.200.218.129,4,-2,tapmi.edu.in,IN,Asia,Southern Asia,India,Maharashtra,,Mumbai
3.6.190.49,4,-4,tapmi.edu.in,IN,Asia,Southern Asia,India,Maharashtra,,Mumbai
217.21.95.39,4,-27,tararaajput.in,IN,Asia,Southern Asia,India,Maharashtra,,Mumbai
89.117.27.168,4,-19,teachermall360.com,IN,Asia,Southern Asia,India,Maharashtra,,Mumbai
62.72.28.80,4,-2,techglob.com,IN,Asia,Southern Asia,India,Maharashtra,,Mumbai
62.72.28.23,4,27,techhansha.com,IN,Asia,Southern Asia,India,Maharashtra,,Mumbai
193.203.185.215,4,-9,techitop.com,IN,Asia,Southern Asia,India,Maharashtra,,Mumbai
91.108.107.185,4,-3,techtaalk.com,IN,Asia,Southern Asia,India,Maharashtra,,Mumbai
154.41.233.121,4,40,techtodayinfo.com,IN,Asia,Southern Asia,India,Maharashtra,,Mumbai
13.126.239.227,4,2,techugo.com,IN,Asia,Southern Asia,India,Maharashtra,,Mumbai
89.117.27.76,4,-24,techybusinesses.com,IN,Asia,Southern Asia,India,Maharashtra,,Mumbai
82.180.164.195,4,30,teenavishwas.com,IN,Asia,Southern Asia,India,Maharashtra,,Mumbai
46.28.45.239,4,-17,tekkenindia.in,IN,Asia,Southern Asia,India,Maharashtra,,Mumbai
86.38.243.212,4,-4,telugumovieupdates.com,IN,Asia,Southern Asia,India,Maharashtra,,Mumbai
89.117.157.229,4,-26,theappideas.com,IN,Asia,Southern Asia,India,Maharashtra,,Mumbai
88.222.240.24,4,-28,thebangaloreescorts.in,IN,Asia,Southern Asia,India,Maharashtra,,Mumbai
93.127.208.211,4,-22,theconsul.com.pk,IN,Asia,Southern Asia,India,Maharashtra,,Mumbai
172.105.42.216,4,1028,thedailychronicle.in,IN,Asia,Southern Asia,India,Maharashtra,,Mumbai
46.28.45.14,4,7,thedigitalmarketingcourses.com,IN,Asia,Southern Asia,India,Maharashtra,,Mumbai
45.79.121.84,4,-12,thefarmkanpur.com,IN,Asia,Southern Asia,India,Maharashtra,,Mumbai
93.127.208.91,4,12,thefinalfactor.com,IN,Asia,Southern Asia,India,Maharashtra,,Mumbai
91.108.107.200,4,14,thegardiaan.com,IN,Asia,Southern Asia,India,Maharashtra,,Mumbai
86.38.243.140,4,-18,thegeneralpost.com,IN,Asia,Southern Asia,India,Maharashtra,,Mumbai
217.21.94.199,4,-13,thegrasscourt.com,IN,Asia,Southern Asia,India,Maharashtra,,Mumbai
82.112.239.137,4,35,thehinditech.com,IN,Asia,Southern Asia,India,Maharashtra,,Mumbai
217.21.94.150,4,-26,theindiasaga.com,IN,Asia,Southern Asia,India,Maharashtra,,Mumbai
82.112.232.204,4,-25,theinfinix.in,IN,Asia,Southern Asia,India,Maharashtra,,Mumbai
193.203.186.217,4,-12,thelogictank.com,IN,Asia,Southern Asia,India,Maharashtra,,Mumbai
3.111.186.140,4,-4,thelondonclassiccarshow.co.uk,IN,Asia,Southern Asia,India,Maharashtra,,Mumbai
89.117.188.194,4,-4,theoctagonsolutions.com,IN,Asia,Southern Asia,India,Maharashtra,,Mumbai
89.117.27.85,4,-4,theonenews.in,IN,Asia,Southern Asia,India,Maharashtra,,Mumbai
82.112.239.31,4,-23,theplaygamepicks.com,IN,Asia,Southern Asia,India,Maharashtra,,Mumbai
172.105.60.236,4,168991,thesop.org,IN,Asia,Southern Asia,India,Maharashtra,,Mumbai
34.93.220.137,4,-2,thetechportal.com,IN,Asia,Southern Asia,India,Maharashtra,,Mumbai
35.154.181.1,4,-4,thinkexam.com,IN,Asia,Southern Asia,India,Maharashtra,,Mumbai
3.7.118.76,4,11,thinkexam.com,IN,Asia,Southern Asia,India,Maharashtra,,Mumbai
217.21.91.226,4,-18,thinkshaw.com,IN,Asia,Southern Asia,India,Maharashtra,,Mumbai
192.177.75.51,4,-19,thisismyindia.com,IN,Asia,Southern Asia,India,Maharashtra,,Mumbai
89.117.188.59,4,4,timeiconic.com,IN,Asia,Southern Asia,India,Maharashtra,,Mumbai
217.21.89.219,4,-4,timeskuwait.com,IN,Asia,Southern Asia,India,Maharashtra,,Mumbai
148.113.16.239,4,8,timesofsports.com,IN,Asia,Southern Asia,India,Maharashtra,,Mumbai
94.136.184.83,4,-16,tiptopface.com,IN,Asia,Southern Asia,India,Maharashtra,,Mumbai
93.127.208.175,4,-21,tmbuniv.ac.in,IN,Asia,Southern Asia,India,Maharashtra,,Mumbai
65.0.231.136,4,4,tnpl.com,IN,Asia,Southern Asia,India,Maharashtra,,Mumbai
89.117.157.94,4,-25,toodlestudios.com,IN,Asia,Southern Asia,India,Maharashtra,,Mumbai
154.56.54.214,4,-2,topsi.in,IN,Asia,Southern Asia,India,Maharashtra,,Mumbai
195.35.44.167,4,3,tourxperts.com,IN,Asia,Southern Asia,India,Maharashtra,,Mumbai
154.41.255.72,4,-20,trackier.com,IN,Asia,Southern Asia,India,Maharashtra,,Mumbai
82.112.239.16,4,-9,tradeflock.com,IN,Asia,Southern Asia,India,Maharashtra,,Mumbai
13.232.79.15,4,-4,treksandtrails.org,IN,Asia,Southern Asia,India,Maharashtra,,Mumbai
89.116.133.223,4,-21,trendingblogsweb.com,IN,Asia,Southern Asia,India,Maharashtra,,Mumbai
209.182.232.230,4,-23,trendybiz.in,IN,Asia,Southern Asia,India,Maharashtra,,Mumbai
93.127.207.72,4,-21,trendyflash.com,IN,Asia,Southern Asia,India,Maharashtra,,Mumbai
148.113.16.132,4,32,trisyscom.com,IN,Asia,Southern Asia,India,Maharashtra,,Mumbai
89.117.157.200,4,-25,tronologic.com,IN,Asia,Southern Asia,India,Maharashtra,,Mumbai
172.105.47.100,4,31,trophykart.in,IN,Asia,Southern Asia,India,Maharashtra,,Mumbai
62.72.28.17,4,-23,trumpingstars.com,IN,Asia,Southern Asia,India,Maharashtra,,Mumbai
217.21.94.168,4,-13,tubelessons.net,IN,Asia,Southern Asia,India,Maharashtra,,Mumbai
192.46.215.131,4,1342,uasd.edu,IN,Asia,Southern Asia,India,Maharashtra,,Mumbai
93.127.207.179,4,-25,ubsapp.com,IN,Asia,Southern Asia,India,Maharashtra,,Mumbai
194.238.20.56,4,-23,uinteam.net,IN,Asia,Southern Asia,India,Maharashtra,,Mumbai
82.112.229.46,4,-13,ulabox.com,IN,Asia,Southern Asia,India,Maharashtra,,Mumbai
77.37.46.216,4,-15,uma-rai.com,IN,Asia,Southern Asia,India,Maharashtra,,Mumbai
3.6.97.142,4,6,uneecops.com,IN,Asia,Southern Asia,India,Maharashtra,,Mumbai
172.105.58.69,4,-30,unibots.com,IN,Asia,Southern Asia,India,Maharashtra,,Mumbai
194.195.112.193,4,-28,unibots.in,IN,Asia,Southern Asia,India,Maharashtra,,Mumbai
3.110.34.115,4,2,univariety.com,IN,Asia,Southern Asia,India,Maharashtra,,Mumbai
154.41.233.95,4,-26,usatoptrand.com,IN,Asia,Southern Asia,India,Maharashtra,,Mumbai
91.108.107.234,4,-23,uvelichenie-gub-minsk.ru,IN,Asia,Southern Asia,India,Maharashtra,,Mumbai
91.108.107.103,4,-23,vachanbaddh.com,IN,Asia,Southern Asia,India,Maharashtra,,Mumbai
13.126.203.5,4,11,vakilsearch.com,IN,Asia,Southern Asia,India,Maharashtra,,Mumbai
193.203.185.159,4,-8,vansika.in,IN,Asia,Southern Asia,India,Maharashtra,,Mumbai
65.20.70.124,4,15,vapshop.ae,IN,Asia,Southern Asia,India,Maharashtra,,Mumbai
93.127.169.210,4,-25,varindia.com,IN,Asia,Southern Asia,India,Maharashtra,,Mumbai
89.117.157.90,4,3,vastusolution.co.in,IN,Asia,Southern Asia,India,Maharashtra,,Mumbai
89.117.157.63,4,-16,veganscure.com,IN,Asia,Southern Asia,India,Maharashtra,,Mumbai
172.105.52.49,4,-17,vegaslens.com,IN,Asia,Southern Asia,India,Maharashtra,,Mumbai
65.2.118.145,4,4,venuebookingz.com,IN,Asia,Southern Asia,India,Maharashtra,,Mumbai
62.72.28.21,4,-20,venueindelhi.com,IN,Asia,Southern Asia,India,Maharashtra,,Mumbai
65.20.85.170,4,16,ves.ac.in,IN,Asia,Southern Asia,India,Maharashtra,,Mumbai
88.222.245.253,4,-15,viceroybali.com,IN,Asia,Southern Asia,India,Maharashtra,,Mumbai
45.10.192.39,4,-15,vinsys.com,IN,Asia,Southern Asia,India,Maharashtra,,Mumbai
89.117.188.80,4,-4,vipdamangames.com,IN,Asia,Southern Asia,India,Maharashtra,,Mumbai
82.112.232.211,4,-28,vipraipurescorts.com,IN,Asia,Southern Asia,India,Maharashtra,,Mumbai
34.93.52.48,4,1,vishvasnews.com,IN,Asia,Southern Asia,India,Maharashtra,,Mumbai
103.14.99.163,4,-48,visvabharati.ac.in,IN,Asia,Southern Asia,India,Maharashtra,,Mumbai
89.116.134.167,4,-22,vitebsk-kurier.info,IN,Asia,Southern Asia,India,Maharashtra,,Mumbai
91.108.107.3,4,-25,vkamagras.cyou,IN,Asia,Southern Asia,India,Maharashtra,,Mumbai
89.117.157.48,4,-22,volgatigris.com,IN,Asia,Southern Asia,India,Maharashtra,,Mumbai
93.127.208.68,4,-22,vprov.com,IN,Asia,Southern Asia,India,Maharashtra,,Mumbai
65.20.73.59,4,-3,vssut.ac.in,IN,Asia,Southern Asia,India,Maharashtra,,Mumbai
193.203.185.216,4,-22,vvipescort.com,IN,Asia,Southern Asia,India,Maharashtra,,Mumbai
93.127.208.162,4,-8,walikali.com,IN,Asia,Southern Asia,India,Maharashtra,,Mumbai
82.112.233.75,4,-21,washingtonnewspost.com,IN,Asia,Southern Asia,India,Maharashtra,,Mumbai
82.112.232.120,4,-7,watertreatmentuae.com,IN,Asia,Southern Asia,India,Maharashtra,,Mumbai
93.127.195.140,4,4,web3devcommunity.com,IN,Asia,Southern Asia,India,Maharashtra,,Mumbai
157.173.216.178,4,-10,webindia.com,IN,Asia,Southern Asia,India,Maharashtra,,Mumbai
35.200.182.220,4,0,weblinkindia.net,IN,Asia,Southern Asia,India,Maharashtra,,Mumbai
82.112.232.149,4,-24,webnonline.com,IN,Asia,Southern Asia,India,Maharashtra,,Mumbai
82.112.229.213,4,-2,webpuran.in,IN,Asia,Southern Asia,India,Maharashtra,,Mumbai
193.203.185.165,4,-18,webtiks.com,IN,Asia,Southern Asia,India,Maharashtra,,Mumbai
89.116.133.4,4,11,weeklynewsmania.com,IN,Asia,Southern Asia,India,Maharashtra,,Mumbai
89.117.157.73,4,-19,weldingmachinemanufacturer.com,IN,Asia,Southern Asia,India,Maharashtra,,Mumbai
217.21.95.95,4,-24,welnesbiolabs.com,IN,Asia,Southern Asia,India,Maharashtra,,Mumbai
217.21.88.115,4,-23,whataftercollege.com,IN,Asia,Southern Asia,India,Maharashtra,,Mumbai
195.35.44.71,4,-22,whatsnews4today.com,IN,Asia,Southern Asia,India,Maharashtra,,Mumbai
89.117.157.37,4,-15,wishwantwear.com,IN,Asia,Southern Asia,India,Maharashtra,,Mumbai
82.112.232.117,4,-14,withlovemoni.com,IN,Asia,Southern Asia,India,Maharashtra,,Mumbai
82.112.232.236,4,-16,wittyflick.com,IN,Asia,Southern Asia,India,Maharashtra,,Mumbai
82.112.229.5,4,-26,wootique.in,IN,Asia,Southern Asia,India,Maharashtra,,Mumbai
172.105.63.118,4,-21,workingment.com,IN,Asia,Southern Asia,India,Maharashtra,,Mumbai
157.173.217.221,4,-20,worldranklist.com,IN,Asia,Southern Asia,India,Maharashtra,,Mumbai
46.28.45.167,4,-6,writememyessay.com,IN,Asia,Southern Asia,India,Maharashtra,,Mumbai
46.28.45.95,4,-11,writinglaw.com,IN,Asia,Southern Asia,India,Maharashtra,,Mumbai
86.38.243.236,4,-15,www.airjordanretro.uk,IN,Asia,Southern Asia,India,Maharashtra,,Mumbai
93.127.168.97,4,17,xn--c3ca4bdv0add2d4dgtbbt8oqf.com,IN,Asia,Southern Asia,India,Maharashtra,,Mumbai
93.127.208.101,4,-22,xuzpost.com,IN,Asia,Southern Asia,India,Maharashtra,,Mumbai
192.177.75.217,4,-33,yaallah.in,IN,Asia,Southern Asia,India,Maharashtra,,Mumbai
193.202.44.31,4,-19,yaina.in,IN,Asia,Southern Asia,India,Maharashtra,,Mumbai
46.28.45.242,4,-25,yasirelectronics.com,IN,Asia,Southern Asia,India,Maharashtra,,Mumbai
217.21.85.178,4,-22,ydfindia.org,IN,Asia,Southern Asia,India,Maharashtra,,Mumbai
193.203.187.236,4,-24,yeahhub.com,IN,Asia,Southern Asia,India,Maharashtra,,Mumbai
217.21.95.16,4,-24,yogitechsolutions.com,IN,Asia,Southern Asia,India,Maharashtra,,Mumbai
148.113.6.186,4,-8,yt2fb.com,IN,Asia,Southern Asia,India,Maharashtra,,Mumbai
45.79.124.13,4,-16,yukaichou.com,IN,Asia,Southern Asia,India,Maharashtra,,Mumbai
89.117.27.153,4,-15,zaidpatel.com,IN,Asia,Southern Asia,India,Maharashtra,,Mumbai
65.2.95.52,4,-3,ziyyara.com,IN,Asia,Southern Asia,India,Maharashtra,,Mumbai
13.126.99.180,4,-3,ziyyara.com,IN,Asia,Southern Asia,India,Maharashtra,,Mumbai
13.233.210.132,4,1,ziyyara.in,IN,Asia,Southern Asia,India,Maharashtra,,Mumbai
13.127.53.90,4,-3,ziyyara.in,IN,Asia,Southern Asia,India,Maharashtra,,Mumbai
35.154.156.55,4,17,zostel.com,IN,Asia,Southern Asia,India,Maharashtra,,Mumbai
23.50.252.70,4,-21,zycus.com,IN,Asia,Southern Asia,India,Maharashtra,,Mumbai
