reflector_ip,ip_version,offset,description,country_code,region,sub_region,country_name,sub_division_1,sub_division_2,city
197.221.12.179,4,4,aadexpo.co.za,ZA,Africa,Sub-Saharan Africa,South Africa,Western Cape,,Somerset West
197.221.10.89,4,27,amabhungane.org,ZA,Africa,Sub-Saharan Africa,South Africa,Western Cape,,Somerset West
196.21.185.104,4,-20,astro4dev.org,ZA,Africa,Sub-Saharan Africa,South Africa,Western Cape,,Cape Town
197.221.14.97,4,3,atomtraining.co.za,ZA,Africa,Sub-Saharan Africa,South Africa,Western Cape,,Somerset West
197.221.2.130,4,4,biggameparks.org,ZA,Africa,Sub-Saharan Africa,South Africa,Western Cape,,Somerset West
197.221.2.34,4,7,blockchainafrica.co,ZA,Africa,Sub-Saharan Africa,South Africa,Western Cape,,Somerset West
197.221.10.164,4,7,bloemfonteincourant.co.za,ZA,Africa,Sub-Saharan Africa,South Africa,Western Cape,,Somerset West
197.221.10.201,4,4,boston.co.za,ZA,Africa,Sub-Saharan Africa,South Africa,Western Cape,,Somerset West
160.119.101.164,4,4,buildcoza.co.za,ZA,Africa,Sub-Saharan Africa,South Africa,Western Cape,,Cape Town
197.221.1.20,4,6,capejewel.com,ZA,Africa,Sub-Saharan Africa,South Africa,Western Cape,,Somerset West
197.221.14.7,4,2,capepoint.co.za,ZA,Africa,Sub-Saharan Africa,South Africa,Western Cape,,Somerset West
139.84.233.209,4,4,capetownbicyclemap.co.za,ZA,Africa,Sub-Saharan Africa,South Africa,Western Cape,,Durbanville
197.221.2.62,4,12,capetowndiamondmuseum.org,ZA,Africa,Sub-Saharan Africa,South Africa,Western Cape,,Somerset West
13.244.188.58,4,23,cashbuild.co.za,ZA,Africa,Sub-Saharan Africa,South Africa,Western Cape,,Cape Town
197.221.14.50,4,42,castleofgoodhope.co.za,ZA,Africa,Sub-Saharan Africa,South Africa,Western Cape,,Somerset West
197.221.10.229,4,9,cbn.co.za,ZA,Africa,Sub-Saharan Africa,South Africa,Western Cape,,Somerset West
197.221.10.125,4,4,cge.org.za,ZA,Africa,Sub-Saharan Africa,South Africa,Western Cape,,Somerset West
197.221.2.5,4,3,chobenationalpark.co.za,ZA,Africa,Sub-Saharan Africa,South Africa,Western Cape,,Somerset West
197.221.14.35,4,2,conservationaction.co.za,ZA,Africa,Sub-Saharan Africa,South Africa,Western Cape,,Somerset West
102.182.117.179,4,10320,DNS Server: 102-182-117-179.ip.afrihost.capetown,ZA,Africa,Sub-Saharan Africa,South Africa,Western Cape,,Cape Town
102.214.203.75,4,151930,DNS Server: 102.214.203.75.techtribe.network,ZA,Africa,Sub-Saharan Africa,South Africa,Western Cape,,Paarl
169.1.254.224,4,-7198785,DNS Server: 169-1-254-224.ip.afrihost.co.za,ZA,Africa,Sub-Saharan Africa,South Africa,Western Cape,,Cape Town
196.208.40.4,4,6,DNS Server: 196-208-40-4.ip.broadband.ddii.network,ZA,Africa,Sub-Saharan Africa,South Africa,Western Cape,,Cape Town
197.155.100.31,4,46874,DNS Server: 197-155-100-31.sainet.co.za,ZA,Africa,Sub-Saharan Africa,South Africa,Western Cape,,Cape Town
197.221.183.133,4,19358,DNS Server: 197-221-183-133.sainet.co.za,ZA,Africa,Sub-Saharan Africa,South Africa,Western Cape,,Cape Town
197.221.183.183,4,23529,DNS Server: 197-221-183-183.sainet.co.za,ZA,Africa,Sub-Saharan Africa,South Africa,Western Cape,,Cape Town
197.221.184.245,4,44212,DNS Server: 197-221-184-245.sainet.co.za,ZA,Africa,Sub-Saharan Africa,South Africa,Western Cape,,Cape Town
102.140.112.101,4,24,DNS Server: ctn-dnscache.dk.net.za,ZA,Africa,Sub-Saharan Africa,South Africa,Western Cape,,Vredenburg
41.23.113.113,4,17168022,DNS Server: vc-41-23-113-113.umts.vodacom.co.za,ZA,Africa,Sub-Saharan Africa,South Africa,Western Cape,,Stellenbosch
41.23.113.133,4,-36851536,DNS Server: vc-41-23-113-133.umts.vodacom.co.za,ZA,Africa,Sub-Saharan Africa,South Africa,Western Cape,,Stellenbosch
41.23.113.150,4,-1850354,DNS Server: vc-41-23-113-150.umts.vodacom.co.za,ZA,Africa,Sub-Saharan Africa,South Africa,Western Cape,,Stellenbosch
41.23.113.213,4,-17984435,DNS Server: vc-41-23-113-213.umts.vodacom.co.za,ZA,Africa,Sub-Saharan Africa,South Africa,Western Cape,,Stellenbosch
41.23.113.86,4,14878863,DNS Server: vc-41-23-113-86.umts.vodacom.co.za,ZA,Africa,Sub-Saharan Africa,South Africa,Western Cape,,Stellenbosch
41.23.114.25,4,-23427717,DNS Server: vc-41-23-114-25.umts.vodacom.co.za,ZA,Africa,Sub-Saharan Africa,South Africa,Western Cape,,Stellenbosch
41.23.115.51,4,19811904,DNS Server: vc-41-23-115-51.umts.vodacom.co.za,ZA,Africa,Sub-Saharan Africa,South Africa,Western Cape,,Stellenbosch
41.23.184.40,4,-45652596,DNS Server: vc-41-23-184-40.umts.vodacom.co.za,ZA,Africa,Sub-Saharan Africa,South Africa,Western Cape,,Cape Town
41.23.184.54,4,-15217002,DNS Server: vc-41-23-184-54.umts.vodacom.co.za,ZA,Africa,Sub-Saharan Africa,South Africa,Western Cape,,Cape Town
41.23.240.115,4,17448346,DNS Server: vc-41-23-240-115.umts.vodacom.co.za,ZA,Africa,Sub-Saharan Africa,South Africa,Western Cape,,Goodwood
41.23.240.216,4,25607881,DNS Server: vc-41-23-240-216.umts.vodacom.co.za,ZA,Africa,Sub-Saharan Africa,South Africa,Western Cape,,Goodwood
41.23.253.134,4,-39752985,DNS Server: vc-41-23-253-134.umts.vodacom.co.za,ZA,Africa,Sub-Saharan Africa,South Africa,Western Cape,,Goodwood
105.244.179.225,4,1460,DNS Server: vc-gp-n-105-244-179-225.umts.vodacom.co.za,ZA,Africa,Sub-Saharan Africa,South Africa,Western Cape,,Cape Town
197.221.12.104,4,62,etoshanationalpark.co.za,ZA,Africa,Sub-Saharan Africa,South Africa,Western Cape,,Somerset West
197.221.14.16,4,12,fammarais.co.za,ZA,Africa,Sub-Saharan Africa,South Africa,Western Cape,,Somerset West
197.221.12.236,4,23,fanews.co.za,ZA,Africa,Sub-Saharan Africa,South Africa,Western Cape,,Somerset West
197.221.14.174,4,4,fanrpan.org,ZA,Africa,Sub-Saharan Africa,South Africa,Western Cape,,Somerset West
139.84.227.107,4,0,fipumj.ac.id,ZA,Africa,Sub-Saharan Africa,South Africa,Western Cape,,Durbanville
197.221.2.4,4,12,freemarketfoundation.com,ZA,Africa,Sub-Saharan Africa,South Africa,Western Cape,,Somerset West
197.221.2.31,4,9,futureclimateafrica.org,ZA,Africa,Sub-Saharan Africa,South Africa,Western Cape,,Somerset West
197.221.14.5,4,4,fynrestaurant.com,ZA,Africa,Sub-Saharan Africa,South Africa,Western Cape,,Somerset West
139.84.231.57,4,1,goplacesdigital.com,ZA,Africa,Sub-Saharan Africa,South Africa,Western Cape,,Durbanville
197.221.10.36,4,4,harbourhouse.co.za,ZA,Africa,Sub-Saharan Africa,South Africa,Western Cape,,Somerset West
197.221.10.44,4,3,haval-gwm.co.mz,ZA,Africa,Sub-Saharan Africa,South Africa,Western Cape,,Somerset West
197.221.10.123,4,9,heartfm.co.za,ZA,Africa,Sub-Saharan Africa,South Africa,Western Cape,,Somerset West
197.221.2.217,4,9,hellkom.co.za,ZA,Africa,Sub-Saharan Africa,South Africa,Western Cape,,Somerset West
197.221.0.122,4,5,hughmasekela.co.za,ZA,Africa,Sub-Saharan Africa,South Africa,Western Cape,,Somerset West
197.221.2.51,4,33,intergate-immigration.com,ZA,Africa,Sub-Saharan Africa,South Africa,Western Cape,,Somerset West
197.221.14.106,4,4,joesbeerhouse.com,ZA,Africa,Sub-Saharan Africa,South Africa,Western Cape,,Somerset West
197.221.14.29,4,5,johnnyclegg.com,ZA,Africa,Sub-Saharan Africa,South Africa,Western Cape,,Somerset West
197.221.2.38,4,4,jusben.com,ZA,Africa,Sub-Saharan Africa,South Africa,Western Cape,,Somerset West
197.221.10.220,4,26,knysnaelephantpark.co.za,ZA,Africa,Sub-Saharan Africa,South Africa,Western Cape,,Somerset West
197.221.0.24,4,15,landcruiserclub.co.za,ZA,Africa,Sub-Saharan Africa,South Africa,Western Cape,,Somerset West
209.203.41.6,4,29,legacyhotels.co.za,ZA,Africa,Sub-Saharan Africa,South Africa,Western Cape,,Cape Town
197.155.21.78,4,1,mastodon.africa,ZA,Africa,Sub-Saharan Africa,South Africa,Western Cape,,Cape Town
197.221.14.108,4,21,mlfwines.com,ZA,Africa,Sub-Saharan Africa,South Africa,Western Cape,,Somerset West
197.221.12.112,4,4,mountainpassessouthafrica.co.za,ZA,Africa,Sub-Saharan Africa,South Africa,Western Cape,,Somerset West
197.221.14.26,4,3,moyo.co.za,ZA,Africa,Sub-Saharan Africa,South Africa,Western Cape,,Somerset West
197.221.12.173,4,5,mpumalanga.com,ZA,Africa,Sub-Saharan Africa,South Africa,Western Cape,,Somerset West
13.244.198.220,4,39,myschool.co.za,ZA,Africa,Sub-Saharan Africa,South Africa,Western Cape,,Cape Town
197.221.10.88,4,4,oceanbasket.com,ZA,Africa,Sub-Saharan Africa,South Africa,Western Cape,,Somerset West
160.19.114.106,4,350,Ookla Speedtest Server 14749: sp1.interworks.in,ZA,Africa,Sub-Saharan Africa,South Africa,Western Cape,,Hermanus
160.119.238.117,4,300,Ookla Speedtest Server 18503: speedtest.cpt.websquad.co.za,ZA,Africa,Sub-Saharan Africa,South Africa,Western Cape,,Cape Town
102.165.64.110,4,195,Ookla Speedtest Server 19897: speedtest.wibernet.co.za,ZA,Africa,Sub-Saharan Africa,South Africa,Western Cape,,Cape Town
41.73.39.5,4,297,Ookla Speedtest Server 21325: ctspeed.rain.co.za,ZA,Africa,Sub-Saharan Africa,South Africa,Western Cape,,Cape Town
102.140.112.222,4,1374,Ookla Speedtest Server 29256: speedtest.dkwireless.co.za,ZA,Africa,Sub-Saharan Africa,South Africa,Western Cape,,Vredenburg
169.255.171.121,4,303,Ookla Speedtest Server 34146: speedtest-paarl.ibits.co.za,ZA,Africa,Sub-Saharan Africa,South Africa,Western Cape,,Wellington
169.255.171.122,4,363,Ookla Speedtest Server 34147: speedtest-wellington.ibits.co.za,ZA,Africa,Sub-Saharan Africa,South Africa,Western Cape,,Wellington
102.165.120.234,4,2773,Ookla Speedtest Server 38938: speedtest.bdcwireless.co.za,ZA,Africa,Sub-Saharan Africa,South Africa,Western Cape,,Hermanus
102.135.240.213,4,316,Ookla Speedtest Server 48238: cpt-ter-speedtest1-vl145.atomic.ac,ZA,Africa,Sub-Saharan Africa,South Africa,Western Cape,,Cape Town
196.250.193.242,4,333,Ookla Speedtest Server 57315: ooklacpt.tech5.co.za,ZA,Africa,Sub-Saharan Africa,South Africa,Western Cape,,Cape Town
139.84.230.123,4,12,oolite.org,ZA,Africa,Sub-Saharan Africa,South Africa,Western Cape,,Durbanville
197.221.14.119,4,5,oscarpistorius.com,ZA,Africa,Sub-Saharan Africa,South Africa,Western Cape,,Somerset West
197.221.12.145,4,17,ozcf.co.za,ZA,Africa,Sub-Saharan Africa,South Africa,Western Cape,,Somerset West
160.119.252.105,4,5,platformtimes.com.ng,ZA,Africa,Sub-Saharan Africa,South Africa,Western Cape,,Cape Town
197.221.14.31,4,5,portfoliocollection.com,ZA,Africa,Sub-Saharan Africa,South Africa,Western Cape,,Somerset West
197.221.14.41,4,-1,queendommedia.com,ZA,Africa,Sub-Saharan Africa,South Africa,Western Cape,,Somerset West
151.101.227.10,4,55,raffles.com,ZA,Africa,Sub-Saharan Africa,South Africa,Western Cape,,Cape Town
197.221.2.35,4,14,randrefinery.com,ZA,Africa,Sub-Saharan Africa,South Africa,Western Cape,,Somerset West
197.221.12.210,4,4,sa4x4.co.za,ZA,Africa,Sub-Saharan Africa,South Africa,Western Cape,,Somerset West
197.221.2.27,4,22,saicsit.org,ZA,Africa,Sub-Saharan Africa,South Africa,Western Cape,,Somerset West
196.21.185.68,4,1,salt.ac.za,ZA,Africa,Sub-Saharan Africa,South Africa,Western Cape,,Cape Town
13.245.210.27,4,13,sapeople.com,ZA,Africa,Sub-Saharan Africa,South Africa,Western Cape,,Cape Town
197.221.14.23,4,16,section27.org.za,ZA,Africa,Sub-Saharan Africa,South Africa,Western Cape,,Somerset West
105.19.58.129,4,198420,sharenet.co.za,ZA,Africa,Sub-Saharan Africa,South Africa,Western Cape,,Cape Town
197.221.12.70,4,18,ska.ac.za,ZA,Africa,Sub-Saharan Africa,South Africa,Western Cape,,Somerset West
197.221.10.112,4,4,southafrica.to,ZA,Africa,Sub-Saharan Africa,South Africa,Western Cape,,Somerset West
197.221.2.13,4,19,startingelectronics.org,ZA,Africa,Sub-Saharan Africa,South Africa,Western Cape,,Somerset West
139.84.226.219,4,70,stikesdutagama.ac.id,ZA,Africa,Sub-Saharan Africa,South Africa,Western Cape,,Durbanville
139.84.238.246,4,4,swazimission.co.za,ZA,Africa,Sub-Saharan Africa,South Africa,Western Cape,,Durbanville
197.221.14.3,4,7,tectonic.co.za,ZA,Africa,Sub-Saharan Africa,South Africa,Western Cape,,Somerset West
197.221.2.20,4,46,theforge.co.za,ZA,Africa,Sub-Saharan Africa,South Africa,Western Cape,,Somerset West
197.221.14.64,4,4,thegalileo.co.za,ZA,Africa,Sub-Saharan Africa,South Africa,Western Cape,,Somerset West
197.221.14.109,4,1,tolken.co.za,ZA,Africa,Sub-Saharan Africa,South Africa,Western Cape,,Somerset West
139.84.236.88,4,11,tubidy.la,ZA,Africa,Sub-Saharan Africa,South Africa,Western Cape,,Durbanville
197.221.10.177,4,20,usaf.ac.za,ZA,Africa,Sub-Saharan Africa,South Africa,Western Cape,,Somerset West
197.221.165.100,4,187744,visiteasterncape.co.za,ZA,Africa,Sub-Saharan Africa,South Africa,Western Cape,,Cape Town
197.221.12.223,4,2,werksmans.com,ZA,Africa,Sub-Saharan Africa,South Africa,Western Cape,,Somerset West
197.221.2.37,4,5,whatiftheworld.com,ZA,Africa,Sub-Saharan Africa,South Africa,Western Cape,,Somerset West
197.221.0.242,4,4,zulu.org.za,ZA,Africa,Sub-Saharan Africa,South Africa,Western Cape,,Somerset West
