reflector_ip,ip_version,offset,description,country_code,region,sub_region,country_name,sub_division_1,sub_division_2,city
44.230.44.244,4,5,3dlook.me,US,Americas,Northern America,United States of America,Oregon,,Boardman
44.237.70.253,4,4,4iiii.com,US,Americas,Northern America,United States of America,Oregon,,Boardman
52.27.231.76,4,2,acemetrix.com,US,Americas,Northern America,United States of America,Oregon,,Boardman
54.188.52.62,4,6,adminmonitor.com,US,Americas,Northern America,United States of America,Oregon,,Boardman
54.148.69.205,4,3,adminmonitor.com,US,Americas,Northern America,United States of America,Oregon,,Boardman
52.33.243.231,4,19,adminmonitor.com,US,Americas,Northern America,United States of America,Oregon,,Boardman
34.208.203.190,4,5,airdata.com,US,Americas,Northern America,United States of America,Oregon,,Boardman
52.25.98.68,4,5,aiseesoft.com,US,Americas,Northern America,United States of America,Oregon,,Boardman
54.68.96.25,4,128,alisonarmstrong.com,US,Americas,Northern America,United States of America,Oregon,,Boardman
100.21.57.139,4,7,alleanzaimobiliaria.com.br,US,Americas,Northern America,United States of America,Oregon,,Boardman
52.11.126.232,4,180,altmuslimah.com,US,Americas,Northern America,United States of America,Oregon,,Boardman
54.68.36.138,4,14,amaszonas.com,US,Americas,Northern America,United States of America,Oregon,,Boardman
35.163.207.168,4,5,anfip.org.br,US,Americas,Northern America,United States of America,Oregon,,Boardman
52.11.220.160,4,-253214,anii.org.uy,US,Americas,Northern America,United States of America,Oregon,,Boardman
100.20.92.225,4,-1,anyrec.io,US,Americas,Northern America,United States of America,Oregon,,Boardman
52.88.145.60,4,25,apeaksoft.com,US,Americas,Northern America,United States of America,Oregon,,Boardman
35.167.217.60,4,3,aprn.org,US,Americas,Northern America,United States of America,Oregon,,Boardman
52.41.3.203,4,1,apwg.org,US,Americas,Northern America,United States of America,Oregon,,Boardman
52.32.95.156,4,43,arestravel.com,US,Americas,Northern America,United States of America,Oregon,,Boardman
52.11.239.87,4,2,armeniapedia.org,US,Americas,Northern America,United States of America,Oregon,,Boardman
44.240.89.38,4,56,augustasportswear.com,US,Americas,Northern America,United States of America,Oregon,,Boardman
44.240.34.10,4,0,augustasportswear.com,US,Americas,Northern America,United States of America,Oregon,,Boardman
52.41.217.222,4,52,avaamo.ai,US,Americas,Northern America,United States of America,Oregon,,Boardman
52.36.248.55,4,15,avaamo.ai,US,Americas,Northern America,United States of America,Oregon,,Boardman
44.241.91.190,4,52,avaamo.ai,US,Americas,Northern America,United States of America,Oregon,,Boardman
54.218.146.122,4,68,avaamo.ai,US,Americas,Northern America,United States of America,Oregon,,Boardman
18.236.195.236,4,19,avaide.com,US,Americas,Northern America,United States of America,Oregon,,Boardman
52.13.27.231,4,17,bgmgirl.com,US,Americas,Northern America,United States of America,Oregon,,Boardman
54.213.41.230,4,7,bibbase.org,US,Americas,Northern America,United States of America,Oregon,,Boardman
54.71.87.189,4,-1,bibbulmuntrack.org.au,US,Americas,Northern America,United States of America,Oregon,,Boardman
52.41.133.68,4,5,bigfooty.com,US,Americas,Northern America,United States of America,Oregon,,Boardman
44.230.91.100,4,46,bigfooty.com,US,Americas,Northern America,United States of America,Oregon,,Boardman
52.11.229.59,4,80,bitglass.com,US,Americas,Northern America,United States of America,Oregon,,Boardman
52.41.10.242,4,19,bitglass.com,US,Americas,Northern America,United States of America,Oregon,,Boardman
54.187.61.52,4,10,bitglass.com,US,Americas,Northern America,United States of America,Oregon,,Boardman
54.187.64.198,4,30,bitglass.com,US,Americas,Northern America,United States of America,Oregon,,Boardman
54.191.109.124,4,7,blockfolio.com,US,Americas,Northern America,United States of America,Oregon,,Boardman
52.33.195.254,4,4,blockfolio.com,US,Americas,Northern America,United States of America,Oregon,,Boardman
54.218.199.113,4,6,bollywood.com,US,Americas,Northern America,United States of America,Oregon,,Boardman
34.208.54.94,4,13,bookey.app,US,Americas,Northern America,United States of America,Oregon,,Boardman
100.20.17.255,4,10,bookey.app,US,Americas,Northern America,United States of America,Oregon,,Boardman
44.239.85.220,4,1,cafago.com,US,Americas,Northern America,United States of America,Oregon,,Boardman
35.83.171.225,4,3,cafago.com,US,Americas,Northern America,United States of America,Oregon,,Boardman
34.215.113.189,4,5,cafebonappetit.com,US,Americas,Northern America,United States of America,Oregon,,Boardman
34.216.100.204,4,3,cafebonappetit.com,US,Americas,Northern America,United States of America,Oregon,,Boardman
44.231.93.27,4,78,cafebonappetit.com,US,Americas,Northern America,United States of America,Oregon,,Boardman
52.10.68.252,4,2,cafebonappetit.com,US,Americas,Northern America,United States of America,Oregon,,Boardman
54.218.90.201,4,3,califa.org,US,Americas,Northern America,United States of America,Oregon,,Boardman
44.240.203.217,4,3,calmradio.com,US,Americas,Northern America,United States of America,Oregon,,Boardman
100.21.210.34,4,7,calmradio.com,US,Americas,Northern America,United States of America,Oregon,,Boardman
52.13.63.198,4,24,calmradio.com,US,Americas,Northern America,United States of America,Oregon,,Boardman
54.191.106.98,4,9,casualcollective.com,US,Americas,Northern America,United States of America,Oregon,,Boardman
35.155.254.145,4,1,ccssd.org,US,Americas,Northern America,United States of America,Oregon,,Boardman
54.68.7.204,4,15,chargifypay.com,US,Americas,Northern America,United States of America,Oregon,,Boardman
44.239.38.75,4,4,chargifypay.com,US,Americas,Northern America,United States of America,Oregon,,Boardman
35.162.18.143,4,6,chargifypay.com,US,Americas,Northern America,United States of America,Oregon,,Boardman
35.160.62.65,4,6,christonekingfishingram.com,US,Americas,Northern America,United States of America,Oregon,,Boardman
44.227.31.219,4,3,cleanmasterofficial.com,US,Americas,Northern America,United States of America,Oregon,,Boardman
44.239.76.136,4,8,cleanmasterofficial.com,US,Americas,Northern America,United States of America,Oregon,,Boardman
52.27.95.132,4,2,click2stream.com,US,Americas,Northern America,United States of America,Oregon,,Boardman
54.148.84.45,4,41,click2stream.com,US,Americas,Northern America,United States of America,Oregon,,Boardman
44.230.206.67,4,10,click2stream.com,US,Americas,Northern America,United States of America,Oregon,,Boardman
52.26.193.31,4,3,click2stream.com,US,Americas,Northern America,United States of America,Oregon,,Boardman
35.167.33.164,4,-2,closetomyheart.com,US,Americas,Northern America,United States of America,Oregon,,Boardman
52.13.5.33,4,5,colorquiz.com,US,Americas,Northern America,United States of America,Oregon,,Boardman
34.211.195.96,4,42,community.lawyer,US,Americas,Northern America,United States of America,Oregon,,Boardman
54.70.151.172,4,8,control4.com,US,Americas,Northern America,United States of America,Oregon,,Boardman
52.89.118.207,4,2,control4.com,US,Americas,Northern America,United States of America,Oregon,,Boardman
54.200.214.197,4,-5,costumedesignersguild.com,US,Americas,Northern America,United States of America,Oregon,,Boardman
52.37.54.35,4,26,criptext.com,US,Americas,Northern America,United States of America,Oregon,,Boardman
35.162.52.224,4,8,crystal-information.com,US,Americas,Northern America,United States of America,Oregon,,Boardman
54.70.122.111,4,3,crystalcentral.com,US,Americas,Northern America,United States of America,Oregon,,Boardman
52.33.100.45,4,5,csmusic.net,US,Americas,Northern America,United States of America,Oregon,,Boardman
35.166.83.79,4,3,csmusic.net,US,Americas,Northern America,United States of America,Oregon,,Boardman
34.217.155.195,4,4,csmusic.net,US,Americas,Northern America,United States of America,Oregon,,Boardman
52.34.201.16,4,8,csmusic.net,US,Americas,Northern America,United States of America,Oregon,,Boardman
44.238.9.169,4,4,csueastbay.edu,US,Americas,Northern America,United States of America,Oregon,,Boardman
35.160.230.247,4,4,csueastbay.edu,US,Americas,Northern America,United States of America,Oregon,,Boardman
54.218.46.116,4,4,csueastbay.edu,US,Americas,Northern America,United States of America,Oregon,,Boardman
34.223.252.197,4,6,cutout.pro,US,Americas,Northern America,United States of America,Oregon,,Boardman
54.213.0.200,4,875,cyberstep.com,US,Americas,Northern America,United States of America,Oregon,,Boardman
54.148.25.117,4,1,databridgemarketresearch.com,US,Americas,Northern America,United States of America,Oregon,,Boardman
54.71.210.88,4,9,databridgemarketresearch.com,US,Americas,Northern America,United States of America,Oregon,,Boardman
35.80.98.40,4,9,databridgemarketresearch.com,US,Americas,Northern America,United States of America,Oregon,,Boardman
34.212.245.10,4,12,datasheetarchive.com,US,Americas,Northern America,United States of America,Oregon,,Boardman
52.36.198.145,4,3,dealmoon.com,US,Americas,Northern America,United States of America,Oregon,,Boardman
52.11.240.137,4,43,denomades.com,US,Americas,Northern America,United States of America,Oregon,,Boardman
35.162.32.193,4,10,denomades.com,US,Americas,Northern America,United States of America,Oregon,,Boardman
34.209.176.26,4,18,destinflorida.com,US,Americas,Northern America,United States of America,Oregon,,Boardman
52.40.217.233,4,2,destinflorida.com,US,Americas,Northern America,United States of America,Oregon,,Boardman
54.213.139.226,4,35,digitalsignage.com,US,Americas,Northern America,United States of America,Oregon,,Boardman
34.215.53.35,4,5,dimelo.com,US,Americas,Northern America,United States of America,Oregon,,Boardman
44.240.17.238,4,6,dimelo.com,US,Americas,Northern America,United States of America,Oregon,,Boardman
52.13.138.70,4,-3,diversity-jobs.com,US,Americas,Northern America,United States of America,Oregon,,Boardman
52.33.197.131,4,11,dmv.com,US,Americas,Northern America,United States of America,Oregon,,Boardman
52.26.72.219,4,4,dragonmount.com,US,Americas,Northern America,United States of America,Oregon,,Boardman
44.229.142.142,4,35,dragonmount.com,US,Americas,Northern America,United States of America,Oregon,,Boardman
52.43.97.230,4,5,dragonmount.com,US,Americas,Northern America,United States of America,Oregon,,Boardman
54.200.24.20,4,4,dragonmount.com,US,Americas,Northern America,United States of America,Oregon,,Boardman
54.244.87.178,4,7,driveweatherapp.com,US,Americas,Northern America,United States of America,Oregon,,Boardman
52.26.62.214,4,16,dukesseafood.com,US,Americas,Northern America,United States of America,Oregon,,Boardman
54.191.61.237,4,70,dukesseafood.com,US,Americas,Northern America,United States of America,Oregon,,Boardman
52.36.11.12,4,0,e-iceblue.com,US,Americas,Northern America,United States of America,Oregon,,Boardman
54.70.63.188,4,73,easepdf.com,US,Americas,Northern America,United States of America,Oregon,,Boardman
52.35.171.73,4,301,easyar.com,US,Americas,Northern America,United States of America,Oregon,,Boardman
35.161.143.102,4,129,economista.com.mx,US,Americas,Northern America,United States of America,Oregon,,Boardman
35.85.110.61,4,87,ecovacs.com,US,Americas,Northern America,United States of America,Oregon,,Boardman
44.231.49.0,4,1,edanzediting.com,US,Americas,Northern America,United States of America,Oregon,,Boardman
54.201.225.27,4,77,edtabsonline24h.com,US,Americas,Northern America,United States of America,Oregon,,Boardman
54.148.207.117,4,10,ehsinsight.com,US,Americas,Northern America,United States of America,Oregon,,Boardman
100.21.65.91,4,12,ehsinsight.com,US,Americas,Northern America,United States of America,Oregon,,Boardman
54.148.239.35,4,13,ehungry.com,US,Americas,Northern America,United States of America,Oregon,,Boardman
35.161.100.221,4,21,elcomsoft.com,US,Americas,Northern America,United States of America,Oregon,,Boardman
34.215.188.205,4,172,elecfreaks.com,US,Americas,Northern America,United States of America,Oregon,,Boardman
54.148.72.236,4,15,emailonacid.com,US,Americas,Northern America,United States of America,Oregon,,Boardman
52.39.114.251,4,50,emailonacid.com,US,Americas,Northern America,United States of America,Oregon,,Boardman
35.161.91.7,4,79,emailonacid.com,US,Americas,Northern America,United States of America,Oregon,,Boardman
52.27.211.206,4,32,esljobslounge.com,US,Americas,Northern America,United States of America,Oregon,,Boardman
35.166.84.215,4,61,eventhi.io,US,Americas,Northern America,United States of America,Oregon,,Boardman
54.191.125.109,4,53,eventhi.io,US,Americas,Northern America,United States of America,Oregon,,Boardman
35.161.124.106,4,31,experianidworks.com,US,Americas,Northern America,United States of America,Oregon,,Boardman
52.89.127.60,4,12,fav.me,US,Americas,Northern America,United States of America,Oregon,,Boardman
34.213.210.12,4,8,fav.me,US,Americas,Northern America,United States of America,Oregon,,Boardman
52.26.38.7,4,2,fav.me,US,Americas,Northern America,United States of America,Oregon,,Boardman
52.37.169.217,4,1,fielding.edu,US,Americas,Northern America,United States of America,Oregon,,Boardman
44.239.99.253,4,17,firestats.cc,US,Americas,Northern America,United States of America,Oregon,,Boardman
52.11.241.53,4,-33346,floobits.com,US,Americas,Northern America,United States of America,Oregon,,Boardman
52.89.47.77,4,174975,floobits.com,US,Americas,Northern America,United States of America,Oregon,,Boardman
50.112.40.6,4,3,fonelab.com,US,Americas,Northern America,United States of America,Oregon,,Boardman
52.26.173.149,4,23,freemind.today,US,Americas,Northern America,United States of America,Oregon,,Boardman
35.166.142.92,4,30,freemyip.com,US,Americas,Northern America,United States of America,Oregon,,Boardman
100.20.112.54,4,2,frontpanelexpress.com,US,Americas,Northern America,United States of America,Oregon,,Boardman
44.235.97.209,4,5,fs.com,US,Americas,Northern America,United States of America,Oregon,,Boardman
44.232.196.184,4,0,fs.com,US,Americas,Northern America,United States of America,Oregon,,Boardman
34.211.109.156,4,14,geekexchange.com,US,Americas,Northern America,United States of America,Oregon,,Boardman
54.69.253.54,4,4,genebase.com,US,Americas,Northern America,United States of America,Oregon,,Boardman
44.241.76.33,4,4,genebase.com,US,Americas,Northern America,United States of America,Oregon,,Boardman
54.200.124.211,4,-1,getmymacros.com,US,Americas,Northern America,United States of America,Oregon,,Boardman
54.68.50.60,4,4,getwork.com,US,Americas,Northern America,United States of America,Oregon,,Boardman
35.83.22.192,4,2,getwork.com,US,Americas,Northern America,United States of America,Oregon,,Boardman
52.43.49.102,4,3,getwork.com,US,Americas,Northern America,United States of America,Oregon,,Boardman
52.26.51.43,4,8,givepower.org,US,Americas,Northern America,United States of America,Oregon,,Boardman
50.112.149.199,4,21,givepower.org,US,Americas,Northern America,United States of America,Oregon,,Boardman
52.89.234.38,4,15,gocopia.com,US,Americas,Northern America,United States of America,Oregon,,Boardman
34.213.28.187,4,5,gocopia.com,US,Americas,Northern America,United States of America,Oregon,,Boardman
54.186.127.180,4,7,gocopia.com,US,Americas,Northern America,United States of America,Oregon,,Boardman
44.239.11.155,4,4,gocopia.com,US,Americas,Northern America,United States of America,Oregon,,Boardman
54.191.79.137,4,28,gogch.com,US,Americas,Northern America,United States of America,Oregon,,Boardman
35.83.107.94,4,15,gogch.com,US,Americas,Northern America,United States of America,Oregon,,Boardman
54.218.96.42,4,3,goldenbride.net,US,Americas,Northern America,United States of America,Oregon,,Boardman
52.88.110.197,4,19,gopl.io,US,Americas,Northern America,United States of America,Oregon,,Boardman
44.237.192.231,4,2,grassdoor.com,US,Americas,Northern America,United States of America,Oregon,,Boardman
35.163.193.32,4,29,grassdoor.com,US,Americas,Northern America,United States of America,Oregon,,Boardman
35.167.229.107,4,19,graviti.com,US,Americas,Northern America,United States of America,Oregon,,Boardman
52.89.206.65,4,4,graviti.com,US,Americas,Northern America,United States of America,Oregon,,Boardman
44.230.32.185,4,12,graviti.com,US,Americas,Northern America,United States of America,Oregon,,Boardman
44.235.235.162,4,8,graviti.com,US,Americas,Northern America,United States of America,Oregon,,Boardman
52.37.213.251,4,2,greateridaho.org,US,Americas,Northern America,United States of America,Oregon,,Boardman
52.36.76.130,4,45,greatplainscollege.ca,US,Americas,Northern America,United States of America,Oregon,,Boardman
44.231.77.14,4,30,greenrush.com,US,Americas,Northern America,United States of America,Oregon,,Boardman
54.202.86.196,4,6,guam.gov,US,Americas,Northern America,United States of America,Oregon,,Boardman
44.236.51.207,4,6,guardanthealth.com,US,Americas,Northern America,United States of America,Oregon,,Boardman
52.40.134.101,4,5,guardanthealth.com,US,Americas,Northern America,United States of America,Oregon,,Boardman
54.203.207.26,4,7,gulfshoreplayhouse.org,US,Americas,Northern America,United States of America,Oregon,,Boardman
44.231.167.87,4,26,gunrights.org,US,Americas,Northern America,United States of America,Oregon,,Boardman
52.88.53.99,4,6,gunrights.org,US,Americas,Northern America,United States of America,Oregon,,Boardman
52.42.23.184,4,1,gunrights.org,US,Americas,Northern America,United States of America,Oregon,,Boardman
54.69.159.180,4,4,gunrights.org,US,Americas,Northern America,United States of America,Oregon,,Boardman
52.42.183.14,4,10,hawaiilife.com,US,Americas,Northern America,United States of America,Oregon,,Boardman
35.165.188.72,4,-2,hea.com,US,Americas,Northern America,United States of America,Oregon,,Boardman
52.24.20.166,4,11,hmana.org,US,Americas,Northern America,United States of America,Oregon,,Boardman
52.32.125.182,4,6,honorcare.com,US,Americas,Northern America,United States of America,Oregon,,Boardman
35.162.183.212,4,7,honorcare.com,US,Americas,Northern America,United States of America,Oregon,,Boardman
52.27.114.141,4,5,honorcare.com,US,Americas,Northern America,United States of America,Oregon,,Boardman
44.224.154.238,4,37,hotelpeterandpaul.com,US,Americas,Northern America,United States of America,Oregon,,Boardman
15.205.109.118,4,2,hrl.com,US,Americas,Northern America,United States of America,Oregon,,Boardman
52.61.12.187,4,3,hrl.com,US,Americas,Northern America,United States of America,Oregon,,Boardman
52.88.3.188,4,5,iccu.com,US,Americas,Northern America,United States of America,Oregon,,Boardman
50.112.138.184,4,-6,icesoft.org,US,Americas,Northern America,United States of America,Oregon,,Boardman
52.25.149.241,4,4,idk.com,US,Americas,Northern America,United States of America,Oregon,,Boardman
52.41.226.225,4,4,iezvu.com,US,Americas,Northern America,United States of America,Oregon,,Boardman
54.187.101.49,4,4,igms.com,US,Americas,Northern America,United States of America,Oregon,,Boardman
35.83.129.67,4,1,imboldn.com,US,Americas,Northern America,United States of America,Oregon,,Boardman
52.35.16.38,4,21,imboldn.com,US,Americas,Northern America,United States of America,Oregon,,Boardman
52.34.190.107,4,9,infocasas.com.uy,US,Americas,Northern America,United States of America,Oregon,,Boardman
54.69.20.74,4,5,infocasas.com.uy,US,Americas,Northern America,United States of America,Oregon,,Boardman
52.37.1.163,4,60,infomine.com,US,Americas,Northern America,United States of America,Oregon,,Boardman
54.244.6.48,4,121,infomine.com,US,Americas,Northern America,United States of America,Oregon,,Boardman
52.88.233.87,4,6,infomine.com,US,Americas,Northern America,United States of America,Oregon,,Boardman
34.209.167.59,4,0,inspiredbythis.com,US,Americas,Northern America,United States of America,Oregon,,Boardman
44.232.84.88,4,0,inspiredbythis.com,US,Americas,Northern America,United States of America,Oregon,,Boardman
54.202.85.71,4,6,inspiredbythis.com,US,Americas,Northern America,United States of America,Oregon,,Boardman
52.26.196.197,4,5,inspiredbythis.com,US,Americas,Northern America,United States of America,Oregon,,Boardman
52.33.79.204,4,2,irisenergy.co,US,Americas,Northern America,United States of America,Oregon,,Boardman
35.166.33.104,4,2,ivrose.com,US,Americas,Northern America,United States of America,Oregon,,Boardman
34.208.3.234,4,7,ivrose.com,US,Americas,Northern America,United States of America,Oregon,,Boardman
52.43.82.20,4,11,ivrose.com,US,Americas,Northern America,United States of America,Oregon,,Boardman
54.148.206.56,4,2,jacketmagazine.com,US,Americas,Northern America,United States of America,Oregon,,Boardman
54.191.95.168,4,4,kandrive.org,US,Americas,Northern America,United States of America,Oregon,,Boardman
35.83.71.170,4,7,kandrive.org,US,Americas,Northern America,United States of America,Oregon,,Boardman
50.112.231.232,4,0,karim-benzema.org,US,Americas,Northern America,United States of America,Oregon,,Boardman
54.202.88.251,4,1,kooding.com,US,Americas,Northern America,United States of America,Oregon,,Boardman
35.161.232.244,4,14,leadfuze.com,US,Americas,Northern America,United States of America,Oregon,,Boardman
54.200.3.198,4,15,lesschwab.com,US,Americas,Northern America,United States of America,Oregon,,Boardman
100.21.89.111,4,7,lesschwab.com,US,Americas,Northern America,United States of America,Oregon,,Boardman
52.89.84.245,4,8,linked.com,US,Americas,Northern America,United States of America,Oregon,,Boardman
52.35.239.206,4,1,loyalfordogs.com,US,Americas,Northern America,United States of America,Oregon,,Boardman
35.155.143.220,4,3,loyalfordogs.com,US,Americas,Northern America,United States of America,Oregon,,Boardman
34.210.23.65,4,3,lwvnet.org,US,Americas,Northern America,United States of America,Oregon,,Boardman
54.71.110.28,4,9,mailorderbridescanada.com,US,Americas,Northern America,United States of America,Oregon,,Boardman
54.187.137.151,4,60,mailordercentral.com,US,Americas,Northern America,United States of America,Oregon,,Boardman
52.26.195.96,4,2,mailwasher.net,US,Americas,Northern America,United States of America,Oregon,,Boardman
44.239.246.184,4,3,mantralabsglobal.com,US,Americas,Northern America,United States of America,Oregon,,Boardman
44.228.21.105,4,1,mantralabsglobal.com,US,Americas,Northern America,United States of America,Oregon,,Boardman
35.164.121.44,4,2,mantralabsglobal.com,US,Americas,Northern America,United States of America,Oregon,,Boardman
52.40.185.61,4,4,marlinequity.com,US,Americas,Northern America,United States of America,Oregon,,Boardman
52.40.111.135,4,1,mathacademy.com,US,Americas,Northern America,United States of America,Oregon,,Boardman
35.83.107.201,4,1,mccollege.edu,US,Americas,Northern America,United States of America,Oregon,,Boardman
52.26.134.23,4,40,megameeting.com,US,Americas,Northern America,United States of America,Oregon,,Boardman
52.10.59.49,4,3,mikroe.com,US,Americas,Northern America,United States of America,Oregon,,Boardman
52.25.199.131,4,21,mlsdev.com,US,Americas,Northern America,United States of America,Oregon,,Boardman
44.236.125.20,4,4,mobileroadie.com,US,Americas,Northern America,United States of America,Oregon,,Boardman
35.81.119.152,4,8,mobileroadie.com,US,Americas,Northern America,United States of America,Oregon,,Boardman
52.36.114.8,4,7,momento360.com,US,Americas,Northern America,United States of America,Oregon,,Boardman
52.37.11.98,4,20,momento360.com,US,Americas,Northern America,United States of America,Oregon,,Boardman
44.224.232.36,4,10,momento360.com,US,Americas,Northern America,United States of America,Oregon,,Boardman
34.208.186.250,4,2,motec.com.au,US,Americas,Northern America,United States of America,Oregon,,Boardman
54.188.235.114,4,11,myatlascms.com,US,Americas,Northern America,United States of America,Oregon,,Boardman
50.112.231.169,4,10,myatlascms.com,US,Americas,Northern America,United States of America,Oregon,,Boardman
44.236.191.0,4,5,myatlascms.com,US,Americas,Northern America,United States of America,Oregon,,Boardman
34.210.176.226,4,3,mycloud.com,US,Americas,Northern America,United States of America,Oregon,,Boardman
54.245.120.18,4,22,mycloud.com,US,Americas,Northern America,United States of America,Oregon,,Boardman
52.88.147.184,4,24,mycloud.com,US,Americas,Northern America,United States of America,Oregon,,Boardman
44.235.232.197,4,41,myleague.com,US,Americas,Northern America,United States of America,Oregon,,Boardman
44.241.193.36,4,22,myleague.com,US,Americas,Northern America,United States of America,Oregon,,Boardman
54.186.9.241,4,0,mylocalsalon.com,US,Americas,Northern America,United States of America,Oregon,,Boardman
52.33.148.39,4,26,mymromarts.com,US,Americas,Northern America,United States of America,Oregon,,Boardman
44.241.25.154,4,3,mymromarts.com,US,Americas,Northern America,United States of America,Oregon,,Boardman
52.12.197.185,4,45,mymromarts.com,US,Americas,Northern America,United States of America,Oregon,,Boardman
52.89.182.65,4,1,mymromarts.com,US,Americas,Northern America,United States of America,Oregon,,Boardman
54.214.73.189,4,9,mysocialpinpoint.com,US,Americas,Northern America,United States of America,Oregon,,Boardman
34.223.136.148,4,1,mysocialpinpoint.com,US,Americas,Northern America,United States of America,Oregon,,Boardman
44.226.85.72,4,46,nativehealth.org,US,Americas,Northern America,United States of America,Oregon,,Boardman
35.155.94.233,4,1,navacenter.com,US,Americas,Northern America,United States of America,Oregon,,Boardman
44.242.25.33,4,5,net1plus.com,US,Americas,Northern America,United States of America,Oregon,,Boardman
44.238.179.109,4,13,newfront.com,US,Americas,Northern America,United States of America,Oregon,,Boardman
52.12.40.70,4,6,newfront.com,US,Americas,Northern America,United States of America,Oregon,,Boardman
54.188.129.68,4,4,newfront.com,US,Americas,Northern America,United States of America,Oregon,,Boardman
52.24.94.113,4,2,newlifeoutlook.com,US,Americas,Northern America,United States of America,Oregon,,Boardman
50.112.183.172,4,8,nibbledish.com,US,Americas,Northern America,United States of America,Oregon,,Boardman
35.83.115.51,4,3,nobleprog.com,US,Americas,Northern America,United States of America,Oregon,,Boardman
54.218.172.172,4,6,nortekcontrol.com,US,Americas,Northern America,United States of America,Oregon,,Boardman
54.188.101.126,4,5,npu.edu,US,Americas,Northern America,United States of America,Oregon,,Boardman
54.189.25.119,4,1,nudies.club,US,Americas,Northern America,United States of America,Oregon,,Boardman
54.68.197.142,4,7,nyx.net,US,Americas,Northern America,United States of America,Oregon,,Boardman
44.230.98.102,4,-1,omniupdate.com,US,Americas,Northern America,United States of America,Oregon,,Boardman
52.10.152.152,4,46,onestopjerkyshop.com,US,Americas,Northern America,United States of America,Oregon,,Boardman
52.43.49.19,4,3,open-mpi.org,US,Americas,Northern America,United States of America,Oregon,,Boardman
52.26.100.57,4,0,opentaps.org,US,Americas,Northern America,United States of America,Oregon,,Boardman
54.245.86.90,4,6,osvr.com,US,Americas,Northern America,United States of America,Oregon,,Boardman
52.33.221.185,4,25,papadels.com,US,Americas,Northern America,United States of America,Oregon,,Boardman
44.225.85.195,4,12,pcbgogo.com,US,Americas,Northern America,United States of America,Oregon,,Boardman
44.238.176.97,4,10,pcbgogo.com,US,Americas,Northern America,United States of America,Oregon,,Boardman
52.25.125.170,4,18,pcbway.com,US,Americas,Northern America,United States of America,Oregon,,Boardman
44.234.141.86,4,10,pcbway.com,US,Americas,Northern America,United States of America,Oregon,,Boardman
35.82.105.215,4,13,pdftron.com,US,Americas,Northern America,United States of America,Oregon,,Boardman
54.187.154.121,4,0,pdftron.com,US,Americas,Northern America,United States of America,Oregon,,Boardman
52.34.178.78,4,5,perceptyx.com,US,Americas,Northern America,United States of America,Oregon,,Boardman
34.215.19.8,4,25,perceptyx.com,US,Americas,Northern America,United States of America,Oregon,,Boardman
54.189.157.226,4,21,perceptyx.com,US,Americas,Northern America,United States of America,Oregon,,Boardman
54.202.32.132,4,3,photo.net,US,Americas,Northern America,United States of America,Oregon,,Boardman
44.233.15.135,4,32,photo.net,US,Americas,Northern America,United States of America,Oregon,,Boardman
44.229.49.181,4,2,photo.net,US,Americas,Northern America,United States of America,Oregon,,Boardman
54.68.92.40,4,13,pics4learning.com,US,Americas,Northern America,United States of America,Oregon,,Boardman
44.231.184.72,4,20,pics4learning.com,US,Americas,Northern America,United States of America,Oregon,,Boardman
54.188.59.237,4,5,pntrac.com,US,Americas,Northern America,United States of America,Oregon,,Boardman
54.148.78.66,4,6,pntrac.com,US,Americas,Northern America,United States of America,Oregon,,Boardman
54.191.30.60,4,7,processwire.com,US,Americas,Northern America,United States of America,Oregon,,Boardman
44.227.249.93,4,33,processwire.com,US,Americas,Northern America,United States of America,Oregon,,Boardman
35.166.127.150,4,78,processwire.com,US,Americas,Northern America,United States of America,Oregon,,Boardman
18.236.38.223,4,69,processwire.com,US,Americas,Northern America,United States of America,Oregon,,Boardman
52.35.3.5,4,21,puremagic.com,US,Americas,Northern America,United States of America,Oregon,,Boardman
35.160.35.144,4,6,pyrotek.com,US,Americas,Northern America,United States of America,Oregon,,Boardman
54.69.213.197,4,10,qmetry.com,US,Americas,Northern America,United States of America,Oregon,,Boardman
52.26.98.106,4,35,rakuten.today,US,Americas,Northern America,United States of America,Oregon,,Boardman
52.41.16.182,4,56,rankingtennisclub.com,US,Americas,Northern America,United States of America,Oregon,,Boardman
34.217.201.179,4,3,realtydao.com,US,Americas,Northern America,United States of America,Oregon,,Boardman
52.37.255.120,4,34,redagricola.com,US,Americas,Northern America,United States of America,Oregon,,Boardman
52.37.241.214,4,6,redagricola.com,US,Americas,Northern America,United States of America,Oregon,,Boardman
52.89.237.67,4,33,rentmoola.com,US,Americas,Northern America,United States of America,Oregon,,Boardman
34.215.103.116,4,19,rentmoola.com,US,Americas,Northern America,United States of America,Oregon,,Boardman
44.237.57.171,4,8,rentmoola.com,US,Americas,Northern America,United States of America,Oregon,,Boardman
35.166.231.211,4,13,restaurantcateringsystems.com,US,Americas,Northern America,United States of America,Oregon,,Boardman
44.239.232.80,4,11,rmgo.org,US,Americas,Northern America,United States of America,Oregon,,Boardman
52.26.83.115,4,5,rmgo.org,US,Americas,Northern America,United States of America,Oregon,,Boardman
34.211.88.102,4,7,rmgo.org,US,Americas,Northern America,United States of America,Oregon,,Boardman
44.236.225.199,4,6,rmgo.org,US,Americas,Northern America,United States of America,Oregon,,Boardman
52.36.51.84,4,24,robly.com,US,Americas,Northern America,United States of America,Oregon,,Boardman
52.41.150.158,4,1,robly.com,US,Americas,Northern America,United States of America,Oregon,,Boardman
44.229.104.71,4,2,robly.com,US,Americas,Northern America,United States of America,Oregon,,Boardman
52.27.60.220,4,2,robly.com,US,Americas,Northern America,United States of America,Oregon,,Boardman
52.37.93.47,4,-47682,roughstock.com,US,Americas,Northern America,United States of America,Oregon,,Boardman
50.112.161.86,4,45,runkit.com,US,Americas,Northern America,United States of America,Oregon,,Boardman
52.11.188.94,4,32,runkit.com,US,Americas,Northern America,United States of America,Oregon,,Boardman
35.80.242.115,4,63,runkit.com,US,Americas,Northern America,United States of America,Oregon,,Boardman
52.25.232.67,4,17,rvappstudios.com,US,Americas,Northern America,United States of America,Oregon,,Boardman
54.187.166.175,4,6,samepage.io,US,Americas,Northern America,United States of America,Oregon,,Boardman
35.155.205.112,4,0,samepage.io,US,Americas,Northern America,United States of America,Oregon,,Boardman
35.166.41.116,4,4,samepage.io,US,Americas,Northern America,United States of America,Oregon,,Boardman
54.186.135.72,4,25,samepage.io,US,Americas,Northern America,United States of America,Oregon,,Boardman
44.240.255.236,4,7,sansar.com,US,Americas,Northern America,United States of America,Oregon,,Boardman
44.233.61.92,4,14,sansar.com,US,Americas,Northern America,United States of America,Oregon,,Boardman
52.41.85.88,4,3,saritasa.com,US,Americas,Northern America,United States of America,Oregon,,Boardman
35.167.78.87,4,35,saritasa.com,US,Americas,Northern America,United States of America,Oregon,,Boardman
35.155.203.214,4,6,sbcc.edu,US,Americas,Northern America,United States of America,Oregon,,Boardman
54.68.49.14,4,25,scout.me,US,Americas,Northern America,United States of America,Oregon,,Boardman
35.162.241.102,4,6,scoutgps.com,US,Americas,Northern America,United States of America,Oregon,,Boardman
50.112.176.211,4,37,scoutgps.com,US,Americas,Northern America,United States of America,Oregon,,Boardman
35.160.224.169,4,-2,scvavolleyball.org,US,Americas,Northern America,United States of America,Oregon,,Boardman
54.149.185.29,4,11,segment7.net,US,Americas,Northern America,United States of America,Oregon,,Boardman
18.236.1.250,4,33,servitechlabs.com,US,Americas,Northern America,United States of America,Oregon,,Boardman
54.68.234.32,4,-1,shadertoy.com,US,Americas,Northern America,United States of America,Oregon,,Boardman
35.155.111.40,4,3,shadertoy.com,US,Americas,Northern America,United States of America,Oregon,,Boardman
35.160.144.211,4,3,shiekh.com,US,Americas,Northern America,United States of America,Oregon,,Boardman
35.82.2.44,4,6,shiekh.com,US,Americas,Northern America,United States of America,Oregon,,Boardman
100.21.79.188,4,0,shiekhshoes.com,US,Americas,Northern America,United States of America,Oregon,,Boardman
44.225.197.2,4,5,shiekhshoes.com,US,Americas,Northern America,United States of America,Oregon,,Boardman
52.36.108.40,4,10,shopbase.com,US,Americas,Northern America,United States of America,Oregon,,Boardman
54.213.201.186,4,64,skincaretherapy.net,US,Americas,Northern America,United States of America,Oregon,,Boardman
35.167.159.135,4,6,sky9.tw,US,Americas,Northern America,United States of America,Oregon,,Boardman
52.36.10.140,4,1,smartmeetings.com,US,Americas,Northern America,United States of America,Oregon,,Boardman
54.187.57.13,4,30,smartvoter.org,US,Americas,Northern America,United States of America,Oregon,,Boardman
54.184.63.216,4,5,snapseed.online,US,Americas,Northern America,United States of America,Oregon,,Boardman
44.225.127.158,4,7,snorkel.ai,US,Americas,Northern America,United States of America,Oregon,,Boardman
54.218.210.31,4,21,sonomacountyairport.org,US,Americas,Northern America,United States of America,Oregon,,Boardman
52.36.100.27,4,18,sonomacountyairport.org,US,Americas,Northern America,United States of America,Oregon,,Boardman
52.43.47.174,4,2,sourceforge.jp,US,Americas,Northern America,United States of America,Oregon,,Boardman
34.217.253.179,4,6,sourceforge.jp,US,Americas,Northern America,United States of America,Oregon,,Boardman
44.240.165.155,4,18,soyatech.com,US,Americas,Northern America,United States of America,Oregon,,Boardman
54.188.4.191,4,12,spaceref.com,US,Americas,Northern America,United States of America,Oregon,,Boardman
34.208.231.21,4,23,spanglishbaby.com,US,Americas,Northern America,United States of America,Oregon,,Boardman
54.188.171.71,4,22,spellquiz.com,US,Americas,Northern America,United States of America,Oregon,,Boardman
54.148.145.49,4,13,spellquiz.com,US,Americas,Northern America,United States of America,Oregon,,Boardman
35.81.119.249,4,14,spellquiz.com,US,Americas,Northern America,United States of America,Oregon,,Boardman
52.89.129.153,4,68,sportscity.com,US,Americas,Northern America,United States of America,Oregon,,Boardman
54.71.144.65,4,7,squareone.ca,US,Americas,Northern America,United States of America,Oregon,,Boardman
54.200.215.185,4,7,squareone.ca,US,Americas,Northern America,United States of America,Oregon,,Boardman
35.167.135.111,4,3,squareone.ca,US,Americas,Northern America,United States of America,Oregon,,Boardman
52.43.45.197,4,3,stamped.io,US,Americas,Northern America,United States of America,Oregon,,Boardman
52.39.253.133,4,-1,stamped.io,US,Americas,Northern America,United States of America,Oregon,,Boardman
35.85.100.176,4,-1,stamped.io,US,Americas,Northern America,United States of America,Oregon,,Boardman
35.163.130.105,4,1,stamped.io,US,Americas,Northern America,United States of America,Oregon,,Boardman
52.26.212.215,4,1,studiosweatondemand.com,US,Americas,Northern America,United States of America,Oregon,,Boardman
34.211.233.150,4,16,sutrobio.com,US,Americas,Northern America,United States of America,Oregon,,Boardman
44.230.72.191,4,-23,swipeclock.com,US,Americas,Northern America,United States of America,Oregon,,Boardman
35.165.98.11,4,7,tacobellfoundation.org,US,Americas,Northern America,United States of America,Oregon,,Boardman
34.211.202.45,4,5,taskeasy.com,US,Americas,Northern America,United States of America,Oregon,,Boardman
52.43.111.191,4,0,tct.tv,US,Americas,Northern America,United States of America,Oregon,,Boardman
34.217.146.143,4,18,teachdemocracy.org,US,Americas,Northern America,United States of America,Oregon,,Boardman
44.235.224.195,4,5,techlinkcenter.org,US,Americas,Northern America,United States of America,Oregon,,Boardman
35.80.114.204,4,4,techlinkcenter.org,US,Americas,Northern America,United States of America,Oregon,,Boardman
34.223.160.61,4,43,teechip.com,US,Americas,Northern America,United States of America,Oregon,,Boardman
54.148.50.74,4,80,teechip.com,US,Americas,Northern America,United States of America,Oregon,,Boardman
35.165.55.180,4,13,thedeanhotel.com,US,Americas,Northern America,United States of America,Oregon,,Boardman
44.232.168.194,4,0,thedeanhotel.com,US,Americas,Northern America,United States of America,Oregon,,Boardman
44.228.167.144,4,21,thedefenders.net,US,Americas,Northern America,United States of America,Oregon,,Boardman
50.112.25.166,4,4,thedevconf.com,US,Americas,Northern America,United States of America,Oregon,,Boardman
44.232.159.254,4,26,thedevconf.com,US,Americas,Northern America,United States of America,Oregon,,Boardman
100.21.65.171,4,6,thedevconf.com,US,Americas,Northern America,United States of America,Oregon,,Boardman
34.216.2.116,4,37,thefatemperor.com,US,Americas,Northern America,United States of America,Oregon,,Boardman
52.34.126.88,4,37,thegogame.com,US,Americas,Northern America,United States of America,Oregon,,Boardman
54.185.93.118,4,76,thejohnfox.com,US,Americas,Northern America,United States of America,Oregon,,Boardman
54.186.202.16,4,2,ticketprinting.com,US,Americas,Northern America,United States of America,Oregon,,Boardman
54.188.29.112,4,7,ticketprinting.com,US,Americas,Northern America,United States of America,Oregon,,Boardman
54.71.54.109,4,0,ticketprinting.com,US,Americas,Northern America,United States of America,Oregon,,Boardman
34.216.84.90,4,3,ticketriver.com,US,Americas,Northern America,United States of America,Oregon,,Boardman
35.161.188.235,4,5,ticketriver.com,US,Americas,Northern America,United States of America,Oregon,,Boardman
54.200.114.97,4,27,tinashehair.com,US,Americas,Northern America,United States of America,Oregon,,Boardman
52.10.132.209,4,0,tinashehair.com,US,Americas,Northern America,United States of America,Oregon,,Boardman
35.85.17.175,4,-2,tipard.com,US,Americas,Northern America,United States of America,Oregon,,Boardman
44.238.15.189,4,4,todotango.com,US,Americas,Northern America,United States of America,Oregon,,Boardman
34.209.166.140,4,4,todotango.com,US,Americas,Northern America,United States of America,Oregon,,Boardman
54.148.1.31,4,19,tomtop.com,US,Americas,Northern America,United States of America,Oregon,,Boardman
52.33.55.99,4,4,tomtop.com,US,Americas,Northern America,United States of America,Oregon,,Boardman
35.166.219.36,4,3,topsevenreviews.com,US,Americas,Northern America,United States of America,Oregon,,Boardman
44.232.181.164,4,9,triconresidential.com,US,Americas,Northern America,United States of America,Oregon,,Boardman
50.112.82.230,4,3,tsroadmap.com,US,Americas,Northern America,United States of America,Oregon,,Boardman
34.208.222.81,4,2,tsroadmap.com,US,Americas,Northern America,United States of America,Oregon,,Boardman
54.71.207.109,4,8,tsroadmap.com,US,Americas,Northern America,United States of America,Oregon,,Boardman
44.233.147.252,4,1,uadates.com,US,Americas,Northern America,United States of America,Oregon,,Boardman
52.42.32.115,4,15,ubnt.com,US,Americas,Northern America,United States of America,Oregon,,Boardman
52.10.191.69,4,21,ubnt.com,US,Americas,Northern America,United States of America,Oregon,,Boardman
52.36.100.118,4,7,ubnt.com,US,Americas,Northern America,United States of America,Oregon,,Boardman
54.71.153.182,4,6,unions.org,US,Americas,Northern America,United States of America,Oregon,,Boardman
52.25.144.75,4,36,used-line.com,US,Americas,Northern America,United States of America,Oregon,,Boardman
35.164.3.172,4,15,vendhq.com,US,Americas,Northern America,United States of America,Oregon,,Boardman
44.226.3.81,4,7,vendhq.com,US,Americas,Northern America,United States of America,Oregon,,Boardman
54.187.33.222,4,0,ventura.org,US,Americas,Northern America,United States of America,Oregon,,Boardman
52.25.136.60,4,17,ventura.org,US,Americas,Northern America,United States of America,Oregon,,Boardman
34.217.247.121,4,2,venyu.com,US,Americas,Northern America,United States of America,Oregon,,Boardman
34.211.154.126,4,1,vidmore.com,US,Americas,Northern America,United States of America,Oregon,,Boardman
54.200.155.93,4,47,vilaombak.com,US,Americas,Northern America,United States of America,Oregon,,Boardman
44.228.249.3,4,2,vulnweb.com,US,Americas,Northern America,United States of America,Oregon,,Boardman
52.40.189.31,4,8,webassessor.com,US,Americas,Northern America,United States of America,Oregon,,Boardman
52.25.148.89,4,9,wheelhouse.com,US,Americas,Northern America,United States of America,Oregon,,Boardman
35.165.45.97,4,4,wheelhouse.com,US,Americas,Northern America,United States of America,Oregon,,Boardman
54.70.83.128,4,15,whiteclaw.com,US,Americas,Northern America,United States of America,Oregon,,Boardman
54.149.67.150,4,4,whiteclaw.com,US,Americas,Northern America,United States of America,Oregon,,Boardman
50.112.150.139,4,25,whitehallledger.com,US,Americas,Northern America,United States of America,Oregon,,Boardman
52.36.176.199,4,14,wiebetech.com,US,Americas,Northern America,United States of America,Oregon,,Boardman
54.187.122.53,4,78,wikiindex.org,US,Americas,Northern America,United States of America,Oregon,,Boardman
52.38.137.226,4,43,wikiindex.org,US,Americas,Northern America,United States of America,Oregon,,Boardman
54.188.144.140,4,2,wiseagent.com,US,Americas,Northern America,United States of America,Oregon,,Boardman
52.40.174.40,4,1,wiseagent.com,US,Americas,Northern America,United States of America,Oregon,,Boardman
54.190.87.103,4,2,wiseagent.com,US,Americas,Northern America,United States of America,Oregon,,Boardman
35.165.62.155,4,3,wrangellsentinel.com,US,Americas,Northern America,United States of America,Oregon,,Boardman
52.24.53.217,4,20,wrirosscities.org,US,Americas,Northern America,United States of America,Oregon,,Boardman
54.190.214.87,4,3,wush.net,US,Americas,Northern America,United States of America,Oregon,,Boardman
54.218.89.189,4,2,yardsales.net,US,Americas,Northern America,United States of America,Oregon,,Boardman
54.203.75.182,4,16,yardsales.net,US,Americas,Northern America,United States of America,Oregon,,Boardman
44.232.227.244,4,2,yestrak.com,US,Americas,Northern America,United States of America,Oregon,,Boardman
52.40.92.109,4,6,yestrak.com,US,Americas,Northern America,United States of America,Oregon,,Boardman
44.228.240.202,4,1,yestrak.com,US,Americas,Northern America,United States of America,Oregon,,Boardman
54.190.68.117,4,0,yestrak.com,US,Americas,Northern America,United States of America,Oregon,,Boardman
35.166.226.192,4,6,zinro.net,US,Americas,Northern America,United States of America,Oregon,,Boardman
52.11.37.152,4,0,zoomdrain.com,US,Americas,Northern America,United States of America,Oregon,,Boardman
44.230.117.43,4,2,zscaler.com,US,Americas,Northern America,United States of America,Oregon,,Boardman
