reflector_ip,ip_version,offset,description,country_code,region,sub_region,country_name,sub_division_1,sub_division_2,city
8.39.235.115,4,20,adventuremomblog.com,US,Americas,Northern America,United States of America,Oregon,,Bend
104.249.62.122,4,2690,assistanceleague.org,US,Americas,Northern America,United States of America,Oregon,,Bend
104.152.222.147,4,-8,beeanerd.com,US,Americas,Northern America,United States of America,Oregon,,Bend
104.255.169.137,4,664900,blahoo.net,US,Americas,Northern America,United States of America,Oregon,,Bend
154.16.113.86,4,573,catchmarketingservices.com,US,Americas,Northern America,United States of America,Oregon,,Bend
104.255.174.94,4,944,cnpapers.com,US,Americas,Northern America,United States of America,Oregon,,Bend
8.39.234.150,4,7,columbiamagazine.com,US,Americas,Northern America,United States of America,Oregon,,Bend
198.37.120.231,4,5,dashcamtalk.com,US,Americas,Northern America,United States of America,Oregon,,Bend
170.39.215.215,4,9,diasp.org,US,Americas,Northern America,United States of America,Oregon,,Bend
104.152.222.63,4,2114,gamebanshee.com,US,Americas,Northern America,United States of America,Oregon,,Bend
8.39.234.166,4,4,georgiaweddingconsultants.com,US,Americas,Northern America,United States of America,Oregon,,Bend
155.254.19.114,4,41,gpsvisualizer.com,US,Americas,Northern America,United States of America,Oregon,,Bend
198.37.102.12,4,9,ibs.edu.lk,US,Americas,Northern America,United States of America,Oregon,,Bend
104.255.174.113,4,1644,josieking.org,US,Americas,Northern America,United States of America,Oregon,,Bend
8.39.235.11,4,45,macrossworld.com,US,Americas,Northern America,United States of America,Oregon,,Bend
155.254.19.165,4,7,miramarevents.com,US,Americas,Northern America,United States of America,Oregon,,Bend
170.39.215.216,4,36,podupti.me,US,Americas,Northern America,United States of America,Oregon,,Bend
155.254.19.164,4,2,samschowderhouse.com,US,Americas,Northern America,United States of America,Oregon,,Bend
198.37.120.194,4,2179,securitycamcenter.com,US,Americas,Northern America,United States of America,Oregon,,Bend
104.255.169.179,4,10,sharks-world.com,US,Americas,Northern America,United States of America,Oregon,,Bend
66.39.178.168,4,2,singlemothersbychoice.org,US,Americas,Northern America,United States of America,Oregon,,Bend
155.254.16.33,4,459,sportsforum.com,US,Americas,Northern America,United States of America,Oregon,,Bend
104.152.222.128,4,6,srilankan.lk,US,Americas,Northern America,United States of America,Oregon,,Bend
104.249.62.104,4,329,tradezone.com,US,Americas,Northern America,United States of America,Oregon,,Bend
155.254.18.31,4,10,vip600.com,US,Americas,Northern America,United States of America,Oregon,,Bend
104.255.170.81,4,724,wetmachine.com,US,Americas,Northern America,United States of America,Oregon,,Bend
