reflector_ip,ip_version,offset,description,country_code,region,sub_region,country_name,sub_division_1,sub_division_2,city
5.78.89.93,4,13,4d2.org,US,Americas,Northern America,United States of America,Oregon,,Hillsboro
51.81.205.63,4,-3,4guysfromrolla.com,US,Americas,Northern America,United States of America,Oregon,,Hillsboro
51.81.195.36,4,-2,aattp.org,US,Americas,Northern America,United States of America,Oregon,,Hillsboro
51.81.201.180,4,5,alexisparkinn.com,US,Americas,Northern America,United States of America,Oregon,,Hillsboro
51.81.205.46,4,-3,alltechbuzz.net,US,Americas,Northern America,United States of America,Oregon,,Hillsboro
5.78.91.60,4,15,appcamp4girls.com,US,Americas,Northern America,United States of America,Oregon,,Hillsboro
51.81.198.226,4,71,atebits.com,US,Americas,Northern America,United States of America,Oregon,,Hillsboro
51.81.245.35,4,3,atomicorp.com,US,Americas,Northern America,United States of America,Oregon,,Hillsboro
51.81.209.207,4,6,autisticburnout.org,US,Americas,Northern America,United States of America,Oregon,,Hillsboro
5.78.75.237,4,62,backwoodshome.com,US,Americas,Northern America,United States of America,Oregon,,Hillsboro
51.81.213.22,4,8,badmintonlink.com,US,Americas,Northern America,United States of America,Oregon,,Hillsboro
51.81.215.133,4,9,banyuleandnillumbikweekly.com.au,US,Americas,Northern America,United States of America,Oregon,,Hillsboro
51.81.205.40,4,4,baycitizen.org,US,Americas,Northern America,United States of America,Oregon,,Hillsboro
5.78.70.11,4,-12,beautifullife.info,US,Americas,Northern America,United States of America,Oregon,,Hillsboro
5.78.104.95,4,3,bestiver.se,US,Americas,Northern America,United States of America,Oregon,,Hillsboro
15.204.12.153,4,1,betting-casinos.com,US,Americas,Northern America,United States of America,Oregon,,Hillsboro
5.78.160.232,4,-13,bytes.com,US,Americas,Northern America,United States of America,Oregon,,Hillsboro
147.135.46.41,4,16,cadcrowd.com,US,Americas,Northern America,United States of America,Oregon,,Hillsboro
15.204.12.154,4,0,cashfever.com,US,Americas,Northern America,United States of America,Oregon,,Hillsboro
51.81.215.137,4,7,christianscroll.org,US,Americas,Northern America,United States of America,Oregon,,Hillsboro
51.81.137.178,4,5,cmder.net,US,Americas,Northern America,United States of America,Oregon,,Hillsboro
51.81.174.227,4,1,coophousing.org,US,Americas,Northern America,United States of America,Oregon,,Hillsboro
51.81.205.42,4,-4,d-addicts.com,US,Americas,Northern America,United States of America,Oregon,,Hillsboro
51.81.138.29,4,16891,datypic.com,US,Americas,Northern America,United States of America,Oregon,,Hillsboro
51.81.244.151,4,5,deftpdf.com,US,Americas,Northern America,United States of America,Oregon,,Hillsboro
147.135.36.232,4,-2,dentistleandertx.com,US,Americas,Northern America,United States of America,Oregon,,Hillsboro
51.81.138.171,4,4,didaskalia.net,US,Americas,Northern America,United States of America,Oregon,,Hillsboro
5.78.46.98,4,-4,divorcecanbesimple.com,US,Americas,Northern America,United States of America,Oregon,,Hillsboro
51.81.202.2,4,7,dmvnearme.net,US,Americas,Northern America,United States of America,Oregon,,Hillsboro
51.81.195.11,4,22,DNS Server: ip11.ip-51-81-195.us,US,Americas,Northern America,United States of America,Oregon,,Hillsboro
51.81.147.9,4,71,DNS Server: ip9.ip-51-81-147.us,US,Americas,Northern America,United States of America,Oregon,,Hillsboro
51.81.208.46,4,111,DNS Server: ns1009026.ip-51-81-208.us,US,Americas,Northern America,United States of America,Oregon,,Hillsboro
15.204.58.182,4,8,dragonfireperformance.com,US,Americas,Northern America,United States of America,Oregon,,Hillsboro
51.81.215.93,4,18,dreniq.com,US,Americas,Northern America,United States of America,Oregon,,Hillsboro
15.204.18.141,4,0,easy-sheds.com,US,Americas,Northern America,United States of America,Oregon,,Hillsboro
5.78.86.142,4,-16266,effortlessmath.com,US,Americas,Northern America,United States of America,Oregon,,Hillsboro
51.81.229.121,4,6,enetget.com,US,Americas,Northern America,United States of America,Oregon,,Hillsboro
15.204.11.24,4,13,epicurean.com,US,Americas,Northern America,United States of America,Oregon,,Hillsboro
15.204.103.26,4,2,ewrdigital.com,US,Americas,Northern America,United States of America,Oregon,,Hillsboro
51.81.148.209,4,4,explica.co,US,Americas,Northern America,United States of America,Oregon,,Hillsboro
51.81.151.147,4,4,ezinemark.com,US,Americas,Northern America,United States of America,Oregon,,Hillsboro
15.204.85.50,4,-1,fehali.com,US,Americas,Northern America,United States of America,Oregon,,Hillsboro
51.81.215.125,4,6,fnnewsonline.com,US,Americas,Northern America,United States of America,Oregon,,Hillsboro
15.204.12.35,4,5,freecsstemplates.org,US,Americas,Northern America,United States of America,Oregon,,Hillsboro
15.204.12.156,4,0,gambling-casinos-guide.com,US,Americas,Northern America,United States of America,Oregon,,Hillsboro
51.81.205.52,4,17,gamegavel.com,US,Americas,Northern America,United States of America,Oregon,,Hillsboro
5.78.83.132,4,-2,gcelt.org,US,Americas,Northern America,United States of America,Oregon,,Hillsboro
51.81.205.55,4,-1,ges2016.org,US,Americas,Northern America,United States of America,Oregon,,Hillsboro
51.81.205.48,4,2,getwox.com,US,Americas,Northern America,United States of America,Oregon,,Hillsboro
147.135.37.212,4,5,geysertimes.org,US,Americas,Northern America,United States of America,Oregon,,Hillsboro
51.81.211.207,4,18148,godhelpthegirl.com,US,Americas,Northern America,United States of America,Oregon,,Hillsboro
51.81.204.80,4,-248,google-pluft.nl,US,Americas,Northern America,United States of America,Oregon,,Hillsboro
147.135.36.77,4,9,grupotyc.com,US,Americas,Northern America,United States of America,Oregon,,Hillsboro
51.81.195.26,4,5,hillcountrybreakingnews.com,US,Americas,Northern America,United States of America,Oregon,,Hillsboro
5.78.81.154,4,7,hipsterlogogenerator.com,US,Americas,Northern America,United States of America,Oregon,,Hillsboro
15.204.42.250,4,-1,homearise.com,US,Americas,Northern America,United States of America,Oregon,,Hillsboro
5.78.162.0,4,-14,incpu.ru,US,Americas,Northern America,United States of America,Oregon,,Hillsboro
147.135.36.135,4,6,industrialhempfarms.com,US,Americas,Northern America,United States of America,Oregon,,Hillsboro
51.81.205.34,4,-5,insidecatholic.com,US,Americas,Northern America,United States of America,Oregon,,Hillsboro
15.204.57.67,4,-2,internet.com,US,Americas,Northern America,United States of America,Oregon,,Hillsboro
15.204.104.90,4,18,irixusa.com,US,Americas,Northern America,United States of America,Oregon,,Hillsboro
15.204.43.84,4,19,jotscroll.com,US,Americas,Northern America,United States of America,Oregon,,Hillsboro
51.81.205.43,4,-5,jt.org,US,Americas,Northern America,United States of America,Oregon,,Hillsboro
51.81.205.35,4,-3,kafila.org,US,Americas,Northern America,United States of America,Oregon,,Hillsboro
51.81.214.161,4,6,kagay-an.com,US,Americas,Northern America,United States of America,Oregon,,Hillsboro
51.81.242.168,4,0,karymullis.com,US,Americas,Northern America,United States of America,Oregon,,Hillsboro
5.78.75.183,4,17,kitchenerfamilydentist.com,US,Americas,Northern America,United States of America,Oregon,,Hillsboro
51.81.205.38,4,-5,kitchensurfing.com,US,Americas,Northern America,United States of America,Oregon,,Hillsboro
5.78.72.63,4,8,kmxt.org,US,Americas,Northern America,United States of America,Oregon,,Hillsboro
5.78.67.177,4,5,kulfiy.com,US,Americas,Northern America,United States of America,Oregon,,Hillsboro
147.135.36.46,4,5,languageguide.org,US,Americas,Northern America,United States of America,Oregon,,Hillsboro
5.78.97.5,4,25,lemmy.today,US,Americas,Northern America,United States of America,Oregon,,Hillsboro
147.135.36.190,4,16,lerdorf.com,US,Americas,Northern America,United States of America,Oregon,,Hillsboro
147.135.44.9,4,4,lhub.to,US,Americas,Northern America,United States of America,Oregon,,Hillsboro
5.78.91.100,4,16,librti.com,US,Americas,Northern America,United States of America,Oregon,,Hillsboro
15.204.22.7,4,5,lkwdpl.org,US,Americas,Northern America,United States of America,Oregon,,Hillsboro
51.81.185.129,4,6,loans4usa.com,US,Americas,Northern America,United States of America,Oregon,,Hillsboro
51.81.215.129,4,9,loop21.com,US,Americas,Northern America,United States of America,Oregon,,Hillsboro
5.78.104.244,4,6,lostcheese.com,US,Americas,Northern America,United States of America,Oregon,,Hillsboro
51.81.229.122,4,4,maboot.com,US,Americas,Northern America,United States of America,Oregon,,Hillsboro
5.78.98.254,4,36,magazinesubscriberservices.com,US,Americas,Northern America,United States of America,Oregon,,Hillsboro
51.81.154.225,4,2,mcagfair.com,US,Americas,Northern America,United States of America,Oregon,,Hillsboro
5.78.101.174,4,-1,measuredhs.com,US,Americas,Northern America,United States of America,Oregon,,Hillsboro
51.81.138.180,4,39,mediactive.com,US,Americas,Northern America,United States of America,Oregon,,Hillsboro
51.81.198.251,4,-4,meritline.com,US,Americas,Northern America,United States of America,Oregon,,Hillsboro
51.81.253.125,4,57,metapress.com,US,Americas,Northern America,United States of America,Oregon,,Hillsboro
15.204.15.230,4,16,mikechurch.com,US,Americas,Northern America,United States of America,Oregon,,Hillsboro
5.78.89.95,4,21,mountainworldtreks.com,US,Americas,Northern America,United States of America,Oregon,,Hillsboro
51.81.206.213,4,-6,mybasis.com,US,Americas,Northern America,United States of America,Oregon,,Hillsboro
5.78.160.128,4,-10,narwhal.city,US,Americas,Northern America,United States of America,Oregon,,Hillsboro
51.81.243.2,4,0,neorogue.com,US,Americas,Northern America,United States of America,Oregon,,Hillsboro
15.204.12.157,4,-2,netgamblingsite.com,US,Americas,Northern America,United States of America,Oregon,,Hillsboro
5.78.124.99,4,24,netronline.com,US,Americas,Northern America,United States of America,Oregon,,Hillsboro
51.81.165.21,4,13,newsgater.com,US,Americas,Northern America,United States of America,Oregon,,Hillsboro
51.81.214.160,4,50,newsmaritime.com,US,Americas,Northern America,United States of America,Oregon,,Hillsboro
51.81.243.232,4,8,newspapers.ph,US,Americas,Northern America,United States of America,Oregon,,Hillsboro
15.204.12.18,4,30,newsvarsity.com,US,Americas,Northern America,United States of America,Oregon,,Hillsboro
147.135.38.149,4,-3,nyafuu.org,US,Americas,Northern America,United States of America,Oregon,,Hillsboro
51.81.242.100,4,0,olevod.com,US,Americas,Northern America,United States of America,Oregon,,Hillsboro
51.81.215.89,4,17,omegaunderground.com,US,Americas,Northern America,United States of America,Oregon,,Hillsboro
15.204.3.230,4,141303,openleaks.org,US,Americas,Northern America,United States of America,Oregon,,Hillsboro
51.81.138.174,4,3,outhistory.org,US,Americas,Northern America,United States of America,Oregon,,Hillsboro
51.81.196.0,4,5,para2000.org,US,Americas,Northern America,United States of America,Oregon,,Hillsboro
51.81.138.3,4,17506,pburch.net,US,Americas,Northern America,United States of America,Oregon,,Hillsboro
51.81.202.106,4,31,planetlockdownfilm.com,US,Americas,Northern America,United States of America,Oregon,,Hillsboro
51.81.137.146,4,-3,plrdatabase.net,US,Americas,Northern America,United States of America,Oregon,,Hillsboro
51.81.205.49,4,10,politic365.com,US,Americas,Northern America,United States of America,Oregon,,Hillsboro
15.204.41.192,4,58,prmac.com,US,Americas,Northern America,United States of America,Oregon,,Hillsboro
15.204.52.164,4,67,proamerica360.com,US,Americas,Northern America,United States of America,Oregon,,Hillsboro
51.81.205.39,4,-1,pvplive.net,US,Americas,Northern America,United States of America,Oregon,,Hillsboro
5.78.79.32,4,18,raptivity.com,US,Americas,Northern America,United States of America,Oregon,,Hillsboro
51.81.174.185,4,18201,rationalistinternational.net,US,Americas,Northern America,United States of America,Oregon,,Hillsboro
15.204.12.84,4,18,readability.com,US,Americas,Northern America,United States of America,Oregon,,Hillsboro
51.81.155.24,4,21,realestatedaily-news.com,US,Americas,Northern America,United States of America,Oregon,,Hillsboro
5.78.106.190,4,15,realis.network,US,Americas,Northern America,United States of America,Oregon,,Hillsboro
5.78.106.232,4,45,realis.network,US,Americas,Northern America,United States of America,Oregon,,Hillsboro
5.78.110.7,4,6,realis.network,US,Americas,Northern America,United States of America,Oregon,,Hillsboro
51.81.188.13,4,6,rinkratron.com,US,Americas,Northern America,United States of America,Oregon,,Hillsboro
15.204.104.148,4,40,robintrack.net,US,Americas,Northern America,United States of America,Oregon,,Hillsboro
51.81.187.58,4,38,rockbox.org,US,Americas,Northern America,United States of America,Oregon,,Hillsboro
5.78.16.101,4,43,roedererestate.com,US,Americas,Northern America,United States of America,Oregon,,Hillsboro
5.78.92.183,4,772,sage.agency,US,Americas,Northern America,United States of America,Oregon,,Hillsboro
147.135.37.169,4,6,satthep.net,US,Americas,Northern America,United States of America,Oregon,,Hillsboro
51.81.185.192,4,355,savebears.org,US,Americas,Northern America,United States of America,Oregon,,Hillsboro
51.81.205.32,4,-3,scrapdigest.com,US,Americas,Northern America,United States of America,Oregon,,Hillsboro
51.81.205.60,4,7,sellaband.com,US,Americas,Northern America,United States of America,Oregon,,Hillsboro
147.135.46.3,4,42,sevasales.com,US,Americas,Northern America,United States of America,Oregon,,Hillsboro
15.204.14.150,4,11,sharkprocessing.com,US,Americas,Northern America,United States of America,Oregon,,Hillsboro
51.81.214.238,4,4,sheckys.com,US,Americas,Northern America,United States of America,Oregon,,Hillsboro
51.81.183.220,4,9,sherlockian.net,US,Americas,Northern America,United States of America,Oregon,,Hillsboro
51.81.245.227,4,-4,shiningforcecentral.com,US,Americas,Northern America,United States of America,Oregon,,Hillsboro
51.81.195.80,4,11,shiptalk.org,US,Americas,Northern America,United States of America,Oregon,,Hillsboro
147.135.37.193,4,9,simpleprogrammer.com,US,Americas,Northern America,United States of America,Oregon,,Hillsboro
15.204.15.50,4,2,simplycollectiblecrochet.com,US,Americas,Northern America,United States of America,Oregon,,Hillsboro
51.81.205.59,4,18,slamxhype.com,US,Americas,Northern America,United States of America,Oregon,,Hillsboro
51.81.205.57,4,6,slendergame.com,US,Americas,Northern America,United States of America,Oregon,,Hillsboro
15.204.12.56,4,64,snooth.com,US,Americas,Northern America,United States of America,Oregon,,Hillsboro
147.135.36.163,4,59,socialcatfish.com,US,Americas,Northern America,United States of America,Oregon,,Hillsboro
51.81.198.227,4,7,solidsmack.com,US,Americas,Northern America,United States of America,Oregon,,Hillsboro
51.81.188.11,4,18,soup.io,US,Americas,Northern America,United States of America,Oregon,,Hillsboro
50.43.78.21,4,10,squidge.org,US,Americas,Northern America,United States of America,Oregon,,Hillsboro
51.81.209.40,4,59,starforgemc.com,US,Americas,Northern America,United States of America,Oregon,,Hillsboro
15.204.48.197,4,57,start2000.nl,US,Americas,Northern America,United States of America,Oregon,,Hillsboro
5.78.126.54,4,3,stribling.com,US,Americas,Northern America,United States of America,Oregon,,Hillsboro
51.81.205.62,4,33,studyguide.org,US,Americas,Northern America,United States of America,Oregon,,Hillsboro
51.81.243.158,4,0,survivalcourses.org,US,Americas,Northern America,United States of America,Oregon,,Hillsboro
51.81.137.113,4,4,tapscape.com,US,Americas,Northern America,United States of America,Oregon,,Hillsboro
147.135.46.168,4,75,tellabs.com,US,Americas,Northern America,United States of America,Oregon,,Hillsboro
51.81.198.189,4,0,the-underdogs.org,US,Americas,Northern America,United States of America,Oregon,,Hillsboro
15.204.67.140,4,14,thefreeadforum.com,US,Americas,Northern America,United States of America,Oregon,,Hillsboro
51.81.215.121,4,5,thehackpost.com,US,Americas,Northern America,United States of America,Oregon,,Hillsboro
208.71.201.29,4,32,thprd.org,US,Americas,Northern America,United States of America,Oregon,,Hillsboro
147.135.46.98,4,4,traumainformedoregon.org,US,Americas,Northern America,United States of America,Oregon,,Hillsboro
51.81.188.14,4,5,truthfuleditor.com,US,Americas,Northern America,United States of America,Oregon,,Hillsboro
5.78.46.119,4,5,tuckerhillaz.com,US,Americas,Northern America,United States of America,Oregon,,Hillsboro
51.81.188.45,4,18166,ultramonkey.org,US,Americas,Northern America,United States of America,Oregon,,Hillsboro
51.81.160.157,4,-1,uta.cloud,US,Americas,Northern America,United States of America,Oregon,,Hillsboro
208.67.200.46,4,7,vacationrentals411.com,US,Americas,Northern America,United States of America,Oregon,,Hillsboro
5.78.121.17,4,7,vaccinechoicecanada.com,US,Americas,Northern America,United States of America,Oregon,,Hillsboro
51.81.205.47,4,-3,valvetime.net,US,Americas,Northern America,United States of America,Oregon,,Hillsboro
147.135.45.24,4,26,vegas-valley.com,US,Americas,Northern America,United States of America,Oregon,,Hillsboro
51.81.205.41,4,23,village-bakery.com,US,Americas,Northern America,United States of America,Oregon,,Hillsboro
147.135.39.236,4,6,vtz.mx,US,Americas,Northern America,United States of America,Oregon,,Hillsboro
5.78.160.164,4,-15,walletinvestor.com,US,Americas,Northern America,United States of America,Oregon,,Hillsboro
51.81.202.206,4,1,walsh.com,US,Americas,Northern America,United States of America,Oregon,,Hillsboro
208.71.200.36,4,-10,wccls.org,US,Americas,Northern America,United States of America,Oregon,,Hillsboro
51.81.183.214,4,6,wcuquad.com,US,Americas,Northern America,United States of America,Oregon,,Hillsboro
147.135.36.165,4,8,westernbass.com,US,Americas,Northern America,United States of America,Oregon,,Hillsboro
51.81.205.51,4,0,widgetbox.com,US,Americas,Northern America,United States of America,Oregon,,Hillsboro
51.81.184.25,4,0,windowsfordevices.com,US,Americas,Northern America,United States of America,Oregon,,Hillsboro
51.81.165.18,4,-6,xiaomiui.net,US,Americas,Northern America,United States of America,Oregon,,Hillsboro
51.81.205.37,4,-1,xomba.com,US,Americas,Northern America,United States of America,Oregon,,Hillsboro
5.78.106.210,4,-7,yamasaur.com,US,Americas,Northern America,United States of America,Oregon,,Hillsboro
15.204.67.21,4,3,ydw2020.com,US,Americas,Northern America,United States of America,Oregon,,Hillsboro
51.81.165.16,4,-6,yoodley.com,US,Americas,Northern America,United States of America,Oregon,,Hillsboro
51.81.174.128,4,4,ziddu.com,US,Americas,Northern America,United States of America,Oregon,,Hillsboro
51.81.224.150,4,4,zshare.net,US,Americas,Northern America,United States of America,Oregon,,Hillsboro
15.204.56.187,4,-3,zsxwz.com,US,Americas,Northern America,United States of America,Oregon,,Hillsboro
51.81.194.202,4,5,zxq.net,US,Americas,Northern America,United States of America,Oregon,,Hillsboro
