reflector_ip,ip_version,offset,description,country_code,region,sub_region,country_name,sub_division_1,sub_division_2,city
163.43.28.199,4,4,agentmail.jp,JP,Asia,Eastern Asia,Japan,Ibaraki,,Namegata
163.43.26.253,4,22,animatebookstore.com,JP,Asia,Eastern Asia,Japan,Ibaraki,,Namegata
163.43.27.165,4,6,aoyagiuirou.co.jp,JP,Asia,Eastern Asia,Japan,Ibaraki,,Namegata
163.43.28.174,4,1,cdp-japan.jp,JP,Asia,Eastern Asia,Japan,Ibaraki,,Namegata
163.43.88.70,4,4,crosshotel.com,JP,Asia,Eastern Asia,Japan,Ibaraki,,Namegata
163.43.30.163,4,3,e-printservice.net,JP,Asia,Eastern Asia,Japan,Ibaraki,,Namegata
163.43.30.205,4,29,ecgo.jp,JP,Asia,Eastern Asia,Japan,Ibaraki,,Namegata
163.43.84.22,4,3,grapeejapan.com,JP,Asia,Eastern Asia,Japan,Ibaraki,,Namegata
163.43.84.21,4,7,grapeejapan.com,JP,Asia,Eastern Asia,Japan,Ibaraki,,Namegata
163.43.17.37,4,5,ichiran.com,JP,Asia,Eastern Asia,Japan,Ibaraki,,Namegata
163.43.91.236,4,0,jcom.to,JP,Asia,Eastern Asia,Japan,Ibaraki,,Namegata
163.43.86.183,4,2,kenzai-navi.com,JP,Asia,Eastern Asia,Japan,Ibaraki,,Namegata
163.43.91.13,4,2,kisuke.com,JP,Asia,Eastern Asia,Japan,Ibaraki,,Namegata
163.43.28.136,4,3,kmnh.jp,JP,Asia,Eastern Asia,Japan,Ibaraki,,Namegata
163.43.21.103,4,10,kyoto-daisakusen.kyoto,JP,Asia,Eastern Asia,Japan,Ibaraki,,Namegata
163.43.81.70,4,-3,melonbooks.co.jp,JP,Asia,Eastern Asia,Japan,Ibaraki,,Namegata
163.43.30.42,4,7,p-dress.jp,JP,Asia,Eastern Asia,Japan,Ibaraki,,Namegata
163.43.28.112,4,35,playtruejapan.org,JP,Asia,Eastern Asia,Japan,Ibaraki,,Namegata
163.43.29.158,4,7,qab.co.jp,JP,Asia,Eastern Asia,Japan,Ibaraki,,Namegata
163.43.25.70,4,27,soumunomori.com,JP,Asia,Eastern Asia,Japan,Ibaraki,,Namegata
163.43.18.151,4,8,subway.co.jp,JP,Asia,Eastern Asia,Japan,Ibaraki,,Namegata
163.43.28.144,4,0,tokyochristmas.net,JP,Asia,Eastern Asia,Japan,Ibaraki,,Namegata
163.43.31.180,4,10,tokyu-sports.com,JP,Asia,Eastern Asia,Japan,Ibaraki,,Namegata
163.43.25.182,4,2,utaten.com,JP,Asia,Eastern Asia,Japan,Ibaraki,,Namegata
