reflector_ip,ip_version,offset,description,country_code,region,sub_region,country_name,sub_division_1,sub_division_2,city
159.148.27.60,4,13,0o.lv,LV,Europe,Northern Europe,Latvia,Rīga,,Riga
31.128.32.203,4,13,cashboom.ru,LV,Europe,Northern Europe,Latvia,Rīga,,Riga
94.140.122.3,4,4,cesis.lv,LV,Europe,Northern Europe,Latvia,Rīga,,Riga
84.237.232.168,4,13,daba.lv,LV,Europe,Northern Europe,Latvia,Rīga,,Riga
80.250.56.119,4,19,DNS Server: 80.250.56.119.static.nano.lv,LV,Europe,Northern Europe,Latvia,Rīga,,Riga
83.99.190.221,4,-1074389194,DNS Server: balticom-190-221.balticom.lv,LV,Europe,Northern Europe,Latvia,Rīga,,Riga
77.93.22.17,4,6790066,DNS Server: balticom-22-17.balticom.lv,LV,Europe,Northern Europe,Latvia,Rīga,,Riga
83.99.220.7,4,335405,DNS Server: balticom-220-7.balticom.lv,LV,Europe,Northern Europe,Latvia,Rīga,,Riga
83.99.225.137,4,81,DNS Server: balticom-225-137.balticom.lv,LV,Europe,Northern Europe,Latvia,Rīga,,Riga
83.99.231.2,4,-357171289,DNS Server: balticom-231-2.balticom.lv,LV,Europe,Northern Europe,Latvia,Rīga,,Riga
83.99.252.220,4,6427,DNS Server: balticom-252-220.balticom.lv,LV,Europe,Northern Europe,Latvia,Rīga,,Riga
83.99.254.232,4,-216421,DNS Server: balticom-254-232.balticom.lv,LV,Europe,Northern Europe,Latvia,Rīga,,Riga
82.193.68.98,4,60696,DNS Server: balticom-68-98.balticom.lv,LV,Europe,Northern Europe,Latvia,Rīga,,Riga
82.193.93.151,4,83,DNS Server: balticom-93-151.balticom.lv,LV,Europe,Northern Europe,Latvia,Rīga,,Riga
176.106.53.185,4,9,DNS Server: host-176-106-53-185.icoms.lv,LV,Europe,Northern Europe,Latvia,Rīga,,Riga
88.135.145.11,4,36286,DNS Server: host-88-135-145-11.icoms.lv,LV,Europe,Northern Europe,Latvia,Rīga,,Riga
88.135.158.11,4,162,DNS Server: host-88-135-158-11.icoms.lv,LV,Europe,Northern Europe,Latvia,Rīga,,Riga
88.135.158.8,4,160,DNS Server: host-88-135-158-8.icoms.lv,LV,Europe,Northern Europe,Latvia,Rīga,,Riga
92.63.86.134,4,50,DNS Server: ip86-134.mwtv.lv,LV,Europe,Northern Europe,Latvia,Rīga,,Riga
85.234.187.123,4,314,DNS Server: r123-187-234-85-broadband.btv.lv,LV,Europe,Northern Europe,Latvia,Rīga,,Riga
77.38.250.135,4,283,DNS Server: r135-250-38-77-broadband.btv.lv,LV,Europe,Northern Europe,Latvia,Rīga,,Riga
80.233.248.109,4,175,DNS Server: waves.postmet.com,LV,Europe,Northern Europe,Latvia,Rīga,,Riga
159.148.94.36,4,6,drossinternets.lv,LV,Europe,Northern Europe,Latvia,Rīga,,Riga
91.90.253.135,4,33,goleks.com,LV,Europe,Northern Europe,Latvia,Rīga,,Riga
159.148.38.12,4,5,goodtec.ru,LV,Europe,Northern Europe,Latvia,Rīga,,Riga
91.224.13.22,4,7,gudriem.lv,LV,Europe,Northern Europe,Latvia,Rīga,,Riga
195.123.210.221,4,2,lastgame.pro,LV,Europe,Northern Europe,Latvia,Rīga,,Riga
159.148.57.35,4,3,lma.lv,LV,Europe,Northern Europe,Latvia,Rīga,,Riga
84.237.244.180,4,4381809,lnvm.lv,LV,Europe,Northern Europe,Latvia,Rīga,,Riga
195.123.210.44,4,3,loadgames.net,LV,Europe,Northern Europe,Latvia,Rīga,,Riga
31.128.34.213,4,44,mebelanapa.pro,LV,Europe,Northern Europe,Latvia,Rīga,,Riga
195.123.209.234,4,4,mos-parket.ru,LV,Europe,Northern Europe,Latvia,Rīga,,Riga
92.118.148.129,4,45,moscow-forest.ru,LV,Europe,Northern Europe,Latvia,Rīga,,Riga
83.99.196.240,4,27881,moust.lv,LV,Europe,Northern Europe,Latvia,Rīga,,Riga
195.122.12.34,4,461,Ookla Speedtest Server 1268: mini1.speedtest.lv,LV,Europe,Northern Europe,Latvia,Rīga,,Riga
91.90.253.48,4,435,Ookla Speedtest Server 7322: speedtest.telenet.lv,LV,Europe,Northern Europe,Latvia,Rīga,,Riga
84.245.224.70,4,257,Ookla Speedtest Server 24424: speedtest.livas.lv,LV,Europe,Northern Europe,Latvia,Rīga,,Riga
185.135.85.82,4,282,Ookla Speedtest Server 48045: speedtest-rig.melbicom.net,LV,Europe,Northern Europe,Latvia,Rīga,,Riga
185.220.196.8,4,257,Ookla Speedtest Server 63022: speedtest.77agency.dev,LV,Europe,Northern Europe,Latvia,Rīga,,Riga
92.118.148.126,4,47,pro-tulu.ru,LV,Europe,Northern Europe,Latvia,Rīga,,Riga
80.232.239.181,4,78660,providus.lv,LV,Europe,Northern Europe,Latvia,Rīga,,Riga
85.31.96.14,4,1055,radioradar.net,LV,Europe,Northern Europe,Latvia,Rīga,,Riga
87.110.219.34,4,53,radioswh.lv,LV,Europe,Northern Europe,Latvia,Rīga,,Riga
81.198.74.207,4,24,rai.lv,LV,Europe,Northern Europe,Latvia,Rīga,,Riga
91.224.12.170,4,67,reviewdetector.ru,LV,Europe,Northern Europe,Latvia,Rīga,,Riga
81.198.75.105,4,190,rgsl.edu.lv,LV,Europe,Northern Europe,Latvia,Rīga,,Riga
159.148.100.40,4,196494,rigasnami.lv,LV,Europe,Northern Europe,Latvia,Rīga,,Riga
159.148.38.51,4,15,rim-decor.ru,LV,Europe,Northern Europe,Latvia,Rīga,,Riga
195.123.210.50,4,7,rutor-org.games,LV,Europe,Northern Europe,Latvia,Rīga,,Riga
195.13.202.71,4,14,saftehnika.com,LV,Europe,Northern Europe,Latvia,Rīga,,Riga
81.198.74.244,4,16,sigulda.lv,LV,Europe,Northern Europe,Latvia,Rīga,,Riga
84.38.137.54,4,5,telegraf.lv,LV,Europe,Northern Europe,Latvia,Rīga,,Riga
195.123.210.10,4,2,topgir.com.ua,LV,Europe,Northern Europe,Latvia,Rīga,,Riga
213.21.217.70,4,1005,transportweekly.com,LV,Europe,Northern Europe,Latvia,Rīga,,Riga
80.232.240.92,4,8,valmieraszinas.lv,LV,Europe,Northern Europe,Latvia,Rīga,,Riga
195.123.210.178,4,54,vkontakte.dj,LV,Europe,Northern Europe,Latvia,Rīga,,Riga
