reflector_ip,ip_version,offset,description,country_code,region,sub_region,country_name,sub_division_1,sub_division_2,city
212.83.50.108,4,24,adserver01.de,DE,Europe,Western Europe,Germany,Baden-Wurttemberg,,Stuttgart
217.24.204.209,4,-1,aero-expo.com,DE,Europe,Western Europe,Germany,Baden-Wurttemberg,,Friedrichshafen
5.9.232.167,4,9,aetevent.com,DE,Europe,Western Europe,Germany,Baden-Wurttemberg,,Weil am Rhein
185.37.248.121,4,-26360057,aircraftspruce.eu,DE,Europe,Western Europe,Germany,Baden-Wurttemberg,,Löffingen
212.97.96.152,4,-38,alber.de,DE,Europe,Western Europe,Germany,Baden-Wurttemberg,,Tailfingen
212.83.50.41,4,7,amd-netz.de,DE,Europe,Western Europe,Germany,Baden-Wurttemberg,,Stuttgart
185.250.251.230,4,30,andre-simon.de,DE,Europe,Western Europe,Germany,Baden-Wurttemberg,,Oberkochen
212.83.50.134,4,10,arbeiterkind.de,DE,Europe,Western Europe,Germany,Baden-Wurttemberg,,Stuttgart
5.9.225.185,4,30,audiko.com,DE,Europe,Western Europe,Germany,Baden-Wurttemberg,,Weil am Rhein
141.52.13.58,4,31,auger.org,DE,Europe,Western Europe,Germany,Baden-Wurttemberg,,Eggenstein-Leopoldshafen
185.38.52.28,4,138,babyclub.de,DE,Europe,Western Europe,Germany,Baden-Wurttemberg,,Göppingen
212.83.50.90,4,50,baukultur.nrw,DE,Europe,Western Europe,Germany,Baden-Wurttemberg,,Stuttgart
129.143.254.6,4,3,belwue.de,DE,Europe,Western Europe,Germany,Baden-Wurttemberg,,Tübingen
212.86.205.238,4,9,bgv.de,DE,Europe,Western Europe,Germany,Baden-Wurttemberg,,Mannheim
144.76.124.9,4,33,binderholz.com,DE,Europe,Western Europe,Germany,Baden-Wurttemberg,,Jestetten
217.24.201.250,4,19,bodensee-airport.eu,DE,Europe,Western Europe,Germany,Baden-Wurttemberg,,Friedrichshafen
212.62.196.84,4,3,bodenseekreis.de,DE,Europe,Western Europe,Germany,Baden-Wurttemberg,,Wilhelmsdorf
212.62.201.187,4,-6,bodo.de,DE,Europe,Western Europe,Germany,Baden-Wurttemberg,,Wilhelmsdorf
212.87.128.228,4,11,bredent-group.com,DE,Europe,Western Europe,Germany,Baden-Wurttemberg,,Göppingen
212.62.200.219,4,-7,der-katamaran.de,DE,Europe,Western Europe,Germany,Baden-Wurttemberg,,Wilhelmsdorf
94.186.151.147,4,17,dieweltistgarnichtso.net,DE,Europe,Western Europe,Germany,Baden-Wurttemberg,,Stuttgart
217.20.113.211,4,110,directupload.net,DE,Europe,Western Europe,Germany,Baden-Wurttemberg,,Neuffen
5.9.225.170,4,5,direktno.rs,DE,Europe,Western Europe,Germany,Baden-Wurttemberg,,Weil am Rhein
5.9.225.178,4,7,direktno.rs,DE,Europe,Western Europe,Germany,Baden-Wurttemberg,,Weil am Rhein
85.115.25.218,4,3,dlh.net,DE,Europe,Western Europe,Germany,Baden-Wurttemberg,,Karlsruhe
213.214.3.10,4,9,dmkg.de,DE,Europe,Western Europe,Germany,Baden-Wurttemberg,,Wertheim am Main
80.158.47.193,4,121,DNS Server: ecs-80-158-47-193.reverse.open-telekom-cloud.com,DE,Europe,Western Europe,Germany,Baden-Wurttemberg,,Immenstaad am Bodensee
85.114.138.119,4,1652,DNS Server: f662.fuchsia.dedicated.server-hosting.expert,DE,Europe,Western Europe,Germany,Baden-Wurttemberg,,Maulburg
78.94.119.250,4,15,DNS Server: ip-078-094-119-250.um19.pools.vodafone-ip.de,DE,Europe,Western Europe,Germany,Baden-Wurttemberg,,Tübingen
92.198.20.43,4,6833906,DNS Server: port-92-198-20-43.static.as20676.net,DE,Europe,Western Europe,Germany,Baden-Wurttemberg,,Metzingen
62.146.90.178,4,8,doerken.com,DE,Europe,Western Europe,Germany,Baden-Wurttemberg,,Aalen
198.7.114.247,4,5,domovar-shop.ru,DE,Europe,Western Europe,Germany,Baden-Wurttemberg,,Karlsruhe
109.109.200.5,4,4,e-bookshelf.de,DE,Europe,Western Europe,Germany,Baden-Wurttemberg,,Karlsruhe
5.9.146.57,4,43,eazyauction.de,DE,Europe,Western Europe,Germany,Baden-Wurttemberg,,Weil am Rhein
217.7.19.162,4,32,ebro-armaturen.com,DE,Europe,Western Europe,Germany,Baden-Wurttemberg,,Albstadt
5.9.135.188,4,27,einguterplan.de,DE,Europe,Western Europe,Germany,Baden-Wurttemberg,,Weil am Rhein
5.9.178.72,4,28,ennstal-classic.at,DE,Europe,Western Europe,Germany,Baden-Wurttemberg,,Weil am Rhein
212.83.57.190,4,3,eo-college.org,DE,Europe,Western Europe,Germany,Baden-Wurttemberg,,Stuttgart
217.28.100.51,4,4,europlanet-eu.org,DE,Europe,Western Europe,Germany,Baden-Wurttemberg,,Appenweier
80.158.45.209,4,10,evergabe.de,DE,Europe,Western Europe,Germany,Baden-Wurttemberg,,Immenstaad am Bodensee
100.42.187.25,4,4,flsten.com,DE,Europe,Western Europe,Germany,Baden-Wurttemberg,,Karlsruhe
62.146.90.175,4,10,flux-pumps.com,DE,Europe,Western Europe,Germany,Baden-Wurttemberg,,Aalen
80.158.55.241,4,6,foto-erhardt.de,DE,Europe,Western Europe,Germany,Baden-Wurttemberg,,Immenstaad am Bodensee
144.76.124.105,4,127,framily.de,DE,Europe,Western Europe,Germany,Baden-Wurttemberg,,Jestetten
79.110.87.114,4,5,gameforge.de,DE,Europe,Western Europe,Germany,Baden-Wurttemberg,,Karlsruhe
62.146.90.197,4,6,gdsys.com,DE,Europe,Western Europe,Germany,Baden-Wurttemberg,,Aalen
195.7.7.187,4,2,gplugins.co,DE,Europe,Western Europe,Germany,Baden-Wurttemberg,,Karlsruhe
212.62.213.99,4,36,grenzebach.com,DE,Europe,Western Europe,Germany,Baden-Wurttemberg,,Ravensburg
213.214.4.144,4,2,grw.de,DE,Europe,Western Europe,Germany,Baden-Wurttemberg,,Wertheim am Main
45.92.9.93,4,1,halafeek.com,DE,Europe,Western Europe,Germany,Baden-Wurttemberg,,Karlsruhe
217.28.98.185,4,-2,hekatron.de,DE,Europe,Western Europe,Germany,Baden-Wurttemberg,,Appenweier
62.146.90.68,4,5,herrenknecht.com,DE,Europe,Western Europe,Germany,Baden-Wurttemberg,,Aalen
193.197.160.57,4,3,hfg-karlsruhe.de,DE,Europe,Western Europe,Germany,Baden-Wurttemberg,,Karlsruhe
193.197.232.109,4,1,hft-stuttgart.de,DE,Europe,Western Europe,Germany,Baden-Wurttemberg,,Stuttgart
86.48.7.201,4,26,hofaacmr.org,DE,Europe,Western Europe,Germany,Baden-Wurttemberg,,Karlsruhe
94.186.153.201,4,7,hs-albsig.de,DE,Europe,Western Europe,Germany,Baden-Wurttemberg,,Stuttgart
80.158.57.141,4,3,huaweimobileservices.com,DE,Europe,Western Europe,Germany,Baden-Wurttemberg,,Immenstaad am Bodensee
212.71.198.27,4,13,hwk-reutlingen.de,DE,Europe,Western Europe,Germany,Baden-Wurttemberg,,Reutlingen
62.146.96.152,4,6,idm.de,DE,Europe,Western Europe,Germany,Baden-Wurttemberg,,Aalen
85.114.132.123,4,18,ihya.org,DE,Europe,Western Europe,Germany,Baden-Wurttemberg,,Maulburg
77.244.98.155,4,36,inexio.net,DE,Europe,Western Europe,Germany,Baden-Wurttemberg,,Heidelberg
46.232.228.62,4,34,innovaphone.com,DE,Europe,Western Europe,Germany,Baden-Wurttemberg,,Ettlingen
212.71.215.200,4,77,irmscher.de,DE,Europe,Western Europe,Germany,Baden-Wurttemberg,,Bad Urach
109.109.206.28,4,15,jacob-computer.de,DE,Europe,Western Europe,Germany,Baden-Wurttemberg,,Karlsruhe
45.136.17.69,4,33,jankratochvil.net,DE,Europe,Western Europe,Germany,Baden-Wurttemberg,,Karlsruhe
144.76.55.223,4,90,klubok.com,DE,Europe,Western Europe,Germany,Baden-Wurttemberg,,Jestetten
195.243.56.83,4,11,koenigswinter.de,DE,Europe,Western Europe,Germany,Baden-Wurttemberg,,Salach
185.242.115.206,4,101449,kommbio.de,DE,Europe,Western Europe,Germany,Baden-Wurttemberg,,Oberkochen
5.9.248.135,4,18,kstools.com,DE,Europe,Western Europe,Germany,Baden-Wurttemberg,,Weil am Rhein
5.9.248.134,4,19,kstools.com,DE,Europe,Western Europe,Germany,Baden-Wurttemberg,,Weil am Rhein
94.186.151.138,4,38,kunstform.org,DE,Europe,Western Europe,Germany,Baden-Wurttemberg,,Stuttgart
193.196.21.107,4,33,landesarchiv-bw.de,DE,Europe,Western Europe,Germany,Baden-Wurttemberg,,Filderstadt
212.71.208.34,4,2,lfk.de,DE,Europe,Western Europe,Germany,Baden-Wurttemberg,,Bad Urach
213.30.246.242,4,6,linuxforen.de,DE,Europe,Western Europe,Germany,Baden-Wurttemberg,,Kraichtal
178.13.120.162,4,24,loebau.de,DE,Europe,Western Europe,Germany,Baden-Wurttemberg,,Mannheim
5.9.225.168,4,8,luxuryhotel.world,DE,Europe,Western Europe,Germany,Baden-Wurttemberg,,Weil am Rhein
80.158.38.16,4,10,magentacloud.de,DE,Europe,Western Europe,Germany,Baden-Wurttemberg,,Immenstaad am Bodensee
195.243.56.28,4,5,meckenheim.de,DE,Europe,Western Europe,Germany,Baden-Wurttemberg,,Salach
5.9.248.143,4,4,meetingpoint-brandenburg.de,DE,Europe,Western Europe,Germany,Baden-Wurttemberg,,Weil am Rhein
62.146.96.101,4,5,mehr-tanken.de,DE,Europe,Western Europe,Germany,Baden-Wurttemberg,,Aalen
62.146.96.103,4,15,mehr-tanken.de,DE,Europe,Western Europe,Germany,Baden-Wurttemberg,,Aalen
62.146.96.102,4,12,mehr-tanken.de,DE,Europe,Western Europe,Germany,Baden-Wurttemberg,,Aalen
212.97.109.173,4,7,metabolic-balance.com,DE,Europe,Western Europe,Germany,Baden-Wurttemberg,,Tailfingen
193.158.75.34,4,69,mindfactory.de,DE,Europe,Western Europe,Germany,Baden-Wurttemberg,,Aldingen
217.31.208.218,4,23,mobile-rv.de,DE,Europe,Western Europe,Germany,Baden-Wurttemberg,,Friedrichshafen
129.69.55.20,4,15,molpro.net,DE,Europe,Western Europe,Germany,Baden-Wurttemberg,,Stuttgart
109.109.202.25,4,4,moveon4.de,DE,Europe,Western Europe,Germany,Baden-Wurttemberg,,Karlsruhe
195.179.229.100,4,19,musiktheater-im-revier.de,DE,Europe,Western Europe,Germany,Baden-Wurttemberg,,Karlsruhe
141.52.248.80,4,3,nanopartikel.info,DE,Europe,Western Europe,Germany,Baden-Wurttemberg,,Karlsruhe
193.197.172.165,4,-4517212,netzspannung.org,DE,Europe,Western Europe,Germany,Baden-Wurttemberg,,Karlsruhe
80.158.46.253,4,148,norma-online.de,DE,Europe,Western Europe,Germany,Baden-Wurttemberg,,Immenstaad am Bodensee
5.9.162.36,4,32,novasports.gr,DE,Europe,Western Europe,Germany,Baden-Wurttemberg,,Weil am Rhein
212.83.50.104,4,2,oase-livingwater.com,DE,Europe,Western Europe,Germany,Baden-Wurttemberg,,Stuttgart
195.243.56.36,4,56,obk.de,DE,Europe,Western Europe,Germany,Baden-Wurttemberg,,Salach
5.9.205.240,4,96,online-batterien.de,DE,Europe,Western Europe,Germany,Baden-Wurttemberg,,Weil am Rhein
217.20.115.5,4,148,onlinecasinoparliament.com,DE,Europe,Western Europe,Germany,Baden-Wurttemberg,,Neuffen
85.115.13.250,4,122,Ookla Speedtest Server 18613: speedtest.telemaxx.net,DE,Europe,Western Europe,Germany,Baden-Wurttemberg,,Karlsruhe
212.87.134.173,4,228,Ookla Speedtest Server 21987: speedtest.imos.net,DE,Europe,Western Europe,Germany,Baden-Wurttemberg,,Göppingen
89.207.181.150,4,318,Ookla Speedtest Server 57213: speedtest.fairfast.de,DE,Europe,Western Europe,Germany,Baden-Wurttemberg,,Schwäbisch Gmünd
217.24.204.222,4,25,outdoor-friedrichshafen.com,DE,Europe,Western Europe,Germany,Baden-Wurttemberg,,Friedrichshafen
5.9.190.109,4,9,panorama-museum.de,DE,Europe,Western Europe,Germany,Baden-Wurttemberg,,Weil am Rhein
213.214.3.88,4,28,pecon.biz,DE,Europe,Western Europe,Germany,Baden-Wurttemberg,,Wertheim am Main
100.42.186.222,4,41,peertube.uno,DE,Europe,Western Europe,Germany,Baden-Wurttemberg,,Karlsruhe
193.197.160.61,4,19,petersloterdijk.net,DE,Europe,Western Europe,Germany,Baden-Wurttemberg,,Karlsruhe
198.7.114.248,4,-7,porog-school.ru,DE,Europe,Western Europe,Germany,Baden-Wurttemberg,,Karlsruhe
62.146.116.162,4,36,prestonchild.com,DE,Europe,Western Europe,Germany,Baden-Wurttemberg,,Aalen
198.7.121.127,4,33,prostats.org,DE,Europe,Western Europe,Germany,Baden-Wurttemberg,,Karlsruhe
129.13.130.200,4,4,re3data.org,DE,Europe,Western Europe,Germany,Baden-Wurttemberg,,Karlsruhe
185.52.247.25,4,15,remote.org,DE,Europe,Western Europe,Germany,Baden-Wurttemberg,,Karlsruhe
213.144.14.135,4,12,rena.com,DE,Europe,Western Europe,Germany,Baden-Wurttemberg,,Karlsbad
195.243.56.176,4,35,rheinbach.de,DE,Europe,Western Europe,Germany,Baden-Wurttemberg,,Salach
213.214.0.161,4,3,rockenstein.de,DE,Europe,Western Europe,Germany,Baden-Wurttemberg,,Wertheim am Main
62.146.90.164,4,25,rolf-benz.com,DE,Europe,Western Europe,Germany,Baden-Wurttemberg,,Aalen
144.76.124.19,4,7,rtsplaneta.rs,DE,Europe,Western Europe,Germany,Baden-Wurttemberg,,Jestetten
144.76.124.49,4,5,rtsplaneta.rs,DE,Europe,Western Europe,Germany,Baden-Wurttemberg,,Jestetten
80.158.57.220,4,7,samedi.de,DE,Europe,Western Europe,Germany,Baden-Wurttemberg,,Immenstaad am Bodensee
217.28.102.229,4,11,schwarzwaldradio.com,DE,Europe,Western Europe,Germany,Baden-Wurttemberg,,Appenweier
212.65.0.163,4,33,schweizerbart.de,DE,Europe,Western Europe,Germany,Baden-Wurttemberg,,Mannheim
80.158.54.176,4,11,sentidohotels.com,DE,Europe,Western Europe,Germany,Baden-Wurttemberg,,Immenstaad am Bodensee
5.9.248.242,4,13,shopmania.biz,DE,Europe,Western Europe,Germany,Baden-Wurttemberg,,Weil am Rhein
45.129.42.169,4,1,sitzung-online.de,DE,Europe,Western Europe,Germany,Baden-Wurttemberg,,Heilbronn
212.62.200.11,4,22,sprinz.eu,DE,Europe,Western Europe,Germany,Baden-Wurttemberg,,Wilhelmsdorf
91.205.105.117,4,-203,sptfy.com,DE,Europe,Western Europe,Germany,Baden-Wurttemberg,,Karlsruhe
62.146.88.139,4,5,stadtradio-goettingen.de,DE,Europe,Western Europe,Germany,Baden-Wurttemberg,,Aalen
212.83.50.209,4,3,succow-stiftung.de,DE,Europe,Western Europe,Germany,Baden-Wurttemberg,,Stuttgart
144.76.125.119,4,51,svw07.de,DE,Europe,Western Europe,Germany,Baden-Wurttemberg,,Jestetten
129.13.170.80,4,6781,teco.edu,DE,Europe,Western Europe,Germany,Baden-Wurttemberg,,Karlsruhe
79.110.87.192,4,35,tera-europe.com,DE,Europe,Western Europe,Germany,Baden-Wurttemberg,,Karlsruhe
91.121.232.193,4,3,termignoni.it,DE,Europe,Western Europe,Germany,Baden-Wurttemberg,,Heilbronn
85.114.132.53,4,2,thebestvpn.ru,DE,Europe,Western Europe,Germany,Baden-Wurttemberg,,Maulburg
213.164.72.184,4,24,thomas-daily.de,DE,Europe,Western Europe,Germany,Baden-Wurttemberg,,Freiburg im Breisgau
5.9.190.104,4,9,thueringenforst.de,DE,Europe,Western Europe,Germany,Baden-Wurttemberg,,Weil am Rhein
37.228.134.25,4,18,tiekoetter.com,DE,Europe,Western Europe,Germany,Baden-Wurttemberg,,Neckargemünd
94.186.151.142,4,18,tiggerswelt.net,DE,Europe,Western Europe,Germany,Baden-Wurttemberg,,Stuttgart
129.13.131.4,4,1,tin.org,DE,Europe,Western Europe,Germany,Baden-Wurttemberg,,Karlsruhe
85.115.25.219,4,7,topwareshop.com,DE,Europe,Western Europe,Germany,Baden-Wurttemberg,,Karlsruhe
198.7.121.18,4,20,tournet.gr,DE,Europe,Western Europe,Germany,Baden-Wurttemberg,,Karlsruhe
129.206.13.71,4,31,uni-heidelberg.de,DE,Europe,Western Europe,Germany,Baden-Wurttemberg,,Neckargemünd
85.190.241.65,4,8,uoch.edu.pk,DE,Europe,Western Europe,Germany,Baden-Wurttemberg,,Karlsruhe
132.230.103.37,4,55,usegalaxy.eu,DE,Europe,Western Europe,Germany,Baden-Wurttemberg,,Freiburg im Breisgau
62.146.116.145,4,3,vaterland.li,DE,Europe,Western Europe,Germany,Baden-Wurttemberg,,Aalen
212.87.145.58,4,3,vhs-bw.de,DE,Europe,Western Europe,Germany,Baden-Wurttemberg,,Göppingen
217.28.98.205,4,-2,volkszaehler.org,DE,Europe,Western Europe,Germany,Baden-Wurttemberg,,Appenweier
217.24.206.117,4,17,vomfass.de,DE,Europe,Western Europe,Germany,Baden-Wurttemberg,,Friedrichshafen
80.158.56.13,4,7,wahlschein.de,DE,Europe,Western Europe,Germany,Baden-Wurttemberg,,Immenstaad am Bodensee
213.214.12.185,4,25,webauto.de,DE,Europe,Western Europe,Germany,Baden-Wurttemberg,,Wertheim am Main
217.28.98.120,4,3924,wittenstein.de,DE,Europe,Western Europe,Germany,Baden-Wurttemberg,,Appenweier
5.9.178.76,4,11,wohnwagon.at,DE,Europe,Western Europe,Germany,Baden-Wurttemberg,,Weil am Rhein
198.7.114.249,4,27,xn----7sbzfcdscgh7b1c.xn--p1ai,DE,Europe,Western Europe,Germany,Baden-Wurttemberg,,Karlsruhe
5.9.227.145,4,2,yesdesign.it,DE,Europe,Western Europe,Germany,Baden-Wurttemberg,,Weil am Rhein
193.196.11.183,4,5,zew.de,DE,Europe,Western Europe,Germany,Baden-Wurttemberg,,Friesenheim
80.158.59.88,4,7,zi.de,DE,Europe,Western Europe,Germany,Baden-Wurttemberg,,Immenstaad am Bodensee
85.115.25.220,4,2,zuxxez.com,DE,Europe,Western Europe,Germany,Baden-Wurttemberg,,Karlsruhe
