reflector_ip,ip_version,offset,description,country_code,region,sub_region,country_name,sub_division_1,sub_division_2,city
81.14.169.81,4,36,auerswald.de,DE,Europe,Western Europe,Germany,Lower Saxony,,Hanover
212.144.241.82,4,14,DNS Server: acca1.servicebund.de,DE,Europe,Western Europe,Germany,Lower Saxony,,Hanover
176.94.20.4,4,-2129380767,DNS Server: business-176-094-020-004.static.arcor-ip.net,DE,Europe,Western Europe,Germany,Lower Saxony,,Hanover
91.249.142.66,4,-764,DNS Server: leasedline-static-091-249-142-066.ewe-ip-backbone.de,DE,Europe,Western Europe,Germany,Lower Saxony,,Weyhe
212.95.99.72,4,-3598287,DNS Server: leasedline-static-212-095-099-072.osnanet.de,DE,Europe,Western Europe,Germany,Lower Saxony,,Osnabrück
90.153.5.38,4,-3599237,DNS Server: mail.gebrgauselmann.de,DE,Europe,Western Europe,Germany,Lower Saxony,,Cappeln
87.253.247.247,4,88,DNS Server: no-reverse.nexiu.net,DE,Europe,Western Europe,Germany,Lower Saxony,,Binnen
87.161.29.207,4,167,DNS Server: p57a11dcf.dip0.t-ipconnect.de,DE,Europe,Western Europe,Germany,Lower Saxony,,Osnabrück
195.202.44.20,4,12,greven.net,DE,Europe,Western Europe,Germany,Lower Saxony,,Seesen
213.221.94.169,4,2,harz.de,DE,Europe,Western Europe,Germany,Lower Saxony,,Clausthal-Zellerfeld
139.13.250.115,4,11,jade-hs.de,DE,Europe,Western Europe,Germany,Lower Saxony,,Cloppenburg
80.228.8.165,4,39,jogger.pl,DE,Europe,Western Europe,Germany,Lower Saxony,,Bad Zwischenahn
194.76.66.12,4,7,kdo.de,DE,Europe,Western Europe,Germany,Lower Saxony,,Oldenburg
81.14.169.37,4,27,landkreis-peine.de,DE,Europe,Western Europe,Germany,Lower Saxony,,Hanover
80.69.112.51,4,8638168,lord-rayden.com,DE,Europe,Western Europe,Germany,Lower Saxony,,Wilhelmshaven
213.128.137.20,4,32,maemo.org,DE,Europe,Western Europe,Germany,Lower Saxony,,Rotenburg (Wümme)
212.68.70.44,4,122,medienanstalt-hessen.de,DE,Europe,Western Europe,Germany,Lower Saxony,,Wendhausen
91.249.143.15,4,5,nports.de,DE,Europe,Western Europe,Germany,Lower Saxony,,Weyhe
134.76.242.42,4,3,nw-fva.de,DE,Europe,Western Europe,Germany,Lower Saxony,,Göttingen
195.202.44.38,4,53,offenbach.de,DE,Europe,Western Europe,Germany,Lower Saxony,,Seesen
134.106.57.24,4,34,offis.de,DE,Europe,Western Europe,Germany,Lower Saxony,,Oldenburg
134.106.57.25,4,41,offis.de,DE,Europe,Western Europe,Germany,Lower Saxony,,Oldenburg
194.76.66.106,4,439,oldenburg-kreis.de,DE,Europe,Western Europe,Germany,Lower Saxony,,Oldenburg
5.61.162.244,4,376,Ookla Speedtest Server 11519: my-speed.info,DE,Europe,Western Europe,Germany,Lower Saxony,,Spiekeroog
185.44.4.202,4,314,Ookla Speedtest Server 51487: speed02.buchholz-digital.net,DE,Europe,Western Europe,Germany,Lower Saxony,,Buchholz in der Nordheide
5.181.51.226,4,323,Ookla Speedtest Server 60440: speedtest.hannover.jonasdevries.de,DE,Europe,Western Europe,Germany,Lower Saxony,,Hanover
179.61.253.215,4,188,Ookla Speedtest Server 62114: st02.fynn-int.de,DE,Europe,Western Europe,Germany,Lower Saxony,,Aurich
85.16.131.52,4,6,oowv.de,DE,Europe,Western Europe,Germany,Lower Saxony,,Stuhr
134.76.163.19,4,1,open-access.net,DE,Europe,Western Europe,Germany,Lower Saxony,,Rosdorf
109.239.194.8,4,34,oz-online.de,DE,Europe,Western Europe,Germany,Lower Saxony,,Aurich
212.68.70.7,4,17,pc-erfahrung.de,DE,Europe,Western Europe,Germany,Lower Saxony,,Wendhausen
109.239.203.244,4,502942,reederei-frisia.de,DE,Europe,Western Europe,Germany,Lower Saxony,,Aurich
185.144.205.4,4,8,schloss-dankern.de,DE,Europe,Western Europe,Germany,Lower Saxony,,Meppen
213.128.137.24,4,88,scratchbox.org,DE,Europe,Western Europe,Germany,Lower Saxony,,Rotenburg (Wümme)
5.252.232.103,4,4,trauer-anzeigen.de,DE,Europe,Western Europe,Germany,Lower Saxony,,Weyhe
134.106.11.139,4,15,triq.net,DE,Europe,Western Europe,Germany,Lower Saxony,,Oldenburg
217.13.69.140,4,13,weltkunst.de,DE,Europe,Western Europe,Germany,Lower Saxony,,Braunschweig
195.202.44.47,4,14,wetzlar.de,DE,Europe,Western Europe,Germany,Lower Saxony,,Seesen
80.69.112.53,4,69,wilhelmshaven.de,DE,Europe,Western Europe,Germany,Lower Saxony,,Wilhelmshaven
62.176.236.41,4,7,wolfsburg.de,DE,Europe,Western Europe,Germany,Lower Saxony,,Wolfsburg
