reflector_ip,ip_version,offset,description,country_code,region,sub_region,country_name,sub_division_1,sub_division_2,city
5.9.127.233,4,10,afdkompakt.de,DE,Europe,Western Europe,Germany,Rheinland-Pfalz,,Mainz
167.235.173.117,4,7,akkushop.de,DE,Europe,Western Europe,Germany,Rheinland-Pfalz,,Zweibrücken
167.235.173.13,4,-15,allround-pc.com,DE,Europe,Western Europe,Germany,Rheinland-Pfalz,,Zweibrücken
178.20.102.106,4,31,annalena-baerbock.de,DE,Europe,Western Europe,Germany,Rheinland-Pfalz,,Birkenfeld
167.235.173.186,4,19,ars24.com,DE,Europe,Western Europe,Germany,Rheinland-Pfalz,,Zweibrücken
167.235.208.197,4,6,arzum.com.tr,DE,Europe,Western Europe,Germany,Rheinland-Pfalz,,Zweibrücken
162.55.79.30,4,34,autoform.com,DE,Europe,Western Europe,Germany,Rheinland-Pfalz,,Hachenburg
162.55.79.22,4,6,bakertilly.de,DE,Europe,Western Europe,Germany,Rheinland-Pfalz,,Hachenburg
212.43.66.7,4,45,bauer-kompressoren.de,DE,Europe,Western Europe,Germany,Rheinland-Pfalz,,Saarburg
167.235.210.201,4,22,beobuild.rs,DE,Europe,Western Europe,Germany,Rheinland-Pfalz,,Zweibrücken
167.235.173.223,4,92,bioland.de,DE,Europe,Western Europe,Germany,Rheinland-Pfalz,,Zweibrücken
178.20.102.41,4,-346,bodypainting-festival.com,DE,Europe,Western Europe,Germany,Rheinland-Pfalz,,Birkenfeld
62.146.28.172,4,6,bote.ch,DE,Europe,Western Europe,Germany,Rheinland-Pfalz,,Dernbach
213.183.91.156,4,46,camlog.de,DE,Europe,Western Europe,Germany,Rheinland-Pfalz,,Landau
94.130.244.218,4,45,canton.de,DE,Europe,Western Europe,Germany,Rheinland-Pfalz,,Ludwigshafen am Rhein
162.55.231.88,4,21,ciclosport.com,DE,Europe,Western Europe,Germany,Rheinland-Pfalz,,Hachenburg
94.130.232.207,4,40,datenschutz-guru.de,DE,Europe,Western Europe,Germany,Rheinland-Pfalz,,Ludwigshafen am Rhein
167.235.210.246,4,6,detinjarije.com,DE,Europe,Western Europe,Germany,Rheinland-Pfalz,,Zweibrücken
94.130.146.206,4,33,diamir.de,DE,Europe,Western Europe,Germany,Rheinland-Pfalz,,Ludwigshafen am Rhein
93.241.193.206,4,-926603,DNS Server: p5df1c1ce.dip0.t-ipconnect.de,DE,Europe,Western Europe,Germany,Rheinland-Pfalz,,Dierdorf
217.151.147.70,4,16,dom-zu-speyer.de,DE,Europe,Western Europe,Germany,Rheinland-Pfalz,,Ludwigshafen am Rhein
162.55.74.18,4,-58,drshnaps.com,DE,Europe,Western Europe,Germany,Rheinland-Pfalz,,Hachenburg
162.55.79.28,4,6,dsw-info.de,DE,Europe,Western Europe,Germany,Rheinland-Pfalz,,Hachenburg
167.235.209.212,4,7,euregio.eu,DE,Europe,Western Europe,Germany,Rheinland-Pfalz,,Zweibrücken
212.43.66.38,4,5,falk-ross.eu,DE,Europe,Western Europe,Germany,Rheinland-Pfalz,,Saarburg
162.55.231.104,4,6,fan12.de,DE,Europe,Western Europe,Germany,Rheinland-Pfalz,,Hachenburg
162.55.73.166,4,-34642,flughafen-erfurt-weimar.de,DE,Europe,Western Europe,Germany,Rheinland-Pfalz,,Hachenburg
167.235.173.245,4,5,forum-fairer-handel.de,DE,Europe,Western Europe,Germany,Rheinland-Pfalz,,Zweibrücken
167.235.173.83,4,8,freixenet-onlineshop.de,DE,Europe,Western Europe,Germany,Rheinland-Pfalz,,Zweibrücken
94.130.210.64,4,33,global-monitoring.com,DE,Europe,Western Europe,Germany,Rheinland-Pfalz,,Ludwigshafen am Rhein
5.9.75.251,4,5,gutscheinrausch.de,DE,Europe,Western Europe,Germany,Rheinland-Pfalz,,Mainz
162.55.18.162,4,7,hans-im-glueck.de,DE,Europe,Western Europe,Germany,Rheinland-Pfalz,,Hachenburg
167.235.173.78,4,7,hd.digital,DE,Europe,Western Europe,Germany,Rheinland-Pfalz,,Zweibrücken
94.130.145.116,4,6,herthundbuss.com,DE,Europe,Western Europe,Germany,Rheinland-Pfalz,,Ludwigshafen am Rhein
217.146.24.48,4,42976,his.de,DE,Europe,Western Europe,Germany,Rheinland-Pfalz,,
167.235.173.127,4,36,hostit.pl,DE,Europe,Western Europe,Germany,Rheinland-Pfalz,,Zweibrücken
143.93.243.30,4,5,hs-koblenz.de,DE,Europe,Western Europe,Germany,Rheinland-Pfalz,,Höhr-Grenzhausen
143.93.160.29,4,18591,hs-worms.de,DE,Europe,Western Europe,Germany,Rheinland-Pfalz,,Worms
62.146.7.238,4,16,icunet.ag,DE,Europe,Western Europe,Germany,Rheinland-Pfalz,,Dernbach
162.55.72.6,4,6,ikk-classic.de,DE,Europe,Western Europe,Germany,Rheinland-Pfalz,,Hachenburg
162.55.72.7,4,9,ikk-classic.de,DE,Europe,Western Europe,Germany,Rheinland-Pfalz,,Hachenburg
162.55.231.115,4,3,iss-ffm.de,DE,Europe,Western Europe,Germany,Rheinland-Pfalz,,Hachenburg
62.146.57.94,4,3,jfnet.de,DE,Europe,Western Europe,Germany,Rheinland-Pfalz,,Dernbach
178.20.102.28,4,-366,joomgalleryfriends.net,DE,Europe,Western Europe,Germany,Rheinland-Pfalz,,Birkenfeld
167.235.173.246,4,4,kab.de,DE,Europe,Western Europe,Germany,Rheinland-Pfalz,,Zweibrücken
212.43.73.194,4,5,karakas-online.de,DE,Europe,Western Europe,Germany,Rheinland-Pfalz,,Saarburg
212.184.222.68,4,4,kasto.com,DE,Europe,Western Europe,Germany,Rheinland-Pfalz,,Mörsdorf
217.151.149.234,4,1217,kh-it.de,DE,Europe,Western Europe,Germany,Rheinland-Pfalz,,Ludwigshafen am Rhein
162.55.18.191,4,77,klinikum-bochum.de,DE,Europe,Western Europe,Germany,Rheinland-Pfalz,,Hachenburg
94.130.152.38,4,7,kmk-pad.org,DE,Europe,Western Europe,Germany,Rheinland-Pfalz,,Ludwigshafen am Rhein
167.235.173.215,4,5,korrosionsschutz-depot.de,DE,Europe,Western Europe,Germany,Rheinland-Pfalz,,Zweibrücken
162.55.9.209,4,15,kriminalmuseum.eu,DE,Europe,Western Europe,Germany,Rheinland-Pfalz,,Hachenburg
80.149.83.36,4,6,linda.de,DE,Europe,Western Europe,Germany,Rheinland-Pfalz,,Wolfstein
212.19.34.41,4,4,lohmann-tapes.com,DE,Europe,Western Europe,Germany,Rheinland-Pfalz,,Ingelheim
178.20.102.26,4,-2709,lrtimelapse.com,DE,Europe,Western Europe,Germany,Rheinland-Pfalz,,Birkenfeld
62.146.25.125,4,4,mainchat.de,DE,Europe,Western Europe,Germany,Rheinland-Pfalz,,Dernbach
94.130.244.223,4,10,mapofcoins.com,DE,Europe,Western Europe,Germany,Rheinland-Pfalz,,Ludwigshafen am Rhein
94.130.152.49,4,5,meedia.de,DE,Europe,Western Europe,Germany,Rheinland-Pfalz,,Ludwigshafen am Rhein
167.235.173.8,4,85,metallhandwerk.de,DE,Europe,Western Europe,Germany,Rheinland-Pfalz,,Zweibrücken
178.20.102.58,4,2,miracletrees.org,DE,Europe,Western Europe,Germany,Rheinland-Pfalz,,Birkenfeld
178.20.102.49,4,-2743,modulbuero.de,DE,Europe,Western Europe,Germany,Rheinland-Pfalz,,Birkenfeld
94.130.232.194,4,14,moehl.ch,DE,Europe,Western Europe,Germany,Rheinland-Pfalz,,Ludwigshafen am Rhein
178.20.101.156,4,4,mrn-news.de,DE,Europe,Western Europe,Germany,Rheinland-Pfalz,,Birkenfeld
178.20.102.37,4,46,oezdemir.de,DE,Europe,Western Europe,Germany,Rheinland-Pfalz,,Birkenfeld
212.7.160.69,4,219,Ookla Speedtest Server 4546: speed.ktk.de,DE,Europe,Western Europe,Germany,Rheinland-Pfalz,,Schenkelberg
213.183.69.197,4,331,Ookla Speedtest Server 28818: speedtest.pfalzkom.de,DE,Europe,Western Europe,Germany,Rheinland-Pfalz,,Speyer
162.55.15.34,4,-9617,open.hr,DE,Europe,Western Europe,Germany,Rheinland-Pfalz,,Hachenburg
194.25.184.152,4,-11095,opitec.com,DE,Europe,Western Europe,Germany,Rheinland-Pfalz,,Monreal
217.151.151.26,4,1012,pepperl-fuchs.com,DE,Europe,Western Europe,Germany,Rheinland-Pfalz,,Ludwigshafen am Rhein
167.235.208.231,4,41,phpbb.nl,DE,Europe,Western Europe,Germany,Rheinland-Pfalz,,Zweibrücken
185.10.195.198,4,1369,pleiteticker.de,DE,Europe,Western Europe,Germany,Rheinland-Pfalz,,Ludwigshafen am Rhein
167.235.173.247,4,6,r-raymon-bikes.com,DE,Europe,Western Europe,Germany,Rheinland-Pfalz,,Zweibrücken
178.20.101.103,4,12,redfood24.de,DE,Europe,Western Europe,Germany,Rheinland-Pfalz,,Birkenfeld
212.19.45.139,4,12,rote-liste.de,DE,Europe,Western Europe,Germany,Rheinland-Pfalz,,Ingelheim
131.246.120.130,4,15,rptu.de,DE,Europe,Western Europe,Germany,Rheinland-Pfalz,,Kaiserslautern
162.55.231.87,4,60,sem-deutschland.de,DE,Europe,Western Europe,Germany,Rheinland-Pfalz,,Hachenburg
167.235.173.102,4,54,sendemail.ch,DE,Europe,Western Europe,Germany,Rheinland-Pfalz,,Zweibrücken
178.20.101.53,4,8,servicefriendship.org,DE,Europe,Western Europe,Germany,Rheinland-Pfalz,,Birkenfeld
94.130.152.35,4,16,sonor.com,DE,Europe,Western Europe,Germany,Rheinland-Pfalz,,Ludwigshafen am Rhein
94.130.232.209,4,65,starrag.com,DE,Europe,Western Europe,Germany,Rheinland-Pfalz,,Ludwigshafen am Rhein
94.130.152.53,4,8,steyr-mannlicher.com,DE,Europe,Western Europe,Germany,Rheinland-Pfalz,,Ludwigshafen am Rhein
212.43.66.36,4,94,textileeurope.com,DE,Europe,Western Europe,Germany,Rheinland-Pfalz,,Saarburg
167.235.173.180,4,15,tiermedizinportal.de,DE,Europe,Western Europe,Germany,Rheinland-Pfalz,,Zweibrücken
94.130.244.212,4,6,tmdfriction.com,DE,Europe,Western Europe,Germany,Rheinland-Pfalz,,Ludwigshafen am Rhein
94.130.145.124,4,23,trachten-angermaier.de,DE,Europe,Western Europe,Germany,Rheinland-Pfalz,,Ludwigshafen am Rhein
94.130.145.127,4,5,ukr.media,DE,Europe,Western Europe,Germany,Rheinland-Pfalz,,Ludwigshafen am Rhein
134.93.178.9,4,26,uni-mainz.de,DE,Europe,Western Europe,Germany,Rheinland-Pfalz,,Mainz
134.93.123.60,4,12,unimedizin-mainz.de,DE,Europe,Western Europe,Germany,Rheinland-Pfalz,,Mainz
162.55.73.194,4,65,usedom.de,DE,Europe,Western Europe,Germany,Rheinland-Pfalz,,Hachenburg
80.149.86.45,4,1,vincent-tac.de,DE,Europe,Western Europe,Germany,Rheinland-Pfalz,,Wolfstein
167.235.173.99,4,3,vitos.de,DE,Europe,Western Europe,Germany,Rheinland-Pfalz,,Zweibrücken
94.130.249.72,4,21,vsble.me,DE,Europe,Western Europe,Germany,Rheinland-Pfalz,,Ludwigshafen am Rhein
94.130.249.74,4,50,vsble.me,DE,Europe,Western Europe,Germany,Rheinland-Pfalz,,Ludwigshafen am Rhein
167.235.208.169,4,20,weltderphysik.de,DE,Europe,Western Europe,Germany,Rheinland-Pfalz,,Zweibrücken
62.146.28.165,4,4,westline.de,DE,Europe,Western Europe,Germany,Rheinland-Pfalz,,Dernbach
212.43.73.97,4,2,wipotec.com,DE,Europe,Western Europe,Germany,Rheinland-Pfalz,,Saarburg
213.23.95.2,4,9,wwag.com,DE,Europe,Western Europe,Germany,Rheinland-Pfalz,,Mainz
94.130.244.220,4,5,zeller-gmelin.de,DE,Europe,Western Europe,Germany,Rheinland-Pfalz,,Ludwigshafen am Rhein
94.130.145.107,4,8,zfmk.de,DE,Europe,Western Europe,Germany,Rheinland-Pfalz,,Ludwigshafen am Rhein
167.235.173.219,4,15,zookrefeld.de,DE,Europe,Western Europe,Germany,Rheinland-Pfalz,,Zweibrücken
162.55.231.118,4,3,zukunft-mobilitaet.net,DE,Europe,Western Europe,Germany,Rheinland-Pfalz,,Hachenburg
