reflector_ip,ip_version,offset,description,country_code,region,sub_region,country_name,sub_division_1,sub_division_2,city
78.47.210.56,4,4,030-datenrettung.de,DE,Europe,Western Europe,Germany,North Rhine-Westphalia,,Leverkusen
78.47.44.1,4,5,1000eyes.de,DE,Europe,Western Europe,Germany,North Rhine-Westphalia,,Leverkusen
116.202.167.146,4,6,22places.de,DE,Europe,Western Europe,Germany,North Rhine-Westphalia,,Krefeld
62.169.28.44,4,6,360stepeni.mk,DE,Europe,Western Europe,Germany,North Rhine-Westphalia,,Düsseldorf
185.188.249.235,4,4,a-coding-project.de,DE,Europe,Western Europe,Germany,North Rhine-Westphalia,,Düsseldorf
92.204.37.176,4,6,a1k.org,DE,Europe,Western Europe,Germany,North Rhine-Westphalia,,Cologne
91.102.137.13,4,893,aachen.de,DE,Europe,Western Europe,Germany,North Rhine-Westphalia,,Aachen
92.204.37.123,4,6,aasys.de,DE,Europe,Western Europe,Germany,North Rhine-Westphalia,,Cologne
185.169.252.109,4,25,abandonsocios.org,DE,Europe,Western Europe,Germany,North Rhine-Westphalia,,Düsseldorf
75.119.141.99,4,17,abletocontract.com,DE,Europe,Western Europe,Germany,North Rhine-Westphalia,,Düsseldorf
83.169.29.226,4,-4,abnr.de,DE,Europe,Western Europe,Germany,North Rhine-Westphalia,,Cologne
116.202.125.133,4,29,aboalarm.de,DE,Europe,Western Europe,Germany,North Rhine-Westphalia,,Krefeld
84.247.168.26,4,3,abolajiadeola.com,DE,Europe,Western Europe,Germany,North Rhine-Westphalia,,Düsseldorf
80.70.184.107,4,69,about-drinks.com,DE,Europe,Western Europe,Germany,North Rhine-Westphalia,,Paderborn
161.97.161.132,4,14,acgpubs.org,DE,Europe,Western Europe,Germany,North Rhine-Westphalia,,Düsseldorf
46.4.207.222,4,18,ad-srv.net,DE,Europe,Western Europe,Germany,North Rhine-Westphalia,,Bad Münstereifel
185.198.27.176,4,5,adamant.im,DE,Europe,Western Europe,Germany,North Rhine-Westphalia,,Düsseldorf
80.237.132.80,4,27,admized.com,DE,Europe,Western Europe,Germany,North Rhine-Westphalia,,Cologne
195.14.192.77,4,12,advogarant.de,DE,Europe,Western Europe,Germany,North Rhine-Westphalia,,Cologne
38.242.253.165,4,22,aerotim.ro,DE,Europe,Western Europe,Germany,North Rhine-Westphalia,,Düsseldorf
109.199.117.54,4,-1,africacloudspace.com,DE,Europe,Western Europe,Germany,North Rhine-Westphalia,,Düsseldorf
194.163.128.235,4,36,africanfashionista.com,DE,Europe,Western Europe,Germany,North Rhine-Westphalia,,Düsseldorf
80.237.132.236,4,4,ag-friedensforschung.de,DE,Europe,Western Europe,Germany,North Rhine-Westphalia,,Cologne
176.28.39.173,4,10,agitano.com,DE,Europe,Western Europe,Germany,North Rhine-Westphalia,,Cologne
195.145.8.10,4,14,agrolab.com,DE,Europe,Western Europe,Germany,North Rhine-Westphalia,,Düsseldorf
87.230.107.11,4,13,aids-stiftung.de,DE,Europe,Western Europe,Germany,North Rhine-Westphalia,,Cologne
185.7.196.68,4,39,aikq.de,DE,Europe,Western Europe,Germany,North Rhine-Westphalia,,Senden
82.198.95.222,4,9,aimindcrafter.com,DE,Europe,Western Europe,Germany,North Rhine-Westphalia,,Warendorf
116.202.66.150,4,11,aipi.social,DE,Europe,Western Europe,Germany,North Rhine-Westphalia,,Krefeld
134.119.0.225,4,7,airliners.de,DE,Europe,Western Europe,Germany,North Rhine-Westphalia,,Cologne
80.83.116.60,4,24,airportbus-muenchen.de,DE,Europe,Western Europe,Germany,North Rhine-Westphalia,,Düsseldorf
217.76.104.44,4,17,akkreditierungsrat.de,DE,Europe,Western Europe,Germany,North Rhine-Westphalia,,Bonn
92.204.37.217,4,35,aktien-analyse.de,DE,Europe,Western Europe,Germany,North Rhine-Westphalia,,Cologne
80.70.182.196,4,119,aktion-deutschland-hilft.de,DE,Europe,Western Europe,Germany,North Rhine-Westphalia,,Paderborn
89.1.69.211,4,76,aktuar.de,DE,Europe,Western Europe,Germany,North Rhine-Westphalia,,Cologne
38.242.232.50,4,4,albchat.al,DE,Europe,Western Europe,Germany,North Rhine-Westphalia,,Düsseldorf
87.230.107.202,4,42,alexander-verlag.com,DE,Europe,Western Europe,Germany,North Rhine-Westphalia,,Cologne
80.65.211.11,4,37,alkalay.net,DE,Europe,Western Europe,Germany,North Rhine-Westphalia,,Düsseldorf
78.47.210.34,4,16,alles-zum-schlafen.de,DE,Europe,Western Europe,Germany,North Rhine-Westphalia,,Leverkusen
85.190.254.137,4,4,allinfo.space,DE,Europe,Western Europe,Germany,North Rhine-Westphalia,,Düsseldorf
178.18.246.19,4,24,allmendenetz.de,DE,Europe,Western Europe,Germany,North Rhine-Westphalia,,Düsseldorf
185.245.183.118,4,3,alltebfamily.com,DE,Europe,Western Europe,Germany,North Rhine-Westphalia,,Düsseldorf
75.119.147.85,4,9,alltrades.ru,DE,Europe,Western Europe,Germany,North Rhine-Westphalia,,Düsseldorf
87.230.47.75,4,9,aminoacid-studies.com,DE,Europe,Western Europe,Germany,North Rhine-Westphalia,,Cologne
134.119.0.82,4,8,anglerboard.de,DE,Europe,Western Europe,Germany,North Rhine-Westphalia,,Cologne
134.119.0.213,4,16,animals-angels.de,DE,Europe,Western Europe,Germany,North Rhine-Westphalia,,Cologne
75.119.137.149,4,42,antidos.com,DE,Europe,Western Europe,Germany,North Rhine-Westphalia,,Düsseldorf
195.62.126.112,4,2,antiquariat.de,DE,Europe,Western Europe,Germany,North Rhine-Westphalia,,Witten
178.18.248.48,4,14,aquafeed.com,DE,Europe,Western Europe,Germany,North Rhine-Westphalia,,Düsseldorf
87.230.46.249,4,81,arabic-keyboard.org,DE,Europe,Western Europe,Germany,North Rhine-Westphalia,,Cologne
185.217.126.54,4,126,arcfonts.com,DE,Europe,Western Europe,Germany,North Rhine-Westphalia,,Düsseldorf
87.230.104.91,4,2,arclab.com,DE,Europe,Western Europe,Germany,North Rhine-Westphalia,,Cologne
134.119.0.119,4,13,arl-net.de,DE,Europe,Western Europe,Germany,North Rhine-Westphalia,,Cologne
185.215.165.69,4,23,arrowos.net,DE,Europe,Western Europe,Germany,North Rhine-Westphalia,,Düsseldorf
87.230.40.44,4,8,art-in.de,DE,Europe,Western Europe,Germany,North Rhine-Westphalia,,Cologne
194.163.167.54,4,52,asetrad.org,DE,Europe,Western Europe,Germany,North Rhine-Westphalia,,Düsseldorf
84.247.168.173,4,48,ativanx.com,DE,Europe,Western Europe,Germany,North Rhine-Westphalia,,Düsseldorf
87.230.60.155,4,11,au-ja.de,DE,Europe,Western Europe,Germany,North Rhine-Westphalia,,Cologne
38.242.243.150,4,39,audiotag.info,DE,Europe,Western Europe,Germany,North Rhine-Westphalia,,Düsseldorf
83.169.25.142,4,49,audiovision.de,DE,Europe,Western Europe,Germany,North Rhine-Westphalia,,Cologne
83.141.4.133,4,5,aupair-world.net,DE,Europe,Western Europe,Germany,North Rhine-Westphalia,,Paderborn
87.230.62.153,4,33,aupair.com,DE,Europe,Western Europe,Germany,North Rhine-Westphalia,,Cologne
92.204.39.5,4,59,auticon.com,DE,Europe,Western Europe,Germany,North Rhine-Westphalia,,Cologne
161.97.173.243,4,-8,ayom.media,DE,Europe,Western Europe,Germany,North Rhine-Westphalia,,Düsseldorf
194.163.135.255,4,6,babystepsuae.com,DE,Europe,Western Europe,Germany,North Rhine-Westphalia,,Düsseldorf
104.122.38.204,4,64,bankaustria.at,DE,Europe,Western Europe,Germany,North Rhine-Westphalia,,Düsseldorf
194.163.136.42,4,13,bannerovysystem.cz,DE,Europe,Western Europe,Germany,North Rhine-Westphalia,,Düsseldorf
134.119.0.76,4,11,barmherzige-regensburg.de,DE,Europe,Western Europe,Germany,North Rhine-Westphalia,,Cologne
80.83.126.200,4,3,basiccolor.de,DE,Europe,Western Europe,Germany,North Rhine-Westphalia,,Düsseldorf
178.77.82.32,4,54,batronix.com,DE,Europe,Western Europe,Germany,North Rhine-Westphalia,,Cologne
82.98.126.6,4,39,bauhaus.fi,DE,Europe,Western Europe,Germany,North Rhine-Westphalia,,Wilnsdorf
82.98.126.1,4,6,bauhaus.se,DE,Europe,Western Europe,Germany,North Rhine-Westphalia,,Wilnsdorf
80.82.216.25,4,20,baukunst-nrw.de,DE,Europe,Western Europe,Germany,North Rhine-Westphalia,,Cologne
116.202.120.219,4,5,baumundzeit.de,DE,Europe,Western Europe,Germany,North Rhine-Westphalia,,Krefeld
116.202.66.60,4,6,bauordnungen.de,DE,Europe,Western Europe,Germany,North Rhine-Westphalia,,Krefeld
92.204.37.118,4,5,bavariayachts.com,DE,Europe,Western Europe,Germany,North Rhine-Westphalia,,Cologne
116.202.167.138,4,26,bazqux.com,DE,Europe,Western Europe,Germany,North Rhine-Westphalia,,Krefeld
176.28.37.247,4,11,bbsb.org,DE,Europe,Western Europe,Germany,North Rhine-Westphalia,,Cologne
217.113.45.228,4,28,bdk.de,DE,Europe,Western Europe,Germany,North Rhine-Westphalia,,Mülheim
87.230.107.88,4,83,bebraverlag.de,DE,Europe,Western Europe,Germany,North Rhine-Westphalia,,Cologne
185.123.88.186,4,7,beisheim-stiftung.com,DE,Europe,Western Europe,Germany,North Rhine-Westphalia,,Bonn
38.242.249.43,4,11,beldelog.com,DE,Europe,Western Europe,Germany,North Rhine-Westphalia,,Düsseldorf
75.119.159.11,4,4,belfant1.top,DE,Europe,Western Europe,Germany,North Rhine-Westphalia,,Düsseldorf
80.237.133.108,4,4,bellnet.com,DE,Europe,Western Europe,Germany,North Rhine-Westphalia,,Cologne
92.204.37.93,4,104,bergwacht-bayern.de,DE,Europe,Western Europe,Germany,North Rhine-Westphalia,,Cologne
80.82.223.193,4,37,berlin-info.de,DE,Europe,Western Europe,Germany,North Rhine-Westphalia,,Cologne
83.169.29.96,4,8,berliner-unterwelten.de,DE,Europe,Western Europe,Germany,North Rhine-Westphalia,,Cologne
80.83.116.62,4,49,berufundfamilie.de,DE,Europe,Western Europe,Germany,North Rhine-Westphalia,,Düsseldorf
38.242.131.144,4,132,bervelingtuinen.nl,DE,Europe,Western Europe,Germany,North Rhine-Westphalia,,Düsseldorf
75.119.152.244,4,6,bestroom.one,DE,Europe,Western Europe,Germany,North Rhine-Westphalia,,Düsseldorf
176.28.36.132,4,17,beststartup.eu,DE,Europe,Western Europe,Germany,North Rhine-Westphalia,,Cologne
38.242.236.78,4,4,betting-kenya.ke,DE,Europe,Western Europe,Germany,North Rhine-Westphalia,,Düsseldorf
84.54.23.19,4,16,bfmufa.ru,DE,Europe,Western Europe,Germany,North Rhine-Westphalia,,Düsseldorf
161.97.149.244,4,11,bicitalia.org,DE,Europe,Western Europe,Germany,North Rhine-Westphalia,,Düsseldorf
178.77.85.52,4,7,bildungsberatung-gfh.de,DE,Europe,Western Europe,Germany,North Rhine-Westphalia,,Cologne
87.230.60.180,4,8,bildungsspender.org,DE,Europe,Western Europe,Germany,North Rhine-Westphalia,,Cologne
195.88.87.151,4,73,bisol.it,DE,Europe,Western Europe,Germany,North Rhine-Westphalia,,Düsseldorf
87.230.107.205,4,89,bistum-dresden-meissen.de,DE,Europe,Western Europe,Germany,North Rhine-Westphalia,,Cologne
84.46.245.165,4,48,bit.tube,DE,Europe,Western Europe,Germany,North Rhine-Westphalia,,Düsseldorf
161.97.135.85,4,13,bitcomet.com,DE,Europe,Western Europe,Germany,North Rhine-Westphalia,,Düsseldorf
92.204.37.223,4,5,bitterfeld-wolfen.de,DE,Europe,Western Europe,Germany,North Rhine-Westphalia,,Cologne
134.119.0.226,4,5,bke-suchtselbsthilfe.de,DE,Europe,Western Europe,Germany,North Rhine-Westphalia,,Cologne
87.230.104.112,4,8,bkk-provita.de,DE,Europe,Western Europe,Germany,North Rhine-Westphalia,,Cologne
87.230.62.103,4,8,blacknoise.com,DE,Europe,Western Europe,Germany,North Rhine-Westphalia,,Cologne
87.230.62.119,4,13,blairwitch.de,DE,Europe,Western Europe,Germany,North Rhine-Westphalia,,Cologne
84.46.245.73,4,98,blesmrt.net,DE,Europe,Western Europe,Germany,North Rhine-Westphalia,,Düsseldorf
178.77.85.168,4,21,blog2social.com,DE,Europe,Western Europe,Germany,North Rhine-Westphalia,,Cologne
75.119.131.84,4,6,bloog.it,DE,Europe,Western Europe,Germany,North Rhine-Westphalia,,Düsseldorf
134.119.0.67,4,14,bltk.de,DE,Europe,Western Europe,Germany,North Rhine-Westphalia,,Cologne
212.172.50.134,4,5,boemighausen.de,DE,Europe,Western Europe,Germany,North Rhine-Westphalia,,Essen
217.70.160.234,4,-67,bottrop.de,DE,Europe,Western Europe,Germany,North Rhine-Westphalia,,Gelsenkirchen
46.165.198.129,4,23,boubess.com,DE,Europe,Western Europe,Germany,North Rhine-Westphalia,,Sankt Augustin
37.60.241.127,4,-569,brabu.net,DE,Europe,Western Europe,Germany,North Rhine-Westphalia,,Düsseldorf
176.28.38.191,4,32,brainpool.de,DE,Europe,Western Europe,Germany,North Rhine-Westphalia,,Cologne
92.204.37.240,4,54,brandstaetterverlag.com,DE,Europe,Western Europe,Germany,North Rhine-Westphalia,,Cologne
38.242.139.134,4,7,branex.ca,DE,Europe,Western Europe,Germany,North Rhine-Westphalia,,Düsseldorf
134.119.0.203,4,7,braut.de,DE,Europe,Western Europe,Germany,North Rhine-Westphalia,,Cologne
134.119.0.44,4,4,bredex.de,DE,Europe,Western Europe,Germany,North Rhine-Westphalia,,Cologne
217.76.102.141,4,6,bridge-verband.de,DE,Europe,Western Europe,Germany,North Rhine-Westphalia,,Bonn
87.230.40.52,4,26,brotinstitut.de,DE,Europe,Western Europe,Germany,North Rhine-Westphalia,,Cologne
176.28.33.53,4,101,bruns.de,DE,Europe,Western Europe,Germany,North Rhine-Westphalia,,Cologne
134.119.0.187,4,7,bs-energy.de,DE,Europe,Western Europe,Germany,North Rhine-Westphalia,,Cologne
89.1.66.101,4,4,buchhandlung-walther-koenig.de,DE,Europe,Western Europe,Germany,North Rhine-Westphalia,,Cologne
134.119.0.36,4,13,buechertreff.de,DE,Europe,Western Europe,Germany,North Rhine-Westphalia,,Cologne
134.119.0.227,4,4,bundesfreiwilligendienst.de,DE,Europe,Western Europe,Germany,North Rhine-Westphalia,,Cologne
185.218.125.245,4,38,buraydahcity.net,DE,Europe,Western Europe,Germany,North Rhine-Westphalia,,Düsseldorf
92.204.37.227,4,65,burda-forward.de,DE,Europe,Western Europe,Germany,North Rhine-Westphalia,,Cologne
87.230.44.14,4,6,buschfunk.com,DE,Europe,Western Europe,Germany,North Rhine-Westphalia,,Cologne
84.247.188.75,4,-24,byturen.com,DE,Europe,Western Europe,Germany,North Rhine-Westphalia,,Düsseldorf
185.255.131.4,4,3,cablefreetv.org,DE,Europe,Western Europe,Germany,North Rhine-Westphalia,,Düsseldorf
185.229.119.48,4,76,cactuslanguagetraining.com,DE,Europe,Western Europe,Germany,North Rhine-Westphalia,,Düsseldorf
87.230.44.67,4,9,cagematch.net,DE,Europe,Western Europe,Germany,North Rhine-Westphalia,,Cologne
38.242.195.187,4,19,cagl.com,DE,Europe,Western Europe,Germany,North Rhine-Westphalia,,Düsseldorf
31.187.74.239,4,3,car-bd.com,DE,Europe,Western Europe,Germany,North Rhine-Westphalia,,Düsseldorf
134.119.0.212,4,19,care-concept.de,DE,Europe,Western Europe,Germany,North Rhine-Westphalia,,Cologne
161.97.163.231,4,16,careclimatechange.org,DE,Europe,Western Europe,Germany,North Rhine-Westphalia,,Düsseldorf
75.119.151.251,4,27,cartcoders.com,DE,Europe,Western Europe,Germany,North Rhine-Westphalia,,Düsseldorf
31.187.74.237,4,38,casainvest.ma,DE,Europe,Western Europe,Germany,North Rhine-Westphalia,,Düsseldorf
80.83.125.105,4,43,cashcab.org,DE,Europe,Western Europe,Germany,North Rhine-Westphalia,,Düsseldorf
116.202.123.146,4,57,catanuniverse.com,DE,Europe,Western Europe,Germany,North Rhine-Westphalia,,Krefeld
84.46.240.60,4,10,cavramholdings.co.ke,DE,Europe,Western Europe,Germany,North Rhine-Westphalia,,Düsseldorf
178.18.242.37,4,2,cbw.ge,DE,Europe,Western Europe,Germany,North Rhine-Westphalia,,Düsseldorf
109.199.124.109,4,4,cch-rc.com,DE,Europe,Western Europe,Germany,North Rhine-Westphalia,,Düsseldorf
62.159.134.207,4,33,celticnext.eu,DE,Europe,Western Europe,Germany,North Rhine-Westphalia,,Herford
161.97.130.135,4,5,centronazionalesangue.it,DE,Europe,Western Europe,Germany,North Rhine-Westphalia,,Düsseldorf
75.119.144.226,4,4,certastampa.it,DE,Europe,Western Europe,Germany,North Rhine-Westphalia,,Düsseldorf
178.162.216.23,4,-8,ceskamissis.cz,DE,Europe,Western Europe,Germany,North Rhine-Westphalia,,Leverkusen
194.163.174.55,4,14,changelifeorganization.org,DE,Europe,Western Europe,Germany,North Rhine-Westphalia,,Düsseldorf
83.169.29.176,4,12,cheetah3d.com,DE,Europe,Western Europe,Germany,North Rhine-Westphalia,,Cologne
194.163.162.34,4,26,chromeis.com,DE,Europe,Western Europe,Germany,North Rhine-Westphalia,,Düsseldorf
185.229.119.97,4,2,ciento29.com,DE,Europe,Western Europe,Germany,North Rhine-Westphalia,,Düsseldorf
84.247.161.13,4,7,ciff.org.eg,DE,Europe,Western Europe,Germany,North Rhine-Westphalia,,Düsseldorf
185.193.17.228,4,5,cinseleczane.biz,DE,Europe,Western Europe,Germany,North Rhine-Westphalia,,Düsseldorf
116.202.120.150,4,5,circumstances.run,DE,Europe,Western Europe,Germany,North Rhine-Westphalia,,Krefeld
77.237.241.252,4,101,classifiedadwebsite.com,DE,Europe,Western Europe,Germany,North Rhine-Westphalia,,Düsseldorf
92.50.110.10,4,14,claudius-therme.de,DE,Europe,Western Europe,Germany,North Rhine-Westphalia,,Cologne
185.182.186.220,4,8,clickmiamibeach.com,DE,Europe,Western Europe,Germany,North Rhine-Westphalia,,Düsseldorf
87.230.105.250,4,29,clr.net,DE,Europe,Western Europe,Germany,North Rhine-Westphalia,,Cologne
83.169.28.173,4,11,clubdervisionaere.com,DE,Europe,Western Europe,Germany,North Rhine-Westphalia,,Cologne
185.209.230.63,4,5,clublivetracker.com,DE,Europe,Western Europe,Germany,North Rhine-Westphalia,,Düsseldorf
176.57.184.10,4,4,cm-lagos.pt,DE,Europe,Western Europe,Germany,North Rhine-Westphalia,,Düsseldorf
81.17.103.59,4,4,cncostruzioni.com,DE,Europe,Western Europe,Germany,North Rhine-Westphalia,,Düsseldorf
45.88.223.215,4,62,cogita.ru,DE,Europe,Western Europe,Germany,North Rhine-Westphalia,,Düsseldorf
161.97.159.202,4,5,colegiosanagustin.edu.ve,DE,Europe,Western Europe,Germany,North Rhine-Westphalia,,Düsseldorf
87.230.41.138,4,17,comic.de,DE,Europe,Western Europe,Germany,North Rhine-Westphalia,,Cologne
80.237.132.221,4,71,compactmemory.de,DE,Europe,Western Europe,Germany,North Rhine-Westphalia,,Cologne
31.220.72.145,4,6,comptoirmarrakech.com,DE,Europe,Western Europe,Germany,North Rhine-Westphalia,,Düsseldorf
80.70.182.148,4,98,content.de,DE,Europe,Western Europe,Germany,North Rhine-Westphalia,,Paderborn
80.82.222.140,4,8,convo.casa,DE,Europe,Western Europe,Germany,North Rhine-Westphalia,,Cologne
161.97.142.144,4,3,copy-trade.fun,DE,Europe,Western Europe,Germany,North Rhine-Westphalia,,Düsseldorf
87.230.46.208,4,11,coupons.de,DE,Europe,Western Europe,Germany,North Rhine-Westphalia,,Cologne
38.242.217.162,4,8,cratosroyalbet.info,DE,Europe,Western Europe,Germany,North Rhine-Westphalia,,Düsseldorf
194.163.180.209,4,43,cryptodon.lol,DE,Europe,Western Europe,Germany,North Rhine-Westphalia,,Düsseldorf
178.77.81.235,4,8,cryptovalleyconference.com,DE,Europe,Western Europe,Germany,North Rhine-Westphalia,,Cologne
87.230.45.111,4,15,cryptshare.com,DE,Europe,Western Europe,Germany,North Rhine-Westphalia,,Cologne
87.230.62.82,4,8,csdmuenchen.de,DE,Europe,Western Europe,Germany,North Rhine-Westphalia,,Cologne
185.249.227.236,4,7,cumbriacq.com,DE,Europe,Western Europe,Germany,North Rhine-Westphalia,,Düsseldorf
80.237.132.43,4,3,cycas.de,DE,Europe,Western Europe,Germany,North Rhine-Westphalia,,Cologne
161.97.148.187,4,8,cyprusceramicassociation.com,DE,Europe,Western Europe,Germany,North Rhine-Westphalia,,Düsseldorf
176.28.35.208,4,9,czernin-verlag.com,DE,Europe,Western Europe,Germany,North Rhine-Westphalia,,Cologne
217.113.44.242,4,3,daab.de,DE,Europe,Western Europe,Germany,North Rhine-Westphalia,,Mülheim
89.107.64.155,4,78,daemlich.net,DE,Europe,Western Europe,Germany,North Rhine-Westphalia,,Düsseldorf
87.230.44.102,4,31,dafv.de,DE,Europe,Western Europe,Germany,North Rhine-Westphalia,,Cologne
38.242.195.146,4,3,dagobah.net,DE,Europe,Western Europe,Germany,North Rhine-Westphalia,,Düsseldorf
83.169.30.237,4,18,das-macht-schule.net,DE,Europe,Western Europe,Germany,North Rhine-Westphalia,,Cologne
194.31.27.22,4,46,datteln.de,DE,Europe,Western Europe,Germany,North Rhine-Westphalia,,Haltern am See
80.237.133.226,4,13,dau-alarm.de,DE,Europe,Western Europe,Germany,North Rhine-Westphalia,,Cologne
38.242.215.86,4,6,dawhois.com,DE,Europe,Western Europe,Germany,North Rhine-Westphalia,,Düsseldorf
116.202.159.253,4,6,dbl-ev.de,DE,Europe,Western Europe,Germany,North Rhine-Westphalia,,Krefeld
89.117.55.140,4,5,dbzer0.com,DE,Europe,Western Europe,Germany,North Rhine-Westphalia,,Düsseldorf
85.114.136.161,4,4,ddnss.de,DE,Europe,Western Europe,Germany,North Rhine-Westphalia,,Düsseldorf
62.154.254.195,4,31,deejay.de,DE,Europe,Western Europe,Germany,North Rhine-Westphalia,,Essen
80.83.116.26,4,4,deichkind.de,DE,Europe,Western Europe,Germany,North Rhine-Westphalia,,Düsseldorf
87.230.106.8,4,9,deine-stimme-gegen-armut.de,DE,Europe,Western Europe,Germany,North Rhine-Westphalia,,Cologne
161.97.147.6,4,7,delta4x4.com,DE,Europe,Western Europe,Germany,North Rhine-Westphalia,,Düsseldorf
178.77.84.195,4,8,denkmalschutz.de,DE,Europe,Western Europe,Germany,North Rhine-Westphalia,,Cologne
185.217.126.159,4,98,depahcon.com,DE,Europe,Western Europe,Germany,North Rhine-Westphalia,,Düsseldorf
116.202.65.131,4,6,der-metronom.de,DE,Europe,Western Europe,Germany,North Rhine-Westphalia,,Krefeld
134.119.0.1,4,35,designenlassen.de,DE,Europe,Western Europe,Germany,North Rhine-Westphalia,,Cologne
83.169.25.9,4,11,designmadeingermany.de,DE,Europe,Western Europe,Germany,North Rhine-Westphalia,,Cologne
185.239.209.168,4,216,desportonalinha.com,DE,Europe,Western Europe,Germany,North Rhine-Westphalia,,Düsseldorf
38.242.206.144,4,3,destimap.com,DE,Europe,Western Europe,Germany,North Rhine-Westphalia,,Düsseldorf
185.33.216.33,4,17,deutsche-briefmarken-revue.de,DE,Europe,Western Europe,Germany,North Rhine-Westphalia,,Remscheid
92.204.37.171,4,40,deutsche-weihnachtsmaerkte.de,DE,Europe,Western Europe,Germany,North Rhine-Westphalia,,Cologne
83.169.31.13,4,13,deutscheakademie.de,DE,Europe,Western Europe,Germany,North Rhine-Westphalia,,Cologne
87.230.62.184,4,10,dg-flugzeugbau.de,DE,Europe,Western Europe,Germany,North Rhine-Westphalia,,Cologne
176.28.32.159,4,7,dgri.de,DE,Europe,Western Europe,Germany,North Rhine-Westphalia,,Cologne
213.199.34.154,4,6,dharma-haven.org,DE,Europe,Western Europe,Germany,North Rhine-Westphalia,,Düsseldorf
116.202.127.229,4,7,dhv.de,DE,Europe,Western Europe,Germany,North Rhine-Westphalia,,Krefeld
62.67.46.159,4,270,diepholz.de,DE,Europe,Western Europe,Germany,North Rhine-Westphalia,,
80.82.223.18,4,1857,dieprinzen.de,DE,Europe,Western Europe,Germany,North Rhine-Westphalia,,Cologne
80.83.122.201,4,8,dieseher.de,DE,Europe,Western Europe,Germany,North Rhine-Westphalia,,Düsseldorf
87.230.61.19,4,11,dieselkino.at,DE,Europe,Western Europe,Germany,North Rhine-Westphalia,,Cologne
161.97.185.6,4,115,digitalexpertzone.com,DE,Europe,Western Europe,Germany,North Rhine-Westphalia,,Düsseldorf
75.119.150.241,4,54,digitalimpak.com,DE,Europe,Western Europe,Germany,North Rhine-Westphalia,,Düsseldorf
185.225.232.76,4,8,diredonna.it,DE,Europe,Western Europe,Germany,North Rhine-Westphalia,,Düsseldorf
38.242.193.219,4,30,diredonna.it,DE,Europe,Western Europe,Germany,North Rhine-Westphalia,,Düsseldorf
92.204.37.18,4,54,discovering-hands.de,DE,Europe,Western Europe,Germany,North Rhine-Westphalia,,Cologne
84.46.255.163,4,3,discus.sh,DE,Europe,Western Europe,Germany,North Rhine-Westphalia,,Düsseldorf
80.70.184.61,4,6,djh-wl.de,DE,Europe,Western Europe,Germany,North Rhine-Westphalia,,Paderborn
87.230.46.76,4,10,djs-online.de,DE,Europe,Western Europe,Germany,North Rhine-Westphalia,,Cologne
92.204.37.211,4,12,dmm.travel,DE,Europe,Western Europe,Germany,North Rhine-Westphalia,,Cologne
82.198.78.140,4,49,DNS Server: 140-078-198-082.ip-addr.inexio.net,DE,Europe,Western Europe,Germany,North Rhine-Westphalia,,Krefeld
85.22.147.148,4,56,DNS Server: 85-22-147-148.ip.dokom21.de,DE,Europe,Western Europe,Germany,North Rhine-Westphalia,,Dortmund
89.116.31.249,4,73,DNS Server: fw-01.dus.agostini.cloud,DE,Europe,Western Europe,Germany,North Rhine-Westphalia,,Düsseldorf
5.199.130.141,4,5,DNS Server: git.envs.net,DE,Europe,Western Europe,Germany,North Rhine-Westphalia,,Düsseldorf
89.1.13.186,4,14185,DNS Server: gw.gksupport.de,DE,Europe,Western Europe,Germany,North Rhine-Westphalia,,Cologne
94.79.137.62,4,99,DNS Server: ip-094-079-137-062.um30.pools.vodafone-ip.de,DE,Europe,Western Europe,Germany,North Rhine-Westphalia,,Düsseldorf
82.208.21.54,4,5,DNS Server: ip-54-21-208-82.static.contabo.net,DE,Europe,Western Europe,Germany,North Rhine-Westphalia,,Düsseldorf
75.119.137.99,4,6,DNS Server: ip-99-137-119-75.static.contabo.net,DE,Europe,Western Europe,Germany,North Rhine-Westphalia,,Düsseldorf
213.172.108.147,4,370,DNS Server: mail.dietz-data.de,DE,Europe,Western Europe,Germany,North Rhine-Westphalia,,Minden
109.123.242.219,4,481,DNS Server: mail.krotken.de,DE,Europe,Western Europe,Germany,North Rhine-Westphalia,,Düsseldorf
80.151.224.157,4,230,DNS Server: p5097e09d.dip0.t-ipconnect.de,DE,Europe,Western Europe,Germany,North Rhine-Westphalia,,Bergneustadt
80.151.245.128,4,230,DNS Server: p5097f580.dip0.t-ipconnect.de,DE,Europe,Western Europe,Germany,North Rhine-Westphalia,,Arnsberg
84.46.255.127,4,261,DNS Server: vmd103849.contaboserver.net,DE,Europe,Western Europe,Germany,North Rhine-Westphalia,,Düsseldorf
178.18.253.47,4,339,DNS Server: vmd74145.contaboserver.net,DE,Europe,Western Europe,Germany,North Rhine-Westphalia,,Düsseldorf
38.242.130.33,4,-287155,DNS Server: vmi1025599.contaboserver.net,DE,Europe,Western Europe,Germany,North Rhine-Westphalia,,Düsseldorf
83.171.248.164,4,305,DNS Server: vmi1041381.contaboserver.net,DE,Europe,Western Europe,Germany,North Rhine-Westphalia,,Düsseldorf
89.117.63.151,4,319,DNS Server: vmi1119592.contaboserver.net,DE,Europe,Western Europe,Germany,North Rhine-Westphalia,,Düsseldorf
89.117.53.246,4,305,DNS Server: vmi1128446.contaboserver.net,DE,Europe,Western Europe,Germany,North Rhine-Westphalia,,Düsseldorf
178.18.244.83,4,318,DNS Server: vmi1129904.contaboserver.net,DE,Europe,Western Europe,Germany,North Rhine-Westphalia,,Düsseldorf
184.174.35.175,4,315,DNS Server: vmi1195043.contaboserver.net,DE,Europe,Western Europe,Germany,North Rhine-Westphalia,,Düsseldorf
38.242.150.124,4,305,DNS Server: vmi1204382.contaboserver.net,DE,Europe,Western Europe,Germany,North Rhine-Westphalia,,Düsseldorf
38.242.202.187,4,292,DNS Server: vmi1223702.contaboserver.net,DE,Europe,Western Europe,Germany,North Rhine-Westphalia,,Düsseldorf
75.119.155.205,4,150,DNS Server: vmi564252.contaboserver.net,DE,Europe,Western Europe,Germany,North Rhine-Westphalia,,Düsseldorf
185.217.127.208,4,169,DNS Server: vmi699320.contaboserver.net,DE,Europe,Western Europe,Germany,North Rhine-Westphalia,,Düsseldorf
161.97.173.194,4,180,DNS Server: vmi792738.contaboserver.net,DE,Europe,Western Europe,Germany,North Rhine-Westphalia,,Düsseldorf
85.208.51.11,4,180,DNS Server: vmi922652.contaboserver.net,DE,Europe,Western Europe,Germany,North Rhine-Westphalia,,Düsseldorf
38.242.142.51,4,173,DNS Server: vmi926893.contaboserver.net,DE,Europe,Western Europe,Germany,North Rhine-Westphalia,,Düsseldorf
38.242.234.165,4,68,DNS Server: vmi995641.contaboserver.net,DE,Europe,Western Europe,Germany,North Rhine-Westphalia,,Düsseldorf
176.28.35.40,4,58,dom-frankfurt.de,DE,Europe,Western Europe,Germany,North Rhine-Westphalia,,Cologne
80.67.16.73,4,76,domainfactory.de,DE,Europe,Western Europe,Germany,North Rhine-Westphalia,,Cologne
194.242.56.237,4,2,donnuet.edu.ua,DE,Europe,Western Europe,Germany,North Rhine-Westphalia,,Düsseldorf
217.76.54.48,4,2,download-free-fonts.com,DE,Europe,Western Europe,Germany,North Rhine-Westphalia,,Düsseldorf
176.28.33.18,4,8,doyoureadme.de,DE,Europe,Western Europe,Germany,North Rhine-Westphalia,,Cologne
87.230.42.79,4,8,dsgvo-gesetz.de,DE,Europe,Western Europe,Germany,North Rhine-Westphalia,,Cologne
194.163.145.92,4,3,dt-goettingen.de,DE,Europe,Western Europe,Germany,North Rhine-Westphalia,,Düsseldorf
185.218.126.44,4,80,duken.nl,DE,Europe,Western Europe,Germany,North Rhine-Westphalia,,Düsseldorf
82.98.126.3,4,8,duschmeister.de,DE,Europe,Western Europe,Germany,North Rhine-Westphalia,,Wilnsdorf
176.57.150.53,4,3,dvsph.net,DE,Europe,Western Europe,Germany,North Rhine-Westphalia,,Düsseldorf
109.199.125.91,4,6,dwj.io,DE,Europe,Western Europe,Germany,North Rhine-Westphalia,,Düsseldorf
178.77.84.231,4,29,ecc-studienreisen.de,DE,Europe,Western Europe,Germany,North Rhine-Westphalia,,Cologne
116.202.135.132,4,76,efns.org,DE,Europe,Western Europe,Germany,North Rhine-Westphalia,,Krefeld
38.242.204.246,4,5,eforienet.ro,DE,Europe,Western Europe,Germany,North Rhine-Westphalia,,Düsseldorf
195.243.206.215,4,9,egoproducts.com,DE,Europe,Western Europe,Germany,North Rhine-Westphalia,,Hürth
87.230.107.148,4,17,ehl.de,DE,Europe,Western Europe,Germany,North Rhine-Westphalia,,Cologne
87.230.62.203,4,25,ekiwi-blog.de,DE,Europe,Western Europe,Germany,North Rhine-Westphalia,,Cologne
80.237.132.97,4,23,elektronikinfo.de,DE,Europe,Western Europe,Germany,North Rhine-Westphalia,,Cologne
75.119.159.75,4,45,elementaryforums.com,DE,Europe,Western Europe,Germany,North Rhine-Westphalia,,Düsseldorf
75.119.143.149,4,-1,elovebook.com,DE,Europe,Western Europe,Germany,North Rhine-Westphalia,,Düsseldorf
185.135.137.224,4,27,elsurti.com,DE,Europe,Western Europe,Germany,North Rhine-Westphalia,,Düsseldorf
185.135.137.46,4,47,elvenezolanonews.com,DE,Europe,Western Europe,Germany,North Rhine-Westphalia,,Düsseldorf
217.7.63.26,4,28,enbausa.de,DE,Europe,Western Europe,Germany,North Rhine-Westphalia,,Kevelaer
75.119.148.147,4,5,energyinnova.es,DE,Europe,Western Europe,Germany,North Rhine-Westphalia,,Düsseldorf
185.245.182.39,4,3,energynews.biz,DE,Europe,Western Europe,Germany,North Rhine-Westphalia,,Düsseldorf
178.18.244.98,4,5,enveth.gr,DE,Europe,Western Europe,Germany,North Rhine-Westphalia,,Düsseldorf
212.20.161.112,4,24,eprc.asia,DE,Europe,Western Europe,Germany,North Rhine-Westphalia,,Neuss
31.220.87.51,4,30,erdalbilisim.net,DE,Europe,Western Europe,Germany,North Rhine-Westphalia,,Düsseldorf
134.119.0.166,4,2,eschwege.de,DE,Europe,Western Europe,Germany,North Rhine-Westphalia,,Cologne
83.169.28.39,4,11,esut.de,DE,Europe,Western Europe,Germany,North Rhine-Westphalia,,Cologne
80.237.133.88,4,28,ethernut.de,DE,Europe,Western Europe,Germany,North Rhine-Westphalia,,Cologne
80.150.3.122,4,1,euwid-energie.de,DE,Europe,Western Europe,Germany,North Rhine-Westphalia,,Cologne
178.77.83.7,4,8,everysecondcounts.eu,DE,Europe,Western Europe,Germany,North Rhine-Westphalia,,Cologne
178.18.246.203,4,20,exchangerates.org,DE,Europe,Western Europe,Germany,North Rhine-Westphalia,,Düsseldorf
31.220.79.160,4,5,ezybook.co.uk,DE,Europe,Western Europe,Germany,North Rhine-Westphalia,,Düsseldorf
37.60.224.110,4,0,fagoramerica.com,DE,Europe,Western Europe,Germany,North Rhine-Westphalia,,Düsseldorf
158.220.99.195,4,3,fakazahub.com,DE,Europe,Western Europe,Germany,North Rhine-Westphalia,,Düsseldorf
82.215.70.26,4,740,farbimpulse.de,DE,Europe,Western Europe,Germany,North Rhine-Westphalia,,Lünen
161.97.175.89,4,4,faveohelpdesk.com,DE,Europe,Western Europe,Germany,North Rhine-Westphalia,,Düsseldorf
158.220.113.137,4,17,fawry.com,DE,Europe,Western Europe,Germany,North Rhine-Westphalia,,Düsseldorf
83.169.30.197,4,8,felix-bloch-erben.de,DE,Europe,Western Europe,Germany,North Rhine-Westphalia,,Cologne
80.237.133.144,4,3,felixkubin.com,DE,Europe,Western Europe,Germany,North Rhine-Westphalia,,Cologne
158.220.110.164,4,11,femnet.org,DE,Europe,Western Europe,Germany,North Rhine-Westphalia,,Düsseldorf
185.241.151.23,4,4,fenasan.com.br,DE,Europe,Western Europe,Germany,North Rhine-Westphalia,,Düsseldorf
212.23.130.13,4,19,fertigbau.de,DE,Europe,Western Europe,Germany,North Rhine-Westphalia,,Bochum
80.237.133.75,4,24,fes-gegen-rechtsextremismus.de,DE,Europe,Western Europe,Germany,North Rhine-Westphalia,,Cologne
83.169.29.197,4,8,fesdc.org,DE,Europe,Western Europe,Germany,North Rhine-Westphalia,,Cologne
194.163.154.80,4,72,fetedesvendangesdemontmartre.com,DE,Europe,Western Europe,Germany,North Rhine-Westphalia,,Düsseldorf
92.204.37.215,4,11,fettrechner.de,DE,Europe,Western Europe,Germany,North Rhine-Westphalia,,Cologne
87.230.45.108,4,8,feuerland-spiele.de,DE,Europe,Western Europe,Germany,North Rhine-Westphalia,,Cologne
82.98.75.61,4,-1505,filmarchives-online.eu,DE,Europe,Western Europe,Germany,North Rhine-Westphalia,,Wilnsdorf
87.230.61.85,4,22,filmschule.de,DE,Europe,Western Europe,Germany,North Rhine-Westphalia,,Cologne
80.237.132.56,4,3,flashforum.de,DE,Europe,Western Europe,Germany,North Rhine-Westphalia,,Cologne
80.237.132.205,4,3,flatcast.com,DE,Europe,Western Europe,Germany,North Rhine-Westphalia,,Cologne
31.220.76.145,4,4,flexithemes.com,DE,Europe,Western Europe,Germany,North Rhine-Westphalia,,Düsseldorf
185.182.184.24,4,72,flipflyers.com,DE,Europe,Western Europe,Germany,North Rhine-Westphalia,,Düsseldorf
83.169.24.29,4,8,fliptext.org,DE,Europe,Western Europe,Germany,North Rhine-Westphalia,,Cologne
134.119.0.152,4,4,fll.de,DE,Europe,Western Europe,Germany,North Rhine-Westphalia,,Cologne
217.76.50.29,4,5,florenceacademyofart.com,DE,Europe,Western Europe,Germany,North Rhine-Westphalia,,Düsseldorf
89.1.69.167,4,7,flowfact-webparts.net,DE,Europe,Western Europe,Germany,North Rhine-Westphalia,,Cologne
38.242.229.241,4,25,fnetchat.com,DE,Europe,Western Europe,Germany,North Rhine-Westphalia,,Düsseldorf
87.230.40.164,4,8,foerderverein-menschenskinder.de,DE,Europe,Western Europe,Germany,North Rhine-Westphalia,,Cologne
185.169.252.2,4,43,footballasia.uk,DE,Europe,Western Europe,Germany,North Rhine-Westphalia,,Düsseldorf
80.237.133.142,4,53,foren-rollenspiele.net,DE,Europe,Western Europe,Germany,North Rhine-Westphalia,,Cologne
87.230.42.147,4,10,formdev.com,DE,Europe,Western Europe,Germany,North Rhine-Westphalia,,Cologne
46.165.220.181,4,111,forum-msk.org,DE,Europe,Western Europe,Germany,North Rhine-Westphalia,,Sankt Augustin
161.97.145.46,4,30,fosspost.org,DE,Europe,Western Europe,Germany,North Rhine-Westphalia,,Düsseldorf
194.163.141.246,4,77,fotohost.by,DE,Europe,Western Europe,Germany,North Rhine-Westphalia,,Düsseldorf
62.27.36.44,4,62,frankfurt-tipp.de,DE,Europe,Western Europe,Germany,North Rhine-Westphalia,,Ibbenbueren
161.97.169.233,4,23,freedmr.be,DE,Europe,Western Europe,Germany,North Rhine-Westphalia,,Düsseldorf
194.163.171.133,4,12,freedost.com,DE,Europe,Western Europe,Germany,North Rhine-Westphalia,,Düsseldorf
89.116.25.27,4,8,freevstplugins.net,DE,Europe,Western Europe,Germany,North Rhine-Westphalia,,Düsseldorf
157.173.102.203,4,36,freshdesignweb.com,DE,Europe,Western Europe,Germany,North Rhine-Westphalia,,Düsseldorf
176.28.32.222,4,29,friedenspaedagogik.de,DE,Europe,Western Europe,Germany,North Rhine-Westphalia,,Cologne
80.237.132.179,4,47,fronzek-gutheil.de,DE,Europe,Western Europe,Germany,North Rhine-Westphalia,,Cologne
38.242.136.98,4,3,fsm.com.ua,DE,Europe,Western Europe,Germany,North Rhine-Westphalia,,Düsseldorf
46.165.236.102,4,7,fulmo.org,DE,Europe,Western Europe,Germany,North Rhine-Westphalia,,Sankt Augustin
38.242.138.169,4,23,furgovw.org,DE,Europe,Western Europe,Germany,North Rhine-Westphalia,,Düsseldorf
134.94.33.49,4,-3207297,gabipd.org,DE,Europe,Western Europe,Germany,North Rhine-Westphalia,,Frechen
87.230.41.132,4,9,galeriebuchholz.de,DE,Europe,Western Europe,Germany,North Rhine-Westphalia,,Cologne
84.247.185.150,4,5,gamegpu.com,DE,Europe,Western Europe,Germany,North Rhine-Westphalia,,Düsseldorf
80.237.133.38,4,2,gameslabor.de,DE,Europe,Western Europe,Germany,North Rhine-Westphalia,,Cologne
92.204.37.143,4,8,gartenzauber.com,DE,Europe,Western Europe,Germany,North Rhine-Westphalia,,Cologne
116.202.121.146,4,25,gastrohot.de,DE,Europe,Western Europe,Germany,North Rhine-Westphalia,,Krefeld
178.77.87.15,4,30,gatermann-schossig.de,DE,Europe,Western Europe,Germany,North Rhine-Westphalia,,Cologne
87.230.106.122,4,8,gbstern.at,DE,Europe,Western Europe,Germany,North Rhine-Westphalia,,Cologne
87.230.42.83,4,9,gdpr-info.eu,DE,Europe,Western Europe,Germany,North Rhine-Westphalia,,Cologne
217.70.161.140,4,4,gelsenkirchen.de,DE,Europe,Western Europe,Germany,North Rhine-Westphalia,,Gelsenkirchen
176.28.38.208,4,49,genossenschaften.de,DE,Europe,Western Europe,Germany,North Rhine-Westphalia,,Cologne
178.77.82.159,4,38,gepa.de,DE,Europe,Western Europe,Germany,North Rhine-Westphalia,,Cologne
87.230.104.20,4,60,german-foreign-policy.com,DE,Europe,Western Europe,Germany,North Rhine-Westphalia,,Cologne
80.70.176.16,4,24,germanroadraces.de,DE,Europe,Western Europe,Germany,North Rhine-Westphalia,,Paderborn
92.204.37.229,4,30,gesetzlichekrankenkassen.de,DE,Europe,Western Europe,Germany,North Rhine-Westphalia,,Cologne
45.151.123.91,4,8,getrailo.org,DE,Europe,Western Europe,Germany,North Rhine-Westphalia,,Düsseldorf
92.204.37.142,4,6,getro-comtec.de,DE,Europe,Western Europe,Germany,North Rhine-Westphalia,,Cologne
185.209.223.187,4,20,geyikkimya.com,DE,Europe,Western Europe,Germany,North Rhine-Westphalia,,Düsseldorf
80.237.132.70,4,8,gfdata.de,DE,Europe,Western Europe,Germany,North Rhine-Westphalia,,Cologne
87.230.46.187,4,13,gibgas.de,DE,Europe,Western Europe,Germany,North Rhine-Westphalia,,Cologne
80.237.133.70,4,40,giftpflanzen.com,DE,Europe,Western Europe,Germany,North Rhine-Westphalia,,Cologne
87.230.104.63,4,9,gispoint.de,DE,Europe,Western Europe,Germany,North Rhine-Westphalia,,Cologne
116.202.167.180,4,4,glinicke.de,DE,Europe,Western Europe,Germany,North Rhine-Westphalia,,Krefeld
178.77.85.107,4,27,globalcoffeeplatform.org,DE,Europe,Western Europe,Germany,North Rhine-Westphalia,,Cologne
176.28.37.146,4,8,gmeiner-verlag.de,DE,Europe,Western Europe,Germany,North Rhine-Westphalia,,Cologne
87.230.40.79,4,20,go2know.de,DE,Europe,Western Europe,Germany,North Rhine-Westphalia,,Cologne
83.169.25.49,4,28,goldegg-verlag.com,DE,Europe,Western Europe,Germany,North Rhine-Westphalia,,Cologne
77.237.246.23,4,2,good-sport.co,DE,Europe,Western Europe,Germany,North Rhine-Westphalia,,Düsseldorf
83.169.24.214,4,60,gratis-hoerspiele.de,DE,Europe,Western Europe,Germany,North Rhine-Westphalia,,Cologne
45.94.209.200,4,0,gravidanzaonline.it,DE,Europe,Western Europe,Germany,North Rhine-Westphalia,,Düsseldorf
62.84.189.100,4,10,grcha.com,DE,Europe,Western Europe,Germany,North Rhine-Westphalia,,Düsseldorf
62.27.5.104,4,351,greentec-awards.com,DE,Europe,Western Europe,Germany,North Rhine-Westphalia,,Ibbenbueren
82.98.69.101,4,6,griesson-debeukelaer.de,DE,Europe,Western Europe,Germany,North Rhine-Westphalia,,Wilnsdorf
84.246.122.249,4,5,grobi.tv,DE,Europe,Western Europe,Germany,North Rhine-Westphalia,,Troisdorf
178.77.80.204,4,35,grossmann-uhren.com,DE,Europe,Western Europe,Germany,North Rhine-Westphalia,,Cologne
91.184.37.45,4,7,guug.de,DE,Europe,Western Europe,Germany,North Rhine-Westphalia,,Neuss
178.77.86.212,4,47,hacker-motor.com,DE,Europe,Western Europe,Germany,North Rhine-Westphalia,,Cologne
161.97.155.171,4,5,hadrasoft.com,DE,Europe,Western Europe,Germany,North Rhine-Westphalia,,Düsseldorf
92.123.12.139,4,10,hager.de,DE,Europe,Western Europe,Germany,North Rhine-Westphalia,,Düsseldorf
92.123.12.162,4,10,hager.de,DE,Europe,Western Europe,Germany,North Rhine-Westphalia,,Düsseldorf
83.169.28.162,4,7,handy-deutschland.de,DE,Europe,Western Europe,Germany,North Rhine-Westphalia,,Cologne
194.163.181.61,4,3,hanielezit.info,DE,Europe,Western Europe,Germany,North Rhine-Westphalia,,Düsseldorf
185.196.21.167,4,55,harouni-urologie.com,DE,Europe,Western Europe,Germany,North Rhine-Westphalia,,Düsseldorf
62.159.226.207,4,96,harrassowitz-verlag.de,DE,Europe,Western Europe,Germany,North Rhine-Westphalia,,Düsseldorf
87.129.53.180,4,549,hasenbraten.de,DE,Europe,Western Europe,Germany,North Rhine-Westphalia,,Hagen
83.169.31.51,4,9,hauptstadtkongress.de,DE,Europe,Western Europe,Germany,North Rhine-Westphalia,,Cologne
195.145.0.114,4,1,hb-ts.de,DE,Europe,Western Europe,Germany,North Rhine-Westphalia,,Düsseldorf
83.169.31.236,4,23,hdba.de,DE,Europe,Western Europe,Germany,North Rhine-Westphalia,,Cologne
80.70.184.13,4,63,heidolph-instruments.com,DE,Europe,Western Europe,Germany,North Rhine-Westphalia,,Paderborn
87.230.106.165,4,25,heilpraktikerverband.de,DE,Europe,Western Europe,Germany,North Rhine-Westphalia,,Cologne
116.202.120.148,4,18,hell.pl,DE,Europe,Western Europe,Germany,North Rhine-Westphalia,,Krefeld
80.82.208.104,4,0,hellweg.de,DE,Europe,Western Europe,Germany,North Rhine-Westphalia,,Cologne
91.184.33.189,4,13,hermann-historica.de,DE,Europe,Western Europe,Germany,North Rhine-Westphalia,,Neuss
212.117.75.197,4,3,hfmt-koeln.de,DE,Europe,Western Europe,Germany,North Rhine-Westphalia,,Cologne
178.77.82.223,4,12,hifi-wiki.de,DE,Europe,Western Europe,Germany,North Rhine-Westphalia,,Cologne
176.28.33.37,4,16,highfoodality.de,DE,Europe,Western Europe,Germany,North Rhine-Westphalia,,Cologne
185.252.234.109,4,7,hisense.co.uk,DE,Europe,Western Europe,Germany,North Rhine-Westphalia,,Düsseldorf
84.46.242.60,4,3,hit.bg,DE,Europe,Western Europe,Germany,North Rhine-Westphalia,,Düsseldorf
80.237.132.168,4,4,hk-keber.de,DE,Europe,Western Europe,Germany,North Rhine-Westphalia,,Cologne
87.230.106.193,4,8,hlipp.de,DE,Europe,Western Europe,Germany,North Rhine-Westphalia,,Cologne
185.41.57.132,4,4911,hochsauerlandkreis.de,DE,Europe,Western Europe,Germany,North Rhine-Westphalia,,Balve
194.95.61.217,4,33,hof-university.de,DE,Europe,Western Europe,Germany,North Rhine-Westphalia,,Paderborn
2.17.22.187,4,59,hogan.com,DE,Europe,Western Europe,Germany,North Rhine-Westphalia,,Düsseldorf
2.17.22.145,4,15,hogan.com,DE,Europe,Western Europe,Germany,North Rhine-Westphalia,,Düsseldorf
80.70.176.72,4,19,hohen-neuendorf.de,DE,Europe,Western Europe,Germany,North Rhine-Westphalia,,Paderborn
83.169.31.46,4,12,homepowersolutions.de,DE,Europe,Western Europe,Germany,North Rhine-Westphalia,,Cologne
92.204.37.216,4,19,horvath-partners.com,DE,Europe,Western Europe,Germany,North Rhine-Westphalia,,Cologne
92.204.35.32,4,4,hosteurope.de,DE,Europe,Western Europe,Germany,North Rhine-Westphalia,,Cologne
80.83.126.201,4,6,hostsuche.de,DE,Europe,Western Europe,Germany,North Rhine-Westphalia,,Düsseldorf
161.97.175.82,4,6,href.hu,DE,Europe,Western Europe,Germany,North Rhine-Westphalia,,Düsseldorf
185.202.223.99,4,36,hrvzz.hr,DE,Europe,Western Europe,Germany,North Rhine-Westphalia,,Düsseldorf
80.237.132.91,4,8,hutter1.net,DE,Europe,Western Europe,Germany,North Rhine-Westphalia,,Cologne
87.230.41.4,4,8,iaks.sport,DE,Europe,Western Europe,Germany,North Rhine-Westphalia,,Cologne
87.230.45.21,4,29,iapm.net,DE,Europe,Western Europe,Germany,North Rhine-Westphalia,,Cologne
87.230.106.152,4,39,iccgermany.de,DE,Europe,Western Europe,Germany,North Rhine-Westphalia,,Cologne
38.242.156.6,4,10,icglr.org,DE,Europe,Western Europe,Germany,North Rhine-Westphalia,,Düsseldorf
80.237.132.213,4,23,ideology.de,DE,Europe,Western Europe,Germany,North Rhine-Westphalia,,Cologne
80.70.184.83,4,4,ifz-muenchen.de,DE,Europe,Western Europe,Germany,North Rhine-Westphalia,,Paderborn
84.246.122.58,4,9,imbus.de,DE,Europe,Western Europe,Germany,North Rhine-Westphalia,,Troisdorf
83.169.24.61,4,34,imoa.info,DE,Europe,Western Europe,Germany,North Rhine-Westphalia,,Cologne
5.199.135.200,4,8,impossiblegame.co,DE,Europe,Western Europe,Germany,North Rhine-Westphalia,,Düsseldorf
75.119.138.190,4,59,indithemes.com,DE,Europe,Western Europe,Germany,North Rhine-Westphalia,,Düsseldorf
92.204.37.99,4,13,infopoint-security.de,DE,Europe,Western Europe,Germany,North Rhine-Westphalia,,Cologne
87.230.106.63,4,24,inpactmedia.com,DE,Europe,Western Europe,Germany,North Rhine-Westphalia,,Cologne
37.60.228.80,4,24,insidexpress.com,DE,Europe,Western Europe,Germany,North Rhine-Westphalia,,Düsseldorf
37.60.239.54,4,-1,intensivedietarymanagement.com,DE,Europe,Western Europe,Germany,North Rhine-Westphalia,,Düsseldorf
92.204.37.100,4,7,interplan-media.de,DE,Europe,Western Europe,Germany,North Rhine-Westphalia,,Cologne
116.202.167.127,4,30,intersoft-consulting.de,DE,Europe,Western Europe,Germany,North Rhine-Westphalia,,Krefeld
85.22.48.145,4,29,intertabac.de,DE,Europe,Western Europe,Germany,North Rhine-Westphalia,,Dortmund
194.163.182.106,4,3,invdes.com.mx,DE,Europe,Western Europe,Germany,North Rhine-Westphalia,,Düsseldorf
217.76.55.100,4,21,inyourfacemedia.nl,DE,Europe,Western Europe,Germany,North Rhine-Westphalia,,Düsseldorf
161.97.147.134,4,3,iptv.by,DE,Europe,Western Europe,Germany,North Rhine-Westphalia,,Düsseldorf
87.230.41.180,4,8,irfanview.com,DE,Europe,Western Europe,Germany,North Rhine-Westphalia,,Cologne
92.204.37.169,4,125,isa-guide.de,DE,Europe,Western Europe,Germany,North Rhine-Westphalia,,Cologne
161.97.183.161,4,3,isindexing.com,DE,Europe,Western Europe,Germany,North Rhine-Westphalia,,Düsseldorf
161.97.176.194,4,20,itesem.edu.bo,DE,Europe,Western Europe,Germany,North Rhine-Westphalia,,Düsseldorf
158.220.119.131,4,14,iton.tv,DE,Europe,Western Europe,Germany,North Rhine-Westphalia,,Düsseldorf
213.199.54.157,4,7,itopllc.us,DE,Europe,Western Europe,Germany,North Rhine-Westphalia,,Düsseldorf
176.28.33.203,4,49,its-owl.de,DE,Europe,Western Europe,Germany,North Rhine-Westphalia,,Cologne
37.60.227.103,4,37,ixyt.eu,DE,Europe,Western Europe,Germany,North Rhine-Westphalia,,Düsseldorf
80.237.133.145,4,7,jave.de,DE,Europe,Western Europe,Germany,North Rhine-Westphalia,,Cologne
161.97.146.195,4,43,jegviragkft.hu,DE,Europe,Western Europe,Germany,North Rhine-Westphalia,,Düsseldorf
178.77.84.100,4,8,jki.de,DE,Europe,Western Europe,Germany,North Rhine-Westphalia,,Cologne
80.237.133.116,4,3,josefscholz.de,DE,Europe,Western Europe,Germany,North Rhine-Westphalia,,Cologne
176.28.38.255,4,112,josieloves.de,DE,Europe,Western Europe,Germany,North Rhine-Westphalia,,Cologne
158.220.126.3,4,12,journalspace.com,DE,Europe,Western Europe,Germany,North Rhine-Westphalia,,Düsseldorf
89.117.53.89,4,4,jpr62.com,DE,Europe,Western Europe,Germany,North Rhine-Westphalia,,Düsseldorf
178.77.83.40,4,8,juelich.de,DE,Europe,Western Europe,Germany,North Rhine-Westphalia,,Cologne
92.204.37.165,4,21,jugendschutz.de,DE,Europe,Western Europe,Germany,North Rhine-Westphalia,,Cologne
217.76.55.99,4,3,juwelia.nl,DE,Europe,Western Europe,Germany,North Rhine-Westphalia,,Düsseldorf
62.144.204.111,4,262928,kannel.org,DE,Europe,Western Europe,Germany,North Rhine-Westphalia,,Bielefeld
87.230.106.231,4,18,karl-may-gesellschaft.de,DE,Europe,Western Europe,Germany,North Rhine-Westphalia,,Cologne
213.95.241.11,4,33,karmapa.org,DE,Europe,Western Europe,Germany,North Rhine-Westphalia,,Cologne
178.77.82.84,4,119,kartensicherheit.de,DE,Europe,Western Europe,Germany,North Rhine-Westphalia,,Cologne
161.97.133.157,4,8,kehpca.org,DE,Europe,Western Europe,Germany,North Rhine-Westphalia,,Düsseldorf
80.237.132.130,4,2,kennel-makalali.de,DE,Europe,Western Europe,Germany,North Rhine-Westphalia,,Cologne
149.102.136.53,4,84,kenpoly.edu.ng,DE,Europe,Western Europe,Germany,North Rhine-Westphalia,,Düsseldorf
213.199.45.145,4,4,keralabiblesociety.com,DE,Europe,Western Europe,Germany,North Rhine-Westphalia,,Düsseldorf
62.27.44.212,4,38,kern-sohn.com,DE,Europe,Western Europe,Germany,North Rhine-Westphalia,,Ibbenbueren
134.94.130.222,4,4,kfa-juelich.de,DE,Europe,Western Europe,Germany,North Rhine-Westphalia,,Jülich
46.165.210.28,4,14,khajehabdollahansari.com,DE,Europe,Western Europe,Germany,North Rhine-Westphalia,,Sankt Augustin
194.163.180.230,4,2,kimasabri.id,DE,Europe,Western Europe,Germany,North Rhine-Westphalia,,Düsseldorf
87.230.61.117,4,34,kinderschutz-zentren.org,DE,Europe,Western Europe,Germany,North Rhine-Westphalia,,Cologne
75.119.132.165,4,5,kingsofconvenience.eu,DE,Europe,Western Europe,Germany,North Rhine-Westphalia,,Düsseldorf
139.6.141.9,4,-1651,kisd.de,DE,Europe,Western Europe,Germany,North Rhine-Westphalia,,Cologne
212.117.64.234,4,10,klenkes.de,DE,Europe,Western Europe,Germany,North Rhine-Westphalia,,Cologne
80.237.132.31,4,4,klick-tipps.net,DE,Europe,Western Europe,Germany,North Rhine-Westphalia,,Cologne
87.230.63.55,4,7,kliniken-schmieder.de,DE,Europe,Western Europe,Germany,North Rhine-Westphalia,,Cologne
38.242.135.49,4,7,kodinerds.net,DE,Europe,Western Europe,Germany,North Rhine-Westphalia,,Düsseldorf
81.173.246.122,4,4,koeln.de,DE,Europe,Western Europe,Germany,North Rhine-Westphalia,,Cologne
83.169.30.255,4,73,komitee.de,DE,Europe,Western Europe,Germany,North Rhine-Westphalia,,Cologne
178.77.81.110,4,20,kradblatt.de,DE,Europe,Western Europe,Germany,North Rhine-Westphalia,,Cologne
212.16.239.22,4,135,kreis-dueren.de,DE,Europe,Western Europe,Germany,North Rhine-Westphalia,,Stolberg
87.130.7.133,4,13,kreis-unna.de,DE,Europe,Western Europe,Germany,North Rhine-Westphalia,,Cologne
134.119.0.207,4,84,kreuztal.de,DE,Europe,Western Europe,Germany,North Rhine-Westphalia,,Cologne
134.119.0.148,4,17,kristiankutschera.de,DE,Europe,Western Europe,Germany,North Rhine-Westphalia,,Cologne
83.169.28.48,4,7,krpano.com,DE,Europe,Western Europe,Germany,North Rhine-Westphalia,,Cologne
89.117.54.208,4,4,krymology.info,DE,Europe,Western Europe,Germany,North Rhine-Westphalia,,Düsseldorf
178.77.87.133,4,23,kulturbanause.de,DE,Europe,Western Europe,Germany,North Rhine-Westphalia,,Cologne
80.70.186.66,4,14,kulturland.org,DE,Europe,Western Europe,Germany,North Rhine-Westphalia,,Paderborn
176.28.32.123,4,23,kulturzentrum-faust.de,DE,Europe,Western Europe,Germany,North Rhine-Westphalia,,Cologne
83.169.28.49,4,8,kunstakademie-muenster.de,DE,Europe,Western Europe,Germany,North Rhine-Westphalia,,Cologne
92.204.37.52,4,2,kurvenkoenig.de,DE,Europe,Western Europe,Germany,North Rhine-Westphalia,,Cologne
75.119.142.175,4,8,kutethemes.com,DE,Europe,Western Europe,Germany,North Rhine-Westphalia,,Düsseldorf
92.204.39.7,4,15,kw-berlin.de,DE,Europe,Western Europe,Germany,North Rhine-Westphalia,,Cologne
195.145.11.212,4,2,kzvh.de,DE,Europe,Western Europe,Germany,North Rhine-Westphalia,,Düsseldorf
87.230.60.161,4,9,labortechnik.com,DE,Europe,Western Europe,Germany,North Rhine-Westphalia,,Cologne
92.204.37.38,4,2,labyrinth-kindermuseum.de,DE,Europe,Western Europe,Germany,North Rhine-Westphalia,,Cologne
88.79.202.49,4,48,laco.de,DE,Europe,Western Europe,Germany,North Rhine-Westphalia,,Bergisch Gladbach
116.202.65.132,4,6,laenderbahn.com,DE,Europe,Western Europe,Germany,North Rhine-Westphalia,,Krefeld
62.26.107.177,4,8,lak-bw.de,DE,Europe,Western Europe,Germany,North Rhine-Westphalia,,Neuss
91.26.60.123,4,-1,landkreis-greiz.de,DE,Europe,Western Europe,Germany,North Rhine-Westphalia,,Höxter
134.119.0.142,4,7,landkreis-landsberg.de,DE,Europe,Western Europe,Germany,North Rhine-Westphalia,,Cologne
194.77.169.196,4,6,landschaftspark.de,DE,Europe,Western Europe,Germany,North Rhine-Westphalia,,Solingen
87.230.104.175,4,51,ledstyles.de,DE,Europe,Western Europe,Germany,North Rhine-Westphalia,,Cologne
75.119.141.40,4,49,legeaz.net,DE,Europe,Western Europe,Germany,North Rhine-Westphalia,,Düsseldorf
178.77.82.11,4,54,lehmbruckmuseum.de,DE,Europe,Western Europe,Germany,North Rhine-Westphalia,,Cologne
134.119.0.114,4,7,lehner.com,DE,Europe,Western Europe,Germany,North Rhine-Westphalia,,Cologne
92.204.37.224,4,73,lehrerverband.de,DE,Europe,Western Europe,Germany,North Rhine-Westphalia,,Cologne
185.41.57.160,4,4902,leichlingen.de,DE,Europe,Western Europe,Germany,North Rhine-Westphalia,,Balve
156.67.25.234,4,89,lejournaldemayotte.yt,DE,Europe,Western Europe,Germany,North Rhine-Westphalia,,Düsseldorf
75.119.134.198,4,18,letterkundigmuseum.nl,DE,Europe,Western Europe,Germany,North Rhine-Westphalia,,Düsseldorf
185.209.229.93,4,51,libricsoport.hu,DE,Europe,Western Europe,Germany,North Rhine-Westphalia,,Düsseldorf
87.230.43.80,4,26,lilies-diary.com,DE,Europe,Western Europe,Germany,North Rhine-Westphalia,,Cologne
5.199.138.5,4,-24640,linyway.com,DE,Europe,Western Europe,Germany,North Rhine-Westphalia,,Düsseldorf
87.230.106.239,4,53,linzmeier.de,DE,Europe,Western Europe,Germany,North Rhine-Westphalia,,Cologne
89.1.66.106,4,5,litcologne.de,DE,Europe,Western Europe,Germany,North Rhine-Westphalia,,Cologne
134.95.56.223,4,4,livivo.de,DE,Europe,Western Europe,Germany,North Rhine-Westphalia,,Cologne
2.17.22.155,4,13,lkk.com,DE,Europe,Western Europe,Germany,North Rhine-Westphalia,,Düsseldorf
2.17.22.170,4,10,lkk.com,DE,Europe,Western Europe,Germany,North Rhine-Westphalia,,Düsseldorf
89.117.49.239,4,6,lmpoman.co,DE,Europe,Western Europe,Germany,North Rhine-Westphalia,,Düsseldorf
176.28.32.126,4,8,loewenherz.at,DE,Europe,Western Europe,Germany,North Rhine-Westphalia,,Cologne
194.163.150.80,4,98,logeek.com,DE,Europe,Western Europe,Germany,North Rhine-Westphalia,,Düsseldorf
161.97.160.252,4,1,loginbereich.net,DE,Europe,Western Europe,Germany,North Rhine-Westphalia,,Düsseldorf
62.159.226.73,4,26,lohr.de,DE,Europe,Western Europe,Germany,North Rhine-Westphalia,,Düsseldorf
134.119.0.211,4,4,loreley-touristik.de,DE,Europe,Western Europe,Germany,North Rhine-Westphalia,,Cologne
83.169.30.161,4,12,losteria.net,DE,Europe,Western Europe,Germany,North Rhine-Westphalia,,Cologne
116.202.167.121,4,6,lua.pl,DE,Europe,Western Europe,Germany,North Rhine-Westphalia,,Krefeld
178.162.209.17,4,47,luchtzak.be,DE,Europe,Western Europe,Germany,North Rhine-Westphalia,,Leverkusen
38.242.241.100,4,1,luxxu.net,DE,Europe,Western Europe,Germany,North Rhine-Westphalia,,Düsseldorf
46.165.230.147,4,3,lyrics.cat,DE,Europe,Western Europe,Germany,North Rhine-Westphalia,,Sankt Augustin
45.8.133.1,4,83,madridbetadresi.com,DE,Europe,Western Europe,Germany,North Rhine-Westphalia,,Düsseldorf
37.60.245.176,4,17,maidanmuseum.org,DE,Europe,Western Europe,Germany,North Rhine-Westphalia,,Düsseldorf
92.204.37.40,4,23,mainz-bingen.de,DE,Europe,Western Europe,Germany,North Rhine-Westphalia,,Cologne
38.242.207.60,4,4,malpasoed.com,DE,Europe,Western Europe,Germany,North Rhine-Westphalia,,Düsseldorf
83.169.29.242,4,21,maniac.de,DE,Europe,Western Europe,Germany,North Rhine-Westphalia,,Cologne
75.119.135.231,4,8,maniatech-academy.co.uk,DE,Europe,Western Europe,Germany,North Rhine-Westphalia,,Düsseldorf
62.67.46.163,4,20,marburg.de,DE,Europe,Western Europe,Germany,North Rhine-Westphalia,,
87.230.43.92,4,70,marcthiele.com,DE,Europe,Western Europe,Germany,North Rhine-Westphalia,,Cologne
134.119.0.101,4,40,marktforschung.de,DE,Europe,Western Europe,Germany,North Rhine-Westphalia,,Cologne
80.237.133.52,4,70,marxists.de,DE,Europe,Western Europe,Germany,North Rhine-Westphalia,,Cologne
161.97.149.50,4,19,masi.ma,DE,Europe,Western Europe,Germany,North Rhine-Westphalia,,Düsseldorf
212.20.164.206,4,1795,materialo.com,DE,Europe,Western Europe,Germany,North Rhine-Westphalia,,Neuss
87.230.44.151,4,36,mathematik.de,DE,Europe,Western Europe,Germany,North Rhine-Westphalia,,Cologne
176.28.36.92,4,20,mauermuseum.de,DE,Europe,Western Europe,Germany,North Rhine-Westphalia,,Cologne
80.83.116.252,4,20,mauritz.de,DE,Europe,Western Europe,Germany,North Rhine-Westphalia,,Düsseldorf
75.119.148.105,4,24,mavekcleaning.co.ug,DE,Europe,Western Europe,Germany,North Rhine-Westphalia,,Düsseldorf
5.199.139.234,4,13,maxibottin.com,DE,Europe,Western Europe,Germany,North Rhine-Westphalia,,Düsseldorf
31.220.76.7,4,17,mdmgreece.gr,DE,Europe,Western Europe,Germany,North Rhine-Westphalia,,Düsseldorf
213.95.248.12,4,68,medatixx.de,DE,Europe,Western Europe,Germany,North Rhine-Westphalia,,Cologne
86.48.0.207,4,1,mediakuzbass.ru,DE,Europe,Western Europe,Germany,North Rhine-Westphalia,,Düsseldorf
92.204.37.120,4,2,mediengestalter.info,DE,Europe,Western Europe,Germany,North Rhine-Westphalia,,Cologne
87.230.106.228,4,57,medmix.at,DE,Europe,Western Europe,Germany,North Rhine-Westphalia,,Cologne
104.122.36.165,4,17,membershiprewards.com,DE,Europe,Western Europe,Germany,North Rhine-Westphalia,,Düsseldorf
37.60.249.15,4,4,merispace.in,DE,Europe,Western Europe,Germany,North Rhine-Westphalia,,Düsseldorf
87.230.104.43,4,45,merkel-die-jagd.de,DE,Europe,Western Europe,Germany,North Rhine-Westphalia,,Cologne
84.246.122.75,4,30,merve.de,DE,Europe,Western Europe,Germany,North Rhine-Westphalia,,Troisdorf
80.83.116.47,4,45,mesotherapie.org,DE,Europe,Western Europe,Germany,North Rhine-Westphalia,,Düsseldorf
83.169.31.74,4,40,mettmann.de,DE,Europe,Western Europe,Germany,North Rhine-Westphalia,,Cologne
92.204.37.220,4,5,mfg.de,DE,Europe,Western Europe,Germany,North Rhine-Westphalia,,Cologne
185.123.89.103,4,10,mhfa-ersthelfer.de,DE,Europe,Western Europe,Germany,North Rhine-Westphalia,,Bonn
87.230.43.60,4,19,microdrones.com,DE,Europe,Western Europe,Germany,North Rhine-Westphalia,,Cologne
80.83.125.103,4,17,microhowto.info,DE,Europe,Western Europe,Germany,North Rhine-Westphalia,,Düsseldorf
116.202.70.204,4,2662560,mik.tv,DE,Europe,Western Europe,Germany,North Rhine-Westphalia,,Krefeld
83.169.25.134,4,9,mineralwasser.com,DE,Europe,Western Europe,Germany,North Rhine-Westphalia,,Cologne
194.163.168.147,4,4,minimalistquotes.com,DE,Europe,Western Europe,Germany,North Rhine-Westphalia,,Düsseldorf
92.204.37.56,4,4,minol.de,DE,Europe,Western Europe,Germany,North Rhine-Westphalia,,Cologne
87.230.40.231,4,61,mirabyte.com,DE,Europe,Western Europe,Germany,North Rhine-Westphalia,,Cologne
80.237.133.221,4,13,mlwerke.de,DE,Europe,Western Europe,Germany,North Rhine-Westphalia,,Cologne
213.199.57.116,4,3,mnau.xyz,DE,Europe,Western Europe,Germany,North Rhine-Westphalia,,Düsseldorf
178.18.246.182,4,23,mnetplus.in,DE,Europe,Western Europe,Germany,North Rhine-Westphalia,,Düsseldorf
194.163.165.174,4,3,mobilizon.it,DE,Europe,Western Europe,Germany,North Rhine-Westphalia,,Düsseldorf
87.230.61.248,4,79,modellbau-universe.de,DE,Europe,Western Europe,Germany,North Rhine-Westphalia,,Cologne
38.242.159.24,4,5,modernipanelak.cz,DE,Europe,Western Europe,Germany,North Rhine-Westphalia,,Düsseldorf
134.119.0.109,4,7,molli-bahn.de,DE,Europe,Western Europe,Germany,North Rhine-Westphalia,,Cologne
213.199.46.132,4,49,monclair.com.br,DE,Europe,Western Europe,Germany,North Rhine-Westphalia,,Düsseldorf
92.204.39.12,4,4,monumente-online.de,DE,Europe,Western Europe,Germany,North Rhine-Westphalia,,Cologne
178.162.218.69,4,24,moroccotimes.com,DE,Europe,Western Europe,Germany,North Rhine-Westphalia,,Leverkusen
134.119.0.127,4,2,moselsteig.de,DE,Europe,Western Europe,Germany,North Rhine-Westphalia,,Cologne
92.123.17.248,4,59,msccruises.com.au,DE,Europe,Western Europe,Germany,North Rhine-Westphalia,,Düsseldorf
87.230.47.184,4,33,mt-propeller.com,DE,Europe,Western Europe,Germany,North Rhine-Westphalia,,Cologne
87.79.24.60,4,17,mud.de,DE,Europe,Western Europe,Germany,North Rhine-Westphalia,,Bonn
92.204.37.235,4,81,muenchner-stadtbibliothek.de,DE,Europe,Western Europe,Germany,North Rhine-Westphalia,,Cologne
134.119.0.6,4,47,muensingen.de,DE,Europe,Western Europe,Germany,North Rhine-Westphalia,,Cologne
87.230.40.101,4,159,munich-info.de,DE,Europe,Western Europe,Germany,North Rhine-Westphalia,,Cologne
62.159.226.83,4,2,museen-aschaffenburg.de,DE,Europe,Western Europe,Germany,North Rhine-Westphalia,,Düsseldorf
89.107.64.165,4,25,museumsinflorence.com,DE,Europe,Western Europe,Germany,North Rhine-Westphalia,,Düsseldorf
87.230.63.118,4,19,musikschulen.de,DE,Europe,Western Europe,Germany,North Rhine-Westphalia,,Cologne
156.67.26.125,4,16,musiktheater-im-revier.de,DE,Europe,Western Europe,Germany,North Rhine-Westphalia,,Düsseldorf
109.199.112.187,4,-17,musiktheater-im-revier.de,DE,Europe,Western Europe,Germany,North Rhine-Westphalia,,Düsseldorf
116.202.70.167,4,12,mybudapester.com,DE,Europe,Western Europe,Germany,North Rhine-Westphalia,,Krefeld
81.173.246.8,4,2,mynetcologne.de,DE,Europe,Western Europe,Germany,North Rhine-Westphalia,,Cologne
80.83.126.189,4,5,mystipendium.de,DE,Europe,Western Europe,Germany,North Rhine-Westphalia,,Düsseldorf
83.169.25.95,4,8,nabertherm.com,DE,Europe,Western Europe,Germany,North Rhine-Westphalia,,Cologne
158.220.100.109,4,30,nachrichtenmorgen.de,DE,Europe,Western Europe,Germany,North Rhine-Westphalia,,Düsseldorf
161.97.128.45,4,12,naijaloaded.com.ng,DE,Europe,Western Europe,Germany,North Rhine-Westphalia,,Düsseldorf
185.217.125.224,4,3,nashiargan.it,DE,Europe,Western Europe,Germany,North Rhine-Westphalia,,Düsseldorf
83.169.26.16,4,11,naturadb.de,DE,Europe,Western Europe,Germany,North Rhine-Westphalia,,Cologne
158.220.100.36,4,3,naturalvaherba.co.id,DE,Europe,Western Europe,Germany,North Rhine-Westphalia,,Düsseldorf
87.230.62.243,4,59,naturkundemuseum-bw.de,DE,Europe,Western Europe,Germany,North Rhine-Westphalia,,Cologne
134.119.0.13,4,53,naturparkfrauholle.land,DE,Europe,Western Europe,Germany,North Rhine-Westphalia,,Cologne
84.247.137.27,4,30,navalpost.com,DE,Europe,Western Europe,Germany,North Rhine-Westphalia,,Düsseldorf
185.252.233.185,4,2,navidiku.rs,DE,Europe,Western Europe,Germany,North Rhine-Westphalia,,Düsseldorf
94.250.203.13,4,10,neptunbad.de,DE,Europe,Western Europe,Germany,North Rhine-Westphalia,,Düsseldorf
38.242.146.157,4,23,nerkinet.com,DE,Europe,Western Europe,Germany,North Rhine-Westphalia,,Düsseldorf
92.204.37.129,4,9,net4energy.com,DE,Europe,Western Europe,Germany,North Rhine-Westphalia,,Cologne
149.102.141.131,4,760,netzwerk-courage.de,DE,Europe,Western Europe,Germany,North Rhine-Westphalia,,Düsseldorf
161.97.169.59,4,4,newshustle.co.uk,DE,Europe,Western Europe,Germany,North Rhine-Westphalia,,Düsseldorf
109.199.102.217,4,4,ngprague.cz,DE,Europe,Western Europe,Germany,North Rhine-Westphalia,,Düsseldorf
80.83.113.80,4,39,nicowolter.de,DE,Europe,Western Europe,Germany,North Rhine-Westphalia,,Düsseldorf
87.230.60.82,4,7,nix-wie-weg.de,DE,Europe,Western Europe,Germany,North Rhine-Westphalia,,Cologne
176.28.32.12,4,14,noa.network,DE,Europe,Western Europe,Germany,North Rhine-Westphalia,,Cologne
87.230.62.37,4,31,nordhausen.de,DE,Europe,Western Europe,Germany,North Rhine-Westphalia,,Cologne
62.67.46.161,4,380,nordhorn.de,DE,Europe,Western Europe,Germany,North Rhine-Westphalia,,
38.242.232.111,4,1,nordichardware.se,DE,Europe,Western Europe,Germany,North Rhine-Westphalia,,Düsseldorf
92.204.39.13,4,3,nordische-musik.de,DE,Europe,Western Europe,Germany,North Rhine-Westphalia,,Cologne
62.26.107.170,4,84,notdienst-portal.de,DE,Europe,Western Europe,Germany,North Rhine-Westphalia,,Neuss
80.70.176.29,4,7,novastan.org,DE,Europe,Western Europe,Germany,North Rhine-Westphalia,,Paderborn
80.70.184.70,4,8,nttcable.com,DE,Europe,Western Europe,Germany,North Rhine-Westphalia,,Paderborn
2.17.22.144,4,30,nvsgames.com,DE,Europe,Western Europe,Germany,North Rhine-Westphalia,,Düsseldorf
2.17.22.193,4,38,nvsgames.com,DE,Europe,Western Europe,Germany,North Rhine-Westphalia,,Düsseldorf
116.202.199.134,4,16,oberpfalzecho.de,DE,Europe,Western Europe,Germany,North Rhine-Westphalia,,Krefeld
80.70.176.59,4,7,obersalzberg.de,DE,Europe,Western Europe,Germany,North Rhine-Westphalia,,Paderborn
134.119.0.113,4,4,ochsner.com,DE,Europe,Western Europe,Germany,North Rhine-Westphalia,,Cologne
62.169.27.102,4,14,ogenhyipmon.info,DE,Europe,Western Europe,Germany,North Rhine-Westphalia,,Düsseldorf
83.169.25.43,4,9,ohhcouture.com,DE,Europe,Western Europe,Germany,North Rhine-Westphalia,,Cologne
194.163.177.80,4,25,oilsandherbs.co.uk,DE,Europe,Western Europe,Germany,North Rhine-Westphalia,,Düsseldorf
134.119.0.117,4,40,okal.de,DE,Europe,Western Europe,Germany,North Rhine-Westphalia,,Cologne
5.199.136.153,4,12284,okwork.site,DE,Europe,Western Europe,Germany,North Rhine-Westphalia,,Düsseldorf
38.242.237.154,4,6,olivebarandkitchen.com,DE,Europe,Western Europe,Germany,North Rhine-Westphalia,,Düsseldorf
38.242.232.125,4,4,onetimeinteriors.com,DE,Europe,Western Europe,Germany,North Rhine-Westphalia,,Düsseldorf
80.70.183.163,4,8,online-druck.biz,DE,Europe,Western Europe,Germany,North Rhine-Westphalia,,Paderborn
193.176.120.6,4,264,Ookla Speedtest Server 22274: speedtest-gwn24.tele-ag.de,DE,Europe,Western Europe,Germany,North Rhine-Westphalia,,Nümbrecht
185.6.69.66,4,310,Ookla Speedtest Server 28624: speedtest.hk-net.de,DE,Europe,Western Europe,Germany,North Rhine-Westphalia,,Düsseldorf
5.145.135.169,4,330,Ookla Speedtest Server 43512: speedtestnet.relaix.net,DE,Europe,Western Europe,Germany,North Rhine-Westphalia,,Aachen
188.64.255.158,4,290,Ookla Speedtest Server 58941: ookla-speedtest.tkrz.de,DE,Europe,Western Europe,Germany,North Rhine-Westphalia,,Emsdetten
185.153.54.250,4,372,Ookla Speedtest Server 63237: speedtest01.netmountains.space,DE,Europe,Western Europe,Germany,North Rhine-Westphalia,,Düsseldorf
31.220.90.251,4,56,opalindia.in,DE,Europe,Western Europe,Germany,North Rhine-Westphalia,,Düsseldorf
38.242.218.9,4,4,openclonk.org,DE,Europe,Western Europe,Germany,North Rhine-Westphalia,,Düsseldorf
62.169.29.75,4,16,orenairport.ru,DE,Europe,Western Europe,Germany,North Rhine-Westphalia,,Düsseldorf
87.230.60.244,4,8,osterfestspiele-salzburg.at,DE,Europe,Western Europe,Germany,North Rhine-Westphalia,,Cologne
75.119.145.104,4,1,otakupt.com,DE,Europe,Western Europe,Germany,North Rhine-Westphalia,,Düsseldorf
31.220.74.44,4,3,otroscines.com,DE,Europe,Western Europe,Germany,North Rhine-Westphalia,,Düsseldorf
178.18.248.163,4,3,ozerov.de,DE,Europe,Western Europe,Germany,North Rhine-Westphalia,,Düsseldorf
83.169.28.12,4,52,palast-orchester.de,DE,Europe,Western Europe,Germany,North Rhine-Westphalia,,Cologne
38.242.231.36,4,4,palauvalencia.com,DE,Europe,Western Europe,Germany,North Rhine-Westphalia,,Düsseldorf
158.220.126.122,4,14,palmettoscoop.com,DE,Europe,Western Europe,Germany,North Rhine-Westphalia,,Düsseldorf
104.115.82.18,4,11,pangleglobal.com,DE,Europe,Western Europe,Germany,North Rhine-Westphalia,,Düsseldorf
104.115.82.24,4,17,pangleglobal.com,DE,Europe,Western Europe,Germany,North Rhine-Westphalia,,Düsseldorf
80.82.223.151,4,12,panzer-archiv.de,DE,Europe,Western Europe,Germany,North Rhine-Westphalia,,Cologne
176.57.150.4,4,4,papachina.com,DE,Europe,Western Europe,Germany,North Rhine-Westphalia,,Düsseldorf
45.13.59.138,4,29,parrilladonjulio.com.ar,DE,Europe,Western Europe,Germany,North Rhine-Westphalia,,Düsseldorf
87.230.105.206,4,73,party-san.de,DE,Europe,Western Europe,Germany,North Rhine-Westphalia,,Cologne
87.230.104.219,4,84,partymat.de,DE,Europe,Western Europe,Germany,North Rhine-Westphalia,,Cologne
46.165.226.132,4,4488,pdamax.de,DE,Europe,Western Europe,Germany,North Rhine-Westphalia,,Sankt Augustin
193.203.15.155,4,8,periodicotribuna.com.ar,DE,Europe,Western Europe,Germany,North Rhine-Westphalia,,Düsseldorf
83.169.26.190,4,83,persoenlichkeits-blog.de,DE,Europe,Western Europe,Germany,North Rhine-Westphalia,,Cologne
194.163.128.16,4,44,peruancestral.com,DE,Europe,Western Europe,Germany,North Rhine-Westphalia,,Düsseldorf
134.119.0.34,4,4,pfullingen.de,DE,Europe,Western Europe,Germany,North Rhine-Westphalia,,Cologne
176.28.33.28,4,23,phlow.net,DE,Europe,Western Europe,Germany,North Rhine-Westphalia,,Cologne
184.174.36.58,4,40,pickleballspots.com,DE,Europe,Western Europe,Germany,North Rhine-Westphalia,,Düsseldorf
80.237.132.227,4,43,piratenfraktion-berlin.de,DE,Europe,Western Europe,Germany,North Rhine-Westphalia,,Cologne
178.162.221.8,4,3,pissedconsumer.com,DE,Europe,Western Europe,Germany,North Rhine-Westphalia,,Leverkusen
161.97.178.148,4,4,pixolinks.com,DE,Europe,Western Europe,Germany,North Rhine-Westphalia,,Düsseldorf
158.220.96.214,4,18,pizza.it,DE,Europe,Western Europe,Germany,North Rhine-Westphalia,,Düsseldorf
87.230.62.160,4,6,planearium.de,DE,Europe,Western Europe,Germany,North Rhine-Westphalia,,Cologne
185.41.57.133,4,4912,plettenberg.de,DE,Europe,Western Europe,Germany,North Rhine-Westphalia,,Balve
81.17.99.177,4,26,pow.cx,DE,Europe,Western Europe,Germany,North Rhine-Westphalia,,Düsseldorf
92.204.39.22,4,3,powerlifting.sport,DE,Europe,Western Europe,Germany,North Rhine-Westphalia,,Cologne
45.13.59.140,4,50,premiumwanadoo.com,DE,Europe,Western Europe,Germany,North Rhine-Westphalia,,Düsseldorf
217.76.59.31,4,71,profilbaru.com,DE,Europe,Western Europe,Germany,North Rhine-Westphalia,,Düsseldorf
158.220.105.246,4,23,profitrealestate.ru,DE,Europe,Western Europe,Germany,North Rhine-Westphalia,,Düsseldorf
84.247.140.141,4,16,programming.vip,DE,Europe,Western Europe,Germany,North Rhine-Westphalia,,Düsseldorf
134.119.0.74,4,2,progressives-zentrum.org,DE,Europe,Western Europe,Germany,North Rhine-Westphalia,,Cologne
83.169.29.130,4,35,projectwizards.net,DE,Europe,Western Europe,Germany,North Rhine-Westphalia,,Cologne
212.90.120.201,4,40,promed-sd.com,DE,Europe,Western Europe,Germany,North Rhine-Westphalia,,Düsseldorf
212.47.65.35,4,7,qsl.lt,DE,Europe,Western Europe,Germany,North Rhine-Westphalia,,Düsseldorf
194.163.178.235,4,24,qualityinverters.co.za,DE,Europe,Western Europe,Germany,North Rhine-Westphalia,,Düsseldorf
87.230.42.132,4,8,queer.de,DE,Europe,Western Europe,Germany,North Rhine-Westphalia,,Cologne
80.70.177.204,4,31,ratsinfomanagement.net,DE,Europe,Western Europe,Germany,North Rhine-Westphalia,,Paderborn
78.47.210.40,4,17,ravenol-shop.de,DE,Europe,Western Europe,Germany,North Rhine-Westphalia,,Leverkusen
178.77.82.27,4,53,recherchepool.net,DE,Europe,Western Europe,Germany,North Rhine-Westphalia,,Cologne
116.202.167.184,4,9,recon-company.com,DE,Europe,Western Europe,Germany,North Rhine-Westphalia,,Krefeld
78.47.66.33,4,39,recordcase.de,DE,Europe,Western Europe,Germany,North Rhine-Westphalia,,Leverkusen
87.230.60.254,4,49,regional-saisonal.de,DE,Europe,Western Europe,Germany,North Rhine-Westphalia,,Cologne
185.182.187.234,4,44,reigroup.co.tz,DE,Europe,Western Europe,Germany,North Rhine-Westphalia,,Düsseldorf
89.1.69.213,4,33,reissdorf.de,DE,Europe,Western Europe,Germany,North Rhine-Westphalia,,Cologne
134.119.0.238,4,14,renewables-grid.eu,DE,Europe,Western Europe,Germany,North Rhine-Westphalia,,Cologne
87.230.107.61,4,53,resavio.com,DE,Europe,Western Europe,Germany,North Rhine-Westphalia,,Cologne
38.242.145.16,4,-75037,rethnea.gr,DE,Europe,Western Europe,Germany,North Rhine-Westphalia,,Düsseldorf
80.82.223.211,4,169,rhede.de,DE,Europe,Western Europe,Germany,North Rhine-Westphalia,,Cologne
134.119.0.217,4,29,rheinstetten.de,DE,Europe,Western Europe,Germany,North Rhine-Westphalia,,Cologne
134.119.0.40,4,16,rielismedia.com,DE,Europe,Western Europe,Germany,North Rhine-Westphalia,,Cologne
80.70.184.124,4,36,rietberg.de,DE,Europe,Western Europe,Germany,North Rhine-Westphalia,,Paderborn
37.60.243.235,4,2,riyapola.com,DE,Europe,Western Europe,Germany,North Rhine-Westphalia,,Düsseldorf
80.237.133.67,4,1,rmnrelax.de,DE,Europe,Western Europe,Germany,North Rhine-Westphalia,,Cologne
194.163.151.63,4,35,robadadonne.it,DE,Europe,Western Europe,Germany,North Rhine-Westphalia,,Düsseldorf
46.165.219.241,4,45,rogator.de,DE,Europe,Western Europe,Germany,North Rhine-Westphalia,,Sankt Augustin
77.237.237.152,4,13,romanticroadgermany.com,DE,Europe,Western Europe,Germany,North Rhine-Westphalia,,Düsseldorf
46.165.198.176,4,48,rotana.net,DE,Europe,Western Europe,Germany,North Rhine-Westphalia,,Sankt Augustin
104.73.227.73,4,31,rottentomatoes.com,DE,Europe,Western Europe,Germany,North Rhine-Westphalia,,Düsseldorf
83.136.85.164,4,14,rsag-online.de,DE,Europe,Western Europe,Germany,North Rhine-Westphalia,,Remscheid
87.230.104.22,4,8,rudolstadt.de,DE,Europe,Western Europe,Germany,North Rhine-Westphalia,,Cologne
194.163.167.246,4,42,runwaycatalog.in,DE,Europe,Western Europe,Germany,North Rhine-Westphalia,,Düsseldorf
185.194.217.227,4,91,rusdemotivator.ru,DE,Europe,Western Europe,Germany,North Rhine-Westphalia,,Düsseldorf
194.163.138.79,4,9,rutvet.ru,DE,Europe,Western Europe,Germany,North Rhine-Westphalia,,Düsseldorf
37.60.243.189,4,-21,salaty-vkusno.ru,DE,Europe,Western Europe,Germany,North Rhine-Westphalia,,Düsseldorf
194.163.168.116,4,25,sambands.net,DE,Europe,Western Europe,Germany,North Rhine-Westphalia,,Düsseldorf
83.169.31.119,4,23,sandraandwoo.com,DE,Europe,Western Europe,Germany,North Rhine-Westphalia,,Cologne
31.220.82.54,4,4,scam-mail.me,DE,Europe,Western Europe,Germany,North Rhine-Westphalia,,Düsseldorf
134.119.0.21,4,2,schaalsee.de,DE,Europe,Western Europe,Germany,North Rhine-Westphalia,,Cologne
87.230.47.166,4,15,schattauer.de,DE,Europe,Western Europe,Germany,North Rhine-Westphalia,,Cologne
176.28.39.241,4,61,scheringstiftung.de,DE,Europe,Western Europe,Germany,North Rhine-Westphalia,,Cologne
38.242.251.250,4,98,schildbach.de,DE,Europe,Western Europe,Germany,North Rhine-Westphalia,,Düsseldorf
134.119.0.8,4,2,schiltach.de,DE,Europe,Western Europe,Germany,North Rhine-Westphalia,,Cologne
134.119.0.2,4,72,schlossmuseum-murnau.de,DE,Europe,Western Europe,Germany,North Rhine-Westphalia,,Cologne
80.83.116.193,4,18,schmeck-den-sueden.de,DE,Europe,Western Europe,Germany,North Rhine-Westphalia,,Düsseldorf
87.230.47.67,4,29,schmetterling-verlag.de,DE,Europe,Western Europe,Germany,North Rhine-Westphalia,,Cologne
134.119.0.33,4,2,schopfheim.de,DE,Europe,Western Europe,Germany,North Rhine-Westphalia,,Cologne
212.100.34.147,4,1,schueco.com,DE,Europe,Western Europe,Germany,North Rhine-Westphalia,,Rietberg
5.199.133.173,4,78,schueler-helfen-leben.de,DE,Europe,Western Europe,Germany,North Rhine-Westphalia,,Düsseldorf
134.119.0.54,4,80,schuhfried.com,DE,Europe,Western Europe,Germany,North Rhine-Westphalia,,Cologne
134.119.0.69,4,3,schussenrieder.de,DE,Europe,Western Europe,Germany,North Rhine-Westphalia,,Cologne
80.82.223.88,4,71,schwartzpr.de,DE,Europe,Western Europe,Germany,North Rhine-Westphalia,,Cologne
185.41.57.135,4,4902,schwelm.de,DE,Europe,Western Europe,Germany,North Rhine-Westphalia,,Balve
176.28.33.41,4,22,sea-shepherd.de,DE,Europe,Western Europe,Germany,North Rhine-Westphalia,,Cologne
212.23.151.164,4,28,secure.gd,DE,Europe,Western Europe,Germany,North Rhine-Westphalia,,Bochum
83.169.29.181,4,9,sehen.de,DE,Europe,Western Europe,Germany,North Rhine-Westphalia,,Cologne
87.230.60.223,4,9,sehsuechte.de,DE,Europe,Western Europe,Germany,North Rhine-Westphalia,,Cologne
92.204.37.96,4,19,selbstbewusstsein-staerken.net,DE,Europe,Western Europe,Germany,North Rhine-Westphalia,,Cologne
134.119.0.110,4,47,select-hotels.com,DE,Europe,Western Europe,Germany,North Rhine-Westphalia,,Cologne
87.230.60.100,4,35,selectline.de,DE,Europe,Western Europe,Germany,North Rhine-Westphalia,,Cologne
87.230.105.175,4,26,selfseo.com,DE,Europe,Western Europe,Germany,North Rhine-Westphalia,,Cologne
80.237.132.119,4,5,semantic-mediawiki.net,DE,Europe,Western Europe,Germany,North Rhine-Westphalia,,Cologne
185.211.5.119,4,4,senaubaines.com,DE,Europe,Western Europe,Germany,North Rhine-Westphalia,,Düsseldorf
134.119.0.149,4,10,senertec.de,DE,Europe,Western Europe,Germany,North Rhine-Westphalia,,Cologne
83.169.27.88,4,34,sepago.de,DE,Europe,Western Europe,Germany,North Rhine-Westphalia,,Cologne
80.237.132.19,4,25,server-he.de,DE,Europe,Western Europe,Germany,North Rhine-Westphalia,,Cologne
176.28.33.206,4,52,severint.net,DE,Europe,Western Europe,Germany,North Rhine-Westphalia,,Cologne
194.163.135.0,4,-3,sh3nevinsk.ru,DE,Europe,Western Europe,Germany,North Rhine-Westphalia,,Düsseldorf
212.117.74.180,4,7,shaker.de,DE,Europe,Western Europe,Germany,North Rhine-Westphalia,,Cologne
89.117.50.143,4,2,shirts-bedrukken.nl,DE,Europe,Western Europe,Germany,North Rhine-Westphalia,,Düsseldorf
194.163.128.35,4,3,shreemsweetsandbakery.com,DE,Europe,Western Europe,Germany,North Rhine-Westphalia,,Düsseldorf
176.28.35.112,4,8,sicgmbh.de,DE,Europe,Western Europe,Germany,North Rhine-Westphalia,,Cologne
185.207.250.231,4,3,siia.net,DE,Europe,Western Europe,Germany,North Rhine-Westphalia,,Düsseldorf
161.97.168.245,4,3,sildenafil.buzz,DE,Europe,Western Europe,Germany,North Rhine-Westphalia,,Düsseldorf
87.230.40.236,4,7,silvergames.com,DE,Europe,Western Europe,Germany,North Rhine-Westphalia,,Cologne
194.163.155.179,4,-7,simplycontact.com,DE,Europe,Western Europe,Germany,North Rhine-Westphalia,,Düsseldorf
158.220.97.47,4,6,sinardewaplayer.com,DE,Europe,Western Europe,Germany,North Rhine-Westphalia,,Düsseldorf
87.230.45.172,4,8,singulus.de,DE,Europe,Western Europe,Germany,North Rhine-Westphalia,,Cologne
116.202.120.18,4,7,sinus-institut.de,DE,Europe,Western Europe,Germany,North Rhine-Westphalia,,Krefeld
194.163.185.210,4,7,site-checker.org,DE,Europe,Western Europe,Germany,North Rhine-Westphalia,,Düsseldorf
195.37.15.139,4,32,skd.museum,DE,Europe,Western Europe,Germany,North Rhine-Westphalia,,Heiligenhaus
178.18.246.68,4,18,smart-track.net,DE,Europe,Western Europe,Germany,North Rhine-Westphalia,,Düsseldorf
161.97.175.163,4,7,smarter.loans,DE,Europe,Western Europe,Germany,North Rhine-Westphalia,,Düsseldorf
161.97.129.228,4,31,smartific.nl,DE,Europe,Western Europe,Germany,North Rhine-Westphalia,,Düsseldorf
38.242.219.110,4,7,smartphonesnairobi.co.ke,DE,Europe,Western Europe,Germany,North Rhine-Westphalia,,Düsseldorf
80.237.133.51,4,15,smiliegenerator.de,DE,Europe,Western Europe,Germany,North Rhine-Westphalia,,Cologne
194.163.142.119,4,1,snariad.ru,DE,Europe,Western Europe,Germany,North Rhine-Westphalia,,Düsseldorf
134.119.0.4,4,3,so-ist-soest.de,DE,Europe,Western Europe,Germany,North Rhine-Westphalia,,Cologne
194.5.152.86,4,94,soberaniaalimentaria.info,DE,Europe,Western Europe,Germany,North Rhine-Westphalia,,Düsseldorf
80.83.116.45,4,15,socialnet.de,DE,Europe,Western Europe,Germany,North Rhine-Westphalia,,Düsseldorf
80.83.126.78,4,12,socialsaloon.de,DE,Europe,Western Europe,Germany,North Rhine-Westphalia,,Düsseldorf
116.202.121.150,4,6,sofa-entsorgen-berlin.de,DE,Europe,Western Europe,Germany,North Rhine-Westphalia,,Krefeld
5.182.17.22,4,19,soft-pro.hr,DE,Europe,Western Europe,Germany,North Rhine-Westphalia,,Düsseldorf
161.97.134.34,4,8,softcenter.bi,DE,Europe,Western Europe,Germany,North Rhine-Westphalia,,Düsseldorf
75.119.148.190,4,33,softforfree.com,DE,Europe,Western Europe,Germany,North Rhine-Westphalia,,Düsseldorf
31.220.92.177,4,35,softwarelibero.it,DE,Europe,Western Europe,Germany,North Rhine-Westphalia,,Düsseldorf
87.230.60.240,4,54,solar-district-heating.eu,DE,Europe,Western Europe,Germany,North Rhine-Westphalia,,Cologne
92.204.37.43,4,23,solaranlage-ratgeber.de,DE,Europe,Western Europe,Germany,North Rhine-Westphalia,,Cologne
134.119.0.200,4,11,solidarische-landwirtschaft.org,DE,Europe,Western Europe,Germany,North Rhine-Westphalia,,Cologne
92.204.37.77,4,7,solymar-therme.de,DE,Europe,Western Europe,Germany,North Rhine-Westphalia,,Cologne
109.199.117.169,4,75,som64.site,DE,Europe,Western Europe,Germany,North Rhine-Westphalia,,Düsseldorf
134.119.0.20,4,3,somacos.de,DE,Europe,Western Europe,Germany,North Rhine-Westphalia,,Cologne
87.230.107.79,4,24,somatic-experiencing.de,DE,Europe,Western Europe,Germany,North Rhine-Westphalia,,Cologne
62.67.46.169,4,6861,sonimages.de,DE,Europe,Western Europe,Germany,North Rhine-Westphalia,,
80.70.184.176,4,29,soroptimist.de,DE,Europe,Western Europe,Germany,North Rhine-Westphalia,,Paderborn
194.163.137.231,4,30,soukeltayeb.com,DE,Europe,Western Europe,Germany,North Rhine-Westphalia,,Düsseldorf
212.20.167.71,4,-84734,sovd.de,DE,Europe,Western Europe,Germany,North Rhine-Westphalia,,Neuss
116.202.199.130,4,4,spaetzlewunder.de,DE,Europe,Western Europe,Germany,North Rhine-Westphalia,,Krefeld
134.119.0.102,4,3,splendid-research.com,DE,Europe,Western Europe,Germany,North Rhine-Westphalia,,Cologne
176.28.37.94,4,34,sport-science.org,DE,Europe,Western Europe,Germany,North Rhine-Westphalia,,Cologne
188.64.251.112,4,27,sportjugend.nrw,DE,Europe,Western Europe,Germany,North Rhine-Westphalia,,Emsdetten
83.169.25.211,4,9,spreeblick.com,DE,Europe,Western Europe,Germany,North Rhine-Westphalia,,Cologne
193.175.238.34,4,12,ssoar.info,DE,Europe,Western Europe,Germany,North Rhine-Westphalia,,Bochum
80.83.122.102,4,42,staatsoper-hamburg.de,DE,Europe,Western Europe,Germany,North Rhine-Westphalia,,Düsseldorf
87.230.104.81,4,60,stadtbranche.de,DE,Europe,Western Europe,Germany,North Rhine-Westphalia,,Cologne
176.28.38.245,4,9,stadtgeschichte-ffm.de,DE,Europe,Western Europe,Germany,North Rhine-Westphalia,,Cologne
91.184.36.194,4,182,stadthalle.de,DE,Europe,Western Europe,Germany,North Rhine-Westphalia,,Neuss
91.184.36.72,4,9,stadttheaterbremerhaven.de,DE,Europe,Western Europe,Germany,North Rhine-Westphalia,,Neuss
91.102.137.147,4,869,stawag.de,DE,Europe,Western Europe,Germany,North Rhine-Westphalia,,Aachen
89.163.245.196,4,9,steinbeis-hochschule.de,DE,Europe,Western Europe,Germany,North Rhine-Westphalia,,Düsseldorf
5.199.143.71,4,16,steinbeis.de,DE,Europe,Western Europe,Germany,North Rhine-Westphalia,,Düsseldorf
195.8.239.45,4,55,stellwerke.de,DE,Europe,Western Europe,Germany,North Rhine-Westphalia,,Wuppertal
92.204.37.151,4,8,sternundkreis.de,DE,Europe,Western Europe,Germany,North Rhine-Westphalia,,Cologne
87.230.47.241,4,34,steuern.de,DE,Europe,Western Europe,Germany,North Rhine-Westphalia,,Cologne
87.230.107.118,4,34,stiftung-naturschutz.de,DE,Europe,Western Europe,Germany,North Rhine-Westphalia,,Cologne
116.202.167.117,4,28,stjameshotelandclub.com,DE,Europe,Western Europe,Germany,North Rhine-Westphalia,,Krefeld
80.237.133.19,4,7,story-of-berlin.de,DE,Europe,Western Europe,Germany,North Rhine-Westphalia,,Cologne
83.141.20.21,4,17,stresslinux.org,DE,Europe,Western Europe,Germany,North Rhine-Westphalia,,Paderborn
116.202.121.200,4,65,strijkersforum.nl,DE,Europe,Western Europe,Germany,North Rhine-Westphalia,,Krefeld
75.119.137.143,4,56,studiopepe.info,DE,Europe,Western Europe,Germany,North Rhine-Westphalia,,Düsseldorf
80.83.126.164,4,2,suchebiete.com,DE,Europe,Western Europe,Germany,North Rhine-Westphalia,,Düsseldorf
92.204.39.20,4,7,superbude.de,DE,Europe,Western Europe,Germany,North Rhine-Westphalia,,Cologne
2.22.242.153,4,15,swarovski.com,DE,Europe,Western Europe,Germany,North Rhine-Westphalia,,Düsseldorf
38.242.215.227,4,4,syrianobserver.com,DE,Europe,Western Europe,Germany,North Rhine-Westphalia,,Düsseldorf
37.60.224.219,4,4,tadalafilum.com,DE,Europe,Western Europe,Germany,North Rhine-Westphalia,,Düsseldorf
178.18.245.195,4,25,taki.sale,DE,Europe,Western Europe,Germany,North Rhine-Westphalia,,Düsseldorf
87.230.45.199,4,22,talawas.org,DE,Europe,Western Europe,Germany,North Rhine-Westphalia,,Cologne
194.163.179.79,4,5,tampoesdeferrofundido.com.br,DE,Europe,Western Europe,Germany,North Rhine-Westphalia,,Düsseldorf
213.199.43.71,4,2,tanyadesai.in,DE,Europe,Western Europe,Germany,North Rhine-Westphalia,,Düsseldorf
134.119.0.206,4,1,tanzmesse.com,DE,Europe,Western Europe,Germany,North Rhine-Westphalia,,Cologne
87.230.104.172,4,27,taubertal-festival.de,DE,Europe,Western Europe,Germany,North Rhine-Westphalia,,Cologne
176.28.37.24,4,22,teamgeist.com,DE,Europe,Western Europe,Germany,North Rhine-Westphalia,,Cologne
83.169.27.113,4,68,techfacts.net,DE,Europe,Western Europe,Germany,North Rhine-Westphalia,,Cologne
109.199.97.212,4,9,technews.bg,DE,Europe,Western Europe,Germany,North Rhine-Westphalia,,Düsseldorf
80.237.132.27,4,59,techotronic.de,DE,Europe,Western Europe,Germany,North Rhine-Westphalia,,Cologne
116.202.167.113,4,45,techtag.de,DE,Europe,Western Europe,Germany,North Rhine-Westphalia,,Krefeld
80.83.113.102,4,-371,teebohne.de,DE,Europe,Western Europe,Germany,North Rhine-Westphalia,,Düsseldorf
88.221.110.10,4,16,telemundodeportes.com,DE,Europe,Western Europe,Germany,North Rhine-Westphalia,,Düsseldorf
88.221.110.33,4,7,telemundodeportes.com,DE,Europe,Western Europe,Germany,North Rhine-Westphalia,,Düsseldorf
62.67.46.162,4,115,telgte.de,DE,Europe,Western Europe,Germany,North Rhine-Westphalia,,
80.237.132.125,4,61,termine-in.de,DE,Europe,Western Europe,Germany,North Rhine-Westphalia,,Cologne
184.174.32.101,4,29,territorioscriativos.pt,DE,Europe,Western Europe,Germany,North Rhine-Westphalia,,Düsseldorf
134.147.51.60,4,59,testdaf.de,DE,Europe,Western Europe,Germany,North Rhine-Westphalia,,Bochum
161.97.146.154,4,6,texdoc.org,DE,Europe,Western Europe,Germany,North Rhine-Westphalia,,Düsseldorf
178.77.80.43,4,8,theaterderzeit.de,DE,Europe,Western Europe,Germany,North Rhine-Westphalia,,Cologne
134.119.0.38,4,10,thebeeroness.com,DE,Europe,Western Europe,Germany,North Rhine-Westphalia,,Cologne
134.119.0.23,4,3,theblueshield.org,DE,Europe,Western Europe,Germany,North Rhine-Westphalia,,Cologne
194.163.156.67,4,37,thebrandstore.pk,DE,Europe,Western Europe,Germany,North Rhine-Westphalia,,Düsseldorf
38.242.154.8,4,0,thecanarynews.com,DE,Europe,Western Europe,Germany,North Rhine-Westphalia,,Düsseldorf
217.76.52.21,4,5,thecashdeal.trade,DE,Europe,Western Europe,Germany,North Rhine-Westphalia,,Düsseldorf
158.220.108.219,4,8,theconfidentteacher.com,DE,Europe,Western Europe,Germany,North Rhine-Westphalia,,Düsseldorf
161.97.142.249,4,123,theimitationgamemovie.com,DE,Europe,Western Europe,Germany,North Rhine-Westphalia,,Düsseldorf
185.197.195.131,4,22,themedguru.com,DE,Europe,Western Europe,Germany,North Rhine-Westphalia,,Düsseldorf
176.28.37.19,4,7,themezee.com,DE,Europe,Western Europe,Germany,North Rhine-Westphalia,,Cologne
161.97.181.215,4,4,thesecretskinsociety.com,DE,Europe,Western Europe,Germany,North Rhine-Westphalia,,Düsseldorf
194.163.135.82,4,7,thessaloniki.travel,DE,Europe,Western Europe,Germany,North Rhine-Westphalia,,Düsseldorf
161.97.143.82,4,14,thokbikes.com,DE,Europe,Western Europe,Germany,North Rhine-Westphalia,,Düsseldorf
185.137.122.242,4,46,thomaskeith.school,DE,Europe,Western Europe,Germany,North Rhine-Westphalia,,Düsseldorf
134.119.0.229,4,28,tieraerzteverband.de,DE,Europe,Western Europe,Germany,North Rhine-Westphalia,,Cologne
134.119.0.202,4,3,tieranzeigen.at,DE,Europe,Western Europe,Germany,North Rhine-Westphalia,,Cologne
176.28.38.99,4,14,tierklinik-hofheim.de,DE,Europe,Western Europe,Germany,North Rhine-Westphalia,,Cologne
72.247.154.184,4,7,tiktokglobalshop.com,DE,Europe,Western Europe,Germany,North Rhine-Westphalia,,Düsseldorf
72.247.154.147,4,18,tiktokglobalshop.com,DE,Europe,Western Europe,Germany,North Rhine-Westphalia,,Düsseldorf
38.242.251.94,4,44,tilvids.com,DE,Europe,Western Europe,Germany,North Rhine-Westphalia,,Düsseldorf
184.174.33.134,4,2,timetrackapp.com,DE,Europe,Western Europe,Germany,North Rhine-Westphalia,,Düsseldorf
194.94.209.18,4,15,tls-tautenburg.de,DE,Europe,Western Europe,Germany,North Rhine-Westphalia,,Bonn
2.17.22.58,4,18,tods.com,DE,Europe,Western Europe,Germany,North Rhine-Westphalia,,Düsseldorf
2.17.22.34,4,16,tods.com,DE,Europe,Western Europe,Germany,North Rhine-Westphalia,,Düsseldorf
75.119.148.210,4,3,togopresse.tg,DE,Europe,Western Europe,Germany,North Rhine-Westphalia,,Düsseldorf
84.46.251.89,4,33,tootfinder.ch,DE,Europe,Western Europe,Germany,North Rhine-Westphalia,,Düsseldorf
116.202.120.165,4,6,torproject.net,DE,Europe,Western Europe,Germany,North Rhine-Westphalia,,Krefeld
116.202.120.166,4,20,torproject.net,DE,Europe,Western Europe,Germany,North Rhine-Westphalia,,Krefeld
134.119.0.133,4,2,tourentipp.de,DE,Europe,Western Europe,Germany,North Rhine-Westphalia,,Cologne
62.169.29.84,4,6,tr2gaming.com,DE,Europe,Western Europe,Germany,North Rhine-Westphalia,,Düsseldorf
62.84.183.255,4,10,trackersbd.com,DE,Europe,Western Europe,Germany,North Rhine-Westphalia,,Düsseldorf
149.102.139.236,4,26,trickeri.org,DE,Europe,Western Europe,Germany,North Rhine-Westphalia,,Düsseldorf
80.83.113.226,4,10,trierer-weihnachtsmarkt.de,DE,Europe,Western Europe,Germany,North Rhine-Westphalia,,Düsseldorf
194.163.179.174,4,8,trillium.de,DE,Europe,Western Europe,Germany,North Rhine-Westphalia,,Düsseldorf
38.242.255.202,4,13,tripcombined.com,DE,Europe,Western Europe,Germany,North Rhine-Westphalia,,Düsseldorf
84.247.183.26,4,9,tripodauto.com,DE,Europe,Western Europe,Germany,North Rhine-Westphalia,,Düsseldorf
157.173.105.181,4,6,tripplanner.ae,DE,Europe,Western Europe,Germany,North Rhine-Westphalia,,Düsseldorf
91.102.137.149,4,867,troisdorf.de,DE,Europe,Western Europe,Germany,North Rhine-Westphalia,,Aachen
217.76.63.62,4,8,truyenhinhcapsongthu.net,DE,Europe,Western Europe,Germany,North Rhine-Westphalia,,Düsseldorf
38.242.146.125,4,13,tubeislam.com,DE,Europe,Western Europe,Germany,North Rhine-Westphalia,,Düsseldorf
31.220.77.250,4,9,turan.az,DE,Europe,Western Europe,Germany,North Rhine-Westphalia,,Düsseldorf
37.60.246.118,4,4,tutorialink.com,DE,Europe,Western Europe,Germany,North Rhine-Westphalia,,Düsseldorf
45.94.209.184,4,4,tutorsonspot.com,DE,Europe,Western Europe,Germany,North Rhine-Westphalia,,Düsseldorf
134.119.0.22,4,7,tuttlingen.de,DE,Europe,Western Europe,Germany,North Rhine-Westphalia,,Cologne
80.82.223.198,4,627,ueckermuende.de,DE,Europe,Western Europe,Germany,North Rhine-Westphalia,,Cologne
38.242.222.171,4,16,uitkijk.nl,DE,Europe,Western Europe,Germany,North Rhine-Westphalia,,Düsseldorf
89.1.69.214,4,2,ukbonn.de,DE,Europe,Western Europe,Germany,North Rhine-Westphalia,,Cologne
80.237.133.14,4,5,umax.de,DE,Europe,Western Europe,Germany,North Rhine-Westphalia,,Cologne
185.239.208.72,4,18,unae.edu.py,DE,Europe,Western Europe,Germany,North Rhine-Westphalia,,Düsseldorf
38.242.238.162,4,5,une.edu.ve,DE,Europe,Western Europe,Germany,North Rhine-Westphalia,,Düsseldorf
104.115.82.25,4,13,unicreditbank.rs,DE,Europe,Western Europe,Germany,North Rhine-Westphalia,,Düsseldorf
104.115.82.16,4,38,unicreditbank.rs,DE,Europe,Western Europe,Germany,North Rhine-Westphalia,,Düsseldorf
23.197.8.76,4,10,unicreditgroup.eu,DE,Europe,Western Europe,Germany,North Rhine-Westphalia,,Düsseldorf
62.112.80.13,4,15,union-zeughaus.de,DE,Europe,Western Europe,Germany,North Rhine-Westphalia,,Roetgen
134.119.0.30,4,15,unterhaching.de,DE,Europe,Western Europe,Germany,North Rhine-Westphalia,,Cologne
176.28.39.82,4,7,unternimm-die-zukunft.de,DE,Europe,Western Europe,Germany,North Rhine-Westphalia,,Cologne
185.217.125.95,4,2,upel.edu.ve,DE,Europe,Western Europe,Germany,North Rhine-Westphalia,,Düsseldorf
87.230.107.133,4,13,upload-magazin.de,DE,Europe,Western Europe,Germany,North Rhine-Westphalia,,Cologne
87.230.47.247,4,8,usa-kulinarisch.de,DE,Europe,Western Europe,Germany,North Rhine-Westphalia,,Cologne
80.83.125.111,4,3,usadellab.org,DE,Europe,Western Europe,Germany,North Rhine-Westphalia,,Düsseldorf
38.242.231.53,4,4,usebitcoins.info,DE,Europe,Western Europe,Germany,North Rhine-Westphalia,,Düsseldorf
161.97.143.219,4,19,utip.io,DE,Europe,Western Europe,Germany,North Rhine-Westphalia,,Düsseldorf
185.239.208.20,4,8,uvsechcertu.com,DE,Europe,Western Europe,Germany,North Rhine-Westphalia,,Düsseldorf
134.119.0.170,4,18,vah-online.de,DE,Europe,Western Europe,Germany,North Rhine-Westphalia,,Cologne
178.77.85.76,4,20,vegan.at,DE,Europe,Western Europe,Germany,North Rhine-Westphalia,,Cologne
62.67.46.160,4,-4122,verden.de,DE,Europe,Western Europe,Germany,North Rhine-Westphalia,,
212.20.161.1,4,396,verkehr.nrw,DE,Europe,Western Europe,Germany,North Rhine-Westphalia,,Neuss
87.230.60.157,4,32,versicherungsjournal.de,DE,Europe,Western Europe,Germany,North Rhine-Westphalia,,Cologne
87.230.60.41,4,53,vias.org,DE,Europe,Western Europe,Germany,North Rhine-Westphalia,,Cologne
188.64.251.116,4,13,vibss.de,DE,Europe,Western Europe,Germany,North Rhine-Westphalia,,Emsdetten
83.169.30.1,4,32,vindobona.org,DE,Europe,Western Europe,Germany,North Rhine-Westphalia,,Cologne
80.83.113.70,4,43,virtualhosts.de,DE,Europe,Western Europe,Germany,North Rhine-Westphalia,,Düsseldorf
104.119.109.27,4,15,vive.com,DE,Europe,Western Europe,Germany,North Rhine-Westphalia,,Düsseldorf
87.230.43.108,4,8,vlc.de,DE,Europe,Western Europe,Germany,North Rhine-Westphalia,,Cologne
156.67.30.123,4,-6,vliigts.com,DE,Europe,Western Europe,Germany,North Rhine-Westphalia,,Düsseldorf
45.14.194.223,4,51,vmaxleclub.com,DE,Europe,Western Europe,Germany,North Rhine-Westphalia,,Düsseldorf
91.102.137.97,4,868,votemanager.de,DE,Europe,Western Europe,Germany,North Rhine-Westphalia,,Aachen
185.197.251.16,4,32,vriendenplek.nl,DE,Europe,Western Europe,Germany,North Rhine-Westphalia,,Düsseldorf
38.242.206.83,4,4,vzr.nl,DE,Europe,Western Europe,Germany,North Rhine-Westphalia,,Düsseldorf
134.119.0.141,4,19,w-hs.de,DE,Europe,Western Europe,Germany,North Rhine-Westphalia,,Cologne
134.119.0.42,4,13,waiblingen.de,DE,Europe,Western Europe,Germany,North Rhine-Westphalia,,Cologne
83.169.28.255,4,10,waizmanntabelle.de,DE,Europe,Western Europe,Germany,North Rhine-Westphalia,,Cologne
75.119.134.183,4,6,wakeupuganda.org,DE,Europe,Western Europe,Germany,North Rhine-Westphalia,,Düsseldorf
134.119.0.41,4,8,wallduern.de,DE,Europe,Western Europe,Germany,North Rhine-Westphalia,,Cologne
178.18.255.146,4,35,waocp.org,DE,Europe,Western Europe,Germany,North Rhine-Westphalia,,Düsseldorf
134.119.0.190,4,6,watergate.tv,DE,Europe,Western Europe,Germany,North Rhine-Westphalia,,Cologne
92.204.37.160,4,13,weberweb.com,DE,Europe,Western Europe,Germany,North Rhine-Westphalia,,Cologne
92.204.37.124,4,9,weblication.de,DE,Europe,Western Europe,Germany,North Rhine-Westphalia,,Cologne
31.220.89.162,4,30,weboworld.com,DE,Europe,Western Europe,Germany,North Rhine-Westphalia,,Düsseldorf
178.77.86.113,4,15,wecanhelp.de,DE,Europe,Western Europe,Germany,North Rhine-Westphalia,,Cologne
134.119.0.32,4,7,weinstadt.de,DE,Europe,Western Europe,Germany,North Rhine-Westphalia,,Cologne
213.164.159.9,4,10,weiterbildungsberatung.nrw,DE,Europe,Western Europe,Germany,North Rhine-Westphalia,,Düsseldorf
92.204.37.182,4,17,weiterstadt.de,DE,Europe,Western Europe,Germany,North Rhine-Westphalia,,Cologne
134.119.0.215,4,16,welcome-hotels.com,DE,Europe,Western Europe,Germany,North Rhine-Westphalia,,Cologne
84.247.143.194,4,2,wendland-net.de,DE,Europe,Western Europe,Germany,North Rhine-Westphalia,,Düsseldorf
87.230.41.73,4,10,werkhaus.de,DE,Europe,Western Europe,Germany,North Rhine-Westphalia,,Cologne
185.41.57.136,4,4945,wermelskirchen.de,DE,Europe,Western Europe,Germany,North Rhine-Westphalia,,Balve
134.119.0.108,4,3,werne.de,DE,Europe,Western Europe,Germany,North Rhine-Westphalia,,Cologne
116.202.199.129,4,5,westfalia.de,DE,Europe,Western Europe,Germany,North Rhine-Westphalia,,Krefeld
87.230.60.63,4,-1,wfbb.de,DE,Europe,Western Europe,Germany,North Rhine-Westphalia,,Cologne
185.215.165.18,4,1,whatchats.com,DE,Europe,Western Europe,Germany,North Rhine-Westphalia,,Düsseldorf
75.119.148.193,4,4,wheesung.com,DE,Europe,Western Europe,Germany,North Rhine-Westphalia,,Düsseldorf
84.247.142.213,4,6,whiskeyforsaleonline.com,DE,Europe,Western Europe,Germany,North Rhine-Westphalia,,Düsseldorf
2.17.22.179,4,13,whitecase.com,DE,Europe,Western Europe,Germany,North Rhine-Westphalia,,Düsseldorf
2.17.22.161,4,9,whitecase.com,DE,Europe,Western Europe,Germany,North Rhine-Westphalia,,Düsseldorf
83.171.249.8,4,6,whosaroundtown.com,DE,Europe,Western Europe,Germany,North Rhine-Westphalia,,Düsseldorf
185.109.180.60,4,3,wibitsports.com,DE,Europe,Western Europe,Germany,North Rhine-Westphalia,,Bocholt
161.97.157.84,4,17,wievielekalorien.de,DE,Europe,Western Europe,Germany,North Rhine-Westphalia,,Düsseldorf
91.184.36.253,4,3,wildundhund.de,DE,Europe,Western Europe,Germany,North Rhine-Westphalia,,Neuss
176.28.32.75,4,18,win-tipps-tweaks.de,DE,Europe,Western Europe,Germany,North Rhine-Westphalia,,Cologne
212.47.65.201,4,38,windows8downloads.com,DE,Europe,Western Europe,Germany,North Rhine-Westphalia,,Düsseldorf
161.97.165.12,4,13,wineart24.com,DE,Europe,Western Europe,Germany,North Rhine-Westphalia,,Düsseldorf
176.28.33.104,4,17,winheller.com,DE,Europe,Western Europe,Germany,North Rhine-Westphalia,,Cologne
62.67.46.157,4,-70,winsen.de,DE,Europe,Western Europe,Germany,North Rhine-Westphalia,,
80.82.223.250,4,30,witten.de,DE,Europe,Western Europe,Germany,North Rhine-Westphalia,,Cologne
195.138.34.194,4,1461,wittenberg.de,DE,Europe,Western Europe,Germany,North Rhine-Westphalia,,Dortmund
80.82.223.190,4,-36,wittmund.de,DE,Europe,Western Europe,Germany,North Rhine-Westphalia,,Cologne
87.230.106.85,4,10,wiwi-online.de,DE,Europe,Western Europe,Germany,North Rhine-Westphalia,,Cologne
87.230.43.225,4,50,woche-fuer-das-leben.de,DE,Europe,Western Europe,Germany,North Rhine-Westphalia,,Cologne
94.250.203.158,4,43,wochenblatt.es,DE,Europe,Western Europe,Germany,North Rhine-Westphalia,,Düsseldorf
92.204.37.104,4,30,wodtke.com,DE,Europe,Western Europe,Germany,North Rhine-Westphalia,,Cologne
157.173.100.80,4,4,wolinet.com,DE,Europe,Western Europe,Germany,North Rhine-Westphalia,,Düsseldorf
2.58.82.169,4,3,workerman.com,DE,Europe,Western Europe,Germany,North Rhine-Westphalia,,Düsseldorf
176.28.33.79,4,20,worlddata.info,DE,Europe,Western Europe,Germany,North Rhine-Westphalia,,Cologne
194.163.187.117,4,3,worldfreeclassifiedads.com,DE,Europe,Western Europe,Germany,North Rhine-Westphalia,,Düsseldorf
83.169.25.92,4,8,worldmapper.org,DE,Europe,Western Europe,Germany,North Rhine-Westphalia,,Cologne
134.119.0.100,4,15,worms.de,DE,Europe,Western Europe,Germany,North Rhine-Westphalia,,Cologne
77.237.247.134,4,16,wosgroup.com,DE,Europe,Western Europe,Germany,North Rhine-Westphalia,,Düsseldorf
213.240.144.201,4,-44,wtal.de,DE,Europe,Western Europe,Germany,North Rhine-Westphalia,,Wuppertal
134.119.0.221,4,5,wuehltischwelpen.de,DE,Europe,Western Europe,Germany,North Rhine-Westphalia,,Cologne
91.102.136.240,4,3,wuerselen.de,DE,Europe,Western Europe,Germany,North Rhine-Westphalia,,Aachen
80.82.223.240,4,-83,wunstorf.de,DE,Europe,Western Europe,Germany,North Rhine-Westphalia,,Cologne
80.237.133.68,4,4,wutang-corp.com,DE,Europe,Western Europe,Germany,North Rhine-Westphalia,,Cologne
161.97.166.133,4,2,xarakter.kz,DE,Europe,Western Europe,Germany,North Rhine-Westphalia,,Düsseldorf
134.94.32.103,4,58,xn--grndungsstipendium-n6b.nrw,DE,Europe,Western Europe,Germany,North Rhine-Westphalia,,Frechen
161.97.161.238,4,2,xtutti.com,DE,Europe,Western Europe,Germany,North Rhine-Westphalia,,Düsseldorf
80.237.133.190,4,2,yash-international.com,DE,Europe,Western Europe,Germany,North Rhine-Westphalia,,Cologne
109.123.244.218,4,470,ycdo.org.pk,DE,Europe,Western Europe,Germany,North Rhine-Westphalia,,Düsseldorf
87.230.46.139,4,8,yeezy350.de,DE,Europe,Western Europe,Germany,North Rhine-Westphalia,,Cologne
91.228.53.85,4,3,yhrd.org,DE,Europe,Western Europe,Germany,North Rhine-Westphalia,,Düsseldorf
75.119.143.131,4,4,yoikiguide.com,DE,Europe,Western Europe,Germany,North Rhine-Westphalia,,Düsseldorf
109.199.111.1,4,39,youbeats.net,DE,Europe,Western Europe,Germany,North Rhine-Westphalia,,Düsseldorf
75.119.155.28,4,17,yourcharteryacht.com,DE,Europe,Western Europe,Germany,North Rhine-Westphalia,,Düsseldorf
194.163.168.120,4,33,zahvat.ru,DE,Europe,Western Europe,Germany,North Rhine-Westphalia,,Düsseldorf
185.239.208.81,4,14,zetafonts.com,DE,Europe,Western Europe,Germany,North Rhine-Westphalia,,Düsseldorf
87.230.106.142,4,9,zoe-delay.de,DE,Europe,Western Europe,Germany,North Rhine-Westphalia,,Cologne
78.31.67.89,4,0,zplatformu.com,DE,Europe,Western Europe,Germany,North Rhine-Westphalia,,Düsseldorf
83.169.30.175,4,8,zs-antikeuhren.de,DE,Europe,Western Europe,Germany,North Rhine-Westphalia,,Cologne
116.202.123.71,4,4,zynthian.org,DE,Europe,Western Europe,Germany,North Rhine-Westphalia,,Krefeld
