reflector_ip,ip_version,offset,description,country_code,region,sub_region,country_name,sub_division_1,sub_division_2,city
145.239.2.3,4,6,011info.com,DE,Europe,Western Europe,Germany,Hesse,,Frankfurt am Main
128.65.211.214,4,4,11freunde.de,DE,Europe,Western Europe,Germany,Hesse,,Frankfurt am Main
206.81.24.246,4,3,1302super.com,DE,Europe,Western Europe,Germany,Hesse,,Frankfurt am Main
164.92.191.212,4,6,18000.com.ua,DE,Europe,Western Europe,Germany,Hesse,,Frankfurt am Main
185.131.52.41,4,4,1917.com,DE,Europe,Western Europe,Germany,Hesse,,Frankfurt am Main
51.89.23.150,4,6,23.nu,DE,Europe,Western Europe,Germany,Hesse,,Limburg an der Lahn
163.171.156.61,4,5,3000.com,DE,Europe,Western Europe,Germany,Hesse,,Frankfurt am Main
139.162.178.215,4,5,420budsuk.com,DE,Europe,Western Europe,Germany,Hesse,,Frankfurt am Main
188.166.164.138,4,5,42crunch.com,DE,Europe,Western Europe,Germany,Hesse,,Frankfurt am Main
18.193.121.93,4,4,50five.com,DE,Europe,Western Europe,Germany,Hesse,,Frankfurt am Main
92.118.9.134,4,4,51wangluo.net,DE,Europe,Western Europe,Germany,Hesse,,Frankfurt am Main
31.172.73.76,4,4,5mod.ru,DE,Europe,Western Europe,Germany,Hesse,,Frankfurt am Main
172.104.159.198,4,4,5vie.it,DE,Europe,Western Europe,Germany,Hesse,,Frankfurt am Main
91.228.152.170,4,5,7010001.ru,DE,Europe,Western Europe,Germany,Hesse,,Frankfurt am Main
164.92.178.108,4,5,7arusak-diploms.com,DE,Europe,Western Europe,Germany,Hesse,,Frankfurt am Main
138.113.219.42,4,4,95516.com,DE,Europe,Western Europe,Germany,Hesse,,Frankfurt am Main
80.240.16.3,4,4,a2-finance.com,DE,Europe,Western Europe,Germany,Hesse,,Frankfurt am Main
195.34.182.132,4,4,aareal-bank.com,DE,Europe,Western Europe,Germany,Hesse,,Frankfurt am Main
18.198.128.164,4,4,ab-in-den-urlaub.de,DE,Europe,Western Europe,Germany,Hesse,,Frankfurt am Main
5.187.1.121,4,4,abastudio.org,DE,Europe,Western Europe,Germany,Hesse,,Frankfurt am Main
138.201.211.251,4,6,abruzzo24ore.tv,DE,Europe,Western Europe,Germany,Hesse,,Frankfurt am Main
3.120.54.86,4,5,acninternational.org,DE,Europe,Western Europe,Germany,Hesse,,Frankfurt am Main
18.196.175.73,4,26,acninternational.org,DE,Europe,Western Europe,Germany,Hesse,,Frankfurt am Main
18.184.44.41,4,32,acninternational.org,DE,Europe,Western Europe,Germany,Hesse,,Frankfurt am Main
46.101.163.117,4,68,acquamood.it,DE,Europe,Western Europe,Germany,Hesse,,Frankfurt am Main
138.201.1.56,4,5,acquisa.de,DE,Europe,Western Europe,Germany,Hesse,,Frankfurt am Main
193.107.20.45,4,7,adach.de,DE,Europe,Western Europe,Germany,Hesse,,Frankfurt am Main
184.86.103.202,4,14,adaniports.com,DE,Europe,Western Europe,Germany,Hesse,,Frankfurt am Main
184.86.103.208,4,12,adaniports.com,DE,Europe,Western Europe,Germany,Hesse,,Frankfurt am Main
85.195.76.86,4,43,admixer.net,DE,Europe,Western Europe,Germany,Hesse,,Frankfurt am Main
66.22.61.37,4,8,aeroportodinapoli.it,DE,Europe,Western Europe,Germany,Hesse,,Frankfurt am Main
66.22.33.2,4,38,aeroportosalerno.it,DE,Europe,Western Europe,Germany,Hesse,,Frankfurt am Main
78.159.122.46,4,42,af.org.sa,DE,Europe,Western Europe,Germany,Hesse,,Wöllstadt
57.129.13.70,4,14,affarinternazionali.it,DE,Europe,Western Europe,Germany,Hesse,,Frankfurt am Main
185.17.120.24,4,43,affiliatebiz.ru,DE,Europe,Western Europe,Germany,Hesse,,Frankfurt am Main
139.162.169.45,4,4,africaoilandpower.com,DE,Europe,Western Europe,Germany,Hesse,,Frankfurt am Main
35.156.245.245,4,71,agence-france-electricite.fr,DE,Europe,Western Europe,Germany,Hesse,,Frankfurt am Main
192.250.229.100,4,100,agiazoni.gr,DE,Europe,Western Europe,Germany,Hesse,,Frankfurt am Main
35.207.97.37,4,6,aimseducation.edu,DE,Europe,Western Europe,Germany,Hesse,,Frankfurt am Main
104.207.131.170,4,12,airablenow.com,DE,Europe,Western Europe,Germany,Hesse,,Frankfurt am Main
18.156.189.39,4,63,aiseesoft.de,DE,Europe,Western Europe,Germany,Hesse,,Frankfurt am Main
62.26.12.195,4,180,akkuline.de,DE,Europe,Western Europe,Germany,Hesse,,Giessen
164.92.244.58,4,101,alacritty.org,DE,Europe,Western Europe,Germany,Hesse,,Frankfurt am Main
68.183.218.144,4,3,alanniaresorts.com,DE,Europe,Western Europe,Germany,Hesse,,Frankfurt am Main
138.201.161.143,4,-11023,alertify.eu,DE,Europe,Western Europe,Germany,Hesse,,Frankfurt am Main
50.2.62.138,4,5,alhyipmonitors.com,DE,Europe,Western Europe,Germany,Hesse,,Frankfurt am Main
172.105.246.213,4,799,alithia.gr,DE,Europe,Western Europe,Germany,Hesse,,Frankfurt am Main
35.242.212.51,4,108,aliva.de,DE,Europe,Western Europe,Germany,Hesse,,Frankfurt am Main
138.201.145.20,4,150,alive-ag.de,DE,Europe,Western Europe,Germany,Hesse,,Frankfurt am Main
142.93.109.225,4,113,all-smm.com,DE,Europe,Western Europe,Germany,Hesse,,Frankfurt am Main
35.246.154.4,4,47,almadapaper.net,DE,Europe,Western Europe,Germany,Hesse,,Frankfurt am Main
139.162.139.147,4,2,almogaz.com,DE,Europe,Western Europe,Germany,Hesse,,Frankfurt am Main
92.113.20.142,4,5,alssareh.com,DE,Europe,Western Europe,Germany,Hesse,,Frankfurt am Main
172.105.74.85,4,1424,alssunnah.com,DE,Europe,Western Europe,Germany,Hesse,,Frankfurt am Main
164.92.175.39,4,106,ama.it,DE,Europe,Western Europe,Germany,Hesse,,Frankfurt am Main
52.29.252.113,4,6,amazingoriental.com,DE,Europe,Western Europe,Germany,Hesse,,Frankfurt am Main
206.189.60.194,4,3,amazingplaces.cz,DE,Europe,Western Europe,Germany,Hesse,,Frankfurt am Main
64.226.97.247,4,3,americadailypost.com,DE,Europe,Western Europe,Germany,Hesse,,Frankfurt am Main
23.212.221.34,4,8,americanexpress.com,DE,Europe,Western Europe,Germany,Hesse,,Frankfurt am Main
185.17.121.7,4,6,amk-team.ru,DE,Europe,Western Europe,Germany,Hesse,,Frankfurt am Main
50.2.36.29,4,-17,amrdiab.net,DE,Europe,Western Europe,Germany,Hesse,,Frankfurt am Main
66.22.34.26,4,13,amv.es,DE,Europe,Western Europe,Germany,Hesse,,Frankfurt am Main
188.166.163.207,4,7,anadea.info,DE,Europe,Western Europe,Germany,Hesse,,Frankfurt am Main
46.101.122.189,4,44,anima.dk,DE,Europe,Western Europe,Germany,Hesse,,Frankfurt am Main
172.105.249.173,4,4,ankermann.com,DE,Europe,Western Europe,Germany,Hesse,,Frankfurt am Main
172.104.143.169,4,18,annalsgastro.gr,DE,Europe,Western Europe,Germany,Hesse,,Frankfurt am Main
141.95.107.163,4,29,antmedia.io,DE,Europe,Western Europe,Germany,Hesse,,Limburg an der Lahn
128.65.209.25,4,3,anton.app,DE,Europe,Western Europe,Germany,Hesse,,Frankfurt am Main
159.89.19.50,4,5,anwaltblog24.de,DE,Europe,Western Europe,Germany,Hesse,,Frankfurt am Main
185.17.121.14,4,4,ap-pro.ru,DE,Europe,Western Europe,Germany,Hesse,,Frankfurt am Main
85.90.247.201,4,12,apestaart.org,DE,Europe,Western Europe,Germany,Hesse,,Frankfurt am Main
139.162.161.198,4,5,apestaart.org,DE,Europe,Western Europe,Germany,Hesse,,Frankfurt am Main
66.22.32.117,4,5,aphp.fr,DE,Europe,Western Europe,Germany,Hesse,,Frankfurt am Main
142.93.174.218,4,5,apisecurity.io,DE,Europe,Western Europe,Germany,Hesse,,Frankfurt am Main
5.187.5.175,4,3,apiworld.ru,DE,Europe,Western Europe,Germany,Hesse,,Frankfurt am Main
138.201.228.91,4,6,apropos-store.com,DE,Europe,Western Europe,Germany,Hesse,,Frankfurt am Main
206.81.17.93,4,27,aqua-cloud.io,DE,Europe,Western Europe,Germany,Hesse,,Frankfurt am Main
172.104.245.174,4,10,arab-hdr.org,DE,Europe,Western Europe,Germany,Hesse,,Frankfurt am Main
167.99.249.58,4,148,arabhardware.net,DE,Europe,Western Europe,Germany,Hesse,,Frankfurt am Main
139.162.151.206,4,123,arambartholl.com,DE,Europe,Western Europe,Germany,Hesse,,Frankfurt am Main
35.246.174.110,4,24,aranyoldalak.hu,DE,Europe,Western Europe,Germany,Hesse,,Frankfurt am Main
172.104.132.240,4,114,archaeologicalmuseums.gr,DE,Europe,Western Europe,Germany,Hesse,,Frankfurt am Main
143.244.205.76,4,7,archiverapp.com,DE,Europe,Western Europe,Germany,Hesse,,Frankfurt am Main
172.105.245.212,4,15,arenawaterinstinct.com,DE,Europe,Western Europe,Germany,Hesse,,Frankfurt am Main
206.189.52.97,4,6,argo.cz,DE,Europe,Western Europe,Germany,Hesse,,Frankfurt am Main
139.162.130.178,4,3,ariiyatickets.com,DE,Europe,Western Europe,Germany,Hesse,,Frankfurt am Main
165.22.86.150,4,17,armenia2041.org,DE,Europe,Western Europe,Germany,Hesse,,Frankfurt am Main
89.40.126.113,4,930,armtown.com,DE,Europe,Western Europe,Germany,Hesse,,Frankfurt am Main
193.32.221.74,4,107,armut-und-gesundheit.de,DE,Europe,Western Europe,Germany,Hesse,,Frankfurt am Main
139.162.141.84,4,63,artilleriet.se,DE,Europe,Western Europe,Germany,Hesse,,Frankfurt am Main
170.187.186.158,4,73,artline.ro,DE,Europe,Western Europe,Germany,Hesse,,Frankfurt am Main
3.66.226.13,4,11,arzamas.academy,DE,Europe,Western Europe,Germany,Hesse,,Frankfurt am Main
18.197.209.74,4,40,ashampoo.com,DE,Europe,Western Europe,Germany,Hesse,,Frankfurt am Main
35.156.59.153,4,4,asknet.de,DE,Europe,Western Europe,Germany,Hesse,,Frankfurt am Main
3.124.111.109,4,4,asknet.de,DE,Europe,Western Europe,Germany,Hesse,,Frankfurt am Main
194.195.244.223,4,11,associazionedimorestoricheitaliane.it,DE,Europe,Western Europe,Germany,Hesse,,Frankfurt am Main
134.122.87.212,4,83,ast-diplom.com,DE,Europe,Western Europe,Germany,Hesse,,Frankfurt am Main
138.68.89.117,4,54,astroforyou.ru,DE,Europe,Western Europe,Germany,Hesse,,Frankfurt am Main
95.179.254.154,4,4,asyabahis.org,DE,Europe,Western Europe,Germany,Hesse,,Frankfurt am Main
5.187.7.68,4,18,ateism.ru,DE,Europe,Western Europe,Germany,Hesse,,Frankfurt am Main
66.22.34.125,4,23,atm.cat,DE,Europe,Western Europe,Germany,Hesse,,Frankfurt am Main
139.59.140.93,4,8,atmos.eu,DE,Europe,Western Europe,Germany,Hesse,,Frankfurt am Main
172.104.245.157,4,25,atomikos.com,DE,Europe,Western Europe,Germany,Hesse,,Frankfurt am Main
2.17.184.67,4,39,audichyamatrimony.com,DE,Europe,Western Europe,Germany,Hesse,,Frankfurt am Main
3.74.39.116,4,24,auping.com,DE,Europe,Western Europe,Germany,Hesse,,Frankfurt am Main
138.201.145.24,4,31,aus-meinem-kochtopf.de,DE,Europe,Western Europe,Germany,Hesse,,Frankfurt am Main
167.71.43.176,4,3,austrianindependent.com,DE,Europe,Western Europe,Germany,Hesse,,Frankfurt am Main
172.104.133.47,4,439,autismodiario.org,DE,Europe,Western Europe,Germany,Hesse,,Frankfurt am Main
91.228.154.70,4,31,autocenter.uz,DE,Europe,Western Europe,Germany,Hesse,,Frankfurt am Main
18.194.251.88,4,57,autoservice.com,DE,Europe,Western Europe,Germany,Hesse,,Frankfurt am Main
5.187.1.46,4,41,avidreaders.ru,DE,Europe,Western Europe,Germany,Hesse,,Frankfurt am Main
52.28.21.156,4,77,avogel.ch,DE,Europe,Western Europe,Germany,Hesse,,Frankfurt am Main
2.18.64.20,4,28,avon.ro,DE,Europe,Western Europe,Germany,Hesse,,Frankfurt am Main
159.89.213.112,4,4,avtozvuk.com,DE,Europe,Western Europe,Germany,Hesse,,Frankfurt am Main
164.90.190.124,4,-1,axelera.org,DE,Europe,Western Europe,Germany,Hesse,,Frankfurt am Main
18.195.158.231,4,18,axsmarine.com,DE,Europe,Western Europe,Germany,Hesse,,Frankfurt am Main
66.22.39.8,4,13,ayalon-ins.co.il,DE,Europe,Western Europe,Germany,Hesse,,Frankfurt am Main
91.228.155.204,4,26,azariny.ru,DE,Europe,Western Europe,Germany,Hesse,,Frankfurt am Main
68.183.218.140,4,2,azartnews.com,DE,Europe,Western Europe,Germany,Hesse,,Frankfurt am Main
35.198.66.58,4,4,azimutbenetti.com,DE,Europe,Western Europe,Germany,Hesse,,Frankfurt am Main
34.159.226.48,4,4,azimutyachts.com,DE,Europe,Western Europe,Germany,Hesse,,Frankfurt am Main
35.234.95.222,4,4,azure.org.il,DE,Europe,Western Europe,Germany,Hesse,,Frankfurt am Main
148.153.35.66,4,-346,b23.tv,DE,Europe,Western Europe,Germany,Hesse,,Frankfurt am Main
148.153.34.154,4,-297,b23.tv,DE,Europe,Western Europe,Germany,Hesse,,Frankfurt am Main
46.101.200.9,4,11,baango.net,DE,Europe,Western Europe,Germany,Hesse,,Frankfurt am Main
50.3.17.207,4,6918,baaraplus.com,DE,Europe,Western Europe,Germany,Hesse,,Frankfurt am Main
3.77.247.23,4,94,babynamen.nl,DE,Europe,Western Europe,Germany,Hesse,,Frankfurt am Main
3.68.145.214,4,72,babynamen.nl,DE,Europe,Western Europe,Germany,Hesse,,Frankfurt am Main
3.121.62.194,4,36,babynamen.nl,DE,Europe,Western Europe,Germany,Hesse,,Frankfurt am Main
212.218.193.246,4,910,bad-hersfeld.de,DE,Europe,Western Europe,Germany,Hesse,,Hünfeld
64.225.101.248,4,19,balbu.eu,DE,Europe,Western Europe,Germany,Hesse,,Frankfurt am Main
64.225.97.80,4,3,balkangreenenergynews.com,DE,Europe,Western Europe,Germany,Hesse,,Frankfurt am Main
23.201.247.76,4,99,ballarddesigns.com,DE,Europe,Western Europe,Germany,Hesse,,Frankfurt am Main
194.233.168.209,4,4,baltpapirs.lv,DE,Europe,Western Europe,Germany,Hesse,,Frankfurt am Main
66.22.35.28,4,32,bancobpm.it,DE,Europe,Western Europe,Germany,Hesse,,Frankfurt am Main
128.65.211.41,4,2,bandel-online.de,DE,Europe,Western Europe,Germany,Hesse,,Frankfurt am Main
141.226.253.224,4,44,bankid.com,DE,Europe,Western Europe,Germany,Hesse,,Frankfurt am Main
139.162.188.16,4,8,baptistkirken.dk,DE,Europe,Western Europe,Germany,Hesse,,Frankfurt am Main
45.79.250.124,4,20,barcodeegypt.com,DE,Europe,Western Europe,Germany,Hesse,,Frankfurt am Main
139.59.151.172,4,74510,barrisol.com,DE,Europe,Western Europe,Germany,Hesse,,Frankfurt am Main
185.226.172.84,4,16,basketsession.com,DE,Europe,Western Europe,Germany,Hesse,,Frankfurt am Main
138.68.115.225,4,5,bastl-instruments.com,DE,Europe,Western Europe,Germany,Hesse,,Frankfurt am Main
5.1.80.133,4,45,bauernhof.net,DE,Europe,Western Europe,Germany,Hesse,,Frankfurt am Main
45.95.16.12,4,5,bazi20.com,DE,Europe,Western Europe,Germany,Hesse,,Frankfurt am Main
161.35.209.133,4,39,bdva.ru,DE,Europe,Western Europe,Germany,Hesse,,Frankfurt am Main
172.105.82.77,4,3,beallslist.net,DE,Europe,Western Europe,Germany,Hesse,,Frankfurt am Main
46.101.104.30,4,3,beberlei.de,DE,Europe,Western Europe,Germany,Hesse,,Frankfurt am Main
130.61.89.153,4,17,becker-antriebe.com,DE,Europe,Western Europe,Germany,Hesse,,Frankfurt am Main
139.162.167.54,4,9,bedca.net,DE,Europe,Western Europe,Germany,Hesse,,Frankfurt am Main
52.58.20.218,4,80,beeckestijn.org,DE,Europe,Western Europe,Germany,Hesse,,Frankfurt am Main
8.209.74.97,4,2,beikelogistics.com,DE,Europe,Western Europe,Germany,Hesse,,Frankfurt am Main
178.128.195.129,4,15,belnovosti.by,DE,Europe,Western Europe,Germany,Hesse,,Frankfurt am Main
139.59.213.252,4,3,bem.info,DE,Europe,Western Europe,Germany,Hesse,,Frankfurt am Main
161.35.30.247,4,2,bench.co.il,DE,Europe,Western Europe,Germany,Hesse,,Frankfurt am Main
66.22.32.164,4,5,benenden.co.uk,DE,Europe,Western Europe,Germany,Hesse,,Frankfurt am Main
66.22.33.11,4,35,benendenhospital.org.uk,DE,Europe,Western Europe,Germany,Hesse,,Frankfurt am Main
34.159.68.97,4,4,benettiyachts.it,DE,Europe,Western Europe,Germany,Hesse,,Frankfurt am Main
35.246.214.2,4,21,bergerfoundation.ch,DE,Europe,Western Europe,Germany,Hesse,,Frankfurt am Main
46.101.98.136,4,6,berocket.com,DE,Europe,Western Europe,Germany,Hesse,,Frankfurt am Main
35.246.175.191,4,24,beronet.com,DE,Europe,Western Europe,Germany,Hesse,,Frankfurt am Main
139.59.208.114,4,17,bet-rate.top,DE,Europe,Western Europe,Germany,Hesse,,Frankfurt am Main
139.162.182.38,4,7,betrugstest.com,DE,Europe,Western Europe,Germany,Hesse,,Frankfurt am Main
46.101.114.46,4,7,bettilt-tr.info,DE,Europe,Western Europe,Germany,Hesse,,Frankfurt am Main
128.65.209.69,4,3,beuth.de,DE,Europe,Western Europe,Germany,Hesse,,Frankfurt am Main
3.121.17.168,4,5,bezstavy.cz,DE,Europe,Western Europe,Germany,Hesse,,Frankfurt am Main
46.101.143.43,4,2,bfz.hu,DE,Europe,Western Europe,Germany,Hesse,,Frankfurt am Main
128.65.211.50,4,3,bgbl.de,DE,Europe,Western Europe,Germany,Hesse,,Frankfurt am Main
23.36.238.181,4,6,bharatmatrimony.com,DE,Europe,Western Europe,Germany,Hesse,,Frankfurt am Main
164.90.164.29,4,97,bicesterheritage.co.uk,DE,Europe,Western Europe,Germany,Hesse,,Frankfurt am Main
104.248.32.14,4,18,bienaldolivro.com.br,DE,Europe,Western Europe,Germany,Hesse,,Frankfurt am Main
144.76.215.231,4,3,bienen.ch,DE,Europe,Western Europe,Germany,Hesse,,Hüttenberg
18.159.134.108,4,5,biganto.com,DE,Europe,Western Europe,Germany,Hesse,,Frankfurt am Main
164.92.224.251,4,6,bigelow.org,DE,Europe,Western Europe,Germany,Hesse,,Frankfurt am Main
164.90.105.97,4,6,bigo.sg,DE,Europe,Western Europe,Germany,Hesse,,Frankfurt am Main
164.90.105.128,4,5,bigo.sg,DE,Europe,Western Europe,Germany,Hesse,,Frankfurt am Main
164.90.105.123,4,11,bigo.tv,DE,Europe,Western Europe,Germany,Hesse,,Frankfurt am Main
164.90.105.152,4,45,bigo.tv,DE,Europe,Western Europe,Germany,Hesse,,Frankfurt am Main
128.65.209.110,4,5,bijou-brigitte.com,DE,Europe,Western Europe,Germany,Hesse,,Frankfurt am Main
18.194.224.233,4,44,bike-components.de,DE,Europe,Western Europe,Germany,Hesse,,Frankfurt am Main
159.65.122.85,4,26,biletik.aero,DE,Europe,Western Europe,Germany,Hesse,,Frankfurt am Main
66.22.39.154,4,66,bipdrive.com,DE,Europe,Western Europe,Germany,Hesse,,Frankfurt am Main
104.248.242.34,4,35,bitcoinplus.org,DE,Europe,Western Europe,Germany,Hesse,,Frankfurt am Main
18.196.51.27,4,3,biznesfinder.pl,DE,Europe,Western Europe,Germany,Hesse,,Frankfurt am Main
3.66.153.62,4,4,biznesfinder.pl,DE,Europe,Western Europe,Germany,Hesse,,Frankfurt am Main
3.66.174.199,4,85,blackview.hk,DE,Europe,Western Europe,Germany,Hesse,,Frankfurt am Main
23.45.97.132,4,15,bloomingdales.com,DE,Europe,Western Europe,Germany,Hesse,,Frankfurt am Main
3.121.89.79,4,66,bluebay-curacao.com,DE,Europe,Western Europe,Germany,Hesse,,Frankfurt am Main
172.104.130.80,4,42,bmwclub.lv,DE,Europe,Western Europe,Germany,Hesse,,Frankfurt am Main
50.3.171.13,4,-31162,bnhtzcj.com,DE,Europe,Western Europe,Germany,Hesse,,Frankfurt am Main
213.221.82.227,4,6,boesner.com,DE,Europe,Western Europe,Germany,Hesse,,Dietzenbach
139.162.147.252,4,5,boldmonday.com,DE,Europe,Western Europe,Germany,Hesse,,Frankfurt am Main
139.59.159.97,4,54,bookcitymilano.it,DE,Europe,Western Europe,Germany,Hesse,,Frankfurt am Main
164.92.237.194,4,1,boomerang.dk,DE,Europe,Western Europe,Germany,Hesse,,Frankfurt am Main
162.19.170.8,4,29,borderline24.com,DE,Europe,Western Europe,Germany,Hesse,,Frankfurt am Main
46.101.132.48,4,32,borderviolence.eu,DE,Europe,Western Europe,Germany,Hesse,,Frankfurt am Main
46.101.254.87,4,29,borobudurpark.com,DE,Europe,Western Europe,Germany,Hesse,,Frankfurt am Main
67.207.73.232,4,27,borsainside.com,DE,Europe,Western Europe,Germany,Hesse,,Frankfurt am Main
139.162.140.127,4,4,botnation.ai,DE,Europe,Western Europe,Germany,Hesse,,Frankfurt am Main
52.59.91.13,4,8,boutique-box-internet.fr,DE,Europe,Western Europe,Germany,Hesse,,Frankfurt am Main
92.113.20.157,4,4,boxie24.com,DE,Europe,Western Europe,Germany,Hesse,,Frankfurt am Main
46.101.195.123,4,94,breakdev.org,DE,Europe,Western Europe,Germany,Hesse,,Frankfurt am Main
209.250.232.134,4,11,bricksforge.io,DE,Europe,Western Europe,Germany,Hesse,,Frankfurt am Main
52.29.117.78,4,18,bringmeister.de,DE,Europe,Western Europe,Germany,Hesse,,Frankfurt am Main
3.121.9.83,4,20,bringmeister.de,DE,Europe,Western Europe,Germany,Hesse,,Frankfurt am Main
3.73.208.155,4,4,bringmeister.de,DE,Europe,Western Europe,Germany,Hesse,,Frankfurt am Main
157.230.77.29,4,21,britishmilitaryhistory.co.uk,DE,Europe,Western Europe,Germany,Hesse,,Frankfurt am Main
161.35.74.88,4,42,broker-bewertungen.de,DE,Europe,Western Europe,Germany,Hesse,,Frankfurt am Main
146.70.118.226,4,9,brokercomplaintalert.com,DE,Europe,Western Europe,Germany,Hesse,,Frankfurt am Main
128.65.210.107,4,3,bsw-vg.de,DE,Europe,Western Europe,Germany,Hesse,,Frankfurt am Main
66.22.39.110,4,9,bta.lv,DE,Europe,Western Europe,Germany,Hesse,,Frankfurt am Main
213.95.215.82,4,37,buchreport.de,DE,Europe,Western Europe,Germany,Hesse,,Rüsselsheim am Main
172.104.240.184,4,31,budsforbuddies.com,DE,Europe,Western Europe,Germany,Hesse,,Frankfurt am Main
212.224.112.66,4,22,bugdesign.com.ua,DE,Europe,Western Europe,Germany,Hesse,,Frankfurt am Main
165.227.172.39,4,40,bukmekerskie-kontory.bet,DE,Europe,Western Europe,Germany,Hesse,,Frankfurt am Main
34.159.12.224,4,46,bura.hu,DE,Europe,Western Europe,Germany,Hesse,,Frankfurt am Main
50.2.62.139,4,5,buyzithromaxinf.com,DE,Europe,Western Europe,Germany,Hesse,,Frankfurt am Main
128.65.209.23,4,2,bvg.de,DE,Europe,Western Europe,Germany,Hesse,,Frankfurt am Main
3.124.231.171,4,4,bwi.de,DE,Europe,Western Europe,Germany,Hesse,,Frankfurt am Main
212.224.112.28,4,4,byaki.net,DE,Europe,Western Europe,Germany,Hesse,,Frankfurt am Main
18.193.154.21,4,2,byborre.com,DE,Europe,Western Europe,Germany,Hesse,,Frankfurt am Main
3.121.147.152,4,3,byborre.com,DE,Europe,Western Europe,Germany,Hesse,,Frankfurt am Main
18.195.228.189,4,4,byborre.com,DE,Europe,Western Europe,Germany,Hesse,,Frankfurt am Main
194.233.168.254,4,6,bymath.net,DE,Europe,Western Europe,Germany,Hesse,,Frankfurt am Main
128.65.210.18,4,3,bystronic.com,DE,Europe,Western Europe,Germany,Hesse,,Frankfurt am Main
2.16.10.178,4,21,caboodleai.net,DE,Europe,Western Europe,Germany,Hesse,,Frankfurt am Main
138.201.24.134,4,5,cafeeinstein.com,DE,Europe,Western Europe,Germany,Hesse,,Frankfurt am Main
18.158.222.36,4,7,cafeweltschmerz.nl,DE,Europe,Western Europe,Germany,Hesse,,Frankfurt am Main
47.91.75.129,4,3,caiyunapp.com,DE,Europe,Western Europe,Germany,Hesse,,Frankfurt am Main
139.162.178.233,4,57,caliban.org,DE,Europe,Western Europe,Germany,Hesse,,Frankfurt am Main
35.158.225.137,4,43,call-a-pizza.de,DE,Europe,Western Europe,Germany,Hesse,,Frankfurt am Main
18.197.36.188,4,14,call-a-pizza.de,DE,Europe,Western Europe,Germany,Hesse,,Frankfurt am Main
52.58.45.31,4,51,call-a-pizza.de,DE,Europe,Western Europe,Germany,Hesse,,Frankfurt am Main
18.197.4.94,4,24,call-a-pizza.de,DE,Europe,Western Europe,Germany,Hesse,,Frankfurt am Main
138.68.79.36,4,5,callfilter.app,DE,Europe,Western Europe,Germany,Hesse,,Frankfurt am Main
18.198.146.183,4,14,camina-schmid.de,DE,Europe,Western Europe,Germany,Hesse,,Frankfurt am Main
23.48.23.163,4,12,camperdays.de,DE,Europe,Western Europe,Germany,Hesse,,Frankfurt am Main
23.48.23.192,4,16,camperdays.de,DE,Europe,Western Europe,Germany,Hesse,,Frankfurt am Main
139.162.172.10,4,32,camping-adriatic.com,DE,Europe,Western Europe,Germany,Hesse,,Frankfurt am Main
18.157.69.99,4,8,campingnavigator.com,DE,Europe,Western Europe,Germany,Hesse,,Frankfurt am Main
35.158.70.103,4,18,campingnavigator.com,DE,Europe,Western Europe,Germany,Hesse,,Frankfurt am Main
18.196.162.49,4,32,campingnavigator.com,DE,Europe,Western Europe,Germany,Hesse,,Frankfurt am Main
34.141.100.56,4,5,campz.fr,DE,Europe,Western Europe,Germany,Hesse,,Frankfurt am Main
194.195.242.237,4,39,canatura.com,DE,Europe,Western Europe,Germany,Hesse,,Frankfurt am Main
68.183.215.99,4,19,cancerworld.net,DE,Europe,Western Europe,Germany,Hesse,,Frankfurt am Main
139.162.163.163,4,11,canoe.tv,DE,Europe,Western Europe,Germany,Hesse,,Frankfurt am Main
46.101.235.20,4,7,capmoderne.com,DE,Europe,Western Europe,Germany,Hesse,,Frankfurt am Main
2.16.168.5,4,15,carigami.fr,DE,Europe,Western Europe,Germany,Hesse,,Frankfurt am Main
2.16.168.4,4,10,carigami.fr,DE,Europe,Western Europe,Germany,Hesse,,Frankfurt am Main
18.159.244.123,4,65,carpetright.nl,DE,Europe,Western Europe,Germany,Hesse,,Frankfurt am Main
46.101.204.228,4,30,casinohouse.dk,DE,Europe,Western Europe,Germany,Hesse,,Frankfurt am Main
128.65.210.223,4,2,cdg.ac.at,DE,Europe,Western Europe,Germany,Hesse,,Frankfurt am Main
139.162.181.15,4,8,cdn-upgates.com,DE,Europe,Western Europe,Germany,Hesse,,Frankfurt am Main
134.209.237.32,4,26,cedema.org,DE,Europe,Western Europe,Germany,Hesse,,Frankfurt am Main
138.197.185.53,4,34,cedos.org.ua,DE,Europe,Western Europe,Germany,Hesse,,Frankfurt am Main
51.38.125.116,4,10,cenie.eu,DE,Europe,Western Europe,Germany,Hesse,,Limburg an der Lahn
141.226.253.8,4,6,centra.ie,DE,Europe,Western Europe,Germany,Hesse,,Frankfurt am Main
164.92.186.247,4,4,cesvot.it,DE,Europe,Western Europe,Germany,Hesse,,Frankfurt am Main
46.101.100.7,4,3,cfenollosa.com,DE,Europe,Western Europe,Germany,Hesse,,Frankfurt am Main
3.68.9.132,4,3,ch-aviation.com,DE,Europe,Western Europe,Germany,Hesse,,Frankfurt am Main
207.154.198.97,4,10,chamonix.net,DE,Europe,Western Europe,Germany,Hesse,,Frankfurt am Main
66.22.61.223,4,8,chancellors.co.uk,DE,Europe,Western Europe,Germany,Hesse,,Frankfurt am Main
207.154.213.78,4,2,changedyslexia.org,DE,Europe,Western Europe,Germany,Hesse,,Frankfurt am Main
46.101.152.14,4,2006089,chef.com.ua,DE,Europe,Western Europe,Germany,Hesse,,Frankfurt am Main
2.58.66.220,4,4,china-iphone.ru,DE,Europe,Western Europe,Germany,Hesse,,Frankfurt am Main
45.79.249.119,4,1518,chios.gr,DE,Europe,Western Europe,Germany,Hesse,,Frankfurt am Main
50.2.124.150,4,5,chirojuice.com,DE,Europe,Western Europe,Germany,Hesse,,Frankfurt am Main
128.65.209.101,4,3,christiani.de,DE,Europe,Western Europe,Germany,Hesse,,Frankfurt am Main
47.254.153.68,4,4,chronoengine.com,DE,Europe,Western Europe,Germany,Hesse,,Frankfurt am Main
212.224.112.176,4,4,chronologia.org,DE,Europe,Western Europe,Germany,Hesse,,Frankfurt am Main
159.89.14.60,4,5,chronos-verlag.ch,DE,Europe,Western Europe,Germany,Hesse,,Frankfurt am Main
139.162.141.174,4,8,cid-portal.org,DE,Europe,Western Europe,Germany,Hesse,,Frankfurt am Main
5.1.78.211,4,-76280,cinque.de,DE,Europe,Western Europe,Germany,Hesse,,Frankfurt am Main
34.89.177.235,4,19,circuit.com,DE,Europe,Western Europe,Germany,Hesse,,Frankfurt am Main
139.162.151.17,4,54,citycenterone.hr,DE,Europe,Western Europe,Germany,Hesse,,Frankfurt am Main
46.101.209.126,4,60,civic.am,DE,Europe,Western Europe,Germany,Hesse,,Frankfurt am Main
64.226.118.252,4,3,civilwararchive.com,DE,Europe,Western Europe,Germany,Hesse,,Frankfurt am Main
103.43.118.76,4,32,clacker.com.au,DE,Europe,Western Europe,Germany,Hesse,,Frankfurt am Main
157.245.25.91,4,5,classicpraha.cz,DE,Europe,Western Europe,Germany,Hesse,,Frankfurt am Main
35.198.89.214,4,25,classicrock.net,DE,Europe,Western Europe,Germany,Hesse,,Frankfurt am Main
207.154.229.220,4,45,classtize.com,DE,Europe,Western Europe,Germany,Hesse,,Frankfurt am Main
52.29.205.139,4,10,cloudconvert.org,DE,Europe,Western Europe,Germany,Hesse,,Frankfurt am Main
18.194.82.165,4,29,cloudconvert.org,DE,Europe,Western Europe,Germany,Hesse,,Frankfurt am Main
3.64.153.36,4,4,cloudconvert.org,DE,Europe,Western Europe,Germany,Hesse,,Frankfurt am Main
57.129.22.18,4,5,cloudimg.io,DE,Europe,Western Europe,Germany,Hesse,,Frankfurt am Main
43.157.40.70,4,3,cnlishuai.com,DE,Europe,Western Europe,Germany,Hesse,,Frankfurt am Main
172.105.84.95,4,4,co2-udledning.dk,DE,Europe,Western Europe,Germany,Hesse,,Frankfurt am Main
172.105.146.158,4,8,codenames.game,DE,Europe,Western Europe,Germany,Hesse,,Frankfurt am Main
172.104.255.183,4,4,codenames.game,DE,Europe,Western Europe,Germany,Hesse,,Frankfurt am Main
143.42.222.62,4,2,codenames.game,DE,Europe,Western Europe,Germany,Hesse,,Frankfurt am Main
192.46.238.183,4,2,codenames.game,DE,Europe,Western Europe,Germany,Hesse,,Frankfurt am Main
143.42.222.70,4,3,codenames.game,DE,Europe,Western Europe,Germany,Hesse,,Frankfurt am Main
194.195.247.201,4,4,codenames.game,DE,Europe,Western Europe,Germany,Hesse,,Frankfurt am Main
143.42.222.44,4,3,codenames.game,DE,Europe,Western Europe,Germany,Hesse,,Frankfurt am Main
139.144.161.223,4,5,codenames.game,DE,Europe,Western Europe,Germany,Hesse,,Frankfurt am Main
5.187.6.41,4,3,coinspaidmedia.com,DE,Europe,Western Europe,Germany,Hesse,,Frankfurt am Main
104.102.58.227,4,5,collegecovered.com,DE,Europe,Western Europe,Germany,Hesse,,Frankfurt am Main
192.248.178.77,4,5,colorizeit.com,DE,Europe,Western Europe,Germany,Hesse,,Frankfurt am Main
172.104.128.64,4,4,coloursofus.com,DE,Europe,Western Europe,Germany,Hesse,,Frankfurt am Main
46.101.168.245,4,27,comfort.se,DE,Europe,Western Europe,Germany,Hesse,,Frankfurt am Main
18.194.82.106,4,3,companias-de-luz.com,DE,Europe,Western Europe,Germany,Hesse,,Frankfurt am Main
207.154.249.19,4,54,compress-or-die.com,DE,Europe,Western Europe,Germany,Hesse,,Frankfurt am Main
172.104.151.248,4,4,computta.com,DE,Europe,Western Europe,Germany,Hesse,,Frankfurt am Main
157.230.119.105,4,-3,comunicazioneitaliana.it,DE,Europe,Western Europe,Germany,Hesse,,Frankfurt am Main
172.105.84.145,4,135,consolware.com,DE,Europe,Western Europe,Germany,Hesse,,Frankfurt am Main
159.89.101.88,4,24,conspiracywatch.info,DE,Europe,Western Europe,Germany,Hesse,,Frankfurt am Main
77.72.18.79,4,3,content-spinning.fr,DE,Europe,Western Europe,Germany,Hesse,,Frankfurt am Main
138.201.240.8,4,5,converve.com,DE,Europe,Western Europe,Germany,Hesse,,Frankfurt am Main
139.162.142.232,4,15,coordonnees-gps.fr,DE,Europe,Western Europe,Germany,Hesse,,Frankfurt am Main
161.35.69.216,4,1,copenhagen2021.com,DE,Europe,Western Europe,Germany,Hesse,,Frankfurt am Main
136.244.81.69,4,6,copy.sh,DE,Europe,Western Europe,Germany,Hesse,,Frankfurt am Main
172.104.253.94,4,17,corneliani.com,DE,Europe,Western Europe,Germany,Hesse,,Frankfurt am Main
139.144.74.171,4,60,corpina.com,DE,Europe,Western Europe,Germany,Hesse,,Frankfurt am Main
35.198.88.67,4,67,corporate-rebels.com,DE,Europe,Western Europe,Germany,Hesse,,Frankfurt am Main
35.156.118.107,4,52,cosaporto.it,DE,Europe,Western Europe,Germany,Hesse,,Frankfurt am Main
46.101.117.34,4,11,cost.ua,DE,Europe,Western Europe,Germany,Hesse,,Frankfurt am Main
104.75.89.67,4,71,costcophotocenter.com,DE,Europe,Western Europe,Germany,Hesse,,Frankfurt am Main
92.123.150.10,4,68,costcotravel.com,DE,Europe,Western Europe,Germany,Hesse,,Frankfurt am Main
192.250.229.39,4,6,cougarsdatingwebsites.com,DE,Europe,Western Europe,Germany,Hesse,,Frankfurt am Main
172.105.89.81,4,26,creamailer.fi,DE,Europe,Western Europe,Germany,Hesse,,Frankfurt am Main
192.250.229.19,4,24,createsplashpages.com,DE,Europe,Western Europe,Germany,Hesse,,Frankfurt am Main
172.104.133.65,4,34,crevalor-reviews.com,DE,Europe,Western Europe,Germany,Hesse,,Frankfurt am Main
91.228.154.140,4,5,crimea-portal.info,DE,Europe,Western Europe,Germany,Hesse,,Frankfurt am Main
35.198.157.223,4,4,crlab.com,DE,Europe,Western Europe,Germany,Hesse,,Frankfurt am Main
139.162.141.72,4,10,cronacacomune.it,DE,Europe,Western Europe,Germany,Hesse,,Frankfurt am Main
91.228.153.128,4,8,cryptogid.org,DE,Europe,Western Europe,Germany,Hesse,,Frankfurt am Main
94.23.164.13,4,7,crztaxi.com,DE,Europe,Western Europe,Germany,Hesse,,Limburg an der Lahn
193.32.223.131,4,5,csu-landtag.de,DE,Europe,Western Europe,Germany,Hesse,,Frankfurt am Main
162.19.139.144,4,4,ctp.eu,DE,Europe,Western Europe,Germany,Hesse,,Limburg an der Lahn
172.104.148.85,4,4,customwheelsdirect.net,DE,Europe,Western Europe,Germany,Hesse,,Frankfurt am Main
46.101.232.199,4,74,cutcorner.com.ua,DE,Europe,Western Europe,Germany,Hesse,,Frankfurt am Main
192.250.229.37,4,6,cutespupsforsale.com,DE,Europe,Western Europe,Germany,Hesse,,Frankfurt am Main
23.201.243.214,4,6,cvsspecialty.com,DE,Europe,Western Europe,Germany,Hesse,,Frankfurt am Main
194.99.21.79,4,4,cyber-sport.io,DE,Europe,Western Europe,Germany,Hesse,,Frankfurt am Main
165.227.246.193,4,18,cyber.wtf,DE,Europe,Western Europe,Germany,Hesse,,Frankfurt am Main
68.183.74.35,4,28,cyberfight.ru,DE,Europe,Western Europe,Germany,Hesse,,Frankfurt am Main
82.207.175.205,4,5,cylex-tudakozo.hu,DE,Europe,Western Europe,Germany,Hesse,,Frankfurt am Main
82.207.175.207,4,3,cylex-usa.com,DE,Europe,Western Europe,Germany,Hesse,,Frankfurt am Main
82.207.175.178,4,3,cylex.ca,DE,Europe,Western Europe,Germany,Hesse,,Frankfurt am Main
82.207.175.212,4,3,cylex.pl,DE,Europe,Western Europe,Germany,Hesse,,Frankfurt am Main
52.57.125.249,4,4,cz-museums.cz,DE,Europe,Western Europe,Germany,Hesse,,Frankfurt am Main
172.104.141.207,4,4,cztenis.cz,DE,Europe,Western Europe,Germany,Hesse,,Frankfurt am Main
50.2.167.3,4,14047,daherc.com,DE,Europe,Western Europe,Germany,Hesse,,Frankfurt am Main
138.201.228.124,4,56,dahlercompany.com,DE,Europe,Western Europe,Germany,Hesse,,Frankfurt am Main
46.101.117.111,4,25,dasfilter.com,DE,Europe,Western Europe,Germany,Hesse,,Frankfurt am Main
139.162.140.253,4,3,data.gov.ie,DE,Europe,Western Europe,Germany,Hesse,,Frankfurt am Main
64.225.103.43,4,7,dataroom-review.com,DE,Europe,Western Europe,Germany,Hesse,,Frankfurt am Main
164.90.242.189,4,7,datatrans.ch,DE,Europe,Western Europe,Germany,Hesse,,Frankfurt am Main
217.114.216.23,4,17,davidpuente.it,DE,Europe,Western Europe,Germany,Hesse,,Eppstein
50.2.202.126,4,-504,daynn-machinery.com,DE,Europe,Western Europe,Germany,Hesse,,Frankfurt am Main
138.68.113.130,4,3,daysy.me,DE,Europe,Western Europe,Germany,Hesse,,Frankfurt am Main
134.209.252.82,4,4,ddraum.de,DE,Europe,Western Europe,Germany,Hesse,,Frankfurt am Main
139.162.153.196,4,8,debianizzati.org,DE,Europe,Western Europe,Germany,Hesse,,Frankfurt am Main
167.99.129.72,4,51,debuggable.com,DE,Europe,Western Europe,Germany,Hesse,,Frankfurt am Main
57.129.49.4,4,4,decobazaar.com,DE,Europe,Western Europe,Germany,Hesse,,Frankfurt am Main
52.29.112.136,4,56,decorrespondent.nl,DE,Europe,Western Europe,Germany,Hesse,,Frankfurt am Main
199.247.18.111,4,91,decred.org,DE,Europe,Western Europe,Germany,Hesse,,Frankfurt am Main
194.233.170.167,4,6,degrowth.info,DE,Europe,Western Europe,Germany,Hesse,,Frankfurt am Main
5.252.102.2,4,16,deinserverhost.de,DE,Europe,Western Europe,Germany,Hesse,,Frankfurt am Main
207.154.202.219,4,41,dejuistezorgopdejuisteplek.nl,DE,Europe,Western Europe,Germany,Hesse,,Frankfurt am Main
172.105.68.68,4,11,dengine.net,DE,Europe,Western Europe,Germany,Hesse,,Frankfurt am Main
157.245.27.246,4,8,dennemeyer.com,DE,Europe,Western Europe,Germany,Hesse,,Frankfurt am Main
164.92.176.68,4,140,derosa.it,DE,Europe,Western Europe,Germany,Hesse,,Frankfurt am Main
194.25.236.107,4,53,deutschefotothek.de,DE,Europe,Western Europe,Germany,Hesse,,Dillenburg
165.22.85.237,4,148,deutz-fahr.com,DE,Europe,Western Europe,Germany,Hesse,,Frankfurt am Main
18.192.252.23,4,6,dezim-institut.de,DE,Europe,Western Europe,Germany,Hesse,,Frankfurt am Main
138.201.240.28,4,4,dg-pflegewissenschaft.de,DE,Europe,Western Europe,Germany,Hesse,,Frankfurt am Main
128.65.211.116,4,2,dictum.com,DE,Europe,Western Europe,Germany,Hesse,,Frankfurt am Main
50.2.251.226,4,4,didao360.com,DE,Europe,Western Europe,Germany,Hesse,,Frankfurt am Main
46.19.210.143,4,8,didww.com,DE,Europe,Western Europe,Germany,Hesse,,Frankfurt am Main
46.19.210.145,4,28,didww.com,DE,Europe,Western Europe,Germany,Hesse,,Frankfurt am Main
89.45.227.53,4,-3,digitale-gesellschaft.ch,DE,Europe,Western Europe,Germany,Hesse,,Frankfurt am Main
138.201.149.29,4,26,digitalphoto.de,DE,Europe,Western Europe,Germany,Hesse,,Frankfurt am Main
213.95.215.85,4,43,digitalproduction.com,DE,Europe,Western Europe,Germany,Hesse,,Rüsselsheim am Main
128.65.210.179,4,4,din.de,DE,Europe,Western Europe,Germany,Hesse,,Frankfurt am Main
159.89.4.84,4,74,diploms-asx.com,DE,Europe,Western Europe,Germany,Hesse,,Frankfurt am Main
207.154.225.142,4,3,diplomvam.ru,DE,Europe,Western Europe,Germany,Hesse,,Frankfurt am Main
164.92.193.198,4,15,diplomy-services.com,DE,Europe,Western Europe,Germany,Hesse,,Frankfurt am Main
18.157.65.230,4,6,disc-soft.com,DE,Europe,Western Europe,Germany,Hesse,,Frankfurt am Main
18.185.196.72,4,5,disc-soft.com,DE,Europe,Western Europe,Germany,Hesse,,Frankfurt am Main
104.102.58.204,4,3,discover.com,DE,Europe,Western Europe,Germany,Hesse,,Frankfurt am Main
104.75.90.8,4,16,discoverfinancial.com,DE,Europe,Western Europe,Germany,Hesse,,Frankfurt am Main
167.172.161.3,4,2,disk-tools.com,DE,Europe,Western Europe,Germany,Hesse,,Frankfurt am Main
146.75.122.132,4,3,distractify.com,DE,Europe,Western Europe,Germany,Hesse,,Frankfurt am Main
139.59.210.149,4,8,diveworld.nl,DE,Europe,Western Europe,Germany,Hesse,,Frankfurt am Main
50.2.202.132,4,-502,djk01.com,DE,Europe,Western Europe,Germany,Hesse,,Frankfurt am Main
207.154.215.116,4,3,dkb-handball-bundesliga.de,DE,Europe,Western Europe,Germany,Hesse,,Frankfurt am Main
52.28.210.217,4,5,dmexco.com,DE,Europe,Western Europe,Germany,Hesse,,Frankfurt am Main
52.59.69.195,4,3,dmexco.com,DE,Europe,Western Europe,Germany,Hesse,,Frankfurt am Main
64.226.98.150,4,14,dmitryfrank.com,DE,Europe,Western Europe,Germany,Hesse,,Frankfurt am Main
23.37.43.187,4,20,dnbi.com,DE,Europe,Western Europe,Germany,Hesse,,Frankfurt am Main
2.58.66.156,4,29,dnews7.com,DE,Europe,Western Europe,Germany,Hesse,,Frankfurt am Main
139.162.135.196,4,33,DNS Server: 139-162-135-196.ip.linodeusercontent.com,DE,Europe,Western Europe,Germany,Hesse,,Frankfurt am Main
140.82.32.86,4,73,DNS Server: 140.82.32.86.vultr.com,DE,Europe,Western Europe,Germany,Hesse,,Frankfurt am Main
172.104.237.140,4,173,DNS Server: 172-104-237-140.ip.linodeusercontent.com,DE,Europe,Western Europe,Germany,Hesse,,Frankfurt am Main
192.248.191.138,4,5,DNS Server: 192.248.191.138.vultrusercontent.com,DE,Europe,Western Europe,Germany,Hesse,,Frankfurt am Main
5.187.1.107,4,1862,DNS Server: 215215.fornex.cloud,DE,Europe,Western Europe,Germany,Hesse,,Frankfurt am Main
45.32.152.158,4,121,DNS Server: 45.32.152.158.vultr.com,DE,Europe,Western Europe,Germany,Hesse,,Frankfurt am Main
80.240.21.21,4,4,DNS Server: 80.240.21.21.vultrusercontent.com,DE,Europe,Western Europe,Germany,Hesse,,Frankfurt am Main
80.240.26.135,4,8341,DNS Server: 80.240.26.135.vultrusercontent.com,DE,Europe,Western Europe,Germany,Hesse,,Frankfurt am Main
91.200.103.41,4,141,DNS Server: austriacraft.at,DE,Europe,Western Europe,Germany,Hesse,,Frankfurt am Main
68.183.221.141,4,59,DNS Server: cecula.com,DE,Europe,Western Europe,Germany,Hesse,,Frankfurt am Main
62.96.176.55,4,3,DNS Server: cpede_ger001321.ia.colt.net,DE,Europe,Western Europe,Germany,Hesse,,Frankfurt am Main
2.207.170.66,4,-4873,DNS Server: dslb-002-207-170-066.002.207.pools.vodafone-ip.de,DE,Europe,Western Europe,Germany,Hesse,,Oberursel
18.194.9.80,4,21,DNS Server: ec2-18-194-9-80.eu-central-1.compute.amazonaws.com,DE,Europe,Western Europe,Germany,Hesse,,Frankfurt am Main
35.156.198.226,4,33,DNS Server: ec2-35-156-198-226.eu-central-1.compute.amazonaws.com,DE,Europe,Western Europe,Germany,Hesse,,Frankfurt am Main
54.93.173.153,4,92,DNS Server: ec2-54-93-173-153.eu-central-1.compute.amazonaws.com,DE,Europe,Western Europe,Germany,Hesse,,Frankfurt am Main
86.105.51.124,4,4,DNS Server: host124-51-105-86.static.arubacloud.de,DE,Europe,Western Europe,Germany,Hesse,,Frankfurt am Main
94.177.228.191,4,3,DNS Server: host191-228-177-94.static.arubacloud.de,DE,Europe,Western Europe,Germany,Hesse,,Frankfurt am Main
91.227.40.160,4,21,DNS Server: ip-91-227-40-160-73977.vps.hosted-by-mvps.net,DE,Europe,Western Europe,Germany,Hesse,,Frankfurt am Main
51.38.121.211,4,32,DNS Server: ip211.ip-51-38-121.eu,DE,Europe,Western Europe,Germany,Hesse,,Limburg an der Lahn
172.104.233.51,4,362,DNS Server: li1809-51.members.linode.com,DE,Europe,Western Europe,Germany,Hesse,,Frankfurt am Main
46.23.72.103,4,126,DNS Server: ns2.corenoc.com,DE,Europe,Western Europe,Germany,Hesse,,Frankfurt am Main
135.125.233.140,4,151,DNS Server: nt-services.tk,DE,Europe,Western Europe,Germany,Hesse,,Limburg an der Lahn
93.240.186.18,4,107,DNS Server: overath-gmbh.dyndns.org,DE,Europe,Western Europe,Germany,Hesse,,Ober-Ramstadt
80.151.11.49,4,-2072,DNS Server: p50970b31.dip0.t-ipconnect.de,DE,Europe,Western Europe,Germany,Hesse,,Bad Homburg
130.83.186.163,4,329,DNS Server: proj035.sit.informatik.tu-darmstadt.de,DE,Europe,Western Europe,Germany,Hesse,,Darmstadt
83.229.85.175,4,100,DNS Server: rvvfl.surf,DE,Europe,Western Europe,Germany,Hesse,,Frankfurt am Main
193.111.248.189,4,386,DNS Server: tube-hosting.com,DE,Europe,Western Europe,Germany,Hesse,,Frankfurt am Main
94.131.109.242,4,266,DNS Server: vm726700.stark-industries.solutions,DE,Europe,Western Europe,Germany,Hesse,,Frankfurt am Main
159.89.1.191,4,87,DNS Server: vpn.node,DE,Europe,Western Europe,Germany,Hesse,,Frankfurt am Main
51.75.69.222,4,108,DNS Server: vps-2371cb3f.vps.ovh.net,DE,Europe,Western Europe,Germany,Hesse,,Frankfurt am Main
51.195.101.174,4,105,DNS Server: vps-298025c4.vps.ovh.net,DE,Europe,Western Europe,Germany,Hesse,,Limburg an der Lahn
66.22.34.101,4,77,docaposte.com,DE,Europe,Western Europe,Germany,Hesse,,Frankfurt am Main
165.22.75.231,4,42,doctor.global,DE,Europe,Western Europe,Germany,Hesse,,Frankfurt am Main
206.189.56.100,4,6,doctornet.pro,DE,Europe,Western Europe,Germany,Hesse,,Frankfurt am Main
130.61.173.117,4,334,DoH server: adguard-kartoffel.zernico.de,DE,Europe,Western Europe,Germany,Hesse,,Frankfurt am Main
130.61.208.231,4,350,DoH server: bigora2.vuhai.de,DE,Europe,Western Europe,Germany,Hesse,,Frankfurt am Main
46.101.110.57,4,346,DoH server: c.cicitt.ch,DE,Europe,Western Europe,Germany,Hesse,,Frankfurt am Main
92.118.190.129,4,418,DoH server: de-fra-w-p-1.nashkan.net,DE,Europe,Western Europe,Germany,Hesse,,Frankfurt am Main
138.68.80.228,4,421,DoH server: dns.almir1904.eu,DE,Europe,Western Europe,Germany,Hesse,,Frankfurt am Main
66.22.35.26,4,27,domainthenet.com,DE,Europe,Western Europe,Germany,Hesse,,Frankfurt am Main
95.179.171.15,4,5,donkr.com,DE,Europe,Western Europe,Germany,Hesse,,Frankfurt am Main
128.65.210.87,4,81,dortmund.de,DE,Europe,Western Europe,Germany,Hesse,,Frankfurt am Main
193.32.221.30,4,5,dortmunder-u.de,DE,Europe,Western Europe,Germany,Hesse,,Frankfurt am Main
139.144.181.179,4,4,dossier.net,DE,Europe,Western Europe,Germany,Hesse,,Frankfurt am Main
18.153.102.34,4,9,downloader.run,DE,Europe,Western Europe,Germany,Hesse,,Frankfurt am Main
93.95.133.68,4,14,downpass.com,DE,Europe,Western Europe,Germany,Hesse,,Wiesbaden
135.125.180.233,4,9,dozent.net,DE,Europe,Western Europe,Germany,Hesse,,Frankfurt am Main
109.230.255.164,4,5,dr-gumpert.de,DE,Europe,Western Europe,Germany,Hesse,,Frankfurt am Main
212.224.113.144,4,19,dreamforum.ru,DE,Europe,Western Europe,Germany,Hesse,,Frankfurt am Main
57.129.21.61,4,3,dropstab.com,DE,Europe,Western Europe,Germany,Hesse,,Frankfurt am Main
139.59.154.32,4,3,drtihanyi.hu,DE,Europe,Western Europe,Germany,Hesse,,Frankfurt am Main
18.185.129.44,4,4,druckerpatronen.de,DE,Europe,Western Europe,Germany,Hesse,,Frankfurt am Main
3.120.84.217,4,45,druckerpatronen.de,DE,Europe,Western Europe,Germany,Hesse,,Frankfurt am Main
3.124.10.123,4,43,druckerpatronen.de,DE,Europe,Western Europe,Germany,Hesse,,Frankfurt am Main
172.105.87.31,4,27,dssw.co.uk,DE,Europe,Western Europe,Germany,Hesse,,Frankfurt am Main
212.6.189.35,4,23,dtvp.de,DE,Europe,Western Europe,Germany,Hesse,,Darmstadt
85.195.107.218,4,65,dulist.hr,DE,Europe,Western Europe,Germany,Hesse,,Frankfurt am Main
128.65.209.224,4,3,dvz.de,DE,Europe,Western Europe,Germany,Hesse,,Frankfurt am Main
172.104.226.22,4,5,dynachem.co.za,DE,Europe,Western Europe,Germany,Hesse,,Frankfurt am Main
23.67.130.103,4,57,eastpak.com,DE,Europe,Western Europe,Germany,Hesse,,Frankfurt am Main
34.89.224.112,4,10,easy-booking.at,DE,Europe,Western Europe,Germany,Hesse,,Frankfurt am Main
128.65.209.18,4,10,easybytez.com,DE,Europe,Western Europe,Germany,Hesse,,Frankfurt am Main
128.65.211.86,4,4,ebundesanzeiger.de,DE,Europe,Western Europe,Germany,Hesse,,Frankfurt am Main
139.144.67.109,4,6183,eceee.org,DE,Europe,Western Europe,Germany,Hesse,,Frankfurt am Main
167.71.48.119,4,29,eco-sapiens.com,DE,Europe,Western Europe,Germany,Hesse,,Frankfurt am Main
18.194.13.21,4,50,ecoflow.com,DE,Europe,Western Europe,Germany,Hesse,,Frankfurt am Main
52.59.15.33,4,3,ecoflow.com,DE,Europe,Western Europe,Germany,Hesse,,Frankfurt am Main
5.254.6.98,4,7,ecohustler.com,DE,Europe,Western Europe,Germany,Hesse,,Frankfurt am Main
212.6.189.184,4,33,econda.de,DE,Europe,Western Europe,Germany,Hesse,,Darmstadt
213.83.5.174,4,4,ecopassenger.org,DE,Europe,Western Europe,Germany,Hesse,,Offenbach
51.89.23.31,4,6,ecs-org.eu,DE,Europe,Western Europe,Germany,Hesse,,Limburg an der Lahn
35.158.81.235,4,4,edenred.it,DE,Europe,Western Europe,Germany,Hesse,,Frankfurt am Main
64.225.95.114,4,5,edruscha.com,DE,Europe,Western Europe,Germany,Hesse,,Frankfurt am Main
82.153.242.14,4,22,educaciontrespuntocero.com,DE,Europe,Western Europe,Germany,Hesse,,Frankfurt am Main
139.162.150.86,4,7,edukatico.org,DE,Europe,Western Europe,Germany,Hesse,,Frankfurt am Main
49.51.134.65,4,27,eeo.cn,DE,Europe,Western Europe,Germany,Hesse,,Frankfurt am Main
161.35.216.60,4,61,ega-golf.ch,DE,Europe,Western Europe,Germany,Hesse,,Frankfurt am Main
128.65.210.253,4,8,egonzehnder.com,DE,Europe,Western Europe,Germany,Hesse,,Frankfurt am Main
57.129.24.15,4,4,ehpa.org,DE,Europe,Western Europe,Germany,Hesse,,Frankfurt am Main
52.29.9.51,4,19,eichholtz.com,DE,Europe,Western Europe,Germany,Hesse,,Frankfurt am Main
138.68.127.96,4,32,einfach-sparsam.de,DE,Europe,Western Europe,Germany,Hesse,,Frankfurt am Main
35.157.170.223,4,25,ekobilet.pl,DE,Europe,Western Europe,Germany,Hesse,,Frankfurt am Main
128.65.211.227,4,4,elbenwald.de,DE,Europe,Western Europe,Germany,Hesse,,Frankfurt am Main
192.250.229.30,4,197,elchiringuitoibiza.com,DE,Europe,Western Europe,Germany,Hesse,,Frankfurt am Main
165.22.76.178,4,7,elding.is,DE,Europe,Western Europe,Germany,Hesse,,Frankfurt am Main
178.33.34.192,4,12,electerious.com,DE,Europe,Western Europe,Germany,Hesse,,Limburg an der Lahn
164.92.205.127,4,20,elika.eus,DE,Europe,Western Europe,Germany,Hesse,,Frankfurt am Main
52.29.87.167,4,43,elitrack.com,DE,Europe,Western Europe,Germany,Hesse,,Frankfurt am Main
35.157.207.121,4,46,elo.com,DE,Europe,Western Europe,Germany,Hesse,,Frankfurt am Main
37.120.196.66,4,10,email-validator.net,DE,Europe,Western Europe,Germany,Hesse,,Frankfurt am Main
3.78.12.172,4,13,emako.pl,DE,Europe,Western Europe,Germany,Hesse,,Frankfurt am Main
3.120.78.133,4,4,emako.pl,DE,Europe,Western Europe,Germany,Hesse,,Frankfurt am Main
18.195.59.12,4,35,emako.pl,DE,Europe,Western Europe,Germany,Hesse,,Frankfurt am Main
64.225.93.190,4,3,emmezeta.hr,DE,Europe,Western Europe,Germany,Hesse,,Frankfurt am Main
172.104.232.115,4,8,empower.tn,DE,Europe,Western Europe,Germany,Hesse,,Frankfurt am Main
128.65.210.228,4,5,ems-group.com,DE,Europe,Western Europe,Germany,Hesse,,Frankfurt am Main
18.184.22.204,4,5,emtec.com,DE,Europe,Western Europe,Germany,Hesse,,Frankfurt am Main
18.192.184.167,4,4,energiesparen-im-haushalt.de,DE,Europe,Western Europe,Germany,Hesse,,Frankfurt am Main
92.123.150.221,4,92,enerpac.com,DE,Europe,Western Europe,Germany,Hesse,,Frankfurt am Main
172.104.229.190,4,14,entropiaplanets.com,DE,Europe,Western Europe,Germany,Hesse,,Frankfurt am Main
167.71.33.17,4,10,epa-congress.org,DE,Europe,Western Europe,Germany,Hesse,,Frankfurt am Main
178.215.228.114,4,32,epbf.com,DE,Europe,Western Europe,Germany,Hesse,,Frankfurt am Main
52.28.22.164,4,8,equilibrium-metal.net,DE,Europe,Western Europe,Germany,Hesse,,Frankfurt am Main
134.122.81.124,4,71,erlus.de,DE,Europe,Western Europe,Germany,Hesse,,Frankfurt am Main
134.122.71.135,4,74,erma.eu,DE,Europe,Western Europe,Germany,Hesse,,Frankfurt am Main
192.46.239.129,4,39,esfs.info,DE,Europe,Western Europe,Germany,Hesse,,Frankfurt am Main
138.201.75.75,4,77,esm-computer.de,DE,Europe,Western Europe,Germany,Hesse,,Frankfurt am Main
52.29.232.63,4,5,esyoil.com,DE,Europe,Western Europe,Germany,Hesse,,Frankfurt am Main
18.185.133.13,4,17,etacanadaonline.com,DE,Europe,Western Europe,Germany,Hesse,,Frankfurt am Main
52.28.233.158,4,10,etacanadaonline.com,DE,Europe,Western Europe,Germany,Hesse,,Frankfurt am Main
18.159.250.4,4,5,etacanadaonline.com,DE,Europe,Western Europe,Germany,Hesse,,Frankfurt am Main
104.248.140.165,4,4,etlegacy.com,DE,Europe,Western Europe,Germany,Hesse,,Frankfurt am Main
46.101.100.221,4,-3,eto-ya.com,DE,Europe,Western Europe,Germany,Hesse,,Frankfurt am Main
8.209.100.90,4,2,eupackage.com,DE,Europe,Western Europe,Germany,Hesse,,Frankfurt am Main
128.65.209.212,4,10,eurailpress.de,DE,Europe,Western Europe,Germany,Hesse,,Frankfurt am Main
3.64.210.239,4,3,euroalert.net,DE,Europe,Western Europe,Germany,Hesse,,Frankfurt am Main
172.105.80.154,4,4,europabio.org,DE,Europe,Western Europe,Germany,Hesse,,Frankfurt am Main
207.154.236.88,4,55,europeanculturalcentre.eu,DE,Europe,Western Europe,Germany,Hesse,,Frankfurt am Main
35.207.164.152,4,29,europeanmovement.eu,DE,Europe,Western Europe,Germany,Hesse,,Frankfurt am Main
167.99.133.243,4,23,everlastingmemoriesweddings.com,DE,Europe,Western Europe,Germany,Hesse,,Frankfurt am Main
18.184.42.3,4,6,evisa.express,DE,Europe,Western Europe,Germany,Hesse,,Frankfurt am Main
35.158.165.146,4,11,evisa.express,DE,Europe,Western Europe,Germany,Hesse,,Frankfurt am Main
18.184.255.50,4,9,evisa.express,DE,Europe,Western Europe,Germany,Hesse,,Frankfurt am Main
165.22.81.52,4,10,exorint.com,DE,Europe,Western Europe,Germany,Hesse,,Frankfurt am Main
52.57.252.81,4,8,expandcart.com,DE,Europe,Western Europe,Germany,Hesse,,Frankfurt am Main
104.75.88.251,4,58,express.com,DE,Europe,Western Europe,Germany,Hesse,,Frankfurt am Main
172.104.244.206,4,3,f2ko.de,DE,Europe,Western Europe,Germany,Hesse,,Frankfurt am Main
139.162.191.80,4,4,fairgocasinoaus.com,DE,Europe,Western Europe,Germany,Hesse,,Frankfurt am Main
51.75.69.66,4,31402,fajalobi-tilburg.nl,DE,Europe,Western Europe,Germany,Hesse,,Frankfurt am Main
192.46.232.136,4,4,familytreewebsites.net,DE,Europe,Western Europe,Germany,Hesse,,Frankfurt am Main
8.211.42.52,4,4,fanruan.com,DE,Europe,Western Europe,Germany,Hesse,,Frankfurt am Main
138.68.85.154,4,30,fashionomicsafrica.org,DE,Europe,Western Europe,Germany,Hesse,,Frankfurt am Main
37.61.216.35,4,20,fastcardtech.com,DE,Europe,Western Europe,Germany,Hesse,,Frankfurt am Main
172.104.149.91,4,57,fastingforfood.com,DE,Europe,Western Europe,Germany,Hesse,,Frankfurt am Main
35.207.184.17,4,4810166,fbt.it,DE,Europe,Western Europe,Germany,Hesse,,Frankfurt am Main
18.194.36.137,4,2,fc-union-berlin.de,DE,Europe,Western Europe,Germany,Hesse,,Frankfurt am Main
18.195.31.78,4,4,fc-union-berlin.de,DE,Europe,Western Europe,Germany,Hesse,,Frankfurt am Main
50.3.169.226,4,6131,fenshuajiang88.com,DE,Europe,Western Europe,Germany,Hesse,,Frankfurt am Main
78.159.122.98,4,7,ferio.ru,DE,Europe,Western Europe,Germany,Hesse,,Wöllstadt
3.78.48.36,4,10,fertighaus.de,DE,Europe,Western Europe,Germany,Hesse,,Frankfurt am Main
3.124.137.101,4,11,fertighaus.de,DE,Europe,Western Europe,Germany,Hesse,,Frankfurt am Main
52.57.14.205,4,8,fertighaus.de,DE,Europe,Western Europe,Germany,Hesse,,Frankfurt am Main
138.68.92.1,4,69,festival.cz,DE,Europe,Western Europe,Germany,Hesse,,Frankfurt am Main
66.22.61.3,4,53,ficosa.com,DE,Europe,Western Europe,Germany,Hesse,,Frankfurt am Main
35.234.100.135,4,4,filmovyprehled.cz,DE,Europe,Western Europe,Germany,Hesse,,Frankfurt am Main
46.101.192.133,4,2,finacademy.net,DE,Europe,Western Europe,Germany,Hesse,,Frankfurt am Main
68.183.241.108,4,5,finbino.com,DE,Europe,Western Europe,Germany,Hesse,,Frankfurt am Main
139.162.163.79,4,196,finestshop.be,DE,Europe,Western Europe,Germany,Hesse,,Frankfurt am Main
46.189.86.107,4,29,finetunes.net,DE,Europe,Western Europe,Germany,Hesse,,Frankfurt am Main
92.113.18.57,4,2,fintechzone.hu,DE,Europe,Western Europe,Germany,Hesse,,Frankfurt am Main
46.101.240.31,4,8,fipresci.org,DE,Europe,Western Europe,Germany,Hesse,,Frankfurt am Main
2.18.64.196,4,22,firstnaukri.com,DE,Europe,Western Europe,Germany,Hesse,,Frankfurt am Main
2.18.64.206,4,12,firstnaukri.com,DE,Europe,Western Europe,Germany,Hesse,,Frankfurt am Main
167.172.174.199,4,47,fitness-industry.com.ua,DE,Europe,Western Europe,Germany,Hesse,,Frankfurt am Main
35.234.115.245,4,63,fitnessfirst.de,DE,Europe,Western Europe,Germany,Hesse,,Frankfurt am Main
18.194.32.110,4,3,fitx.de,DE,Europe,Western Europe,Germany,Hesse,,Frankfurt am Main
3.69.65.19,4,3,fitx.de,DE,Europe,Western Europe,Germany,Hesse,,Frankfurt am Main
64.226.85.184,4,5,fivedollardivas.com,DE,Europe,Western Europe,Germany,Hesse,,Frankfurt am Main
130.61.121.240,4,3,fixnum.org,DE,Europe,Western Europe,Germany,Hesse,,Frankfurt am Main
66.22.39.164,4,8,fjd.es,DE,Europe,Western Europe,Germany,Hesse,,Frankfurt am Main
46.101.197.247,4,4,flatfy.ro,DE,Europe,Western Europe,Germany,Hesse,,Frankfurt am Main
64.225.102.100,4,9,fleurop.com,DE,Europe,Western Europe,Germany,Hesse,,Frankfurt am Main
37.61.222.226,4,22,flexperto.com,DE,Europe,Western Europe,Germany,Hesse,,Frankfurt am Main
34.107.117.94,4,105,floridelux.ro,DE,Europe,Western Europe,Germany,Hesse,,Frankfurt am Main
43.131.17.120,4,27,floryday.com,DE,Europe,Western Europe,Germany,Hesse,,Frankfurt am Main
94.16.17.81,4,3,flyeralarm.digital,DE,Europe,Western Europe,Germany,Hesse,,Frankfurt am Main
66.22.34.74,4,14,flysas.com,DE,Europe,Western Europe,Germany,Hesse,,Frankfurt am Main
159.89.214.253,4,3,fmav.org,DE,Europe,Western Europe,Germany,Hesse,,Frankfurt am Main
194.99.20.78,4,2,fmsppl.com,DE,Europe,Western Europe,Germany,Hesse,,Frankfurt am Main
167.172.163.165,4,4,fnp.org.pl,DE,Europe,Western Europe,Germany,Hesse,,Frankfurt am Main
139.177.179.200,4,13948,focus-economics.com,DE,Europe,Western Europe,Germany,Hesse,,Frankfurt am Main
18.195.128.78,4,36,fohhn.com,DE,Europe,Western Europe,Germany,Hesse,,Frankfurt am Main
128.65.211.206,4,4,foliencenter24.com,DE,Europe,Western Europe,Germany,Hesse,,Frankfurt am Main
18.157.171.224,4,120,fonduri-structurale.ro,DE,Europe,Western Europe,Germany,Hesse,,Frankfurt am Main
18.192.150.81,4,5,fonduri-structurale.ro,DE,Europe,Western Europe,Germany,Hesse,,Frankfurt am Main
18.156.70.80,4,5,fonduri-structurale.ro,DE,Europe,Western Europe,Germany,Hesse,,Frankfurt am Main
139.162.156.140,4,48,forexscams.co,DE,Europe,Western Europe,Germany,Hesse,,Frankfurt am Main
46.101.169.75,4,88,forklog.com,DE,Europe,Western Europe,Germany,Hesse,,Frankfurt am Main
135.125.180.179,4,123,formafoto.it,DE,Europe,Western Europe,Germany,Hesse,,Frankfurt am Main
143.42.221.126,4,2,forrest.cz,DE,Europe,Western Europe,Germany,Hesse,,Frankfurt am Main
185.17.120.39,4,5,forumprosport.ru,DE,Europe,Western Europe,Germany,Hesse,,Frankfurt am Main
172.105.76.227,4,5,fotopapa.com,DE,Europe,Western Europe,Germany,Hesse,,Frankfurt am Main
52.28.236.0,4,15,fourmilab.ch,DE,Europe,Western Europe,Germany,Hesse,,Frankfurt am Main
52.28.165.192,4,25,fournisseur-energie.com,DE,Europe,Western Europe,Germany,Hesse,,Frankfurt am Main
185.53.210.47,4,2402,fozmuseum.com,DE,Europe,Western Europe,Germany,Hesse,,Frankfurt am Main
172.104.227.210,4,43,fragmenta.cat,DE,Europe,Western Europe,Germany,Hesse,,Frankfurt am Main
95.101.111.171,4,10,franceinfo.fr,DE,Europe,Western Europe,Germany,Hesse,,Frankfurt am Main
95.101.111.147,4,71,franceinfo.fr,DE,Europe,Western Europe,Germany,Hesse,,Frankfurt am Main
104.126.37.170,4,12,francelive.fr,DE,Europe,Western Europe,Germany,Hesse,,Frankfurt am Main
104.126.37.128,4,3,francelive.fr,DE,Europe,Western Europe,Germany,Hesse,,Frankfurt am Main
46.101.131.161,4,58,franciszkanie.pl,DE,Europe,Western Europe,Germany,Hesse,,Frankfurt am Main
3.125.220.18,4,69,fraudlabspro.com,DE,Europe,Western Europe,Germany,Hesse,,Frankfurt am Main
134.255.237.23,4,75,freecraft.eu,DE,Europe,Western Europe,Germany,Hesse,,Frankfurt am Main
34.107.65.157,4,10,freedomleaf.com,DE,Europe,Western Europe,Germany,Hesse,,Frankfurt am Main
154.16.6.8,4,6,freehali.com,DE,Europe,Western Europe,Germany,Hesse,,Frankfurt am Main
164.90.234.54,4,42,freelanceweekly.com,DE,Europe,Western Europe,Germany,Hesse,,Frankfurt am Main
165.22.95.139,4,23,freesmi.by,DE,Europe,Western Europe,Germany,Hesse,,Frankfurt am Main
139.59.212.20,4,8,freeverse.com,DE,Europe,Western Europe,Germany,Hesse,,Frankfurt am Main
3.64.210.236,4,11,fromtheboxoffice.com,DE,Europe,Western Europe,Germany,Hesse,,Frankfurt am Main
159.89.22.45,4,6,frontnews.eu,DE,Europe,Western Europe,Germany,Hesse,,Frankfurt am Main
18.156.102.220,4,51,fs.com,DE,Europe,Western Europe,Germany,Hesse,,Frankfurt am Main
3.73.163.175,4,27,fs.com,DE,Europe,Western Europe,Germany,Hesse,,Frankfurt am Main
104.102.34.160,4,11,fsitaliane.it,DE,Europe,Western Europe,Germany,Hesse,,Frankfurt am Main
23.197.133.87,4,9,ftc.gov,DE,Europe,Western Europe,Germany,Hesse,,Frankfurt am Main
8.209.71.122,4,2,fuleague.com,DE,Europe,Western Europe,Germany,Hesse,,Frankfurt am Main
46.101.127.154,4,3,future-agricultures.org,DE,Europe,Western Europe,Germany,Hesse,,Frankfurt am Main
185.243.115.217,4,8,fuwafuwa.moe,DE,Europe,Western Europe,Germany,Hesse,,Frankfurt am Main
34.159.130.202,4,20,game-legends.de,DE,Europe,Western Europe,Germany,Hesse,,Frankfurt am Main
46.101.140.133,4,4,gamzix.com,DE,Europe,Western Europe,Germany,Hesse,,Frankfurt am Main
213.227.169.76,4,1790,ganzimmun.de,DE,Europe,Western Europe,Germany,Hesse,,Frankfurt am Main
165.227.244.180,4,14,garagemca.org,DE,Europe,Western Europe,Germany,Hesse,,Frankfurt am Main
5.1.82.79,4,10,gartenmoebel.de,DE,Europe,Western Europe,Germany,Hesse,,Frankfurt am Main
185.254.96.12,4,36,gas-tankstellen.de,DE,Europe,Western Europe,Germany,Hesse,,Offenbach
35.207.106.68,4,19,gastroplanner.no,DE,Europe,Western Europe,Germany,Hesse,,Frankfurt am Main
167.172.102.23,4,3,gazetemanifesto.com,DE,Europe,Western Europe,Germany,Hesse,,Frankfurt am Main
46.101.172.201,4,-644072,gdoc.pub,DE,Europe,Western Europe,Germany,Hesse,,Frankfurt am Main
35.198.88.107,4,5,gearnews.com,DE,Europe,Western Europe,Germany,Hesse,,Frankfurt am Main
34.159.238.10,4,7,gearnews.de,DE,Europe,Western Europe,Germany,Hesse,,Frankfurt am Main
139.162.154.161,4,1627,gelatomuseum.com,DE,Europe,Western Europe,Germany,Hesse,,Frankfurt am Main
62.209.38.148,4,85,geld.de,DE,Europe,Western Europe,Germany,Hesse,,Frankfurt am Main
95.101.111.154,4,14,gelderlander.nl,DE,Europe,Western Europe,Germany,Hesse,,Frankfurt am Main
128.65.211.228,4,67,genius.tv,DE,Europe,Western Europe,Germany,Hesse,,Frankfurt am Main
209.38.200.52,4,5,georgiatoday.ge,DE,Europe,Western Europe,Germany,Hesse,,Frankfurt am Main
167.71.35.109,4,123,gepard.io,DE,Europe,Western Europe,Germany,Hesse,,Frankfurt am Main
45.63.116.93,4,36,gesundheit-im-leben.com,DE,Europe,Western Europe,Germany,Hesse,,Frankfurt am Main
185.141.165.254,4,6,getfedora.org,DE,Europe,Western Europe,Germany,Hesse,,Frankfurt am Main
18.192.40.85,4,14,getfedora.org,DE,Europe,Western Europe,Germany,Hesse,,Frankfurt am Main
18.159.254.57,4,7,getfedora.org,DE,Europe,Western Europe,Germany,Hesse,,Frankfurt am Main
23.45.100.43,4,52,geticket.it,DE,Europe,Western Europe,Germany,Hesse,,Frankfurt am Main
159.223.18.187,4,10,getodin.org,DE,Europe,Western Europe,Germany,Hesse,,Frankfurt am Main
104.102.45.98,4,10,getsmartaboutdrugs.gov,DE,Europe,Western Europe,Germany,Hesse,,Frankfurt am Main
146.75.119.10,4,4,gfms.com,DE,Europe,Western Europe,Germany,Hesse,,Frankfurt am Main
138.68.105.98,4,3,gfxbench.com,DE,Europe,Western Europe,Germany,Hesse,,Frankfurt am Main
139.162.161.44,4,40,ggeek.ru,DE,Europe,Western Europe,Germany,Hesse,,Frankfurt am Main
85.90.246.132,4,4,ggerganov.com,DE,Europe,Western Europe,Germany,Hesse,,Frankfurt am Main
77.72.18.92,4,24,ghstools.fr,DE,Europe,Western Europe,Germany,Hesse,,Frankfurt am Main
3.64.116.8,4,13,giga.global,DE,Europe,Western Europe,Germany,Hesse,,Frankfurt am Main
3.124.87.73,4,7,giga.global,DE,Europe,Western Europe,Germany,Hesse,,Frankfurt am Main
139.162.149.193,4,4,giornaledellepmi.it,DE,Europe,Western Europe,Germany,Hesse,,Frankfurt am Main
35.246.185.179,4,3,giromatch.com,DE,Europe,Western Europe,Germany,Hesse,,Frankfurt am Main
95.101.111.162,4,9,gitp.nl,DE,Europe,Western Europe,Germany,Hesse,,Frankfurt am Main
95.101.111.133,4,14,gitp.nl,DE,Europe,Western Europe,Germany,Hesse,,Frankfurt am Main
139.59.151.92,4,15,glacier3000.ch,DE,Europe,Western Europe,Germany,Hesse,,Frankfurt am Main
145.239.1.188,4,7,global-printing-materiels.dz,DE,Europe,Western Europe,Germany,Hesse,,Frankfurt am Main
35.242.218.28,4,6,globalcovenantofmayors.org,DE,Europe,Western Europe,Germany,Hesse,,Frankfurt am Main
18.194.131.86,4,13,globalmagazin.com,DE,Europe,Western Europe,Germany,Hesse,,Frankfurt am Main
193.107.20.224,4,24,globalmbwatch.com,DE,Europe,Western Europe,Germany,Hesse,,Frankfurt am Main
138.201.227.198,4,15,globe-flight.de,DE,Europe,Western Europe,Germany,Hesse,,Frankfurt am Main
207.154.216.135,4,64019,gloomaps.com,DE,Europe,Western Europe,Germany,Hesse,,Frankfurt am Main
138.68.72.162,4,16,go-diplom.com,DE,Europe,Western Europe,Germany,Hesse,,Frankfurt am Main
104.248.40.88,4,5,goalissimo.org,DE,Europe,Western Europe,Germany,Hesse,,Frankfurt am Main
52.58.112.205,4,10,goiko.com,DE,Europe,Western Europe,Germany,Hesse,,Frankfurt am Main
52.58.38.46,4,8,goiko.com,DE,Europe,Western Europe,Germany,Hesse,,Frankfurt am Main
3.64.23.89,4,21,gold.ua,DE,Europe,Western Europe,Germany,Hesse,,Frankfurt am Main
164.92.200.136,4,4,goloszmin.org,DE,Europe,Western Europe,Germany,Hesse,,Frankfurt am Main
161.35.75.28,4,3,gomighty.com,DE,Europe,Western Europe,Germany,Hesse,,Frankfurt am Main
108.61.210.206,4,5,goosync.com,DE,Europe,Western Europe,Germany,Hesse,,Frankfurt am Main
35.156.3.169,4,14,goparking.cz,DE,Europe,Western Europe,Germany,Hesse,,Frankfurt am Main
64.226.106.62,4,22,goznakov-diplom.com,DE,Europe,Western Europe,Germany,Hesse,,Frankfurt am Main
159.89.96.37,4,29,grafiati.com,DE,Europe,Western Europe,Germany,Hesse,,Frankfurt am Main
138.201.228.125,4,4,granfondo-cycling.com,DE,Europe,Western Europe,Germany,Hesse,,Frankfurt am Main
188.166.194.230,4,4,graphaware.com,DE,Europe,Western Europe,Germany,Hesse,,Frankfurt am Main
172.105.90.92,4,35,grcables.com,DE,Europe,Western Europe,Germany,Hesse,,Frankfurt am Main
35.246.204.124,4,34,greatplacetowork.it,DE,Europe,Western Europe,Germany,Hesse,,Frankfurt am Main
35.207.167.22,4,17,greeninnewyork.com,DE,Europe,Western Europe,Germany,Hesse,,Frankfurt am Main
193.151.91.143,4,19,greenplant.com.ua,DE,Europe,Western Europe,Germany,Hesse,,Frankfurt am Main
172.104.136.22,4,17,greyp.com,DE,Europe,Western Europe,Germany,Hesse,,Frankfurt am Main
45.77.55.46,4,66,grohe-x.com,DE,Europe,Western Europe,Germany,Hesse,,Frankfurt am Main
3.72.181.255,4,3,group-ib.com,DE,Europe,Western Europe,Germany,Hesse,,Frankfurt am Main
128.65.211.135,4,39,group.rwe,DE,Europe,Western Europe,Germany,Hesse,,Frankfurt am Main
23.45.103.178,4,11,groupon.co.uk,DE,Europe,Western Europe,Germany,Hesse,,Frankfurt am Main
23.37.34.220,4,37,groupon.ie,DE,Europe,Western Europe,Germany,Hesse,,Frankfurt am Main
23.36.163.232,4,10,gse.it,DE,Europe,Western Europe,Germany,Hesse,,Frankfurt am Main
23.36.163.234,4,6,gse.it,DE,Europe,Western Europe,Germany,Hesse,,Frankfurt am Main
85.195.127.19,4,6,gsi-one.org,DE,Europe,Western Europe,Germany,Hesse,,Frankfurt am Main
140.181.3.149,4,7,gsi.de,DE,Europe,Western Europe,Germany,Hesse,,Obertshausen
138.201.178.183,4,46,guerradetitanes.net,DE,Europe,Western Europe,Germany,Hesse,,Frankfurt am Main
46.101.215.54,4,29,guide-vitamines.org,DE,Europe,Western Europe,Germany,Hesse,,Frankfurt am Main
77.221.157.70,4,25,guidefall.com,DE,Europe,Western Europe,Germany,Hesse,,Frankfurt am Main
18.159.5.211,4,5,guildwars2.com,DE,Europe,Western Europe,Germany,Hesse,,Frankfurt am Main
3.120.29.149,4,51,guildwars2.com,DE,Europe,Western Europe,Germany,Hesse,,Frankfurt am Main
161.35.220.135,4,20,gulagu.net,DE,Europe,Western Europe,Germany,Hesse,,Frankfurt am Main
46.101.118.41,4,4,gumexslovakia.sk,DE,Europe,Western Europe,Germany,Hesse,,Frankfurt am Main
50.3.17.55,4,6918,gusmeasu.com,DE,Europe,Western Europe,Germany,Hesse,,Frankfurt am Main
157.245.26.141,4,2,guyrutenberg.com,DE,Europe,Western Europe,Germany,Hesse,,Frankfurt am Main
35.156.191.33,4,22,habibbank.com,DE,Europe,Western Europe,Germany,Hesse,,Frankfurt am Main
18.159.230.119,4,4,habibbank.com,DE,Europe,Western Europe,Germany,Hesse,,Frankfurt am Main
3.69.172.11,4,16,habibbank.com,DE,Europe,Western Europe,Germany,Hesse,,Frankfurt am Main
172.104.253.29,4,41,hachyderm.io,DE,Europe,Western Europe,Germany,Hesse,,Frankfurt am Main
206.189.248.203,4,28,hacking-lab.com,DE,Europe,Western Europe,Germany,Hesse,,Frankfurt am Main
213.83.5.164,4,4,hafas.de,DE,Europe,Western Europe,Germany,Hesse,,Offenbach
128.65.209.222,4,6,hagebau.at,DE,Europe,Western Europe,Germany,Hesse,,Frankfurt am Main
128.65.209.223,4,2,hagebau.de,DE,Europe,Western Europe,Germany,Hesse,,Frankfurt am Main
46.101.234.84,4,3,hakibenita.com,DE,Europe,Western Europe,Germany,Hesse,,Frankfurt am Main
2.17.100.147,4,22,halloweenhorrornights.com,DE,Europe,Western Europe,Germany,Hesse,,Frankfurt am Main
2.17.100.129,4,44,halloweenhorrornights.com,DE,Europe,Western Europe,Germany,Hesse,,Frankfurt am Main
172.105.89.199,4,29,hame.cz,DE,Europe,Western Europe,Germany,Hesse,,Frankfurt am Main
172.104.155.73,4,2,hamsterpaj.net,DE,Europe,Western Europe,Germany,Hesse,,Frankfurt am Main
137.248.186.141,4,6,handschriftencensus.de,DE,Europe,Western Europe,Germany,Hesse,,Wetter
185.131.52.224,4,6,handsoffvenezuela.org,DE,Europe,Western Europe,Germany,Hesse,,Frankfurt am Main
8.209.98.16,4,2,hannspree.eu,DE,Europe,Western Europe,Germany,Hesse,,Frankfurt am Main
164.92.143.195,4,3,hapakenya.com,DE,Europe,Western Europe,Germany,Hesse,,Frankfurt am Main
89.169.52.237,4,20,hardball.ru,DE,Europe,Western Europe,Germany,Hesse,,Frankfurt am Main
185.19.217.242,4,36,hashlin.com,DE,Europe,Western Europe,Germany,Hesse,,Frankfurt am Main
139.162.173.18,4,12,hashrate.no,DE,Europe,Western Europe,Germany,Hesse,,Frankfurt am Main
80.156.57.207,4,1,hausfrauenseite.de,DE,Europe,Western Europe,Germany,Hesse,,Frankfurt am Main
50.2.23.124,4,5,hbjhyzs.com,DE,Europe,Western Europe,Germany,Hesse,,Frankfurt am Main
5.1.86.239,4,28,heco-audio.de,DE,Europe,Western Europe,Germany,Hesse,,Frankfurt am Main
35.157.254.151,4,17,heimwerker.de,DE,Europe,Western Europe,Germany,Hesse,,Frankfurt am Main
161.35.16.54,4,4,hemslojden.org,DE,Europe,Western Europe,Germany,Hesse,,Frankfurt am Main
139.162.186.37,4,2,henlo.fi,DE,Europe,Western Europe,Germany,Hesse,,Frankfurt am Main
130.61.42.230,4,17,herborn.de,DE,Europe,Western Europe,Germany,Hesse,,Frankfurt am Main
172.105.92.101,4,5,hetnationaleparkvandrenthe.nl,DE,Europe,Western Europe,Germany,Hesse,,Frankfurt am Main
159.65.126.80,4,29,heubbs.com,DE,Europe,Western Europe,Germany,Hesse,,Frankfurt am Main
193.151.90.75,4,19,himagro.md,DE,Europe,Western Europe,Germany,Hesse,,Frankfurt am Main
192.250.229.28,4,30,hismarty.net,DE,Europe,Western Europe,Germany,Hesse,,Frankfurt am Main
54.36.111.118,4,36,histats.com,DE,Europe,Western Europe,Germany,Hesse,,Frankfurt am Main
92.113.18.84,4,58,history-hunters.pl,DE,Europe,Western Europe,Germany,Hesse,,Frankfurt am Main
159.89.10.46,4,3,hitster.fm,DE,Europe,Western Europe,Germany,Hesse,,Frankfurt am Main
128.65.210.251,4,3,hkk.de,DE,Europe,Western Europe,Germany,Hesse,,Frankfurt am Main
172.104.146.165,4,0,hnk.hr,DE,Europe,Western Europe,Germany,Hesse,,Frankfurt am Main
50.2.202.123,4,-506,hoathucpham.com,DE,Europe,Western Europe,Germany,Hesse,,Frankfurt am Main
172.104.152.99,4,34,hodnoceniher.cz,DE,Europe,Western Europe,Germany,Hesse,,Frankfurt am Main
170.187.184.58,4,16,homeandgardenplants.net,DE,Europe,Western Europe,Germany,Hesse,,Frankfurt am Main
159.89.212.162,4,1,homeandsmart.de,DE,Europe,Western Europe,Germany,Hesse,,Frankfurt am Main
212.6.181.216,4,14,homeinstead.de,DE,Europe,Western Europe,Germany,Hesse,,Darmstadt
46.101.68.229,4,11,homenet.org,DE,Europe,Western Europe,Germany,Hesse,,Frankfurt am Main
47.254.157.136,4,19,hoperf.com,DE,Europe,Western Europe,Germany,Hesse,,Frankfurt am Main
165.227.246.229,4,20,horoshop.ua,DE,Europe,Western Europe,Germany,Hesse,,Frankfurt am Main
164.92.228.133,4,44,horoshop.ua,DE,Europe,Western Europe,Germany,Hesse,,Frankfurt am Main
45.95.16.240,4,38,horwoodglazing.co.uk,DE,Europe,Western Europe,Germany,Hesse,,Frankfurt am Main
167.99.143.217,4,4,hotel-sackmann.de,DE,Europe,Western Europe,Germany,Hesse,,Frankfurt am Main
161.35.208.237,4,7,hotgloo.com,DE,Europe,Western Europe,Germany,Hesse,,Frankfurt am Main
188.166.192.89,4,17,hotgloo.io,DE,Europe,Western Europe,Germany,Hesse,,Frankfurt am Main
139.59.129.38,4,8,housingfirsteurope.eu,DE,Europe,Western Europe,Germany,Hesse,,Frankfurt am Main
52.57.211.42,4,-1,hsv.de,DE,Europe,Western Europe,Germany,Hesse,,Frankfurt am Main
23.212.222.23,4,9,htcsense.com,DE,Europe,Western Europe,Germany,Hesse,,Frankfurt am Main
184.31.87.115,4,11,htcvive.com,DE,Europe,Western Europe,Germany,Hesse,,Frankfurt am Main
43.157.61.30,4,2,huarenwan.com,DE,Europe,Western Europe,Germany,Hesse,,Frankfurt am Main
46.101.161.213,4,32,hudclips.org,DE,Europe,Western Europe,Germany,Hesse,,Frankfurt am Main
34.141.73.225,4,4,humaniq.com,DE,Europe,Western Europe,Germany,Hesse,,Frankfurt am Main
213.139.204.91,4,3,humanrights.ie,DE,Europe,Western Europe,Germany,Hesse,,Frankfurt am Main
128.65.210.163,4,4,hygi.de,DE,Europe,Western Europe,Germany,Hesse,,Frankfurt am Main
23.45.108.42,4,11,hypovereinsbank.de,DE,Europe,Western Europe,Germany,Hesse,,Frankfurt am Main
46.101.216.44,4,2,iacr.org,DE,Europe,Western Europe,Germany,Hesse,,Frankfurt am Main
35.234.70.196,4,7,ialoc.ro,DE,Europe,Western Europe,Germany,Hesse,,Frankfurt am Main
141.98.102.197,4,3,iamarrows.com,DE,Europe,Western Europe,Germany,Hesse,,Frankfurt am Main
172.104.248.227,4,14,iatiregistry.org,DE,Europe,Western Europe,Germany,Hesse,,Frankfurt am Main
34.89.152.107,4,8,iban.com,DE,Europe,Western Europe,Germany,Hesse,,Frankfurt am Main
164.90.182.32,4,48,icd-ps.org,DE,Europe,Western Europe,Germany,Hesse,,Frankfurt am Main
165.227.156.1,4,71,icel.cl,DE,Europe,Western Europe,Germany,Hesse,,Frankfurt am Main
68.183.241.124,4,26,icewm.org,DE,Europe,Western Europe,Germany,Hesse,,Frankfurt am Main
3.124.13.136,4,31,icmm.com,DE,Europe,Western Europe,Germany,Hesse,,Frankfurt am Main
172.104.140.4,4,12,ictus.be,DE,Europe,Western Europe,Germany,Hesse,,Frankfurt am Main
143.42.203.103,4,9,illagomaggiore.com,DE,Europe,Western Europe,Germany,Hesse,,Frankfurt am Main
143.42.31.81,4,11,iltimone.org,DE,Europe,Western Europe,Germany,Hesse,,Frankfurt am Main
5.187.2.41,4,4,imena-znachenie.ru,DE,Europe,Western Europe,Germany,Hesse,,Frankfurt am Main
47.91.78.32,4,29,imile.com,DE,Europe,Western Europe,Germany,Hesse,,Frankfurt am Main
142.111.77.142,4,3,in-edit.org,DE,Europe,Western Europe,Germany,Hesse,,Frankfurt am Main
46.101.236.35,4,32,inculte.fr,DE,Europe,Western Europe,Germany,Hesse,,Frankfurt am Main
207.154.233.239,4,17,indenvertimes.com,DE,Europe,Western Europe,Germany,Hesse,,Frankfurt am Main
184.24.77.12,4,7,indiatoday.in,DE,Europe,Western Europe,Germany,Hesse,,Frankfurt am Main
184.24.77.34,4,8,indiatoday.in,DE,Europe,Western Europe,Germany,Hesse,,Frankfurt am Main
64.225.101.181,4,8,inedivim.gr,DE,Europe,Western Europe,Germany,Hesse,,Frankfurt am Main
45.76.93.178,4,2,infinity-london.com,DE,Europe,Western Europe,Germany,Hesse,,Frankfurt am Main
104.102.54.234,4,65,info.lidl,DE,Europe,Western Europe,Germany,Hesse,,Frankfurt am Main
77.243.189.185,4,65,inkjetart.com,DE,Europe,Western Europe,Germany,Hesse,,Frankfurt am Main
35.198.188.19,4,29,innovationinpolitics.eu,DE,Europe,Western Europe,Germany,Hesse,,Frankfurt am Main
174.138.100.101,4,3,inobat.eu,DE,Europe,Western Europe,Germany,Hesse,,Frankfurt am Main
138.201.240.5,4,36,inside-handy.de,DE,Europe,Western Europe,Germany,Hesse,,Frankfurt am Main
79.133.36.145,4,43,insomnia-berlin.de,DE,Europe,Western Europe,Germany,Hesse,,Frankfurt am Main
35.157.4.176,4,68,instalcenter.nl,DE,Europe,Western Europe,Germany,Hesse,,Frankfurt am Main
128.65.209.124,4,16,intensivregister.de,DE,Europe,Western Europe,Germany,Hesse,,Frankfurt am Main
192.250.229.85,4,75,intermax.nl,DE,Europe,Western Europe,Germany,Hesse,,Frankfurt am Main
172.104.235.149,4,4,interstatemovingcompany.me,DE,Europe,Western Europe,Germany,Hesse,,Frankfurt am Main
35.234.76.210,4,6,invertia.com,DE,Europe,Western Europe,Germany,Hesse,,Frankfurt am Main
139.162.152.214,4,22,investment-blog.net,DE,Europe,Western Europe,Germany,Hesse,,Frankfurt am Main
23.67.132.192,4,24,investor.gov,DE,Europe,Western Europe,Germany,Hesse,,Frankfurt am Main
139.162.132.205,4,36,iphones.co.il,DE,Europe,Western Europe,Germany,Hesse,,Frankfurt am Main
45.79.249.234,4,79,iptvpremiumplus.com,DE,Europe,Western Europe,Germany,Hesse,,Frankfurt am Main
45.95.16.138,4,108,irisanalytical.com,DE,Europe,Western Europe,Germany,Hesse,,Frankfurt am Main
95.101.111.159,4,10,irishrail.ie,DE,Europe,Western Europe,Germany,Hesse,,Frankfurt am Main
167.172.183.86,4,9,isabadell.cat,DE,Europe,Western Europe,Germany,Hesse,,Frankfurt am Main
130.61.36.105,4,33,isabellenhuette.de,DE,Europe,Western Europe,Germany,Hesse,,Frankfurt am Main
18.157.252.47,4,3,isc-events.com,DE,Europe,Western Europe,Germany,Hesse,,Frankfurt am Main
138.201.240.18,4,4,isic.de,DE,Europe,Western Europe,Germany,Hesse,,Frankfurt am Main
46.101.115.39,4,69,isinnova.it,DE,Europe,Western Europe,Germany,Hesse,,Frankfurt am Main
172.105.75.74,4,69,islamansiklopedisi.org.tr,DE,Europe,Western Europe,Germany,Hesse,,Frankfurt am Main
143.42.18.242,4,45,ispionline.it,DE,Europe,Western Europe,Germany,Hesse,,Frankfurt am Main
66.22.35.41,4,21,israelpost.co.il,DE,Europe,Western Europe,Germany,Hesse,,Frankfurt am Main
139.162.177.47,4,55,isrm.net,DE,Europe,Western Europe,Germany,Hesse,,Frankfurt am Main
139.162.188.177,4,3,istrapedia.hr,DE,Europe,Western Europe,Germany,Hesse,,Frankfurt am Main
142.93.101.188,4,23,italianangels.net,DE,Europe,Western Europe,Germany,Hesse,,Frankfurt am Main
2.18.64.17,4,33,itau.com.br,DE,Europe,Western Europe,Germany,Hesse,,Frankfurt am Main
2.18.64.8,4,36,itau.com.br,DE,Europe,Western Europe,Germany,Hesse,,Frankfurt am Main
139.162.136.55,4,12,itewiki.fi,DE,Europe,Western Europe,Germany,Hesse,,Frankfurt am Main
184.30.20.222,4,15,jabong.com,DE,Europe,Western Europe,Germany,Hesse,,Frankfurt am Main
188.166.193.250,4,6,jaloucity.de,DE,Europe,Western Europe,Germany,Hesse,,Frankfurt am Main
46.101.128.25,4,4,janaf.hr,DE,Europe,Western Europe,Germany,Hesse,,Frankfurt am Main
212.224.113.81,4,15,jasic.ua,DE,Europe,Western Europe,Germany,Hesse,,Frankfurt am Main
167.71.42.144,4,2,jcolemusic.com,DE,Europe,Western Europe,Germany,Hesse,,Frankfurt am Main
172.105.70.171,4,2,jewishmuseum.gr,DE,Europe,Western Europe,Germany,Hesse,,Frankfurt am Main
194.233.162.143,4,3,joaoleitao.com,DE,Europe,Western Europe,Germany,Hesse,,Frankfurt am Main
18.193.174.133,4,3,jobbase.io,DE,Europe,Western Europe,Germany,Hesse,,Frankfurt am Main
3.121.165.126,4,58,jobbase.io,DE,Europe,Western Europe,Germany,Hesse,,Frankfurt am Main
52.28.50.102,4,3,jobbase.io,DE,Europe,Western Europe,Germany,Hesse,,Frankfurt am Main
104.70.83.177,4,53,jobs.schwarz,DE,Europe,Western Europe,Germany,Hesse,,Frankfurt am Main
23.197.139.21,4,12,join.me,DE,Europe,Western Europe,Germany,Hesse,,Frankfurt am Main
104.248.131.157,4,7,joomsport.com,DE,Europe,Western Europe,Germany,Hesse,,Frankfurt am Main
142.93.174.60,4,3,josefasalinas.com,DE,Europe,Western Europe,Germany,Hesse,,Frankfurt am Main
167.172.103.191,4,4,journalismtrustinitiative.org,DE,Europe,Western Europe,Germany,Hesse,,Frankfurt am Main
139.162.162.35,4,-1,jpeg.io,DE,Europe,Western Europe,Germany,Hesse,,Frankfurt am Main
50.3.66.185,4,-38394,js10698.com,DE,Europe,Western Europe,Germany,Hesse,,Frankfurt am Main
50.2.96.122,4,194,jsfwqhs.com,DE,Europe,Western Europe,Germany,Hesse,,Frankfurt am Main
57.129.31.145,4,12,jubez.de,DE,Europe,Western Europe,Germany,Hesse,,Limburg an der Lahn
35.198.85.242,4,96,juice.de,DE,Europe,Western Europe,Germany,Hesse,,Frankfurt am Main
89.169.52.193,4,5,justdiditmarketing.com,DE,Europe,Western Europe,Germany,Hesse,,Frankfurt am Main
128.65.210.246,4,13,kaethe-wohlfahrt.com,DE,Europe,Western Europe,Germany,Hesse,,Frankfurt am Main
3.123.190.213,4,4,kaeuferportal.de,DE,Europe,Western Europe,Germany,Hesse,,Frankfurt am Main
54.93.158.19,4,3,kaeuferportal.de,DE,Europe,Western Europe,Germany,Hesse,,Frankfurt am Main
52.28.209.46,4,6,kaeuferportal.de,DE,Europe,Western Europe,Germany,Hesse,,Frankfurt am Main
159.89.13.240,4,41,kafa.org.lb,DE,Europe,Western Europe,Germany,Hesse,,Frankfurt am Main
139.59.158.96,4,24,kamatica.com,DE,Europe,Western Europe,Germany,Hesse,,Frankfurt am Main
137.221.32.67,4,10,kamehabonn.de,DE,Europe,Western Europe,Germany,Hesse,,Frankfurt am Main
139.162.146.39,4,34,kameleon-media.com,DE,Europe,Western Europe,Germany,Hesse,,Frankfurt am Main
57.129.6.101,4,58,kamrad.ru,DE,Europe,Western Europe,Germany,Hesse,,Frankfurt am Main
139.162.151.147,4,2,kananas.com,DE,Europe,Western Europe,Germany,Hesse,,Frankfurt am Main
92.204.160.187,4,495,kancmarket.com,DE,Europe,Western Europe,Germany,Hesse,,Frankfurt am Main
128.65.209.15,4,29,kanzlei-herfurtner.de,DE,Europe,Western Europe,Germany,Hesse,,Frankfurt am Main
141.95.99.25,4,2,kapitalis.com,DE,Europe,Western Europe,Germany,Hesse,,Frankfurt am Main
138.68.125.10,4,86,karpaty.info,DE,Europe,Western Europe,Germany,Hesse,,Frankfurt am Main
85.195.98.138,4,13,kauflux.de,DE,Europe,Western Europe,Germany,Hesse,,Frankfurt am Main
139.59.142.184,4,7,kautionsfrei.de,DE,Europe,Western Europe,Germany,Hesse,,Frankfurt am Main
3.64.89.157,4,14,kbo-iak.de,DE,Europe,Western Europe,Germany,Hesse,,Frankfurt am Main
138.68.88.149,4,22,kdhx.org,DE,Europe,Western Europe,Germany,Hesse,,Frankfurt am Main
104.126.37.139,4,11,keds.com,DE,Europe,Western Europe,Germany,Hesse,,Frankfurt am Main
104.126.37.130,4,46,keds.com,DE,Europe,Western Europe,Germany,Hesse,,Frankfurt am Main
138.68.124.111,4,3,kefaloniapress.gr,DE,Europe,Western Europe,Germany,Hesse,,Frankfurt am Main
170.187.185.170,4,21,kellykettle.com,DE,Europe,Western Europe,Germany,Hesse,,Frankfurt am Main
162.62.121.128,4,5,kendotools.cn,DE,Europe,Western Europe,Germany,Hesse,,Frankfurt am Main
104.126.37.129,4,9,kering.com,DE,Europe,Western Europe,Germany,Hesse,,Frankfurt am Main
104.126.37.152,4,15,kering.com,DE,Europe,Western Europe,Germany,Hesse,,Frankfurt am Main
46.101.162.161,4,38,kerteszkedes.hu,DE,Europe,Western Europe,Germany,Hesse,,Frankfurt am Main
130.83.165.109,4,7,key-project.org,DE,Europe,Western Europe,Germany,Hesse,,Darmstadt
50.2.251.14,4,5,kfzjmh.com,DE,Europe,Western Europe,Germany,Hesse,,Frankfurt am Main
35.156.236.171,4,10,khsb-berlin.de,DE,Europe,Western Europe,Germany,Hesse,,Frankfurt am Main
18.198.130.58,4,14,khsb-berlin.de,DE,Europe,Western Europe,Germany,Hesse,,Frankfurt am Main
3.123.79.131,4,2,khsb-berlin.de,DE,Europe,Western Europe,Germany,Hesse,,Frankfurt am Main
139.144.161.39,4,1,kickresume.com,DE,Europe,Western Europe,Germany,Hesse,,Frankfurt am Main
47.254.155.180,4,2,kincony.com,DE,Europe,Western Europe,Germany,Hesse,,Frankfurt am Main
67.207.77.180,4,41,kino-on-demand.com,DE,Europe,Western Europe,Germany,Hesse,,Frankfurt am Main
23.45.96.50,4,58,kipling.com,DE,Europe,Western Europe,Germany,Hesse,,Frankfurt am Main
52.29.99.53,4,15,kleinreport.ch,DE,Europe,Western Europe,Germany,Hesse,,Frankfurt am Main
138.201.13.242,4,29,kleinwalsertal.com,DE,Europe,Western Europe,Germany,Hesse,,Frankfurt am Main
207.154.199.71,4,33,klitschko.com,DE,Europe,Western Europe,Germany,Hesse,,Frankfurt am Main
52.58.162.22,4,4,knime.org,DE,Europe,Western Europe,Germany,Hesse,,Frankfurt am Main
54.37.91.2,4,975,knowitbio.com,DE,Europe,Western Europe,Germany,Hesse,,Limburg an der Lahn
134.209.253.27,4,12,knplabs.com,DE,Europe,Western Europe,Germany,Hesse,,Frankfurt am Main
95.101.111.151,4,10,knzb.nl,DE,Europe,Western Europe,Germany,Hesse,,Frankfurt am Main
95.101.111.167,4,42,knzb.nl,DE,Europe,Western Europe,Germany,Hesse,,Frankfurt am Main
104.248.244.230,4,15,kodi-professional.ua,DE,Europe,Western Europe,Germany,Hesse,,Frankfurt am Main
206.189.50.32,4,5,kodiprofessional.com,DE,Europe,Western Europe,Germany,Hesse,,Frankfurt am Main
23.55.163.59,4,14,koket.se,DE,Europe,Western Europe,Germany,Hesse,,Frankfurt am Main
23.55.163.72,4,10,koket.se,DE,Europe,Western Europe,Germany,Hesse,,Frankfurt am Main
165.227.245.193,4,4,kongernessamling.dk,DE,Europe,Western Europe,Germany,Hesse,,Frankfurt am Main
45.79.248.58,4,12,koozarch.com,DE,Europe,Western Europe,Germany,Hesse,,Frankfurt am Main
172.104.129.106,4,2,kopalniawiedzy.pl,DE,Europe,Western Europe,Germany,Hesse,,Frankfurt am Main
185.17.120.174,4,4248514,kostromama.ru,DE,Europe,Western Europe,Germany,Hesse,,Frankfurt am Main
165.227.155.151,4,11,krita-artists.org,DE,Europe,Western Europe,Germany,Hesse,,Frankfurt am Main
8.211.32.136,4,4,krizia.it,DE,Europe,Western Europe,Germany,Hesse,,Frankfurt am Main
172.104.246.16,4,37,kroah.com,DE,Europe,Western Europe,Germany,Hesse,,Frankfurt am Main
142.93.172.114,4,2,krock.io,DE,Europe,Western Europe,Germany,Hesse,,Frankfurt am Main
149.154.159.6,4,17,krono-original.com,DE,Europe,Western Europe,Germany,Hesse,,Frankfurt am Main
91.228.155.176,4,13,kryivka.net,DE,Europe,Western Europe,Germany,Hesse,,Frankfurt am Main
159.89.22.135,4,-2,kset.org,DE,Europe,Western Europe,Germany,Hesse,,Frankfurt am Main
23.53.40.201,4,10,ktotv.com,DE,Europe,Western Europe,Germany,Hesse,,Frankfurt am Main
23.53.40.168,4,12,ktotv.com,DE,Europe,Western Europe,Germany,Hesse,,Frankfurt am Main
134.209.248.177,4,6,kuchlbauer.de,DE,Europe,Western Europe,Germany,Hesse,,Frankfurt am Main
128.65.210.79,4,52,kuenker.de,DE,Europe,Western Europe,Germany,Hesse,,Frankfurt am Main
138.201.1.55,4,20,kufatec.com,DE,Europe,Western Europe,Germany,Hesse,,Frankfurt am Main
165.232.77.13,4,38,kunstverein.de,DE,Europe,Western Europe,Germany,Hesse,,Frankfurt am Main
64.226.65.178,4,3,kurzgesagt.org,DE,Europe,Western Europe,Germany,Hesse,,Frankfurt am Main
139.144.69.176,4,2,kwindu.eu,DE,Europe,Western Europe,Germany,Hesse,,Frankfurt am Main
207.154.200.26,4,8,kyivvlada.com.ua,DE,Europe,Western Europe,Germany,Hesse,,Frankfurt am Main
50.2.73.163,4,0,kyrie4-shoes.com,DE,Europe,Western Europe,Germany,Hesse,,Frankfurt am Main
167.71.47.34,4,8,labautomationwiki.com,DE,Europe,Western Europe,Germany,Hesse,,Frankfurt am Main
139.162.163.123,4,8,ladushki.ru,DE,Europe,Western Europe,Germany,Hesse,,Frankfurt am Main
137.248.186.162,4,5,lagis-hessen.de,DE,Europe,Western Europe,Germany,Hesse,,Wetter
130.61.39.11,4,7,lahn-dill-kreis.de,DE,Europe,Western Europe,Germany,Hesse,,Frankfurt am Main
128.65.210.113,4,2,lakelucerne.ch,DE,Europe,Western Europe,Germany,Hesse,,Frankfurt am Main
207.154.205.37,4,36,lamborghini-tractors.com,DE,Europe,Western Europe,Germany,Hesse,,Frankfurt am Main
18.159.237.34,4,6,landesmuseum-trier.de,DE,Europe,Western Europe,Germany,Hesse,,Frankfurt am Main
212.218.193.248,4,371,landkreis-fulda.de,DE,Europe,Western Europe,Germany,Hesse,,Hünfeld
146.75.123.52,4,6,landkreis-wunsiedel.de,DE,Europe,Western Europe,Germany,Hesse,,Frankfurt am Main
46.101.101.225,4,16,lands-diplomix.com,DE,Europe,Western Europe,Germany,Hesse,,Frankfurt am Main
138.201.178.180,4,6,langenscheidt.de,DE,Europe,Western Europe,Germany,Hesse,,Frankfurt am Main
50.2.174.31,4,3,langqingguoji.com,DE,Europe,Western Europe,Germany,Hesse,,Frankfurt am Main
128.65.211.195,4,3,lapp.com,DE,Europe,Western Europe,Germany,Hesse,,Frankfurt am Main
128.65.211.173,4,29,lappgroup.com,DE,Europe,Western Europe,Germany,Hesse,,Frankfurt am Main
128.65.211.174,4,39,lappkabel.de,DE,Europe,Western Europe,Germany,Hesse,,Frankfurt am Main
31.172.73.128,4,4,lapplebi.com,DE,Europe,Western Europe,Germany,Hesse,,Frankfurt am Main
213.95.198.198,4,47,lauda.de,DE,Europe,Western Europe,Germany,Hesse,,Rüsselsheim am Main
104.248.41.91,4,4,lavoroturismo.it,DE,Europe,Western Europe,Germany,Hesse,,Frankfurt am Main
5.187.2.88,4,16,leadbit.com,DE,Europe,Western Europe,Germany,Hesse,,Frankfurt am Main
18.157.233.161,4,27,leaderspledgefornature.org,DE,Europe,Western Europe,Germany,Hesse,,Frankfurt am Main
57.129.21.246,4,13,lebenslauf.de,DE,Europe,Western Europe,Germany,Hesse,,Frankfurt am Main
57.129.21.114,4,5,lebenslauf.de,DE,Europe,Western Europe,Germany,Hesse,,Frankfurt am Main
34.89.183.63,4,-3969,lecourrierderussie.com,DE,Europe,Western Europe,Germany,Hesse,,Frankfurt am Main
68.183.223.41,4,11,ledru.info,DE,Europe,Western Europe,Germany,Hesse,,Frankfurt am Main
130.61.220.194,4,18,lef.li,DE,Europe,Western Europe,Germany,Hesse,,Frankfurt am Main
157.230.99.29,4,3,legalbet.by,DE,Europe,Western Europe,Germany,Hesse,,Frankfurt am Main
138.197.184.3,4,60,legalbet.es,DE,Europe,Western Europe,Germany,Hesse,,Frankfurt am Main
142.93.107.125,4,2,legalbet.ro,DE,Europe,Western Europe,Germany,Hesse,,Frankfurt am Main
167.71.45.168,4,8,legalbet.uk,DE,Europe,Western Europe,Germany,Hesse,,Frankfurt am Main
68.183.242.8,4,35,lektu.com,DE,Europe,Western Europe,Germany,Hesse,,Frankfurt am Main
104.248.46.30,4,30,lemalacamps.com,DE,Europe,Western Europe,Germany,Hesse,,Frankfurt am Main
139.162.182.88,4,3,lemedecin.fr,DE,Europe,Western Europe,Germany,Hesse,,Frankfurt am Main
23.212.202.174,4,113,lenovo.com,DE,Europe,Western Europe,Germany,Hesse,,Frankfurt am Main
128.65.211.114,4,2,leon.bet,DE,Europe,Western Europe,Germany,Hesse,,Frankfurt am Main
128.65.211.118,4,12,leon.casino,DE,Europe,Western Europe,Germany,Hesse,,Frankfurt am Main
128.65.211.115,4,11,leonbets.com,DE,Europe,Western Europe,Germany,Hesse,,Frankfurt am Main
5.187.0.84,4,11,letyshops.com,DE,Europe,Western Europe,Germany,Hesse,,Frankfurt am Main
66.22.39.65,4,6,leumi.co.il,DE,Europe,Western Europe,Germany,Hesse,,Frankfurt am Main
92.118.9.171,4,38,level4d1.com,DE,Europe,Western Europe,Germany,Hesse,,Frankfurt am Main
167.71.44.117,4,5,lexlege.pl,DE,Europe,Western Europe,Germany,Hesse,,Frankfurt am Main
104.248.135.5,4,41,libex.ru,DE,Europe,Western Europe,Germany,Hesse,,Frankfurt am Main
23.37.36.133,4,40,lidl-kochen.de,DE,Europe,Western Europe,Germany,Hesse,,Frankfurt am Main
104.102.48.187,4,30,lidl.gr,DE,Europe,Western Europe,Germany,Hesse,,Frankfurt am Main
67.207.73.99,4,1,lifepeaks.dk,DE,Europe,Western Europe,Germany,Hesse,,Frankfurt am Main
195.34.178.162,4,23,lightcycle.de,DE,Europe,Western Europe,Germany,Hesse,,Frankfurt am Main
128.65.211.205,4,24,lillydoo.com,DE,Europe,Western Europe,Germany,Hesse,,Frankfurt am Main
79.132.136.157,4,29,lingualeo.com,DE,Europe,Western Europe,Germany,Hesse,,Frankfurt am Main
164.92.172.182,4,5,lisbonheritagehotels.com,DE,Europe,Western Europe,Germany,Hesse,,Frankfurt am Main
142.93.165.27,4,16,listando.de,DE,Europe,Western Europe,Germany,Hesse,,Frankfurt am Main
192.46.232.192,4,33,listen.lt,DE,Europe,Western Europe,Germany,Hesse,,Frankfurt am Main
139.162.151.111,4,10,listsoplenty.com,DE,Europe,Western Europe,Germany,Hesse,,Frankfurt am Main
194.247.186.225,4,8,litexmedia.com,DE,Europe,Western Europe,Germany,Hesse,,Frankfurt am Main
54.36.111.176,4,13,liveuniversity.it,DE,Europe,Western Europe,Germany,Hesse,,Frankfurt am Main
5.187.6.135,4,2,lkazka.com.ua,DE,Europe,Western Europe,Germany,Hesse,,Frankfurt am Main
130.61.39.87,4,4,lmr-nrw.de,DE,Europe,Western Europe,Germany,Hesse,,Frankfurt am Main
64.226.109.90,4,23,loca-voiture.ma,DE,Europe,Western Europe,Germany,Hesse,,Frankfurt am Main
138.201.98.181,4,5,loewensteinmedical.com,DE,Europe,Western Europe,Germany,Hesse,,Frankfurt am Main
5.187.1.136,4,18,lovehate.ru,DE,Europe,Western Europe,Germany,Hesse,,Frankfurt am Main
35.198.153.109,4,3,lsg-group.com,DE,Europe,Western Europe,Germany,Hesse,,Frankfurt am Main
35.198.163.89,4,5,lsgskychefs.com,DE,Europe,Western Europe,Germany,Hesse,,Frankfurt am Main
46.101.109.99,4,2,lucasfox.com,DE,Europe,Western Europe,Germany,Hesse,,Frankfurt am Main
199.247.2.88,4,2,lucianmarin.com,DE,Europe,Western Europe,Germany,Hesse,,Frankfurt am Main
91.207.172.198,4,6,luckypatcher.pro,DE,Europe,Western Europe,Germany,Hesse,,Frankfurt am Main
46.101.205.7,4,8,luftfjadring24.se,DE,Europe,Western Europe,Germany,Hesse,,Frankfurt am Main
46.101.235.99,4,104,lumenmuseum.it,DE,Europe,Western Europe,Germany,Hesse,,Frankfurt am Main
35.242.235.79,4,17,lumenradio.com,DE,Europe,Western Europe,Germany,Hesse,,Frankfurt am Main
164.90.186.137,4,0,luvegroup.com,DE,Europe,Western Europe,Germany,Hesse,,Frankfurt am Main
174.138.103.125,4,5,lux-camp.nl,DE,Europe,Western Europe,Germany,Hesse,,Frankfurt am Main
134.209.241.117,4,12,lux-diplom.ru,DE,Europe,Western Europe,Germany,Hesse,,Frankfurt am Main
35.158.78.40,4,2,luz-gas.es,DE,Europe,Western Europe,Germany,Hesse,,Frankfurt am Main
50.3.7.47,4,32,lzjjxx.com,DE,Europe,Western Europe,Germany,Hesse,,Frankfurt am Main
85.195.73.202,4,3,m0lxq.com,DE,Europe,Western Europe,Germany,Hesse,,Frankfurt am Main
5.1.77.177,4,42,ma-shops.com,DE,Europe,Western Europe,Germany,Hesse,,Frankfurt am Main
217.146.20.117,4,4,mackinternational.de,DE,Europe,Western Europe,Germany,Hesse,,Frankfurt am Main
138.201.149.7,4,7,maclife.de,DE,Europe,Western Europe,Germany,Hesse,,Frankfurt am Main
31.172.77.20,4,108,madsparrow.me,DE,Europe,Western Europe,Germany,Hesse,,Frankfurt am Main
164.90.175.52,4,19,magasinsenfrance.com,DE,Europe,Western Europe,Germany,Hesse,,Frankfurt am Main
174.138.103.162,4,6,magicmirror.builders,DE,Europe,Western Europe,Germany,Hesse,,Frankfurt am Main
164.92.138.15,4,16,magnesia-litera.cz,DE,Europe,Western Europe,Germany,Hesse,,Frankfurt am Main
165.227.140.60,4,2,malshare.com,DE,Europe,Western Europe,Germany,Hesse,,Frankfurt am Main
165.227.167.208,4,76,man-attestats24.com,DE,Europe,Western Europe,Germany,Hesse,,Frankfurt am Main
162.19.153.86,4,21,manalejandro.com,DE,Europe,Western Europe,Germany,Hesse,,Limburg an der Lahn
104.75.88.226,4,13,manoramanews.com,DE,Europe,Western Europe,Germany,Hesse,,Frankfurt am Main
66.22.35.122,4,4,manutan-collectivites.fr,DE,Europe,Western Europe,Germany,Hesse,,Frankfurt am Main
104.248.251.163,4,30,marchesibarolo.com,DE,Europe,Western Europe,Germany,Hesse,,Frankfurt am Main
159.89.26.19,4,35,marinareservation.com,DE,Europe,Western Europe,Germany,Hesse,,Frankfurt am Main
139.162.154.66,4,28,mariuspavel.ro,DE,Europe,Western Europe,Germany,Hesse,,Frankfurt am Main
207.154.201.36,4,2,marmaris.info,DE,Europe,Western Europe,Germany,Hesse,,Frankfurt am Main
138.197.181.203,4,0,marquiz.ru,DE,Europe,Western Europe,Germany,Hesse,,Frankfurt am Main
167.71.62.122,4,45,martinheinz.dev,DE,Europe,Western Europe,Germany,Hesse,,Frankfurt am Main
162.19.170.75,4,79,master-translate.com,DE,Europe,Western Europe,Germany,Hesse,,Frankfurt am Main
170.187.189.243,4,3,mastodonshare.com,DE,Europe,Western Europe,Germany,Hesse,,Frankfurt am Main
34.89.196.205,4,34,matchoffice.at,DE,Europe,Western Europe,Germany,Hesse,,Frankfurt am Main
161.35.31.129,4,4,mathisfun.com,DE,Europe,Western Europe,Germany,Hesse,,Frankfurt am Main
138.201.183.20,4,46,matratzenschutz24.net,DE,Europe,Western Europe,Germany,Hesse,,Frankfurt am Main
23.201.246.78,4,41,matrimony.com,DE,Europe,Western Europe,Germany,Hesse,,Frankfurt am Main
37.114.37.231,4,15,matutinal.fr,DE,Europe,Western Europe,Germany,Hesse,,Frankfurt am Main
172.104.229.49,4,60,mazeltov.hu,DE,Europe,Western Europe,Germany,Hesse,,Frankfurt am Main
194.247.186.232,4,51,mediahuman.com,DE,Europe,Western Europe,Germany,Hesse,,Frankfurt am Main
137.248.16.6,4,4,mediarep.org,DE,Europe,Western Europe,Germany,Hesse,,Marburg
193.32.223.132,4,4,mediathek-hessen.de,DE,Europe,Western Europe,Germany,Hesse,,Frankfurt am Main
184.25.158.7,4,4,medicaid.gov,DE,Europe,Western Europe,Germany,Hesse,,Frankfurt am Main
139.59.147.61,4,65,meditation-portal.com,DE,Europe,Western Europe,Germany,Hesse,,Frankfurt am Main
139.162.173.93,4,4,meduweb.com,DE,Europe,Western Europe,Germany,Hesse,,Frankfurt am Main
46.101.162.65,4,2,meeting.lv,DE,Europe,Western Europe,Germany,Hesse,,Frankfurt am Main
128.65.210.177,4,119,megabad.com,DE,Europe,Western Europe,Germany,Hesse,,Frankfurt am Main
35.156.60.112,4,6,mein-italien.info,DE,Europe,Western Europe,Germany,Hesse,,Frankfurt am Main
128.65.210.174,4,18,meineschufa.de,DE,Europe,Western Europe,Germany,Hesse,,Frankfurt am Main
139.162.170.18,4,750,mellel.com,DE,Europe,Western Europe,Germany,Hesse,,Frankfurt am Main
45.79.251.233,4,2,menshealthworkouts.net,DE,Europe,Western Europe,Germany,Hesse,,Frankfurt am Main
52.58.233.217,4,41,mercedes-benz-trucks.com,DE,Europe,Western Europe,Germany,Hesse,,Frankfurt am Main
34.89.201.127,4,8,metaforespress.gr,DE,Europe,Western Europe,Germany,Hesse,,Frankfurt am Main
159.65.117.42,4,17,meteofinanza.com,DE,Europe,Western Europe,Germany,Hesse,,Frankfurt am Main
18.158.53.122,4,2,mezan.org,DE,Europe,Western Europe,Germany,Hesse,,Frankfurt am Main
143.244.205.240,4,10,mforum.ru,DE,Europe,Western Europe,Germany,Hesse,,Frankfurt am Main
172.104.238.24,4,23635,micronations.wiki,DE,Europe,Western Europe,Germany,Hesse,,Frankfurt am Main
23.37.39.110,4,44,militaryconsumer.gov,DE,Europe,Western Europe,Germany,Hesse,,Frankfurt am Main
18.198.151.76,4,26,minisite.ai,DE,Europe,Western Europe,Germany,Hesse,,Frankfurt am Main
3.125.67.216,4,36,mioweb.cz,DE,Europe,Western Europe,Germany,Hesse,,Frankfurt am Main
138.201.1.43,4,3,miraphone.de,DE,Europe,Western Europe,Germany,Hesse,,Frankfurt am Main
8.209.115.122,4,0,mmogapower.com,DE,Europe,Western Europe,Germany,Hesse,,Frankfurt am Main
51.38.124.131,4,3,mob-barcelona.com,DE,Europe,Western Europe,Germany,Hesse,,Limburg an der Lahn
194.195.246.178,4,6,mobiletransaction.org,DE,Europe,Western Europe,Germany,Hesse,,Frankfurt am Main
128.65.210.73,4,55,modellbau-koenig.de,DE,Europe,Western Europe,Germany,Hesse,,Frankfurt am Main
35.156.13.94,4,25,modesens.com,DE,Europe,Western Europe,Germany,Hesse,,Frankfurt am Main
3.69.65.164,4,26,modesens.com,DE,Europe,Western Europe,Germany,Hesse,,Frankfurt am Main
138.68.64.194,4,16,moedani.online,DE,Europe,Western Europe,Germany,Hesse,,Frankfurt am Main
138.68.89.218,4,72,mohrenbrauerei.at,DE,Europe,Western Europe,Germany,Hesse,,Frankfurt am Main
192.46.237.60,4,34,molebox.com,DE,Europe,Western Europe,Germany,Hesse,,Frankfurt am Main
139.162.181.200,4,47,mondial.at,DE,Europe,Western Europe,Germany,Hesse,,Frankfurt am Main
157.230.110.20,4,4,moodsofnorway.com,DE,Europe,Western Europe,Germany,Hesse,,Frankfurt am Main
172.104.142.113,4,72,mortarinvestments.eu,DE,Europe,Western Europe,Germany,Hesse,,Frankfurt am Main
139.144.161.104,4,3,motory.com,DE,Europe,Western Europe,Germany,Hesse,,Frankfurt am Main
91.228.154.139,4,62,moygorod.ua,DE,Europe,Western Europe,Germany,Hesse,,Frankfurt am Main
139.162.168.191,4,2788,mozaik-knjiga.hr,DE,Europe,Western Europe,Germany,Hesse,,Frankfurt am Main
192.248.178.123,4,9,mpora.de,DE,Europe,Western Europe,Germany,Hesse,,Frankfurt am Main
69.192.162.144,4,25,msccroisieres.fr,DE,Europe,Western Europe,Germany,Hesse,,Frankfurt am Main
2.23.197.248,4,10,msccruises.nl,DE,Europe,Western Europe,Germany,Hesse,,Frankfurt am Main
109.163.237.42,4,7,msl.ua,DE,Europe,Western Europe,Germany,Hesse,,Frankfurt am Main
138.197.180.179,4,2,mtunc.com,DE,Europe,Western Europe,Germany,Hesse,,Frankfurt am Main
18.196.44.130,4,4,mukwegefoundation.org,DE,Europe,Western Europe,Germany,Hesse,,Frankfurt am Main
18.194.74.132,4,2,munichx.de,DE,Europe,Western Europe,Germany,Hesse,,Frankfurt am Main
18.157.52.169,4,3,munichx.de,DE,Europe,Western Europe,Germany,Hesse,,Frankfurt am Main
18.185.55.115,4,3,munichx.de,DE,Europe,Western Europe,Germany,Hesse,,Frankfurt am Main
134.209.250.96,4,36,music.lv,DE,Europe,Western Europe,Germany,Hesse,,Frankfurt am Main
23.215.19.223,4,42,music123.com,DE,Europe,Western Europe,Germany,Hesse,,Frankfurt am Main
23.215.23.54,4,39,musiciansfriend.com,DE,Europe,Western Europe,Germany,Hesse,,Frankfurt am Main
138.201.169.219,4,12,my-road.de,DE,Europe,Western Europe,Germany,Hesse,,Frankfurt am Main
217.182.199.131,4,10,mycityua.com,DE,Europe,Western Europe,Germany,Hesse,,Limburg an der Lahn
209.38.232.222,4,5,mycredy.com,DE,Europe,Western Europe,Germany,Hesse,,Frankfurt am Main
162.19.171.188,4,812,mygall.net,DE,Europe,Western Europe,Germany,Hesse,,Frankfurt am Main
209.38.224.38,4,3,mylem.eu,DE,Europe,Western Europe,Germany,Hesse,,Frankfurt am Main
104.102.18.209,4,8,mymedicare.gov,DE,Europe,Western Europe,Germany,Hesse,,Frankfurt am Main
64.227.123.167,4,580,mymorseto.gr,DE,Europe,Western Europe,Germany,Hesse,,Frankfurt am Main
192.46.235.104,4,34,myplaycity.com,DE,Europe,Western Europe,Germany,Hesse,,Frankfurt am Main
95.179.247.46,4,31,mytesy.com,DE,Europe,Western Europe,Germany,Hesse,,Frankfurt am Main
184.24.77.19,4,8,mytfc.com,DE,Europe,Western Europe,Germany,Hesse,,Frankfurt am Main
184.24.77.43,4,26,mytfc.com,DE,Europe,Western Europe,Germany,Hesse,,Frankfurt am Main
18.185.118.208,4,7,napa.fi,DE,Europe,Western Europe,Germany,Hesse,,Frankfurt am Main
192.250.229.7,4,4,napce.fr,DE,Europe,Western Europe,Germany,Hesse,,Frankfurt am Main
128.65.211.76,4,2,narayana-verlag.de,DE,Europe,Western Europe,Germany,Hesse,,Frankfurt am Main
46.101.133.60,4,19,nationalyemen.com,DE,Europe,Western Europe,Germany,Hesse,,Frankfurt am Main
184.24.77.29,4,6,naukri.com,DE,Europe,Western Europe,Germany,Hesse,,Frankfurt am Main
184.24.77.36,4,12,naukri.com,DE,Europe,Western Europe,Germany,Hesse,,Frankfurt am Main
2.16.241.11,4,10,nbcsportsgrouppressbox.com,DE,Europe,Western Europe,Germany,Hesse,,Frankfurt am Main
2.16.241.14,4,8,nbcsportsgrouppressbox.com,DE,Europe,Western Europe,Germany,Hesse,,Frankfurt am Main
143.42.16.30,4,8,ncpn.nl,DE,Europe,Western Europe,Germany,Hesse,,Frankfurt am Main
35.198.115.130,4,4,nedirnedemek.com,DE,Europe,Western Europe,Germany,Hesse,,Frankfurt am Main
167.172.101.171,4,2,neironix.io,DE,Europe,Western Europe,Germany,Hesse,,Frankfurt am Main
52.58.220.37,4,22,neitileu.no,DE,Europe,Western Europe,Germany,Hesse,,Frankfurt am Main
207.154.223.212,4,2,neo900.org,DE,Europe,Western Europe,Germany,Hesse,,Frankfurt am Main
165.227.144.44,4,4,netboard.me,DE,Europe,Western Europe,Germany,Hesse,,Frankfurt am Main
35.198.159.3,4,2,netzwelt.de,DE,Europe,Western Europe,Germany,Hesse,,Frankfurt am Main
161.35.200.50,4,19,neurotechnologia.pl,DE,Europe,Western Europe,Germany,Hesse,,Frankfurt am Main
18.156.208.146,4,45,newland-id.com,DE,Europe,Western Europe,Germany,Hesse,,Frankfurt am Main
185.78.76.88,4,6,newostrie.ru,DE,Europe,Western Europe,Germany,Hesse,,Frankfurt am Main
139.162.145.14,4,56,newsatme.com,DE,Europe,Western Europe,Germany,Hesse,,Frankfurt am Main
2.19.198.171,4,8,nexans.de,DE,Europe,Western Europe,Germany,Hesse,,Frankfurt am Main
2.19.198.161,4,20,nexans.de,DE,Europe,Western Europe,Germany,Hesse,,Frankfurt am Main
2.19.198.170,4,13,nexans.fr,DE,Europe,Western Europe,Germany,Hesse,,Frankfurt am Main
2.19.198.152,4,11,nexans.fr,DE,Europe,Western Europe,Germany,Hesse,,Frankfurt am Main
2.19.198.147,4,15,nexans.no,DE,Europe,Western Europe,Germany,Hesse,,Frankfurt am Main
2.19.198.146,4,8,nexans.no,DE,Europe,Western Europe,Germany,Hesse,,Frankfurt am Main
18.197.74.217,4,32,nextion.tech,DE,Europe,Western Europe,Germany,Hesse,,Frankfurt am Main
52.58.199.22,4,-519075,nginx.org,DE,Europe,Western Europe,Germany,Hesse,,Frankfurt am Main
3.125.197.172,4,-99608,nginx.org,DE,Europe,Western Europe,Germany,Hesse,,Frankfurt am Main
104.248.26.170,4,7,nginxconfig.io,DE,Europe,Western Europe,Germany,Hesse,,Frankfurt am Main
54.93.194.46,4,4,nicehair.dk,DE,Europe,Western Europe,Germany,Hesse,,Frankfurt am Main
18.158.69.137,4,4,nicehair.dk,DE,Europe,Western Europe,Germany,Hesse,,Frankfurt am Main
46.101.110.96,4,5,nicekit.com,DE,Europe,Western Europe,Germany,Hesse,,Frankfurt am Main
138.201.98.186,4,12,niche-beauty.com,DE,Europe,Western Europe,Germany,Hesse,,Frankfurt am Main
2.17.100.155,4,15,nickel.eu,DE,Europe,Western Europe,Germany,Hesse,,Frankfurt am Main
2.17.100.202,4,18,nickel.eu,DE,Europe,Western Europe,Germany,Hesse,,Frankfurt am Main
5.1.86.144,4,39,nicolai-bicycles.com,DE,Europe,Western Europe,Germany,Hesse,,Frankfurt am Main
45.67.14.170,4,19,nigeriagasforum.com,DE,Europe,Western Europe,Germany,Hesse,,Frankfurt am Main
134.255.225.125,4,19,nightangels.in,DE,Europe,Western Europe,Germany,Hesse,,Frankfurt am Main
94.141.103.138,4,-2,nikeairhuarache.org.uk,DE,Europe,Western Europe,Germany,Hesse,,Frankfurt am Main
172.104.237.54,4,4,ninetheme.com,DE,Europe,Western Europe,Germany,Hesse,,Frankfurt am Main
188.166.192.44,4,1,ninoxdb.de,DE,Europe,Western Europe,Germany,Hesse,,Frankfurt am Main
85.190.148.140,4,5,nitrado.net,DE,Europe,Western Europe,Germany,Hesse,,Frankfurt am Main
50.2.199.85,4,-20091,njatcz.com,DE,Europe,Western Europe,Germany,Hesse,,Frankfurt am Main
159.89.25.119,4,3,njordlaw.com,DE,Europe,Western Europe,Germany,Hesse,,Frankfurt am Main
174.138.103.246,4,3,njuko.com,DE,Europe,Western Europe,Germany,Hesse,,Frankfurt am Main
172.104.146.197,4,5,nlarchitects.nl,DE,Europe,Western Europe,Germany,Hesse,,Frankfurt am Main
66.22.35.93,4,12,nlb.mk,DE,Europe,Western Europe,Germany,Hesse,,Frankfurt am Main
66.22.35.109,4,14,nlbkb.rs,DE,Europe,Western Europe,Germany,Hesse,,Frankfurt am Main
212.224.113.82,4,3,nlping.ru,DE,Europe,Western Europe,Germany,Hesse,,Frankfurt am Main
34.89.253.190,4,28,noen.at,DE,Europe,Western Europe,Germany,Hesse,,Frankfurt am Main
50.3.170.134,4,16,nordisi.com,DE,Europe,Western Europe,Germany,Hesse,,Frankfurt am Main
165.227.164.18,4,79,nostr.com,DE,Europe,Western Europe,Germany,Hesse,,Frankfurt am Main
3.126.11.111,4,104,notebooksbilliger.de,DE,Europe,Western Europe,Germany,Hesse,,Frankfurt am Main
167.99.134.19,4,8,nox-xtreme.com,DE,Europe,Western Europe,Germany,Hesse,,Frankfurt am Main
23.212.221.216,4,15,nsa.gov,DE,Europe,Western Europe,Germany,Hesse,,Frankfurt am Main
2.16.1.130,4,16,nsinternational.com,DE,Europe,Western Europe,Germany,Hesse,,Frankfurt am Main
2.16.1.41,4,42,nsinternational.com,DE,Europe,Western Europe,Germany,Hesse,,Frankfurt am Main
172.105.251.243,4,8,null.ro,DE,Europe,Western Europe,Germany,Hesse,,Frankfurt am Main
213.232.113.31,4,29,oasq.com,DE,Europe,Western Europe,Germany,Hesse,,Frankfurt am Main
212.80.229.59,4,77,oberlausitz.com,DE,Europe,Western Europe,Germany,Hesse,,Bad Homburg
172.104.152.153,4,72,objectivepartners.com,DE,Europe,Western Europe,Germany,Hesse,,Frankfurt am Main
165.227.173.44,4,91199,objektifhaber.com,DE,Europe,Western Europe,Germany,Hesse,,Frankfurt am Main
46.101.149.147,4,12,ocenaudio.com,DE,Europe,Western Europe,Germany,Hesse,,Frankfurt am Main
164.92.202.5,4,10,octopus.do,DE,Europe,Western Europe,Germany,Hesse,,Frankfurt am Main
139.59.134.61,4,13,odesd2.com,DE,Europe,Western Europe,Germany,Hesse,,Frankfurt am Main
192.250.229.77,4,8,odontoiatriaprivataitaliana.it,DE,Europe,Western Europe,Germany,Hesse,,Frankfurt am Main
5.1.86.171,4,32,oehlbach.com,DE,Europe,Western Europe,Germany,Hesse,,Frankfurt am Main
207.154.194.136,4,56,offroadmaster.com,DE,Europe,Western Europe,Germany,Hesse,,Frankfurt am Main
192.46.236.195,4,36,ofid.org,DE,Europe,Western Europe,Germany,Hesse,,Frankfurt am Main
35.207.131.108,4,6,oggitreviso.it,DE,Europe,Western Europe,Germany,Hesse,,Frankfurt am Main
145.239.1.224,4,3,ohmy.ca,DE,Europe,Western Europe,Germany,Hesse,,Frankfurt am Main
139.162.146.185,4,32,oidp.net,DE,Europe,Western Europe,Germany,Hesse,,Frankfurt am Main
139.162.131.221,4,5981,oise.com,DE,Europe,Western Europe,Germany,Hesse,,Frankfurt am Main
164.92.197.71,4,-2,olabahisgir.com,DE,Europe,Western Europe,Germany,Hesse,,Frankfurt am Main
23.3.109.208,4,7,oldnavy.com,DE,Europe,Western Europe,Germany,Hesse,,Frankfurt am Main
172.105.73.43,4,7,olivera.org,DE,Europe,Western Europe,Germany,Hesse,,Frankfurt am Main
213.183.44.95,4,18,olymptrade-app.online,DE,Europe,Western Europe,Germany,Hesse,,Frankfurt am Main
130.61.14.88,4,27,omvpetrom.com,DE,Europe,Western Europe,Germany,Hesse,,Frankfurt am Main
47.91.87.213,4,3,onebet.co.ug,DE,Europe,Western Europe,Germany,Hesse,,Frankfurt am Main
104.248.138.150,4,35,oneplanetnetwork.org,DE,Europe,Western Europe,Germany,Hesse,,Frankfurt am Main
161.35.222.183,4,52,onlinecasinosat.com,DE,Europe,Western Europe,Germany,Hesse,,Frankfurt am Main
51.195.5.72,4,63,onlinecrosswords.net,DE,Europe,Western Europe,Germany,Hesse,,Limburg an der Lahn
139.162.149.42,4,114,onlinegeldlenen.org,DE,Europe,Western Europe,Germany,Hesse,,Frankfurt am Main
23.206.208.199,4,13,onmanorama.com,DE,Europe,Western Europe,Germany,Hesse,,Frankfurt am Main
185.37.147.2,4,340,Ookla Speedtest Server 18667: speedtest.meerfarbig.net,DE,Europe,Western Europe,Germany,Hesse,,Frankfurt am Main
92.119.89.90,4,385,Ookla Speedtest Server 37492: speedtest-fra.melbicom.net,DE,Europe,Western Europe,Germany,Hesse,,Frankfurt am Main
80.69.193.67,4,193,Ookla Speedtest Server 53619: speedtest.netcomnetz.de,DE,Europe,Western Europe,Germany,Hesse,,Kassel
45.145.43.232,4,320,Ookla Speedtest Server 61020: speedtest.emir.network,DE,Europe,Western Europe,Germany,Hesse,,Offenbach
212.68.55.3,4,282,Ookla Speedtest Server 62064: fr.speedtest.comnet.com.tr,DE,Europe,Western Europe,Germany,Hesse,,Frankfurt am Main
212.113.116.5,4,229,Ookla Speedtest Server 62943: lg-ffm.aeza.net,DE,Europe,Western Europe,Germany,Hesse,,Frankfurt am Main
80.244.210.230,4,193552,Ookla Speedtest Server 63028: speedtest.webdiscount.net,DE,Europe,Western Europe,Germany,Hesse,,Frankfurt am Main
185.6.123.45,4,305,Ookla Speedtest Server 63684: speedtest01.stiegeler.com,DE,Europe,Western Europe,Germany,Hesse,,Frankfurt am Main
91.200.192.8,4,346,Ookla Speedtest Server 64114: speedtest.fra01.fusionflare.cloud,DE,Europe,Western Europe,Germany,Hesse,,Frankfurt am Main
18.196.139.123,4,45,openbankproject.com,DE,Europe,Western Europe,Germany,Hesse,,Frankfurt am Main
57.129.21.79,4,2,opendoors.de,DE,Europe,Western Europe,Germany,Hesse,,Frankfurt am Main
192.250.229.38,4,3,openhardware.science,DE,Europe,Western Europe,Germany,Hesse,,Frankfurt am Main
139.162.175.247,4,4,openkode.io,DE,Europe,Western Europe,Germany,Hesse,,Frankfurt am Main
134.209.244.101,4,8,openports.se,DE,Europe,Western Europe,Germany,Hesse,,Frankfurt am Main
46.101.158.64,4,2,openslr.org,DE,Europe,Western Europe,Germany,Hesse,,Frankfurt am Main
64.226.122.113,4,4,openwrt.org,DE,Europe,Western Europe,Germany,Hesse,,Frankfurt am Main
139.144.77.238,4,-17322,opsur.org.ar,DE,Europe,Western Europe,Germany,Hesse,,Frankfurt am Main
138.201.1.23,4,23,opti.de,DE,Europe,Western Europe,Germany,Hesse,,Frankfurt am Main
68.183.243.131,4,-1,oravskemuzeum.sk,DE,Europe,Western Europe,Germany,Hesse,,Frankfurt am Main
88.221.62.40,4,29,oreillyauto.com,DE,Europe,Western Europe,Germany,Hesse,,Frankfurt am Main
139.162.138.205,4,23,osd.at,DE,Europe,Western Europe,Germany,Hesse,,Frankfurt am Main
157.230.98.73,4,3,osobnosti.sk,DE,Europe,Western Europe,Germany,Hesse,,Frankfurt am Main
5.187.1.251,4,2,osvita-center.com.ua,DE,Europe,Western Europe,Germany,Hesse,,Frankfurt am Main
213.226.68.135,4,63,otcommerce.com,DE,Europe,Western Europe,Germany,Hesse,,Frankfurt am Main
139.59.155.229,4,12,otter-browser.org,DE,Europe,Western Europe,Germany,Hesse,,Frankfurt am Main
34.89.182.112,4,41,oway.it,DE,Europe,Western Europe,Germany,Hesse,,Frankfurt am Main
135.125.205.55,4,5,packagist.org,DE,Europe,Western Europe,Germany,Hesse,,Frankfurt am Main
79.133.58.12,4,14,page2flip.de,DE,Europe,Western Europe,Germany,Hesse,,Frankfurt am Main
67.207.77.226,4,14,pagedjs.org,DE,Europe,Western Europe,Germany,Hesse,,Frankfurt am Main
138.201.13.250,4,6,panotophia.de,DE,Europe,Western Europe,Germany,Hesse,,Frankfurt am Main
206.81.29.81,4,-1555,papermerge.com,DE,Europe,Western Europe,Germany,Hesse,,Frankfurt am Main
3.124.161.102,4,14,papernest.com,DE,Europe,Western Europe,Germany,Hesse,,Frankfurt am Main
18.194.82.239,4,4,papernest.es,DE,Europe,Western Europe,Germany,Hesse,,Frankfurt am Main
139.162.177.185,4,31,paradoxnotion.com,DE,Europe,Western Europe,Germany,Hesse,,Frankfurt am Main
18.194.40.103,4,54,paragon-software.com,DE,Europe,Western Europe,Germany,Hesse,,Frankfurt am Main
172.105.246.198,4,54,paramount.de,DE,Europe,Western Europe,Germany,Hesse,,Frankfurt am Main
57.129.21.186,4,35,parapolitika.gr,DE,Europe,Western Europe,Germany,Hesse,,Frankfurt am Main
159.65.113.71,4,44,parfumline.cz,DE,Europe,Western Europe,Germany,Hesse,,Frankfurt am Main
157.245.25.130,4,28,pariplayltd.com,DE,Europe,Western Europe,Germany,Hesse,,Frankfurt am Main
172.104.155.170,4,27,parisfintechforum.com,DE,Europe,Western Europe,Germany,Hesse,,Frankfurt am Main
34.159.199.212,4,28,parmigianoreggiano.it,DE,Europe,Western Europe,Germany,Hesse,,Frankfurt am Main
139.59.136.173,4,10,parokia.hu,DE,Europe,Western Europe,Germany,Hesse,,Frankfurt am Main
167.172.96.215,4,34,parta.com.ua,DE,Europe,Western Europe,Germany,Hesse,,Frankfurt am Main
188.166.160.81,4,30,passia.org,DE,Europe,Western Europe,Germany,Hesse,,Frankfurt am Main
34.159.203.27,4,6,patrimoniu.ro,DE,Europe,Western Europe,Germany,Hesse,,Frankfurt am Main
104.102.51.170,4,11,paytmmoney.com,DE,Europe,Western Europe,Germany,Hesse,,Frankfurt am Main
212.115.110.169,4,49,pcpraxis.de,DE,Europe,Western Europe,Germany,Hesse,,Frankfurt am Main
52.29.233.223,4,13,peli.com,DE,Europe,Western Europe,Germany,Hesse,,Frankfurt am Main
3.127.72.190,4,39,peli.com,DE,Europe,Western Europe,Germany,Hesse,,Frankfurt am Main
18.185.198.153,4,6,peli.com,DE,Europe,Western Europe,Germany,Hesse,,Frankfurt am Main
89.187.169.74,4,4,pelikan.com,DE,Europe,Western Europe,Germany,Hesse,,Frankfurt am Main
199.247.22.249,4,5,pengerinfo.no,DE,Europe,Western Europe,Germany,Hesse,,Frankfurt am Main
128.65.211.90,4,15,penguin.de,DE,Europe,Western Europe,Germany,Hesse,,Frankfurt am Main
184.24.77.67,4,41,peopleschoice.com,DE,Europe,Western Europe,Germany,Hesse,,Frankfurt am Main
184.24.77.52,4,62,peopleschoice.com,DE,Europe,Western Europe,Germany,Hesse,,Frankfurt am Main
46.101.181.156,4,255588,pepitas.net,DE,Europe,Western Europe,Germany,Hesse,,Frankfurt am Main
172.104.157.119,4,46,pepp-pt.org,DE,Europe,Western Europe,Germany,Hesse,,Frankfurt am Main
18.197.3.14,4,9,petiteamelie.nl,DE,Europe,Western Europe,Germany,Hesse,,Frankfurt am Main
3.122.65.52,4,18,petiteamelie.nl,DE,Europe,Western Europe,Germany,Hesse,,Frankfurt am Main
18.197.126.167,4,44,petiteamelie.nl,DE,Europe,Western Europe,Germany,Hesse,,Frankfurt am Main
3.69.159.35,4,20,ph-gmuend.de,DE,Europe,Western Europe,Germany,Hesse,,Frankfurt am Main
128.65.211.204,4,9,pharao24.de,DE,Europe,Western Europe,Germany,Hesse,,Frankfurt am Main
104.248.23.104,4,12,pharaonic.io,DE,Europe,Western Europe,Germany,Hesse,,Frankfurt am Main
52.29.183.186,4,17,pharmacie.be,DE,Europe,Western Europe,Germany,Hesse,,Frankfurt am Main
57.129.59.7,4,26,phpvibe.com,DE,Europe,Western Europe,Germany,Hesse,,Frankfurt am Main
165.227.129.241,4,6,piastrix.com,DE,Europe,Western Europe,Germany,Hesse,,Frankfurt am Main
18.158.154.184,4,10,picdrop.de,DE,Europe,Western Europe,Germany,Hesse,,Frankfurt am Main
18.158.197.69,4,8,picdrop.de,DE,Europe,Western Europe,Germany,Hesse,,Frankfurt am Main
35.158.21.43,4,1,picdrop.de,DE,Europe,Western Europe,Germany,Hesse,,Frankfurt am Main
3.121.247.138,4,19,pioneer.co.uk,DE,Europe,Western Europe,Germany,Hesse,,Frankfurt am Main
35.246.169.220,4,38,pioneers.io,DE,Europe,Western Europe,Germany,Hesse,,Frankfurt am Main
139.59.213.134,4,4,pirna.de,DE,Europe,Western Europe,Germany,Hesse,,Frankfurt am Main
203.23.179.12,4,4,pixeldrain.com,DE,Europe,Western Europe,Germany,Hesse,,Frankfurt am Main
203.23.179.10,4,43,pixeldrain.com,DE,Europe,Western Europe,Germany,Hesse,,Frankfurt am Main
203.23.179.11,4,24,pixeldrain.com,DE,Europe,Western Europe,Germany,Hesse,,Frankfurt am Main
161.35.74.233,4,45,pixflow.net,DE,Europe,Western Europe,Germany,Hesse,,Frankfurt am Main
172.105.65.63,4,519,planningwiz.com,DE,Europe,Western Europe,Germany,Hesse,,Frankfurt am Main
145.239.3.83,4,19,play3.de,DE,Europe,Western Europe,Germany,Hesse,,Frankfurt am Main
128.65.211.169,4,8,playatlas.com,DE,Europe,Western Europe,Germany,Hesse,,Frankfurt am Main
5.187.4.139,4,9,playclaw.com,DE,Europe,Western Europe,Germany,Hesse,,Frankfurt am Main
46.101.212.22,4,8,playerjs.com,DE,Europe,Western Europe,Germany,Hesse,,Frankfurt am Main
128.65.210.80,4,3,plusserver.com,DE,Europe,Western Europe,Germany,Hesse,,Frankfurt am Main
18.185.66.47,4,33,pochtipochta.ru,DE,Europe,Western Europe,Germany,Hesse,,Frankfurt am Main
5.44.100.215,4,12,pockethernet.com,DE,Europe,Western Europe,Germany,Hesse,,Frankfurt am Main
94.23.164.180,4,-825353,pogotowienaukowe.com,DE,Europe,Western Europe,Germany,Hesse,,Limburg an der Lahn
134.209.252.185,4,43,pohtm.com,DE,Europe,Western Europe,Germany,Hesse,,Frankfurt am Main
185.53.210.12,4,31,pointgrab.com,DE,Europe,Western Europe,Germany,Hesse,,Frankfurt am Main
104.248.17.229,4,44,pokepast.es,DE,Europe,Western Europe,Germany,Hesse,,Frankfurt am Main
3.126.54.196,4,20,pol.nl,DE,Europe,Western Europe,Germany,Hesse,,Frankfurt am Main
46.101.194.150,4,2,polotsk-portal.ru,DE,Europe,Western Europe,Germany,Hesse,,Frankfurt am Main
167.99.142.137,4,1547141,portal-credo.ru,DE,Europe,Western Europe,Germany,Hesse,,Frankfurt am Main
142.93.104.95,4,8,postmuseum.se,DE,Europe,Western Europe,Germany,Hesse,,Frankfurt am Main
158.101.163.116,4,19,pravda-mlm.ru,DE,Europe,Western Europe,Germany,Hesse,,Frankfurt am Main
161.35.16.101,4,64,pravoslavie.by,DE,Europe,Western Europe,Germany,Hesse,,Frankfurt am Main
139.162.166.31,4,51,presidence.ne,DE,Europe,Western Europe,Germany,Hesse,,Frankfurt am Main
194.233.175.97,4,55,pressclub.be,DE,Europe,Western Europe,Germany,Hesse,,Frankfurt am Main
212.80.229.230,4,51,pressol.com,DE,Europe,Western Europe,Germany,Hesse,,Bad Homburg
128.65.210.252,4,64,printplanet.de,DE,Europe,Western Europe,Germany,Hesse,,Frankfurt am Main
89.38.128.104,4,37,prison.org,DE,Europe,Western Europe,Germany,Hesse,,Frankfurt am Main
165.22.72.173,4,13,probukmacher.pl,DE,Europe,Western Europe,Germany,Hesse,,Frankfurt am Main
139.59.149.27,4,2,producttoday.com.mt,DE,Europe,Western Europe,Germany,Hesse,,Frankfurt am Main
161.35.213.24,4,7,projectliberty.org,DE,Europe,Western Europe,Germany,Hesse,,Frankfurt am Main
139.162.132.71,4,5,promeseo.com,DE,Europe,Western Europe,Germany,Hesse,,Frankfurt am Main
34.159.168.89,4,24,promotionbasis.de,DE,Europe,Western Europe,Germany,Hesse,,Frankfurt am Main
66.22.34.123,4,11,pronokal.com,DE,Europe,Western Europe,Germany,Hesse,,Frankfurt am Main
3.122.12.28,4,34,prontobolletta.it,DE,Europe,Western Europe,Germany,Hesse,,Frankfurt am Main
18.198.166.35,4,11,prophoto-online.de,DE,Europe,Western Europe,Germany,Hesse,,Frankfurt am Main
47.245.181.163,4,5,proscenic.com,DE,Europe,Western Europe,Germany,Hesse,,Frankfurt am Main
139.162.183.47,4,83,prostoria.eu,DE,Europe,Western Europe,Germany,Hesse,,Frankfurt am Main
5.187.7.54,4,17,protect-me.com,DE,Europe,Western Europe,Germany,Hesse,,Frankfurt am Main
212.224.112.99,4,10,proximasoftware.com,DE,Europe,Western Europe,Germany,Hesse,,Frankfurt am Main
172.104.157.100,4,32,proxis.be,DE,Europe,Western Europe,Germany,Hesse,,Frankfurt am Main
5.187.1.102,4,46,pskurs.ru,DE,Europe,Western Europe,Germany,Hesse,,Frankfurt am Main
57.129.53.187,4,3,ptcdn.info,DE,Europe,Western Europe,Germany,Hesse,,Frankfurt am Main
164.92.184.36,4,8,publicwww.com,DE,Europe,Western Europe,Germany,Hesse,,Frankfurt am Main
143.42.18.64,4,23,pula.hr,DE,Europe,Western Europe,Germany,Hesse,,Frankfurt am Main
18.193.126.142,4,6,pulse.is,DE,Europe,Western Europe,Germany,Hesse,,Frankfurt am Main
2.17.177.206,4,52,pulsenetwork.com,DE,Europe,Western Europe,Germany,Hesse,,Frankfurt am Main
35.157.138.120,4,6,pv.de,DE,Europe,Western Europe,Germany,Hesse,,Frankfurt am Main
35.246.165.174,4,3,pzgomaz.com,DE,Europe,Western Europe,Germany,Hesse,,Frankfurt am Main
66.22.34.137,4,10,q8.com,DE,Europe,Western Europe,Germany,Hesse,,Frankfurt am Main
66.22.32.94,4,5,q8.it,DE,Europe,Western Europe,Germany,Hesse,,Frankfurt am Main
172.105.76.146,4,5,qanplatform.com,DE,Europe,Western Europe,Germany,Hesse,,Frankfurt am Main
85.195.81.2,4,27,qualitaetskliniken.de,DE,Europe,Western Europe,Germany,Hesse,,Frankfurt am Main
45.83.245.57,4,10,qualityprogamer.de,DE,Europe,Western Europe,Germany,Hesse,,Frankfurt am Main
217.114.219.134,4,18,questler.de,DE,Europe,Western Europe,Germany,Hesse,,Eppstein
172.105.78.150,4,11,quick.be,DE,Europe,Western Europe,Germany,Hesse,,Frankfurt am Main
66.22.39.184,4,18,quironsalud.es,DE,Europe,Western Europe,Germany,Hesse,,Frankfurt am Main
3.124.201.156,4,1,quooker.nl,DE,Europe,Western Europe,Germany,Hesse,,Frankfurt am Main
213.183.44.143,4,5,qxinfo.kz,DE,Europe,Western Europe,Germany,Hesse,,Frankfurt am Main
172.104.252.78,4,71,rada.re,DE,Europe,Western Europe,Germany,Hesse,,Frankfurt am Main
192.248.178.218,4,115,radiologex.com,DE,Europe,Western Europe,Germany,Hesse,,Frankfurt am Main
192.250.229.131,4,99,radiozahle.com,DE,Europe,Western Europe,Germany,Hesse,,Frankfurt am Main
138.201.75.98,4,5,raiders.at,DE,Europe,Western Europe,Germany,Hesse,,Frankfurt am Main
35.198.174.167,4,51,rap.de,DE,Europe,Western Europe,Germany,Hesse,,Frankfurt am Main
138.201.230.72,4,73,rarepalmseeds.com,DE,Europe,Western Europe,Germany,Hesse,,Frankfurt am Main
138.201.169.214,4,43,ratgeberrecht.eu,DE,Europe,Western Europe,Germany,Hesse,,Frankfurt am Main
172.104.242.9,4,35,ratskeller.com,DE,Europe,Western Europe,Germany,Hesse,,Frankfurt am Main
172.104.147.197,4,3,rcreee.org,DE,Europe,Western Europe,Germany,Hesse,,Frankfurt am Main
193.106.249.61,4,39,readkong.com,DE,Europe,Western Europe,Germany,Hesse,,Frankfurt am Main
80.240.20.30,4,17,realestateportal.org,DE,Europe,Western Europe,Germany,Hesse,,Frankfurt am Main
66.151.43.112,4,34,realkz.com,DE,Europe,Western Europe,Germany,Hesse,,Frankfurt am Main
188.166.160.76,4,6,rechtsanwalt-metzler.de,DE,Europe,Western Europe,Germany,Hesse,,Frankfurt am Main
172.105.87.76,4,295543,recipepuppy.com,DE,Europe,Western Europe,Germany,Hesse,,Frankfurt am Main
192.250.229.44,4,6,reddyannaa-id.in,DE,Europe,Western Europe,Germany,Hesse,,Frankfurt am Main
5.187.6.123,4,38,redsurf.ru,DE,Europe,Western Europe,Germany,Hesse,,Frankfurt am Main
188.166.194.244,4,40,redux-vehicles.eu,DE,Europe,Western Europe,Germany,Hesse,,Frankfurt am Main
139.162.151.130,4,51,reformal.ru,DE,Europe,Western Europe,Germany,Hesse,,Frankfurt am Main
47.91.89.93,4,26,regexlab.com,DE,Europe,Western Europe,Germany,Hesse,,Frankfurt am Main
165.227.245.82,4,21,reggiochildren.it,DE,Europe,Western Europe,Germany,Hesse,,Frankfurt am Main
89.44.198.84,4,77564,reikartz.com,DE,Europe,Western Europe,Germany,Hesse,,Frankfurt am Main
3.125.140.145,4,28,relax-gaming.com,DE,Europe,Western Europe,Germany,Hesse,,Frankfurt am Main
143.244.205.200,4,2,renamer.com,DE,Europe,Western Europe,Germany,Hesse,,Frankfurt am Main
142.93.173.173,4,10,republicoftogo.com,DE,Europe,Western Europe,Germany,Hesse,,Frankfurt am Main
162.19.170.29,4,73,retouch4.me,DE,Europe,Western Europe,Germany,Hesse,,Frankfurt am Main
109.120.177.13,4,16,retriv.market,DE,Europe,Western Europe,Germany,Hesse,,Frankfurt am Main
157.230.29.70,4,13,reviewbox.com.mx,DE,Europe,Western Europe,Germany,Hesse,,Frankfurt am Main
95.101.148.66,4,15,rfa.org,DE,Europe,Western Europe,Germany,Hesse,,Frankfurt am Main
57.129.7.77,4,16,rfhe.com,DE,Europe,Western Europe,Germany,Hesse,,Frankfurt am Main
46.101.250.103,4,20,rhizomatica.org,DE,Europe,Western Europe,Germany,Hesse,,Frankfurt am Main
192.250.229.83,4,2,rijsat.com,DE,Europe,Western Europe,Germany,Hesse,,Frankfurt am Main
67.207.79.107,4,19,rikatillsammans.se,DE,Europe,Western Europe,Germany,Hesse,,Frankfurt am Main
138.68.80.97,4,561181,robinwieruch.de,DE,Europe,Western Europe,Germany,Hesse,,Frankfurt am Main
194.28.224.216,4,41,rock-club.net,DE,Europe,Western Europe,Germany,Hesse,,Frankfurt am Main
3.65.152.135,4,3,rocking.gr,DE,Europe,Western Europe,Germany,Hesse,,Frankfurt am Main
3.78.22.127,4,18,rocking.gr,DE,Europe,Western Europe,Germany,Hesse,,Frankfurt am Main
68.183.215.172,4,65,rockstor.com,DE,Europe,Western Europe,Germany,Hesse,,Frankfurt am Main
66.22.61.150,4,73,roig.com,DE,Europe,Western Europe,Germany,Hesse,,Frankfurt am Main
138.68.112.220,4,31,rolandtanglao.com,DE,Europe,Western Europe,Germany,Hesse,,Frankfurt am Main
192.250.229.26,4,14,romics.it,DE,Europe,Western Europe,Germany,Hesse,,Frankfurt am Main
165.232.67.121,4,19,romka.eu,DE,Europe,Western Europe,Germany,Hesse,,Frankfurt am Main
207.154.241.56,4,57,roopikarisam.com,DE,Europe,Western Europe,Germany,Hesse,,Frankfurt am Main
159.65.117.215,4,0,rossiprofumi.it,DE,Europe,Western Europe,Germany,Hesse,,Frankfurt am Main
154.48.221.41,4,-24,routee.net,DE,Europe,Western Europe,Germany,Hesse,,Frankfurt am Main
162.19.245.139,4,10,roxtar.nl,DE,Europe,Western Europe,Germany,Hesse,,Limburg an der Lahn
192.250.229.27,4,40,royalclinicdubai.com,DE,Europe,Western Europe,Germany,Hesse,,Frankfurt am Main
172.104.142.216,4,38,roytanck.com,DE,Europe,Western Europe,Germany,Hesse,,Frankfurt am Main
167.172.177.32,4,33,roztr.com,DE,Europe,Western Europe,Germany,Hesse,,Frankfurt am Main
178.128.195.23,4,5,rrock.ru,DE,Europe,Western Europe,Germany,Hesse,,Frankfurt am Main
192.250.229.90,4,44,rschuman-europeanschool.edu.ge,DE,Europe,Western Europe,Germany,Hesse,,Frankfurt am Main
139.59.152.255,4,7,rudiplomirovanie.com,DE,Europe,Western Europe,Germany,Hesse,,Frankfurt am Main
164.92.191.114,4,8,rudiplomy.com,DE,Europe,Western Europe,Germany,Hesse,,Frankfurt am Main
91.228.153.39,4,53,rulez-t.info,DE,Europe,Western Europe,Germany,Hesse,,Frankfurt am Main
172.105.77.232,4,41,runnics.com,DE,Europe,Western Europe,Germany,Hesse,,Frankfurt am Main
164.90.234.209,4,35,russdiplomik.com,DE,Europe,Western Europe,Germany,Hesse,,Frankfurt am Main
46.101.230.209,4,-1,russians-diploms.com,DE,Europe,Western Europe,Germany,Hesse,,Frankfurt am Main
167.172.175.165,4,46,russiany-diploma.com,DE,Europe,Western Europe,Germany,Hesse,,Frankfurt am Main
128.65.211.141,4,4,rwe.com,DE,Europe,Western Europe,Germany,Hesse,,Frankfurt am Main
209.38.184.132,4,6,rxresu.me,DE,Europe,Western Europe,Germany,Hesse,,Frankfurt am Main
172.105.67.53,4,11,saamicouncil.net,DE,Europe,Western Europe,Germany,Hesse,,Frankfurt am Main
52.58.166.79,4,7,sacatuentrada.es,DE,Europe,Western Europe,Germany,Hesse,,Frankfurt am Main
172.104.235.63,4,5,saesgetters.com,DE,Europe,Western Europe,Germany,Hesse,,Frankfurt am Main
46.101.184.138,4,14,sahco.com,DE,Europe,Western Europe,Germany,Hesse,,Frankfurt am Main
159.89.9.187,4,11,saksx-attestats.ru,DE,Europe,Western Europe,Germany,Hesse,,Frankfurt am Main
139.162.181.76,4,1,salaschatswinger.com,DE,Europe,Western Europe,Germany,Hesse,,Frankfurt am Main
138.201.227.202,4,34,sallys-blog.de,DE,Europe,Western Europe,Germany,Hesse,,Frankfurt am Main
185.17.120.27,4,22,samara110.ru,DE,Europe,Western Europe,Germany,Hesse,,Frankfurt am Main
161.35.73.57,4,23,same-tractors.com,DE,Europe,Western Europe,Germany,Hesse,,Frankfurt am Main
41.63.96.130,4,11,santepubliquefrance.fr,DE,Europe,Western Europe,Germany,Hesse,,Frankfurt am Main
165.140.116.72,4,-33,sarahconner.co.uk,DE,Europe,Western Europe,Germany,Hesse,,Frankfurt am Main
66.22.32.115,4,46,sas.dk,DE,Europe,Western Europe,Germany,Hesse,,Frankfurt am Main
66.22.34.77,4,8,sas.fi,DE,Europe,Western Europe,Germany,Hesse,,Frankfurt am Main
66.22.34.49,4,37,sas.no,DE,Europe,Western Europe,Germany,Hesse,,Frankfurt am Main
66.22.34.40,4,8,sas.se,DE,Europe,Western Europe,Germany,Hesse,,Frankfurt am Main
194.233.161.171,4,1017,saudi-lawyer.org,DE,Europe,Western Europe,Germany,Hesse,,Frankfurt am Main
212.80.228.190,4,62,saurierpark.de,DE,Europe,Western Europe,Germany,Hesse,,Bad Homburg
128.65.210.144,4,2,save.tv,DE,Europe,Western Europe,Germany,Hesse,,Frankfurt am Main
46.101.171.181,4,5,sazu.si,DE,Europe,Western Europe,Germany,Hesse,,Frankfurt am Main
45.67.14.167,4,4,sbadvertisingmedia.com,DE,Europe,Western Europe,Germany,Hesse,,Frankfurt am Main
192.250.229.42,4,2,sbcllcae.com,DE,Europe,Western Europe,Germany,Hesse,,Frankfurt am Main
68.183.220.200,4,4,scalingupnutrition.org,DE,Europe,Western Europe,Germany,Hesse,,Frankfurt am Main
35.246.220.216,4,25,schachermayer.com,DE,Europe,Western Europe,Germany,Hesse,,Frankfurt am Main
172.104.233.69,4,39,scheepvaartmuseum.nl,DE,Europe,Western Europe,Germany,Hesse,,Frankfurt am Main
139.162.164.167,4,64,schindhelm.com,DE,Europe,Western Europe,Germany,Hesse,,Frankfurt am Main
128.65.209.66,4,45,schneeberger.com,DE,Europe,Western Europe,Germany,Hesse,,Frankfurt am Main
128.65.210.59,4,5,schufa.de,DE,Europe,Western Europe,Germany,Hesse,,Frankfurt am Main
87.190.21.78,4,2,schwandorf.de,DE,Europe,Western Europe,Germany,Hesse,,Obertshausen
134.122.91.205,4,17,schwebebahn.de,DE,Europe,Western Europe,Germany,Hesse,,Frankfurt am Main
35.198.141.149,4,41,sciaraprogetti.com,DE,Europe,Western Europe,Germany,Hesse,,Frankfurt am Main
64.227.119.22,4,-1,sdfgroup.com,DE,Europe,Western Europe,Germany,Hesse,,Frankfurt am Main
52.58.12.10,4,1,secretsoftheice.com,DE,Europe,Western Europe,Germany,Hesse,,Frankfurt am Main
5.1.80.135,4,4,segelreporter.com,DE,Europe,Western Europe,Germany,Hesse,,Frankfurt am Main
128.65.210.38,4,6,segmueller.de,DE,Europe,Western Europe,Germany,Hesse,,Frankfurt am Main
95.179.160.181,4,18,selfhostedserver.com,DE,Europe,Western Europe,Germany,Hesse,,Frankfurt am Main
34.159.55.20,4,15,selinigroup.it,DE,Europe,Western Europe,Germany,Hesse,,Frankfurt am Main
143.42.18.216,4,5,senioren.nl,DE,Europe,Western Europe,Germany,Hesse,,Frankfurt am Main
185.17.120.53,4,43618,seop.ru,DE,Europe,Western Europe,Germany,Hesse,,Frankfurt am Main
5.187.1.152,4,24,seosprint.net,DE,Europe,Western Europe,Germany,Hesse,,Frankfurt am Main
172.105.70.201,4,85,serenityos.org,DE,Europe,Western Europe,Germany,Hesse,,Frankfurt am Main
138.68.79.95,4,120,serveo.net,DE,Europe,Western Europe,Germany,Hesse,,Frankfurt am Main
52.58.35.138,4,2,serviciosluz.com,DE,Europe,Western Europe,Germany,Hesse,,Frankfurt am Main
3.66.15.20,4,43,setra-bus.com,DE,Europe,Western Europe,Germany,Hesse,,Frankfurt am Main
194.233.164.231,4,2,seven.app,DE,Europe,Western Europe,Germany,Hesse,,Frankfurt am Main
193.37.70.62,4,36,sex-like.ru,DE,Europe,Western Europe,Germany,Hesse,,Frankfurt am Main
31.172.75.203,4,3,sex365-shop.co.il,DE,Europe,Western Europe,Germany,Hesse,,Frankfurt am Main
162.62.229.206,4,19,sg-micro.com,DE,Europe,Western Europe,Germany,Hesse,,Frankfurt am Main
172.104.249.254,4,27,shabiba.com,DE,Europe,Western Europe,Germany,Hesse,,Frankfurt am Main
138.113.27.66,4,7,shaddy.jp,DE,Europe,Western Europe,Germany,Hesse,,Frankfurt am Main
163.171.132.42,4,16,shaddy.jp,DE,Europe,Western Europe,Germany,Hesse,,Frankfurt am Main
163.171.132.119,4,7,shaddy.jp,DE,Europe,Western Europe,Germany,Hesse,,Frankfurt am Main
185.232.59.134,4,23,shangzhibo.tv,DE,Europe,Western Europe,Germany,Hesse,,Frankfurt am Main
157.230.117.185,4,4,sharkrf.com,DE,Europe,Western Europe,Germany,Hesse,,Frankfurt am Main
50.2.135.21,4,2,shawntelwaajid.com,DE,Europe,Western Europe,Germany,Hesse,,Frankfurt am Main
92.113.20.145,4,8,shipping-sa.com,DE,Europe,Western Europe,Germany,Hesse,,Frankfurt am Main
18.193.59.19,4,4,shirtinator.de,DE,Europe,Western Europe,Germany,Hesse,,Frankfurt am Main
35.156.226.173,4,2,shirtinator.de,DE,Europe,Western Europe,Germany,Hesse,,Frankfurt am Main
18.157.217.186,4,4,shirtinator.de,DE,Europe,Western Europe,Germany,Hesse,,Frankfurt am Main
91.228.154.126,4,13,shop-photo.ru,DE,Europe,Western Europe,Germany,Hesse,,Frankfurt am Main
95.101.111.177,4,15,shopandship.com,DE,Europe,Western Europe,Germany,Hesse,,Frankfurt am Main
46.23.76.151,4,5,shoreditchtownhall.com,DE,Europe,Western Europe,Germany,Hesse,,Frankfurt am Main
47.91.86.60,4,4,sialchina.com,DE,Europe,Western Europe,Germany,Hesse,,Frankfurt am Main
35.198.185.254,4,5,sibfest.ro,DE,Europe,Western Europe,Germany,Hesse,,Frankfurt am Main
134.255.237.124,4,40,sigrok.org,DE,Europe,Western Europe,Germany,Hesse,,Frankfurt am Main
18.193.97.162,4,42,simi-reizen.nl,DE,Europe,Western Europe,Germany,Hesse,,Frankfurt am Main
38.180.166.22,4,22,simplycookd.com,DE,Europe,Western Europe,Germany,Hesse,,Frankfurt am Main
46.101.98.225,4,2,sinopsis.cz,DE,Europe,Western Europe,Germany,Hesse,,Frankfurt am Main
46.101.140.14,4,45,sitemagic.org,DE,Europe,Western Europe,Germany,Hesse,,Frankfurt am Main
138.201.24.148,4,51,skrz.sk,DE,Europe,Western Europe,Germany,Hesse,,Frankfurt am Main
43.157.47.230,4,30,sky-tours.com,DE,Europe,Western Europe,Germany,Hesse,,Frankfurt am Main
165.22.90.125,4,48,skydocu.com,DE,Europe,Western Europe,Germany,Hesse,,Frankfurt am Main
66.22.34.176,4,17,skylink.cz,DE,Europe,Western Europe,Germany,Hesse,,Frankfurt am Main
172.105.250.36,4,17,skyrunning.com,DE,Europe,Western Europe,Germany,Hesse,,Frankfurt am Main
2.16.241.13,4,19,skysound.com,DE,Europe,Western Europe,Germany,Hesse,,Frankfurt am Main
2.16.241.17,4,29,skysound.com,DE,Europe,Western Europe,Germany,Hesse,,Frankfurt am Main
89.187.169.47,4,35,sleekshop.com,DE,Europe,Western Europe,Germany,Hesse,,Frankfurt am Main
178.33.34.243,4,2,slotmachinetricks.com,DE,Europe,Western Europe,Germany,Hesse,,Limburg an der Lahn
18.192.140.211,4,4,slotswise.com,DE,Europe,Western Europe,Germany,Hesse,,Frankfurt am Main
64.225.101.107,4,5,slovenskypacient.sk,DE,Europe,Western Europe,Germany,Hesse,,Frankfurt am Main
207.154.200.77,4,8,slukh.media,DE,Europe,Western Europe,Germany,Hesse,,Frankfurt am Main
164.92.135.147,4,32,snd.sk,DE,Europe,Western Europe,Germany,Hesse,,Frankfurt am Main
35.157.174.232,4,20,snowvalley.be,DE,Europe,Western Europe,Germany,Hesse,,Frankfurt am Main
138.197.188.152,4,13,socengine.ru,DE,Europe,Western Europe,Germany,Hesse,,Frankfurt am Main
3.125.80.136,4,46,socialquantum.com,DE,Europe,Western Europe,Germany,Hesse,,Frankfurt am Main
3.68.252.163,4,27,socialquantum.com,DE,Europe,Western Europe,Germany,Hesse,,Frankfurt am Main
3.77.142.181,4,50,socialquantum.com,DE,Europe,Western Europe,Germany,Hesse,,Frankfurt am Main
138.201.13.228,4,13,soennecken.de,DE,Europe,Western Europe,Germany,Hesse,,Frankfurt am Main
18.195.251.117,4,26,sofarsolar.com,DE,Europe,Western Europe,Germany,Hesse,,Frankfurt am Main
3.121.243.6,4,19,soft8soft.com,DE,Europe,Western Europe,Germany,Hesse,,Frankfurt am Main
185.232.59.135,4,32,sojson.com,DE,Europe,Western Europe,Germany,Hesse,,Frankfurt am Main
79.132.140.151,4,22,solonin.org,DE,Europe,Western Europe,Germany,Hesse,,Frankfurt am Main
188.166.194.20,4,24,solveigmm.com,DE,Europe,Western Europe,Germany,Hesse,,Frankfurt am Main
172.104.139.50,4,2,soma-zone.com,DE,Europe,Western Europe,Germany,Hesse,,Frankfurt am Main
50.3.0.21,4,20049,songhyun-picture.com,DE,Europe,Western Europe,Germany,Hesse,,Frankfurt am Main
134.255.226.83,4,-7202598,sonible.com,DE,Europe,Western Europe,Germany,Hesse,,Frankfurt am Main
138.201.75.113,4,3,sonnenhotels.de,DE,Europe,Western Europe,Germany,Hesse,,Frankfurt am Main
46.101.209.247,4,3,sorea.sk,DE,Europe,Western Europe,Germany,Hesse,,Frankfurt am Main
45.77.64.110,4,6,sourcemage.org,DE,Europe,Western Europe,Germany,Hesse,,Frankfurt am Main
66.22.61.40,4,11,southyorkshire-ca.gov.uk,DE,Europe,Western Europe,Germany,Hesse,,Frankfurt am Main
18.198.155.229,4,4,soziopolis.de,DE,Europe,Western Europe,Germany,Hesse,,Frankfurt am Main
8.209.97.211,4,9,spaincn.com,DE,Europe,Western Europe,Germany,Hesse,,Frankfurt am Main
192.248.187.225,4,43,speaklanguages.com,DE,Europe,Western Europe,Germany,Hesse,,Frankfurt am Main
35.198.149.84,4,72,spex.de,DE,Europe,Western Europe,Germany,Hesse,,Frankfurt am Main
172.105.251.128,4,6,spiediens.com,DE,Europe,Western Europe,Germany,Hesse,,Frankfurt am Main
128.65.210.8,4,1,spiegel.de,DE,Europe,Western Europe,Germany,Hesse,,Frankfurt am Main
138.197.191.97,4,4,spiweb.it,DE,Europe,Western Europe,Germany,Hesse,,Frankfurt am Main
138.201.240.6,4,12,spized.com,DE,Europe,Western Europe,Germany,Hesse,,Frankfurt am Main
5.187.5.123,4,16,sportinform.com.ua,DE,Europe,Western Europe,Germany,Hesse,,Frankfurt am Main
165.22.87.224,4,28,sports.uz,DE,Europe,Western Europe,Germany,Hesse,,Frankfurt am Main
3.125.28.117,4,35,sportybet.com,DE,Europe,Western Europe,Germany,Hesse,,Frankfurt am Main
18.156.211.237,4,1,sportybet.com,DE,Europe,Western Europe,Germany,Hesse,,Frankfurt am Main
35.158.36.21,4,0,sportybet.com,DE,Europe,Western Europe,Germany,Hesse,,Frankfurt am Main
3.126.135.145,4,4,sportybet.com,DE,Europe,Western Europe,Germany,Hesse,,Frankfurt am Main
18.185.195.69,4,3,sportybet.com,DE,Europe,Western Europe,Germany,Hesse,,Frankfurt am Main
18.196.242.99,4,1,sportybet.com,DE,Europe,Western Europe,Germany,Hesse,,Frankfurt am Main
3.66.35.213,4,3,sportybet.com,DE,Europe,Western Europe,Germany,Hesse,,Frankfurt am Main
18.194.122.42,4,2,sportybet.com,DE,Europe,Western Europe,Germany,Hesse,,Frankfurt am Main
5.187.1.239,4,48,spravkishop.info,DE,Europe,Western Europe,Germany,Hesse,,Frankfurt am Main
5.187.7.207,4,32,sprawki-msk.info,DE,Europe,Western Europe,Germany,Hesse,,Frankfurt am Main
104.102.34.102,4,3,sq.com,DE,Europe,Western Europe,Germany,Hesse,,Frankfurt am Main
34.89.236.225,4,3,squarelovin.com,DE,Europe,Western Europe,Germany,Hesse,,Frankfurt am Main
172.104.153.234,4,3,srprs.me,DE,Europe,Western Europe,Germany,Hesse,,Frankfurt am Main
18.193.171.3,4,12,stahlcranes.com,DE,Europe,Western Europe,Germany,Hesse,,Frankfurt am Main
47.91.72.245,4,63,startimestv.com,DE,Europe,Western Europe,Germany,Hesse,,Frankfurt am Main
172.104.244.78,4,1,staryolsa.com,DE,Europe,Western Europe,Germany,Hesse,,Frankfurt am Main
52.29.64.236,4,25,steffl-vienna.at,DE,Europe,Western Europe,Germany,Hesse,,Frankfurt am Main
159.65.126.199,4,23,stiga.pl,DE,Europe,Western Europe,Germany,Hesse,,Frankfurt am Main
172.104.159.106,4,30,stijlvolletrouwkaarten.nl,DE,Europe,Western Europe,Germany,Hesse,,Frankfurt am Main
35.157.154.90,4,10,stockspirits.com,DE,Europe,Western Europe,Germany,Hesse,,Frankfurt am Main
217.114.218.56,4,22,stoffe-hemmers.de,DE,Europe,Western Europe,Germany,Hesse,,Eppstein
143.42.59.104,4,24,stopogm.net,DE,Europe,Western Europe,Germany,Hesse,,Frankfurt am Main
207.154.194.11,4,4,stottpilates.com,DE,Europe,Western Europe,Germany,Hesse,,Frankfurt am Main
3.126.7.233,4,22,strassenkinder-ev.de,DE,Europe,Western Europe,Germany,Hesse,,Frankfurt am Main
161.35.204.53,4,60,stratacafe.com,DE,Europe,Western Europe,Germany,Hesse,,Frankfurt am Main
104.248.241.35,4,2,stream-dataspace.net,DE,Europe,Western Europe,Germany,Hesse,,Frankfurt am Main
139.162.189.10,4,2,strongpoint.com,DE,Europe,Western Europe,Germany,Hesse,,Frankfurt am Main
139.59.147.92,4,61,stuart-evers.com,DE,Europe,Western Europe,Germany,Hesse,,Frankfurt am Main
2.23.209.181,4,9,stubhub.co.uk,DE,Europe,Western Europe,Germany,Hesse,,Frankfurt am Main
2.23.209.145,4,92,stubhub.co.uk,DE,Europe,Western Europe,Germany,Hesse,,Frankfurt am Main
212.224.112.135,4,157,studfiles.net,DE,Europe,Western Europe,Germany,Hesse,,Frankfurt am Main
139.162.164.172,4,23,studrespublika.com,DE,Europe,Western Europe,Germany,Hesse,,Frankfurt am Main
141.95.99.199,4,19,subotica.com,DE,Europe,Western Europe,Germany,Hesse,,Frankfurt am Main
3.127.96.181,4,1,sunday.de,DE,Europe,Western Europe,Germany,Hesse,,Frankfurt am Main
35.156.229.208,4,9,sunday.de,DE,Europe,Western Europe,Germany,Hesse,,Frankfurt am Main
193.29.59.111,4,5,sunrise.it,DE,Europe,Western Europe,Germany,Hesse,,Frankfurt am Main
138.201.161.157,4,64,superlative-adventure.com,DE,Europe,Western Europe,Germany,Hesse,,Frankfurt am Main
18.185.10.164,4,54,superlease.nl,DE,Europe,Western Europe,Germany,Hesse,,Frankfurt am Main
172.104.150.215,4,4,supersmart.com,DE,Europe,Western Europe,Germany,Hesse,,Frankfurt am Main
18.197.219.255,4,22,supersport.hr,DE,Europe,Western Europe,Germany,Hesse,,Frankfurt am Main
3.127.241.250,4,3,supersport.hr,DE,Europe,Western Europe,Germany,Hesse,,Frankfurt am Main
18.196.254.231,4,3,supersport.hr,DE,Europe,Western Europe,Germany,Hesse,,Frankfurt am Main
141.226.253.137,4,6,supervalu.ie,DE,Europe,Western Europe,Germany,Hesse,,Frankfurt am Main
23.212.206.197,4,32,supplyworks.com,DE,Europe,Western Europe,Germany,Hesse,,Frankfurt am Main
5.187.1.220,4,8,survincity.com,DE,Europe,Western Europe,Germany,Hesse,,Frankfurt am Main
128.65.211.168,4,10,survivetheark.com,DE,Europe,Western Europe,Germany,Hesse,,Frankfurt am Main
167.99.242.112,4,4,sustainable-markets.org,DE,Europe,Western Europe,Germany,Hesse,,Frankfurt am Main
80.240.25.101,4,20,svensk-webbhandel.se,DE,Europe,Western Europe,Germany,Hesse,,Frankfurt am Main
139.162.150.185,4,3,svensksegling.se,DE,Europe,Western Europe,Germany,Hesse,,Frankfurt am Main
172.104.140.110,4,17,synthforum.nl,DE,Europe,Western Europe,Germany,Hesse,,Frankfurt am Main
85.195.78.42,4,21,tacali.space,DE,Europe,Western Europe,Germany,Hesse,,Frankfurt am Main
50.3.149.130,4,0,taiyouyou.com,DE,Europe,Western Europe,Germany,Hesse,,Frankfurt am Main
165.22.85.144,4,16,takiedela.ru,DE,Europe,Western Europe,Germany,Hesse,,Frankfurt am Main
3.71.109.84,4,21,takipler.com,DE,Europe,Western Europe,Germany,Hesse,,Frankfurt am Main
35.156.112.2,4,4,tarifasenergia.com,DE,Europe,Western Europe,Germany,Hesse,,Frankfurt am Main
128.65.209.42,4,34,taskcards.de,DE,Europe,Western Europe,Germany,Hesse,,Frankfurt am Main
3.125.206.38,4,7,taximaxim.com,DE,Europe,Western Europe,Germany,Hesse,,Frankfurt am Main
2.18.64.18,4,31,tcsionhub.in,DE,Europe,Western Europe,Germany,Hesse,,Frankfurt am Main
2.18.64.11,4,4,tcsionhub.in,DE,Europe,Western Europe,Germany,Hesse,,Frankfurt am Main
217.114.217.110,4,38,teatromanzoni.it,DE,Europe,Western Europe,Germany,Hesse,,Eppstein
46.101.205.223,4,33,techzoom.net,DE,Europe,Western Europe,Germany,Hesse,,Frankfurt am Main
35.198.97.226,4,47,tekever.com,DE,Europe,Western Europe,Germany,Hesse,,Frankfurt am Main
193.108.118.7,4,8,tempmail.plus,DE,Europe,Western Europe,Germany,Hesse,,Frankfurt am Main
18.193.29.77,4,8,tenebris.cc,DE,Europe,Western Europe,Germany,Hesse,,Frankfurt am Main
3.125.133.131,4,52,tenebris.cc,DE,Europe,Western Europe,Germany,Hesse,,Frankfurt am Main
139.162.165.150,4,27,tennis-tavolo.com,DE,Europe,Western Europe,Germany,Hesse,,Frankfurt am Main
172.104.159.192,4,88,terre.it,DE,Europe,Western Europe,Germany,Hesse,,Frankfurt am Main
192.250.229.80,4,4,terrorismanswers.com,DE,Europe,Western Europe,Germany,Hesse,,Frankfurt am Main
139.162.130.121,4,1,tesla.info,DE,Europe,Western Europe,Germany,Hesse,,Frankfurt am Main
51.89.123.225,4,41,teslatravel.com,DE,Europe,Western Europe,Germany,Hesse,,Frankfurt am Main
128.65.209.28,4,2,test.de,DE,Europe,Western Europe,Germany,Hesse,,Frankfurt am Main
161.35.204.234,4,5,testednet.com,DE,Europe,Western Europe,Germany,Hesse,,Frankfurt am Main
128.65.210.224,4,29,teufelaudio.nl,DE,Europe,Western Europe,Germany,Hesse,,Frankfurt am Main
18.196.126.78,4,9,textilmuseum.ch,DE,Europe,Western Europe,Germany,Hesse,,Frankfurt am Main
212.224.112.78,4,6,textolite.ru,DE,Europe,Western Europe,Germany,Hesse,,Frankfurt am Main
172.105.95.22,4,7,texty.org.ua,DE,Europe,Western Europe,Germany,Hesse,,Frankfurt am Main
50.2.51.128,4,5,tezhonggui.com,DE,Europe,Western Europe,Germany,Hesse,,Frankfurt am Main
128.65.209.214,4,25,thb.info,DE,Europe,Western Europe,Germany,Hesse,,Frankfurt am Main
209.38.220.48,4,58,theartpostblog.com,DE,Europe,Western Europe,Germany,Hesse,,Frankfurt am Main
46.101.196.180,4,-1,thebosshoss.com,DE,Europe,Western Europe,Germany,Hesse,,Frankfurt am Main
172.105.89.22,4,1,thebroadlife.com,DE,Europe,Western Europe,Germany,Hesse,,Frankfurt am Main
91.228.154.229,4,2,thecolumbianews.net,DE,Europe,Western Europe,Germany,Hesse,,Frankfurt am Main
161.35.207.146,4,14,thecrowdedplanet.com,DE,Europe,Western Europe,Germany,Hesse,,Frankfurt am Main
172.105.74.113,4,37,thecuriousbrain.com,DE,Europe,Western Europe,Germany,Hesse,,Frankfurt am Main
209.38.250.38,4,28,thedogtrainingsecret.com,DE,Europe,Western Europe,Germany,Hesse,,Frankfurt am Main
165.22.87.252,4,-7,theessayclub.com,DE,Europe,Western Europe,Germany,Hesse,,Frankfurt am Main
139.162.168.106,4,44,theethereum.wiki,DE,Europe,Western Europe,Germany,Hesse,,Frankfurt am Main
172.105.80.210,4,6,theglassroom.org,DE,Europe,Western Europe,Germany,Hesse,,Frankfurt am Main
157.230.110.28,4,8,theinfong.com,DE,Europe,Western Europe,Germany,Hesse,,Frankfurt am Main
128.65.210.208,4,13,thejewellershop.com,DE,Europe,Western Europe,Germany,Hesse,,Frankfurt am Main
192.250.229.40,4,26,themesarray.com,DE,Europe,Western Europe,Germany,Hesse,,Frankfurt am Main
194.233.174.243,4,18,themodernreligion.com,DE,Europe,Western Europe,Germany,Hesse,,Frankfurt am Main
138.2.168.127,4,8,thenewgaming.de,DE,Europe,Western Europe,Germany,Hesse,,Frankfurt am Main
23.37.36.238,4,19,thenorthface.co.uk,DE,Europe,Western Europe,Germany,Hesse,,Frankfurt am Main
23.45.104.78,4,10,thenorthface.de,DE,Europe,Western Europe,Germany,Hesse,,Frankfurt am Main
23.201.252.12,4,21,thenorthface.it,DE,Europe,Western Europe,Germany,Hesse,,Frankfurt am Main
2.18.64.34,4,40,thenorthfacerenewed.com,DE,Europe,Western Europe,Germany,Hesse,,Frankfurt am Main
2.18.64.12,4,13,thenorthfacerenewed.com,DE,Europe,Western Europe,Germany,Hesse,,Frankfurt am Main
164.92.226.192,4,4,theperson.pro,DE,Europe,Western Europe,Germany,Hesse,,Frankfurt am Main
138.201.211.238,4,5,theplainjane.com,DE,Europe,Western Europe,Germany,Hesse,,Frankfurt am Main
212.201.18.26,4,12,thm.de,DE,Europe,Western Europe,Germany,Hesse,,Rotenburg an der Fulda
167.71.35.120,4,11,thonik.nl,DE,Europe,Western Europe,Germany,Hesse,,Frankfurt am Main
43.131.50.178,4,9,thorsurge.com,DE,Europe,Western Europe,Germany,Hesse,,Frankfurt am Main
134.122.94.114,4,36,thoughts-about-god.com,DE,Europe,Western Europe,Germany,Hesse,,Frankfurt am Main
159.89.215.194,4,31,thp.io,DE,Europe,Western Europe,Germany,Hesse,,Frankfurt am Main
141.226.253.14,4,34,three.ie,DE,Europe,Western Europe,Germany,Hesse,,Frankfurt am Main
128.65.210.6,4,1,thueringen.de,DE,Europe,Western Europe,Germany,Hesse,,Frankfurt am Main
185.167.61.132,4,-2,tidskrift.nu,DE,Europe,Western Europe,Germany,Hesse,,Frankfurt am Main
104.102.43.250,4,15,timberland.com,DE,Europe,Western Europe,Germany,Hesse,,Frankfurt am Main
23.67.132.171,4,7,timberland.it,DE,Europe,Western Europe,Germany,Hesse,,Frankfurt am Main
164.90.164.183,4,99,timeandtideafrica.com,DE,Europe,Western Europe,Germany,Hesse,,Frankfurt am Main
138.68.85.125,4,53,times.am,DE,Europe,Western Europe,Germany,Hesse,,Frankfurt am Main
165.22.20.244,4,6,timeshop.sk,DE,Europe,Western Europe,Germany,Hesse,,Frankfurt am Main
141.2.194.229,4,700,tinygu.de,DE,Europe,Western Europe,Germany,Hesse,,Neu-Isenburg
5.187.6.89,4,2,toasts.com.ua,DE,Europe,Western Europe,Germany,Hesse,,Frankfurt am Main
159.89.26.240,4,3,tochno.st,DE,Europe,Western Europe,Germany,Hesse,,Frankfurt am Main
140.82.39.21,4,5,tolls.eu,DE,Europe,Western Europe,Germany,Hesse,,Frankfurt am Main
46.101.165.117,4,13,tomasvotruba.com,DE,Europe,Western Europe,Germany,Hesse,,Frankfurt am Main
5.187.5.8,4,29,top5-top10.ru,DE,Europe,Western Europe,Germany,Hesse,,Frankfurt am Main
3.125.90.157,4,21,top500.org,DE,Europe,Western Europe,Germany,Hesse,,Frankfurt am Main
207.154.204.107,4,739,topdownloads.ru,DE,Europe,Western Europe,Germany,Hesse,,Frankfurt am Main
95.101.111.187,4,23,topics.nl,DE,Europe,Western Europe,Germany,Hesse,,Frankfurt am Main
95.101.111.184,4,15,topics.nl,DE,Europe,Western Europe,Germany,Hesse,,Frankfurt am Main
164.92.199.8,4,14,topzine.cz,DE,Europe,Western Europe,Germany,Hesse,,Frankfurt am Main
172.105.75.22,4,23,torneopal.fi,DE,Europe,Western Europe,Germany,Hesse,,Frankfurt am Main
172.105.74.212,4,32,touringsuperleggera.eu,DE,Europe,Western Europe,Germany,Hesse,,Frankfurt am Main
95.179.248.187,4,63,tourisme-midi-pyrenees.com,DE,Europe,Western Europe,Germany,Hesse,,Frankfurt am Main
34.89.169.66,4,7,toytowngermany.com,DE,Europe,Western Europe,Germany,Hesse,,Frankfurt am Main
212.222.150.131,4,24,tradegate.de,DE,Europe,Western Europe,Germany,Hesse,,Lampertheim
128.65.211.89,4,8,transparenzregister.de,DE,Europe,Western Europe,Germany,Hesse,,Frankfurt am Main
18.195.243.160,4,50,travelemiliaromagna.it,DE,Europe,Western Europe,Germany,Hesse,,Frankfurt am Main
66.22.33.183,4,15,travelsouthyorkshire.com,DE,Europe,Western Europe,Germany,Hesse,,Frankfurt am Main
5.187.7.162,4,3,travelusanews.com,DE,Europe,Western Europe,Germany,Hesse,,Frankfurt am Main
165.22.79.77,4,10,trend.sk,DE,Europe,Western Europe,Germany,Hesse,,Frankfurt am Main
185.53.210.155,4,22,trendlines.com,DE,Europe,Western Europe,Germany,Hesse,,Frankfurt am Main
50.2.236.46,4,21,tretinointabs.com,DE,Europe,Western Europe,Germany,Hesse,,Frankfurt am Main
52.28.27.217,4,22,triaba.com,DE,Europe,Western Europe,Germany,Hesse,,Frankfurt am Main
217.114.209.177,4,1570,tripmondo.com,DE,Europe,Western Europe,Germany,Hesse,,Eppstein
138.68.65.229,4,2,troglobit.com,DE,Europe,Western Europe,Germany,Hesse,,Frankfurt am Main
5.187.6.45,4,17,true-emotions.studio,DE,Europe,Western Europe,Germany,Hesse,,Frankfurt am Main
132.145.234.4,4,3,true-fruits.com,DE,Europe,Western Europe,Germany,Hesse,,Frankfurt am Main
139.162.157.166,4,2,trump.tv,DE,Europe,Western Europe,Germany,Hesse,,Frankfurt am Main
139.59.143.22,4,220120,tsawq.net,DE,Europe,Western Europe,Germany,Hesse,,Frankfurt am Main
145.239.3.73,4,3,tshirtdeal.nl,DE,Europe,Western Europe,Germany,Hesse,,Frankfurt am Main
3.74.177.42,4,11,ttg.at,DE,Europe,Western Europe,Germany,Hesse,,Frankfurt am Main
167.172.177.31,4,4,tukiliitto.fi,DE,Europe,Western Europe,Germany,Hesse,,Frankfurt am Main
108.61.211.133,4,29,turtlemountain.com,DE,Europe,Western Europe,Germany,Hesse,,Frankfurt am Main
46.101.247.75,4,0,tuxphones.com,DE,Europe,Western Europe,Germany,Hesse,,Frankfurt am Main
139.162.186.93,4,3,tvkanali.live,DE,Europe,Western Europe,Germany,Hesse,,Frankfurt am Main
164.92.180.41,4,4,tvrmoldova.md,DE,Europe,Western Europe,Germany,Hesse,,Frankfurt am Main
165.227.135.166,4,0,twchat.com,DE,Europe,Western Europe,Germany,Hesse,,Frankfurt am Main
128.65.211.111,4,11,twin.com,DE,Europe,Western Europe,Germany,Hesse,,Frankfurt am Main
164.90.176.214,4,5,twinklephone.com,DE,Europe,Western Europe,Germany,Hesse,,Frankfurt am Main
167.99.132.26,4,9,tyinternety.cz,DE,Europe,Western Europe,Germany,Hesse,,Frankfurt am Main
194.233.173.83,4,6,typos-i.gr,DE,Europe,Western Europe,Germany,Hesse,,Frankfurt am Main
212.224.112.73,4,4,tzona.org,DE,Europe,Western Europe,Germany,Hesse,,Frankfurt am Main
91.228.154.180,4,10,uabets.com,DE,Europe,Western Europe,Germany,Hesse,,Frankfurt am Main
34.107.23.19,4,5,ubilabs.net,DE,Europe,Western Europe,Germany,Hesse,,Frankfurt am Main
192.250.229.95,4,4,ueas.edu.pk,DE,Europe,Western Europe,Germany,Hesse,,Frankfurt am Main
157.230.125.227,4,11,uferstudios.com,DE,Europe,Western Europe,Germany,Hesse,,Frankfurt am Main
46.101.180.26,4,5,ukraineinvest.gov.ua,DE,Europe,Western Europe,Germany,Hesse,,Frankfurt am Main
5.187.7.142,4,58,ulgrad.ru,DE,Europe,Western Europe,Germany,Hesse,,Frankfurt am Main
35.156.53.120,4,5,umma.ru,DE,Europe,Western Europe,Germany,Hesse,,Frankfurt am Main
18.184.244.172,4,7,umma.ru,DE,Europe,Western Europe,Germany,Hesse,,Frankfurt am Main
18.156.105.93,4,9,umma.ru,DE,Europe,Western Europe,Germany,Hesse,,Frankfurt am Main
185.138.142.181,4,17,umweltbundesamt.de,DE,Europe,Western Europe,Germany,Hesse,,Frankfurt am Main
134.209.248.176,4,6,un-redd.org,DE,Europe,Western Europe,Germany,Hesse,,Frankfurt am Main
104.248.20.229,4,4,undefasa.com,DE,Europe,Western Europe,Germany,Hesse,,Frankfurt am Main
172.104.251.179,4,26,underground.co.za,DE,Europe,Western Europe,Germany,Hesse,,Frankfurt am Main
5.187.3.24,4,25,unews.pro,DE,Europe,Western Europe,Germany,Hesse,,Frankfurt am Main
192.250.229.36,4,146,unguka.com,DE,Europe,Western Europe,Germany,Hesse,,Frankfurt am Main
137.248.1.74,4,13,uni-marburg.de,DE,Europe,Western Europe,Germany,Hesse,,Marburg
8.211.0.22,4,3,uni-trend.com,DE,Europe,Western Europe,Germany,Hesse,,Frankfurt am Main
141.147.35.130,4,14,uniparthenope.it,DE,Europe,Western Europe,Germany,Hesse,,Frankfurt am Main
57.129.12.24,4,15,univ-fhb.edu.ci,DE,Europe,Western Europe,Germany,Hesse,,Frankfurt am Main
128.65.211.88,4,14,unternehmensregister.de,DE,Europe,Western Europe,Germany,Hesse,,Frankfurt am Main
137.248.186.19,4,5,unwortdesjahres.net,DE,Europe,Western Europe,Germany,Hesse,,Wetter
57.129.39.102,4,6,upload.ee,DE,Europe,Western Europe,Germany,Hesse,,Frankfurt am Main
57.129.0.199,4,4,uploadfile.pl,DE,Europe,Western Europe,Germany,Hesse,,Frankfurt am Main
212.224.112.72,4,7,uquest.net,DE,Europe,Western Europe,Germany,Hesse,,Frankfurt am Main
139.144.66.116,4,3,urb.ae,DE,Europe,Western Europe,Germany,Hesse,,Frankfurt am Main
192.250.229.81,4,13,urbanlymodern.com,DE,Europe,Western Europe,Germany,Hesse,,Frankfurt am Main
46.101.151.197,4,630,urdu1.tv,DE,Europe,Western Europe,Germany,Hesse,,Frankfurt am Main
64.227.122.85,4,6,urlquery.net,DE,Europe,Western Europe,Germany,Hesse,,Frankfurt am Main
91.228.155.122,4,9,uroki.net,DE,Europe,Western Europe,Germany,Hesse,,Frankfurt am Main
165.232.79.227,4,11,uzdaily.com,DE,Europe,Western Europe,Germany,Hesse,,Frankfurt am Main
104.248.245.215,4,11,vaadua.org,DE,Europe,Western Europe,Germany,Hesse,,Frankfurt am Main
157.245.21.110,4,5,vacanceselect.nl,DE,Europe,Western Europe,Germany,Hesse,,Frankfurt am Main
143.42.54.67,4,7,vacancies.ae,DE,Europe,Western Europe,Germany,Hesse,,Frankfurt am Main
128.65.211.74,4,6,valmano.de,DE,Europe,Western Europe,Germany,Hesse,,Frankfurt am Main
18.184.163.206,4,33,vandale.nl,DE,Europe,Western Europe,Germany,Hesse,,Frankfurt am Main
3.67.163.192,4,21,vanegmond.nl,DE,Europe,Western Europe,Germany,Hesse,,Frankfurt am Main
3.78.10.133,4,43,vanostassenenkoffers.nl,DE,Europe,Western Europe,Germany,Hesse,,Frankfurt am Main
18.197.131.40,4,24,vanostassenenkoffers.nl,DE,Europe,Western Europe,Germany,Hesse,,Frankfurt am Main
23.37.43.106,4,9,vans.co.uk,DE,Europe,Western Europe,Germany,Hesse,,Frankfurt am Main
23.212.211.148,4,8,vans.mx,DE,Europe,Western Europe,Germany,Hesse,,Frankfurt am Main
3.121.68.232,4,21,vanzuilenmode.nl,DE,Europe,Western Europe,Germany,Hesse,,Frankfurt am Main
52.29.206.251,4,23,vanzuilenmode.nl,DE,Europe,Western Europe,Germany,Hesse,,Frankfurt am Main
3.77.221.114,4,3,vanzuilenmode.nl,DE,Europe,Western Europe,Germany,Hesse,,Frankfurt am Main
128.65.210.55,4,11,varta-ag.com,DE,Europe,Western Europe,Germany,Hesse,,Frankfurt am Main
159.89.9.199,4,7,vashsad.ua,DE,Europe,Western Europe,Germany,Hesse,,Frankfurt am Main
68.183.242.236,4,9,vcm.cz,DE,Europe,Western Europe,Germany,Hesse,,Frankfurt am Main
66.22.35.123,4,30,vegware.com,DE,Europe,Western Europe,Germany,Hesse,,Frankfurt am Main
35.246.198.19,4,6,velkaepocha.sk,DE,Europe,Western Europe,Germany,Hesse,,Frankfurt am Main
144.24.172.220,4,32,veratour.it,DE,Europe,Western Europe,Germany,Hesse,,Frankfurt am Main
3.70.71.255,4,21,verdi-bub.de,DE,Europe,Western Europe,Germany,Hesse,,Frankfurt am Main
18.159.191.104,4,8,vergleich.org,DE,Europe,Western Europe,Germany,Hesse,,Frankfurt am Main
66.22.32.244,4,13,verymobile.it,DE,Europe,Western Europe,Germany,Hesse,,Frankfurt am Main
185.225.208.56,4,15,vetjobs.org,DE,Europe,Western Europe,Germany,Hesse,,Frankfurt am Main
3.72.216.7,4,2,vfl-wolfsburg.de,DE,Europe,Western Europe,Germany,Hesse,,Frankfurt am Main
3.121.158.245,4,26,vfl-wolfsburg.de,DE,Europe,Western Europe,Germany,Hesse,,Frankfurt am Main
3.124.160.235,4,27,vfl-wolfsburg.de,DE,Europe,Western Europe,Germany,Hesse,,Frankfurt am Main
52.58.232.95,4,8,vfl.de,DE,Europe,Western Europe,Germany,Hesse,,Frankfurt am Main
170.187.185.171,4,7,viabuy.com,DE,Europe,Western Europe,Germany,Hesse,,Frankfurt am Main
139.162.190.53,4,8,vialibre.org.ar,DE,Europe,Western Europe,Germany,Hesse,,Frankfurt am Main
172.104.228.224,4,3,vidsboku.com,DE,Europe,Western Europe,Germany,Hesse,,Frankfurt am Main
62.209.38.39,4,18,viele-schaffen-mehr.de,DE,Europe,Western Europe,Germany,Hesse,,Frankfurt am Main
18.156.151.181,4,2548,viko.lt,DE,Europe,Western Europe,Germany,Hesse,,Frankfurt am Main
134.122.83.81,4,1227137,vinegret.cz,DE,Europe,Western Europe,Germany,Hesse,,Frankfurt am Main
5.187.4.144,4,2,vinylrostov.ru,DE,Europe,Western Europe,Germany,Hesse,,Frankfurt am Main
35.156.53.241,4,97,visa-for-turkey.com,DE,Europe,Western Europe,Germany,Hesse,,Frankfurt am Main
18.198.231.171,4,4,visa-for-turkey.com,DE,Europe,Western Europe,Germany,Hesse,,Frankfurt am Main
18.197.42.18,4,45,visa-for-turkey.com,DE,Europe,Western Europe,Germany,Hesse,,Frankfurt am Main
18.156.56.27,4,5,visa-to-india.com,DE,Europe,Western Europe,Germany,Hesse,,Frankfurt am Main
3.122.75.56,4,10,visa-to-india.com,DE,Europe,Western Europe,Germany,Hesse,,Frankfurt am Main
3.73.95.27,4,40,visa-to-india.com,DE,Europe,Western Europe,Germany,Hesse,,Frankfurt am Main
3.66.50.156,4,5,visionkino.de,DE,Europe,Western Europe,Germany,Hesse,,Frankfurt am Main
3.125.11.228,4,47,visitemilia.com,DE,Europe,Western Europe,Germany,Hesse,,Frankfurt am Main
57.129.18.99,4,23,visitpiemonte.com,DE,Europe,Western Europe,Germany,Hesse,,Frankfurt am Main
164.90.163.28,4,12,visitreykjavik.is,DE,Europe,Western Europe,Germany,Hesse,,Frankfurt am Main
46.101.131.70,4,8,vitalhelden.de,DE,Europe,Western Europe,Germany,Hesse,,Frankfurt am Main
212.224.112.239,4,24,vitannya.com,DE,Europe,Western Europe,Germany,Hesse,,Frankfurt am Main
23.37.38.216,4,23,vivearts.com,DE,Europe,Western Europe,Germany,Hesse,,Frankfurt am Main
207.154.255.90,4,17,vll.cz,DE,Europe,Western Europe,Germany,Hesse,,Frankfurt am Main
5.187.4.142,4,13,vlthemes.me,DE,Europe,Western Europe,Germany,Hesse,,Frankfurt am Main
35.207.105.216,4,16,voelkerkundemuseum.com,DE,Europe,Western Europe,Germany,Hesse,,Frankfurt am Main
3.78.162.126,4,73,vogelbeschermingshop.nl,DE,Europe,Western Europe,Germany,Hesse,,Frankfurt am Main
104.126.37.178,4,53,voilesetvoiliers.com,DE,Europe,Western Europe,Germany,Hesse,,Frankfurt am Main
104.126.37.147,4,30,voilesetvoiliers.com,DE,Europe,Western Europe,Germany,Hesse,,Frankfurt am Main
167.71.50.137,4,19,volkovysk.eu,DE,Europe,Western Europe,Germany,Hesse,,Frankfurt am Main
192.250.229.115,4,55,volunters.com,DE,Europe,Western Europe,Germany,Hesse,,Frankfurt am Main
43.131.2.102,4,-1,voopoo.com,DE,Europe,Western Europe,Germany,Hesse,,Frankfurt am Main
20.218.86.159,4,3,vossloh.com,DE,Europe,Western Europe,Germany,Hesse,,Frankfurt am Main
52.57.239.214,4,23,voximplant.com,DE,Europe,Western Europe,Germany,Hesse,,Frankfurt am Main
52.58.161.247,4,4,voximplant.com,DE,Europe,Western Europe,Germany,Hesse,,Frankfurt am Main
213.216.0.214,4,1,vs-verlag.de,DE,Europe,Western Europe,Germany,Hesse,,Wiesbaden
109.120.176.153,4,4,vsesimki.ru,DE,Europe,Western Europe,Germany,Hesse,,Frankfurt am Main
91.228.154.56,4,1,vsi-vitannya.com.ua,DE,Europe,Western Europe,Germany,Hesse,,Frankfurt am Main
5.187.0.193,4,1,vsiknygy.net.ua,DE,Europe,Western Europe,Germany,Hesse,,Frankfurt am Main
164.92.166.75,4,15,vwt.org.uk,DE,Europe,Western Europe,Germany,Hesse,,Frankfurt am Main
5.187.2.111,4,9,vyzov-santehnika-na-dom.ru,DE,Europe,Western Europe,Germany,Hesse,,Frankfurt am Main
172.104.156.188,4,8,wafronet.bio,DE,Europe,Western Europe,Germany,Hesse,,Frankfurt am Main
212.218.193.72,4,874,wagner-solar.com,DE,Europe,Western Europe,Germany,Hesse,,Hünfeld
212.80.228.136,4,8,waldorf.net,DE,Europe,Western Europe,Germany,Hesse,,Bad Homburg
194.195.245.37,4,6,wanderinghorse.net,DE,Europe,Western Europe,Germany,Hesse,,Frankfurt am Main
128.65.209.96,4,30,warentest.de,DE,Europe,Western Europe,Germany,Hesse,,Frankfurt am Main
35.158.64.214,4,23,warenvergleich.de,DE,Europe,Western Europe,Germany,Hesse,,Frankfurt am Main
163.171.132.60,4,9,wartranslated.com,DE,Europe,Western Europe,Germany,Hesse,,Frankfurt am Main
18.159.9.73,4,27,watersnoodmuseum.nl,DE,Europe,Western Europe,Germany,Hesse,,Frankfurt am Main
172.105.146.85,4,14,watersportcenter.nl,DE,Europe,Western Europe,Germany,Hesse,,Frankfurt am Main
134.122.81.204,4,18,waughthistleton.com,DE,Europe,Western Europe,Germany,Hesse,,Frankfurt am Main
104.248.44.242,4,5,wcbo.org,DE,Europe,Western Europe,Germany,Hesse,,Frankfurt am Main
18.198.226.111,4,4,wdka.nl,DE,Europe,Western Europe,Germany,Hesse,,Frankfurt am Main
79.137.207.182,4,16,wdomain.ru,DE,Europe,Western Europe,Germany,Hesse,,Frankfurt am Main
172.104.159.245,4,29,wearewater.org,DE,Europe,Western Europe,Germany,Hesse,,Frankfurt am Main
66.22.35.31,4,8,webank.it,DE,Europe,Western Europe,Germany,Hesse,,Frankfurt am Main
104.238.176.13,4,3,webat25.org,DE,Europe,Western Europe,Germany,Hesse,,Frankfurt am Main
172.105.72.150,4,36,webexpo.net,DE,Europe,Western Europe,Germany,Hesse,,Frankfurt am Main
35.158.71.22,4,24,webinaris.co,DE,Europe,Western Europe,Germany,Hesse,,Frankfurt am Main
91.228.155.88,4,2,webmasters.ru,DE,Europe,Western Europe,Germany,Hesse,,Frankfurt am Main
3.123.179.229,4,46,webodf.org,DE,Europe,Western Europe,Germany,Hesse,,Frankfurt am Main
158.176.65.250,4,1058,websitecounterfree.com,DE,Europe,Western Europe,Germany,Hesse,,Frankfurt am Main
5.187.1.42,4,9,webtransfer-profit.ru,DE,Europe,Western Europe,Germany,Hesse,,Frankfurt am Main
139.144.68.64,4,13,webtrh.cz,DE,Europe,Western Europe,Germany,Hesse,,Frankfurt am Main
139.144.72.205,4,11,weed4au.com,DE,Europe,Western Europe,Germany,Hesse,,Frankfurt am Main
18.159.247.172,4,5,weidemann.de,DE,Europe,Western Europe,Germany,Hesse,,Frankfurt am Main
143.42.203.40,4,4,weirdfictionreview.com,DE,Europe,Western Europe,Germany,Hesse,,Frankfurt am Main
209.250.236.239,4,8,welde.de,DE,Europe,Western Europe,Germany,Hesse,,Frankfurt am Main
8.209.90.44,4,5,wentex.cn,DE,Europe,Western Europe,Germany,Hesse,,Frankfurt am Main
192.250.229.76,4,7,westfalia-automotive.com,DE,Europe,Western Europe,Germany,Hesse,,Frankfurt am Main
139.162.169.40,4,4,whoswho.fr,DE,Europe,Western Europe,Germany,Hesse,,Frankfurt am Main
138.201.169.223,4,42,wigital.de,DE,Europe,Western Europe,Germany,Hesse,,Frankfurt am Main
139.59.155.217,4,59,wijzeringeldzaken.nl,DE,Europe,Western Europe,Germany,Hesse,,Frankfurt am Main
5.187.4.40,4,38,wikibrief.org,DE,Europe,Western Europe,Germany,Hesse,,Frankfurt am Main
37.114.32.203,4,42,wikidex.de,DE,Europe,Western Europe,Germany,Hesse,,Offenbach
172.104.133.177,4,77,wikisclub.com,DE,Europe,Western Europe,Germany,Hesse,,Frankfurt am Main
138.201.240.27,4,4,wildpark-schwarze-berge.de,DE,Europe,Western Europe,Germany,Hesse,,Frankfurt am Main
35.158.169.233,4,38,wilkhahn.com,DE,Europe,Western Europe,Germany,Hesse,,Frankfurt am Main
128.65.209.113,4,33,wilo.com,DE,Europe,Western Europe,Germany,Hesse,,Frankfurt am Main
207.154.214.129,4,32,wiman.me,DE,Europe,Western Europe,Germany,Hesse,,Frankfurt am Main
66.22.33.198,4,17,windtre.it,DE,Europe,Western Europe,Germany,Hesse,,Frankfurt am Main
66.22.32.135,4,24,windtrebusiness.it,DE,Europe,Western Europe,Germany,Hesse,,Frankfurt am Main
134.209.230.114,4,4,winesofcrete.gr,DE,Europe,Western Europe,Germany,Hesse,,Frankfurt am Main
18.198.200.149,4,2,wintec-autoglas.de,DE,Europe,Western Europe,Germany,Hesse,,Frankfurt am Main
128.65.209.75,4,27,wisag.de,DE,Europe,Western Europe,Germany,Hesse,,Frankfurt am Main
3.78.134.248,4,2,wisekey.com,DE,Europe,Western Europe,Germany,Hesse,,Frankfurt am Main
2.56.76.89,4,17,wishfulchef.com,DE,Europe,Western Europe,Germany,Hesse,,Offenbach
68.183.240.154,4,2,wizi.farm,DE,Europe,Western Europe,Germany,Hesse,,Frankfurt am Main
139.162.167.75,4,34,wocial.com,DE,Europe,Western Europe,Germany,Hesse,,Frankfurt am Main
172.104.140.21,4,47,womenalia.com,DE,Europe,Western Europe,Germany,Hesse,,Frankfurt am Main
192.250.229.82,4,13,womeninc.nl,DE,Europe,Western Europe,Germany,Hesse,,Frankfurt am Main
212.224.112.219,4,7,workingholiday365.com,DE,Europe,Western Europe,Germany,Hesse,,Frankfurt am Main
2.58.66.129,4,3,world-weather.info,DE,Europe,Western Europe,Germany,Hesse,,Frankfurt am Main
52.29.174.51,4,6,worldhealthsummit.org,DE,Europe,Western Europe,Germany,Hesse,,Frankfurt am Main
172.105.67.36,4,8,worldvet.org,DE,Europe,Western Europe,Germany,Hesse,,Frankfurt am Main
85.195.116.106,4,3,wowarticles.com,DE,Europe,Western Europe,Germany,Hesse,,Frankfurt am Main
167.172.163.252,4,5,wowdesigneu.com,DE,Europe,Western Europe,Germany,Hesse,,Frankfurt am Main
46.101.114.26,4,6,wownature.eu,DE,Europe,Western Europe,Germany,Hesse,,Frankfurt am Main
192.250.229.109,4,3,wowtot.com,DE,Europe,Western Europe,Germany,Hesse,,Frankfurt am Main
46.101.149.116,4,2154302,wpdance.com,DE,Europe,Western Europe,Germany,Hesse,,Frankfurt am Main
140.82.37.28,4,3,wrint.de,DE,Europe,Western Europe,Germany,Hesse,,Frankfurt am Main
3.76.159.29,4,12,wsb.edu.pl,DE,Europe,Western Europe,Germany,Hesse,,Frankfurt am Main
54.93.74.195,4,6,wsb.edu.pl,DE,Europe,Western Europe,Germany,Hesse,,Frankfurt am Main
18.198.82.247,4,4,wsb.edu.pl,DE,Europe,Western Europe,Germany,Hesse,,Frankfurt am Main
35.234.111.32,4,5,wsc.design,DE,Europe,Western Europe,Germany,Hesse,,Frankfurt am Main
223.121.15.25,4,-154,www.gov.hk,DE,Europe,Western Europe,Germany,Hesse,,Langen (Hessen)
223.121.15.37,4,-151,www.gov.hk,DE,Europe,Western Europe,Germany,Hesse,,Langen (Hessen)
193.29.59.104,4,3,www.net,DE,Europe,Western Europe,Germany,Hesse,,Frankfurt am Main
45.14.68.7,4,8,www.re,DE,Europe,Western Europe,Germany,Hesse,,Frankfurt am Main
46.101.161.175,4,1,wxhexeditor.org,DE,Europe,Western Europe,Germany,Hesse,,Frankfurt am Main
2.20.143.51,4,11,wynnresorts.com,DE,Europe,Western Europe,Germany,Hesse,,Frankfurt am Main
2.20.142.32,4,12,wynnresorts.com,DE,Europe,Western Europe,Germany,Hesse,,Frankfurt am Main
139.162.139.119,4,3,x3i.tech,DE,Europe,Western Europe,Germany,Hesse,,Frankfurt am Main
43.157.20.111,4,4,x6trk.com,DE,Europe,Western Europe,Germany,Hesse,,Frankfurt am Main
50.3.12.135,4,33034,xby121.com,DE,Europe,Western Europe,Germany,Hesse,,Frankfurt am Main
5.254.6.18,4,0,xcopy.art,DE,Europe,Western Europe,Germany,Hesse,,Frankfurt am Main
47.254.130.126,4,3,xineurope.com,DE,Europe,Western Europe,Germany,Hesse,,Frankfurt am Main
85.90.247.173,4,1440,xjet3d.com,DE,Europe,Western Europe,Germany,Hesse,,Frankfurt am Main
139.162.175.9,4,3,xkcd.ru,DE,Europe,Western Europe,Germany,Hesse,,Frankfurt am Main
18.184.211.224,4,11,xmeye.net,DE,Europe,Western Europe,Germany,Hesse,,Frankfurt am Main
51.75.69.239,4,85,xn--beautyfrdig-xfb.se,DE,Europe,Western Europe,Germany,Hesse,,Frankfurt am Main
158.255.214.113,4,100,xn--geschirrsplmobile-c3b.de,DE,Europe,Western Europe,Germany,Hesse,,Frankfurt am Main
45.32.152.137,4,18,xn--konomi-nyt-zcb.dk,DE,Europe,Western Europe,Germany,Hesse,,Frankfurt am Main
45.76.80.53,4,3,xn--ntshoppare-q5a.se,DE,Europe,Western Europe,Germany,Hesse,,Frankfurt am Main
51.75.69.210,4,1,xn--nyttfridag-icb.se,DE,Europe,Western Europe,Germany,Hesse,,Frankfurt am Main
140.82.38.58,4,2,xn--tidsfrdriv-icb.se,DE,Europe,Western Europe,Germany,Hesse,,Frankfurt am Main
95.179.248.227,4,67,xn--tipstilkledyr-bgb.dk,DE,Europe,Western Europe,Germany,Hesse,,Frankfurt am Main
51.68.188.71,4,120892,xn--ventyrsguide-fcb.se,DE,Europe,Western Europe,Germany,Hesse,,Limburg an der Lahn
139.162.151.182,4,2,xshore.com,DE,Europe,Western Europe,Germany,Hesse,,Frankfurt am Main
79.132.138.27,4,1,xt600.ru,DE,Europe,Western Europe,Germany,Hesse,,Frankfurt am Main
104.248.24.46,4,6,yachtridedubai.com,DE,Europe,Western Europe,Germany,Hesse,,Frankfurt am Main
141.226.253.90,4,3,yad2.co.il,DE,Europe,Western Europe,Germany,Hesse,,Frankfurt am Main
46.101.68.233,4,4,yanisvaroufakis.eu,DE,Europe,Western Europe,Germany,Hesse,,Frankfurt am Main
146.75.123.7,4,3,yehudakatz.com,DE,Europe,Western Europe,Germany,Hesse,,Frankfurt am Main
50.3.247.216,4,2,ygzone.com,DE,Europe,Western Europe,Germany,Hesse,,Frankfurt am Main
50.2.98.50,4,12,yhjyit.com,DE,Europe,Western Europe,Germany,Hesse,,Frankfurt am Main
50.2.251.13,4,3,yiguobianli.com,DE,Europe,Western Europe,Germany,Hesse,,Frankfurt am Main
43.131.32.63,4,0,yilz.net,DE,Europe,Western Europe,Germany,Hesse,,Frankfurt am Main
139.162.144.158,4,947,ymuhin.ru,DE,Europe,Western Europe,Germany,Hesse,,Frankfurt am Main
35.242.206.246,4,2,yogaworld.de,DE,Europe,Western Europe,Germany,Hesse,,Frankfurt am Main
185.220.70.106,4,5,your-docusaurus-test-site.com,DE,Europe,Western Europe,Germany,Hesse,,Frankfurt am Main
5.187.6.111,4,4,yourfloridafamily.com,DE,Europe,Western Europe,Germany,Hesse,,Frankfurt am Main
138.68.101.94,4,2,youtube-booster.space,DE,Europe,Western Europe,Germany,Hesse,,Frankfurt am Main
52.59.11.108,4,3,yowcon.com,DE,Europe,Western Europe,Germany,Hesse,,Frankfurt am Main
68.183.77.224,4,3,yproject.fr,DE,Europe,Western Europe,Germany,Hesse,,Frankfurt am Main
35.157.152.92,4,5,ys.no,DE,Europe,Western Europe,Germany,Hesse,,Frankfurt am Main
35.156.216.108,4,13,zadar.travel,DE,Europe,Western Europe,Germany,Hesse,,Frankfurt am Main
104.248.47.226,4,16,zagranica.by,DE,Europe,Western Europe,Germany,Hesse,,Frankfurt am Main
159.89.17.252,4,22,zahradnejazierka.sk,DE,Europe,Western Europe,Germany,Hesse,,Frankfurt am Main
145.239.2.198,4,34895,zappinternet.com,DE,Europe,Western Europe,Germany,Hesse,,Frankfurt am Main
139.162.148.178,4,23,zarez.hr,DE,Europe,Western Europe,Germany,Hesse,,Frankfurt am Main
159.89.106.143,4,18,zarkonnen.com,DE,Europe,Western Europe,Germany,Hesse,,Frankfurt am Main
130.61.200.8,4,9,zarovi.cz,DE,Europe,Western Europe,Germany,Hesse,,Frankfurt am Main
139.59.132.148,4,10,zdopravy.cz,DE,Europe,Western Europe,Germany,Hesse,,Frankfurt am Main
141.95.109.183,4,2,zeg-holz.de,DE,Europe,Western Europe,Germany,Hesse,,Limburg an der Lahn
138.201.165.68,4,6,zeitgeist-online.de,DE,Europe,Western Europe,Germany,Hesse,,Frankfurt am Main
45.76.82.94,4,4,zenyzenam.cz,DE,Europe,Western Europe,Germany,Hesse,,Frankfurt am Main
193.151.91.68,4,2,zeppelin-agro.com.ua,DE,Europe,Western Europe,Germany,Hesse,,Frankfurt am Main
89.44.194.103,4,9,zeptolab.com,DE,Europe,Western Europe,Germany,Hesse,,Frankfurt am Main
167.71.41.20,4,3,zff.hr,DE,Europe,Western Europe,Germany,Hesse,,Frankfurt am Main
159.89.12.253,4,9,zhermack.com,DE,Europe,Western Europe,Germany,Hesse,,Frankfurt am Main
213.139.204.233,4,3,zhwin.ch,DE,Europe,Western Europe,Germany,Hesse,,Frankfurt am Main
3.74.54.211,4,22,zichtadviseurs.nl,DE,Europe,Western Europe,Germany,Hesse,,Frankfurt am Main
47.91.86.82,4,2,zihanmirror.com,DE,Europe,Western Europe,Germany,Hesse,,Frankfurt am Main
46.101.226.126,4,6,zithromaxazitromycincheap.com,DE,Europe,Western Europe,Germany,Hesse,,Frankfurt am Main
8.209.117.103,4,14,zjkindly.cn,DE,Europe,Western Europe,Germany,Hesse,,Frankfurt am Main
193.151.89.102,4,4,zns.com.ua,DE,Europe,Western Europe,Germany,Hesse,,Frankfurt am Main
165.227.160.60,4,6,zollverein.de,DE,Europe,Western Europe,Germany,Hesse,,Frankfurt am Main
104.248.34.190,4,10,zolmi.com,DE,Europe,Western Europe,Germany,Hesse,,Frankfurt am Main
18.185.229.228,4,2,zona-internet.com,DE,Europe,Western Europe,Germany,Hesse,,Frankfurt am Main
35.156.206.30,4,31756,zoovienna.at,DE,Europe,Western Europe,Germany,Hesse,,Frankfurt am Main
45.79.250.224,4,6,zorgvoorinnoveren.nl,DE,Europe,Western Europe,Germany,Hesse,,Frankfurt am Main
157.230.27.144,4,5,zueriost.ch,DE,Europe,Western Europe,Germany,Hesse,,Frankfurt am Main
139.162.171.72,4,6,zuivelhoeve.nl,DE,Europe,Western Europe,Germany,Hesse,,Frankfurt am Main
68.183.213.140,4,7,zusammenfuehren.at,DE,Europe,Western Europe,Germany,Hesse,,Frankfurt am Main
18.193.131.234,4,3,zwierciadlo.pl,DE,Europe,Western Europe,Germany,Hesse,,Frankfurt am Main
