reflector_ip,ip_version,offset,description,country_code,region,sub_region,country_name,sub_division_1,sub_division_2,city
103.101.190.6,4,-2,64.sb,KR,Asia,Eastern Asia,South Korea,Seoul,,Seoul
103.101.190.5,4,-1,64.sb,KR,Asia,Eastern Asia,South Korea,Seoul,,Seoul
107.148.71.155,4,-5,83141.com,KR,Asia,Eastern Asia,South Korea,Seoul,,Seoul
150.109.83.91,4,21,ahg.co.kr,KR,Asia,Eastern Asia,South Korea,Seoul,,Seoul
221.139.49.3,4,167,anybuild.com,KR,Asia,Eastern Asia,South Korea,Seoul,,Seoul
141.164.45.52,4,12,apkians.com,KR,Asia,Eastern Asia,South Korea,Seoul,,Seoul
141.164.58.45,4,10,blingmolt.com,KR,Asia,Eastern Asia,South Korea,Seoul,,Seoul
158.247.219.202,4,9,cakeandallie.com,KR,Asia,Eastern Asia,South Korea,Seoul,,Seoul
107.148.56.102,4,-608,chinese-telegram.org,KR,Asia,Eastern Asia,South Korea,Seoul,,Seoul
146.56.191.88,4,8,chiwava.com,KR,Asia,Eastern Asia,South Korea,Seoul,,Seoul
222.234.220.52,4,114181,cnbnews.com,KR,Asia,Eastern Asia,South Korea,Seoul,,Seoul
91.204.224.58,4,2,efuns.net,KR,Asia,Eastern Asia,South Korea,Seoul,,Seoul
91.204.225.192,4,11,etdown.net,KR,Asia,Eastern Asia,South Korea,Seoul,,Seoul
218.155.71.142,4,4021,ezen-i.com,KR,Asia,Eastern Asia,South Korea,Seoul,,Seoul
103.101.190.10,4,5,fb9.com,KR,Asia,Eastern Asia,South Korea,Seoul,,Seoul
103.101.190.11,4,-2,fb9.com,KR,Asia,Eastern Asia,South Korea,Seoul,,Seoul
103.101.190.9,4,6,fb9.com,KR,Asia,Eastern Asia,South Korea,Seoul,,Seoul
103.101.190.12,4,8,fb9.com,KR,Asia,Eastern Asia,South Korea,Seoul,,Seoul
146.56.166.92,4,8,funami.tech,KR,Asia,Eastern Asia,South Korea,Seoul,,Seoul
34.64.239.34,4,6,goodtotosite.com,KR,Asia,Eastern Asia,South Korea,Seoul,,Seoul
34.64.209.34,4,14,gorilla-casino.net,KR,Asia,Eastern Asia,South Korea,Seoul,,Seoul
221.139.49.8,4,902,h-print.co.kr,KR,Asia,Eastern Asia,South Korea,Seoul,,Seoul
132.145.84.111,4,12,hmm21.com,KR,Asia,Eastern Asia,South Korea,Seoul,,Seoul
8.220.195.169,4,12,icnkr.com,KR,Asia,Eastern Asia,South Korea,Seoul,,Seoul
158.247.193.62,4,70,iscope.co.kr,KR,Asia,Eastern Asia,South Korea,Seoul,,Seoul
158.247.251.190,4,9,k1newsleader.co.kr,KR,Asia,Eastern Asia,South Korea,Seoul,,Seoul
154.90.63.80,4,77,kbcofficialsite.com,KR,Asia,Eastern Asia,South Korea,Seoul,,Seoul
34.64.118.60,4,4,koreaexpose.com,KR,Asia,Eastern Asia,South Korea,Seoul,,Seoul
222.234.220.53,4,1608,kwnews.co.kr,KR,Asia,Eastern Asia,South Korea,Seoul,,Seoul
38.177.229.194,4,30,ledian100.com,KR,Asia,Eastern Asia,South Korea,Seoul,,Seoul
221.139.49.6,4,968,logosystem.co.kr,KR,Asia,Eastern Asia,South Korea,Seoul,,Seoul
124.243.25.26,4,7,lottehotel.com,KR,Asia,Eastern Asia,South Korea,Seoul,,Seoul
124.243.25.25,4,-8,lottehotel.com,KR,Asia,Eastern Asia,South Korea,Seoul,,Seoul
124.243.25.27,4,1,lottehotel.com,KR,Asia,Eastern Asia,South Korea,Seoul,,Seoul
124.243.70.80,4,7,lotterentacar.net,KR,Asia,Eastern Asia,South Korea,Seoul,,Seoul
43.131.232.169,4,-5,luxurylabel77.com,KR,Asia,Eastern Asia,South Korea,Seoul,,Seoul
34.47.81.101,4,10,mtpolice.org,KR,Asia,Eastern Asia,South Korea,Seoul,,Seoul
222.234.220.56,4,-173647,mydaily.co.kr,KR,Asia,Eastern Asia,South Korea,Seoul,,Seoul
158.247.219.161,4,28,myidea.co.kr,KR,Asia,Eastern Asia,South Korea,Seoul,,Seoul
222.109.194.123,4,5,nakedsalary.com,KR,Asia,Eastern Asia,South Korea,Seoul,,Seoul
222.234.220.39,4,1608,newsprime.co.kr,KR,Asia,Eastern Asia,South Korea,Seoul,,Seoul
158.247.232.100,4,4,nunu6.tv,KR,Asia,Eastern Asia,South Korea,Seoul,,Seoul
158.247.215.12,4,9,nunu6.tv,KR,Asia,Eastern Asia,South Korea,Seoul,,Seoul
158.247.206.194,4,11,nunu6.tv,KR,Asia,Eastern Asia,South Korea,Seoul,,Seoul
158.247.245.11,4,35,oncadamoa.com,KR,Asia,Eastern Asia,South Korea,Seoul,,Seoul
34.64.173.24,4,4,panggame.com,KR,Asia,Eastern Asia,South Korea,Seoul,,Seoul
158.247.219.198,4,21,penhoo.com,KR,Asia,Eastern Asia,South Korea,Seoul,,Seoul
158.247.234.237,4,8,pmangvegasmoney.com,KR,Asia,Eastern Asia,South Korea,Seoul,,Seoul
158.247.215.67,4,7,pr25.net,KR,Asia,Eastern Asia,South Korea,Seoul,,Seoul
222.234.220.46,4,114230,pressian.com,KR,Asia,Eastern Asia,South Korea,Seoul,,Seoul
103.86.46.88,4,3,sdoyb.com,KR,Asia,Eastern Asia,South Korea,Seoul,,Seoul
182.162.22.205,4,-8283,seongjisafety.com,KR,Asia,Eastern Asia,South Korea,Seoul,,Seoul
43.131.254.145,4,-3,shs-dome3.com,KR,Asia,Eastern Asia,South Korea,Seoul,,Seoul
182.162.21.41,4,193,softjoin.co.kr,KR,Asia,Eastern Asia,South Korea,Seoul,,Seoul
34.64.151.90,4,3,sportstotos.org,KR,Asia,Eastern Asia,South Korea,Seoul,,Seoul
221.139.49.5,4,1395,storysoop.com,KR,Asia,Eastern Asia,South Korea,Seoul,,Seoul
158.247.203.49,4,9,tellthechildrenthetruth.com,KR,Asia,Eastern Asia,South Korea,Seoul,,Seoul
140.238.14.118,4,18,totolink.net,KR,Asia,Eastern Asia,South Korea,Seoul,,Seoul
140.238.30.27,4,3,totolink.net,KR,Asia,Eastern Asia,South Korea,Seoul,,Seoul
43.133.225.105,4,-3,vodgc.com,KR,Asia,Eastern Asia,South Korea,Seoul,,Seoul
104.37.214.54,4,33,w09776.com,KR,Asia,Eastern Asia,South Korea,Seoul,,Seoul
8.220.204.248,4,4,waltonchain.org,KR,Asia,Eastern Asia,South Korea,Seoul,,Seoul
107.148.56.120,4,5,wapnavi.net,KR,Asia,Eastern Asia,South Korea,Seoul,,Seoul
124.194.56.197,4,16,wonnews.kr,KR,Asia,Eastern Asia,South Korea,Seoul,,Seoul
107.148.58.74,4,0,wucai.cc,KR,Asia,Eastern Asia,South Korea,Seoul,,Seoul
182.162.101.71,4,93,xn--oy2bp0c52i10c9tal0f.com,KR,Asia,Eastern Asia,South Korea,Seoul,,Seoul
64.176.225.123,4,10,yesonoil.com,KR,Asia,Eastern Asia,South Korea,Seoul,,Seoul
141.164.45.114,4,20,youngpoongwood.com,KR,Asia,Eastern Asia,South Korea,Seoul,,Seoul
156.235.121.197,4,259111,zysggy.cn,KR,Asia,Eastern Asia,South Korea,Seoul,,Seoul
