reflector_ip,ip_version,offset,description,country_code,region,sub_region,country_name,sub_division_1,sub_division_2,city
47.92.76.70,4,51,0208d.com,CN,Asia,Eastern Asia,China,Beijing,,Beijing
47.92.105.197,4,39,029car.cn,CN,Asia,Eastern Asia,China,Beijing,,Beijing
59.110.61.8,4,39,0573jj.cn,CN,Asia,Eastern Asia,China,Beijing,,Beijing
101.200.77.197,4,40,123haitao.com,CN,Asia,Eastern Asia,China,Beijing,,Beijing
182.92.200.155,4,53,162100.com,CN,Asia,Eastern Asia,China,Beijing,,Beijing
39.97.179.93,4,40,17ex.com,CN,Asia,Eastern Asia,China,Beijing,,Beijing
101.201.210.66,4,39,1mm.cc,CN,Asia,Eastern Asia,China,Beijing,,Beijing
47.93.250.221,4,50,1zms.com,CN,Asia,Eastern Asia,China,Beijing,,Beijing
182.92.121.124,4,38,21ic.com,CN,Asia,Eastern Asia,China,Beijing,,Beijing
39.107.77.69,4,39,21rv.com,CN,Asia,Eastern Asia,China,Beijing,,Beijing
8.130.134.182,4,38,22vd.com,CN,Asia,Eastern Asia,China,Beijing,,Beijing
112.126.70.146,4,41,2b.cn,CN,Asia,Eastern Asia,China,Beijing,,Beijing
39.104.23.70,4,49,3156.cn,CN,Asia,Eastern Asia,China,Beijing,,Beijing
47.94.22.235,4,40,3566t.com,CN,Asia,Eastern Asia,China,Beijing,,Beijing
47.93.235.158,4,50,360doc.cn,CN,Asia,Eastern Asia,China,Beijing,,Beijing
39.106.161.119,4,38,360doc.cn,CN,Asia,Eastern Asia,China,Beijing,,Beijing
39.106.173.98,4,52,360doc.com,CN,Asia,Eastern Asia,China,Beijing,,Beijing
47.93.194.183,4,40,360doc.com,CN,Asia,Eastern Asia,China,Beijing,,Beijing
101.200.175.29,4,49,360xh.com,CN,Asia,Eastern Asia,China,Beijing,,Beijing
101.200.235.207,4,49,365wang.net,CN,Asia,Eastern Asia,China,Beijing,,Beijing
47.93.212.123,4,52,3ddl.net,CN,Asia,Eastern Asia,China,Beijing,,Beijing
8.147.105.87,4,41,3dnest.cn,CN,Asia,Eastern Asia,China,Beijing,,Beijing
47.94.82.164,4,41,3see.com,CN,Asia,Eastern Asia,China,Beijing,,Beijing
39.106.208.122,4,40,4006672007.com,CN,Asia,Eastern Asia,China,Beijing,,Beijing
82.156.214.93,4,48,45h.cn,CN,Asia,Eastern Asia,China,Beijing,,Beijing
8.130.137.161,4,41,49m.cn,CN,Asia,Eastern Asia,China,Beijing,,Beijing
39.100.160.70,4,50,4x5y.com,CN,Asia,Eastern Asia,China,Beijing,,Beijing
39.100.134.7,4,39,5000yan.com,CN,Asia,Eastern Asia,China,Beijing,,Beijing
101.200.156.156,4,-67084,50forum.org.cn,CN,Asia,Eastern Asia,China,Beijing,,Beijing
59.110.212.53,4,40,5117.net,CN,Asia,Eastern Asia,China,Beijing,,Beijing
112.126.74.100,4,40,5151ban.com,CN,Asia,Eastern Asia,China,Beijing,,Beijing
39.103.219.239,4,40,51aspx.com,CN,Asia,Eastern Asia,China,Beijing,,Beijing
39.105.20.135,4,905299,51meishu.com,CN,Asia,Eastern Asia,China,Beijing,,Beijing
101.200.199.51,4,37,55ido.com,CN,Asia,Eastern Asia,China,Beijing,,Beijing
115.182.8.222,4,38,591adb.com,CN,Asia,Eastern Asia,China,Beijing,,Beijing
39.102.103.105,4,40,594fast.com,CN,Asia,Eastern Asia,China,Beijing,,Beijing
123.57.242.213,4,50,6.cn,CN,Asia,Eastern Asia,China,Beijing,,Beijing
60.205.180.243,4,2218,693975.com,CN,Asia,Eastern Asia,China,Beijing,,Beijing
59.110.223.171,4,52,6eat.com,CN,Asia,Eastern Asia,China,Beijing,,Beijing
59.110.8.205,4,38,7dimusic.com,CN,Asia,Eastern Asia,China,Beijing,,Beijing
39.98.124.7,4,39,86wind.com,CN,Asia,Eastern Asia,China,Beijing,,Beijing
39.105.12.13,4,38,87870.com,CN,Asia,Eastern Asia,China,Beijing,,Beijing
123.57.63.150,4,39,8europe.com,CN,Asia,Eastern Asia,China,Beijing,,Beijing
1.117.171.170,4,26,912688.com,CN,Asia,Eastern Asia,China,Beijing,,Beijing
101.201.40.192,4,51,91tata.com,CN,Asia,Eastern Asia,China,Beijing,,Beijing
47.95.141.16,4,37,9939.com,CN,Asia,Eastern Asia,China,Beijing,,Beijing
101.201.82.152,4,40,998jx.com,CN,Asia,Eastern Asia,China,Beijing,,Beijing
123.56.218.188,4,49,9kuan9.com,CN,Asia,Eastern Asia,China,Beijing,,Beijing
39.105.168.108,4,38,abwhcyy.com,CN,Asia,Eastern Asia,China,Beijing,,Beijing
47.93.187.32,4,39,acgjc.com,CN,Asia,Eastern Asia,China,Beijing,,Beijing
101.201.78.28,4,54,actcn.net,CN,Asia,Eastern Asia,China,Beijing,,Beijing
60.205.205.235,4,46,adguider.com,CN,Asia,Eastern Asia,China,Beijing,,Beijing
59.110.63.98,4,51,admaster.com.cn,CN,Asia,Eastern Asia,China,Beijing,,Beijing
39.106.55.174,4,50,ahlihe.com,CN,Asia,Eastern Asia,China,Beijing,,Beijing
47.95.5.88,4,38,ahzk.net,CN,Asia,Eastern Asia,China,Beijing,,Beijing
101.200.194.156,4,41,ai567.com,CN,Asia,Eastern Asia,China,Beijing,,Beijing
82.157.247.197,4,36,aigc.cn,CN,Asia,Eastern Asia,China,Beijing,,Beijing
180.184.204.115,4,36,aipai.com,CN,Asia,Eastern Asia,China,Beijing,,
47.93.28.115,4,39,aipaperpass.com,CN,Asia,Eastern Asia,China,Beijing,,Beijing
39.107.157.131,4,50,airmb.com,CN,Asia,Eastern Asia,China,Beijing,,Beijing
39.96.53.12,4,46,airpano.org.cn,CN,Asia,Eastern Asia,China,Beijing,,Beijing
101.200.145.158,4,40,amchamchina.org,CN,Asia,Eastern Asia,China,Beijing,,Beijing
47.93.38.204,4,52,aminer.cn,CN,Asia,Eastern Asia,China,Beijing,,Beijing
59.110.218.157,4,39,ancsonic.com,CN,Asia,Eastern Asia,China,Beijing,,Beijing
39.106.164.218,4,39,andiantech.com,CN,Asia,Eastern Asia,China,Beijing,,Beijing
59.110.124.247,4,6177101,ankang06.org,CN,Asia,Eastern Asia,China,Beijing,,Beijing
52.81.70.62,4,40,antonoil.com,CN,Asia,Eastern Asia,China,Beijing,,Beijing
101.201.106.81,4,49,anykey.cn,CN,Asia,Eastern Asia,China,Beijing,,Beijing
39.98.116.152,4,53,apexams.net,CN,Asia,Eastern Asia,China,Beijing,,Beijing
47.93.239.87,4,123,artfoxlive.com,CN,Asia,Eastern Asia,China,Beijing,,Beijing
123.57.25.70,4,39,atintl.com.cn,CN,Asia,Eastern Asia,China,Beijing,,Beijing
82.156.5.37,4,36,axure.com.cn,CN,Asia,Eastern Asia,China,Beijing,,Beijing
47.92.132.214,4,93,az009.com,CN,Asia,Eastern Asia,China,Beijing,,Beijing
82.156.25.163,4,39,baidu-mgame.com,CN,Asia,Eastern Asia,China,Beijing,,Beijing
123.57.40.153,4,40,baixiaodan.com.cn,CN,Asia,Eastern Asia,China,Beijing,,Beijing
59.110.14.2,4,68,bamip.cn,CN,Asia,Eastern Asia,China,Beijing,,Beijing
39.99.255.82,4,51,bangkaow.com,CN,Asia,Eastern Asia,China,Beijing,,Beijing
39.100.124.238,4,38,banshujiang.cn,CN,Asia,Eastern Asia,China,Beijing,,Beijing
8.142.167.114,4,38,baomidou.com,CN,Asia,Eastern Asia,China,Beijing,,Beijing
123.56.246.189,4,55,baotashan.com,CN,Asia,Eastern Asia,China,Beijing,,Beijing
123.56.97.7,4,51,bato.cn,CN,Asia,Eastern Asia,China,Beijing,,Beijing
39.96.41.96,4,55,bazaar.com.cn,CN,Asia,Eastern Asia,China,Beijing,,Beijing
39.106.123.209,4,50,beareyes.com.cn,CN,Asia,Eastern Asia,China,Beijing,,Beijing
59.110.67.149,4,49,beijingyuesao.com.cn,CN,Asia,Eastern Asia,China,Beijing,,Beijing
123.56.218.175,4,39,belengineering.cn,CN,Asia,Eastern Asia,China,Beijing,,Beijing
182.92.177.193,4,52,bgys365.com,CN,Asia,Eastern Asia,China,Beijing,,Beijing
39.102.214.11,4,43,bhrpe.com,CN,Asia,Eastern Asia,China,Beijing,,Beijing
182.92.191.159,4,37,bhyedu.com,CN,Asia,Eastern Asia,China,Beijing,,Beijing
39.104.53.231,4,39,bianews.com,CN,Asia,Eastern Asia,China,Beijing,,Beijing
39.107.76.50,4,40,bioneeds.net,CN,Asia,Eastern Asia,China,Beijing,,Beijing
8.130.110.211,4,40,bios.net.cn,CN,Asia,Eastern Asia,China,Beijing,,Beijing
123.56.127.187,4,50,bisenet.com,CN,Asia,Eastern Asia,China,Beijing,,Beijing
39.106.67.177,4,39,bj1000e.com,CN,Asia,Eastern Asia,China,Beijing,,Beijing
39.107.139.14,4,41,bj1777.com,CN,Asia,Eastern Asia,China,Beijing,,Beijing
39.100.94.132,4,52,bjcharge.com,CN,Asia,Eastern Asia,China,Beijing,,Beijing
47.92.120.219,4,63,bjghbooks.com,CN,Asia,Eastern Asia,China,Beijing,,Beijing
114.242.134.29,4,-1808656,bjmy.gov.cn,CN,Asia,Eastern Asia,China,Beijing,,Beijing
47.92.193.178,4,38,bjogh.com.cn,CN,Asia,Eastern Asia,China,Beijing,,Beijing
60.205.167.217,4,39,bjrjht.com,CN,Asia,Eastern Asia,China,Beijing,,Beijing
60.205.32.184,4,40,bjthtyclean.com,CN,Asia,Eastern Asia,China,Beijing,,Beijing
39.105.61.179,4,51,bjzdfy.com.cn,CN,Asia,Eastern Asia,China,Beijing,,Beijing
101.200.208.59,4,50,bjzyhs.com,CN,Asia,Eastern Asia,China,Beijing,,Beijing
39.106.3.95,4,48,bolehu.net,CN,Asia,Eastern Asia,China,Beijing,,Beijing
39.106.12.246,4,40,boyar.cn,CN,Asia,Eastern Asia,China,Beijing,,Beijing
101.200.75.99,4,62,btccfo.com,CN,Asia,Eastern Asia,China,Beijing,,Beijing
39.107.72.125,4,38,bugubrand.cn,CN,Asia,Eastern Asia,China,Beijing,,Beijing
47.95.244.178,4,52,bulade.com,CN,Asia,Eastern Asia,China,Beijing,,Beijing
39.107.117.216,4,38,byzaixian.com,CN,Asia,Eastern Asia,China,Beijing,,Beijing
39.105.29.110,4,39,ca-sme.org,CN,Asia,Eastern Asia,China,Beijing,,Beijing
47.93.7.236,4,49,cacfo.com,CN,Asia,Eastern Asia,China,Beijing,,Beijing
47.93.255.215,4,42,cacm.org.cn,CN,Asia,Eastern Asia,China,Beijing,,Beijing
47.93.191.147,4,49,cadenzayueqi.com,CN,Asia,Eastern Asia,China,Beijing,,Beijing
39.104.124.183,4,66,cahe.edu.cn,CN,Asia,Eastern Asia,China,Beijing,,Beijing
8.131.92.136,4,37,caigou2003.com,CN,Asia,Eastern Asia,China,Beijing,,Beijing
223.70.243.136,4,-18,caissa.com.cn,CN,Asia,Eastern Asia,China,Beijing,,Beijing
47.93.158.179,4,40,calstar.cn,CN,Asia,Eastern Asia,China,Beijing,,Beijing
39.107.181.147,4,49,camf.com.cn,CN,Asia,Eastern Asia,China,Beijing,,Beijing
1.116.177.238,4,15,canyin88.com,CN,Asia,Eastern Asia,China,Beijing,,Beijing
121.89.207.6,4,51,car136.com,CN,Asia,Eastern Asia,China,Beijing,,Beijing
82.157.236.18,4,44,careerss.cn,CN,Asia,Eastern Asia,China,Beijing,,Beijing
8.130.40.75,4,41,carschina.com,CN,Asia,Eastern Asia,China,Beijing,,Beijing
101.200.191.121,4,37,ccaonline.cn,CN,Asia,Eastern Asia,China,Beijing,,Beijing
39.104.15.55,4,38,ccas.com.cn,CN,Asia,Eastern Asia,China,Beijing,,Beijing
47.94.96.193,4,3778,ccc.org.cn,CN,Asia,Eastern Asia,China,Beijing,,Beijing
210.12.108.184,4,281,cccmhpie.org.cn,CN,Asia,Eastern Asia,China,Beijing,,Beijing
59.110.0.39,4,38,ccg.org.cn,CN,Asia,Eastern Asia,China,Beijing,,Beijing
39.105.20.239,4,39,ccin.com.cn,CN,Asia,Eastern Asia,China,Beijing,,Beijing
60.205.226.187,4,38,ccjx.com,CN,Asia,Eastern Asia,China,Beijing,,Beijing
39.105.167.19,4,39,ccoo.cn,CN,Asia,Eastern Asia,China,Beijing,,Beijing
124.205.109.47,4,-29332843,ccpit.org,CN,Asia,Eastern Asia,China,Beijing,,Beijing
47.93.96.190,4,40,ccpnt.org,CN,Asia,Eastern Asia,China,Beijing,,Beijing
123.56.185.83,4,39,cct.cn,CN,Asia,Eastern Asia,China,Beijing,,Beijing
47.93.123.127,4,50,cct.cn,CN,Asia,Eastern Asia,China,Beijing,,Beijing
114.255.156.125,4,1701899,ccteg.cn,CN,Asia,Eastern Asia,China,Beijing,,Beijing
101.201.121.70,4,50,ceeia.com,CN,Asia,Eastern Asia,China,Beijing,,Beijing
39.104.92.217,4,39,centoschina.cn,CN,Asia,Eastern Asia,China,Beijing,,Beijing
159.226.111.2,4,10,cern.ac.cn,CN,Asia,Eastern Asia,China,Beijing,,Beijing
39.106.38.188,4,51,cfsn.cn,CN,Asia,Eastern Asia,China,Beijing,,Beijing
123.57.227.224,4,40,chanyeguihua.com,CN,Asia,Eastern Asia,China,Beijing,,Beijing
60.205.2.74,4,48,chembk.com,CN,Asia,Eastern Asia,China,Beijing,,Beijing
82.156.196.68,4,40,chemwiki.cn,CN,Asia,Eastern Asia,China,Beijing,,Beijing
182.92.210.126,4,68,chenapp.com,CN,Asia,Eastern Asia,China,Beijing,,Beijing
39.106.205.124,4,38,china-arbitration.com,CN,Asia,Eastern Asia,China,Beijing,,Beijing
39.101.181.138,4,77,china-led.net,CN,Asia,Eastern Asia,China,Beijing,,Beijing
39.104.88.86,4,38,china-nea.cn,CN,Asia,Eastern Asia,China,Beijing,,Beijing
101.201.57.94,4,39,china-vo.org,CN,Asia,Eastern Asia,China,Beijing,,Beijing
101.200.138.158,4,50,chinabmnet.com,CN,Asia,Eastern Asia,China,Beijing,,Beijing
47.94.166.61,4,41,chinabuses.com,CN,Asia,Eastern Asia,China,Beijing,,Beijing
47.92.96.182,4,41,chinacoldchainexpo.com,CN,Asia,Eastern Asia,China,Beijing,,Beijing
39.106.14.236,4,39,chinadevelopmentbrief.org.cn,CN,Asia,Eastern Asia,China,Beijing,,Beijing
182.92.78.114,4,37,chinaeclaw.com,CN,Asia,Eastern Asia,China,Beijing,,Beijing
39.104.92.94,4,38,chinagas.org.cn,CN,Asia,Eastern Asia,China,Beijing,,Beijing
39.105.35.9,4,36,chinaredflag.cn,CN,Asia,Eastern Asia,China,Beijing,,Beijing
82.157.191.123,4,38,chinareports.org.cn,CN,Asia,Eastern Asia,China,Beijing,,Beijing
49.7.58.232,4,48,chinasigns.cn,CN,Asia,Eastern Asia,China,Beijing,,Beijing
47.93.181.101,4,37,chinastroke.net,CN,Asia,Eastern Asia,China,Beijing,,Beijing
47.95.35.115,4,40,chinaticket.com,CN,Asia,Eastern Asia,China,Beijing,,Beijing
59.110.240.174,4,52,chinatruck.org,CN,Asia,Eastern Asia,China,Beijing,,Beijing
39.105.204.216,4,37,chinatrz.org.cn,CN,Asia,Eastern Asia,China,Beijing,,Beijing
123.56.134.38,4,37,chinauci.cn,CN,Asia,Eastern Asia,China,Beijing,,Beijing
8.147.135.180,4,49,chinaventure.com.cn,CN,Asia,Eastern Asia,China,Beijing,,Beijing
47.92.82.17,4,38,chinawebanalytics.cn,CN,Asia,Eastern Asia,China,Beijing,,Beijing
159.226.100.77,4,27277,chinaxiv.org,CN,Asia,Eastern Asia,China,Beijing,,Beijing
39.105.57.187,4,37,chinaztec.com,CN,Asia,Eastern Asia,China,Beijing,,Beijing
123.57.132.178,4,49,chineseoptics.net.cn,CN,Asia,Eastern Asia,China,Beijing,,Beijing
39.105.117.30,4,39,chinesetalc.com,CN,Asia,Eastern Asia,China,Beijing,,Beijing
101.201.41.18,4,37,chreos.org,CN,Asia,Eastern Asia,China,Beijing,,Beijing
47.93.42.88,4,42,chsdl.com,CN,Asia,Eastern Asia,China,Beijing,,Beijing
123.57.86.78,4,41,chuangshiwl.com,CN,Asia,Eastern Asia,China,Beijing,,Beijing
123.57.7.221,4,37,chyxx.com,CN,Asia,Eastern Asia,China,Beijing,,Beijing
47.94.1.80,4,36,ciia.com.cn,CN,Asia,Eastern Asia,China,Beijing,,Beijing
47.95.172.219,4,39,ciid.com.cn,CN,Asia,Eastern Asia,China,Beijing,,Beijing
47.94.170.223,4,48,citk.net,CN,Asia,Eastern Asia,China,Beijing,,Beijing
39.101.132.195,4,59,citreport.com,CN,Asia,Eastern Asia,China,Beijing,,Beijing
47.93.203.119,4,41,cixuanji.org,CN,Asia,Eastern Asia,China,Beijing,,Beijing
59.110.116.218,4,37,ckgsb.com,CN,Asia,Eastern Asia,China,Beijing,,Beijing
123.57.7.77,4,53,cmiw.cn,CN,Asia,Eastern Asia,China,Beijing,,Beijing
8.131.92.242,4,49,cmt.com.cn,CN,Asia,Eastern Asia,China,Beijing,,Beijing
39.100.125.84,4,59,cmt7.com,CN,Asia,Eastern Asia,China,Beijing,,Beijing
47.93.187.8,4,50,cn-healthcare.com,CN,Asia,Eastern Asia,China,Beijing,,Beijing
101.201.252.250,4,50,cn4e.com,CN,Asia,Eastern Asia,China,Beijing,,Beijing
59.110.136.82,4,38,cndent.com,CN,Asia,Eastern Asia,China,Beijing,,Beijing
101.200.152.244,4,39,cneo.com.cn,CN,Asia,Eastern Asia,China,Beijing,,Beijing
39.98.234.238,4,37,cnhal.com,CN,Asia,Eastern Asia,China,Beijing,,Beijing
60.205.36.210,4,36,cnjiuliang.com,CN,Asia,Eastern Asia,China,Beijing,,Beijing
60.205.40.194,4,39,cnlongqiang.com,CN,Asia,Eastern Asia,China,Beijing,,Beijing
47.92.112.226,4,39,cnsoftnews.com,CN,Asia,Eastern Asia,China,Beijing,,Beijing
182.92.222.175,4,49,cntcm.com.cn,CN,Asia,Eastern Asia,China,Beijing,,Beijing
8.141.85.110,4,39,cnwb.net,CN,Asia,Eastern Asia,China,Beijing,,Beijing
59.110.162.131,4,36,codercto.com,CN,Asia,Eastern Asia,China,Beijing,,Beijing
47.93.253.112,4,41,cougarsci.com,CN,Asia,Eastern Asia,China,Beijing,,Beijing
182.92.202.61,4,41,cphoto.com.cn,CN,Asia,Eastern Asia,China,Beijing,,Beijing
47.94.253.219,4,49,cqrc.net,CN,Asia,Eastern Asia,China,Beijing,,Beijing
47.93.78.51,4,50,creditsailing.com,CN,Asia,Eastern Asia,China,Beijing,,Beijing
47.95.36.24,4,38,csf.org.cn,CN,Asia,Eastern Asia,China,Beijing,,Beijing
112.126.164.132,4,49,csichanguang.com.cn,CN,Asia,Eastern Asia,China,Beijing,,Beijing
60.205.58.7,4,38,cstam.org.cn,CN,Asia,Eastern Asia,China,Beijing,,Beijing
123.57.240.10,4,48,ctba.org.cn,CN,Asia,Eastern Asia,China,Beijing,,Beijing
123.57.49.62,4,38,ctn1986.com,CN,Asia,Eastern Asia,China,Beijing,,Beijing
47.95.229.227,4,38,ctoutiao.com,CN,Asia,Eastern Asia,China,Beijing,,Beijing
116.205.4.156,4,78,cvae.com.cn,CN,Asia,Eastern Asia,China,Beijing,,Beijing
116.205.4.29,4,49,cvae.com.cn,CN,Asia,Eastern Asia,China,Beijing,,Beijing
116.205.4.151,4,65,cvae.com.cn,CN,Asia,Eastern Asia,China,Beijing,,Beijing
123.56.121.98,4,39,cvma.org.cn,CN,Asia,Eastern Asia,China,Beijing,,Beijing
8.140.129.150,4,37,cwbol.com,CN,Asia,Eastern Asia,China,Beijing,,Beijing
219.142.112.108,4,29076010,cyscc.org,CN,Asia,Eastern Asia,China,Beijing,,Beijing
8.131.94.190,4,42,cyzone.cn,CN,Asia,Eastern Asia,China,Beijing,,Beijing
39.105.128.179,4,50,cztshq.com,CN,Asia,Eastern Asia,China,Beijing,,Beijing
182.92.65.238,4,52,d-a-s.cn,CN,Asia,Eastern Asia,China,Beijing,,Beijing
123.57.40.16,4,50,d1.cn,CN,Asia,Eastern Asia,China,Beijing,,Beijing
59.110.227.13,4,48,d1ev.com,CN,Asia,Eastern Asia,China,Beijing,,Beijing
47.95.6.237,4,39,dafeixin.com.cn,CN,Asia,Eastern Asia,China,Beijing,,Beijing
60.205.156.79,4,38,dahaza.com,CN,Asia,Eastern Asia,China,Beijing,,Beijing
101.200.151.192,4,51,dai361.com,CN,Asia,Eastern Asia,China,Beijing,,Beijing
47.93.233.42,4,49,daojianchina.com,CN,Asia,Eastern Asia,China,Beijing,,Beijing
39.105.60.42,4,51,daoyoudao.com,CN,Asia,Eastern Asia,China,Beijing,,Beijing
120.48.138.55,4,49,dedebiz.com,CN,Asia,Eastern Asia,China,Beijing,,Beijing
39.104.90.38,4,48,deerchao.cn,CN,Asia,Eastern Asia,China,Beijing,,Beijing
101.200.210.243,4,89,destroyarchitects.com,CN,Asia,Eastern Asia,China,Beijing,,Beijing
39.105.14.85,4,39,dfg.cn,CN,Asia,Eastern Asia,China,Beijing,,Beijing
39.105.194.50,4,41,dictall.com,CN,Asia,Eastern Asia,China,Beijing,,Beijing
52.80.53.181,4,38,dida365.com,CN,Asia,Eastern Asia,China,Beijing,,Beijing
52.81.160.29,4,37,dida365.com,CN,Asia,Eastern Asia,China,Beijing,,Beijing
123.57.187.186,4,46,dijiateqi.com,CN,Asia,Eastern Asia,China,Beijing,,Beijing
123.57.174.224,4,37,dili360.com,CN,Asia,Eastern Asia,China,Beijing,,Beijing
182.92.243.165,4,41,dingge.ltd,CN,Asia,Eastern Asia,China,Beijing,,Beijing
39.100.107.128,4,38,disonde.com,CN,Asia,Eastern Asia,China,Beijing,,Beijing
82.157.191.147,4,37,django-vue-admin.com,CN,Asia,Eastern Asia,China,Beijing,,Beijing
49.4.56.45,4,47,djbx.com,CN,Asia,Eastern Asia,China,Beijing,,Beijing
49.4.56.38,4,47,djbx.com,CN,Asia,Eastern Asia,China,Beijing,,Beijing
49.4.56.43,4,59,djbx.com,CN,Asia,Eastern Asia,China,Beijing,,Beijing
39.99.152.213,4,40,djsyz.com,CN,Asia,Eastern Asia,China,Beijing,,Beijing
47.92.112.157,4,55,dllaoma.com,CN,Asia,Eastern Asia,China,Beijing,,Beijing
39.96.20.88,4,40,doit.com.cn,CN,Asia,Eastern Asia,China,Beijing,,Beijing
8.147.105.181,4,38,domain.cn,CN,Asia,Eastern Asia,China,Beijing,,Beijing
123.57.61.77,4,42,doname.com,CN,Asia,Eastern Asia,China,Beijing,,Beijing
101.200.187.2,4,69,dongdao.net,CN,Asia,Eastern Asia,China,Beijing,,Beijing
39.105.175.147,4,75,dongeren.cn,CN,Asia,Eastern Asia,China,Beijing,,Beijing
101.200.186.107,4,70,donglingtong.com,CN,Asia,Eastern Asia,China,Beijing,,Beijing
59.110.163.178,4,37,dostor.com,CN,Asia,Eastern Asia,China,Beijing,,Beijing
101.200.144.86,4,39,duzhongxin.net,CN,Asia,Eastern Asia,China,Beijing,,Beijing
106.37.229.57,4,4,dyrs.com.cn,CN,Asia,Eastern Asia,China,Beijing,,Beijing
182.92.85.158,4,49,dzlai.com,CN,Asia,Eastern Asia,China,Beijing,,Beijing
182.92.217.50,4,39,e-ds.cn,CN,Asia,Eastern Asia,China,Beijing,,Beijing
39.105.80.4,4,51,e-jjj.com,CN,Asia,Eastern Asia,China,Beijing,,Beijing
39.107.179.15,4,40,e-nai.cn,CN,Asia,Eastern Asia,China,Beijing,,Beijing
8.130.13.50,4,136,ea3w.com,CN,Asia,Eastern Asia,China,Beijing,,Beijing
123.56.103.231,4,38,easyliao.com,CN,Asia,Eastern Asia,China,Beijing,,Beijing
59.110.44.168,4,40,ebigear.com,CN,Asia,Eastern Asia,China,Beijing,,Beijing
123.56.115.217,4,50,ecejoin.com,CN,Asia,Eastern Asia,China,Beijing,,Beijing
8.130.79.205,4,38,educhenggong.com,CN,Asia,Eastern Asia,China,Beijing,,Beijing
8.141.86.78,4,48,eduego.com,CN,Asia,Eastern Asia,China,Beijing,,Beijing
60.205.185.37,4,48,eduei.com,CN,Asia,Eastern Asia,China,Beijing,,Beijing
39.105.20.229,4,59,eeworld.com.cn,CN,Asia,Eastern Asia,China,Beijing,,Beijing
54.223.181.58,4,56,efchina.org,CN,Asia,Eastern Asia,China,Beijing,,Beijing
39.100.15.64,4,46,ehaipu.cn,CN,Asia,Eastern Asia,China,Beijing,,Beijing
182.92.108.215,4,37,eiafans.com,CN,Asia,Eastern Asia,China,Beijing,,Beijing
47.93.180.191,4,49,einkcn.com,CN,Asia,Eastern Asia,China,Beijing,,Beijing
47.94.240.12,4,120,elvfu.com,CN,Asia,Eastern Asia,China,Beijing,,Beijing
47.93.2.140,4,70,em2d.cn,CN,Asia,Eastern Asia,China,Beijing,,Beijing
39.104.161.173,4,85,emca.cn,CN,Asia,Eastern Asia,China,Beijing,,Beijing
101.201.109.111,4,50,energynews.com.cn,CN,Asia,Eastern Asia,China,Beijing,,Beijing
39.97.189.96,4,39,enpranichina.com,CN,Asia,Eastern Asia,China,Beijing,,Beijing
101.201.30.245,4,49,esons.com.cn,CN,Asia,Eastern Asia,China,Beijing,,Beijing
8.131.247.141,4,48,eusmecentre.org.cn,CN,Asia,Eastern Asia,China,Beijing,,Beijing
123.57.192.171,4,42,ewang.com,CN,Asia,Eastern Asia,China,Beijing,,Beijing
123.57.204.227,4,38,eyda.com.cn,CN,Asia,Eastern Asia,China,Beijing,,Beijing
47.93.79.177,4,49,eyeplay.org,CN,Asia,Eastern Asia,China,Beijing,,Beijing
39.106.53.194,4,40,faguowenhua.com,CN,Asia,Eastern Asia,China,Beijing,,Beijing
112.125.152.26,4,40,faith-farm.com,CN,Asia,Eastern Asia,China,Beijing,,Beijing
82.156.8.138,4,44,fakawu.com,CN,Asia,Eastern Asia,China,Beijing,,Beijing
39.105.66.237,4,42,fantiankeji.com,CN,Asia,Eastern Asia,China,Beijing,,Beijing
39.99.238.130,4,49,fapaiwang.cn,CN,Asia,Eastern Asia,China,Beijing,,Beijing
60.205.10.179,4,50,fban.cn,CN,Asia,Eastern Asia,China,Beijing,,Beijing
47.94.141.124,4,47,fecn.net,CN,Asia,Eastern Asia,China,Beijing,,Beijing
39.106.126.16,4,58,fee1cars.com,CN,Asia,Eastern Asia,China,Beijing,,Beijing
182.92.64.40,4,75,feedtrade.com.cn,CN,Asia,Eastern Asia,China,Beijing,,Beijing
60.205.46.69,4,70,feeeel.cn,CN,Asia,Eastern Asia,China,Beijing,,Beijing
123.57.213.44,4,49,feelcars.com,CN,Asia,Eastern Asia,China,Beijing,,Beijing
8.140.102.217,4,48,feihe.com,CN,Asia,Eastern Asia,China,Beijing,,Beijing
60.205.201.232,4,55,financeun.com,CN,Asia,Eastern Asia,China,Beijing,,Beijing
39.106.53.223,4,50,fly63.com,CN,Asia,Eastern Asia,China,Beijing,,Beijing
121.89.245.134,4,50,forex.com.cn,CN,Asia,Eastern Asia,China,Beijing,,Beijing
47.93.87.229,4,38,forwardx.com,CN,Asia,Eastern Asia,China,Beijing,,Beijing
47.93.162.43,4,51,foundertype.com,CN,Asia,Eastern Asia,China,Beijing,,Beijing
47.92.222.208,4,70,fromgeek.com,CN,Asia,Eastern Asia,China,Beijing,,Beijing
182.92.128.24,4,51,fumu.com,CN,Asia,Eastern Asia,China,Beijing,,Beijing
60.205.36.241,4,48,fuyiyg.com,CN,Asia,Eastern Asia,China,Beijing,,Beijing
180.184.170.7,4,27,fytxonline.com,CN,Asia,Eastern Asia,China,Beijing,,
1.116.38.198,4,41,fzzxbbs.com,CN,Asia,Eastern Asia,China,Beijing,,Beijing
47.93.98.209,4,71,garmindev.cn,CN,Asia,Eastern Asia,China,Beijing,,Beijing
39.107.81.211,4,54,gbicom.cn,CN,Asia,Eastern Asia,China,Beijing,,Beijing
39.107.71.205,4,38,gezhe.com,CN,Asia,Eastern Asia,China,Beijing,,Beijing
39.96.10.176,4,53,gohoedu.com,CN,Asia,Eastern Asia,China,Beijing,,Beijing
47.93.61.213,4,530096,gooood.cn,CN,Asia,Eastern Asia,China,Beijing,,Beijing
39.106.169.96,4,38,gscd.cn,CN,Asia,Eastern Asia,China,Beijing,,Beijing
59.110.161.52,4,80,gshouse.com.cn,CN,Asia,Eastern Asia,China,Beijing,,Beijing
39.107.116.20,4,39,gstarcad.com,CN,Asia,Eastern Asia,China,Beijing,,Beijing
47.93.118.174,4,34,gtcm.info,CN,Asia,Eastern Asia,China,Beijing,,Beijing
123.57.146.142,4,50,guaguabj.com,CN,Asia,Eastern Asia,China,Beijing,,Beijing
39.106.13.171,4,50,guapizhu.com,CN,Asia,Eastern Asia,China,Beijing,,Beijing
47.92.169.202,4,38,gujianchina.cn,CN,Asia,Eastern Asia,China,Beijing,,Beijing
8.141.5.52,4,40,gujiguan.com,CN,Asia,Eastern Asia,China,Beijing,,Beijing
60.205.169.1,4,46,guodegang.org,CN,Asia,Eastern Asia,China,Beijing,,Beijing
49.4.29.128,4,42,guokr.com,CN,Asia,Eastern Asia,China,Beijing,,Beijing
8.130.55.81,4,39,gusev.com.cn,CN,Asia,Eastern Asia,China,Beijing,,Beijing
47.94.224.168,4,51,gwsgkw.com,CN,Asia,Eastern Asia,China,Beijing,,Beijing
39.105.205.108,4,53,gy19.com,CN,Asia,Eastern Asia,China,Beijing,,Beijing
39.96.184.15,4,39,gy19.com,CN,Asia,Eastern Asia,China,Beijing,,Beijing
123.56.137.20,4,37,gzyytj.com,CN,Asia,Eastern Asia,China,Beijing,,Beijing
112.126.70.204,4,39,ha97.com,CN,Asia,Eastern Asia,China,Beijing,,Beijing
39.106.25.249,4,50,hack520.com,CN,Asia,Eastern Asia,China,Beijing,,Beijing
39.101.223.30,4,51,haichuanghulan.com,CN,Asia,Eastern Asia,China,Beijing,,Beijing
182.92.222.41,4,38,haimo.com.cn,CN,Asia,Eastern Asia,China,Beijing,,Beijing
60.205.27.118,4,39,hairunpictures.com,CN,Asia,Eastern Asia,China,Beijing,,Beijing
39.106.139.58,4,37,haitou.cc,CN,Asia,Eastern Asia,China,Beijing,,Beijing
8.142.25.1,4,40,haitunboshi.com,CN,Asia,Eastern Asia,China,Beijing,,Beijing
60.205.0.101,4,48,halcom.cn,CN,Asia,Eastern Asia,China,Beijing,,Beijing
8.142.95.21,4,38,hanyous.com,CN,Asia,Eastern Asia,China,Beijing,,Beijing
123.56.141.63,4,39,haosuton.com,CN,Asia,Eastern Asia,China,Beijing,,Beijing
123.56.223.141,4,46,hbjsjdq.com,CN,Asia,Eastern Asia,China,Beijing,,Beijing
123.57.24.225,4,37,hblqs.com,CN,Asia,Eastern Asia,China,Beijing,,Beijing
39.98.116.82,4,60,hblys.com,CN,Asia,Eastern Asia,China,Beijing,,Beijing
39.96.197.54,4,40,hbte.com.cn,CN,Asia,Eastern Asia,China,Beijing,,Beijing
47.93.174.33,4,48,hdzc.net,CN,Asia,Eastern Asia,China,Beijing,,Beijing
123.56.203.137,4,54,heiguang.com,CN,Asia,Eastern Asia,China,Beijing,,Beijing
39.99.153.42,4,39,hengdianwang.cn,CN,Asia,Eastern Asia,China,Beijing,,Beijing
60.205.29.154,4,49,hengyia.com,CN,Asia,Eastern Asia,China,Beijing,,Beijing
47.94.89.53,4,39,hexintai.com.cn,CN,Asia,Eastern Asia,China,Beijing,,Beijing
49.4.24.14,4,41,hiascend.com,CN,Asia,Eastern Asia,China,Beijing,,Beijing
39.106.161.51,4,61,hifleet.com,CN,Asia,Eastern Asia,China,Beijing,,Beijing
47.94.149.22,4,37,hjjs.com,CN,Asia,Eastern Asia,China,Beijing,,Beijing
39.104.84.25,4,48,hju.net.cn,CN,Asia,Eastern Asia,China,Beijing,,Beijing
82.157.208.81,4,36,hnquanshun.cn,CN,Asia,Eastern Asia,China,Beijing,,Beijing
39.103.130.118,4,37,hnszyy.com.cn,CN,Asia,Eastern Asia,China,Beijing,,Beijing
39.101.218.27,4,51,hnthdt.com,CN,Asia,Eastern Asia,China,Beijing,,Beijing
39.103.148.242,4,49,hnxlx.com.cn,CN,Asia,Eastern Asia,China,Beijing,,Beijing
123.56.76.58,4,36,hongen.com,CN,Asia,Eastern Asia,China,Beijing,,Beijing
120.46.217.226,4,53,hrm.cn,CN,Asia,Eastern Asia,China,Beijing,,Beijing
60.205.26.67,4,40,hschina.net,CN,Asia,Eastern Asia,China,Beijing,,Beijing
47.93.27.239,4,47,hszczx.net,CN,Asia,Eastern Asia,China,Beijing,,Beijing
47.93.1.208,4,37,hualibaba.com,CN,Asia,Eastern Asia,China,Beijing,,Beijing
59.110.229.230,4,62,hualumedia.com,CN,Asia,Eastern Asia,China,Beijing,,Beijing
1.117.239.163,4,14,huangyuhui.net,CN,Asia,Eastern Asia,China,Beijing,,Beijing
47.92.241.177,4,49,huanqiukexue.com,CN,Asia,Eastern Asia,China,Beijing,,Beijing
39.105.52.254,4,50,huavisa.com,CN,Asia,Eastern Asia,China,Beijing,,Beijing
8.142.187.62,4,36,huaxingtang.com,CN,Asia,Eastern Asia,China,Beijing,,Beijing
39.96.57.177,4,40,huiyingzimu.com,CN,Asia,Eastern Asia,China,Beijing,,Beijing
112.126.80.92,4,48,huodongjia.com,CN,Asia,Eastern Asia,China,Beijing,,Beijing
47.92.123.71,4,38,hwjyw.com,CN,Asia,Eastern Asia,China,Beijing,,Beijing
49.4.56.29,4,46,hxkq.org,CN,Asia,Eastern Asia,China,Beijing,,Beijing
49.4.56.33,4,45,hxkq.org,CN,Asia,Eastern Asia,China,Beijing,,Beijing
182.92.67.237,4,48,hzcma.com,CN,Asia,Eastern Asia,China,Beijing,,Beijing
47.92.27.175,4,40,i2ya.com,CN,Asia,Eastern Asia,China,Beijing,,Beijing
8.142.95.34,4,50,iaviva.com,CN,Asia,Eastern Asia,China,Beijing,,Beijing
39.100.156.49,4,49,ibangkf.com,CN,Asia,Eastern Asia,China,Beijing,,Beijing
47.94.160.103,4,41,icourses.cn,CN,Asia,Eastern Asia,China,Beijing,,Beijing
47.92.120.72,4,86,ictis.cn,CN,Asia,Eastern Asia,China,Beijing,,Beijing
39.99.255.45,4,1464841,ifous.cn,CN,Asia,Eastern Asia,China,Beijing,,Beijing
182.92.222.222,4,39,ifunmac.com,CN,Asia,Eastern Asia,China,Beijing,,Beijing
182.92.157.251,4,39,ikangs.com,CN,Asia,Eastern Asia,China,Beijing,,Beijing
39.106.62.82,4,57,imac.ly,CN,Asia,Eastern Asia,China,Beijing,,Beijing
123.56.227.53,4,51,imiano.com,CN,Asia,Eastern Asia,China,Beijing,,Beijing
47.94.88.155,4,50,imobile.com.cn,CN,Asia,Eastern Asia,China,Beijing,,Beijing
47.93.112.118,4,38,imtcmkj.com,CN,Asia,Eastern Asia,China,Beijing,,Beijing
60.205.106.138,4,50,in-en.com,CN,Asia,Eastern Asia,China,Beijing,,Beijing
123.57.48.186,4,38,inbackups.com,CN,Asia,Eastern Asia,China,Beijing,,Beijing
59.110.229.158,4,48,inebm.cn,CN,Asia,Eastern Asia,China,Beijing,,Beijing
101.201.199.219,4,48,inmeng.cn,CN,Asia,Eastern Asia,China,Beijing,,Beijing
39.106.151.61,4,37,intcn.cn,CN,Asia,Eastern Asia,China,Beijing,,Beijing
39.100.109.11,4,52,iot101.com,CN,Asia,Eastern Asia,China,Beijing,,Beijing
39.105.177.33,4,60,ipowerunited.com,CN,Asia,Eastern Asia,China,Beijing,,Beijing
82.157.102.125,4,37,ithlj.com,CN,Asia,Eastern Asia,China,Beijing,,Beijing
101.200.153.4,4,38,ixdlanguage.org,CN,Asia,Eastern Asia,China,Beijing,,Beijing
39.103.171.152,4,47,jcetglobal.com,CN,Asia,Eastern Asia,China,Beijing,,Beijing
39.99.142.111,4,87,jcpqw.com,CN,Asia,Eastern Asia,China,Beijing,,Beijing
39.101.179.101,4,49,jdbchina.com,CN,Asia,Eastern Asia,China,Beijing,,Beijing
39.97.208.120,4,49,jdol.com.cn,CN,Asia,Eastern Asia,China,Beijing,,Beijing
60.205.158.27,4,51,jdyy.cn,CN,Asia,Eastern Asia,China,Beijing,,Beijing
182.92.20.211,4,42,jianso.com,CN,Asia,Eastern Asia,China,Beijing,,Beijing
123.57.17.62,4,52,jiaokee.com,CN,Asia,Eastern Asia,China,Beijing,,Beijing
182.92.149.10,4,38,jie.com.cn,CN,Asia,Eastern Asia,China,Beijing,,Beijing
39.107.224.201,4,49,jiemodui.com,CN,Asia,Eastern Asia,China,Beijing,,Beijing
60.205.6.159,4,36,jiguo.com,CN,Asia,Eastern Asia,China,Beijing,,Beijing
8.131.70.224,4,50,jikipedia.com,CN,Asia,Eastern Asia,China,Beijing,,Beijing
8.142.47.174,4,39,jimingbao.com,CN,Asia,Eastern Asia,China,Beijing,,Beijing
39.100.240.103,4,49,jingju.com,CN,Asia,Eastern Asia,China,Beijing,,Beijing
39.105.166.224,4,37,jitapu.com,CN,Asia,Eastern Asia,China,Beijing,,Beijing
47.95.240.98,4,38,jitashe.org,CN,Asia,Eastern Asia,China,Beijing,,Beijing
39.106.66.136,4,48,jiuxihuan.net,CN,Asia,Eastern Asia,China,Beijing,,Beijing
39.105.33.94,4,51,jiuyeqiao.cn,CN,Asia,Eastern Asia,China,Beijing,,Beijing
47.93.227.139,4,39,jkchemical.com,CN,Asia,Eastern Asia,China,Beijing,,Beijing
39.103.164.98,4,48,jksucralose.com,CN,Asia,Eastern Asia,China,Beijing,,Beijing
39.106.209.154,4,39,jltech.cn,CN,Asia,Eastern Asia,China,Beijing,,Beijing
47.94.225.221,4,49,jmw.com.cn,CN,Asia,Eastern Asia,China,Beijing,,Beijing
182.92.232.189,4,50,jnblj.com,CN,Asia,Eastern Asia,China,Beijing,,Beijing
49.4.5.245,4,35,jscjx.cn,CN,Asia,Eastern Asia,China,Beijing,,Beijing
39.98.162.162,4,49,jsrun.net,CN,Asia,Eastern Asia,China,Beijing,,Beijing
182.92.118.92,4,40,jsstb.gov.cn,CN,Asia,Eastern Asia,China,Beijing,,Beijing
59.110.143.45,4,39,juda.cn,CN,Asia,Eastern Asia,China,Beijing,,Beijing
39.105.193.106,4,50,jumpserver.org,CN,Asia,Eastern Asia,China,Beijing,,Beijing
59.110.41.78,4,39,junhe.com,CN,Asia,Eastern Asia,China,Beijing,,Beijing
47.93.213.131,4,36,jurlique.com.cn,CN,Asia,Eastern Asia,China,Beijing,,Beijing
47.93.88.216,4,48,jyslpg.com,CN,Asia,Eastern Asia,China,Beijing,,Beijing
8.146.209.171,4,36,jzhome.cn,CN,Asia,Eastern Asia,China,Beijing,,Beijing
39.103.195.97,4,50,jzjob007.com,CN,Asia,Eastern Asia,China,Beijing,,Beijing
47.95.3.20,4,38,jzqo.com,CN,Asia,Eastern Asia,China,Beijing,,Beijing
59.110.13.128,4,39,kaihu99.cn,CN,Asia,Eastern Asia,China,Beijing,,Beijing
101.201.100.131,4,41,kaoyan.com,CN,Asia,Eastern Asia,China,Beijing,,Beijing
101.200.32.9,4,80,kbyun.com,CN,Asia,Eastern Asia,China,Beijing,,Beijing
39.97.247.81,4,41,kehuaindustry.com,CN,Asia,Eastern Asia,China,Beijing,,Beijing
39.99.215.103,4,51,keledge.com,CN,Asia,Eastern Asia,China,Beijing,,Beijing
101.200.90.146,4,37,kewai100.com,CN,Asia,Eastern Asia,China,Beijing,,Beijing
39.107.64.172,4,39,kongfz.com,CN,Asia,Eastern Asia,China,Beijing,,Beijing
39.100.80.126,4,14381,koubeikc.com,CN,Asia,Eastern Asia,China,Beijing,,Beijing
60.205.42.202,4,48,krshb.cn,CN,Asia,Eastern Asia,China,Beijing,,Beijing
47.93.214.136,4,50,kuaisou.com,CN,Asia,Eastern Asia,China,Beijing,,Beijing
39.106.251.228,4,43,kuleiman.com,CN,Asia,Eastern Asia,China,Beijing,,Beijing
116.205.4.42,4,56,landchina.com,CN,Asia,Eastern Asia,China,Beijing,,Beijing
116.205.4.46,4,43,landchina.com,CN,Asia,Eastern Asia,China,Beijing,,Beijing
116.205.4.168,4,54,landchina.com,CN,Asia,Eastern Asia,China,Beijing,,Beijing
116.205.4.173,4,55,landchina.com,CN,Asia,Eastern Asia,China,Beijing,,Beijing
39.106.13.242,4,49,lansin.com,CN,Asia,Eastern Asia,China,Beijing,,Beijing
39.107.85.34,4,51,laosheteahouse.com,CN,Asia,Eastern Asia,China,Beijing,,Beijing
47.93.144.31,4,49,laoxuehost.com,CN,Asia,Eastern Asia,China,Beijing,,Beijing
39.105.80.188,4,49,latepost.com,CN,Asia,Eastern Asia,China,Beijing,,Beijing
60.205.30.2,4,103,lbkj.com.cn,CN,Asia,Eastern Asia,China,Beijing,,Beijing
39.107.93.16,4,37,lckj.cn,CN,Asia,Eastern Asia,China,Beijing,,Beijing
60.205.4.164,4,50,ldkxzzs.com,CN,Asia,Eastern Asia,China,Beijing,,Beijing
60.205.180.101,4,61,leikeji.com,CN,Asia,Eastern Asia,China,Beijing,,Beijing
101.200.213.3,4,49,lekaibooks.com,CN,Asia,Eastern Asia,China,Beijing,,Beijing
39.105.160.75,4,63,lerthai.net,CN,Asia,Eastern Asia,China,Beijing,,Beijing
123.57.221.42,4,40,lflawyer.com,CN,Asia,Eastern Asia,China,Beijing,,Beijing
101.200.154.18,4,36,lfmnet.com,CN,Asia,Eastern Asia,China,Beijing,,Beijing
60.205.10.151,4,37,lhasayx.com,CN,Asia,Eastern Asia,China,Beijing,,Beijing
123.56.117.141,4,49,lihua.com,CN,Asia,Eastern Asia,China,Beijing,,Beijing
47.93.186.21,4,38,linekong.com,CN,Asia,Eastern Asia,China,Beijing,,Beijing
8.140.54.181,4,50,linfen365.com,CN,Asia,Eastern Asia,China,Beijing,,Beijing
123.57.151.145,4,45,lingchuang.co,CN,Asia,Eastern Asia,China,Beijing,,Beijing
60.205.20.73,4,62,linguage.cn,CN,Asia,Eastern Asia,China,Beijing,,Beijing
60.205.34.26,4,57,linyicake.com,CN,Asia,Eastern Asia,China,Beijing,,Beijing
123.57.2.121,4,746,liqucn.com,CN,Asia,Eastern Asia,China,Beijing,,Beijing
39.96.68.143,4,38,liwenzhou.com,CN,Asia,Eastern Asia,China,Beijing,,Beijing
210.12.198.130,4,19644,lj-bank.com,CN,Asia,Eastern Asia,China,Beijing,,Beijing
39.105.9.64,4,39,lmjx.net,CN,Asia,Eastern Asia,China,Beijing,,Beijing
39.97.166.127,4,57,lmxxw.cn,CN,Asia,Eastern Asia,China,Beijing,,Beijing
54.223.28.22,4,38,logitech.com.cn,CN,Asia,Eastern Asia,China,Beijing,,Beijing
39.106.17.172,4,49,logomaker.com.cn,CN,Asia,Eastern Asia,China,Beijing,,Beijing
59.110.159.148,4,75,longau.com,CN,Asia,Eastern Asia,China,Beijing,,Beijing
8.141.90.2,4,38,longshine.com,CN,Asia,Eastern Asia,China,Beijing,,Beijing
39.105.109.163,4,53,lorinserauto.com.cn,CN,Asia,Eastern Asia,China,Beijing,,Beijing
116.205.4.8,4,46,lotsmall.cn,CN,Asia,Eastern Asia,China,Beijing,,Beijing
116.205.4.6,4,59,lotsmall.cn,CN,Asia,Eastern Asia,China,Beijing,,Beijing
116.205.4.136,4,47,lotsmall.cn,CN,Asia,Eastern Asia,China,Beijing,,Beijing
116.205.4.143,4,84,lotsmall.cn,CN,Asia,Eastern Asia,China,Beijing,,Beijing
49.4.10.167,4,51,lp91.com,CN,Asia,Eastern Asia,China,Beijing,,Beijing
101.200.230.108,4,50,lrhold.net,CN,Asia,Eastern Asia,China,Beijing,,Beijing
8.142.109.165,4,38,lsgx.com.cn,CN,Asia,Eastern Asia,China,Beijing,,Beijing
47.92.149.28,4,37,ltesting.net,CN,Asia,Eastern Asia,China,Beijing,,Beijing
39.105.203.30,4,50,luatos.com,CN,Asia,Eastern Asia,China,Beijing,,Beijing
116.205.4.30,4,45,luckyair.net,CN,Asia,Eastern Asia,China,Beijing,,Beijing
116.205.4.31,4,66,luckyair.net,CN,Asia,Eastern Asia,China,Beijing,,Beijing
116.205.4.150,4,60,luckyair.net,CN,Asia,Eastern Asia,China,Beijing,,Beijing
116.205.4.160,4,54,luckyair.net,CN,Asia,Eastern Asia,China,Beijing,,Beijing
101.200.183.231,4,86,lvya.org,CN,Asia,Eastern Asia,China,Beijing,,Beijing
59.110.166.111,4,45,lvye.cn,CN,Asia,Eastern Asia,China,Beijing,,Beijing
60.205.28.138,4,53,lwip.com,CN,Asia,Eastern Asia,China,Beijing,,Beijing
59.110.45.56,4,38,lxcaigang.com,CN,Asia,Eastern Asia,China,Beijing,,Beijing
47.95.145.192,4,38,madisonboom.com,CN,Asia,Eastern Asia,China,Beijing,,Beijing
39.105.48.47,4,50,magicwinmail.com,CN,Asia,Eastern Asia,China,Beijing,,Beijing
101.200.164.252,4,48,maicheshop.com,CN,Asia,Eastern Asia,China,Beijing,,Beijing
39.105.31.91,4,48,mailuzi.com,CN,Asia,Eastern Asia,China,Beijing,,Beijing
47.92.65.248,4,49,maitoutiao.com,CN,Asia,Eastern Asia,China,Beijing,,Beijing
101.201.153.157,4,50,mapabc.com,CN,Asia,Eastern Asia,China,Beijing,,Beijing
8.141.4.108,4,134,materhd.com,CN,Asia,Eastern Asia,China,Beijing,,Beijing
39.107.74.207,4,36,mato.com.cn,CN,Asia,Eastern Asia,China,Beijing,,Beijing
47.93.45.187,4,88,mbaedu.cn,CN,Asia,Eastern Asia,China,Beijing,,Beijing
82.156.39.96,4,37,mbaschool.com.cn,CN,Asia,Eastern Asia,China,Beijing,,Beijing
39.105.51.46,4,1788,mcchina.com,CN,Asia,Eastern Asia,China,Beijing,,Beijing
47.94.192.5,4,49,meijiexia.com,CN,Asia,Eastern Asia,China,Beijing,,Beijing
47.94.205.178,4,4818,meishichina.com,CN,Asia,Eastern Asia,China,Beijing,,Beijing
47.94.0.126,4,40,memsic.com,CN,Asia,Eastern Asia,China,Beijing,,Beijing
8.140.23.182,4,50,merach.com,CN,Asia,Eastern Asia,China,Beijing,,Beijing
123.57.214.139,4,61,miancp.com,CN,Asia,Eastern Asia,China,Beijing,,Beijing
180.184.214.14,4,25,miaoshou.net,CN,Asia,Eastern Asia,China,Beijing,,
123.57.214.97,4,45,midifan.com,CN,Asia,Eastern Asia,China,Beijing,,Beijing
47.92.124.101,4,47,mifengedu.cn,CN,Asia,Eastern Asia,China,Beijing,,Beijing
39.96.139.150,4,57,miiteec.org.cn,CN,Asia,Eastern Asia,China,Beijing,,Beijing
101.201.210.93,4,41,mitech-ndt.com,CN,Asia,Eastern Asia,China,Beijing,,Beijing
60.205.33.234,4,39,mjdtkt.com,CN,Asia,Eastern Asia,China,Beijing,,Beijing
60.205.170.87,4,47,mlzgw.cn,CN,Asia,Eastern Asia,China,Beijing,,Beijing
120.46.158.101,4,47,modb.pro,CN,Asia,Eastern Asia,China,Beijing,,Beijing
39.107.113.89,4,52,moxiu.com,CN,Asia,Eastern Asia,China,Beijing,,Beijing
182.92.171.171,4,38,moyiza.com,CN,Asia,Eastern Asia,China,Beijing,,Beijing
101.201.121.5,4,48,mutianyugreatwall.com,CN,Asia,Eastern Asia,China,Beijing,,Beijing
39.106.22.203,4,41,mycq3d.com,CN,Asia,Eastern Asia,China,Beijing,,Beijing
8.142.129.171,4,52,mymilk.cc,CN,Asia,Eastern Asia,China,Beijing,,Beijing
59.110.143.139,4,47,nceol.com,CN,Asia,Eastern Asia,China,Beijing,,Beijing
101.200.13.120,4,36,nciaer.com,CN,Asia,Eastern Asia,China,Beijing,,Beijing
123.56.117.41,4,51,nei.com.cn,CN,Asia,Eastern Asia,China,Beijing,,Beijing
39.104.92.55,4,45,newacademic.net,CN,Asia,Eastern Asia,China,Beijing,,Beijing
39.105.60.114,4,55,newtype.com.cn,CN,Asia,Eastern Asia,China,Beijing,,Beijing
82.156.224.136,4,78,newyx.net,CN,Asia,Eastern Asia,China,Beijing,,Beijing
1.202.195.204,4,-28167261,ngx.net.cn,CN,Asia,Eastern Asia,China,Beijing,,Beijing
36.112.130.116,4,37,nhsa.gov.cn,CN,Asia,Eastern Asia,China,Beijing,,Beijing
8.131.241.89,4,-70,niuhong.top,CN,Asia,Eastern Asia,China,Beijing,,Beijing
39.106.152.195,4,42,nolovr.com,CN,Asia,Eastern Asia,China,Beijing,,Beijing
111.202.113.87,4,-106,nongji360.com,CN,Asia,Eastern Asia,China,Beijing,,Beijing
82.156.183.86,4,35,northnews.cn,CN,Asia,Eastern Asia,China,Beijing,,Beijing
47.93.248.167,4,61,nphoto.net,CN,Asia,Eastern Asia,China,Beijing,,Beijing
123.57.64.52,4,51,nwumba.com,CN,Asia,Eastern Asia,China,Beijing,,Beijing
39.101.138.175,4,51,nywsh.com,CN,Asia,Eastern Asia,China,Beijing,,Beijing
47.95.141.172,4,49,oadz.com,CN,Asia,Eastern Asia,China,Beijing,,Beijing
47.93.12.173,4,49,obgy.cn,CN,Asia,Eastern Asia,China,Beijing,,Beijing
39.97.103.199,4,40,ofszs.com,CN,Asia,Eastern Asia,China,Beijing,,Beijing
39.106.37.133,4,69,oilhr.com,CN,Asia,Eastern Asia,China,Beijing,,Beijing
182.92.244.121,4,47,ontheroadstore.com,CN,Asia,Eastern Asia,China,Beijing,,Beijing
8.131.229.236,4,49,openanolis.cn,CN,Asia,Eastern Asia,China,Beijing,,Beijing
182.92.10.228,4,51,operachina.com,CN,Asia,Eastern Asia,China,Beijing,,Beijing
123.57.65.158,4,33,ouryao.com,CN,Asia,Eastern Asia,China,Beijing,,Beijing
39.104.110.223,4,52,p2hp.com,CN,Asia,Eastern Asia,China,Beijing,,Beijing
39.96.44.212,4,37,paihang360.com,CN,Asia,Eastern Asia,China,Beijing,,Beijing
60.205.162.145,4,15,paperfree.cn,CN,Asia,Eastern Asia,China,Beijing,,Beijing
8.140.58.59,4,38,patentguru.com,CN,Asia,Eastern Asia,China,Beijing,,Beijing
123.57.174.136,4,73,patfun.com,CN,Asia,Eastern Asia,China,Beijing,,Beijing
60.205.32.74,4,55,pcx0599.com,CN,Asia,Eastern Asia,China,Beijing,,Beijing
47.94.2.81,4,83,pencilnews.cn,CN,Asia,Eastern Asia,China,Beijing,,Beijing
47.92.82.89,4,86,petlove.com.cn,CN,Asia,Eastern Asia,China,Beijing,,Beijing
82.156.59.186,4,41,phoenixtv.com,CN,Asia,Eastern Asia,China,Beijing,,Beijing
101.201.68.88,4,50,php1.cn,CN,Asia,Eastern Asia,China,Beijing,,Beijing
47.93.184.71,4,37,php168.net,CN,Asia,Eastern Asia,China,Beijing,,Beijing
123.56.71.70,4,55,phpernote.com,CN,Asia,Eastern Asia,China,Beijing,,Beijing
39.99.237.115,4,63,pintu360.com,CN,Asia,Eastern Asia,China,Beijing,,Beijing
101.200.81.147,4,54,pipo.com,CN,Asia,Eastern Asia,China,Beijing,,Beijing
82.157.188.63,4,53,playhudong.com,CN,Asia,Eastern Asia,China,Beijing,,Beijing
47.95.21.14,4,94,pop-photo.com.cn,CN,Asia,Eastern Asia,China,Beijing,,Beijing
39.106.20.57,4,69,ppsport.com,CN,Asia,Eastern Asia,China,Beijing,,Beijing
8.142.190.106,4,57,prcs.org.cn,CN,Asia,Eastern Asia,China,Beijing,,Beijing
39.105.164.239,4,74,prookid.com,CN,Asia,Eastern Asia,China,Beijing,,Beijing
39.105.219.117,4,80,ptc-asia.com,CN,Asia,Eastern Asia,China,Beijing,,Beijing
8.141.87.178,4,49,pushizhe.com,CN,Asia,Eastern Asia,China,Beijing,,Beijing
101.200.57.37,4,50,qd12315.com,CN,Asia,Eastern Asia,China,Beijing,,Beijing
47.94.0.229,4,38,qhyc.com,CN,Asia,Eastern Asia,China,Beijing,,Beijing
112.125.94.119,4,39,qianyan.biz,CN,Asia,Eastern Asia,China,Beijing,,Beijing
39.105.181.222,4,36,qibosoft.com,CN,Asia,Eastern Asia,China,Beijing,,Beijing
39.106.22.102,4,49,qikqiak.com,CN,Asia,Eastern Asia,China,Beijing,,Beijing
39.102.210.191,4,37,qinbing.cn,CN,Asia,Eastern Asia,China,Beijing,,Beijing
59.110.219.136,4,39,qingtu.cn,CN,Asia,Eastern Asia,China,Beijing,,Beijing
60.205.26.50,4,37,qinhuatech.com,CN,Asia,Eastern Asia,China,Beijing,,Beijing
60.205.20.231,4,48,qishangnet.cn,CN,Asia,Eastern Asia,China,Beijing,,Beijing
8.130.129.15,4,52,qtool.net,CN,Asia,Eastern Asia,China,Beijing,,Beijing
47.92.104.189,4,37,quanfeng.net,CN,Asia,Eastern Asia,China,Beijing,,Beijing
39.106.14.132,4,61,questmobile.com.cn,CN,Asia,Eastern Asia,China,Beijing,,Beijing
39.107.72.230,4,62,quwan.com,CN,Asia,Eastern Asia,China,Beijing,,Beijing
1.117.153.128,4,28,ranmao.com,CN,Asia,Eastern Asia,China,Beijing,,Beijing
101.200.138.2,4,37,raxue.com,CN,Asia,Eastern Asia,China,Beijing,,Beijing
182.92.102.86,4,34,rcet.cn,CN,Asia,Eastern Asia,China,Beijing,,Beijing
39.97.255.71,4,43,reanod.com,CN,Asia,Eastern Asia,China,Beijing,,Beijing
47.95.9.245,4,90,rencaijob.com,CN,Asia,Eastern Asia,China,Beijing,,Beijing
123.57.93.228,4,41,resset.com,CN,Asia,Eastern Asia,China,Beijing,,Beijing
39.96.166.83,4,57,rongxiulawyer.com,CN,Asia,Eastern Asia,China,Beijing,,Beijing
39.103.180.82,4,64,roomroom.com.cn,CN,Asia,Eastern Asia,China,Beijing,,Beijing
39.100.243.123,4,38,ruciwan.com,CN,Asia,Eastern Asia,China,Beijing,,Beijing
47.92.159.76,4,53,ruipos.com,CN,Asia,Eastern Asia,China,Beijing,,Beijing
101.200.135.37,4,51,ruixifushi.com,CN,Asia,Eastern Asia,China,Beijing,,Beijing
112.126.64.65,4,38,saba-china.com,CN,Asia,Eastern Asia,China,Beijing,,Beijing
60.205.11.197,4,39,sables.cn,CN,Asia,Eastern Asia,China,Beijing,,Beijing
39.104.17.179,4,49,sahcqmu.com,CN,Asia,Eastern Asia,China,Beijing,,Beijing
60.205.1.251,4,42,sanglianju.com,CN,Asia,Eastern Asia,China,Beijing,,Beijing
182.92.111.197,4,38,saoniuhuo.com,CN,Asia,Eastern Asia,China,Beijing,,Beijing
182.92.128.192,4,36,sbsyw.cn,CN,Asia,Eastern Asia,China,Beijing,,Beijing
101.200.80.64,4,38,sciopen.com,CN,Asia,Eastern Asia,China,Beijing,,Beijing
39.100.119.64,4,94,scmor.com,CN,Asia,Eastern Asia,China,Beijing,,Beijing
82.157.35.116,4,45,scrmtech.com,CN,Asia,Eastern Asia,China,Beijing,,Beijing
123.56.120.251,4,38,scxxb.com.cn,CN,Asia,Eastern Asia,China,Beijing,,Beijing
39.107.85.183,4,38,sdmcp.net,CN,Asia,Eastern Asia,China,Beijing,,Beijing
123.57.17.239,4,39,sdnlab.com,CN,Asia,Eastern Asia,China,Beijing,,Beijing
101.200.169.207,4,91,sentuxueyuan.com,CN,Asia,Eastern Asia,China,Beijing,,Beijing
123.56.163.208,4,368658,sequoiadb.com,CN,Asia,Eastern Asia,China,Beijing,,Beijing
123.56.25.20,4,54,shangshuitv.com,CN,Asia,Eastern Asia,China,Beijing,,Beijing
60.205.19.232,4,43,shengshihuanqiu.com,CN,Asia,Eastern Asia,China,Beijing,,Beijing
47.93.237.112,4,192701,shenqixiangsu.com,CN,Asia,Eastern Asia,China,Beijing,,Beijing
39.96.33.154,4,48,shenyangbus.com,CN,Asia,Eastern Asia,China,Beijing,,Beijing
182.92.221.186,4,36,shidanli.cn,CN,Asia,Eastern Asia,China,Beijing,,Beijing
39.98.208.207,4,38,ship.sh,CN,Asia,Eastern Asia,China,Beijing,,Beijing
60.205.11.4,4,47,shizhantex.com,CN,Asia,Eastern Asia,China,Beijing,,Beijing
82.156.103.142,4,37,showstart.com,CN,Asia,Eastern Asia,China,Beijing,,Beijing
101.201.208.99,4,47,shucong.com,CN,Asia,Eastern Asia,China,Beijing,,Beijing
101.200.153.112,4,37,shufazitie.com,CN,Asia,Eastern Asia,China,Beijing,,Beijing
123.56.204.3,4,49,shuhuawu.com,CN,Asia,Eastern Asia,China,Beijing,,Beijing
59.110.41.93,4,48,shushangyun.com,CN,Asia,Eastern Asia,China,Beijing,,Beijing
39.104.27.233,4,39,shuxiangjia.cn,CN,Asia,Eastern Asia,China,Beijing,,Beijing
123.56.1.137,4,48,siasun.com,CN,Asia,Eastern Asia,China,Beijing,,Beijing
39.105.188.63,4,40,sigmaintell.com,CN,Asia,Eastern Asia,China,Beijing,,Beijing
39.101.183.184,4,50,singularity-ai.com,CN,Asia,Eastern Asia,China,Beijing,,Beijing
39.105.96.38,4,99,sino-web.net,CN,Asia,Eastern Asia,China,Beijing,,Beijing
39.107.157.224,4,52,sishuok.com,CN,Asia,Eastern Asia,China,Beijing,,Beijing
47.93.125.163,4,58,sjcfw.net,CN,Asia,Eastern Asia,China,Beijing,,Beijing
123.57.238.134,4,39,sjhyykj.cn,CN,Asia,Eastern Asia,China,Beijing,,Beijing
123.57.92.155,4,74,sjzgsxy.com,CN,Asia,Eastern Asia,China,Beijing,,Beijing
39.105.20.140,4,44,skdlabs.com,CN,Asia,Eastern Asia,China,Beijing,,Beijing
120.46.156.183,4,56,sljxlm.com,CN,Asia,Eastern Asia,China,Beijing,,Beijing
39.99.42.110,4,39,slyrj.com,CN,Asia,Eastern Asia,China,Beijing,,Beijing
39.106.130.148,4,83,smzy.com,CN,Asia,Eastern Asia,China,Beijing,,Beijing
60.205.249.78,4,53,snbiopharm.com,CN,Asia,Eastern Asia,China,Beijing,,Beijing
59.110.116.80,4,39,snzg.cn,CN,Asia,Eastern Asia,China,Beijing,,Beijing
59.110.71.65,4,40,socialpsy.org.cn,CN,Asia,Eastern Asia,China,Beijing,,Beijing
59.110.154.175,4,37,sophoto.com.cn,CN,Asia,Eastern Asia,China,Beijing,,Beijing
39.105.187.159,4,57,sowosky.com,CN,Asia,Eastern Asia,China,Beijing,,Beijing
123.57.16.29,4,38,specialsci.cn,CN,Asia,Eastern Asia,China,Beijing,,Beijing
123.57.182.230,4,69,springcloud.cc,CN,Asia,Eastern Asia,China,Beijing,,Beijing
59.110.221.40,4,46,ssap.com.cn,CN,Asia,Eastern Asia,China,Beijing,,Beijing
60.15.198.147,4,-26882236,suihua.gov.cn,CN,Asia,Eastern Asia,China,Beijing,,Beijing
111.48.108.100,4,24,suning.cn,CN,Asia,Eastern Asia,China,Beijing,,Beijing
39.106.175.195,4,54,sunriseseal.com,CN,Asia,Eastern Asia,China,Beijing,,Beijing
59.110.54.108,4,52,swarma.org,CN,Asia,Eastern Asia,China,Beijing,,Beijing
112.126.83.221,4,789093,swchina.org,CN,Asia,Eastern Asia,China,Beijing,,Beijing
39.106.93.226,4,38,sxdt217.com,CN,Asia,Eastern Asia,China,Beijing,,Beijing
39.105.192.59,4,54,sxsoft.com,CN,Asia,Eastern Asia,China,Beijing,,Beijing
101.200.149.254,4,54,sxssljt.cn,CN,Asia,Eastern Asia,China,Beijing,,Beijing
39.106.86.218,4,37,sylixos.com,CN,Asia,Eastern Asia,China,Beijing,,Beijing
123.57.135.156,4,37,sypole.com,CN,Asia,Eastern Asia,China,Beijing,,Beijing
39.100.113.116,4,37,syrc.com.cn,CN,Asia,Eastern Asia,China,Beijing,,Beijing
123.57.137.123,4,49,syzadr.com,CN,Asia,Eastern Asia,China,Beijing,,Beijing
123.57.141.108,4,37,szkrjn.com,CN,Asia,Eastern Asia,China,Beijing,,Beijing
8.142.95.113,4,40,t0001.com,CN,Asia,Eastern Asia,China,Beijing,,Beijing
39.97.171.255,4,47,t1678.com,CN,Asia,Eastern Asia,China,Beijing,,Beijing
47.92.173.91,4,284338,taig.com,CN,Asia,Eastern Asia,China,Beijing,,Beijing
101.201.252.212,4,37,talkwithtrend.com,CN,Asia,Eastern Asia,China,Beijing,,Beijing
39.105.124.80,4,44,taohe5.com,CN,Asia,Eastern Asia,China,Beijing,,Beijing
101.200.125.16,4,47,taosdata.com,CN,Asia,Eastern Asia,China,Beijing,,Beijing
8.130.179.9,4,48,tcjmy.cn,CN,Asia,Eastern Asia,China,Beijing,,Beijing
47.94.201.205,4,49,tech-up.cn,CN,Asia,Eastern Asia,China,Beijing,,Beijing
123.56.44.203,4,62,techlabbio.com,CN,Asia,Eastern Asia,China,Beijing,,Beijing
8.140.134.187,4,101,tefl-china.net,CN,Asia,Eastern Asia,China,Beijing,,Beijing
8.130.42.13,4,38,teqi123.com,CN,Asia,Eastern Asia,China,Beijing,,Beijing
125.34.91.71,4,50,termonline.cn,CN,Asia,Eastern Asia,China,Beijing,,Beijing
60.205.33.215,4,57,texintx.com,CN,Asia,Eastern Asia,China,Beijing,,Beijing
60.205.34.40,4,63,thbianpofanghu.com,CN,Asia,Eastern Asia,China,Beijing,,Beijing
60.205.138.121,4,58,thebeijinger.com,CN,Asia,Eastern Asia,China,Beijing,,Beijing
39.105.51.237,4,75,thegoldstone.com.cn,CN,Asia,Eastern Asia,China,Beijing,,Beijing
101.200.239.144,4,54,theworldofchinese.com,CN,Asia,Eastern Asia,China,Beijing,,Beijing
59.110.10.74,4,77,tianjinyouxin.net,CN,Asia,Eastern Asia,China,Beijing,,Beijing
101.201.64.149,4,51,tianqiapi.com,CN,Asia,Eastern Asia,China,Beijing,,Beijing
47.93.156.80,4,36,tibet3.com,CN,Asia,Eastern Asia,China,Beijing,,Beijing
123.249.96.241,4,39,tiens.com,CN,Asia,Eastern Asia,China,Beijing,,Beijing
182.92.113.172,4,77,tjbhnews.com,CN,Asia,Eastern Asia,China,Beijing,,Beijing
47.93.27.64,4,41,tjtzhd.com,CN,Asia,Eastern Asia,China,Beijing,,Beijing
47.95.124.74,4,37,tjvn.net,CN,Asia,Eastern Asia,China,Beijing,,Beijing
47.92.155.120,4,38,tjytgf.com,CN,Asia,Eastern Asia,China,Beijing,,Beijing
39.105.15.71,4,39,toast.com.cn,CN,Asia,Eastern Asia,China,Beijing,,Beijing
182.92.8.24,4,54,toidea.com,CN,Asia,Eastern Asia,China,Beijing,,Beijing
47.92.201.8,4,37,tongyangcnc.com,CN,Asia,Eastern Asia,China,Beijing,,Beijing
60.205.19.165,4,63,top-invest.cn,CN,Asia,Eastern Asia,China,Beijing,,Beijing
39.96.64.206,4,41,top100.cn,CN,Asia,Eastern Asia,China,Beijing,,Beijing
39.98.79.228,4,37,topbook.cc,CN,Asia,Eastern Asia,China,Beijing,,Beijing
39.96.34.204,4,65,topsedu.com,CN,Asia,Eastern Asia,China,Beijing,,Beijing
82.156.215.119,4,39,toyean.com,CN,Asia,Eastern Asia,China,Beijing,,Beijing
47.94.107.255,4,58,tq.cn,CN,Asia,Eastern Asia,China,Beijing,,Beijing
60.205.20.149,4,68,treasia.cn,CN,Asia,Eastern Asia,China,Beijing,,Beijing
123.57.150.62,4,50,trendsmag.com,CN,Asia,Eastern Asia,China,Beijing,,Beijing
101.200.121.80,4,45,trinea.cn,CN,Asia,Eastern Asia,China,Beijing,,Beijing
123.57.217.140,4,73,truemetrics.cn,CN,Asia,Eastern Asia,China,Beijing,,Beijing
106.120.183.2,4,37,tuitui99.com,CN,Asia,Eastern Asia,China,Beijing,,Beijing
39.105.171.9,4,40,turbolinux.com.cn,CN,Asia,Eastern Asia,China,Beijing,,Beijing
47.94.197.6,4,37,turenscape.com,CN,Asia,Eastern Asia,China,Beijing,,Beijing
60.205.187.128,4,44,tvmao.com,CN,Asia,Eastern Asia,China,Beijing,,Beijing
123.57.138.234,4,42,twzyt.com,CN,Asia,Eastern Asia,China,Beijing,,Beijing
8.146.209.59,4,48,tyrc.com.cn,CN,Asia,Eastern Asia,China,Beijing,,Beijing
47.92.138.109,4,51,tz1288.com,CN,Asia,Eastern Asia,China,Beijing,,Beijing
111.203.17.67,4,14,uibe.edu.cn,CN,Asia,Eastern Asia,China,Beijing,,Beijing
8.131.245.238,4,52,ukuni.net,CN,Asia,Eastern Asia,China,Beijing,,Beijing
123.57.253.206,4,53,umeng.com,CN,Asia,Eastern Asia,China,Beijing,,Beijing
123.57.23.133,4,38,umtheme.com,CN,Asia,Eastern Asia,China,Beijing,,Beijing
39.96.67.194,4,62,unicore.com,CN,Asia,Eastern Asia,China,Beijing,,Beijing
112.126.74.246,4,36,unpcn.com,CN,Asia,Eastern Asia,China,Beijing,,Beijing
39.107.89.137,4,45,uplook.cn,CN,Asia,Eastern Asia,China,Beijing,,Beijing
39.96.70.8,4,52,uued.cn,CN,Asia,Eastern Asia,China,Beijing,,Beijing
47.92.37.179,4,36,vankang.com,CN,Asia,Eastern Asia,China,Beijing,,Beijing
47.92.105.129,4,56,vectorarchitects.com,CN,Asia,Eastern Asia,China,Beijing,,Beijing
8.130.99.57,4,52,veken-tech.cn,CN,Asia,Eastern Asia,China,Beijing,,Beijing
39.97.57.238,4,49,verydesigner.cn,CN,Asia,Eastern Asia,China,Beijing,,Beijing
82.156.219.89,4,54,vhall.com,CN,Asia,Eastern Asia,China,Beijing,,Beijing
1.116.44.76,4,15,vidown.cn,CN,Asia,Eastern Asia,China,Beijing,,Beijing
47.93.116.66,4,47,vimsky.com,CN,Asia,Eastern Asia,China,Beijing,,Beijing
49.4.61.74,4,36,vmall.com,CN,Asia,Eastern Asia,China,Beijing,,Beijing
112.126.103.33,4,37,vogel.com.cn,CN,Asia,Eastern Asia,China,Beijing,,Beijing
101.200.133.99,4,38,vso.com.cn,CN,Asia,Eastern Asia,China,Beijing,,Beijing
60.205.20.195,4,35,vtpump.cn,CN,Asia,Eastern Asia,China,Beijing,,Beijing
101.200.45.156,4,49,vue3js.cn,CN,Asia,Eastern Asia,China,Beijing,,Beijing
39.96.31.252,4,43,wanf.cn,CN,Asia,Eastern Asia,China,Beijing,,Beijing
39.105.112.174,4,57,wanfangpower.com,CN,Asia,Eastern Asia,China,Beijing,,Beijing
39.105.190.56,4,40,wanfangtech.net,CN,Asia,Eastern Asia,China,Beijing,,Beijing
47.93.11.251,4,49,wangdian.cn,CN,Asia,Eastern Asia,China,Beijing,,Beijing
39.103.153.100,4,48,wanjingchina.cn,CN,Asia,Eastern Asia,China,Beijing,,Beijing
39.106.150.213,4,43,wannengbaike.com,CN,Asia,Eastern Asia,China,Beijing,,Beijing
60.205.37.24,4,49,wanteng.com.cn,CN,Asia,Eastern Asia,China,Beijing,,Beijing
8.130.17.44,4,49,wantquotes.net,CN,Asia,Eastern Asia,China,Beijing,,Beijing
8.142.93.255,4,40,wantwords.net,CN,Asia,Eastern Asia,China,Beijing,,Beijing
47.92.247.20,4,56,wanxiaohong.cn,CN,Asia,Eastern Asia,China,Beijing,,Beijing
39.106.8.192,4,54,wayboo.cn,CN,Asia,Eastern Asia,China,Beijing,,Beijing
39.101.193.140,4,38,wbm999.com,CN,Asia,Eastern Asia,China,Beijing,,Beijing
47.92.146.138,4,39,wbolt.com,CN,Asia,Eastern Asia,China,Beijing,,Beijing
111.205.166.6,4,-31153292,weain.mil.cn,CN,Asia,Eastern Asia,China,Beijing,,Beijing
47.92.109.39,4,-34269,webfoss.com,CN,Asia,Eastern Asia,China,Beijing,,Beijing
49.4.56.34,4,40,webmap.cn,CN,Asia,Eastern Asia,China,Beijing,,Beijing
49.4.56.36,4,54,webmap.cn,CN,Asia,Eastern Asia,China,Beijing,,Beijing
39.105.105.237,4,90,weeklyonstock.com,CN,Asia,Eastern Asia,China,Beijing,,Beijing
123.57.0.27,4,39,whflzs.cn,CN,Asia,Eastern Asia,China,Beijing,,Beijing
47.93.222.88,4,48,whinfo.net.cn,CN,Asia,Eastern Asia,China,Beijing,,Beijing
60.205.44.215,4,44,whxghd.com,CN,Asia,Eastern Asia,China,Beijing,,Beijing
39.106.69.55,4,50,whyyt.com.cn,CN,Asia,Eastern Asia,China,Beijing,,Beijing
123.57.76.95,4,60,wildchina.cn,CN,Asia,Eastern Asia,China,Beijing,,Beijing
39.105.136.102,4,49,wiseway.com.cn,CN,Asia,Eastern Asia,China,Beijing,,Beijing
60.205.136.86,4,38,wiskonenergy.com,CN,Asia,Eastern Asia,China,Beijing,,Beijing
39.106.136.61,4,48,wolearn.org,CN,Asia,Eastern Asia,China,Beijing,,Beijing
123.57.229.4,4,49,wom360.com,CN,Asia,Eastern Asia,China,Beijing,,Beijing
123.56.69.218,4,57,wowoshow.com,CN,Asia,Eastern Asia,China,Beijing,,Beijing
112.125.120.1,4,38,wpjam.com,CN,Asia,Eastern Asia,China,Beijing,,Beijing
39.105.45.35,4,48,wrzyyy.com,CN,Asia,Eastern Asia,China,Beijing,,Beijing
101.201.199.96,4,38,wsbgt.com,CN,Asia,Eastern Asia,China,Beijing,,Beijing
39.106.61.196,4,37,wuca.net,CN,Asia,Eastern Asia,China,Beijing,,Beijing
39.105.209.15,4,42,wuchangtongcheng.com,CN,Asia,Eastern Asia,China,Beijing,,Beijing
60.205.18.209,4,38,wurenjifanzhiqiang.com,CN,Asia,Eastern Asia,China,Beijing,,Beijing
8.140.255.168,4,54,wuziya.com,CN,Asia,Eastern Asia,China,Beijing,,Beijing
123.57.190.195,4,36,wwfchina.org,CN,Asia,Eastern Asia,China,Beijing,,Beijing
123.57.158.147,4,49,xa-qc.com,CN,Asia,Eastern Asia,China,Beijing,,Beijing
47.95.215.177,4,36,xafsdz.cn,CN,Asia,Eastern Asia,China,Beijing,,Beijing
47.93.254.92,4,41,xhd.cn,CN,Asia,Eastern Asia,China,Beijing,,Beijing
59.110.216.191,4,49,xhyb.net.cn,CN,Asia,Eastern Asia,China,Beijing,,Beijing
8.130.10.218,4,37,xianjj.com,CN,Asia,Eastern Asia,China,Beijing,,Beijing
120.48.193.20,4,12986,xiaoji001.com,CN,Asia,Eastern Asia,China,Beijing,,Beijing
123.56.223.52,4,49,xiaorui.cc,CN,Asia,Eastern Asia,China,Beijing,,Beijing
101.201.45.211,4,48,xiaoyou.org,CN,Asia,Eastern Asia,China,Beijing,,Beijing
39.98.55.217,4,37,xinhuiys.com,CN,Asia,Eastern Asia,China,Beijing,,Beijing
60.205.26.178,4,36,xinzhiaicn.com,CN,Asia,Eastern Asia,China,Beijing,,Beijing
39.104.22.251,4,39,xjtvs.com.cn,CN,Asia,Eastern Asia,China,Beijing,,Beijing
8.140.241.73,4,40,xmkanshu.com,CN,Asia,Eastern Asia,China,Beijing,,Beijing
8.140.137.196,4,49,xuanchuanguanjia.com,CN,Asia,Eastern Asia,China,Beijing,,Beijing
8.130.137.179,4,38,xuebaziliao.com,CN,Asia,Eastern Asia,China,Beijing,,Beijing
39.102.128.84,4,37,y6xt.com,CN,Asia,Eastern Asia,China,Beijing,,Beijing
39.107.67.142,4,52,yanhe123.com,CN,Asia,Eastern Asia,China,Beijing,,Beijing
112.126.72.98,4,40,yanhegas.com,CN,Asia,Eastern Asia,China,Beijing,,Beijing
182.92.7.123,4,48,yanjiao.com,CN,Asia,Eastern Asia,China,Beijing,,Beijing
39.107.56.28,4,42,yanyiku.cn,CN,Asia,Eastern Asia,China,Beijing,,Beijing
39.107.66.66,4,38,yarnpkg.cn,CN,Asia,Eastern Asia,China,Beijing,,Beijing
39.99.160.92,4,49,ybain.cn,CN,Asia,Eastern Asia,China,Beijing,,Beijing
39.105.176.58,4,38,ydzq.net,CN,Asia,Eastern Asia,China,Beijing,,Beijing
123.56.249.107,4,50,yeeyan.com,CN,Asia,Eastern Asia,China,Beijing,,Beijing
123.57.89.53,4,698759,yejs.com.cn,CN,Asia,Eastern Asia,China,Beijing,,Beijing
49.4.62.169,4,54,yesky.com,CN,Asia,Eastern Asia,China,Beijing,,Beijing
8.130.40.224,4,39,yidatec.com,CN,Asia,Eastern Asia,China,Beijing,,Beijing
47.93.51.111,4,42,yiichina.com,CN,Asia,Eastern Asia,China,Beijing,,Beijing
59.110.227.135,4,48,yinglisolar.com,CN,Asia,Eastern Asia,China,Beijing,,Beijing
39.106.161.87,4,41,yinyuetai.com,CN,Asia,Eastern Asia,China,Beijing,,Beijing
123.56.77.150,4,37,yirankj.com,CN,Asia,Eastern Asia,China,Beijing,,Beijing
182.92.211.133,4,50,yizefangxi.com,CN,Asia,Eastern Asia,China,Beijing,,Beijing
39.105.89.106,4,38,yktchina.com,CN,Asia,Eastern Asia,China,Beijing,,Beijing
8.130.83.22,4,49,ymxzw.com,CN,Asia,Eastern Asia,China,Beijing,,Beijing
39.101.192.159,4,52,ynzxtea.com,CN,Asia,Eastern Asia,China,Beijing,,Beijing
182.92.128.214,4,47,yofc.com,CN,Asia,Eastern Asia,China,Beijing,,Beijing
47.93.102.180,4,48,yoosure.com,CN,Asia,Eastern Asia,China,Beijing,,Beijing
39.106.85.146,4,50,youjiangzhijia.com,CN,Asia,Eastern Asia,China,Beijing,,Beijing
49.4.56.24,4,36,youkia.com,CN,Asia,Eastern Asia,China,Beijing,,Beijing
49.4.56.23,4,34,youkia.com,CN,Asia,Eastern Asia,China,Beijing,,Beijing
47.95.218.100,4,50,youlong.vip,CN,Asia,Eastern Asia,China,Beijing,,Beijing
182.92.175.50,4,50,ypiao.com,CN,Asia,Eastern Asia,China,Beijing,,Beijing
47.92.69.246,4,39,yrucd.com,CN,Asia,Eastern Asia,China,Beijing,,Beijing
222.135.141.164,4,-16,ytbbs.com,CN,Asia,Eastern Asia,China,Beijing,,Beijing
39.97.216.4,4,35,yuanbaili.com,CN,Asia,Eastern Asia,China,Beijing,,Beijing
60.205.35.58,4,50,yuedotech.com,CN,Asia,Eastern Asia,China,Beijing,,Beijing
49.4.5.222,4,45,yunshicloud.com,CN,Asia,Eastern Asia,China,Beijing,,Beijing
47.94.241.235,4,51,yutainews.com,CN,Asia,Eastern Asia,China,Beijing,,Beijing
39.105.111.141,4,48,yygt.com.cn,CN,Asia,Eastern Asia,China,Beijing,,Beijing
123.57.195.147,4,39,yygxy.com,CN,Asia,Eastern Asia,China,Beijing,,Beijing
47.93.76.118,4,28,yystv.cn,CN,Asia,Eastern Asia,China,Beijing,,Beijing
8.142.94.243,4,35,yz361.com,CN,Asia,Eastern Asia,China,Beijing,,Beijing
8.142.211.105,4,52,yzh9.cn,CN,Asia,Eastern Asia,China,Beijing,,Beijing
39.104.117.174,4,46,yzwood.com,CN,Asia,Eastern Asia,China,Beijing,,Beijing
182.92.186.138,4,50,zbjtjm.com,CN,Asia,Eastern Asia,China,Beijing,,Beijing
39.102.62.218,4,42,zblstz.com,CN,Asia,Eastern Asia,China,Beijing,,Beijing
182.92.129.2,4,51,zeho.com.cn,CN,Asia,Eastern Asia,China,Beijing,,Beijing
39.107.126.165,4,47,zget.org,CN,Asia,Eastern Asia,China,Beijing,,Beijing
182.92.242.148,4,51,zghhlyw.com,CN,Asia,Eastern Asia,China,Beijing,,Beijing
39.107.73.238,4,56,zghy.org.cn,CN,Asia,Eastern Asia,China,Beijing,,Beijing
47.93.249.156,4,38,zgjrw.com,CN,Asia,Eastern Asia,China,Beijing,,Beijing
39.96.47.92,4,40,zglxw.com,CN,Asia,Eastern Asia,China,Beijing,,Beijing
60.205.226.153,4,38,zgnmg.org,CN,Asia,Eastern Asia,China,Beijing,,Beijing
123.57.57.84,4,38,zgycrc.com,CN,Asia,Eastern Asia,China,Beijing,,Beijing
39.106.210.80,4,37,zgycrs.com.cn,CN,Asia,Eastern Asia,China,Beijing,,Beijing
47.92.25.204,4,48,zgyxwzh.com,CN,Asia,Eastern Asia,China,Beijing,,Beijing
39.105.0.36,4,47,zhangqiaokeyan.com,CN,Asia,Eastern Asia,China,Beijing,,Beijing
8.140.112.119,4,47,zhangwen.cn,CN,Asia,Eastern Asia,China,Beijing,,Beijing
60.205.126.174,4,38,zhaobenshan.org,CN,Asia,Eastern Asia,China,Beijing,,Beijing
60.205.138.13,4,49,zhdbds.com,CN,Asia,Eastern Asia,China,Beijing,,Beijing
47.92.90.133,4,29,zhdlaser.com,CN,Asia,Eastern Asia,China,Beijing,,Beijing
8.130.37.98,4,37,zhengxing.com.cn,CN,Asia,Eastern Asia,China,Beijing,,Beijing
47.94.201.82,4,41,zhichanli.com,CN,Asia,Eastern Asia,China,Beijing,,Beijing
39.105.57.78,4,48,zhidx.com,CN,Asia,Eastern Asia,China,Beijing,,Beijing
47.94.85.250,4,51,zhishifenzi.com,CN,Asia,Eastern Asia,China,Beijing,,Beijing
123.56.163.145,4,49,zhongguopeixun.net,CN,Asia,Eastern Asia,China,Beijing,,Beijing
39.101.143.41,4,39,zhongguoweiquan.cn,CN,Asia,Eastern Asia,China,Beijing,,Beijing
8.143.3.232,4,48,zhongkefu.com.cn,CN,Asia,Eastern Asia,China,Beijing,,Beijing
39.106.19.122,4,48,zhongshixing.com,CN,Asia,Eastern Asia,China,Beijing,,Beijing
60.205.41.249,4,51,zhongxinlaowu.cn,CN,Asia,Eastern Asia,China,Beijing,,Beijing
101.201.116.117,4,39,zhuanglala.com,CN,Asia,Eastern Asia,China,Beijing,,Beijing
47.92.118.245,4,39,zhugeapi.net,CN,Asia,Eastern Asia,China,Beijing,,Beijing
123.57.185.4,4,48,zhuna.cn,CN,Asia,Eastern Asia,China,Beijing,,Beijing
60.205.147.191,4,48,zhutu.com,CN,Asia,Eastern Asia,China,Beijing,,Beijing
101.201.30.190,4,49,zijialongjiang.com,CN,Asia,Eastern Asia,China,Beijing,,Beijing
47.93.44.128,4,49,zjhcqx.cn,CN,Asia,Eastern Asia,China,Beijing,,Beijing
60.205.10.136,4,41,zjhxjj.cn,CN,Asia,Eastern Asia,China,Beijing,,Beijing
59.110.112.227,4,54,zlhd.net,CN,Asia,Eastern Asia,China,Beijing,,Beijing
39.104.52.183,4,48,zmingcx.com,CN,Asia,Eastern Asia,China,Beijing,,Beijing
39.104.106.25,4,37,zqcn.com.cn,CN,Asia,Eastern Asia,China,Beijing,,Beijing
182.92.65.107,4,36,zsceall.com,CN,Asia,Eastern Asia,China,Beijing,,Beijing
123.57.149.101,4,38,zsmani.com,CN,Asia,Eastern Asia,China,Beijing,,Beijing
39.97.52.96,4,38,zxpgw.com,CN,Asia,Eastern Asia,China,Beijing,,Beijing
39.105.201.34,4,48,zxzhijia.com,CN,Asia,Eastern Asia,China,Beijing,,Beijing
101.200.42.9,4,38,zzbbs.com,CN,Asia,Eastern Asia,China,Beijing,,Beijing
47.92.73.169,4,38,zzdelitech.com,CN,Asia,Eastern Asia,China,Beijing,,Beijing
8.140.244.79,4,37,zzwqyt.com,CN,Asia,Eastern Asia,China,Beijing,,Beijing
121.89.171.23,4,37,zzxfsd.com,CN,Asia,Eastern Asia,China,Beijing,,Beijing
