reflector_ip,ip_version,offset,description,country_code,region,sub_region,country_name,sub_division_1,sub_division_2,city
115.29.148.239,4,31,0531soso.com,CN,Asia,Eastern Asia,China,Shandong,,Qingdao
139.129.144.166,4,36,0539erp.com,CN,Asia,Eastern Asia,China,Shandong,,Qingdao
139.129.175.72,4,49,1885club.net,CN,Asia,Eastern Asia,China,Shandong,,Qingdao
42.96.130.114,4,154,21caas.cn,CN,Asia,Eastern Asia,China,Shandong,,Qingdao
47.105.58.39,4,-7,25xt.com,CN,Asia,Eastern Asia,China,Shandong,,Qingdao
123.129.227.25,4,586,51credit.com,CN,Asia,Eastern Asia,China,Shandong,,Dongying
47.104.209.166,4,5,51garlic.com,CN,Asia,Eastern Asia,China,Shandong,,Qingdao
119.188.246.18,4,-281533,7192.com,CN,Asia,Eastern Asia,China,Shandong,,Jinan
139.129.147.250,4,33,8700737.com,CN,Asia,Eastern Asia,China,Shandong,,Qingdao
121.42.121.6,4,28,8yyy.net,CN,Asia,Eastern Asia,China,Shandong,,Qingdao
47.104.6.29,4,21,acdsee.cn,CN,Asia,Eastern Asia,China,Shandong,,Qingdao
115.28.186.66,4,41,aigo.com,CN,Asia,Eastern Asia,China,Shandong,,Qingdao
120.27.121.86,4,36,aixunpan.net,CN,Asia,Eastern Asia,China,Shandong,,Qingdao
118.190.208.54,4,45,animiz.cn,CN,Asia,Eastern Asia,China,Shandong,,Qingdao
139.129.182.114,4,29,ba99.cn,CN,Asia,Eastern Asia,China,Shandong,,Qingdao
47.104.94.185,4,19,banbijiang.com,CN,Asia,Eastern Asia,China,Shandong,,Qingdao
121.42.72.245,4,43,bangchu.cn,CN,Asia,Eastern Asia,China,Shandong,,Qingdao
121.42.108.177,4,26,baozhenwine.com,CN,Asia,Eastern Asia,China,Shandong,,Qingdao
47.104.201.118,4,30,bdyllzyy.com,CN,Asia,Eastern Asia,China,Shandong,,Qingdao
139.129.187.71,4,40,beijingfortune.com.cn,CN,Asia,Eastern Asia,China,Shandong,,Qingdao
139.129.157.42,4,25,bhqxsw.com,CN,Asia,Eastern Asia,China,Shandong,,Qingdao
139.129.156.135,4,29,bj-haxs.com,CN,Asia,Eastern Asia,China,Shandong,,Qingdao
121.42.96.242,4,15,bjfastdoor.com,CN,Asia,Eastern Asia,China,Shandong,,Qingdao
47.104.128.46,4,1,bjshuibeng.com,CN,Asia,Eastern Asia,China,Shandong,,Qingdao
121.42.69.164,4,11,bjtonghui.com,CN,Asia,Eastern Asia,China,Shandong,,Qingdao
139.129.186.193,4,18,bjyimeida.com,CN,Asia,Eastern Asia,China,Shandong,,Qingdao
121.42.122.4,4,14,bjzbxy.net,CN,Asia,Eastern Asia,China,Shandong,,Qingdao
139.129.143.19,4,39,bltanyun.com,CN,Asia,Eastern Asia,China,Shandong,,Qingdao
47.104.200.136,4,-6,bookan.com.cn,CN,Asia,Eastern Asia,China,Shandong,,Qingdao
121.42.113.113,4,48,bowangzx.com,CN,Asia,Eastern Asia,China,Shandong,,Qingdao
121.42.135.65,4,26,btei.cn,CN,Asia,Eastern Asia,China,Shandong,,Qingdao
139.129.147.68,4,40,bttco.com.cn,CN,Asia,Eastern Asia,China,Shandong,,Qingdao
47.104.95.67,4,2,byfc0396.com,CN,Asia,Eastern Asia,China,Shandong,,Qingdao
47.105.79.28,4,3,cacmb.org,CN,Asia,Eastern Asia,China,Shandong,,Qingdao
47.104.91.152,4,4,cameraitacina.com,CN,Asia,Eastern Asia,China,Shandong,,Qingdao
123.129.226.32,4,462,cannews.com.cn,CN,Asia,Eastern Asia,China,Shandong,,Dongying
123.129.226.3,4,1556,cannews.com.cn,CN,Asia,Eastern Asia,China,Shandong,,Dongying
47.105.85.119,4,33,cbec365.com,CN,Asia,Eastern Asia,China,Shandong,,Qingdao
121.42.118.133,4,48,ccaashenheyuan.com,CN,Asia,Eastern Asia,China,Shandong,,Qingdao
114.215.81.5,4,16,cdrf.org.cn,CN,Asia,Eastern Asia,China,Shandong,,Qingdao
139.129.175.37,4,13,cdwmd.com,CN,Asia,Eastern Asia,China,Shandong,,Qingdao
120.27.10.38,4,32,ceiaec.org,CN,Asia,Eastern Asia,China,Shandong,,Qingdao
139.129.149.180,4,26,challendor.com,CN,Asia,Eastern Asia,China,Shandong,,Qingdao
121.42.127.243,4,56,chejieren.com,CN,Asia,Eastern Asia,China,Shandong,,Qingdao
115.28.182.228,4,36,chicai.group,CN,Asia,Eastern Asia,China,Shandong,,Qingdao
47.104.181.24,4,10,china-lottery.net,CN,Asia,Eastern Asia,China,Shandong,,Qingdao
139.129.148.71,4,44,china-ref.com,CN,Asia,Eastern Asia,China,Shandong,,Qingdao
118.190.159.175,4,35,chinaemail.com.cn,CN,Asia,Eastern Asia,China,Shandong,,Qingdao
115.28.41.166,4,16,chinagrowthcapital.com,CN,Asia,Eastern Asia,China,Shandong,,Qingdao
139.129.181.218,4,36,chinahaineng.com,CN,Asia,Eastern Asia,China,Shandong,,Qingdao
123.129.226.37,4,473,chinania.org.cn,CN,Asia,Eastern Asia,China,Shandong,,Dongying
123.129.226.7,4,1560,chinania.org.cn,CN,Asia,Eastern Asia,China,Shandong,,Dongying
47.104.225.105,4,7,chinasanxing.cn,CN,Asia,Eastern Asia,China,Shandong,,Qingdao
121.42.95.103,4,30,chinaweitong.cn,CN,Asia,Eastern Asia,China,Shandong,,Qingdao
139.129.146.135,4,34,chuanghengda.com,CN,Asia,Eastern Asia,China,Shandong,,Qingdao
47.104.220.193,4,-4,chuapp.com,CN,Asia,Eastern Asia,China,Shandong,,Qingdao
47.104.99.11,4,-3,cifst.org.cn,CN,Asia,Eastern Asia,China,Shandong,,Qingdao
114.215.96.90,4,17,cjdog.com,CN,Asia,Eastern Asia,China,Shandong,,Qingdao
47.105.146.7,4,13,cloudminds.com,CN,Asia,Eastern Asia,China,Shandong,,Qingdao
42.96.197.8,4,14,cmgbxbj.com,CN,Asia,Eastern Asia,China,Shandong,,Qingdao
121.42.89.229,4,29,cngldq.net,CN,Asia,Eastern Asia,China,Shandong,,Qingdao
139.129.144.183,4,15,cnhuali.com.cn,CN,Asia,Eastern Asia,China,Shandong,,Qingdao
47.105.150.176,4,8,cnmeiw.com,CN,Asia,Eastern Asia,China,Shandong,,Qingdao
121.42.100.114,4,38,cnsuzi.com,CN,Asia,Eastern Asia,China,Shandong,,Qingdao
118.190.93.8,4,40,cnu.cc,CN,Asia,Eastern Asia,China,Shandong,,Qingdao
47.104.151.244,4,4,coleitec.com,CN,Asia,Eastern Asia,China,Shandong,,Qingdao
47.104.245.36,4,31,cpia.org.cn,CN,Asia,Eastern Asia,China,Shandong,,Qingdao
47.105.42.201,4,-1,cqhaineng.com,CN,Asia,Eastern Asia,China,Shandong,,Qingdao
47.104.86.222,4,3,crackpm.com,CN,Asia,Eastern Asia,China,Shandong,,Qingdao
139.129.180.244,4,19,cszxba.com,CN,Asia,Eastern Asia,China,Shandong,,Qingdao
139.129.174.249,4,1,dangjianapp.com,CN,Asia,Eastern Asia,China,Shandong,,Qingdao
139.129.144.72,4,39,dastec.com.cn,CN,Asia,Eastern Asia,China,Shandong,,Qingdao
47.104.243.160,4,-4,dbmyxxw.cn,CN,Asia,Eastern Asia,China,Shandong,,Qingdao
139.129.140.246,4,31,dellware.cn,CN,Asia,Eastern Asia,China,Shandong,,Qingdao
121.42.121.130,4,35,dgfasy.com,CN,Asia,Eastern Asia,China,Shandong,,Qingdao
47.104.111.77,4,-5,dianzhenkeji.com,CN,Asia,Eastern Asia,China,Shandong,,Qingdao
121.42.119.196,4,22,dlmybj.com,CN,Asia,Eastern Asia,China,Shandong,,Qingdao
115.28.192.187,4,42,doit.am,CN,Asia,Eastern Asia,China,Shandong,,Qingdao
115.29.140.207,4,52,dongbaqu.net.cn,CN,Asia,Eastern Asia,China,Shandong,,Qingdao
121.42.122.215,4,25,dqsdzb.cn,CN,Asia,Eastern Asia,China,Shandong,,Qingdao
115.28.138.73,4,22,dscm.com.cn,CN,Asia,Eastern Asia,China,Shandong,,Qingdao
120.27.71.193,4,36,dsg168.com,CN,Asia,Eastern Asia,China,Shandong,,Qingdao
121.42.122.98,4,30,duwaping.com,CN,Asia,Eastern Asia,China,Shandong,,Qingdao
115.28.185.41,4,24,dzcl.com,CN,Asia,Eastern Asia,China,Shandong,,Qingdao
121.42.97.249,4,16,east-image.com,CN,Asia,Eastern Asia,China,Shandong,,Qingdao
47.104.64.30,4,-11,ebgcn.com,CN,Asia,Eastern Asia,China,Shandong,,Qingdao
47.104.94.243,4,5,edunewstar.com,CN,Asia,Eastern Asia,China,Shandong,,Qingdao
121.42.118.212,4,37,ejucms.com,CN,Asia,Eastern Asia,China,Shandong,,Qingdao
118.190.55.251,4,69,eleduck.com,CN,Asia,Eastern Asia,China,Shandong,,Qingdao
121.42.90.152,4,46,emachn.com,CN,Asia,Eastern Asia,China,Shandong,,Qingdao
115.29.40.222,4,48,emss.cn,CN,Asia,Eastern Asia,China,Shandong,,Qingdao
139.129.190.202,4,19,engtech.cn,CN,Asia,Eastern Asia,China,Shandong,,Qingdao
121.42.158.208,4,685083,esczmw.com,CN,Asia,Eastern Asia,China,Shandong,,Qingdao
47.104.171.241,4,-3,fareast-edu.net,CN,Asia,Eastern Asia,China,Shandong,,Qingdao
60.213.147.107,4,350,feicheng.gov.cn,CN,Asia,Eastern Asia,China,Shandong,,Linyi
139.129.93.27,4,25,fineedu.cn,CN,Asia,Eastern Asia,China,Shandong,,Qingdao
114.215.67.168,4,37,finetest.cn,CN,Asia,Eastern Asia,China,Shandong,,Qingdao
123.129.226.39,4,455,firsthospital.cn,CN,Asia,Eastern Asia,China,Shandong,,Dongying
123.129.226.31,4,1554,firsthospital.cn,CN,Asia,Eastern Asia,China,Shandong,,Dongying
115.29.64.37,4,34,focusky.com.cn,CN,Asia,Eastern Asia,China,Shandong,,Qingdao
115.29.49.206,4,21,fotomen.cn,CN,Asia,Eastern Asia,China,Shandong,,Qingdao
121.42.72.130,4,30,fssxjx.cn,CN,Asia,Eastern Asia,China,Shandong,,Qingdao
139.129.176.216,4,10,fullrun-auto.com,CN,Asia,Eastern Asia,China,Shandong,,Qingdao
222.173.244.5,4,12444,fzxxjs.com,CN,Asia,Eastern Asia,China,Shandong,,Qingdao
123.129.227.52,4,551,gamehome.tv,CN,Asia,Eastern Asia,China,Shandong,,Dongying
47.104.66.194,4,0,gamerhome.com,CN,Asia,Eastern Asia,China,Shandong,,Qingdao
114.215.42.194,4,53,gaosheng56.com,CN,Asia,Eastern Asia,China,Shandong,,Qingdao
47.105.123.94,4,28,gearcup.cn,CN,Asia,Eastern Asia,China,Shandong,,Qingdao
121.42.97.135,4,64,genghangms.com,CN,Asia,Eastern Asia,China,Shandong,,Qingdao
121.42.82.202,4,24,gf-line.com,CN,Asia,Eastern Asia,China,Shandong,,Qingdao
121.42.125.202,4,46,gj0532.com,CN,Asia,Eastern Asia,China,Shandong,,Qingdao
115.29.111.16,4,27,gjrwls.com,CN,Asia,Eastern Asia,China,Shandong,,Qingdao
118.190.150.203,4,17,gongyishibao.com,CN,Asia,Eastern Asia,China,Shandong,,Qingdao
139.129.158.22,4,26,goslsl.com,CN,Asia,Eastern Asia,China,Shandong,,Qingdao
123.129.227.66,4,1319,gpsuu.com,CN,Asia,Eastern Asia,China,Shandong,,Dongying
139.129.181.73,4,62,gresun.com,CN,Asia,Eastern Asia,China,Shandong,,Qingdao
121.42.88.129,4,16,guiling.wang,CN,Asia,Eastern Asia,China,Shandong,,Qingdao
139.129.13.138,4,39,habotao.com,CN,Asia,Eastern Asia,China,Shandong,,Qingdao
121.42.76.24,4,32,happylivelife.com,CN,Asia,Eastern Asia,China,Shandong,,Qingdao
121.42.125.130,4,33,hbtsyy.com,CN,Asia,Eastern Asia,China,Shandong,,Qingdao
114.215.82.43,4,37,hctlcd.com,CN,Asia,Eastern Asia,China,Shandong,,Qingdao
114.215.150.65,4,33,hebian.cn,CN,Asia,Eastern Asia,China,Shandong,,Qingdao
120.27.18.58,4,33,hficc.com,CN,Asia,Eastern Asia,China,Shandong,,Qingdao
121.42.9.177,4,35,hinos.com,CN,Asia,Eastern Asia,China,Shandong,,Qingdao
47.105.110.55,4,17,hkawgroup.com,CN,Asia,Eastern Asia,China,Shandong,,Qingdao
121.42.92.216,4,37,hkhcsj.net,CN,Asia,Eastern Asia,China,Shandong,,Qingdao
121.42.126.162,4,23,hnfsjcw.com,CN,Asia,Eastern Asia,China,Shandong,,Qingdao
47.105.52.92,4,2,hoards.com.cn,CN,Asia,Eastern Asia,China,Shandong,,Qingdao
121.42.89.225,4,43,homergroups.com,CN,Asia,Eastern Asia,China,Shandong,,Qingdao
121.42.110.145,4,58,hongdajianshe.com,CN,Asia,Eastern Asia,China,Shandong,,Qingdao
139.129.141.114,4,28,hostsir.com,CN,Asia,Eastern Asia,China,Shandong,,Qingdao
121.42.90.90,4,30,hr-bank.net,CN,Asia,Eastern Asia,China,Shandong,,Qingdao
121.42.79.89,4,36,htyslg.com,CN,Asia,Eastern Asia,China,Shandong,,Qingdao
221.215.151.110,4,-674477,huanghaicollege.com,CN,Asia,Eastern Asia,China,Shandong,,Qingdao
47.104.129.108,4,4,huaxia.net.cn,CN,Asia,Eastern Asia,China,Shandong,,Qingdao
139.129.216.254,4,28,huazhuip.com,CN,Asia,Eastern Asia,China,Shandong,,Qingdao
118.190.106.8,4,26,hubwiz.com,CN,Asia,Eastern Asia,China,Shandong,,Qingdao
139.129.152.104,4,12,hvactest.cn,CN,Asia,Eastern Asia,China,Shandong,,Qingdao
121.42.111.166,4,24,hy-cct.com,CN,Asia,Eastern Asia,China,Shandong,,Qingdao
121.42.116.89,4,40,hyzhqg.com,CN,Asia,Eastern Asia,China,Shandong,,Qingdao
121.42.107.36,4,32,hzdxgg.com,CN,Asia,Eastern Asia,China,Shandong,,Qingdao
115.28.66.217,4,29,hzmt001.com,CN,Asia,Eastern Asia,China,Shandong,,Qingdao
118.190.172.114,4,42,hzshengxiang.com,CN,Asia,Eastern Asia,China,Shandong,,Qingdao
47.104.14.117,4,5,iawbs.com,CN,Asia,Eastern Asia,China,Shandong,,Qingdao
47.105.63.3,4,14,iceo.com.cn,CN,Asia,Eastern Asia,China,Shandong,,Qingdao
123.129.196.44,4,-6,im286.com,CN,Asia,Eastern Asia,China,Shandong,,Dongying
121.42.121.33,4,16,imiano.com,CN,Asia,Eastern Asia,China,Shandong,,Qingdao
139.129.140.19,4,48,imiano.com,CN,Asia,Eastern Asia,China,Shandong,,Qingdao
139.129.190.106,4,60,imiano.com,CN,Asia,Eastern Asia,China,Shandong,,Qingdao
123.129.224.247,4,927,itdog.cn,CN,Asia,Eastern Asia,China,Shandong,,Dongying
139.129.145.122,4,13,jhbsgg.com,CN,Asia,Eastern Asia,China,Shandong,,Qingdao
139.129.184.68,4,34,jiacare.com,CN,Asia,Eastern Asia,China,Shandong,,Qingdao
47.104.68.5,4,5,jiayi56.com,CN,Asia,Eastern Asia,China,Shandong,,Qingdao
139.129.155.114,4,33,jintaoju.com,CN,Asia,Eastern Asia,China,Shandong,,Qingdao
47.104.192.46,4,0,jinwokeji.com,CN,Asia,Eastern Asia,China,Shandong,,Qingdao
121.42.118.247,4,20,jitongrenli.com,CN,Asia,Eastern Asia,China,Shandong,,Qingdao
119.188.96.219,4,-13,jos.org.cn,CN,Asia,Eastern Asia,China,Shandong,,Jinan
119.188.250.219,4,-7,jos.org.cn,CN,Asia,Eastern Asia,China,Shandong,,Jinan
139.129.156.132,4,35,jsdcgb.cn,CN,Asia,Eastern Asia,China,Shandong,,Qingdao
139.129.181.213,4,42,jwzc.cn,CN,Asia,Eastern Asia,China,Shandong,,Qingdao
121.42.108.152,4,12,kalaoni.com,CN,Asia,Eastern Asia,China,Shandong,,Qingdao
47.105.62.50,4,9,kezhan365.com,CN,Asia,Eastern Asia,China,Shandong,,Qingdao
139.129.147.113,4,19,kinghoodgas.com,CN,Asia,Eastern Asia,China,Shandong,,Qingdao
47.105.54.233,4,-11,kitz.cn,CN,Asia,Eastern Asia,China,Shandong,,Qingdao
121.42.133.106,4,19,lanyesapp.com,CN,Asia,Eastern Asia,China,Shandong,,Qingdao
119.188.123.187,4,-1,lawinfochina.com,CN,Asia,Eastern Asia,China,Shandong,,Jinan
223.99.26.44,4,1188327,lcxw.cn,CN,Asia,Eastern Asia,China,Shandong,,
118.190.19.145,4,17,leevy.net,CN,Asia,Eastern Asia,China,Shandong,,Qingdao
139.129.179.104,4,52,leigo.com.cn,CN,Asia,Eastern Asia,China,Shandong,,Qingdao
139.129.152.97,4,54,leoniscinema.com,CN,Asia,Eastern Asia,China,Shandong,,Qingdao
139.129.174.133,4,15,lfktjc.com,CN,Asia,Eastern Asia,China,Shandong,,Qingdao
47.104.234.105,4,15,liuniukeji.net,CN,Asia,Eastern Asia,China,Shandong,,Qingdao
47.105.34.248,4,17,liyinmusic.com,CN,Asia,Eastern Asia,China,Shandong,,Qingdao
121.42.98.69,4,21,ljtcm.com,CN,Asia,Eastern Asia,China,Shandong,,Qingdao
121.42.235.183,4,29,looyuoms.com,CN,Asia,Eastern Asia,China,Shandong,,Qingdao
47.104.78.33,4,-1,loveo.cc,CN,Asia,Eastern Asia,China,Shandong,,Qingdao
139.129.159.197,4,32,ltidea.com,CN,Asia,Eastern Asia,China,Shandong,,Qingdao
60.213.50.62,4,-34,lunan.com.cn,CN,Asia,Eastern Asia,China,Shandong,,Linyi
121.42.108.88,4,32,luoningmusic.com,CN,Asia,Eastern Asia,China,Shandong,,Qingdao
47.105.188.62,4,-4,luxe.co,CN,Asia,Eastern Asia,China,Shandong,,Qingdao
115.29.148.181,4,49,lvzhiyun.net,CN,Asia,Eastern Asia,China,Shandong,,Qingdao
47.104.245.78,4,-7,ly-gps.com,CN,Asia,Eastern Asia,China,Shandong,,Qingdao
47.104.29.85,4,9,maxiaobang.com,CN,Asia,Eastern Asia,China,Shandong,,Qingdao
47.104.210.54,4,-4,meiguiauto.com,CN,Asia,Eastern Asia,China,Shandong,,Qingdao
139.129.172.54,4,27,meikomo.com,CN,Asia,Eastern Asia,China,Shandong,,Qingdao
120.27.95.201,4,45,mekede.com,CN,Asia,Eastern Asia,China,Shandong,,Qingdao
114.215.63.23,4,41,metalitechemicals.com,CN,Asia,Eastern Asia,China,Shandong,,Qingdao
139.129.159.166,4,82,mingips.com,CN,Asia,Eastern Asia,China,Shandong,,Qingdao
139.129.141.250,4,19,mishizhuti.com,CN,Asia,Eastern Asia,China,Shandong,,Qingdao
47.104.142.66,4,12,mx5588.com,CN,Asia,Eastern Asia,China,Shandong,,Qingdao
221.214.166.12,4,178,nanshanjet.com,CN,Asia,Eastern Asia,China,Shandong,,Yantai
115.28.246.150,4,19,nb591.com,CN,Asia,Eastern Asia,China,Shandong,,Qingdao
139.129.147.35,4,32,nbqxsolar.com,CN,Asia,Eastern Asia,China,Shandong,,Qingdao
42.96.138.242,4,78,nchem.com,CN,Asia,Eastern Asia,China,Shandong,,Qingdao
123.129.226.50,4,1575,nia.gov.cn,CN,Asia,Eastern Asia,China,Shandong,,Dongying
47.104.128.244,4,9,niteizechina.com,CN,Asia,Eastern Asia,China,Shandong,,Qingdao
139.129.149.135,4,37,njheli.com.cn,CN,Asia,Eastern Asia,China,Shandong,,Qingdao
121.42.89.243,4,36,njjhly.com,CN,Asia,Eastern Asia,China,Shandong,,Qingdao
121.42.110.243,4,46,njsadz.com,CN,Asia,Eastern Asia,China,Shandong,,Qingdao
121.42.125.147,4,49,njshdn.com,CN,Asia,Eastern Asia,China,Shandong,,Qingdao
120.27.6.152,4,33,nosec.org,CN,Asia,Eastern Asia,China,Shandong,,Qingdao
120.27.14.127,4,13,osgeo.cn,CN,Asia,Eastern Asia,China,Shandong,,Qingdao
139.129.145.105,4,45,oudafloor.com,CN,Asia,Eastern Asia,China,Shandong,,Qingdao
123.129.219.230,4,1011,p2peye.com,CN,Asia,Eastern Asia,China,Shandong,,Dongying
120.27.93.203,4,26,pdf365.cn,CN,Asia,Eastern Asia,China,Shandong,,Qingdao
123.129.226.49,4,1532,pdhr.com,CN,Asia,Eastern Asia,China,Shandong,,Dongying
123.129.226.8,4,451,peric.ac.cn,CN,Asia,Eastern Asia,China,Shandong,,Dongying
123.129.226.34,4,460,peric.ac.cn,CN,Asia,Eastern Asia,China,Shandong,,Dongying
47.105.33.86,4,14,phhxj.com,CN,Asia,Eastern Asia,China,Shandong,,Qingdao
47.104.195.163,4,14,phpchina.com,CN,Asia,Eastern Asia,China,Shandong,,Qingdao
121.42.77.86,4,28,piaoyiban.com,CN,Asia,Eastern Asia,China,Shandong,,Qingdao
119.188.123.232,4,-10,pkulaw.com,CN,Asia,Eastern Asia,China,Shandong,,Jinan
139.129.212.119,4,12,pmdaniu.com,CN,Asia,Eastern Asia,China,Shandong,,Qingdao
121.42.118.228,4,58,powofo.com,CN,Asia,Eastern Asia,China,Shandong,,Qingdao
115.29.111.181,4,34,pserhome.com,CN,Asia,Eastern Asia,China,Shandong,,Qingdao
115.28.128.72,4,47,qdhuaren.com,CN,Asia,Eastern Asia,China,Shandong,,Qingdao
221.215.141.166,4,9034319,qdjimo.com,CN,Asia,Eastern Asia,China,Shandong,,Qingdao
124.128.39.62,4,5152283,qdlishan.com,CN,Asia,Eastern Asia,China,Shandong,,Jinan
47.104.92.219,4,5,qdsdhly.cn,CN,Asia,Eastern Asia,China,Shandong,,Qingdao
121.42.69.82,4,32,qingyes.cn,CN,Asia,Eastern Asia,China,Shandong,,Qingdao
123.129.224.22,4,4,qqtn.com,CN,Asia,Eastern Asia,China,Shandong,,Dongying
121.42.25.242,4,54,raluking.com,CN,Asia,Eastern Asia,China,Shandong,,Qingdao
115.28.32.33,4,35,ranker.pub,CN,Asia,Eastern Asia,China,Shandong,,Qingdao
47.104.80.196,4,24,rbgqyz.com,CN,Asia,Eastern Asia,China,Shandong,,Qingdao
139.129.108.158,4,11,rnsh.net,CN,Asia,Eastern Asia,China,Shandong,,Qingdao
47.104.160.95,4,16,rongziwine.com,CN,Asia,Eastern Asia,China,Shandong,,Qingdao
123.129.227.47,4,585,rsdown.cn,CN,Asia,Eastern Asia,China,Shandong,,Dongying
118.190.199.15,4,44,rsit.cn,CN,Asia,Eastern Asia,China,Shandong,,Qingdao
139.129.179.98,4,14,rsssss.com,CN,Asia,Eastern Asia,China,Shandong,,Qingdao
121.42.107.243,4,37,ruilangedu.com,CN,Asia,Eastern Asia,China,Shandong,,Qingdao
118.190.70.95,4,26,sansinasia.cc,CN,Asia,Eastern Asia,China,Shandong,,Qingdao
47.105.73.11,4,43,sdbidding.org.cn,CN,Asia,Eastern Asia,China,Shandong,,Qingdao
47.105.99.126,4,-17,sddp.net,CN,Asia,Eastern Asia,China,Shandong,,Qingdao
120.224.7.60,4,33,sdor.cn,CN,Asia,Eastern Asia,China,Shandong,,Jining
139.129.189.74,4,14,sh-shengjin.com,CN,Asia,Eastern Asia,China,Shandong,,Qingdao
121.42.110.106,4,34,sh-shenyi.com.cn,CN,Asia,Eastern Asia,China,Shandong,,Qingdao
47.104.0.163,4,14,shandong-energy.com,CN,Asia,Eastern Asia,China,Shandong,,Qingdao
115.28.40.34,4,47,shanghaiamts.com,CN,Asia,Eastern Asia,China,Shandong,,Qingdao
123.129.227.31,4,546,shanghairolexmasters.com,CN,Asia,Eastern Asia,China,Shandong,,Dongying
121.42.70.56,4,25,sharpcom.cn,CN,Asia,Eastern Asia,China,Shandong,,Qingdao
139.129.158.196,4,39,shchunchuan.com,CN,Asia,Eastern Asia,China,Shandong,,Qingdao
115.28.36.100,4,42,shejidaren.com,CN,Asia,Eastern Asia,China,Shandong,,Qingdao
139.129.148.83,4,37,shengzhuang.com,CN,Asia,Eastern Asia,China,Shandong,,Qingdao
119.188.246.117,4,-13,shenmantang.com,CN,Asia,Eastern Asia,China,Shandong,,Jinan
47.104.153.251,4,-2,shiyebian.net,CN,Asia,Eastern Asia,China,Shandong,,Qingdao
121.42.97.226,4,30,shkodak.com,CN,Asia,Eastern Asia,China,Shandong,,Qingdao
121.42.119.242,4,14,shmdy.cn,CN,Asia,Eastern Asia,China,Shandong,,Qingdao
139.129.140.5,4,37,shoupin-med.com,CN,Asia,Eastern Asia,China,Shandong,,Qingdao
118.190.200.71,4,26,shouyi88.cn,CN,Asia,Eastern Asia,China,Shandong,,Qingdao
139.129.179.51,4,31,shy-sz.com,CN,Asia,Eastern Asia,China,Shandong,,Qingdao
139.129.179.101,4,46,sjmcmachine.com,CN,Asia,Eastern Asia,China,Shandong,,Qingdao
139.129.178.211,4,26,smartbuildingnt.com,CN,Asia,Eastern Asia,China,Shandong,,Qingdao
118.190.209.108,4,48,sosmusic.cn,CN,Asia,Eastern Asia,China,Shandong,,Qingdao
120.221.145.145,4,-615399,sparke.cn,CN,Asia,Eastern Asia,China,Shandong,,
47.105.121.88,4,1,spriu.com,CN,Asia,Eastern Asia,China,Shandong,,Qingdao
47.105.159.24,4,-6,standway.com,CN,Asia,Eastern Asia,China,Shandong,,Qingdao
121.42.122.58,4,26,sungyet.com,CN,Asia,Eastern Asia,China,Shandong,,Qingdao
115.28.168.183,4,41,surto.cn,CN,Asia,Eastern Asia,China,Shandong,,Qingdao
139.129.151.101,4,19,sxcltm.com,CN,Asia,Eastern Asia,China,Shandong,,Qingdao
121.42.119.129,4,41,sxdcip.com,CN,Asia,Eastern Asia,China,Shandong,,Qingdao
118.190.215.200,4,40,sxrcw.net,CN,Asia,Eastern Asia,China,Shandong,,Qingdao
47.105.96.227,4,2,sxruyo.com,CN,Asia,Eastern Asia,China,Shandong,,Qingdao
121.42.115.186,4,15,sxsjgy.com,CN,Asia,Eastern Asia,China,Shandong,,Qingdao
47.104.137.175,4,5,sxxfy.com,CN,Asia,Eastern Asia,China,Shandong,,Qingdao
121.42.114.181,4,39,syncor.net,CN,Asia,Eastern Asia,China,Shandong,,Qingdao
115.29.15.182,4,15,sysmart.cn,CN,Asia,Eastern Asia,China,Shandong,,Qingdao
139.129.149.234,4,31,sysx912.com,CN,Asia,Eastern Asia,China,Shandong,,Qingdao
121.42.160.167,4,-22,syuanart.com,CN,Asia,Eastern Asia,China,Shandong,,Qingdao
121.42.74.26,4,26,szfreeuser.com,CN,Asia,Eastern Asia,China,Shandong,,Qingdao
121.42.79.168,4,33,szhkd.cn,CN,Asia,Eastern Asia,China,Shandong,,Qingdao
139.129.147.20,4,33,szrongfang.com,CN,Asia,Eastern Asia,China,Shandong,,Qingdao
139.129.182.90,4,40,szrongfang.com.cn,CN,Asia,Eastern Asia,China,Shandong,,Qingdao
121.42.111.41,4,24,taihu.org.cn,CN,Asia,Eastern Asia,China,Shandong,,Qingdao
47.104.183.33,4,14,thunderobot.com,CN,Asia,Eastern Asia,China,Shandong,,Qingdao
118.190.83.42,4,30,thwater.com,CN,Asia,Eastern Asia,China,Shandong,,Qingdao
47.105.177.245,4,15,tianxiaputao.com,CN,Asia,Eastern Asia,China,Shandong,,Qingdao
139.129.153.198,4,47,tjhxct.com,CN,Asia,Eastern Asia,China,Shandong,,Qingdao
121.42.91.52,4,56,tws-nj.com,CN,Asia,Eastern Asia,China,Shandong,,Qingdao
121.42.80.34,4,39,tzjt58.com,CN,Asia,Eastern Asia,China,Shandong,,Qingdao
139.129.158.166,4,15,tzyhf.com,CN,Asia,Eastern Asia,China,Shandong,,Qingdao
47.104.13.79,4,16,u6air.com,CN,Asia,Eastern Asia,China,Shandong,,Qingdao
139.129.147.87,4,35,uavfz.com,CN,Asia,Eastern Asia,China,Shandong,,Qingdao
60.208.6.155,4,3,ujn.edu.cn,CN,Asia,Eastern Asia,China,Shandong,,Jinan
121.42.71.57,4,25,unicone.com.cn,CN,Asia,Eastern Asia,China,Shandong,,Qingdao
119.188.123.237,4,-30,universitychina.net,CN,Asia,Eastern Asia,China,Shandong,,Jinan
114.215.147.61,4,30,uoj.ac,CN,Asia,Eastern Asia,China,Shandong,,Qingdao
47.104.199.130,4,-3,urovo.com,CN,Asia,Eastern Asia,China,Shandong,,Qingdao
47.104.15.71,4,21,v0795.com,CN,Asia,Eastern Asia,China,Shandong,,Qingdao
47.104.191.63,4,-2,walajiao.com,CN,Asia,Eastern Asia,China,Shandong,,Qingdao
47.104.111.241,4,13,wd0592.com,CN,Asia,Eastern Asia,China,Shandong,,Qingdao
139.129.22.175,4,64,websitor.cn,CN,Asia,Eastern Asia,China,Shandong,,Qingdao
139.129.237.148,4,41,wekids.com,CN,Asia,Eastern Asia,China,Shandong,,Qingdao
121.42.92.153,4,52,wifi-3l.com,CN,Asia,Eastern Asia,China,Shandong,,Qingdao
139.129.147.102,4,27,wingingmodel.com,CN,Asia,Eastern Asia,China,Shandong,,Qingdao
121.42.102.113,4,26,wlqxly.com,CN,Asia,Eastern Asia,China,Shandong,,Qingdao
139.129.157.250,4,55,wmmagnet.com,CN,Asia,Eastern Asia,China,Shandong,,Qingdao
120.27.39.127,4,32,woozooo.com,CN,Asia,Eastern Asia,China,Shandong,,Qingdao
119.188.210.162,4,422,xiaomark.com,CN,Asia,Eastern Asia,China,Shandong,,Jinan
47.104.249.91,4,-1,xibeiwujin.com,CN,Asia,Eastern Asia,China,Shandong,,Qingdao
47.104.254.100,4,11,xin-home.com,CN,Asia,Eastern Asia,China,Shandong,,Qingdao
139.129.38.45,4,23,xinbaijian.com.cn,CN,Asia,Eastern Asia,China,Shandong,,Qingdao
139.129.156.89,4,27,xinf.cn,CN,Asia,Eastern Asia,China,Shandong,,Qingdao
47.105.49.93,4,17,xinfei.com,CN,Asia,Eastern Asia,China,Shandong,,Qingdao
139.129.150.229,4,27,xinzhuyoul.com,CN,Asia,Eastern Asia,China,Shandong,,Qingdao
121.42.116.234,4,44,xly99.com,CN,Asia,Eastern Asia,China,Shandong,,Qingdao
121.42.201.112,4,21,xqbase.com,CN,Asia,Eastern Asia,China,Shandong,,Qingdao
121.42.112.231,4,33,xqtools.com,CN,Asia,Eastern Asia,China,Shandong,,Qingdao
47.104.71.182,4,-1,xunruicms.com,CN,Asia,Eastern Asia,China,Shandong,,Qingdao
121.42.109.71,4,31,xypatent.cn,CN,Asia,Eastern Asia,China,Shandong,,Qingdao
121.42.122.153,4,25,yang-run.cn,CN,Asia,Eastern Asia,China,Shandong,,Qingdao
47.104.163.155,4,-7,ybb18.com,CN,Asia,Eastern Asia,China,Shandong,,Qingdao
115.29.66.113,4,28,ycrusher.com,CN,Asia,Eastern Asia,China,Shandong,,Qingdao
121.42.69.169,4,38,ycxiaole.com,CN,Asia,Eastern Asia,China,Shandong,,Qingdao
121.42.119.98,4,29,yegaochemical.com,CN,Asia,Eastern Asia,China,Shandong,,Qingdao
121.42.117.66,4,39,yidonghulan.com,CN,Asia,Eastern Asia,China,Shandong,,Qingdao
115.28.235.2,4,32,yinlimedia.com,CN,Asia,Eastern Asia,China,Shandong,,Qingdao
120.27.123.8,4,31,yiyiyscm.com,CN,Asia,Eastern Asia,China,Shandong,,Qingdao
121.42.121.122,4,11,yongxinwuye.com,CN,Asia,Eastern Asia,China,Shandong,,Qingdao
139.129.181.180,4,37,yqfm.com.cn,CN,Asia,Eastern Asia,China,Shandong,,Qingdao
121.42.108.8,4,16,yqtgallery.com,CN,Asia,Eastern Asia,China,Shandong,,Qingdao
123.129.224.192,4,-21,yt84009.xyz,CN,Asia,Eastern Asia,China,Shandong,,Dongying
139.129.141.54,4,8,yudian.cc,CN,Asia,Eastern Asia,China,Shandong,,Qingdao
118.190.27.202,4,25,yuhong.com.cn,CN,Asia,Eastern Asia,China,Shandong,,Qingdao
139.129.150.162,4,32,yuwei029.com,CN,Asia,Eastern Asia,China,Shandong,,Qingdao
139.129.173.81,4,36,yuyuejnj.com,CN,Asia,Eastern Asia,China,Shandong,,Qingdao
123.129.227.54,4,531,yxdown.com,CN,Asia,Eastern Asia,China,Shandong,,Dongying
47.104.251.32,4,-14,yxsensing.net,CN,Asia,Eastern Asia,China,Shandong,,Qingdao
114.215.118.124,4,26,yyyweb.com,CN,Asia,Eastern Asia,China,Shandong,,Qingdao
139.129.173.210,4,67,zbmhbzf.com,CN,Asia,Eastern Asia,China,Shandong,,Qingdao
121.42.94.218,4,35,zbyolite.com,CN,Asia,Eastern Asia,China,Shandong,,Qingdao
139.129.178.40,4,48,zcshipinjixie.com,CN,Asia,Eastern Asia,China,Shandong,,Qingdao
139.129.150.232,4,41,zd001.cn,CN,Asia,Eastern Asia,China,Shandong,,Qingdao
119.188.123.202,4,27,zentao.net,CN,Asia,Eastern Asia,China,Shandong,,Jinan
139.129.148.90,4,40,zeyang100.com,CN,Asia,Eastern Asia,China,Shandong,,Qingdao
139.129.181.248,4,27,zfwt.com.cn,CN,Asia,Eastern Asia,China,Shandong,,Qingdao
120.27.13.175,4,44,zhangyi123.com,CN,Asia,Eastern Asia,China,Shandong,,Qingdao
47.104.196.50,4,5,zhenbi.com,CN,Asia,Eastern Asia,China,Shandong,,Qingdao
139.129.158.53,4,20,zhuzaoguolvwang.cn,CN,Asia,Eastern Asia,China,Shandong,,Qingdao
139.129.150.66,4,17,ziboyinqi.com,CN,Asia,Eastern Asia,China,Shandong,,Qingdao
115.28.103.26,4,39,zixunfan.com,CN,Asia,Eastern Asia,China,Shandong,,Qingdao
139.129.181.67,4,26,zj-ybs.com,CN,Asia,Eastern Asia,China,Shandong,,Qingdao
47.104.247.235,4,3,zjgt.com,CN,Asia,Eastern Asia,China,Shandong,,Qingdao
139.129.175.57,4,35,zjhmjs.com,CN,Asia,Eastern Asia,China,Shandong,,Qingdao
139.129.182.105,4,24,zjkckj.com,CN,Asia,Eastern Asia,China,Shandong,,Qingdao
121.42.125.216,4,33,zjzhihua.cn,CN,Asia,Eastern Asia,China,Shandong,,Qingdao
139.129.180.72,4,18,zmjxsb.cn,CN,Asia,Eastern Asia,China,Shandong,,Qingdao
121.42.103.53,4,15,zouqil.com,CN,Asia,Eastern Asia,China,Shandong,,Qingdao
42.96.169.39,4,32,zqykj.com,CN,Asia,Eastern Asia,China,Shandong,,Qingdao
118.190.93.82,4,37,zwcad.com,CN,Asia,Eastern Asia,China,Shandong,,Qingdao
222.173.244.30,4,14975,zy-rfid.com,CN,Asia,Eastern Asia,China,Shandong,,Qingdao
123.129.219.119,4,215,zzjie.com,CN,Asia,Eastern Asia,China,Shandong,,Dongying
