reflector_ip,ip_version,offset,description,country_code,region,sub_region,country_name,sub_division_1,sub_division_2,city
8.129.230.67,4,28,023bj.net,CN,Asia,Eastern Asia,China,Guangdong,,Shenzhen
219.129.239.35,4,24,0668.com,CN,Asia,Eastern Asia,China,Guangdong,,Guangzhou
39.108.58.181,4,32,0731job.com,CN,Asia,Eastern Asia,China,Guangdong,,Shenzhen
120.79.187.181,4,27,0755vc.com,CN,Asia,Eastern Asia,China,Guangdong,,Shenzhen
47.115.135.83,4,25,1000love.com,CN,Asia,Eastern Asia,China,Guangdong,,Shenzhen
183.6.211.61,4,30,12306.cn,CN,Asia,Eastern Asia,China,Guangdong,,Guangzhou
47.106.117.101,4,33,1230t.com,CN,Asia,Eastern Asia,China,Guangdong,,Shenzhen
47.121.123.62,4,30,1and1-mail.com,CN,Asia,Eastern Asia,China,Guangdong,,Shenzhen
39.108.219.39,4,25,2016xiaozhuge.com,CN,Asia,Eastern Asia,China,Guangdong,,Shenzhen
8.134.50.91,4,40,21cl.net,CN,Asia,Eastern Asia,China,Guangdong,,Guangzhou
120.79.61.87,4,33,21so.com,CN,Asia,Eastern Asia,China,Guangdong,,Shenzhen
120.79.249.97,4,35,2weima.com,CN,Asia,Eastern Asia,China,Guangdong,,Shenzhen
39.108.13.102,4,26,333cn.com,CN,Asia,Eastern Asia,China,Guangdong,,Shenzhen
47.106.193.217,4,2049,350.com,CN,Asia,Eastern Asia,China,Guangdong,,Shenzhen
120.76.203.115,4,33,3yecao.org,CN,Asia,Eastern Asia,China,Guangdong,,Shenzhen
47.107.253.212,4,28,4dage.com,CN,Asia,Eastern Asia,China,Guangdong,,Shenzhen
112.74.160.190,4,28,4dkankan.com,CN,Asia,Eastern Asia,China,Guangdong,,Shenzhen
47.112.104.117,4,28,514200.com,CN,Asia,Eastern Asia,China,Guangdong,,Shenzhen
193.112.121.57,4,39,52codes.net,CN,Asia,Eastern Asia,China,Guangdong,,Guangzhou
58.63.244.82,4,30,56.com,CN,Asia,Eastern Asia,China,Guangdong,,Guangzhou
120.77.9.60,4,22,5ijzj.com,CN,Asia,Eastern Asia,China,Guangdong,,Shenzhen
120.25.240.117,4,26,5iuse.com,CN,Asia,Eastern Asia,China,Guangdong,,Shenzhen
120.76.240.223,4,26,61ertong.com,CN,Asia,Eastern Asia,China,Guangdong,,Shenzhen
120.76.130.31,4,33,64gua.com,CN,Asia,Eastern Asia,China,Guangdong,,Shenzhen
112.74.167.116,4,19,68eg.com,CN,Asia,Eastern Asia,China,Guangdong,,Shenzhen
183.6.211.254,4,30,72e.net,CN,Asia,Eastern Asia,China,Guangdong,,Guangzhou
47.113.117.51,4,24,797rs.com,CN,Asia,Eastern Asia,China,Guangdong,,Shenzhen
119.23.247.62,4,29,861718.com,CN,Asia,Eastern Asia,China,Guangdong,,Shenzhen
112.74.52.214,4,37,8801.net,CN,Asia,Eastern Asia,China,Guangdong,,Shenzhen
47.106.255.7,4,26,91sotu.com,CN,Asia,Eastern Asia,China,Guangdong,,Shenzhen
47.106.79.59,4,30,991016.com,CN,Asia,Eastern Asia,China,Guangdong,,Shenzhen
120.24.96.18,4,17,99oz.net,CN,Asia,Eastern Asia,China,Guangdong,,Shenzhen
120.79.220.178,4,26,99v99.com,CN,Asia,Eastern Asia,China,Guangdong,,Shenzhen
47.106.114.13,4,33,9ye.com,CN,Asia,Eastern Asia,China,Guangdong,,Shenzhen
8.129.162.210,4,180,a8.com,CN,Asia,Eastern Asia,China,Guangdong,,Shenzhen
81.71.74.210,4,174,aad.fit,CN,Asia,Eastern Asia,China,Guangdong,,Guangzhou
120.77.38.230,4,29,abbs.store,CN,Asia,Eastern Asia,China,Guangdong,,Shenzhen
120.76.42.52,4,26,absen.cn,CN,Asia,Eastern Asia,China,Guangdong,,Shenzhen
8.129.72.89,4,21,aerchi.com,CN,Asia,Eastern Asia,China,Guangdong,,Shenzhen
8.134.69.194,4,29,aeroht.com,CN,Asia,Eastern Asia,China,Guangdong,,Guangzhou
47.106.144.188,4,34,aibangjia.cn,CN,Asia,Eastern Asia,China,Guangdong,,Shenzhen
119.23.73.169,4,25,aichiyudemao.com,CN,Asia,Eastern Asia,China,Guangdong,,Shenzhen
120.79.83.73,4,35,amh.sh,CN,Asia,Eastern Asia,China,Guangdong,,Shenzhen
120.79.52.111,4,26,anzhuo.cn,CN,Asia,Eastern Asia,China,Guangdong,,Shenzhen
120.78.83.48,4,33,asklib.com,CN,Asia,Eastern Asia,China,Guangdong,,Shenzhen
120.24.145.73,4,29,atec-sz.com.cn,CN,Asia,Eastern Asia,China,Guangdong,,Shenzhen
182.254.156.145,4,52,austar-hearing.com,CN,Asia,Eastern Asia,China,Guangdong,,Shenzhen
106.53.63.118,4,41,autoguangzhou.com.cn,CN,Asia,Eastern Asia,China,Guangdong,,Guangzhou
121.9.201.143,4,25,baicai.com,CN,Asia,Eastern Asia,China,Guangdong,,Guangzhou
139.9.42.242,4,47,baiyou100.com,CN,Asia,Eastern Asia,China,Guangdong,,Guangzhou
120.79.138.134,4,22,bamengame.com,CN,Asia,Eastern Asia,China,Guangdong,,Shenzhen
8.134.58.0,4,42,battery-expo.com,CN,Asia,Eastern Asia,China,Guangdong,,Guangzhou
120.79.173.72,4,70,bcpjxs.com,CN,Asia,Eastern Asia,China,Guangdong,,Shenzhen
39.108.51.156,4,23,benniao365.com,CN,Asia,Eastern Asia,China,Guangdong,,Shenzhen
8.129.25.82,4,81,best-edu.cn,CN,Asia,Eastern Asia,China,Guangdong,,Shenzhen
120.25.241.210,4,23,bgechina.cn,CN,Asia,Eastern Asia,China,Guangdong,,Shenzhen
47.113.193.234,4,29,biaoqianyinshuawang.com,CN,Asia,Eastern Asia,China,Guangdong,,Shenzhen
120.24.177.133,4,33,biji.la,CN,Asia,Eastern Asia,China,Guangdong,,Shenzhen
120.78.217.0,4,23,bimbim.cn,CN,Asia,Eastern Asia,China,Guangdong,,Shenzhen
120.78.198.65,4,34,binnongwang.com,CN,Asia,Eastern Asia,China,Guangdong,,Shenzhen
120.25.74.132,4,31,blueidea.com,CN,Asia,Eastern Asia,China,Guangdong,,Shenzhen
120.79.171.154,4,22,boeshi.com,CN,Asia,Eastern Asia,China,Guangdong,,Shenzhen
119.23.133.144,4,21,bom.ai,CN,Asia,Eastern Asia,China,Guangdong,,Shenzhen
47.113.146.217,4,58,boxui.com,CN,Asia,Eastern Asia,China,Guangdong,,Shenzhen
39.108.3.202,4,28,by56.com,CN,Asia,Eastern Asia,China,Guangdong,,Shenzhen
39.108.138.171,4,28,by6b.com,CN,Asia,Eastern Asia,China,Guangdong,,Shenzhen
120.24.80.20,4,20,c-soo.com,CN,Asia,Eastern Asia,China,Guangdong,,Shenzhen
113.108.87.223,4,24,ca168.com,CN,Asia,Eastern Asia,China,Guangdong,,Guangzhou
120.78.186.83,4,34,cbmd.cn,CN,Asia,Eastern Asia,China,Guangdong,,Shenzhen
119.23.47.135,4,36,ccasy.com,CN,Asia,Eastern Asia,China,Guangdong,,Shenzhen
47.107.29.141,4,21,cgown.com,CN,Asia,Eastern Asia,China,Guangdong,,Shenzhen
47.106.139.132,4,34,chbcnet.com,CN,Asia,Eastern Asia,China,Guangdong,,Shenzhen
119.23.107.84,4,29,checkoo.com,CN,Asia,Eastern Asia,China,Guangdong,,Shenzhen
120.76.62.139,4,66,chengmei.org.cn,CN,Asia,Eastern Asia,China,Guangdong,,Shenzhen
112.74.38.210,4,34,chinaiprlaw.cn,CN,Asia,Eastern Asia,China,Guangdong,,Shenzhen
120.24.236.23,4,26,chinamacro.cn,CN,Asia,Eastern Asia,China,Guangdong,,Shenzhen
47.107.105.31,4,33,chinaswim.com,CN,Asia,Eastern Asia,China,Guangdong,,Shenzhen
119.23.202.196,4,23,chinauci.com,CN,Asia,Eastern Asia,China,Guangdong,,Shenzhen
120.78.78.248,4,28,chnfund.com,CN,Asia,Eastern Asia,China,Guangdong,,Shenzhen
39.108.216.240,4,21,chukou1.com,CN,Asia,Eastern Asia,China,Guangdong,,Shenzhen
120.77.244.198,4,35,ciff-gz.com,CN,Asia,Eastern Asia,China,Guangdong,,Shenzhen
193.112.152.101,4,24,civilwords.com.cn,CN,Asia,Eastern Asia,China,Guangdong,,Guangzhou
8.134.104.22,4,41,ciya.cn,CN,Asia,Eastern Asia,China,Guangdong,,Guangzhou
112.74.71.96,4,24,clnqp.com,CN,Asia,Eastern Asia,China,Guangdong,,Shenzhen
112.74.113.232,4,21,cndaming.com,CN,Asia,Eastern Asia,China,Guangdong,,Shenzhen
47.115.35.212,4,28,co-sinead.cn,CN,Asia,Eastern Asia,China,Guangdong,,Shenzhen
120.78.188.60,4,27,coatexpo.cn,CN,Asia,Eastern Asia,China,Guangdong,,Shenzhen
112.74.22.172,4,27,codeigniter.org.cn,CN,Asia,Eastern Asia,China,Guangdong,,Shenzhen
8.138.59.84,4,60,conprofetech.com,CN,Asia,Eastern Asia,China,Guangdong,,Guangzhou
120.25.198.99,4,55,cphoto.net,CN,Asia,Eastern Asia,China,Guangdong,,Shenzhen
47.113.104.122,4,27,cps.com.cn,CN,Asia,Eastern Asia,China,Guangdong,,Shenzhen
120.79.255.28,4,40,cpse.com.cn,CN,Asia,Eastern Asia,China,Guangdong,,Shenzhen
8.134.142.145,4,26,cqipc.net,CN,Asia,Eastern Asia,China,Guangdong,,Guangzhou
120.24.248.117,4,30,crrmedical.com,CN,Asia,Eastern Asia,China,Guangdong,,Shenzhen
113.105.65.1,4,-3722062101,crv.com.cn,CN,Asia,Eastern Asia,China,Guangdong,,Dongguan
120.77.11.193,4,28,ctc-logistics.com,CN,Asia,Eastern Asia,China,Guangdong,,Shenzhen
8.134.190.203,4,958759,ctgf163.com,CN,Asia,Eastern Asia,China,Guangdong,,Guangzhou
47.107.120.192,4,27,ctoy.com.cn,CN,Asia,Eastern Asia,China,Guangdong,,Shenzhen
120.76.245.204,4,23,cuaa.net,CN,Asia,Eastern Asia,China,Guangdong,,Shenzhen
39.108.131.186,4,23,cxsz.org,CN,Asia,Eastern Asia,China,Guangdong,,Shenzhen
183.6.102.71,4,39,dataguru.cn,CN,Asia,Eastern Asia,China,Guangdong,,Guangzhou
120.24.201.231,4,15,ddcnc.com,CN,Asia,Eastern Asia,China,Guangdong,,Shenzhen
39.108.184.70,4,30,ddwly.com,CN,Asia,Eastern Asia,China,Guangdong,,Shenzhen
8.129.127.240,4,29,defu123.com,CN,Asia,Eastern Asia,China,Guangdong,,Shenzhen
120.79.185.104,4,19,deluxworld.com,CN,Asia,Eastern Asia,China,Guangdong,,Shenzhen
8.129.233.220,4,24,dgsaice.com,CN,Asia,Eastern Asia,China,Guangdong,,Shenzhen
47.106.71.38,4,143,dian5.com,CN,Asia,Eastern Asia,China,Guangdong,,Shenzhen
120.76.246.232,4,25,dinggu.net,CN,Asia,Eastern Asia,China,Guangdong,,Shenzhen
120.77.216.38,4,29,diyiziti.com,CN,Asia,Eastern Asia,China,Guangdong,,Shenzhen
120.25.227.119,4,35,dj-dj.net,CN,Asia,Eastern Asia,China,Guangdong,,Shenzhen
120.78.212.208,4,24,dj.cn,CN,Asia,Eastern Asia,China,Guangdong,,Shenzhen
47.106.212.154,4,27,dnatupu.com,CN,Asia,Eastern Asia,China,Guangdong,,Shenzhen
120.79.72.26,4,30,dnspq.com,CN,Asia,Eastern Asia,China,Guangdong,,Shenzhen
120.76.76.102,4,25,dofun.cc,CN,Asia,Eastern Asia,China,Guangdong,,Shenzhen
120.24.76.217,4,40,dongpeng.net,CN,Asia,Eastern Asia,China,Guangdong,,Shenzhen
120.25.201.26,4,95,dooland.com,CN,Asia,Eastern Asia,China,Guangdong,,Shenzhen
112.74.169.36,4,26,dossen.com,CN,Asia,Eastern Asia,China,Guangdong,,Shenzhen
120.79.68.225,4,41,douphp.com,CN,Asia,Eastern Asia,China,Guangdong,,Shenzhen
202.104.121.50,4,-3658711459,dpxq.gov.cn,CN,Asia,Eastern Asia,China,Guangdong,,Guangzhou
8.129.216.156,4,49,dsb.cn,CN,Asia,Eastern Asia,China,Guangdong,,Shenzhen
120.76.96.13,4,26,dszssz.com,CN,Asia,Eastern Asia,China,Guangdong,,Shenzhen
120.78.135.139,4,33,dubu.cn,CN,Asia,Eastern Asia,China,Guangdong,,Shenzhen
120.79.30.157,4,22,dzpknews.com,CN,Asia,Eastern Asia,China,Guangdong,,Shenzhen
139.9.61.211,4,28,e-dunhuang.com,CN,Asia,Eastern Asia,China,Guangdong,,Guangzhou
8.135.43.39,4,23,eastshow.cn,CN,Asia,Eastern Asia,China,Guangdong,,Shenzhen
120.25.241.170,4,39,elasticsearch.cn,CN,Asia,Eastern Asia,China,Guangdong,,Shenzhen
8.134.104.161,4,78,emcmark.com,CN,Asia,Eastern Asia,China,Guangdong,,Guangzhou
121.14.87.26,4,-1400879,emkt.com.cn,CN,Asia,Eastern Asia,China,Guangdong,,Guangzhou
47.115.0.4,4,17,emushroom.net,CN,Asia,Eastern Asia,China,Guangdong,,Shenzhen
47.107.100.247,4,35,ennews.com,CN,Asia,Eastern Asia,China,Guangdong,,Shenzhen
120.76.178.124,4,28,etime.net.cn,CN,Asia,Eastern Asia,China,Guangdong,,Shenzhen
47.119.166.168,4,21,ezhet.cn,CN,Asia,Eastern Asia,China,Guangdong,,Shenzhen
120.78.153.40,4,20,f-wi.cn,CN,Asia,Eastern Asia,China,Guangdong,,Shenzhen
119.23.246.246,4,32,fantulvxing.com,CN,Asia,Eastern Asia,China,Guangdong,,Shenzhen
112.74.183.62,4,22,fimi.com,CN,Asia,Eastern Asia,China,Guangdong,,Shenzhen
47.121.141.19,4,23,fjrclh.com,CN,Asia,Eastern Asia,China,Guangdong,,Shenzhen
47.121.198.130,4,74,flyffgm.com,CN,Asia,Eastern Asia,China,Guangdong,,Shenzhen
14.152.79.198,4,14,flyme.com,CN,Asia,Eastern Asia,China,Guangdong,,Guangzhou
120.24.243.166,4,27,foxconn.com.cn,CN,Asia,Eastern Asia,China,Guangdong,,Shenzhen
120.24.223.198,4,28,foxconn.com.cn,CN,Asia,Eastern Asia,China,Guangdong,,Shenzhen
120.25.75.80,4,27,fsnangong.com,CN,Asia,Eastern Asia,China,Guangdong,,Shenzhen
81.71.163.201,4,33,fumi.com,CN,Asia,Eastern Asia,China,Guangdong,,Guangzhou
120.79.10.9,4,28,fushoudajie.com,CN,Asia,Eastern Asia,China,Guangdong,,Shenzhen
218.17.211.72,4,1216571,fwol.cn,CN,Asia,Eastern Asia,China,Guangdong,,Shenzhen
47.115.51.182,4,34,fzlmxy.cn,CN,Asia,Eastern Asia,China,Guangdong,,Shenzhen
120.77.178.10,4,15,fzreal.com,CN,Asia,Eastern Asia,China,Guangdong,,Shenzhen
120.78.167.52,4,25,ganten.com.cn,CN,Asia,Eastern Asia,China,Guangdong,,Shenzhen
119.23.175.160,4,29,gaoxiaojob.com,CN,Asia,Eastern Asia,China,Guangdong,,Shenzhen
8.134.39.154,4,47,gd-winsun.com,CN,Asia,Eastern Asia,China,Guangdong,,Guangzhou
47.119.200.171,4,25,gdfc.org.cn,CN,Asia,Eastern Asia,China,Guangdong,,Shenzhen
14.23.155.170,4,551,gdrice.cn,CN,Asia,Eastern Asia,China,Guangdong,,Guangzhou
120.24.157.215,4,31,gdxsmy.cn,CN,Asia,Eastern Asia,China,Guangdong,,Shenzhen
47.119.17.200,4,25,geek-docs.com,CN,Asia,Eastern Asia,China,Guangdong,,Shenzhen
8.129.222.5,4,35,globalso.com,CN,Asia,Eastern Asia,China,Guangdong,,Shenzhen
120.78.89.144,4,43,glrcw.com,CN,Asia,Eastern Asia,China,Guangdong,,Shenzhen
120.25.245.219,4,31,goldmax360.com,CN,Asia,Eastern Asia,China,Guangdong,,Shenzhen
120.79.199.82,4,43,good-edu.cn,CN,Asia,Eastern Asia,China,Guangdong,,Shenzhen
120.24.71.106,4,39,goodally.hk,CN,Asia,Eastern Asia,China,Guangdong,,Shenzhen
112.74.203.101,4,37,goodao.net,CN,Asia,Eastern Asia,China,Guangdong,,Shenzhen
116.30.197.224,4,27,govitatech.cn,CN,Asia,Eastern Asia,China,Guangdong,,Shenzhen
8.129.78.203,4,63,gsbtools.com,CN,Asia,Eastern Asia,China,Guangdong,,Shenzhen
112.74.49.207,4,37,gter.net,CN,Asia,Eastern Asia,China,Guangdong,,Shenzhen
47.107.28.100,4,20,gtsteeldoor.com,CN,Asia,Eastern Asia,China,Guangdong,,Shenzhen
39.108.96.109,4,25,gui999.cn,CN,Asia,Eastern Asia,China,Guangdong,,Shenzhen
59.38.123.54,4,37,guxiang.com,CN,Asia,Eastern Asia,China,Guangdong,,Guangzhou
120.25.0.64,4,23,gxma.org.cn,CN,Asia,Eastern Asia,China,Guangdong,,Shenzhen
120.24.56.241,4,24,gxqcw.com,CN,Asia,Eastern Asia,China,Guangdong,,Shenzhen
116.31.96.91,4,30,gz111.com,CN,Asia,Eastern Asia,China,Guangdong,,Guangzhou
8.129.52.65,4,21,gzbidding.cn,CN,Asia,Eastern Asia,China,Guangdong,,Shenzhen
47.112.100.25,4,25,gzfljd.com,CN,Asia,Eastern Asia,China,Guangdong,,Shenzhen
47.112.161.76,4,25,gzhpjstz.com,CN,Asia,Eastern Asia,China,Guangdong,,Shenzhen
47.107.183.19,4,24,haha33.com,CN,Asia,Eastern Asia,China,Guangdong,,Shenzhen
47.115.205.144,4,31,hbsea.cn,CN,Asia,Eastern Asia,China,Guangdong,,Shenzhen
120.76.55.145,4,36,hbsztv.com,CN,Asia,Eastern Asia,China,Guangdong,,Shenzhen
47.115.13.215,4,32,hepu360.cn,CN,Asia,Eastern Asia,China,Guangdong,,Shenzhen
120.24.170.216,4,25,hithd.net,CN,Asia,Eastern Asia,China,Guangdong,,Shenzhen
112.74.38.168,4,33,hjiu.cn,CN,Asia,Eastern Asia,China,Guangdong,,Shenzhen
39.108.19.115,4,20,hnjinlu.com.cn,CN,Asia,Eastern Asia,China,Guangdong,,Shenzhen
112.74.179.177,4,27,hnshzy.cn,CN,Asia,Eastern Asia,China,Guangdong,,Shenzhen
120.77.153.182,4,27,hobbywing.com,CN,Asia,Eastern Asia,China,Guangdong,,Shenzhen
112.74.108.47,4,27,hohem.com,CN,Asia,Eastern Asia,China,Guangdong,,Shenzhen
120.24.208.68,4,26,hondametal.com,CN,Asia,Eastern Asia,China,Guangdong,,Shenzhen
120.24.87.216,4,55,hongmianlawyer.com,CN,Asia,Eastern Asia,China,Guangdong,,Shenzhen
119.23.10.187,4,44,hotata.com,CN,Asia,Eastern Asia,China,Guangdong,,Shenzhen
47.106.71.54,4,19,hpjllab.com,CN,Asia,Eastern Asia,China,Guangdong,,Shenzhen
124.71.84.194,4,28,hrloo.com,CN,Asia,Eastern Asia,China,Guangdong,,Guangzhou
120.24.217.73,4,32,htmleaf.com,CN,Asia,Eastern Asia,China,Guangdong,,Shenzhen
120.25.157.221,4,19,huarongdianzi.com,CN,Asia,Eastern Asia,China,Guangdong,,Shenzhen
39.108.0.218,4,21,hunancatv.com,CN,Asia,Eastern Asia,China,Guangdong,,Shenzhen
61.145.122.242,4,40,hupo.com,CN,Asia,Eastern Asia,China,Guangdong,,Zhuhai
182.254.212.181,4,1849,ichinaceo.com,CN,Asia,Eastern Asia,China,Guangdong,,Shenzhen
119.23.76.85,4,19,ichunt.com,CN,Asia,Eastern Asia,China,Guangdong,,Shenzhen
47.120.14.148,4,36,ickind.com,CN,Asia,Eastern Asia,China,Guangdong,,Shenzhen
47.112.202.241,4,22,igaoche.com,CN,Asia,Eastern Asia,China,Guangdong,,Shenzhen
47.115.44.41,4,39,ijianji.com,CN,Asia,Eastern Asia,China,Guangdong,,Shenzhen
8.138.153.104,4,20,imalan.cn,CN,Asia,Eastern Asia,China,Guangdong,,Guangzhou
8.138.145.164,4,47,imququ.com,CN,Asia,Eastern Asia,China,Guangdong,,Guangzhou
120.78.230.26,4,31,isaypc.com,CN,Asia,Eastern Asia,China,Guangdong,,Shenzhen
120.24.232.215,4,28,iteschina.com,CN,Asia,Eastern Asia,China,Guangdong,,Shenzhen
121.14.220.10,4,41,jarencai.com,CN,Asia,Eastern Asia,China,Guangdong,,Guangzhou
8.134.184.142,4,33,jgfts.com,CN,Asia,Eastern Asia,China,Guangdong,,Guangzhou
120.24.223.129,4,28,jh0756.net,CN,Asia,Eastern Asia,China,Guangdong,,Shenzhen
120.24.192.37,4,24,jianzhanzj.com,CN,Asia,Eastern Asia,China,Guangdong,,Shenzhen
110.41.218.15,4,33,jieshun.cn,CN,Asia,Eastern Asia,China,Guangdong,,Guangzhou
110.41.220.38,4,-12,jieshun.cn,CN,Asia,Eastern Asia,China,Guangdong,,Guangzhou
112.74.84.160,4,20,jietaoex.com,CN,Asia,Eastern Asia,China,Guangdong,,Shenzhen
47.106.115.111,4,19,jincaohr.com,CN,Asia,Eastern Asia,China,Guangdong,,Shenzhen
47.115.118.75,4,25,jiqie.com,CN,Asia,Eastern Asia,China,Guangdong,,Shenzhen
121.9.201.137,4,14,jobui.com,CN,Asia,Eastern Asia,China,Guangdong,,Guangzhou
120.24.227.189,4,27,jumold.com,CN,Asia,Eastern Asia,China,Guangdong,,Shenzhen
120.25.246.183,4,30,k1u.com,CN,Asia,Eastern Asia,China,Guangdong,,Shenzhen
47.106.243.57,4,27,key123.vip,CN,Asia,Eastern Asia,China,Guangdong,,Shenzhen
106.52.144.26,4,26,kongminghu.com,CN,Asia,Eastern Asia,China,Guangdong,,Guangzhou
119.23.31.231,4,118,kuaipng.com,CN,Asia,Eastern Asia,China,Guangdong,,Shenzhen
47.113.190.230,4,33,lcfong.com,CN,Asia,Eastern Asia,China,Guangdong,,Shenzhen
120.25.178.225,4,62,legrand.com.cn,CN,Asia,Eastern Asia,China,Guangdong,,Shenzhen
8.134.102.2,4,118,leiuu.com,CN,Asia,Eastern Asia,China,Guangdong,,Guangzhou
120.25.215.191,4,25,lemaker.org,CN,Asia,Eastern Asia,China,Guangdong,,Shenzhen
202.104.121.97,4,-3658711453,lg.gov.cn,CN,Asia,Eastern Asia,China,Guangdong,,Guangzhou
119.23.136.117,4,33,liangjiaju.site,CN,Asia,Eastern Asia,China,Guangdong,,Shenzhen
8.134.93.75,4,24,liaolihua.com,CN,Asia,Eastern Asia,China,Guangdong,,Guangzhou
119.23.226.22,4,27,lipu0773.com,CN,Asia,Eastern Asia,China,Guangdong,,Shenzhen
120.24.21.27,4,23,liqingdan.com,CN,Asia,Eastern Asia,China,Guangdong,,Shenzhen
47.112.218.229,4,25,ljxdc.com,CN,Asia,Eastern Asia,China,Guangdong,,Shenzhen
112.74.168.22,4,39,longygo.cn,CN,Asia,Eastern Asia,China,Guangdong,,Shenzhen
120.76.122.237,4,28,lonteng.com.cn,CN,Asia,Eastern Asia,China,Guangdong,,Shenzhen
193.112.82.210,4,36,lovepor.cn,CN,Asia,Eastern Asia,China,Guangdong,,Guangzhou
120.77.147.221,4,23,lzeweb.com,CN,Asia,Eastern Asia,China,Guangdong,,Shenzhen
112.74.184.101,4,25,lzsgdyy.com,CN,Asia,Eastern Asia,China,Guangdong,,Shenzhen
119.23.237.197,4,30,maigoo.com,CN,Asia,Eastern Asia,China,Guangdong,,Shenzhen
47.106.163.43,4,20,maliquankai.com,CN,Asia,Eastern Asia,China,Guangdong,,Shenzhen
119.23.108.5,4,21,mantant.cn,CN,Asia,Eastern Asia,China,Guangdong,,Shenzhen
218.15.172.68,4,214,meizhou.cn,CN,Asia,Eastern Asia,China,Guangdong,,Foshan
218.15.144.28,4,473268,meizhou.gov.cn,CN,Asia,Eastern Asia,China,Guangdong,,Foshan
14.152.79.179,4,-55,meizu.cn,CN,Asia,Eastern Asia,China,Guangdong,,Guangzhou
14.152.79.252,4,-56,meizu.com,CN,Asia,Eastern Asia,China,Guangdong,,Guangzhou
47.107.119.55,4,50,merway.cn,CN,Asia,Eastern Asia,China,Guangdong,,Shenzhen
39.108.183.34,4,76,mike-x.com,CN,Asia,Eastern Asia,China,Guangdong,,Shenzhen
120.25.77.231,4,44,mindshow.fun,CN,Asia,Eastern Asia,China,Guangdong,,Shenzhen
39.108.0.18,4,24,minglian8.com,CN,Asia,Eastern Asia,China,Guangdong,,Shenzhen
81.71.162.216,4,29,mjjcn.com,CN,Asia,Eastern Asia,China,Guangdong,,Guangzhou
112.74.67.228,4,53,moxin100.com,CN,Asia,Eastern Asia,China,Guangdong,,Shenzhen
119.23.213.185,4,36,mqspack.com,CN,Asia,Eastern Asia,China,Guangdong,,Shenzhen
120.76.247.80,4,30,mtksj.com,CN,Asia,Eastern Asia,China,Guangdong,,Shenzhen
47.106.237.239,4,31,mtwl.net,CN,Asia,Eastern Asia,China,Guangdong,,Shenzhen
120.79.13.180,4,56,musen.cc,CN,Asia,Eastern Asia,China,Guangdong,,Shenzhen
120.79.134.43,4,29,mydeskcity.com,CN,Asia,Eastern Asia,China,Guangdong,,Shenzhen
39.108.215.245,4,29,nature-cn.cn,CN,Asia,Eastern Asia,China,Guangdong,,Shenzhen
120.77.176.192,4,26,nature-cn.cn,CN,Asia,Eastern Asia,China,Guangdong,,Shenzhen
120.77.222.20,4,22,navicat.com.cn,CN,Asia,Eastern Asia,China,Guangdong,,Shenzhen
47.107.251.136,4,34,neihanshe.cn,CN,Asia,Eastern Asia,China,Guangdong,,Shenzhen
47.113.197.183,4,27,new686.com,CN,Asia,Eastern Asia,China,Guangdong,,Shenzhen
120.24.223.56,4,37,newwise.com,CN,Asia,Eastern Asia,China,Guangdong,,Shenzhen
8.135.55.204,4,23,newzhongyuan.com,CN,Asia,Eastern Asia,China,Guangdong,,Shenzhen
39.108.176.95,4,39,nfyxtime.com,CN,Asia,Eastern Asia,China,Guangdong,,Shenzhen
8.134.129.66,4,25,niaocao56.com,CN,Asia,Eastern Asia,China,Guangdong,,Guangzhou
120.25.106.83,4,28,niegoweb.com,CN,Asia,Eastern Asia,China,Guangdong,,Shenzhen
47.115.124.203,4,25,norco.com.cn,CN,Asia,Eastern Asia,China,Guangdong,,Shenzhen
120.79.170.125,4,34,now.cn,CN,Asia,Eastern Asia,China,Guangdong,,Shenzhen
47.106.190.219,4,27,nvc-lighting.com.cn,CN,Asia,Eastern Asia,China,Guangdong,,Shenzhen
182.254.147.87,4,28,nyato.com,CN,Asia,Eastern Asia,China,Guangdong,,Shenzhen
120.79.182.190,4,29,onefoundation.cn,CN,Asia,Eastern Asia,China,Guangdong,,Shenzhen
39.108.55.94,4,29,oneplus.cn,CN,Asia,Eastern Asia,China,Guangdong,,Shenzhen
39.108.181.72,4,57,oneyac.com,CN,Asia,Eastern Asia,China,Guangdong,,Shenzhen
112.74.166.235,4,28,oppein.com,CN,Asia,Eastern Asia,China,Guangdong,,Shenzhen
14.29.116.215,4,18,outdoors.com.cn,CN,Asia,Eastern Asia,China,Guangdong,,Guangzhou
120.25.169.238,4,62,phpvod.com,CN,Asia,Eastern Asia,China,Guangdong,,Shenzhen
119.23.252.232,4,53,poco.cn,CN,Asia,Eastern Asia,China,Guangdong,,Shenzhen
120.24.214.211,4,30,polyu-szbase.com,CN,Asia,Eastern Asia,China,Guangdong,,Shenzhen
8.134.114.204,4,31,pooban.com,CN,Asia,Eastern Asia,China,Guangdong,,Guangzhou
112.74.178.105,4,32,potential.com.cn,CN,Asia,Eastern Asia,China,Guangdong,,Shenzhen
121.204.130.23,4,59,ptfish.com,CN,Asia,Eastern Asia,China,Guangdong,,Guangzhou
8.134.104.7,4,35,qfxww.com.cn,CN,Asia,Eastern Asia,China,Guangdong,,Guangzhou
112.74.19.160,4,19,qianji.net,CN,Asia,Eastern Asia,China,Guangdong,,Shenzhen
106.53.108.67,4,20,qiuziti.com,CN,Asia,Eastern Asia,China,Guangdong,,Guangzhou
8.134.248.76,4,31,qlchat.com,CN,Asia,Eastern Asia,China,Guangdong,,Guangzhou
120.77.236.12,4,31,qtone.cn,CN,Asia,Eastern Asia,China,Guangdong,,Shenzhen
8.134.139.26,4,24,quanxue.cn,CN,Asia,Eastern Asia,China,Guangdong,,Guangzhou
119.23.104.160,4,73,rancher.cn,CN,Asia,Eastern Asia,China,Guangdong,,Shenzhen
120.79.63.67,4,94,renaidata.com,CN,Asia,Eastern Asia,China,Guangdong,,Shenzhen
8.138.129.231,4,37,rfid-china.com,CN,Asia,Eastern Asia,China,Guangdong,,Guangzhou
120.24.149.194,4,25,rfintell.com,CN,Asia,Eastern Asia,China,Guangdong,,Shenzhen
120.24.219.195,4,45,robosense.ai,CN,Asia,Eastern Asia,China,Guangdong,,Shenzhen
120.78.79.10,4,27,ruilang.cn,CN,Asia,Eastern Asia,China,Guangdong,,Shenzhen
39.108.185.99,4,39,sandegroup.com,CN,Asia,Eastern Asia,China,Guangdong,,Shenzhen
120.79.169.119,4,86,sc0796.cn,CN,Asia,Eastern Asia,China,Guangdong,,Shenzhen
119.23.12.92,4,40,sdhjjy.com,CN,Asia,Eastern Asia,China,Guangdong,,Shenzhen
120.77.37.161,4,26,seaskylight.com,CN,Asia,Eastern Asia,China,Guangdong,,Shenzhen
120.25.219.41,4,22,seedit.com,CN,Asia,Eastern Asia,China,Guangdong,,Shenzhen
47.107.245.45,4,29,sendary.cn,CN,Asia,Eastern Asia,China,Guangdong,,Shenzhen
39.108.67.115,4,32,sensorexpert.com.cn,CN,Asia,Eastern Asia,China,Guangdong,,Shenzhen
8.129.59.173,4,49,sfcservice.com,CN,Asia,Eastern Asia,China,Guangdong,,Shenzhen
47.115.41.140,4,50,sgjyart.org,CN,Asia,Eastern Asia,China,Guangdong,,Shenzhen
124.71.30.231,4,27,shanling.com,CN,Asia,Eastern Asia,China,Guangdong,,Guangzhou
120.78.57.119,4,23,sharedu.com.cn,CN,Asia,Eastern Asia,China,Guangdong,,Shenzhen
183.62.138.28,4,1637,shenchuang.com,CN,Asia,Eastern Asia,China,Guangdong,,Shenzhen
183.62.138.29,4,84595,shenchuang.com,CN,Asia,Eastern Asia,China,Guangdong,,Shenzhen
110.41.219.222,4,30,shenzhentong.com,CN,Asia,Eastern Asia,China,Guangdong,,Guangzhou
110.41.221.221,4,-24,shenzhentong.com,CN,Asia,Eastern Asia,China,Guangdong,,Guangzhou
119.23.12.46,4,25,shidai5d.com,CN,Asia,Eastern Asia,China,Guangdong,,Shenzhen
47.121.176.27,4,26,shishuotang.com,CN,Asia,Eastern Asia,China,Guangdong,,Shenzhen
39.108.136.251,4,56,siglent.com,CN,Asia,Eastern Asia,China,Guangdong,,Shenzhen
39.108.70.45,4,28,sino-manager.com,CN,Asia,Eastern Asia,China,Guangdong,,Shenzhen
120.77.168.156,4,31,sizhengke.net,CN,Asia,Eastern Asia,China,Guangdong,,Shenzhen
113.105.225.248,4,500067,sj63.com,CN,Asia,Eastern Asia,China,Guangdong,,Dongguan
110.41.54.221,4,25,sjzl19.com,CN,Asia,Eastern Asia,China,Guangdong,,Guangzhou
39.108.188.133,4,22,skyworth.com,CN,Asia,Eastern Asia,China,Guangdong,,Shenzhen
122.9.205.254,4,46,skyworthdigital.com,CN,Asia,Eastern Asia,China,Guangdong,,Guangzhou
120.24.166.190,4,46,sleepace.net,CN,Asia,Eastern Asia,China,Guangdong,,Shenzhen
59.36.220.239,4,159,sofreight.com,CN,Asia,Eastern Asia,China,Guangdong,,Guangzhou
120.77.217.229,4,36,soooidea.com,CN,Asia,Eastern Asia,China,Guangdong,,Shenzhen
47.119.195.40,4,64,soship.com,CN,Asia,Eastern Asia,China,Guangdong,,Shenzhen
218.17.159.41,4,304,strongfood.com.cn,CN,Asia,Eastern Asia,China,Guangdong,,Shenzhen
182.254.212.148,4,12,sucaijishi.com,CN,Asia,Eastern Asia,China,Guangdong,,Shenzhen
8.138.134.140,4,25,suibao.com,CN,Asia,Eastern Asia,China,Guangdong,,Guangzhou
120.79.33.158,4,27,sumwah.com,CN,Asia,Eastern Asia,China,Guangdong,,Shenzhen
120.78.204.150,4,24,sumy.org.cn,CN,Asia,Eastern Asia,China,Guangdong,,Shenzhen
39.108.245.45,4,49,swcn.net,CN,Asia,Eastern Asia,China,Guangdong,,Shenzhen
120.77.155.146,4,26,sysceo.com,CN,Asia,Eastern Asia,China,Guangdong,,Shenzhen
47.106.15.179,4,20,sysprotech.com.cn,CN,Asia,Eastern Asia,China,Guangdong,,Shenzhen
47.119.21.227,4,34,sz-jlc-pcb.com,CN,Asia,Eastern Asia,China,Guangdong,,Shenzhen
120.79.45.4,4,34,sz-jxcore.com,CN,Asia,Eastern Asia,China,Guangdong,,Shenzhen
120.24.72.131,4,23,szcyf.com,CN,Asia,Eastern Asia,China,Guangdong,,Shenzhen
120.24.66.109,4,27,szduoduo13.com,CN,Asia,Eastern Asia,China,Guangdong,,Shenzhen
120.77.210.110,4,37,szecowater.com,CN,Asia,Eastern Asia,China,Guangdong,,Shenzhen
120.77.172.233,4,26,szfa.com,CN,Asia,Eastern Asia,China,Guangdong,,Shenzhen
120.79.34.11,4,27,szhailong.com,CN,Asia,Eastern Asia,China,Guangdong,,Shenzhen
120.79.6.200,4,28,szlapx.com,CN,Asia,Eastern Asia,China,Guangdong,,Shenzhen
202.104.121.51,4,-3658711467,szlh.gov.cn,CN,Asia,Eastern Asia,China,Guangdong,,Guangzhou
202.104.121.60,4,-3658711462,szlhq.gov.cn,CN,Asia,Eastern Asia,China,Guangdong,,Guangzhou
47.115.90.249,4,35,szlianya.net,CN,Asia,Eastern Asia,China,Guangdong,,Shenzhen
39.108.91.17,4,26,szlxkj.com,CN,Asia,Eastern Asia,China,Guangdong,,Shenzhen
47.106.36.106,4,35,sznecn.com,CN,Asia,Eastern Asia,China,Guangdong,,Shenzhen
202.104.121.56,4,-3658711466,szpsq.gov.cn,CN,Asia,Eastern Asia,China,Guangdong,,Guangzhou
120.79.76.93,4,18,szsunray.com,CN,Asia,Eastern Asia,China,Guangdong,,Shenzhen
8.135.46.197,4,24,sztengcang.com,CN,Asia,Eastern Asia,China,Guangdong,,Shenzhen
120.25.248.17,4,32,szzhtd.com,CN,Asia,Eastern Asia,China,Guangdong,,Shenzhen
8.134.101.32,4,19,szztyh.com.cn,CN,Asia,Eastern Asia,China,Guangdong,,Guangzhou
47.107.113.185,4,22,szzzt.com,CN,Asia,Eastern Asia,China,Guangdong,,Shenzhen
120.78.239.87,4,24,taisau.com,CN,Asia,Eastern Asia,China,Guangdong,,Shenzhen
8.134.143.89,4,27,tbadc.com,CN,Asia,Eastern Asia,China,Guangdong,,Guangzhou
120.77.57.132,4,26,tdz1688.cn,CN,Asia,Eastern Asia,China,Guangdong,,Shenzhen
39.108.158.83,4,28,tecenet.com,CN,Asia,Eastern Asia,China,Guangdong,,Shenzhen
47.106.241.227,4,28,teeqee.com,CN,Asia,Eastern Asia,China,Guangdong,,Shenzhen
47.106.71.222,4,32,theblockbeats.info,CN,Asia,Eastern Asia,China,Guangdong,,Shenzhen
47.115.133.94,4,20,tiandixin.net,CN,Asia,Eastern Asia,China,Guangdong,,Shenzhen
120.77.54.8,4,37,tianwang.com,CN,Asia,Eastern Asia,China,Guangdong,,Shenzhen
39.108.172.252,4,37,tianyahome.cn,CN,Asia,Eastern Asia,China,Guangdong,,Shenzhen
47.112.11.45,4,30,tirechina.net,CN,Asia,Eastern Asia,China,Guangdong,,Shenzhen
47.115.76.152,4,20,tjc8888.com,CN,Asia,Eastern Asia,China,Guangdong,,Shenzhen
111.227.116.8,4,29,tkgame.com,CN,Asia,Eastern Asia,China,Guangdong,,Guangzhou
125.89.169.1,4,21,tkgame.com,CN,Asia,Eastern Asia,China,Guangdong,,Zhuhai
8.134.66.196,4,26,tmicos.com,CN,Asia,Eastern Asia,China,Guangdong,,Guangzhou
120.25.224.149,4,33,tonehk.com,CN,Asia,Eastern Asia,China,Guangdong,,Shenzhen
8.135.111.226,4,22,topys.cn,CN,Asia,Eastern Asia,China,Guangdong,,Shenzhen
120.24.58.120,4,31,totob.com,CN,Asia,Eastern Asia,China,Guangdong,,Shenzhen
120.77.222.12,4,172,triman.com.cn,CN,Asia,Eastern Asia,China,Guangdong,,Shenzhen
120.79.224.149,4,34,triple-stone.cn,CN,Asia,Eastern Asia,China,Guangdong,,Shenzhen
39.108.1.19,4,27,trloncoolingtower.com,CN,Asia,Eastern Asia,China,Guangdong,,Shenzhen
112.74.41.225,4,62,tryine.com,CN,Asia,Eastern Asia,China,Guangdong,,Shenzhen
120.25.146.111,4,26,tswmgy.com,CN,Asia,Eastern Asia,China,Guangdong,,Shenzhen
47.106.8.94,4,21,tudifa168.com,CN,Asia,Eastern Asia,China,Guangdong,,Shenzhen
219.133.46.154,4,27,uc.cn,CN,Asia,Eastern Asia,China,Guangdong,,Shenzhen
120.25.176.214,4,34,unilumin.cn,CN,Asia,Eastern Asia,China,Guangdong,,Shenzhen
120.79.133.129,4,28,uugai.com,CN,Asia,Eastern Asia,China,Guangdong,,Shenzhen
47.106.120.102,4,39,vatti.com.cn,CN,Asia,Eastern Asia,China,Guangdong,,Shenzhen
47.113.113.200,4,33,vdolady.com,CN,Asia,Eastern Asia,China,Guangdong,,Shenzhen
112.74.50.71,4,54,vinchin.com,CN,Asia,Eastern Asia,China,Guangdong,,Shenzhen
47.106.91.251,4,27,vipoglobal.com,CN,Asia,Eastern Asia,China,Guangdong,,Shenzhen
124.71.110.110,4,32,vuln.cn,CN,Asia,Eastern Asia,China,Guangdong,,Guangzhou
47.113.207.116,4,32,vyouke.net,CN,Asia,Eastern Asia,China,Guangdong,,Shenzhen
120.79.88.157,4,25,w3cschool.cn,CN,Asia,Eastern Asia,China,Guangdong,,Shenzhen
120.24.74.127,4,28,wangpingju.com,CN,Asia,Eastern Asia,China,Guangdong,,Shenzhen
47.112.181.56,4,20,wanliyiliao.com,CN,Asia,Eastern Asia,China,Guangdong,,Shenzhen
120.77.147.21,4,28,waveshare.net,CN,Asia,Eastern Asia,China,Guangdong,,Shenzhen
106.52.59.253,4,19,wayoto.com,CN,Asia,Eastern Asia,China,Guangdong,,Guangzhou
8.134.49.224,4,24,wealink.com,CN,Asia,Eastern Asia,China,Guangdong,,Guangzhou
8.138.122.54,4,57,webyee.com,CN,Asia,Eastern Asia,China,Guangdong,,Guangzhou
39.108.5.149,4,21,weijiachem.com,CN,Asia,Eastern Asia,China,Guangdong,,Shenzhen
120.79.147.3,4,40,weiney.com,CN,Asia,Eastern Asia,China,Guangdong,,Shenzhen
47.121.115.155,4,33,whfc.com.cn,CN,Asia,Eastern Asia,China,Guangdong,,Shenzhen
112.74.164.242,4,35,whtzjkj.com,CN,Asia,Eastern Asia,China,Guangdong,,Shenzhen
39.108.159.200,4,29,wondfo.com,CN,Asia,Eastern Asia,China,Guangdong,,Shenzhen
47.107.96.201,4,31,woodo.cn,CN,Asia,Eastern Asia,China,Guangdong,,Shenzhen
120.25.86.242,4,47,wootou.com,CN,Asia,Eastern Asia,China,Guangdong,,Shenzhen
120.24.21.32,4,28,wwei.cn,CN,Asia,Eastern Asia,China,Guangdong,,Shenzhen
120.79.142.44,4,27,x1717.com,CN,Asia,Eastern Asia,China,Guangdong,,Shenzhen
8.138.166.205,4,29,xdbird.com,CN,Asia,Eastern Asia,China,Guangdong,,Guangzhou
59.37.162.133,4,28,xhrc.com.cn,CN,Asia,Eastern Asia,China,Guangdong,,Shenzhen
120.77.145.90,4,21,xifengboke.com,CN,Asia,Eastern Asia,China,Guangdong,,Shenzhen
39.108.175.11,4,25,xingyun.info,CN,Asia,Eastern Asia,China,Guangdong,,Shenzhen
116.31.96.89,4,5,xinhua.gov.cn,CN,Asia,Eastern Asia,China,Guangdong,,Guangzhou
39.108.11.103,4,32,xinlong-holding.com,CN,Asia,Eastern Asia,China,Guangdong,,Shenzhen
47.115.155.117,4,28,xizi.com,CN,Asia,Eastern Asia,China,Guangdong,,Shenzhen
120.76.179.47,4,28,xmyeditor.com,CN,Asia,Eastern Asia,China,Guangdong,,Shenzhen
8.138.84.206,4,20,xplanner.com.cn,CN,Asia,Eastern Asia,China,Guangdong,,Guangzhou
47.115.140.60,4,32,xq0757.com,CN,Asia,Eastern Asia,China,Guangdong,,Shenzhen
120.79.49.181,4,34,xuwentcw.com,CN,Asia,Eastern Asia,China,Guangdong,,Shenzhen
120.78.212.76,4,40,xwaimao.com,CN,Asia,Eastern Asia,China,Guangdong,,Shenzhen
47.107.128.118,4,28,xxpie.com,CN,Asia,Eastern Asia,China,Guangdong,,Shenzhen
120.79.162.129,4,27,xxrc.cn,CN,Asia,Eastern Asia,China,Guangdong,,Shenzhen
120.78.120.255,4,21,xxsb.com,CN,Asia,Eastern Asia,China,Guangdong,,Shenzhen
120.79.29.7,4,27,xydec.com.cn,CN,Asia,Eastern Asia,China,Guangdong,,Shenzhen
120.77.250.5,4,24,xzw.com,CN,Asia,Eastern Asia,China,Guangdong,,Shenzhen
47.106.108.215,4,29,yafrm.com,CN,Asia,Eastern Asia,China,Guangdong,,Shenzhen
47.115.189.189,4,29,yc-net.com.cn,CN,Asia,Eastern Asia,China,Guangdong,,Shenzhen
47.115.145.89,4,28,yetuppt.com,CN,Asia,Eastern Asia,China,Guangdong,,Shenzhen
120.25.232.195,4,-967172,yhachina.com,CN,Asia,Eastern Asia,China,Guangdong,,Shenzhen
120.76.41.92,4,22,yibaixun.com,CN,Asia,Eastern Asia,China,Guangdong,,Shenzhen
112.74.93.254,4,26,yiguotech.com,CN,Asia,Eastern Asia,China,Guangdong,,Shenzhen
112.74.191.80,4,29,yisun3d.com,CN,Asia,Eastern Asia,China,Guangdong,,Shenzhen
112.74.115.207,4,38,yitoa.com,CN,Asia,Eastern Asia,China,Guangdong,,Shenzhen
116.205.146.25,4,-54,yl1001.com,CN,Asia,Eastern Asia,China,Guangdong,,Guangzhou
116.205.146.80,4,21,yl1001.com,CN,Asia,Eastern Asia,China,Guangdong,,Guangzhou
116.205.146.150,4,24,yl1001.com,CN,Asia,Eastern Asia,China,Guangdong,,Guangzhou
120.25.12.80,4,19,ymxfba.cn,CN,Asia,Eastern Asia,China,Guangdong,,Shenzhen
119.23.230.128,4,29,yndtjj.com,CN,Asia,Eastern Asia,China,Guangdong,,Shenzhen
120.79.206.169,4,32,youban.com,CN,Asia,Eastern Asia,China,Guangdong,,Shenzhen
221.178.86.52,4,-1,youlai.cn,CN,Asia,Eastern Asia,China,Guangdong,,Zhuhai
221.178.86.53,4,-20,youlai.cn,CN,Asia,Eastern Asia,China,Guangdong,,Zhuhai
221.178.86.49,4,-5,youlai.cn,CN,Asia,Eastern Asia,China,Guangdong,,Zhuhai
120.25.230.136,4,38,youxia.com,CN,Asia,Eastern Asia,China,Guangdong,,Shenzhen
47.115.88.8,4,21,youyoufood.com,CN,Asia,Eastern Asia,China,Guangdong,,Shenzhen
119.23.238.238,4,25,yuchenhongye.com,CN,Asia,Eastern Asia,China,Guangdong,,Shenzhen
113.104.21.155,4,21,yunfu.gov.cn,CN,Asia,Eastern Asia,China,Guangdong,,Shenzhen
120.79.140.67,4,29,yuzhuan.com,CN,Asia,Eastern Asia,China,Guangdong,,Shenzhen
125.94.240.82,4,24,yy.com,CN,Asia,Eastern Asia,China,Guangdong,,Guangzhou
81.71.162.33,4,30,zengrong.net,CN,Asia,Eastern Asia,China,Guangdong,,Guangzhou
8.134.57.220,4,26,zgguohe.com,CN,Asia,Eastern Asia,China,Guangdong,,Guangzhou
47.112.200.199,4,38,zh-canon.com,CN,Asia,Eastern Asia,China,Guangdong,,Shenzhen
120.77.216.70,4,43,zhibo8.cc,CN,Asia,Eastern Asia,China,Guangdong,,Shenzhen
47.106.86.104,4,-11,zhlcpa.com,CN,Asia,Eastern Asia,China,Guangdong,,Shenzhen
202.105.182.154,4,-1490868653,zhlead.com,CN,Asia,Eastern Asia,China,Guangdong,,Guangzhou
120.24.245.20,4,21303,zhongtou8.cn,CN,Asia,Eastern Asia,China,Guangdong,,Shenzhen
47.113.101.53,4,19,zhukao666.com,CN,Asia,Eastern Asia,China,Guangdong,,Shenzhen
39.108.111.168,4,31,zjjtianzishan.com,CN,Asia,Eastern Asia,China,Guangdong,,Shenzhen
120.78.155.61,4,30,zjjzx.cn,CN,Asia,Eastern Asia,China,Guangdong,,Shenzhen
47.106.90.187,4,34,zlgmcu.com,CN,Asia,Eastern Asia,China,Guangdong,,Shenzhen
119.23.215.115,4,31,zmlxj.com,CN,Asia,Eastern Asia,China,Guangdong,,Shenzhen
119.23.240.230,4,25,zsbtv.com.cn,CN,Asia,Eastern Asia,China,Guangdong,,Shenzhen
125.92.248.5,4,678,zsrc.net,CN,Asia,Eastern Asia,China,Guangdong,,Zhongshan
