reflector_ip,ip_version,offset,description,country_code,region,sub_region,country_name,sub_division_1,sub_division_2,city
96.126.112.16,4,6,100forms.com,US,Americas,Northern America,United States of America,Texas,,Richardson
45.79.58.99,4,4,123teachme.com,US,Americas,Northern America,United States of America,Texas,,Richardson
72.14.187.124,4,12,20bits.com,US,Americas,Northern America,United States of America,Texas,,Richardson
45.33.119.177,4,4,3arts.org,US,Americas,Northern America,United States of America,Texas,,Richardson
38.83.106.84,4,186,3pw.net,US,Americas,Northern America,United States of America,Texas,,Richardson
38.83.106.85,4,347,3pw.net,US,Americas,Northern America,United States of America,Texas,,Richardson
96.126.112.155,4,11,70sbig.com,US,Americas,Northern America,United States of America,Texas,,Richardson
173.255.196.39,4,356835,abras.com.br,US,Americas,Northern America,United States of America,Texas,,Richardson
50.116.23.83,4,5,acadia.org,US,Americas,Northern America,United States of America,Texas,,Richardson
96.126.118.192,4,17,adoptionsbygladney.com,US,Americas,Northern America,United States of America,Texas,,Richardson
69.164.205.223,4,70,afkmods.com,US,Americas,Northern America,United States of America,Texas,,Richardson
173.255.192.145,4,20,agenciareleases.com,US,Americas,Northern America,United States of America,Texas,,Richardson
45.56.124.121,4,7,ai5nw.net,US,Americas,Northern America,United States of America,Texas,,Richardson
194.195.223.35,4,5,airtory.com,US,Americas,Northern America,United States of America,Texas,,Richardson
72.14.191.94,4,66,alliedworks.com,US,Americas,Northern America,United States of America,Texas,,Richardson
96.126.114.82,4,46,alotspace.com,US,Americas,Northern America,United States of America,Texas,,Richardson
45.33.21.226,4,6,amcomm.network,US,Americas,Northern America,United States of America,Texas,,Richardson
72.14.189.90,4,-1891269,americanlastnames.us,US,Americas,Northern America,United States of America,Texas,,Richardson
45.33.13.104,4,11,ams02.org,US,Americas,Northern America,United States of America,Texas,,Richardson
45.79.51.137,4,27,analystforum.com,US,Americas,Northern America,United States of America,Texas,,Richardson
45.79.43.184,4,18,animecubed.com,US,Americas,Northern America,United States of America,Texas,,Richardson
198.58.96.19,4,11,appleseedinfo.org,US,Americas,Northern America,United States of America,Texas,,Richardson
45.33.25.50,4,65,arenapublica.com,US,Americas,Northern America,United States of America,Texas,,Richardson
45.79.47.228,4,22,areyouwatchingthis.com,US,Americas,Northern America,United States of America,Texas,,Richardson
45.33.22.122,4,7,aspnix.com,US,Americas,Northern America,United States of America,Texas,,Richardson
45.79.4.99,4,8,audioblogger.com,US,Americas,Northern America,United States of America,Texas,,Richardson
45.79.5.212,4,35,aupr.edu,US,Americas,Northern America,United States of America,Texas,,Richardson
72.14.189.220,4,6,austincityguide.com,US,Americas,Northern America,United States of America,Texas,,Richardson
104.200.17.190,4,7,awrswheelrepair.com,US,Americas,Northern America,United States of America,Texas,,Richardson
45.56.78.61,4,762992,backuptrans.com,US,Americas,Northern America,United States of America,Texas,,Richardson
45.79.40.163,4,7,batterystaplegames.com,US,Americas,Northern America,United States of America,Texas,,Richardson
45.33.11.156,4,24,bdstudiogames.com,US,Americas,Northern America,United States of America,Texas,,Richardson
72.14.179.41,4,181,bestfinancialmagazine.com,US,Americas,Northern America,United States of America,Texas,,Richardson
50.116.16.185,4,7,bettercapital.vc,US,Americas,Northern America,United States of America,Texas,,Richardson
104.200.21.158,4,0,biblionix.com,US,Americas,Northern America,United States of America,Texas,,Richardson
72.14.187.7,4,541859,biggestuscities.com,US,Americas,Northern America,United States of America,Texas,,Richardson
45.33.21.108,4,1412,bikepics.com,US,Americas,Northern America,United States of America,Texas,,Richardson
192.46.219.197,4,5,blackjacktournaments.com,US,Americas,Northern America,United States of America,Texas,,Richardson
96.126.116.218,4,25204,blincmagazine.com,US,Americas,Northern America,United States of America,Texas,,Richardson
173.255.196.251,4,120624,boatparadise.com,US,Americas,Northern America,United States of America,Texas,,Richardson
45.56.76.84,4,478,bobcesca.com,US,Americas,Northern America,United States of America,Texas,,Richardson
45.33.27.13,4,476236,boonex.com,US,Americas,Northern America,United States of America,Texas,,Richardson
69.164.203.197,4,905011,boxoft.com,US,Americas,Northern America,United States of America,Texas,,Richardson
45.33.114.208,4,16,braceletbook.com,US,Americas,Northern America,United States of America,Texas,,Richardson
45.56.77.101,4,18,bragmybag.com,US,Americas,Northern America,United States of America,Texas,,Richardson
198.58.97.30,4,58,browsera.com,US,Americas,Northern America,United States of America,Texas,,Richardson
45.79.52.198,4,21,calculateconvert.com,US,Americas,Northern America,United States of America,Texas,,Richardson
50.116.17.209,4,17,canonical.org,US,Americas,Northern America,United States of America,Texas,,Richardson
45.33.11.200,4,4,canonlawmadeeasy.com,US,Americas,Northern America,United States of America,Texas,,Richardson
45.56.77.163,4,3,cantabilesoftware.com,US,Americas,Northern America,United States of America,Texas,,Richardson
50.116.31.72,4,4,caretaker.org,US,Americas,Northern America,United States of America,Texas,,Richardson
104.200.19.45,4,623989,carsurvey.org,US,Americas,Northern America,United States of America,Texas,,Richardson
45.79.19.137,4,3,cartalkpodcast.com,US,Americas,Northern America,United States of America,Texas,,Richardson
198.58.104.123,4,3,carter.biz,US,Americas,Northern America,United States of America,Texas,,Richardson
45.79.61.207,4,8,champsorchumps.us,US,Americas,Northern America,United States of America,Texas,,Richardson
72.14.191.156,4,810715,chessvideos.tv,US,Americas,Northern America,United States of America,Texas,,Richardson
72.14.182.167,4,6,ciaviaonline.us,US,Americas,Northern America,United States of America,Texas,,Richardson
104.237.135.222,4,6,cigardojo.com,US,Americas,Northern America,United States of America,Texas,,Richardson
72.14.191.42,4,8,circuitdigest.com,US,Americas,Northern America,United States of America,Texas,,Richardson
198.58.103.59,4,1171986,clasificados.st,US,Americas,Northern America,United States of America,Texas,,Richardson
45.56.71.242,4,7,claverton-energy.com,US,Americas,Northern America,United States of America,Texas,,Richardson
194.195.218.104,4,29,clevelandinternships.net,US,Americas,Northern America,United States of America,Texas,,Richardson
198.58.121.212,4,9,climber.com,US,Americas,Northern America,United States of America,Texas,,Richardson
45.33.113.176,4,6,clubdeluxe.co,US,Americas,Northern America,United States of America,Texas,,Richardson
96.126.127.216,4,3,cocopah.com,US,Americas,Northern America,United States of America,Texas,,Richardson
198.58.102.185,4,49,collegefootballpoll.com,US,Americas,Northern America,United States of America,Texas,,Richardson
45.79.57.202,4,0,colorq.org,US,Americas,Northern America,United States of America,Texas,,Richardson
198.58.115.69,4,25,comancheclub.com,US,Americas,Northern America,United States of America,Texas,,Richardson
69.164.194.64,4,18,comfort-software.com,US,Americas,Northern America,United States of America,Texas,,Richardson
45.33.30.40,4,14,confessionsofahomeschooler.com,US,Americas,Northern America,United States of America,Texas,,Richardson
66.228.53.67,4,6,conservativeinstitute.org,US,Americas,Northern America,United States of America,Texas,,Richardson
96.126.114.156,4,47,coolrecordedit.com,US,Americas,Northern America,United States of America,Texas,,Richardson
45.79.38.209,4,19,corestreet.com,US,Americas,Northern America,United States of America,Texas,,Richardson
198.58.127.64,4,4,countreefood.net,US,Americas,Northern America,United States of America,Texas,,Richardson
96.126.119.108,4,15,coursify.me,US,Americas,Northern America,United States of America,Texas,,Richardson
45.79.19.125,4,28,creativedecoratingideas.org,US,Americas,Northern America,United States of America,Texas,,Richardson
45.79.7.4,4,10,cue.io,US,Americas,Northern America,United States of America,Texas,,Richardson
69.164.195.18,4,43,curiouscat.net,US,Americas,Northern America,United States of America,Texas,,Richardson
96.126.125.67,4,12,customerparadigm.com,US,Americas,Northern America,United States of America,Texas,,Richardson
69.164.201.72,4,4,dachisgroup.com,US,Americas,Northern America,United States of America,Texas,,Richardson
192.46.218.170,4,6,dailybusinesspost.com,US,Americas,Northern America,United States of America,Texas,,Richardson
50.116.17.43,4,55,david-smith.org,US,Americas,Northern America,United States of America,Texas,,Richardson
72.14.190.37,4,2,dayah.com,US,Americas,Northern America,United States of America,Texas,,Richardson
66.228.49.58,4,4,dcpartyrentalsupplies.com,US,Americas,Northern America,United States of America,Texas,,Richardson
198.58.122.92,4,4,ddfl.org,US,Americas,Northern America,United States of America,Texas,,Richardson
45.79.11.162,4,14,dealigg.com,US,Americas,Northern America,United States of America,Texas,,Richardson
96.126.120.24,4,64,debcb.com,US,Americas,Northern America,United States of America,Texas,,Richardson
45.79.8.237,4,36,devdungeon.com,US,Americas,Northern America,United States of America,Texas,,Richardson
45.79.15.85,4,4,dietarious.com,US,Americas,Northern America,United States of America,Texas,,Richardson
198.58.109.76,4,111,digi-pr.com,US,Americas,Northern America,United States of America,Texas,,Richardson
50.116.24.128,4,5,digitalenvios.com,US,Americas,Northern America,United States of America,Texas,,Richardson
45.56.120.146,4,10,digitalnature.eu,US,Americas,Northern America,United States of America,Texas,,Richardson
198.58.120.193,4,1276,digitemb.com,US,Americas,Northern America,United States of America,Texas,,Richardson
45.79.55.233,4,13,digitemp.com,US,Americas,Northern America,United States of America,Texas,,Richardson
45.79.29.195,4,4,dirvish.org,US,Americas,Northern America,United States of America,Texas,,Richardson
194.195.221.160,4,2380529,discountautoparts.com,US,Americas,Northern America,United States of America,Texas,,Richardson
45.79.23.17,4,6,diybookcovers.com,US,Americas,Northern America,United States of America,Texas,,Richardson
198.58.115.225,4,7,diyindex.com,US,Americas,Northern America,United States of America,Texas,,Richardson
45.56.79.122,4,1187,DNS Server: 45-56-79-122.ip.linodeusercontent.com,US,Americas,Northern America,United States of America,Texas,,Richardson
96.126.127.69,4,30,DNS Server: 96-126-127-69.ip.linodeusercontent.com,US,Americas,Northern America,United States of America,Texas,,Richardson
97.75.67.214,4,28,DNS Server: cust214.telwestnet.net,US,Americas,Northern America,United States of America,Texas,,Richardson
45.79.47.93,4,353,DNS Server: li1146-93.members.linode.com,US,Americas,Northern America,United States of America,Texas,,Richardson
198.58.103.205,4,1161065,DNS Server: li553-205.members.linode.com,US,Americas,Northern America,United States of America,Texas,,Richardson
45.56.121.226,4,348,DNS Server: li939-226.members.linode.com,US,Americas,Northern America,United States of America,Texas,,Richardson
104.237.130.221,4,180,DNS Server: mx.sendabout.com,US,Americas,Northern America,United States of America,Texas,,Richardson
50.116.26.157,4,2,doomworld.com,US,Americas,Northern America,United States of America,Texas,,Richardson
173.255.200.154,4,6,dotheton.com,US,Americas,Northern America,United States of America,Texas,,Richardson
45.33.22.134,4,39,drdteam.org,US,Americas,Northern America,United States of America,Texas,,Richardson
69.164.201.65,4,4,dresshead.com,US,Americas,Northern America,United States of America,Texas,,Richardson
23.239.27.234,4,30,drleemerritt.com,US,Americas,Northern America,United States of America,Texas,,Richardson
96.126.124.112,4,7,dtmpower.net,US,Americas,Northern America,United States of America,Texas,,Richardson
198.58.116.195,4,5,e-affiliateclub.com,US,Americas,Northern America,United States of America,Texas,,Richardson
45.56.67.242,4,29,eaglesoftware.com.au,US,Americas,Northern America,United States of America,Texas,,Richardson
198.58.103.13,4,3,easytourchina.com,US,Americas,Northern America,United States of America,Texas,,Richardson
50.116.20.236,4,27,eatwell101.com,US,Americas,Northern America,United States of America,Texas,,Richardson
45.79.19.204,4,2,economicdevelopmentjobs.net,US,Americas,Northern America,United States of America,Texas,,Richardson
45.33.0.42,4,6,editthis.info,US,Americas,Northern America,United States of America,Texas,,Richardson
198.58.124.243,4,6,edoceo.com,US,Americas,Northern America,United States of America,Texas,,Richardson
139.144.227.32,4,2,education-website.com,US,Americas,Northern America,United States of America,Texas,,Richardson
45.79.41.207,4,7,eev.ee,US,Americas,Northern America,United States of America,Texas,,Richardson
69.164.203.207,4,3,ehd.org,US,Americas,Northern America,United States of America,Texas,,Richardson
45.33.22.22,4,115,emailsignatures.com,US,Americas,Northern America,United States of America,Texas,,Richardson
45.56.78.84,4,4,emailtuna.com,US,Americas,Northern America,United States of America,Texas,,Richardson
45.33.11.193,4,12,emereleases.com,US,Americas,Northern America,United States of America,Texas,,Richardson
45.56.72.21,4,61,emerilsrestaurants.com,US,Americas,Northern America,United States of America,Texas,,Richardson
69.164.207.206,4,9,energy-models.com,US,Americas,Northern America,United States of America,Texas,,Richardson
96.126.113.194,4,12,epbusinessjournal.com,US,Americas,Northern America,United States of America,Texas,,Richardson
96.126.126.233,4,2399,esrawe.com,US,Americas,Northern America,United States of America,Texas,,Richardson
45.33.113.214,4,6,everypony.com,US,Americas,Northern America,United States of America,Texas,,Richardson
45.33.22.186,4,8,exceljet.net,US,Americas,Northern America,United States of America,Texas,,Richardson
72.14.177.19,4,21,extstore.com,US,Americas,Northern America,United States of America,Texas,,Richardson
104.237.139.204,4,8,familyreading.net,US,Americas,Northern America,United States of America,Texas,,Richardson
104.237.133.125,4,18,fat64.net,US,Americas,Northern America,United States of America,Texas,,Richardson
50.116.27.194,4,10,fens.me,US,Americas,Northern America,United States of America,Texas,,Richardson
45.56.122.179,4,2,ficwad.com,US,Americas,Northern America,United States of America,Texas,,Richardson
104.200.22.140,4,31,fieldagent.net,US,Americas,Northern America,United States of America,Texas,,Richardson
96.126.118.172,4,27,filterforge.com,US,Americas,Northern America,United States of America,Texas,,Richardson
198.58.123.110,4,7,finedictionary.com,US,Americas,Northern America,United States of America,Texas,,Richardson
45.79.34.111,4,33,finishedresults.com,US,Americas,Northern America,United States of America,Texas,,Richardson
45.33.31.189,4,9,firewallguide.com,US,Americas,Northern America,United States of America,Texas,,Richardson
173.255.194.36,4,9,fluidapp.com,US,Americas,Northern America,United States of America,Texas,,Richardson
45.79.5.56,4,346,flyfrompti.com,US,Americas,Northern America,United States of America,Texas,,Richardson
104.237.131.125,4,13,fman.io,US,Americas,Northern America,United States of America,Texas,,Richardson
198.58.125.221,4,1,fmp.com,US,Americas,Northern America,United States of America,Texas,,Richardson
45.33.118.120,4,120788,fnd.to,US,Americas,Northern America,United States of America,Texas,,Richardson
173.255.201.233,4,1,foodnotbombs.net,US,Americas,Northern America,United States of America,Texas,,Richardson
173.255.203.129,4,12,formmail.com,US,Americas,Northern America,United States of America,Texas,,Richardson
50.116.19.234,4,738,fortpecktribes.org,US,Americas,Northern America,United States of America,Texas,,Richardson
173.255.199.130,4,5,free-audio-editor.com,US,Americas,Northern America,United States of America,Texas,,Richardson
45.79.10.90,4,6,freeaudiovideosoft.com,US,Americas,Northern America,United States of America,Texas,,Richardson
45.79.19.217,4,4,freecarmagazines.net,US,Americas,Northern America,United States of America,Texas,,Richardson
198.58.116.144,4,30,freenew.net,US,Americas,Northern America,United States of America,Texas,,Richardson
45.79.56.181,4,8,freerepublic.com,US,Americas,Northern America,United States of America,Texas,,Richardson
45.79.9.230,4,28,freesoundtrackmusic.com,US,Americas,Northern America,United States of America,Texas,,Richardson
45.56.122.5,4,16,frenchmarket.org,US,Americas,Northern America,United States of America,Texas,,Richardson
50.116.21.208,4,11,frenchquarter.com,US,Americas,Northern America,United States of America,Texas,,Richardson
72.14.184.191,4,5,fugal.net,US,Americas,Northern America,United States of America,Texas,,Richardson
104.237.143.84,4,838,furry-paws.com,US,Americas,Northern America,United States of America,Texas,,Richardson
172.105.137.165,4,113799,fwweekly.com,US,Americas,Northern America,United States of America,Texas,,Richardson
45.33.126.107,4,6,gammatech.org,US,Americas,Northern America,United States of America,Texas,,Richardson
45.79.41.85,4,2,gearlivegirl.com,US,Americas,Northern America,United States of America,Texas,,Richardson
69.164.203.77,4,1075,geekinheels.com,US,Americas,Northern America,United States of America,Texas,,Richardson
198.58.100.165,4,5,generasia.com,US,Americas,Northern America,United States of America,Texas,,Richardson
198.58.121.225,4,30,getdigsy.com,US,Americas,Northern America,United States of America,Texas,,Richardson
50.116.28.162,4,74,getify.com,US,Americas,Northern America,United States of America,Texas,,Richardson
172.105.137.46,4,752,ghrr.com,US,Americas,Northern America,United States of America,Texas,,Richardson
139.144.46.134,4,27,gilchristsoames.com,US,Americas,Northern America,United States of America,Texas,,Richardson
198.58.96.137,4,3,giveawaytools.com,US,Americas,Northern America,United States of America,Texas,,Richardson
45.33.4.126,4,2,gjspa.com,US,Americas,Northern America,United States of America,Texas,,Richardson
198.58.106.108,4,13,gold.net,US,Americas,Northern America,United States of America,Texas,,Richardson
45.79.46.115,4,19,golegend.com,US,Americas,Northern America,United States of America,Texas,,Richardson
104.200.22.134,4,16,gooya.com,US,Americas,Northern America,United States of America,Texas,,Richardson
45.33.15.233,4,7,gotostcroix.com,US,Americas,Northern America,United States of America,Texas,,Richardson
69.164.204.88,4,24,gourmetgarlicgardens.com,US,Americas,Northern America,United States of America,Texas,,Richardson
69.164.201.160,4,9,graciemag.com,US,Americas,Northern America,United States of America,Texas,,Richardson
50.116.29.67,4,26,gramlee.com,US,Americas,Northern America,United States of America,Texas,,Richardson
45.56.121.215,4,3,greatday.com,US,Americas,Northern America,United States of America,Texas,,Richardson
104.200.21.227,4,31,greenwoodsoftware.com,US,Americas,Northern America,United States of America,Texas,,Richardson
96.126.125.168,4,5,ha.lc,US,Americas,Northern America,United States of America,Texas,,Richardson
45.79.41.201,4,7,hackedonlinegames.com,US,Americas,Northern America,United States of America,Texas,,Richardson
72.14.184.243,4,9,hard-core-dx.com,US,Americas,Northern America,United States of America,Texas,,Richardson
72.14.186.10,4,3,harnessracingforum.com,US,Americas,Northern America,United States of America,Texas,,Richardson
104.200.16.237,4,5,hartandcooley.com,US,Americas,Northern America,United States of America,Texas,,Richardson
23.239.26.119,4,4,healthandfitnessmagazine.co,US,Americas,Northern America,United States of America,Texas,,Richardson
198.58.115.180,4,3,healthfirstcolorado.com,US,Americas,Northern America,United States of America,Texas,,Richardson
45.33.16.112,4,3,heartwormsociety.org,US,Americas,Northern America,United States of America,Texas,,Richardson
198.58.111.239,4,4,hermannpark.org,US,Americas,Northern America,United States of America,Texas,,Richardson
23.239.29.217,4,629,hesk.com,US,Americas,Northern America,United States of America,Texas,,Richardson
50.116.31.226,4,4,hesketh.com,US,Americas,Northern America,United States of America,Texas,,Richardson
45.56.68.188,4,17,highonandroid.com,US,Americas,Northern America,United States of America,Texas,,Richardson
45.56.122.29,4,252352,hillstonenet.com,US,Americas,Northern America,United States of America,Texas,,Richardson
45.56.77.63,4,0,himeuta.org,US,Americas,Northern America,United States of America,Texas,,Richardson
45.79.17.106,4,5,hockeyshift.com,US,Americas,Northern America,United States of America,Texas,,Richardson
45.56.68.16,4,4,hockeyshift.com,US,Americas,Northern America,United States of America,Texas,,Richardson
23.239.27.250,4,7,homeinspectionforum.net,US,Americas,Northern America,United States of America,Texas,,Richardson
45.79.9.85,4,7,hometech.social,US,Americas,Northern America,United States of America,Texas,,Richardson
45.56.75.107,4,2,hondros.com,US,Americas,Northern America,United States of America,Texas,,Richardson
96.126.124.20,4,6,horsesidevetguide.com,US,Americas,Northern America,United States of America,Texas,,Richardson
45.56.66.75,4,20953,horseweb.com,US,Americas,Northern America,United States of America,Texas,,Richardson
198.58.106.231,4,175329,housedems.com,US,Americas,Northern America,United States of America,Texas,,Richardson
45.33.118.218,4,3,houstonfirst.com,US,Americas,Northern America,United States of America,Texas,,Richardson
198.58.101.76,4,10,howtostayfit.co,US,Americas,Northern America,United States of America,Texas,,Richardson
50.116.24.70,4,4,html-kit.com,US,Americas,Northern America,United States of America,Texas,,Richardson
104.237.129.192,4,15,hwtm.com,US,Americas,Northern America,United States of America,Texas,,Richardson
69.164.207.134,4,1153,hybridmlm.io,US,Americas,Northern America,United States of America,Texas,,Richardson
45.33.8.26,4,5872,i-mpr.com,US,Americas,Northern America,United States of America,Texas,,Richardson
172.104.192.204,4,12,iac.org,US,Americas,Northern America,United States of America,Texas,,Richardson
50.116.19.43,4,1200,iconsolutions360.com,US,Americas,Northern America,United States of America,Texas,,Richardson
45.79.26.6,4,26,icopybot.com,US,Americas,Northern America,United States of America,Texas,,Richardson
45.79.3.173,4,6,idealprotein.com,US,Americas,Northern America,United States of America,Texas,,Richardson
198.58.113.198,4,39,iloveuguys.org,US,Americas,Northern America,United States of America,Texas,,Richardson
198.58.122.160,4,8,imagemreleases.com,US,Americas,Northern America,United States of America,Texas,,Richardson
45.79.37.137,4,4,imagescape.com,US,Americas,Northern America,United States of America,Texas,,Richardson
45.33.26.63,4,13031,imperfectlyhappy.com,US,Americas,Northern America,United States of America,Texas,,Richardson
192.53.166.203,4,23,imxsnd23.com,US,Americas,Northern America,United States of America,Texas,,Richardson
45.33.8.217,4,21,imxsnd24.com,US,Americas,Northern America,United States of America,Texas,,Richardson
69.164.195.223,4,78,imxsnd27.com,US,Americas,Northern America,United States of America,Texas,,Richardson
104.237.128.119,4,172,imxsnd28.com,US,Americas,Northern America,United States of America,Texas,,Richardson
45.79.55.253,4,4,imxsnd29.com,US,Americas,Northern America,United States of America,Texas,,Richardson
45.79.49.92,4,37,inclusiveschools.org,US,Americas,Northern America,United States of America,Texas,,Richardson
45.56.73.44,4,7,indirect.com,US,Americas,Northern America,United States of America,Texas,,Richardson
72.14.177.20,4,7,indypgh.org,US,Americas,Northern America,United States of America,Texas,,Richardson
45.33.29.71,4,1,innerchildfun.com,US,Americas,Northern America,United States of America,Texas,,Richardson
45.56.70.104,4,50,insfollowup.com,US,Americas,Northern America,United States of America,Texas,,Richardson
50.116.28.67,4,35,intelliborn.com,US,Americas,Northern America,United States of America,Texas,,Richardson
72.14.185.50,4,26,internet4classrooms.com,US,Americas,Northern America,United States of America,Texas,,Richardson
104.237.139.8,4,12,intrastar.net,US,Americas,Northern America,United States of America,Texas,,Richardson
45.33.14.14,4,3,io2technology.com,US,Americas,Northern America,United States of America,Texas,,Richardson
198.58.112.156,4,-2,is-programmer.com,US,Americas,Northern America,United States of America,Texas,,Richardson
45.56.72.88,4,27,jake2701.net.au,US,Americas,Northern America,United States of America,Texas,,Richardson
23.239.24.27,4,11,james-taylor.com,US,Americas,Northern America,United States of America,Texas,,Richardson
45.79.62.51,4,2,jckonline.com,US,Americas,Northern America,United States of America,Texas,,Richardson
45.79.23.61,4,1,jeremiahproject.com,US,Americas,Northern America,United States of America,Texas,,Richardson
198.58.100.206,4,97,jerf.org,US,Americas,Northern America,United States of America,Texas,,Richardson
23.239.28.129,4,38455,jerseysbest.com,US,Americas,Northern America,United States of America,Texas,,Richardson
173.255.196.220,4,4,jessamyn.com,US,Americas,Northern America,United States of America,Texas,,Richardson
50.116.18.242,4,2,jonasautocars.com,US,Americas,Northern America,United States of America,Texas,,Richardson
104.237.136.245,4,20,jorts.horse,US,Americas,Northern America,United States of America,Texas,,Richardson
72.14.177.241,4,6,jpollackphoto.com,US,Americas,Northern America,United States of America,Texas,,Richardson
72.14.182.243,4,13,karaite-korner.org,US,Americas,Northern America,United States of America,Texas,,Richardson
104.200.20.169,4,0,kbeezie.com,US,Americas,Northern America,United States of America,Texas,,Richardson
23.239.31.192,4,4,kclibrary.org,US,Americas,Northern America,United States of America,Texas,,Richardson
173.255.200.232,4,23,ketoconnect.net,US,Americas,Northern America,United States of America,Texas,,Richardson
198.58.118.211,4,2,kickvick.com,US,Americas,Northern America,United States of America,Texas,,Richardson
69.164.205.41,4,4,kidrex.org,US,Americas,Northern America,United States of America,Texas,,Richardson
45.33.120.97,4,8619,kingtowel.com,US,Americas,Northern America,United States of America,Texas,,Richardson
104.200.23.170,4,29,knitty.com,US,Americas,Northern America,United States of America,Texas,,Richardson
45.79.9.66,4,3,kombuchabrewers.org,US,Americas,Northern America,United States of America,Texas,,Richardson
45.33.119.141,4,58,kombuchakamp.com,US,Americas,Northern America,United States of America,Texas,,Richardson
45.56.68.47,4,11,ksphy.org,US,Americas,Northern America,United States of America,Texas,,Richardson
45.79.62.213,4,3,laclerksofcourt.org,US,Americas,Northern America,United States of America,Texas,,Richardson
198.58.109.243,4,18,landmarks-stl.org,US,Americas,Northern America,United States of America,Texas,,Richardson
198.58.125.233,4,5,larkmead.com,US,Americas,Northern America,United States of America,Texas,,Richardson
198.58.117.144,4,25,latestbingobonuses.com,US,Americas,Northern America,United States of America,Texas,,Richardson
45.33.3.80,4,531451,lawnmowerforum.com,US,Americas,Northern America,United States of America,Texas,,Richardson
45.79.5.140,4,943177,lawschoolnumbers.com,US,Americas,Northern America,United States of America,Texas,,Richardson
50.116.23.192,4,4,lawterminology.net,US,Americas,Northern America,United States of America,Texas,,Richardson
72.14.185.115,4,5,lemanmanhattan.org,US,Americas,Northern America,United States of America,Texas,,Richardson
45.33.23.198,4,12,lemmy.pub,US,Americas,Northern America,United States of America,Texas,,Richardson
173.255.205.40,4,2,lemmy.radio,US,Americas,Northern America,United States of America,Texas,,Richardson
198.58.118.245,4,2,lender411.com,US,Americas,Northern America,United States of America,Texas,,Richardson
45.56.78.173,4,5,letseat.at,US,Americas,Northern America,United States of America,Texas,,Richardson
72.14.179.17,4,54,leuksman.com,US,Americas,Northern America,United States of America,Texas,,Richardson
96.126.124.44,4,-22,levien.com,US,Americas,Northern America,United States of America,Texas,,Richardson
173.255.205.88,4,16,libraryhost.com,US,Americas,Northern America,United States of America,Texas,,Richardson
192.53.162.101,4,608802,libre.computer,US,Americas,Northern America,United States of America,Texas,,Richardson
72.14.182.205,4,3,lingro.com,US,Americas,Northern America,United States of America,Texas,,Richardson
72.14.189.157,4,7,liveaboardvacation.com,US,Americas,Northern America,United States of America,Texas,,Richardson
45.33.18.240,4,56,livingwithbugs.com,US,Americas,Northern America,United States of America,Texas,,Richardson
72.14.183.224,4,2,loaches.com,US,Americas,Northern America,United States of America,Texas,,Richardson
45.33.30.181,4,28,localspins.com,US,Americas,Northern America,United States of America,Texas,,Richardson
50.116.27.112,4,38,lockwiki.com,US,Americas,Northern America,United States of America,Texas,,Richardson
198.58.123.78,4,8,lovetopivot.com,US,Americas,Northern America,United States of America,Texas,,Richardson
192.46.218.107,4,2,lovinah.com,US,Americas,Northern America,United States of America,Texas,,Richardson
198.58.113.99,4,6,lucknowescorts.co.in,US,Americas,Northern America,United States of America,Texas,,Richardson
104.237.128.32,4,35,lulzbot.com,US,Americas,Northern America,United States of America,Texas,,Richardson
104.237.141.246,4,1,m1911.org,US,Americas,Northern America,United States of America,Texas,,Richardson
45.79.13.155,4,20,macdroid.app,US,Americas,Northern America,United States of America,Texas,,Richardson
72.14.176.119,4,5,macopinion.com,US,Americas,Northern America,United States of America,Texas,,Richardson
45.33.17.119,4,0,macplay.com,US,Americas,Northern America,United States of America,Texas,,Richardson
45.79.44.16,4,34,magickitchen.com,US,Americas,Northern America,United States of America,Texas,,Richardson
198.58.101.194,4,827926,magikcommerce.com,US,Americas,Northern America,United States of America,Texas,,Richardson
45.79.17.167,4,5,mainelse.org,US,Americas,Northern America,United States of America,Texas,,Richardson
45.56.127.172,4,3,majadahondamagazin.es,US,Americas,Northern America,United States of America,Texas,,Richardson
104.237.134.92,4,62,makedeb.org,US,Americas,Northern America,United States of America,Texas,,Richardson
198.58.125.170,4,8,mamalisa.com,US,Americas,Northern America,United States of America,Texas,,Richardson
69.164.195.216,4,5,mario2020.com,US,Americas,Northern America,United States of America,Texas,,Richardson
66.228.48.61,4,5,markdownpad.com,US,Americas,Northern America,United States of America,Texas,,Richardson
66.228.54.174,4,7,markmaunder.com,US,Americas,Northern America,United States of America,Texas,,Richardson
198.58.106.195,4,32,masterthenec.com,US,Americas,Northern America,United States of America,Texas,,Richardson
45.79.240.90,4,5,matcherino.com,US,Americas,Northern America,United States of America,Texas,,Richardson
45.79.240.119,4,40,matcherino.com,US,Americas,Northern America,United States of America,Texas,,Richardson
45.79.242.58,4,18,matcherino.com,US,Americas,Northern America,United States of America,Texas,,Richardson
45.79.60.231,4,4,matcherino.com,US,Americas,Northern America,United States of America,Texas,,Richardson
198.58.121.243,4,12,matcherino.com,US,Americas,Northern America,United States of America,Texas,,Richardson
45.79.243.217,4,13,matcherino.com,US,Americas,Northern America,United States of America,Texas,,Richardson
45.79.242.64,4,13,matcherino.com,US,Americas,Northern America,United States of America,Texas,,Richardson
45.79.240.238,4,13,matcherino.com,US,Americas,Northern America,United States of America,Texas,,Richardson
45.79.241.90,4,1,matcherino.com,US,Americas,Northern America,United States of America,Texas,,Richardson
45.79.60.226,4,3,matcherino.com,US,Americas,Northern America,United States of America,Texas,,Richardson
45.79.61.126,4,4,matcherino.com,US,Americas,Northern America,United States of America,Texas,,Richardson
45.79.242.230,4,7,matcherino.com,US,Americas,Northern America,United States of America,Texas,,Richardson
45.79.60.202,4,2,matcherino.com,US,Americas,Northern America,United States of America,Texas,,Richardson
104.200.23.38,4,3,matcherino.com,US,Americas,Northern America,United States of America,Texas,,Richardson
45.79.60.68,4,5,matcherino.com,US,Americas,Northern America,United States of America,Texas,,Richardson
198.58.121.202,4,81,matcherino.com,US,Americas,Northern America,United States of America,Texas,,Richardson
45.79.61.87,4,3,matcherino.com,US,Americas,Northern America,United States of America,Texas,,Richardson
45.79.63.26,4,23,matcherino.com,US,Americas,Northern America,United States of America,Texas,,Richardson
45.79.240.112,4,2,matcherino.com,US,Americas,Northern America,United States of America,Texas,,Richardson
45.79.62.66,4,16,matcherino.com,US,Americas,Northern America,United States of America,Texas,,Richardson
198.58.126.97,4,30,mathmammoth.com,US,Americas,Northern America,United States of America,Texas,,Richardson
45.79.15.252,4,343,mccartney.com,US,Americas,Northern America,United States of America,Texas,,Richardson
104.237.131.42,4,1,measurement-factory.com,US,Americas,Northern America,United States of America,Texas,,Richardson
45.33.13.14,4,3,mediasmartserver.net,US,Americas,Northern America,United States of America,Texas,,Richardson
198.58.96.208,4,7,medymesh.com,US,Americas,Northern America,United States of America,Texas,,Richardson
104.237.128.92,4,154,merchantequip.com,US,Americas,Northern America,United States of America,Texas,,Richardson
72.14.188.201,4,13,mercopress.com,US,Americas,Northern America,United States of America,Texas,,Richardson
198.58.127.208,4,255,mercuryresearch.com,US,Americas,Northern America,United States of America,Texas,,Richardson
173.255.198.10,4,13,mgba.io,US,Americas,Northern America,United States of America,Texas,,Richardson
104.200.22.215,4,20,micro.blog,US,Americas,Northern America,United States of America,Texas,,Richardson
69.164.193.143,4,10,midwinter.com,US,Americas,Northern America,United States of America,Texas,,Richardson
45.33.31.25,4,5,missingremote.com,US,Americas,Northern America,United States of America,Texas,,Richardson
45.56.69.245,4,7,moabmusicfest.org,US,Americas,Northern America,United States of America,Texas,,Richardson
198.58.115.113,4,50,montanaangler.com,US,Americas,Northern America,United States of America,Texas,,Richardson
194.195.218.39,4,20,moodychurch.org,US,Americas,Northern America,United States of America,Texas,,Richardson
104.200.17.166,4,23,moregogiga.com,US,Americas,Northern America,United States of America,Texas,,Richardson
72.14.184.178,4,1878916,moreofit.com,US,Americas,Northern America,United States of America,Texas,,Richardson
45.79.31.233,4,-7659,moserengineering.com,US,Americas,Northern America,United States of America,Texas,,Richardson
50.116.22.234,4,9,msu.ac.zw,US,Americas,Northern America,United States of America,Texas,,Richardson
72.14.181.158,4,68,mudlet.org,US,Americas,Northern America,United States of America,Texas,,Richardson
72.14.176.142,4,2,mxdwn.com,US,Americas,Northern America,United States of America,Texas,,Richardson
198.58.97.164,4,26,myumi.ch,US,Americas,Northern America,United States of America,Texas,,Richardson
104.237.135.47,4,2,n5hme.net,US,Americas,Northern America,United States of America,Texas,,Richardson
198.58.106.10,4,185452,n9ink.net,US,Americas,Northern America,United States of America,Texas,,Richardson
45.56.123.251,4,2964,nagios-plugins.org,US,Americas,Northern America,United States of America,Texas,,Richardson
198.58.120.98,4,-34063,nagios.com,US,Americas,Northern America,United States of America,Texas,,Richardson
45.79.21.111,4,488009,nagios.org,US,Americas,Northern America,United States of America,Texas,,Richardson
45.56.70.77,4,2,nationalpolicyinstitute.org,US,Americas,Northern America,United States of America,Texas,,Richardson
45.79.31.149,4,4,nbp.org,US,Americas,Northern America,United States of America,Texas,,Richardson
198.58.116.74,4,5,ndclean.com,US,Americas,Northern America,United States of America,Texas,,Richardson
45.33.24.195,4,2,neareast.org,US,Americas,Northern America,United States of America,Texas,,Richardson
198.58.121.174,4,5,neighborhoodlink.com,US,Americas,Northern America,United States of America,Texas,,Richardson
45.33.15.80,4,494955,neosportsinsiders.com,US,Americas,Northern America,United States of America,Texas,,Richardson
45.33.118.110,4,5,netc.com,US,Americas,Northern America,United States of America,Texas,,Richardson
198.58.107.122,4,68,new2new.com,US,Americas,Northern America,United States of America,Texas,,Richardson
45.33.21.184,4,3,newgamenetwork.com,US,Americas,Northern America,United States of America,Texas,,Richardson
173.255.206.183,4,39,newocr.com,US,Americas,Northern America,United States of America,Texas,,Richardson
104.237.129.73,4,2,nicfit.net,US,Americas,Northern America,United States of America,Texas,,Richardson
45.33.17.69,4,4,nissansilvia.com,US,Americas,Northern America,United States of America,Texas,,Richardson
45.33.10.198,4,3,nixiediy.com,US,Americas,Northern America,United States of America,Texas,,Richardson
173.255.202.68,4,-14701,nokanitile.com,US,Americas,Northern America,United States of America,Texas,,Richardson
45.56.122.98,4,2,northernsun.com,US,Americas,Northern America,United States of America,Texas,,Richardson
45.56.71.66,4,20,novalauncher.com,US,Americas,Northern America,United States of America,Texas,,Richardson
50.116.27.244,4,1114552,oblong.com,US,Americas,Northern America,United States of America,Texas,,Richardson
198.58.102.38,4,668246,oblong.com,US,Americas,Northern America,United States of America,Texas,,Richardson
198.58.99.41,4,4,officialpsds.com,US,Americas,Northern America,United States of America,Texas,,Richardson
45.79.58.193,4,1,onelmon.com,US,Americas,Northern America,United States of America,Texas,,Richardson
45.79.21.66,4,6,onesaas.com,US,Americas,Northern America,United States of America,Texas,,Richardson
69.164.202.174,4,930785,opalstack.com,US,Americas,Northern America,United States of America,Texas,,Richardson
23.239.29.5,4,59,openspeedtest.com,US,Americas,Northern America,United States of America,Texas,,Richardson
45.33.11.152,4,3,optimusfutures.com,US,Americas,Northern America,United States of America,Texas,,Richardson
45.79.38.232,4,14,orgasmicchef.com,US,Americas,Northern America,United States of America,Texas,,Richardson
72.14.190.232,4,34,osdever.net,US,Americas,Northern America,United States of America,Texas,,Richardson
173.255.194.185,4,1044641,otakusoftware.com,US,Americas,Northern America,United States of America,Texas,,Richardson
45.79.38.58,4,2,pad19.com,US,Americas,Northern America,United States of America,Texas,,Richardson
172.105.136.245,4,1186,paginaswebschile.com,US,Americas,Northern America,United States of America,Texas,,Richardson
198.58.106.71,4,17,papercraftsquare.com,US,Americas,Northern America,United States of America,Texas,,Richardson
45.79.56.252,4,1507396,papersource.com,US,Americas,Northern America,United States of America,Texas,,Richardson
45.79.3.91,4,1102,paranoidproductions.com,US,Americas,Northern America,United States of America,Texas,,Richardson
50.116.28.149,4,11,parentingsquad.com,US,Americas,Northern America,United States of America,Texas,,Richardson
45.33.116.197,4,22,patternindy.com,US,Americas,Northern America,United States of America,Texas,,Richardson
198.58.96.217,4,7,pemachodronfoundation.org,US,Americas,Northern America,United States of America,Texas,,Richardson
69.164.197.216,4,47,pennherb.com,US,Americas,Northern America,United States of America,Texas,,Richardson
96.126.116.56,4,4,pentest-standard.org,US,Americas,Northern America,United States of America,Texas,,Richardson
173.255.196.65,4,58,perlmaven.com,US,Americas,Northern America,United States of America,Texas,,Richardson
50.116.19.197,4,25,persianfootball.com,US,Americas,Northern America,United States of America,Texas,,Richardson
45.79.49.240,4,17,personality-testing.info,US,Americas,Northern America,United States of America,Texas,,Richardson
45.33.25.170,4,1388,philipjohnsonglasshouse.org,US,Americas,Northern America,United States of America,Texas,,Richardson
66.228.54.180,4,14,piauihoje.com,US,Americas,Northern America,United States of America,Texas,,Richardson
69.164.204.168,4,3,picbackman.com,US,Americas,Northern America,United States of America,Texas,,Richardson
72.14.182.189,4,42,pidplates.us,US,Americas,Northern America,United States of America,Texas,,Richardson
66.228.55.224,4,22,plover.net,US,Americas,Northern America,United States of America,Texas,,Richardson
104.237.136.195,4,44,postaltimes.com,US,Americas,Northern America,United States of America,Texas,,Richardson
66.228.49.60,4,48,postcount.net,US,Americas,Northern America,United States of America,Texas,,Richardson
45.56.74.214,4,13,pr-agencia.com,US,Americas,Northern America,United States of America,Texas,,Richardson
104.237.128.178,4,51,princessleia.com,US,Americas,Northern America,United States of America,Texas,,Richardson
50.116.24.184,4,7,printglobe.com,US,Americas,Northern America,United States of America,Texas,,Richardson
45.79.241.242,4,53,pristineauction.com,US,Americas,Northern America,United States of America,Texas,,Richardson
198.58.124.137,4,7,productupload.com,US,Americas,Northern America,United States of America,Texas,,Richardson
72.14.190.203,4,85,profitablesites.net,US,Americas,Northern America,United States of America,Texas,,Richardson
198.58.125.43,4,2,prohockeyrumors.com,US,Americas,Northern America,United States of America,Texas,,Richardson
45.33.30.171,4,134,prolifedallas.org,US,Americas,Northern America,United States of America,Texas,,Richardson
45.33.124.34,4,10,pureintimacy.org,US,Americas,Northern America,United States of America,Texas,,Richardson
72.14.176.181,4,25,puremtgo.com,US,Americas,Northern America,United States of America,Texas,,Richardson
45.56.66.169,4,8,pvoutput.org,US,Americas,Northern America,United States of America,Texas,,Richardson
45.33.123.222,4,-19,pycrypto.org,US,Americas,Northern America,United States of America,Texas,,Richardson
96.126.125.117,4,4,pyropus.ca,US,Americas,Northern America,United States of America,Texas,,Richardson
104.237.143.20,4,8,pythonprogramming.net,US,Americas,Northern America,United States of America,Texas,,Richardson
45.33.11.26,4,17,quantifiedself.com,US,Americas,Northern America,United States of America,Texas,,Richardson
45.79.16.226,4,17,quickmeme.com,US,Americas,Northern America,United States of America,Texas,,Richardson
72.14.177.30,4,3,qumsiyeh.org,US,Americas,Northern America,United States of America,Texas,,Richardson
198.58.109.140,4,5,quotegarden.com,US,Americas,Northern America,United States of America,Texas,,Richardson
104.200.20.56,4,9,rcherz.com,US,Americas,Northern America,United States of America,Texas,,Richardson
45.56.120.29,4,7,rcherz.com,US,Americas,Northern America,United States of America,Texas,,Richardson
104.200.16.210,4,5,rcwarshipcombat.com,US,Americas,Northern America,United States of America,Texas,,Richardson
104.200.22.112,4,56,realtown.com,US,Americas,Northern America,United States of America,Texas,,Richardson
104.237.130.189,4,23,redsymbol.net,US,Americas,Northern America,United States of America,Texas,,Richardson
45.79.240.21,4,7,redwoodartgroup.com,US,Americas,Northern America,United States of America,Texas,,Richardson
198.58.110.40,4,1019665,refleqtion.net,US,Americas,Northern America,United States of America,Texas,,Richardson
198.58.122.158,4,54,refreshthing.com,US,Americas,Northern America,United States of America,Texas,,Richardson
198.58.122.144,4,56,regulardream.com,US,Americas,Northern America,United States of America,Texas,,Richardson
69.164.203.135,4,56,reinisfischer.com,US,Americas,Northern America,United States of America,Texas,,Richardson
45.33.127.173,4,56,relationships.com.au,US,Americas,Northern America,United States of America,Texas,,Richardson
45.79.20.199,4,44,releasespress.com,US,Americas,Northern America,United States of America,Texas,,Richardson
104.237.134.152,4,16,remodelingmagazine.co,US,Americas,Northern America,United States of America,Texas,,Richardson
139.144.37.159,4,81,resourcesforclients.com,US,Americas,Northern America,United States of America,Texas,,Richardson
173.255.202.211,4,-25,reusethisbag.com,US,Americas,Northern America,United States of America,Texas,,Richardson
45.79.24.64,4,27,revistadelauniversidad.mx,US,Americas,Northern America,United States of America,Texas,,Richardson
66.228.50.132,4,48,rinkworks.com,US,Americas,Northern America,United States of America,Texas,,Richardson
45.56.120.189,4,6,rmconservancy.org,US,Americas,Northern America,United States of America,Texas,,Richardson
198.58.105.110,4,45,rocksdigital.com,US,Americas,Northern America,United States of America,Texas,,Richardson
45.56.68.133,4,35,roguefab.com,US,Americas,Northern America,United States of America,Texas,,Richardson
104.237.134.14,4,56,rudisbakery.com,US,Americas,Northern America,United States of America,Texas,,Richardson
45.79.18.30,4,111,rusa.org,US,Americas,Northern America,United States of America,Texas,,Richardson
45.33.25.10,4,1661,russiahousenews.info,US,Americas,Northern America,United States of America,Texas,,Richardson
45.79.45.29,4,13,sacramentostepsforward.org,US,Americas,Northern America,United States of America,Texas,,Richardson
173.255.197.238,4,585374,sadio.org.ar,US,Americas,Northern America,United States of America,Texas,,Richardson
45.56.121.171,4,33,safetyinfo.com,US,Americas,Northern America,United States of America,Texas,,Richardson
104.237.137.108,4,29,salesbacker.com,US,Americas,Northern America,United States of America,Texas,,Richardson
172.104.199.67,4,34,salsa.net,US,Americas,Northern America,United States of America,Texas,,Richardson
69.164.194.224,4,11,sarecycling.com,US,Americas,Northern America,United States of America,Texas,,Richardson
72.14.182.240,4,8,savingseafood.org,US,Americas,Northern America,United States of America,Texas,,Richardson
72.14.185.244,4,12,sedition.com,US,Americas,Northern America,United States of America,Texas,,Richardson
45.33.13.195,4,1,seolium.com,US,Americas,Northern America,United States of America,Texas,,Richardson
45.79.36.240,4,16,severestudios.com,US,Americas,Northern America,United States of America,Texas,,Richardson
198.58.106.246,4,2,shapeof.com,US,Americas,Northern America,United States of America,Texas,,Richardson
104.200.22.101,4,12,shopwiki.com,US,Americas,Northern America,United States of America,Texas,,Richardson
45.56.64.120,4,1394,siebelinstitute.com,US,Americas,Northern America,United States of America,Texas,,Richardson
66.228.54.27,4,3,sijun.com,US,Americas,Northern America,United States of America,Texas,,Richardson
198.58.122.131,4,22,simplyplantbasedkitchen.com,US,Americas,Northern America,United States of America,Texas,,Richardson
45.79.13.43,4,25,skiinghistory.org,US,Americas,Northern America,United States of America,Texas,,Richardson
173.255.193.248,4,41,skunkapegames.com,US,Americas,Northern America,United States of America,Texas,,Richardson
69.164.198.123,4,2,sleders.com,US,Americas,Northern America,United States of America,Texas,,Richardson
45.33.3.184,4,939,smarterhomemaker.com,US,Americas,Northern America,United States of America,Texas,,Richardson
173.255.205.66,4,5,smnetwork.org,US,Americas,Northern America,United States of America,Texas,,Richardson
45.33.23.138,4,20,snook.ca,US,Americas,Northern America,United States of America,Texas,,Richardson
50.116.19.249,4,12,socialmediamarketing.net,US,Americas,Northern America,United States of America,Texas,,Richardson
72.14.189.204,4,14,solmar.com,US,Americas,Northern America,United States of America,Texas,,Richardson
96.126.123.175,4,44,sosuave.com,US,Americas,Northern America,United States of America,Texas,,Richardson
173.255.201.206,4,6,splitshire.com,US,Americas,Northern America,United States of America,Texas,,Richardson
45.33.6.223,4,4,sqlite.org,US,Americas,Northern America,United States of America,Texas,,Richardson
198.58.109.35,4,11,st162.net,US,Americas,Northern America,United States of America,Texas,,Richardson
45.33.29.21,4,4,stackideas.com,US,Americas,Northern America,United States of America,Texas,,Richardson
173.255.203.83,4,5,stepmania.com,US,Americas,Northern America,United States of America,Texas,,Richardson
104.200.18.250,4,21,sterba.com,US,Americas,Northern America,United States of America,Texas,,Richardson
192.53.161.222,4,43,stevenf.com,US,Americas,Northern America,United States of America,Texas,,Richardson
23.239.31.108,4,15,stopitnow.org,US,Americas,Northern America,United States of America,Texas,,Richardson
45.33.0.39,4,14,streaksapp.com,US,Americas,Northern America,United States of America,Texas,,Richardson
50.116.19.46,4,0,streamingradioguide.com,US,Americas,Northern America,United States of America,Texas,,Richardson
139.144.33.102,4,21,subwiki.org,US,Americas,Northern America,United States of America,Texas,,Richardson
96.126.119.56,4,19,superfeedr.com,US,Americas,Northern America,United States of America,Texas,,Richardson
23.239.28.6,4,4,supermechanical.com,US,Americas,Northern America,United States of America,Texas,,Richardson
66.228.49.164,4,13,suzukiassociation.org,US,Americas,Northern America,United States of America,Texas,,Richardson
45.79.20.235,4,30,talema.com,US,Americas,Northern America,United States of America,Texas,,Richardson
45.56.67.107,4,0,tallbergfoundation.org,US,Americas,Northern America,United States of America,Texas,,Richardson
45.56.74.76,4,2,tbaggery.com,US,Americas,Northern America,United States of America,Texas,,Richardson
198.58.122.110,4,5,tcrf.net,US,Americas,Northern America,United States of America,Texas,,Richardson
104.237.128.185,4,9,teachercreated.com,US,Americas,Northern America,United States of America,Texas,,Richardson
45.33.113.45,4,6,teamuse.com,US,Americas,Northern America,United States of America,Texas,,Richardson
173.255.205.56,4,37,techamerica.org,US,Americas,Northern America,United States of America,Texas,,Richardson
45.79.58.52,4,484,techibhai.com,US,Americas,Northern America,United States of America,Texas,,Richardson
45.79.40.42,4,56,techjeny.org,US,Americas,Northern America,United States of America,Texas,,Richardson
104.200.22.214,4,84,technovia.co.uk,US,Americas,Northern America,United States of America,Texas,,Richardson
104.200.17.155,4,4,terminalreality.com,US,Americas,Northern America,United States of America,Texas,,Richardson
72.14.181.48,4,18,terpenesandtesting.com,US,Americas,Northern America,United States of America,Texas,,Richardson
96.126.119.157,4,1,tfwiki.net,US,Americas,Northern America,United States of America,Texas,,Richardson
104.237.132.94,4,21,theautochannel.com,US,Americas,Northern America,United States of America,Texas,,Richardson
198.58.117.90,4,14,thebigfatindianwedding.com,US,Americas,Northern America,United States of America,Texas,,Richardson
45.79.0.246,4,7,thedomainfo.com,US,Americas,Northern America,United States of America,Texas,,Richardson
50.116.21.196,4,4,theidiotboard.com,US,Americas,Northern America,United States of America,Texas,,Richardson
198.58.115.186,4,2,theitmom.com,US,Americas,Northern America,United States of America,Texas,,Richardson
72.14.187.203,4,75,thelpa.com,US,Americas,Northern America,United States of America,Texas,,Richardson
23.239.29.245,4,29,theorica.net,US,Americas,Northern America,United States of America,Texas,,Richardson
45.33.16.57,4,2,theradavist.com,US,Americas,Northern America,United States of America,Texas,,Richardson
198.58.115.138,4,20,thetruckersreport.com,US,Americas,Northern America,United States of America,Texas,,Richardson
198.58.116.172,4,2,thisissand.com,US,Americas,Northern America,United States of America,Texas,,Richardson
45.33.21.47,4,31,thisweekmagazine.net,US,Americas,Northern America,United States of America,Texas,,Richardson
192.46.216.86,4,15,thlib.org,US,Americas,Northern America,United States of America,Texas,,Richardson
45.33.120.245,4,2,thorlaser.com,US,Americas,Northern America,United States of America,Texas,,Richardson
50.116.30.146,4,5,tiempo.com.mx,US,Americas,Northern America,United States of America,Texas,,Richardson
45.79.4.50,4,33504,timba.com,US,Americas,Northern America,United States of America,Texas,,Richardson
173.255.196.131,4,12,tompreuss.com,US,Americas,Northern America,United States of America,Texas,,Richardson
96.126.123.222,4,33,toptensoftware.com,US,Americas,Northern America,United States of America,Texas,,Richardson
192.53.171.135,4,10,topwin-movie-maker.com,US,Americas,Northern America,United States of America,Texas,,Richardson
45.79.34.102,4,7,torremolinos.es,US,Americas,Northern America,United States of America,Texas,,Richardson
69.164.197.149,4,17,torrenteditor.com,US,Americas,Northern America,United States of America,Texas,,Richardson
45.79.61.219,4,12,toshiba.com,US,Americas,Northern America,United States of America,Texas,,Richardson
45.79.19.245,4,24,totallyfreecursors.com,US,Americas,Northern America,United States of America,Texas,,Richardson
172.104.198.30,4,24,tothepc.com,US,Americas,Northern America,United States of America,Texas,,Richardson
198.58.112.151,4,21,tourneyx.com,US,Americas,Northern America,United States of America,Texas,,Richardson
198.58.121.38,4,2,townsendpress.com,US,Americas,Northern America,United States of America,Texas,,Richardson
198.58.113.87,4,5,trackscoreboard.com,US,Americas,Northern America,United States of America,Texas,,Richardson
45.33.14.183,4,8,tractorbynet.com,US,Americas,Northern America,United States of America,Texas,,Richardson
45.79.17.219,4,2,tradeboss.com,US,Americas,Northern America,United States of America,Texas,,Richardson
45.33.28.100,4,21,traffictravis.com,US,Americas,Northern America,United States of America,Texas,,Richardson
45.56.66.13,4,14,trailersfromhell.com,US,Americas,Northern America,United States of America,Texas,,Richardson
45.33.21.22,4,8,traqq.com,US,Americas,Northern America,United States of America,Texas,,Richardson
45.79.62.91,4,3,truthunity.net,US,Americas,Northern America,United States of America,Texas,,Richardson
45.79.6.168,4,4,trypyramid.com,US,Americas,Northern America,United States of America,Texas,,Richardson
45.79.4.138,4,1,turtlapp.com,US,Americas,Northern America,United States of America,Texas,,Richardson
69.164.199.209,4,0,twitthis.com,US,Americas,Northern America,United States of America,Texas,,Richardson
45.33.112.20,4,4,txdirectory.com,US,Americas,Northern America,United States of America,Texas,,Richardson
23.239.27.39,4,4,txhighschoolbaseball.com,US,Americas,Northern America,United States of America,Texas,,Richardson
104.237.128.147,4,5,ubuntu-user.com,US,Americas,Northern America,United States of America,Texas,,Richardson
198.58.116.108,4,0,ukadslist.com,US,Americas,Northern America,United States of America,Texas,,Richardson
45.79.2.43,4,3,ukhour.com,US,Americas,Northern America,United States of America,Texas,,Richardson
45.33.29.10,4,7,umchohio.org,US,Americas,Northern America,United States of America,Texas,,Richardson
45.79.27.221,4,7,ump-attire.com,US,Americas,Northern America,United States of America,Texas,,Richardson
45.79.8.147,4,16,usdictionary.com,US,Americas,Northern America,United States of America,Texas,,Richardson
45.56.79.157,4,1,uswebsites.com,US,Americas,Northern America,United States of America,Texas,,Richardson
45.79.43.199,4,8,vacuumstorage.org,US,Americas,Northern America,United States of America,Texas,,Richardson
173.255.203.101,4,4,vailhealth.org,US,Americas,Northern America,United States of America,Texas,,Richardson
69.164.195.86,4,4,varyingvagrantvagrants.org,US,Americas,Northern America,United States of America,Texas,,Richardson
173.255.202.51,4,38,vergenet.net,US,Americas,Northern America,United States of America,Texas,,Richardson
96.126.114.227,4,5,veritablevegetable.com,US,Americas,Northern America,United States of America,Texas,,Richardson
45.33.126.113,4,22,vertebra.tech,US,Americas,Northern America,United States of America,Texas,,Richardson
72.14.189.39,4,400,vhdl.org,US,Americas,Northern America,United States of America,Texas,,Richardson
23.239.28.75,4,10,vidalista.us,US,Americas,Northern America,United States of America,Texas,,Richardson
66.228.54.105,4,2,videosift.com,US,Americas,Northern America,United States of America,Texas,,Richardson
69.164.203.98,4,23,viejas.com,US,Americas,Northern America,United States of America,Texas,,Richardson
198.58.121.248,4,15,viewshoot.com,US,Americas,Northern America,United States of America,Texas,,Richardson
45.79.25.59,4,19,viewvc.org,US,Americas,Northern America,United States of America,Texas,,Richardson
139.144.36.136,4,3,vigoritout.com,US,Americas,Northern America,United States of America,Texas,,Richardson
45.79.45.169,4,28,visitnc.com,US,Americas,Northern America,United States of America,Texas,,Richardson
45.33.15.224,4,115,votechaseoliver.com,US,Americas,Northern America,United States of America,Texas,,Richardson
50.116.26.83,4,1985,vulcantermite.com,US,Americas,Northern America,United States of America,Texas,,Richardson
45.79.47.151,4,3,watch-movies.net.in,US,Americas,Northern America,United States of America,Texas,,Richardson
45.79.59.187,4,570,wavercard.com,US,Americas,Northern America,United States of America,Texas,,Richardson
23.239.24.138,4,106157,weightcrafters.com,US,Americas,Northern America,United States of America,Texas,,Richardson
96.126.126.33,4,2,wendycarlos.com,US,Americas,Northern America,United States of America,Texas,,Richardson
96.126.118.6,4,5,whilehewasnapping.com,US,Americas,Northern America,United States of America,Texas,,Richardson
45.56.72.243,4,68,wikem.org,US,Americas,Northern America,United States of America,Texas,,Richardson
173.255.192.109,4,1,winstall.app,US,Americas,Northern America,United States of America,Texas,,Richardson
45.56.123.165,4,19,wintec.cl,US,Americas,Northern America,United States of America,Texas,,Richardson
66.228.50.223,4,4,wizardofodds.com,US,Americas,Northern America,United States of America,Texas,,Richardson
198.58.125.129,4,5,wizardofvegas.com,US,Americas,Northern America,United States of America,Texas,,Richardson
45.79.21.110,4,915274,wordcounttool.com,US,Americas,Northern America,United States of America,Texas,,Richardson
72.14.176.73,4,4,worldcasinodirectory.com,US,Americas,Northern America,United States of America,Texas,,Richardson
96.126.112.91,4,10,worldtattooevents.com,US,Americas,Northern America,United States of America,Texas,,Richardson
45.56.65.198,4,2,wpamanuke.com,US,Americas,Northern America,United States of America,Texas,,Richardson
45.79.24.154,4,12,wpmyweb.com,US,Americas,Northern America,United States of America,Texas,,Richardson
45.79.8.94,4,10,wpthemes.info,US,Americas,Northern America,United States of America,Texas,,Richardson
45.56.127.148,4,7,writemyassignment.uk,US,Americas,Northern America,United States of America,Texas,,Richardson
45.33.11.114,4,2,x-callback-url.com,US,Americas,Northern America,United States of America,Texas,,Richardson
23.239.31.52,4,2,xbrl.org,US,Americas,Northern America,United States of America,Texas,,Richardson
45.79.7.94,4,4,xenaddons.com,US,Americas,Northern America,United States of America,Texas,,Richardson
50.116.30.97,4,8,xphomestation.com,US,Americas,Northern America,United States of America,Texas,,Richardson
50.116.16.213,4,1,yabstadigital.com,US,Americas,Northern America,United States of America,Texas,,Richardson
45.33.19.124,4,1,yapcna.org,US,Americas,Northern America,United States of America,Texas,,Richardson
45.33.124.144,4,7084,yocantech.com,US,Americas,Northern America,United States of America,Texas,,Richardson
45.33.20.113,4,25,yourfavoritecrafts.com,US,Americas,Northern America,United States of America,Texas,,Richardson
45.33.122.82,4,725,yumachamber.org,US,Americas,Northern America,United States of America,Texas,,Richardson
45.56.77.136,4,-361,zacklinedinst.com,US,Americas,Northern America,United States of America,Texas,,Richardson
69.164.198.18,4,12,zacsgarden.com,US,Americas,Northern America,United States of America,Texas,,Richardson
45.56.67.39,4,7,zandronum.com,US,Americas,Northern America,United States of America,Texas,,Richardson
23.239.25.127,4,11,zengobi.com,US,Americas,Northern America,United States of America,Texas,,Richardson
45.56.79.167,4,22,ziggymarley.com,US,Americas,Northern America,United States of America,Texas,,Richardson
50.116.24.99,4,9,zona-militar.com,US,Americas,Northern America,United States of America,Texas,,Richardson
50.116.25.181,4,3,zophar.net,US,Americas,Northern America,United States of America,Texas,,Richardson
69.164.197.204,4,2,zork.net,US,Americas,Northern America,United States of America,Texas,,Richardson
66.228.55.6,4,3,zreomusic.com,US,Americas,Northern America,United States of America,Texas,,Richardson
45.79.19.196,4,3,zurkizoena.info,US,Americas,Northern America,United States of America,Texas,,Richardson
72.14.178.174,4,0,zurkizoena.info,US,Americas,Northern America,United States of America,Texas,,Richardson
72.14.185.43,4,5,zurkizoena.info,US,Americas,Northern America,United States of America,Texas,,Richardson
173.255.194.134,4,4,zurkizoena.info,US,Americas,Northern America,United States of America,Texas,,Richardson
45.33.18.44,4,4,zurkizoena.info,US,Americas,Northern America,United States of America,Texas,,Richardson
45.33.2.79,4,2,zurkizoena.info,US,Americas,Northern America,United States of America,Texas,,Richardson
45.56.79.23,4,3,zurkizoena.info,US,Americas,Northern America,United States of America,Texas,,Richardson
45.33.30.197,4,2,zurkizoena.info,US,Americas,Northern America,United States of America,Texas,,Richardson
45.33.20.235,4,3,zurkizoena.info,US,Americas,Northern America,United States of America,Texas,,Richardson
45.33.23.183,4,4,zurkizoena.info,US,Americas,Northern America,United States of America,Texas,,Richardson
198.58.118.167,4,0,zurkizoena.info,US,Americas,Northern America,United States of America,Texas,,Richardson
96.126.123.244,4,4,zurkizoena.info,US,Americas,Northern America,United States of America,Texas,,Richardson
