reflector_ip,ip_version,offset,description,country_code,region,sub_region,country_name,sub_division_1,sub_division_2,city
192.250.227.49,4,9,101lasttribes.com,US,Americas,Northern America,United States of America,Texas,,Dallas
104.238.147.1,4,3,120businesslisting.com,US,Americas,Northern America,United States of America,Texas,,Dallas
104.238.145.57,4,4,1km1kt.net,US,Americas,Northern America,United States of America,Texas,,Dallas
216.245.212.212,4,5,3dgames.com.ar,US,Americas,Northern America,United States of America,Texas,,Dallas
23.236.180.254,4,-2,911parrotalert.com,US,Americas,Northern America,United States of America,Texas,,Dallas
174.36.71.106,4,5,abidjan.net,US,Americas,Northern America,United States of America,Texas,,Dallas
144.202.70.139,4,41,abroadeducation.com.np,US,Americas,Northern America,United States of America,Texas,,Dallas
207.148.5.154,4,10,absolutelyelitellc.org,US,Americas,Northern America,United States of America,Texas,,Dallas
170.130.40.51,4,5,abyssmedia.com,US,Americas,Northern America,United States of America,Texas,,Dallas
104.156.237.201,4,2,accessstaffing.com,US,Americas,Northern America,United States of America,Texas,,Dallas
173.237.189.232,4,16,acls-pals-bls.com,US,Americas,Northern America,United States of America,Texas,,Dallas
192.138.210.104,4,4919426,actforlibraries.org,US,Americas,Northern America,United States of America,Texas,,Dallas
192.243.106.12,4,6,actualized.org,US,Americas,Northern America,United States of America,Texas,,Dallas
23.38.84.123,4,7,addthis.com,US,Americas,Northern America,United States of America,Texas,,Dallas
208.115.204.86,4,37,adspeed.com,US,Americas,Northern America,United States of America,Texas,,Dallas
173.237.189.114,4,-2765,afrimma.com,US,Americas,Northern America,United States of America,Texas,,Dallas
169.53.40.82,4,0,aihelp.net,US,Americas,Northern America,United States of America,Texas,,Dallas
173.237.185.157,4,7,alayahotels.com,US,Americas,Northern America,United States of America,Texas,,Dallas
172.93.50.103,4,-402534,alertra.com,US,Americas,Northern America,United States of America,Texas,,Dallas
198.252.105.123,4,50,alfintechcomputer.com,US,Americas,Northern America,United States of America,Texas,,Dallas
107.174.239.38,4,-3,almoheet-travel.com,US,Americas,Northern America,United States of America,Texas,,Dallas
107.155.93.242,4,607,alpha-sports.com,US,Americas,Northern America,United States of America,Texas,,Dallas
69.42.50.21,4,21951,alphavilleherald.com,US,Americas,Northern America,United States of America,Texas,,Dallas
31.172.69.183,4,7,alumnius.net,US,Americas,Northern America,United States of America,Texas,,Dallas
69.162.124.20,4,28,amazeheaters.com,US,Americas,Northern America,United States of America,Texas,,Dallas
23.29.117.34,4,593,americanhotels.co,US,Americas,Northern America,United States of America,Texas,,Dallas
69.162.86.46,4,2,ammonnews.net,US,Americas,Northern America,United States of America,Texas,,Dallas
138.128.244.124,4,33,ancient-hebrew.org,US,Americas,Northern America,United States of America,Texas,,Dallas
192.243.105.162,4,457,anvilfire.com,US,Americas,Northern America,United States of America,Texas,,Dallas
107.175.242.248,4,-3,aparoxil.com,US,Americas,Northern America,United States of America,Texas,,Dallas
170.130.40.160,4,4,archontology.org,US,Americas,Northern America,United States of America,Texas,,Dallas
172.96.136.145,4,-3,ashlynai.com,US,Americas,Northern America,United States of America,Texas,,Dallas
216.144.248.165,4,11,ashokafootwear.in,US,Americas,Northern America,United States of America,Texas,,Dallas
107.191.55.171,4,1,asianfucked.com,US,Americas,Northern America,United States of America,Texas,,Dallas
74.63.237.22,4,14,assawsana.com,US,Americas,Northern America,United States of America,Texas,,Dallas
149.28.248.61,4,3,astrolibrary.org,US,Americas,Northern America,United States of America,Texas,,Dallas
69.162.95.26,4,11,atlanticotower.com.br,US,Americas,Northern America,United States of America,Texas,,Dallas
192.250.227.30,4,18,atlasofscience.org,US,Americas,Northern America,United States of America,Texas,,Dallas
169.48.178.40,4,5,attendize.com,US,Americas,Northern America,United States of America,Texas,,Dallas
192.252.223.98,4,16,authorlink.com,US,Americas,Northern America,United States of America,Texas,,Dallas
64.235.35.114,4,9,autismone.org,US,Americas,Northern America,United States of America,Texas,,Dallas
23.227.180.18,4,175,avatarmaker.com,US,Americas,Northern America,United States of America,Texas,,Dallas
155.138.254.229,4,4,awkwardtv.org,US,Americas,Northern America,United States of America,Texas,,Dallas
144.168.45.130,4,3743247,bankwithsouthern.com,US,Americas,Northern America,United States of America,Texas,,Dallas
155.138.242.193,4,3,barackobamaisyournewbicycle.com,US,Americas,Northern America,United States of America,Texas,,Dallas
107.173.125.129,4,-4,baragacounty.org,US,Americas,Northern America,United States of America,Texas,,Dallas
104.129.131.143,4,25,bareket-astro.com,US,Americas,Northern America,United States of America,Texas,,Dallas
184.105.130.104,4,62,baycongroup.com,US,Americas,Northern America,United States of America,Texas,,Dallas
45.32.196.45,4,45,behaviorismandmentalhealth.com,US,Americas,Northern America,United States of America,Texas,,Dallas
216.245.219.131,4,4,bellapierre.com,US,Americas,Northern America,United States of America,Texas,,Dallas
104.225.223.247,4,7,bellpolicy.org,US,Americas,Northern America,United States of America,Texas,,Dallas
192.243.105.158,4,1585,bfe.org,US,Americas,Northern America,United States of America,Texas,,Dallas
69.162.119.186,4,4,biblebrowser.com,US,Americas,Northern America,United States of America,Texas,,Dallas
192.169.83.211,4,9,biblehub.com,US,Americas,Northern America,United States of America,Texas,,Dallas
23.227.169.87,4,5,biologyreference.com,US,Americas,Northern America,United States of America,Texas,,Dallas
184.105.130.70,4,60,blackalicious.com,US,Americas,Northern America,United States of America,Texas,,Dallas
207.148.2.117,4,17,blendwithspices.com,US,Americas,Northern America,United States of America,Texas,,Dallas
23.29.123.122,4,32,blueletterbible.org,US,Americas,Northern America,United States of America,Texas,,Dallas
192.227.249.200,4,11,boilingsteam.com,US,Americas,Northern America,United States of America,Texas,,Dallas
192.169.84.3,4,28,brodix.com,US,Americas,Northern America,United States of America,Texas,,Dallas
149.28.246.62,4,4,bubbasjunkremoval.com,US,Americas,Northern America,United States of America,Texas,,Dallas
192.250.227.150,4,6,budapest.com,US,Americas,Northern America,United States of America,Texas,,Dallas
199.181.238.254,4,25,buffaloairways.com,US,Americas,Northern America,United States of America,Texas,,Dallas
104.225.141.39,4,29,caissa.com,US,Americas,Northern America,United States of America,Texas,,Dallas
108.168.254.49,4,82,calendarwiz.com,US,Americas,Northern America,United States of America,Texas,,Dallas
45.67.87.83,4,18,cambrian.social,US,Americas,Northern America,United States of America,Texas,,Dallas
107.155.84.230,4,14,camerabits.com,US,Americas,Northern America,United States of America,Texas,,Dallas
23.227.186.178,4,4,canyonchasers.net,US,Americas,Northern America,United States of America,Texas,,Dallas
137.220.48.171,4,9,careerlink.com,US,Americas,Northern America,United States of America,Texas,,Dallas
98.142.105.26,4,-182,casastoantonio.com.br,US,Americas,Northern America,United States of America,Texas,,Dallas
192.154.227.174,4,2,catholicinsight.com,US,Americas,Northern America,United States of America,Texas,,Dallas
107.181.135.18,4,8,cejamericas.org,US,Americas,Northern America,United States of America,Texas,,Dallas
63.143.45.210,4,171,celebrateyoga.org,US,Americas,Northern America,United States of America,Texas,,Dallas
169.60.242.85,4,4,cghr.org,US,Americas,Northern America,United States of America,Texas,,Dallas
23.227.169.78,4,4,chemistryexplained.com,US,Americas,Northern America,United States of America,Texas,,Dallas
192.250.227.11,4,6,chilebesttour.com,US,Americas,Northern America,United States of America,Texas,,Dallas
147.124.213.100,4,5,chitgoks.com,US,Americas,Northern America,United States of America,Texas,,Dallas
149.28.245.98,4,1,citationvault.com,US,Americas,Northern America,United States of America,Texas,,Dallas
184.105.130.90,4,118,clear-creek.co.us,US,Americas,Northern America,United States of America,Texas,,Dallas
23.92.79.106,4,13,clipartof.com,US,Americas,Northern America,United States of America,Texas,,Dallas
107.155.112.214,4,7,codexcoder.com,US,Americas,Northern America,United States of America,Texas,,Dallas
104.237.3.177,4,4,comfortinstitute.org,US,Americas,Northern America,United States of America,Texas,,Dallas
184.105.129.11,4,47,communitycurrency.org,US,Americas,Northern America,United States of America,Texas,,Dallas
104.225.208.45,4,13,consumeractionlawgroup.com,US,Americas,Northern America,United States of America,Texas,,Dallas
23.150.248.43,4,12,conventioncalendar.com,US,Americas,Northern America,United States of America,Texas,,Dallas
192.169.82.26,4,63,corksport.com,US,Americas,Northern America,United States of America,Texas,,Dallas
173.237.189.241,4,5,cpiml.org,US,Americas,Northern America,United States of America,Texas,,Dallas
147.124.215.113,4,3,creedglobal.com,US,Americas,Northern America,United States of America,Texas,,Dallas
38.86.32.67,4,30,culturedfocusnetwork.com,US,Americas,Northern America,United States of America,Texas,,Dallas
151.101.112.133,4,4,czilla.cz,US,Americas,Northern America,United States of America,Texas,,Dallas
23.227.185.228,4,3,dailymom.com,US,Americas,Northern America,United States of America,Texas,,Dallas
38.147.122.84,4,0,darkmail.info,US,Americas,Northern America,United States of America,Texas,,Dallas
108.181.158.101,4,14,darkschemedirectory.com,US,Americas,Northern America,United States of America,Texas,,Dallas
184.105.135.141,4,24,derechos.org,US,Americas,Northern America,United States of America,Texas,,Dallas
104.156.237.109,4,129,devhood.com,US,Americas,Northern America,United States of America,Texas,,Dallas
192.3.231.193,4,-2,dig.do,US,Americas,Northern America,United States of America,Texas,,Dallas
144.202.69.83,4,21,dixie-net.com,US,Americas,Northern America,United States of America,Texas,,Dallas
172.99.148.44,4,5,diyquickly.com,US,Americas,Northern America,United States of America,Texas,,Dallas
72.180.196.167,4,2938,DNS Server: 072-180-196-167.res.spectrum.com,US,Americas,Northern America,United States of America,Texas,,Dallas
97.99.67.22,4,24961,DNS Server: 097-099-067-022.res.spectrum.com,US,Americas,Northern America,United States of America,Texas,,Dallas
69.162.95.18,4,5,DNS Server: 18-95-162-69.static.reverse.lstn.net,US,Americas,Northern America,United States of America,Texas,,Dallas
45.19.254.97,4,73,DNS Server: 45-19-254-97.lightspeed.rcsntx.sbcglobal.net,US,Americas,Northern America,United States of America,Texas,,Dallas
161.129.182.92,4,85,DNS Server: bloom.host,US,Americas,Northern America,United States of America,Texas,,Dallas
64.31.5.1,4,348552,DNS Server: cns1.lstn.net,US,Americas,Northern America,United States of America,Texas,,Dallas
173.172.130.121,4,-25169,DNS Server: cpe-173-172-130-121.tx.res.rr.com,US,Americas,Northern America,United States of America,Texas,,Dallas
76.183.1.236,4,2,DNS Server: cpe-76-183-1-236.tx.res.rr.com,US,Americas,Northern America,United States of America,Texas,,Dallas
76.183.3.54,4,3,DNS Server: cpe-76-183-3-54.tx.res.rr.com,US,Americas,Northern America,United States of America,Texas,,Dallas
4.15.47.222,4,8,DNS Server: HYPERCORE-N.ear3.Dallas1.Level3.net,US,Americas,Northern America,United States of America,Texas,,Dallas
198.12.71.224,4,294,DNS Server: rack198-12-71-224dal.dmzdns.com,US,Americas,Northern America,United States of America,Texas,,Dallas
71.40.38.34,4,83263,DNS Server: rrcs-71-40-38-34.sw.biz.rr.com,US,Americas,Northern America,United States of America,Texas,,Dallas
108.181.102.202,4,2,dohtheme.com,US,Americas,Northern America,United States of America,Texas,,Dallas
192.154.229.2,4,-222,donsbulbs.com,US,Americas,Northern America,United States of America,Texas,,Dallas
192.3.160.104,4,1,dqbooks.com,US,Americas,Northern America,United States of America,Texas,,Dallas
192.92.237.252,4,12546,dstarusers.org,US,Americas,Northern America,United States of America,Texas,,Dallas
170.39.213.144,4,-672,dutable.com,US,Americas,Northern America,United States of America,Texas,,Dallas
108.168.254.27,4,4,dwaynesphoto.com,US,Americas,Northern America,United States of America,Texas,,Dallas
23.145.80.19,4,2,eatingvibrantly.com,US,Americas,Northern America,United States of America,Texas,,Dallas
208.43.39.229,4,25,ebroadcast.com.au,US,Americas,Northern America,United States of America,Texas,,Dallas
23.95.92.5,4,134,ecoleagape.com,US,Americas,Northern America,United States of America,Texas,,Dallas
192.250.227.25,4,45,elmundo-eldia.com,US,Americas,Northern America,United States of America,Texas,,Dallas
63.250.55.81,4,7,embeddedgurus.com,US,Americas,Northern America,United States of America,Texas,,Dallas
64.44.157.149,4,39,emergencyroomnearme.org,US,Americas,Northern America,United States of America,Texas,,Dallas
144.202.78.16,4,1,emmaus.edu,US,Americas,Northern America,United States of America,Texas,,Dallas
104.200.159.141,4,6,enewschannels.com,US,Americas,Northern America,United States of America,Texas,,Dallas
162.213.196.2,4,2,essaysservice.com,US,Americas,Northern America,United States of America,Texas,,Dallas
23.227.169.75,4,7,everyculture.com,US,Americas,Northern America,United States of America,Texas,,Dallas
216.173.113.253,4,17,f1racing.net,US,Americas,Northern America,United States of America,Texas,,Dallas
144.202.75.132,4,2,fahrenheitmagazine.com,US,Americas,Northern America,United States of America,Texas,,Dallas
45.43.3.15,4,42,falstad.com,US,Americas,Northern America,United States of America,Texas,,Dallas
173.237.190.193,4,-70699,fanciers.com,US,Americas,Northern America,United States of America,Texas,,Dallas
184.105.132.107,4,10,fanpop.com,US,Americas,Northern America,United States of America,Texas,,Dallas
199.231.164.68,4,6,faqs.org,US,Americas,Northern America,United States of America,Texas,,Dallas
209.58.150.131,4,472,fatfreekitchen.com,US,Americas,Northern America,United States of America,Texas,,Dallas
23.227.169.71,4,30,filmreference.com,US,Americas,Northern America,United States of America,Texas,,Dallas
172.96.138.245,4,5,fison.com,US,Americas,Northern America,United States of America,Texas,,Dallas
174.37.18.97,4,5,flaglermuseum.us,US,Americas,Northern America,United States of America,Texas,,Dallas
172.83.152.141,4,7,flbook.com.cn,US,Americas,Northern America,United States of America,Texas,,Dallas
23.227.169.90,4,68,foodbycountry.com,US,Americas,Northern America,United States of America,Texas,,Dallas
155.138.240.96,4,6,fordsix.com,US,Americas,Northern America,United States of America,Texas,,Dallas
23.92.79.38,4,-14240257,forgifs.com,US,Americas,Northern America,United States of America,Texas,,Dallas
104.254.129.131,4,15,freegames.ws,US,Americas,Northern America,United States of America,Texas,,Dallas
181.215.49.64,4,26,frustratedgamers.com,US,Americas,Northern America,United States of America,Texas,,Dallas
45.41.52.101,4,4,fuck.markets,US,Americas,Northern America,United States of America,Texas,,Dallas
144.202.65.58,4,-177,fusionpbx.com,US,Americas,Northern America,United States of America,Texas,,Dallas
69.162.78.66,4,215,futaba.com,US,Americas,Northern America,United States of America,Texas,,Dallas
23.227.161.186,4,2,gabrian.com,US,Americas,Northern America,United States of America,Texas,,Dallas
198.252.105.88,4,25,gadgetsin.com,US,Americas,Northern America,United States of America,Texas,,Dallas
31.172.79.124,4,3,gadwin.com,US,Americas,Northern America,United States of America,Texas,,Dallas
45.32.205.144,4,14,galacticsurf.com,US,Americas,Northern America,United States of America,Texas,,Dallas
66.206.18.218,4,866,galaxysites.org,US,Americas,Northern America,United States of America,Texas,,Dallas
198.252.105.92,4,2,galwayindependent.com,US,Americas,Northern America,United States of America,Texas,,Dallas
79.141.173.102,4,5,gambody.com,US,Americas,Northern America,United States of America,Texas,,Dallas
107.155.71.110,4,24,gamesquad.com,US,Americas,Northern America,United States of America,Texas,,Dallas
38.18.231.247,4,19,gawlah.com,US,Americas,Northern America,United States of America,Texas,,Dallas
74.63.218.26,4,9,gerasanews.com,US,Americas,Northern America,United States of America,Texas,,Dallas
45.32.205.58,4,2,germany-christmas-market.org.uk,US,Americas,Northern America,United States of America,Texas,,Dallas
107.172.93.136,4,37,get77.mobi,US,Americas,Northern America,United States of America,Texas,,Dallas
107.155.71.140,4,-2,gigapros.com,US,Americas,Northern America,United States of America,Texas,,Dallas
155.94.253.100,4,38,giraffecenter.org,US,Americas,Northern America,United States of America,Texas,,Dallas
108.181.166.215,4,5,giurdanella.it,US,Americas,Northern America,United States of America,Texas,,Dallas
172.96.136.126,4,8,gmabrands.com,US,Americas,Northern America,United States of America,Texas,,Dallas
216.245.222.242,4,13,goallineblitz.com,US,Americas,Northern America,United States of America,Texas,,Dallas
192.211.60.181,4,21,gocar.gr,US,Americas,Northern America,United States of America,Texas,,Dallas
192.250.227.31,4,18,goldismoney2.com,US,Americas,Northern America,United States of America,Texas,,Dallas
198.252.105.78,4,3,gomontana.com,US,Americas,Northern America,United States of America,Texas,,Dallas
108.181.155.179,4,21,goobay.com,US,Americas,Northern America,United States of America,Texas,,Dallas
104.237.13.31,4,2,gotoassignmenthelp.com,US,Americas,Northern America,United States of America,Texas,,Dallas
144.202.73.14,4,2,govhealthit.com,US,Americas,Northern America,United States of America,Texas,,Dallas
192.0.80.242,4,5,gravatar.com,US,Americas,Northern America,United States of America,Texas,,Dallas
192.0.80.239,4,4,gravatar.com,US,Americas,Northern America,United States of America,Texas,,Dallas
192.0.80.241,4,2,gravatar.com,US,Americas,Northern America,United States of America,Texas,,Dallas
192.0.80.240,4,4,gravatar.com,US,Americas,Northern America,United States of America,Texas,,Dallas
104.225.220.143,4,4,gsak.net,US,Americas,Northern America,United States of America,Texas,,Dallas
198.252.105.54,4,6,guidetoprofitablelivestock.com,US,Americas,Northern America,United States of America,Texas,,Dallas
192.250.227.37,4,20,guitarnick.com,US,Americas,Northern America,United States of America,Texas,,Dallas
107.155.71.139,4,6,halfoffdeal.com,US,Americas,Northern America,United States of America,Texas,,Dallas
191.101.16.96,4,57,harpgallery.com,US,Americas,Northern America,United States of America,Texas,,Dallas
173.237.185.111,4,1009,hashstudioz.com,US,Americas,Northern America,United States of America,Texas,,Dallas
172.93.50.137,4,2,hawkinsmotorcoach.com,US,Americas,Northern America,United States of America,Texas,,Dallas
191.101.166.199,4,7,hdrams.com,US,Americas,Northern America,United States of America,Texas,,Dallas
23.227.169.81,4,13,healthofchildren.com,US,Americas,Northern America,United States of America,Texas,,Dallas
169.53.30.11,4,1094,hidden-3d.com,US,Americas,Northern America,United States of America,Texas,,Dallas
209.58.144.244,4,-4,hirerush.com,US,Americas,Northern America,United States of America,Texas,,Dallas
198.252.105.116,4,2,hl8b.com,US,Americas,Northern America,United States of America,Texas,,Dallas
192.169.81.155,4,23,holybible.com.cn,US,Americas,Northern America,United States of America,Texas,,Dallas
172.245.228.227,4,29,homemediamagazine.com,US,Americas,Northern America,United States of America,Texas,,Dallas
74.63.241.27,4,4,hondatech.info,US,Americas,Northern America,United States of America,Texas,,Dallas
23.227.169.79,4,6,hospital-data.com,US,Americas,Northern America,United States of America,Texas,,Dallas
107.173.122.229,4,-1,htmlcompressor.com,US,Americas,Northern America,United States of America,Texas,,Dallas
69.162.127.7,4,4,humanas.cl,US,Americas,Northern America,United States of America,Texas,,Dallas
23.227.169.65,4,12,humanillnesses.com,US,Americas,Northern America,United States of America,Texas,,Dallas
139.64.176.203,4,9,ianandwendy.com,US,Americas,Northern America,United States of America,Texas,,Dallas
108.168.254.192,4,-33059,ibm.biz,US,Americas,Northern America,United States of America,Texas,,Dallas
69.162.109.251,4,49,iceagefarmer.com,US,Americas,Northern America,United States of America,Texas,,Dallas
198.46.227.221,4,28,icodeblog.com,US,Americas,Northern America,United States of America,Texas,,Dallas
107.155.64.20,4,16,icr.org,US,Americas,Northern America,United States of America,Texas,,Dallas
172.241.131.204,4,21,igcc.com.pe,US,Americas,Northern America,United States of America,Texas,,Dallas
107.155.71.142,4,3,ikfkickboxing.com,US,Americas,Northern America,United States of America,Texas,,Dallas
23.92.66.61,4,17,illusionsgallery.com,US,Americas,Northern America,United States of America,Texas,,Dallas
38.135.39.225,4,1,imperialvalleynews.com,US,Americas,Northern America,United States of America,Texas,,Dallas
195.179.202.208,4,46,indianastrology2000.com,US,Americas,Northern America,United States of America,Texas,,Dallas
23.227.172.34,4,-6,indianfoodforever.com,US,Americas,Northern America,United States of America,Texas,,Dallas
192.250.227.59,4,3,indoretown.com,US,Americas,Northern America,United States of America,Texas,,Dallas
137.220.50.205,4,4,indypolitics.org,US,Americas,Northern America,United States of America,Texas,,Dallas
69.162.64.218,4,99,installatron.com,US,Americas,Northern America,United States of America,Texas,,Dallas
172.96.138.95,4,42,instantcashtime.com,US,Americas,Northern America,United States of America,Texas,,Dallas
74.63.241.28,4,46,insuranceguide.blog,US,Americas,Northern America,United States of America,Texas,,Dallas
69.162.65.146,4,18,interlinearbible.org,US,Americas,Northern America,United States of America,Texas,,Dallas
107.155.112.233,4,91,islaurbana.org,US,Americas,Northern America,United States of America,Texas,,Dallas
23.29.117.226,4,33,jamestabor.com,US,Americas,Northern America,United States of America,Texas,,Dallas
198.37.123.45,4,7,jeepz.com,US,Americas,Northern America,United States of America,Texas,,Dallas
104.251.213.72,4,2,jmeter-plugins.org,US,Americas,Northern America,United States of America,Texas,,Dallas
69.162.64.30,4,27,jordanzad.com,US,Americas,Northern America,United States of America,Texas,,Dallas
94.72.166.58,4,3,jrustonapps.com,US,Americas,Northern America,United States of America,Texas,,Dallas
139.178.84.217,4,4348,kernel.org,US,Americas,Northern America,United States of America,Texas,,Dallas
66.23.203.210,4,-6,keyway.ca,US,Americas,Northern America,United States of America,Texas,,Dallas
204.109.60.138,4,9,kfu.com,US,Americas,Northern America,United States of America,Texas,,Dallas
66.206.28.37,4,-1,kidsemail.org,US,Americas,Northern America,United States of America,Texas,,Dallas
104.225.208.38,4,0,kshumane.org,US,Americas,Northern America,United States of America,Texas,,Dallas
96.44.188.234,4,-4,lanceandeskimo.com,US,Americas,Northern America,United States of America,Texas,,Dallas
38.147.122.66,4,22,lavabit.com,US,Americas,Northern America,United States of America,Texas,,Dallas
45.59.163.231,4,800,lavozdelosquesobran.cl,US,Americas,Northern America,United States of America,Texas,,Dallas
198.252.105.45,4,18,leafo.net,US,Americas,Northern America,United States of America,Texas,,Dallas
66.232.124.173,4,53,lemmyland.com,US,Americas,Northern America,United States of America,Texas,,Dallas
216.128.142.246,4,7,lillarose.biz,US,Americas,Northern America,United States of America,Texas,,Dallas
64.31.0.43,4,4,limestonenetworks.com,US,Americas,Northern America,United States of America,Texas,,Dallas
38.107.250.212,4,5,linkz.us,US,Americas,Northern America,United States of America,Texas,,Dallas
149.28.249.172,4,19,littleastronomy.com,US,Americas,Northern America,United States of America,Texas,,Dallas
23.227.169.73,4,4,lovetheoutdoors.com,US,Americas,Northern America,United States of America,Texas,,Dallas
192.3.235.12,4,-2,macappstore.org,US,Americas,Northern America,United States of America,Texas,,Dallas
172.93.51.149,4,1,mailnesia.com,US,Americas,Northern America,United States of America,Texas,,Dallas
192.169.94.4,4,42,marcozero.org,US,Americas,Northern America,United States of America,Texas,,Dallas
45.76.234.156,4,13,marshag.ru,US,Americas,Northern America,United States of America,Texas,,Dallas
108.181.54.77,4,59,masthead.social,US,Americas,Northern America,United States of America,Texas,,Dallas
45.43.3.11,4,6,matazone.co.uk,US,Americas,Northern America,United States of America,Texas,,Dallas
144.168.41.150,4,12,maxit.com.bd,US,Americas,Northern America,United States of America,Texas,,Dallas
172.245.243.62,4,17,melodika.net,US,Americas,Northern America,United States of America,Texas,,Dallas
104.193.225.99,4,18,meridies.org,US,Americas,Northern America,United States of America,Texas,,Dallas
149.28.245.5,4,17,metaphilm.com,US,Americas,Northern America,United States of America,Texas,,Dallas
23.227.169.76,4,7,minddisorders.com,US,Americas,Northern America,United States of America,Texas,,Dallas
66.232.124.26,4,8,mobiletechnews.com,US,Americas,Northern America,United States of America,Texas,,Dallas
107.155.68.68,4,12,momsview.com,US,Americas,Northern America,United States of America,Texas,,Dallas
38.68.135.120,4,-1,mondinion.com,US,Americas,Northern America,United States of America,Texas,,Dallas
69.42.51.8,4,170715,monstersinmotion.com,US,Americas,Northern America,United States of America,Texas,,Dallas
104.225.220.14,4,8,morningstarsecurity.com,US,Americas,Northern America,United States of America,Texas,,Dallas
23.94.62.214,4,32,mosaiique.com,US,Americas,Northern America,United States of America,Texas,,Dallas
170.130.40.34,4,2,mp3joiner.org,US,Americas,Northern America,United States of America,Texas,,Dallas
172.93.51.67,4,7,mr2.com,US,Americas,Northern America,United States of America,Texas,,Dallas
198.37.123.126,4,1605,much.pw,US,Americas,Northern America,United States of America,Texas,,Dallas
199.231.164.70,4,5,musicbanter.com,US,Americas,Northern America,United States of America,Texas,,Dallas
172.99.148.43,4,11,muzu.tv,US,Americas,Northern America,United States of America,Texas,,Dallas
23.92.76.43,4,18,mydollarplan.com,US,Americas,Northern America,United States of America,Texas,,Dallas
192.252.223.47,4,26,mysabah.com,US,Americas,Northern America,United States of America,Texas,,Dallas
23.227.169.69,4,9,mythencyclopedia.com,US,Americas,Northern America,United States of America,Texas,,Dallas
38.135.34.85,4,-477,mythosandlogos.com,US,Americas,Northern America,United States of America,Texas,,Dallas
192.154.228.217,4,200,nat32.com,US,Americas,Northern America,United States of America,Texas,,Dallas
23.227.169.80,4,15,nationsencyclopedia.com,US,Americas,Northern America,United States of America,Texas,,Dallas
192.250.227.29,4,9,ndbcasinos.com,US,Americas,Northern America,United States of America,Texas,,Dallas
154.16.200.27,4,8,nerdvittles.com,US,Americas,Northern America,United States of America,Texas,,Dallas
23.150.248.139,4,3,neuromatch.io,US,Americas,Northern America,United States of America,Texas,,Dallas
107.155.82.26,4,22,neworleansonline.com,US,Americas,Northern America,United States of America,Texas,,Dallas
198.252.105.84,4,3,nikeshopjapan.com,US,Americas,Northern America,United States of America,Texas,,Dallas
198.252.105.91,4,3,noah-health.org,US,Americas,Northern America,United States of America,Texas,,Dallas
66.232.124.250,4,-8,nondisclosureagreement.com,US,Americas,Northern America,United States of America,Texas,,Dallas
23.227.169.86,4,2,nonprofitfacts.com,US,Americas,Northern America,United States of America,Texas,,Dallas
192.154.224.175,4,27,northendwaterfront.com,US,Americas,Northern America,United States of America,Texas,,Dallas
23.227.169.83,4,29,notablebiographies.com,US,Americas,Northern America,United States of America,Texas,,Dallas
208.115.200.90,4,5,nuc.edu.ng,US,Americas,Northern America,United States of America,Texas,,Dallas
66.206.19.58,4,-6,nuevaya.com.ni,US,Americas,Northern America,United States of America,Texas,,Dallas
208.86.167.34,4,2,nytsyn.com,US,Americas,Northern America,United States of America,Texas,,Dallas
216.189.159.252,4,27,olegkikin.com,US,Americas,Northern America,United States of America,Texas,,Dallas
192.3.236.5,4,-7,onlinesexshop.co.il,US,Americas,Northern America,United States of America,Texas,,Dallas
91.190.106.20,4,14,Ookla Speedtest Server 16259: speedtest.dallas.macarne.com,US,Americas,Northern America,United States of America,Texas,,Dallas
38.122.30.28,4,150,Ookla Speedtest Server 54279: speedtest-dallas.swyftfiber.com,US,Americas,Northern America,United States of America,Texas,,Dallas
2.56.188.136,4,323,Ookla Speedtest Server 57114: dal.speedtest.clouvider.net,US,Americas,Northern America,United States of America,Texas,,Dallas
104.141.245.94,4,5968,Ookla Speedtest Server 63637: akrd-speedtest.loni.org,US,Americas,Northern America,United States of America,Texas,,Dallas
134.195.6.33,4,331,Ookla Speedtest Server 64043: speedtest.cenosnetworks.net,US,Americas,Northern America,United States of America,Texas,,Dallas
200.25.89.119,4,327,Ookla Speedtest Server 64884: spt-dal1.edgeuno.com,US,Americas,Northern America,United States of America,Texas,,Dallas
63.160.156.88,4,83469,Ookla Speedtest Server: speedtest1.nortex.com,US,Americas,Northern America,United States of America,Texas,,Dallas
216.245.197.134,4,31,openjournalsystems.com,US,Americas,Northern America,United States of America,Texas,,Dallas
192.169.82.226,4,27,osclaz.com,US,Americas,Northern America,United States of America,Texas,,Dallas
148.153.88.162,4,23,ouku.com,US,Americas,Northern America,United States of America,Texas,,Dallas
216.245.210.34,4,5,ourgroceries.com,US,Americas,Northern America,United States of America,Texas,,Dallas
108.181.242.137,4,24,owink.com,US,Americas,Northern America,United States of America,Texas,,Dallas
104.225.218.133,4,-2,p-tweets.com,US,Americas,Northern America,United States of America,Texas,,Dallas
149.28.240.136,4,13,pagetutor.com,US,Americas,Northern America,United States of America,Texas,,Dallas
184.105.139.166,4,13,paparazziuav.org,US,Americas,Northern America,United States of America,Texas,,Dallas
139.64.135.204,4,5,papers-land.com,US,Americas,Northern America,United States of America,Texas,,Dallas
162.213.194.106,4,37,parlamentario.com,US,Americas,Northern America,United States of America,Texas,,Dallas
170.39.213.90,4,78,partidoverde.org.mx,US,Americas,Northern America,United States of America,Texas,,Dallas
192.250.227.130,4,38,partnersinternational.com,US,Americas,Northern America,United States of America,Texas,,Dallas
144.202.78.196,4,13,pericom.com,US,Americas,Northern America,United States of America,Texas,,Dallas
192.250.227.35,4,8,petroservice-eg.com,US,Americas,Northern America,United States of America,Texas,,Dallas
107.174.236.19,4,6,pgg369.mobi,US,Americas,Northern America,United States of America,Texas,,Dallas
23.95.43.201,4,4,pgspin99.mobi,US,Americas,Northern America,United States of America,Texas,,Dallas
23.227.169.85,4,142,photo-dictionary.com,US,Americas,Northern America,United States of America,Texas,,Dallas
23.92.76.237,4,394,pinkertonsbarbecue.com,US,Americas,Northern America,United States of America,Texas,,Dallas
198.252.105.85,4,43,pitsirikos.net,US,Americas,Northern America,United States of America,Texas,,Dallas
108.181.242.138,4,3,playtrucos.com,US,Americas,Northern America,United States of America,Texas,,Dallas
192.250.227.27,4,9,plixsite.net,US,Americas,Northern America,United States of America,Texas,,Dallas
181.214.152.19,4,48,pogsof.com,US,Americas,Northern America,United States of America,Texas,,Dallas
23.92.79.58,4,15,pokerchipforum.com,US,Americas,Northern America,United States of America,Texas,,Dallas
23.227.169.93,4,69,pollutionissues.com,US,Americas,Northern America,United States of America,Texas,,Dallas
108.181.221.254,4,61,populardirectory.biz,US,Americas,Northern America,United States of America,Texas,,Dallas
107.191.44.239,4,46,postnuke.com,US,Americas,Northern America,United States of America,Texas,,Dallas
23.227.169.94,4,49,presidentprofiles.com,US,Americas,Northern America,United States of America,Texas,,Dallas
172.97.66.164,4,4,privacyparrot.com,US,Americas,Northern America,United States of America,Texas,,Dallas
45.32.197.163,4,2,qbtoolhub.com,US,Americas,Northern America,United States of America,Texas,,Dallas
34.174.206.164,4,4,qualitycarriers.com,US,Americas,Northern America,United States of America,Texas,,Dallas
69.162.96.3,4,93,raidcontrol.com,US,Americas,Northern America,United States of America,Texas,,Dallas
23.227.169.64,4,28,readperiodicals.com,US,Americas,Northern America,United States of America,Texas,,Dallas
69.162.122.206,4,13,redingtongroup.com,US,Americas,Northern America,United States of America,Texas,,Dallas
23.227.169.70,4,26,referenceforbusiness.com,US,Americas,Northern America,United States of America,Texas,,Dallas
174.34.133.199,4,-30,referralfrenzy.com,US,Americas,Northern America,United States of America,Texas,,Dallas
192.154.228.20,4,7,relfe.com,US,Americas,Northern America,United States of America,Texas,,Dallas
173.237.185.202,4,13,retiredbrains.com,US,Americas,Northern America,United States of America,Texas,,Dallas
185.106.241.55,4,7,revesoft.com,US,Americas,Northern America,United States of America,Texas,,Dallas
94.72.176.101,4,16,reviveadservermod.com,US,Americas,Northern America,United States of America,Texas,,Dallas
23.227.169.91,4,3,richinstyle.com,US,Americas,Northern America,United States of America,Texas,,Dallas
174.136.11.74,4,9,rimuhosting.com,US,Americas,Northern America,United States of America,Texas,,Dallas
104.225.221.209,4,0,samurai.fm,US,Americas,Northern America,United States of America,Texas,,Dallas
74.63.240.170,4,11850,sarayanews.com,US,Americas,Northern America,United States of America,Texas,,Dallas
63.142.252.87,4,5,satisfyingeats.com,US,Americas,Northern America,United States of America,Texas,,Dallas
23.145.80.23,4,33,saudesulamericasa.com.br,US,Americas,Northern America,United States of America,Texas,,Dallas
216.245.198.186,4,5,sawaleif.com,US,Americas,Northern America,United States of America,Texas,,Dallas
192.154.229.6,4,-233,scarlettabakes.com,US,Americas,Northern America,United States of America,Texas,,Dallas
104.128.239.66,4,6,schoolrack.com,US,Americas,Northern America,United States of America,Texas,,Dallas
23.227.169.74,4,18,scienceclarified.com,US,Americas,Northern America,United States of America,Texas,,Dallas
74.63.245.138,4,2,scripturetext.com,US,Americas,Northern America,United States of America,Texas,,Dallas
104.200.159.139,4,10,send2press.com,US,Americas,Northern America,United States of America,Texas,,Dallas
208.115.240.124,4,-12014556,seodigger.com,US,Americas,Northern America,United States of America,Texas,,Dallas
107.155.113.122,4,3,shotgunlife.com,US,Americas,Northern America,United States of America,Texas,,Dallas
108.181.171.248,4,3089763,siftdesk.org,US,Americas,Northern America,United States of America,Texas,,Dallas
63.142.249.178,4,39,silverstemcannabis.com,US,Americas,Northern America,United States of America,Texas,,Dallas
65.75.209.136,4,14,simhaoka.com,US,Americas,Northern America,United States of America,Texas,,Dallas
65.75.209.210,4,45,simhaoka.com,US,Americas,Northern America,United States of America,Texas,,Dallas
65.75.209.146,4,45,simhaoka.com,US,Americas,Northern America,United States of America,Texas,,Dallas
192.0.84.247,4,2,simperium.com,US,Americas,Northern America,United States of America,Texas,,Dallas
108.181.214.212,4,47,site.com.br,US,Americas,Northern America,United States of America,Texas,,Dallas
107.155.97.50,4,11,skepticforum.com,US,Americas,Northern America,United States of America,Texas,,Dallas
69.162.84.114,4,802,snitchseeker.com,US,Americas,Northern America,United States of America,Texas,,Dallas
198.252.105.119,4,20,soft14.com,US,Americas,Northern America,United States of America,Texas,,Dallas
169.48.189.138,4,17,sohtanaka.com,US,Americas,Northern America,United States of America,Texas,,Dallas
23.26.55.64,4,27,soniyapanday.com,US,Americas,Northern America,United States of America,Texas,,Dallas
169.48.161.181,4,3,spamarrest.com,US,Americas,Northern America,United States of America,Texas,,Dallas
154.29.75.3,4,2,speakfreelee.com,US,Americas,Northern America,United States of America,Texas,,Dallas
192.250.227.36,4,44,speeduino.com,US,Americas,Northern America,United States of America,Texas,,Dallas
192.227.248.186,4,-4,sportsbazz.com,US,Americas,Northern America,United States of America,Texas,,Dallas
23.227.162.82,4,41,spread.org,US,Americas,Northern America,United States of America,Texas,,Dallas
192.211.48.98,4,36,starpowertalent.com,US,Americas,Northern America,United States of America,Texas,,Dallas
69.162.120.188,4,21,steadydemand.com,US,Americas,Northern America,United States of America,Texas,,Dallas
162.213.195.119,4,2,stirr.com,US,Americas,Northern America,United States of America,Texas,,Dallas
173.237.185.212,4,28,stlracing.com,US,Americas,Northern America,United States of America,Texas,,Dallas
38.135.49.11,4,9,storm2k.org,US,Americas,Northern America,United States of America,Texas,,Dallas
184.105.142.67,4,1,stormsurfing.com,US,Americas,Northern America,United States of America,Texas,,Dallas
149.28.254.222,4,18,streamhoster.com,US,Americas,Northern America,United States of America,Texas,,Dallas
192.169.84.211,4,83,strongsnumbers.com,US,Americas,Northern America,United States of America,Texas,,Dallas
74.63.248.118,4,6,studylight.org,US,Americas,Northern America,United States of America,Texas,,Dallas
104.225.208.28,4,52,sugarandsparrow.com,US,Americas,Northern America,United States of America,Texas,,Dallas
23.227.169.88,4,20,surgeryencyclopedia.com,US,Americas,Northern America,United States of America,Texas,,Dallas
192.154.226.108,4,8,susangreenecopywriter.com,US,Americas,Northern America,United States of America,Texas,,Dallas
155.94.253.2,4,37,sv666.net,US,Americas,Northern America,United States of America,Texas,,Dallas
207.148.5.16,4,3,syntaur.com,US,Americas,Northern America,United States of America,Texas,,Dallas
69.162.127.5,4,1,taxdayteaparty.com,US,Americas,Northern America,United States of America,Texas,,Dallas
144.202.65.139,4,2,tbheritage.com,US,Americas,Northern America,United States of America,Texas,,Dallas
72.249.74.31,4,8,teamgal.com,US,Americas,Northern America,United States of America,Texas,,Dallas
104.225.208.26,4,-480,teammarketing.com,US,Americas,Northern America,United States of America,Texas,,Dallas
69.162.109.146,4,43,techfily.com,US,Americas,Northern America,United States of America,Texas,,Dallas
104.225.221.25,4,61,techmen.net,US,Americas,Northern America,United States of America,Texas,,Dallas
192.227.251.141,4,-3,techpally.com,US,Americas,Northern America,United States of America,Texas,,Dallas
139.64.176.238,4,16234,teknisi-indonesia.com,US,Americas,Northern America,United States of America,Texas,,Dallas
192.250.227.15,4,7,thcgummiesstore.com,US,Americas,Northern America,United States of America,Texas,,Dallas
198.252.105.99,4,1,theagonistband.com,US,Americas,Northern America,United States of America,Texas,,Dallas
149.28.253.178,4,0,thebestbusinesslists.com,US,Americas,Northern America,United States of America,Texas,,Dallas
107.155.77.186,4,2,theclickcommunity.com,US,Americas,Northern America,United States of America,Texas,,Dallas
63.142.249.33,4,35,thecustomizewindows.com,US,Americas,Northern America,United States of America,Texas,,Dallas
208.115.197.171,4,14,theganggreen.com,US,Americas,Northern America,United States of America,Texas,,Dallas
23.227.169.82,4,4,thegardenhelper.com,US,Americas,Northern America,United States of America,Texas,,Dallas
181.215.47.239,4,14,thehawkeyeinitiative.com,US,Americas,Northern America,United States of America,Texas,,Dallas
72.249.27.85,4,2,thejuniper.com,US,Americas,Northern America,United States of America,Texas,,Dallas
155.138.243.200,4,34,themecircle.net,US,Americas,Northern America,United States of America,Texas,,Dallas
69.42.49.141,4,3658,themediareport.com,US,Americas,Northern America,United States of America,Texas,,Dallas
192.250.227.80,4,8,themevs.com,US,Americas,Northern America,United States of America,Texas,,Dallas
207.148.6.125,4,1,thenailstop.net,US,Americas,Northern America,United States of America,Texas,,Dallas
155.94.253.223,4,3,theonepiece.co,US,Americas,Northern America,United States of America,Texas,,Dallas
45.43.15.19,4,4,therangerstation.com,US,Americas,Northern America,United States of America,Texas,,Dallas
107.155.82.202,4,17,thesmilies.com,US,Americas,Northern America,United States of America,Texas,,Dallas
174.136.1.63,4,5,think-async.com,US,Americas,Northern America,United States of America,Texas,,Dallas
107.155.71.103,4,13,threadworx.com,US,Americas,Northern America,United States of America,Texas,,Dallas
23.145.80.21,4,89,tieline.com,US,Americas,Northern America,United States of America,Texas,,Dallas
91.191.208.194,4,-6,tiltshiftmaker.com,US,Americas,Northern America,United States of America,Texas,,Dallas
170.75.254.245,4,58,timebomb2000.com,US,Americas,Northern America,United States of America,Texas,,Dallas
154.16.170.85,4,7,timepost.info,US,Americas,Northern America,United States of America,Texas,,Dallas
173.237.185.51,4,754,tomfolio.com,US,Americas,Northern America,United States of America,Texas,,Dallas
23.95.110.190,4,-4,tomsriverhojos.com,US,Americas,Northern America,United States of America,Texas,,Dallas
192.250.227.23,4,5,tonatheme.com,US,Americas,Northern America,United States of America,Texas,,Dallas
104.225.208.40,4,2,toolstogrowot.com,US,Americas,Northern America,United States of America,Texas,,Dallas
181.214.133.201,4,19,topnews.in,US,Americas,Northern America,United States of America,Texas,,Dallas
69.28.90.89,4,20,totalhealthmagazine.com,US,Americas,Northern America,United States of America,Texas,,Dallas
104.225.208.14,4,3,townecrier.com,US,Americas,Northern America,United States of America,Texas,,Dallas
166.0.175.227,4,19,traditionsglobalnetwork.com,US,Americas,Northern America,United States of America,Texas,,Dallas
216.128.128.54,4,19,trexgame.co,US,Americas,Northern America,United States of America,Texas,,Dallas
154.16.170.62,4,1051,trivita.com,US,Americas,Northern America,United States of America,Texas,,Dallas
172.99.148.46,4,31,troll.me,US,Americas,Northern America,United States of America,Texas,,Dallas
192.250.227.21,4,13,true-to-you.net,US,Americas,Northern America,United States of America,Texas,,Dallas
104.225.208.13,4,3,trustwomen.org,US,Americas,Northern America,United States of America,Texas,,Dallas
216.144.240.154,4,1,tsunami.org,US,Americas,Northern America,United States of America,Texas,,Dallas
107.155.81.11,4,-1,twobillsdrive.com,US,Americas,Northern America,United States of America,Texas,,Dallas
192.250.227.12,4,10,txbf.org,US,Americas,Northern America,United States of America,Texas,,Dallas
104.225.208.27,4,404,ucmj.us,US,Americas,Northern America,United States of America,Texas,,Dallas
198.252.105.106,4,1,ufaslot345.com,US,Americas,Northern America,United States of America,Texas,,Dallas
104.249.63.34,4,36,uggscanadaugg.ca,US,Americas,Northern America,United States of America,Texas,,Dallas
192.250.227.24,4,7,uhura.com,US,Americas,Northern America,United States of America,Texas,,Dallas
23.95.94.11,4,-2,undercover.com.au,US,Americas,Northern America,United States of America,Texas,,Dallas
23.227.169.68,4,31,unexplainedstuff.com,US,Americas,Northern America,United States of America,Texas,,Dallas
23.227.169.89,4,7,unit-conversion.info,US,Americas,Northern America,United States of America,Texas,,Dallas
31.172.69.20,4,8,us-business.info,US,Americas,Northern America,United States of America,Texas,,Dallas
192.154.225.152,4,8,usahitman.com,US,Americas,Northern America,United States of America,Texas,,Dallas
144.168.41.102,4,16,usaknifemaker.com,US,Americas,Northern America,United States of America,Texas,,Dallas
154.29.78.253,4,3,usanews.net,US,Americas,Northern America,United States of America,Texas,,Dallas
104.251.210.235,4,2,usbio.net,US,Americas,Northern America,United States of America,Texas,,Dallas
107.155.71.4,4,0,utpsyc.org,US,Americas,Northern America,United States of America,Texas,,Dallas
192.250.227.100,4,16,vallegrande.com.bo,US,Americas,Northern America,United States of America,Texas,,Dallas
66.206.28.11,4,11,vanillafudge.com,US,Americas,Northern America,United States of America,Texas,,Dallas
65.75.211.12,4,17,vaping-vapor.com,US,Americas,Northern America,United States of America,Texas,,Dallas
169.48.181.231,4,31,veetechnologies.com,US,Americas,Northern America,United States of America,Texas,,Dallas
170.39.213.82,4,1257,vienna-unwrapped.com,US,Americas,Northern America,United States of America,Texas,,Dallas
192.252.223.30,4,0,vintageguitar.com,US,Americas,Northern America,United States of America,Texas,,Dallas
45.76.57.243,4,1,virtualmin.com,US,Americas,Northern America,United States of America,Texas,,Dallas
209.58.153.170,4,16,visajourney.com,US,Americas,Northern America,United States of America,Texas,,Dallas
147.124.212.31,4,33,voiceofdharma.org,US,Americas,Northern America,United States of America,Texas,,Dallas
216.245.192.178,4,2,volcanoartcenter.org,US,Americas,Northern America,United States of America,Texas,,Dallas
155.94.253.43,4,9,vualike.com,US,Americas,Northern America,United States of America,Texas,,Dallas
63.142.241.185,4,3,vujovich.com,US,Americas,Northern America,United States of America,Texas,,Dallas
155.94.253.119,4,18,vypoker.com,US,Americas,Northern America,United States of America,Texas,,Dallas
154.29.75.248,4,16,waappitalk.com,US,Americas,Northern America,United States of America,Texas,,Dallas
216.128.142.183,4,20,wacochamber.com,US,Americas,Northern America,United States of America,Texas,,Dallas
45.32.196.57,4,1,wacoheartoftexas.com,US,Americas,Northern America,United States of America,Texas,,Dallas
104.225.208.110,4,32,wahiduddin.net,US,Americas,Northern America,United States of America,Texas,,Dallas
23.227.169.67,4,9,waterencyclopedia.com,US,Americas,Northern America,United States of America,Texas,,Dallas
31.172.69.197,4,11,watermelondrrop.top,US,Americas,Northern America,United States of America,Texas,,Dallas
192.250.227.34,4,7,watershedcapitallimited.com,US,Americas,Northern America,United States of America,Texas,,Dallas
170.130.40.247,4,18,wave-editor.com,US,Americas,Northern America,United States of America,Texas,,Dallas
169.48.163.205,4,2,wdt.edu,US,Americas,Northern America,United States of America,Texas,,Dallas
107.155.97.58,4,117,weatherstreet.com,US,Americas,Northern America,United States of America,Texas,,Dallas
207.148.5.161,4,20,webpicturecreator.com,US,Americas,Northern America,United States of America,Texas,,Dallas
45.32.202.248,4,40,websitenotworking.com,US,Americas,Northern America,United States of America,Texas,,Dallas
170.130.40.26,4,1,websiteresponsivetest.com,US,Americas,Northern America,United States of America,Texas,,Dallas
192.250.227.14,4,60,wedhawaii.com,US,Americas,Northern America,United States of America,Texas,,Dallas
69.162.127.6,4,3,welltraveledmile.com,US,Americas,Northern America,United States of America,Texas,,Dallas
45.43.3.14,4,5,whatmegansmaking.com,US,Americas,Northern America,United States of America,Texas,,Dallas
198.252.105.28,4,4,wheelsjoint.com,US,Americas,Northern America,United States of America,Texas,,Dallas
209.58.150.129,4,331,whenparked.com,US,Americas,Northern America,United States of America,Texas,,Dallas
199.71.214.27,4,-3,whitewolfpack.com,US,Americas,Northern America,United States of America,Texas,,Dallas
66.206.19.218,4,6,widdlytinks.com,US,Americas,Northern America,United States of America,Texas,,Dallas
148.153.135.244,4,6,wigsbuy.com,US,Americas,Northern America,United States of America,Texas,,Dallas
198.252.105.94,4,10,williamfuld.com,US,Americas,Northern America,United States of America,Texas,,Dallas
104.225.208.23,4,14,wilsontenniscamps.com,US,Americas,Northern America,United States of America,Texas,,Dallas
166.0.175.228,4,7,winsomesourcing.com,US,Americas,Northern America,United States of America,Texas,,Dallas
198.252.105.27,4,29,wintips.org,US,Americas,Northern America,United States of America,Texas,,Dallas
192.250.227.60,4,5,wirelessadvisor.com,US,Americas,Northern America,United States of America,Texas,,Dallas
209.58.144.214,4,9,wiserbrand.com,US,Americas,Northern America,United States of America,Texas,,Dallas
104.225.208.18,4,2,woodshumanesociety.org,US,Americas,Northern America,United States of America,Texas,,Dallas
170.130.40.14,4,16,worldcoinsinfo.com,US,Americas,Northern America,United States of America,Texas,,Dallas
107.155.70.182,4,5,worldofchristmas.net,US,Americas,Northern America,United States of America,Texas,,Dallas
104.225.220.18,4,11,wpmultiverse.com,US,Americas,Northern America,United States of America,Texas,,Dallas
192.250.227.20,4,6,xenbulletins.com,US,Americas,Northern America,United States of America,Texas,,Dallas
45.32.193.252,4,4,xgenstudios.com,US,Americas,Northern America,United States of America,Texas,,Dallas
155.138.240.161,4,66,xn--fritidfralla-bjb.se,US,Americas,Northern America,United States of America,Texas,,Dallas
144.202.65.157,4,27,xn--madnrderne-3cb.dk,US,Americas,Northern America,United States of America,Texas,,Dallas
45.76.236.210,4,46,xn--rrapsig-hxa3m.se,US,Americas,Northern America,United States of America,Texas,,Dallas
207.148.5.210,4,15,xn--sportnrden-jcb.se,US,Americas,Northern America,United States of America,Texas,,Dallas
108.181.166.80,4,1,yaarikut.com,US,Americas,Northern America,United States of America,Texas,,Dallas
63.143.33.122,4,6,yaia.com,US,Americas,Northern America,United States of America,Texas,,Dallas
38.107.250.238,4,4,yatu360.com,US,Americas,Northern America,United States of America,Texas,,Dallas
174.127.114.16,4,-3,youbentmywookie.com,US,Americas,Northern America,United States of America,Texas,,Dallas
147.124.221.167,4,2,yyets.com,US,Americas,Northern America,United States of America,Texas,,Dallas
139.64.176.4,4,-24156,ziplabel.com,US,Americas,Northern America,United States of America,Texas,,Dallas
192.250.227.28,4,11,zippileather.com,US,Americas,Northern America,United States of America,Texas,,Dallas
96.8.114.240,4,-2,zipthewilds.com,US,Americas,Northern America,United States of America,Texas,,Dallas
192.250.227.13,4,5,ziuma.com,US,Americas,Northern America,United States of America,Texas,,Dallas
45.43.3.16,4,3,zoller.lu,US,Americas,Northern America,United States of America,Texas,,Dallas
