reflector_ip,ip_version,offset,description,country_code,region,sub_region,country_name,sub_division_1,sub_division_2,city
103.20.212.17,4,24,adrpublications.in,IN,Asia,Southern Asia,India,Haryana,,Faridabad
103.20.212.67,4,5,aliah.ac.in,IN,Asia,Southern Asia,India,Haryana,,Faridabad
14.139.230.99,4,-531403,bcetgsp.ac.in,IN,Asia,Southern Asia,India,Haryana,,Faridabad
205.147.110.194,4,16,clickindia.com,IN,Asia,Southern Asia,India,Haryana,,Faridabad
61.247.224.195,4,-1356627408,DNS Server: abts-north-static-195.224.247.61.airtelbroadband.in,IN,Asia,Southern Asia,India,Haryana,,Gurugram
122.186.120.249,4,185,DNS Server: nsg-corporate-249.120.186.122.airtel.in,IN,Asia,Southern Asia,India,Haryana,,Faridabad
103.20.215.24,4,1517,enggpro.com,IN,Asia,Southern Asia,India,Haryana,,Faridabad
205.147.111.116,4,19,gospeljunction.net,IN,Asia,Southern Asia,India,Haryana,,Faridabad
103.20.213.86,4,133648,gyanvihar.org,IN,Asia,Southern Asia,India,Haryana,,Faridabad
205.147.110.185,4,-6,hellotravel.com,IN,Asia,Southern Asia,India,Haryana,,Faridabad
14.139.226.51,4,-29,isid.ac.in,IN,Asia,Southern Asia,India,Haryana,,Gurugram
182.76.57.237,4,-13,lifepositive.com,IN,Asia,Southern Asia,India,Haryana,,Gurugram
103.20.213.62,4,1,nitsikkim.ac.in,IN,Asia,Southern Asia,India,Haryana,,Faridabad
103.91.78.243,4,58,Ookla Speedtest Server 16357: speedtest.miplhr.com,IN,Asia,Southern Asia,India,Haryana,,Jīnd
103.70.164.10,4,169,Ookla Speedtest Server 47827: sp2.unpl.co.in,IN,Asia,Southern Asia,India,Haryana,,Bahadurgarh
103.101.101.114,4,254,Ookla Speedtest Server 60016: speedtest.utgbroadband.co.in,IN,Asia,Southern Asia,India,Haryana,,Gurugram
114.69.225.150,4,171,Ookla Speedtest Server 62987: spt1.divycommunication.com,IN,Asia,Southern Asia,India,Haryana,,Mānesar
103.140.2.162,4,272,Ookla Speedtest Server 63780: speedtestgurugram.angelbroadband.com,IN,Asia,Southern Asia,India,Haryana,,Gurugram
103.153.227.38,4,-95352,Ookla Speedtest Server: serv13.a2jdata.com,IN,Asia,Southern Asia,India,Haryana,,Ballabgarh
103.203.224.36,4,14,Ookla Speedtest Server: speedtest.r2net.bhaukaalbaba.com,IN,Asia,Southern Asia,India,Haryana,,Gurugram
103.170.152.98,4,11,Ookla Speedtest Server: speedtest.wifilogin.in,IN,Asia,Southern Asia,India,Haryana,,Gurugram
14.139.228.200,4,31,yspuniversity.ac.in,IN,Asia,Southern Asia,India,Haryana,,Faridabad
