reflector_ip,ip_version,offset,description,country_code,region,sub_region,country_name,sub_division_1,sub_division_2,city
46.229.230.155,4,4,77propeller.com,SK,Europe,Eastern Europe,Slovakia,Bratislava Region,,Bratislava
217.73.31.133,4,4,7thguard.net,SK,Europe,Eastern Europe,Slovakia,Bratislava Region,,Bratislava
62.168.116.188,4,54,abyss.sk,SK,Europe,Eastern Europe,Slovakia,Bratislava Region,,Bratislava
46.229.238.141,4,59,archinfo.sk,SK,Europe,Eastern Europe,Slovakia,Bratislava Region,,Bratislava
195.133.51.145,4,5,argus-i.com.ua,SK,Europe,Eastern Europe,Slovakia,Bratislava Region,,Bratislava
46.229.230.49,4,92,aufob.org,SK,Europe,Eastern Europe,Slovakia,Bratislava Region,,Bratislava
46.229.238.130,4,5,bentel.sk,SK,Europe,Eastern Europe,Slovakia,Bratislava Region,,Bratislava
217.73.23.55,4,10,bhc-int.sk,SK,Europe,Eastern Europe,Slovakia,Bratislava Region,,Bratislava
92.60.51.49,4,50,bratislavskenoviny.sk,SK,Europe,Eastern Europe,Slovakia,Bratislava Region,,Bratislava
109.74.157.58,4,5,bystricoviny.sk,SK,Europe,Eastern Europe,Slovakia,Bratislava Region,,Bratislava
81.89.49.141,4,3202,crossuite.com,SK,Europe,Eastern Europe,Slovakia,Bratislava Region,,Bratislava
84.16.47.30,4,24380,DNS Server: 232292.ds.3pp.slovanet.sk,SK,Europe,Eastern Europe,Slovakia,Bratislava Region,,Bratislava
93.184.72.99,4,1365,DNS Server: 94.184.72.99.host.vnet.sk,SK,Europe,Eastern Europe,Slovakia,Bratislava Region,,Bratislava
62.168.116.164,4,-1157141,DNS Server: a.remeta.sh.ke.cust.gts.sk,SK,Europe,Eastern Europe,Slovakia,Bratislava Region,,Bratislava
92.60.50.40,4,41,DNS Server: bnts-public-dns.bonet.sk,SK,Europe,Eastern Europe,Slovakia,Bratislava Region,,Bratislava
217.73.31.10,4,-6986526,DNS Server: ep09.kernel.sk,SK,Europe,Eastern Europe,Slovakia,Bratislava Region,,Bratislava
81.92.255.80,4,31603351,DNS Server: rev-81-92-255-80.radiolan.sk,SK,Europe,Eastern Europe,Slovakia,Bratislava Region,,Bratislava
87.197.154.105,4,225,DNS Server: static-dsl-105.87-197-154.telecom.sk,SK,Europe,Eastern Europe,Slovakia,Bratislava Region,,Bratislava
87.197.159.139,4,171,DNS Server: static-dsl-139.87-197-159.telecom.sk,SK,Europe,Eastern Europe,Slovakia,Bratislava Region,,Bratislava
87.197.149.81,4,53439,DNS Server: static-dsl-81.87-197-149.telecom.sk,SK,Europe,Eastern Europe,Slovakia,Bratislava Region,,Bratislava
87.197.120.82,4,220,DNS Server: static-dsl-82.87-197-120.telecom.sk,SK,Europe,Eastern Europe,Slovakia,Bratislava Region,,Bratislava
95.131.202.105,4,347,DoH server: bts01.dnscry.pt,SK,Europe,Eastern Europe,Slovakia,Bratislava Region,,Bratislava
109.74.157.62,4,9,elis.sk,SK,Europe,Eastern Europe,Slovakia,Bratislava Region,,Bratislava
46.229.230.43,4,23,emaya.sk,SK,Europe,Eastern Europe,Slovakia,Bratislava Region,,Bratislava
195.168.10.140,4,266582,etarget.eu,SK,Europe,Eastern Europe,Slovakia,Bratislava Region,,Bratislava
62.168.94.163,4,44,fara.sk,SK,Europe,Eastern Europe,Slovakia,Bratislava Region,,Bratislava
194.160.65.31,4,62,filharmonia.sk,SK,Europe,Eastern Europe,Slovakia,Bratislava Region,,Bratislava
81.89.48.54,4,19,finreport.sk,SK,Europe,Eastern Europe,Slovakia,Bratislava Region,,Bratislava
86.110.243.209,4,59,galtex.sk,SK,Europe,Eastern Europe,Slovakia,Bratislava Region,,Bratislava
109.74.144.30,4,2,hauzi.sk,SK,Europe,Eastern Europe,Slovakia,Bratislava Region,,Bratislava
46.229.238.137,4,3,incheba.cz,SK,Europe,Eastern Europe,Slovakia,Bratislava Region,,Bratislava
46.229.239.68,4,3,jonnesway.net,SK,Europe,Eastern Europe,Slovakia,Bratislava Region,,Bratislava
195.133.51.27,4,61,kompass.ua,SK,Europe,Eastern Europe,Slovakia,Bratislava Region,,Bratislava
86.110.243.42,4,3,lagotto.sk,SK,Europe,Eastern Europe,Slovakia,Bratislava Region,,Bratislava
86.110.243.51,4,53,lemonsport.at,SK,Europe,Eastern Europe,Slovakia,Bratislava Region,,Bratislava
81.89.49.138,4,-6807,letenky.sk,SK,Europe,Eastern Europe,Slovakia,Bratislava Region,,Bratislava
158.195.86.172,4,170874,naboj.org,SK,Europe,Eastern Europe,Slovakia,Bratislava Region,,Bratislava
109.74.145.87,4,49429,oknakup.sk,SK,Europe,Eastern Europe,Slovakia,Bratislava Region,,Bratislava
147.175.214.9,4,248,Ookla Speedtest Server 21657: speedtest.ikmg.sk,SK,Europe,Eastern Europe,Slovakia,Bratislava Region,,Bratislava
92.240.232.210,4,331,Ookla Speedtest Server 29920: speedtest.lightstorm.sk,SK,Europe,Eastern Europe,Slovakia,Bratislava Region,,Bratislava
88.212.7.13,4,254,Ookla Speedtest Server 31775: speedtestba.antik.sk,SK,Europe,Eastern Europe,Slovakia,Bratislava Region,,Bratislava
86.110.242.159,4,45,panako.sk,SK,Europe,Eastern Europe,Slovakia,Bratislava Region,,Bratislava
196.245.155.44,4,2,pandorajewelry.ca,SK,Europe,Eastern Europe,Slovakia,Bratislava Region,,Bratislava
86.110.243.36,4,30,patristica.net,SK,Europe,Eastern Europe,Slovakia,Bratislava Region,,Bratislava
81.89.48.53,4,22,porada.sk,SK,Europe,Eastern Europe,Slovakia,Bratislava Region,,Bratislava
194.116.233.62,4,6,prophoto.ua,SK,Europe,Eastern Europe,Slovakia,Bratislava Region,,Bratislava
147.213.112.207,4,5,quantiki.org,SK,Europe,Eastern Europe,Slovakia,Bratislava Region,,Bratislava
62.176.161.80,4,12,retart.sk,SK,Europe,Eastern Europe,Slovakia,Bratislava Region,,Bratislava
81.89.49.137,4,-66895,sos.sk,SK,Europe,Eastern Europe,Slovakia,Bratislava Region,,Bratislava
193.87.79.7,4,5,statpedu.sk,SK,Europe,Eastern Europe,Slovakia,Bratislava Region,,Bratislava
147.175.1.60,4,34,stuba.sk,SK,Europe,Eastern Europe,Slovakia,Bratislava Region,,Bratislava
46.229.230.48,4,16,teprofa.sk,SK,Europe,Eastern Europe,Slovakia,Bratislava Region,,Bratislava
195.133.51.41,4,65,tess-lab.com,SK,Europe,Eastern Europe,Slovakia,Bratislava Region,,Bratislava
62.168.94.212,4,3,tkkbs.sk,SK,Europe,Eastern Europe,Slovakia,Bratislava Region,,Bratislava
86.110.243.90,4,4,travelguide.sk,SK,Europe,Eastern Europe,Slovakia,Bratislava Region,,Bratislava
46.229.230.165,4,5,trnavskyhlas.sk,SK,Europe,Eastern Europe,Slovakia,Bratislava Region,,Bratislava
62.168.94.182,4,15,tvlux.sk,SK,Europe,Eastern Europe,Slovakia,Bratislava Region,,Bratislava
109.74.157.127,4,5,vamaconsulting.sk,SK,Europe,Eastern Europe,Slovakia,Bratislava Region,,Bratislava
93.184.79.35,4,8,vhu.sk,SK,Europe,Eastern Europe,Slovakia,Bratislava Region,,Bratislava
46.229.230.11,4,28,webhouse.sk,SK,Europe,Eastern Europe,Slovakia,Bratislava Region,,Bratislava
81.89.49.146,4,-307,zachej.sk,SK,Europe,Eastern Europe,Slovakia,Bratislava Region,,Bratislava
86.110.243.31,4,3,zberatel.eu,SK,Europe,Eastern Europe,Slovakia,Bratislava Region,,Bratislava
195.168.10.150,4,266549,zoohoo.hu,SK,Europe,Eastern Europe,Slovakia,Bratislava Region,,Bratislava
195.168.10.191,4,266609,zoohoo.sk,SK,Europe,Eastern Europe,Slovakia,Bratislava Region,,Bratislava
