reflector_ip,ip_version,offset,description,country_code,region,sub_region,country_name,sub_division_1,sub_division_2,city
153.92.0.100,4,4,000webhostapp.com,CY,Asia,Western Asia,Cyprus,,,
185.56.74.147,4,2,1202.org.il,IL,Asia,Western Asia,Israel,,,
190.115.24.78,4,3,1win.com,AE,Asia,Western Asia,United Arab Emirates,,,
190.115.19.210,4,17,1win.run,AE,Asia,Western Asia,United Arab Emirates,,,
186.2.162.102,4,15,1wxzn.com,AE,Asia,Western Asia,United Arab Emirates,,,
185.162.18.37,4,9,24sports.com.cy,CY,Asia,Western Asia,Cyprus,Limassol District,,Limassol
193.168.131.24,4,7,3dgameshop.ru,AE,Asia,Western Asia,United Arab Emirates,,,
185.179.24.113,4,429,40ikindi.com,TR,Asia,Western Asia,Turkey,,,
190.115.30.194,4,7,abireg.ru,AE,Asia,Western Asia,United Arab Emirates,,,
81.218.83.70,4,205,activestills.org,IL,Asia,Western Asia,Israel,Northern District,,Ḥurfeish
94.140.15.15,4,337,AdGuard 2,CY,Asia,Western Asia,Cyprus,,,
94.140.14.141,4,233,AdGuard Unfiltered 2,CY,Asia,Western Asia,Cyprus,,,
5.100.253.198,4,1019,adnart.com,IL,Asia,Western Asia,Israel,Central District,,Rosh Ha‘Ayin
77.223.141.17,4,51,adresgezgini.com,TR,Asia,Western Asia,Turkey,,,
185.18.206.241,4,728,adva.org,IL,Asia,Western Asia,Israel,Jerusalem,,Jerusalem
47.91.114.180,4,-33,africabusinessheroes.org,AE,Asia,Western Asia,United Arab Emirates,Dubai,,Dubai
85.238.41.121,4,21,airzena.com,GE,Asia,Western Asia,Georgia,,,
185.86.7.120,4,1868,akinsoft.com.tr,TR,Asia,Western Asia,Turkey,Istanbul,,Istanbul
213.238.190.20,4,210056,akmesegrup.com,TR,Asia,Western Asia,Turkey,İzmir Province,,Izmir
77.91.66.16,4,14,akurat77c.lol,GE,Asia,Western Asia,Georgia,,,
5.2.84.226,4,3100,akvaryumportali.com,TR,Asia,Western Asia,Turkey,İzmir Province,,Izmir
5.2.80.35,4,2617,alastyr.com,TR,Asia,Western Asia,Turkey,İzmir Province,,Izmir
185.87.26.187,4,-1077,allalci.com,TR,Asia,Western Asia,Turkey,Istanbul,,Istanbul
190.115.22.199,4,-843,allesteroide.com,AE,Asia,Western Asia,United Arab Emirates,,,
66.22.84.26,4,19,alljobs.co.il,IL,Asia,Western Asia,Israel,Central District,,
81.218.83.103,4,1,alooma.tv,IL,Asia,Western Asia,Israel,Northern District,,Ḥurfeish
89.252.159.145,4,1934,alperencinar.com,TR,Asia,Western Asia,Turkey,,,
5.250.251.14,4,5,alterradyator.com.tr,TR,Asia,Western Asia,Turkey,Istanbul,,Istanbul
46.234.29.115,4,18,altinbas.edu.tr,TR,Asia,Western Asia,Turkey,,,
45.151.250.72,4,1040,anatolianlgs.com,TR,Asia,Western Asia,Turkey,İzmir Province,,Izmir
93.177.103.108,4,8,anlamlisozler.net,TR,Asia,Western Asia,Turkey,Istanbul,,Istanbul
95.173.189.51,4,2058,antalyaaquarium.com,TR,Asia,Western Asia,Turkey,,,
31.7.35.72,4,12,antalyaff.com,TR,Asia,Western Asia,Turkey,Antalya,,Antalya
104.247.173.252,4,8,antalyatekniktemizlik.com.tr,TR,Asia,Western Asia,Turkey,,,
104.247.165.99,4,23,antikaalanlar.com.tr,TR,Asia,Western Asia,Turkey,,,
45.84.190.82,4,1675,antikaesyaalanlar.web.tr,TR,Asia,Western Asia,Turkey,,,
188.93.95.22,4,-16,apa.gov.ge,GE,Asia,Western Asia,Georgia,Tbilisi,,Tbilisi
213.169.148.156,4,1459,aphroditehills.com,CY,Asia,Western Asia,Cyprus,Pafos,,Paphos
34.166.77.54,4,120,ara.tv,SA,Asia,Western Asia,Saudi Arabia,Eastern Province,,Dammam
78.142.208.77,4,-364,aracarizasi.com,TR,Asia,Western Asia,Turkey,İzmir Province,,Izmir
213.238.183.31,4,379,arasmotokurye.com,TR,Asia,Western Asia,Turkey,,,
185.56.75.80,4,168,arberobotics.com,IL,Asia,Western Asia,Israel,,,
81.218.117.82,4,60,archives.gov.il,IL,Asia,Western Asia,Israel,Tel Aviv,,Tel Aviv
212.18.108.228,4,55,ariaprintshop.ir,TR,Asia,Western Asia,Turkey,,,
158.101.244.137,4,28,arib.com.sa,SA,Asia,Western Asia,Saudi Arabia,Eastern Province,,
88.218.116.187,4,17,arims.org.il,IL,Asia,Western Asia,Israel,Central District,,Rehovot
185.124.85.148,4,2016,arka-bahce.org,TR,Asia,Western Asia,Turkey,Istanbul,,Istanbul
95.173.161.190,4,-4104,arkadaslik.com.tr,TR,Asia,Western Asia,Turkey,,,
185.99.199.203,4,61,arkeofili.com,TR,Asia,Western Asia,Turkey,,,
185.57.68.12,4,0,arminco.com,AM,Asia,Western Asia,Armenia,,,
185.57.68.15,4,20,arpinet.am,AM,Asia,Western Asia,Armenia,,,
31.207.80.43,4,-676,arsuhotel.com,TR,Asia,Western Asia,Turkey,Istanbul,,Istanbul
185.169.52.40,4,5,aslitarcanglobal.com,TR,Asia,Western Asia,Turkey,Istanbul,,Istanbul
212.150.130.237,4,598,asoccer.co.il,IL,Asia,Western Asia,Israel,Central District,,Netanya
46.31.79.106,4,22,asofood.com,TR,Asia,Western Asia,Turkey,Istanbul,,Istanbul
190.115.26.5,4,70,assignmentglory.co.uk,AE,Asia,Western Asia,United Arab Emirates,,,
5.2.85.136,4,31,atlasmovers.com.tr,TR,Asia,Western Asia,Turkey,İzmir Province,,Izmir
85.111.48.119,4,5,ayakkabidunyasi.com.tr,TR,Asia,Western Asia,Turkey,Istanbul,,Istanbul
185.171.24.111,4,17,ayrancimetal.com,TR,Asia,Western Asia,Turkey,,,
83.150.213.58,4,1921612,aytastarim.net,TR,Asia,Western Asia,Turkey,,,
217.195.196.78,4,532,aytor.com,TR,Asia,Western Asia,Turkey,,,
85.132.122.26,4,31,azstat.org,AZ,Asia,Western Asia,Azerbaijan,Baku City,,Baku
45.66.245.211,4,5,badrairlines.com,AE,Asia,Western Asia,United Arab Emirates,Dubai,,Dubai
78.142.208.85,4,305,banabirmasaj.com,TR,Asia,Western Asia,Turkey,İzmir Province,,Izmir
45.143.4.139,4,24,basinturu.news,TR,Asia,Western Asia,Turkey,Bursa Province,,Bursa
91.239.207.147,4,351761,batumi.ge,GE,Asia,Western Asia,Georgia,,,
185.108.148.164,4,-41,bauhaus-center.com,IL,Asia,Western Asia,Israel,,,
5.252.97.110,4,270477,besatime.com,TR,Asia,Western Asia,Turkey,,,
5.250.242.52,4,265,bessogutma.com,TR,Asia,Western Asia,Turkey,Istanbul,,Istanbul
192.116.4.50,4,19,bethlehem.edu,PS,Asia,Western Asia,Palestine,,,
188.132.193.52,4,4,beylikduzutabelaci.com,TR,Asia,Western Asia,Turkey,,,
37.247.115.40,4,6875,bgmonline.net,TR,Asia,Western Asia,Turkey,,,
80.253.246.246,4,870,bib.az,TR,Asia,Western Asia,Turkey,,,
85.132.44.43,4,897,big.az,AZ,Asia,Western Asia,Azerbaijan,Baku City,,Baku
84.54.13.119,4,0,bilgi360.com.tr,TR,Asia,Western Asia,Turkey,,,
185.226.161.16,4,1525,bilgimak.net,TR,Asia,Western Asia,Turkey,Ankara,,Ankara
195.238.120.202,4,2,bimkom.org,IL,Asia,Western Asia,Israel,,,
185.126.219.187,4,4,bingolburada.com,TR,Asia,Western Asia,Turkey,,,
91.212.213.18,4,56719,binuli.ge,GE,Asia,Western Asia,Georgia,,,
80.178.161.107,4,-7,birdf.com,IL,Asia,Western Asia,Israel,Tel Aviv,,Tel Aviv
185.220.206.88,4,35,bitheikuren.com,IL,Asia,Western Asia,Israel,Central District,,Rosh Ha‘Ayin
185.241.6.211,4,1,bizportal.co.il,IL,Asia,Western Asia,Israel,Central District,,Rosh Ha‘Ayin
81.218.117.73,4,33,blmj.org,IL,Asia,Western Asia,Israel,Tel Aviv,,Tel Aviv
2.56.126.145,4,21,bloom-consulting.com,CY,Asia,Western Asia,Cyprus,,,
37.58.16.91,4,70,bodo.com,TR,Asia,Western Asia,Turkey,,,
213.238.190.115,4,7,bodrum.bel.tr,TR,Asia,Western Asia,Turkey,İzmir Province,,Izmir
31.168.170.43,4,5,booknet.co.il,IL,Asia,Western Asia,Israel,Tel Aviv,,Bat Yam
212.72.155.164,4,8,borjomi.com,GE,Asia,Western Asia,Georgia,Tbilisi,,Tbilisi
89.252.187.192,4,916,borsafix.com,TR,Asia,Western Asia,Turkey,,,
2.56.62.236,4,955,boxbilisim.com,TR,Asia,Western Asia,Turkey,,,
45.84.191.3,4,1715,bozkurtantrepo.com,TR,Asia,Western Asia,Turkey,,,
185.56.73.50,4,3,breslev.co.il,IL,Asia,Western Asia,Israel,,,
79.171.16.250,4,237,brgk.org.tr,TR,Asia,Western Asia,Turkey,İzmir Province,,Gaziemir
93.187.207.237,4,625,bsimuhendislik.com,TR,Asia,Western Asia,Turkey,,,
91.239.207.198,4,481,bsu.edu.ge,GE,Asia,Western Asia,Georgia,,,
104.247.167.166,4,106,bthaber.com,TR,Asia,Western Asia,Turkey,,,
31.168.170.45,4,40,bug.co.il,IL,Asia,Western Asia,Israel,Tel Aviv,,Bat Yam
95.173.190.25,4,2,bursabuluyor.com,TR,Asia,Western Asia,Turkey,,,
185.42.173.107,4,10,bursammo.com,TR,Asia,Western Asia,Turkey,Bursa Province,,Bursa
89.252.188.86,4,744,busser.com.tr,TR,Asia,Western Asia,Turkey,,,
104.247.161.227,4,517,buycialisonli.com,TR,Asia,Western Asia,Turkey,Istanbul,,Istanbul
91.151.95.70,4,560,buyfollowernow.com,TR,Asia,Western Asia,Turkey,,,
213.238.183.89,4,1464,caddesaat.com,TR,Asia,Western Asia,Turkey,,,
159.253.44.174,4,3,cag.edu.tr,TR,Asia,Western Asia,Turkey,,,
5.2.85.161,4,2677,cagalogluhamami.com.tr,TR,Asia,Western Asia,Turkey,İzmir Province,,Izmir
94.20.47.170,4,3,camera.az,AZ,Asia,Western Asia,Azerbaijan,Baku City,,Baku
31.186.23.131,4,8,campaigntr.com,TR,Asia,Western Asia,Turkey,,,
185.92.2.7,4,19,canakkale.bel.tr,TR,Asia,Western Asia,Turkey,Kocaeli,,Köseköy
89.252.183.243,4,735,canakkaleaynalipazar.com,TR,Asia,Western Asia,Turkey,,,
45.155.159.28,4,15,canakkaleolay.com,TR,Asia,Western Asia,Turkey,Bursa Province,,Bursa
185.108.148.65,4,-249,capitalise.ai,IL,Asia,Western Asia,Israel,,,
185.198.59.26,4,14,captaincube.com,AE,Asia,Western Asia,United Arab Emirates,,,
5.180.184.231,4,2636,carasrentacar.com,TR,Asia,Western Asia,Turkey,,,
193.168.131.126,4,17,cargo-express.ru,AE,Asia,Western Asia,United Arab Emirates,,,
192.116.146.100,4,845,carlton.co.il,IL,Asia,Western Asia,Israel,Tel Aviv,,Herzliya
185.108.148.81,4,-264,carmelwines.co.il,IL,Asia,Western Asia,Israel,,,
181.214.154.36,4,6335,caykurrizespor.org.tr,TR,Asia,Western Asia,Turkey,Istanbul,,Şişli
15.185.236.133,4,11,cbb.gov.bh,BH,Asia,Western Asia,Bahrain,,,
15.185.54.110,4,7,cbb.gov.bh,BH,Asia,Western Asia,Bahrain,,,
91.195.255.228,4,62672,celog.am,AM,Asia,Western Asia,Armenia,Yerevan,,Yerevan
5.250.254.48,4,237839,cemkapoliuretan.com,TR,Asia,Western Asia,Turkey,Bursa Province,,Bursa
78.135.106.221,4,4,cetinpar.com.tr,TR,Asia,Western Asia,Turkey,Ankara,,Ankara
93.109.224.45,4,5,cfa.com.cy,CY,Asia,Western Asia,Cyprus,,,
212.64.200.58,4,-47859,chayatex.com,TR,Asia,Western Asia,Turkey,,,
185.242.163.2,4,953,cheese-burger.net,TR,Asia,Western Asia,Turkey,Istanbul,,Istanbul
212.199.177.172,4,5,chinanewsline.com,IL,Asia,Western Asia,Israel,Tel Aviv,,Tel Aviv
89.252.182.227,4,35934,cialisay.com,TR,Asia,Western Asia,Turkey,,,
185.45.194.37,4,7,cialishql.com,AE,Asia,Western Asia,United Arab Emirates,,,
62.219.58.243,4,6,cinema.co.il,IL,Asia,Western Asia,Israel,Tel Aviv,,Tel Aviv
89.19.13.106,4,56,ciniciler.com.tr,TR,Asia,Western Asia,Turkey,,,
104.247.165.146,4,91182,cixiptvsatinal.com,TR,Asia,Western Asia,Turkey,,,
89.252.186.103,4,878,ckmdijital.com,TR,Asia,Western Asia,Turkey,,,
185.135.223.112,4,5,cmbilisim.com,TR,Asia,Western Asia,Turkey,,,
89.252.183.195,4,379,cnccode.com,TR,Asia,Western Asia,Turkey,,,
78.142.208.71,4,-709,cobansut.com,TR,Asia,Western Asia,Turkey,İzmir Province,,Izmir
185.174.29.134,4,5,cocukludunya.com,TR,Asia,Western Asia,Turkey,,,
185.87.26.235,4,2129,coffeerem.com,TR,Asia,Western Asia,Turkey,Istanbul,,Istanbul
95.173.164.19,4,2177,coin-turk.com,TR,Asia,Western Asia,Turkey,,,
85.111.48.120,4,61,colins.com.tr,TR,Asia,Western Asia,Turkey,Istanbul,,Istanbul
84.95.247.228,4,1,collplant.com,IL,Asia,Western Asia,Israel,Tel Aviv,,Tel Aviv
185.131.144.182,4,-2,comc.co.il,IL,Asia,Western Asia,Israel,Tel Aviv,,Tel Aviv
89.252.169.130,4,24,concord.com.tr,TR,Asia,Western Asia,Turkey,,,
88.218.116.137,4,-10,conversioner.com,IL,Asia,Western Asia,Israel,Central District,,Rehovot
89.252.130.215,4,1785,corneliaresort.com,TR,Asia,Western Asia,Turkey,,,
164.138.99.254,4,16,creagames.com,CY,Asia,Western Asia,Cyprus,,,
91.198.66.53,4,6,crosairsoft.com.tr,TR,Asia,Western Asia,Turkey,Bursa Province,,Bursa
185.149.101.13,4,854,cultureroutesinturkey.com,TR,Asia,Western Asia,Turkey,İzmir Province,,Izmir
185.108.148.135,4,131,cyabra.com,IL,Asia,Western Asia,Israel,,,
212.68.46.11,4,635,cydd.org.tr,TR,Asia,Western Asia,Turkey,,,
89.252.138.240,4,-82199,dalbel.com.tr,TR,Asia,Western Asia,Turkey,,,
95.173.180.25,4,26,dalyanestate.com,TR,Asia,Western Asia,Turkey,,,
185.108.148.134,4,122,darrow.ai,IL,Asia,Western Asia,Israel,,,
81.16.14.33,4,44156,datalex.am,AM,Asia,Western Asia,Armenia,Yerevan,,Yerevan
194.146.239.14,4,778,day.ir,AE,Asia,Western Asia,United Arab Emirates,,,
185.179.25.160,4,4,dbulut.com,TR,Asia,Western Asia,Turkey,,,
94.102.13.172,4,520,defenceturkey.com,TR,Asia,Western Asia,Turkey,,,
5.250.249.154,4,648180,definebilgi.com,TR,Asia,Western Asia,Turkey,Istanbul,,Istanbul
185.243.77.60,4,44,deiramassage.net,AE,Asia,Western Asia,United Arab Emirates,Dubai,,Dubai
154.205.134.28,4,246,delaatbusiness.com,SA,Asia,Western Asia,Saudi Arabia,,,
104.247.160.136,4,773,demobul.net,TR,Asia,Western Asia,Turkey,,,
31.186.11.136,4,33,dengealuminyum.com.tr,TR,Asia,Western Asia,Turkey,,,
185.86.165.174,4,1073,dentasave.com.tr,TR,Asia,Western Asia,Turkey,Istanbul,,Istanbul
104.247.165.83,4,3809,denthaus.com.tr,TR,Asia,Western Asia,Turkey,,,
85.237.211.9,4,23,dewa69.net,AE,Asia,Western Asia,United Arab Emirates,Dubai,,Dubai
188.132.193.38,4,4,diclelife.com,TR,Asia,Western Asia,Turkey,,,
185.149.103.126,4,165420,dijital.link,TR,Asia,Western Asia,Turkey,İzmir Province,,Izmir
213.238.168.80,4,210073,dijitalpazarlamakocu.com,TR,Asia,Western Asia,Turkey,,,
188.132.193.46,4,5093,disperim.com,TR,Asia,Western Asia,Turkey,,,
185.19.92.133,4,2599,diyadinnet.com,TR,Asia,Western Asia,Turkey,,,
213.238.181.172,4,-29912,diyetisyencim.com,TR,Asia,Western Asia,Turkey,,,
195.225.46.200,4,3,dldtelaviv.com,IL,Asia,Western Asia,Israel,,,
193.168.131.246,4,7,dmitriydyakov.ru,AE,Asia,Western Asia,United Arab Emirates,,,
37.247.115.30,4,15738,dmklinik.com,TR,Asia,Western Asia,Turkey,,,
178.134.155.82,4,7120756,DNS Server: 178-134-155-82.dsl.utg.ge,GE,Asia,Western Asia,Georgia,Tbilisi,,Tbilisi
178.134.248.178,4,1073,DNS Server: 178-134-248-178.dsl.utg.ge,GE,Asia,Western Asia,Georgia,Tbilisi,,Tbilisi
178.134.27.51,4,178487,DNS Server: 178-134-27-51.dsl.utg.ge,GE,Asia,Western Asia,Georgia,Tbilisi,,Tbilisi
178.134.28.34,4,9760,DNS Server: 178-134-28-34.dsl.utg.ge,GE,Asia,Western Asia,Georgia,Tbilisi,,Tbilisi
178.134.36.178,4,17,DNS Server: 178-134-36-178.dsl.utg.ge,GE,Asia,Western Asia,Georgia,Tbilisi,,Tbilisi
185.14.249.46,4,23695,DNS Server: 185.14.249.46.tarinnet.info,IQ,Asia,Western Asia,Iraq,Erbil,,Erbil
188.169.176.78,4,-7121,DNS Server: 188-169-176-78.dsl.utg.ge,GE,Asia,Western Asia,Georgia,Tbilisi,,Tbilisi
188.169.44.18,4,2970,DNS Server: 188-169-44-18.dsl.utg.ge,GE,Asia,Western Asia,Georgia,Adjara,,Batumi
195.142.153.122,4,-1756,DNS Server: 195-142-153-122.rdns.saglayici.net,TR,Asia,Western Asia,Turkey,Istanbul,,Beyoğlu
2.52.252.252,4,7,DNS Server: 2-52-252-252.orange.net.il,IL,Asia,Western Asia,Israel,Tel Aviv,,Tel Aviv
2.55.96.176,4,22,DNS Server: 2-55-96-176.orange.net.il,IL,Asia,Western Asia,Israel,Haifa,,Pardes Hanna Karkur
212.154.19.244,4,-5316,DNS Server: 244.19.154.212.static.turk.net,TR,Asia,Western Asia,Turkey,Istanbul,,Istanbul
46.130.120.30,4,-128,DNS Server: 30.120.130.46.in-addr.mts.am,AM,Asia,Western Asia,Armenia,Gegharkunik,,Aygut
31.146.5.166,4,10817,DNS Server: 31-146-5-166.dsl.utg.ge,GE,Asia,Western Asia,Georgia,Tbilisi,,Tbilisi
31.146.81.222,4,683,DNS Server: 31-146-81-222.dsl.utg.ge,GE,Asia,Western Asia,Georgia,Tbilisi,,Tbilisi
31.146.83.206,4,4451928,DNS Server: 31-146-83-206.dsl.utg.ge,GE,Asia,Western Asia,Georgia,Tbilisi,,Tbilisi
2.55.125.80,4,-31284408,DNS Server: 31-154-125-80.orange.net.il,IL,Asia,Western Asia,Israel,Haifa,,Pardes Hanna Karkur
2.55.127.105,4,124,DNS Server: 31-154-127-105.orange.net.il,IL,Asia,Western Asia,Israel,Haifa,,Pardes Hanna Karkur
2.55.72.107,4,199,DNS Server: 31-154-72-107.orange.net.il,IL,Asia,Western Asia,Israel,Central District,,Petah Tikva
2.55.88.248,4,-10800507,DNS Server: 31-154-88-248.orange.net.il,IL,Asia,Western Asia,Israel,Tel Aviv,,Tel Aviv
185.38.213.57,4,1,DNS Server: 57-213.gsfastnet.net,IQ,Asia,Western Asia,Iraq,,,
46.130.117.7,4,-10798495,DNS Server: 7.117.130.46.in-addr.mts.am,AM,Asia,Western Asia,Armenia,Gegharkunik,,Aygut
77.92.226.154,4,-757,DNS Server: 77-92-226-154.dsl.utg.ge,GE,Asia,Western Asia,Georgia,Tbilisi,,Tbilisi
78.135.36.153,4,51,DNS Server: 78-135-36-153.extendbroadband.com,CY,Asia,Western Asia,Cyprus,Nicosia,,Nicosia
78.135.60.109,4,-4439,DNS Server: 78-135-60-109.extendbroadband.com,CY,Asia,Western Asia,Cyprus,Keryneia,,Kyrenia
78.135.61.166,4,12,DNS Server: 78-135-61-166.extendbroadband.com,CY,Asia,Western Asia,Cyprus,Keryneia,,Kyrenia
78.135.61.2,4,153,DNS Server: 78-135-61-2.extendbroadband.com,CY,Asia,Western Asia,Cyprus,Keryneia,,Kyrenia
78.182.254.16,4,-1879,DNS Server: 78.182.254.16.dynamic.ttnet.com.tr,TR,Asia,Western Asia,Turkey,Istanbul,,Istanbul
78.186.159.117,4,25661916,DNS Server: 78.186.159.117.static.ttnet.com.tr,TR,Asia,Western Asia,Turkey,Kütahya,,Kütahya
78.186.206.121,4,877,DNS Server: 78.186.206.121.static.ttnet.com.tr,TR,Asia,Western Asia,Turkey,İzmir Province,,Bornova
78.186.60.77,4,99,DNS Server: 78.186.60.77.static.ttnet.com.tr,TR,Asia,Western Asia,Turkey,Istanbul,,Istanbul
78.188.215.107,4,-18625907,DNS Server: 78.188.215.107.static.ttnet.com.tr,TR,Asia,Western Asia,Turkey,Istanbul,,Başakşehir
78.188.63.155,4,-10754661,DNS Server: 78.188.63.155.static.ttnet.com.tr,TR,Asia,Western Asia,Turkey,Istanbul,,Istanbul
78.188.74.191,4,91,DNS Server: 78.188.74.191.static.ttnet.com.tr,TR,Asia,Western Asia,Turkey,Ankara,,Ankara
78.189.229.223,4,31598,DNS Server: 78.189.229.223.static.ttnet.com.tr,TR,Asia,Western Asia,Turkey,İzmir Province,,Izmir
78.189.46.123,4,-6405,DNS Server: 78.189.46.123.static.ttnet.com.tr,TR,Asia,Western Asia,Turkey,Istanbul,,Istanbul
81.214.190.74,4,8493,DNS Server: 81.214.190.74.dynamic.ttnet.com.tr,TR,Asia,Western Asia,Turkey,İzmir Province,,Izmir
84.94.193.66,4,32,DNS Server: 84.94.193.66.cable.012.net.il,IL,Asia,Western Asia,Israel,Tel Aviv,,Tel Aviv
84.95.251.42,4,61,DNS Server: 84.95.251.42.forward.012.net.il,IL,Asia,Western Asia,Israel,Tel Aviv,,Tel Aviv
85.102.10.64,4,-14715,DNS Server: 85.102.10.64.dynamic.ttnet.com.tr,TR,Asia,Western Asia,Turkey,Istanbul,,Istanbul
85.105.18.139,4,122371,DNS Server: 85.105.18.139.static.ttnet.com.tr,TR,Asia,Western Asia,Turkey,Istanbul,,Istanbul
85.105.81.252,4,5,DNS Server: 85.105.81.252.static.ttnet.com.tr,TR,Asia,Western Asia,Turkey,Istanbul,,Istanbul
85.97.195.137,4,141,DNS Server: 85.97.195.137.dynamic.ttnet.com.tr,TR,Asia,Western Asia,Turkey,Istanbul,,Istanbul
85.98.40.40,4,211641,DNS Server: 85.98.40.40.static.ttnet.com.tr,TR,Asia,Western Asia,Turkey,Ankara,,Ankara
85.99.244.122,4,-2955,DNS Server: 85.99.244.122.static.ttnet.com.tr,TR,Asia,Western Asia,Turkey,Bursa Province,,Bursa
85.99.244.74,4,87792,DNS Server: 85.99.244.74.static.ttnet.com.tr,TR,Asia,Western Asia,Turkey,Bursa Province,,Bursa
88.225.219.169,4,-117,DNS Server: 88.225.219.169.static.ttnet.com.tr,TR,Asia,Western Asia,Turkey,Antalya,,Konyaalti
88.225.232.205,4,12,DNS Server: 88.225.232.205.static.ttnet.com.tr,TR,Asia,Western Asia,Turkey,Afyonkarahisar Province,,Afyonkarahisar
88.247.165.243,4,102,DNS Server: 88.247.165.243.static.ttnet.com.tr,TR,Asia,Western Asia,Turkey,Denizli,,Denizli
88.247.20.13,4,16053,DNS Server: 88.247.20.13.static.ttnet.com.tr,TR,Asia,Western Asia,Turkey,Ankara,,Ankara
88.248.51.121,4,22191,DNS Server: 88.248.51.121.static.ttnet.com.tr,TR,Asia,Western Asia,Turkey,Antalya,,Konyaalti
88.248.56.216,4,27,DNS Server: 88.248.56.216.static.ttnet.com.tr,TR,Asia,Western Asia,Turkey,Antalya,,Konyaalti
88.248.99.53,4,-10798832,DNS Server: 88.248.99.53.static.ttnet.com.tr,TR,Asia,Western Asia,Turkey,Istanbul,,Beşiktaş
88.249.166.158,4,12,DNS Server: 88.249.166.158.static.ttnet.com.tr,TR,Asia,Western Asia,Turkey,İzmir Province,,Izmir
88.249.37.14,4,13142,DNS Server: 88.249.37.14.static.ttnet.com.tr,TR,Asia,Western Asia,Turkey,,,
88.249.41.163,4,-15,DNS Server: 88.249.41.163.static.ttnet.com.tr,TR,Asia,Western Asia,Turkey,,,
88.249.58.86,4,-8566,DNS Server: 88.249.58.86.static.ttnet.com.tr,TR,Asia,Western Asia,Turkey,,,
88.250.207.65,4,-554518624,DNS Server: 88.250.207.65.static.ttnet.com.tr,TR,Asia,Western Asia,Turkey,Muğla,,Marmaris
88.250.238.6,4,-133,DNS Server: 88.250.238.6.static.ttnet.com.tr,TR,Asia,Western Asia,Turkey,Istanbul,,Istanbul
88.250.63.46,4,3024,DNS Server: 88.250.63.46.static.ttnet.com.tr,TR,Asia,Western Asia,Turkey,Kayseri,,Talas
93.177.103.194,4,61,DNS Server: 93-177-103-194.hostlab.net.tr,TR,Asia,Western Asia,Turkey,Istanbul,,Istanbul
94.140.14.59,4,336,DNS Server: 94-140-14-59.adguard.com,CY,Asia,Western Asia,Cyprus,,,
94.43.11.23,4,68,DNS Server: 94-43-11-23.dsl.utg.ge,GE,Asia,Western Asia,Georgia,Tbilisi,,Tbilisi
94.43.99.154,4,1413,DNS Server: 94-43-99-154.dsl.utg.ge,GE,Asia,Western Asia,Georgia,Adjara,,Batumi
95.9.250.227,4,-2032,DNS Server: 95.9.250.227.static.ttnet.com.tr,TR,Asia,Western Asia,Turkey,Kayseri,,Melikgazi
95.9.37.245,4,10,DNS Server: 95.9.37.245.static.ttnet.com.tr,TR,Asia,Western Asia,Turkey,Ankara,,Ankara
95.9.85.219,4,43,DNS Server: 95.9.85.219.static.ttnet.com.tr,TR,Asia,Western Asia,Turkey,Antalya,,Aksu
2.56.173.249,4,64,DNS Server: anime.tm-webtoon.ru,CY,Asia,Western Asia,Cyprus,,,
2.50.153.194,4,250,DNS Server: bba-2-50-153-194.alshamil.net.ae,AE,Asia,Western Asia,United Arab Emirates,Abu Dhabi,,Abu Dhabi
2.50.171.172,4,-14399573,DNS Server: bba-2-50-171-172.alshamil.net.ae,AE,Asia,Western Asia,United Arab Emirates,Abu Dhabi,,Al Ain City
217.165.186.107,4,238,DNS Server: bba-217-165-186-107.alshamil.net.ae,AE,Asia,Western Asia,United Arab Emirates,Ajman,,Ajman
217.165.89.165,4,347,DNS Server: bba-217-165-89-165.alshamil.net.ae,AE,Asia,Western Asia,United Arab Emirates,Abu Dhabi,,Abu Dhabi
83.110.107.240,4,72,DNS Server: bba-83-110-107-240.alshamil.net.ae,AE,Asia,Western Asia,United Arab Emirates,Sharjah,,Sharjah
83.110.81.2,4,-4242454401,DNS Server: bba-83-110-81-2.alshamil.net.ae,AE,Asia,Western Asia,United Arab Emirates,Abu Dhabi,,Abu Dhabi
83.110.90.89,4,77,DNS Server: bba-83-110-90-89.alshamil.net.ae,AE,Asia,Western Asia,United Arab Emirates,Abu Dhabi,,Abu Dhabi
86.98.53.56,4,24515,DNS Server: bba-86-98-53-56.alshamil.net.ae,AE,Asia,Western Asia,United Arab Emirates,Dubai,,Dubai
86.98.64.193,4,83,DNS Server: bba-86-98-64-193.alshamil.net.ae,AE,Asia,Western Asia,United Arab Emirates,Dubai,,Dubai
86.98.67.128,4,8,DNS Server: bba-86-98-67-128.alshamil.net.ae,AE,Asia,Western Asia,United Arab Emirates,Dubai,,Dubai
86.98.72.226,4,-14400009,DNS Server: bba-86-98-72-226.alshamil.net.ae,AE,Asia,Western Asia,United Arab Emirates,Dubai,,Dubai
86.98.74.199,4,20,DNS Server: bba597861.alshamil.net.ae,AE,Asia,Western Asia,United Arab Emirates,Abu Dhabi,,Abu Dhabi
85.112.66.89,4,-2492516220,DNS Server: broad-85-112-66-89.terra.net.lb,LB,Asia,Western Asia,Lebanon,Beyrouth,,Beirut
85.112.69.11,4,9558,DNS Server: broad-85-112-69-11.terra.net.lb,LB,Asia,Western Asia,Lebanon,Beyrouth,,Beirut
85.112.69.15,4,80204,DNS Server: broad-85-112-69-15.terra.net.lb,LB,Asia,Western Asia,Lebanon,Beyrouth,,Beirut
87.228.186.61,4,-15641,DNS Server: buscust11-61.static.cytanet.com.cy,CY,Asia,Western Asia,Cyprus,Limassol District,,Limassol
93.109.244.74,4,-2148103241,DNS Server: buscust19-74.static.cytanet.com.cy,CY,Asia,Western Asia,Cyprus,Nicosia,,Nicosia
93.109.252.238,4,83053,DNS Server: buscust28-238.static.cytanet.com.cy,CY,Asia,Western Asia,Cyprus,Nicosia,,Nicosia
87.228.232.7,4,62648,DNS Server: buscust5-07.static.cytanet.com.cy,CY,Asia,Western Asia,Cyprus,Limassol District,,Limassol
93.109.243.17,4,559,DNS Server: buscust74-17.static.cytanet.com.cy,CY,Asia,Western Asia,Cyprus,Nicosia,,Nicosia
87.228.230.243,4,169001,DNS Server: buscust75-243.static.cytanet.com.cy,CY,Asia,Western Asia,Cyprus,Limassol District,,Limassol
2.59.119.25,4,28,DNS Server: buycryptoservices.com,TR,Asia,Western Asia,Turkey,,,
81.218.222.1,4,24,DNS Server: bzq-218-222-1.red.bezeqint.net,IL,Asia,Western Asia,Israel,Tel Aviv,,Tel Aviv
81.218.223.112,4,55,DNS Server: bzq-218-223-112.red.bezeqint.net,IL,Asia,Western Asia,Israel,Tel Aviv,,Tel Aviv
81.218.223.12,4,55,DNS Server: bzq-218-223-12.red.bezeqint.net,IL,Asia,Western Asia,Israel,Tel Aviv,,Tel Aviv
81.218.223.76,4,20,DNS Server: bzq-218-223-76.red.bezeqint.net,IL,Asia,Western Asia,Israel,Tel Aviv,,Tel Aviv
81.218.223.79,4,18,DNS Server: bzq-218-223-79.red.bezeqint.net,IL,Asia,Western Asia,Israel,Tel Aviv,,Tel Aviv
82.80.207.110,4,65,DNS Server: bzq-82-80-207-110.red.bezeqint.net,IL,Asia,Western Asia,Israel,Jerusalem,,Jerusalem
82.80.207.94,4,6,DNS Server: bzq-82-80-207-94.red.bezeqint.net,IL,Asia,Western Asia,Israel,Jerusalem,,Jerusalem
82.80.219.220,4,22,DNS Server: bzq-82-80-219-220.red.bezeqint.net,IL,Asia,Western Asia,Israel,Tel Aviv,,Ramat Gan
82.81.243.65,4,-7,DNS Server: bzq-82-81-243-65.cablep.bezeqint.net,IL,Asia,Western Asia,Israel,Tel Aviv,,Bnei Brak
93.187.167.53,4,80,DNS Server: cmg-gw.asnet.am,AM,Asia,Western Asia,Armenia,Yerevan,,Yerevan
212.98.146.97,4,-2661678362,DNS Server: corp-212-98-146-97.terra.net.lb,LB,Asia,Western Asia,Lebanon,,,
212.98.156.53,4,20,DNS Server: corp-212-98-156-53.terra.net.lb,LB,Asia,Western Asia,Lebanon,,,
212.98.156.60,4,58,DNS Server: corp-212-98-156-60.terra.net.lb,LB,Asia,Western Asia,Lebanon,,,
81.89.215.193,4,11,DNS Server: customer215-193.crossnet.am,AM,Asia,Western Asia,Armenia,Yerevan,,Yerevan
93.184.144.5,4,64634,DNS Server: destek.sistemhost.com,TR,Asia,Western Asia,Turkey,Edirne,,Edirne
45.159.74.1,4,16,DNS Server: dns1.virusnet.am,AM,Asia,Western Asia,Armenia,Yerevan,,Yerevan
212.235.99.195,4,-5622876,DNS Server: DSL212-235-99-195.bb.netvision.net.il,IL,Asia,Western Asia,Israel,Tel Aviv,,Holon
89.208.130.181,4,90,DNS Server: dynamic-181.130.208.89.itc.net.il,IL,Asia,Western Asia,Israel,Tel Aviv,,Tel Aviv
89.208.6.66,4,-9,DNS Server: dynamic-66.6.208.89.itc.net.il,IL,Asia,Western Asia,Israel,Haifa,,Haifa
89.208.5.78,4,-1021576,DNS Server: dynamic-78.5.208.89.itc.net.il,IL,Asia,Western Asia,Israel,Haifa,,Haifa
5.21.5.130,4,-555721585,DNS Server: dynamic.isp.ooredoo.om,OM,Asia,Western Asia,Oman,Muscat,,Muscat
79.134.152.192,4,-10799138,DNS Server: gw192-152.jcsfiberlink.net,JO,Asia,Western Asia,Jordan,Amman Governorate,,Amman
81.16.8.103,4,22208,DNS Server: host-103.8.16.81.ucom.am,AM,Asia,Western Asia,Armenia,Yerevan,,Yerevan
37.157.215.109,4,-15,DNS Server: host-109.215.157.37.ucom.am,AM,Asia,Western Asia,Armenia,Yerevan,,Yerevan
37.252.72.109,4,819,DNS Server: host-109.72.252.37.ucom.am,AM,Asia,Western Asia,Armenia,Yerevan,,Yerevan
37.252.78.115,4,2908,DNS Server: host-115.78.252.37.ucom.am,AM,Asia,Western Asia,Armenia,Yerevan,,Yerevan
81.16.1.131,4,11964,DNS Server: host-131.1.16.81.ucom.am,AM,Asia,Western Asia,Armenia,Yerevan,,Yerevan
5.77.240.131,4,1251,DNS Server: host-131.240.77.5.ucom.am,AM,Asia,Western Asia,Armenia,Yerevan,,Yerevan
149.255.154.122,4,367565,DNS Server: host-149.255.154.122.katv1.net,AZ,Asia,Western Asia,Azerbaijan,Baku City,,Baku
81.16.10.162,4,7501,DNS Server: host-162.10.16.81.ucom.am,AM,Asia,Western Asia,Armenia,Yerevan,,Yerevan
81.16.9.173,4,-339,DNS Server: host-173.9.16.81.ucom.am,AM,Asia,Western Asia,Armenia,Yerevan,,Yerevan
37.157.212.188,4,1339,DNS Server: host-188.212.157.37.ucom.am,AM,Asia,Western Asia,Armenia,Yerevan,,Yerevan
195.33.213.254,4,4,DNS Server: host-195-33-213-254.reverse.superonline.net,TR,Asia,Western Asia,Turkey,Istanbul,,Istanbul
91.196.37.196,4,-14367154,DNS Server: host-196-37-196-91.hnet.am,AM,Asia,Western Asia,Armenia,Yerevan,,Yerevan
109.75.41.201,4,98254,DNS Server: host-201.41.75.109.ucom.am,AM,Asia,Western Asia,Armenia,Yerevan,,Yerevan
212.57.11.185,4,4,DNS Server: host-212-57-11-185.reverse.superonline.net,TR,Asia,Western Asia,Turkey,Muğla,,Muğla
212.57.11.190,4,3,DNS Server: host-212-57-11-190.reverse.superonline.net,TR,Asia,Western Asia,Turkey,Muğla,,Muğla
212.72.130.20,4,4,DNS Server: host-212-72-130-20.customer.magticom.ge,GE,Asia,Western Asia,Georgia,Tbilisi,,Tbilisi
212.72.130.21,4,6,DNS Server: host-212-72-130-21.customer.magticom.ge,GE,Asia,Western Asia,Georgia,Tbilisi,,Tbilisi
213.131.40.230,4,127,DNS Server: host-213-131-40-230-customer.wanex.net,GE,Asia,Western Asia,Georgia,Tbilisi,,Tbilisi
213.14.11.162,4,144,DNS Server: host-213-14-11-162.reverse.superonline.net,TR,Asia,Western Asia,Turkey,Istanbul,,Istanbul
213.14.66.51,4,102,DNS Server: host-213-14-66-51.reverse.superonline.net,TR,Asia,Western Asia,Turkey,Ankara,,Ankara
213.153.223.21,4,23,DNS Server: host-213-153-223-21.reverse.superonline.net,TR,Asia,Western Asia,Turkey,Istanbul,,Çekmeköy
213.153.224.28,4,6,DNS Server: host-213-153-224-28.reverse.superonline.net,TR,Asia,Western Asia,Turkey,Istanbul,,Istanbul
213.153.224.29,4,3,DNS Server: host-213-153-224-29.reverse.superonline.net,TR,Asia,Western Asia,Turkey,Istanbul,,Istanbul
213.74.195.52,4,55927,DNS Server: host-213-74-195-52.superonline.net,TR,Asia,Western Asia,Turkey,,,
37.157.218.32,4,-11,DNS Server: host-32.218.157.37.ucom.am,AM,Asia,Western Asia,Armenia,Yerevan,,Yerevan
109.75.40.32,4,-269,DNS Server: host-32.40.75.109.ucom.am,AM,Asia,Western Asia,Armenia,Yerevan,,Yerevan
45.159.75.122,4,0,DNS Server: host-45.159.75.122.virusnet.am,AM,Asia,Western Asia,Armenia,Yerevan,,Yerevan
45.159.75.170,4,-10615,DNS Server: host-45.159.75.170.virusnet.am,AM,Asia,Western Asia,Armenia,Yerevan,,Yerevan
81.16.9.47,4,13665,DNS Server: host-47.9.16.81.ucom.am,AM,Asia,Western Asia,Armenia,Yerevan,,Yerevan
212.34.232.70,4,445,DNS Server: host-70.232.34.212.ucom.am,AM,Asia,Western Asia,Armenia,Yerevan,,Yerevan
37.252.74.76,4,89283,DNS Server: host-76.74.252.37.ucom.am,AM,Asia,Western Asia,Armenia,Yerevan,,Yerevan
80.241.248.162,4,-16884561,DNS Server: host-80-241-248-162.customer.magticom.ge,GE,Asia,Western Asia,Georgia,Tbilisi,,Tbilisi
82.222.60.46,4,339,DNS Server: host-82-222-60-46.reverse.superonline.net,TR,Asia,Western Asia,Turkey,Istanbul,,Esenler
91.103.29.245,4,-39618281,DNS Server: host-91-103-29-245.customers.mts.am,AM,Asia,Western Asia,Armenia,Yerevan,,Yerevan
91.93.153.68,4,32,DNS Server: host-91-93-153-68.reverse.superonline.net,TR,Asia,Western Asia,Turkey,Istanbul,,Istanbul
91.93.153.73,4,99,DNS Server: host-91-93-153-73.reverse.superonline.net,TR,Asia,Western Asia,Turkey,Istanbul,,Istanbul
91.93.153.74,4,29317,DNS Server: host-91-93-153-74.reverse.superonline.net,TR,Asia,Western Asia,Turkey,Istanbul,,Istanbul
92.241.69.226,4,-1,DNS Server: host-92-241-69-226-customer.wanex.net,GE,Asia,Western Asia,Georgia,Tbilisi,,Tbilisi
92.241.72.162,4,497529,DNS Server: host-92-241-72-162-customer.wanex.net,GE,Asia,Western Asia,Georgia,Tbilisi,,Tbilisi
92.241.76.98,4,4201,DNS Server: host-92-241-76-98-customer.wanex.net,GE,Asia,Western Asia,Georgia,Tbilisi,,Tbilisi
92.241.86.42,4,-691,DNS Server: host-92-241-86-42-customer.wanex.net,GE,Asia,Western Asia,Georgia,Adjara,,Batumi
92.241.87.74,4,2694,DNS Server: host-92-241-87-74-customer.wanex.net,GE,Asia,Western Asia,Georgia,Adjara,,Batumi
92.241.92.218,4,5,DNS Server: host-92-241-92-218-customer.wanex.net,GE,Asia,Western Asia,Georgia,Adjara,,Batumi
92.44.191.15,4,2218,DNS Server: host-92-44-191-15.reverse.superonline.net,TR,Asia,Western Asia,Turkey,Bursa Province,,Bursa
92.44.44.184,4,498,DNS Server: host-92-44-44-184.reverse.superonline.net,TR,Asia,Western Asia,Turkey,Istanbul,,Istanbul
95.104.115.98,4,140,DNS Server: host-95-104-115-98.customer.magticom.ge,GE,Asia,Western Asia,Georgia,Tbilisi,,Tbilisi
95.104.46.202,4,181,DNS Server: host-95-104-46-202.customer.magticom.ge,GE,Asia,Western Asia,Georgia,Tbilisi,,Tbilisi
95.140.203.92,4,30192262,DNS Server: host-95-140-203-92.customers.mts.am,AM,Asia,Western Asia,Armenia,Yerevan,,Yerevan
84.228.79.161,4,3204,DNS Server: IGLD-84-228-79-161.inter.net.il,IL,Asia,Western Asia,Israel,Tel Aviv,,Tel Aviv
130.193.122.173,4,-4737,DNS Server: ip-130-193-122-173.gnc.net,AM,Asia,Western Asia,Armenia,Yerevan,,Yerevan
37.186.115.160,4,-14394856,DNS Server: ip-37-186-115-160.gnc.net,AM,Asia,Western Asia,Armenia,Yerevan,,Yerevan
46.19.100.26,4,151,DNS Server: ip-46-19-100-26.gnc.net,AM,Asia,Western Asia,Armenia,Yerevan,,Yerevan
5.63.162.225,4,83,DNS Server: ip-5-63-162-225.gnc.net,AM,Asia,Western Asia,Armenia,,,
188.247.93.122,4,40091,DNS Server: ip188-247-93-122.zaindata.jo,JO,Asia,Western Asia,Jordan,Amman Governorate,,Amman
95.9.81.100,4,392,DNS Server: mail.corobo.com,TR,Asia,Western Asia,Turkey,Antalya,,Aksu
85.112.69.150,4,402,DNS Server: mail0.baroudilegal.com,LB,Asia,Western Asia,Lebanon,Beyrouth,,Beirut
199.203.131.145,4,131031,DNS Server: mailgw.polyram-group.com,IL,Asia,Western Asia,Israel,Tel Aviv,,Tel Aviv
37.1.145.34,4,304,DNS Server: mailserver0.cehturkiye.com,TR,Asia,Western Asia,Turkey,,,
81.4.149.154,4,-6959,DNS Server: nb29-154.static.cytanet.com.cy,CY,Asia,Western Asia,Cyprus,Limassol District,,Limassol
81.4.149.186,4,-380,DNS Server: nb29-186.static.cytanet.com.cy,CY,Asia,Western Asia,Cyprus,Limassol District,,Limassol
93.109.234.70,4,179517,DNS Server: nb41-70.static.cytanet.com.cy,CY,Asia,Western Asia,Cyprus,Larnaka,,Larnaca
93.109.228.14,4,74302,DNS Server: nb42-14.static.cytanet.com.cy,CY,Asia,Western Asia,Cyprus,Limassol District,,Limassol
80.86.231.136,4,88,DNS Server: netsys.am,AM,Asia,Western Asia,Armenia,,,
31.210.69.163,4,86,DNS Server: news.superkuladebulten.com,TR,Asia,Western Asia,Turkey,,,
80.179.160.8,4,91,DNS Server: ns-cel61.012.net.il,IL,Asia,Western Asia,Israel,Tel Aviv,,Holon
94.20.20.20,4,13,DNS Server: ns1.az-ix.net,AZ,Asia,Western Asia,Azerbaijan,,,
80.81.147.82,4,6591,DNS Server: ppp-03-82.cyberia.net.lb,LB,Asia,Western Asia,Lebanon,,,
77.235.145.178,4,351,DNS Server: ptr.145-178.mobi.net.lb,LB,Asia,Western Asia,Lebanon,Beyrouth,,Beirut
77.235.145.30,4,17204,DNS Server: ptr.145-30.mobi.net.lb,LB,Asia,Western Asia,Lebanon,Beyrouth,,Beirut
85.112.70.118,4,137176,DNS Server: rev-85-112-70-118.terra.net.lb,LB,Asia,Western Asia,Lebanon,Beyrouth,,Beirut
176.53.10.136,4,123,DNS Server: server-176.53.10.136.as42926.net,TR,Asia,Western Asia,Turkey,,,
78.111.106.90,4,609177,DNS Server: static-78-111-106-90.fibersunucu.com.tr,TR,Asia,Western Asia,Turkey,,,
78.111.106.91,4,609180,DNS Server: static-78-111-106-91.fibersunucu.com.tr,TR,Asia,Western Asia,Turkey,,,
89.148.55.251,4,328,DNS Server: static.ip.89.148.55.251.batelco.com.bh,BH,Asia,Western Asia,Bahrain,Manama,,Manama
89.252.137.67,4,734,doganlogistic.com,TR,Asia,Western Asia,Turkey,,,
159.253.41.154,4,925,dogruhaber.com.tr,TR,Asia,Western Asia,Turkey,,,
94.140.14.140,4,756,DoH server: dns-unfiltered.adguard.com,CY,Asia,Western Asia,Cyprus,,,
212.98.224.51,4,-112656,dorukmak.com.tr,TR,Asia,Western Asia,Turkey,,,
185.7.176.20,4,6,doviz.com,TR,Asia,Western Asia,Turkey,,,
185.254.237.119,4,3,drkadirkilimcioglu.com,TR,Asia,Western Asia,Turkey,,,
77.91.66.35,4,4,drugsoverthecounter.shop,GE,Asia,Western Asia,Georgia,,,
66.22.104.170,4,8,dubaigolf.com,AE,Asia,Western Asia,United Arab Emirates,Dubai,,Dubai
77.232.100.183,4,77,dulani.gov.sa,SA,Asia,Western Asia,Saudi Arabia,Eastern Province,,Dammam
217.116.199.58,4,-758,dunyaenerji.org.tr,TR,Asia,Western Asia,Turkey,Ankara,,Ankara
176.53.96.114,4,3,dunyaflor.com,TR,Asia,Western Asia,Turkey,,,
95.130.227.41,4,86,dunyo.info,AE,Asia,Western Asia,United Arab Emirates,,,
182.54.236.24,4,1656,e-mago.co.il,IL,Asia,Western Asia,Israel,Central District,,Petah Tikva
192.115.82.200,4,7,e-vrit.co.il,IL,Asia,Western Asia,Israel,Central District,,Rishon LeTsiyyon
186.2.171.43,4,73,easydonate.ru,AE,Asia,Western Asia,United Arab Emirates,,,
213.142.130.70,4,14272,ecepromosyon.com,TR,Asia,Western Asia,Turkey,,,
88.218.116.151,4,-1432,econcretetech.com,IL,Asia,Western Asia,Israel,Central District,,Rehovot
77.92.140.232,4,-367,econjournals.com,TR,Asia,Western Asia,Turkey,,,
74.122.101.182,4,9,edumag.net,TR,Asia,Western Asia,Turkey,Istanbul,,Istanbul
77.223.141.30,4,15,efesveteriner.com.tr,TR,Asia,Western Asia,Turkey,,,
93.187.201.199,4,207,egegelisimailedanisma.com,TR,Asia,Western Asia,Turkey,,,
85.95.237.110,4,3460,egemanservis.com,TR,Asia,Western Asia,Turkey,,,
154.53.165.46,4,83122,ekonomiyontem.com.tr,TR,Asia,Western Asia,Turkey,Istanbul,,Istanbul
185.179.26.131,4,28,elektrikforum.com,TR,Asia,Western Asia,Turkey,,,
101.44.38.126,4,75,eleman.net,TR,Asia,Western Asia,Turkey,Istanbul,,Istanbul
192.116.71.77,4,61,elijah-interfaith.org,IL,Asia,Western Asia,Israel,Tel Aviv,,Holon
5.2.84.81,4,-1822,ellinciyilmete.com,TR,Asia,Western Asia,Turkey,İzmir Province,,Izmir
66.22.66.118,4,10,emdep.vn,IL,Asia,Western Asia,Israel,,,
193.140.173.247,4,1,emu.edu.tr,TR,Asia,Western Asia,Turkey,,,
31.192.214.122,4,1088,endustrirulman.com,TR,Asia,Western Asia,Turkey,,,
83.150.214.2,4,1,engelliler.biz,TR,Asia,Western Asia,Turkey,,,
104.247.165.163,4,1674,englishstudyhere.com,TR,Asia,Western Asia,Turkey,,,
193.168.131.123,4,40,eos.ru,AE,Asia,Western Asia,United Arab Emirates,,,
195.225.46.43,4,5,eran.org.il,IL,Asia,Western Asia,Israel,,,
85.95.234.104,4,440,eratinyhouse.com,TR,Asia,Western Asia,Turkey,,,
185.198.197.125,4,7,erimti.com.tr,TR,Asia,Western Asia,Turkey,,,
93.186.120.166,4,17,ertatekstil.com.tr,TR,Asia,Western Asia,Turkey,Kocaeli,,Gebze
95.183.213.21,4,5,erzurum.edu.tr,TR,Asia,Western Asia,Turkey,Ankara,,Ankara
152.89.39.62,4,6,esiyok.av.tr,TR,Asia,Western Asia,Turkey,,,
93.180.133.17,4,7,eskidiyse.com,TR,Asia,Western Asia,Turkey,,,
212.175.156.125,4,150,eskisehir.bel.tr,TR,Asia,Western Asia,Turkey,,,
185.248.59.80,4,9,eskisehirdurum.com,TR,Asia,Western Asia,Turkey,,,
5.250.243.69,4,764,esporseti.com,TR,Asia,Western Asia,Turkey,Istanbul,,Istanbul
37.247.115.29,4,20151,estudamdergi.org,TR,Asia,Western Asia,Turkey,,,
91.151.83.169,4,21,eterzi.com,TR,Asia,Western Asia,Turkey,Istanbul,,Istanbul
193.140.108.140,4,25,etu.edu.tr,TR,Asia,Western Asia,Turkey,Ankara,,Ankara
212.108.143.183,4,4,eul.edu.tr,CY,Asia,Western Asia,Cyprus,Nicosia,,Nicosia
213.238.183.63,4,7,eurasian-research.org,TR,Asia,Western Asia,Turkey,,,
185.160.31.25,4,14,evimtasnakliyat.com.tr,TR,Asia,Western Asia,Turkey,,,
83.150.212.196,4,1066,expatguideturkey.com,TR,Asia,Western Asia,Turkey,,,
212.150.158.23,4,23,f2h.io,IL,Asia,Western Asia,Israel,Central District,,Netanya
89.252.183.35,4,7,fakrocatimerdivenleri.com,TR,Asia,Western Asia,Turkey,,,
80.253.246.193,4,18,fatihmedya.com,TR,Asia,Western Asia,Turkey,,,
213.128.70.117,4,29,fbu.edu.tr,TR,Asia,Western Asia,Turkey,Istanbul,,Istanbul
188.93.88.93,4,13,fcsamgurali.ge,GE,Asia,Western Asia,Georgia,Tbilisi,,Tbilisi
217.195.207.25,4,1484,fensorulari.com,TR,Asia,Western Asia,Turkey,,,
45.132.17.174,4,10,flado.ru,AE,Asia,Western Asia,United Arab Emirates,,,
91.223.82.206,4,7,footsoccerpro.co,AM,Asia,Western Asia,Armenia,,,
212.154.96.250,4,95,fordyedekleri.com,TR,Asia,Western Asia,Turkey,Ankara,,Ankara
82.80.210.157,4,2,forms-wizard.biz,IL,Asia,Western Asia,Israel,Tel Aviv,,Ramat Gan
91.239.207.139,4,378609,formulanews.ge,GE,Asia,Western Asia,Georgia,,,
178.210.175.22,4,-6306,fortiks.com,TR,Asia,Western Asia,Turkey,,,
188.93.95.26,4,36,forum.ge,GE,Asia,Western Asia,Georgia,Tbilisi,,Tbilisi
185.126.219.150,4,2,forumtek.net,TR,Asia,Western Asia,Turkey,,,
185.5.72.151,4,6,fotocdn.net,CY,Asia,Western Asia,Cyprus,,,
185.5.72.150,4,29,fotocdn.net,CY,Asia,Western Asia,Cyprus,,,
37.26.170.60,4,707338,freenet.am,AM,Asia,Western Asia,Armenia,,,
85.117.41.12,4,47,frontnews.ge,GE,Asia,Western Asia,Georgia,Tbilisi,,Tbilisi
178.157.8.164,4,-464,fsm.edu.tr,TR,Asia,Western Asia,Turkey,,,
195.142.105.13,4,34,galatasaray.org,TR,Asia,Western Asia,Turkey,,,
109.94.208.119,4,20,games-stats.com,AE,Asia,Western Asia,United Arab Emirates,,,
103.224.23.188,4,13,gaqm.org,AE,Asia,Western Asia,United Arab Emirates,,,
185.92.1.236,4,3,gazete1453.com.tr,TR,Asia,Western Asia,Turkey,Kocaeli,,Köseköy
185.171.88.103,4,6,gaziantepotoservis.com,TR,Asia,Western Asia,Turkey,,,
178.210.178.5,4,1064607,gedayapi.com,TR,Asia,Western Asia,Turkey,,,
185.241.63.106,4,32,gelirortaklari.com,TR,Asia,Western Asia,Turkey,,,
5.2.85.176,4,65,gencdergi.com,TR,Asia,Western Asia,Turkey,İzmir Province,,Izmir
213.238.183.199,4,5,genclerbirligi.org.tr,TR,Asia,Western Asia,Turkey,,,
185.201.148.70,4,-18,geneva-accord.org,IL,Asia,Western Asia,Israel,,,
93.187.162.109,4,3,genocide-museum.am,AM,Asia,Western Asia,Armenia,Yerevan,,Yerevan
185.163.200.21,4,-114029,georgiantheatre.ge,GE,Asia,Western Asia,Georgia,,,
91.239.207.119,4,204712,geotimes.ge,GE,Asia,Western Asia,Georgia,,,
89.252.174.4,4,31942,gerosland.com,TR,Asia,Western Asia,Turkey,,,
89.252.186.212,4,511,gevezeyeri.com,TR,Asia,Western Asia,Turkey,,,
91.239.207.180,4,10791200,geworld.ge,GE,Asia,Western Asia,Georgia,,,
77.223.142.4,4,733,geze-gen.com,TR,Asia,Western Asia,Turkey,,,
78.142.211.241,4,119,gezilinki.com,TR,Asia,Western Asia,Turkey,İzmir Province,,Izmir
190.115.26.99,4,7,gitflic.ru,AE,Asia,Western Asia,United Arab Emirates,,,
2.51.251.176,4,15,globalconnections.ae,AE,Asia,Western Asia,United Arab Emirates,Fujairah,,Al Fujairah City
195.54.178.116,4,177648,gobatumi.com,GE,Asia,Western Asia,Georgia,Tbilisi,,Tbilisi
193.168.131.49,4,-19755,godege.ru,AE,Asia,Western Asia,United Arab Emirates,,,
109.61.18.22,4,-2,gofuture.games,AE,Asia,Western Asia,United Arab Emirates,Dubai,,Dubai
194.146.239.57,4,119645,goldenchance.ir,AE,Asia,Western Asia,United Arab Emirates,,,
80.93.216.11,4,903,grafikerler.net,TR,Asia,Western Asia,Turkey,,,
5.250.241.218,4,15,grafiport.com,TR,Asia,Western Asia,Turkey,Istanbul,,Istanbul
190.115.30.139,4,20,grastin.ru,AE,Asia,Western Asia,United Arab Emirates,,,
194.31.64.17,4,-293,gruperel.com,TR,Asia,Western Asia,Turkey,,,
109.205.46.3,4,81389,gtu.ge,GE,Asia,Western Asia,Georgia,,,
185.111.245.67,4,1231834,guestranet.com,TR,Asia,Western Asia,Turkey,,,
93.115.79.212,4,7,gunlukburc.net,TR,Asia,Western Asia,Turkey,,,
78.135.107.41,4,3948,ha-xueli.com,TR,Asia,Western Asia,Turkey,Ankara,,Ankara
2.59.117.6,4,6,habata.com.tr,TR,Asia,Western Asia,Turkey,,,
89.252.159.131,4,1838,haber-yazilimi.org,TR,Asia,Western Asia,Turkey,,,
31.210.55.214,4,1046,haber1.com,TR,Asia,Western Asia,Turkey,Adana,,Adana
185.33.128.141,4,4,haber365.com.tr,TR,Asia,Western Asia,Turkey,,,
185.195.231.66,4,128,haber7.net,TR,Asia,Western Asia,Turkey,,,
45.151.251.6,4,1104,haberimolsa.com.tr,TR,Asia,Western Asia,Turkey,İzmir Province,,Izmir
86.96.202.167,4,-34,haggargroup.ae,AE,Asia,Western Asia,United Arab Emirates,Dubai,,Dubai
195.28.180.198,4,3,haifaff.co.il,IL,Asia,Western Asia,Israel,Central District,,Rosh Ha‘Ayin
185.198.74.19,4,934,hammaddeleransiklopedisi.com,TR,Asia,Western Asia,Turkey,Istanbul,,Istanbul
167.86.44.32,4,8,harel-group.co.il,IL,Asia,Western Asia,Israel,Central District,,
31.14.52.157,4,1614,haskarmedikal.com,TR,Asia,Western Asia,Turkey,,,
31.14.52.172,4,1614,hastayataklari.co,TR,Asia,Western Asia,Turkey,,,
213.159.1.61,4,-229,hatsan.com.tr,TR,Asia,Western Asia,Turkey,,,
188.93.90.240,4,4,hcore.ge,GE,Asia,Western Asia,Georgia,Tbilisi,,Tbilisi
89.252.161.35,4,5,hdemachine.com,TR,Asia,Western Asia,Turkey,,,
5.250.254.181,4,31,hebasanmakine.com,TR,Asia,Western Asia,Turkey,Bursa Province,,Bursa
80.179.142.74,4,-1,hebron.org.il,IL,Asia,Western Asia,Israel,Central District,,Petah Tikva
31.210.51.96,4,6,hemenpaylas.com,TR,Asia,Western Asia,Turkey,,,
45.59.70.115,4,9,hepbidolu.com,TR,Asia,Western Asia,Turkey,Bursa Province,,Bursa
85.111.45.200,4,15,hepsiburada.com,TR,Asia,Western Asia,Turkey,Istanbul,,Istanbul
185.106.208.89,4,7389,hermetics.org,TR,Asia,Western Asia,Turkey,,,
185.108.148.112,4,7,herzog.ac.il,IL,Asia,Western Asia,Israel,,,
190.115.21.222,4,5,hey-sen.com,AE,Asia,Western Asia,United Arab Emirates,,,
66.22.84.27,4,22,hidabroot.org,IL,Asia,Western Asia,Israel,Central District,,
94.102.13.165,4,13,hidayetcelik.com.tr,TR,Asia,Western Asia,Turkey,,,
185.8.33.207,4,185875,hidromax.com.tr,TR,Asia,Western Asia,Turkey,İzmir Province,,Izmir
95.173.179.170,4,1262,hihoy.com,TR,Asia,Western Asia,Turkey,,,
80.179.226.37,4,608,hma.org.il,IL,Asia,Western Asia,Israel,Central District,,Petah Tikva
91.92.144.116,4,6,hostingkartinok.com,CY,Asia,Western Asia,Cyprus,,,
193.168.131.61,4,9,hozotdel.ru,AE,Asia,Western Asia,United Arab Emirates,,,
91.151.84.154,4,-58,hsckablo.com,TR,Asia,Western Asia,Turkey,Istanbul,,Istanbul
43.225.54.244,4,1065,hu.lk,AE,Asia,Western Asia,United Arab Emirates,,,
93.187.202.7,4,5,hukuki.net,TR,Asia,Western Asia,Turkey,,,
45.139.222.22,4,6,humazeytinyag.com.tr,TR,Asia,Western Asia,Turkey,,,
84.95.150.50,4,4,humus101.com,IL,Asia,Western Asia,Israel,Jerusalem,,Naẖshon
185.126.218.24,4,1429,hyundaiclubtr.com,TR,Asia,Western Asia,Turkey,,,
94.20.21.214,4,2,ibar.az,AZ,Asia,Western Asia,Azerbaijan,,,
45.84.188.62,4,9,ictr.org,TR,Asia,Western Asia,Turkey,,,
185.56.73.24,4,2,idanraichelproject.com,IL,Asia,Western Asia,Israel,,,
88.218.116.134,4,909,idsf.org.il,IL,Asia,Western Asia,Israel,Central District,,Rehovot
92.42.38.132,4,3173,iep.com.tr,TR,Asia,Western Asia,Turkey,,,
217.195.207.207,4,44935,ihlamurarcelik.com,TR,Asia,Western Asia,Turkey,,,
141.98.205.235,4,7,ihu.edu.tr,TR,Asia,Western Asia,Turkey,,,
188.93.95.68,4,-10,iknow.ge,GE,Asia,Western Asia,Georgia,Tbilisi,,Tbilisi
185.8.182.17,4,-13,inlinetelecom.ru,CY,Asia,Western Asia,Cyprus,,,
34.18.81.201,4,3,insightss.co,QA,Asia,Western Asia,Qatar,Baladīyat ad Dawḩah,,Doha
195.28.181.44,4,44,insuranceusaauto.com,IL,Asia,Western Asia,Israel,Central District,,Rosh Ha‘Ayin
80.241.247.46,4,2,intel-com.ge,GE,Asia,Western Asia,Georgia,Tbilisi,,Tbilisi
185.229.109.222,4,0,investingeorgia.org,GE,Asia,Western Asia,Georgia,Tbilisi,,Tbilisi
185.241.138.100,4,-65,ipekci.com.tr,TR,Asia,Western Asia,Turkey,,,
89.252.137.25,4,879,ipektesisat.com,TR,Asia,Western Asia,Turkey,,,
46.20.1.165,4,44,ipekyoluhaber.net,TR,Asia,Western Asia,Turkey,Bursa Province,,Bursa
88.218.117.196,4,-2847,ipo.co.il,IL,Asia,Western Asia,Israel,Tel Aviv,,Tel Aviv
89.252.131.198,4,14,isam.org.tr,TR,Asia,Western Asia,Turkey,,,
88.218.116.190,4,-172632,isciweb.org,IL,Asia,Western Asia,Israel,Central District,,Rehovot
5.250.252.238,4,4,isinsu.com.tr,TR,Asia,Western Asia,Turkey,Istanbul,,Istanbul
217.195.206.9,4,98,isitan.com,TR,Asia,Western Asia,Turkey,,,
159.253.36.116,4,599790,islamansiklopedisi.info,TR,Asia,Western Asia,Turkey,,,
95.173.181.44,4,316730,islamveihsan.com,TR,Asia,Western Asia,Turkey,,,
91.191.173.162,4,708628,isola.design,TR,Asia,Western Asia,Turkey,,,
62.219.50.49,4,1,isracast.com,IL,Asia,Western Asia,Israel,Tel Aviv,,Tel Aviv
199.203.52.202,4,10050340,isratrance.com,IL,Asia,Western Asia,Israel,Southern District,,Arad
90.158.121.93,4,451,issanat.com.tr,TR,Asia,Western Asia,Turkey,Istanbul,,Istanbul
89.252.137.17,4,7,istabip.org.tr,TR,Asia,Western Asia,Turkey,,,
85.95.237.217,4,2931,istanbulexpresskurye.org,TR,Asia,Western Asia,Turkey,,,
104.247.162.35,4,4062,istanbulotomatiktente.net,TR,Asia,Western Asia,Turkey,,,
92.42.38.117,4,41,izfas.com.tr,TR,Asia,Western Asia,Turkey,,,
185.99.199.250,4,43,izka.org.tr,TR,Asia,Western Asia,Turkey,,,
185.7.176.4,4,12,izlesene.com,TR,Asia,Western Asia,Turkey,,,
83.229.81.191,4,12,jamd.ac.il,IL,Asia,Western Asia,Israel,Central District,,Rosh Ha‘Ayin
213.238.183.62,4,27,jartiyercorap.com,TR,Asia,Western Asia,Turkey,,,
185.184.154.65,4,0,jcpcarparts.co.nz,AE,Asia,Western Asia,United Arab Emirates,,,
80.179.142.66,4,35,jerusaleminstitute.org.il,IL,Asia,Western Asia,Israel,Central District,,Petah Tikva
193.168.131.40,4,4,jlaser.ru,AE,Asia,Western Asia,United Arab Emirates,,,
185.56.89.187,4,1,job4u.ae,AE,Asia,Western Asia,United Arab Emirates,,,
88.218.117.142,4,-1045,jordanretro.org,IL,Asia,Western Asia,Israel,Tel Aviv,,Tel Aviv
43.225.53.10,4,-14,journalijar.com,AE,Asia,Western Asia,United Arab Emirates,,,
195.225.46.181,4,3,jppi.org.il,IL,Asia,Western Asia,Israel,,,
185.8.33.112,4,5,jssm.org,TR,Asia,Western Asia,Turkey,İzmir Province,,Izmir
212.150.243.220,4,1151,julievino.com,IL,Asia,Western Asia,Israel,Central District,,Rosh Ha‘Ayin
66.22.104.59,4,9,jumeirahgolfestates.com,AE,Asia,Western Asia,United Arab Emirates,Dubai,,Dubai
31.210.50.164,4,7426,justanotherpanel.com,TR,Asia,Western Asia,Turkey,,,
192.116.146.34,4,1,jvpvc.com,IL,Asia,Western Asia,Israel,Tel Aviv,,Herzliya
93.115.79.240,4,-10947,kaanguler.com.tr,TR,Asia,Western Asia,Turkey,,,
188.132.200.45,4,8,kadincaforum.net,TR,Asia,Western Asia,Turkey,,,
91.239.207.211,4,19,kaizen.ge,GE,Asia,Western Asia,Georgia,,,
176.113.80.153,4,5,kakoysegodnyaprazdnik.ru,AE,Asia,Western Asia,United Arab Emirates,,,
78.135.106.187,4,18,kaleraf.com.tr,TR,Asia,Western Asia,Turkey,Ankara,,Ankara
94.102.0.248,4,2040,kameraarkasi.org,TR,Asia,Western Asia,Turkey,,,
185.195.230.30,4,2,kanal7.com,TR,Asia,Western Asia,Turkey,,,
37.247.119.232,4,10,kangurubebe.com,TR,Asia,Western Asia,Turkey,,,
185.87.120.114,4,901,karakoyelektronik.com,TR,Asia,Western Asia,Turkey,Bursa Province,,Bursa
159.253.43.43,4,1170,karalahana.com,TR,Asia,Western Asia,Turkey,,,
185.136.206.60,4,-9974828,karelservis.com.tr,TR,Asia,Western Asia,Turkey,Bursa Province,,Bursa
193.33.164.115,4,1511,karmod.com,TR,Asia,Western Asia,Turkey,,,
185.162.18.35,4,35,kathimerini.com.cy,CY,Asia,Western Asia,Cyprus,Limassol District,,Limassol
78.142.208.110,4,997,kayraprefabrik.com.tr,TR,Asia,Western Asia,Turkey,İzmir Province,,Izmir
85.95.237.66,4,-78,kayserispor.org,TR,Asia,Western Asia,Turkey,,,
185.56.72.170,4,20,kehilot.co.il,IL,Asia,Western Asia,Israel,,,
78.111.111.51,4,155185,kentelektrik27.com,TR,Asia,Western Asia,Turkey,,,
213.159.7.252,4,3,keskinrentacar.com.tr,TR,Asia,Western Asia,Turkey,,,
154.53.165.47,4,83332,kevser.com.tr,TR,Asia,Western Asia,Turkey,Istanbul,,Istanbul
5.180.185.253,4,3,kiaclubtr.com,TR,Asia,Western Asia,Turkey,,,
80.253.255.86,4,139,kilicalipasahamami.com,TR,Asia,Western Asia,Turkey,Istanbul,,Istanbul
88.218.117.88,4,114,kinneret.ac.il,IL,Asia,Western Asia,Israel,Tel Aviv,,Tel Aviv
217.116.199.238,4,176,kitabi.gen.tr,TR,Asia,Western Asia,Turkey,Ankara,,Ankara
45.135.132.113,4,13,kitabi.ru,AE,Asia,Western Asia,United Arab Emirates,,,
93.177.100.132,4,3,kitapsec.com,TR,Asia,Western Asia,Turkey,,,
92.45.25.135,4,-636875,kitapyurdu.com,TR,Asia,Western Asia,Turkey,Istanbul,,Istanbul
66.22.84.16,4,8,kkl-jnf.org,IL,Asia,Western Asia,Israel,Central District,,
66.22.84.22,4,17,kkl.org.il,IL,Asia,Western Asia,Israel,Central District,,
45.141.151.84,4,14,kktcgecealemi.com,TR,Asia,Western Asia,Turkey,,,
179.61.253.94,4,11,klpbbs.com,AE,Asia,Western Asia,United Arab Emirates,,,
185.85.191.185,4,1058,klsklaset.com.tr,TR,Asia,Western Asia,Turkey,,,
195.244.63.20,4,-260342,klup.com.tr,TR,Asia,Western Asia,Turkey,,,
5.2.85.126,4,20,konaksanotocekici.com,TR,Asia,Western Asia,Turkey,İzmir Province,,Izmir
193.162.43.101,4,2823,koncnc.com,TR,Asia,Western Asia,Turkey,,,
178.157.9.11,4,52,konusarakogren.com,TR,Asia,Western Asia,Turkey,,,
95.173.190.140,4,1618,kozabayi.com,TR,Asia,Western Asia,Turkey,,,
5.2.84.66,4,63,krallarintavugu.com,TR,Asia,Western Asia,Turkey,İzmir Province,,Izmir
185.216.40.107,4,-29965366,ksau-hs.edu.sa,SA,Asia,Western Asia,Saudi Arabia,Riyadh Region,,Riyadh
176.113.80.233,4,7,ktv-ray.ru,AE,Asia,Western Asia,United Arab Emirates,,,
213.238.179.223,4,30863,kuflu.com,TR,Asia,Western Asia,Turkey,Denizli,,Denizli
82.80.25.204,4,14,kulam.org,IL,Asia,Western Asia,Israel,Central District,,Qvutsat Yavne
190.115.21.86,4,7,kupitpravaah.com,AE,Asia,Western Asia,United Arab Emirates,,,
78.142.209.94,4,304,kursara.com,TR,Asia,Western Asia,Turkey,İzmir Province,,Izmir
195.175.54.82,4,-79,kutahya.bel.tr,TR,Asia,Western Asia,Turkey,Bursa Province,,Bursa
178.210.174.16,4,27484,kuzeycorapbaski.com,TR,Asia,Western Asia,Turkey,,,
188.93.95.105,4,2,kvira.ge,GE,Asia,Western Asia,Georgia,Tbilisi,,Tbilisi
78.142.208.58,4,447,kwturkiye.com,TR,Asia,Western Asia,Turkey,İzmir Province,,Izmir
212.175.35.61,4,6,kyrenia.edu.tr,TR,Asia,Western Asia,Turkey,,,
2.56.153.33,4,952,lapintasergeblanco.com,TR,Asia,Western Asia,Turkey,,,
93.113.63.158,4,814879,lefzen.com,TR,Asia,Western Asia,Turkey,,,
94.20.59.201,4,64,lent.az,AZ,Asia,Western Asia,Azerbaijan,,,
185.85.205.31,4,10,lezzetci.com,TR,Asia,Western Asia,Turkey,,,
85.95.239.243,4,5,lfaturkiye.com,TR,Asia,Western Asia,Turkey,,,
176.88.66.88,4,1,limak.com.tr,TR,Asia,Western Asia,Turkey,,,
185.16.238.221,4,11,linkgroup.com.tr,TR,Asia,Western Asia,Turkey,,,
45.84.189.83,4,4,livuajans.net,TR,Asia,Western Asia,Turkey,,,
15.184.239.121,4,14,lovindubai.com,BH,Asia,Western Asia,Bahrain,,,
185.111.247.38,4,1676,macityhotel.com,TR,Asia,Western Asia,Turkey,,,
195.244.61.20,4,5,mackolik.com,TR,Asia,Western Asia,Turkey,,,
46.31.77.50,4,61,magazincell.com.tr,TR,Asia,Western Asia,Turkey,,,
81.218.117.93,4,6,magmamagnets.com,IL,Asia,Western Asia,Israel,Tel Aviv,,Tel Aviv
94.138.218.202,4,55,magnetdunyasi.com,TR,Asia,Western Asia,Turkey,,,
5.2.85.131,4,9,maildeposu.com,TR,Asia,Western Asia,Turkey,İzmir Province,,Izmir
66.22.84.55,4,8,mako.co.il,IL,Asia,Western Asia,Israel,Central District,,
78.135.106.49,4,21,malatyahaber.com,TR,Asia,Western Asia,Turkey,Ankara,,Ankara
89.252.183.211,4,3304,manevihayat.com,TR,Asia,Western Asia,Turkey,,,
104.247.162.20,4,7817,mardo.com.tr,TR,Asia,Western Asia,Turkey,,,
195.54.178.41,4,-66408,marneuli.net,GE,Asia,Western Asia,Georgia,Tbilisi,,Tbilisi
89.252.183.67,4,800,masallaroku.com,TR,Asia,Western Asia,Turkey,,,
8.213.25.125,4,12,masar3500.com,SA,Asia,Western Asia,Saudi Arabia,Riyadh Region,,Riyadh
91.239.207.212,4,72,matemotors.com,GE,Asia,Western Asia,Georgia,,,
185.241.4.171,4,1194,matomy.com,IL,Asia,Western Asia,Israel,Central District,,Petah Tikva
78.142.209.222,4,632,mavvo.com.tr,TR,Asia,Western Asia,Turkey,İzmir Province,,Izmir
66.22.84.239,4,58,max.co.il,IL,Asia,Western Asia,Israel,Central District,,
185.149.103.192,4,835937,medikritik.com,TR,Asia,Western Asia,Turkey,İzmir Province,,Izmir
185.248.59.41,4,406,medyaege.com.tr,TR,Asia,Western Asia,Turkey,,,
194.145.202.235,4,5,megogo.net,CY,Asia,Western Asia,Cyprus,,,
194.145.202.234,4,6,megogo.net,CY,Asia,Western Asia,Cyprus,,,
194.145.202.236,4,4,megogo.net,CY,Asia,Western Asia,Cyprus,,,
194.145.202.238,4,5,megogo.net,CY,Asia,Western Asia,Cyprus,,,
95.173.181.90,4,17,mehmetakif.edu.tr,TR,Asia,Western Asia,Turkey,,,
37.148.211.123,4,5,mehmetefendi.com,TR,Asia,Western Asia,Turkey,,,
89.252.184.23,4,11,mehmetnuriarslan.com,TR,Asia,Western Asia,Turkey,,,
167.86.44.73,4,7,menoramivt.co.il,IL,Asia,Western Asia,Israel,Central District,,
81.21.164.207,4,15,merithotels.com,TR,Asia,Western Asia,Turkey,Istanbul,,Istanbul
193.255.128.7,4,412,mersin.edu.tr,TR,Asia,Western Asia,Turkey,Mersin,,Mersin
5.250.251.6,4,14,mersinnakliyecilersitesi.com,TR,Asia,Western Asia,Turkey,Istanbul,,Istanbul
213.157.205.208,4,779,messenger.com.ge,GE,Asia,Western Asia,Georgia,Tbilisi,,Tbilisi
5.2.84.101,4,5,metinhepyukselen.com,TR,Asia,Western Asia,Turkey,İzmir Province,,Izmir
185.37.149.106,4,3,mhmhmuseum.org,IL,Asia,Western Asia,Israel,Central District,,Petah Tikva
3.29.154.236,4,2,mideastvibes.com,AE,Asia,Western Asia,United Arab Emirates,Dubai,,Dubai
188.132.158.132,4,-11714,migrationletters.com,TR,Asia,Western Asia,Turkey,,,
2.19.193.67,4,21,millipiyangoonline.com,TR,Asia,Western Asia,Turkey,Istanbul,,Istanbul
195.225.46.99,4,37,milog.co.il,IL,Asia,Western Asia,Israel,,,
85.237.211.162,4,14,mimedia.in,AE,Asia,Western Asia,United Arab Emirates,Dubai,,Dubai
185.9.38.139,4,72,mircalemi.net,TR,Asia,Western Asia,Turkey,,,
185.106.209.3,4,2204,mircforumlari.net,TR,Asia,Western Asia,Turkey,,,
213.159.30.159,4,8,misyonkredi.com,TR,Asia,Western Asia,Turkey,Istanbul,,Istanbul
88.218.116.155,4,-644,mitvim.org.il,IL,Asia,Western Asia,Israel,Central District,,Rehovot
185.230.209.102,4,9,mizbani.xyz,SA,Asia,Western Asia,Saudi Arabia,,,
167.86.44.72,4,9,mizrahi-tefahot.co.il,IL,Asia,Western Asia,Israel,Central District,,
5.250.248.27,4,1,mlsaturkey.com,TR,Asia,Western Asia,Turkey,Istanbul,,Istanbul
195.225.46.15,4,42,molad.org,IL,Asia,Western Asia,Israel,,,
186.2.171.19,4,35,moon.market,AE,Asia,Western Asia,United Arab Emirates,,,
178.18.199.150,4,189676,mshowto.org,TR,Asia,Western Asia,Turkey,,,
89.252.141.23,4,262,msreklam.com.tr,TR,Asia,Western Asia,Turkey,İzmir Province,,Izmir
185.118.143.26,4,6,mtasaturkiye.com,TR,Asia,Western Asia,Turkey,Manisa,,Magnesia ad Sipylum
37.247.114.198,4,56376,muhasebetr.com,TR,Asia,Western Asia,Turkey,,,
89.252.138.3,4,1145,multeciler.org.tr,TR,Asia,Western Asia,Turkey,,,
188.93.95.125,4,71,museum.ge,GE,Asia,Western Asia,Georgia,Tbilisi,,Tbilisi
37.9.207.66,4,1518,musiad.org.tr,TR,Asia,Western Asia,Turkey,,,
185.37.148.221,4,984,musictalk.co.il,IL,Asia,Western Asia,Israel,Tel Aviv,,Tel Aviv
95.173.165.92,4,-1181,mustafainan.com.tr,TR,Asia,Western Asia,Turkey,,,
185.179.24.100,4,53,mustafaozdemir.com.tr,TR,Asia,Western Asia,Turkey,,,
109.176.253.41,4,1,mutfaksirlari.com,TR,Asia,Western Asia,Turkey,Bursa Province,,Bursa
45.67.203.7,4,1186,mybbkursu.com,TR,Asia,Western Asia,Turkey,Bursa Province,,Osmangazi
89.252.183.249,4,762,myhomelogistic.com,TR,Asia,Western Asia,Turkey,,,
193.168.131.25,4,3,myrubicon.ru,AE,Asia,Western Asia,United Arab Emirates,,,
66.22.84.58,4,9,n12.co.il,IL,Asia,Western Asia,Israel,Central District,,
185.56.74.98,4,17,nadlancenter.co.il,IL,Asia,Western Asia,Israel,,,
185.18.205.221,4,2,naftalibike.co.il,IL,Asia,Western Asia,Israel,Jerusalem,,Jerusalem
88.218.116.160,4,-7,nalagaat.org.il,IL,Asia,Western Asia,Israel,Central District,,Rehovot
31.186.11.138,4,8,namikazeforum.com,TR,Asia,Western Asia,Turkey,,,
176.53.12.16,4,2,namlipastirma.com.tr,TR,Asia,Western Asia,Turkey,,,
80.179.226.44,4,6,nana10.co.il,IL,Asia,Western Asia,Israel,Central District,,Petah Tikva
185.165.46.83,4,4,nationalturk.com,TR,Asia,Western Asia,Turkey,Istanbul,,Istanbul
91.212.213.2,4,2988437,nbcenter.ge,GE,Asia,Western Asia,Georgia,,,
178.18.193.142,4,6,neolokal.com,TR,Asia,Western Asia,Turkey,,,
193.168.131.69,4,4,nesekretno.ru,AE,Asia,Western Asia,United Arab Emirates,,,
78.142.210.53,4,1068,nesinkoyleri.org,TR,Asia,Western Asia,Turkey,İzmir Province,,Izmir
45.95.201.20,4,128,newplayjj.com,AE,Asia,Western Asia,United Arab Emirates,Dubai,,Dubai
45.95.201.19,4,-13,newplayjj.com,AE,Asia,Western Asia,United Arab Emirates,Dubai,,Dubai
94.20.142.173,4,3,newstube.az,AZ,Asia,Western Asia,Azerbaijan,,,
45.151.250.18,4,1075,nikeoutletstores.org,TR,Asia,Western Asia,Turkey,İzmir Province,,Izmir
185.145.255.98,4,-1,nituv-eng.com,IL,Asia,Western Asia,Israel,,,
85.95.241.238,4,81938,nkfu.com,TR,Asia,Western Asia,Turkey,,,
37.26.174.115,4,-1,nla.am,AM,Asia,Western Asia,Armenia,,,
45.158.14.18,4,3,nobetci-eczane.org,TR,Asia,Western Asia,Turkey,Istanbul,,Istanbul
45.84.189.195,4,76,noktadanismanlik.net,TR,Asia,Western Asia,Turkey,,,
185.141.63.212,4,38,norbits.net,CY,Asia,Western Asia,Cyprus,,,
159.253.44.149,4,794,novihills.com,TR,Asia,Western Asia,Turkey,,,
78.135.82.165,4,4,nviss.ca,TR,Asia,Western Asia,Turkey,Istanbul,,Istanbul
185.8.129.233,4,4,offroad.ist,TR,Asia,Western Asia,Turkey,İzmir Province,,Izmir
212.68.42.217,4,11,ogunhaber.com,TR,Asia,Western Asia,Turkey,,,
185.136.206.14,4,43,oguzhankaraburgu.com.tr,TR,Asia,Western Asia,Turkey,Bursa Province,,Bursa
89.252.137.41,4,26,okeanostercume.com.tr,TR,Asia,Western Asia,Turkey,,,
46.31.78.216,4,26,okeyankara.com,TR,Asia,Western Asia,Turkey,,,
31.207.86.3,4,-602,oktotech.com,TR,Asia,Western Asia,Turkey,Istanbul,,Istanbul
185.165.46.126,4,47,olamare.com,TR,Asia,Western Asia,Turkey,Istanbul,,Istanbul
185.163.200.25,4,15,oldgroup.ge,GE,Asia,Western Asia,Georgia,,,
94.102.8.90,4,1969,oliviabeckford.co.uk,TR,Asia,Western Asia,Turkey,,,
5.37.56.186,4,-51720152,omaninfo.om,OM,Asia,Western Asia,Oman,Muscat,,Seeb
5.37.56.184,4,-51720152,omannews.gov.om,OM,Asia,Western Asia,Oman,Muscat,,Seeb
45.158.12.45,4,-253858,omegletv.tv,TR,Asia,Western Asia,Turkey,İzmir Province,,Izmir
194.5.236.237,4,8,on5yirmi5.com,TR,Asia,Western Asia,Turkey,Istanbul,,Istanbul
77.92.141.173,4,647209,onal-ongelen.av.tr,TR,Asia,Western Asia,Turkey,,,
45.94.4.244,4,24,onaysms.org,TR,Asia,Western Asia,Turkey,,,
78.142.210.147,4,547,ondernakliyat.gen.tr,TR,Asia,Western Asia,Turkey,İzmir Province,,Izmir
194.5.236.131,4,13,onlinesunucu.com,TR,Asia,Western Asia,Turkey,Istanbul,,Istanbul
82.102.79.130,4,833332,Ookla Speedtest Server 610: speedtest-node.prime-tel.com,CY,Asia,Western Asia,Cyprus,,,
82.178.33.35,4,1170807,Ookla Speedtest Server 1717: speedtest.omantel.om,AE,Asia,Western Asia,United Arab Emirates,,,
86.51.82.252,4,211,Ookla Speedtest Server 1734: dam.myspeed.net.sa,SA,Asia,Western Asia,Saudi Arabia,Eastern Province,,Dammam
176.28.83.17,4,280,Ookla Speedtest Server 2221: speedtest.bakcell.com,AZ,Asia,Western Asia,Azerbaijan,Baku City,,Baku
94.128.4.182,4,254,Ookla Speedtest Server 2319: speedtest15.stc.com.kw,KW,Asia,Western Asia,Kuwait,Al Asimah,,Kuwait City
79.170.53.30,4,-1745851,Ookla Speedtest Server 3196: speedtest-jeddahnew.sa.zain.com,SA,Asia,Western Asia,Saudi Arabia,,,
79.170.51.55,4,398,Ookla Speedtest Server 3208: speedtest-riyadhnew.sa.zain.com,SA,Asia,Western Asia,Saudi Arabia,Riyadh Region,,Riyadh
93.184.146.4,4,-1566008,Ookla Speedtest Server 4106: speedtest.fixnet.com.tr,TR,Asia,Western Asia,Turkey,Edirne,,Edirne
134.0.216.42,4,-2725951,Ookla Speedtest Server 4570: speedtest2.omantel.om,AE,Asia,Western Asia,United Arab Emirates,,,
207.232.36.172,4,-1007915,Ookla Speedtest Server 5283: speed.cellcom.co.il,IL,Asia,Western Asia,Israel,Jerusalem,,Jerusalem
176.241.82.85,4,176,Ookla Speedtest Server 5622: sp1.hayat-isp.net,IQ,Asia,Western Asia,Iraq,Baghdad,,Baghdad
78.89.136.210,4,307,Ookla Speedtest Server 5816: ookla5.ooredoo.com.kw,KW,Asia,Western Asia,Kuwait,Al Asimah,,Kuwait City
82.148.98.214,4,288,Ookla Speedtest Server 6193: speedtest2a.ooredoo.qa,QA,Asia,Western Asia,Qatar,Baladīyat ad Dawḩah,,Doha
95.173.191.102,4,265926,Ookla Speedtest Server 6507: sp1.ni.net.tr,TR,Asia,Western Asia,Turkey,,,
185.101.16.35,4,327,Ookla Speedtest Server 7485: speedtest1.wavenet-lb.net,LB,Asia,Western Asia,Lebanon,,,
94.230.90.4,4,297,Ookla Speedtest Server 9034: speedtest.018.co.il,IL,Asia,Western Asia,Israel,Central District,,Rishon LeTsiyyon
94.20.71.210,4,14396619,Ookla Speedtest Server 9320: speedtest.datacenter.az,AZ,Asia,Western Asia,Azerbaijan,Baku City,,Baku
185.162.127.2,4,32697,Ookla Speedtest Server 11616: speedtest.il-rh.kamatera.com,IL,Asia,Western Asia,Israel,Central District,,Rosh Ha‘Ayin
149.255.155.210,4,299,Ookla Speedtest Server 13292: sp1.katv1.net,AZ,Asia,Western Asia,Azerbaijan,Baku City,,Baku
176.235.153.160,4,373,Ookla Speedtest Server 13810: speedcumra.lodosnet.com,TR,Asia,Western Asia,Turkey,Konya,,Çumra
195.189.140.12,4,351,Ookla Speedtest Server 13940: speedtest2.spd.co.il,IL,Asia,Western Asia,Israel,Central District,,Rishon LeTsiyyon
188.225.230.38,4,279,Ookla Speedtest Server 13973: speedtest.coolnet.ps,PS,Asia,Western Asia,Palestine,,,
178.160.207.186,4,328,Ookla Speedtest Server 14851: speedtest-100g.telecomarmenia.am,AM,Asia,Western Asia,Armenia,Yerevan,,Yerevan
185.40.32.226,4,264,Ookla Speedtest Server 15402: speedtest.bossnet.az,AZ,Asia,Western Asia,Azerbaijan,,,
185.40.32.227,4,262,Ookla Speedtest Server 15542: speedtest.gotelecom.az,AZ,Asia,Western Asia,Azerbaijan,,,
185.40.32.228,4,359,Ookla Speedtest Server 15559: speedtest.duu.az,AZ,Asia,Western Asia,Azerbaijan,,,
176.236.239.15,4,197,Ookla Speedtest Server 15566: speedilgin.lodosnet.com,TR,Asia,Western Asia,Turkey,Konya,,Ilgın
217.195.202.233,4,129,Ookla Speedtest Server 15600: speedtest.sunucumerkezim.com,TR,Asia,Western Asia,Turkey,Bursa Province,,Bursa
212.179.15.194,4,122,Ookla Speedtest Server 15746: speedtest.bezeqint.net,IL,Asia,Western Asia,Israel,Tel Aviv,,Holon
149.34.192.16,4,69,Ookla Speedtest Server 15847: speedosmancik.lodosnet.com,TR,Asia,Western Asia,Turkey,Çorum,,Osmancık
87.109.44.122,4,198250,Ookla Speedtest Server 16051: dam-speedtest.saudi.net.sa,SA,Asia,Western Asia,Saudi Arabia,Mecca Region,,Ta'if
38.156.75.200,4,-6873,Ookla Speedtest Server 16244: speed.teraisp.com,TR,Asia,Western Asia,Turkey,Hatay,,Antakya
109.107.155.5,4,-15185,Ookla Speedtest Server 16369: teste.mena-isp.net,IQ,Asia,Western Asia,Iraq,Al Anbar,,Ramadi
188.72.4.230,4,205,Ookla Speedtest Server 16882: speedtest.alsardfiber.com,IQ,Asia,Western Asia,Iraq,,,
80.179.160.70,4,108,Ookla Speedtest Server 17022: speedtest2.partner.co.il,IL,Asia,Western Asia,Israel,Tel Aviv,,Holon
5.42.226.10,4,-14821223,Ookla Speedtest Server 17373: ftthspeed-kho.itc.sa,SA,Asia,Western Asia,Saudi Arabia,Riyadh Region,,Riyadh
185.32.44.70,4,137700,Ookla Speedtest Server 17428: speedtest.izone.az,AZ,Asia,Western Asia,Azerbaijan,Baku City,,Baku
62.209.25.182,4,-257246,Ookla Speedtest Server 17574: stest.bh.zain.com,BH,Asia,Western Asia,Bahrain,Muharraq,,Al Ḩadd
81.22.16.158,4,113,Ookla Speedtest Server 17711: speedtest.kalaam-telecom.com,BH,Asia,Western Asia,Bahrain,Manama,,Manama
185.176.44.2,4,141,Ookla Speedtest Server 19169: speedtest.blink.jo,JO,Asia,Western Asia,Jordan,,,
83.139.0.19,4,948,Ookla Speedtest Server 19443: speedtesthost2.mts.am,AM,Asia,Western Asia,Armenia,Yerevan,,Yerevan
87.252.96.194,4,246,Ookla Speedtest Server 20782: speedtest.viacloud.com,BH,Asia,Western Asia,Bahrain,Manama,,Manama
46.197.126.22,4,8809683,Ookla Speedtest Server 20990: st-gaziantep-1.turksatkablo.com.tr,TR,Asia,Western Asia,Turkey,,,
176.240.231.22,4,9775302,Ookla Speedtest Server 20991: st-mersin-1.turksatkablo.com.tr,TR,Asia,Western Asia,Turkey,Bursa Province,,Bursa
212.18.121.252,4,361,Ookla Speedtest Server 21884: speedtest.netwifi.com.tr,TR,Asia,Western Asia,Turkey,Istanbul,,Istanbul
185.186.206.21,4,773,Ookla Speedtest Server 22385: speed.omren.om,OM,Asia,Western Asia,Oman,Muscat,,Ar Rusayl
95.86.132.54,4,289,Ookla Speedtest Server 22827: speedtest.smart.az,AZ,Asia,Western Asia,Azerbaijan,Baku City,,Baku
84.235.127.118,4,78018,Ookla Speedtest Server 24106: baha-speedtest.saudi.net.sa,SA,Asia,Western Asia,Saudi Arabia,,,
84.235.127.110,4,68751,Ookla Speedtest Server 24110: abha-speedtest.saudi.net.sa,SA,Asia,Western Asia,Saudi Arabia,,,
84.235.127.122,4,138641,Ookla Speedtest Server 24113: najran-speedtest.saudi.net.sa,SA,Asia,Western Asia,Saudi Arabia,,,
87.109.45.14,4,-112289,Ookla Speedtest Server 24115: kharj-speedtest.saudi.net.sa,SA,Asia,Western Asia,Saudi Arabia,Mecca Region,,Ta'if
195.78.233.198,4,294874,Ookla Speedtest Server 24201: jubail-speedtest.saudi.net.sa,SA,Asia,Western Asia,Saudi Arabia,,,
84.235.127.126,4,386287,Ookla Speedtest Server 24203: bisha-speedtest.saudi.net.sa,SA,Asia,Western Asia,Saudi Arabia,,,
195.137.223.146,4,238,Ookla Speedtest Server 24555: speedtest.ramtek.net.tr,TR,Asia,Western Asia,Turkey,Istanbul,,Istanbul
213.32.253.214,4,367,Ookla Speedtest Server 25218: speedtest2.o3-telecom.com,IQ,Asia,Western Asia,Iraq,Erbil,,Erbil
86.51.76.236,4,322,Ookla Speedtest Server 26065: krj.myspeed.net.sa,SA,Asia,Western Asia,Saudi Arabia,Riyadh Region,,Al Kharj
86.51.25.17,4,394,Ookla Speedtest Server 26066: mdn.myspeed.net.sa,SA,Asia,Western Asia,Saudi Arabia,Medina Region,,Medina
213.172.73.149,4,401,Ookla Speedtest Server 26286: speedtest.aet.az,AZ,Asia,Western Asia,Azerbaijan,Baku City,,Baku
86.51.29.190,4,421,Ookla Speedtest Server 26515: msr.myspeed.net.sa,SA,Asia,Western Asia,Saudi Arabia,Mecca Region,,Makkah
193.33.164.254,4,284,Ookla Speedtest Server 28778: hiztesti.codit.com.tr,TR,Asia,Western Asia,Turkey,,,
185.4.252.251,4,334,Ookla Speedtest Server 30063: speedtest.eaglenet.net.lb,LB,Asia,Western Asia,Lebanon,,,
195.191.187.111,4,439,Ookla Speedtest Server 32183: speedtest.skynet.am,AM,Asia,Western Asia,Armenia,Yerevan,,Yerevan
188.41.241.70,4,388,Ookla Speedtest Server 32362: geb1speedtest.turktelekom.com.tr,TR,Asia,Western Asia,Turkey,,,
185.95.206.129,4,340,Ookla Speedtest Server 32669: speedtest-sulfm.asiacell.com,IQ,Asia,Western Asia,Iraq,Sulaymaniyah,,Sulaymaniyah
79.134.128.7,4,312,Ookla Speedtest Server 33140: speed2.jcs.jo,JO,Asia,Western Asia,Jordan,Amman Governorate,,Amman
77.92.155.42,4,19847,Ookla Speedtest Server 33376: ookla.sh.com.tr,TR,Asia,Western Asia,Turkey,,,
37.77.48.51,4,4594,Ookla Speedtest Server 39247: speedtest.jt.iq,IQ,Asia,Western Asia,Iraq,Baghdad,,Baghdad
176.67.63.122,4,-32620,Ookla Speedtest Server 40393: speedtest3.mada.ps,PS,Asia,Western Asia,Palestine,,,
91.201.200.18,4,420,Ookla Speedtest Server 41093: speedtest.azincom.az,AZ,Asia,Western Asia,Azerbaijan,,,
193.33.204.20,4,379,Ookla Speedtest Server 41522: hiztesti-ist.codit.com.tr,TR,Asia,Western Asia,Turkey,,,
188.119.0.138,4,280,Ookla Speedtest Server 42517: speedtest16.turk.net,TR,Asia,Western Asia,Turkey,Bursa Province,,Bursa
159.146.91.26,4,373,Ookla Speedtest Server 42525: speedtest42.turk.net,TR,Asia,Western Asia,Turkey,Konya,,Çumra
159.146.32.102,4,344,Ookla Speedtest Server 42526: speedtest06.turk.net,TR,Asia,Western Asia,Turkey,Ankara,,Ankara
31.223.124.2,4,290,Ookla Speedtest Server 42947: speedtest07.turk.net,TR,Asia,Western Asia,Turkey,Antalya,,Antalya
87.109.44.102,4,231320,Ookla Speedtest Server 43126: addiriyah-speedtest.saudi.net.sa,SA,Asia,Western Asia,Saudi Arabia,Mecca Region,,Ta'if
87.109.44.110,4,120655,Ookla Speedtest Server 43127: tuwaiq-speedtest.saudi.net.sa,SA,Asia,Western Asia,Saudi Arabia,Mecca Region,,Ta'if
168.187.226.26,4,277,Ookla Speedtest Server 43256: speedtest.zajil.com,KW,Asia,Western Asia,Kuwait,Al Asimah,,Kuwait City
78.89.136.252,4,286,Ookla Speedtest Server 43390: ookla3.ooredoo.com.kw,KW,Asia,Western Asia,Kuwait,Al Asimah,,Kuwait City
78.89.136.251,4,255,Ookla Speedtest Server 43396: ookla2.ooredoo.com.kw,KW,Asia,Western Asia,Kuwait,Al Asimah,,Kuwait City
45.15.43.7,4,320,Ookla Speedtest Server 43401: speedtest.beeonline.az,AZ,Asia,Western Asia,Azerbaijan,Baku City,,Baku
85.132.110.11,4,330,Ookla Speedtest Server 43502: speedtest.selnet.az,AZ,Asia,Western Asia,Azerbaijan,Baku City,,Baku
45.84.220.90,4,377,Ookla Speedtest Server 43748: speedtest.euronet.net.tr,TR,Asia,Western Asia,Turkey,Istanbul,,Istanbul
89.46.202.239,4,287,Ookla Speedtest Server 44649: speedtest-njf.asiacell.com,IQ,Asia,Western Asia,Iraq,,,
82.199.220.239,4,217,Ookla Speedtest Server 44812: speedtest-msl.asiacell.com,IQ,Asia,Western Asia,Iraq,Nineveh,,Mosul
217.21.0.47,4,456459,Ookla Speedtest Server 45636: al-bireh-speedtest.paltel.ps,PS,Asia,Western Asia,Palestine,,,
151.236.178.18,4,160,Ookla Speedtest Server 46713: speedtestbas.iq.zain.com,IQ,Asia,Western Asia,Iraq,Basra,,Basra
151.236.172.18,4,272,Ookla Speedtest Server 46767: speedtestdiw.iq.zain.com,IQ,Asia,Western Asia,Iraq,Muhafazat Wasit,,Kut
151.236.169.26,4,190,Ookla Speedtest Server 47065: speedtestkir.iq.zain.com,IQ,Asia,Western Asia,Iraq,Kirkuk,,Kirkuk
82.199.216.239,4,178,Ookla Speedtest Server 47123: speedtest-bgdap.asiacell.com,IQ,Asia,Western Asia,Iraq,Baghdad,,Baghdad
86.51.77.205,4,397,Ookla Speedtest Server 47125: twq.myspeed.net.sa,SA,Asia,Western Asia,Saudi Arabia,Riyadh Region,,Riyadh
82.199.218.239,4,201,Ookla Speedtest Server 47157: speedtest-dyl.asiacell.com,IQ,Asia,Western Asia,Iraq,Diyālá,,Baqubah
5.2.80.47,4,109,Ookla Speedtest Server 47198: speedtest.alastyr.com,TR,Asia,Western Asia,Turkey,İzmir Province,,Izmir
185.145.255.152,4,208,Ookla Speedtest Server 47785: speedtest.dreamvps.com,IL,Asia,Western Asia,Israel,,,
86.51.26.145,4,198,Ookla Speedtest Server 48995: dah.myspeed.net.sa,SA,Asia,Western Asia,Saudi Arabia,Eastern Province,,Dhahran
37.32.78.100,4,257,Ookla Speedtest Server 49035: speedtest.artkom.az,AZ,Asia,Western Asia,Azerbaijan,,,
185.23.125.246,4,247,Ookla Speedtest Server 49906: speedtest-khamismushait.sa.zain.com,SA,Asia,Western Asia,Saudi Arabia,,,
213.14.19.190,4,-21332,Ookla Speedtest Server 50529: speedtest.syriacom.co,TR,Asia,Western Asia,Turkey,Kilis,,Kilis
212.174.87.104,4,283,Ookla Speedtest Server 51537: furat.xyz,TR,Asia,Western Asia,Turkey,Gaziantep,,Karkamış
213.238.172.107,4,267,Ookla Speedtest Server 51661: speedtest.kapteyan.com.tr,TR,Asia,Western Asia,Turkey,Istanbul,,Istanbul
103.199.91.234,4,-60998,Ookla Speedtest Server 51669: speedtest03.vodafone.com.qa,QA,Asia,Western Asia,Qatar,Baladīyat ad Dawḩah,,Doha
46.60.3.198,4,-2791078,Ookla Speedtest Server 52482: speedtest1.zaytona.ps,PS,Asia,Western Asia,Palestine,,,
95.130.89.240,4,206,Ookla Speedtest Server 53193: speedtest.ooredoo.ps,PS,Asia,Western Asia,Palestine,,,
185.248.14.4,4,203,Ookla Speedtest Server 53195: speedtest1.atlantisnet.com.tr,TR,Asia,Western Asia,Turkey,Istanbul,,Istanbul
176.236.159.217,4,253,Ookla Speedtest Server 53216: speedtest.sarnettelekom.net.tr,TR,Asia,Western Asia,Turkey,Denizli,,Denizli
46.8.37.38,4,328,Ookla Speedtest Server 53306: speedtest.sia-com.com,GE,Asia,Western Asia,Georgia,Tbilisi,,Tbilisi
146.103.26.10,4,2051,Ookla Speedtest Server 53547: speedtest.ekiphost.com,TR,Asia,Western Asia,Turkey,Istanbul,,Istanbul
185.208.101.226,4,178,Ookla Speedtest Server 53659: aboalitik1.mooo.com,TR,Asia,Western Asia,Turkey,Kilis,,Kilis
93.177.102.133,4,247,Ookla Speedtest Server 54606: speedtest2.keyubu.com,TR,Asia,Western Asia,Turkey,Istanbul,,Istanbul
185.187.92.7,4,2730648,Ookla Speedtest Server 54660: speedtest.cbeyond.online,LB,Asia,Western Asia,Lebanon,,,
188.41.249.12,4,400,Ookla Speedtest Server 55150: bur1speedtest.turktelekom.com.tr,TR,Asia,Western Asia,Turkey,,,
147.236.122.62,4,214,Ookla Speedtest Server 55466: speed.xfiber.net.il,IL,Asia,Western Asia,Israel,Tel Aviv,,Ramat Gan
185.128.114.4,4,139,Ookla Speedtest Server 55519: speedtest.dynet.net,TR,Asia,Western Asia,Turkey,Istanbul,,Istanbul
176.29.210.254,4,136,Ookla Speedtest Server 55597: speedtest4.zaindata.com.jo,JO,Asia,Western Asia,Jordan,Amman Governorate,,Amman
95.66.17.254,4,1089076,Ookla Speedtest Server 55652: speedest8.kw.zain.com,KW,Asia,Western Asia,Kuwait,,,
91.106.32.23,4,209,Ookla Speedtest Server 56002: speedtest.halasat.com,IQ,Asia,Western Asia,Iraq,Baghdad,,Baghdad
193.19.247.10,4,36231,Ookla Speedtest Server 56246: shaqra-speedtest.saudi.net.sa,SA,Asia,Western Asia,Saudi Arabia,Mecca Region,,Makkah
91.192.7.6,4,311,Ookla Speedtest Server 56363: speedtest.nbtel.iq,IQ,Asia,Western Asia,Iraq,,,
188.132.222.86,4,11741,Ookla Speedtest Server 56515: speed.alnajjar.tech,TR,Asia,Western Asia,Turkey,Hatay,,Antakya
188.132.150.50,4,202,Ookla Speedtest Server 57821: harem-net.org,TR,Asia,Western Asia,Turkey,,,
217.64.16.222,4,353,Ookla Speedtest Server 58140: speedtest.baktelecom.az,AZ,Asia,Western Asia,Azerbaijan,Baku City,,Baku
81.199.199.10,4,-264,Ookla Speedtest Server 58330: speedtest.noorcom.online,IL,Asia,Western Asia,Israel,Tel Aviv,,Ramat Gan
176.235.182.110,4,354,Ookla Speedtest Server 58398: yasarnet.xyz,TR,Asia,Western Asia,Turkey,Gaziantep,,Gaziantep
91.224.170.73,4,317,Ookla Speedtest Server 58404: speed.flix.net.tr,TR,Asia,Western Asia,Turkey,Konya,,Karapınar
195.87.202.82,4,339,Ookla Speedtest Server 58979: speed.radius2online.com.tr,TR,Asia,Western Asia,Turkey,Istanbul,,Istanbul
176.235.86.133,4,353,Ookla Speedtest Server 59020: speed1.yasarnet.xyz,TR,Asia,Western Asia,Turkey,İzmir Province,,Balçova
195.142.25.195,4,60067,Ookla Speedtest Server 59152: sky.almotafael.com,TR,Asia,Western Asia,Turkey,Hatay,,Antakya
185.118.141.16,4,671,Ookla Speedtest Server 59171: speedtest.anksoft.net,TR,Asia,Western Asia,Turkey,Bursa Province,,Bursa
38.156.73.77,4,326,Ookla Speedtest Server 59291: speedtest2.sam-isp.com,TR,Asia,Western Asia,Turkey,Hatay,,Antakya
109.110.101.196,4,-85692,Ookla Speedtest Server 59603: speedtest.elsanet.net,LB,Asia,Western Asia,Lebanon,Mohafazat Liban-Nord,,Tripoli
185.91.19.67,4,242,Ookla Speedtest Server 59703: spt1.tishknet.com,IQ,Asia,Western Asia,Iraq,Sulaymaniyah,,Sulaymaniyah
185.164.216.38,4,327,Ookla Speedtest Server 59960: speedtest.livelinkisp.com,IQ,Asia,Western Asia,Iraq,,,
185.169.7.10,4,414,Ookla Speedtest Server 60100: speedtest.vipnetx.net,LB,Asia,Western Asia,Lebanon,,,
91.106.104.18,4,152028,Ookla Speedtest Server 60288: speedtestzarqa.umniah.com,JO,Asia,Western Asia,Jordan,,,
91.106.104.122,4,25834,Ookla Speedtest Server 60306: speedtestaqaba.umniah.com,JO,Asia,Western Asia,Jordan,,,
194.39.82.13,4,179226,Ookla Speedtest Server 60445: speedtest.tins.am,AM,Asia,Western Asia,Armenia,Yerevan,,Yerevan
213.238.182.139,4,405,Ookla Speedtest Server 60783: speedtest.markahost.com.tr,TR,Asia,Western Asia,Turkey,Istanbul,,Istanbul
185.216.4.1,4,332,Ookla Speedtest Server 61043: speedtest.skywisp.com.cy,CY,Asia,Western Asia,Cyprus,Larnaka,,Larnaca
31.206.223.78,4,324,Ookla Speedtest Server 61080: hizbursa.durunet.com.tr,TR,Asia,Western Asia,Turkey,,,
31.206.223.81,4,333,Ookla Speedtest Server 61084: hizistanbul1.durunet.com.tr,TR,Asia,Western Asia,Turkey,Istanbul,,Istanbul
188.132.203.21,4,333,Ookla Speedtest Server 61108: str01.spnet.com.tr,TR,Asia,Western Asia,Turkey,Hatay,,Antakya
217.113.25.26,4,330,Ookla Speedtest Server 61359: speedtest.i-net.am,AM,Asia,Western Asia,Armenia,Yerevan,,Yerevan
149.34.193.157,4,332,Ookla Speedtest Server 61539: konya.speedtest.gibir.net.tr,TR,Asia,Western Asia,Turkey,Konya,,Konya
185.135.69.42,4,216,Ookla Speedtest Server 61970: speedtest.gntcld.net,IQ,Asia,Western Asia,Iraq,Baghdad,,
185.16.25.249,4,304,Ookla Speedtest Server 62149: eitis.cloudns.nz,IQ,Asia,Western Asia,Iraq,,,
188.72.41.193,4,303,Ookla Speedtest Server 62150: kut.cloudns.nz,IQ,Asia,Western Asia,Iraq,,,
94.176.40.249,4,308,Ookla Speedtest Server 62164: wataniya.cloudns.nz,IQ,Asia,Western Asia,Iraq,,,
89.187.219.2,4,284,Ookla Speedtest Server 62226: proservices.dns.navy,LB,Asia,Western Asia,Lebanon,,,
213.57.22.91,4,313,Ookla Speedtest Server 62236: speedtest-pt.hotnet.net.il,IL,Asia,Western Asia,Israel,Tel Aviv,,Ramat Gan
185.163.128.4,4,3206,Ookla Speedtest Server 62655: speedtest.hostopya.com,TR,Asia,Western Asia,Turkey,,,
45.131.20.19,4,350,Ookla Speedtest Server 62915: speedtest.tedinetlb.com,LB,Asia,Western Asia,Lebanon,,,
178.78.176.20,4,247,Ookla Speedtest Server 63160: sp3.ucom.am,AM,Asia,Western Asia,Armenia,,,
185.27.106.14,4,224,Ookla Speedtest Server 63255: speedtest.jetfiber.net,IL,Asia,Western Asia,Israel,Jerusalem,,Jerusalem
91.217.119.84,4,362,Ookla Speedtest Server 63540: speedtest.teknosos.com.tr,TR,Asia,Western Asia,Turkey,Istanbul,,Istanbul
185.103.21.128,4,-45695153,Ookla Speedtest Server 63597: speed.gigabitpro.net,LB,Asia,Western Asia,Lebanon,,,
216.9.227.11,4,330,Ookla Speedtest Server 63672: speedtest.sunucun.com.tr,TR,Asia,Western Asia,Turkey,Istanbul,,Istanbul
188.125.167.150,4,316,Ookla Speedtest Server 63913: speedtest.pulse.web.tr,TR,Asia,Western Asia,Turkey,Hatay,,Antakya
93.113.57.6,4,354,Ookla Speedtest Server 64104: spdtes.phoenix.net.tr,TR,Asia,Western Asia,Turkey,Istanbul,,Başakşehir
194.124.37.226,4,381,Ookla Speedtest Server 64162: zdt-iptv.highspeed.com.tr,TR,Asia,Western Asia,Turkey,Hatay,,Antakya
193.8.72.10,4,425,Ookla Speedtest Server 64252: speedtest.voltnet.az,AZ,Asia,Western Asia,Azerbaijan,Baku City,,Baku
104.247.160.10,4,307,Ookla Speedtest Server 64320: mars-speedtest.guzel.net.tr,TR,Asia,Western Asia,Turkey,,,
188.132.221.242,4,-1382,Ookla Speedtest Server 64615: zeusnet.almotafael.com,TR,Asia,Western Asia,Turkey,Hatay,,Antakya
195.142.16.16,4,320,Ookla Speedtest Server 64759: sp.tulipgroup.io,TR,Asia,Western Asia,Turkey,Kilis,,Kilis
139.45.212.81,4,436,Ookla Speedtest Server 65276: speedtest-tbs.retn.net,GE,Asia,Western Asia,Georgia,Tbilisi,,Tbilisi
188.41.242.24,4,338,Ookla Speedtest Server: ank1speedtest.turktelekom.com.tr,TR,Asia,Western Asia,Turkey,,,
94.20.71.19,4,337,Ookla Speedtest Server: az-ix.net,AZ,Asia,Western Asia,Azerbaijan,Baku City,,Baku
212.72.155.36,4,505,Ookla Speedtest Server: connect.ge,GE,Asia,Western Asia,Georgia,Tbilisi,,Tbilisi
78.89.136.250,4,121,Ookla Speedtest Server: ookla1.ooredoo.com.kw,KW,Asia,Western Asia,Kuwait,Al Asimah,,Kuwait City
82.166.201.37,4,-1007724,Ookla Speedtest Server: speed.013.net,IL,Asia,Western Asia,Israel,Tel Aviv,,Giv‘atayim
185.57.68.2,4,264,Ookla Speedtest Server: speed.arpinet.am,AM,Asia,Western Asia,Armenia,,,
95.66.17.252,4,555927,Ookla Speedtest Server: speedest4.kw.zain.com,KW,Asia,Western Asia,Kuwait,,,
212.43.17.254,4,26890,Ookla Speedtest Server: speedest6.kw.zain.com,KW,Asia,Western Asia,Kuwait,Al Asimah,,Kuwait City
195.14.142.1,4,186,Ookla Speedtest Server: speedtest.cytanet.com.cy,CY,Asia,Western Asia,Cyprus,Nicosia,,Ayios Dhometios
194.54.192.98,4,315,Ookla Speedtest Server: speedtest.gulfnet.com.kw,KW,Asia,Western Asia,Kuwait,Al Asimah,,Kuwait City
185.217.98.94,4,1016,Ookla Speedtest Server: speedtest.interhost.co.il,IL,Asia,Western Asia,Israel,Central District,,Petah Tikva
62.201.225.12,4,191,Ookla Speedtest Server: speedtest.iqnet.com,IQ,Asia,Western Asia,Iraq,,,
185.17.234.130,4,235,Ookla Speedtest Server: speedtest.mada.ps,PS,Asia,Western Asia,Palestine,,,
141.226.241.245,4,10746979,Ookla Speedtest Server: speedtest.makeapp.net.il,IL,Asia,Western Asia,Israel,,,
213.140.208.247,4,106,Ookla Speedtest Server: speedtest.nic-west.cy.cablenetcy.net,CY,Asia,Western Asia,Cyprus,Limassol District,,Limassol
217.69.181.16,4,337,Ookla Speedtest Server: speedtest.ooredoo.com.kw,KW,Asia,Western Asia,Kuwait,,,
185.143.176.55,4,169,Ookla Speedtest Server: speedtest.ordunet.ge,GE,Asia,Western Asia,Georgia,Tbilisi,,Tbilisi
178.20.231.218,4,297,Ookla Speedtest Server: speedtest.spd.net.tr,TR,Asia,Western Asia,Turkey,,,
178.20.231.220,4,-59,Ookla Speedtest Server: speedtest.spd.net.tr,TR,Asia,Western Asia,Turkey,,,
37.152.4.230,4,324531,Ookla Speedtest Server: speedtest.umniah.com,JO,Asia,Western Asia,Jordan,,,
185.209.108.60,4,24,Ookla Speedtest Server: speedtest1.together-pal.com,PS,Asia,Western Asia,Palestine,,,
94.128.15.9,4,9,Ookla Speedtest Server: speedtest1.viva.com.kw,KW,Asia,Western Asia,Kuwait,Al Asimah,,Kuwait City
212.43.17.251,4,31414,Ookla Speedtest Server: speedtest1.zain.net,KW,Asia,Western Asia,Kuwait,Al Asimah,,Kuwait City
94.128.4.178,4,-1,Ookla Speedtest Server: speedtest14.stc.com.kw,KW,Asia,Western Asia,Kuwait,Al Asimah,,Kuwait City
94.128.4.186,4,20,Ookla Speedtest Server: speedtest16.stc.com.kw,KW,Asia,Western Asia,Kuwait,Al Asimah,,Kuwait City
188.225.225.117,4,74,Ookla Speedtest Server: speedtest2.coolnet.ps,PS,Asia,Western Asia,Palestine,,,
46.196.229.222,4,-1,Ookla Speedtest Server: st-atakoy-1.turksatkablo.com.tr,TR,Asia,Western Asia,Turkey,Ankara,,Ankara
62.215.171.122,4,-33,Ookla Speedtest Server: st03.fasttelco.com,KW,Asia,Western Asia,Kuwait,,,Mishrif
194.1.192.82,4,18,opencart-tr.com,TR,Asia,Western Asia,Turkey,,,
91.239.206.128,4,0,opera.ge,GE,Asia,Western Asia,Georgia,Tbilisi,,Tbilisi
80.179.148.114,4,1,opgal.com,IL,Asia,Western Asia,Israel,Central District,,Lod
31.7.35.106,4,17,ore-met.com,TR,Asia,Western Asia,Turkey,Antalya,,Antalya
5.2.84.21,4,103,orjinalkutu.com,TR,Asia,Western Asia,Turkey,İzmir Province,,Izmir
88.218.116.38,4,-2551,orphaned-land.com,IL,Asia,Western Asia,Israel,Central District,,Rehovot
45.84.189.8,4,468,otelgazetesi.com,TR,Asia,Western Asia,Turkey,,,
178.18.193.137,4,6,ozsever.com.tr,TR,Asia,Western Asia,Turkey,,,
104.247.165.3,4,52,ozsoynakliyat.com,TR,Asia,Western Asia,Turkey,,,
194.156.98.47,4,23,pamm-fxprofit.com,AE,Asia,Western Asia,United Arab Emirates,,,
185.201.148.17,4,1985,panorama.com,IL,Asia,Western Asia,Israel,,,
31.186.11.135,4,7,parandijital.com,TR,Asia,Western Asia,Turkey,,,
104.247.162.226,4,49911,patidestek.com,TR,Asia,Western Asia,Turkey,,,
5.2.84.231,4,32,patisaray.org,TR,Asia,Western Asia,Turkey,İzmir Province,,Izmir
62.128.52.39,4,11,peacenow.org.il,IL,Asia,Western Asia,Israel,Southern District,,Kiryat Gat
185.226.160.220,4,-81966,pegem.net,TR,Asia,Western Asia,Turkey,Ankara,,Ankara
213.159.7.74,4,23,pentayikama.com,TR,Asia,Western Asia,Turkey,,,
93.187.203.100,4,5,petromarsurvey.com,TR,Asia,Western Asia,Turkey,,,
178.20.231.184,4,1008250,peynirmatik.com.tr,TR,Asia,Western Asia,Turkey,,,
66.22.66.169,4,12,phongvu.vn,IL,Asia,Western Asia,Israel,,,
88.218.117.49,4,36,pitsou.com,IL,Asia,Western Asia,Israel,Tel Aviv,,Tel Aviv
104.247.168.18,4,4088,platinyatak.net,TR,Asia,Western Asia,Turkey,,,
185.145.252.225,4,1348,pluginsmarket.com,IL,Asia,Western Asia,Israel,,,
85.190.230.243,4,5,pobedavkusa.com,CY,Asia,Western Asia,Cyprus,Nicosia,,Nicosia
89.252.182.131,4,999,polygonmach.com,TR,Asia,Western Asia,Turkey,,,
5.250.252.165,4,699,polymadeniyaglar.com,TR,Asia,Western Asia,Turkey,Istanbul,,Istanbul
94.103.185.116,4,27,posta.co.il,IL,Asia,Western Asia,Israel,Central District,,Petah Tikva
190.115.21.134,4,91,prava112y.com,AE,Asia,Western Asia,United Arab Emirates,,,
88.218.116.178,4,19,prof-shapira.com,IL,Asia,Western Asia,Israel,Central District,,Rehovot
78.142.208.142,4,790,pronetnakliyat.com,TR,Asia,Western Asia,Turkey,İzmir Province,,Izmir
3.29.197.107,4,0,prontosys.ae,AE,Asia,Western Asia,United Arab Emirates,Dubai,,Dubai
20.196.3.14,4,-1985,propertypanda.ae,AE,Asia,Western Asia,United Arab Emirates,Dubai,,Dubai
80.179.230.60,4,7,pvpanama.com,IL,Asia,Western Asia,Israel,Central District,,Petah Tikva
168.187.226.28,4,-5,q8mazad.com,KW,Asia,Western Asia,Kuwait,Al Asimah,,Kuwait City
94.20.88.111,4,6,qarabagh.com,AZ,Asia,Western Asia,Azerbaijan,,,
213.238.190.244,4,7,qba.com.tr,TR,Asia,Western Asia,Turkey,İzmir Province,,Izmir
85.117.41.2,4,4,qebuli-climate.ge,GE,Asia,Western Asia,Georgia,Tbilisi,,Tbilisi
31.14.52.173,4,1680,radikalmedikal.com,TR,Asia,Western Asia,Turkey,,,
194.146.50.113,4,271585,railsystem.net,TR,Asia,Western Asia,Turkey,,,
185.184.198.164,4,130047,ramada.com,IQ,Asia,Western Asia,Iraq,,,
43.225.52.247,4,65,ranchiuniversity.ac.in,AE,Asia,Western Asia,United Arab Emirates,,,
190.115.21.111,4,71,rao.ru,AE,Asia,Western Asia,United Arab Emirates,,,
80.179.140.151,4,8,reader.co.il,IL,Asia,Western Asia,Israel,Central District,,Petah Tikva
188.132.193.36,4,-132177,redfiredoor.com,TR,Asia,Western Asia,Turkey,,,
193.168.131.10,4,3,remontka.pro,AE,Asia,Western Asia,United Arab Emirates,,,
78.142.210.229,4,-293,renetextile.com,TR,Asia,Western Asia,Turkey,İzmir Province,,Izmir
190.115.26.13,4,7,rents.ws,AE,Asia,Western Asia,United Arab Emirates,,,
188.132.165.9,4,8,rentyachtturkey.com,TR,Asia,Western Asia,Turkey,,,
104.247.167.147,4,1833,reyyanpeyzaj.com,TR,Asia,Western Asia,Turkey,,,
188.132.241.4,4,-1207,rizecanreklam.com,TR,Asia,Western Asia,Turkey,Istanbul,,Istanbul
178.210.171.44,4,-24649,rmsgrup.com,TR,Asia,Western Asia,Turkey,,,
2.56.152.231,4,933,rozzycareeradventures.com,TR,Asia,Western Asia,Turkey,,,
31.186.11.123,4,1071,rubikonltd.com,TR,Asia,Western Asia,Turkey,,,
185.149.100.87,4,626,ruzgarkarot.com.tr,TR,Asia,Western Asia,Turkey,İzmir Province,,Izmir
213.128.77.82,4,2089,rzfmuhasebe.com,TR,Asia,Western Asia,Turkey,,,
63.250.63.229,4,749,sabon.com,IL,Asia,Western Asia,Israel,Central District,,Rosh Ha‘Ayin
185.254.95.5,4,25,sacgolgemerkezi.com,TR,Asia,Western Asia,Turkey,Istanbul,,Istanbul
95.173.165.93,4,-1169,safahac.com,TR,Asia,Western Asia,Turkey,,,
212.235.89.107,4,-3852041426,safe-mail.net,IL,Asia,Western Asia,Israel,Tel Aviv,,Holon
213.238.183.121,4,670,sagadernegi.org,TR,Asia,Western Asia,Turkey,,,
74.122.101.229,4,18,saglamproxy.com,TR,Asia,Western Asia,Turkey,Istanbul,,Istanbul
185.83.145.24,4,9,sagliknet.gen.tr,TR,Asia,Western Asia,Turkey,,,
104.247.165.35,4,839,sahinozsanayiaks.com,TR,Asia,Western Asia,Turkey,,,
89.252.178.48,4,31,salkim.com,TR,Asia,Western Asia,Turkey,,,
178.210.173.37,4,22435,sanatkedisi.com,TR,Asia,Western Asia,Turkey,,,
213.159.0.156,4,25,sanayigazetesi.com.tr,TR,Asia,Western Asia,Turkey,,,
93.177.103.130,4,5,sansli.com.tr,TR,Asia,Western Asia,Turkey,Istanbul,,Istanbul
185.169.54.26,4,7,sapphirehairclinic.com,TR,Asia,Western Asia,Turkey,Istanbul,,Istanbul
104.247.162.115,4,640,saricahali.com.tr,TR,Asia,Western Asia,Turkey,,,
45.89.246.214,4,11,saritepe.com,TR,Asia,Western Asia,Turkey,Istanbul,,Istanbul
195.14.137.4,4,5,schools.ac.cy,CY,Asia,Western Asia,Cyprus,Nicosia,,Ayios Dhometios
93.187.162.98,4,5,sci.am,AM,Asia,Western Asia,Armenia,Yerevan,,Yerevan
217.147.235.212,4,1429,science.org.ge,GE,Asia,Western Asia,Georgia,Tbilisi,,Tbilisi
37.148.209.65,4,2,seanews.com.tr,TR,Asia,Western Asia,Turkey,,,
5.250.251.2,4,124,seatclublife.com,TR,Asia,Western Asia,Turkey,Istanbul,,Istanbul
193.168.131.214,4,18,securityvision.ru,AE,Asia,Western Asia,United Arab Emirates,,,
85.95.237.78,4,901,sefaatas.com.tr,TR,Asia,Western Asia,Turkey,,,
92.42.39.112,4,16,senoleczanesi.com.tr,TR,Asia,Western Asia,Turkey,,,
80.179.152.101,4,40,sensei.co.il,IL,Asia,Western Asia,Israel,Central District,,Lod
185.56.74.100,4,0,seo-analytic.co.il,IL,Asia,Western Asia,Israel,,,
31.192.208.162,4,473,seohocasi.com,TR,Asia,Western Asia,Turkey,,,
154.53.167.26,4,93465,seoium.com,TR,Asia,Western Asia,Turkey,Istanbul,,Istanbul
185.123.54.78,4,88,serbestiyet.com,TR,Asia,Western Asia,Turkey,,,
77.223.152.38,4,-144279,serelyapi.com,TR,Asia,Western Asia,Turkey,,,
45.143.99.2,4,1466,sergehotel.com,TR,Asia,Western Asia,Turkey,Istanbul,,Istanbul
43.225.53.89,4,598,servicesutra.com,AE,Asia,Western Asia,United Arab Emirates,,,
103.130.146.43,4,170,shahrequran.ir,TR,Asia,Western Asia,Turkey,,,
185.216.135.10,4,8,shamra.sy,SY,Asia,Western Asia,Syrian Arab Republic,,,
95.173.185.161,4,4097,shopplus.com.tr,TR,Asia,Western Asia,Turkey,,,
199.203.226.2,4,-3423195,sii.org.il,IL,Asia,Western Asia,Israel,Tel Aviv,,Ramat Gan
213.238.183.134,4,3,sinavanalizi.com,TR,Asia,Western Asia,Turkey,,,
176.53.12.17,4,1,sindonis.com,TR,Asia,Western Asia,Turkey,,,
185.7.176.10,4,13,sinemalar.com,TR,Asia,Western Asia,Turkey,,,
193.168.131.193,4,10,sipaero.ru,AE,Asia,Western Asia,United Arab Emirates,,,
31.186.15.76,4,36045,sirketara.net,TR,Asia,Western Asia,Turkey,,,
80.179.128.181,4,-10797642,site-pro.co.il,IL,Asia,Western Asia,Israel,Central District,,Petah Tikva
195.54.178.33,4,-984998,site.ge,GE,Asia,Western Asia,Georgia,Tbilisi,,Tbilisi
185.123.54.77,4,4,sivasspor.org.tr,TR,Asia,Western Asia,Turkey,,,
45.84.189.51,4,934,sizetekstil.com,TR,Asia,Western Asia,Turkey,,,
85.95.237.94,4,53,sizisteyinbizyapalim.com,TR,Asia,Western Asia,Turkey,,,
185.114.22.213,4,3,smilehairclinic.com,TR,Asia,Western Asia,Turkey,Istanbul,,Istanbul
91.239.207.133,4,654,smr.gov.ge,GE,Asia,Western Asia,Georgia,,,
193.168.131.230,4,45,sms-otkritka.ru,AE,Asia,Western Asia,United Arab Emirates,,,
89.252.182.195,4,37,smsonayadresi.com,TR,Asia,Western Asia,Turkey,,,
213.157.199.149,4,4,smsorg.ge,GE,Asia,Western Asia,Georgia,Tbilisi,,Tbilisi
89.43.65.139,4,5,sobepy.com,TR,Asia,Western Asia,Turkey,,,
109.94.208.103,4,105,social-me.co.uk,AE,Asia,Western Asia,United Arab Emirates,,,
80.179.230.22,4,5,social.org.il,IL,Asia,Western Asia,Israel,Central District,,Petah Tikva
185.173.157.32,4,19,socialnye-apteki.ru,CY,Asia,Western Asia,Cyprus,Nicosia,,Nicosia
185.113.223.5,4,265,sohbet.page,TR,Asia,Western Asia,Turkey,,,
45.84.189.66,4,28474,sohbetodalar.com,TR,Asia,Western Asia,Turkey,,,
185.243.77.30,4,84,somonion.com,AE,Asia,Western Asia,United Arab Emirates,Dubai,,Dubai
185.194.30.142,4,26,sontopic.com,TR,Asia,Western Asia,Turkey,Istanbul,,Istanbul
78.135.105.7,4,-233,sosyalboost.com.tr,TR,Asia,Western Asia,Turkey,,,
185.84.182.83,4,48,sosyalmedyahaber.com,TR,Asia,Western Asia,Turkey,Istanbul,,Istanbul
2.56.152.252,4,931,spice9columbus.com,TR,Asia,Western Asia,Turkey,,,
212.156.70.82,4,27,sportoto.gov.tr,TR,Asia,Western Asia,Turkey,Ankara,,Ankara
103.224.23.142,4,-193,sportsmatik.com,AE,Asia,Western Asia,United Arab Emirates,,,
185.108.148.226,4,7,ssv.network,IL,Asia,Western Asia,Israel,,,
190.115.24.5,4,118,stakestoner.org,AE,Asia,Western Asia,United Arab Emirates,,,
193.168.131.167,4,73,standoff-2.com,AE,Asia,Western Asia,United Arab Emirates,,,
185.18.207.233,4,763,sterenstein.ru,IL,Asia,Western Asia,Israel,Jerusalem,,Jerusalem
195.206.236.4,4,4,stools.net,TR,Asia,Western Asia,Turkey,,,
185.229.12.15,4,4,stopthenorthamericanunion.com,TR,Asia,Western Asia,Turkey,Istanbul,,Istanbul
104.247.168.115,4,445,sultanbozum.net.tr,TR,Asia,Western Asia,Turkey,,,
78.135.106.104,4,89456,sultantesisat.com,TR,Asia,Western Asia,Turkey,Ankara,,Ankara
141.98.204.235,4,1559,sunarozlem.com.tr,TR,Asia,Western Asia,Turkey,,,
178.210.173.19,4,20169,sunnetrehberi.com,TR,Asia,Western Asia,Turkey,,,
104.247.162.67,4,678,sutesisatcisikenan.com,TR,Asia,Western Asia,Turkey,,,
31.186.23.157,4,3,taf.org.tr,TR,Asia,Western Asia,Turkey,,,
23.26.248.12,4,94,taflanelektronik.com,TR,Asia,Western Asia,Turkey,Istanbul,,Istanbul
194.36.90.166,4,8,takdin.co.il,IL,Asia,Western Asia,Israel,Central District,,Rosh Ha‘Ayin
45.84.190.42,4,1591,takip-sepeti.com,TR,Asia,Western Asia,Turkey,,,
31.192.214.172,4,1729,takipcim.com.tr,TR,Asia,Western Asia,Turkey,,,
192.116.146.27,4,6,tambour.co.il,IL,Asia,Western Asia,Israel,Tel Aviv,,Herzliya
212.68.46.13,4,607,tanap.com,TR,Asia,Western Asia,Turkey,,,
185.237.83.151,4,4,tarihiolaylar.com,TR,Asia,Western Asia,Turkey,,,
104.247.167.50,4,162370,tasinmaz.net,TR,Asia,Western Asia,Turkey,,,
91.151.88.210,4,63,taslavabokurna.com,TR,Asia,Western Asia,Turkey,,,
185.56.75.185,4,0,tavisraeli.co.il,IL,Asia,Western Asia,Israel,,,
185.35.21.35,4,14,tdb.org.tr,TR,Asia,Western Asia,Turkey,,,
213.142.159.191,4,43,teknikelektrikcim.com,TR,Asia,Western Asia,Turkey,,,
185.95.165.134,4,27,teknikvideo.net,TR,Asia,Western Asia,Turkey,,,
185.42.173.200,4,-63,teknobara.com.tr,TR,Asia,Western Asia,Turkey,Bursa Province,,Bursa
185.179.27.180,4,-1825989,teknolojen.com,TR,Asia,Western Asia,Turkey,,,
185.193.7.177,4,33,tema.org.tr,TR,Asia,Western Asia,Turkey,,,
89.252.180.102,4,1147,temizbirev.com,TR,Asia,Western Asia,Turkey,,,
104.247.166.253,4,319,tesay.com.tr,TR,Asia,Western Asia,Turkey,,,
46.28.238.153,4,-1848198,tesev.org.tr,TR,Asia,Western Asia,Turkey,,,
178.18.201.210,4,1002,tesol-turkey.com,TR,Asia,Western Asia,Turkey,,,
5.253.142.202,4,42244,tessube.org,TR,Asia,Western Asia,Turkey,,,
77.75.39.254,4,2025766,testklima.com,TR,Asia,Western Asia,Turkey,,,
31.186.16.92,4,24,theadx.com,TR,Asia,Western Asia,Turkey,,,
185.56.75.138,4,10,thenorman.com,IL,Asia,Western Asia,Israel,,,
185.108.148.219,4,-4,theparentscircle.org,IL,Asia,Western Asia,Israel,,,
185.56.74.250,4,17,thepulse.co.il,IL,Asia,Western Asia,Israel,,,
20.233.1.96,4,-1987,thewatchtower.com,AE,Asia,Western Asia,United Arab Emirates,Dubai,,Dubai
88.255.149.199,4,-2,ticaret.edu.tr,TR,Asia,Western Asia,Turkey,Canakkale,,Çanakkale
185.210.95.243,4,6,tider.org.tr,TR,Asia,Western Asia,Turkey,,,
43.225.52.33,4,-8,tipsandbeauty.com,AE,Asia,Western Asia,United Arab Emirates,,,
91.191.172.11,4,1047,tiyatrolar.com.tr,TR,Asia,Western Asia,Turkey,,,
31.186.13.106,4,119,tkyd.org,TR,Asia,Western Asia,Turkey,,,
185.56.89.53,4,20,toddlersintlnursery.com,AE,Asia,Western Asia,United Arab Emirates,,,
45.135.132.251,4,6,tomskpress.ru,AE,Asia,Western Asia,United Arab Emirates,,,
5.2.85.141,4,6,tomtomtextiles.com,TR,Asia,Western Asia,Turkey,İzmir Province,,Izmir
188.93.89.87,4,24,top.ge,GE,Asia,Western Asia,Georgia,Tbilisi,,Tbilisi
89.252.138.195,4,670,toshibaklima.org,TR,Asia,Western Asia,Turkey,,,
104.247.168.227,4,562,tour-paris-guide.com,TR,Asia,Western Asia,Turkey,,,
91.194.54.154,4,4,toyzzshop.com,TR,Asia,Western Asia,Turkey,Bursa Province,,Bursa
213.238.179.146,4,8,tpkmedya.com.tr,TR,Asia,Western Asia,Turkey,Denizli,,Denizli
88.218.117.138,4,13,traduc71.com,IL,Asia,Western Asia,Israel,Tel Aviv,,Tel Aviv
2.59.117.5,4,2314,trainertinyhouse.com,TR,Asia,Western Asia,Turkey,,,
185.17.234.38,4,1008,travelpalestine.ps,PS,Asia,Western Asia,Palestine,,,
193.140.99.42,4,21,trdizin.gov.tr,TR,Asia,Western Asia,Turkey,,,
45.84.189.3,4,475,trezor-wallet.at,TR,Asia,Western Asia,Turkey,,,
78.142.211.32,4,2100957,tripuck.com,TR,Asia,Western Asia,Turkey,İzmir Province,,Izmir
176.235.206.134,4,4,tsf.org.tr,TR,Asia,Western Asia,Turkey,Istanbul,,Istanbul
185.145.252.165,4,0,tsipilates.com,IL,Asia,Western Asia,Israel,,,
78.142.210.105,4,-214,ttgv.org.tr,TR,Asia,Western Asia,Turkey,İzmir Province,,Izmir
212.156.70.122,4,-25,tuba.gov.tr,TR,Asia,Western Asia,Turkey,Ankara,,Ankara
45.151.249.164,4,725,tugcularnakliyat.com,TR,Asia,Western Asia,Turkey,İzmir Province,,Izmir
186.2.171.30,4,4,tumbete.org,AE,Asia,Western Asia,United Arab Emirates,,,
185.179.24.7,4,-1826008,tumteknoloji.com,TR,Asia,Western Asia,Turkey,,,
185.81.155.88,4,347345,turasmobilya.com,TR,Asia,Western Asia,Turkey,,,
213.159.6.140,4,15,turizmgunlugu.com,TR,Asia,Western Asia,Turkey,,,
89.19.20.58,4,779,turkedebiyati.org,TR,Asia,Western Asia,Turkey,,,
185.106.208.38,4,-250,turkeymedicals.com,TR,Asia,Western Asia,Turkey,,,
78.135.107.148,4,9,turkishcymbals.com,TR,Asia,Western Asia,Turkey,Ankara,,Ankara
185.165.46.194,4,1,turkishdailynews.com.tr,TR,Asia,Western Asia,Turkey,Istanbul,,Istanbul
185.14.22.173,4,7,turklider.org,TR,Asia,Western Asia,Turkey,,,
95.173.180.21,4,55,turkmaxi.org,TR,Asia,Western Asia,Turkey,,,
185.106.210.122,4,523,turkpsikiyatri.com,TR,Asia,Western Asia,Turkey,,,
31.186.17.21,4,11,turkticaret.net,TR,Asia,Western Asia,Turkey,,,
5.180.81.143,4,37,turkuazcamihalisi.com,TR,Asia,Western Asia,Turkey,Bursa Province,,Bursa
185.244.145.16,4,1026,turkyeri.net,TR,Asia,Western Asia,Turkey,,,
78.142.209.51,4,203,turuncudepolama.com,TR,Asia,Western Asia,Turkey,İzmir Province,,Izmir
31.186.11.118,4,5,uclg-mewa.org,TR,Asia,Western Asia,Turkey,,,
217.195.196.83,4,68,ukazyangin.com,TR,Asia,Western Asia,Turkey,,,
109.172.196.173,4,1520,ultraviolettesting.ru,GE,Asia,Western Asia,Georgia,Tbilisi,,Tbilisi
193.53.98.37,4,3,uludagfm.com.tr,TR,Asia,Western Asia,Turkey,,,
213.128.77.155,4,-76,uludagsozluk.com,TR,Asia,Western Asia,Turkey,,,
31.186.23.241,4,16,umraniye.bel.tr,TR,Asia,Western Asia,Turkey,,,
83.139.13.250,4,-232166,unibank.am,AM,Asia,Western Asia,Armenia,Yerevan,,Yerevan
185.22.187.187,4,15,unisahealthturkey.com,TR,Asia,Western Asia,Turkey,,,
37.247.112.247,4,107243,universalestetik.com.tr,TR,Asia,Western Asia,Turkey,,,
85.95.249.5,4,117701,unlugaz.com,TR,Asia,Western Asia,Turkey,,,
185.145.252.17,4,-2,up.co.il,IL,Asia,Western Asia,Israel,,,
5.180.185.126,4,6458,urcuhotel.com,TR,Asia,Western Asia,Turkey,,,
31.186.11.120,4,9,urfakonukevim.xyz,TR,Asia,Western Asia,Turkey,,,
185.111.246.114,4,15,ursaturkey.com,TR,Asia,Western Asia,Turkey,,,
185.70.96.9,4,-35052,uskudar.edu.tr,TR,Asia,Western Asia,Turkey,,,
94.103.45.17,4,0,uwidata.com,TR,Asia,Western Asia,Turkey,,,
185.85.205.248,4,691,uyguras.com.tr,TR,Asia,Western Asia,Turkey,,,
185.171.88.90,4,11,uzmandns.com,TR,Asia,Western Asia,Turkey,,,
91.239.206.213,4,32,vanillasky.ge,GE,Asia,Western Asia,Georgia,Tbilisi,,Tbilisi
185.108.148.90,4,739,vanleer.org.il,IL,Asia,Western Asia,Israel,,,
5.2.85.36,4,30,vatangarage.net,TR,Asia,Western Asia,Turkey,İzmir Province,,Izmir
185.56.74.212,4,1,vaxtestimonies.org,IL,Asia,Western Asia,Israel,,,
176.53.12.7,4,-144429,vedatpazarlama.com,TR,Asia,Western Asia,Turkey,,,
37.247.115.41,4,6840,veranet.com.tr,TR,Asia,Western Asia,Turkey,,,
217.116.201.44,4,79461,veribase.com,TR,Asia,Western Asia,Turkey,,,
94.102.15.166,4,-1147,vetgen.com.tr,TR,Asia,Western Asia,Turkey,,,
45.139.222.20,4,7,viacure.com.tr,TR,Asia,Western Asia,Turkey,,,
192.116.109.25,4,23,vibeisrael.com,IL,Asia,Western Asia,Israel,Tel Aviv,,Bat Yam
88.218.117.143,4,3388,visit-tlv.co.il,IL,Asia,Western Asia,Israel,Tel Aviv,,Tel Aviv
185.56.74.69,4,2,vocabulary.co.il,IL,Asia,Western Asia,Israel,,,
190.115.24.47,4,91,vodkasino2.fun,AE,Asia,Western Asia,United Arab Emirates,,,
78.138.58.31,4,10,voyance-amour-eternel.com,IL,Asia,Western Asia,Israel,Haifa,,'Ar'ara
152.89.37.141,4,825,voyelletour.com,TR,Asia,Western Asia,Turkey,,,
190.115.19.71,4,4,waaw.tv,AE,Asia,Western Asia,United Arab Emirates,,,
66.22.104.122,4,7,wasl.ae,AE,Asia,Western Asia,United Arab Emirates,Dubai,,Dubai
89.252.182.100,4,-142,wawainteriors.com,TR,Asia,Western Asia,Turkey,,,
178.211.56.195,4,1838,wearetheartmakers.com,TR,Asia,Western Asia,Turkey,,,
31.186.14.111,4,30,web.tv,TR,Asia,Western Asia,Turkey,,,
185.106.210.87,4,1373,webcampromotion.com,TR,Asia,Western Asia,Turkey,,,
185.8.130.70,4,5,webdizaynizmir.com,TR,Asia,Western Asia,Turkey,İzmir Province,,Izmir
199.203.51.141,4,2,weberdev.com,IL,Asia,Western Asia,Israel,Southern District,,Arad
89.252.159.35,4,2027,webirinci.com,TR,Asia,Western Asia,Turkey,,,
31.192.214.222,4,1740,wellbornhotel.com,TR,Asia,Western Asia,Turkey,,,
5.100.249.55,4,2,wesell.co.il,IL,Asia,Western Asia,Israel,Central District,,Rosh Ha‘Ayin
192.116.49.85,4,23,wikirefua.org.il,IL,Asia,Western Asia,Israel,Central District,,Petah Tikva
84.95.247.248,4,13,womenwagepeace.org.il,IL,Asia,Western Asia,Israel,Tel Aviv,,Tel Aviv
188.93.95.15,4,3,worldsport.ge,GE,Asia,Western Asia,Georgia,Tbilisi,,Tbilisi
185.139.5.142,4,-36384,xlisans.com,TR,Asia,Western Asia,Turkey,İzmir Province,,
80.178.161.132,4,6,xmpie.com,IL,Asia,Western Asia,Israel,Tel Aviv,,Tel Aviv
153.92.2.7,4,10,xn--55qur08bh1p94vtmb65ot82b.top,CY,Asia,Western Asia,Cyprus,,,
45.158.12.200,4,46,xn--aknmedical-yub.com,TR,Asia,Western Asia,Turkey,İzmir Province,,Izmir
31.192.214.142,4,1888,xn--kadkyantikaalanyerler-kec96k.com,TR,Asia,Western Asia,Turkey,,,
193.168.131.166,4,7,yarmarka.ru,AE,Asia,Western Asia,United Arab Emirates,,,
91.205.41.80,4,1593,yatirimadestek.gov.tr,TR,Asia,Western Asia,Turkey,,,
104.247.168.99,4,1506,yatirimciyiz.net,TR,Asia,Western Asia,Turkey,,,
185.123.54.86,4,1,yazete.com,TR,Asia,Western Asia,Turkey,,,
109.226.41.138,4,680,ybook.co.il,IL,Asia,Western Asia,Israel,Jerusalem,,Jerusalem
37.72.142.62,4,7976,yeezyv2-outlet.us,GE,Asia,Western Asia,Georgia,,,
185.153.222.104,4,4,yerebatan.com,TR,Asia,Western Asia,Turkey,,,
31.186.11.5,4,3,yerebatansarnici.com,TR,Asia,Western Asia,Turkey,,,
89.252.138.99,4,-156,yerliakor.com,TR,Asia,Western Asia,Turkey,,,
185.244.144.147,4,911,yerlichat.net,TR,Asia,Western Asia,Turkey,,,
37.26.168.23,4,-11,yerphi.am,AM,Asia,Western Asia,Armenia,,,
89.252.187.235,4,406,yigitambulans.com,TR,Asia,Western Asia,Turkey,,,
176.53.94.114,4,1326,yildevmadencilik.com,TR,Asia,Western Asia,Turkey,,,
5.2.84.221,4,8,yildirim.net,TR,Asia,Western Asia,Turkey,İzmir Province,,Izmir
192.115.80.55,4,8,ynetnews.com,IL,Asia,Western Asia,Israel,Central District,,Rishon LeTsiyyon
195.225.46.185,4,2,yo-yoo.co.il,IL,Asia,Western Asia,Israel,,,
89.19.19.125,4,56,yoldaolmak.com,TR,Asia,Western Asia,Turkey,,,
178.210.160.65,4,7957,yucedevlet.com,TR,Asia,Western Asia,Turkey,,,
185.229.111.110,4,-76,yvavilebismovla.ge,GE,Asia,Western Asia,Georgia,Tbilisi,,Tbilisi
46.49.2.71,4,9,yversy.com,GE,Asia,Western Asia,Georgia,Tbilisi,,Tbilisi
168.187.161.250,4,389269,Zajil International Telecom Company W.L.L.,KW,Asia,Western Asia,Kuwait,,,
89.252.182.99,4,-137,zamandayolculuk.com,TR,Asia,Western Asia,Turkey,,,
78.142.209.112,4,566,zemlak.com,TR,Asia,Western Asia,Turkey,İzmir Province,,Izmir
193.168.131.228,4,4,zerkaloff.ru,AE,Asia,Western Asia,United Arab Emirates,,,
80.179.141.28,4,5,zeustech.net,IL,Asia,Western Asia,Israel,Central District,,Petah Tikva
185.136.206.71,4,1,zeytinburnukarotcu.com.tr,TR,Asia,Western Asia,Turkey,Bursa Province,,Bursa
185.123.54.70,4,22,ziraatciyiz.biz,TR,Asia,Western Asia,Turkey,,,
46.28.239.165,4,6,zirkonzahnasya.com,TR,Asia,Western Asia,Turkey,,,
213.238.183.171,4,2,ziyayazici.com,TR,Asia,Western Asia,Turkey,,,
185.179.26.182,4,4,zksoftware.com.tr,TR,Asia,Western Asia,Turkey,,,
81.89.217.205,4,18026,zvartnots.aero,AM,Asia,Western Asia,Armenia,Yerevan,,Yerevan
