reflector_ip,ip_version,offset,description,country_code,region,sub_region,country_name,sub_division_1,sub_division_2,city
188.166.242.5,4,5,080whois.com,SG,Asia,South-eastern Asia,Singapore,,,Singapore
188.166.226.179,4,4,100comments.com,SG,Asia,South-eastern Asia,Singapore,,,Singapore
167.71.208.243,4,3,123dok.com,SG,Asia,South-eastern Asia,Singapore,,,Singapore
103.7.9.22,4,-73,1updemo.com,SG,Asia,South-eastern Asia,Singapore,,,
34.87.24.201,4,3,21cineplex.com,SG,Asia,South-eastern Asia,Singapore,,,Singapore
47.74.180.117,4,9,21micro-grid.com,SG,Asia,South-eastern Asia,Singapore,,,Singapore
152.42.188.111,4,4,22dragonslot.com,SG,Asia,South-eastern Asia,Singapore,,,Singapore
139.59.124.166,4,4,24cash.shop,SG,Asia,South-eastern Asia,Singapore,,,Singapore
152.42.252.251,4,66,24newsmaster.com,SG,Asia,South-eastern Asia,Singapore,,,
143.92.57.13,4,7,28bbs.net,SG,Asia,South-eastern Asia,Singapore,,,
149.129.37.212,4,4,293.net,SG,Asia,South-eastern Asia,Singapore,,,
176.97.64.147,4,-90105,2avia.ru,SG,Asia,South-eastern Asia,Singapore,,,Singapore
52.220.62.36,4,-27,360digitmg.com,SG,Asia,South-eastern Asia,Singapore,,,Singapore
18.136.93.153,4,-24,360digitmg.com,SG,Asia,South-eastern Asia,Singapore,,,Singapore
192.250.235.22,4,45,3qmrcjunior.edu.my,SG,Asia,South-eastern Asia,Singapore,,,Singapore
15.235.141.13,4,5,40handscoffee.com,SG,Asia,South-eastern Asia,Singapore,,,
206.238.104.16,4,13,51miaofang.com,SG,Asia,South-eastern Asia,Singapore,,,Singapore
118.107.25.85,4,5,56office.cn,SG,Asia,South-eastern Asia,Singapore,,,
151.106.126.217,4,10,68gamebai.red,SG,Asia,South-eastern Asia,Singapore,,,Singapore
103.164.54.198,4,10,68gamebait.com,SG,Asia,South-eastern Asia,Singapore,,,Singapore
54.169.99.41,4,-21,78winb1.com,SG,Asia,South-eastern Asia,Singapore,,,Singapore
54.169.154.173,4,-27,78winb1.com,SG,Asia,South-eastern Asia,Singapore,,,Singapore
64.235.45.144,4,43,888ambking.net,SG,Asia,South-eastern Asia,Singapore,,,Queenstown Estate
143.92.58.253,4,6,890067.com,SG,Asia,South-eastern Asia,Singapore,,,
15.235.166.16,4,6,8uscluba12.com,SG,Asia,South-eastern Asia,Singapore,,,
13.250.223.161,4,-34,90degr.ee,SG,Asia,South-eastern Asia,Singapore,,,Singapore
202.79.169.159,4,8,99pet.net,SG,Asia,South-eastern Asia,Singapore,,,
202.79.169.207,4,8,99pet.net,SG,Asia,South-eastern Asia,Singapore,,,
103.11.190.175,4,316,a61.com.sg,SG,Asia,South-eastern Asia,Singapore,,,
68.183.178.129,4,11,abrushofchange.org,SG,Asia,South-eastern Asia,Singapore,,,Singapore
149.28.135.178,4,-19,abuyzithromi.com,SG,Asia,South-eastern Asia,Singapore,,,Singapore
172.96.191.100,4,37,acbpro.com,SG,Asia,South-eastern Asia,Singapore,,,Singapore
45.80.180.252,4,7,accesstrade.co.id,SG,Asia,South-eastern Asia,Singapore,,,Singapore
206.238.31.122,4,1193,acgdk.com,SG,Asia,South-eastern Asia,Singapore,,,Singapore
113.11.254.12,4,344,aclass.com.sg,SG,Asia,South-eastern Asia,Singapore,,,
188.166.187.124,4,43,aclubacademy.com,SG,Asia,South-eastern Asia,Singapore,,,Singapore
85.187.128.37,4,78,acola.org,SG,Asia,South-eastern Asia,Singapore,,,Singapore
103.9.103.22,4,-18748,activehealth.sg,SG,Asia,South-eastern Asia,Singapore,,,
8.219.241.159,4,77,adayu.id,SG,Asia,South-eastern Asia,Singapore,,,
47.88.221.113,4,11,adfest.com,SG,Asia,South-eastern Asia,Singapore,,,
167.253.159.122,4,13,adidasultraboost.shop,SG,Asia,South-eastern Asia,Singapore,,,Singapore
82.180.152.3,4,4,adscebu.com,SG,Asia,South-eastern Asia,Singapore,,,Singapore
151.106.124.94,4,24,adsportal.in,SG,Asia,South-eastern Asia,Singapore,,,Singapore
18.143.35.204,4,-18,adspower.com,SG,Asia,South-eastern Asia,Singapore,,,Singapore
54.255.128.109,4,15,adspower.com,SG,Asia,South-eastern Asia,Singapore,,,Singapore
103.7.9.53,4,4,aeonmedical.com.sg,SG,Asia,South-eastern Asia,Singapore,,,
167.99.28.90,4,7,affsuzukicup.com,SG,Asia,South-eastern Asia,Singapore,,,Singapore
86.38.247.85,4,69,agrimate.vn,SG,Asia,South-eastern Asia,Singapore,,,Singapore
131.153.78.138,4,47,agrokomplekskita.com,SG,Asia,South-eastern Asia,Singapore,,,Singapore
118.107.24.49,4,6,ahbxx.com,SG,Asia,South-eastern Asia,Singapore,,,
103.104.196.18,4,296828,aipec.com.sg,SG,Asia,South-eastern Asia,Singapore,,,
194.163.35.60,4,-13,airbagan.com,SG,Asia,South-eastern Asia,Singapore,,,Singapore
103.21.221.122,4,50,aircon-servicing.com,SG,Asia,South-eastern Asia,Singapore,,,Singapore
101.47.26.129,4,-7,aiting.com,SG,Asia,South-eastern Asia,Singapore,,,Singapore
172.104.41.32,4,-28,aiwinclub.club,SG,Asia,South-eastern Asia,Singapore,,,Singapore
172.96.191.188,4,33,ajabgjab.com,SG,Asia,South-eastern Asia,Singapore,,,Singapore
178.128.219.119,4,9,akira.edu.vn,SG,Asia,South-eastern Asia,Singapore,,,Singapore
139.59.226.10,4,4,akonlightingafrica.com,SG,Asia,South-eastern Asia,Singapore,,,Singapore
139.180.212.200,4,0,akp.gov.kh,SG,Asia,South-eastern Asia,Singapore,,,Singapore
188.166.221.34,4,6661047,akupeduli.org,SG,Asia,South-eastern Asia,Singapore,,,Singapore
139.59.113.186,4,4,al-bab.com,SG,Asia,South-eastern Asia,Singapore,,,Singapore
157.245.146.224,4,20,alexandrianews.org,SG,Asia,South-eastern Asia,Singapore,,,Singapore
85.187.135.51,4,50,aljaafaria.mobi,SG,Asia,South-eastern Asia,Singapore,,,Singapore
178.128.22.252,4,4,allianceair.in,SG,Asia,South-eastern Asia,Singapore,,,Singapore
46.250.237.114,4,6,almarhalah.ac.id,SG,Asia,South-eastern Asia,Singapore,,,Singapore
172.104.160.41,4,-19,alphajwc.com,SG,Asia,South-eastern Asia,Singapore,,,Singapore
45.130.228.184,4,9,alsihabd.com,SG,Asia,South-eastern Asia,Singapore,,,Singapore
199.241.138.44,4,86,altcheeni.com,SG,Asia,South-eastern Asia,Singapore,,,
45.77.34.9,4,13,alwatwan.net,SG,Asia,South-eastern Asia,Singapore,,,Singapore
103.11.189.156,4,5,amarahotels.com,SG,Asia,South-eastern Asia,Singapore,,,
45.130.228.137,4,23,amazingviraltips.com,SG,Asia,South-eastern Asia,Singapore,,,Singapore
103.3.63.190,4,-23,amitysingapore.sg,SG,Asia,South-eastern Asia,Singapore,,,Singapore
101.100.238.35,4,-2,amphasisdesign.com,SG,Asia,South-eastern Asia,Singapore,,,
103.3.61.58,4,-24,andadinosaur.com,SG,Asia,South-eastern Asia,Singapore,,,Singapore
154.26.128.114,4,8,angkornationalmuseum.com,SG,Asia,South-eastern Asia,Singapore,,,Singapore
185.250.38.118,4,25,angkortaxiservice.com,SG,Asia,South-eastern Asia,Singapore,,,Singapore
134.122.189.5,4,19,anguillacayseniorliving.com,SG,Asia,South-eastern Asia,Singapore,,,
151.106.124.159,4,41,anokhi.com,SG,Asia,South-eastern Asia,Singapore,,,Singapore
165.22.254.136,4,6,anxinbaoicare.org,SG,Asia,South-eastern Asia,Singapore,,,Singapore
34.126.158.251,4,125677,anymindgroup.com,SG,Asia,South-eastern Asia,Singapore,,,Singapore
109.106.254.22,4,16,anzforum.com,SG,Asia,South-eastern Asia,Singapore,,,Singapore
43.134.48.227,4,11,aomeng.net,SG,Asia,South-eastern Asia,Singapore,,,Singapore
52.77.138.30,4,-25,apenft.org,SG,Asia,South-eastern Asia,Singapore,,,Singapore
18.140.254.222,4,-22,apenft.org,SG,Asia,South-eastern Asia,Singapore,,,Singapore
51.79.192.90,4,15,aplar.org,SG,Asia,South-eastern Asia,Singapore,,,Singapore
194.233.93.10,4,11,aplrestaurant.com,SG,Asia,South-eastern Asia,Singapore,,,Singapore
217.21.74.58,4,24,applysarkarinaukri.com,SG,Asia,South-eastern Asia,Singapore,,,Singapore
43.245.98.24,4,4,aquaholic.com.sg,SG,Asia,South-eastern Asia,Singapore,,,
85.187.128.10,4,11,arditesbd.com,SG,Asia,South-eastern Asia,Singapore,,,Singapore
185.210.146.187,4,21,area19delegate.org,SG,Asia,South-eastern Asia,Singapore,,,Singapore
172.104.178.93,4,20,arentpyke.com,SG,Asia,South-eastern Asia,Singapore,,,Singapore
119.31.234.80,4,-648,arkana.ai,SG,Asia,South-eastern Asia,Singapore,,,
165.22.52.29,4,69,arkansasvoices.org,SG,Asia,South-eastern Asia,Singapore,,,Singapore
51.79.214.200,4,487,armanir.com,SG,Asia,South-eastern Asia,Singapore,,,Singapore
103.243.174.50,4,47,arthosuchak.com,SG,Asia,South-eastern Asia,Singapore,,,
51.79.225.34,4,6,artstagesingapore.com,SG,Asia,South-eastern Asia,Singapore,,,Singapore
188.166.236.210,4,13,as-is.net,SG,Asia,South-eastern Asia,Singapore,,,Singapore
119.31.232.160,4,-3078,aseantoday.com,SG,Asia,South-eastern Asia,Singapore,,,
103.237.168.104,4,441,asef.org,SG,Asia,South-eastern Asia,Singapore,,,
103.237.168.194,4,102,aseminfoboard.org,SG,Asia,South-eastern Asia,Singapore,,,
185.187.241.43,4,37,asgap.org.au,SG,Asia,South-eastern Asia,Singapore,,,Singapore
51.79.189.168,4,5,ashpo.org,SG,Asia,South-eastern Asia,Singapore,,,Singapore
172.104.63.121,4,-11,asiaiplaw.com,SG,Asia,South-eastern Asia,Singapore,,,Singapore
85.187.128.54,4,33,asianreviewofbooks.com,SG,Asia,South-eastern Asia,Singapore,,,Singapore
139.162.17.123,4,1,asiaprotectedareaspartnership.org,SG,Asia,South-eastern Asia,Singapore,,,Singapore
139.59.102.223,4,17,asicsoutlet.net,SG,Asia,South-eastern Asia,Singapore,,,Singapore
43.159.106.191,4,6,askci.com,SG,Asia,South-eastern Asia,Singapore,,,
45.130.228.35,4,23,astreda.com,SG,Asia,South-eastern Asia,Singapore,,,Singapore
124.156.198.245,4,9,astylishlittlelady.com,SG,Asia,South-eastern Asia,Singapore,,,Singapore
103.9.100.65,4,-1959,atlantissgroup.com.sg,SG,Asia,South-eastern Asia,Singapore,,,
139.99.62.134,4,39,au-senegal.com,SG,Asia,South-eastern Asia,Singapore,,,Singapore
172.104.165.100,4,12,audax.com.sg,SG,Asia,South-eastern Asia,Singapore,,,Singapore
47.236.14.73,4,28,augs.com.au,SG,Asia,South-eastern Asia,Singapore,,,
139.162.18.237,4,62,australian-coins.com,SG,Asia,South-eastern Asia,Singapore,,,Singapore
146.190.83.65,4,8,aviator.aero,SG,Asia,South-eastern Asia,Singapore,,,Singapore
165.22.240.250,4,9,avihaishurin.com,SG,Asia,South-eastern Asia,Singapore,,,Singapore
101.100.210.10,4,-33528,awinresource.com,SG,Asia,South-eastern Asia,Singapore,,,
139.162.13.242,4,-21,ayalalandpropertyfinder.com,SG,Asia,South-eastern Asia,Singapore,,,Singapore
128.199.165.34,4,102,ayeyarhinthar.com,SG,Asia,South-eastern Asia,Singapore,,,Singapore
103.21.221.37,4,35,azuredynamics.com,SG,Asia,South-eastern Asia,Singapore,,,Singapore
139.99.8.24,4,5,backup.vn,SG,Asia,South-eastern Asia,Singapore,,,Singapore
172.104.56.252,4,36,backyardaquaponics.com,SG,Asia,South-eastern Asia,Singapore,,,Singapore
109.106.254.221,4,9,bactrimp.shop,SG,Asia,South-eastern Asia,Singapore,,,Singapore
172.96.191.209,4,33,bada-uk.org,SG,Asia,South-eastern Asia,Singapore,,,Singapore
139.162.29.31,4,-25,bairdbeer.com,SG,Asia,South-eastern Asia,Singapore,,,Singapore
111.221.46.49,4,479,balibesttour.com,SG,Asia,South-eastern Asia,Singapore,,,
192.250.235.41,4,50,balibirdpark.com,SG,Asia,South-eastern Asia,Singapore,,,Singapore
159.223.80.87,4,11,baliforum.ru,SG,Asia,South-eastern Asia,Singapore,,,Singapore
192.250.235.37,4,38,balifundiving.com,SG,Asia,South-eastern Asia,Singapore,,,Singapore
192.53.117.183,4,-14,balitiket.com,SG,Asia,South-eastern Asia,Singapore,,,Singapore
159.223.80.171,4,19,bangunanbersejarah.com,SG,Asia,South-eastern Asia,Singapore,,,Singapore
128.199.144.214,4,3,bankasia-bd.com,SG,Asia,South-eastern Asia,Singapore,,,Singapore
167.71.221.232,4,15,bantennews.co.id,SG,Asia,South-eastern Asia,Singapore,,,Singapore
194.163.35.241,4,0,baomoi24h.net,SG,Asia,South-eastern Asia,Singapore,,,Singapore
188.166.212.193,4,1453,baproductions.co.nz,SG,Asia,South-eastern Asia,Singapore,,,Singapore
103.243.173.74,4,2024,baskara.id,SG,Asia,South-eastern Asia,Singapore,,,
192.250.235.29,4,31,batteryok.net,SG,Asia,South-eastern Asia,Singapore,,,Singapore
52.77.93.117,4,-1,bayviewhotels.com,SG,Asia,South-eastern Asia,Singapore,,,Singapore
157.230.36.148,4,44,bbiverson.com,SG,Asia,South-eastern Asia,Singapore,,,Singapore
51.79.228.108,4,13,bdcrictime.com,SG,Asia,South-eastern Asia,Singapore,,,Singapore
54.179.180.178,4,-27,beautyhaul.com,SG,Asia,South-eastern Asia,Singapore,,,Singapore
18.143.25.242,4,-21,beautyhaul.com,SG,Asia,South-eastern Asia,Singapore,,,Singapore
52.77.186.98,4,30,beautyhaul.com,SG,Asia,South-eastern Asia,Singapore,,,Singapore
85.187.133.105,4,34,becomeaesthetics.com.sg,SG,Asia,South-eastern Asia,Singapore,,,Singapore
45.76.189.18,4,14,beit-salam.km,SG,Asia,South-eastern Asia,Singapore,,,Singapore
139.99.8.7,4,7,bespokelaos.com,SG,Asia,South-eastern Asia,Singapore,,,Singapore
194.163.35.37,4,14,bestguitaraccessories.com,SG,Asia,South-eastern Asia,Singapore,,,Singapore
47.241.121.96,4,7,bfpump.vip,SG,Asia,South-eastern Asia,Singapore,,,Singapore
172.104.60.149,4,34,bgmea.com.bd,SG,Asia,South-eastern Asia,Singapore,,,Singapore
192.53.115.185,4,-23,biblioease.com,SG,Asia,South-eastern Asia,Singapore,,,Singapore
194.233.80.233,4,-8,bidyaan.com,SG,Asia,South-eastern Asia,Singapore,,,Singapore
139.99.4.143,4,5,bigbossm9.com,SG,Asia,South-eastern Asia,Singapore,,,Singapore
157.245.54.26,4,61,biggame88.com,SG,Asia,South-eastern Asia,Singapore,,,Singapore
131.153.79.2,4,1493,bikebd.com,SG,Asia,South-eastern Asia,Singapore,,,Singapore
164.52.28.62,4,-76,bilibili.tv,SG,Asia,South-eastern Asia,Singapore,,,
47.74.137.118,4,11,bilpubgroup.com,SG,Asia,South-eastern Asia,Singapore,,,Singapore
203.125.0.182,4,138,bintan-resorts.com,SG,Asia,South-eastern Asia,Singapore,,,Singapore
139.162.4.84,4,-24,biodiversityexplorer.org,SG,Asia,South-eastern Asia,Singapore,,,Singapore
139.162.29.88,4,-27,bisnisukm.com,SG,Asia,South-eastern Asia,Singapore,,,Singapore
178.128.219.212,4,12,bistrobrieandbordeaux.com,SG,Asia,South-eastern Asia,Singapore,,,Singapore
139.162.8.106,4,36,bitcoingod.org,SG,Asia,South-eastern Asia,Singapore,,,Singapore
43.128.114.8,4,9,bjkclh.com,SG,Asia,South-eastern Asia,Singapore,,,Singapore
8.219.218.215,4,7,bjspw.com,SG,Asia,South-eastern Asia,Singapore,,,
128.199.179.213,4,7,bkjvisalaw.com,SG,Asia,South-eastern Asia,Singapore,,,Singapore
45.130.229.98,4,12,blackmarke7.com,SG,Asia,South-eastern Asia,Singapore,,,Singapore
103.7.9.42,4,17,blanct.com,SG,Asia,South-eastern Asia,Singapore,,,
139.180.217.115,4,4,blibalidriver.com,SG,Asia,South-eastern Asia,Singapore,,,Singapore
161.117.188.224,4,8,blissam.com,SG,Asia,South-eastern Asia,Singapore,,,Singapore
139.99.123.26,4,4,bluehampshire.com,SG,Asia,South-eastern Asia,Singapore,,,Singapore
51.79.177.40,4,26,bmcc.org.my,SG,Asia,South-eastern Asia,Singapore,,,Singapore
172.104.49.112,4,19,bmd.gov.bd,SG,Asia,South-eastern Asia,Singapore,,,Singapore
152.42.170.123,4,18,bnscleaningsupplies.co.uk,SG,Asia,South-eastern Asia,Singapore,,,Singapore
203.175.174.6,4,19,boiatrade.com,SG,Asia,South-eastern Asia,Singapore,,,Singapore
172.96.191.203,4,38,bol368.com,SG,Asia,South-eastern Asia,Singapore,,,Singapore
157.230.242.213,4,12,bom.so,SG,Asia,South-eastern Asia,Singapore,,,Singapore
101.100.210.70,4,18,bonco.com.sg,SG,Asia,South-eastern Asia,Singapore,,,
167.71.211.228,4,34,bongthom.com,SG,Asia,South-eastern Asia,Singapore,,,Singapore
101.100.203.30,4,-35781,bookmytable.sg,SG,Asia,South-eastern Asia,Singapore,,,
157.245.192.13,4,20,bookofraplayonline.com,SG,Asia,South-eastern Asia,Singapore,,,Singapore
51.79.151.88,4,4,boot-land.net,SG,Asia,South-eastern Asia,Singapore,,,Singapore
13.228.195.110,4,-21,boothandpartners.com,SG,Asia,South-eastern Asia,Singapore,,,Singapore
206.238.104.32,4,9,boruifangqiao.com,SG,Asia,South-eastern Asia,Singapore,,,Singapore
143.198.208.150,4,19,bostonpda.org,SG,Asia,South-eastern Asia,Singapore,,,Singapore
119.81.41.202,4,3,botim.me,SG,Asia,South-eastern Asia,Singapore,,,Singapore
119.81.41.206,4,-25,botim.me,SG,Asia,South-eastern Asia,Singapore,,,Singapore
119.81.104.67,4,-28,botim.me,SG,Asia,South-eastern Asia,Singapore,,,Singapore
18.141.66.231,4,-28,bproperty.com,SG,Asia,South-eastern Asia,Singapore,,,Singapore
54.254.148.95,4,-21,bproperty.com,SG,Asia,South-eastern Asia,Singapore,,,Singapore
13.250.239.43,4,-25,bproperty.com,SG,Asia,South-eastern Asia,Singapore,,,Singapore
103.43.189.68,4,-2,brand-markets.com,SG,Asia,South-eastern Asia,Singapore,,,
101.100.210.90,4,-295521,brickfinder.net,SG,Asia,South-eastern Asia,Singapore,,,
103.21.221.87,4,33,bronzevillecoffee.com,SG,Asia,South-eastern Asia,Singapore,,,Singapore
34.124.183.93,4,15,brooklyn-injury-attorneys.com,SG,Asia,South-eastern Asia,Singapore,,,Singapore
43.245.97.215,4,4,brtchip.com,SG,Asia,South-eastern Asia,Singapore,,,
45.76.158.198,4,5,brunei-online.com,SG,Asia,South-eastern Asia,Singapore,,,Singapore
43.175.232.71,4,25,bsquared.network,SG,Asia,South-eastern Asia,Singapore,,,
43.175.233.71,4,7,bsquared.network,SG,Asia,South-eastern Asia,Singapore,,,
157.230.241.119,4,6,buaxua.vn,SG,Asia,South-eastern Asia,Singapore,,,Singapore
13.212.181.89,4,-22,buddhaair.com,SG,Asia,South-eastern Asia,Singapore,,,Singapore
45.130.228.52,4,26,budgetpantry.com,SG,Asia,South-eastern Asia,Singapore,,,Singapore
192.53.116.6,4,-20,bukukas.co.id,SG,Asia,South-eastern Asia,Singapore,,,Singapore
23.106.50.9,4,42,businessblogofsg.com,SG,Asia,South-eastern Asia,Singapore,,,Singapore
192.250.235.72,4,39,businessmantalk.com,SG,Asia,South-eastern Asia,Singapore,,,Singapore
23.106.50.8,4,74,businessservicessg.com,SG,Asia,South-eastern Asia,Singapore,,,Singapore
95.111.202.4,4,294,buycheap4c.com,SG,Asia,South-eastern Asia,Singapore,,,
203.116.18.221,4,-1,bworldonline.com,SG,Asia,South-eastern Asia,Singapore,,,Singapore
103.43.189.166,4,0,caizibao.net,SG,Asia,South-eastern Asia,Singapore,,,
46.17.172.226,4,6,calcudokuonline.com,SG,Asia,South-eastern Asia,Singapore,,,Singapore
139.162.4.112,4,1,callmeimei.com,SG,Asia,South-eastern Asia,Singapore,,,Singapore
139.99.90.76,4,5,calunaieoxidize.com,SG,Asia,South-eastern Asia,Singapore,,,Singapore
31.220.110.84,4,7,canadagoosecanadaoutlet.com,SG,Asia,South-eastern Asia,Singapore,,,Singapore
15.235.150.79,4,25,candelariospizzeriaberwyn.com,SG,Asia,South-eastern Asia,Singapore,,,
172.96.191.136,4,37,caravanvn.com,SG,Asia,South-eastern Asia,Singapore,,,Singapore
8.219.134.195,4,11,carcadefishing.com,SG,Asia,South-eastern Asia,Singapore,,,
43.245.110.33,4,-2,carecorner.org.sg,SG,Asia,South-eastern Asia,Singapore,,,
47.241.254.105,4,9,caretek.cn,SG,Asia,South-eastern Asia,Singapore,,,
151.106.123.44,4,6,caretrip.net,SG,Asia,South-eastern Asia,Singapore,,,Singapore
8.213.131.135,4,2,carryprotocol.io,SG,Asia,South-eastern Asia,Singapore,,,
43.245.98.117,4,32,cathedral.org.sg,SG,Asia,South-eastern Asia,Singapore,,,
172.104.42.100,4,1584,cbcpnews.net,SG,Asia,South-eastern Asia,Singapore,,,Singapore
167.99.70.115,4,40,cekindo.com,SG,Asia,South-eastern Asia,Singapore,,,Singapore
139.180.217.106,4,25,ceklist.id,SG,Asia,South-eastern Asia,Singapore,,,Singapore
172.104.57.230,4,342269,cekresi.com,SG,Asia,South-eastern Asia,Singapore,,,Singapore
203.175.162.66,4,5,celavi.com,SG,Asia,South-eastern Asia,Singapore,,,Singapore
103.7.9.54,4,12,cellini.com.sg,SG,Asia,South-eastern Asia,Singapore,,,
157.245.159.56,4,35,centimedia.id,SG,Asia,South-eastern Asia,Singapore,,,Singapore
34.124.213.114,4,3,chainguardians.io,SG,Asia,South-eastern Asia,Singapore,,,Singapore
185.232.14.160,4,8,channel6newsonline.com,SG,Asia,South-eastern Asia,Singapore,,,Singapore
178.128.213.151,4,13,chanrefrigerators.com,SG,Asia,South-eastern Asia,Singapore,,,Singapore
157.245.61.53,4,3,charity-charities.org,SG,Asia,South-eastern Asia,Singapore,,,Singapore
178.128.16.250,4,5,charlienelms.com,SG,Asia,South-eastern Asia,Singapore,,,Singapore
8.222.145.152,4,45,chartnexus.com,SG,Asia,South-eastern Asia,Singapore,,,
178.128.112.21,4,10,cheesecakecaffe.com,SG,Asia,South-eastern Asia,Singapore,,,Singapore
156.67.222.236,4,5,chemistrydias.com,SG,Asia,South-eastern Asia,Singapore,,,Singapore
131.153.50.251,4,50,chenabindia.com,SG,Asia,South-eastern Asia,Singapore,,,Singapore
43.128.89.120,4,7,chinaasc.org,SG,Asia,South-eastern Asia,Singapore,,,Singapore
8.222.154.209,4,4,chinaedu.in,SG,Asia,South-eastern Asia,Singapore,,,
8.222.232.207,4,3,chinazjgt.com,SG,Asia,South-eastern Asia,Singapore,,,
68.183.188.192,4,8,chineseconverter.com,SG,Asia,South-eastern Asia,Singapore,,,Singapore
185.232.14.124,4,18,chitrakaardesigns.in,SG,Asia,South-eastern Asia,Singapore,,,Singapore
165.22.102.36,4,14,chobreview.com,SG,Asia,South-eastern Asia,Singapore,,,Singapore
139.99.121.236,4,11,chobrod.com,SG,Asia,South-eastern Asia,Singapore,,,Singapore
185.187.241.27,4,0,chrisedulife.com,SG,Asia,South-eastern Asia,Singapore,,,Singapore
152.42.178.26,4,21,christianlouboutin-pas-cher.fr,SG,Asia,South-eastern Asia,Singapore,,,Singapore
178.128.218.104,4,5,christiansirianofragrances.com,SG,Asia,South-eastern Asia,Singapore,,,Singapore
119.31.238.37,4,-20068,chubbyhubby.net,SG,Asia,South-eastern Asia,Singapore,,,
181.215.79.161,4,7,cia88group.com,SG,Asia,South-eastern Asia,Singapore,,,Singapore
172.96.191.150,4,38,cialiswithdapoxetine.com,SG,Asia,South-eastern Asia,Singapore,,,Singapore
154.26.137.226,4,21,ciatad24.com,SG,Asia,South-eastern Asia,Singapore,,,Singapore
172.96.191.135,4,40,cincitowingandrecovery.com,SG,Asia,South-eastern Asia,Singapore,,,Singapore
15.235.134.212,4,1,cintamobil.com,SG,Asia,South-eastern Asia,Singapore,,,
47.241.218.175,4,9,cirs-reach.com,SG,Asia,South-eastern Asia,Singapore,,,
151.106.123.168,4,6,civilclick.com,SG,Asia,South-eastern Asia,Singapore,,,Singapore
139.162.5.87,4,-24,claytoncomputerservice.com,SG,Asia,South-eastern Asia,Singapore,,,Singapore
103.231.188.88,4,287,clbmarketing.com,SG,Asia,South-eastern Asia,Singapore,,,
23.108.103.231,4,59,cliffordclinic.com,SG,Asia,South-eastern Asia,Singapore,,,Singapore
139.162.58.43,4,-24,clomiphenes.com,SG,Asia,South-eastern Asia,Singapore,,,Singapore
206.189.44.183,4,7,clover.finance,SG,Asia,South-eastern Asia,Singapore,,,Singapore
128.199.82.234,4,13,clubsantamonica.com,SG,Asia,South-eastern Asia,Singapore,,,Singapore
45.32.115.218,4,11,clubsnap.com,SG,Asia,South-eastern Asia,Singapore,,,Singapore
51.79.155.104,4,-480,cmfarchive.org,SG,Asia,South-eastern Asia,Singapore,,,Singapore
217.15.165.227,4,19,cmtdirect.us,SG,Asia,South-eastern Asia,Singapore,,,Singapore
43.156.72.22,4,11,cnc-master.com,SG,Asia,South-eastern Asia,Singapore,,,Singapore
188.166.222.185,4,26,coactivate.org,SG,Asia,South-eastern Asia,Singapore,,,Singapore
139.99.3.221,4,8,coastes.com,SG,Asia,South-eastern Asia,Singapore,,,Singapore
62.72.47.164,4,12,cochinchestclinic.com,SG,Asia,South-eastern Asia,Singapore,,,Singapore
167.71.202.253,4,-2,coconuts.co,SG,Asia,South-eastern Asia,Singapore,,,Singapore
172.96.191.182,4,31,cogniplusbrainformula.com,SG,Asia,South-eastern Asia,Singapore,,,Singapore
51.79.147.80,4,7,coinblacklist.org,SG,Asia,South-eastern Asia,Singapore,,,Singapore
172.104.43.33,4,30,cointoken.news,SG,Asia,South-eastern Asia,Singapore,,,Singapore
23.106.127.130,4,33,compex.com.sg,SG,Asia,South-eastern Asia,Singapore,,,Singapore
118.107.26.45,4,8,complexityofyou.com,SG,Asia,South-eastern Asia,Singapore,,,
149.28.144.13,4,-23,cookiemag.com,SG,Asia,South-eastern Asia,Singapore,,,Singapore
45.118.134.231,4,-14,coolavenues.com,SG,Asia,South-eastern Asia,Singapore,,,Singapore
129.226.154.92,4,7,copperhome.net,SG,Asia,South-eastern Asia,Singapore,,,Singapore
43.134.250.97,4,8,copyai.cn,SG,Asia,South-eastern Asia,Singapore,,,Singapore
43.245.97.43,4,-2,cortinawatch.com,SG,Asia,South-eastern Asia,Singapore,,,
185.232.14.43,4,5,cosmetech.co.in,SG,Asia,South-eastern Asia,Singapore,,,Singapore
172.96.191.91,4,61,cosmopolisthefilm.com,SG,Asia,South-eastern Asia,Singapore,,,Singapore
128.199.248.140,4,6,cosmopolitan.co.id,SG,Asia,South-eastern Asia,Singapore,,,Singapore
128.199.224.59,4,68,costarica-nationalparks.com,SG,Asia,South-eastern Asia,Singapore,,,Singapore
139.180.221.119,4,5,cotactic.com,SG,Asia,South-eastern Asia,Singapore,,,Singapore
191.101.230.187,4,62,counselorjapan.com,SG,Asia,South-eastern Asia,Singapore,,,Singapore
192.250.235.27,4,61,courseunity.com,SG,Asia,South-eastern Asia,Singapore,,,Singapore
172.96.191.193,4,35,cozaar.today,SG,Asia,South-eastern Asia,Singapore,,,Singapore
54.169.194.86,4,1259,cpeicai.org,SG,Asia,South-eastern Asia,Singapore,,,Singapore
143.92.56.174,4,5,cq51edu.cn,SG,Asia,South-eastern Asia,Singapore,,,
172.104.170.132,4,44,creativeitem.com,SG,Asia,South-eastern Asia,Singapore,,,Singapore
150.109.24.171,4,12,crintsoft.com,SG,Asia,South-eastern Asia,Singapore,,,Singapore
51.79.218.9,4,37,crockrugerarms.com,SG,Asia,South-eastern Asia,Singapore,,,Singapore
45.125.196.238,4,1332,csw.com.my,SG,Asia,South-eastern Asia,Singapore,,,
172.105.124.108,4,860,cud.ac.ae,SG,Asia,South-eastern Asia,Singapore,,,Singapore
172.96.191.239,4,46,curhat.com,SG,Asia,South-eastern Asia,Singapore,,,Singapore
139.99.53.252,4,11,cvt.vn,SG,Asia,South-eastern Asia,Singapore,,,Singapore
172.104.53.20,4,-22,cwmission.org,SG,Asia,South-eastern Asia,Singapore,,,Singapore
185.232.14.84,4,18,cybersecureindia.in,SG,Asia,South-eastern Asia,Singapore,,,Singapore
27.124.33.25,4,479,czjhy.com,SG,Asia,South-eastern Asia,Singapore,,,
43.134.229.21,4,9,czxiu.com,SG,Asia,South-eastern Asia,Singapore,,,Singapore
143.92.58.218,4,6,d0db.com,SG,Asia,South-eastern Asia,Singapore,,,
194.163.38.170,4,-2,daaruttauhiid.org,SG,Asia,South-eastern Asia,Singapore,,,Singapore
159.138.94.137,4,4,dahuasecurity.com,SG,Asia,South-eastern Asia,Singapore,,,
159.138.94.143,4,4,dahuasecurity.com,SG,Asia,South-eastern Asia,Singapore,,,
159.138.94.70,4,5,dahuasecurity.com,SG,Asia,South-eastern Asia,Singapore,,,
159.138.94.72,4,5,dahuasecurity.com,SG,Asia,South-eastern Asia,Singapore,,,
151.106.124.50,4,4,dakshi.in,SG,Asia,South-eastern Asia,Singapore,,,Singapore
156.67.222.4,4,4,dangtinvantai.com,SG,Asia,South-eastern Asia,Singapore,,,Singapore
107.155.65.15,4,28,daoduytu.edu.vn,SG,Asia,South-eastern Asia,Singapore,,,Singapore
188.166.221.1,4,3,dataretentionisnosolution.com,SG,Asia,South-eastern Asia,Singapore,,,Singapore
209.97.169.164,4,36,datarooms.in,SG,Asia,South-eastern Asia,Singapore,,,Singapore
45.77.251.159,4,-21,daumoixuongkhop.net,SG,Asia,South-eastern Asia,Singapore,,,Singapore
139.162.61.50,4,-16,dcatqueen.com,SG,Asia,South-eastern Asia,Singapore,,,Singapore
157.230.194.210,4,4,dcnepal.com,SG,Asia,South-eastern Asia,Singapore,,,Singapore
45.118.134.103,4,-27,dealeracdaikinsamarinda.com,SG,Asia,South-eastern Asia,Singapore,,,Singapore
68.183.239.52,4,10,deepmusic.space,SG,Asia,South-eastern Asia,Singapore,,,Singapore
217.21.73.249,4,10,def-journal.eu,SG,Asia,South-eastern Asia,Singapore,,,Singapore
139.99.121.42,4,8,defencesecurityasia.com,SG,Asia,South-eastern Asia,Singapore,,,Singapore
51.79.176.205,4,25,delhiescortsgirl.com,SG,Asia,South-eastern Asia,Singapore,,,Singapore
15.235.144.120,4,50,demo.wpthemego.com,SG,Asia,South-eastern Asia,Singapore,,,
163.47.9.77,4,4,demoapp.xyz,SG,Asia,South-eastern Asia,Singapore,,,Singapore
172.96.191.51,4,35,dengityt.com,SG,Asia,South-eastern Asia,Singapore,,,Singapore
31.220.110.195,4,5,designgen.in,SG,Asia,South-eastern Asia,Singapore,,,Singapore
139.59.122.113,4,11,desklib.com,SG,Asia,South-eastern Asia,Singapore,,,Singapore
146.103.45.1,4,30,dewa69.life,SG,Asia,South-eastern Asia,Singapore,,,Singapore
18.143.96.60,4,193,dfdl.com,SG,Asia,South-eastern Asia,Singapore,,,Singapore
217.21.73.241,4,9,dfskbd.com,SG,Asia,South-eastern Asia,Singapore,,,Singapore
35.213.135.17,4,36,dgm-au.com,SG,Asia,South-eastern Asia,Singapore,,,Singapore
157.230.34.159,4,6,dhakacourier.com.bd,SG,Asia,South-eastern Asia,Singapore,,,Singapore
34.124.156.241,4,5,dharma-production.com,SG,Asia,South-eastern Asia,Singapore,,,Singapore
209.97.170.81,4,5,dheerajpatidar.com,SG,Asia,South-eastern Asia,Singapore,,,Singapore
185.187.241.237,4,-1,diachinh.vn,SG,Asia,South-eastern Asia,Singapore,,,Singapore
103.21.221.64,4,33,dichvumainhadep.com,SG,Asia,South-eastern Asia,Singapore,,,Singapore
178.128.214.134,4,-2,didoviamen.com,SG,Asia,South-eastern Asia,Singapore,,,Singapore
172.96.191.169,4,35,digitabs.biz,SG,Asia,South-eastern Asia,Singapore,,,Singapore
85.187.135.223,4,50,digitalhabibi.com,SG,Asia,South-eastern Asia,Singapore,,,Singapore
194.233.72.211,4,10,dilvert.com,SG,Asia,South-eastern Asia,Singapore,,,Singapore
172.93.218.55,4,37,dirtywars.org,SG,Asia,South-eastern Asia,Singapore,,,Singapore
194.163.39.135,4,1,ditsolution.net,SG,Asia,South-eastern Asia,Singapore,,,Singapore
128.199.188.128,4,2,diveland.kr,SG,Asia,South-eastern Asia,Singapore,,,Singapore
139.59.122.169,4,8,divinecomedy.org,SG,Asia,South-eastern Asia,Singapore,,,Singapore
192.250.235.46,4,42,dkworldnews.com,SG,Asia,South-eastern Asia,Singapore,,,Singapore
185.232.14.51,4,5,dlfgurgaoncallgirls.com,SG,Asia,South-eastern Asia,Singapore,,,Singapore
111.223.91.163,4,-86,DNS Server: 111.223.91-163.unknown.starhub.net.sg,SG,Asia,South-eastern Asia,Singapore,,,Singapore
139.162.16.81,4,-2,DNS Server: 139-162-16-81.ip.linodeusercontent.com,SG,Asia,South-eastern Asia,Singapore,,,Singapore
139.180.185.166,4,74,DNS Server: 139.180.185.166.vultr.com,SG,Asia,South-eastern Asia,Singapore,,,Singapore
120.50.42.142,4,84,DNS Server: 142.42.50.120.static.idc.qala.com.sg,SG,Asia,South-eastern Asia,Singapore,,,Singapore
118.189.215.170,4,144,DNS Server: 170.215.189.118.static.m1net.com.sg,SG,Asia,South-eastern Asia,Singapore,,,Singapore
129.126.150.172,4,118,DNS Server: 172.150.126.129.static.m1net.com.sg,SG,Asia,South-eastern Asia,Singapore,,,Singapore
66.42.60.59,4,7,DNS Server: 66.42.60.59.vultr.com,SG,Asia,South-eastern Asia,Singapore,,,Singapore
124.197.123.71,4,125301,DNS Server: 71.123.197.124.unknown.m1.com.sg,SG,Asia,South-eastern Asia,Singapore,,,Singapore
118.189.242.81,4,1,DNS Server: 81.242.189.118.static.m1net.com.sg,SG,Asia,South-eastern Asia,Singapore,,,Singapore
94.237.77.97,4,-2,DNS Server: 94-237-77-97.sg-sin1.upcloud.host,SG,Asia,South-eastern Asia,Singapore,,,
167.99.77.116,4,172,DNS Server: backups.do,SG,Asia,South-eastern Asia,Singapore,,,Singapore
128.106.52.161,4,186,DNS Server: bb128-106-52-161.singnet.com.sg,SG,Asia,South-eastern Asia,Singapore,,,Singapore
128.106.65.66,4,1749712,DNS Server: bb128-106-65-66.singnet.com.sg,SG,Asia,South-eastern Asia,Singapore,,,Singapore
151.192.44.238,4,140,DNS Server: bb151-192-44-238.singnet.com.sg,SG,Asia,South-eastern Asia,Singapore,,,Singapore
188.166.225.43,4,6,DNS Server: dns.insec.link,SG,Asia,South-eastern Asia,Singapore,,,Singapore
172.104.59.35,4,15,DNS Server: dns.vaguthu.mv,SG,Asia,South-eastern Asia,Singapore,,,Singapore
202.136.162.11,4,9,DNS Server: dns01.ntts-idc.net.sg,SG,Asia,South-eastern Asia,Singapore,,,
202.136.163.11,4,21,DNS Server: dns02.ntts-idc.net.sg,SG,Asia,South-eastern Asia,Singapore,,,
202.136.162.12,4,4,DNS Server: dns03.ntts-idc.net.sg,SG,Asia,South-eastern Asia,Singapore,,,
13.212.182.154,4,20,DNS Server: ec2-13-212-182-154.ap-southeast-1.compute.amazonaws.com,SG,Asia,South-eastern Asia,Singapore,,,Singapore
13.229.104.153,4,146,DNS Server: ec2-13-229-104-153.ap-southeast-1.compute.amazonaws.com,SG,Asia,South-eastern Asia,Singapore,,,Singapore
13.250.220.108,4,-9,DNS Server: ec2-13-250-220-108.ap-southeast-1.compute.amazonaws.com,SG,Asia,South-eastern Asia,Singapore,,,Singapore
139.99.94.41,4,13,DNS Server: ip41.ip-139-99-94.net,SG,Asia,South-eastern Asia,Singapore,,,Singapore
15.235.164.171,4,241,DNS Server: ns5014980.ip-15-235-164.net,SG,Asia,South-eastern Asia,Singapore,,,
128.199.98.97,4,92,DNS Server: s1.lvl24.net,SG,Asia,South-eastern Asia,Singapore,,,Singapore
139.59.107.147,4,84,DNS Server: sgp1.wgmesh.do.juroct.net,SG,Asia,South-eastern Asia,Singapore,,,Singapore
194.233.86.179,4,148,DNS Server: vmi909234.contaboserver.net,SG,Asia,South-eastern Asia,Singapore,,,Singapore
194.233.77.6,4,144,DNS Server: webshs.xyz,SG,Asia,South-eastern Asia,Singapore,,,Singapore
15.235.215.27,4,10,dnsever.com,SG,Asia,South-eastern Asia,Singapore,,,
15.235.216.200,4,75,dnsever.com,SG,Asia,South-eastern Asia,Singapore,,,
43.159.117.165,4,56,dnspod.cn,SG,Asia,South-eastern Asia,Singapore,,,
43.175.237.232,4,5,dnspod.com,SG,Asia,South-eastern Asia,Singapore,,,
62.72.46.41,4,33,doa.gov.lk,SG,Asia,South-eastern Asia,Singapore,,,Singapore
185.187.240.22,4,113,doctorfolk.com,SG,Asia,South-eastern Asia,Singapore,,,Singapore
47.241.165.7,4,26,donchillin.com,SG,Asia,South-eastern Asia,Singapore,,,
46.17.172.254,4,3,dongnairaovat.com,SG,Asia,South-eastern Asia,Singapore,,,Singapore
119.8.162.121,4,8,doratoon.com,SG,Asia,South-eastern Asia,Singapore,,,Singapore
43.245.111.145,4,-4,dpa.com.sg,SG,Asia,South-eastern Asia,Singapore,,,
43.175.253.196,4,-14,dpurl.cn,SG,Asia,South-eastern Asia,Singapore,,,
43.175.252.196,4,53,dpurl.cn,SG,Asia,South-eastern Asia,Singapore,,,
178.128.127.87,4,41,dream.co.id,SG,Asia,South-eastern Asia,Singapore,,,Singapore
185.187.241.47,4,2,drevica.co.in,SG,Asia,South-eastern Asia,Singapore,,,Singapore
172.96.191.154,4,35,driveinmycar.com,SG,Asia,South-eastern Asia,Singapore,,,Singapore
192.250.235.26,4,44,droitthemes.com,SG,Asia,South-eastern Asia,Singapore,,,Singapore
172.104.55.12,4,14,dropshipaja.com,SG,Asia,South-eastern Asia,Singapore,,,Singapore
109.123.232.4,4,-239284,drundo.com.au,SG,Asia,South-eastern Asia,Singapore,,,Singapore
43.245.97.121,4,-3,ducktours.com.sg,SG,Asia,South-eastern Asia,Singapore,,,
172.188.65.81,4,27,duhs.edu.pk,SG,Asia,South-eastern Asia,Singapore,,,Singapore
139.59.235.54,4,68,dumagueteinfo.com,SG,Asia,South-eastern Asia,Singapore,,,Singapore
46.250.239.27,4,10,durbeen.net,SG,Asia,South-eastern Asia,Singapore,,,Singapore
82.180.152.205,4,0,dutrai.com,SG,Asia,South-eastern Asia,Singapore,,,Singapore
15.235.212.128,4,3,dvleap.org,SG,Asia,South-eastern Asia,Singapore,,,
206.189.83.201,4,11,e-cashingengine.com,SG,Asia,South-eastern Asia,Singapore,,,Singapore
139.162.48.207,4,-15,e-info.org.tw,SG,Asia,South-eastern Asia,Singapore,,,Singapore
159.223.90.135,4,21,e-librarian.net,SG,Asia,South-eastern Asia,Singapore,,,Singapore
103.11.189.189,4,58,earo.sg,SG,Asia,South-eastern Asia,Singapore,,,
151.106.124.202,4,5,easysyncbackup.com,SG,Asia,South-eastern Asia,Singapore,,,Singapore
13.215.64.229,4,-25,echineselearning.com,SG,Asia,South-eastern Asia,Singapore,,,Singapore
101.100.211.21,4,-3064,ecologyasia.com,SG,Asia,South-eastern Asia,Singapore,,,
159.65.137.195,4,12,ecotrackings.com,SG,Asia,South-eastern Asia,Singapore,,,Singapore
103.21.221.55,4,43,edbinglee.com,SG,Asia,South-eastern Asia,Singapore,,,Singapore
157.245.155.136,4,13,edgewoodheritagefestival.com,SG,Asia,South-eastern Asia,Singapore,,,Singapore
206.238.101.89,4,5,edu-ing.cn,SG,Asia,South-eastern Asia,Singapore,,,Singapore
167.172.75.162,4,16,edumilestones.com,SG,Asia,South-eastern Asia,Singapore,,,Singapore
119.8.188.51,4,6,eduzones.com,SG,Asia,South-eastern Asia,Singapore,,,Singapore
217.21.73.220,4,8,eezy-pay.co.uk,SG,Asia,South-eastern Asia,Singapore,,,Singapore
172.96.191.115,4,38,eflomax.online,SG,Asia,South-eastern Asia,Singapore,,,Singapore
103.26.43.131,4,5,elearningpost.com,SG,Asia,South-eastern Asia,Singapore,,,
103.11.190.165,4,76842,elleryng.com,SG,Asia,South-eastern Asia,Singapore,,,
172.96.191.219,4,61,elshaab.org,SG,Asia,South-eastern Asia,Singapore,,,Singapore
165.22.246.168,4,8,enablerspace.id,SG,Asia,South-eastern Asia,Singapore,,,Singapore
185.214.125.217,4,124,enfieldroyalsaudia.com,SG,Asia,South-eastern Asia,Singapore,,,Singapore
151.106.112.100,4,7,engineeringcivil.com,SG,Asia,South-eastern Asia,Singapore,,,Singapore
103.11.189.31,4,-111,envistar-hosting.com,SG,Asia,South-eastern Asia,Singapore,,,
103.9.100.75,4,9196,epigrambooks.sg,SG,Asia,South-eastern Asia,Singapore,,,
139.177.189.62,4,1030,equinetacademy.com,SG,Asia,South-eastern Asia,Singapore,,,Singapore
18.141.204.119,4,-24,era7.io,SG,Asia,South-eastern Asia,Singapore,,,Singapore
15.235.216.190,4,4,erhmglobal.com,SG,Asia,South-eastern Asia,Singapore,,,
172.104.61.193,4,-19,erisian.com.au,SG,Asia,South-eastern Asia,Singapore,,,Singapore
111.221.45.101,4,242408,esmartoffers.com,SG,Asia,South-eastern Asia,Singapore,,,
113.197.35.45,4,20,esprimagroup.com,SG,Asia,South-eastern Asia,Singapore,,,
139.162.20.240,4,12,essaywritingservice2018.com,SG,Asia,South-eastern Asia,Singapore,,,Singapore
15.235.141.48,4,3,euromamaia2023.com,SG,Asia,South-eastern Asia,Singapore,,,
139.99.63.242,4,1920,eventhkbgaming.com,SG,Asia,South-eastern Asia,Singapore,,,Singapore
139.59.221.232,4,13,everesting.cc,SG,Asia,South-eastern Asia,Singapore,,,Singapore
165.22.251.65,4,15,everesting.cc,SG,Asia,South-eastern Asia,Singapore,,,Singapore
31.220.110.156,4,8,everythingcsmg.com,SG,Asia,South-eastern Asia,Singapore,,,Singapore
18.136.215.140,4,-22,excelr.com,SG,Asia,South-eastern Asia,Singapore,,,Singapore
52.220.168.240,4,-24,excelr.com,SG,Asia,South-eastern Asia,Singapore,,,Singapore
18.136.249.135,4,-27,excelr.com,SG,Asia,South-eastern Asia,Singapore,,,Singapore
185.232.14.1,4,4,exceltotally.com,SG,Asia,South-eastern Asia,Singapore,,,Singapore
68.183.186.60,4,57,eye-des.com,SG,Asia,South-eastern Asia,Singapore,,,Singapore
23.108.103.25,4,30,f31.sg,SG,Asia,South-eastern Asia,Singapore,,,Singapore
95.111.202.25,4,-34,f8bet0.us,SG,Asia,South-eastern Asia,Singapore,,,
167.172.77.86,4,13,fanfoxes.com,SG,Asia,South-eastern Asia,Singapore,,,Singapore
51.79.230.147,4,8,farazitechnology.com.bd,SG,Asia,South-eastern Asia,Singapore,,,Singapore
13.250.226.6,4,-21,fcccambodia.com,SG,Asia,South-eastern Asia,Singapore,,,Singapore
3.0.3.62,4,-3,fcccollection.com,SG,Asia,South-eastern Asia,Singapore,,,Singapore
206.238.27.81,4,6,fenmoyejin.com,SG,Asia,South-eastern Asia,Singapore,,,Singapore
194.233.70.4,4,26,ferroxcube.com,SG,Asia,South-eastern Asia,Singapore,,,Singapore
103.227.176.26,4,9,festivalsofindia.in,SG,Asia,South-eastern Asia,Singapore,,,
51.79.216.183,4,26,fiercefinanceit.com,SG,Asia,South-eastern Asia,Singapore,,,Singapore
23.106.50.5,4,69,financeblogsg.com,SG,Asia,South-eastern Asia,Singapore,,,Singapore
35.198.254.205,4,14,finansialku.com,SG,Asia,South-eastern Asia,Singapore,,,Singapore
113.29.225.118,4,117,finestservices.com.sg,SG,Asia,South-eastern Asia,Singapore,,,
15.235.144.211,4,3,finsflorist.com,SG,Asia,South-eastern Asia,Singapore,,,
172.96.191.213,4,51,fireball20xl.com,SG,Asia,South-eastern Asia,Singapore,,,Singapore
15.235.146.228,4,5,firewar888.tw,SG,Asia,South-eastern Asia,Singapore,,,
68.183.191.191,4,4,firnsy.com,SG,Asia,South-eastern Asia,Singapore,,,Singapore
172.104.188.31,4,-27,firstcom.com.sg,SG,Asia,South-eastern Asia,Singapore,,,Singapore
172.104.53.241,4,-12,fis.edu.hk,SG,Asia,South-eastern Asia,Singapore,,,Singapore
139.162.31.26,4,-22,fitinline.com,SG,Asia,South-eastern Asia,Singapore,,,Singapore
8.219.245.176,4,4,flashexpress.co.th,SG,Asia,South-eastern Asia,Singapore,,,
8.222.157.150,4,7,flashexpress.co.th,SG,Asia,South-eastern Asia,Singapore,,,
8.222.170.98,4,8,flashexpress.co.th,SG,Asia,South-eastern Asia,Singapore,,,
43.156.212.47,4,25,flashexpress.co.th,SG,Asia,South-eastern Asia,Singapore,,,Singapore
185.210.146.180,4,10,flatbushmedicalcentre.co.nz,SG,Asia,South-eastern Asia,Singapore,,,Singapore
170.187.228.219,4,-23,flatonicstudios.com,SG,Asia,South-eastern Asia,Singapore,,,
82.180.152.46,4,-1,flipscience.ph,SG,Asia,South-eastern Asia,Singapore,,,Singapore
139.162.26.130,4,-25,flyingv.cc,SG,Asia,South-eastern Asia,Singapore,,,Singapore
15.235.141.195,4,15,flysair.com,SG,Asia,South-eastern Asia,Singapore,,,
139.99.92.94,4,3,fnbsingapore.com,SG,Asia,South-eastern Asia,Singapore,,,Singapore
118.107.42.112,4,5,fohmq.com.cn,SG,Asia,South-eastern Asia,Singapore,,,
128.199.179.27,4,-19,foodpandatw.com,SG,Asia,South-eastern Asia,Singapore,,,Singapore
128.199.180.64,4,2,football-tribe.com,SG,Asia,South-eastern Asia,Singapore,,,Singapore
47.237.83.79,4,6,foresightventures.com,SG,Asia,South-eastern Asia,Singapore,,,
128.199.180.43,4,8,forkast.news,SG,Asia,South-eastern Asia,Singapore,,,Singapore
103.253.27.87,4,4,forumforex.id,SG,Asia,South-eastern Asia,Singapore,,,
139.162.62.120,4,-25,forumreelz.com,SG,Asia,South-eastern Asia,Singapore,,,Singapore
217.21.74.233,4,41,forwardpress.in,SG,Asia,South-eastern Asia,Singapore,,,Singapore
206.189.87.54,4,3,foundrytechi.store,SG,Asia,South-eastern Asia,Singapore,,,Singapore
152.42.232.149,4,6,foxz168s.net,SG,Asia,South-eastern Asia,Singapore,,,Singapore
119.31.232.100,4,-5951,fqwimages.com,SG,Asia,South-eastern Asia,Singapore,,,
139.59.98.210,4,70,free-press-release-center.info,SG,Asia,South-eastern Asia,Singapore,,,Singapore
66.96.199.63,4,-4,freedif.org,SG,Asia,South-eastern Asia,Singapore,,,Singapore
45.130.228.46,4,15,freedomcentralnews.com,SG,Asia,South-eastern Asia,Singapore,,,Singapore
38.180.190.164,4,4,freeflir-online.com,SG,Asia,South-eastern Asia,Singapore,,,Singapore
45.130.228.69,4,11,freekaasale.com,SG,Asia,South-eastern Asia,Singapore,,,Singapore
206.189.156.4,4,2274,freephotoshop.com,SG,Asia,South-eastern Asia,Singapore,,,Singapore
82.180.152.91,4,28,fridayeveryday.com,SG,Asia,South-eastern Asia,Singapore,,,Singapore
118.107.26.44,4,14,frogbattery.com,SG,Asia,South-eastern Asia,Singapore,,,
134.209.106.21,4,4,fromourfarm.org,SG,Asia,South-eastern Asia,Singapore,,,Singapore
159.65.10.146,4,5,fun88.vc,SG,Asia,South-eastern Asia,Singapore,,,Singapore
139.162.55.138,4,-24,funcard.com.tw,SG,Asia,South-eastern Asia,Singapore,,,Singapore
34.87.14.227,4,2,funix.edu.vn,SG,Asia,South-eastern Asia,Singapore,,,Singapore
66.42.52.108,4,1,furamavietnam.com,SG,Asia,South-eastern Asia,Singapore,,,Singapore
194.127.192.184,4,3,futurestartup.com,SG,Asia,South-eastern Asia,Singapore,,,Singapore
206.238.104.36,4,9,fyyouguan.com,SG,Asia,South-eastern Asia,Singapore,,,Singapore
104.248.150.250,4,7,gaforeigntrade.com,SG,Asia,South-eastern Asia,Singapore,,,Singapore
185.214.125.202,4,33,gaigoimoinhat.xyz,SG,Asia,South-eastern Asia,Singapore,,,Singapore
192.53.175.152,4,-23,gamerzplanet.net,SG,Asia,South-eastern Asia,Singapore,,,Singapore
159.223.91.13,4,28,gamingph.com,SG,Asia,South-eastern Asia,Singapore,,,Singapore
103.253.147.202,4,8,gaphr.org,SG,Asia,South-eastern Asia,Singapore,,,Singapore
202.81.96.4,4,39,garena.co.id,SG,Asia,South-eastern Asia,Singapore,,,
202.81.96.6,4,52,garena.co.id,SG,Asia,South-eastern Asia,Singapore,,,
202.81.96.10,4,61,garena.co.id,SG,Asia,South-eastern Asia,Singapore,,,
202.81.96.3,4,40,garena.co.id,SG,Asia,South-eastern Asia,Singapore,,,
202.81.96.1,4,41,garena.co.id,SG,Asia,South-eastern Asia,Singapore,,,
85.187.128.12,4,65,gayathriscookspot.com,SG,Asia,South-eastern Asia,Singapore,,,Singapore
150.109.22.51,4,9,geek-workshop.com,SG,Asia,South-eastern Asia,Singapore,,,Singapore
206.238.160.137,4,9,geekori.com,SG,Asia,South-eastern Asia,Singapore,,,Singapore
192.46.224.96,4,-33273,gempakstarz.com,SG,Asia,South-eastern Asia,Singapore,,,Singapore
15.235.157.225,4,6,genesisdetoxcenter.com,SG,Asia,South-eastern Asia,Singapore,,,
34.124.155.221,4,11,geniee.co.jp,SG,Asia,South-eastern Asia,Singapore,,,Singapore
194.233.74.117,4,22,geotimes.co.id,SG,Asia,South-eastern Asia,Singapore,,,Singapore
194.233.65.54,4,-41,geotimes.id,SG,Asia,South-eastern Asia,Singapore,,,Singapore
131.153.76.101,4,46,gerejaanugerah.com,SG,Asia,South-eastern Asia,Singapore,,,Singapore
103.7.8.234,4,13,getz.co,SG,Asia,South-eastern Asia,Singapore,,,
114.119.184.201,4,13702,gfixauto.com,SG,Asia,South-eastern Asia,Singapore,,,
159.65.128.237,4,13,gfxviet.net,SG,Asia,South-eastern Asia,Singapore,,,Singapore
45.76.178.165,4,19,ghar360.com,SG,Asia,South-eastern Asia,Singapore,,,Singapore
188.166.244.153,4,24,ghl.com,SG,Asia,South-eastern Asia,Singapore,,,Singapore
139.99.123.13,4,5,giangcafehanoi.com,SG,Asia,South-eastern Asia,Singapore,,,Singapore
34.87.27.154,4,4,gicjo.net,SG,Asia,South-eastern Asia,Singapore,,,Singapore
125.253.93.186,4,38,gimphoto.com,SG,Asia,South-eastern Asia,Singapore,,,Singapore
103.14.214.2,4,34,globalasiaprintings.com,SG,Asia,South-eastern Asia,Singapore,,,
101.32.243.45,4,36,globalmarket.com,SG,Asia,South-eastern Asia,Singapore,,,Singapore
52.74.87.251,4,-25,gm99.com,SG,Asia,South-eastern Asia,Singapore,,,Singapore
3.1.18.191,4,-13,gm99.com,SG,Asia,South-eastern Asia,Singapore,,,Singapore
103.3.61.107,4,12,gmf-aeroasia.co.id,SG,Asia,South-eastern Asia,Singapore,,,Singapore
45.130.228.240,4,5,gnathosdental.in,SG,Asia,South-eastern Asia,Singapore,,,Singapore
194.233.65.144,4,7,go-globe.com,SG,Asia,South-eastern Asia,Singapore,,,Singapore
64.176.82.16,4,6,go88tx.site,SG,Asia,South-eastern Asia,Singapore,,,Singapore
167.71.212.59,4,19,goeco.mobi,SG,Asia,South-eastern Asia,Singapore,,,Singapore
128.199.82.156,4,10,gohealthline.com,SG,Asia,South-eastern Asia,Singapore,,,Singapore
139.162.60.200,4,-16,gostress.com,SG,Asia,South-eastern Asia,Singapore,,,Singapore
159.223.65.254,4,8,gppb.gov.ph,SG,Asia,South-eastern Asia,Singapore,,,Singapore
193.168.192.69,4,9,grayhats.in,SG,Asia,South-eastern Asia,Singapore,,,Singapore
185.201.9.171,4,43,greeners.co,SG,Asia,South-eastern Asia,Singapore,,,Singapore
159.223.60.50,4,35,greentechmalaysia.my,SG,Asia,South-eastern Asia,Singapore,,,Singapore
103.9.103.41,4,-65,greenwoodfishmarket.com,SG,Asia,South-eastern Asia,Singapore,,,
52.221.116.227,4,-25,grid.id,SG,Asia,South-eastern Asia,Singapore,,,Singapore
52.77.152.15,4,-23,grid.id,SG,Asia,South-eastern Asia,Singapore,,,Singapore
34.126.166.205,4,23,growestate.ai,SG,Asia,South-eastern Asia,Singapore,,,Singapore
139.99.8.182,4,20,growwithaspire.com,SG,Asia,South-eastern Asia,Singapore,,,Singapore
172.104.177.218,4,-29,gsmindia.in,SG,Asia,South-eastern Asia,Singapore,,,Singapore
209.58.160.178,4,26,gsmkashmir.com,SG,Asia,South-eastern Asia,Singapore,,,Singapore
47.241.39.234,4,5,gstarcad.net,SG,Asia,South-eastern Asia,Singapore,,,Singapore
103.43.189.22,4,23,gtrade.cc,SG,Asia,South-eastern Asia,Singapore,,,
43.134.74.140,4,19,guoli99.com,SG,Asia,South-eastern Asia,Singapore,,,Singapore
103.233.255.141,4,4,gurongchi.com,SG,Asia,South-eastern Asia,Singapore,,,Singapore
101.100.223.50,4,-476388,guzarchitects.com,SG,Asia,South-eastern Asia,Singapore,,,
139.162.27.250,4,25,hackerleague.org,SG,Asia,South-eastern Asia,Singapore,,,Singapore
159.65.130.40,4,100,hadithbd.com,SG,Asia,South-eastern Asia,Singapore,,,Singapore
45.130.228.183,4,3,hairtransplantinstruments.co.uk,SG,Asia,South-eastern Asia,Singapore,,,Singapore
139.162.33.73,4,-24,haledco.com,SG,Asia,South-eastern Asia,Singapore,,,Singapore
43.167.238.97,4,7,hancel.org,SG,Asia,South-eastern Asia,Singapore,,,
143.198.218.150,4,68,handaltraining.com,SG,Asia,South-eastern Asia,Singapore,,,Singapore
47.241.23.165,4,6,hanslaser.net,SG,Asia,South-eastern Asia,Singapore,,,Singapore
43.175.236.69,4,2,haodf.com,SG,Asia,South-eastern Asia,Singapore,,,
113.11.250.74,4,376235,happartners.com,SG,Asia,South-eastern Asia,Singapore,,,
13.250.155.148,4,595,haramain.com,SG,Asia,South-eastern Asia,Singapore,,,Singapore
139.180.132.54,4,10,hargano.com,SG,Asia,South-eastern Asia,Singapore,,,Singapore
206.238.97.107,4,4,haruya-sh.com,SG,Asia,South-eastern Asia,Singapore,,,Singapore
172.104.176.111,4,127451,hatyaisogood.com,SG,Asia,South-eastern Asia,Singapore,,,Singapore
23.106.50.19,4,5,hawparvilla.sg,SG,Asia,South-eastern Asia,Singapore,,,Singapore
8.219.80.15,4,10,hbatv.com,SG,Asia,South-eastern Asia,Singapore,,,
43.159.106.116,4,7,hc3i.cn,SG,Asia,South-eastern Asia,Singapore,,,
206.238.120.167,4,1613,hcgwyj.com,SG,Asia,South-eastern Asia,Singapore,,,Singapore
139.99.114.119,4,5,headline.kz,SG,Asia,South-eastern Asia,Singapore,,,Singapore
134.209.97.26,4,3,health-blog.asia,SG,Asia,South-eastern Asia,Singapore,,,Singapore
172.104.185.21,4,-12,healthinsiderguide.com,SG,Asia,South-eastern Asia,Singapore,,,Singapore
217.21.74.122,4,26,healthylifegoals.us,SG,Asia,South-eastern Asia,Singapore,,,Singapore
103.3.164.225,4,5,heavenlyhomespace.com.sg,SG,Asia,South-eastern Asia,Singapore,,,Singapore
128.199.250.160,4,11,heck.in,SG,Asia,South-eastern Asia,Singapore,,,Singapore
159.89.207.240,4,9,henhouseantiques.com,SG,Asia,South-eastern Asia,Singapore,,,Singapore
172.104.36.191,4,-23,henryscameraphoto.com,SG,Asia,South-eastern Asia,Singapore,,,Singapore
45.12.52.210,4,5,heritage-key.com,SG,Asia,South-eastern Asia,Singapore,,,
174.127.69.117,4,11,hero4d.com,SG,Asia,South-eastern Asia,Singapore,,,Singapore
103.7.8.31,4,958,hibrite.sg,SG,Asia,South-eastern Asia,Singapore,,,
85.187.128.44,4,46,hicaps.com.ph,SG,Asia,South-eastern Asia,Singapore,,,Singapore
66.42.52.210,4,4,hifarm.com.vn,SG,Asia,South-eastern Asia,Singapore,,,Singapore
109.106.254.210,4,11,hippreservation.com,SG,Asia,South-eastern Asia,Singapore,,,Singapore
128.199.65.57,4,2,historia.id,SG,Asia,South-eastern Asia,Singapore,,,Singapore
172.104.61.117,4,20,historyofaboriginalsydney.edu.au,SG,Asia,South-eastern Asia,Singapore,,,Singapore
192.46.225.161,4,8,hkdailynews.com.hk,SG,Asia,South-eastern Asia,Singapore,,,Singapore
157.230.193.198,4,3,hksl.org,SG,Asia,South-eastern Asia,Singapore,,,Singapore
31.220.110.95,4,3,hksooyo.com,SG,Asia,South-eastern Asia,Singapore,,,Singapore
188.166.216.216,4,6,hometrust.sg,SG,Asia,South-eastern Asia,Singapore,,,Singapore
34.143.232.226,4,3,honestdocs.co,SG,Asia,South-eastern Asia,Singapore,,,Singapore
103.227.176.27,4,46,hongkongcaringtaxi.com,SG,Asia,South-eastern Asia,Singapore,,,
159.89.194.120,4,7,hongkongliving.com,SG,Asia,South-eastern Asia,Singapore,,,Singapore
172.96.191.42,4,30,hookupguide.net,SG,Asia,South-eastern Asia,Singapore,,,Singapore
85.187.128.57,4,10,hotelvaishali.com,SG,Asia,South-eastern Asia,Singapore,,,Singapore
131.153.77.115,4,48,hotlinesteel.com,SG,Asia,South-eastern Asia,Singapore,,,Singapore
203.175.174.1,4,3,hotlyrics.net,SG,Asia,South-eastern Asia,Singapore,,,Singapore
47.241.245.24,4,8,hrfjw.com,SG,Asia,South-eastern Asia,Singapore,,,
139.162.36.178,4,520485,hsrgroup.org,SG,Asia,South-eastern Asia,Singapore,,,Singapore
47.237.133.157,4,4,ht.com.au,SG,Asia,South-eastern Asia,Singapore,,,
172.96.191.104,4,34,html5xcss3.com,SG,Asia,South-eastern Asia,Singapore,,,Singapore
94.237.3.49,4,377,htvhue.com,SG,Asia,South-eastern Asia,Singapore,,,
149.28.156.147,4,1,hubanero.com,SG,Asia,South-eastern Asia,Singapore,,,Singapore
156.67.222.234,4,6,hubt.edu.vn,SG,Asia,South-eastern Asia,Singapore,,,Singapore
118.107.26.34,4,7,huian-hr.com,SG,Asia,South-eastern Asia,Singapore,,,
46.17.172.219,4,26,humsafar.org,SG,Asia,South-eastern Asia,Singapore,,,Singapore
118.107.25.61,4,7,hwzhxt.com,SG,Asia,South-eastern Asia,Singapore,,,
153.92.4.108,4,6,hyundaimobil.co.id,SG,Asia,South-eastern Asia,Singapore,,,Singapore
43.156.106.190,4,8,hyw.com,SG,Asia,South-eastern Asia,Singapore,,,Singapore
157.230.37.25,4,4,iahn-gdepudja.ac.id,SG,Asia,South-eastern Asia,Singapore,,,Singapore
209.58.169.47,4,64,iahs.edu.pk,SG,Asia,South-eastern Asia,Singapore,,,Singapore
111.221.46.32,4,2,iainpekalongan.ac.id,SG,Asia,South-eastern Asia,Singapore,,,
172.96.191.153,4,36,ibuku.com,SG,Asia,South-eastern Asia,Singapore,,,Singapore
52.220.180.105,4,-21,icai.org,SG,Asia,South-eastern Asia,Singapore,,,Singapore
54.254.88.109,4,-25,icai.org,SG,Asia,South-eastern Asia,Singapore,,,Singapore
43.229.84.106,4,11,iczn.org,SG,Asia,South-eastern Asia,Singapore,,,
139.59.100.61,4,29,idalamat.com,SG,Asia,South-eastern Asia,Singapore,,,Singapore
34.87.11.251,4,2,ielts-mentor.com,SG,Asia,South-eastern Asia,Singapore,,,Singapore
45.120.151.205,4,20,ieltsacademy.org,SG,Asia,South-eastern Asia,Singapore,,,
139.180.129.23,4,171770,ieltstrainingonline.com,SG,Asia,South-eastern Asia,Singapore,,,Singapore
101.100.208.172,4,18,iflysingapore.com,SG,Asia,South-eastern Asia,Singapore,,,
159.223.53.214,4,7,iforce2d.net,SG,Asia,South-eastern Asia,Singapore,,,Singapore
203.175.162.60,4,7,iggys.com.sg,SG,Asia,South-eastern Asia,Singapore,,,Singapore
191.101.230.188,4,0,iglooinsure.com,SG,Asia,South-eastern Asia,Singapore,,,Singapore
51.79.231.44,4,14,igu-online.org,SG,Asia,South-eastern Asia,Singapore,,,Singapore
172.96.191.243,4,38,iid-aiseisekotsuin.com,SG,Asia,South-eastern Asia,Singapore,,,Singapore
95.111.199.220,4,-5,ijert.org,SG,Asia,South-eastern Asia,Singapore,,,
82.180.152.140,4,15,ils-lighting.com,SG,Asia,South-eastern Asia,Singapore,,,Singapore
43.159.37.71,4,6,ilx8.com,SG,Asia,South-eastern Asia,Singapore,,,Singapore
47.74.254.102,4,8,imaje.ink,SG,Asia,South-eastern Asia,Singapore,,,Singapore
101.100.204.51,4,-172,imao-ind.com,SG,Asia,South-eastern Asia,Singapore,,,
151.106.124.112,4,9,imfree.com.au,SG,Asia,South-eastern Asia,Singapore,,,Singapore
43.175.237.156,4,24,imooc.com,SG,Asia,South-eastern Asia,Singapore,,,
172.104.44.237,4,-23,imprint-india.org,SG,Asia,South-eastern Asia,Singapore,,,Singapore
18.138.57.128,4,-25,imrpress.com,SG,Asia,South-eastern Asia,Singapore,,,Singapore
103.21.221.83,4,58,in-f.org,SG,Asia,South-eastern Asia,Singapore,,,Singapore
217.21.74.22,4,23,inc91.com,SG,Asia,South-eastern Asia,Singapore,,,Singapore
128.199.203.48,4,712,indetac.com,SG,Asia,South-eastern Asia,Singapore,,,Singapore
139.99.121.6,4,30,indiacelebrating.com,SG,Asia,South-eastern Asia,Singapore,,,Singapore
139.99.20.28,4,3,indianauto.com,SG,Asia,South-eastern Asia,Singapore,,,Singapore
51.79.130.108,4,65,indianautosblog.com,SG,Asia,South-eastern Asia,Singapore,,,Singapore
45.125.197.28,4,1262,indiancompany.info,SG,Asia,South-eastern Asia,Singapore,,,
34.126.96.118,4,55,indonesia.travel,SG,Asia,South-eastern Asia,Singapore,,,Singapore
85.187.128.30,4,18,indonesiamatters.com,SG,Asia,South-eastern Asia,Singapore,,,Singapore
139.99.5.123,4,3,indonesian-aerospace.com,SG,Asia,South-eastern Asia,Singapore,,,Singapore
35.197.135.125,4,3,infoisinfo.co.in,SG,Asia,South-eastern Asia,Singapore,,,Singapore
139.99.69.237,4,17,infokekinian.com,SG,Asia,South-eastern Asia,Singapore,,,Singapore
188.166.211.19,4,85,information.gov.kh,SG,Asia,South-eastern Asia,Singapore,,,Singapore
139.180.222.199,4,5,innolife.net,SG,Asia,South-eastern Asia,Singapore,,,Singapore
45.118.132.218,4,1230,insaf.pk,SG,Asia,South-eastern Asia,Singapore,,,Singapore
101.100.229.20,4,8857,instabioanalytik.com,SG,Asia,South-eastern Asia,Singapore,,,
52.221.49.190,4,-22,instube.com,SG,Asia,South-eastern Asia,Singapore,,,Singapore
31.220.110.237,4,50,intellect.co,SG,Asia,South-eastern Asia,Singapore,,,Singapore
45.125.196.88,4,1556,intellisoft.com.sg,SG,Asia,South-eastern Asia,Singapore,,,
103.43.189.104,4,0,inteproate.com.cn,SG,Asia,South-eastern Asia,Singapore,,,
51.79.255.224,4,13,iopri.co.id,SG,Asia,South-eastern Asia,Singapore,,,Singapore
139.99.34.41,4,8,iousathemovie.com,SG,Asia,South-eastern Asia,Singapore,,,Singapore
52.221.27.12,4,-26,iprice.sg,SG,Asia,South-eastern Asia,Singapore,,,Singapore
52.221.41.30,4,-26,iprice.sg,SG,Asia,South-eastern Asia,Singapore,,,Singapore
152.42.172.202,4,9,iptvkingsverige.me,SG,Asia,South-eastern Asia,Singapore,,,Singapore
175.41.187.223,4,41,iqiglobal.com,SG,Asia,South-eastern Asia,Singapore,,,Singapore
172.96.191.77,4,41,isaotomita.net,SG,Asia,South-eastern Asia,Singapore,,,Singapore
159.89.192.111,4,10,isetankl.com.my,SG,Asia,South-eastern Asia,Singapore,,,Singapore
103.227.176.18,4,9,ishadelhi.in,SG,Asia,South-eastern Asia,Singapore,,,
139.59.99.69,4,11,ishucodes.tech,SG,Asia,South-eastern Asia,Singapore,,,Singapore
139.99.122.191,4,-7,isis.org.my,SG,Asia,South-eastern Asia,Singapore,,,Singapore
18.142.82.171,4,-16,iskl.edu.my,SG,Asia,South-eastern Asia,Singapore,,,Singapore
159.223.44.49,4,4,islamic-arts.org,SG,Asia,South-eastern Asia,Singapore,,,Singapore
101.100.226.161,4,68973,islandcruise.com.sg,SG,Asia,South-eastern Asia,Singapore,,,
202.150.210.85,4,74692,itb-asia.com,SG,Asia,South-eastern Asia,Singapore,,,
45.130.228.156,4,4,itdongnam.com,SG,Asia,South-eastern Asia,Singapore,,,Singapore
103.213.247.239,4,-37,itools.cn,SG,Asia,South-eastern Asia,Singapore,,,
206.238.190.14,4,10,itravel4life.com,SG,Asia,South-eastern Asia,Singapore,,,Singapore
68.183.187.98,4,3639916,ivanally.com,SG,Asia,South-eastern Asia,Singapore,,,Singapore
143.198.209.74,4,4,iwin88.tv,SG,Asia,South-eastern Asia,Singapore,,,Singapore
119.81.125.34,4,-25,iwondata.com,SG,Asia,South-eastern Asia,Singapore,,,Singapore
85.187.128.33,4,7,izspa.in,SG,Asia,South-eastern Asia,Singapore,,,Singapore
45.139.226.100,4,-36,jadiasn.id,SG,Asia,South-eastern Asia,Singapore,,,
175.41.177.136,4,-39,jala.tech,SG,Asia,South-eastern Asia,Singapore,,,Singapore
13.213.211.119,4,-22,jamaat.org,SG,Asia,South-eastern Asia,Singapore,,,Singapore
139.59.118.251,4,27,japanpropertycentral.com,SG,Asia,South-eastern Asia,Singapore,,,Singapore
172.96.191.232,4,36,jasaeaforexmt4.com,SG,Asia,South-eastern Asia,Singapore,,,Singapore
154.26.130.121,4,21,jatimnet.com,SG,Asia,South-eastern Asia,Singapore,,,Singapore
154.82.100.222,4,21,jc688.com,SG,Asia,South-eastern Asia,Singapore,,,
154.82.100.19,4,14,jc688.com,SG,Asia,South-eastern Asia,Singapore,,,
46.250.231.114,4,-7,jejumarinahotel.co.kr,SG,Asia,South-eastern Asia,Singapore,,,Singapore
128.199.170.218,4,24,jetli.com,SG,Asia,South-eastern Asia,Singapore,,,Singapore
209.97.168.243,4,14,jetwinghotels.com,SG,Asia,South-eastern Asia,Singapore,,,Singapore
47.245.83.251,4,4,jianyelaundry.cn,SG,Asia,South-eastern Asia,Singapore,,,
27.124.47.19,4,6,jibiao8.com,SG,Asia,South-eastern Asia,Singapore,,,
172.96.191.171,4,32,jigsawpuzzle.io,SG,Asia,South-eastern Asia,Singapore,,,Singapore
101.100.211.121,4,137938,jimrogers.com,SG,Asia,South-eastern Asia,Singapore,,,
217.15.163.182,4,-37,jjpromoter.com,SG,Asia,South-eastern Asia,Singapore,,,Singapore
194.163.35.175,4,4,jjvip.co.kr,SG,Asia,South-eastern Asia,Singapore,,,Singapore
45.77.243.186,4,-23,jks.vn,SG,Asia,South-eastern Asia,Singapore,,,Singapore
172.105.114.112,4,11,jobsinpaper.com,SG,Asia,South-eastern Asia,Singapore,,,Singapore
154.26.139.165,4,15,jouleunlimited.com,SG,Asia,South-eastern Asia,Singapore,,,Singapore
139.162.61.31,4,-27,jssocial.com,SG,Asia,South-eastern Asia,Singapore,,,Singapore
103.227.176.20,4,8,juancarlo.ph,SG,Asia,South-eastern Asia,Singapore,,,
172.104.53.74,4,-24,juanda-airport.com,SG,Asia,South-eastern Asia,Singapore,,,Singapore
13.250.194.106,4,-26,juara.net,SG,Asia,South-eastern Asia,Singapore,,,Singapore
18.136.134.198,4,-25,juara.net,SG,Asia,South-eastern Asia,Singapore,,,Singapore
45.128.12.12,4,11,jugantor.com,SG,Asia,South-eastern Asia,Singapore,,,Singapore
31.220.110.9,4,10,julianaloh.com,SG,Asia,South-eastern Asia,Singapore,,,Singapore
206.238.99.163,4,19,junpincang.com,SG,Asia,South-eastern Asia,Singapore,,,Singapore
172.104.173.174,4,-26,justbuymeds.org,SG,Asia,South-eastern Asia,Singapore,,,Singapore
101.100.228.28,4,3812,justmarriedfilms.com,SG,Asia,South-eastern Asia,Singapore,,,
172.104.189.86,4,-21,justrunlah.com,SG,Asia,South-eastern Asia,Singapore,,,Singapore
143.92.39.220,4,9,jvdm046m.xyz,SG,Asia,South-eastern Asia,Singapore,,,
8.219.105.203,4,3,jzq5.cn,SG,Asia,South-eastern Asia,Singapore,,,
185.210.146.86,4,9,k-storm.net,SG,Asia,South-eastern Asia,Singapore,,,Singapore
45.77.244.129,4,1,kalokatour.com,SG,Asia,South-eastern Asia,Singapore,,,Singapore
206.189.40.88,4,4,kangpaitojitu01.xyz,SG,Asia,South-eastern Asia,Singapore,,,Singapore
101.100.211.81,4,-13474,kapalaku.com,SG,Asia,South-eastern Asia,Singapore,,,
139.59.103.182,4,8,karlijnstoffels.com,SG,Asia,South-eastern Asia,Singapore,,,Singapore
139.162.48.140,4,-43971,karnataka.com,SG,Asia,South-eastern Asia,Singapore,,,Singapore
139.99.9.218,4,72,kavitakosh.org,SG,Asia,South-eastern Asia,Singapore,,,Singapore
43.159.115.89,4,13,kdocs.cn,SG,Asia,South-eastern Asia,Singapore,,,
43.159.114.22,4,-8,kdocs.cn,SG,Asia,South-eastern Asia,Singapore,,,
46.17.172.250,4,9,kdreamstory.com,SG,Asia,South-eastern Asia,Singapore,,,Singapore
151.106.124.136,4,3,kedarengineers.com,SG,Asia,South-eastern Asia,Singapore,,,Singapore
194.233.80.237,4,-11,kekitaan.com,SG,Asia,South-eastern Asia,Singapore,,,Singapore
101.100.204.16,4,136663,kellyorientalaesthetic.com,SG,Asia,South-eastern Asia,Singapore,,,
103.43.189.97,4,2,kenelv.com,SG,Asia,South-eastern Asia,Singapore,,,
64.176.81.110,4,13,ketikmedia.com,SG,Asia,South-eastern Asia,Singapore,,,Singapore
207.148.68.11,4,40,ketquamoinhat.com,SG,Asia,South-eastern Asia,Singapore,,,Singapore
94.237.72.218,4,3,khonkaenlink.info,SG,Asia,South-eastern Asia,Singapore,,,
159.223.83.89,4,0,kickoffbet789.com,SG,Asia,South-eastern Asia,Singapore,,,Singapore
45.80.180.173,4,9,kidokjungbo.com,SG,Asia,South-eastern Asia,Singapore,,,Singapore
159.223.59.7,4,41,kincir.com,SG,Asia,South-eastern Asia,Singapore,,,Singapore
45.32.120.133,4,-24,kiss.com.tw,SG,Asia,South-eastern Asia,Singapore,,,Singapore
35.187.224.201,4,4,kittipatgeneralwork.co.th,SG,Asia,South-eastern Asia,Singapore,,,Singapore
139.162.4.56,4,1037,klbirdpark.com,SG,Asia,South-eastern Asia,Singapore,,,Singapore
34.143.136.243,4,23,klia.com.my,SG,Asia,South-eastern Asia,Singapore,,,Singapore
139.59.125.141,4,8,kmu.ac.th,SG,Asia,South-eastern Asia,Singapore,,,Singapore
27.124.47.15,4,7,kmyrgm.com,SG,Asia,South-eastern Asia,Singapore,,,
146.190.194.100,4,5,knoppix.com,SG,Asia,South-eastern Asia,Singapore,,,Singapore
185.229.113.188,4,4,knutsford.edu.gh,SG,Asia,South-eastern Asia,Singapore,,,Singapore
178.128.106.169,4,15,kobeshoes.cc,SG,Asia,South-eastern Asia,Singapore,,,Singapore
43.175.236.251,4,107,koolearn.com,SG,Asia,South-eastern Asia,Singapore,,,
15.235.159.60,4,13,koreankitchennc.com,SG,Asia,South-eastern Asia,Singapore,,,
54.169.96.78,4,-6,koreastardaily.com,SG,Asia,South-eastern Asia,Singapore,,,Singapore
45.77.244.232,4,-24,kostjakarta.net,SG,Asia,South-eastern Asia,Singapore,,,Singapore
159.223.72.73,4,51,kostsurabaya.net,SG,Asia,South-eastern Asia,Singapore,,,Singapore
118.107.25.62,4,15,koudaind.com,SG,Asia,South-eastern Asia,Singapore,,,
118.107.13.132,4,21,krbrandmall.net,SG,Asia,South-eastern Asia,Singapore,,,
139.99.89.153,4,10,kro.kr,SG,Asia,South-eastern Asia,Singapore,,,Singapore
188.166.217.254,4,2,ksouhouse.com,SG,Asia,South-eastern Asia,Singapore,,,Singapore
103.43.189.158,4,7,ksxianda.com,SG,Asia,South-eastern Asia,Singapore,,,
172.104.32.207,4,6,kura2bus.com,SG,Asia,South-eastern Asia,Singapore,,,Singapore
103.6.169.159,4,-2,kwani.org,SG,Asia,South-eastern Asia,Singapore,,,Singapore
103.159.65.146,4,32,labuda.blog,SG,Asia,South-eastern Asia,Singapore,,,Singapore
217.15.165.243,4,26,laghuvit.net,SG,Asia,South-eastern Asia,Singapore,,,Singapore
165.22.110.255,4,3,lagunalangco.com,SG,Asia,South-eastern Asia,Singapore,,,Singapore
206.189.151.65,4,5,lagunaphuket.com,SG,Asia,South-eastern Asia,Singapore,,,Singapore
206.238.104.119,4,11,laidekuai.org,SG,Asia,South-eastern Asia,Singapore,,,Singapore
103.216.223.242,4,4,laitinlok.com,SG,Asia,South-eastern Asia,Singapore,,,Singapore
54.255.8.36,4,-27,lamudi.co.id,SG,Asia,South-eastern Asia,Singapore,,,Singapore
3.0.2.6,4,-12,lamudi.co.id,SG,Asia,South-eastern Asia,Singapore,,,Singapore
13.251.189.75,4,-21,lamudi.com.ph,SG,Asia,South-eastern Asia,Singapore,,,Singapore
52.77.103.229,4,-28,lamudi.com.ph,SG,Asia,South-eastern Asia,Singapore,,,Singapore
113.197.36.103,4,332,landtransportguru.net,SG,Asia,South-eastern Asia,Singapore,,,
206.189.144.108,4,4,lanka.com,SG,Asia,South-eastern Asia,Singapore,,,Singapore
52.74.4.161,4,15,lansonplace.com,SG,Asia,South-eastern Asia,Singapore,,,Singapore
45.130.228.101,4,7,lapzone.com.vn,SG,Asia,South-eastern Asia,Singapore,,,Singapore
172.96.191.238,4,33,lazizkhana.com,SG,Asia,South-eastern Asia,Singapore,,,Singapore
49.0.203.15,4,4,legalconcept.co.th,SG,Asia,South-eastern Asia,Singapore,,,Singapore
109.106.254.132,4,33,legaleyeassociates.com,SG,Asia,South-eastern Asia,Singapore,,,Singapore
15.235.147.240,4,2,legalpostgazette.com,SG,Asia,South-eastern Asia,Singapore,,,
167.71.212.188,4,141,lemauricien.com,SG,Asia,South-eastern Asia,Singapore,,,Singapore
206.189.89.15,4,4,lembu4d.org,SG,Asia,South-eastern Asia,Singapore,,,Singapore
45.118.132.76,4,48,lemmy.pro,SG,Asia,South-eastern Asia,Singapore,,,Singapore
134.209.96.135,4,9,leonsfrozencustard.us,SG,Asia,South-eastern Asia,Singapore,,,Singapore
103.53.172.138,4,68,lesamis.com.sg,SG,Asia,South-eastern Asia,Singapore,,,
206.189.85.186,4,88,letsrelaxspa.com,SG,Asia,South-eastern Asia,Singapore,,,Singapore
157.230.39.101,4,2,levittmedicalaesthetics.com,SG,Asia,South-eastern Asia,Singapore,,,Singapore
45.32.113.55,4,-1,levygorvy.com,SG,Asia,South-eastern Asia,Singapore,,,Singapore
206.238.142.195,4,-17781718,lhdylj.com,SG,Asia,South-eastern Asia,Singapore,,,Singapore
172.96.191.40,4,30,liatairline.com,SG,Asia,South-eastern Asia,Singapore,,,Singapore
174.138.21.62,4,4,lienket.vn,SG,Asia,South-eastern Asia,Singapore,,,Singapore
137.184.251.81,4,12,liftbali.com,SG,Asia,South-eastern Asia,Singapore,,,Singapore
172.96.191.194,4,54,linhkienxe.vn,SG,Asia,South-eastern Asia,Singapore,,,Singapore
139.162.28.126,4,-25,linkpool.in,SG,Asia,South-eastern Asia,Singapore,,,Singapore
47.241.127.227,4,4,lipower.cn,SG,Asia,South-eastern Asia,Singapore,,,Singapore
159.65.139.60,4,28,liquidarchitecture.org.au,SG,Asia,South-eastern Asia,Singapore,,,Singapore
139.59.248.29,4,12,literasinusantara.com,SG,Asia,South-eastern Asia,Singapore,,,Singapore
43.245.98.190,4,3,littleflowerhut.com.sg,SG,Asia,South-eastern Asia,Singapore,,,
15.235.187.139,4,26,livetrafficfeed.com,SG,Asia,South-eastern Asia,Singapore,,,
139.59.114.235,4,2,livingjoin.com,SG,Asia,South-eastern Asia,Singapore,,,Singapore
178.128.58.131,4,2,llp.com.tw,SG,Asia,South-eastern Asia,Singapore,,,Singapore
150.109.13.122,4,8,lmwfm.com,SG,Asia,South-eastern Asia,Singapore,,,Singapore
103.11.191.230,4,2,loancfi.com.sg,SG,Asia,South-eastern Asia,Singapore,,,
139.162.50.39,4,16,loanstreet.com.my,SG,Asia,South-eastern Asia,Singapore,,,Singapore
217.21.74.189,4,6,logicalgyan.in,SG,Asia,South-eastern Asia,Singapore,,,Singapore
95.111.197.46,4,506,lonestarsteakhouse.com,SG,Asia,South-eastern Asia,Singapore,,,
51.79.191.65,4,2,longbeachseafood.com.sg,SG,Asia,South-eastern Asia,Singapore,,,Singapore
167.172.65.82,4,9,lost-media.com,SG,Asia,South-eastern Asia,Singapore,,,Singapore
139.59.243.18,4,-8,louisvillemojo.com,SG,Asia,South-eastern Asia,Singapore,,,Singapore
191.101.230.62,4,11,lpglobalbhd.com,SG,Asia,South-eastern Asia,Singapore,,,Singapore
45.13.254.160,4,3,lppmunindra.ac.id,SG,Asia,South-eastern Asia,Singapore,,,Singapore
43.134.118.25,4,10,lspack.com,SG,Asia,South-eastern Asia,Singapore,,,Singapore
45.32.100.71,4,-21,luatvietan.vn,SG,Asia,South-eastern Asia,Singapore,,,Singapore
139.59.116.216,4,1001698,luckysim.com,SG,Asia,South-eastern Asia,Singapore,,,Singapore
151.106.124.148,4,95,lullaclasses.com,SG,Asia,South-eastern Asia,Singapore,,,Singapore
139.162.21.30,4,-13,lulu88.site,SG,Asia,South-eastern Asia,Singapore,,,Singapore
119.31.235.50,4,-373,lumina-grand.com.sg,SG,Asia,South-eastern Asia,Singapore,,,
128.199.181.77,4,33,luminmusic.com,SG,Asia,South-eastern Asia,Singapore,,,Singapore
172.105.115.70,4,1639,luxuryabode.com,SG,Asia,South-eastern Asia,Singapore,,,Singapore
23.106.50.4,4,38,m-dog.org,SG,Asia,South-eastern Asia,Singapore,,,Singapore
94.188.234.12,4,-59,m1.com.sg,SG,Asia,South-eastern Asia,Singapore,,,Singapore
103.21.221.104,4,32,m4vips.com,SG,Asia,South-eastern Asia,Singapore,,,Singapore
172.96.191.217,4,36,m4wins.com,SG,Asia,South-eastern Asia,Singapore,,,Singapore
152.42.228.52,4,14,mace-events.org,SG,Asia,South-eastern Asia,Singapore,,,Singapore
43.175.236.64,4,102,mafengwo.cn,SG,Asia,South-eastern Asia,Singapore,,,
172.104.40.208,4,-24,mahima.net.in,SG,Asia,South-eastern Asia,Singapore,,,Singapore
139.99.61.42,4,11,maisonyaki.com,SG,Asia,South-eastern Asia,Singapore,,,Singapore
43.245.97.168,4,13,makansutra.com,SG,Asia,South-eastern Asia,Singapore,,,
103.227.176.5,4,150,malfah.com,SG,Asia,South-eastern Asia,Singapore,,,
172.104.162.217,4,-1453,mamachows.com,SG,Asia,South-eastern Asia,Singapore,,,Singapore
45.129.229.1,4,50,mangadex.org,SG,Asia,South-eastern Asia,Singapore,,,
45.129.229.2,4,87,mangadex.org,SG,Asia,South-eastern Asia,Singapore,,,
52.74.72.68,4,-23,manilastandard.net,SG,Asia,South-eastern Asia,Singapore,,,Singapore
52.220.43.22,4,-14,manilastandard.net,SG,Asia,South-eastern Asia,Singapore,,,Singapore
18.142.134.86,4,-24,manilastandard.net,SG,Asia,South-eastern Asia,Singapore,,,Singapore
188.166.215.205,4,58,manilawater.com,SG,Asia,South-eastern Asia,Singapore,,,Singapore
31.220.110.48,4,3,mantradhwani.com,SG,Asia,South-eastern Asia,Singapore,,,Singapore
217.21.73.207,4,24,manyfits.com,SG,Asia,South-eastern Asia,Singapore,,,Singapore
121.52.206.240,4,-137050,maplesea.com,SG,Asia,South-eastern Asia,Singapore,,,
45.130.228.231,4,55,maritimeindia.org,SG,Asia,South-eastern Asia,Singapore,,,Singapore
172.104.180.183,4,23,marshabeauty.com,SG,Asia,South-eastern Asia,Singapore,,,Singapore
172.96.191.236,4,33,marshill.com,SG,Asia,South-eastern Asia,Singapore,,,Singapore
23.106.52.199,4,-31,masirwin.com,SG,Asia,South-eastern Asia,Singapore,,,Singapore
111.221.46.82,4,1016,match.co.id,SG,Asia,South-eastern Asia,Singapore,,,
128.199.236.24,4,3,mauorder.online,SG,Asia,South-eastern Asia,Singapore,,,Singapore
45.77.243.148,4,0,maxalbums.com,SG,Asia,South-eastern Asia,Singapore,,,Singapore
192.250.235.35,4,62,maxima.com.ph,SG,Asia,South-eastern Asia,Singapore,,,Singapore
54.254.241.237,4,57974,maxschicken.com,SG,Asia,South-eastern Asia,Singapore,,,Singapore
54.151.214.206,4,-31,mbakes.com,SG,Asia,South-eastern Asia,Singapore,,,Singapore
54.251.195.236,4,-26,mcdonalds.com.pk,SG,Asia,South-eastern Asia,Singapore,,,Singapore
209.97.175.193,4,13,mdis.edu.sg,SG,Asia,South-eastern Asia,Singapore,,,Singapore
31.220.110.111,4,4,mdta.org.my,SG,Asia,South-eastern Asia,Singapore,,,Singapore
188.166.187.142,4,21,mebeam.com,SG,Asia,South-eastern Asia,Singapore,,,Singapore
15.235.216.89,4,10,mediapermata.com.bn,SG,Asia,South-eastern Asia,Singapore,,,
139.59.125.165,4,13,mediaspy.org,SG,Asia,South-eastern Asia,Singapore,,,Singapore
8.222.145.42,4,11,medtl.net,SG,Asia,South-eastern Asia,Singapore,,,
143.198.204.188,4,9,meetjojo.com,SG,Asia,South-eastern Asia,Singapore,,,Singapore
178.128.28.235,4,15,mega7winbet.org,SG,Asia,South-eastern Asia,Singapore,,,Singapore
194.163.35.136,4,-1,megagame.life,SG,Asia,South-eastern Asia,Singapore,,,Singapore
103.11.189.60,4,-2,meinhardtgroup.com,SG,Asia,South-eastern Asia,Singapore,,,
172.104.178.136,4,-25,mekshat.com,SG,Asia,South-eastern Asia,Singapore,,,Singapore
143.198.210.173,4,14,mercafutbol.com,SG,Asia,South-eastern Asia,Singapore,,,Singapore
13.251.91.175,4,22,metacene.io,SG,Asia,South-eastern Asia,Singapore,,,Singapore
101.100.210.160,4,5,metto.com.sg,SG,Asia,South-eastern Asia,Singapore,,,
192.250.235.17,4,48,mfpi.com.ph,SG,Asia,South-eastern Asia,Singapore,,,Singapore
178.128.103.125,4,25,mgcars.com,SG,Asia,South-eastern Asia,Singapore,,,Singapore
194.163.43.52,4,5,mhpetservice.com,SG,Asia,South-eastern Asia,Singapore,,,Singapore
43.159.116.222,4,44,midasbuy.com,SG,Asia,South-eastern Asia,Singapore,,,
206.189.91.135,4,24,midlanddevelopers.com,SG,Asia,South-eastern Asia,Singapore,,,Singapore
51.79.145.177,4,9,millacfoods.com,SG,Asia,South-eastern Asia,Singapore,,,Singapore
194.163.37.126,4,-1,mindmeow.com,SG,Asia,South-eastern Asia,Singapore,,,Singapore
139.180.156.24,4,3,mindovermetal.org,SG,Asia,South-eastern Asia,Singapore,,,Singapore
23.106.127.13,4,8,minds.org.sg,SG,Asia,South-eastern Asia,Singapore,,,Singapore
149.28.130.65,4,25,minglebox.com,SG,Asia,South-eastern Asia,Singapore,,,Singapore
217.15.163.183,4,19,miningsphere.info,SG,Asia,South-eastern Asia,Singapore,,,Singapore
103.21.221.7,4,42,mipymelocal.com,SG,Asia,South-eastern Asia,Singapore,,,Singapore
206.189.90.242,4,3,miyadenthai.com,SG,Asia,South-eastern Asia,Singapore,,,Singapore
47.74.179.179,4,11,mmosite.com,SG,Asia,South-eastern Asia,Singapore,,,Singapore
51.79.152.8,4,4,mmwin12.com,SG,Asia,South-eastern Asia,Singapore,,,Singapore
172.104.172.172,4,75,mobilecity.vn,SG,Asia,South-eastern Asia,Singapore,,,Singapore
178.128.109.129,4,5,mobilemaplets.com,SG,Asia,South-eastern Asia,Singapore,,,Singapore
13.250.217.114,4,-29,mobvista.com,SG,Asia,South-eastern Asia,Singapore,,,Singapore
52.77.22.140,4,-3,mobvista.com,SG,Asia,South-eastern Asia,Singapore,,,Singapore
172.104.57.40,4,-25,modelenginenews.org,SG,Asia,South-eastern Asia,Singapore,,,Singapore
139.162.17.144,4,-25,modelsingoa.com,SG,Asia,South-eastern Asia,Singapore,,,Singapore
167.71.219.188,4,2,modernfilipina.ph,SG,Asia,South-eastern Asia,Singapore,,,Singapore
94.237.65.230,4,814,moestopo.ac.id,SG,Asia,South-eastern Asia,Singapore,,,Singapore
119.8.248.33,4,3,monomax.me,SG,Asia,South-eastern Asia,Singapore,,,
119.8.248.36,4,4,monomax.me,SG,Asia,South-eastern Asia,Singapore,,,
35.198.220.167,4,20,motherhood.com.my,SG,Asia,South-eastern Asia,Singapore,,,Singapore
18.142.224.170,4,10,motorplus-online.com,SG,Asia,South-eastern Asia,Singapore,,,Singapore
52.220.226.172,4,22,motorplus-online.com,SG,Asia,South-eastern Asia,Singapore,,,Singapore
85.187.128.50,4,45,mountkinabalu.com,SG,Asia,South-eastern Asia,Singapore,,,Singapore
103.20.234.213,4,10,msig.info,SG,Asia,South-eastern Asia,Singapore,,,Singapore
101.100.208.31,4,4003,muginoho.com,SG,Asia,South-eastern Asia,Singapore,,,
172.96.191.227,4,38,multigacos.com,SG,Asia,South-eastern Asia,Singapore,,,Singapore
172.104.184.68,4,-26,murtafidigital.co.id,SG,Asia,South-eastern Asia,Singapore,,,Singapore
172.96.191.114,4,35,musicnewsnashville.com,SG,Asia,South-eastern Asia,Singapore,,,Singapore
85.187.128.31,4,37,my-work.info,SG,Asia,South-eastern Asia,Singapore,,,Singapore
109.106.254.239,4,10,myassignmenthelpnow.com,SG,Asia,South-eastern Asia,Singapore,,,Singapore
85.187.128.27,4,47,mybahaibook.com,SG,Asia,South-eastern Asia,Singapore,,,Singapore
35.187.249.221,4,3,myduc.edu.vn,SG,Asia,South-eastern Asia,Singapore,,,Singapore
192.250.235.77,4,94,mykoperasi.coop,SG,Asia,South-eastern Asia,Singapore,,,Singapore
191.101.230.179,4,35,mymorha.com,SG,Asia,South-eastern Asia,Singapore,,,Singapore
13.215.65.98,4,-24,myproperty.ph,SG,Asia,South-eastern Asia,Singapore,,,Singapore
54.254.125.8,4,-28,myproperty.ph,SG,Asia,South-eastern Asia,Singapore,,,Singapore
172.96.190.201,4,56,myticketgenius.com,SG,Asia,South-eastern Asia,Singapore,,,Singapore
52.77.12.40,4,-20,myvestige.com,SG,Asia,South-eastern Asia,Singapore,,,Singapore
54.179.75.165,4,-22,myvestige.com,SG,Asia,South-eastern Asia,Singapore,,,Singapore
35.240.177.79,4,18,myvietnamvisa.com,SG,Asia,South-eastern Asia,Singapore,,,Singapore
154.26.137.166,4,-9,myy.vn,SG,Asia,South-eastern Asia,Singapore,,,Singapore
192.250.228.154,4,63,mzu.edu.in,SG,Asia,South-eastern Asia,Singapore,,,Singapore
103.11.190.155,4,5890,n51.com.sg,SG,Asia,South-eastern Asia,Singapore,,,
8.214.96.136,4,17,nabox.io,SG,Asia,South-eastern Asia,Singapore,,,
167.172.85.189,4,9,nadirbilgiler.com,SG,Asia,South-eastern Asia,Singapore,,,Singapore
143.198.192.90,4,4,nagagames-789.com,SG,Asia,South-eastern Asia,Singapore,,,Singapore
45.130.228.225,4,13,nainakaur.in,SG,Asia,South-eastern Asia,Singapore,,,Singapore
103.255.250.216,4,4,nakamichi-usa.com,SG,Asia,South-eastern Asia,Singapore,,,Singapore
119.31.235.60,4,-8009,nakamichi.com,SG,Asia,South-eastern Asia,Singapore,,,
103.21.221.8,4,56,nakita.vn,SG,Asia,South-eastern Asia,Singapore,,,Singapore
103.43.188.3,4,1,nameschina.com,SG,Asia,South-eastern Asia,Singapore,,,
45.13.254.137,4,3,nara.ae,SG,Asia,South-eastern Asia,Singapore,,,Singapore
149.28.151.71,4,-1,naronanews.com,SG,Asia,South-eastern Asia,Singapore,,,Singapore
176.97.64.242,4,5,nationalcasino.online,SG,Asia,South-eastern Asia,Singapore,,,Singapore
52.220.231.143,4,-25,nationalgeographic.co.id,SG,Asia,South-eastern Asia,Singapore,,,Singapore
52.220.33.81,4,-29,nationalgeographic.co.id,SG,Asia,South-eastern Asia,Singapore,,,Singapore
15.235.163.15,4,2,nativeindonesia.com,SG,Asia,South-eastern Asia,Singapore,,,
172.96.191.161,4,40,naturalfamilytoday.com,SG,Asia,South-eastern Asia,Singapore,,,Singapore
154.82.100.203,4,0,nbcfxs.com,SG,Asia,South-eastern Asia,Singapore,,,
154.82.100.206,4,1,nbcfxs.com,SG,Asia,South-eastern Asia,Singapore,,,
23.54.155.147,4,30,ncs.co,SG,Asia,South-eastern Asia,Singapore,,,Singapore
23.54.155.135,4,26,ncs.co,SG,Asia,South-eastern Asia,Singapore,,,Singapore
23.200.24.33,4,-1,ncs.com.sg,SG,Asia,South-eastern Asia,Singapore,,,Singapore
23.200.24.17,4,-1,ncs.com.sg,SG,Asia,South-eastern Asia,Singapore,,,Singapore
172.104.185.69,4,-26,ndc.gov.ph,SG,Asia,South-eastern Asia,Singapore,,,Singapore
45.76.149.224,4,5,neginsport.com,SG,Asia,South-eastern Asia,Singapore,,,Singapore
68.183.180.87,4,3,netbestdating.com,SG,Asia,South-eastern Asia,Singapore,,,Singapore
185.232.14.72,4,3,netmeg.net,SG,Asia,South-eastern Asia,Singapore,,,Singapore
124.6.61.130,4,165,netor.com,SG,Asia,South-eastern Asia,Singapore,,,Singapore
128.199.144.227,4,4,newlovetimes.com,SG,Asia,South-eastern Asia,Singapore,,,Singapore
51.79.231.14,4,4,newsninja2012.com,SG,Asia,South-eastern Asia,Singapore,,,Singapore
157.245.147.50,4,53,nextcc.jp,SG,Asia,South-eastern Asia,Singapore,,,Singapore
178.128.122.112,4,16,nextwave.org.au,SG,Asia,South-eastern Asia,Singapore,,,Singapore
128.199.243.161,4,14,nexusfordevelopment.org,SG,Asia,South-eastern Asia,Singapore,,,Singapore
149.28.140.244,4,-1,ngonaz.com,SG,Asia,South-eastern Asia,Singapore,,,Singapore
35.234.206.185,4,1,ngthai.com,SG,Asia,South-eastern Asia,Singapore,,,Singapore
194.233.80.210,4,8,nhacaisomot.com,SG,Asia,South-eastern Asia,Singapore,,,Singapore
217.21.74.246,4,-32,nhomkinhthanhphat.xyz,SG,Asia,South-eastern Asia,Singapore,,,Singapore
5.223.45.121,4,11,nida.ac.th,SG,Asia,South-eastern Asia,Singapore,,,Singapore
161.117.59.210,4,4,nide-international.com,SG,Asia,South-eastern Asia,Singapore,,,
51.79.167.105,4,2,nigeriamasterweb.com,SG,Asia,South-eastern Asia,Singapore,,,Singapore
103.20.234.58,4,5,nike-roshe-run.me.uk,SG,Asia,South-eastern Asia,Singapore,,,Singapore
15.235.146.67,4,4,nikeairmaxplus.us,SG,Asia,South-eastern Asia,Singapore,,,
103.227.176.17,4,9,nilkanthengg.com,SG,Asia,South-eastern Asia,Singapore,,,
43.159.106.73,4,37,nio.cn,SG,Asia,South-eastern Asia,Singapore,,,
43.245.111.156,4,-4,nipponpaint.com.sg,SG,Asia,South-eastern Asia,Singapore,,,
94.237.65.185,4,-2,nis.gov.kh,SG,Asia,South-eastern Asia,Singapore,,,Singapore
34.87.163.46,4,1,nissan.co.id,SG,Asia,South-eastern Asia,Singapore,,,Singapore
35.240.224.26,4,2,nissan.com.my,SG,Asia,South-eastern Asia,Singapore,,,Singapore
45.130.228.91,4,10,niyamaorganic.com,SG,Asia,South-eastern Asia,Singapore,,,Singapore
103.43.189.164,4,13,njbtdp.com,SG,Asia,South-eastern Asia,Singapore,,,
139.99.122.159,4,2,nongviet.com,SG,Asia,South-eastern Asia,Singapore,,,Singapore
139.177.191.228,4,-16,noquedanblogs.com,SG,Asia,South-eastern Asia,Singapore,,,Singapore
139.162.40.77,4,10,noulakaz.net,SG,Asia,South-eastern Asia,Singapore,,,Singapore
103.11.191.81,4,4513,nozakiasset.com,SG,Asia,South-eastern Asia,Singapore,,,
43.175.22.42,4,16,nubia.com,SG,Asia,South-eastern Asia,Singapore,,,
43.175.22.26,4,43,nubia.com,SG,Asia,South-eastern Asia,Singapore,,,
43.175.22.27,4,2,nubia.com,SG,Asia,South-eastern Asia,Singapore,,,
159.65.9.47,4,9,nurulfikri.ac.id,SG,Asia,South-eastern Asia,Singapore,,,Singapore
217.15.160.119,4,-40,nusantaranet.co.id,SG,Asia,South-eastern Asia,Singapore,,,Singapore
163.47.10.68,4,6,nusatrip.com,SG,Asia,South-eastern Asia,Singapore,,,Singapore
47.241.121.58,4,3,nxngame.com,SG,Asia,South-eastern Asia,Singapore,,,Singapore
43.245.98.29,4,-3,nylon.com.sg,SG,Asia,South-eastern Asia,Singapore,,,
194.163.35.46,4,18,nzifbb.co.nz,SG,Asia,South-eastern Asia,Singapore,,,Singapore
51.79.254.86,4,4,o-vivi.com,SG,Asia,South-eastern Asia,Singapore,,,Singapore
8.222.188.222,4,6,oceanpayment.com,SG,Asia,South-eastern Asia,Singapore,,,
139.99.69.157,4,5,ocworkbench.com,SG,Asia,South-eastern Asia,Singapore,,,Singapore
149.28.147.98,4,-12,officialproudboys.com,SG,Asia,South-eastern Asia,Singapore,,,Singapore
18.136.151.34,4,-20,omnichat.ai,SG,Asia,South-eastern Asia,Singapore,,,Singapore
52.76.167.59,4,-25,omnichat.ai,SG,Asia,South-eastern Asia,Singapore,,,Singapore
157.245.194.185,4,24,onefabergroup.com,SG,Asia,South-eastern Asia,Singapore,,,Singapore
217.21.74.167,4,21,onemoregame.ph,SG,Asia,South-eastern Asia,Singapore,,,Singapore
157.245.56.227,4,2,onestep4ward.com,SG,Asia,South-eastern Asia,Singapore,,,Singapore
161.117.186.50,4,22,onevcat.com,SG,Asia,South-eastern Asia,Singapore,,,Singapore
203.175.162.84,4,32,ongzx.com,SG,Asia,South-eastern Asia,Singapore,,,Singapore
207.148.64.233,4,5,ononoki.org,SG,Asia,South-eastern Asia,Singapore,,,Singapore
35.240.178.219,4,10,onto.app,SG,Asia,South-eastern Asia,Singapore,,,Singapore
140.245.38.130,4,12767,Ookla Speedtest Server 16111: sin-speedtest.zedware-neoftt.us.kg,SG,Asia,South-eastern Asia,Singapore,,,Singapore
115.146.113.46,4,356,Ookla Speedtest Server 54359: speedtest-sg.napinfo.co.id,SG,Asia,South-eastern Asia,Singapore,,,
202.70.133.12,4,315,Ookla Speedtest Server 56066: speedtest.herza.cloud,SG,Asia,South-eastern Asia,Singapore,,,Singapore
209.146.43.37,4,225,Ookla Speedtest Server 62020: speedtest.axclusive.com.sg,SG,Asia,South-eastern Asia,Singapore,,,Singapore
96.30.112.242,4,193,Ookla Speedtest Server 62530: bassoon-sg-1.violin.co.th,SG,Asia,South-eastern Asia,Singapore,,,Singapore
152.42.224.89,4,208,Ookla Speedtest Server 62888: ell-yumna.internetservice.my.id,SG,Asia,South-eastern Asia,Singapore,,,Singapore
113.192.10.2,4,246,Ookla Speedtest Server 63375: speedtest.sg.hsp.net.id,SG,Asia,South-eastern Asia,Singapore,,,Singapore
202.150.221.170,4,787,Ookla Speedtest Server: www.speedtest.com.sg,SG,Asia,South-eastern Asia,Singapore,,,
139.99.115.203,4,370,oom.com.sg,SG,Asia,South-eastern Asia,Singapore,,,Singapore
45.139.226.30,4,-33590,openjournaltheme.com,SG,Asia,South-eastern Asia,Singapore,,,
159.223.37.86,4,59,openwengo.com,SG,Asia,South-eastern Asia,Singapore,,,Singapore
185.210.144.243,4,11,orchardroad.org,SG,Asia,South-eastern Asia,Singapore,,,Singapore
31.220.110.60,4,6,ordergnonline.com,SG,Asia,South-eastern Asia,Singapore,,,Singapore
103.112.80.204,4,964,ordinarypatrons.com,SG,Asia,South-eastern Asia,Singapore,,,
101.100.247.205,4,95364,orient-explorer.net,SG,Asia,South-eastern Asia,Singapore,,,
128.199.190.224,4,4,ormbsonline.com,SG,Asia,South-eastern Asia,Singapore,,,Singapore
139.59.122.62,4,2,otoritasnews.co.id,SG,Asia,South-eastern Asia,Singapore,,,Singapore
157.230.245.8,4,4,otuslot.info,SG,Asia,South-eastern Asia,Singapore,,,Singapore
146.190.83.14,4,4,ourschoolsnow.com,SG,Asia,South-eastern Asia,Singapore,,,Singapore
178.128.23.28,4,18,overclockzone.com,SG,Asia,South-eastern Asia,Singapore,,,Singapore
152.42.192.250,4,8,overheidsmanagement.org,SG,Asia,South-eastern Asia,Singapore,,,Singapore
139.180.214.154,4,2,oxfordinternational.com,SG,Asia,South-eastern Asia,Singapore,,,Singapore
121.200.240.180,4,2037,pacific.net.sg,SG,Asia,South-eastern Asia,Singapore,,,Singapore
188.166.247.153,4,15,pafialor.org,SG,Asia,South-eastern Asia,Singapore,,,Singapore
178.128.28.195,4,4,pafideliserdang.org,SG,Asia,South-eastern Asia,Singapore,,,Singapore
68.183.184.59,4,4,pafikabpasuruan.org,SG,Asia,South-eastern Asia,Singapore,,,Singapore
159.223.59.250,4,2,pafikabupatengunungkidul.org,SG,Asia,South-eastern Asia,Singapore,,,Singapore
68.183.228.205,4,13,pafikabupatenkulonprogo.org,SG,Asia,South-eastern Asia,Singapore,,,Singapore
157.245.50.93,4,-5,pafikabupatentulungagung.org,SG,Asia,South-eastern Asia,Singapore,,,Singapore
159.89.200.229,4,8,pafikatingan.org,SG,Asia,South-eastern Asia,Singapore,,,Singapore
128.199.205.29,4,2,pafikotawaringintimur.org,SG,Asia,South-eastern Asia,Singapore,,,Singapore
178.128.54.213,4,7,pafilingga.org,SG,Asia,South-eastern Asia,Singapore,,,Singapore
174.138.29.73,4,7,pafisabangkota.org,SG,Asia,South-eastern Asia,Singapore,,,Singapore
143.198.219.19,4,3,pafitanjungbalai.org,SG,Asia,South-eastern Asia,Singapore,,,Singapore
157.245.156.27,4,-1,pafiwaropen.org,SG,Asia,South-eastern Asia,Singapore,,,Singapore
43.156.49.66,4,6,paiaudio.com,SG,Asia,South-eastern Asia,Singapore,,,Singapore
191.101.230.136,4,19,pakistantimes.net,SG,Asia,South-eastern Asia,Singapore,,,Singapore
103.21.221.82,4,48,pandorajewelryoutlet.org,SG,Asia,South-eastern Asia,Singapore,,,Singapore
45.77.250.146,4,-12,pandoraonline.us,SG,Asia,South-eastern Asia,Singapore,,,Singapore
94.237.78.0,4,265005,panduanwisata.id,SG,Asia,South-eastern Asia,Singapore,,,
103.21.221.84,4,31,panen123.shop,SG,Asia,South-eastern Asia,Singapore,,,Singapore
167.99.70.125,4,50,pangasinan.gov.ph,SG,Asia,South-eastern Asia,Singapore,,,Singapore
188.166.243.100,4,25,panozauto.com,SG,Asia,South-eastern Asia,Singapore,,,Singapore
15.235.165.183,4,30,pantip.com,SG,Asia,South-eastern Asia,Singapore,,,
15.235.165.13,4,3,pantip.com,SG,Asia,South-eastern Asia,Singapore,,,
103.227.176.7,4,122,paperpage.in,SG,Asia,South-eastern Asia,Singapore,,,
172.96.191.163,4,53,paperwriterhelp.net,SG,Asia,South-eastern Asia,Singapore,,,Singapore
13.228.113.143,4,-26,parapuan.co,SG,Asia,South-eastern Asia,Singapore,,,Singapore
52.221.155.186,4,-4,parapuan.co,SG,Asia,South-eastern Asia,Singapore,,,Singapore
45.90.228.33,4,4,parathajoint.com,SG,Asia,South-eastern Asia,Singapore,,,Singapore
34.87.128.189,4,13,parboaboa.com,SG,Asia,South-eastern Asia,Singapore,,,Singapore
101.100.200.2,4,131,parkablogs.com,SG,Asia,South-eastern Asia,Singapore,,,
165.22.57.141,4,28,parkerjonesgallery.com,SG,Asia,South-eastern Asia,Singapore,,,Singapore
45.125.197.35,4,32,parkroyalhotels.com,SG,Asia,South-eastern Asia,Singapore,,,
185.232.14.40,4,45,parkviewgroup.ca,SG,Asia,South-eastern Asia,Singapore,,,Singapore
172.96.191.84,4,87,paste.co.id,SG,Asia,South-eastern Asia,Singapore,,,Singapore
167.172.71.132,4,33,pastriesofdenmark.com,SG,Asia,South-eastern Asia,Singapore,,,Singapore
178.128.20.199,4,6,patriabook.com,SG,Asia,South-eastern Asia,Singapore,,,Singapore
217.21.74.46,4,25,pawsitivvefuture.com,SG,Asia,South-eastern Asia,Singapore,,,Singapore
128.199.189.226,4,22,paycly.com,SG,Asia,South-eastern Asia,Singapore,,,Singapore
139.99.121.239,4,4,pegaweb.com,SG,Asia,South-eastern Asia,Singapore,,,Singapore
109.123.232.192,4,-11,pehyung.bio,SG,Asia,South-eastern Asia,Singapore,,,Singapore
101.100.201.130,4,1324,pengjoonblog.com,SG,Asia,South-eastern Asia,Singapore,,,
139.99.63.152,4,768181,pennbookcenter.com,SG,Asia,South-eastern Asia,Singapore,,,Singapore
103.227.176.15,4,52,permaculture.com.au,SG,Asia,South-eastern Asia,Singapore,,,
23.106.127.2,4,25,petmaster.com.sg,SG,Asia,South-eastern Asia,Singapore,,,Singapore
35.197.146.55,4,10,petrokimia-gresik.com,SG,Asia,South-eastern Asia,Singapore,,,Singapore
139.99.34.198,4,3,pfcs.org.ph,SG,Asia,South-eastern Asia,Singapore,,,Singapore
172.104.43.48,4,21,pherobase.com,SG,Asia,South-eastern Asia,Singapore,,,Singapore
202.162.106.131,4,21,phghmym.com,SG,Asia,South-eastern Asia,Singapore,,,
206.189.45.20,4,18,philgo.com,SG,Asia,South-eastern Asia,Singapore,,,Singapore
68.183.226.178,4,13,philgo.com,SG,Asia,South-eastern Asia,Singapore,,,Singapore
68.183.238.232,4,5,philgo.com,SG,Asia,South-eastern Asia,Singapore,,,Singapore
139.99.20.31,4,-4,philkotse.com,SG,Asia,South-eastern Asia,Singapore,,,Singapore
178.128.208.98,4,26,photography-travel.com,SG,Asia,South-eastern Asia,Singapore,,,Singapore
103.21.221.2,4,48,photohousebd.com,SG,Asia,South-eastern Asia,Singapore,,,Singapore
46.17.172.225,4,11,phunuhiendai.net,SG,Asia,South-eastern Asia,Singapore,,,Singapore
51.79.173.246,4,40,picasso-mediterranee.org,SG,Asia,South-eastern Asia,Singapore,,,Singapore
45.130.228.94,4,4,pick-kart.com,SG,Asia,South-eastern Asia,Singapore,,,Singapore
185.214.124.42,4,31,picsndquotes.com,SG,Asia,South-eastern Asia,Singapore,,,Singapore
154.26.135.17,4,23,piesthelimit.com,SG,Asia,South-eastern Asia,Singapore,,,Singapore
193.168.195.171,4,37,piksi.ac.id,SG,Asia,South-eastern Asia,Singapore,,,Singapore
119.31.233.123,4,19,pimalai.com,SG,Asia,South-eastern Asia,Singapore,,,
131.153.50.235,4,52,pinhigh-golf.com,SG,Asia,South-eastern Asia,Singapore,,,Singapore
128.199.158.195,4,1,pinoymountaineer.com,SG,Asia,South-eastern Asia,Singapore,,,Singapore
45.76.155.175,4,13,piotnet.com,SG,Asia,South-eastern Asia,Singapore,,,Singapore
165.232.161.219,4,-19,pipmakassar.ac.id,SG,Asia,South-eastern Asia,Singapore,,,Singapore
172.96.191.155,4,66,pixartalk.com,SG,Asia,South-eastern Asia,Singapore,,,Singapore
206.189.81.198,4,16,pizza-imperia.com,SG,Asia,South-eastern Asia,Singapore,,,Singapore
35.197.145.176,4,14,pizza4ps.com,SG,Asia,South-eastern Asia,Singapore,,,Singapore
95.111.193.48,4,52,planetban.com,SG,Asia,South-eastern Asia,Singapore,,,
128.199.214.248,4,9361999,planetnz.com,SG,Asia,South-eastern Asia,Singapore,,,Singapore
174.138.30.54,4,45,planetrenders.net,SG,Asia,South-eastern Asia,Singapore,,,Singapore
192.53.116.43,4,-27,plays.org,SG,Asia,South-eastern Asia,Singapore,,,Singapore
103.21.221.17,4,52,playslot77jackpot.win,SG,Asia,South-eastern Asia,Singapore,,,Singapore
172.96.191.101,4,35,playtheopenroad.com,SG,Asia,South-eastern Asia,Singapore,,,Singapore
172.96.191.129,4,47,plotaverseapps.com,SG,Asia,South-eastern Asia,Singapore,,,Singapore
27.124.4.132,4,7,plutotrigger.net.cn,SG,Asia,South-eastern Asia,Singapore,,,
103.7.8.116,4,25,polarpuffs-cakes.com,SG,Asia,South-eastern Asia,Singapore,,,
194.195.90.233,4,49,polhas.ac.id,SG,Asia,South-eastern Asia,Singapore,,,Singapore
143.42.72.173,4,52,polinuster.com,SG,Asia,South-eastern Asia,Singapore,,,Singapore
185.214.124.135,4,53,politala.ac.id,SG,Asia,South-eastern Asia,Singapore,,,Singapore
217.21.74.120,4,58,popularpatrika.com,SG,Asia,South-eastern Asia,Singapore,,,Singapore
103.7.8.138,4,40,posb.com.sg,SG,Asia,South-eastern Asia,Singapore,,,
47.74.186.131,4,12,postgres.cn,SG,Asia,South-eastern Asia,Singapore,,,Singapore
35.185.191.60,4,27,postjung.com,SG,Asia,South-eastern Asia,Singapore,,,Singapore
139.99.51.228,4,20,ppanpk.gov.my,SG,Asia,South-eastern Asia,Singapore,,,Singapore
209.58.172.81,4,43,ppm-manajemen.ac.id,SG,Asia,South-eastern Asia,Singapore,,,Singapore
128.199.110.99,4,55,pramborsfm.com,SG,Asia,South-eastern Asia,Singapore,,,Singapore
128.199.131.58,4,52,pranfoods.net,SG,Asia,South-eastern Asia,Singapore,,,Singapore
54.169.177.83,4,1,prassprasetio.com,SG,Asia,South-eastern Asia,Singapore,,,Singapore
159.223.54.170,4,48,pravakupi.com,SG,Asia,South-eastern Asia,Singapore,,,Singapore
46.250.237.211,4,43,precisiondentremovalfl.com,SG,Asia,South-eastern Asia,Singapore,,,Singapore
185.232.14.244,4,61,preschoolcurriculum.in,SG,Asia,South-eastern Asia,Singapore,,,Singapore
206.206.77.7,4,65,president-bush.com,SG,Asia,South-eastern Asia,Singapore,,,Singapore
194.233.68.179,4,30,primeiraedicao.com.br,SG,Asia,South-eastern Asia,Singapore,,,Singapore
195.114.193.63,4,-20,privatecarservice.org,SG,Asia,South-eastern Asia,Singapore,,,Singapore
109.106.254.145,4,47,priyadelhiescorts.in,SG,Asia,South-eastern Asia,Singapore,,,Singapore
217.21.74.112,4,58,priyadogra.com,SG,Asia,South-eastern Asia,Singapore,,,Singapore
46.250.231.40,4,65,priyobondhu91.com,SG,Asia,South-eastern Asia,Singapore,,,Singapore
139.162.42.119,4,19,pro-ace-predictions.co.uk,SG,Asia,South-eastern Asia,Singapore,,,Singapore
103.43.188.237,4,-12395,psltw.com,SG,Asia,South-eastern Asia,Singapore,,,
167.99.68.57,4,9,pstgroup.biz,SG,Asia,South-eastern Asia,Singapore,,,Singapore
66.22.67.25,4,17,pttep.com,SG,Asia,South-eastern Asia,Singapore,,,Singapore
15.235.193.148,4,27,pubbellyboys.com,SG,Asia,South-eastern Asia,Singapore,,,
103.21.221.40,4,72,public-nyc.com,SG,Asia,South-eastern Asia,Singapore,,,Singapore
157.245.49.80,4,38,punipunijapan.com,SG,Asia,South-eastern Asia,Singapore,,,Singapore
34.142.141.55,4,3,pureceylontea.com,SG,Asia,South-eastern Asia,Singapore,,,Singapore
66.42.51.92,4,3,qgo88.com,SG,Asia,South-eastern Asia,Singapore,,,Singapore
52.74.251.10,4,-25,qoo10.com,SG,Asia,South-eastern Asia,Singapore,,,Singapore
52.220.217.108,4,-22,qoo10.com,SG,Asia,South-eastern Asia,Singapore,,,Singapore
3.1.195.237,4,-26,qraved.com,SG,Asia,South-eastern Asia,Singapore,,,Singapore
152.42.171.101,4,9,qualityinspires.com,SG,Asia,South-eastern Asia,Singapore,,,Singapore
156.67.222.120,4,36,quantumsportsbetting.com,SG,Asia,South-eastern Asia,Singapore,,,Singapore
45.90.228.200,4,24,queenart.kr,SG,Asia,South-eastern Asia,Singapore,,,Singapore
128.199.137.48,4,845914,queenslandplaces.com.au,SG,Asia,South-eastern Asia,Singapore,,,Singapore
94.237.69.165,4,2,quibustrainings.com,SG,Asia,South-eastern Asia,Singapore,,,Singapore
167.172.64.185,4,5,raa-iops.org,SG,Asia,South-eastern Asia,Singapore,,,Singapore
15.235.186.131,4,405095,rachelparris.com,SG,Asia,South-eastern Asia,Singapore,,,
31.220.110.139,4,34,radiofreefedi.net,SG,Asia,South-eastern Asia,Singapore,,,Singapore
125.253.92.186,4,76,rainbowit.net,SG,Asia,South-eastern Asia,Singapore,,,Singapore
101.100.200.42,4,5,raise.sg,SG,Asia,South-eastern Asia,Singapore,,,
185.232.14.184,4,37,rajmudraofficial.com,SG,Asia,South-eastern Asia,Singapore,,,Singapore
82.180.152.207,4,50,rajras.in,SG,Asia,South-eastern Asia,Singapore,,,Singapore
172.104.170.207,4,93875,rakulaser.com,SG,Asia,South-eastern Asia,Singapore,,,Singapore
82.197.71.2,4,13,rakyat.news,SG,Asia,South-eastern Asia,Singapore,,,Singapore
50.114.5.139,4,20,ramaibet.win,SG,Asia,South-eastern Asia,Singapore,,,Singapore
85.187.128.42,4,51,rankontechnologies.com,SG,Asia,South-eastern Asia,Singapore,,,Singapore
94.237.3.245,4,833,rannutsav.com,SG,Asia,South-eastern Asia,Singapore,,,
51.79.249.195,4,55,raovat321.net,SG,Asia,South-eastern Asia,Singapore,,,Singapore
85.187.128.47,4,39,raovatquynhon.com,SG,Asia,South-eastern Asia,Singapore,,,Singapore
172.96.191.38,4,64,raovatxunghe.com,SG,Asia,South-eastern Asia,Singapore,,,Singapore
156.67.222.36,4,45,ravendex.io,SG,Asia,South-eastern Asia,Singapore,,,Singapore
103.43.189.90,4,46,raytronele.com,SG,Asia,South-eastern Asia,Singapore,,,
52.74.17.139,4,-293,read.ht,SG,Asia,South-eastern Asia,Singapore,,,Singapore
54.251.94.77,4,1,recoftc.org,SG,Asia,South-eastern Asia,Singapore,,,Singapore
23.106.50.10,4,50,redhouseseafood.com,SG,Asia,South-eastern Asia,Singapore,,,Singapore
18.140.166.208,4,-12,redplanethotels.com,SG,Asia,South-eastern Asia,Singapore,,,Singapore
18.136.54.122,4,-10,redplanethotels.com,SG,Asia,South-eastern Asia,Singapore,,,Singapore
31.220.110.173,4,11,refugechurch.org.au,SG,Asia,South-eastern Asia,Singapore,,,Singapore
151.106.124.114,4,5,refugeeaction.org.au,SG,Asia,South-eastern Asia,Singapore,,,Singapore
15.235.216.60,4,6,reggieashworth.com,SG,Asia,South-eastern Asia,Singapore,,,
13.213.181.52,4,-28,republika.id,SG,Asia,South-eastern Asia,Singapore,,,Singapore
13.251.192.117,4,-21,republika.id,SG,Asia,South-eastern Asia,Singapore,,,Singapore
167.99.28.180,4,34,researchid.co,SG,Asia,South-eastern Asia,Singapore,,,Singapore
124.6.61.132,4,157,researchsea.com,SG,Asia,South-eastern Asia,Singapore,,,Singapore
185.214.124.233,4,40,retailinasia.com,SG,Asia,South-eastern Asia,Singapore,,,Singapore
178.128.222.73,4,25,retrogeekfestival.com,SG,Asia,South-eastern Asia,Singapore,,,Singapore
45.77.47.47,4,9,reviewnunghd.com,SG,Asia,South-eastern Asia,Singapore,,,Singapore
46.17.172.230,4,29,revivalwaves.org,SG,Asia,South-eastern Asia,Singapore,,,Singapore
45.118.133.171,4,29,revoledu.com,SG,Asia,South-eastern Asia,Singapore,,,Singapore
172.104.62.62,4,2136,revu.com.ph,SG,Asia,South-eastern Asia,Singapore,,,Singapore
131.153.48.202,4,54,rewcard.com,SG,Asia,South-eastern Asia,Singapore,,,Singapore
43.175.233.68,4,-4,richbetslot.ph,SG,Asia,South-eastern Asia,Singapore,,,
43.175.232.52,4,-4,richbetslot.ph,SG,Asia,South-eastern Asia,Singapore,,,
192.250.235.30,4,43,rinpoche.com,SG,Asia,South-eastern Asia,Singapore,,,Singapore
139.162.29.82,4,-11,ritaescortsdelhi.com,SG,Asia,South-eastern Asia,Singapore,,,Singapore
103.104.196.90,4,25428,rivercruise.com.sg,SG,Asia,South-eastern Asia,Singapore,,,
54.255.155.95,4,-24,rmagroup.net,SG,Asia,South-eastern Asia,Singapore,,,Singapore
191.96.57.178,4,0,rmcedu.com,SG,Asia,South-eastern Asia,Singapore,,,Singapore
51.79.254.181,4,-4,rock8899.com,SG,Asia,South-eastern Asia,Singapore,,,Singapore
139.59.239.0,4,83,roubler.com,SG,Asia,South-eastern Asia,Singapore,,,Singapore
107.155.65.26,4,5,roving.club,SG,Asia,South-eastern Asia,Singapore,,,Singapore
172.96.191.149,4,33,rsskl.org,SG,Asia,South-eastern Asia,Singapore,,,Singapore
43.134.55.152,4,23,ruijienetworks.com,SG,Asia,South-eastern Asia,Singapore,,,Singapore
13.250.181.62,4,-9,rukita.co,SG,Asia,South-eastern Asia,Singapore,,,Singapore
3.0.238.88,4,-5,rukita.co,SG,Asia,South-eastern Asia,Singapore,,,Singapore
52.74.43.16,4,-29,rukita.co,SG,Asia,South-eastern Asia,Singapore,,,Singapore
194.233.88.80,4,18,rumaysho.com,SG,Asia,South-eastern Asia,Singapore,,,Singapore
206.189.91.220,4,2,russellhobbs.co.id,SG,Asia,South-eastern Asia,Singapore,,,Singapore
209.58.182.160,4,32,russian-women.net,SG,Asia,South-eastern Asia,Singapore,,,
45.76.181.120,4,42,rustdesk.com,SG,Asia,South-eastern Asia,Singapore,,,Singapore
15.235.148.97,4,7,rutansigliaceh.com,SG,Asia,South-eastern Asia,Singapore,,,
139.99.27.153,4,2,ryanscomputers.com,SG,Asia,South-eastern Asia,Singapore,,,Singapore
15.235.141.62,4,3,ryzendev.co.id,SG,Asia,South-eastern Asia,Singapore,,,
43.159.117.184,4,39,sac.net.cn,SG,Asia,South-eastern Asia,Singapore,,,
192.250.235.50,4,125,safeabortionnepal.com,SG,Asia,South-eastern Asia,Singapore,,,Singapore
45.90.228.171,4,12,saigoneer.com,SG,Asia,South-eastern Asia,Singapore,,,Singapore
217.15.163.49,4,-40,sainamigration.com.au,SG,Asia,South-eastern Asia,Singapore,,,Singapore
3.1.41.115,4,-25,salesmartly.com,SG,Asia,South-eastern Asia,Singapore,,,Singapore
52.76.51.34,4,24,salesmartly.com,SG,Asia,South-eastern Asia,Singapore,,,Singapore
198.252.101.45,4,37,santikham.com,SG,Asia,South-eastern Asia,Singapore,,,Singapore
134.122.130.156,4,13,sanyatour.com,SG,Asia,South-eastern Asia,Singapore,,,
118.107.40.125,4,19,sanyatour.com,SG,Asia,South-eastern Asia,Singapore,,,
118.107.40.126,4,1,sanyatour.com,SG,Asia,South-eastern Asia,Singapore,,,
134.122.130.146,4,22,sanyatour.com,SG,Asia,South-eastern Asia,Singapore,,,
18.141.99.63,4,-10,sanyglobal.com,SG,Asia,South-eastern Asia,Singapore,,,Singapore
54.151.219.105,4,-22,sapnaonline.com,SG,Asia,South-eastern Asia,Singapore,,,Singapore
18.140.213.194,4,-24,sapnaonline.com,SG,Asia,South-eastern Asia,Singapore,,,Singapore
3.0.164.131,4,-27,sapnaonline.com,SG,Asia,South-eastern Asia,Singapore,,,Singapore
85.187.128.46,4,33,saratara.com.au,SG,Asia,South-eastern Asia,Singapore,,,Singapore
154.196.200.135,4,1646,sarkis-webdesign.com,SG,Asia,South-eastern Asia,Singapore,,,Singapore
143.198.206.141,4,-433806,sassyradish.com,SG,Asia,South-eastern Asia,Singapore,,,Singapore
51.79.212.226,4,22,sattabazar.net,SG,Asia,South-eastern Asia,Singapore,,,Singapore
45.76.183.16,4,57,sawadee.com,SG,Asia,South-eastern Asia,Singapore,,,Singapore
34.87.86.153,4,4,sbobet-official.com,SG,Asia,South-eastern Asia,Singapore,,,Singapore
35.240.151.116,4,2,sbobet.how,SG,Asia,South-eastern Asia,Singapore,,,Singapore
35.240.142.87,4,5,sbobet.llc,SG,Asia,South-eastern Asia,Singapore,,,Singapore
101.100.238.62,4,-1,sbsgroup.com.sg,SG,Asia,South-eastern Asia,Singapore,,,
109.123.232.127,4,55,scatterapi.com,SG,Asia,South-eastern Asia,Singapore,,,Singapore
119.31.237.72,4,-3,sccci.org.sg,SG,Asia,South-eastern Asia,Singapore,,,
172.104.35.112,4,16,schoolinbox.net,SG,Asia,South-eastern Asia,Singapore,,,Singapore
15.235.210.192,4,1,sciencedomain.org,SG,Asia,South-eastern Asia,Singapore,,,
103.7.9.25,4,25,scwo.org.sg,SG,Asia,South-eastern Asia,Singapore,,,
206.238.170.113,4,9,scysgt.com,SG,Asia,South-eastern Asia,Singapore,,,Singapore
27.124.47.181,4,8,seacms.net,SG,Asia,South-eastern Asia,Singapore,,,
27.124.47.180,4,5,seacms.net,SG,Asia,South-eastern Asia,Singapore,,,
139.162.28.79,4,14,seapa.org,SG,Asia,South-eastern Asia,Singapore,,,Singapore
178.128.92.2,4,0,searchpeacefoundation.org,SG,Asia,South-eastern Asia,Singapore,,,Singapore
101.100.204.194,4,7,self-storage.sg,SG,Asia,South-eastern Asia,Singapore,,,
172.104.52.148,4,26,selfstudys.com,SG,Asia,South-eastern Asia,Singapore,,,Singapore
101.100.213.19,4,-1532,sembmarine.com,SG,Asia,South-eastern Asia,Singapore,,,
151.106.124.69,4,4,senangsamasama.com,SG,Asia,South-eastern Asia,Singapore,,,Singapore
139.162.17.107,4,-18,senatus.net,SG,Asia,South-eastern Asia,Singapore,,,Singapore
124.6.61.32,4,-265,seogeek.sg,SG,Asia,South-eastern Asia,Singapore,,,Singapore
151.106.124.49,4,10,seoindiaonline.com,SG,Asia,South-eastern Asia,Singapore,,,Singapore
62.72.44.140,4,28,seopage.one,SG,Asia,South-eastern Asia,Singapore,,,Singapore
194.233.87.53,4,32,serial-online.net,SG,Asia,South-eastern Asia,Singapore,,,Singapore
172.96.191.179,4,52,servicioseli.com,SG,Asia,South-eastern Asia,Singapore,,,Singapore
23.106.127.12,4,-2,ses.com.sg,SG,Asia,South-eastern Asia,Singapore,,,Singapore
139.99.27.216,4,4,set.gov.ph,SG,Asia,South-eastern Asia,Singapore,,,Singapore
181.215.79.99,4,42,sevva.hk,SG,Asia,South-eastern Asia,Singapore,,,Singapore
193.168.193.29,4,19,sgiff.com,SG,Asia,South-eastern Asia,Singapore,,,Singapore
103.7.9.45,4,29,sgonlinewolf.com,SG,Asia,South-eastern Asia,Singapore,,,
119.31.232.170,4,-12852,sgquest.com.sg,SG,Asia,South-eastern Asia,Singapore,,,
154.82.100.220,4,34,sh-xxm.cn,SG,Asia,South-eastern Asia,Singapore,,,
154.82.100.122,4,38,sh-xxm.cn,SG,Asia,South-eastern Asia,Singapore,,,
194.163.39.106,4,31,shaktifoundation.in,SG,Asia,South-eastern Asia,Singapore,,,Singapore
45.130.228.227,4,5,shantiwellnesscare.com,SG,Asia,South-eastern Asia,Singapore,,,Singapore
85.187.128.49,4,7,shayari.net,SG,Asia,South-eastern Asia,Singapore,,,Singapore
172.96.191.49,4,36,shelleye.org,SG,Asia,South-eastern Asia,Singapore,,,Singapore
47.74.190.246,4,8,shigeku.org,SG,Asia,South-eastern Asia,Singapore,,,Singapore
151.106.124.15,4,7,shippingnewzealand.com.au,SG,Asia,South-eastern Asia,Singapore,,,Singapore
143.92.39.165,4,8,shjinbuti.com,SG,Asia,South-eastern Asia,Singapore,,,
139.99.34.47,4,4,shoptkocbd.com,SG,Asia,South-eastern Asia,Singapore,,,Singapore
103.7.11.229,4,3,shout.sg,SG,Asia,South-eastern Asia,Singapore,,,
172.96.191.113,4,35,shuangyiwangba.top,SG,Asia,South-eastern Asia,Singapore,,,Singapore
138.2.109.255,4,2,siap-online.com,SG,Asia,South-eastern Asia,Singapore,,,Kampong Loyang
158.178.246.80,4,0,siap-ppdb.com,SG,Asia,South-eastern Asia,Singapore,,,Kampong Loyang
18.140.232.142,4,-28,siapabilang.com,SG,Asia,South-eastern Asia,Singapore,,,Singapore
103.134.152.15,4,8,sidakpost.id,SG,Asia,South-eastern Asia,Singapore,,,
185.232.14.71,4,59,siddeshwaratravels.in,SG,Asia,South-eastern Asia,Singapore,,,Singapore
209.58.171.111,4,65,sierrariceproducts.com,SG,Asia,South-eastern Asia,Singapore,,,Singapore
209.97.163.12,4,4,sifa.sg,SG,Asia,South-eastern Asia,Singapore,,,Singapore
23.108.103.230,4,39,siiaonline.org,SG,Asia,South-eastern Asia,Singapore,,,Singapore
125.253.93.190,4,55,sildalistab.com,SG,Asia,South-eastern Asia,Singapore,,,Singapore
172.96.191.181,4,44,silvermedicine.org,SG,Asia,South-eastern Asia,Singapore,,,Singapore
101.100.241.39,4,9491,simbunch.com,SG,Asia,South-eastern Asia,Singapore,,,
192.250.235.71,4,59,simcomart.com,SG,Asia,South-eastern Asia,Singapore,,,Singapore
104.88.70.208,4,3,simge.edu.sg,SG,Asia,South-eastern Asia,Singapore,,,Singapore
104.88.70.251,4,-5,simge.edu.sg,SG,Asia,South-eastern Asia,Singapore,,,Singapore
23.50.232.248,4,5,simge.edu.sg,SG,Asia,South-eastern Asia,Singapore,,,Singapore
13.250.249.52,4,-7,simpkb.id,SG,Asia,South-eastern Asia,Singapore,,,Singapore
178.128.210.150,4,24,sineafoods.com,SG,Asia,South-eastern Asia,Singapore,,,Singapore
51.79.208.76,4,786,singaporeeverythingblog.com,SG,Asia,South-eastern Asia,Singapore,,,Singapore
103.14.236.21,4,4322,singaporeexpats.com,SG,Asia,South-eastern Asia,Singapore,,,
203.175.162.48,4,4,singaporeflyer.com,SG,Asia,South-eastern Asia,Singapore,,,Singapore
113.11.254.11,4,540,singaporeolympics.com,SG,Asia,South-eastern Asia,Singapore,,,
178.128.23.128,4,2,singaporewritersfestival.com,SG,Asia,South-eastern Asia,Singapore,,,Singapore
128.199.185.154,4,6,singconsortium.org,SG,Asia,South-eastern Asia,Singapore,,,Singapore
139.99.22.176,4,10,singpromos.com,SG,Asia,South-eastern Asia,Singapore,,,Singapore
188.166.188.129,4,9,sinhvientaichinh.com,SG,Asia,South-eastern Asia,Singapore,,,Singapore
68.183.177.91,4,5,siu-sd.com,SG,Asia,South-eastern Asia,Singapore,,,Singapore
151.106.123.100,4,3,siu.edu.vn,SG,Asia,South-eastern Asia,Singapore,,,Singapore
118.107.42.254,4,5,sjzcity.com,SG,Asia,South-eastern Asia,Singapore,,,
43.175.233.73,4,-2,skillacademy.com,SG,Asia,South-eastern Asia,Singapore,,,
43.175.232.65,4,25,skillacademy.com,SG,Asia,South-eastern Asia,Singapore,,,
128.199.71.254,4,50,skydoor.net,SG,Asia,South-eastern Asia,Singapore,,,Singapore
103.11.191.51,4,-35878,skygreens.com,SG,Asia,South-eastern Asia,Singapore,,,
47.84.176.250,4,7,skykiwi.com,SG,Asia,South-eastern Asia,Singapore,,,
85.187.135.227,4,28,skylinebuildings.co.nz,SG,Asia,South-eastern Asia,Singapore,,,Singapore
172.96.190.72,4,66,skytasker.com,SG,Asia,South-eastern Asia,Singapore,,,Singapore
23.106.50.17,4,37,smartparents.sg,SG,Asia,South-eastern Asia,Singapore,,,Singapore
139.162.11.178,4,-27,smartspace.ws,SG,Asia,South-eastern Asia,Singapore,,,Singapore
217.15.163.187,4,1,smashingbuzz.com,SG,Asia,South-eastern Asia,Singapore,,,Singapore
101.100.241.93,4,9494,smeloan.sg,SG,Asia,South-eastern Asia,Singapore,,,
207.148.79.173,4,4,smu.edu.ph,SG,Asia,South-eastern Asia,Singapore,,,Singapore
209.58.169.75,4,74,socool.sg,SG,Asia,South-eastern Asia,Singapore,,,Singapore
139.99.56.19,4,15,solusikebersihan.id,SG,Asia,South-eastern Asia,Singapore,,,Singapore
128.199.70.84,4,6233408,sondoongcave.org,SG,Asia,South-eastern Asia,Singapore,,,Singapore
52.77.119.210,4,-15,sonora.id,SG,Asia,South-eastern Asia,Singapore,,,Singapore
13.250.79.16,4,21,sonora.id,SG,Asia,South-eastern Asia,Singapore,,,Singapore
104.248.154.222,4,3,sosfauna.org,SG,Asia,South-eastern Asia,Singapore,,,Singapore
119.28.114.79,4,8,sosot.net,SG,Asia,South-eastern Asia,Singapore,,,Singapore
51.79.176.11,4,8,sourdoreille.net,SG,Asia,South-eastern Asia,Singapore,,,Singapore
8.219.43.211,4,9,souwoo.com,SG,Asia,South-eastern Asia,Singapore,,,
192.250.235.23,4,167,spadixbd.com,SG,Asia,South-eastern Asia,Singapore,,,Singapore
109.123.235.66,4,17,spanishparentclass.com,SG,Asia,South-eastern Asia,Singapore,,,Singapore
45.77.168.167,4,9,spectacleapp.com,SG,Asia,South-eastern Asia,Singapore,,,Singapore
167.172.72.223,4,82,speranzaonlus.org,SG,Asia,South-eastern Asia,Singapore,,,Singapore
128.199.148.87,4,6,spiking.com,SG,Asia,South-eastern Asia,Singapore,,,Singapore
103.3.60.160,4,-27,spiritlands.com.tw,SG,Asia,South-eastern Asia,Singapore,,,Singapore
13.213.192.181,4,-6,sportskeeda.com,SG,Asia,South-eastern Asia,Singapore,,,Singapore
52.74.125.255,4,-12,sportskeeda.com,SG,Asia,South-eastern Asia,Singapore,,,Singapore
139.59.249.12,4,38,sprinkle-th.com,SG,Asia,South-eastern Asia,Singapore,,,Singapore
23.106.50.18,4,36,srmc.edu.sg,SG,Asia,South-eastern Asia,Singapore,,,Singapore
202.150.210.82,4,19,srt.com.sg,SG,Asia,South-eastern Asia,Singapore,,,
217.15.165.156,4,21,ssot.co.kr,SG,Asia,South-eastern Asia,Singapore,,,Singapore
103.7.8.71,4,28,stackedhomes.com,SG,Asia,South-eastern Asia,Singapore,,,
3.0.190.136,4,-25,stafi.io,SG,Asia,South-eastern Asia,Singapore,,,Singapore
178.128.109.91,4,12,star4hire.com,SG,Asia,South-eastern Asia,Singapore,,,Singapore
139.99.62.191,4,39,starbiz.com,SG,Asia,South-eastern Asia,Singapore,,,Singapore
43.245.97.240,4,3,starliving.com.sg,SG,Asia,South-eastern Asia,Singapore,,,
111.235.138.133,4,29,starpoint.com.sg,SG,Asia,South-eastern Asia,Singapore,,,
159.223.52.109,4,47,station4744.com,SG,Asia,South-eastern Asia,Singapore,,,Singapore
139.180.134.23,4,37,stemcord.com,SG,Asia,South-eastern Asia,Singapore,,,Singapore
18.139.189.211,4,18,stepchina.com,SG,Asia,South-eastern Asia,Singapore,,,Singapore
139.59.99.83,4,0,stepup.com.bd,SG,Asia,South-eastern Asia,Singapore,,,Singapore
178.128.99.59,4,46,stikba.ac.id,SG,Asia,South-eastern Asia,Singapore,,,Singapore
23.111.13.49,4,91,stikesabi.ac.id,SG,Asia,South-eastern Asia,Singapore,,,Singapore
156.67.220.160,4,5,stikeskendal.ac.id,SG,Asia,South-eastern Asia,Singapore,,,Singapore
45.80.181.76,4,33,stikim.ac.id,SG,Asia,South-eastern Asia,Singapore,,,Singapore
192.53.172.9,4,-22,stkipan-nur.ac.id,SG,Asia,South-eastern Asia,Singapore,,,Singapore
68.183.234.30,4,13,stmaryskolkata.com,SG,Asia,South-eastern Asia,Singapore,,,Singapore
51.79.222.75,4,73,storyboardhero.ai,SG,Asia,South-eastern Asia,Singapore,,,Singapore
43.245.98.40,4,38,straatosphere.com,SG,Asia,South-eastern Asia,Singapore,,,
54.169.90.138,4,47,streetdirectory.com,SG,Asia,South-eastern Asia,Singapore,,,Singapore
167.172.83.124,4,6,studentsassignmenthelp.com,SG,Asia,South-eastern Asia,Singapore,,,Singapore
85.187.128.112,4,9,study-ny.com,SG,Asia,South-eastern Asia,Singapore,,,Singapore
46.250.239.118,4,61,sudoscript.com,SG,Asia,South-eastern Asia,Singapore,,,Singapore
167.71.222.61,4,5,suneducationgroup.com,SG,Asia,South-eastern Asia,Singapore,,,Singapore
143.42.77.94,4,10,sunwin.city,SG,Asia,South-eastern Asia,Singapore,,,Singapore
36.255.223.40,4,6,suofeiyinghua.com,SG,Asia,South-eastern Asia,Singapore,,,
194.233.92.172,4,9,supermom.co.id,SG,Asia,South-eastern Asia,Singapore,,,Singapore
139.162.19.154,4,-25,supermoto8.com,SG,Asia,South-eastern Asia,Singapore,,,Singapore
23.106.49.70,4,21,sureclean.com.sg,SG,Asia,South-eastern Asia,Singapore,,,Singapore
52.220.71.146,4,-20,suzuki.com.vn,SG,Asia,South-eastern Asia,Singapore,,,Singapore
52.77.71.243,4,-29,suzuki.com.vn,SG,Asia,South-eastern Asia,Singapore,,,Singapore
172.104.187.4,4,-13,swarovskicrystal.name,SG,Asia,South-eastern Asia,Singapore,,,Singapore
45.77.43.41,4,14,sweetsandgreens.com.au,SG,Asia,South-eastern Asia,Singapore,,,Singapore
172.105.121.245,4,-24,swiftpaycard.com,SG,Asia,South-eastern Asia,Singapore,,,Singapore
8.219.52.61,4,19,sxfujielevator.com,SG,Asia,South-eastern Asia,Singapore,,,
206.238.216.169,4,11,sxhxgjg.com,SG,Asia,South-eastern Asia,Singapore,,,Singapore
118.107.30.47,4,8,sxsqjs.com,SG,Asia,South-eastern Asia,Singapore,,,
178.128.22.206,4,2,syair.bio,SG,Asia,South-eastern Asia,Singapore,,,Singapore
191.101.230.40,4,-2,sydney.com.au,SG,Asia,South-eastern Asia,Singapore,,,Singapore
51.79.229.60,4,6,sydneypoolstoday.com,SG,Asia,South-eastern Asia,Singapore,,,Singapore
15.235.165.47,4,4088,sydneypoolstoday.com,SG,Asia,South-eastern Asia,Singapore,,,
15.235.144.158,4,4,sydneypoolstoday.com,SG,Asia,South-eastern Asia,Singapore,,,
165.22.247.42,4,41,symmetrygoods.com,SG,Asia,South-eastern Asia,Singapore,,,Singapore
84.247.151.107,4,63,syncstoa.com,SG,Asia,South-eastern Asia,Singapore,,,Singapore
103.6.169.220,4,2,syynlabs.com,SG,Asia,South-eastern Asia,Singapore,,,Singapore
18.138.100.62,4,-25,tabloidnova.com,SG,Asia,South-eastern Asia,Singapore,,,Singapore
54.151.164.7,4,-22,tabloidnova.com,SG,Asia,South-eastern Asia,Singapore,,,Singapore
139.59.119.172,4,10,tactustechnology.com,SG,Asia,South-eastern Asia,Singapore,,,Singapore
192.53.113.86,4,-29,tadalafilrembo.com,SG,Asia,South-eastern Asia,Singapore,,,Singapore
151.106.122.201,4,9,taguig.gov.ph,SG,Asia,South-eastern Asia,Singapore,,,Singapore
172.104.179.146,4,85,taigamego88.best,SG,Asia,South-eastern Asia,Singapore,,,Singapore
192.53.175.76,4,-23,taigo88.review,SG,Asia,South-eastern Asia,Singapore,,,Singapore
156.67.219.178,4,11,taiwanenglishnews.com,SG,Asia,South-eastern Asia,Singapore,,,Singapore
82.180.152.101,4,13,tamkhapeu.vn,SG,Asia,South-eastern Asia,Singapore,,,Singapore
62.72.47.118,4,14,tamthuworkshop.com,SG,Asia,South-eastern Asia,Singapore,,,Singapore
192.250.235.33,4,30,tanasiri.com,SG,Asia,South-eastern Asia,Singapore,,,Singapore
128.199.112.70,4,0,taobackup.com,SG,Asia,South-eastern Asia,Singapore,,,Singapore
206.238.142.192,4,-17781710,taosediaoyong.com,SG,Asia,South-eastern Asia,Singapore,,,Singapore
103.210.22.70,4,8,taoshudang.com,SG,Asia,South-eastern Asia,Singapore,,,
172.104.57.50,4,4,tarpeda.org,SG,Asia,South-eastern Asia,Singapore,,,Singapore
51.79.231.3,4,4,tarunno.com,SG,Asia,South-eastern Asia,Singapore,,,Singapore
85.187.128.34,4,82,tasteedinernc.com,SG,Asia,South-eastern Asia,Singapore,,,Singapore
172.96.191.69,4,38,tatsacto.com,SG,Asia,South-eastern Asia,Singapore,,,Singapore
2.18.50.246,4,-16,tax.gov.ua,SG,Asia,South-eastern Asia,Singapore,,,
2.18.51.246,4,-12,tax.gov.ua,SG,Asia,South-eastern Asia,Singapore,,,
192.250.235.74,4,37,taxi-dongnai.com,SG,Asia,South-eastern Asia,Singapore,,,Singapore
141.193.22.12,4,31,tcnationaltrust.org,SG,Asia,South-eastern Asia,Singapore,,,Singapore
51.79.161.52,4,4,tdtc18g.com,SG,Asia,South-eastern Asia,Singapore,,,Singapore
223.25.237.189,4,2,tech-wonders.com,SG,Asia,South-eastern Asia,Singapore,,,
94.237.67.14,4,-1631,techchee.com,SG,Asia,South-eastern Asia,Singapore,,,Singapore
103.21.221.99,4,35,techfillingmachine.com,SG,Asia,South-eastern Asia,Singapore,,,Singapore
103.3.164.218,4,10,techgoondu.com,SG,Asia,South-eastern Asia,Singapore,,,Singapore
119.31.233.129,4,8136,techielobang.com,SG,Asia,South-eastern Asia,Singapore,,,
139.59.106.1,4,16,techigem.com,SG,Asia,South-eastern Asia,Singapore,,,Singapore
172.104.174.50,4,53,techycomp.com,SG,Asia,South-eastern Asia,Singapore,,,Singapore
45.130.228.49,4,16,techzle.com,SG,Asia,South-eastern Asia,Singapore,,,Singapore
101.100.208.106,4,-44968,teethattiongbahru.com,SG,Asia,South-eastern Asia,Singapore,,,
206.189.85.29,4,8,teknologi.id,SG,Asia,South-eastern Asia,Singapore,,,Singapore
103.134.152.1,4,-2253,telkompcc.co.id,SG,Asia,South-eastern Asia,Singapore,,,
139.99.33.33,4,136885,terminal21.co.th,SG,Asia,South-eastern Asia,Singapore,,,Singapore
172.104.185.189,4,15,terminator3.com,SG,Asia,South-eastern Asia,Singapore,,,Singapore
152.42.171.98,4,46,terraza48.com,SG,Asia,South-eastern Asia,Singapore,,,Singapore
2.18.51.207,4,10,tesla.com,SG,Asia,South-eastern Asia,Singapore,,,
51.79.134.120,4,4,tga689.com,SG,Asia,South-eastern Asia,Singapore,,,Singapore
192.53.116.163,4,969,th5g9sq6.top,SG,Asia,South-eastern Asia,Singapore,,,Singapore
139.162.21.77,4,970,th5g9sq6.top,SG,Asia,South-eastern Asia,Singapore,,,Singapore
45.118.133.122,4,264,th5g9sq6.top,SG,Asia,South-eastern Asia,Singapore,,,Singapore
172.104.60.73,4,256,th5g9sq6.top,SG,Asia,South-eastern Asia,Singapore,,,Singapore
51.79.168.59,4,4,thaichamber.org,SG,Asia,South-eastern Asia,Singapore,,,Singapore
119.81.18.13,4,2729,thaiopensource.com,SG,Asia,South-eastern Asia,Singapore,,,Singapore
128.199.165.63,4,7,thairesidents.com,SG,Asia,South-eastern Asia,Singapore,,,Singapore
172.104.172.91,4,18399,thanhtrungmobile.vn,SG,Asia,South-eastern Asia,Singapore,,,Singapore
192.250.235.63,4,41,thebeachwaterpark.com,SG,Asia,South-eastern Asia,Singapore,,,Singapore
45.77.242.211,4,-23,thebhutanese.bt,SG,Asia,South-eastern Asia,Singapore,,,Singapore
217.15.163.48,4,17,theblogstimes.co.uk,SG,Asia,South-eastern Asia,Singapore,,,Singapore
45.90.228.205,4,6,thecollapsingtower.com,SG,Asia,South-eastern Asia,Singapore,,,Singapore
103.191.51.242,4,5,thedietandweightloos.com,SG,Asia,South-eastern Asia,Singapore,,,Serangoon New Town
209.58.167.24,4,64,thedivinemissmommy.com,SG,Asia,South-eastern Asia,Singapore,,,Singapore
165.22.245.232,4,14,thedowntowner.net,SG,Asia,South-eastern Asia,Singapore,,,Singapore
172.96.191.198,4,58,theessayservice.org,SG,Asia,South-eastern Asia,Singapore,,,Singapore
139.180.208.239,4,20,thefunempire.com,SG,Asia,South-eastern Asia,Singapore,,,Singapore
119.31.235.30,4,-2389,thegasolineaddict.com,SG,Asia,South-eastern Asia,Singapore,,,
85.187.128.62,4,11,thegioixeoto.info,SG,Asia,South-eastern Asia,Singapore,,,Singapore
154.26.135.173,4,35,thegodmovie.com,SG,Asia,South-eastern Asia,Singapore,,,Singapore
146.190.103.172,4,3,thelivecash.com,SG,Asia,South-eastern Asia,Singapore,,,Singapore
185.232.14.57,4,4,themalaysianedge.com,SG,Asia,South-eastern Asia,Singapore,,,Singapore
178.128.50.119,4,2,themarketingdeviant.com,SG,Asia,South-eastern Asia,Singapore,,,Singapore
139.99.84.44,4,24,thematter.co,SG,Asia,South-eastern Asia,Singapore,,,Singapore
185.187.241.31,4,0,themegenix.net,SG,Asia,South-eastern Asia,Singapore,,,Singapore
15.235.215.150,4,875,themothersunion.org,SG,Asia,South-eastern Asia,Singapore,,,
43.245.98.22,4,-5,thenewageparents.com,SG,Asia,South-eastern Asia,Singapore,,,
193.168.192.156,4,84,theownerbuildernetwork.co,SG,Asia,South-eastern Asia,Singapore,,,Singapore
178.128.126.58,4,12,theprustenproject.org,SG,Asia,South-eastern Asia,Singapore,,,Singapore
124.6.61.2,4,236,therandomsingaporean.com,SG,Asia,South-eastern Asia,Singapore,,,Singapore
111.221.46.48,4,488,theredish.com,SG,Asia,South-eastern Asia,Singapore,,,
103.11.189.168,4,-10,theresidence.com,SG,Asia,South-eastern Asia,Singapore,,,
209.97.167.62,4,9,therightsofnature.org,SG,Asia,South-eastern Asia,Singapore,,,Singapore
52.220.224.40,4,-22,thesebel.com,SG,Asia,South-eastern Asia,Singapore,,,Singapore
185.229.113.136,4,3,thesiamsociety.org,SG,Asia,South-eastern Asia,Singapore,,,Singapore
43.245.111.17,4,6,thesingaporetouristpass.com.sg,SG,Asia,South-eastern Asia,Singapore,,,
43.245.98.28,4,1,theterrahill.com.sg,SG,Asia,South-eastern Asia,Singapore,,,
5.223.42.218,4,12,thetowercomputer.com,SG,Asia,South-eastern Asia,Singapore,,,Singapore
185.232.14.68,4,14,thetutorshelp.com,SG,Asia,South-eastern Asia,Singapore,,,Singapore
15.235.164.55,4,1,theusameds.com,SG,Asia,South-eastern Asia,Singapore,,,
103.227.176.9,4,10,thewallstreetschool.com,SG,Asia,South-eastern Asia,Singapore,,,
139.99.38.69,4,14,thienduongtrochoivn.com,SG,Asia,South-eastern Asia,Singapore,,,Singapore
47.237.8.226,4,13,thinkchildsafe.org,SG,Asia,South-eastern Asia,Singapore,,,
52.77.60.50,4,-23,thp.com.vn,SG,Asia,South-eastern Asia,Singapore,,,Singapore
3.1.212.193,4,-4,thp.com.vn,SG,Asia,South-eastern Asia,Singapore,,,Singapore
139.99.100.89,4,14,thptnguyenvantroi.edu.vn,SG,Asia,South-eastern Asia,Singapore,,,Singapore
46.250.231.200,4,-7,threatenedtaxa.org,SG,Asia,South-eastern Asia,Singapore,,,Singapore
119.31.235.40,4,-7586,threearrowscap.com,SG,Asia,South-eastern Asia,Singapore,,,
85.187.128.55,4,52,thrillingtravel.in,SG,Asia,South-eastern Asia,Singapore,,,Singapore
188.166.222.114,4,3,thuthuattienich.com,SG,Asia,South-eastern Asia,Singapore,,,Singapore
85.187.128.25,4,9,tiairport.com.np,SG,Asia,South-eastern Asia,Singapore,,,Singapore
85.187.128.59,4,59,ticrf.org.tw,SG,Asia,South-eastern Asia,Singapore,,,Singapore
153.92.4.114,4,11,tiendientu.org,SG,Asia,South-eastern Asia,Singapore,,,Singapore
172.96.191.39,4,32,tierneyomalley.com,SG,Asia,South-eastern Asia,Singapore,,,Singapore
172.96.191.200,4,94,timah88.online,SG,Asia,South-eastern Asia,Singapore,,,Singapore
35.187.230.232,4,42,timdaily.vn,SG,Asia,South-eastern Asia,Singapore,,,Singapore
18.140.161.239,4,-25,timesnownews.com,SG,Asia,South-eastern Asia,Singapore,,,Singapore
18.136.159.199,4,-14,timesnownews.com,SG,Asia,South-eastern Asia,Singapore,,,Singapore
156.67.222.23,4,6,timesofeconomics.com,SG,Asia,South-eastern Asia,Singapore,,,Singapore
103.15.234.125,4,2,timhowan.com,SG,Asia,South-eastern Asia,Singapore,,,
103.159.65.219,4,1,tintucso24h.com,SG,Asia,South-eastern Asia,Singapore,,,Singapore
172.96.191.214,4,68,tinxosohomnay.com,SG,Asia,South-eastern Asia,Singapore,,,Singapore
52.76.32.90,4,-24,tiongbahrubakery.com,SG,Asia,South-eastern Asia,Singapore,,,Singapore
131.153.50.90,4,48,tipitaka.net,SG,Asia,South-eastern Asia,Singapore,,,Singapore
85.187.128.58,4,7,tis.edu.in,SG,Asia,South-eastern Asia,Singapore,,,Singapore
45.130.228.93,4,2,titlestand.com,SG,Asia,South-eastern Asia,Singapore,,,Singapore
47.74.182.193,4,9,tmotor.com,SG,Asia,South-eastern Asia,Singapore,,,Singapore
178.128.23.46,4,17,togoparts.com,SG,Asia,South-eastern Asia,Singapore,,,Singapore
167.71.221.17,4,7,tokinalens.com,SG,Asia,South-eastern Asia,Singapore,,,Singapore
101.100.211.111,4,-2915,tokipona.org,SG,Asia,South-eastern Asia,Singapore,,,
94.237.77.3,4,3,tonjoostudio.com,SG,Asia,South-eastern Asia,Singapore,,,
119.13.106.232,4,12,toolwiz.com,SG,Asia,South-eastern Asia,Singapore,,,Singapore
194.163.38.53,4,6,topbettingsitesg.com,SG,Asia,South-eastern Asia,Singapore,,,Singapore
194.163.37.147,4,4,topbranding.vn,SG,Asia,South-eastern Asia,Singapore,,,Singapore
43.134.107.67,4,31,topheatandcooling.com,SG,Asia,South-eastern Asia,Singapore,,,Singapore
159.65.134.170,4,81,topkarir.com,SG,Asia,South-eastern Asia,Singapore,,,Singapore
82.180.152.42,4,11,topnolvadex.com,SG,Asia,South-eastern Asia,Singapore,,,Singapore
192.250.235.93,4,51,topofegypt.com,SG,Asia,South-eastern Asia,Singapore,,,Singapore
51.79.166.66,4,24,topthuthuat.com,SG,Asia,South-eastern Asia,Singapore,,,Singapore
172.104.185.109,4,-11,totalassignmenthelp.com,SG,Asia,South-eastern Asia,Singapore,,,Singapore
51.79.230.172,4,8,totomacautoto.com,SG,Asia,South-eastern Asia,Singapore,,,Singapore
45.130.228.179,4,3,totostrong.com,SG,Asia,South-eastern Asia,Singapore,,,Singapore
13.250.185.69,4,2,tourismthailand.org,SG,Asia,South-eastern Asia,Singapore,,,Singapore
167.99.65.241,4,19,tourjaipur.com,SG,Asia,South-eastern Asia,Singapore,,,Singapore
54.255.174.163,4,-4,tourtravelworld.com,SG,Asia,South-eastern Asia,Singapore,,,Singapore
45.130.228.149,4,8,tov.net.au,SG,Asia,South-eastern Asia,Singapore,,,Singapore
217.21.74.88,4,22,tranhsonmaicuuhuyen.com,SG,Asia,South-eastern Asia,Singapore,,,Singapore
129.226.196.248,4,15,transfilmtech.com,SG,Asia,South-eastern Asia,Singapore,,,Singapore
116.12.51.202,4,26,travelodgehotels.asia,SG,Asia,South-eastern Asia,Singapore,,,
139.99.90.63,4,15,travelwithme.social,SG,Asia,South-eastern Asia,Singapore,,,Singapore
217.21.73.248,4,14,trendartisans.com,SG,Asia,South-eastern Asia,Singapore,,,Singapore
194.233.75.104,4,87,trendpimp.com,SG,Asia,South-eastern Asia,Singapore,,,Singapore
172.104.165.217,4,-19,triangletech.com.bd,SG,Asia,South-eastern Asia,Singapore,,,Singapore
103.9.100.211,4,9197,tribalstudioz.com,SG,Asia,South-eastern Asia,Singapore,,,
52.74.216.71,4,-25,tribelio.page,SG,Asia,South-eastern Asia,Singapore,,,Singapore
18.139.18.185,4,-2,tribelio.page,SG,Asia,South-eastern Asia,Singapore,,,Singapore
191.101.230.146,4,64,trickypackages.com,SG,Asia,South-eastern Asia,Singapore,,,Singapore
192.250.235.43,4,38,trickyways.com,SG,Asia,South-eastern Asia,Singapore,,,Singapore
172.96.191.58,4,830,triple5bet.com,SG,Asia,South-eastern Asia,Singapore,,,Singapore
192.250.235.28,4,32,truehumaniversityfoundation.com,SG,Asia,South-eastern Asia,Singapore,,,Singapore
172.96.191.190,4,34,trusted-invest.com,SG,Asia,South-eastern Asia,Singapore,,,Singapore
146.190.89.31,4,5,trustnlinepharmacy.us,SG,Asia,South-eastern Asia,Singapore,,,Singapore
46.250.225.208,4,6,truyenxuatichcu.com,SG,Asia,South-eastern Asia,Singapore,,,Singapore
216.185.116.106,4,-19,tsemrinpoche.com,SG,Asia,South-eastern Asia,Singapore,,,Singapore
36.255.222.77,4,1509500,tshu.cn,SG,Asia,South-eastern Asia,Singapore,,,
128.199.151.12,4,5,ttgmice.com,SG,Asia,South-eastern Asia,Singapore,,,Singapore
157.245.199.227,4,8,tubidymp3.nu,SG,Asia,South-eastern Asia,Singapore,,,Singapore
85.187.128.61,4,7,tuhow.tw,SG,Asia,South-eastern Asia,Singapore,,,Singapore
139.162.9.233,4,-5,tuition.com.hk,SG,Asia,South-eastern Asia,Singapore,,,Singapore
172.104.183.15,4,-16,turismobracciano.com,SG,Asia,South-eastern Asia,Singapore,,,Singapore
119.31.238.20,4,-20025,tutorcity.sg,SG,Asia,South-eastern Asia,Singapore,,,
118.107.15.138,4,4,tvzota121.com,SG,Asia,South-eastern Asia,Singapore,,,
159.65.137.82,4,5,twfhk.org,SG,Asia,South-eastern Asia,Singapore,,,Singapore
209.97.172.193,4,2,twiiit.com,SG,Asia,South-eastern Asia,Singapore,,,Singapore
172.104.160.151,4,-25,tycent520.com,SG,Asia,South-eastern Asia,Singapore,,,Singapore
139.177.187.188,4,-24,tygiahomnay.com,SG,Asia,South-eastern Asia,Singapore,,,Singapore
103.7.8.146,4,542,tzuchi.org.sg,SG,Asia,South-eastern Asia,Singapore,,,
192.250.235.40,4,45,uc.edu.kh,SG,Asia,South-eastern Asia,Singapore,,,Singapore
185.214.124.189,4,7,udm88.net,SG,Asia,South-eastern Asia,Singapore,,,Singapore
64.235.61.152,4,42,ufabnb.co,SG,Asia,South-eastern Asia,Singapore,,,Singapore
64.235.45.220,4,9,ufabnb.name,SG,Asia,South-eastern Asia,Singapore,,,Queenstown Estate
172.96.191.87,4,56,ugmk.info,SG,Asia,South-eastern Asia,Singapore,,,Singapore
217.21.74.214,4,-22,uhn.ac.id,SG,Asia,South-eastern Asia,Singapore,,,Singapore
131.153.50.170,4,51,uhnsugriwa.ac.id,SG,Asia,South-eastern Asia,Singapore,,,Singapore
143.198.93.83,4,5,uijar.com,SG,Asia,South-eastern Asia,Singapore,,,Singapore
185.232.14.91,4,9,ukkca.com,SG,Asia,South-eastern Asia,Singapore,,,Singapore
161.117.1.185,4,4,ukuni.net,SG,Asia,South-eastern Asia,Singapore,,,
154.26.130.117,4,-8,unbari.ac.id,SG,Asia,South-eastern Asia,Singapore,,,Singapore
172.93.218.73,4,34,unbin.ac.id,SG,Asia,South-eastern Asia,Singapore,,,Singapore
217.15.166.46,4,-9,unchainedmovie.com,SG,Asia,South-eastern Asia,Singapore,,,Singapore
157.245.49.242,4,0,understandingconflict.org,SG,Asia,South-eastern Asia,Singapore,,,Singapore
194.233.81.226,4,45,uniga.ac.id,SG,Asia,South-eastern Asia,Singapore,,,Singapore
31.220.110.181,4,12,uniquefindtips.com,SG,Asia,South-eastern Asia,Singapore,,,Singapore
194.31.53.122,4,7,unisri.ac.id,SG,Asia,South-eastern Asia,Singapore,,,Singapore
139.180.130.19,4,12,unitas-pdg.ac.id,SG,Asia,South-eastern Asia,Singapore,,,Singapore
172.105.121.115,4,-25,unitedtractors.com,SG,Asia,South-eastern Asia,Singapore,,,Singapore
207.148.126.88,4,4,univawalbros.ac.id,SG,Asia,South-eastern Asia,Singapore,,,Singapore
52.77.56.133,4,-14,unpas.ac.id,SG,Asia,South-eastern Asia,Singapore,,,Singapore
51.79.190.175,4,1176,unpra.ac.id,SG,Asia,South-eastern Asia,Singapore,,,Singapore
51.79.169.104,4,1,unsub.ac.id,SG,Asia,South-eastern Asia,Singapore,,,Singapore
125.253.92.60,4,42,unwira.ac.id,SG,Asia,South-eastern Asia,Singapore,,,Singapore
172.104.34.236,4,230,uohyd.ac.in,SG,Asia,South-eastern Asia,Singapore,,,Singapore
94.237.69.33,4,1398,updateyourbrowser.net,SG,Asia,South-eastern Asia,Singapore,,,Singapore
82.180.152.240,4,7,upharmu.com,SG,Asia,South-eastern Asia,Singapore,,,Singapore
194.31.53.237,4,3,upmk.ac.id,SG,Asia,South-eastern Asia,Singapore,,,Singapore
45.77.37.214,4,4,upp.ac.id,SG,Asia,South-eastern Asia,Singapore,,,Singapore
51.79.143.82,4,11,upri.ac.id,SG,Asia,South-eastern Asia,Singapore,,,Singapore
192.250.235.38,4,39,upsdirectory.com,SG,Asia,South-eastern Asia,Singapore,,,Singapore
128.199.197.109,4,11,usagi-chang.com,SG,Asia,South-eastern Asia,Singapore,,,Singapore
103.227.176.14,4,55,usahealthtips.com,SG,Asia,South-eastern Asia,Singapore,,,
139.99.121.57,4,25,usc.edu.eg,SG,Asia,South-eastern Asia,Singapore,,,Singapore
188.166.254.5,4,11,userexperienceux.com,SG,Asia,South-eastern Asia,Singapore,,,Singapore
206.189.42.180,4,3,ust.ac.id,SG,Asia,South-eastern Asia,Singapore,,,Singapore
34.87.91.105,4,2,uta45jakarta.ac.id,SG,Asia,South-eastern Asia,Singapore,,,Singapore
159.223.82.0,4,6,uz.edu.ph,SG,Asia,South-eastern Asia,Singapore,,,Singapore
14.128.39.117,4,-21,v81773.com,SG,Asia,South-eastern Asia,Singapore,,,
14.128.39.118,4,7,v81773.com,SG,Asia,South-eastern Asia,Singapore,,,
14.128.39.110,4,-15,v81773.com,SG,Asia,South-eastern Asia,Singapore,,,
202.95.17.85,4,-17,v81773.com,SG,Asia,South-eastern Asia,Singapore,,,
85.187.128.248,4,54,valenth.com,SG,Asia,South-eastern Asia,Singapore,,,Singapore
46.250.231.75,4,13,vapecartscollection.com,SG,Asia,South-eastern Asia,Singapore,,,Singapore
159.223.92.175,4,16,vas.edu.vn,SG,Asia,South-eastern Asia,Singapore,,,Singapore
103.11.189.158,4,16,venusbeauty.com.sg,SG,Asia,South-eastern Asia,Singapore,,,
104.248.145.127,4,12,veriteresearch.org,SG,Asia,South-eastern Asia,Singapore,,,Singapore
15.235.141.160,4,5,vf555.best,SG,Asia,South-eastern Asia,Singapore,,,
172.96.191.110,4,39,viagrasts.com,SG,Asia,South-eastern Asia,Singapore,,,Singapore
34.87.55.133,4,32,vibalgroup.com,SG,Asia,South-eastern Asia,Singapore,,,Singapore
194.233.90.196,4,-1,vibesvietnam.com,SG,Asia,South-eastern Asia,Singapore,,,Singapore
206.238.163.68,4,19,vickypinky.com,SG,Asia,South-eastern Asia,Singapore,,,Singapore
192.250.235.19,4,44,victory-electricals.com,SG,Asia,South-eastern Asia,Singapore,,,Singapore
103.227.176.6,4,21,videogram.com,SG,Asia,South-eastern Asia,Singapore,,,
159.223.83.255,4,29,videomoocs.com,SG,Asia,South-eastern Asia,Singapore,,,Singapore
172.104.187.153,4,26,vieclammienphi.vn,SG,Asia,South-eastern Asia,Singapore,,,Singapore
139.180.212.47,4,11,vieclamoto.com,SG,Asia,South-eastern Asia,Singapore,,,Singapore
45.77.37.174,4,2,vietnamglobaltours.com,SG,Asia,South-eastern Asia,Singapore,,,Singapore
35.247.157.85,4,13,vietnamonline.com,SG,Asia,South-eastern Asia,Singapore,,,Singapore
207.148.124.186,4,21,vietnamtravel.com,SG,Asia,South-eastern Asia,Singapore,,,Singapore
188.166.209.39,4,27,viindoo.com,SG,Asia,South-eastern Asia,Singapore,,,Singapore
103.134.152.6,4,68,vilaombak.com,SG,Asia,South-eastern Asia,Singapore,,,
172.96.191.119,4,37,villafrancatirrena.com,SG,Asia,South-eastern Asia,Singapore,,,Singapore
178.128.127.162,4,6,villaty-eg.com,SG,Asia,South-eastern Asia,Singapore,,,Singapore
103.21.221.4,4,34,viltrexpowflex.net,SG,Asia,South-eastern Asia,Singapore,,,Singapore
95.111.193.52,4,457,vimach.net,SG,Asia,South-eastern Asia,Singapore,,,
172.104.58.116,4,-26,vinodkothari.com,SG,Asia,South-eastern Asia,Singapore,,,Singapore
51.79.150.68,4,22,vintageseattle.org,SG,Asia,South-eastern Asia,Singapore,,,Singapore
139.99.46.102,4,3,vintagevibesrestro.in,SG,Asia,South-eastern Asia,Singapore,,,Singapore
101.100.241.142,4,5225,violetoon.com,SG,Asia,South-eastern Asia,Singapore,,,
172.96.191.67,4,853,vipaa.net,SG,Asia,South-eastern Asia,Singapore,,,Singapore
54.251.101.143,4,-21,visahq.in,SG,Asia,South-eastern Asia,Singapore,,,Singapore
68.183.183.242,4,12,vistec.ac.th,SG,Asia,South-eastern Asia,Singapore,,,Singapore
223.25.237.173,4,2,visualpath.in,SG,Asia,South-eastern Asia,Singapore,,,
66.42.62.53,4,3,vitranet24.com,SG,Asia,South-eastern Asia,Singapore,,,Singapore
109.123.237.220,4,8,vivicorp.com,SG,Asia,South-eastern Asia,Singapore,,,Singapore
192.250.235.47,4,28,vividconsultants.com.np,SG,Asia,South-eastern Asia,Singapore,,,Singapore
51.79.147.225,4,14,vizi.vn,SG,Asia,South-eastern Asia,Singapore,,,Singapore
138.2.93.172,4,5,vnpttelecom.net,SG,Asia,South-eastern Asia,Singapore,,,Kampong Loyang
202.95.8.233,4,-20,vocce-gourmet.com,SG,Asia,South-eastern Asia,Singapore,,,
15.235.183.163,4,10,votesnp.com,SG,Asia,South-eastern Asia,Singapore,,,
217.21.74.191,4,90,vrean.com,SG,Asia,South-eastern Asia,Singapore,,,Singapore
35.247.154.239,4,2,vxf.vn,SG,Asia,South-eastern Asia,Singapore,,,Singapore
103.21.221.20,4,34,w88hn1.vip,SG,Asia,South-eastern Asia,Singapore,,,Singapore
185.187.241.111,4,0,w88th2.com,SG,Asia,South-eastern Asia,Singapore,,,Singapore
103.21.221.12,4,41,wadeslittleworld.com,SG,Asia,South-eastern Asia,Singapore,,,Singapore
206.238.184.148,4,-14,wanfanghui.vip,SG,Asia,South-eastern Asia,Singapore,,,Singapore
172.96.191.183,4,32,wangxiaofeng.net,SG,Asia,South-eastern Asia,Singapore,,,Singapore
46.51.220.87,4,-24,wapcar.my,SG,Asia,South-eastern Asia,Singapore,,,Singapore
52.74.125.71,4,-29,wapcar.my,SG,Asia,South-eastern Asia,Singapore,,,Singapore
103.134.152.17,4,396,wardahbrunei.com,SG,Asia,South-eastern Asia,Singapore,,,
43.229.85.207,4,5,wardrobetrendsfashion.com,SG,Asia,South-eastern Asia,Singapore,,,
165.22.253.67,4,11,wargajogja.net,SG,Asia,South-eastern Asia,Singapore,,,Singapore
191.101.230.90,4,-1,warganet88.pro,SG,Asia,South-eastern Asia,Singapore,,,Singapore
103.134.152.2,4,823,warnawisata.com,SG,Asia,South-eastern Asia,Singapore,,,
18.139.237.232,4,-23,watchfuleyesolutions.com,SG,Asia,South-eastern Asia,Singapore,,,Singapore
51.79.153.16,4,9,watchgmctv.com,SG,Asia,South-eastern Asia,Singapore,,,Singapore
23.106.55.197,4,3,watergate.info,SG,Asia,South-eastern Asia,Singapore,,,Singapore
128.199.136.181,4,2,waykambasdesign.com,SG,Asia,South-eastern Asia,Singapore,,,Singapore
170.187.231.66,4,-18,waytomonte.com,SG,Asia,South-eastern Asia,Singapore,,,Singapore
194.233.72.35,4,15,wdir1.com,SG,Asia,South-eastern Asia,Singapore,,,Singapore
167.172.67.89,4,-1,wearefriendlyfires.com,SG,Asia,South-eastern Asia,Singapore,,,Singapore
34.143.196.153,4,7,web3go.xyz,SG,Asia,South-eastern Asia,Singapore,,,Singapore
23.106.49.57,4,1,web3mantra.com,SG,Asia,South-eastern Asia,Singapore,,,Singapore
172.96.191.248,4,33,webadr.com,SG,Asia,South-eastern Asia,Singapore,,,Singapore
128.199.94.110,4,4304132,webappiphone.com,SG,Asia,South-eastern Asia,Singapore,,,Singapore
101.100.245.119,4,4712,webarre.com,SG,Asia,South-eastern Asia,Singapore,,,
172.104.44.113,4,923,webidsupport.com,SG,Asia,South-eastern Asia,Singapore,,,Singapore
217.21.73.209,4,10,webmoneymantra.com,SG,Asia,South-eastern Asia,Singapore,,,Singapore
157.245.147.7,4,74,website-workshop.com,SG,Asia,South-eastern Asia,Singapore,,,Singapore
95.111.198.69,4,757,websvn.info,SG,Asia,South-eastern Asia,Singapore,,,
172.96.191.191,4,42,wedding--dresses.net,SG,Asia,South-eastern Asia,Singapore,,,Singapore
103.21.221.33,4,41,wedlockcross.com,SG,Asia,South-eastern Asia,Singapore,,,Singapore
172.104.48.73,4,-22,weekendpost.co.bw,SG,Asia,South-eastern Asia,Singapore,,,Singapore
139.59.249.253,4,11,weirdrussia.com,SG,Asia,South-eastern Asia,Singapore,,,Singapore
51.79.149.160,4,1242,wellpet.org,SG,Asia,South-eastern Asia,Singapore,,,Singapore
172.96.191.218,4,35,wesonerdy.com,SG,Asia,South-eastern Asia,Singapore,,,Singapore
139.99.36.50,4,7,wfft.org,SG,Asia,South-eastern Asia,Singapore,,,Singapore
194.163.32.205,4,3,whalewatch.co.nz,SG,Asia,South-eastern Asia,Singapore,,,Singapore
35.240.167.99,4,2,whiteboardjournal.com,SG,Asia,South-eastern Asia,Singapore,,,Singapore
188.166.218.19,4,4,whitequark.org,SG,Asia,South-eastern Asia,Singapore,,,Singapore
203.175.174.68,4,10,whoaisnotme.net,SG,Asia,South-eastern Asia,Singapore,,,Singapore
172.104.62.53,4,-24,whub.io,SG,Asia,South-eastern Asia,Singapore,,,Singapore
45.118.133.62,4,-27,widgetbucks.com,SG,Asia,South-eastern Asia,Singapore,,,Singapore
188.166.210.94,4,37,wiki.sg,SG,Asia,South-eastern Asia,Singapore,,,Singapore
159.223.86.167,4,28,wikispaces.org,SG,Asia,South-eastern Asia,Singapore,,,Singapore
103.227.176.12,4,41,wildrice.com.sg,SG,Asia,South-eastern Asia,Singapore,,,
128.199.167.241,4,11,wildsingapore.com,SG,Asia,South-eastern Asia,Singapore,,,Singapore
143.198.208.31,4,27,win79apk.asia,SG,Asia,South-eastern Asia,Singapore,,,Singapore
54.255.96.81,4,-26,winmpg.com,SG,Asia,South-eastern Asia,Singapore,,,Singapore
209.58.165.77,4,38,winning-partnership.com,SG,Asia,South-eastern Asia,Singapore,,,Singapore
85.187.128.60,4,45,winso.tw,SG,Asia,South-eastern Asia,Singapore,,,Singapore
109.106.254.62,4,9,wisdomofcards.com,SG,Asia,South-eastern Asia,Singapore,,,Singapore
192.250.235.24,4,49,wisig.org,SG,Asia,South-eastern Asia,Singapore,,,Singapore
156.67.208.14,4,11,withkumargaurav.com,SG,Asia,South-eastern Asia,Singapore,,,Singapore
118.107.46.141,4,-12,wjkphd.com,SG,Asia,South-eastern Asia,Singapore,,,
54.255.144.91,4,-29,wlimg.com,SG,Asia,South-eastern Asia,Singapore,,,Singapore
139.99.117.62,4,30,wlp.com.sg,SG,Asia,South-eastern Asia,Singapore,,,Singapore
103.43.189.197,4,15,wmfish.com,SG,Asia,South-eastern Asia,Singapore,,,
101.100.210.110,4,6725,woha.net,SG,Asia,South-eastern Asia,Singapore,,,
188.166.249.161,4,14,womenwin.org,SG,Asia,South-eastern Asia,Singapore,,,Singapore
85.187.128.38,4,14,woodenfloorbd.com,SG,Asia,South-eastern Asia,Singapore,,,Singapore
172.105.123.211,4,-26,woodstockschool.in,SG,Asia,South-eastern Asia,Singapore,,,Singapore
192.250.235.16,4,50,wordpress-themes.org,SG,Asia,South-eastern Asia,Singapore,,,Singapore
109.123.239.53,4,7,workschon.com,SG,Asia,South-eastern Asia,Singapore,,,Singapore
51.79.177.72,4,5,worktobejudged.com,SG,Asia,South-eastern Asia,Singapore,,,Singapore
172.96.191.37,4,35,worldnetcast.com,SG,Asia,South-eastern Asia,Singapore,,,Singapore
192.250.235.39,4,47,worldwidefoodsupplyinc.com,SG,Asia,South-eastern Asia,Singapore,,,Singapore
192.250.235.76,4,44,wpnesia.id,SG,Asia,South-eastern Asia,Singapore,,,Singapore
172.96.190.240,4,40,writemyessayhelp.net,SG,Asia,South-eastern Asia,Singapore,,,Singapore
139.177.187.49,4,-9,writemyresearchpaperz.com,SG,Asia,South-eastern Asia,Singapore,,,Singapore
194.163.35.34,4,15,wwartcoll.com,SG,Asia,South-eastern Asia,Singapore,,,Singapore
43.229.84.236,4,1832,wwf.sg,SG,Asia,South-eastern Asia,Singapore,,,
103.21.221.63,4,44,www.airhuarache.uk,SG,Asia,South-eastern Asia,Singapore,,,Singapore
143.92.58.241,4,-16,www010490.com,SG,Asia,South-eastern Asia,Singapore,,,
143.92.58.239,4,-16,wwwfucai70.cc,SG,Asia,South-eastern Asia,Singapore,,,
139.99.18.233,4,2,wwwmonclerjacketsuk.com.co,SG,Asia,South-eastern Asia,Singapore,,,Singapore
143.92.58.245,4,-5,wwwxhyapp.com,SG,Asia,South-eastern Asia,Singapore,,,
157.245.199.161,4,10,x3immune.vn,SG,Asia,South-eastern Asia,Singapore,,,Singapore
202.95.17.79,4,-18,x57998.com,SG,Asia,South-eastern Asia,Singapore,,,
14.128.39.114,4,-18,x57998.com,SG,Asia,South-eastern Asia,Singapore,,,
202.61.146.148,4,5,x58399.com,SG,Asia,South-eastern Asia,Singapore,,,
202.61.146.141,4,5,x58399.com,SG,Asia,South-eastern Asia,Singapore,,,
202.61.153.144,4,1,x58399.com,SG,Asia,South-eastern Asia,Singapore,,,
14.128.39.112,4,-18,x58399.com,SG,Asia,South-eastern Asia,Singapore,,,
202.95.17.90,4,-21,x58399.com,SG,Asia,South-eastern Asia,Singapore,,,
14.128.39.116,4,-16,x58399.com,SG,Asia,South-eastern Asia,Singapore,,,
14.128.39.111,4,-20,x96993.com,SG,Asia,South-eastern Asia,Singapore,,,
95.111.202.42,4,765,xaydunghanoimoi.net,SG,Asia,South-eastern Asia,Singapore,,,
45.139.226.12,4,242188,xhlzs.net,SG,Asia,South-eastern Asia,Singapore,,,
43.159.99.102,4,-3,xincailiao.com,SG,Asia,South-eastern Asia,Singapore,,,
43.159.98.10,4,-5,xincailiao.com,SG,Asia,South-eastern Asia,Singapore,,,
43.159.99.100,4,-5,xincailiao.com,SG,Asia,South-eastern Asia,Singapore,,,
107.148.36.174,4,36,xingfuhuishou.com,SG,Asia,South-eastern Asia,Singapore,,,Singapore
143.92.60.10,4,-19,xitongcheng.com,SG,Asia,South-eastern Asia,Singapore,,,
153.92.4.97,4,6,xlx191.com,SG,Asia,South-eastern Asia,Singapore,,,Singapore
149.28.147.199,4,0,xmldb.org,SG,Asia,South-eastern Asia,Singapore,,,Singapore
172.104.177.147,4,33,xn--sltopulsa-17a.com,SG,Asia,South-eastern Asia,Singapore,,,Singapore
8.219.93.232,4,118,xn--yfru5mk0bi4mg1x.top,SG,Asia,South-eastern Asia,Singapore,,,
45.77.32.247,4,3,xosoquangngai.com.vn,SG,Asia,South-eastern Asia,Singapore,,,Singapore
172.104.39.158,4,-23,xotours.vn,SG,Asia,South-eastern Asia,Singapore,,,Singapore
94.237.74.113,4,-1,xourtee.com,SG,Asia,South-eastern Asia,Singapore,,,
45.90.229.216,4,3,xox.com.my,SG,Asia,South-eastern Asia,Singapore,,,Singapore
191.101.230.128,4,-1,xpressbuddy.com,SG,Asia,South-eastern Asia,Singapore,,,Singapore
206.238.104.114,4,-9,xqtshop.net,SG,Asia,South-eastern Asia,Singapore,,,Singapore
27.124.47.199,4,-11,xx1555.com,SG,Asia,South-eastern Asia,Singapore,,,
8.219.173.137,4,5,xyz.net.tw,SG,Asia,South-eastern Asia,Singapore,,,
206.238.215.7,4,-20,ya.cn,SG,Asia,South-eastern Asia,Singapore,,,Singapore
206.238.215.8,4,-19,ya.cn,SG,Asia,South-eastern Asia,Singapore,,,Singapore
206.238.215.5,4,-16,ya.cn,SG,Asia,South-eastern Asia,Singapore,,,Singapore
206.238.215.9,4,-16,ya.cn,SG,Asia,South-eastern Asia,Singapore,,,Singapore
206.238.215.6,4,-13,ya.cn,SG,Asia,South-eastern Asia,Singapore,,,Singapore
149.28.151.200,4,-25,ya4r.net,SG,Asia,South-eastern Asia,Singapore,,,Singapore
18.136.131.157,4,-27,yadea.com,SG,Asia,South-eastern Asia,Singapore,,,Singapore
139.162.2.142,4,-27,yakandyeti.com,SG,Asia,South-eastern Asia,Singapore,,,Singapore
101.100.210.50,4,15808,yakun.com,SG,Asia,South-eastern Asia,Singapore,,,
128.199.99.22,4,2,yalasrilanka.lk,SG,Asia,South-eastern Asia,Singapore,,,Singapore
139.59.240.165,4,2,yeezys350.org,SG,Asia,South-eastern Asia,Singapore,,,Singapore
156.67.222.113,4,3,yellocus.com,SG,Asia,South-eastern Asia,Singapore,,,Singapore
191.101.230.14,4,2,yesudream.me,SG,Asia,South-eastern Asia,Singapore,,,Singapore
47.241.239.237,4,9,yiwu2050.com,SG,Asia,South-eastern Asia,Singapore,,,
47.237.109.162,4,1,ylsjbz.com,SG,Asia,South-eastern Asia,Singapore,,,
167.172.5.31,4,0,ymcaswfl.org,SG,Asia,South-eastern Asia,Singapore,,,Singapore
118.107.40.189,4,-15,ynyoujiao.com,SG,Asia,South-eastern Asia,Singapore,,,
151.106.124.59,4,8,yogatips.in,SG,Asia,South-eastern Asia,Singapore,,,Singapore
51.79.249.176,4,3,yoo.social,SG,Asia,South-eastern Asia,Singapore,,,Singapore
45.76.153.24,4,3,yourprofservices.com,SG,Asia,South-eastern Asia,Singapore,,,Singapore
172.96.191.242,4,35,ypoart.com,SG,Asia,South-eastern Asia,Singapore,,,Singapore
156.67.222.105,4,9,yrkonsultan.com,SG,Asia,South-eastern Asia,Singapore,,,Singapore
103.227.176.4,4,44,ysa.sa,SG,Asia,South-eastern Asia,Singapore,,,
43.163.9.6,4,10,yuanjumoli.com,SG,Asia,South-eastern Asia,Singapore,,,
47.236.50.192,4,3,yuanpaijia.com,SG,Asia,South-eastern Asia,Singapore,,,
154.26.138.0,4,9,yudleethemes.com,SG,Asia,South-eastern Asia,Singapore,,,Singapore
103.134.152.12,4,266,yuniarinukti.com,SG,Asia,South-eastern Asia,Singapore,,,
154.196.200.140,4,1640,yunkeq.com,SG,Asia,South-eastern Asia,Singapore,,,Singapore
139.59.218.50,4,9,yunomorionsen.com,SG,Asia,South-eastern Asia,Singapore,,,Singapore
103.21.221.6,4,37,yvfc.org,SG,Asia,South-eastern Asia,Singapore,,,Singapore
43.245.98.67,4,-2,ywsa.com.sg,SG,Asia,South-eastern Asia,Singapore,,,
8.219.55.156,4,5,ywzz.com,SG,Asia,South-eastern Asia,Singapore,,,
107.148.36.178,4,33,yxgukk.com,SG,Asia,South-eastern Asia,Singapore,,,Singapore
128.199.201.225,4,16,zangia.mn,SG,Asia,South-eastern Asia,Singapore,,,Singapore
23.106.49.68,4,9,zansan.sg,SG,Asia,South-eastern Asia,Singapore,,,Singapore
103.134.152.4,4,585,zapexpress.co.id,SG,Asia,South-eastern Asia,Singapore,,,
118.107.42.79,4,-14,zbhtgmgs.com,SG,Asia,South-eastern Asia,Singapore,,,
47.236.71.22,4,10,zbsws.cn,SG,Asia,South-eastern Asia,Singapore,,,
35.198.226.16,4,7,zeavola.com,SG,Asia,South-eastern Asia,Singapore,,,Singapore
172.96.191.208,4,34,zebra007.net,SG,Asia,South-eastern Asia,Singapore,,,Singapore
54.169.160.79,4,-17,zeetv.com,SG,Asia,South-eastern Asia,Singapore,,,Singapore
107.148.36.183,4,30,zgjiechuang.com,SG,Asia,South-eastern Asia,Singapore,,,Singapore
107.148.36.184,4,33,zgytan.com,SG,Asia,South-eastern Asia,Singapore,,,Singapore
172.96.191.134,4,32,zhanfangrang.top,SG,Asia,South-eastern Asia,Singapore,,,Singapore
107.148.36.181,4,32,zhcanshi.com,SG,Asia,South-eastern Asia,Singapore,,,Singapore
47.245.92.209,4,6,zhgjaqreport.com,SG,Asia,South-eastern Asia,Singapore,,,
107.148.36.179,4,34,zhongdailianmeng.com,SG,Asia,South-eastern Asia,Singapore,,,Singapore
107.148.36.177,4,37,zhonghuiqiguan.com,SG,Asia,South-eastern Asia,Singapore,,,Singapore
139.162.5.234,4,-26,zhongli998.com,SG,Asia,South-eastern Asia,Singapore,,,Singapore
107.148.36.191,4,31,zhshijia.com,SG,Asia,South-eastern Asia,Singapore,,,Singapore
107.148.36.180,4,37,zhuangfang86.com,SG,Asia,South-eastern Asia,Singapore,,,Singapore
103.43.188.6,4,5,zhumeng6.com,SG,Asia,South-eastern Asia,Singapore,,,
107.148.36.189,4,38,zhyuanchang.com,SG,Asia,South-eastern Asia,Singapore,,,Singapore
43.175.233.11,4,-6,zibll.com,SG,Asia,South-eastern Asia,Singapore,,,
43.175.232.11,4,-5,zibll.com,SG,Asia,South-eastern Asia,Singapore,,,
178.128.220.4,4,13,ziingo.com.my,SG,Asia,South-eastern Asia,Singapore,,,Singapore
107.148.36.176,4,37,zimqib.com,SG,Asia,South-eastern Asia,Singapore,,,Singapore
43.134.184.42,4,7,ziyuxuan.net,SG,Asia,South-eastern Asia,Singapore,,,Singapore
206.238.110.108,4,1479,zjjcb.com,SG,Asia,South-eastern Asia,Singapore,,,Singapore
107.148.36.185,4,34,zjzjsp.com,SG,Asia,South-eastern Asia,Singapore,,,Singapore
107.148.36.175,4,33,zlwanjiahui.com,SG,Asia,South-eastern Asia,Singapore,,,Singapore
95.111.192.65,4,671,zodifox.com,SG,Asia,South-eastern Asia,Singapore,,,
117.120.5.251,4,5496,zoltrix.com,SG,Asia,South-eastern Asia,Singapore,,,
85.187.128.7,4,11,zoo.com.sg,SG,Asia,South-eastern Asia,Singapore,,,Singapore
18.136.41.11,4,-27,zoomtventertainment.com,SG,Asia,South-eastern Asia,Singapore,,,Singapore
13.251.169.242,4,-28,zoomtventertainment.com,SG,Asia,South-eastern Asia,Singapore,,,Singapore
45.130.228.151,4,2,zovirax.shop,SG,Asia,South-eastern Asia,Singapore,,,Singapore
107.148.36.187,4,34,zpapplet.com,SG,Asia,South-eastern Asia,Singapore,,,Singapore
107.148.36.188,4,37,zsgdapp.com,SG,Asia,South-eastern Asia,Singapore,,,Singapore
107.148.36.182,4,33,zslexun.com,SG,Asia,South-eastern Asia,Singapore,,,Singapore
118.107.40.123,4,-21,zxjcnc.com,SG,Asia,South-eastern Asia,Singapore,,,
134.122.130.154,4,-17,zxjcnc.com,SG,Asia,South-eastern Asia,Singapore,,,
134.122.130.152,4,-16,zxjcnc.com,SG,Asia,South-eastern Asia,Singapore,,,
118.107.40.124,4,-17,zxjcnc.com,SG,Asia,South-eastern Asia,Singapore,,,
139.162.5.17,4,-23,zxspectrum.net,SG,Asia,South-eastern Asia,Singapore,,,Singapore
194.114.138.233,4,9,zyksqzj.com,SG,Asia,South-eastern Asia,Singapore,,,Singapore
107.148.36.186,4,37,zylgsc.com,SG,Asia,South-eastern Asia,Singapore,,,Singapore
107.148.36.190,4,30,zzqyhzp.com,SG,Asia,South-eastern Asia,Singapore,,,Singapore
103.43.189.103,4,3,zzzyfsgs.com,SG,Asia,South-eastern Asia,Singapore,,,
