reflector_ip,ip_version,offset,description,country_code,region,sub_region,country_name,sub_division_1,sub_division_2,city
103.145.227.125,4,-20,365casino-affiliate-programs.com,ID,Asia,South-eastern Asia,Indonesia,,,
203.175.8.13,4,2,7abc.biz,ID,Asia,South-eastern Asia,Indonesia,,,
91.108.118.110,4,15,abanico-chocolat.com,ID,Asia,South-eastern Asia,Indonesia,Jakarta,,Jakarta
43.252.137.93,4,-1,absolutenewyork.co.id,ID,Asia,South-eastern Asia,Indonesia,Jakarta,,Srengseng
103.52.61.50,4,107,abulyatama.ac.id,ID,Asia,South-eastern Asia,Indonesia,,,
103.129.220.135,4,255,adaaku.id,ID,Asia,South-eastern Asia,Indonesia,,,
103.41.205.226,4,12,adaro.com,ID,Asia,South-eastern Asia,Indonesia,,,
182.23.90.133,4,10,adhi.co.id,ID,Asia,South-eastern Asia,Indonesia,,,
203.175.8.94,4,4,adhijasa.com,ID,Asia,South-eastern Asia,Indonesia,,,
103.150.117.57,4,36,adisumaryadi.com,ID,Asia,South-eastern Asia,Indonesia,,,
203.175.9.137,4,710,aibpmjournals.com,ID,Asia,South-eastern Asia,Indonesia,,,
49.0.1.58,4,6,aka.ac.id,ID,Asia,South-eastern Asia,Indonesia,West Java,,Bogor
158.140.177.230,4,10,akademiperekammedis.ac.id,ID,Asia,South-eastern Asia,Indonesia,Banten,,South Tangerang
77.37.78.179,4,2,akbara.ac.id,ID,Asia,South-eastern Asia,Indonesia,Jakarta,,Jakarta
103.139.175.186,4,2036,akparindo.ac.id,ID,Asia,South-eastern Asia,Indonesia,,,
103.247.8.209,4,855,akperkebonjati.ac.id,ID,Asia,South-eastern Asia,Indonesia,Jakarta,,Jakarta
103.177.94.83,4,14,aktual.com,ID,Asia,South-eastern Asia,Indonesia,Jakarta,,Jakarta
153.92.8.18,4,100,aldhifajar.com,ID,Asia,South-eastern Asia,Indonesia,Jakarta,,Jakarta
34.128.118.176,4,8,alexanderhanff.com,ID,Asia,South-eastern Asia,Indonesia,Jakarta,,Jakarta
153.92.10.167,4,119,alexandria.co.id,ID,Asia,South-eastern Asia,Indonesia,Jakarta,,Jakarta
91.108.116.111,4,12,alfatah.com.pk,ID,Asia,South-eastern Asia,Indonesia,Jakarta,,Jakarta
8.215.26.147,4,3,Alibaba.com Singapore E-Commerce Private Limited,ID,Asia,South-eastern Asia,Indonesia,Jakarta,,Jakarta
103.217.208.26,4,4,almaata.ac.id,ID,Asia,South-eastern Asia,Indonesia,Yogyakarta,,Sleman
203.175.9.105,4,24,almuayyad.org,ID,Asia,South-eastern Asia,Indonesia,,,
103.226.138.101,4,-4540,alokop.id,ID,Asia,South-eastern Asia,Indonesia,,,
103.7.226.213,4,6,altius-indonesia.com,ID,Asia,South-eastern Asia,Indonesia,,,
103.163.138.109,4,-1,amikmahaputra.ac.id,ID,Asia,South-eastern Asia,Indonesia,,,
103.185.27.6,4,107720,amikompurwokerto.ac.id,ID,Asia,South-eastern Asia,Indonesia,,,
202.182.55.54,4,90408,andalsoftware.com,ID,Asia,South-eastern Asia,Indonesia,Jakarta,,Gelora
202.62.9.109,4,128,angkasapura1.co.id,ID,Asia,South-eastern Asia,Indonesia,,,
202.73.25.122,4,-789543,anjauwisata.com,ID,Asia,South-eastern Asia,Indonesia,,,
103.247.8.17,4,566,another-ro.com,ID,Asia,South-eastern Asia,Indonesia,Jakarta,,Jakarta
101.255.89.92,4,8,antikorupsi.org,ID,Asia,South-eastern Asia,Indonesia,Jakarta,,Jakarta
91.108.116.69,4,7427,apirintismas.co.id,ID,Asia,South-eastern Asia,Indonesia,Jakarta,,Jakarta
103.7.226.171,4,-6,apkhbi.org,ID,Asia,South-eastern Asia,Indonesia,,,
153.92.9.203,4,18,arcprodigital.com,ID,Asia,South-eastern Asia,Indonesia,Jakarta,,Jakarta
43.229.251.5,4,29,ardhosting.com,ID,Asia,South-eastern Asia,Indonesia,,,
103.127.137.154,4,55,arkamaya.co.id,ID,Asia,South-eastern Asia,Indonesia,,,
154.62.111.54,4,11,artisanhotel.com,ID,Asia,South-eastern Asia,Indonesia,Jakarta,,Jakarta
117.53.47.185,4,11,artotelgroup.com,ID,Asia,South-eastern Asia,Indonesia,,,
103.219.251.164,4,-35,aryalabware.com,ID,Asia,South-eastern Asia,Indonesia,,,
202.52.147.134,4,-17,asapharma.co.id,ID,Asia,South-eastern Asia,Indonesia,,,
103.134.55.53,4,0,aseanfoundation.org,ID,Asia,South-eastern Asia,Indonesia,,,
36.50.77.73,4,16,asepbook.com,ID,Asia,South-eastern Asia,Indonesia,,,
103.250.10.252,4,-700,askproject.net,ID,Asia,South-eastern Asia,Indonesia,,,
119.2.43.210,4,5,asrojournal-sttal.ac.id,ID,Asia,South-eastern Asia,Indonesia,Jakarta,,Jakarta
153.92.10.166,4,14,astradaihatsuyogyakarta.com,ID,Asia,South-eastern Asia,Indonesia,Jakarta,,Jakarta
103.139.175.88,4,1,astronacci.com,ID,Asia,South-eastern Asia,Indonesia,,,
108.137.99.91,4,-20,atlasbeachfest.com,ID,Asia,South-eastern Asia,Indonesia,Jakarta,,Jakarta
103.94.122.100,4,16,atmaluhur.ac.id,ID,Asia,South-eastern Asia,Indonesia,,,
153.92.11.160,4,63,aviator-spribe.online,ID,Asia,South-eastern Asia,Indonesia,Jakarta,,Jakarta
103.177.56.35,4,10,awalbros.com,ID,Asia,South-eastern Asia,Indonesia,,,
103.44.27.44,4,19089,ayanaresort.com,ID,Asia,South-eastern Asia,Indonesia,,,
103.217.209.22,4,3,ayodyaresortbali.com,ID,Asia,South-eastern Asia,Indonesia,Yogyakarta,,Sleman
149.129.215.78,4,7,baliutd.com,ID,Asia,South-eastern Asia,Indonesia,Jakarta,,Jakarta
103.247.8.184,4,1620,bandungtrends.com,ID,Asia,South-eastern Asia,Indonesia,Jakarta,,Jakarta
113.20.31.59,4,-10,bangsaonline.com,ID,Asia,South-eastern Asia,Indonesia,,,
103.167.113.145,4,2,banksulutgo.co.id,ID,Asia,South-eastern Asia,Indonesia,,,
103.142.21.66,4,-10,banktapeunadana.com,ID,Asia,South-eastern Asia,Indonesia,East Java,,Surabaya
77.37.78.139,4,7453,batikorganik.id,ID,Asia,South-eastern Asia,Indonesia,Jakarta,,Jakarta
103.150.85.15,4,7,bbpkhcinagara.com,ID,Asia,South-eastern Asia,Indonesia,,,
103.131.51.112,4,-19,beritabali.com,ID,Asia,South-eastern Asia,Indonesia,,,
180.235.151.15,4,11,big-max.id,ID,Asia,South-eastern Asia,Indonesia,,,
185.124.139.65,4,7434,bikepromech.in,ID,Asia,South-eastern Asia,Indonesia,Jakarta,,Jakarta
203.161.184.4,4,-7,bimasaktisanjaya.co.id,ID,Asia,South-eastern Asia,Indonesia,,,
103.77.106.66,4,3,binahusada.ac.id,ID,Asia,South-eastern Asia,Indonesia,,,
103.163.138.180,4,-2,bincangsyariah.com,ID,Asia,South-eastern Asia,Indonesia,,,
202.10.36.250,4,26,bintarotrojan.com,ID,Asia,South-eastern Asia,Indonesia,,,
202.58.172.61,4,20,binus.ac.id,ID,Asia,South-eastern Asia,Indonesia,,,
202.58.172.34,4,1955,binus.edu,ID,Asia,South-eastern Asia,Indonesia,,,
203.175.10.192,4,-10,biotrop.org,ID,Asia,South-eastern Asia,Indonesia,,,
103.28.12.169,4,1020,bircu-journal.com,ID,Asia,South-eastern Asia,Indonesia,,,
103.93.64.6,4,10,biznetgio.com,ID,Asia,South-eastern Asia,Indonesia,,,
103.93.66.6,4,2,biznetgio.com,ID,Asia,South-eastern Asia,Indonesia,,,
203.142.82.98,4,10,biznethome.net,ID,Asia,South-eastern Asia,Indonesia,,,
103.29.149.150,4,59,blackxperience.com,ID,Asia,South-eastern Asia,Indonesia,,,
103.226.138.26,4,-28,blajakarta.co.id,ID,Asia,South-eastern Asia,Indonesia,,,
8.215.38.81,4,7,bojongsari.id,ID,Asia,South-eastern Asia,Indonesia,Jakarta,,Jakarta
111.223.252.151,4,-3,boozet.org,ID,Asia,South-eastern Asia,Indonesia,West Java,,Bandung
91.108.118.78,4,24,borobudur.ac.id,ID,Asia,South-eastern Asia,Indonesia,Jakarta,,Jakarta
103.247.11.191,4,11,bristcomhrconsultants.com,ID,Asia,South-eastern Asia,Indonesia,Jakarta,,Jakarta
103.30.145.34,4,-2,bromotenggersemeru.org,ID,Asia,South-eastern Asia,Indonesia,,,
103.247.8.96,4,1,bsi.ac.id,ID,Asia,South-eastern Asia,Indonesia,Jakarta,,Jakarta
153.92.9.211,4,16,budiluhur.ac.id,ID,Asia,South-eastern Asia,Indonesia,Jakarta,,Jakarta
103.150.190.168,4,-2,bukukita.com,ID,Asia,South-eastern Asia,Indonesia,,,
103.146.245.201,4,5,bulog.co.id,ID,Asia,South-eastern Asia,Indonesia,,,
203.175.8.66,4,19,bumiasri.org,ID,Asia,South-eastern Asia,Indonesia,,,
36.67.73.9,4,10,bunghatta.ac.id,ID,Asia,South-eastern Asia,Indonesia,West Java,,Bekasi
103.147.154.202,4,17,burberrybags.net.co,ID,Asia,South-eastern Asia,Indonesia,,,
103.231.201.202,4,1066,busbeetrans.co.id,ID,Asia,South-eastern Asia,Indonesia,,,
153.92.8.192,4,45,canadagoosestorevip.com,ID,Asia,South-eastern Asia,Indonesia,Jakarta,,Jakarta
153.92.11.60,4,13,cartaportugues.com,ID,Asia,South-eastern Asia,Indonesia,Jakarta,,Jakarta
203.175.9.31,4,1025,cateringanyer.net,ID,Asia,South-eastern Asia,Indonesia,,,
116.204.249.139,4,-5,cbn.net.id,ID,Asia,South-eastern Asia,Indonesia,,,
103.253.212.218,4,4,centraldataaccess.com,ID,Asia,South-eastern Asia,Indonesia,,,
43.229.254.252,4,-20,centralvacuumstores.com,ID,Asia,South-eastern Asia,Indonesia,,,
202.146.241.33,4,1,centrin.net.id,ID,Asia,South-eastern Asia,Indonesia,West Java,,Bandung
153.92.9.103,4,9,chinoartelengua.com,ID,Asia,South-eastern Asia,Indonesia,Jakarta,,Jakarta
103.163.138.110,4,-1,christianlouboutin-uk.co.uk,ID,Asia,South-eastern Asia,Indonesia,,,
153.92.8.198,4,10,chroniclesofpassion.com,ID,Asia,South-eastern Asia,Indonesia,Jakarta,,Jakarta
103.28.12.167,4,1600,citra-nusa.com,ID,Asia,South-eastern Asia,Indonesia,,,
103.241.179.59,4,1871,civitasbook.com,ID,Asia,South-eastern Asia,Indonesia,,,
103.29.212.215,4,2278,cmspkh.com,ID,Asia,South-eastern Asia,Indonesia,,,
153.92.9.230,4,8,cnprotective.net,ID,Asia,South-eastern Asia,Indonesia,Jakarta,,Jakarta
103.253.213.45,4,11,coreaccountingindonesia.com,ID,Asia,South-eastern Asia,Indonesia,,,
103.247.11.89,4,760,cryptonews.co.id,ID,Asia,South-eastern Asia,Indonesia,Jakarta,,Jakarta
153.92.11.79,4,9,crystalix.fun,ID,Asia,South-eastern Asia,Indonesia,Jakarta,,Jakarta
185.124.136.155,4,11,cusser.net,ID,Asia,South-eastern Asia,Indonesia,Jakarta,,Jakarta
203.175.9.157,4,1190,dannyshi.com,ID,Asia,South-eastern Asia,Indonesia,,,
103.20.190.26,4,38,dapurkobe.co.id,ID,Asia,South-eastern Asia,Indonesia,,,
153.92.8.1,4,8,decoraconceptstore.com,ID,Asia,South-eastern Asia,Indonesia,Jakarta,,Jakarta
103.167.217.140,4,-3290837,del.ac.id,ID,Asia,South-eastern Asia,Indonesia,,,
103.165.131.140,4,8,dephut.net,ID,Asia,South-eastern Asia,Indonesia,Jakarta,,Jakarta
147.139.209.214,4,3,desaganra.id,ID,Asia,South-eastern Asia,Indonesia,Jakarta,,Jakarta
8.215.7.245,4,5,desasempayang.id,ID,Asia,South-eastern Asia,Indonesia,Jakarta,,Jakarta
103.247.8.203,4,7,difluca.com,ID,Asia,South-eastern Asia,Indonesia,Jakarta,,Jakarta
103.146.203.48,4,441,dimensikomputer.com,ID,Asia,South-eastern Asia,Indonesia,,,
210.210.178.200,4,-6409040,dinomarket.com,ID,Asia,South-eastern Asia,Indonesia,Jakarta,,Jakarta
103.140.90.101,4,-40,dipyxcin.com,ID,Asia,South-eastern Asia,Indonesia,,,
103.157.146.27,4,-1367,divit.id,ID,Asia,South-eastern Asia,Indonesia,,,
163.53.192.59,4,19,djalaluddinpane.org,ID,Asia,South-eastern Asia,Indonesia,,,
103.29.149.144,4,45,djarum.com,ID,Asia,South-eastern Asia,Indonesia,,,
103.29.149.137,4,41,djarumbeasiswaplus.org,ID,Asia,South-eastern Asia,Indonesia,,,
180.235.151.77,4,2513,dma.co.id,ID,Asia,South-eastern Asia,Indonesia,,,
153.92.8.45,4,9,dmkpark2fly.com,ID,Asia,South-eastern Asia,Indonesia,Jakarta,,Jakarta
103.165.43.10,4,57298,DNS Server: 10.43.165.103.net.iforte.net.id,ID,Asia,South-eastern Asia,Indonesia,East Java,,Surabaya
27.54.117.102,4,81,DNS Server: 102.117.54.27.in-addr.arpa.DETELNETWORKS.ID,ID,Asia,South-eastern Asia,Indonesia,,,
103.105.52.6,4,11756,DNS Server: 103-105-52-6.megadata.net.id,ID,Asia,South-eastern Asia,Indonesia,Jakarta,,Jakarta
103.105.53.173,4,-8751,DNS Server: 103-105-53-173.megadata.net.id,ID,Asia,South-eastern Asia,Indonesia,Central Java,,Klaten
103.105.54.137,4,404336,DNS Server: 103-105-54-137.megadata.net.id,ID,Asia,South-eastern Asia,Indonesia,Yogyakarta,,Yogyakarta
103.105.55.101,4,41,DNS Server: 103-105-55-101.megadata.net.id,ID,Asia,South-eastern Asia,Indonesia,East Java,,Malang
103.123.16.118,4,30,DNS Server: 103-123-16-118.citrahost.com,ID,Asia,South-eastern Asia,Indonesia,,,
103.148.28.6,4,21,DNS Server: 103-148-28.dewatanet.co.id,ID,Asia,South-eastern Asia,Indonesia,Central Sulawesi,,Sigi
103.165.157.92,4,-3815,DNS Server: 103-165-157-92.megadata.net.id,ID,Asia,South-eastern Asia,Indonesia,Central Java,,Wonosobo
103.138.117.58,4,80,DNS Server: 103.138.117.58.static,ID,Asia,South-eastern Asia,Indonesia,North Sumatra,,Medan
114.5.199.219,4,-29464,DNS Server: 114-5-199-219.resources.indosat.com,ID,Asia,South-eastern Asia,Indonesia,West Java,,West Java
114.6.227.28,4,122,DNS Server: 114-6-227-28.resources.indosat.com,ID,Asia,South-eastern Asia,Indonesia,Riau,,Umban Sari
114.6.87.39,4,16,DNS Server: 114-6-87-39.resources.indosat.com,ID,Asia,South-eastern Asia,Indonesia,,,
114.7.120.14,4,88,DNS Server: 114-7-120-14.resources.indosat.com,ID,Asia,South-eastern Asia,Indonesia,East Java,,Malang
114.7.158.7,4,347020,DNS Server: 114-7-158-7.resources.indosat.com,ID,Asia,South-eastern Asia,Indonesia,Banten,,Tangerang
124.158.147.114,4,1607569,DNS Server: 114.147.158.124.in-addr.arpa,ID,Asia,South-eastern Asia,Indonesia,,,
117.20.54.245,4,50288,DNS Server: 117-20-54-245.jogja.citra.net.id,ID,Asia,South-eastern Asia,Indonesia,Yogyakarta,,Sleman
34.128.119.117,4,128929,DNS Server: 117.119.128.34.bc.googleusercontent.com,ID,Asia,South-eastern Asia,Indonesia,Jakarta,,Jakarta
223.27.153.124,4,48,DNS Server: 124.153.27.223.cni.net.id,ID,Asia,South-eastern Asia,Indonesia,Jakarta,,Jakarta
103.156.75.132,4,64,DNS Server: 132.75-156-103.trikamedia.net.id,ID,Asia,South-eastern Asia,Indonesia,Bali,,Gianyar
103.165.33.138,4,-61584,DNS Server: 138.33.165.103.net.iforte.net.id,ID,Asia,South-eastern Asia,Indonesia,,,
103.164.99.14,4,89,DNS Server: 14.99.164.103.net.iforte.net.id,ID,Asia,South-eastern Asia,Indonesia,,,
103.138.14.142,4,3,DNS Server: 142-14-138-103.wiz.net.id,ID,Asia,South-eastern Asia,Indonesia,,,
103.157.190.146,4,787,DNS Server: 146.190.157.103.Ai-bkti-hts.iforte.net.id,ID,Asia,South-eastern Asia,Indonesia,,,
124.158.147.162,4,73604,DNS Server: 162.147.158.124.in-addr.arpa,ID,Asia,South-eastern Asia,Indonesia,,,
182.16.171.164,4,5981,DNS Server: 164.171.16.182.in-addr.arpa,ID,Asia,South-eastern Asia,Indonesia,West Java,,Depok
103.164.113.178,4,5,DNS Server: 178.113.164.103.net.iforte.net.id,ID,Asia,South-eastern Asia,Indonesia,,,
202.43.248.178,4,202,DNS Server: 178.248.43.202.wow.net.id,ID,Asia,South-eastern Asia,Indonesia,,,
103.164.116.180,4,-3685,DNS Server: 180.116.164.103.net.iforte.net.id,ID,Asia,South-eastern Asia,Indonesia,,,
27.54.117.180,4,67519,DNS Server: 180.117.54.27.in-addr.arpa.DETELNETWORKS.ID,ID,Asia,South-eastern Asia,Indonesia,,,
103.164.221.19,4,-26130731,DNS Server: 19.221.164.103.net.iforte.net.id,ID,Asia,South-eastern Asia,Indonesia,Jakarta,,Jakarta
27.54.117.193,4,21,DNS Server: 193.117.54.27.in-addr.arpa.DETELNETWORKS.ID,ID,Asia,South-eastern Asia,Indonesia,,,
183.81.153.194,4,332,DNS Server: 194.sub-153-81-183.hanastar.net.id,ID,Asia,South-eastern Asia,Indonesia,Jakarta,,Jakarta
223.25.98.2,4,13,DNS Server: 2.98.25.223.iconpln.net.id,ID,Asia,South-eastern Asia,Indonesia,,,
183.81.152.2,4,-8,DNS Server: 2.sub-152-81-183.hanastar.net.id,ID,Asia,South-eastern Asia,Indonesia,Jakarta,,Jakarta
202.152.138.189,4,2,DNS Server: 202-152-138-189.citra.net.id,ID,Asia,South-eastern Asia,Indonesia,Yogyakarta,,Yogyakarta
202.152.138.35,4,-661,DNS Server: 202-152-138-35.citra.net.id,ID,Asia,South-eastern Asia,Indonesia,Yogyakarta,,Yogyakarta
202.65.124.32,4,13,DNS Server: 202-65-124-32.jambi.citra.net.id,ID,Asia,South-eastern Asia,Indonesia,,,
202.162.34.42,4,-31,DNS Server: 202.162.34.42-static.reverse.uii.net.id,ID,Asia,South-eastern Asia,Indonesia,Central Java,,Kebumen Satu
202.162.40.242,4,2850,DNS Server: 202.162.40.242-static.reverse.uii.net.id,ID,Asia,South-eastern Asia,Indonesia,Central Java,,Kebumen Satu
119.252.160.210,4,25,DNS Server: 210.160.iconpln.net.id,ID,Asia,South-eastern Asia,Indonesia,West Java,,Bekasi
210.210.168.203,4,2795,DNS Server: 210.210.168.203.cbn.net.id,ID,Asia,South-eastern Asia,Indonesia,Jakarta,,Jakarta
103.164.222.212,4,10,DNS Server: 212.222.164.103.net.iforte.net.id,ID,Asia,South-eastern Asia,Indonesia,Jakarta,,Jakarta
27.54.118.218,4,13,DNS Server: 218.118.54.27.in-addr.arpa.DETELNETWORKS.ID,ID,Asia,South-eastern Asia,Indonesia,,,
103.138.14.22,4,1513235,DNS Server: 22-14-138-103.wiz.net.id,ID,Asia,South-eastern Asia,Indonesia,,,
103.164.104.221,4,919,DNS Server: 221.104.164.103.net.iforte.net.id,ID,Asia,South-eastern Asia,Indonesia,West Java,,Bekasi
119.110.71.221,4,9315,DNS Server: 221.71.110.119.maxindo.net,ID,Asia,South-eastern Asia,Indonesia,Jakarta,,Jakarta
103.177.8.237,4,15,DNS Server: 237.subnet-8.helium.co.id,ID,Asia,South-eastern Asia,Indonesia,Jakarta,,
103.227.141.34,4,-25223326,DNS Server: 34.141-227-103.golden.net.id,ID,Asia,South-eastern Asia,Indonesia,North Sumatra,,Bukit Tinggi
223.25.98.34,4,21793,DNS Server: 34.98.25.223.iconpln.net.id,ID,Asia,South-eastern Asia,Indonesia,,,
103.164.105.37,4,645,DNS Server: 37.105.164.103.net.iforte.net.id,ID,Asia,South-eastern Asia,Indonesia,West Java,,Bekasi
103.175.156.39,4,-543401,DNS Server: 39.156.ip.myarsyilaindonesia.co.id,ID,Asia,South-eastern Asia,Indonesia,Jakarta,,Jakarta
103.145.161.51,4,28361,DNS Server: 51.161.145.103.iconpln.net.id,ID,Asia,South-eastern Asia,Indonesia,,,
202.150.133.52,4,-17061,DNS Server: 52.subnet133.comnet.net.id,ID,Asia,South-eastern Asia,Indonesia,Jakarta,,Kampungjawa
103.104.204.246,4,16,DNS Server: 5mb.co.id,ID,Asia,South-eastern Asia,Indonesia,,,
27.54.117.61,4,46,DNS Server: 61.117.54.27.in-addr.arpa.DETELNETWORKS.ID,ID,Asia,South-eastern Asia,Indonesia,,,
103.141.20.7,4,9,DNS Server: 7.20.141.103.adizka.net.id,ID,Asia,South-eastern Asia,Indonesia,,,
34.101.232.79,4,93,DNS Server: 79.232.101.34.bc.googleusercontent.com,ID,Asia,South-eastern Asia,Indonesia,Jakarta,,Jakarta
27.54.117.80,4,115,DNS Server: 80.117.54.27.in-addr.arpa.DETELNETWORKS.ID,ID,Asia,South-eastern Asia,Indonesia,,,
103.165.61.90,4,29453,DNS Server: 90.61.165.103.net.iforte.net.id,ID,Asia,South-eastern Asia,Indonesia,,,
103.155.246.69,4,159,DNS Server: amn-246-69.amanna.id,ID,Asia,South-eastern Asia,Indonesia,Central Java,,Sukoharjo
202.43.162.20,4,418415,DNS Server: arkaxs03.arkalogic.co.id,ID,Asia,South-eastern Asia,Indonesia,,,
103.180.196.255,4,-4,DNS Server: as149369.deka.net.id,ID,Asia,South-eastern Asia,Indonesia,Yogyakarta,,Yogyakarta
103.158.23.35,4,7,DNS Server: cpserver.7sky.net.id,ID,Asia,South-eastern Asia,Indonesia,,,
118.91.129.65,4,5542,DNS Server: dhe-118-91-129-65.static.dhecyber.net.id,ID,Asia,South-eastern Asia,Indonesia,,,
103.206.169.141,4,7,DNS Server: dns-recursor4.infotek.net.id,ID,Asia,South-eastern Asia,Indonesia,,,
103.155.26.28,4,18,DNS Server: dns2.as141057.net,ID,Asia,South-eastern Asia,Indonesia,,,
103.206.169.139,4,4,DNS Server: dnssehat.infotek.net.id,ID,Asia,South-eastern Asia,Indonesia,,,
202.179.184.85,4,977,DNS Server: gasnet.id,ID,Asia,South-eastern Asia,Indonesia,Banten,,Tangerang
202.51.119.42,4,46,DNS Server: gateway-dkp.go.id,ID,Asia,South-eastern Asia,Indonesia,Jakarta,,Jakarta
103.172.172.51,4,4709,DNS Server: globalnet-vid1005-103.172.172.51.skynetwork.id,ID,Asia,South-eastern Asia,Indonesia,Riau,,Batam
103.172.0.102,4,167,DNS Server: host-102.0.cubiespot.net.id,ID,Asia,South-eastern Asia,Indonesia,,,
103.148.24.35,4,12,DNS Server: host-103-148-24-35.menaksopal.net.id,ID,Asia,South-eastern Asia,Indonesia,East Java,,Trenggalek
103.176.182.34,4,25,DNS Server: host-103-176-182-34.mafia.net.id,ID,Asia,South-eastern Asia,Indonesia,Central Java,,Wonogiri
103.134.220.36,4,3,DNS Server: host-103.134.220-36.glosindo.net.id,ID,Asia,South-eastern Asia,Indonesia,Yogyakarta,,Sleman
124.40.252.182,4,7,DNS Server: host-124-40-252-182.ldp.net.id,ID,Asia,South-eastern Asia,Indonesia,,,
202.169.229.140,4,-83024,DNS Server: host-202-169-229-140.jogjamedianet.com,ID,Asia,South-eastern Asia,Indonesia,Yogyakarta,,Yogyakarta
202.162.204.130,4,4028,DNS Server: host-204-130.bdl.nusa.net.id,ID,Asia,South-eastern Asia,Indonesia,,,
103.12.31.83,4,283,DNS Server: host-31-83.universal.net.id,ID,Asia,South-eastern Asia,Indonesia,,,
103.129.92.33,4,64,DNS Server: host-92-129-104-33.myrepublic.co.id,ID,Asia,South-eastern Asia,Indonesia,East Java,,Malang
202.150.152.108,4,79062,DNS Server: host108.subnet152.comnet.net.id,ID,Asia,South-eastern Asia,Indonesia,West Java,,Bandung
202.150.146.130,4,152,DNS Server: host130.subnet146.comnet.net.id,ID,Asia,South-eastern Asia,Indonesia,West Java,,Bandung
202.150.146.133,4,-25199101,DNS Server: host133.subnet146.comnet.net.id,ID,Asia,South-eastern Asia,Indonesia,West Java,,Bandung
202.150.153.186,4,102629,DNS Server: host186.subnet153.comnet.net.id,ID,Asia,South-eastern Asia,Indonesia,West Java,,Bandung
202.150.155.214,4,10,DNS Server: host214.subnet155.comnet.net.id,ID,Asia,South-eastern Asia,Indonesia,West Java,,Bandung
114.141.49.51,4,-63713,DNS Server: host49-51.cyberplus.net.id,ID,Asia,South-eastern Asia,Indonesia,West Java,,Bekasi
103.172.186.11,4,67533,DNS Server: inmail.idtel.net.id,ID,Asia,South-eastern Asia,Indonesia,,,
103.102.15.165,4,82,DNS Server: ip-103-102-15-165.cloudteknologinusantara.co.id,ID,Asia,South-eastern Asia,Indonesia,,,
114.199.113.5,4,-21447475,DNS Server: ip-114-199-113-5.netzap.net.id,ID,Asia,South-eastern Asia,Indonesia,,,
103.116.201.114,4,-482,DNS Server: ip-114.201.hsp.net.id,ID,Asia,South-eastern Asia,Indonesia,,,
123.255.207.30,4,8,DNS Server: ip-123-255-207-30.datautama.net.id,ID,Asia,South-eastern Asia,Indonesia,Jakarta,,Jakarta
103.119.146.46,4,194,DNS Server: ip-146-46.balifiber.id,ID,Asia,South-eastern Asia,Indonesia,Jakarta,,Jakarta
118.151.221.18,4,33390,DNS Server: ip-151-221-18.fastel.co.id,ID,Asia,South-eastern Asia,Indonesia,Jakarta,,Jakarta
43.225.65.154,4,132,DNS Server: ip-154.65.hsp.net.id,ID,Asia,South-eastern Asia,Indonesia,Jakarta,,Jakarta
103.166.11.124,4,72,DNS Server: ip-166-11-124.yam.net.id,ID,Asia,South-eastern Asia,Indonesia,Central Java,,Sukoharjo
103.177.176.139,4,178,DNS Server: ip-177-176-139.milenetwork.co.id,ID,Asia,South-eastern Asia,Indonesia,Jakarta,,Jakarta
103.40.120.22,4,1569,DNS Server: ip-22.120.40.jogjaringan.net.id,ID,Asia,South-eastern Asia,Indonesia,Central Java,,Klaten
103.169.148.75,4,137,DNS Server: ip-75-148.kangen.net.id,ID,Asia,South-eastern Asia,Indonesia,Riau,,Pekanbaru
103.121.213.75,4,59,DNS Server: ip-75.213.hsp.net,ID,Asia,South-eastern Asia,Indonesia,,,
202.78.195.157,4,-429329,DNS Server: ip-78-195-157.dtp.net.id,ID,Asia,South-eastern Asia,Indonesia,,,
103.137.8.182,4,147,DNS Server: ip-8-182.startel.id,ID,Asia,South-eastern Asia,Indonesia,,,
103.31.109.193,4,14826,DNS Server: ip-cyberk-109-193.primkokas.co.id,ID,Asia,South-eastern Asia,Indonesia,,,
202.61.98.37,4,14,DNS Server: ip-pda-98-37.pda.net.id,ID,Asia,South-eastern Asia,Indonesia,,,
103.247.22.120,4,50,DNS Server: ip-sub-22-120.wifian.id,ID,Asia,South-eastern Asia,Indonesia,West Java,,Bekasi
103.175.237.3,4,-7999,DNS Server: ip.3-237.marvatel.id,ID,Asia,South-eastern Asia,Indonesia,East Java,,Malang
103.175.237.47,4,138,DNS Server: ip.47-237.marvatel.id,ID,Asia,South-eastern Asia,Indonesia,East Java,,Malang
122.200.150.115,4,86080,DNS Server: ip115.150.qiandra.net.id,ID,Asia,South-eastern Asia,Indonesia,,,
27.123.4.206,4,27414,DNS Server: ip123-4-206.tgg.net.id,ID,Asia,South-eastern Asia,Indonesia,Jakarta,,Pela Mampang
202.158.13.122,4,65183,DNS Server: ip13-122.cbn.net.id,ID,Asia,South-eastern Asia,Indonesia,Jakarta,,Jakarta
202.158.13.124,4,65154,DNS Server: ip13-124.cbn.net.id,ID,Asia,South-eastern Asia,Indonesia,Jakarta,,Jakarta
202.158.15.146,4,-48512061,DNS Server: ip15-146.cbn.net.id,ID,Asia,South-eastern Asia,Indonesia,Jakarta,,Jakarta
103.129.221.226,4,-2573,DNS Server: ip226.221.129.103.in-addr.arpa.unknwn.cloudhost.asia,ID,Asia,South-eastern Asia,Indonesia,,,
122.200.150.249,4,186016,DNS Server: ip249.150.qiandra.net.id,ID,Asia,South-eastern Asia,Indonesia,,,
202.158.29.250,4,10,DNS Server: ip29-250.cbn.net.id,ID,Asia,South-eastern Asia,Indonesia,Jakarta,,Kuningan Barat
203.161.30.118,4,4116,DNS Server: ip30-118.tus.net.id,ID,Asia,South-eastern Asia,Indonesia,Lampung,,Bandar Lampung
122.200.150.89,4,94817,DNS Server: ip89.150.qiandra.net.id,ID,Asia,South-eastern Asia,Indonesia,,,
112.78.34.186,4,-37434,DNS Server: ipv4-186-34-78.as55666.net,ID,Asia,South-eastern Asia,Indonesia,,,
27.123.0.114,4,4262,DNS Server: mail.excellent.co.id,ID,Asia,South-eastern Asia,Indonesia,West Java,,Bekasi
103.119.146.89,4,-117172,DNS Server: mymail.ptbks.co.id,ID,Asia,South-eastern Asia,Indonesia,Jakarta,,Jakarta
103.171.182.205,4,209,DNS Server: resolver-2.hayat.net.id,ID,Asia,South-eastern Asia,Indonesia,West Java,,Bogor
117.54.131.125,4,233,DNS Server: rev-117-54-131-125.indo.net.id,ID,Asia,South-eastern Asia,Indonesia,Jakarta,,Jakarta
117.54.3.237,4,-297973,DNS Server: rev-237-3-54.117.indo.net.id,ID,Asia,South-eastern Asia,Indonesia,Jakarta,,Jakarta
103.151.226.42,4,83,DNS Server: s226-42.urbanaccess.net,ID,Asia,South-eastern Asia,Indonesia,West Java,,Bandung
103.86.103.29,4,85,DNS Server: secondarydns.kebumenkab.go.id,ID,Asia,South-eastern Asia,Indonesia,,,
202.51.104.2,4,179,DNS Server: smtptrust.iforte.net.id,ID,Asia,South-eastern Asia,Indonesia,Jakarta,,Jakarta
103.10.171.230,4,27335,DNS Server: vmw230.transtech.co.id,ID,Asia,South-eastern Asia,Indonesia,West Java,,Bandung
182.16.179.20,4,2345,DNS Server: webserver.bdksurabaya-kemenag.id,ID,Asia,South-eastern Asia,Indonesia,West Java,,Depok
103.227.252.251,4,852,dreamers.id,ID,Asia,South-eastern Asia,Indonesia,Jakarta,,Jakarta
103.87.77.157,4,2,duniacargo.com,ID,Asia,South-eastern Asia,Indonesia,,,
103.20.190.52,4,12,dwitunggaljaya.com,ID,Asia,South-eastern Asia,Indonesia,,,
103.112.245.10,4,652,e-print.co.id,ID,Asia,South-eastern Asia,Indonesia,,,
153.92.11.134,4,9,easylegal.id,ID,Asia,South-eastern Asia,Indonesia,Jakarta,,Jakarta
121.101.134.138,4,14,ecc.co.id,ID,Asia,South-eastern Asia,Indonesia,Central Java,,Klaten
34.101.224.24,4,31,ecomobi.com,ID,Asia,South-eastern Asia,Indonesia,Jakarta,,Jakarta
77.37.79.118,4,8,ee88.fit,ID,Asia,South-eastern Asia,Indonesia,Jakarta,,Jakarta
153.92.11.42,4,13,elcomblus.com,ID,Asia,South-eastern Asia,Indonesia,Jakarta,,Jakarta
153.92.9.213,4,30,ellisontransport.com,ID,Asia,South-eastern Asia,Indonesia,Jakarta,,Jakarta
103.146.203.235,4,6,elshinta.co.id,ID,Asia,South-eastern Asia,Indonesia,,,
34.128.86.0,4,2,emporioarchitect.com,ID,Asia,South-eastern Asia,Indonesia,Jakarta,,Jakarta
180.235.151.42,4,1667,enduro.co.id,ID,Asia,South-eastern Asia,Indonesia,,,
111.68.113.55,4,543,enesers.com,ID,Asia,South-eastern Asia,Indonesia,,,
103.5.51.67,4,3,erlangga.co.id,ID,Asia,South-eastern Asia,Indonesia,Jakarta,,Jakarta
103.152.119.111,4,8,esqbs.ac.id,ID,Asia,South-eastern Asia,Indonesia,,,
103.28.12.164,4,70,expressindonews.com,ID,Asia,South-eastern Asia,Indonesia,,,
36.50.222.7,4,194761,febumj.ac.id,ID,Asia,South-eastern Asia,Indonesia,,,
178.16.134.179,4,7420,feg.world,ID,Asia,South-eastern Asia,Indonesia,Jakarta,,Jakarta
153.92.11.175,4,11,ferretstyle.com,ID,Asia,South-eastern Asia,Indonesia,Jakarta,,Jakarta
103.157.146.212,4,4,fff-marburg.org,ID,Asia,South-eastern Asia,Indonesia,,,
103.140.90.100,4,-22,fiercenyc.org,ID,Asia,South-eastern Asia,Indonesia,,,
103.145.227.110,4,16,fileburst.com,ID,Asia,South-eastern Asia,Indonesia,,,
203.175.8.52,4,1700,firenzepictures.com,ID,Asia,South-eastern Asia,Indonesia,,,
103.187.89.128,4,-1232556,fisip-unmul.ac.id,ID,Asia,South-eastern Asia,Indonesia,,,
180.235.151.52,4,7,fkunswagati.ac.id,ID,Asia,South-eastern Asia,Indonesia,,,
103.153.3.21,4,-374,floridashrooms.net,ID,Asia,South-eastern Asia,Indonesia,,,
89.213.211.226,4,-6,fohmint.com,ID,Asia,South-eastern Asia,Indonesia,East Java,,Surabaya
149.129.249.150,4,4,forclime.org,ID,Asia,South-eastern Asia,Indonesia,Jakarta,,Jakarta
103.163.138.10,4,6,fordive.id,ID,Asia,South-eastern Asia,Indonesia,,,
103.157.26.138,4,5,forumponsel.com,ID,Asia,South-eastern Asia,Indonesia,,,
103.145.227.118,4,8,fotocopy.co.id,ID,Asia,South-eastern Asia,Indonesia,,,
153.92.9.87,4,9,freebbble.com,ID,Asia,South-eastern Asia,Indonesia,Jakarta,,Jakarta
202.145.0.86,4,3259,ftii.id,ID,Asia,South-eastern Asia,Indonesia,Jakarta,,Jakarta
93.127.220.236,4,9,fumida.co.id,ID,Asia,South-eastern Asia,Indonesia,Jakarta,,Jakarta
202.52.147.175,4,-21,furnizing.com,ID,Asia,South-eastern Asia,Indonesia,,,
153.92.9.86,4,9,gangnam-dk.com,ID,Asia,South-eastern Asia,Indonesia,Jakarta,,Jakarta
34.101.248.254,4,3,gardaoto.com,ID,Asia,South-eastern Asia,Indonesia,Jakarta,,Jakarta
36.91.170.3,4,7,gbk.id,ID,Asia,South-eastern Asia,Indonesia,Jakarta,,Jakarta
103.252.101.172,4,-19291,globalexport.id,ID,Asia,South-eastern Asia,Indonesia,,,
202.67.14.118,4,45,goldfrance.com,ID,Asia,South-eastern Asia,Indonesia,Jakarta,,Jakarta
93.127.220.76,4,23,google-info.org,ID,Asia,South-eastern Asia,Indonesia,Jakarta,,Jakarta
203.175.8.112,4,9,gopariwisata.id,ID,Asia,South-eastern Asia,Indonesia,,,
103.93.56.136,4,-1,gotravelly.com,ID,Asia,South-eastern Asia,Indonesia,,,
103.185.53.179,4,242,grand-indonesia.com,ID,Asia,South-eastern Asia,Indonesia,,,
103.219.251.244,4,-12,greencomputercepu.com,ID,Asia,South-eastern Asia,Indonesia,,,
103.185.53.125,4,11,greendoorkitchen.com,ID,Asia,South-eastern Asia,Indonesia,,,
103.185.53.69,4,-23,greenpramukacity.id,ID,Asia,South-eastern Asia,Indonesia,,,
103.123.17.197,4,15,gudeg.net,ID,Asia,South-eastern Asia,Indonesia,,,
203.175.8.70,4,0,gudintek.com,ID,Asia,South-eastern Asia,Indonesia,,,
149.129.220.206,4,2,guesehat.com,ID,Asia,South-eastern Asia,Indonesia,Jakarta,,Jakarta
103.80.238.132,4,12,gunadarma.ac.id,ID,Asia,South-eastern Asia,Indonesia,West Java,,Bogor
203.161.184.55,4,-1,gunarto.org,ID,Asia,South-eastern Asia,Indonesia,,,
103.28.12.52,4,1785,hacking-tutorial.com,ID,Asia,South-eastern Asia,Indonesia,,,
103.112.122.24,4,8,hangtuah.ac.id,ID,Asia,South-eastern Asia,Indonesia,,,
203.175.8.118,4,3,hapindo.co.id,ID,Asia,South-eastern Asia,Indonesia,,,
153.92.10.48,4,10,harddiescargo.co.id,ID,Asia,South-eastern Asia,Indonesia,Jakarta,,Jakarta
103.185.53.118,4,-29,hargaplafonpvc.com,ID,Asia,South-eastern Asia,Indonesia,,,
77.37.78.143,4,10,hello88vina.org,ID,Asia,South-eastern Asia,Indonesia,Jakarta,,Jakarta
153.92.8.169,4,18,herbanit.net,ID,Asia,South-eastern Asia,Indonesia,Jakarta,,Jakarta
103.160.37.174,4,5,hermes-birkinoutlet.com,ID,Asia,South-eastern Asia,Indonesia,,,
108.136.82.80,4,6,herminahospitals.com,ID,Asia,South-eastern Asia,Indonesia,Jakarta,,Jakarta
108.137.192.173,4,-22,herminahospitals.com,ID,Asia,South-eastern Asia,Indonesia,Jakarta,,Jakarta
108.136.121.95,4,-27,herminahospitals.com,ID,Asia,South-eastern Asia,Indonesia,Jakarta,,Jakarta
153.92.11.173,4,11,hervent.co.id,ID,Asia,South-eastern Asia,Indonesia,Jakarta,,Jakarta
103.181.182.134,4,10,hipwee.com,ID,Asia,South-eastern Asia,Indonesia,Jakarta,,Jakarta
116.204.250.212,4,2,hollandbakery.co.id,ID,Asia,South-eastern Asia,Indonesia,,,
153.92.9.102,4,24,hollisterclothingstore.org,ID,Asia,South-eastern Asia,Indonesia,Jakarta,,Jakarta
150.129.18.20,4,7,hondaikmciledug.co.id,ID,Asia,South-eastern Asia,Indonesia,Jakarta,,Jakarta
103.217.209.30,4,2,hotelarjuna.com,ID,Asia,South-eastern Asia,Indonesia,Yogyakarta,,Sleman
153.92.10.191,4,1,hotelristorantegenziana.com,ID,Asia,South-eastern Asia,Indonesia,Jakarta,,Jakarta
103.16.133.130,4,3,htp.ac.id,ID,Asia,South-eastern Asia,Indonesia,Riau,,Dumai
180.178.102.3,4,-12,hypernet.co.id,ID,Asia,South-eastern Asia,Indonesia,Jakarta,,Jakarta
103.245.56.6,4,-935,iain-bone.ac.id,ID,Asia,South-eastern Asia,Indonesia,,,
36.93.7.181,4,6,iain-manado.ac.id,ID,Asia,South-eastern Asia,Indonesia,Jakarta,,Jakarta
103.15.226.115,4,-21,iainantasari.ac.id,ID,Asia,South-eastern Asia,Indonesia,,,
163.53.187.123,4,42871,iaincurup.ac.id,ID,Asia,South-eastern Asia,Indonesia,,,
103.136.17.50,4,-26,iainkediri.ac.id,ID,Asia,South-eastern Asia,Indonesia,,,
103.35.140.15,4,13326,iainkudus.ac.id,ID,Asia,South-eastern Asia,Indonesia,,,
103.189.49.57,4,24,iainlhokseumawe.ac.id,ID,Asia,South-eastern Asia,Indonesia,,,
103.162.55.44,4,12,iainmadura.ac.id,ID,Asia,South-eastern Asia,Indonesia,,,
202.10.35.33,4,10,iainpalopo.ac.id,ID,Asia,South-eastern Asia,Indonesia,,,
103.148.49.148,4,25,iainptk.ac.id,ID,Asia,South-eastern Asia,Indonesia,West Kalimantan,,Pontianak
103.189.168.58,4,10,iakntarutung.ac.id,ID,Asia,South-eastern Asia,Indonesia,,,
203.175.8.64,4,17,ibi-k57.ac.id,ID,Asia,South-eastern Asia,Indonesia,,,
103.247.8.47,4,25,ibmasmi.ac.id,ID,Asia,South-eastern Asia,Indonesia,Jakarta,,Jakarta
103.131.51.159,4,3,ibrahimy.ac.id,ID,Asia,South-eastern Asia,Indonesia,,,
108.136.63.59,4,-19,ibunda.id,ID,Asia,South-eastern Asia,Indonesia,Jakarta,,Jakarta
153.92.11.141,4,24,idean21.com,ID,Asia,South-eastern Asia,Indonesia,Jakarta,,Jakarta
103.30.147.26,4,5,idwebhost.com,ID,Asia,South-eastern Asia,Indonesia,,,
119.110.79.78,4,22,idws.id,ID,Asia,South-eastern Asia,Indonesia,Jakarta,,Jakarta
117.53.47.92,4,-17,ifi-id.com,ID,Asia,South-eastern Asia,Indonesia,,,
103.161.184.38,4,-16,ifile.cc,ID,Asia,South-eastern Asia,Indonesia,,,
153.92.11.199,4,12,iibr.org,ID,Asia,South-eastern Asia,Indonesia,Jakarta,,Jakarta
149.129.222.175,4,4,iienetwork.org,ID,Asia,South-eastern Asia,Indonesia,Jakarta,,Jakarta
45.64.3.23,4,14,iik.ac.id,ID,Asia,South-eastern Asia,Indonesia,,,
103.176.78.41,4,-20,ilmci.com,ID,Asia,South-eastern Asia,Indonesia,,,
117.54.5.10,4,787,indo.net.id,ID,Asia,South-eastern Asia,Indonesia,Jakarta,,Jakarta
103.82.241.52,4,4,indoindians.com,ID,Asia,South-eastern Asia,Indonesia,,,
103.157.96.33,4,11,indonesiaautoshow.com,ID,Asia,South-eastern Asia,Indonesia,,,
202.10.36.122,4,6,indonews.id,ID,Asia,South-eastern Asia,Indonesia,,,
103.107.100.91,4,360208,indotelko.com,ID,Asia,South-eastern Asia,Indonesia,,,
202.10.40.14,4,35,info-school.id,ID,Asia,South-eastern Asia,Indonesia,,,
103.117.56.160,4,34,infomedia.co.id,ID,Asia,South-eastern Asia,Indonesia,,,
103.247.10.113,4,2046,infoseni.id,ID,Asia,South-eastern Asia,Indonesia,Jakarta,,Jakarta
103.162.253.4,4,-3,inka.co.id,ID,Asia,South-eastern Asia,Indonesia,,,
153.92.8.171,4,11,institutpendidikan.ac.id,ID,Asia,South-eastern Asia,Indonesia,Jakarta,,Jakarta
103.20.190.48,4,2,insud.ac.id,ID,Asia,South-eastern Asia,Indonesia,,,
103.163.138.81,4,11,intek.co.id,ID,Asia,South-eastern Asia,Indonesia,,,
180.235.151.22,4,2520,intervisual.co.id,ID,Asia,South-eastern Asia,Indonesia,,,
103.157.146.83,4,-307861,ipbcirebon.ac.id,ID,Asia,South-eastern Asia,Indonesia,,,
120.89.92.80,4,8,ipdn.ac.id,ID,Asia,South-eastern Asia,Indonesia,,,
153.92.11.223,4,8,ipts.ac.id,ID,Asia,South-eastern Asia,Indonesia,Jakarta,,Jakarta
103.104.177.241,4,18,isi-ska.ac.id,ID,Asia,South-eastern Asia,Indonesia,,,
103.84.206.58,4,64,isi.ac.id,ID,Asia,South-eastern Asia,Indonesia,,,
45.112.125.201,4,62,istn.ac.id,ID,Asia,South-eastern Asia,Indonesia,Jakarta,,Jakarta
103.185.53.46,4,-56,itbu.ac.id,ID,Asia,South-eastern Asia,Indonesia,,,
103.247.120.11,4,11,itda.ac.id,ID,Asia,South-eastern Asia,Indonesia,Central Java,,Magelang
103.140.189.47,4,-101439,itn.net.id,ID,Asia,South-eastern Asia,Indonesia,Lampung,,Bandar Lampung
36.89.132.146,4,13,itp.ac.id,ID,Asia,South-eastern Asia,Indonesia,Jakarta,,Jakarta
103.139.175.54,4,2,iwa.co.id,ID,Asia,South-eastern Asia,Indonesia,,,
103.252.100.131,4,976,izzaweb.com,ID,Asia,South-eastern Asia,Indonesia,,,
111.221.43.120,4,-1561273,jagakarsa.ac.id,ID,Asia,South-eastern Asia,Indonesia,,,
202.124.198.73,4,32,jak-stik.ac.id,ID,Asia,South-eastern Asia,Indonesia,,,
153.92.11.132,4,8,jambimandiri.id,ID,Asia,South-eastern Asia,Indonesia,Jakarta,,Jakarta
202.52.146.251,4,-14,jamkridakalsel.co.id,ID,Asia,South-eastern Asia,Indonesia,,,
153.92.10.83,4,48,janabadra.ac.id,ID,Asia,South-eastern Asia,Indonesia,Jakarta,,Jakarta
103.175.206.33,4,729,jasablogroll.com,ID,Asia,South-eastern Asia,Indonesia,,,
103.114.164.175,4,-78,jasaraharja.co.id,ID,Asia,South-eastern Asia,Indonesia,,,
103.28.12.71,4,1738,jatam.org,ID,Asia,South-eastern Asia,Indonesia,,,
110.232.65.34,4,8,jawapos.co.id,ID,Asia,South-eastern Asia,Indonesia,,,
91.108.116.141,4,7,jeanyvesnau.com,ID,Asia,South-eastern Asia,Indonesia,Jakarta,,Jakarta
103.105.130.86,4,2,jiexpo.com,ID,Asia,South-eastern Asia,Indonesia,,,
110.239.68.51,4,8,jne.co.id,ID,Asia,South-eastern Asia,Indonesia,Jakarta,,Jakarta
193.203.173.99,4,11,journalfactor.org,ID,Asia,South-eastern Asia,Indonesia,Jakarta,,Jakarta
103.247.8.190,4,8,journals.id,ID,Asia,South-eastern Asia,Indonesia,Jakarta,,Jakarta
153.92.9.51,4,8,jusceritoto.com,ID,Asia,South-eastern Asia,Indonesia,Jakarta,,Jakarta
103.25.222.9,4,9,kajianpustaka.com,ID,Asia,South-eastern Asia,Indonesia,,,
202.152.42.99,4,19,kampusmelayu.ac.id,ID,Asia,South-eastern Asia,Indonesia,Jakarta,,Jakarta
202.6.235.131,4,-1193,karuniamedicalclinic.com,ID,Asia,South-eastern Asia,Indonesia,Jakarta,,Jakarta
103.163.138.120,4,27,karyamanunggaljati.co.id,ID,Asia,South-eastern Asia,Indonesia,,,
103.167.113.148,4,17,kawatama.com,ID,Asia,South-eastern Asia,Indonesia,,,
153.92.10.47,4,11,kebijakankesehatanindonesia.net,ID,Asia,South-eastern Asia,Indonesia,Jakarta,,Jakarta
36.50.77.46,4,-20,kejarfakta.co,ID,Asia,South-eastern Asia,Indonesia,,,
103.145.227.90,4,-16,keluargahamsa.com,ID,Asia,South-eastern Asia,Indonesia,,,
203.175.8.130,4,2,kembarnewstv.com,ID,Asia,South-eastern Asia,Indonesia,,,
103.251.44.184,4,3,kemenag-lumajang.com,ID,Asia,South-eastern Asia,Indonesia,,,
103.147.154.210,4,7,kepointernet.com,ID,Asia,South-eastern Asia,Indonesia,,,
103.153.3.9,4,791,ketoviaxreview.com,ID,Asia,South-eastern Asia,Indonesia,,,
103.107.103.115,4,5901,kimiafarma.co.id,ID,Asia,South-eastern Asia,Indonesia,,,
117.53.47.63,4,10,klik4it.com,ID,Asia,South-eastern Asia,Indonesia,,,
153.92.8.78,4,44,knl-es.com,ID,Asia,South-eastern Asia,Indonesia,Jakarta,,Jakarta
153.92.10.21,4,12,kobebryant-jersey.us,ID,Asia,South-eastern Asia,Indonesia,Jakarta,,Jakarta
195.35.55.79,4,11,kokanoodles.com,ID,Asia,South-eastern Asia,Indonesia,Jakarta,,Jakarta
202.146.1.138,4,99571,kompasgramedia.com,ID,Asia,South-eastern Asia,Indonesia,,,
103.175.217.226,4,28,konstruksi-jasa.com,ID,Asia,South-eastern Asia,Indonesia,,,
103.154.174.132,4,37,korlantas-polri.id,ID,Asia,South-eastern Asia,Indonesia,,,
103.153.3.18,4,1216,kreasibintangedukasi.co.id,ID,Asia,South-eastern Asia,Indonesia,,,
103.157.97.183,4,23,kreavi.com,ID,Asia,South-eastern Asia,Indonesia,,,
103.145.242.8,4,-4,krl.co.id,ID,Asia,South-eastern Asia,Indonesia,,,
93.127.220.251,4,7420,kspods.com,ID,Asia,South-eastern Asia,Indonesia,Jakarta,,Jakarta
103.216.188.11,4,-8,kubuku.id,ID,Asia,South-eastern Asia,Indonesia,,,
203.161.184.23,4,-38,la-derra.co.id,ID,Asia,South-eastern Asia,Indonesia,,,
91.108.117.98,4,8,lapasiondegabriel.com,ID,Asia,South-eastern Asia,Indonesia,Jakarta,,Jakarta
103.186.208.130,4,1723,lasixd.com,ID,Asia,South-eastern Asia,Indonesia,,,
103.16.198.18,4,1907,laurasimsskatehouse.org,ID,Asia,South-eastern Asia,Indonesia,,,
153.92.10.87,4,29,legalist.id,ID,Asia,South-eastern Asia,Indonesia,Jakarta,,Jakarta
153.92.10.84,4,8,lg.com.vn,ID,Asia,South-eastern Asia,Indonesia,Jakarta,,Jakarta
103.163.138.57,4,64,libur.co,ID,Asia,South-eastern Asia,Indonesia,,,
153.92.8.53,4,134,lin1988.online,ID,Asia,South-eastern Asia,Indonesia,Jakarta,,Jakarta
103.7.226.177,4,7,link-saya.com,ID,Asia,South-eastern Asia,Indonesia,,,
119.235.250.57,4,4,lion-industrial-park.com,ID,Asia,South-eastern Asia,Indonesia,West Java,,Depok
113.20.31.71,4,6,lippomallpuri.com,ID,Asia,South-eastern Asia,Indonesia,,,
153.92.11.156,4,8,lisboas.online,ID,Asia,South-eastern Asia,Indonesia,Jakarta,,Jakarta
153.92.9.170,4,8,listcry.com,ID,Asia,South-eastern Asia,Indonesia,Jakarta,,Jakarta
43.133.158.170,4,13,lister.co.id,ID,Asia,South-eastern Asia,Indonesia,Jakarta,,Jakarta
103.198.123.35,4,2,literasidigital.id,ID,Asia,South-eastern Asia,Indonesia,,,
103.234.209.162,4,3,literasidigital.id,ID,Asia,South-eastern Asia,Indonesia,,,
203.161.30.155,4,0,literasidigital.id,ID,Asia,South-eastern Asia,Indonesia,Lampung,,Bandar Lampung
116.66.205.83,4,40,literasidigital.id,ID,Asia,South-eastern Asia,Indonesia,,,
38.9.136.20,4,45,literasidigital.id,ID,Asia,South-eastern Asia,Indonesia,North Sumatra,,Medan
202.169.54.194,4,4,livoltek.id,ID,Asia,South-eastern Asia,Indonesia,Jakarta,,Jakarta
89.213.211.215,4,2,lolasix.info,ID,Asia,South-eastern Asia,Indonesia,East Java,,Surabaya
153.92.8.203,4,30,lolgifs.net,ID,Asia,South-eastern Asia,Indonesia,Jakarta,,Jakarta
103.245.38.74,4,15,lpem.org,ID,Asia,South-eastern Asia,Indonesia,,,
103.119.228.121,4,6,luckysamudra.com,ID,Asia,South-eastern Asia,Indonesia,,,
103.102.0.81,4,383,lucsa.id,ID,Asia,South-eastern Asia,Indonesia,,,
160.19.166.172,4,12,mahkotaregency.id,ID,Asia,South-eastern Asia,Indonesia,,,
153.92.11.147,4,8,mail-order-brides-reviews.com,ID,Asia,South-eastern Asia,Indonesia,Jakarta,,Jakarta
103.247.8.134,4,-4,mainole.com,ID,Asia,South-eastern Asia,Indonesia,Jakarta,,Jakarta
103.29.214.215,4,5,manarafurniture.com,ID,Asia,South-eastern Asia,Indonesia,,,
153.92.9.181,4,62,manusport.com,ID,Asia,South-eastern Asia,Indonesia,Jakarta,,Jakarta
103.84.207.243,4,14,marketing.co.id,ID,Asia,South-eastern Asia,Indonesia,,,
103.119.228.124,4,344,martyfriedman.com,ID,Asia,South-eastern Asia,Indonesia,,,
43.218.127.41,4,-21,mcdonalds.co.id,ID,Asia,South-eastern Asia,Indonesia,Jakarta,,Jakarta
103.196.146.3,4,71,medcom.id,ID,Asia,South-eastern Asia,Indonesia,,,
103.185.53.85,4,43,mediaeduka.com,ID,Asia,South-eastern Asia,Indonesia,,,
202.162.195.90,4,8,medistra.ac.id,ID,Asia,South-eastern Asia,Indonesia,North Sumatra,,Medan
153.92.13.228,4,7,megaxo.net,ID,Asia,South-eastern Asia,Indonesia,Jakarta,,Jakarta
103.28.12.79,4,-24,mekafa.com,ID,Asia,South-eastern Asia,Indonesia,,,
103.16.117.117,4,2,memora.id,ID,Asia,South-eastern Asia,Indonesia,,,
117.53.45.216,4,1,mentorbox.id,ID,Asia,South-eastern Asia,Indonesia,,,
103.58.111.162,4,34,mercubuana-yogya.ac.id,ID,Asia,South-eastern Asia,Indonesia,,,
103.185.53.66,4,-56,merpati.co.id,ID,Asia,South-eastern Asia,Indonesia,,,
202.52.146.180,4,6,mesinbahagiajaya.com,ID,Asia,South-eastern Asia,Indonesia,,,
103.163.161.106,4,4,methodist.ac.id,ID,Asia,South-eastern Asia,Indonesia,,,
103.150.92.234,4,3,metrobali.com,ID,Asia,South-eastern Asia,Indonesia,,,
103.93.130.234,4,21,metrotvnews.com,ID,Asia,South-eastern Asia,Indonesia,,,
103.152.52.92,4,-10,metrouniv.ac.id,ID,Asia,South-eastern Asia,Indonesia,,,
203.175.8.31,4,-16,mibit.co.id,ID,Asia,South-eastern Asia,Indonesia,,,
43.218.177.107,4,-11,mifx.com,ID,Asia,South-eastern Asia,Indonesia,Jakarta,,Jakarta
108.137.160.127,4,-22,mifx.com,ID,Asia,South-eastern Asia,Indonesia,Jakarta,,Jakarta
103.59.160.83,4,1462,minprazos.com,ID,Asia,South-eastern Asia,Indonesia,,,
103.234.210.233,4,24,misiyousha-mv.com,ID,Asia,South-eastern Asia,Indonesia,,,
103.179.86.50,4,61,modernoikairoi.com,ID,Asia,South-eastern Asia,Indonesia,,,
153.92.13.237,4,25,motorola-club.net,ID,Asia,South-eastern Asia,Indonesia,Jakarta,,Jakarta
153.92.9.192,4,8,mpescort.com,ID,Asia,South-eastern Asia,Indonesia,Jakarta,,Jakarta
77.37.80.85,4,11,mtpulisi.net,ID,Asia,South-eastern Asia,Indonesia,Jakarta,,Jakarta
101.50.3.100,4,13,museummacan.org,ID,Asia,South-eastern Asia,Indonesia,,,
103.84.194.113,4,2021,mypangandaran.com,ID,Asia,South-eastern Asia,Indonesia,,,
103.185.53.56,4,-37,mypertamina.id,ID,Asia,South-eastern Asia,Indonesia,,,
34.101.48.158,4,6,myrepublic.co.id,ID,Asia,South-eastern Asia,Indonesia,Jakarta,,Jakarta
103.7.226.16,4,34,mytrip.co.id,ID,Asia,South-eastern Asia,Indonesia,,,
103.247.11.107,4,13,naavagreen.com,ID,Asia,South-eastern Asia,Indonesia,Jakarta,,Jakarta
8.215.27.215,4,1,nagarilawang.id,ID,Asia,South-eastern Asia,Indonesia,Jakarta,,Jakarta
203.175.9.166,4,764,narada.id,ID,Asia,South-eastern Asia,Indonesia,,,
153.92.8.165,4,9,nattime.com,ID,Asia,South-eastern Asia,Indonesia,Jakarta,,Jakarta
36.50.77.52,4,-22,nawaksara.id,ID,Asia,South-eastern Asia,Indonesia,,,
103.77.104.8,4,105,neo.id,ID,Asia,South-eastern Asia,Indonesia,,,
103.77.105.7,4,3,neo.id,ID,Asia,South-eastern Asia,Indonesia,,,
103.52.146.122,4,702,neraca.co.id,ID,Asia,South-eastern Asia,Indonesia,,,
139.0.6.84,4,-28,netmedia.co.id,ID,Asia,South-eastern Asia,Indonesia,Jakarta,,Jakarta
35.219.73.198,4,69,netralnews.com,ID,Asia,South-eastern Asia,Indonesia,Jakarta,,Jakarta
103.247.11.165,4,323,ngidam.id,ID,Asia,South-eastern Asia,Indonesia,Jakarta,,Jakarta
103.55.39.107,4,-111,niarskincare.id,ID,Asia,South-eastern Asia,Indonesia,,,
153.92.11.121,4,15,niceindonesia.id,ID,Asia,South-eastern Asia,Indonesia,Jakarta,,Jakarta
153.92.9.148,4,13,niketn-pascher.fr,ID,Asia,South-eastern Asia,Indonesia,Jakarta,,Jakarta
154.62.111.4,4,14,nowjakarta.co.id,ID,Asia,South-eastern Asia,Indonesia,Jakarta,,Jakarta
103.253.212.250,4,11,nurrochma.com,ID,Asia,South-eastern Asia,Indonesia,,,
36.66.195.44,4,3,nusamandiri.ac.id,ID,Asia,South-eastern Asia,Indonesia,Jakarta,,Jakarta
35.219.43.86,4,-11,oaktech-nusantara.com,ID,Asia,South-eastern Asia,Indonesia,Jakarta,,Jakarta
103.147.154.188,4,3,ocbcnispventura.com,ID,Asia,South-eastern Asia,Indonesia,,,
93.127.219.206,4,7441,ojs.co.id,ID,Asia,South-eastern Asia,Indonesia,Jakarta,,Jakarta
103.160.37.195,4,-29,oketheme.com,ID,Asia,South-eastern Asia,Indonesia,,,
103.162.36.14,4,62,onsa-sipilunwim.ac.id,ID,Asia,South-eastern Asia,Indonesia,West Java,,Bandung
139.228.39.18,4,264,Ookla Speedtest Server 4802: sby-speedtest.link.net.id,ID,Asia,South-eastern Asia,Indonesia,East Java,,Surabaya
202.73.97.6,4,-4088711,Ookla Speedtest Server 5318: bdg-speedtest.link.net.id,ID,Asia,South-eastern Asia,Indonesia,,,
163.53.194.218,4,295,Ookla Speedtest Server 6434: sp2-sby.wowrack.co.id,ID,Asia,South-eastern Asia,Indonesia,,,
27.112.77.250,4,324,Ookla Speedtest Server 14176: speed.ideanet.net.id,ID,Asia,South-eastern Asia,Indonesia,,,
223.255.230.94,4,328,Ookla Speedtest Server 14325: corecgk2.tri.co.id,ID,Asia,South-eastern Asia,Indonesia,Jakarta,,Jakarta
103.163.36.11,4,318,Ookla Speedtest Server 14627: lamongan.wifihomedbn.my.id,ID,Asia,South-eastern Asia,Indonesia,Central Java,,Lamongan
103.162.63.63,4,-18314,Ookla Speedtest Server 15189: wonogiri.suryagirimedia.my.id,ID,Asia,South-eastern Asia,Indonesia,West Java,,Tasikmalaya
113.192.30.51,4,244,Ookla Speedtest Server 15194: demak.demakpedia.my.id,ID,Asia,South-eastern Asia,Indonesia,Central Java,,Demak
103.6.166.253,4,520924,Ookla Speedtest Server 15604: ooklaserver.hna.net.id,ID,Asia,South-eastern Asia,Indonesia,South Kalimantan,,Banjarmasin
179.61.140.2,4,298,Ookla Speedtest Server 15698: garuda.speedtest.kvm.systems,ID,Asia,South-eastern Asia,Indonesia,Jakarta,,Jakarta
103.169.9.8,4,209,Ookla Speedtest Server 15800: speedtest.jansae.net,ID,Asia,South-eastern Asia,Indonesia,East Java,,Ngawi
119.47.90.230,4,50571,Ookla Speedtest Server 16143: kudus.an-group.my.id,ID,Asia,South-eastern Asia,Indonesia,Central Java,,Kudus
103.214.187.17,4,271,Ookla Speedtest Server 16267: speedtest.theconnect.net.id,ID,Asia,South-eastern Asia,Indonesia,West Java,,Depok
103.229.131.1,4,-38649,Ookla Speedtest Server 16351: speedtest.interasolusindo.id,ID,Asia,South-eastern Asia,Indonesia,,,
103.124.137.169,4,-4763,Ookla Speedtest Server 16360: kediri.cellolink.my.id,ID,Asia,South-eastern Asia,Indonesia,East Java,,Kediri
103.178.153.224,4,280,Ookla Speedtest Server 16363: tte.skylink.web.id,ID,Asia,South-eastern Asia,Indonesia,North Maluku,,Ternate
103.222.254.209,4,242,Ookla Speedtest Server 16400: speedtest.gadzaly.com,ID,Asia,South-eastern Asia,Indonesia,East Kalimantan,,
202.65.116.73,4,130,Ookla Speedtest Server 16428: stembayo.sch.id,ID,Asia,South-eastern Asia,Indonesia,,,
202.4.186.17,4,326,Ookla Speedtest Server 16810: speedtest.usk.ac.id,ID,Asia,South-eastern Asia,Indonesia,,,
103.52.46.122,4,1890,Ookla Speedtest Server 16919: speedtest.primacom.id,ID,Asia,South-eastern Asia,Indonesia,,,
103.11.97.134,4,190,Ookla Speedtest Server 20264: speedtest-jkt1.skyline.net.id,ID,Asia,South-eastern Asia,Indonesia,West Java,,Arjuna
103.19.56.6,4,281,Ookla Speedtest Server 21296: speedtest.bitsnet.id,ID,Asia,South-eastern Asia,Indonesia,East Java,,Ngawi
115.178.181.201,4,211,Ookla Speedtest Server 23161: sby1-speedtest.smartfren.com,ID,Asia,South-eastern Asia,Indonesia,,,
103.107.245.77,4,-33438,Ookla Speedtest Server 23258: speedtest.jatengprov.go.id,ID,Asia,South-eastern Asia,Indonesia,Central Java,,Semarang
103.44.149.44,4,241,Ookla Speedtest Server 25149: speedtest.sti-group.co.id,ID,Asia,South-eastern Asia,Indonesia,Jakarta,,Jakarta
103.225.148.20,4,362,Ookla Speedtest Server 30712: speedtest.denpasar.globalxtreme.net,ID,Asia,South-eastern Asia,Indonesia,Bali,,Kuta
110.232.68.4,4,113516,Ookla Speedtest Server 31504: speedtest.sby.nusa.net.id,ID,Asia,South-eastern Asia,Indonesia,,,
103.242.104.93,4,114408,Ookla Speedtest Server 31925: speedtest1.lintas.net.id,ID,Asia,South-eastern Asia,Indonesia,West Java,,Sukabumi
103.140.130.247,4,63686,Ookla Speedtest Server 33200: speed.mmd.net.id,ID,Asia,South-eastern Asia,Indonesia,Banten,,Serang
103.183.99.30,4,320,Ookla Speedtest Server 39085: speedtest.lexxadata.net.id,ID,Asia,South-eastern Asia,Indonesia,East Java,,Tulungagung
202.125.95.165,4,307,Ookla Speedtest Server 39296: speedtest.gunadarma.ac.id,ID,Asia,South-eastern Asia,Indonesia,,,
116.68.163.163,4,346,Ookla Speedtest Server 40272: speedtestbtm.sdi.net.id,ID,Asia,South-eastern Asia,Indonesia,Riau,,Batam
103.159.194.195,4,345,Ookla Speedtest Server 41802: speedtest.giganet.net.id,ID,Asia,South-eastern Asia,Indonesia,Central Java,,Demak
103.147.246.243,4,365,Ookla Speedtest Server 41830: speed.plb.net.id,ID,Asia,South-eastern Asia,Indonesia,Banten,,Tangerang
103.106.115.67,4,366,Ookla Speedtest Server 43302: speedtest.sms.net.id,ID,Asia,South-eastern Asia,Indonesia,,,
103.161.164.162,4,-25513,Ookla Speedtest Server 43664: speedtest.gms.net.id,ID,Asia,South-eastern Asia,Indonesia,West Java,,Panumbangan
103.148.113.13,4,309,Ookla Speedtest Server 43885: speedtest.sid.net.id,ID,Asia,South-eastern Asia,Indonesia,West Java,,Babakangarut
103.5.51.42,4,353,Ookla Speedtest Server 44337: sp01-jkt.cloudraya.com,ID,Asia,South-eastern Asia,Indonesia,Jakarta,,Jakarta
103.155.169.45,4,-24751877,Ookla Speedtest Server 44790: speedtest.abys.net.id,ID,Asia,South-eastern Asia,Indonesia,West Java,,Karawang
103.134.222.250,4,352,Ookla Speedtest Server 45180: speedtest.jkt.glosindo.net.id,ID,Asia,South-eastern Asia,Indonesia,Yogyakarta,,Sleman
202.164.221.4,4,376,Ookla Speedtest Server 46060: speedtest.cyberakses.net.id,ID,Asia,South-eastern Asia,Indonesia,,,
103.161.128.132,4,236,Ookla Speedtest Server 46176: ookla-bgr.sandya.net,ID,Asia,South-eastern Asia,Indonesia,Banten,,South Tangerang
103.148.100.149,4,269,Ookla Speedtest Server 46193: speedtest.fly.net.id,ID,Asia,South-eastern Asia,Indonesia,Bali,,Denpasar
103.118.174.99,4,255,Ookla Speedtest Server 46823: id.speedtest.pedjoeangdigital.net,ID,Asia,South-eastern Asia,Indonesia,Jakarta,,
103.146.30.27,4,285,Ookla Speedtest Server 47054: speedtest-jkt.mvnet.co.id,ID,Asia,South-eastern Asia,Indonesia,,,
103.130.7.249,4,281,Ookla Speedtest Server 47068: s.lintasmaya.net.id,ID,Asia,South-eastern Asia,Indonesia,,,
103.125.19.205,4,258,Ookla Speedtest Server 47361: speedtest.javamedia.net.id,ID,Asia,South-eastern Asia,Indonesia,Banten,,Tangerang
103.40.120.134,4,242,Ookla Speedtest Server 47551: speedtest.jogjaringan.net.id,ID,Asia,South-eastern Asia,Indonesia,Central Java,,Klaten
103.170.25.4,4,262,Ookla Speedtest Server 47819: speedtest.nexa.net.id,ID,Asia,South-eastern Asia,Indonesia,,,
103.21.95.98,4,210,Ookla Speedtest Server 48161: speedtest.cic.net.id,ID,Asia,South-eastern Asia,Indonesia,,,
103.236.188.44,4,149,Ookla Speedtest Server 48237: speedtest.victory.net.id,ID,Asia,South-eastern Asia,Indonesia,Jakarta,,Jakarta
103.141.21.248,4,534,Ookla Speedtest Server 48386: bpnspeed.adizka.net.id,ID,Asia,South-eastern Asia,Indonesia,,,
103.172.1.26,4,274,Ookla Speedtest Server 48457: speedtest.cubiespot.net.id,ID,Asia,South-eastern Asia,Indonesia,East Java,,Pasuruan
103.145.180.210,4,214,Ookla Speedtest Server 48470: speedtest-banjarmasin.iconpln.net.id,ID,Asia,South-eastern Asia,Indonesia,South Kalimantan,,Banjarmasin
103.172.196.66,4,282919,Ookla Speedtest Server 48473: speedtest.csnet.id,ID,Asia,South-eastern Asia,Indonesia,East Java,,Banyuwangi
103.162.205.15,4,313,Ookla Speedtest Server 49178: speedtest2jkt.jiex.co.id,ID,Asia,South-eastern Asia,Indonesia,Central Java,,Magelang
103.105.52.100,4,221,Ookla Speedtest Server 49557: speedtest.jkt.megadata.net.id,ID,Asia,South-eastern Asia,Indonesia,Jakarta,,Jakarta
103.180.118.19,4,247,Ookla Speedtest Server 52674: speedtest.perekonomian.id,ID,Asia,South-eastern Asia,Indonesia,East Java,,Gresik
103.105.76.71,4,283,Ookla Speedtest Server 53038: speedtest07.garuda.net.id,ID,Asia,South-eastern Asia,Indonesia,East Java,,Kediri
103.148.28.234,4,228,Ookla Speedtest Server 53957: speedtest.dewata.net.id,ID,Asia,South-eastern Asia,Indonesia,Central Sulawesi,,Sigi
137.59.15.171,4,247,Ookla Speedtest Server 54181: speedtest-bku.cross.net.id,ID,Asia,South-eastern Asia,Indonesia,Central Sulawesi,,Morowali
103.175.236.211,4,183,Ookla Speedtest Server 54182: speedtest-jkt.marvatel.id,ID,Asia,South-eastern Asia,Indonesia,East Java,,Malang
202.52.141.58,4,272,Ookla Speedtest Server 54348: speedtest.aim.co.id,ID,Asia,South-eastern Asia,Indonesia,,,
103.218.166.58,4,247,Ookla Speedtest Server 54430: speed.plg.nusa.net.id,ID,Asia,South-eastern Asia,Indonesia,,,
150.129.18.12,4,267,Ookla Speedtest Server 54598: ookla.maxindo.net.id,ID,Asia,South-eastern Asia,Indonesia,Jakarta,,Jakarta
103.11.134.6,4,186,Ookla Speedtest Server 54663: speedtest.swin.net.id,ID,Asia,South-eastern Asia,Indonesia,Jakarta,,Jakarta
103.191.218.6,4,669795,Ookla Speedtest Server 54701: spd3.replay.net.id,ID,Asia,South-eastern Asia,Indonesia,Jakarta,,Kuningan Barat
210.87.89.3,4,219,Ookla Speedtest Server 54881: speedtest.smkn2blitar.sch.id,ID,Asia,South-eastern Asia,Indonesia,,,
103.157.78.138,4,173,Ookla Speedtest Server 54900: ookla.smi.net.id,ID,Asia,South-eastern Asia,Indonesia,Jakarta,,Jakarta
117.74.126.14,4,233,Ookla Speedtest Server 54916: ookla-sltg.grahamedia.net.id,ID,Asia,South-eastern Asia,Indonesia,Central Java,,Salatiga
103.151.33.101,4,111,Ookla Speedtest Server 55503: speedtest.kita.net.id,ID,Asia,South-eastern Asia,Indonesia,Central Java,,Surakarta
103.20.91.130,4,213,Ookla Speedtest Server 55755: sp02-sby.cloudraya.com,ID,Asia,South-eastern Asia,Indonesia,East Java,,Surabaya
203.29.26.18,4,109,Ookla Speedtest Server 55776: ookla.javahome.co.id,ID,Asia,South-eastern Asia,Indonesia,East Java,,Jember
103.46.11.2,4,205,Ookla Speedtest Server 55819: speedmlg.ldp.net.id,ID,Asia,South-eastern Asia,Indonesia,East Java,,Malang
103.80.241.151,4,200,Ookla Speedtest Server 55963: speedtest.comtelindo.com,ID,Asia,South-eastern Asia,Indonesia,,,
103.66.62.231,4,256,Ookla Speedtest Server 56072: speedtest2.bvs.net.id,ID,Asia,South-eastern Asia,Indonesia,,,
103.162.62.202,4,223,Ookla Speedtest Server 56425: jogja.speedtest.ring.net.id,ID,Asia,South-eastern Asia,Indonesia,West Java,,Tasikmalaya
103.154.231.18,4,3105,Ookla Speedtest Server 56693: speedtestlmg.dmt.net.id,ID,Asia,South-eastern Asia,Indonesia,Central Java,,Lamongan
103.184.66.110,4,303,Ookla Speedtest Server 56767: pandeglang.siber.net.id,ID,Asia,South-eastern Asia,Indonesia,Banten,,Pandeglang
103.28.12.53,4,930816,Ookla Speedtest Server 56815: jkt-1.fastcloud.id,ID,Asia,South-eastern Asia,Indonesia,,,
103.115.20.3,4,184,Ookla Speedtest Server 56845: djb.swnetwork.id,ID,Asia,South-eastern Asia,Indonesia,West Java,,Subang
103.124.138.45,4,262,Ookla Speedtest Server 56868: pwj-01.gmdp.net.id,ID,Asia,South-eastern Asia,Indonesia,Central Java,,Semarang
103.184.66.115,4,251,Ookla Speedtest Server 56985: panimbang.siber.net.id,ID,Asia,South-eastern Asia,Indonesia,Banten,,Pandeglang
103.100.173.155,4,201,Ookla Speedtest Server 57152: speedtestdps.mtmbali.com,ID,Asia,South-eastern Asia,Indonesia,Bali,,Denpasar
103.100.173.152,4,196,Ookla Speedtest Server 57188: speedtestbdg.mtmbali.com,ID,Asia,South-eastern Asia,Indonesia,Bali,,Banjar Pacung
121.100.27.6,4,328,Ookla Speedtest Server 57191: dns.bnetfiber.com,ID,Asia,South-eastern Asia,Indonesia,,,
103.100.172.50,4,306,Ookla Speedtest Server 57225: speedtestmtr.mtmbali.com,ID,Asia,South-eastern Asia,Indonesia,West Nusa Tenggara,,Mataram
103.126.172.8,4,245,Ookla Speedtest Server 57243: bwtest.mms.net.id,ID,Asia,South-eastern Asia,Indonesia,,,
103.100.172.51,4,337,Ookla Speedtest Server 57251: speedtestmdl.mtmbali.com,ID,Asia,South-eastern Asia,Indonesia,West Nusa Tenggara,,
103.179.217.14,4,555,Ookla Speedtest Server 57415: speedtestsby.ldm.net.id,ID,Asia,South-eastern Asia,Indonesia,East Java,,Surabaya
103.165.250.37,4,23138,Ookla Speedtest Server 57624: speedtest.auliasm.net,ID,Asia,South-eastern Asia,Indonesia,,,
103.186.35.42,4,339,Ookla Speedtest Server 57663: speedtest.viberlink.net.id,ID,Asia,South-eastern Asia,Indonesia,Jakarta,,Jakarta
103.99.27.125,4,395,Ookla Speedtest Server 57717: speedtestjkt.lintasnetwork.net,ID,Asia,South-eastern Asia,Indonesia,Banten,,Tangerang
58.147.185.234,4,339,Ookla Speedtest Server 57772: ooklaspeedtest.transhybrid.net.id,ID,Asia,South-eastern Asia,Indonesia,,,
103.220.22.42,4,301,Ookla Speedtest Server 58272: estt.fazanetwork.com,ID,Asia,South-eastern Asia,Indonesia,East Java,,Surabaya
202.6.233.140,4,407,Ookla Speedtest Server 58395: speedtest-sby.padinet.com,ID,Asia,South-eastern Asia,Indonesia,East Java,,Surabaya
103.189.110.22,4,2072,Ookla Speedtest Server 58480: ookla.morizt.id,ID,Asia,South-eastern Asia,Indonesia,West Java,,Bandung
202.138.224.16,4,6736,Ookla Speedtest Server 58481: speedtest-bdg.melsa.net.id,ID,Asia,South-eastern Asia,Indonesia,West Java,,Bandung
103.120.76.206,4,269,Ookla Speedtest Server 58725: speedtest.jakarta.hacinet.com,ID,Asia,South-eastern Asia,Indonesia,Banten,,Tangerang
103.145.34.37,4,362,Ookla Speedtest Server 58756: sptbdl.lintasdata.net.id,ID,Asia,South-eastern Asia,Indonesia,Lampung,,Umbulan Tebingsuluh
103.169.9.52,4,341,Ookla Speedtest Server 58785: speedtest.takalink.com,ID,Asia,South-eastern Asia,Indonesia,East Java,,Ngawi
103.186.33.4,4,374,Ookla Speedtest Server 58991: speedtest.ali-medianetwork.net,ID,Asia,South-eastern Asia,Indonesia,,,
103.156.75.20,4,333,Ookla Speedtest Server 59418: speedtest22.trikamedia.com,ID,Asia,South-eastern Asia,Indonesia,Bali,,Gianyar
120.89.91.22,4,245,Ookla Speedtest Server 59489: testspeed.gigainternet.my.id,ID,Asia,South-eastern Asia,Indonesia,West Java,,Cianjur
103.184.19.49,4,-455,Ookla Speedtest Server 59770: speedup.dasarata.com,ID,Asia,South-eastern Asia,Indonesia,East Java,,Malang
103.26.128.15,4,390,Ookla Speedtest Server 59869: speedtest-yk.jiex.co.id,ID,Asia,South-eastern Asia,Indonesia,Yogyakarta,,Yogyakarta
103.162.205.210,4,367,Ookla Speedtest Server 60103: speedtest-slmn.jiex.co.id,ID,Asia,South-eastern Asia,Indonesia,Central Java,,Magelang
103.97.224.211,4,257,Ookla Speedtest Server 60115: speedtest.sidnet.co.id,ID,Asia,South-eastern Asia,Indonesia,Central Java,,Kudus
103.162.205.158,4,399,Ookla Speedtest Server 60169: speedtest-psr.jiex.co.id,ID,Asia,South-eastern Asia,Indonesia,East Java,,Pasuruan
103.228.246.27,4,222814,Ookla Speedtest Server 60486: speedtest.gpm-madiun.id,ID,Asia,South-eastern Asia,Indonesia,East Java,,Ponorogo
103.215.60.250,4,368,Ookla Speedtest Server 61151: speedtest.uwais.id,ID,Asia,South-eastern Asia,Indonesia,,,
103.154.77.217,4,357,Ookla Speedtest Server 61251: jembut-balap.online,ID,Asia,South-eastern Asia,Indonesia,Yogyakarta,,Sleman
103.174.120.9,4,354,Ookla Speedtest Server 61302: speedtest.jangkaunet.com,ID,Asia,South-eastern Asia,Indonesia,,,
103.165.157.185,4,308,Ookla Speedtest Server 61325: speedtest.bks.megadata.net.id,ID,Asia,South-eastern Asia,Indonesia,West Java,,Bekasi
103.147.73.251,4,332,Ookla Speedtest Server 61398: blitar-speedtest.alfatindo.co.id,ID,Asia,South-eastern Asia,Indonesia,East Java,,Kediri
103.166.10.163,4,362,Ookla Speedtest Server 61450: speedtest.kgwifi.com,ID,Asia,South-eastern Asia,Indonesia,East Java,,Kediri
103.200.18.20,4,344,Ookla Speedtest Server 61693: speedtest.bth.palapa.net.id,ID,Asia,South-eastern Asia,Indonesia,Riau Islands,,
103.175.202.252,4,174720,Ookla Speedtest Server 61786: speedtest.ameeramegabuana.co.id,ID,Asia,South-eastern Asia,Indonesia,Jakarta,,
103.154.25.34,4,263,Ookla Speedtest Server 61862: testspeed.hijrah.net.id,ID,Asia,South-eastern Asia,Indonesia,West Nusa Tenggara,,Selong
103.123.62.116,4,164,Ookla Speedtest Server 61866: south.cloudhost.id,ID,Asia,South-eastern Asia,Indonesia,,,
103.144.18.11,4,324,Ookla Speedtest Server 61910: speedtest-jember.gasatek.co.id,ID,Asia,South-eastern Asia,Indonesia,East Java,,Jember
103.174.62.251,4,331,Ookla Speedtest Server 62148: speedtest.barelangnet.id,ID,Asia,South-eastern Asia,Indonesia,Riau Islands,,Tanjung Pinang
203.14.18.14,4,364,Ookla Speedtest Server 62194: speedtest0101.izzinet.id,ID,Asia,South-eastern Asia,Indonesia,Lampung,,Metro
103.155.246.222,4,298,Ookla Speedtest Server 62249: speedtest-skh.amanna.net.id,ID,Asia,South-eastern Asia,Indonesia,Central Java,,Sukoharjo
103.152.232.11,4,241,Ookla Speedtest Server 62258: speedtest.kingpolah.net,ID,Asia,South-eastern Asia,Indonesia,West Java,,Subang
103.215.229.29,4,182,Ookla Speedtest Server 62263: speedtest-sub.herzacloud.com,ID,Asia,South-eastern Asia,Indonesia,East Java,,Surabaya
103.234.28.55,4,303,Ookla Speedtest Server 62298: speedtest.agungnet.id,ID,Asia,South-eastern Asia,Indonesia,,,
103.166.158.60,4,295,Ookla Speedtest Server 62340: speedtest.timorlintas.net.id,ID,Asia,South-eastern Asia,Indonesia,West Java,,Bekasi
206.237.98.125,4,227,Ookla Speedtest Server 62366: sudiang.fiberskynet.my.id,ID,Asia,South-eastern Asia,Indonesia,,,
103.140.130.244,4,-5044,Ookla Speedtest Server 62380: speedtest-clg.mmd.net.id,ID,Asia,South-eastern Asia,Indonesia,Banten,,Serang
103.140.130.246,4,698038,Ookla Speedtest Server 62381: speedtest-pdg.mmd.net.id,ID,Asia,South-eastern Asia,Indonesia,Banten,,Serang
103.141.244.50,4,375,Ookla Speedtest Server 62414: speedtest2.lintasjaya.co.id,ID,Asia,South-eastern Asia,Indonesia,,,
103.248.9.7,4,327,Ookla Speedtest Server 62439: speedtest.flashnetid.com,ID,Asia,South-eastern Asia,Indonesia,West Java,,Babakangarut
157.10.254.29,4,234,Ookla Speedtest Server 62504: speedtest.risteknetworks.net.id,ID,Asia,South-eastern Asia,Indonesia,Jakarta,,Jakarta
103.158.250.103,4,231,Ookla Speedtest Server 62568: blitar.vcd.my.id,ID,Asia,South-eastern Asia,Indonesia,East Java,,Tulungagung
103.134.77.74,4,260,Ookla Speedtest Server 62637: speedtest.dps1.gerbangakses.id,ID,Asia,South-eastern Asia,Indonesia,Bali,,Denpasar
103.160.148.178,4,243,Ookla Speedtest Server 62795: jbbspeedtest.arsenet.co.id,ID,Asia,South-eastern Asia,Indonesia,East Java,,Jember
203.169.55.11,4,253,Ookla Speedtest Server 62817: speedtest.zinet.co.id,ID,Asia,South-eastern Asia,Indonesia,West Nusa Tenggara,,Tanjung
103.189.197.201,4,240,Ookla Speedtest Server 62877: speedtest.gst.net.id,ID,Asia,South-eastern Asia,Indonesia,Banten,,Serang
103.180.118.61,4,-195602,Ookla Speedtest Server 62910: lamongan.persadanetwork.my.id,ID,Asia,South-eastern Asia,Indonesia,East Java,,Gresik
182.253.188.154,4,566,Ookla Speedtest Server 63021: tkjspeed.smkn2kediri.sch.id,ID,Asia,South-eastern Asia,Indonesia,Jakarta,,Jakarta
103.210.123.234,4,211,Ookla Speedtest Server 63180: servertest.jnetwork.net.id,ID,Asia,South-eastern Asia,Indonesia,,,
103.153.190.19,4,233,Ookla Speedtest Server 63187: speedtest-jkt.winet.net.id,ID,Asia,South-eastern Asia,Indonesia,East Java,,Jember
103.174.66.35,4,63381,Ookla Speedtest Server 63219: speedtest.sby.act.net.id,ID,Asia,South-eastern Asia,Indonesia,East Java,,Surabaya
103.174.66.37,4,75795,Ookla Speedtest Server 63223: speedtest.bogor.act.net.id,ID,Asia,South-eastern Asia,Indonesia,Jakarta,,Jakarta
223.130.20.114,4,304,Ookla Speedtest Server 63397: speedbtm.solnet.net.id,ID,Asia,South-eastern Asia,Indonesia,Riau Islands,,Batam
103.67.49.27,4,363,Ookla Speedtest Server 63426: speedtest.nuansaaceh.net.id,ID,Asia,South-eastern Asia,Indonesia,Aceh,,Pidie
103.186.212.9,4,241,Ookla Speedtest Server 63456: speedtest.laros.ae,ID,Asia,South-eastern Asia,Indonesia,East Java,,Banyuwangi
103.52.6.18,4,360,Ookla Speedtest Server 63472: speedtest.nnc.co.id,ID,Asia,South-eastern Asia,Indonesia,,,
103.170.97.34,4,270,Ookla Speedtest Server 63509: ookla.globaldataaksespersada.net.id,ID,Asia,South-eastern Asia,Indonesia,East Java,,Pasuruan
103.164.235.250,4,230,Ookla Speedtest Server 63662: tesinternet.bantani.net.id,ID,Asia,South-eastern Asia,Indonesia,West Java,,Bandung
49.156.20.74,4,-84616,Ookla Speedtest Server 63839: speedtest5.palapa.net.id,ID,Asia,South-eastern Asia,Indonesia,East Java,,Banyuwangi
103.227.186.37,4,275,Ookla Speedtest Server 63849: speedtest.beenetcom.com,ID,Asia,South-eastern Asia,Indonesia,East Java,,Banyuwangi
103.148.192.26,4,93847,Ookla Speedtest Server 63907: jakarta.speedtest.widehostmedia.com,ID,Asia,South-eastern Asia,Indonesia,,,
103.211.5.2,4,207,Ookla Speedtest Server 63916: st.gafsolusindomedia.id,ID,Asia,South-eastern Asia,Indonesia,,,
103.87.148.102,4,252,Ookla Speedtest Server 63932: speeddmk.ldp.net.id,ID,Asia,South-eastern Asia,Indonesia,,,
103.242.106.113,4,255,Ookla Speedtest Server 63945: manyar.lintasnet.my.id,ID,Asia,South-eastern Asia,Indonesia,West Java,,Sukabumi
103.209.251.167,4,193,Ookla Speedtest Server 63955: speedtest.yesnet.net.id,ID,Asia,South-eastern Asia,Indonesia,,,
103.180.198.248,4,279,Ookla Speedtest Server 64111: speedtest.sawarga.net,ID,Asia,South-eastern Asia,Indonesia,West Java,,Sukabumi
223.25.106.242,4,13404,Ookla Speedtest Server 64128: speedtest.abr.megadata.net.id,ID,Asia,South-eastern Asia,Indonesia,Central Java,,Semarang
103.159.197.5,4,274,Ookla Speedtest Server 64154: speed-mdn.adip.co.id,ID,Asia,South-eastern Asia,Indonesia,North Sumatra,,Medan
116.0.4.126,4,148371,Ookla Speedtest Server 64184: speedtest.wifiku.net.id,ID,Asia,South-eastern Asia,Indonesia,Jakarta,,Jakarta
103.186.211.213,4,287,Ookla Speedtest Server 64298: speedtest.mgmnet.id,ID,Asia,South-eastern Asia,Indonesia,East Kalimantan,,Balikpapan
103.235.153.83,4,343,Ookla Speedtest Server 64378: ookla-sby.maxindo.net.id,ID,Asia,South-eastern Asia,Indonesia,East Java,,Surabaya
160.19.146.38,4,293,Ookla Speedtest Server 64571: speedtest1.taskasarananusantara.net,ID,Asia,South-eastern Asia,Indonesia,West Java,,Tasikmalaya
103.166.8.226,4,376,Ookla Speedtest Server 64591: karanganyar.aksessedaya.my.id,ID,Asia,South-eastern Asia,Indonesia,Central Java,,Karanganyar Wetankali
42.62.179.230,4,300,Ookla Speedtest Server 64684: bali.andira.net.id,ID,Asia,South-eastern Asia,Indonesia,West Nusa Tenggara,,Mataram
42.62.179.231,4,298,Ookla Speedtest Server 64685: mataram.andira.net.id,ID,Asia,South-eastern Asia,Indonesia,West Nusa Tenggara,,Mataram
175.111.96.127,4,-54134,Ookla Speedtest Server 64768: speedtest.wifipedia.net.id,ID,Asia,South-eastern Asia,Indonesia,East Java,,Banyuwangi
49.156.22.210,4,337,Ookla Speedtest Server 64941: speedtest6.palapa.net.id,ID,Asia,South-eastern Asia,Indonesia,Central Java,,Central Java
103.50.24.9,4,364,Ookla Speedtest Server 65022: bwtest.merahputih.net.id,ID,Asia,South-eastern Asia,Indonesia,Lampung,,Bandar Lampung
103.172.23.14,4,233,Ookla Speedtest Server: batang.tujuhlangit.net,ID,Asia,South-eastern Asia,Indonesia,,,
103.39.51.10,4,328,Ookla Speedtest Server: kuningan.megahub.id,ID,Asia,South-eastern Asia,Indonesia,West Java,,Kuningan
103.240.109.194,4,345,Ookla Speedtest Server: kupangspeedtest2.arsenet.co.id,ID,Asia,South-eastern Asia,Indonesia,,,
103.191.197.6,4,277,Ookla Speedtest Server: ookla-imy.palindo.id,ID,Asia,South-eastern Asia,Indonesia,West Java,,Indramayu
103.131.18.241,4,179,Ookla Speedtest Server: ookla-smg.gmdp.net.id,ID,Asia,South-eastern Asia,Indonesia,Banten,,Tangerang
103.111.118.130,4,266,Ookla Speedtest Server: ookla.upaz.net.id,ID,Asia,South-eastern Asia,Indonesia,East Java,,Tulungagung
103.191.218.5,4,55565,Ookla Speedtest Server: spd2.replay.net.id,ID,Asia,South-eastern Asia,Indonesia,Jakarta,,Kuningan Barat
36.37.71.10,4,168,Ookla Speedtest Server: speedtest-dps.idola.net.id,ID,Asia,South-eastern Asia,Indonesia,Bali,,Denpasar
103.163.111.34,4,315,Ookla Speedtest Server: speedtest.gas.net.id,ID,Asia,South-eastern Asia,Indonesia,West Java,,Tasikmalaya
103.51.205.246,4,308,Ookla Speedtest Server: speedtest.juwita.id,ID,Asia,South-eastern Asia,Indonesia,Central Java,,Sragen
103.158.121.20,4,144,Ookla Speedtest Server: speedtest.permana.my.id,ID,Asia,South-eastern Asia,Indonesia,,,
103.105.55.206,4,304,Ookla Speedtest Server: speedtest.pml.megadata.net.id,ID,Asia,South-eastern Asia,Indonesia,Central Java,,Pemalang
103.169.224.3,4,194,Ookla Speedtest Server: speedtest.superspace.id,ID,Asia,South-eastern Asia,Indonesia,,,
103.174.236.235,4,12,Ookla Speedtest Server: speedtest2.gesitnet.id,ID,Asia,South-eastern Asia,Indonesia,Central Java,,Brebes
202.169.224.48,4,203402,Ookla Speedtest Server: speedtest2.lifemedia.id,ID,Asia,South-eastern Asia,Indonesia,Yogyakarta,,Yogyakarta
160.19.146.65,4,185,Ookla Speedtest Server: speedtest2.taskasarananusantara.net,ID,Asia,South-eastern Asia,Indonesia,West Java,,Tasikmalaya
103.158.121.16,4,1,Ookla Speedtest Server: speedtest5.cdnnet.id,ID,Asia,South-eastern Asia,Indonesia,,,
103.242.104.86,4,113555,Ookla Speedtest Server: speedtest5.lintas.net.id,ID,Asia,South-eastern Asia,Indonesia,West Java,,Sukabumi
114.198.244.110,4,11,Ookla Speedtest Server: speedtestkdr.sdi.net.id,ID,Asia,South-eastern Asia,Indonesia,East Java,,Kediri
103.189.121.34,4,136,Ookla Speedtest Server: sptmdn.dbn.net.id,ID,Asia,South-eastern Asia,Indonesia,East Java,,Ponorogo
125.163.137.176,4,137,Ookla Speedtest Server: test.yapsidarussalam.or.id,ID,Asia,South-eastern Asia,Indonesia,East Java,,Malang
103.148.25.234,4,7,Ookla Speedtest Server: trenggalek.menaksopal.net.id,ID,Asia,South-eastern Asia,Indonesia,East Java,,Trenggalek
103.163.138.143,4,56,opendesa.id,ID,Asia,South-eastern Asia,Indonesia,,,
103.24.13.145,4,1938,optiktunggal.com,ID,Asia,South-eastern Asia,Indonesia,,,
178.16.133.158,4,15,oriskin.co.id,ID,Asia,South-eastern Asia,Indonesia,Jakarta,,Jakarta
195.35.54.183,4,10,ozstudies.com,ID,Asia,South-eastern Asia,Indonesia,Jakarta,,Jakarta
103.163.138.166,4,28,pandawakaryacitra.co.id,ID,Asia,South-eastern Asia,Indonesia,,,
45.126.58.103,4,46,pandi.id,ID,Asia,South-eastern Asia,Indonesia,,,
202.10.43.19,4,1387,paparonspizza.com,ID,Asia,South-eastern Asia,Indonesia,,,
103.84.207.223,4,57,parenting.co.id,ID,Asia,South-eastern Asia,Indonesia,,,
89.213.211.250,4,34,parre.org,ID,Asia,South-eastern Asia,Indonesia,East Java,,Surabaya
43.229.205.131,4,1985,paskib.com,ID,Asia,South-eastern Asia,Indonesia,,,
103.124.160.57,4,27,pcr.ac.id,ID,Asia,South-eastern Asia,Indonesia,,,
103.145.227.123,4,0,pe-we.com,ID,Asia,South-eastern Asia,Indonesia,,,
103.163.138.118,4,20,pengharapanallah.org,ID,Asia,South-eastern Asia,Indonesia,,,
103.141.105.231,4,19,perumnas.co.id,ID,Asia,South-eastern Asia,Indonesia,Central Kalimantan,,Palangkaraya
103.251.44.195,4,492,pewetekno.com,ID,Asia,South-eastern Asia,Indonesia,,,
153.92.8.86,4,24,phidji.com,ID,Asia,South-eastern Asia,Indonesia,Jakarta,,Jakarta
103.160.37.82,4,11,piknikdong.com,ID,Asia,South-eastern Asia,Indonesia,,,
103.163.138.88,4,21,pkctamansari.com,ID,Asia,South-eastern Asia,Indonesia,,,
154.62.111.57,4,14,plarealtalk.com,ID,Asia,South-eastern Asia,Indonesia,Jakarta,,Jakarta
103.145.227.169,4,27,plataran.com,ID,Asia,South-eastern Asia,Indonesia,,,
117.53.144.77,4,6,plimbi.com,ID,Asia,South-eastern Asia,Indonesia,,,
153.92.11.235,4,31,plotistan.pk,ID,Asia,South-eastern Asia,Indonesia,Jakarta,,Jakarta
103.153.3.23,4,6434,pnk.ac.id,ID,Asia,South-eastern Asia,Indonesia,,,
202.52.146.237,4,39,podshow.com,ID,Asia,South-eastern Asia,Indonesia,,,
103.109.209.137,4,56,polije.ac.id,ID,Asia,South-eastern Asia,Indonesia,,,
203.161.184.90,4,23,polikant.ac.id,ID,Asia,South-eastern Asia,Indonesia,,,
103.163.138.82,4,54,polikpsorong.ac.id,ID,Asia,South-eastern Asia,Indonesia,,,
114.6.41.77,4,26,polinema.ac.id,ID,Asia,South-eastern Asia,Indonesia,,,
103.214.229.107,4,21,polines.ac.id,ID,Asia,South-eastern Asia,Indonesia,,,
103.247.9.242,4,41,polines.ac.id,ID,Asia,South-eastern Asia,Indonesia,Jakarta,,Jakarta
202.154.56.16,4,16,polisma.ac.id,ID,Asia,South-eastern Asia,Indonesia,,,
36.91.26.132,4,37,politanikoe.ac.id,ID,Asia,South-eastern Asia,Indonesia,Jakarta,,Jakarta
202.180.24.30,4,311,politanisamarinda.ac.id,ID,Asia,South-eastern Asia,Indonesia,Jakarta,,Cijantung
103.190.214.42,4,12,poliupg.ac.id,ID,Asia,South-eastern Asia,Indonesia,,,
103.241.192.17,4,2042,polman-babel.ac.id,ID,Asia,South-eastern Asia,Indonesia,,,
103.48.27.111,4,18,polman-bandung.ac.id,ID,Asia,South-eastern Asia,Indonesia,,,
157.10.192.27,4,27,polnep.ac.id,ID,Asia,South-eastern Asia,Indonesia,,,
103.147.91.240,4,-6123,polnes.ac.id,ID,Asia,South-eastern Asia,Indonesia,,,
103.241.24.98,4,-1,polnustar.ac.id,ID,Asia,South-eastern Asia,Indonesia,,,
103.30.147.113,4,14,poltekganesha.ac.id,ID,Asia,South-eastern Asia,Indonesia,,,
103.166.147.6,4,44,poltekharber.ac.id,ID,Asia,South-eastern Asia,Indonesia,,,
36.92.22.174,4,2,poltekkes-banjarmasin.ac.id,ID,Asia,South-eastern Asia,Indonesia,Jakarta,,Jakarta
103.163.138.104,4,31,poltekkes-kaltim.ac.id,ID,Asia,South-eastern Asia,Indonesia,,,
103.75.137.30,4,11,poltekkes-mataram.ac.id,ID,Asia,South-eastern Asia,Indonesia,Jakarta,,Jakarta
118.97.164.21,4,582,poltekkes-medan.ac.id,ID,Asia,South-eastern Asia,Indonesia,Jakarta,,Jakarta
149.129.224.134,4,10,poltekkes-mks.ac.id,ID,Asia,South-eastern Asia,Indonesia,Jakarta,,Jakarta
36.88.250.230,4,2935,poltekkes-pontianak.ac.id,ID,Asia,South-eastern Asia,Indonesia,Banten,,South Tangerang
123.231.148.147,4,-9,poltekkes-smg.ac.id,ID,Asia,South-eastern Asia,Indonesia,,,
103.116.210.6,4,14,poltekkes-solo.ac.id,ID,Asia,South-eastern Asia,Indonesia,,,
103.140.189.21,4,26,poltekkes-tjk.ac.id,ID,Asia,South-eastern Asia,Indonesia,Lampung,,Bandar Lampung
103.247.10.229,4,35,poltekkesdepkes-sby.ac.id,ID,Asia,South-eastern Asia,Indonesia,Jakarta,,Jakarta
103.108.87.178,4,-143785,poltekkesjogja.ac.id,ID,Asia,South-eastern Asia,Indonesia,,,
103.131.50.23,4,403,poltekkesmamuju.ac.id,ID,Asia,South-eastern Asia,Indonesia,,,
103.152.89.212,4,67,poltekkespalembang.ac.id,ID,Asia,South-eastern Asia,Indonesia,,,
91.108.116.216,4,9,poltekkespalu.ac.id,ID,Asia,South-eastern Asia,Indonesia,Jakarta,,Jakarta
103.126.232.55,4,43,poltekkpsidoarjo.ac.id,ID,Asia,South-eastern Asia,Indonesia,,,
27.123.220.59,4,1177,polteknaker.ac.id,ID,Asia,South-eastern Asia,Indonesia,Jakarta,,Jakarta
103.53.79.24,4,7,poltekpel-sby.ac.id,ID,Asia,South-eastern Asia,Indonesia,Jakarta,,Jakarta
103.253.212.241,4,16,ponpes-salman-alfarisi.com,ID,Asia,South-eastern Asia,Indonesia,,,
153.92.9.202,4,12,postpa.id,ID,Asia,South-eastern Asia,Indonesia,Jakarta,,Jakarta
116.90.166.153,4,56741,powergen-software.com,ID,Asia,South-eastern Asia,Indonesia,Banten,,South Tangerang
103.30.195.25,4,183,ppak.co.id,ID,Asia,South-eastern Asia,Indonesia,,,
103.19.176.70,4,10,ppi.id,ID,Asia,South-eastern Asia,Indonesia,,,
203.175.8.54,4,4,ppsuika.ac.id,ID,Asia,South-eastern Asia,Indonesia,,,
103.6.206.118,4,37,practical-home-theater-guide.com,ID,Asia,South-eastern Asia,Indonesia,,,
203.161.184.66,4,-12,praktisi.ac.id,ID,Asia,South-eastern Asia,Indonesia,,,
103.30.147.79,4,17,prasetia.co.id,ID,Asia,South-eastern Asia,Indonesia,,,
149.129.217.203,4,1,prasetiyamulya.ac.id,ID,Asia,South-eastern Asia,Indonesia,Jakarta,,Jakarta
180.235.151.11,4,0,prassprasetio.com,ID,Asia,South-eastern Asia,Indonesia,,,
103.84.206.244,4,69,primayahospital.com,ID,Asia,South-eastern Asia,Indonesia,,,
153.92.9.209,4,36,privacy-cd.org,ID,Asia,South-eastern Asia,Indonesia,Jakarta,,Jakarta
103.165.152.63,4,62,privy.id,ID,Asia,South-eastern Asia,Indonesia,,,
103.185.53.110,4,-33,produsenplayground.net,ID,Asia,South-eastern Asia,Indonesia,,,
153.92.11.221,4,28,programhamil.id,ID,Asia,South-eastern Asia,Indonesia,Jakarta,,Jakarta
103.253.212.252,4,46,promosimediasosial.com,ID,Asia,South-eastern Asia,Indonesia,,,
103.56.148.179,4,26,PT Beon Intermedia,ID,Asia,South-eastern Asia,Indonesia,,,
103.134.220.158,4,13,PT Global Media Pratama Solusindo,ID,Asia,South-eastern Asia,Indonesia,Yogyakarta,,Sleman
172.232.226.146,4,-41,ptats.co.id,ID,Asia,South-eastern Asia,Indonesia,Jakarta,,Jakarta
114.7.156.214,4,-224349,ptkin.ac.id,ID,Asia,South-eastern Asia,Indonesia,Banten,,Tangerang
163.53.194.98,4,70,ptpn1.co.id,ID,Asia,South-eastern Asia,Indonesia,,,
216.244.94.22,4,25,ptpn12.com,ID,Asia,South-eastern Asia,Indonesia,Jakarta,,Jakarta
103.5.50.25,4,32,ptppa.co.id,ID,Asia,South-eastern Asia,Indonesia,,,
103.163.138.168,4,2,ptsky.co.id,ID,Asia,South-eastern Asia,Indonesia,,,
103.185.53.160,4,672,ptsmi.co.id,ID,Asia,South-eastern Asia,Indonesia,,,
202.52.146.169,4,29,ptspkemenagbantul.com,ID,Asia,South-eastern Asia,Indonesia,,,
34.101.234.103,4,28,pupuk-indonesia.com,ID,Asia,South-eastern Asia,Indonesia,Jakarta,,Jakarta
103.28.52.154,4,476,purnomoyusgiantorocenter.org,ID,Asia,South-eastern Asia,Indonesia,,,
175.111.88.230,4,9,pustakadata.id,ID,Asia,South-eastern Asia,Indonesia,,,
103.139.25.137,4,7372,pwmu.co,ID,Asia,South-eastern Asia,Indonesia,,,
43.230.7.86,4,-114635,qerja.com,ID,Asia,South-eastern Asia,Indonesia,,,
202.52.146.168,4,1,quotescover.com,ID,Asia,South-eastern Asia,Indonesia,,,
103.28.12.60,4,588,qwords.com,ID,Asia,South-eastern Asia,Indonesia,,,
103.84.119.190,4,89,radenfatah.ac.id,ID,Asia,South-eastern Asia,Indonesia,,,
34.101.192.54,4,122,radicalacademy.com,ID,Asia,South-eastern Asia,Indonesia,Jakarta,,Jakarta
103.56.149.132,4,-6,rakyatku.com,ID,Asia,South-eastern Asia,Indonesia,,,
103.16.198.185,4,1148,ramaakunting.com,ID,Asia,South-eastern Asia,Indonesia,,,
103.153.3.138,4,44,raratravel.id,ID,Asia,South-eastern Asia,Indonesia,,,
103.79.244.234,4,39,relawanjurnal.id,ID,Asia,South-eastern Asia,Indonesia,,,
103.28.12.222,4,2117,rescollacomm.com,ID,Asia,South-eastern Asia,Indonesia,,,
89.213.211.210,4,18,restaurantlacassoleta.com,ID,Asia,South-eastern Asia,Indonesia,East Java,,Surabaya
185.124.136.31,4,55,revaustinmiles.com,ID,Asia,South-eastern Asia,Indonesia,Jakarta,,Jakarta
77.37.80.2,4,31,rihaana.co.in,ID,Asia,South-eastern Asia,Indonesia,Jakarta,,Jakarta
103.53.192.105,4,-2225,rimbautama.com,ID,Asia,South-eastern Asia,Indonesia,,,
153.92.10.78,4,49,rochateider.com,ID,Asia,South-eastern Asia,Indonesia,Jakarta,,Jakarta
103.129.222.132,4,595,romisatriawahono.net,ID,Asia,South-eastern Asia,Indonesia,,,
103.146.203.15,4,-850,royaloxford.id,ID,Asia,South-eastern Asia,Indonesia,,,
103.27.207.142,4,67,rs-alirsyadsurabaya.co.id,ID,Asia,South-eastern Asia,Indonesia,,,
116.254.101.35,4,22,rs-hga.co.id,ID,Asia,South-eastern Asia,Indonesia,,,
103.163.138.11,4,9,rsabdhifamili.com,ID,Asia,South-eastern Asia,Indonesia,,,
203.161.184.118,4,5,rsinudemak.co.id,ID,Asia,South-eastern Asia,Indonesia,,,
103.147.154.185,4,5,rsupsoeradji.id,ID,Asia,South-eastern Asia,Indonesia,,,
103.77.107.196,4,3,rumahmesin.com,ID,Asia,South-eastern Asia,Indonesia,,,
103.253.215.26,4,12,rwb.pw,ID,Asia,South-eastern Asia,Indonesia,,,
111.68.119.114,4,-215,sabda.org,ID,Asia,South-eastern Asia,Indonesia,,,
153.92.13.242,4,28,sabun-aryanz.com,ID,Asia,South-eastern Asia,Indonesia,Jakarta,,Jakarta
202.10.43.3,4,1131,sakaryaescorttr.site,ID,Asia,South-eastern Asia,Indonesia,,,
160.19.166.77,4,55,salsawisata.com,ID,Asia,South-eastern Asia,Indonesia,,,
203.175.8.108,4,1,samleinad.com,ID,Asia,South-eastern Asia,Indonesia,,,
103.58.100.137,4,113639,sampoernauniversity.ac.id,ID,Asia,South-eastern Asia,Indonesia,,,
103.253.212.243,4,8,santika.com,ID,Asia,South-eastern Asia,Indonesia,,,
153.92.11.101,4,13,sapporovn.com,ID,Asia,South-eastern Asia,Indonesia,Jakarta,,Jakarta
153.92.9.208,4,31,satisfashion.org,ID,Asia,South-eastern Asia,Indonesia,Jakarta,,Jakarta
103.7.226.211,4,53,satriasafety.com,ID,Asia,South-eastern Asia,Indonesia,,,
103.191.92.134,4,-34,schoolmedia.id,ID,Asia,South-eastern Asia,Indonesia,,,
118.98.214.133,4,12,seamolec.org,ID,Asia,South-eastern Asia,Indonesia,,,
103.123.62.41,4,-260,sekawan-org.id,ID,Asia,South-eastern Asia,Indonesia,,,
49.128.186.92,4,-114,seputarsemarang.com,ID,Asia,South-eastern Asia,Indonesia,,,
103.153.3.146,4,1687,serambimekkah.ac.id,ID,Asia,South-eastern Asia,Indonesia,,,
202.56.167.114,4,-3,setiabudi.ac.id,ID,Asia,South-eastern Asia,Indonesia,Yogyakarta,,Yogyakarta
103.16.199.85,4,886,sewaalatpestabandung.com,ID,Asia,South-eastern Asia,Indonesia,,,
103.55.39.43,4,38827,sewazoom.com,ID,Asia,South-eastern Asia,Indonesia,,,
103.146.203.5,4,-24,siaranbali.com,ID,Asia,South-eastern Asia,Indonesia,,,
34.101.131.234,4,41,sinarmas.co.id,ID,Asia,South-eastern Asia,Indonesia,Jakarta,,Jakarta
103.241.192.66,4,1179,sinus.ac.id,ID,Asia,South-eastern Asia,Indonesia,,,
103.123.62.104,4,20,siperi-malteng.id,ID,Asia,South-eastern Asia,Indonesia,,,
178.16.133.219,4,7,soccer-links.com,ID,Asia,South-eastern Asia,Indonesia,Jakarta,,Jakarta
153.92.9.197,4,11,socialproofd.com,ID,Asia,South-eastern Asia,Indonesia,Jakarta,,Jakarta
103.119.228.117,4,902,soechi.com,ID,Asia,South-eastern Asia,Indonesia,,,
103.163.138.107,4,7,soliner.co.id,ID,Asia,South-eastern Asia,Indonesia,,,
103.7.226.91,4,741,soludia.co.id,ID,Asia,South-eastern Asia,Indonesia,,,
103.55.39.194,4,426,solugram.com,ID,Asia,South-eastern Asia,Indonesia,,,
172.232.238.42,4,-42,spectreofcommunism.boo,ID,Asia,South-eastern Asia,Indonesia,Jakarta,,Jakarta
103.157.97.104,4,25,sr28jambinews.com,ID,Asia,South-eastern Asia,Indonesia,,,
103.163.138.117,4,51,stahnmpukuturan.ac.id,ID,Asia,South-eastern Asia,Indonesia,,,
103.251.44.248,4,2,stai-alyasini.ac.id,ID,Asia,South-eastern Asia,Indonesia,,,
103.66.86.235,4,862,stai-br.ac.id,ID,Asia,South-eastern Asia,Indonesia,,,
103.163.138.74,4,2,stai-ibnurusyd.ac.id,ID,Asia,South-eastern Asia,Indonesia,,,
103.7.226.206,4,196,staiat.ac.id,ID,Asia,South-eastern Asia,Indonesia,,,
103.35.140.41,4,13325,stainkudus.ac.id,ID,Asia,South-eastern Asia,Indonesia,,,
36.95.134.26,4,1157,stainmajene.ac.id,ID,Asia,South-eastern Asia,Indonesia,Central Java,,Kandangan
103.120.65.71,4,-2,staiypipainan.ac.id,ID,Asia,South-eastern Asia,Indonesia,,,
202.10.40.54,4,16,statusgue.com,ID,Asia,South-eastern Asia,Indonesia,,,
202.52.146.249,4,6,stebilampung.ac.id,ID,Asia,South-eastern Asia,Indonesia,,,
203.175.9.141,4,1054,stei.ac.id,ID,Asia,South-eastern Asia,Indonesia,,,
153.92.10.164,4,87,stempelwarna.com,ID,Asia,South-eastern Asia,Indonesia,Jakarta,,Jakarta
45.64.98.218,4,66,stiakdmerauke.ac.id,ID,Asia,South-eastern Asia,Indonesia,,,
103.28.12.226,4,2083,stialanbandung.ac.id,ID,Asia,South-eastern Asia,Indonesia,,,
203.161.184.7,4,-14,stiatabalong.ac.id,ID,Asia,South-eastern Asia,Indonesia,,,
203.175.9.64,4,6,stie-aas.ac.id,ID,Asia,South-eastern Asia,Indonesia,,,
203.175.9.49,4,-4,stie-atmabhakti.ac.id,ID,Asia,South-eastern Asia,Indonesia,,,
203.161.184.20,4,-6,stieamkop.ac.id,ID,Asia,South-eastern Asia,Indonesia,,,
153.92.10.11,4,8,stieamm.ac.id,ID,Asia,South-eastern Asia,Indonesia,Jakarta,,Jakarta
103.147.154.179,4,-5,stiebangkinang.ac.id,ID,Asia,South-eastern Asia,Indonesia,,,
103.247.11.88,4,804,stiecirebon.ac.id,ID,Asia,South-eastern Asia,Indonesia,Jakarta,,Jakarta
103.247.8.174,4,20,stiedewantara.ac.id,ID,Asia,South-eastern Asia,Indonesia,Jakarta,,Jakarta
202.52.146.239,4,4,stiedharmaputra-smg.ac.id,ID,Asia,South-eastern Asia,Indonesia,,,
103.58.102.40,4,3,stiesabang.ac.id,ID,Asia,South-eastern Asia,Indonesia,,,
103.145.227.179,4,24,stiesnu-bengkulu.ac.id,ID,Asia,South-eastern Asia,Indonesia,,,
45.64.255.130,4,181341,stihriau.ac.id,ID,Asia,South-eastern Asia,Indonesia,,,
103.247.10.176,4,939,stikes-ghs.ac.id,ID,Asia,South-eastern Asia,Indonesia,Jakarta,,Jakarta
103.181.182.82,4,64,stikes-mataram.ac.id,ID,Asia,South-eastern Asia,Indonesia,Jakarta,,Jakarta
49.50.10.99,4,21,stikesalirsyadclp.ac.id,ID,Asia,South-eastern Asia,Indonesia,,,
103.79.244.89,4,58,stikesdirgahayusamarinda.ac.id,ID,Asia,South-eastern Asia,Indonesia,,,
36.50.77.66,4,14,stikeskeluargabunda.ac.id,ID,Asia,South-eastern Asia,Indonesia,,,
103.28.12.74,4,2612,stikesmi.ac.id,ID,Asia,South-eastern Asia,Indonesia,,,
103.75.101.58,4,15317,stikesmitrakeluarga.ac.id,ID,Asia,South-eastern Asia,Indonesia,West Java,,Bandung
103.56.148.11,4,3,stikesmm.ac.id,ID,Asia,South-eastern Asia,Indonesia,,,
103.247.11.133,4,70,stikestulungagung.ac.id,ID,Asia,South-eastern Asia,Indonesia,Jakarta,,Jakarta
103.148.191.63,4,74017,stikom-bali.ac.id,ID,Asia,South-eastern Asia,Indonesia,,,
103.30.145.100,4,7675,stikomtb.ac.id,ID,Asia,South-eastern Asia,Indonesia,,,
153.92.10.77,4,71,stikpartoraja.ac.id,ID,Asia,South-eastern Asia,Indonesia,Jakarta,,Jakarta
103.139.175.148,4,557,stipram.ac.id,ID,Asia,South-eastern Asia,Indonesia,,,
103.112.245.19,4,664,stit-lingga.ac.id,ID,Asia,South-eastern Asia,Indonesia,,,
103.112.245.9,4,1627,stitpemalang.ac.id,ID,Asia,South-eastern Asia,Indonesia,,,
36.50.77.81,4,16,stitsibawaihimutawalli.ac.id,ID,Asia,South-eastern Asia,Indonesia,,,
202.10.43.4,4,1159,stkippgri-situbondo.ac.id,ID,Asia,South-eastern Asia,Indonesia,,,
203.161.184.91,4,-8,stmik-budidarma.ac.id,ID,Asia,South-eastern Asia,Indonesia,,,
103.30.147.118,4,17,stmikdumai.ac.id,ID,Asia,South-eastern Asia,Indonesia,,,
34.101.102.27,4,65,streamlinemusicblog.com,ID,Asia,South-eastern Asia,Indonesia,Jakarta,,Jakarta
103.123.17.195,4,877,sttberitahidup.ac.id,ID,Asia,South-eastern Asia,Indonesia,,,
157.15.77.18,4,33,stttekstil.ac.id,ID,Asia,South-eastern Asia,Indonesia,,,
103.16.139.10,4,52,studykarona.com,ID,Asia,South-eastern Asia,Indonesia,Jakarta,,Jakarta
203.175.8.93,4,7,sugalilawyer.com,ID,Asia,South-eastern Asia,Indonesia,,,
202.148.12.230,4,19,tac.link,ID,Asia,South-eastern Asia,Indonesia,East Java,,Surabaya
153.92.10.184,4,7,taiwansouji.com.tw,ID,Asia,South-eastern Asia,Indonesia,Jakarta,,Jakarta
153.92.8.21,4,8,tak.ru,ID,Asia,South-eastern Asia,Indonesia,Jakarta,,Jakarta
119.2.43.40,4,-25186343,tamanrasuna.id,ID,Asia,South-eastern Asia,Indonesia,Jakarta,,Jakarta
203.175.9.150,4,1486,tanjidor.id,ID,Asia,South-eastern Asia,Indonesia,,,
202.74.239.23,4,1294,tanyadigital.com,ID,Asia,South-eastern Asia,Indonesia,South Sumatra,,Palembang
103.147.154.207,4,27,tebe.us,ID,Asia,South-eastern Asia,Indonesia,,,
153.92.11.140,4,56,techking.id,ID,Asia,South-eastern Asia,Indonesia,Jakarta,,Jakarta
103.179.86.94,4,92,teknobgt.com,ID,Asia,South-eastern Asia,Indonesia,,,
103.127.96.112,4,32,telset.id,ID,Asia,South-eastern Asia,Indonesia,,,
108.137.105.174,4,-4,tempo.co,ID,Asia,South-eastern Asia,Indonesia,Jakarta,,Jakarta
108.137.111.117,4,27,tempo.co,ID,Asia,South-eastern Asia,Indonesia,Jakarta,,Jakarta
103.147.154.206,4,9,tentangkopi.co.id,ID,Asia,South-eastern Asia,Indonesia,,,
103.179.86.57,4,-1,tepad.id,ID,Asia,South-eastern Asia,Indonesia,,,
103.247.8.185,4,1601,teralink.net.id,ID,Asia,South-eastern Asia,Indonesia,Jakarta,,Jakarta
103.55.39.182,4,240,tezcapitalfinance.co.id,ID,Asia,South-eastern Asia,Indonesia,,,
103.163.138.26,4,2,thealmostdone.com,ID,Asia,South-eastern Asia,Indonesia,,,
43.230.131.19,4,-18,thecrewhotel.co.id,ID,Asia,South-eastern Asia,Indonesia,,,
203.175.8.151,4,-1,thestationatwestside.biz,ID,Asia,South-eastern Asia,Indonesia,,,
203.161.184.27,4,-24,tkkemalabhayangkari21.com,ID,Asia,South-eastern Asia,Indonesia,,,
103.219.6.24,4,1,tni-au.mil.id,ID,Asia,South-eastern Asia,Indonesia,,,
103.147.154.184,4,0,tofindohub.com,ID,Asia,South-eastern Asia,Indonesia,,,
153.92.9.68,4,10,tonecvision.com,ID,Asia,South-eastern Asia,Indonesia,Jakarta,,Jakarta
103.55.39.181,4,1075,transmed.co.id,ID,Asia,South-eastern Asia,Indonesia,,,
103.123.62.101,4,-270,traveletc.id,ID,Asia,South-eastern Asia,Indonesia,,,
103.67.79.123,4,56,trimitraprawaraland.co.id,ID,Asia,South-eastern Asia,Indonesia,,,
103.49.68.131,4,37,trisakti.ac.id,ID,Asia,South-eastern Asia,Indonesia,,,
153.92.13.215,4,25,triumphstudio.com.au,ID,Asia,South-eastern Asia,Indonesia,Jakarta,,Jakarta
153.92.10.98,4,12,truediamond.co.uk,ID,Asia,South-eastern Asia,Indonesia,Jakarta,,Jakarta
153.92.13.206,4,16,truereligionjeans.org.uk,ID,Asia,South-eastern Asia,Indonesia,Jakarta,,Jakarta
103.82.164.50,4,72221,trunojoyo.ac.id,ID,Asia,South-eastern Asia,Indonesia,,,
103.6.53.54,4,-254,tuhanyesus.org,ID,Asia,South-eastern Asia,Indonesia,,,
103.55.39.44,4,-24,tunasgestun.com,ID,Asia,South-eastern Asia,Indonesia,,,
103.214.112.18,4,2120,tvsekolah.id,ID,Asia,South-eastern Asia,Indonesia,,,
103.19.180.110,4,2,uad.ac.id,ID,Asia,South-eastern Asia,Indonesia,,,
175.45.184.69,4,16,ub.ac.id,ID,Asia,South-eastern Asia,Indonesia,East Java,,Malang
203.166.217.50,4,17,ubhara.ac.id,ID,Asia,South-eastern Asia,Indonesia,,,
119.235.210.188,4,4,ubharajaya.ac.id,ID,Asia,South-eastern Asia,Indonesia,Jakarta,,Jakarta
103.66.86.234,4,1310,ubibanyuwangi.ac.id,ID,Asia,South-eastern Asia,Indonesia,,,
202.162.205.236,4,-19,ubl.ac.id,ID,Asia,South-eastern Asia,Indonesia,,,
103.247.11.106,4,3,ubpkarawang.ac.id,ID,Asia,South-eastern Asia,Indonesia,Jakarta,,Jakarta
203.161.184.21,4,-1,ucb.ac.id,ID,Asia,South-eastern Asia,Indonesia,,,
175.111.88.3,4,4,ugm.ac.id,ID,Asia,South-eastern Asia,Indonesia,,,
203.161.184.46,4,3,ugmclub.com,ID,Asia,South-eastern Asia,Indonesia,,,
103.161.192.17,4,1,uho.ac.id,ID,Asia,South-eastern Asia,Indonesia,,,
210.210.130.243,4,9,uigm.ac.id,ID,Asia,South-eastern Asia,Indonesia,Banten,,Tangerang
182.253.66.44,4,-30,uij.ac.id,ID,Asia,South-eastern Asia,Indonesia,,,
103.158.196.77,4,8,uika-bogor.ac.id,ID,Asia,South-eastern Asia,Indonesia,,,
103.17.76.3,4,3,uin-malang.ac.id,ID,Asia,South-eastern Asia,Indonesia,East Java,,Malang
103.25.55.6,4,-29,uin-suka.ac.id,ID,Asia,South-eastern Asia,Indonesia,Yogyakarta,,Yogyakarta
203.175.8.4,4,3,uinbanten.ac.id,ID,Asia,South-eastern Asia,Indonesia,,,
36.91.69.171,4,-11,uinfasbengkulu.ac.id,ID,Asia,South-eastern Asia,Indonesia,West Java,,Depok
103.91.87.66,4,2,uinib.ac.id,ID,Asia,South-eastern Asia,Indonesia,,,
103.65.236.164,4,23,uinjambi.ac.id,ID,Asia,South-eastern Asia,Indonesia,,,
103.229.202.102,4,-26,uinjkt.ac.id,ID,Asia,South-eastern Asia,Indonesia,,,
103.161.253.28,4,10,uinkhas.ac.id,ID,Asia,South-eastern Asia,Indonesia,,,
103.85.95.30,4,25,uinmataram.ac.id,ID,Asia,South-eastern Asia,Indonesia,,,
103.167.2.32,4,14,uinsalatiga.ac.id,ID,Asia,South-eastern Asia,Indonesia,,,
103.211.49.132,4,15,uinsby.ac.id,ID,Asia,South-eastern Asia,Indonesia,East Java,,Sidoarjo
103.55.33.49,4,622,uinsgd.ac.id,ID,Asia,South-eastern Asia,Indonesia,,,
103.159.111.46,4,-5,uinsu.ac.id,ID,Asia,South-eastern Asia,Indonesia,,,
103.165.239.201,4,28564781,uisu.ac.id,ID,Asia,South-eastern Asia,Indonesia,Jakarta,,Jakarta
202.78.200.98,4,-31,ukdc.ac.id,ID,Asia,South-eastern Asia,Indonesia,Banten,,South Tangerang
117.20.56.218,4,1,ukh.ac.id,ID,Asia,South-eastern Asia,Indonesia,Yogyakarta,,Sleman
103.247.11.180,4,21,ukipaulus.ac.id,ID,Asia,South-eastern Asia,Indonesia,Jakarta,,Jakarta
36.92.193.60,4,-301,ulb.ac.id,ID,Asia,South-eastern Asia,Indonesia,East Java,,Gresik
103.23.232.90,4,4,ulm.ac.id,ID,Asia,South-eastern Asia,Indonesia,South Kalimantan,,Banjarmasin
202.52.137.2,4,55,um.ac.id,ID,Asia,South-eastern Asia,Indonesia,,,
202.52.137.1,4,26,um.ac.id,ID,Asia,South-eastern Asia,Indonesia,,,
36.91.91.194,4,10190,umb.ac.id,ID,Asia,South-eastern Asia,Indonesia,West Java,,Depok
153.92.11.103,4,13,umberau.ac.id,ID,Asia,South-eastern Asia,Indonesia,Jakarta,,Jakarta
103.139.186.27,4,-32557,umku.ac.id,ID,Asia,South-eastern Asia,Indonesia,,,
103.174.223.122,4,18,ummetro.ac.id,ID,Asia,South-eastern Asia,Indonesia,,,
103.146.203.123,4,-547,ummipedia.com,ID,Asia,South-eastern Asia,Indonesia,,,
103.79.91.35,4,1,umpo.ac.id,ID,Asia,South-eastern Asia,Indonesia,,,
116.197.133.193,4,3,umpr.ac.id,ID,Asia,South-eastern Asia,Indonesia,Jakarta,,Jakarta
202.91.10.49,4,6,umpwr.ac.id,ID,Asia,South-eastern Asia,Indonesia,,,
103.211.161.32,4,1,umrahjannahfirdaus.com,ID,Asia,South-eastern Asia,Indonesia,,,
103.247.11.100,4,10,umsb.ac.id,ID,Asia,South-eastern Asia,Indonesia,Jakarta,,Jakarta
103.139.25.68,4,7378,umsida.ac.id,ID,Asia,South-eastern Asia,Indonesia,,,
36.88.21.22,4,1,umsu.ac.id,ID,Asia,South-eastern Asia,Indonesia,West Java,,Purwakarta
103.245.38.182,4,8,unaimwamena.ac.id,ID,Asia,South-eastern Asia,Indonesia,,,
210.57.208.253,4,12,unair.ac.id,ID,Asia,South-eastern Asia,Indonesia,East Java,,Surabaya
36.50.77.32,4,-15,unanda.ac.id,ID,Asia,South-eastern Asia,Indonesia,,,
203.128.81.179,4,-23,unas.ac.id,ID,Asia,South-eastern Asia,Indonesia,Jakarta,,Ragunan
203.194.114.66,4,30,unbi.ac.id,ID,Asia,South-eastern Asia,Indonesia,,,
203.175.9.19,4,1031,uncp.ac.id,ID,Asia,South-eastern Asia,Indonesia,,,
103.146.62.18,4,290,undana.ac.id,ID,Asia,South-eastern Asia,Indonesia,,,
103.157.146.122,4,-307848,undangkami.com,ID,Asia,South-eastern Asia,Indonesia,,,
8.215.8.140,4,19,undipa.ac.id,ID,Asia,South-eastern Asia,Indonesia,Jakarta,,Jakarta
103.28.53.243,4,1084,unhamzah.ac.id,ID,Asia,South-eastern Asia,Indonesia,,,
103.195.142.5,4,1,unhas.ac.id,ID,Asia,South-eastern Asia,Indonesia,South Sulawesi,,Makassar
103.127.133.161,4,7,unida.ac.id,ID,Asia,South-eastern Asia,Indonesia,,,
103.241.192.26,4,11,unidar.ac.id,ID,Asia,South-eastern Asia,Indonesia,,,
103.58.102.55,4,-21,unidayan.ac.id,ID,Asia,South-eastern Asia,Indonesia,,,
103.247.10.119,4,2,unidha.ac.id,ID,Asia,South-eastern Asia,Indonesia,Jakarta,,Jakarta
203.175.9.102,4,14,unigal.ac.id,ID,Asia,South-eastern Asia,Indonesia,,,
103.165.209.227,4,9,unikama.ac.id,ID,Asia,South-eastern Asia,Indonesia,East Java,,Malang
202.52.146.189,4,1,unikamamuju.ac.id,ID,Asia,South-eastern Asia,Indonesia,,,
103.112.189.128,4,29,unikom.ac.id,ID,Asia,South-eastern Asia,Indonesia,,,
103.163.138.77,4,6,uniks.ac.id,ID,Asia,South-eastern Asia,Indonesia,,,
203.175.8.85,4,3,unim.ac.id,ID,Asia,South-eastern Asia,Indonesia,,,
103.30.147.74,4,5,unima.ac.id,ID,Asia,South-eastern Asia,Indonesia,,,
103.242.233.243,4,44,unimed.ac.id,ID,Asia,South-eastern Asia,Indonesia,North Sumatra,,Medan
103.102.148.250,4,10,unimma.ac.id,ID,Asia,South-eastern Asia,Indonesia,,,
36.95.241.12,4,-5350,unisda.ac.id,ID,Asia,South-eastern Asia,Indonesia,Central Java,,Kandangan
114.7.136.204,4,-16,unisma.ac.id,ID,Asia,South-eastern Asia,Indonesia,Banten,,Tangerang
114.7.148.229,4,-6,unismabekasi.ac.id,ID,Asia,South-eastern Asia,Indonesia,Banten,,Tangerang
103.151.145.17,4,26754,unismuh.ac.id,ID,Asia,South-eastern Asia,Indonesia,South Sulawesi,,Makassar
103.28.223.48,4,11,unissula.ac.id,ID,Asia,South-eastern Asia,Indonesia,,,
103.247.10.242,4,-15,univefarina.ac.id,ID,Asia,South-eastern Asia,Indonesia,Jakarta,,Jakarta
103.98.176.24,4,-14,Universitas PGRI Semarang 1,ID,Asia,South-eastern Asia,Indonesia,,,
103.98.176.143,4,-9,Universitas PGRI Semarang 2,ID,Asia,South-eastern Asia,Indonesia,,,
103.145.227.174,4,16,universitaspertamina.ac.id,ID,Asia,South-eastern Asia,Indonesia,,,
203.175.9.116,4,1577,univetbantara.ac.id,ID,Asia,South-eastern Asia,Indonesia,,,
103.165.234.242,4,27958,univpgri-palembang.ac.id,ID,Asia,South-eastern Asia,Indonesia,South Sumatra,,Palembang
124.158.168.78,4,4699,unja.ac.id,ID,Asia,South-eastern Asia,Indonesia,,,
103.184.53.210,4,1567,unla.ac.id,ID,Asia,South-eastern Asia,Indonesia,West Java,,Bekasi
103.154.90.35,4,15,unmas.ac.id,ID,Asia,South-eastern Asia,Indonesia,Jakarta,,Jakarta
119.235.251.146,4,26,unmuha.ac.id,ID,Asia,South-eastern Asia,Indonesia,West Java,,Depok
103.187.89.6,4,20,unmul.ac.id,ID,Asia,South-eastern Asia,Indonesia,,,
103.84.206.107,4,19,unmus.ac.id,ID,Asia,South-eastern Asia,Indonesia,,,
103.102.153.197,4,9,unnur.ac.id,ID,Asia,South-eastern Asia,Indonesia,,,
103.216.87.100,4,6,unp.ac.id,ID,Asia,South-eastern Asia,Indonesia,,,
111.223.252.99,4,7,unpad.ac.id,ID,Asia,South-eastern Asia,Indonesia,West Java,,Bandung
103.169.193.80,4,22,unpak.ac.id,ID,Asia,South-eastern Asia,Indonesia,West Java,,Bogor
103.185.53.168,4,357,unpar.ac.id,ID,Asia,South-eastern Asia,Indonesia,,,
182.253.188.77,4,-29,unpkediri.ac.id,ID,Asia,South-eastern Asia,Indonesia,Jakarta,,Jakarta
43.225.184.205,4,2,unrika.ac.id,ID,Asia,South-eastern Asia,Indonesia,Riau Islands,,Batam
203.175.9.34,4,3,unsada.ac.id,ID,Asia,South-eastern Asia,Indonesia,,,
91.108.118.175,4,7424,unsam.ac.id,ID,Asia,South-eastern Asia,Indonesia,Jakarta,,Jakarta
103.253.213.49,4,28,unsimar.ac.id,ID,Asia,South-eastern Asia,Indonesia,,,
36.92.135.60,4,47390,unsiq.ac.id,ID,Asia,South-eastern Asia,Indonesia,East Java,,Tuban Timur
103.255.124.15,4,16,unsoed.ac.id,ID,Asia,South-eastern Asia,Indonesia,,,
103.146.62.243,4,-1,unsulbar.ac.id,ID,Asia,South-eastern Asia,Indonesia,,,
103.245.72.82,4,8,untad.ac.id,ID,Asia,South-eastern Asia,Indonesia,,,
103.111.251.59,4,7,untag-sby.ac.id,ID,Asia,South-eastern Asia,Indonesia,,,
118.97.208.182,4,11,untag-smd.ac.id,ID,Asia,South-eastern Asia,Indonesia,Jakarta,,Jakarta
202.51.209.3,4,-1084,untagsmg.ac.id,ID,Asia,South-eastern Asia,Indonesia,,,
103.233.102.26,4,740,untama.ac.id,ID,Asia,South-eastern Asia,Indonesia,,,
103.126.83.4,4,-151681,untan.ac.id,ID,Asia,South-eastern Asia,Indonesia,,,
103.6.54.130,4,155,unublitar.ac.id,ID,Asia,South-eastern Asia,Indonesia,,,
103.35.152.149,4,24,unuja.ac.id,ID,Asia,South-eastern Asia,Indonesia,West Java,,Depok
103.247.10.238,4,-12,unulampung.ac.id,ID,Asia,South-eastern Asia,Indonesia,Jakarta,,Jakarta
103.102.0.10,4,393,unupurwokerto.ac.id,ID,Asia,South-eastern Asia,Indonesia,,,
103.106.72.106,4,533,unusa.ac.id,ID,Asia,South-eastern Asia,Indonesia,,,
103.165.232.131,4,23578,unw.ac.id,ID,Asia,South-eastern Asia,Indonesia,Jakarta,,Jakarta
103.178.172.35,4,17,unwahas.ac.id,ID,Asia,South-eastern Asia,Indonesia,,,
203.194.113.110,4,19,unwir.ac.id,ID,Asia,South-eastern Asia,Indonesia,,,
103.144.74.180,4,5,unzah.ac.id,ID,Asia,South-eastern Asia,Indonesia,,,
113.212.163.131,4,1,upbatam.ac.id,ID,Asia,South-eastern Asia,Indonesia,,,
103.98.177.11,4,5767,upgris.ac.id,ID,Asia,South-eastern Asia,Indonesia,,,
103.23.244.116,4,4,upi.edu,ID,Asia,South-eastern Asia,Indonesia,West Java,,Bandung
103.163.138.12,4,3,upnb.ac.id,ID,Asia,South-eastern Asia,Indonesia,,,
103.147.92.81,4,9,upnvj.ac.id,ID,Asia,South-eastern Asia,Indonesia,,,
103.236.192.6,4,1277,upnyk.ac.id,ID,Asia,South-eastern Asia,Indonesia,,,
103.28.53.92,4,562,upost.id,ID,Asia,South-eastern Asia,Indonesia,,,
103.150.196.132,4,13,urbanasia.com,ID,Asia,South-eastern Asia,Indonesia,,,
153.92.8.168,4,10,usatimemagazine.com,ID,Asia,South-eastern Asia,Indonesia,Jakarta,,Jakarta
153.92.8.43,4,17,usdentistsdirectory.com,ID,Asia,South-eastern Asia,Indonesia,Jakarta,,Jakarta
103.134.215.11,4,19,usm.ac.id,ID,Asia,South-eastern Asia,Indonesia,,,
103.76.21.180,4,1,ust.ac.id,ID,Asia,South-eastern Asia,Indonesia,Riau Islands,,Batam
202.0.107.101,4,-4,usu.ac.id,ID,Asia,South-eastern Asia,Indonesia,,,
103.28.53.75,4,6,utm.id,ID,Asia,South-eastern Asia,Indonesia,,,
103.84.194.81,4,52,uts.ac.id,ID,Asia,South-eastern Asia,Indonesia,,,
103.92.233.130,4,2,uty.ac.id,ID,Asia,South-eastern Asia,Indonesia,,,
103.28.12.47,4,1903,uui.ac.id,ID,Asia,South-eastern Asia,Indonesia,,,
103.79.244.70,4,7,uwgm.ac.id,ID,Asia,South-eastern Asia,Indonesia,,,
202.73.26.130,4,54,velocitydeveloper.com,ID,Asia,South-eastern Asia,Indonesia,,,
77.37.78.119,4,7420,verona-qatar.com,ID,Asia,South-eastern Asia,Indonesia,Jakarta,,Jakarta
178.16.134.188,4,9,vgrsild100.com,ID,Asia,South-eastern Asia,Indonesia,Jakarta,,Jakarta
202.10.40.139,4,24,viagraclub100.com,ID,Asia,South-eastern Asia,Indonesia,,,
103.163.138.79,4,11,vialatea.com,ID,Asia,South-eastern Asia,Indonesia,,,
202.74.239.249,4,1013,vibrasindo.co.id,ID,Asia,South-eastern Asia,Indonesia,South Sumatra,,Palembang
103.157.117.149,4,957,villanaga.com,ID,Asia,South-eastern Asia,Indonesia,,,
103.29.214.199,4,11,vineyardyouthtennis.org,ID,Asia,South-eastern Asia,Indonesia,,,
103.15.226.235,4,0,virtualofficebandung.id,ID,Asia,South-eastern Asia,Indonesia,,,
108.136.35.152,4,-27,visionplus.id,ID,Asia,South-eastern Asia,Indonesia,Jakarta,,Jakarta
108.137.43.84,4,-24,visionplus.id,ID,Asia,South-eastern Asia,Indonesia,Jakarta,,Jakarta
108.137.160.232,4,-24,visionplus.id,ID,Asia,South-eastern Asia,Indonesia,Jakarta,,Jakarta
117.54.3.13,4,7,wahana.com,ID,Asia,South-eastern Asia,Indonesia,Jakarta,,Jakarta
153.92.9.172,4,8,wak.co.id,ID,Asia,South-eastern Asia,Indonesia,Jakarta,,Jakarta
103.19.37.200,4,38251,walisongo.ac.id,ID,Asia,South-eastern Asia,Indonesia,Central Java,,Semarang
111.68.116.154,4,1023,warbonnetseller.com,ID,Asia,South-eastern Asia,Indonesia,,,
103.131.51.93,4,3,warmadewa.ac.id,ID,Asia,South-eastern Asia,Indonesia,,,
153.92.9.252,4,16,wartaboyolali.id,ID,Asia,South-eastern Asia,Indonesia,Jakarta,,Jakarta
103.56.148.250,4,10,waspada.co.id,ID,Asia,South-eastern Asia,Indonesia,,,
36.50.77.23,4,3,waste4change.com,ID,Asia,South-eastern Asia,Indonesia,,,
103.24.12.188,4,1859,wealthy.id,ID,Asia,South-eastern Asia,Indonesia,,,
172.232.252.233,4,30,webarq.com,ID,Asia,South-eastern Asia,Indonesia,Jakarta,,Jakarta
153.92.8.46,4,7,whitemenwithblackwomen.com,ID,Asia,South-eastern Asia,Indonesia,Jakarta,,Jakarta
103.247.11.162,4,15,whn.ac.id,ID,Asia,South-eastern Asia,Indonesia,Jakarta,,Jakarta
103.7.226.210,4,7,widyamandala.ac.id,ID,Asia,South-eastern Asia,Indonesia,,,
203.175.9.138,4,713,widyamataram.ac.id,ID,Asia,South-eastern Asia,Indonesia,,,
103.78.211.175,4,11,widyatama.ac.id,ID,Asia,South-eastern Asia,Indonesia,Jakarta,,Jakarta
203.161.184.48,4,-18,wihagaweb.com,ID,Asia,South-eastern Asia,Indonesia,,,
202.46.29.32,4,32,wima.ac.id,ID,Asia,South-eastern Asia,Indonesia,,,
185.124.139.124,4,7420,winix.id,ID,Asia,South-eastern Asia,Indonesia,Jakarta,,Jakarta
103.163.138.23,4,2,winstarlink.com,ID,Asia,South-eastern Asia,Indonesia,,,
203.175.9.147,4,1310,wisatarakyat.com,ID,Asia,South-eastern Asia,Indonesia,,,
103.163.138.42,4,8,wtr.co.id,ID,Asia,South-eastern Asia,Indonesia,,,
153.92.10.88,4,9,wuhuhotel.net,ID,Asia,South-eastern Asia,Indonesia,Jakarta,,Jakarta
103.15.226.176,4,-90,wukitravel.com,ID,Asia,South-eastern Asia,Indonesia,,,
103.55.39.38,4,344,xerv-project.id,ID,Asia,South-eastern Asia,Indonesia,,,
93.127.220.239,4,78,xn--b3c4a1ba3c.guru,ID,Asia,South-eastern Asia,Indonesia,Jakarta,,Jakarta
103.55.39.211,4,69,xnetwork.net.id,ID,Asia,South-eastern Asia,Indonesia,,,
103.146.203.49,4,1415,yaahowu.id,ID,Asia,South-eastern Asia,Indonesia,,,
103.55.39.243,4,-92,yapri.ac.id,ID,Asia,South-eastern Asia,Indonesia,,,
139.255.58.233,4,36,yarsi.ac.id,ID,Asia,South-eastern Asia,Indonesia,Jakarta,,Jakarta
117.54.238.74,4,5,yasunli.co.id,ID,Asia,South-eastern Asia,Indonesia,Jakarta,,Jakarta
103.28.12.168,4,3018,yrama-widya.co.id,ID,Asia,South-eastern Asia,Indonesia,,,
153.92.11.109,4,11,yuanhang0519.com,ID,Asia,South-eastern Asia,Indonesia,Jakarta,,Jakarta
103.229.73.6,4,993,yudaesa.com,ID,Asia,South-eastern Asia,Indonesia,,,
103.157.97.162,4,1,yukbiz.com,ID,Asia,South-eastern Asia,Indonesia,,,
103.55.39.180,4,498,yukinovel.id,ID,Asia,South-eastern Asia,Indonesia,,,
103.147.154.187,4,-14,yuksinau.id,ID,Asia,South-eastern Asia,Indonesia,,,
103.123.62.66,4,-189,zakato.co.id,ID,Asia,South-eastern Asia,Indonesia,,,
