reflector_ip,ip_version,offset,description,country_code,region,sub_region,country_name,sub_division_1,sub_division_2,city
83.150.226.6,4,2,00594d.com,HK,Asia,Eastern Asia,Hong Kong,,,
8.217.116.66,4,8,01.ai,HK,Asia,Eastern Asia,Hong Kong,,,Hong Kong
8.212.76.251,4,9,030buy.net,HK,Asia,Eastern Asia,Hong Kong,,,Hong Kong
27.126.177.120,4,28,0317fb.com,HK,Asia,Eastern Asia,Hong Kong,,,
154.206.161.112,4,10,0379it.com,HK,Asia,Eastern Asia,Hong Kong,,,Hong Kong
154.212.146.31,4,27,0531youpin.com,HK,Asia,Eastern Asia,Hong Kong,,,
154.209.49.198,4,4,0554zsks.com,HK,Asia,Eastern Asia,Hong Kong,,,
154.212.198.166,4,7,057281.com,HK,Asia,Eastern Asia,Hong Kong,,,
154.206.153.100,4,11,057939.com,HK,Asia,Eastern Asia,Hong Kong,,,Hong Kong
47.243.178.218,4,11,05sun.com,HK,Asia,Eastern Asia,Hong Kong,,,Hong Kong
154.206.160.68,4,10,07oa.com,HK,Asia,Eastern Asia,Hong Kong,,,Hong Kong
156.254.167.25,4,-28800023,0839cpj.com,HK,Asia,Eastern Asia,Hong Kong,,,
156.254.165.28,4,-28800024,0911xf.com,HK,Asia,Eastern Asia,Hong Kong,,,
129.226.179.203,4,-16,0971.net,HK,Asia,Eastern Asia,Hong Kong,,,Hong Kong
156.241.153.204,4,7,0cdnara.com,HK,Asia,Eastern Asia,Hong Kong,,,
35.215.152.35,4,10,10-fo.net,HK,Asia,Eastern Asia,Hong Kong,,,Hong Kong
47.243.78.103,4,12,11.com,HK,Asia,Eastern Asia,Hong Kong,,,Hong Kong
47.238.46.90,4,10,110ok.com,HK,Asia,Eastern Asia,Hong Kong,,,Hong Kong
154.209.54.137,4,7,1112715.com,HK,Asia,Eastern Asia,Hong Kong,,,
154.220.86.30,4,7,111waystomakemoney.com,HK,Asia,Eastern Asia,Hong Kong,,,
156.245.98.14,4,27,114binyi.com,HK,Asia,Eastern Asia,Hong Kong,,,
47.89.48.2,4,12,1152.com.hk,HK,Asia,Eastern Asia,Hong Kong,,,
154.212.176.161,4,10,120zl.com,HK,Asia,Eastern Asia,Hong Kong,,,
8.218.196.228,4,10,1415926.mobi,HK,Asia,Eastern Asia,Hong Kong,,,Hong Kong
20.189.121.39,4,12,1488.com,HK,Asia,Eastern Asia,Hong Kong,,,Hong Kong
103.57.231.69,4,-226,14beizir.cn,HK,Asia,Eastern Asia,Hong Kong,,,
8.217.33.64,4,7,15307.com,HK,Asia,Eastern Asia,Hong Kong,,,Hong Kong
8.210.37.241,4,10,1688wan.com,HK,Asia,Eastern Asia,Hong Kong,,,Hong Kong
35.215.162.3,4,10,17678fa.com,HK,Asia,Eastern Asia,Hong Kong,,,Hong Kong
43.155.71.215,4,-18,176mw.net,HK,Asia,Eastern Asia,Hong Kong,,,Hong Kong
154.214.101.88,4,6,1971chsreunion.com,HK,Asia,Eastern Asia,Hong Kong,,,Hong Kong
156.234.208.53,4,12,1978r.com,HK,Asia,Eastern Asia,Hong Kong,,,Hong Kong
103.96.150.5,4,-2698,199cr.com,HK,Asia,Eastern Asia,Hong Kong,,,
156.226.122.211,4,10,20thcenturyredux.com,HK,Asia,Eastern Asia,Hong Kong,,,Hong Kong
182.16.71.140,4,3,258.com,HK,Asia,Eastern Asia,Hong Kong,,,
182.16.75.19,4,2,258.com,HK,Asia,Eastern Asia,Hong Kong,,,
182.16.75.22,4,1,258.com,HK,Asia,Eastern Asia,Hong Kong,,,
182.16.71.142,4,0,258.com,HK,Asia,Eastern Asia,Hong Kong,,,
103.142.8.169,4,26,26846.cc,HK,Asia,Eastern Asia,Hong Kong,,,
122.10.96.170,4,10,2cb.cn,HK,Asia,Eastern Asia,Hong Kong,,,
154.92.73.50,4,10,2q4n.cn,HK,Asia,Eastern Asia,Hong Kong,,,
154.197.182.34,4,4,2ufy5.cn,HK,Asia,Eastern Asia,Hong Kong,,,Hong Kong
47.243.199.150,4,9,301gm.com,HK,Asia,Eastern Asia,Hong Kong,,,Hong Kong
165.154.224.21,4,14,305988.com,HK,Asia,Eastern Asia,Hong Kong,,,Hong Kong
165.154.224.29,4,15,305988.com,HK,Asia,Eastern Asia,Hong Kong,,,Hong Kong
165.154.224.149,4,14,305988.com,HK,Asia,Eastern Asia,Hong Kong,,,Hong Kong
43.250.189.244,4,-12,360anquan.cn,HK,Asia,Eastern Asia,Hong Kong,,,
156.254.167.28,4,-28800023,36524100.com,HK,Asia,Eastern Asia,Hong Kong,,,
156.254.175.90,4,7,394052.com,HK,Asia,Eastern Asia,Hong Kong,,,
8.210.41.123,4,9,3bi.net,HK,Asia,Eastern Asia,Hong Kong,,,Hong Kong
47.242.206.101,4,10,3d-airmesh.com,HK,Asia,Eastern Asia,Hong Kong,,,Hong Kong
103.246.247.66,4,13,3dmax.online,HK,Asia,Eastern Asia,Hong Kong,,,
154.204.46.21,4,29,4006665676.com,HK,Asia,Eastern Asia,Hong Kong,,,
202.181.233.188,4,7,409shop.com,HK,Asia,Eastern Asia,Hong Kong,,,
185.239.85.137,4,20,435y.com,HK,Asia,Eastern Asia,Hong Kong,,,
83.229.124.26,4,9,45793.com,HK,Asia,Eastern Asia,Hong Kong,,,
47.52.211.56,4,9,45fan.com,HK,Asia,Eastern Asia,Hong Kong,,,Hong Kong
154.12.82.139,4,-1,45u.cn,HK,Asia,Eastern Asia,Hong Kong,Yau Tsim Mong,,Mong Kok
103.233.10.147,4,10,50cnnet.com,HK,Asia,Eastern Asia,Hong Kong,,,
223.121.13.26,4,-144,51.la,HK,Asia,Eastern Asia,Hong Kong,,,
156.241.132.81,4,121649,51766.net,HK,Asia,Eastern Asia,Hong Kong,,,
43.135.117.78,4,-15,51taonan.com,HK,Asia,Eastern Asia,Hong Kong,,,Hong Kong
43.154.196.225,4,-9,51xiansuo.cn,HK,Asia,Eastern Asia,Hong Kong,,,Hong Kong
206.119.101.87,4,7,52dopod.net,HK,Asia,Eastern Asia,Hong Kong,,,Hong Kong
47.239.76.27,4,7,52fx.cn,HK,Asia,Eastern Asia,Hong Kong,,,Hong Kong
206.119.101.54,4,5,52jingyan.com,HK,Asia,Eastern Asia,Hong Kong,,,Hong Kong
101.32.22.93,4,-14,52zzl.com,HK,Asia,Eastern Asia,Hong Kong,,,Hong Kong
103.215.78.112,4,980,5314.cc,HK,Asia,Eastern Asia,Hong Kong,,,
103.84.84.122,4,3,56980.cc,HK,Asia,Eastern Asia,Hong Kong,,,
103.75.44.182,4,4,56980.cc,HK,Asia,Eastern Asia,Hong Kong,,,
154.38.118.39,4,6,56980.cc,HK,Asia,Eastern Asia,Hong Kong,,,Hong Kong
154.19.70.193,4,6,56980.cc,HK,Asia,Eastern Asia,Hong Kong,,,Hong Kong
154.19.70.154,4,5,58634.cc,HK,Asia,Eastern Asia,Hong Kong,,,Hong Kong
154.31.179.168,4,12,5a0.cn,HK,Asia,Eastern Asia,Hong Kong,,,Hong Kong
101.33.117.236,4,-17,5icool.org,HK,Asia,Eastern Asia,Hong Kong,,,Hong Kong
194.32.148.80,4,175107,5imx.com,HK,Asia,Eastern Asia,Hong Kong,,,
43.128.14.68,4,-13,5kym.cn,HK,Asia,Eastern Asia,Hong Kong,,,Hong Kong
47.238.126.126,4,6,64.sb,HK,Asia,Eastern Asia,Hong Kong,,,Hong Kong
103.145.145.105,4,3,64.sb,HK,Asia,Eastern Asia,Hong Kong,,,
154.23.179.43,4,3,64.sb,HK,Asia,Eastern Asia,Hong Kong,,,Hong Kong
103.145.145.104,4,2,64.sb,HK,Asia,Eastern Asia,Hong Kong,,,
103.145.145.103,4,4,64.sb,HK,Asia,Eastern Asia,Hong Kong,,,
103.145.145.106,4,5,64.sb,HK,Asia,Eastern Asia,Hong Kong,,,
47.57.1.154,4,8,680.com,HK,Asia,Eastern Asia,Hong Kong,,,Hong Kong
43.241.73.162,4,6,681busterminal.com,HK,Asia,Eastern Asia,Hong Kong,,,
8.218.67.239,4,10,6sxq.com,HK,Asia,Eastern Asia,Hong Kong,,,Hong Kong
101.32.27.33,4,-16,72177.com,HK,Asia,Eastern Asia,Hong Kong,,,Hong Kong
103.244.226.202,4,11,727895.com,HK,Asia,Eastern Asia,Hong Kong,,,Hong Kong
34.92.83.184,4,6,777-gt.net,HK,Asia,Eastern Asia,Hong Kong,,,Hong Kong
103.194.187.212,4,3,79bo3.com,HK,Asia,Eastern Asia,Hong Kong,,,
107.148.15.165,4,7,7feeds.com,HK,Asia,Eastern Asia,Hong Kong,,,Hong Kong
154.209.54.140,4,5,819943.com,HK,Asia,Eastern Asia,Hong Kong,,,
35.215.155.15,4,11,825438.com,HK,Asia,Eastern Asia,Hong Kong,,,Hong Kong
154.209.54.141,4,6,859136.com,HK,Asia,Eastern Asia,Hong Kong,,,
154.220.37.75,4,3,868261.com,HK,Asia,Eastern Asia,Hong Kong,,,
156.234.237.38,4,10,88152.com,HK,Asia,Eastern Asia,Hong Kong,,,Hong Kong
103.20.237.108,4,12,881903.com,HK,Asia,Eastern Asia,Hong Kong,,,
103.20.237.107,4,10,881903.com,HK,Asia,Eastern Asia,Hong Kong,,,
154.220.39.235,4,3,886887888.cn,HK,Asia,Eastern Asia,Hong Kong,,,
154.89.104.246,4,7,8885427.com,HK,Asia,Eastern Asia,Hong Kong,,,Hong Kong
47.242.80.187,4,9,8898game.com,HK,Asia,Eastern Asia,Hong Kong,,,Hong Kong
45.141.69.67,4,3603,8kbg.com,HK,Asia,Eastern Asia,Hong Kong,,,
154.92.44.27,4,6,8kmdzy.com,HK,Asia,Eastern Asia,Hong Kong,,,
156.245.29.20,4,28,917118.com,HK,Asia,Eastern Asia,Hong Kong,,,
156.224.129.151,4,-37284084,918dompets.com,HK,Asia,Eastern Asia,Hong Kong,,,Hong Kong
43.198.116.181,4,-13,91ajs.com,HK,Asia,Eastern Asia,Hong Kong,,,Hong Kong
154.194.147.77,4,7,91yixindai.com,HK,Asia,Eastern Asia,Hong Kong,,,Hong Kong
154.206.153.101,4,9,9300777.com,HK,Asia,Eastern Asia,Hong Kong,,,Hong Kong
124.156.186.192,4,-17,969g.com,HK,Asia,Eastern Asia,Hong Kong,,,Hong Kong
223.121.13.31,4,-145,985.so,HK,Asia,Eastern Asia,Hong Kong,,,
223.121.13.22,4,-140,985.so,HK,Asia,Eastern Asia,Hong Kong,,,
223.121.13.30,4,-146,985.so,HK,Asia,Eastern Asia,Hong Kong,,,
103.119.131.249,4,166612,98e.fun,HK,Asia,Eastern Asia,Hong Kong,,,
103.143.159.79,4,28,99xr.com,HK,Asia,Eastern Asia,Hong Kong,,,
154.204.55.214,4,19,9lala.com,HK,Asia,Eastern Asia,Hong Kong,,,
43.134.195.133,4,-17,9tj.net,HK,Asia,Eastern Asia,Hong Kong,,,Hong Kong
154.214.116.10,4,8,aaaviags.com,HK,Asia,Eastern Asia,Hong Kong,,,Hong Kong
35.215.178.101,4,11,aahfoundation.org,HK,Asia,Eastern Asia,Hong Kong,,,Hong Kong
103.11.101.168,4,8,aaiss.hk,HK,Asia,Eastern Asia,Hong Kong,,,
34.92.110.214,4,6,aawaaart.com,HK,Asia,Eastern Asia,Hong Kong,,,Hong Kong
156.240.221.123,4,8,abang.com,HK,Asia,Eastern Asia,Hong Kong,,,
154.211.84.31,4,14,abcd-led.com,HK,Asia,Eastern Asia,Hong Kong,,,
185.149.120.77,4,5,abok.ru,HK,Asia,Eastern Asia,Hong Kong,,,
116.251.205.42,4,13,aboriginalheritage.org,HK,Asia,Eastern Asia,Hong Kong,,,
156.234.16.230,4,8,abuproban.com,HK,Asia,Eastern Asia,Hong Kong,,,Hong Kong
156.239.205.238,4,30,abvaa.com,HK,Asia,Eastern Asia,Hong Kong,,,Hong Kong
159.138.14.240,4,9,acadsoc.com.cn,HK,Asia,Eastern Asia,Hong Kong,,,Hong Kong
119.8.247.35,4,30,acadsoc.com.cn,HK,Asia,Eastern Asia,Hong Kong,,,Hong Kong
159.138.14.236,4,15,acadsoc.com.cn,HK,Asia,Eastern Asia,Hong Kong,,,Hong Kong
119.8.247.17,4,10,acadsoc.com.cn,HK,Asia,Eastern Asia,Hong Kong,,,Hong Kong
8.210.96.142,4,10,acconsys.com,HK,Asia,Eastern Asia,Hong Kong,,,Hong Kong
103.51.147.117,4,61,acgntv.com,HK,Asia,Eastern Asia,Hong Kong,,,
154.204.241.189,4,10,acrilicosjundiai.com,HK,Asia,Eastern Asia,Hong Kong,,,
8.210.88.227,4,12,acuteangle.com,HK,Asia,Eastern Asia,Hong Kong,,,Hong Kong
43.154.164.58,4,0,adamtianxia.com,HK,Asia,Eastern Asia,Hong Kong,,,Hong Kong
156.234.35.47,4,7,adorkablii.com,HK,Asia,Eastern Asia,Hong Kong,,,Hong Kong
154.92.41.214,4,31,adviplove.com,HK,Asia,Eastern Asia,Hong Kong,,,
210.184.251.82,4,7,adxglobal.com,HK,Asia,Eastern Asia,Hong Kong,Wan Chai,,Wan Chai
154.19.204.234,4,7533,afinance.cn,HK,Asia,Eastern Asia,Hong Kong,,,Hong Kong
154.214.112.106,4,9,ah112.cn,HK,Asia,Eastern Asia,Hong Kong,,,Hong Kong
154.86.84.215,4,24,ahcityfit.com,HK,Asia,Eastern Asia,Hong Kong,,,
154.206.130.242,4,5,ahjcjy.cn,HK,Asia,Eastern Asia,Hong Kong,,,Hong Kong
156.241.184.83,4,-16,ahlxjy.com,HK,Asia,Eastern Asia,Hong Kong,,,
154.210.40.67,4,29,ahradio.com.cn,HK,Asia,Eastern Asia,Hong Kong,,,
35.241.65.65,4,5,ahydrozide.com,HK,Asia,Eastern Asia,Hong Kong,,,Hong Kong
154.38.88.86,4,8,ahyyfsjc.com,HK,Asia,Eastern Asia,Hong Kong,,,Hong Kong
154.214.70.153,4,14,aide001.com,HK,Asia,Eastern Asia,Hong Kong,,,Hong Kong
47.75.26.180,4,9,ailab.cn,HK,Asia,Eastern Asia,Hong Kong,,,Hong Kong
47.242.161.136,4,8,ailvxing.com,HK,Asia,Eastern Asia,Hong Kong,,,Hong Kong
8.217.102.27,4,11,aipaihang.net,HK,Asia,Eastern Asia,Hong Kong,,,Hong Kong
154.220.37.71,4,4,aipituitary.com,HK,Asia,Eastern Asia,Hong Kong,,,
156.241.83.68,4,6,airinter1.com,HK,Asia,Eastern Asia,Hong Kong,,,
35.215.172.5,4,15,airlinescareer.org,HK,Asia,Eastern Asia,Hong Kong,,,Hong Kong
8.210.162.224,4,27,aiwanba.net,HK,Asia,Eastern Asia,Hong Kong,,,Hong Kong
154.212.200.138,4,8,aiyingshenghuoguan.com,HK,Asia,Eastern Asia,Hong Kong,,,
156.234.150.67,4,10,ajxker.com,HK,Asia,Eastern Asia,Hong Kong,,,Hong Kong
154.216.86.69,4,2,aladingplus.com,HK,Asia,Eastern Asia,Hong Kong,,,Hong Kong
103.215.82.140,4,-40905,albanydrone.com,HK,Asia,Eastern Asia,Hong Kong,,,
47.242.67.82,4,9,alipansou.com,HK,Asia,Eastern Asia,Hong Kong,,,Hong Kong
43.240.29.116,4,25,aliyunminisite.com,HK,Asia,Eastern Asia,Hong Kong,,,
154.212.195.228,4,9,all-life-assistant.com,HK,Asia,Eastern Asia,Hong Kong,,,
156.234.21.10,4,18,allaccess-radio.net,HK,Asia,Eastern Asia,Hong Kong,,,Hong Kong
156.234.130.129,4,7,allegratablet.com,HK,Asia,Eastern Asia,Hong Kong,,,Hong Kong
8.218.121.6,4,11,allmei.com,HK,Asia,Eastern Asia,Hong Kong,,,Hong Kong
103.254.209.137,4,61,alpha-general.com,HK,Asia,Eastern Asia,Hong Kong,,,
154.21.201.183,4,85978,alzhai.com,HK,Asia,Eastern Asia,Hong Kong,,,Hong Kong
156.241.66.240,4,6,anan56.com,HK,Asia,Eastern Asia,Hong Kong,,,
59.153.51.101,4,8,andaautoparts.com,HK,Asia,Eastern Asia,Hong Kong,,,
156.234.17.80,4,10,anhuayiyuan.com,HK,Asia,Eastern Asia,Hong Kong,,,Hong Kong
34.92.45.205,4,5,anhui.cc,HK,Asia,Eastern Asia,Hong Kong,,,Hong Kong
116.251.205.82,4,32,ani-com.hk,HK,Asia,Eastern Asia,Hong Kong,,,
18.163.37.252,4,-12,antonoil.com,HK,Asia,Eastern Asia,Hong Kong,,,Hong Kong
83.150.226.4,4,5,anweiyun.com,HK,Asia,Eastern Asia,Hong Kong,,,
156.254.245.90,4,9,anyuandc.com,HK,Asia,Eastern Asia,Hong Kong,,,
156.234.198.152,4,11,aomeple.com,HK,Asia,Eastern Asia,Hong Kong,,,Hong Kong
103.107.90.151,4,25,aotu.io,HK,Asia,Eastern Asia,Hong Kong,,,
52.175.12.42,4,26,arbor-technology.com,HK,Asia,Eastern Asia,Hong Kong,,,Hong Kong
23.222.75.162,4,11,arcadis-us.com,HK,Asia,Eastern Asia,Hong Kong,,,Hong Kong
8.218.72.155,4,12,arctime.org,HK,Asia,Eastern Asia,Hong Kong,,,Hong Kong
35.215.164.178,4,10,arimidexa.com,HK,Asia,Eastern Asia,Hong Kong,,,Hong Kong
58.64.153.48,4,26,artnouveau1895.com,HK,Asia,Eastern Asia,Hong Kong,,,
154.206.147.187,4,13,arxy4th.cn,HK,Asia,Eastern Asia,Hong Kong,,,Hong Kong
156.234.20.236,4,7,atacrograf.com,HK,Asia,Eastern Asia,Hong Kong,,,Hong Kong
47.75.90.185,4,85,atoolbox.net,HK,Asia,Eastern Asia,Hong Kong,,,Hong Kong
180.92.182.83,4,6,australianwinner.com,HK,Asia,Eastern Asia,Hong Kong,,,
47.56.27.193,4,9,automation-pt.com,HK,Asia,Eastern Asia,Hong Kong,,,Hong Kong
156.234.131.215,4,4,aygjj.com,HK,Asia,Eastern Asia,Hong Kong,,,Hong Kong
156.245.92.7,4,31,ayosditoph.com,HK,Asia,Eastern Asia,Hong Kong,,,Hong Kong
185.106.176.238,4,14,ayoueryi.com,HK,Asia,Eastern Asia,Hong Kong,,,
8.218.138.220,4,10,azg168.cn,HK,Asia,Eastern Asia,Hong Kong,,,Hong Kong
35.215.134.30,4,10,azithromycingn.com,HK,Asia,Eastern Asia,Hong Kong,,,Hong Kong
154.212.194.27,4,8,aziu105.com,HK,Asia,Eastern Asia,Hong Kong,,,
35.215.136.31,4,9,azxykj.com,HK,Asia,Eastern Asia,Hong Kong,,,Hong Kong
154.31.168.105,4,13,bafcgj.com,HK,Asia,Eastern Asia,Hong Kong,,,Hong Kong
154.86.84.239,4,27,baganmyanmar.com,HK,Asia,Eastern Asia,Hong Kong,,,
39.109.113.183,4,46182,baichengsjj.com,HK,Asia,Eastern Asia,Hong Kong,,,
223.121.13.16,4,-146,baicmotor.com,HK,Asia,Eastern Asia,Hong Kong,,,
47.75.94.104,4,6,baishirun.com,HK,Asia,Eastern Asia,Hong Kong,,,Hong Kong
45.147.26.52,4,10,baizhans.com,HK,Asia,Eastern Asia,Hong Kong,,,
209.58.186.34,4,11,balita.ph,HK,Asia,Eastern Asia,Hong Kong,,,Hong Kong
8.217.107.94,4,8,baozoumanhua.com,HK,Asia,Eastern Asia,Hong Kong,,,Hong Kong
156.225.132.182,4,8,barkforum.com,HK,Asia,Eastern Asia,Hong Kong,,,
39.109.123.100,4,-7362,baset.cc,HK,Asia,Eastern Asia,Hong Kong,,,
154.194.147.75,4,21,basidi168.com,HK,Asia,Eastern Asia,Hong Kong,,,Hong Kong
154.220.84.166,4,32,batumirent.com,HK,Asia,Eastern Asia,Hong Kong,,,
43.154.113.229,4,-8,bau.com.hk,HK,Asia,Eastern Asia,Hong Kong,,,Hong Kong
156.234.218.251,4,46,bay-head-nj.com,HK,Asia,Eastern Asia,Hong Kong,,,Hong Kong
154.39.115.131,4,7,bbsmax.com,HK,Asia,Eastern Asia,Hong Kong,,,Hong Kong
47.75.69.43,4,39,bccn.net,HK,Asia,Eastern Asia,Hong Kong,,,Hong Kong
154.216.103.157,4,0,bearcatgo.com,HK,Asia,Eastern Asia,Hong Kong,,,Hong Kong
154.211.78.170,4,15,beautyjunkieuk.com,HK,Asia,Eastern Asia,Hong Kong,,,
43.155.70.192,4,-5,beautyleg.net,HK,Asia,Eastern Asia,Hong Kong,,,Hong Kong
8.210.196.198,4,10,bee.com,HK,Asia,Eastern Asia,Hong Kong,,,Hong Kong
45.80.115.114,4,17,bentian78.com,HK,Asia,Eastern Asia,Hong Kong,,,
47.76.230.63,4,9,berallebags.com,HK,Asia,Eastern Asia,Hong Kong,,,Hong Kong
34.150.50.3,4,6,bestbuymaleenhancement.com,HK,Asia,Eastern Asia,Hong Kong,,,Hong Kong
34.92.123.218,4,2,bestdissertationwritingservice.net,HK,Asia,Eastern Asia,Hong Kong,,,Hong Kong
43.241.73.144,4,10,bestfd.com,HK,Asia,Eastern Asia,Hong Kong,,,
35.241.127.154,4,4,bestsugarmommasites.org,HK,Asia,Eastern Asia,Hong Kong,,,Hong Kong
223.255.169.45,4,161,bestwatch.com.hk,HK,Asia,Eastern Asia,Hong Kong,,,
103.194.184.6,4,4,bg3.co,HK,Asia,Eastern Asia,Hong Kong,,,
8.217.27.226,4,8,bgi.com,HK,Asia,Eastern Asia,Hong Kong,,,Hong Kong
103.85.189.3,4,5,bidushe.com,HK,Asia,Eastern Asia,Hong Kong,,,
43.132.173.27,4,8,biji.io,HK,Asia,Eastern Asia,Hong Kong,,,Hong Kong
154.220.37.70,4,29,billionvouchers.com,HK,Asia,Eastern Asia,Hong Kong,,,
154.206.207.178,4,32,bimaclassifieds.com,HK,Asia,Eastern Asia,Hong Kong,,,Hong Kong
154.92.56.218,4,145,bingxinjiaoyu.com,HK,Asia,Eastern Asia,Hong Kong,,,
103.134.144.3,4,8,bioercon.com.cn,HK,Asia,Eastern Asia,Hong Kong,,,
154.220.12.76,4,6,bixud.cn,HK,Asia,Eastern Asia,Hong Kong,,,
154.204.241.161,4,6,biztechxperts.com,HK,Asia,Eastern Asia,Hong Kong,,,
154.211.79.224,4,10,bj-sjsc.com,HK,Asia,Eastern Asia,Hong Kong,,,
154.218.148.163,4,-10,bjbyfy.com,HK,Asia,Eastern Asia,Hong Kong,,,
156.245.38.117,4,7,bjgxjz.com.cn,HK,Asia,Eastern Asia,Hong Kong,,,
156.254.167.6,4,-28800028,bjjingyuty.com,HK,Asia,Eastern Asia,Hong Kong,,,
154.209.54.142,4,5,bjlzyjdsb.com,HK,Asia,Eastern Asia,Hong Kong,,,
156.234.14.239,4,9,bjsabd.com,HK,Asia,Eastern Asia,Hong Kong,,,Hong Kong
154.220.60.201,4,4,bjxdqp.com,HK,Asia,Eastern Asia,Hong Kong,,,
156.254.168.207,4,11,bjybscn.com,HK,Asia,Eastern Asia,Hong Kong,,,
8.218.189.56,4,9,block-machinery.cn,HK,Asia,Eastern Asia,Hong Kong,,,Hong Kong
223.121.13.23,4,-147,blockmango.com,HK,Asia,Eastern Asia,Hong Kong,,,
223.121.13.29,4,-153,blockmango.com,HK,Asia,Eastern Asia,Hong Kong,,,
202.130.112.157,4,9,bloemart.com.hk,HK,Asia,Eastern Asia,Hong Kong,,,
154.211.78.151,4,11,bluedogjewellery.com,HK,Asia,Eastern Asia,Hong Kong,,,
43.154.162.208,4,-13,bmfsfw.com,HK,Asia,Eastern Asia,Hong Kong,,,Hong Kong
34.96.210.129,4,9,boardroomvu.com,HK,Asia,Eastern Asia,Hong Kong,,,Hong Kong
112.213.113.175,4,8,bojukj.com,HK,Asia,Eastern Asia,Hong Kong,,,
154.211.78.162,4,12,bokwabynatasha.com,HK,Asia,Eastern Asia,Hong Kong,,,
8.217.148.175,4,28,bongda24.vn,HK,Asia,Eastern Asia,Hong Kong,,,Hong Kong
150.109.72.172,4,-15,bonuscloud.club,HK,Asia,Eastern Asia,Hong Kong,,,Hong Kong
47.52.198.197,4,10,boox.com,HK,Asia,Eastern Asia,Hong Kong,,,Hong Kong
103.57.230.179,4,3,border-breaker.com,HK,Asia,Eastern Asia,Hong Kong,,,
8.218.134.119,4,18,borewang.com,HK,Asia,Eastern Asia,Hong Kong,,,Hong Kong
103.24.249.107,4,5,bosida.com.cn,HK,Asia,Eastern Asia,Hong Kong,,,
8.218.162.34,4,11,boya-mic.com,HK,Asia,Eastern Asia,Hong Kong,,,Hong Kong
185.149.120.25,4,15,br-tvr.ru,HK,Asia,Eastern Asia,Hong Kong,,,
103.214.22.55,4,51,brandee.edu.vn,HK,Asia,Eastern Asia,Hong Kong,,,Hong Kong
47.243.133.114,4,8,breo.com,HK,Asia,Eastern Asia,Hong Kong,,,Hong Kong
116.251.205.26,4,13,brillianceauto.com,HK,Asia,Eastern Asia,Hong Kong,,,
116.251.207.138,4,4,britishunited.net,HK,Asia,Eastern Asia,Hong Kong,,,
154.212.200.133,4,13,builderjiyuan.com,HK,Asia,Eastern Asia,Hong Kong,,,
103.11.103.127,4,5,butterflyvalley.com.hk,HK,Asia,Eastern Asia,Hong Kong,,,
156.234.187.148,4,24,buychlonsp.com,HK,Asia,Eastern Asia,Hong Kong,,,Hong Kong
156.241.121.167,4,19,buyedonxline.com,HK,Asia,Eastern Asia,Hong Kong,,,
156.234.48.131,4,69,buyhytop.com,HK,Asia,Eastern Asia,Hong Kong,,,Hong Kong
47.52.143.93,4,11,bwghost.me,HK,Asia,Eastern Asia,Hong Kong,,,Hong Kong
8.217.242.71,4,29,bybm.com.cn,HK,Asia,Eastern Asia,Hong Kong,,,Hong Kong
202.170.91.56,4,7,bytom.io,HK,Asia,Eastern Asia,Hong Kong,,,Hong Kong
103.11.100.15,4,10,bywave.com.hk,HK,Asia,Eastern Asia,Hong Kong,,,
103.11.101.134,4,9,c4ckin.com,HK,Asia,Eastern Asia,Hong Kong,,,
43.128.3.6,4,-12,c4rc.com,HK,Asia,Eastern Asia,Hong Kong,,,Hong Kong
103.242.15.150,4,5,c7sky.com,HK,Asia,Eastern Asia,Hong Kong,,,
8.212.17.45,4,8,caibaojian.com,HK,Asia,Eastern Asia,Hong Kong,,,Hong Kong
156.234.112.218,4,8,calcialtrol.com,HK,Asia,Eastern Asia,Hong Kong,,,Hong Kong
185.149.120.233,4,6,calculator888.ru,HK,Asia,Eastern Asia,Hong Kong,,,
154.204.252.209,4,9,callmeg.com,HK,Asia,Eastern Asia,Hong Kong,,,
154.92.41.209,4,29,canada-expo.com,HK,Asia,Eastern Asia,Hong Kong,,,
114.112.70.140,4,19,candou.com,HK,Asia,Eastern Asia,Hong Kong,,,
35.215.159.211,4,30,captainfreecasino.com,HK,Asia,Eastern Asia,Hong Kong,,,Hong Kong
116.251.204.135,4,23,caringcompany.org.hk,HK,Asia,Eastern Asia,Hong Kong,,,
45.156.170.186,4,6,carmeninmoldova.org,HK,Asia,Eastern Asia,Hong Kong,,,
107.148.15.12,4,24522,cascohr.com,HK,Asia,Eastern Asia,Hong Kong,,,Hong Kong
172.96.185.225,4,9,casinoae888.com,HK,Asia,Eastern Asia,Hong Kong,,,
34.92.62.12,4,6,casinoslotsccw.com,HK,Asia,Eastern Asia,Hong Kong,,,Hong Kong
35.241.98.145,4,5,casumo-casino.top,HK,Asia,Eastern Asia,Hong Kong,,,Hong Kong
154.206.200.75,4,22,cbundiorganizing.com,HK,Asia,Eastern Asia,Hong Kong,,,Hong Kong
103.109.101.119,4,25,ccdc.com.hk,HK,Asia,Eastern Asia,Hong Kong,,,
154.92.41.215,4,4,ccfcsk.com,HK,Asia,Eastern Asia,Hong Kong,,,
43.154.210.131,4,-14,ccplay.cn,HK,Asia,Eastern Asia,Hong Kong,,,Hong Kong
154.92.44.8,4,2,cddianwei.com,HK,Asia,Eastern Asia,Hong Kong,,,
154.211.79.131,4,10,cddwater.com,HK,Asia,Eastern Asia,Hong Kong,,,
43.242.203.173,4,5,cdmoce.com,HK,Asia,Eastern Asia,Hong Kong,,,
43.243.44.101,4,-19,cdsq666.com,HK,Asia,Eastern Asia,Hong Kong,,,
103.47.113.227,4,19,cefc.com.hk,HK,Asia,Eastern Asia,Hong Kong,,,
154.211.107.75,4,10,ceibsmobi.com,HK,Asia,Eastern Asia,Hong Kong,,,
8.218.169.159,4,14,cenforcesildenafil.com,HK,Asia,Eastern Asia,Hong Kong,,,Hong Kong
154.211.77.176,4,12,cepsa-ls.com,HK,Asia,Eastern Asia,Hong Kong,,,
156.234.16.231,4,14,cetirtec.com,HK,Asia,Eastern Asia,Hong Kong,,,Hong Kong
113.10.158.162,4,1059,cf-7.com,HK,Asia,Eastern Asia,Hong Kong,,,
119.28.89.96,4,-14,cfbwz.com,HK,Asia,Eastern Asia,Hong Kong,,,Hong Kong
114.142.153.137,4,8,cgan.net,HK,Asia,Eastern Asia,Hong Kong,,,
154.215.126.34,4,12,cglingyu.com,HK,Asia,Eastern Asia,Hong Kong,,,Hong Kong
47.91.240.156,4,8,cguiw.com,HK,Asia,Eastern Asia,Hong Kong,,,Hong Kong
190.92.231.104,4,52,chainup.com,HK,Asia,Eastern Asia,Hong Kong,,,Hong Kong
59.188.218.123,4,143711,chance-line.com,HK,Asia,Eastern Asia,Hong Kong,,,
154.220.52.94,4,6,chanceetoys.com,HK,Asia,Eastern Asia,Hong Kong,,,
122.10.97.181,4,51134,changdahk.com,HK,Asia,Eastern Asia,Hong Kong,,,
156.234.199.84,4,10,changemr.com,HK,Asia,Eastern Asia,Hong Kong,,,Hong Kong
154.19.207.208,4,7,changtu.com,HK,Asia,Eastern Asia,Hong Kong,,,Hong Kong
154.38.81.84,4,11,chanson.net.cn,HK,Asia,Eastern Asia,Hong Kong,,,Hong Kong
154.194.144.162,4,12,chaohuangcoldchain.com,HK,Asia,Eastern Asia,Hong Kong,,,Hong Kong
8.223.17.146,4,7,chashebao.com,HK,Asia,Eastern Asia,Hong Kong,,,Hong Kong
47.240.20.99,4,13,chb66.com,HK,Asia,Eastern Asia,Hong Kong,,,Hong Kong
47.52.234.144,4,15,chcnav.com,HK,Asia,Eastern Asia,Hong Kong,,,Hong Kong
156.239.205.226,4,51,chdcdesign.com,HK,Asia,Eastern Asia,Hong Kong,,,Hong Kong
154.206.161.110,4,32,cheapjordansaleshoes.com,HK,Asia,Eastern Asia,Hong Kong,,,Hong Kong
154.206.161.111,4,15,cheapjordansonlinesale.com,HK,Asia,Eastern Asia,Hong Kong,,,Hong Kong
154.194.144.163,4,34,chechedianguanjia.com,HK,Asia,Eastern Asia,Hong Kong,,,Hong Kong
8.212.77.69,4,9,chemdrug.com,HK,Asia,Eastern Asia,Hong Kong,,,Hong Kong
122.10.97.147,4,11,chemnet.cn,HK,Asia,Eastern Asia,Hong Kong,,,
154.194.144.164,4,9,chenfengwlkj.com,HK,Asia,Eastern Asia,Hong Kong,,,Hong Kong
8.217.79.135,4,10,chengdubbs.net,HK,Asia,Eastern Asia,Hong Kong,,,Hong Kong
154.204.193.210,4,7,chenzhixinju.com,HK,Asia,Eastern Asia,Hong Kong,,,
103.199.246.225,4,8,chessendgames.com,HK,Asia,Eastern Asia,Hong Kong,,,
43.135.73.53,4,-87926,chfair.com,HK,Asia,Eastern Asia,Hong Kong,,,Hong Kong
154.204.195.67,4,9,chichuikeji.com,HK,Asia,Eastern Asia,Hong Kong,,,
206.237.26.135,4,15,chiharaminori.cn,HK,Asia,Eastern Asia,Hong Kong,,,
103.207.165.15,4,23,china-cbn.com,HK,Asia,Eastern Asia,Hong Kong,,,
154.194.144.165,4,7,china-far.com,HK,Asia,Eastern Asia,Hong Kong,,,Hong Kong
47.243.126.64,4,10,china-gold.com,HK,Asia,Eastern Asia,Hong Kong,,,Hong Kong
47.243.181.99,4,9,china-holiday.com,HK,Asia,Eastern Asia,Hong Kong,,,Hong Kong
185.239.224.4,4,4,china-item.com,HK,Asia,Eastern Asia,Hong Kong,,,
35.215.130.189,4,13,china-pin.info,HK,Asia,Eastern Asia,Hong Kong,,,Hong Kong
103.24.249.169,4,1,china10.org,HK,Asia,Eastern Asia,Hong Kong,,,
119.28.60.147,4,-19,china95.net,HK,Asia,Eastern Asia,Hong Kong,,,Hong Kong
154.31.248.135,4,-463381,chinadmoz.com.cn,HK,Asia,Eastern Asia,Hong Kong,,,Hong Kong
159.138.9.85,4,8,chinadrtv.com,HK,Asia,Eastern Asia,Hong Kong,,,Hong Kong
116.251.206.184,4,3,chinaeducenter.com,HK,Asia,Eastern Asia,Hong Kong,,,
139.5.183.14,4,3,chinaep.net,HK,Asia,Eastern Asia,Hong Kong,,,
8.218.203.93,4,7,chinaexhibition.com,HK,Asia,Eastern Asia,Hong Kong,,,Hong Kong
47.90.14.203,4,5,chinagugen.com,HK,Asia,Eastern Asia,Hong Kong,,,Hong Kong
47.76.38.72,4,6,chinakong.com,HK,Asia,Eastern Asia,Hong Kong,,,Hong Kong
152.32.191.88,4,9,chinaliuxue.com.cn,HK,Asia,Eastern Asia,Hong Kong,,,Hong Kong
43.154.67.114,4,-13,chinandt.com.cn,HK,Asia,Eastern Asia,Hong Kong,,,Hong Kong
8.210.154.70,4,7,chinapyg.com,HK,Asia,Eastern Asia,Hong Kong,,,Hong Kong
154.212.148.140,4,25,chinawj.com.cn,HK,Asia,Eastern Asia,Hong Kong,,,
47.244.231.28,4,7,chinawmf.org.cn,HK,Asia,Eastern Asia,Hong Kong,,,Hong Kong
8.210.63.137,4,7,chinesean.com,HK,Asia,Eastern Asia,Hong Kong,,,Hong Kong
8.210.155.20,4,8,chinesefn.com,HK,Asia,Eastern Asia,Hong Kong,,,Hong Kong
47.52.22.131,4,7,chintglobal.com,HK,Asia,Eastern Asia,Hong Kong,,,Hong Kong
154.211.79.229,4,11,chnexpo365.com,HK,Asia,Eastern Asia,Hong Kong,,,
35.220.231.234,4,6,chnqc315.org,HK,Asia,Eastern Asia,Hong Kong,,,Hong Kong
47.76.191.139,4,9,chongwu.cc,HK,Asia,Eastern Asia,Hong Kong,,,Hong Kong
172.96.185.245,4,18,chosaigon.edu.vn,HK,Asia,Eastern Asia,Hong Kong,,,
116.251.205.34,4,22,christianschwartz.com,HK,Asia,Eastern Asia,Hong Kong,,,
203.124.11.65,4,17,christianstudy.com,HK,Asia,Eastern Asia,Hong Kong,,,
47.242.249.13,4,10,chstny.cn,HK,Asia,Eastern Asia,Hong Kong,,,Hong Kong
8.210.106.75,4,9,chtf.com,HK,Asia,Eastern Asia,Hong Kong,,,Hong Kong
154.194.144.166,4,9,chuandazhiapp.com,HK,Asia,Eastern Asia,Hong Kong,,,Hong Kong
154.194.144.167,4,7,chuangban99.com,HK,Asia,Eastern Asia,Hong Kong,,,Hong Kong
103.57.229.232,4,8,chuangxianghd.com,HK,Asia,Eastern Asia,Hong Kong,,,
154.194.144.168,4,8,chuangyanbuy.com,HK,Asia,Eastern Asia,Hong Kong,,,Hong Kong
190.92.235.89,4,9,chuhai.edu.hk,HK,Asia,Eastern Asia,Hong Kong,,,Hong Kong
154.194.147.78,4,5,chuiju123.com,HK,Asia,Eastern Asia,Hong Kong,,,Hong Kong
43.252.167.254,4,278,chupwo.com,HK,Asia,Eastern Asia,Hong Kong,,,
154.194.144.169,4,7,chuxueb.com,HK,Asia,Eastern Asia,Hong Kong,,,Hong Kong
103.41.6.174,4,7,chvec.com,HK,Asia,Eastern Asia,Hong Kong,,,
156.234.92.140,4,7,cialisuqpor.com,HK,Asia,Eastern Asia,Hong Kong,,,Hong Kong
223.121.13.20,4,-143,citizen.digital,HK,Asia,Eastern Asia,Hong Kong,,,
35.220.211.211,4,4,citychurchabq.org,HK,Asia,Eastern Asia,Hong Kong,,,Hong Kong
154.204.193.203,4,8,cityslive.com,HK,Asia,Eastern Asia,Hong Kong,,,
218.213.216.24,4,-380,citysuper.com.hk,HK,Asia,Eastern Asia,Hong Kong,,,
47.52.46.99,4,41,cityu.edu.mo,HK,Asia,Eastern Asia,Hong Kong,,,Hong Kong
154.194.144.171,4,16,cj-jyl.com,HK,Asia,Eastern Asia,Hong Kong,,,Hong Kong
154.194.144.170,4,8,cjbjff.com,HK,Asia,Eastern Asia,Hong Kong,,,Hong Kong
154.194.144.172,4,97,ckdiczgtxc.com,HK,Asia,Eastern Asia,Hong Kong,,,Hong Kong
43.249.0.216,4,0,ckgbearing.com,HK,Asia,Eastern Asia,Hong Kong,,,
114.142.152.234,4,-10,clarks.com.cn,HK,Asia,Eastern Asia,Hong Kong,,,
156.241.70.230,4,-4,clearpatth.com,HK,Asia,Eastern Asia,Hong Kong,,,
154.197.231.123,4,14,clipartmax.com,HK,Asia,Eastern Asia,Hong Kong,,,Hong Kong
156.234.111.37,4,51,clonidtop.com,HK,Asia,Eastern Asia,Hong Kong,,,Hong Kong
34.96.166.252,4,6,clouddatatrain.biz,HK,Asia,Eastern Asia,Hong Kong,,,Hong Kong
154.211.14.98,4,7479,cloverdale-china.com,HK,Asia,Eastern Asia,Hong Kong,,,
154.209.40.106,4,1,clqcclw.com,HK,Asia,Eastern Asia,Hong Kong,,,
154.209.49.202,4,32,clr365.com,HK,Asia,Eastern Asia,Hong Kong,,,
154.204.193.196,4,28,clsjvision.com,HK,Asia,Eastern Asia,Hong Kong,,,
154.194.144.173,4,26,clw919.com,HK,Asia,Eastern Asia,Hong Kong,,,Hong Kong
156.241.100.140,4,27922480,clwgov.com,HK,Asia,Eastern Asia,Hong Kong,,,
103.38.252.169,4,192436,cmseasy.cn,HK,Asia,Eastern Asia,Hong Kong,,,
8.210.40.128,4,9,cmsone.cc,HK,Asia,Eastern Asia,Hong Kong,,,Hong Kong
45.121.82.229,4,-20,cmwh33.com,HK,Asia,Eastern Asia,Hong Kong,,,
83.150.226.5,4,7,cmyxgame.com,HK,Asia,Eastern Asia,Hong Kong,,,
154.211.77.217,4,9,cn-xggg.com,HK,Asia,Eastern Asia,Hong Kong,,,
157.119.94.39,4,2,cn716.com,HK,Asia,Eastern Asia,Hong Kong,,,
154.216.110.115,4,4,cnbaomin.com,HK,Asia,Eastern Asia,Hong Kong,,,Hong Kong
159.138.6.86,4,15,cnbaoxianw.com,HK,Asia,Eastern Asia,Hong Kong,,,Hong Kong
154.220.47.73,4,6,cndraft.com,HK,Asia,Eastern Asia,Hong Kong,,,
47.244.187.240,4,8,cnfood.com,HK,Asia,Eastern Asia,Hong Kong,,,Hong Kong
18.167.211.154,4,-10,cngaosu.com,HK,Asia,Eastern Asia,Hong Kong,,,
154.92.42.165,4,2,cntiancai.com,HK,Asia,Eastern Asia,Hong Kong,,,
47.238.116.74,4,8,cnw-highlights.org,HK,Asia,Eastern Asia,Hong Kong,,,Hong Kong
8.210.159.212,4,8,cnzx315.com,HK,Asia,Eastern Asia,Hong Kong,,,Hong Kong
154.12.82.182,4,3,cnzzla.com,HK,Asia,Eastern Asia,Hong Kong,Yau Tsim Mong,,Mong Kok
206.119.1.210,4,5,cocoron-hz.com,HK,Asia,Eastern Asia,Hong Kong,,,Hong Kong
35.215.160.205,4,10,cocotierlodge-nosybe.com,HK,Asia,Eastern Asia,Hong Kong,,,Hong Kong
154.92.41.200,4,13,cofcoteaquanzhou.com,HK,Asia,Eastern Asia,Hong Kong,,,
103.6.86.203,4,968330,coffeejp.com,HK,Asia,Eastern Asia,Hong Kong,,,Hong Kong
43.129.206.181,4,-13,comairrotron.com,HK,Asia,Eastern Asia,Hong Kong,,,Hong Kong
8.210.157.232,4,10,comparison.cn,HK,Asia,Eastern Asia,Hong Kong,,,Hong Kong
154.220.37.77,4,15,competencestar.com,HK,Asia,Eastern Asia,Hong Kong,,,
43.239.165.28,4,-20,cookinglab1.com,HK,Asia,Eastern Asia,Hong Kong,,,
113.10.158.115,4,17,copowe.com,HK,Asia,Eastern Asia,Hong Kong,,,
223.29.248.100,4,54,corp-webmail.com,HK,Asia,Eastern Asia,Hong Kong,,,
154.204.192.155,4,13,corsalye.com,HK,Asia,Eastern Asia,Hong Kong,,,
154.92.72.43,4,9,coursehr.com,HK,Asia,Eastern Asia,Hong Kong,,,
47.242.16.68,4,12,coyada.com,HK,Asia,Eastern Asia,Hong Kong,,,Hong Kong
38.181.171.163,4,12,cpic-ing.com.cn,HK,Asia,Eastern Asia,Hong Kong,,,
35.215.133.138,4,12,cpkj116868.com,HK,Asia,Eastern Asia,Hong Kong,,,Hong Kong
35.215.152.160,4,32,cpkj16688.com,HK,Asia,Eastern Asia,Hong Kong,,,Hong Kong
154.204.196.69,4,8,cqbingniao.com,HK,Asia,Eastern Asia,Hong Kong,,,
154.204.194.2,4,5,cqdiaoyou.com,HK,Asia,Eastern Asia,Hong Kong,,,
154.194.144.174,4,6,cqgxrc.com,HK,Asia,Eastern Asia,Hong Kong,,,Hong Kong
185.51.166.30,4,3,cqlfy1.com,HK,Asia,Eastern Asia,Hong Kong,,,
156.245.51.227,4,9,cqlszx.com,HK,Asia,Eastern Asia,Hong Kong,,,
154.194.144.175,4,9,cqminrui.com,HK,Asia,Eastern Asia,Hong Kong,,,Hong Kong
154.211.84.117,4,23,cqsongxia.net,HK,Asia,Eastern Asia,Hong Kong,,,
154.215.114.209,4,8,cqtzm168.cn,HK,Asia,Eastern Asia,Hong Kong,,,Hong Kong
154.204.231.70,4,7,crcpackco.com,HK,Asia,Eastern Asia,Hong Kong,,,
156.241.135.131,4,24,creditgrade.cn,HK,Asia,Eastern Asia,Hong Kong,,,
156.234.152.119,4,32,crestatin.com,HK,Asia,Eastern Asia,Hong Kong,,,Hong Kong
35.215.137.33,4,10,crocilismen.com,HK,Asia,Eastern Asia,Hong Kong,,,Hong Kong
8.218.193.164,4,7,crxsoso.com,HK,Asia,Eastern Asia,Hong Kong,,,Hong Kong
34.150.123.71,4,99,csbc.com.tw,HK,Asia,Eastern Asia,Hong Kong,,,Hong Kong
154.194.144.176,4,9,csdeeplove.com,HK,Asia,Eastern Asia,Hong Kong,,,Hong Kong
8.217.81.203,4,13,csdndocs.com,HK,Asia,Eastern Asia,Hong Kong,,,Hong Kong
8.218.227.64,4,43,csds-burner.com,HK,Asia,Eastern Asia,Hong Kong,,,Hong Kong
119.8.62.0,4,6,cse.edu.cn,HK,Asia,Eastern Asia,Hong Kong,,,Hong Kong
103.199.245.230,4,8,csharp-eval.com,HK,Asia,Eastern Asia,Hong Kong,,,
43.132.175.57,4,-15,cssmoban.com,HK,Asia,Eastern Asia,Hong Kong,,,Hong Kong
154.194.144.177,4,9,csyongda.com,HK,Asia,Eastern Asia,Hong Kong,,,Hong Kong
47.56.193.8,4,9,ctdisk.com,HK,Asia,Eastern Asia,Hong Kong,,,Hong Kong
47.56.109.241,4,11,ctdisk.com,HK,Asia,Eastern Asia,Hong Kong,,,Hong Kong
103.21.220.4,4,9,cudans105.com,HK,Asia,Eastern Asia,Hong Kong,,,Hong Kong
129.226.172.152,4,-15,cukv.com,HK,Asia,Eastern Asia,Hong Kong,,,Hong Kong
8.217.122.33,4,6,cupfox.love,HK,Asia,Eastern Asia,Hong Kong,,,Hong Kong
47.76.183.68,4,9,cupfox.love,HK,Asia,Eastern Asia,Hong Kong,,,Hong Kong
8.217.49.180,4,9,cupfox.love,HK,Asia,Eastern Asia,Hong Kong,,,Hong Kong
154.204.193.205,4,8,cuyouxuan.com,HK,Asia,Eastern Asia,Hong Kong,,,
103.215.80.62,4,316495,cwmlbb.com,HK,Asia,Eastern Asia,Hong Kong,,,
47.75.126.150,4,20,cx368.com,HK,Asia,Eastern Asia,Hong Kong,,,Hong Kong
154.216.110.125,4,6,cxceco.com,HK,Asia,Eastern Asia,Hong Kong,,,Hong Kong
154.220.59.89,4,1,cxpjjh.com,HK,Asia,Eastern Asia,Hong Kong,,,
154.209.54.145,4,5,cxzhhb.com,HK,Asia,Eastern Asia,Hong Kong,,,
154.204.198.200,4,22,cxzm.com.cn,HK,Asia,Eastern Asia,Hong Kong,,,
156.234.86.69,4,8,cyberkilla.com,HK,Asia,Eastern Asia,Hong Kong,,,Hong Kong
182.173.76.90,4,3752,cycanfood.com,HK,Asia,Eastern Asia,Hong Kong,,,
154.212.195.245,4,9,cydskyj.com,HK,Asia,Eastern Asia,Hong Kong,,,
154.23.123.218,4,28714952,cyfsfk.com,HK,Asia,Eastern Asia,Hong Kong,Eastern,,Chai Wan
154.211.78.164,4,14,cymtzhengfang.com,HK,Asia,Eastern Asia,Hong Kong,,,
154.220.37.78,4,1,cyzycs.com,HK,Asia,Eastern Asia,Hong Kong,,,
154.194.150.103,4,5,czbggs.com,HK,Asia,Eastern Asia,Hong Kong,,,Hong Kong
154.89.104.241,4,10,czbsbldq.com,HK,Asia,Eastern Asia,Hong Kong,,,Hong Kong
154.209.49.203,4,3,czhsd888.com,HK,Asia,Eastern Asia,Hong Kong,,,
154.212.204.91,4,7,czsongjiu.com,HK,Asia,Eastern Asia,Hong Kong,,,
156.225.145.147,4,24045941,cztdlgd.com,HK,Asia,Eastern Asia,Hong Kong,,,
154.38.118.32,4,3,da168.cn,HK,Asia,Eastern Asia,Hong Kong,,,Hong Kong
154.194.144.178,4,7,dadabew.com,HK,Asia,Eastern Asia,Hong Kong,,,Hong Kong
154.194.144.179,4,8,daguoshengshicn.com,HK,Asia,Eastern Asia,Hong Kong,,,Hong Kong
8.218.178.121,4,59,dahan.com.tw,HK,Asia,Eastern Asia,Hong Kong,,,Hong Kong
45.113.160.75,4,104766,daidaijx.cn,HK,Asia,Eastern Asia,Hong Kong,,,
154.220.47.74,4,-1,dalaba6.com,HK,Asia,Eastern Asia,Hong Kong,,,
154.194.144.180,4,8,damokaoroufan.com,HK,Asia,Eastern Asia,Hong Kong,,,Hong Kong
156.225.144.117,4,24045904,danganweishi.com,HK,Asia,Eastern Asia,Hong Kong,,,
8.217.109.89,4,8,danji6.com,HK,Asia,Eastern Asia,Hong Kong,,,Hong Kong
43.154.246.62,4,-11,danmanba.cc,HK,Asia,Eastern Asia,Hong Kong,,,Hong Kong
154.220.45.87,4,5,daoluyuan.com,HK,Asia,Eastern Asia,Hong Kong,,,
154.204.192.157,4,8,dashengjk.com,HK,Asia,Eastern Asia,Hong Kong,,,
103.44.163.3,4,3,dataplugs.com,HK,Asia,Eastern Asia,Hong Kong,,,
35.215.159.63,4,10,dataroom.biz,HK,Asia,Eastern Asia,Hong Kong,,,Hong Kong
34.96.247.198,4,10,datingonlinehot.com,HK,Asia,Eastern Asia,Hong Kong,,,Hong Kong
154.194.147.76,4,9,daxiasc.com,HK,Asia,Eastern Asia,Hong Kong,,,Hong Kong
154.206.142.226,4,15,daydreamspin.com,HK,Asia,Eastern Asia,Hong Kong,,,Hong Kong
47.238.235.12,4,32,dayehuangyangqiu.com,HK,Asia,Eastern Asia,Hong Kong,,,Hong Kong
154.194.144.181,4,8,dayoubaoxian.com,HK,Asia,Eastern Asia,Hong Kong,,,Hong Kong
154.212.194.10,4,26,dayuzhizheyangche.com,HK,Asia,Eastern Asia,Hong Kong,,,
156.241.122.219,4,8,dbxqt.com,HK,Asia,Eastern Asia,Hong Kong,,,
210.184.251.68,4,422019,dcfever.com,HK,Asia,Eastern Asia,Hong Kong,Wan Chai,,Wan Chai
8.212.113.162,4,6,ddc.net.cn,HK,Asia,Eastern Asia,Hong Kong,,,Hong Kong
38.207.133.24,4,4,ddd.com,HK,Asia,Eastern Asia,Hong Kong,,,Hong Kong
154.194.144.182,4,7,ddlmapp.com,HK,Asia,Eastern Asia,Hong Kong,,,Hong Kong
154.209.54.153,4,5,ddylkj.com,HK,Asia,Eastern Asia,Hong Kong,,,
38.181.16.23,4,0,dechengtaiji.com,HK,Asia,Eastern Asia,Hong Kong,,,Hong Kong
129.226.134.135,4,3,deerchao.net,HK,Asia,Eastern Asia,Hong Kong,,,Hong Kong
156.245.102.15,4,69,deizheng8.com,HK,Asia,Eastern Asia,Hong Kong,,,
185.149.120.83,4,12,delfin-tour.ru,HK,Asia,Eastern Asia,Hong Kong,,,
47.57.7.65,4,13,deljia.cn,HK,Asia,Eastern Asia,Hong Kong,,,Hong Kong
154.206.204.66,4,21,deportes216.com,HK,Asia,Eastern Asia,Hong Kong,,,Hong Kong
154.214.70.156,4,49,dfhuchou.com,HK,Asia,Eastern Asia,Hong Kong,,,Hong Kong
103.197.217.199,4,7,dgaohong.com,HK,Asia,Eastern Asia,Hong Kong,,,
103.68.182.117,4,-14,dgganghua.com,HK,Asia,Eastern Asia,Hong Kong,,,
156.245.124.102,4,-28944860,dghttz.com,HK,Asia,Eastern Asia,Hong Kong,,,
156.234.148.203,4,7,dgshunfafa.com,HK,Asia,Eastern Asia,Hong Kong,,,Hong Kong
154.23.123.205,4,28714955,dh106.com,HK,Asia,Eastern Asia,Hong Kong,Eastern,,Chai Wan
172.96.185.159,4,13,dhcsolar.com,HK,Asia,Eastern Asia,Hong Kong,,,
35.215.169.113,4,9,dhserb.com,HK,Asia,Eastern Asia,Hong Kong,,,Hong Kong
154.220.48.130,4,0,dianenkj01.com,HK,Asia,Eastern Asia,Hong Kong,,,
154.194.130.244,4,15,dianka333.com,HK,Asia,Eastern Asia,Hong Kong,,,Hong Kong
220.158.254.225,4,12,diannei.org,HK,Asia,Eastern Asia,Hong Kong,,,
172.96.185.238,4,7,diendantuyensinh24h.com,HK,Asia,Eastern Asia,Hong Kong,,,
8.218.62.241,4,7,dingtreehk.com,HK,Asia,Eastern Asia,Hong Kong,,,Hong Kong
58.64.142.44,4,27636456,directel.com.hk,HK,Asia,Eastern Asia,Hong Kong,,,
154.212.146.24,4,35,dixunzh.com,HK,Asia,Eastern Asia,Hong Kong,,,
154.197.181.55,4,3,djdydjh.cn,HK,Asia,Eastern Asia,Hong Kong,,,Hong Kong
43.243.44.102,4,-18,dlrzgh.com,HK,Asia,Eastern Asia,Hong Kong,,,
156.240.43.169,4,14,dluelot.com,HK,Asia,Eastern Asia,Hong Kong,,,Hong Kong
223.29.249.141,4,8,dmpshow.com,HK,Asia,Eastern Asia,Hong Kong,,,
154.204.176.209,4,-31241,dnf6070.com,HK,Asia,Eastern Asia,Hong Kong,,,
116.48.132.6,4,-5,DNS Server: 006.132.48.116.static.netvigator.com,HK,Asia,Eastern Asia,Hong Kong,,,
14.136.16.86,4,-826695,DNS Server: 014136016086.ctinets.com,HK,Asia,Eastern Asia,Hong Kong,,,
14.136.151.52,4,-9973,DNS Server: 014136151052.ctinets.com,HK,Asia,Eastern Asia,Hong Kong,,,
58.176.233.4,4,-322802,DNS Server: 058176233004.ctinets.com,HK,Asia,Eastern Asia,Hong Kong,,,
61.238.97.254,4,-28331409,DNS Server: 061238097254.ctinets.com,HK,Asia,Eastern Asia,Hong Kong,,,
61.244.14.62,4,9,DNS Server: 061244014062.ctinets.com,HK,Asia,Eastern Asia,Hong Kong,,,
61.244.47.21,4,121,DNS Server: 061244047021.ctinets.com,HK,Asia,Eastern Asia,Hong Kong,,,
61.244.133.224,4,-34976313,DNS Server: 061244133224.ctinets.com,HK,Asia,Eastern Asia,Hong Kong,Wan Chai,,Wan Chai
203.198.161.89,4,51,DNS Server: 089.161.198.203.static.netvigator.com,HK,Asia,Eastern Asia,Hong Kong,Yau Tsim Mong,,Jordan
1.36.122.247,4,37,DNS Server: 1-36-122-247.ptr.netvigator.com,HK,Asia,Eastern Asia,Hong Kong,,,
1.64.127.229,4,1091,DNS Server: 1-64-127-229.static.netvigator.com,HK,Asia,Eastern Asia,Hong Kong,,,
1.64.163.193,4,595,DNS Server: 1-64-163-193.static.netvigator.com,HK,Asia,Eastern Asia,Hong Kong,,,
1.64.209.100,4,58,DNS Server: 1-64-209-100.static.netvigator.com,HK,Asia,Eastern Asia,Hong Kong,,,
1.64.45.187,4,79,DNS Server: 1-64-45-187.static.netvigator.com,HK,Asia,Eastern Asia,Hong Kong,,,
1.64.55.14,4,303,DNS Server: 1-64-55-014.static.netvigator.com,HK,Asia,Eastern Asia,Hong Kong,,,
1.65.182.116,4,-1726597031,DNS Server: 1-65-182-116.static.netvigator.com,HK,Asia,Eastern Asia,Hong Kong,,,
1.65.202.61,4,153,DNS Server: 1-65-202-061.static.netvigator.com,HK,Asia,Eastern Asia,Hong Kong,,,
1.65.208.107,4,87,DNS Server: 1-65-208-107.static.netvigator.com,HK,Asia,Eastern Asia,Hong Kong,,,
113.28.67.105,4,190,DNS Server: 113-28-67-105.static.imsbiz.com,HK,Asia,Eastern Asia,Hong Kong,,,
113.28.67.147,4,209,DNS Server: 113-28-67-147.static.imsbiz.com,HK,Asia,Eastern Asia,Hong Kong,,,
113.28.71.243,4,965,DNS Server: 113-28-71-243.static.imsbiz.com,HK,Asia,Eastern Asia,Hong Kong,,,
203.198.78.180,4,25,DNS Server: 180.78.198.203.static.netvigator.com,HK,Asia,Eastern Asia,Hong Kong,,,
183.178.62.246,4,12,DNS Server: 183178062246.ctinets.com,HK,Asia,Eastern Asia,Hong Kong,,,
183.178.70.111,4,49,DNS Server: 183178070111.ctinets.com,HK,Asia,Eastern Asia,Hong Kong,,,
190.102.109.41,4,9,DNS Server: 190-102-109-41.static.hvvc.us,HK,Asia,Eastern Asia,Hong Kong,,,Kai Yi Wan
116.48.144.195,4,387,DNS Server: 195.144.48.116.static.netvigator.com,HK,Asia,Eastern Asia,Hong Kong,Eastern,,North Point
202.60.225.49,4,205597,DNS Server: 202.60.225.049.static.cyberec.com,HK,Asia,Eastern Asia,Hong Kong,,,
203.186.102.170,4,773,DNS Server: 203186102170.static.ctinets.com,HK,Asia,Eastern Asia,Hong Kong,Central and Western District,,Central
210.6.24.146,4,5,DNS Server: 210006024146.ctinets.com,HK,Asia,Eastern Asia,Hong Kong,,,
210.6.27.234,4,4,DNS Server: 210006027234.ctinets.com,HK,Asia,Eastern Asia,Hong Kong,,,
5.42.213.50,4,25954708,DNS Server: 213.42.5.50.lease.net,HK,Asia,Eastern Asia,Hong Kong,,,
5.42.213.82,4,2362,DNS Server: 213.42.5.82.lease.net,HK,Asia,Eastern Asia,Hong Kong,,,
223.18.45.242,4,-6,DNS Server: 242-45-18-223-on-nets.com,HK,Asia,Eastern Asia,Hong Kong,,,
42.2.127.92,4,133,DNS Server: 42-2-127-092.static.netvigator.com,HK,Asia,Eastern Asia,Hong Kong,,,
42.200.83.8,4,222,DNS Server: 42-200-83-8.static.imsbiz.com,HK,Asia,Eastern Asia,Hong Kong,,,
42.200.91.189,4,225,DNS Server: 42-200-91-189.static.imsbiz.com,HK,Asia,Eastern Asia,Hong Kong,,,
72.255.226.226,4,-28824753,DNS Server: 72-255-226-226.static.imsbiz.com,HK,Asia,Eastern Asia,Hong Kong,,,
72.255.242.63,4,-53292,DNS Server: 72-255-242-063.static.imsbiz.com,HK,Asia,Eastern Asia,Hong Kong,,,
218.253.238.86,4,102,DNS Server: 86.238-253-218-static.reserve.wtt.net.hk,HK,Asia,Eastern Asia,Hong Kong,,,
218.255.196.90,4,-262,DNS Server: 90.196-255-218-static.reserve.wtt.net.hk,HK,Asia,Eastern Asia,Hong Kong,,,
94.190.209.180,4,161,DNS Server: 94-190-209-180.static.imsbiz.com,HK,Asia,Eastern Asia,Hong Kong,,,
94.190.228.223,4,7029,DNS Server: 94-190-228-223.static.imsbiz.com,HK,Asia,Eastern Asia,Hong Kong,,,
94.190.231.72,4,77,DNS Server: 94-190-231-072.static.imsbiz.com,HK,Asia,Eastern Asia,Hong Kong,,,
5.188.33.195,4,105,DNS Server: a1.ytdx.cc,HK,Asia,Eastern Asia,Hong Kong,,,Hong Kong
218.252.205.51,4,1432262,DNS Server: cm218-252-205-51.hkcable.com.hk,HK,Asia,Eastern Asia,Hong Kong,,,
202.62.222.222,4,7492,DNS Server: dns01.etnet.com.hk,HK,Asia,Eastern Asia,Hong Kong,,,
202.62.222.220,4,11311,DNS Server: dns02.etnet.com.hk,HK,Asia,Eastern Asia,Hong Kong,,,
18.167.5.157,4,-13,DNS Server: ec2-18-167-5-157.ap-east-1.compute.amazonaws.com,HK,Asia,Eastern Asia,Hong Kong,,,
119.13.92.87,4,15,DNS Server: ecs-119-13-92-87.compute.hwclouds-dns.com,HK,Asia,Eastern Asia,Hong Kong,,,Hong Kong
210.3.234.46,4,9557210,DNS Server: mail.etradehk.com,HK,Asia,Eastern Asia,Hong Kong,,,Ngau Kok Wan
103.48.142.109,4,1817284,DNS Server: mx2.haikuasia.com,HK,Asia,Eastern Asia,Hong Kong,,,
119.237.199.168,4,201,DNS Server: n119237199168.netvigator.com,HK,Asia,Eastern Asia,Hong Kong,,,
218.250.91.158,4,2968,DNS Server: n218250091158.netvigator.com,HK,Asia,Eastern Asia,Hong Kong,Kowloon City,,Kowloon City
219.77.18.54,4,193,DNS Server: n219077018054.netvigator.com,HK,Asia,Eastern Asia,Hong Kong,,,
219.78.193.143,4,169,DNS Server: n219078193143.netvigator.com,HK,Asia,Eastern Asia,Hong Kong,,,
218.188.25.94,4,666,DNS Server: ns.concordns.com,HK,Asia,Eastern Asia,Hong Kong,,,
103.246.244.143,4,99,DNS Server: sec2.alpinaasia.com,HK,Asia,Eastern Asia,Hong Kong,,,
18.162.249.100,4,315,DNS Server: warejobber.com,HK,Asia,Eastern Asia,Hong Kong,,,
154.26.193.209,4,10,dntcq.com,HK,Asia,Eastern Asia,Hong Kong,,,Hong Kong
43.155.104.53,4,9,dobot.cc,HK,Asia,Eastern Asia,Hong Kong,,,Hong Kong
154.209.45.194,4,5,dog126.com,HK,Asia,Eastern Asia,Hong Kong,,,
156.240.221.84,4,7,doido.com,HK,Asia,Eastern Asia,Hong Kong,,,
154.220.64.240,4,8,donghe17.com,HK,Asia,Eastern Asia,Hong Kong,,,
154.38.89.73,4,45,dongjihuanleya.cn,HK,Asia,Eastern Asia,Hong Kong,,,Hong Kong
154.91.6.149,4,32,dongtaimanhua.com,HK,Asia,Eastern Asia,Hong Kong,,,Hong Kong
154.204.193.200,4,8,douhaodoushaniuru.com,HK,Asia,Eastern Asia,Hong Kong,,,
154.212.174.61,4,95,douyakanhai.com,HK,Asia,Eastern Asia,Hong Kong,,,
34.92.44.218,4,8,doxycyclinesale.pro,HK,Asia,Eastern Asia,Hong Kong,,,Hong Kong
154.209.49.212,4,9,dq77h.com,HK,Asia,Eastern Asia,Hong Kong,,,
154.216.127.134,4,5,dr-algae.com,HK,Asia,Eastern Asia,Hong Kong,,,Hong Kong
154.212.200.134,4,11,dreamerschina.com,HK,Asia,Eastern Asia,Hong Kong,,,
154.194.144.183,4,5,droneserviceplay.com,HK,Asia,Eastern Asia,Hong Kong,,,Hong Kong
156.240.50.185,4,20,drxyrecf.cn,HK,Asia,Eastern Asia,Hong Kong,,,Hong Kong
154.212.200.130,4,8,dsfasdfhkajsdnfkasdf.com,HK,Asia,Eastern Asia,Hong Kong,,,
43.154.19.19,4,-14,dslmsrq.com,HK,Asia,Eastern Asia,Hong Kong,,,Hong Kong
103.16.228.81,4,8,dsturgeon.net,HK,Asia,Eastern Asia,Hong Kong,,,
154.214.112.102,4,8,dtnacnr.cn,HK,Asia,Eastern Asia,Hong Kong,,,Hong Kong
156.234.201.189,4,4,dtshot.com,HK,Asia,Eastern Asia,Hong Kong,,,Hong Kong
103.141.131.159,4,296117,dtyzwmw.com,HK,Asia,Eastern Asia,Hong Kong,,,
154.212.198.183,4,7,dubhecommerce.com,HK,Asia,Eastern Asia,Hong Kong,,,
154.212.230.75,4,5,duckydestin.com,HK,Asia,Eastern Asia,Hong Kong,,,
154.214.71.99,4,16,dujhx.com,HK,Asia,Eastern Asia,Hong Kong,,,Hong Kong
154.194.144.184,4,7,duolimihotels.com,HK,Asia,Eastern Asia,Hong Kong,,,Hong Kong
47.52.247.99,4,14,dute.org,HK,Asia,Eastern Asia,Hong Kong,,,Hong Kong
116.251.204.100,4,13,dvc.hk,HK,Asia,Eastern Asia,Hong Kong,,,
62.192.190.47,4,13,dvdpacific.com,HK,Asia,Eastern Asia,Hong Kong,,,
103.75.117.33,4,7,dwhd.org,HK,Asia,Eastern Asia,Hong Kong,,,Hong Kong
154.38.83.72,4,8,dwqydl.com,HK,Asia,Eastern Asia,Hong Kong,,,Hong Kong
154.211.84.23,4,11,dxtoffice.com,HK,Asia,Eastern Asia,Hong Kong,,,
43.252.230.217,4,24640,dxzw.com,HK,Asia,Eastern Asia,Hong Kong,,,
156.254.175.82,4,3,dyfalv.com,HK,Asia,Eastern Asia,Hong Kong,,,
154.23.145.118,4,10,dytoyjp.com,HK,Asia,Eastern Asia,Hong Kong,,,Hong Kong
154.218.135.72,4,9,dz-press.com,HK,Asia,Eastern Asia,Hong Kong,,,
156.254.175.87,4,7,dzjtx.com,HK,Asia,Eastern Asia,Hong Kong,,,
156.241.65.188,4,8,dzljcl.com,HK,Asia,Eastern Asia,Hong Kong,,,
154.23.159.250,4,11,dzpcjx.com,HK,Asia,Eastern Asia,Hong Kong,,,Hong Kong
47.76.222.159,4,7,e-keli.com,HK,Asia,Eastern Asia,Hong Kong,,,Hong Kong
43.128.31.121,4,-15,e2esoft.com,HK,Asia,Eastern Asia,Hong Kong,,,Hong Kong
47.243.53.125,4,9,ea666.cn,HK,Asia,Eastern Asia,Hong Kong,,,Hong Kong
47.242.199.33,4,12,eait.co,HK,Asia,Eastern Asia,Hong Kong,,,Hong Kong
150.129.81.18,4,2,easy-sheds.com,HK,Asia,Eastern Asia,Hong Kong,,,
103.71.50.155,4,117,easy-sheds.com,HK,Asia,Eastern Asia,Hong Kong,,,
103.117.120.29,4,1055,easy-sheds.com,HK,Asia,Eastern Asia,Hong Kong,,,
103.27.79.57,4,5,easy-sheds.com,HK,Asia,Eastern Asia,Hong Kong,,,Hong Kong
45.127.126.66,4,7,easy-sheds.com,HK,Asia,Eastern Asia,Hong Kong,,,
149.129.94.168,4,12,easyai.tech,HK,Asia,Eastern Asia,Hong Kong,,,Hong Kong
119.8.38.212,4,2022,easyrgb.com,HK,Asia,Eastern Asia,Hong Kong,,,Hong Kong
103.148.150.111,4,-3475237,ebg.com.cn,HK,Asia,Eastern Asia,Hong Kong,,,
8.212.56.226,4,10,ecar168.cn,HK,Asia,Eastern Asia,Hong Kong,,,Hong Kong
43.241.73.180,4,-207,eddyclub.com,HK,Asia,Eastern Asia,Hong Kong,,,
34.92.187.151,4,5,edpharmsn.com,HK,Asia,Eastern Asia,Hong Kong,,,Hong Kong
103.179.242.187,4,9,edu-gov.cn,HK,Asia,Eastern Asia,Hong Kong,,,
129.226.167.242,4,-14,edusunrising.com,HK,Asia,Eastern Asia,Hong Kong,,,Hong Kong
47.52.142.177,4,9,eduydt.com,HK,Asia,Eastern Asia,Hong Kong,,,Hong Kong
47.242.164.7,4,9,eduzhe.com,HK,Asia,Eastern Asia,Hong Kong,,,Hong Kong
43.240.29.197,4,1477,eediscuss.com,HK,Asia,Eastern Asia,Hong Kong,,,
154.214.112.112,4,10,eemyihu.cn,HK,Asia,Eastern Asia,Hong Kong,,,Hong Kong
154.23.60.74,4,650,eeydoo.com,HK,Asia,Eastern Asia,Hong Kong,Eastern,,Chai Wan
154.214.112.100,4,15,efwpmkk.cn,HK,Asia,Eastern Asia,Hong Kong,,,Hong Kong
103.231.254.97,4,82,elchk.org.hk,HK,Asia,Eastern Asia,Hong Kong,,,
154.212.174.49,4,14,ele-smoke.com,HK,Asia,Eastern Asia,Hong Kong,,,
119.28.179.104,4,844,elecdz.cn,HK,Asia,Eastern Asia,Hong Kong,,,Hong Kong
34.92.153.58,4,4,elimite.shop,HK,Asia,Eastern Asia,Hong Kong,,,Hong Kong
43.252.164.236,4,1298,elk.hk,HK,Asia,Eastern Asia,Hong Kong,,,
114.29.236.247,4,20,emkei.cz,HK,Asia,Eastern Asia,Hong Kong,,,Hong Kong
47.57.143.43,4,9,emqx.io,HK,Asia,Eastern Asia,Hong Kong,,,Hong Kong
47.52.132.13,4,23,emuch.net,HK,Asia,Eastern Asia,Hong Kong,,,Hong Kong
154.214.114.67,4,7,enerjimakine.com,HK,Asia,Eastern Asia,Hong Kong,,,Hong Kong
156.226.87.169,4,9,enshizp.com,HK,Asia,Eastern Asia,Hong Kong,,,Hong Kong
20.255.106.8,4,10,enterdesk.com,HK,Asia,Eastern Asia,Hong Kong,,,Hong Kong
47.57.9.53,4,6,eoemarket.com,HK,Asia,Eastern Asia,Hong Kong,,,Hong Kong
154.39.70.135,4,6,eootai.com,HK,Asia,Eastern Asia,Hong Kong,,,Hong Kong
154.214.112.111,4,9,eoridpe.cn,HK,Asia,Eastern Asia,Hong Kong,,,Hong Kong
8.210.178.154,4,15,epathchina.com,HK,Asia,Eastern Asia,Hong Kong,,,Hong Kong
47.57.68.28,4,34,epay.com,HK,Asia,Eastern Asia,Hong Kong,,,Hong Kong
154.214.112.108,4,7,eqvhitc.cn,HK,Asia,Eastern Asia,Hong Kong,,,Hong Kong
43.242.202.103,4,24,erdsrc.com,HK,Asia,Eastern Asia,Hong Kong,,,
103.186.214.131,4,25,erh-hu.com,HK,Asia,Eastern Asia,Hong Kong,,,
119.9.107.149,4,-17,esp32.com,HK,Asia,Eastern Asia,Hong Kong,,,
119.9.116.93,4,6,esp8266.com,HK,Asia,Eastern Asia,Hong Kong,,,
47.90.41.38,4,7,essachina.com,HK,Asia,Eastern Asia,Hong Kong,,,Hong Kong
156.254.167.7,4,-28800027,essjzj.com,HK,Asia,Eastern Asia,Hong Kong,,,
180.92.182.17,4,21,eternalcycle.com,HK,Asia,Eastern Asia,Hong Kong,,,
116.251.205.194,4,4,eurocham-cambodia.org,HK,Asia,Eastern Asia,Hong Kong,,,
113.10.158.72,4,9,everfunart.com,HK,Asia,Eastern Asia,Hong Kong,,,
35.215.152.107,4,11,everyday-apps.com,HK,Asia,Eastern Asia,Hong Kong,,,Hong Kong
8.210.11.161,4,8,exetools.com,HK,Asia,Eastern Asia,Hong Kong,,,Hong Kong
156.226.122.142,4,8571,exujing.com,HK,Asia,Eastern Asia,Hong Kong,,,Hong Kong
154.31.227.186,4,40,fabang.com,HK,Asia,Eastern Asia,Hong Kong,,,Hong Kong
154.220.16.72,4,7,fabulously-homemade.com,HK,Asia,Eastern Asia,Hong Kong,,,
156.234.251.30,4,50,fafuoc.com,HK,Asia,Eastern Asia,Hong Kong,,,Hong Kong
154.220.47.78,4,1,fahuowang100.com,HK,Asia,Eastern Asia,Hong Kong,,,
103.24.251.129,4,0,famensi.com,HK,Asia,Eastern Asia,Hong Kong,,,
8.210.133.46,4,6,famiba.com,HK,Asia,Eastern Asia,Hong Kong,,,Hong Kong
156.241.66.211,4,34,fancynode.com.cn,HK,Asia,Eastern Asia,Hong Kong,,,
154.215.31.152,4,39,fandongqiang.com,HK,Asia,Eastern Asia,Hong Kong,,,
154.212.174.36,4,15,fangkongsc.com,HK,Asia,Eastern Asia,Hong Kong,,,
154.92.72.45,4,14,fangpianqp.com,HK,Asia,Eastern Asia,Hong Kong,,,
119.28.83.110,4,-6,fastsoso.cn,HK,Asia,Eastern Asia,Hong Kong,,,Hong Kong
103.157.28.146,4,2231,fatfailogistics.com,HK,Asia,Eastern Asia,Hong Kong,,,
185.149.120.167,4,2,favorit-motors.ru,HK,Asia,Eastern Asia,Hong Kong,,,
103.15.216.145,4,10,favourlight.com,HK,Asia,Eastern Asia,Hong Kong,,,
154.194.144.185,4,9,fawoj.com,HK,Asia,Eastern Asia,Hong Kong,,,Hong Kong
154.220.125.188,4,23,fbi4u.com,HK,Asia,Eastern Asia,Hong Kong,,,
154.89.104.242,4,11,fbyouxi.com,HK,Asia,Eastern Asia,Hong Kong,,,Hong Kong
172.96.185.217,4,10,fczulia.com,HK,Asia,Eastern Asia,Hong Kong,,,
47.238.119.169,4,9,feifeicms.co,HK,Asia,Eastern Asia,Hong Kong,,,Hong Kong
154.209.49.196,4,32,feitianzu.com,HK,Asia,Eastern Asia,Hong Kong,,,
154.209.37.93,4,26,feixin4.com,HK,Asia,Eastern Asia,Hong Kong,,,
45.122.132.183,4,-17,fengkekc.com,HK,Asia,Eastern Asia,Hong Kong,,,
103.57.229.231,4,23,fengqingyuankeji.com,HK,Asia,Eastern Asia,Hong Kong,,,
154.204.193.198,4,13,fengshecae.com,HK,Asia,Eastern Asia,Hong Kong,,,
103.192.43.6,4,-14,fengshoushidai.com,HK,Asia,Eastern Asia,Hong Kong,,,
154.216.103.135,4,24,fengshouwuyou.com,HK,Asia,Eastern Asia,Hong Kong,,,Hong Kong
154.215.116.149,4,11,fengyun001.cn,HK,Asia,Eastern Asia,Hong Kong,,,Hong Kong
47.57.136.78,4,7,fhyx.hk,HK,Asia,Eastern Asia,Hong Kong,,,Hong Kong
8.218.132.229,4,17,filfox.info,HK,Asia,Eastern Asia,Hong Kong,,,Hong Kong
156.226.116.186,4,7,financasportugal.com,HK,Asia,Eastern Asia,Hong Kong,,,Hong Kong
47.238.203.178,4,24,finchui.com,HK,Asia,Eastern Asia,Hong Kong,,,Hong Kong
69.165.65.135,4,18895,fisherv.com,HK,Asia,Eastern Asia,Hong Kong,,,
156.245.41.175,4,7,fitfuntina.com,HK,Asia,Eastern Asia,Hong Kong,,,
154.204.192.132,4,20,fjguoqiao.com,HK,Asia,Eastern Asia,Hong Kong,,,
47.242.27.89,4,7,fkdcheg.cn,HK,Asia,Eastern Asia,Hong Kong,,,Hong Kong
103.119.131.248,4,73537,flw.cool,HK,Asia,Eastern Asia,Hong Kong,,,
116.66.216.34,4,-17530,flymeos.com,HK,Asia,Eastern Asia,Hong Kong,,,
101.32.76.235,4,-17,fmxk.ac.cn,HK,Asia,Eastern Asia,Hong Kong,,,Hong Kong
45.207.9.216,4,3,fodizi.com,HK,Asia,Eastern Asia,Hong Kong,,,Hong Kong
150.109.61.38,4,-11,fon.org.cn,HK,Asia,Eastern Asia,Hong Kong,,,Hong Kong
45.127.125.4,4,2,forexstar.com.cn,HK,Asia,Eastern Asia,Hong Kong,,,
47.91.153.87,4,6,forngo.org,HK,Asia,Eastern Asia,Hong Kong,,,Hong Kong
8.217.42.160,4,10,foundry.org.hk,HK,Asia,Eastern Asia,Hong Kong,,,Hong Kong
38.181.16.15,4,1,four-well.com,HK,Asia,Eastern Asia,Hong Kong,,,Hong Kong
47.52.101.195,4,54,freestick.cn,HK,Asia,Eastern Asia,Hong Kong,,,Hong Kong
154.23.147.118,4,5,fsboowners.com,HK,Asia,Eastern Asia,Hong Kong,,,Hong Kong
156.234.205.119,4,35,fsbox.net,HK,Asia,Eastern Asia,Hong Kong,,,Hong Kong
43.154.53.244,4,-13,fsbus.com,HK,Asia,Eastern Asia,Hong Kong,,,Hong Kong
149.104.14.36,4,7,fsfangse.com,HK,Asia,Eastern Asia,Hong Kong,,,
154.86.86.205,4,25,fsfkjc.com,HK,Asia,Eastern Asia,Hong Kong,,,
149.104.14.35,4,17,fshuaba.com,HK,Asia,Eastern Asia,Hong Kong,,,
149.104.14.39,4,7,fskangbi.com,HK,Asia,Eastern Asia,Hong Kong,,,
154.204.193.194,4,10,fskjiankang.com,HK,Asia,Eastern Asia,Hong Kong,,,
154.194.144.186,4,11,fslianyin.com,HK,Asia,Eastern Asia,Hong Kong,,,Hong Kong
154.92.68.227,4,8,fslsjd.com,HK,Asia,Eastern Asia,Hong Kong,,,
154.212.194.19,4,8,fslszs.com,HK,Asia,Eastern Asia,Hong Kong,,,
154.194.144.187,4,8,fsqlyc.com,HK,Asia,Eastern Asia,Hong Kong,,,Hong Kong
103.24.250.64,4,3,fssdhtc.com,HK,Asia,Eastern Asia,Hong Kong,,,
149.104.14.34,4,5,fstianjiang.com,HK,Asia,Eastern Asia,Hong Kong,,,
43.239.165.27,4,-10,fswxxt.com,HK,Asia,Eastern Asia,Hong Kong,,,
154.194.144.188,4,8,fsyoumei.com,HK,Asia,Eastern Asia,Hong Kong,,,Hong Kong
202.61.86.205,4,7,ftioio.com,HK,Asia,Eastern Asia,Hong Kong,,,
112.121.182.164,4,0,fujiapuerbbs.com,HK,Asia,Eastern Asia,Hong Kong,,,
154.214.112.113,4,9,fulibon.cn,HK,Asia,Eastern Asia,Hong Kong,,,Hong Kong
154.214.112.104,4,7,fuliotj.cn,HK,Asia,Eastern Asia,Hong Kong,,,Hong Kong
103.133.177.188,4,25,fulizi365.com,HK,Asia,Eastern Asia,Hong Kong,,,
154.214.112.101,4,5,fulizup.cn,HK,Asia,Eastern Asia,Hong Kong,,,Hong Kong
182.237.3.195,4,8,fumankong3.cc,HK,Asia,Eastern Asia,Hong Kong,,,
154.194.144.189,4,9,funderstudy.com,HK,Asia,Eastern Asia,Hong Kong,,,Hong Kong
47.240.170.235,4,7,funsens.com,HK,Asia,Eastern Asia,Hong Kong,,,Hong Kong
88.151.117.167,4,69335,fut.ru,HK,Asia,Eastern Asia,Hong Kong,,,
156.234.172.91,4,7,futouzs.com,HK,Asia,Eastern Asia,Hong Kong,,,Hong Kong
154.89.104.231,4,5,fxtjypt.com,HK,Asia,Eastern Asia,Hong Kong,,,Hong Kong
8.217.82.191,4,7,fxzyou.cn,HK,Asia,Eastern Asia,Hong Kong,,,Hong Kong
156.234.33.13,4,6,fzmfood.com,HK,Asia,Eastern Asia,Hong Kong,,,Hong Kong
156.234.49.83,4,8,fzsdszs.com,HK,Asia,Eastern Asia,Hong Kong,,,Hong Kong
107.151.207.88,4,-12,fzyshcn.com,HK,Asia,Eastern Asia,Hong Kong,,,Hong Kong
154.212.194.23,4,8,g43421.com,HK,Asia,Eastern Asia,Hong Kong,,,
118.140.114.90,4,21,galaxytech.com,HK,Asia,Eastern Asia,Hong Kong,,,
156.226.125.92,4,17,galgalesh.com,HK,Asia,Eastern Asia,Hong Kong,,,Hong Kong
154.212.174.53,4,11,gamaycamera.com,HK,Asia,Eastern Asia,Hong Kong,,,
154.214.112.99,4,19,gamegeeker.cn,HK,Asia,Eastern Asia,Hong Kong,,,Hong Kong
122.10.99.126,4,9,gamemaxpc.com,HK,Asia,Eastern Asia,Hong Kong,,,
154.89.104.232,4,40,gameshishi.com,HK,Asia,Eastern Asia,Hong Kong,,,Hong Kong
47.76.26.156,4,21,ganenn.com,HK,Asia,Eastern Asia,Hong Kong,,,Hong Kong
154.204.192.156,4,9,gaojiahuishoufeizhi.com,HK,Asia,Eastern Asia,Hong Kong,,,
156.234.190.150,4,48,gatortin.com,HK,Asia,Eastern Asia,Hong Kong,,,Hong Kong
154.214.64.68,4,34,gblvwv.com,HK,Asia,Eastern Asia,Hong Kong,,,Hong Kong
156.254.229.99,4,11,gdcea.org,HK,Asia,Eastern Asia,Hong Kong,,,
154.194.144.190,4,6,gddaolugongcheng.com,HK,Asia,Eastern Asia,Hong Kong,,,Hong Kong
154.92.41.208,4,0,gdjl8.com,HK,Asia,Eastern Asia,Hong Kong,,,
154.194.145.130,4,10,gdjx188.com,HK,Asia,Eastern Asia,Hong Kong,,,Hong Kong
210.209.125.6,4,6,gdsongyi.com,HK,Asia,Eastern Asia,Hong Kong,,,
203.205.137.76,4,-32,gdtimg.com,HK,Asia,Eastern Asia,Hong Kong,,,Hong Kong
203.205.136.80,4,-20,gdtimg.com,HK,Asia,Eastern Asia,Hong Kong,,,Hong Kong
203.205.137.181,4,-18,gdtimg.com,HK,Asia,Eastern Asia,Hong Kong,,,Hong Kong
156.254.167.5,4,-28800029,gdtonon.com,HK,Asia,Eastern Asia,Hong Kong,,,
47.242.158.6,4,7,gelonghui.com,HK,Asia,Eastern Asia,Hong Kong,,,Hong Kong
103.61.170.228,4,-17,gelturkiye.com,HK,Asia,Eastern Asia,Hong Kong,,,
154.214.95.48,4,7,gemhanhe.com,HK,Asia,Eastern Asia,Hong Kong,,,Hong Kong
35.215.167.96,4,9,geramipl.com,HK,Asia,Eastern Asia,Hong Kong,,,Hong Kong
156.234.70.23,4,14,gerkia.com.cn,HK,Asia,Eastern Asia,Hong Kong,,,Hong Kong
35.215.186.170,4,9,geschirrverleih.info,HK,Asia,Eastern Asia,Hong Kong,,,Hong Kong
156.234.86.3,4,5,getolmetan.com,HK,Asia,Eastern Asia,Hong Kong,,,Hong Kong
43.231.0.14,4,15,getutor.com.hk,HK,Asia,Eastern Asia,Hong Kong,,,
35.215.179.32,4,12,getvgraed.com,HK,Asia,Eastern Asia,Hong Kong,,,Hong Kong
8.212.75.216,4,9,gezila.com,HK,Asia,Eastern Asia,Hong Kong,,,Hong Kong
154.194.145.131,4,5,gfniuzha.com,HK,Asia,Eastern Asia,Hong Kong,,,Hong Kong
154.214.112.109,4,9,gfsdsw.cn,HK,Asia,Eastern Asia,Hong Kong,,,Hong Kong
154.214.112.110,4,8,gggljjm.cn,HK,Asia,Eastern Asia,Hong Kong,,,Hong Kong
43.239.165.24,4,-20,ggtggt.com,HK,Asia,Eastern Asia,Hong Kong,,,
154.212.195.227,4,13,ghocloud.com,HK,Asia,Eastern Asia,Hong Kong,,,
47.57.7.24,4,10,gigadevice.com,HK,Asia,Eastern Asia,Hong Kong,,,Hong Kong
34.96.225.57,4,4,gilgplullbororo6.top,HK,Asia,Eastern Asia,Hong Kong,,,Hong Kong
103.38.170.44,4,-2,gingerbreadgirlbakes.com,HK,Asia,Eastern Asia,Hong Kong,,,
8.210.208.10,4,9,gk99.com,HK,Asia,Eastern Asia,Hong Kong,,,Hong Kong
154.214.117.199,4,8,gkftrps.cn,HK,Asia,Eastern Asia,Hong Kong,,,Hong Kong
154.211.79.156,4,13,glhljgs.com,HK,Asia,Eastern Asia,Hong Kong,,,
116.251.204.43,4,6,glnc.org.au,HK,Asia,Eastern Asia,Hong Kong,,,
103.109.101.37,4,30,globalsouth.co,HK,Asia,Eastern Asia,Hong Kong,,,
43.129.223.133,4,-8,glofang.com,HK,Asia,Eastern Asia,Hong Kong,,,Hong Kong
154.204.193.214,4,15,gls1818.com,HK,Asia,Eastern Asia,Hong Kong,,,
34.96.160.243,4,5,gma-karma.com,HK,Asia,Eastern Asia,Hong Kong,,,Hong Kong
154.214.64.69,4,25,gmtmao.com,HK,Asia,Eastern Asia,Hong Kong,,,Hong Kong
8.217.87.213,4,20,godox.com,HK,Asia,Eastern Asia,Hong Kong,,,Hong Kong
38.207.194.99,4,19,goeth2.com,HK,Asia,Eastern Asia,Hong Kong,,,Hong Kong
202.53.148.8,4,26,gokunming.com,HK,Asia,Eastern Asia,Hong Kong,,,
61.93.224.2,4,17,goldsland.com.hk,HK,Asia,Eastern Asia,Hong Kong,Wong Tai Sin,,Wong Tai Sin
103.15.22.10,4,17,goodfamily.com.hk,HK,Asia,Eastern Asia,Hong Kong,,,
47.244.110.216,4,15,gooood.hk,HK,Asia,Eastern Asia,Hong Kong,,,Hong Kong
103.225.9.177,4,9,goratings.org,HK,Asia,Eastern Asia,Hong Kong,,,
154.209.110.95,4,7,gpzw150.com,HK,Asia,Eastern Asia,Hong Kong,,,
154.215.4.57,4,8,gqbiz.com,HK,Asia,Eastern Asia,Hong Kong,,,
103.117.121.248,4,22,greensun.net.cn,HK,Asia,Eastern Asia,Hong Kong,,,
165.154.7.136,4,58,growthman.cn,HK,Asia,Eastern Asia,Hong Kong,,,Hong Kong
154.12.60.226,4,6778,growthman.cn,HK,Asia,Eastern Asia,Hong Kong,,,Hong Kong
47.52.216.187,4,11,gsialliance.net,HK,Asia,Eastern Asia,Hong Kong,,,Hong Kong
154.89.104.229,4,7,gslthw.com,HK,Asia,Eastern Asia,Hong Kong,,,Hong Kong
112.213.124.150,4,797,gsmzf.com,HK,Asia,Eastern Asia,Hong Kong,,,
154.220.96.215,4,29,gtmgeotextile.com,HK,Asia,Eastern Asia,Hong Kong,,,
47.243.26.210,4,45,gudumami.cn,HK,Asia,Eastern Asia,Hong Kong,,,Hong Kong
154.204.137.30,4,8,guhanbr.com,HK,Asia,Eastern Asia,Hong Kong,,,
103.19.190.114,4,6,guiqisw.com,HK,Asia,Eastern Asia,Hong Kong,,,
154.194.145.132,4,9,gulugulu6.com,HK,Asia,Eastern Asia,Hong Kong,,,Hong Kong
154.194.145.133,4,9,gumicms.com,HK,Asia,Eastern Asia,Hong Kong,,,Hong Kong
154.92.97.209,4,10,gunde1resim.com,HK,Asia,Eastern Asia,Hong Kong,,,
154.194.145.134,4,17,guowufy.com,HK,Asia,Eastern Asia,Hong Kong,,,Hong Kong
154.220.47.93,4,18,guoyuemall.com,HK,Asia,Eastern Asia,Hong Kong,,,
154.212.198.181,4,12,guoyunculture.com,HK,Asia,Eastern Asia,Hong Kong,,,
154.209.54.154,4,3,guxiapm.com,HK,Asia,Eastern Asia,Hong Kong,,,
154.204.195.93,4,9,gwzxdzncp.com,HK,Asia,Eastern Asia,Hong Kong,,,
154.31.248.5,4,426574,gxdxw.cn,HK,Asia,Eastern Asia,Hong Kong,,,Hong Kong
154.211.84.59,4,27,gxeut.com,HK,Asia,Eastern Asia,Hong Kong,,,
156.245.102.14,4,26,gy-health.com,HK,Asia,Eastern Asia,Hong Kong,,,
154.194.145.135,4,6,gyjingli.com,HK,Asia,Eastern Asia,Hong Kong,,,Hong Kong
154.215.112.112,4,6,gyxnsmfwyjjq.com,HK,Asia,Eastern Asia,Hong Kong,,,Hong Kong
103.134.144.17,4,6,gz-youke.cn,HK,Asia,Eastern Asia,Hong Kong,,,
154.211.78.205,4,13,gzboruisi.com,HK,Asia,Eastern Asia,Hong Kong,,,
43.129.198.102,4,-15,gzchaosheng.cn,HK,Asia,Eastern Asia,Hong Kong,,,Hong Kong
103.134.144.22,4,6,gzdclssws.cn,HK,Asia,Eastern Asia,Hong Kong,,,
154.31.178.169,4,8,gzdzgyxx.com,HK,Asia,Eastern Asia,Hong Kong,,,Hong Kong
156.241.180.145,4,6,gzhlyc.cn,HK,Asia,Eastern Asia,Hong Kong,,,
154.194.143.222,4,10,gzhpfb.com,HK,Asia,Eastern Asia,Hong Kong,,,Hong Kong
154.31.166.158,4,10,gzhuiyan.com.cn,HK,Asia,Eastern Asia,Hong Kong,,,Hong Kong
154.215.29.151,4,26,gzjhckj.com,HK,Asia,Eastern Asia,Hong Kong,,,
154.214.69.175,4,15,gzkuihou.com,HK,Asia,Eastern Asia,Hong Kong,,,Hong Kong
154.91.6.136,4,7,gzmq88.com,HK,Asia,Eastern Asia,Hong Kong,,,Hong Kong
154.212.203.103,4,7,gzszks.com,HK,Asia,Eastern Asia,Hong Kong,,,
154.220.47.70,4,-1,gztenglong88.com,HK,Asia,Eastern Asia,Hong Kong,,,
154.206.230.161,4,24,gzybgc.com,HK,Asia,Eastern Asia,Hong Kong,,,Hong Kong
154.209.54.155,4,7,gzyzl168.com,HK,Asia,Eastern Asia,Hong Kong,,,
154.204.157.30,4,8,hadunhotel.cn,HK,Asia,Eastern Asia,Hong Kong,,,
8.218.9.52,4,10,haemophilia.org.hk,HK,Asia,Eastern Asia,Hong Kong,,,Hong Kong
156.254.166.30,4,-28799999,hahlfjj.com,HK,Asia,Eastern Asia,Hong Kong,,,
154.216.86.67,4,4,hahuanya.com,HK,Asia,Eastern Asia,Hong Kong,,,Hong Kong
154.220.47.94,4,61,haicheng-tech.com,HK,Asia,Eastern Asia,Hong Kong,,,
47.243.204.7,4,7,haiermedical.com,HK,Asia,Eastern Asia,Hong Kong,,,Hong Kong
43.132.205.123,4,0,haiguangjy.com,HK,Asia,Eastern Asia,Hong Kong,,,Hong Kong
154.31.166.22,4,47,hailizulin.com,HK,Asia,Eastern Asia,Hong Kong,,,Hong Kong
154.220.37.81,4,2,hainajiyun.com,HK,Asia,Eastern Asia,Hong Kong,,,
154.220.37.82,4,0,hairunshijia.com,HK,Asia,Eastern Asia,Hong Kong,,,
154.216.86.70,4,7,haisiqiaoshang.com,HK,Asia,Eastern Asia,Hong Kong,,,Hong Kong
43.154.146.169,4,-12,haitao.com,HK,Asia,Eastern Asia,Hong Kong,,,Hong Kong
154.204.193.199,4,9,haixianchaoji.com,HK,Asia,Eastern Asia,Hong Kong,,,
154.194.145.136,4,10,haixingquan.com,HK,Asia,Eastern Asia,Hong Kong,,,Hong Kong
154.212.200.131,4,7,halfsugarstudio.com,HK,Asia,Eastern Asia,Hong Kong,,,
223.17.201.137,4,8,hamienet.com,HK,Asia,Eastern Asia,Hong Kong,Kwun Tong,,Kwun Tong
103.15.22.20,4,9,hanart.com,HK,Asia,Eastern Asia,Hong Kong,,,
154.204.252.249,4,8,hanscustomoptik.com,HK,Asia,Eastern Asia,Hong Kong,,,
47.91.129.219,4,10,hao.wang,HK,Asia,Eastern Asia,Hong Kong,,,Hong Kong
34.96.172.237,4,7,haodaflask.com,HK,Asia,Eastern Asia,Hong Kong,,,Hong Kong
47.238.170.18,4,8,haohand.com,HK,Asia,Eastern Asia,Hong Kong,,,Hong Kong
107.151.204.172,4,28532,haoke2.com,HK,Asia,Eastern Asia,Hong Kong,,,Hong Kong
202.61.86.231,4,9,haoword.com,HK,Asia,Eastern Asia,Hong Kong,,,
156.245.102.11,4,25,haoyao100.com,HK,Asia,Eastern Asia,Hong Kong,,,
206.119.11.182,4,15,haozhegai.com,HK,Asia,Eastern Asia,Hong Kong,,,Hong Kong
156.234.251.199,4,6,harbournet.cn,HK,Asia,Eastern Asia,Hong Kong,,,Hong Kong
116.251.205.2,4,12,harbourtimes.com,HK,Asia,Eastern Asia,Hong Kong,,,
35.215.174.248,4,9,hardwarehydraulic.com,HK,Asia,Eastern Asia,Hong Kong,,,Hong Kong
154.212.198.169,4,8,hayu666.com,HK,Asia,Eastern Asia,Hong Kong,,,
156.234.155.114,4,11,hbcjlp.com,HK,Asia,Eastern Asia,Hong Kong,,,Hong Kong
118.193.41.203,4,158611,hbcl.cn,HK,Asia,Eastern Asia,Hong Kong,,,Hong Kong
182.16.11.27,4,3,hbjb.net,HK,Asia,Eastern Asia,Hong Kong,,,
185.245.41.246,4,-315,hbjxhrd.com,HK,Asia,Eastern Asia,Hong Kong,,,
47.238.254.226,4,8,hbmwgs.com,HK,Asia,Eastern Asia,Hong Kong,,,Hong Kong
154.194.145.137,4,8,hbyijings.com,HK,Asia,Eastern Asia,Hong Kong,,,Hong Kong
154.212.194.2,4,6,hczxwl.com,HK,Asia,Eastern Asia,Hong Kong,,,
154.211.79.31,4,8,hdeso.com,HK,Asia,Eastern Asia,Hong Kong,,,
154.212.146.52,4,26,hebeiluhengzidonghua.com,HK,Asia,Eastern Asia,Hong Kong,,,
154.194.145.138,4,7,heifengyi.com,HK,Asia,Eastern Asia,Hong Kong,,,Hong Kong
103.57.229.230,4,3,heishi-stg.com,HK,Asia,Eastern Asia,Hong Kong,,,
156.226.97.206,4,7,hejia-ele.net,HK,Asia,Eastern Asia,Hong Kong,,,Hong Kong
154.204.196.67,4,10,hejuntongfansi.com,HK,Asia,Eastern Asia,Hong Kong,,,
47.244.141.238,4,23,helos-lighting.com,HK,Asia,Eastern Asia,Hong Kong,,,Hong Kong
154.194.145.139,4,35,helpyousuccess.com,HK,Asia,Eastern Asia,Hong Kong,,,Hong Kong
154.215.31.153,4,48,henanyanzhixin.com,HK,Asia,Eastern Asia,Hong Kong,,,
154.204.194.28,4,7,hengfengdoors.com,HK,Asia,Eastern Asia,Hong Kong,,,
154.92.41.212,4,31,henghaopay.com,HK,Asia,Eastern Asia,Hong Kong,,,
156.245.18.27,4,25,henghost.com,HK,Asia,Eastern Asia,Hong Kong,,,
154.194.145.140,4,7,hengjun66.com,HK,Asia,Eastern Asia,Hong Kong,,,Hong Kong
154.211.79.228,4,11,henglianmx.com,HK,Asia,Eastern Asia,Hong Kong,,,
154.204.195.66,4,7,hengqiang100.com,HK,Asia,Eastern Asia,Hong Kong,,,
154.204.159.3,4,31,hengyu111.com,HK,Asia,Eastern Asia,Hong Kong,,,
156.234.131.201,4,1,henkuaiwang.com,HK,Asia,Eastern Asia,Hong Kong,,,Hong Kong
47.90.92.184,4,7,hereinuk.com,HK,Asia,Eastern Asia,Hong Kong,,,Hong Kong
154.194.145.141,4,9,hesign-mm.com,HK,Asia,Eastern Asia,Hong Kong,,,Hong Kong
154.194.145.142,4,8,hfbanxia.com,HK,Asia,Eastern Asia,Hong Kong,,,Hong Kong
156.251.57.147,4,7,hfcanting.com,HK,Asia,Eastern Asia,Hong Kong,,,
45.117.193.205,4,4,hfkanzujiaju.com,HK,Asia,Eastern Asia,Hong Kong,,,
43.249.1.181,4,6,hflbdq.com,HK,Asia,Eastern Asia,Hong Kong,,,
154.212.198.176,4,9,hfxctj.com,HK,Asia,Eastern Asia,Hong Kong,,,
156.254.243.171,4,-1477,hgsire.cn,HK,Asia,Eastern Asia,Hong Kong,,,
156.239.205.227,4,25,hhgd01.com,HK,Asia,Eastern Asia,Hong Kong,,,Hong Kong
43.129.27.156,4,-14,hhhtmcmq.com,HK,Asia,Eastern Asia,Hong Kong,,,Hong Kong
154.204.173.174,4,7,hhxxyw.com,HK,Asia,Eastern Asia,Hong Kong,,,
47.244.163.87,4,6,hiall.com.cn,HK,Asia,Eastern Asia,Hong Kong,,,Hong Kong
47.75.87.77,4,9,hiendlife.com,HK,Asia,Eastern Asia,Hong Kong,,,Hong Kong
38.181.34.24,4,-13078,hififans.cn,HK,Asia,Eastern Asia,Hong Kong,,,Hong Kong
154.209.54.139,4,6,high-algorithm.com,HK,Asia,Eastern Asia,Hong Kong,,,
103.13.50.135,4,205,hipki.com.hk,HK,Asia,Eastern Asia,Hong Kong,,,
180.235.132.82,4,26,hiskingdomprophecy.com,HK,Asia,Eastern Asia,Hong Kong,,,
103.13.51.193,4,1393,hk-delight.com,HK,Asia,Eastern Asia,Hong Kong,,,
223.223.218.245,4,12,hkah.org.hk,HK,Asia,Eastern Asia,Hong Kong,,,
8.210.29.189,4,11,hkatv.com,HK,Asia,Eastern Asia,Hong Kong,,,Hong Kong
180.92.182.88,4,10,hkbuddhist.org,HK,Asia,Eastern Asia,Hong Kong,,,
203.198.47.105,4,-587935,hkcna.hk,HK,Asia,Eastern Asia,Hong Kong,Kwun Tong,,Kowloon Bay
203.86.235.162,4,10,hkcs.org,HK,Asia,Eastern Asia,Hong Kong,,,
125.214.246.73,4,-23,hkcts.com,HK,Asia,Eastern Asia,Hong Kong,,,
221.127.40.64,4,5,hkesp.com,HK,Asia,Eastern Asia,Hong Kong,,,
114.142.153.175,4,7,hkeverton.com,HK,Asia,Eastern Asia,Hong Kong,,,
116.251.207.205,4,7,hkflu.org.hk,HK,Asia,Eastern Asia,Hong Kong,,,
202.181.214.218,4,8,hkfm.org,HK,Asia,Eastern Asia,Hong Kong,,,
103.15.21.111,4,5187,hkiac.org,HK,Asia,Eastern Asia,Hong Kong,,,
203.135.132.46,4,24,hkiff.org.hk,HK,Asia,Eastern Asia,Hong Kong,,,
203.194.159.143,4,12,hkjebn.com,HK,Asia,Eastern Asia,Hong Kong,Wan Chai,,Happy Valley
103.91.151.150,4,-239,hkkf.com.hk,HK,Asia,Eastern Asia,Hong Kong,,,
59.148.177.54,4,9,hksi.org.hk,HK,Asia,Eastern Asia,Hong Kong,Yuen Long District,,Yuen Long San Hui
154.194.178.185,4,9,hksunbright.cn,HK,Asia,Eastern Asia,Hong Kong,,,Hong Kong
103.20.61.32,4,16,hlc.com.hk,HK,Asia,Eastern Asia,Hong Kong,,,
154.209.49.219,4,2,hljhuayang.com,HK,Asia,Eastern Asia,Hong Kong,,,
154.89.104.235,4,8,hljklwlkj.com,HK,Asia,Eastern Asia,Hong Kong,,,Hong Kong
154.212.204.70,4,8,hmyxjia.com,HK,Asia,Eastern Asia,Hong Kong,,,
45.64.109.234,4,4,hn339.cn,HK,Asia,Eastern Asia,Hong Kong,,,
35.215.137.137,4,9,hnamkswqo.com,HK,Asia,Eastern Asia,Hong Kong,,,Hong Kong
38.47.206.101,4,-114751,hncloud.com,HK,Asia,Eastern Asia,Hong Kong,,,Hong Kong
156.245.98.16,4,25,hnd0593.com,HK,Asia,Eastern Asia,Hong Kong,,,
154.206.147.170,4,11,hnjldsc.com,HK,Asia,Eastern Asia,Hong Kong,,,Hong Kong
154.212.197.194,4,7,hnmeijiaxian.com,HK,Asia,Eastern Asia,Hong Kong,,,
154.209.54.157,4,4,hnooz.com,HK,Asia,Eastern Asia,Hong Kong,,,
154.212.197.222,4,10,hntakin.com,HK,Asia,Eastern Asia,Hong Kong,,,
182.161.71.74,4,-1,hntcpm.cn,HK,Asia,Eastern Asia,Hong Kong,,,
154.212.200.147,4,9,hntuochuangpos.com,HK,Asia,Eastern Asia,Hong Kong,,,
154.212.200.145,4,6,hnxinwangcm.com,HK,Asia,Eastern Asia,Hong Kong,,,
103.149.92.30,4,2,hnxsrj.com,HK,Asia,Eastern Asia,Hong Kong,,,
103.238.224.121,4,10,ho8.com,HK,Asia,Eastern Asia,Hong Kong,,,
150.129.35.133,4,10,hobbyeasy.com,HK,Asia,Eastern Asia,Hong Kong,,,
203.86.239.22,4,9,hoe.hk,HK,Asia,Eastern Asia,Hong Kong,,,
34.150.101.120,4,22,homeenterprise.net,HK,Asia,Eastern Asia,Hong Kong,,,Hong Kong
103.68.62.123,4,32,homejournal.com,HK,Asia,Eastern Asia,Hong Kong,,,
154.220.51.116,4,15,homeztc.com,HK,Asia,Eastern Asia,Hong Kong,,,
154.216.86.72,4,3,hongjing1588.com,HK,Asia,Eastern Asia,Hong Kong,,,Hong Kong
47.83.12.99,4,19,hongweimingye.com,HK,Asia,Eastern Asia,Hong Kong,,,Hong Kong
154.92.73.55,4,8,hopewayclub.cn,HK,Asia,Eastern Asia,Hong Kong,,,
123.58.218.74,4,17,horizoncoltd.com,HK,Asia,Eastern Asia,Hong Kong,,,Hong Kong
35.215.170.36,4,9,hoscillia.com,HK,Asia,Eastern Asia,Hong Kong,,,Hong Kong
47.52.203.141,4,38,hougong3000.com,HK,Asia,Eastern Asia,Hong Kong,,,Hong Kong
116.251.207.157,4,7,howei.com,HK,Asia,Eastern Asia,Hong Kong,,,
154.211.79.175,4,10,howtoing.com,HK,Asia,Eastern Asia,Hong Kong,,,
193.200.134.244,4,0,hqsxw.net,HK,Asia,Eastern Asia,Hong Kong,,,
156.234.182.132,4,9,hrbdljt.cn,HK,Asia,Eastern Asia,Hong Kong,,,Hong Kong
202.61.84.84,4,5,hs67666.com,HK,Asia,Eastern Asia,Hong Kong,,,
103.163.208.202,4,24,hs67666.com,HK,Asia,Eastern Asia,Hong Kong,,,
103.163.208.204,4,11,hs67666.com,HK,Asia,Eastern Asia,Hong Kong,,,
202.61.84.66,4,3,hs67666.com,HK,Asia,Eastern Asia,Hong Kong,,,
43.129.185.220,4,-10,hsnewjordan.com,HK,Asia,Eastern Asia,Hong Kong,,,Hong Kong
43.241.47.140,4,5,htjsgf.com,HK,Asia,Eastern Asia,Hong Kong,,,
156.254.175.78,4,6,htsqws.com,HK,Asia,Eastern Asia,Hong Kong,,,
103.35.76.182,4,9,htsydg.com,HK,Asia,Eastern Asia,Hong Kong,,,
156.240.122.45,4,10,huabanggs.com,HK,Asia,Eastern Asia,Hong Kong,,,
156.239.205.228,4,27,huaizhijiuye.com,HK,Asia,Eastern Asia,Hong Kong,,,Hong Kong
154.31.251.139,4,-463373,huajiang.cc,HK,Asia,Eastern Asia,Hong Kong,,,Hong Kong
43.239.165.20,4,-17,huajintiancheng.com,HK,Asia,Eastern Asia,Hong Kong,,,
154.92.81.200,4,9,hualongshengwu.com,HK,Asia,Eastern Asia,Hong Kong,,,
154.204.196.77,4,9,huanji001.com,HK,Asia,Eastern Asia,Hong Kong,,,
154.86.82.5,4,24,huanma01.vip,HK,Asia,Eastern Asia,Hong Kong,,,
154.92.41.207,4,0,huannonghzs.com,HK,Asia,Eastern Asia,Hong Kong,,,
154.214.70.158,4,16,huanqiujicai.com,HK,Asia,Eastern Asia,Hong Kong,,,Hong Kong
154.26.203.244,4,9,huanqiwang.cn,HK,Asia,Eastern Asia,Hong Kong,,,Hong Kong
103.134.144.40,4,6,huanuoblg.com,HK,Asia,Eastern Asia,Hong Kong,,,
154.212.146.25,4,23,huanuoco.com,HK,Asia,Eastern Asia,Hong Kong,,,
154.214.66.30,4,14,huasen119.com,HK,Asia,Eastern Asia,Hong Kong,,,Hong Kong
154.204.193.220,4,6,huaxiazhaoshang.com,HK,Asia,Eastern Asia,Hong Kong,,,
154.209.54.196,4,4,huayang123.com,HK,Asia,Eastern Asia,Hong Kong,,,
154.211.78.147,4,14,huazhongtimes.com,HK,Asia,Eastern Asia,Hong Kong,,,
156.240.232.152,4,10,hubeijm.com,HK,Asia,Eastern Asia,Hong Kong,,,
154.204.196.84,4,5,huicaijian.com,HK,Asia,Eastern Asia,Hong Kong,,,
154.204.194.29,4,5,huicaoshou.com,HK,Asia,Eastern Asia,Hong Kong,,,
154.204.195.86,4,8,huijiuhe.com,HK,Asia,Eastern Asia,Hong Kong,,,
8.217.81.223,4,7,huilan12333.com,HK,Asia,Eastern Asia,Hong Kong,,,Hong Kong
185.51.166.16,4,1,huilianzy.com,HK,Asia,Eastern Asia,Hong Kong,,,
154.216.86.84,4,5,huiliyuanlin.com,HK,Asia,Eastern Asia,Hong Kong,,,Hong Kong
154.209.45.27,4,3,huishangyan.com,HK,Asia,Eastern Asia,Hong Kong,,,
154.204.197.130,4,5,huitaidou.com,HK,Asia,Eastern Asia,Hong Kong,,,
35.215.166.85,4,9,huiwenedn.com,HK,Asia,Eastern Asia,Hong Kong,,,Hong Kong
154.204.194.17,4,7,huiwozi.com,HK,Asia,Eastern Asia,Hong Kong,,,
156.254.176.222,4,-28800239,huiyate.cn,HK,Asia,Eastern Asia,Hong Kong,,,
154.214.69.176,4,16,huliangzhan.com,HK,Asia,Eastern Asia,Hong Kong,,,Hong Kong
47.52.101.71,4,5,hunshameipai.com,HK,Asia,Eastern Asia,Hong Kong,,,Hong Kong
154.212.195.248,4,7,hurrypurch.com,HK,Asia,Eastern Asia,Hong Kong,,,
185.228.233.7,4,5,hut.ru,HK,Asia,Eastern Asia,Hong Kong,,,
45.117.193.206,4,3,hutong042.com,HK,Asia,Eastern Asia,Hong Kong,,,
47.240.248.9,4,7,huway.com,HK,Asia,Eastern Asia,Hong Kong,,,Hong Kong
154.212.204.81,4,11,huzhuanzhuan.com,HK,Asia,Eastern Asia,Hong Kong,,,
154.204.168.29,4,8,hwfdjz.com,HK,Asia,Eastern Asia,Hong Kong,,,
154.212.204.88,4,7,hwyds0010.com,HK,Asia,Eastern Asia,Hong Kong,,,
103.255.44.92,4,-31967077,hxchem.net,HK,Asia,Eastern Asia,Hong Kong,,,
38.47.241.118,4,4,hxdskjc.com,HK,Asia,Eastern Asia,Hong Kong,,,Hong Kong
154.31.161.107,4,8,hxmjg188.com,HK,Asia,Eastern Asia,Hong Kong,,,Hong Kong
103.21.220.76,4,8,hydra2web.fm,HK,Asia,Eastern Asia,Hong Kong,,,Hong Kong
156.251.56.81,4,12,hygame.cc,HK,Asia,Eastern Asia,Hong Kong,,,
47.75.188.155,4,7,hypersku.com,HK,Asia,Eastern Asia,Hong Kong,,,Hong Kong
156.234.218.25,4,9,hz-nano.com,HK,Asia,Eastern Asia,Hong Kong,,,Hong Kong
154.212.200.132,4,9,hzcetian.com,HK,Asia,Eastern Asia,Hong Kong,,,
154.211.78.137,4,11,hzcyy.com,HK,Asia,Eastern Asia,Hong Kong,,,
154.31.174.74,4,8,hzdfzc.com,HK,Asia,Eastern Asia,Hong Kong,,,Hong Kong
47.76.197.76,4,7,hzeiger.com,HK,Asia,Eastern Asia,Hong Kong,,,Hong Kong
154.92.16.225,4,92910,hzgiraffe.com,HK,Asia,Eastern Asia,Hong Kong,,,
154.204.196.73,4,7,hzguangai.com,HK,Asia,Eastern Asia,Hong Kong,,,
154.211.107.170,4,12,hzhuanqiu888.com,HK,Asia,Eastern Asia,Hong Kong,,,
156.234.140.239,4,11,hzhxtfsb.com,HK,Asia,Eastern Asia,Hong Kong,,,Hong Kong
154.204.196.85,4,7,hzkangxiu.com,HK,Asia,Eastern Asia,Hong Kong,,,
154.220.47.75,4,-1,hzkuida.com,HK,Asia,Eastern Asia,Hong Kong,,,
154.204.196.70,4,6,hzshanyi.com,HK,Asia,Eastern Asia,Hong Kong,,,
154.23.123.217,4,28714962,hzsihuai.com,HK,Asia,Eastern Asia,Hong Kong,Eastern,,Chai Wan
59.153.146.161,4,6,hzsxcpx.com,HK,Asia,Eastern Asia,Hong Kong,,,
156.245.103.8,4,26,hzwshzc.com,HK,Asia,Eastern Asia,Hong Kong,,,
103.57.230.180,4,3,hzxinkejd.com,HK,Asia,Eastern Asia,Hong Kong,,,
154.209.54.199,4,4,hzyinbin.com,HK,Asia,Eastern Asia,Hong Kong,,,
58.64.190.6,4,6,hzyudingktv.com,HK,Asia,Eastern Asia,Hong Kong,,,
47.90.60.153,4,10,i-mad.com,HK,Asia,Eastern Asia,Hong Kong,,,Hong Kong
129.226.53.121,4,-15,i7391.com,HK,Asia,Eastern Asia,Hong Kong,,,Hong Kong
123.1.147.228,4,14,iaeng.org,HK,Asia,Eastern Asia,Hong Kong,Southern,,Deep Water Bay
156.234.204.129,4,15,ibaclofeno.com,HK,Asia,Eastern Asia,Hong Kong,,,Hong Kong
47.242.124.78,4,8,ibangke.net,HK,Asia,Eastern Asia,Hong Kong,,,Hong Kong
202.65.195.82,4,16,ibike.com.hk,HK,Asia,Eastern Asia,Hong Kong,,,
47.242.82.83,4,8,icem.org,HK,Asia,Eastern Asia,Hong Kong,,,Hong Kong
103.120.83.46,4,-252,icxo.com,HK,Asia,Eastern Asia,Hong Kong,,,
103.120.83.89,4,-81,icxo.com,HK,Asia,Eastern Asia,Hong Kong,,,
154.220.9.194,4,42,idcps.com,HK,Asia,Eastern Asia,Hong Kong,,,
156.234.11.3,4,11,ideasjugosas.com,HK,Asia,Eastern Asia,Hong Kong,,,Hong Kong
43.129.158.133,4,5,idiadem.com,HK,Asia,Eastern Asia,Hong Kong,,,Hong Kong
180.92.181.34,4,14,ieat.com.hk,HK,Asia,Eastern Asia,Hong Kong,,,
156.245.97.26,4,31,iecmk.com,HK,Asia,Eastern Asia,Hong Kong,,,
43.250.190.227,4,-10,ieliulanqi.net,HK,Asia,Eastern Asia,Hong Kong,,,
47.242.26.174,4,5,iev.cn,HK,Asia,Eastern Asia,Hong Kong,,,Hong Kong
47.90.21.61,4,18,ifengweekly.com,HK,Asia,Eastern Asia,Hong Kong,,,Hong Kong
43.155.85.196,4,6,ifeve.com,HK,Asia,Eastern Asia,Hong Kong,,,Hong Kong
47.56.131.119,4,38,iflight-rc.com,HK,Asia,Eastern Asia,Hong Kong,,,Hong Kong
83.229.40.156,4,7,igaodu.cn,HK,Asia,Eastern Asia,Hong Kong,,,
152.104.9.26,4,-559,igears.com.hk,HK,Asia,Eastern Asia,Hong Kong,,,
8.210.59.162,4,21,ihaomeijia.com,HK,Asia,Eastern Asia,Hong Kong,,,Hong Kong
156.234.218.59,4,6,ihker.com,HK,Asia,Eastern Asia,Hong Kong,,,Hong Kong
43.154.111.192,4,-13,ihostloc.com,HK,Asia,Eastern Asia,Hong Kong,,,Hong Kong
103.146.50.147,4,4,iiilab.com,HK,Asia,Eastern Asia,Hong Kong,,,
103.254.149.169,4,27,iipiano.com,HK,Asia,Eastern Asia,Hong Kong,,,
47.57.191.92,4,9,ik123.com,HK,Asia,Eastern Asia,Hong Kong,,,Hong Kong
47.243.39.0,4,8,iliferobot.cn,HK,Asia,Eastern Asia,Hong Kong,,,Hong Kong
47.242.76.101,4,7,ilovetranslation.com,HK,Asia,Eastern Asia,Hong Kong,,,Hong Kong
154.23.56.101,4,664,imagekuzaoxing.com,HK,Asia,Eastern Asia,Hong Kong,Eastern,,Chai Wan
8.210.136.169,4,28,imerduo.com,HK,Asia,Eastern Asia,Hong Kong,,,Hong Kong
101.32.181.59,4,-16,imjmj.com,HK,Asia,Eastern Asia,Hong Kong,,,Hong Kong
156.234.204.197,4,9,impulsblog.com,HK,Asia,Eastern Asia,Hong Kong,,,Hong Kong
38.207.223.35,4,8,incdoor.com,HK,Asia,Eastern Asia,Hong Kong,,,Hong Kong
156.234.86.43,4,3,indocins.com,HK,Asia,Eastern Asia,Hong Kong,,,Hong Kong
47.75.9.151,4,6,industrysourcing.net,HK,Asia,Eastern Asia,Hong Kong,,,Hong Kong
154.206.200.4,4,24,infantbabynewborn.com,HK,Asia,Eastern Asia,Hong Kong,,,Hong Kong
94.74.120.101,4,7,infocomm-india.com,HK,Asia,Eastern Asia,Hong Kong,,,Hong Kong
185.149.120.105,4,60,infowatch.com,HK,Asia,Eastern Asia,Hong Kong,,,
43.154.4.104,4,-17,infras.cn,HK,Asia,Eastern Asia,Hong Kong,,,Hong Kong
8.210.114.158,4,5,ins.com.cn,HK,Asia,Eastern Asia,Hong Kong,,,Hong Kong
154.23.144.101,4,24,instantmedjoint.com,HK,Asia,Eastern Asia,Hong Kong,,,Hong Kong
156.225.132.185,4,7,interngo.net,HK,Asia,Eastern Asia,Hong Kong,,,
47.244.18.141,4,19,interzum-guangzhou.com,HK,Asia,Eastern Asia,Hong Kong,,,Hong Kong
154.31.219.242,4,38,iosfuzhu.com,HK,Asia,Eastern Asia,Hong Kong,,,Hong Kong
47.91.150.90,4,1222,ipanelonline.com,HK,Asia,Eastern Asia,Hong Kong,,,Hong Kong
150.109.50.203,4,-11,ipchaxun.com,HK,Asia,Eastern Asia,Hong Kong,,,Hong Kong
43.249.207.211,4,796,iploo.com,HK,Asia,Eastern Asia,Hong Kong,,,
47.243.123.208,4,8,isme.fun,HK,Asia,Eastern Asia,Hong Kong,,,Hong Kong
210.56.49.68,4,8,isolongifolene.com,HK,Asia,Eastern Asia,Hong Kong,,,
47.239.192.250,4,9,itb-china.com,HK,Asia,Eastern Asia,Hong Kong,,,Hong Kong
47.242.37.74,4,6,itdoor.net,HK,Asia,Eastern Asia,Hong Kong,,,Hong Kong
8.212.74.138,4,6,ixiumei.com,HK,Asia,Eastern Asia,Hong Kong,,,Hong Kong
47.243.86.74,4,10,ixuexi.cf,HK,Asia,Eastern Asia,Hong Kong,,,Hong Kong
156.234.31.68,4,11,iyalion.com,HK,Asia,Eastern Asia,Hong Kong,,,Hong Kong
118.26.38.96,4,5,iyd.wang,HK,Asia,Eastern Asia,Hong Kong,,,Hong Kong
156.241.182.148,4,13,izhufu.net,HK,Asia,Eastern Asia,Hong Kong,,,
38.47.101.80,4,17,j2222.top,HK,Asia,Eastern Asia,Hong Kong,Central and Western District,,Central
220.158.254.227,4,37,jamoli.com,HK,Asia,Eastern Asia,Hong Kong,,,
43.240.31.70,4,28,japan-lke.com,HK,Asia,Eastern Asia,Hong Kong,,,
49.0.230.53,4,15,jctrans.com,HK,Asia,Eastern Asia,Hong Kong,,,Hong Kong
103.107.90.203,4,24,jd.co.th,HK,Asia,Eastern Asia,Hong Kong,,,
103.107.90.128,4,19,jd.hk,HK,Asia,Eastern Asia,Hong Kong,,,
154.216.86.85,4,-1,jdgi00.com,HK,Asia,Eastern Asia,Hong Kong,,,Hong Kong
159.138.2.109,4,8,jdonline.com.hk,HK,Asia,Eastern Asia,Hong Kong,,,Hong Kong
43.239.166.21,4,-20,jfbsc18.com,HK,Asia,Eastern Asia,Hong Kong,,,
154.64.248.45,4,8,jfcap.cn,HK,Asia,Eastern Asia,Hong Kong,,,Hong Kong
8.218.69.17,4,6,jfcaps.com,HK,Asia,Eastern Asia,Hong Kong,,,Hong Kong
103.249.108.30,4,26,jgpy.cn,HK,Asia,Eastern Asia,Hong Kong,,,
154.220.48.131,4,2,jgsmapp.com,HK,Asia,Eastern Asia,Hong Kong,,,
154.204.46.69,4,29,jhbz168.com,HK,Asia,Eastern Asia,Hong Kong,,,
103.207.68.75,4,9,jhjvvbh.cn,HK,Asia,Eastern Asia,Hong Kong,,,Hong Kong
156.245.102.16,4,26,jiaboshun.com,HK,Asia,Eastern Asia,Hong Kong,,,
47.244.56.228,4,8,jiachangzz.com,HK,Asia,Eastern Asia,Hong Kong,,,Hong Kong
154.204.196.94,4,15,jiajiawangkeji.com,HK,Asia,Eastern Asia,Hong Kong,,,
156.241.137.83,4,6,jiajimh.com,HK,Asia,Eastern Asia,Hong Kong,,,
206.119.0.208,4,5,jiakejishu.com,HK,Asia,Eastern Asia,Hong Kong,,,Hong Kong
154.212.203.105,4,9,jiameiyingbao.com,HK,Asia,Eastern Asia,Hong Kong,,,
154.209.49.215,4,2,jianaide6688.com,HK,Asia,Eastern Asia,Hong Kong,,,
154.216.110.116,4,1,jiangxichaoyue.com,HK,Asia,Eastern Asia,Hong Kong,,,Hong Kong
112.121.174.235,4,2104,jiangzhongyou.net,HK,Asia,Eastern Asia,Hong Kong,,,
43.249.1.223,4,-1,jianshitang.cn,HK,Asia,Eastern Asia,Hong Kong,,,
8.217.210.199,4,10,jiaochengzhijia.com,HK,Asia,Eastern Asia,Hong Kong,,,Hong Kong
47.52.114.90,4,8,jiasongchina.com,HK,Asia,Eastern Asia,Hong Kong,,,Hong Kong
154.209.173.214,4,8,jiayuxing.com,HK,Asia,Eastern Asia,Hong Kong,,,
154.215.31.136,4,25,jiazhengjiameng.com,HK,Asia,Eastern Asia,Hong Kong,,,
154.209.49.214,4,3,jiebantech.com,HK,Asia,Eastern Asia,Hong Kong,,,
45.64.113.87,4,76419,jiebbs.cn,HK,Asia,Eastern Asia,Hong Kong,,,
154.204.195.69,4,6,jiegancanju.com,HK,Asia,Eastern Asia,Hong Kong,,,
154.216.110.108,4,-4,jieshou365.com,HK,Asia,Eastern Asia,Hong Kong,,,Hong Kong
154.215.31.142,4,27,jiexiangtech.com,HK,Asia,Eastern Asia,Hong Kong,,,
154.204.196.80,4,6,jijilidesign.com,HK,Asia,Eastern Asia,Hong Kong,,,
38.181.60.132,4,-3,jinchengkouqiang.com,HK,Asia,Eastern Asia,Hong Kong,Kwun Tong,,Kwun Tong
156.241.155.51,4,7,jingdianxiong.com,HK,Asia,Eastern Asia,Hong Kong,,,
154.211.78.23,4,12,jingkaiyuan.com,HK,Asia,Eastern Asia,Hong Kong,,,
47.242.2.78,4,7,jingos.com,HK,Asia,Eastern Asia,Hong Kong,,,Hong Kong
47.242.236.163,4,7,jingsuanwu.com,HK,Asia,Eastern Asia,Hong Kong,,,Hong Kong
43.239.165.29,4,-20,jingyear.com,HK,Asia,Eastern Asia,Hong Kong,,,
8.210.162.55,4,6,jinhailang.com,HK,Asia,Eastern Asia,Hong Kong,,,Hong Kong
154.209.49.204,4,0,jinhemall.com,HK,Asia,Eastern Asia,Hong Kong,,,
47.90.20.104,4,8,jinkosolar.com,HK,Asia,Eastern Asia,Hong Kong,,,Hong Kong
154.211.79.73,4,13,jinmaosheng.net,HK,Asia,Eastern Asia,Hong Kong,,,
154.204.194.3,4,6,jinrifupan.com,HK,Asia,Eastern Asia,Hong Kong,,,
43.129.67.178,4,-17,jintaicnc.com,HK,Asia,Eastern Asia,Hong Kong,,,Hong Kong
154.216.67.198,4,-1,jintaihuojia.com,HK,Asia,Eastern Asia,Hong Kong,,,Hong Kong
103.249.108.235,4,12,jinweibaoan.com,HK,Asia,Eastern Asia,Hong Kong,,,
154.214.69.174,4,15,jinxianjinbo.com,HK,Asia,Eastern Asia,Hong Kong,,,Hong Kong
154.212.203.124,4,8,jinxingfuguijinshu.com,HK,Asia,Eastern Asia,Hong Kong,,,
154.212.146.43,4,24,jinzhuo999.com,HK,Asia,Eastern Asia,Hong Kong,,,
154.26.198.43,4,-6451,jishuqq.com,HK,Asia,Eastern Asia,Hong Kong,,,Hong Kong
156.234.141.84,4,-351,jiubiandaili.com,HK,Asia,Eastern Asia,Hong Kong,,,Hong Kong
154.89.81.49,4,2362532,jiubianhttp.com,HK,Asia,Eastern Asia,Hong Kong,,,Hong Kong
101.33.124.121,4,-13,jiuyan.com.cn,HK,Asia,Eastern Asia,Hong Kong,,,Hong Kong
43.239.165.30,4,-18,jiuzunjiupin.com,HK,Asia,Eastern Asia,Hong Kong,,,
154.220.48.132,4,1,jixianmc.com,HK,Asia,Eastern Asia,Hong Kong,,,
128.1.145.137,4,8,jixietop.top,HK,Asia,Eastern Asia,Hong Kong,,,Hong Kong
154.204.192.130,4,9,jixuncharge.com,HK,Asia,Eastern Asia,Hong Kong,,,
45.207.136.35,4,1098937,jiziyy.com,HK,Asia,Eastern Asia,Hong Kong,,,Hong Kong
123.58.210.92,4,7,jjqqj.com,HK,Asia,Eastern Asia,Hong Kong,,,Hong Kong
154.220.239.163,4,24,jjwfy.com,HK,Asia,Eastern Asia,Hong Kong,,,
156.234.156.194,4,2,jk-hz.com,HK,Asia,Eastern Asia,Hong Kong,,,Hong Kong
154.19.205.12,4,8,jk51.com,HK,Asia,Eastern Asia,Hong Kong,,,Hong Kong
154.92.71.5,4,9,jkxsy.com,HK,Asia,Eastern Asia,Hong Kong,,,
83.150.226.3,4,5,jlbaotai.com,HK,Asia,Eastern Asia,Hong Kong,,,
103.135.101.15,4,2,jlgon.com,HK,Asia,Eastern Asia,Hong Kong,,,
156.241.100.149,4,27922445,jlxwqysh.com,HK,Asia,Eastern Asia,Hong Kong,,,
103.146.179.169,4,19,jmcdz.com,HK,Asia,Eastern Asia,Hong Kong,,,
156.234.251.250,4,9,jngfjc.com,HK,Asia,Eastern Asia,Hong Kong,,,Hong Kong
8.210.99.175,4,7,jnsaite.com,HK,Asia,Eastern Asia,Hong Kong,,,Hong Kong
156.240.226.62,4,12,jnsmpy.com,HK,Asia,Eastern Asia,Hong Kong,,,
154.220.47.76,4,-1,jnwenhua.com,HK,Asia,Eastern Asia,Hong Kong,,,
154.204.195.92,4,8,jnxingbei.com,HK,Asia,Eastern Asia,Hong Kong,,,
47.242.106.179,4,9,jnxlzx.cn,HK,Asia,Eastern Asia,Hong Kong,,,Hong Kong
154.92.81.243,4,4,jnynjx.com,HK,Asia,Eastern Asia,Hong Kong,,,
43.239.166.22,4,-17,jnyuju.com,HK,Asia,Eastern Asia,Hong Kong,,,
8.210.130.177,4,8,jocm.us,HK,Asia,Eastern Asia,Hong Kong,,,Hong Kong
8.210.198.75,4,9,joebm.com,HK,Asia,Eastern Asia,Hong Kong,,,Hong Kong
156.234.131.216,4,4,joginesolar.com,HK,Asia,Eastern Asia,Hong Kong,,,Hong Kong
156.234.35.16,4,10,johnharrow.com,HK,Asia,Eastern Asia,Hong Kong,,,Hong Kong
156.254.167.3,4,-28800029,jointapply.com,HK,Asia,Eastern Asia,Hong Kong,,,
103.201.70.153,4,1,jotans.com,HK,Asia,Eastern Asia,Hong Kong,,,
43.241.72.244,4,6,joyce.com,HK,Asia,Eastern Asia,Hong Kong,,,
159.138.43.193,4,284177,joyousreading.com,HK,Asia,Eastern Asia,Hong Kong,,,Hong Kong
112.121.182.166,4,2,joyrus.com,HK,Asia,Eastern Asia,Hong Kong,,,
43.134.207.91,4,12,jpghd.com,HK,Asia,Eastern Asia,Hong Kong,,,Hong Kong
156.241.180.69,4,12,jptranslate.com,HK,Asia,Eastern Asia,Hong Kong,,,
156.245.98.12,4,28,jpziben.com,HK,Asia,Eastern Asia,Hong Kong,,,
156.225.144.107,4,24045908,jqdapp.com,HK,Asia,Eastern Asia,Hong Kong,,,
154.204.194.12,4,6,jrtvjq.com,HK,Asia,Eastern Asia,Hong Kong,,,
154.89.104.243,4,7,jsaoya.com,HK,Asia,Eastern Asia,Hong Kong,,,Hong Kong
103.39.108.255,4,6,jsbyq.com,HK,Asia,Eastern Asia,Hong Kong,,,
154.216.86.86,4,1,jsdanjuanji.com,HK,Asia,Eastern Asia,Hong Kong,,,Hong Kong
103.134.144.23,4,7,jsjjpplm.cn,HK,Asia,Eastern Asia,Hong Kong,,,
154.220.47.71,4,3,jskywto.com,HK,Asia,Eastern Asia,Hong Kong,,,
45.91.226.213,4,5,jsmianxian.com,HK,Asia,Eastern Asia,Hong Kong,,,
154.212.195.242,4,8,jsmrlm.com,HK,Asia,Eastern Asia,Hong Kong,,,
154.212.198.179,4,9,jsmy777.com,HK,Asia,Eastern Asia,Hong Kong,,,
43.243.44.99,4,-21,jsqimai.com,HK,Asia,Eastern Asia,Hong Kong,,,
154.216.74.58,4,5,jszhuanbang.com,HK,Asia,Eastern Asia,Hong Kong,,,Hong Kong
154.211.78.138,4,15,jtsekj.com,HK,Asia,Eastern Asia,Hong Kong,,,
154.92.41.205,4,3,judingjinshu.com,HK,Asia,Eastern Asia,Hong Kong,,,
47.57.5.165,4,12,jujumaow.com,HK,Asia,Eastern Asia,Hong Kong,,,Hong Kong
35.215.153.83,4,8,juliasbanabread.com,HK,Asia,Eastern Asia,Hong Kong,,,Hong Kong
47.56.127.110,4,8,jumpstarter.hk,HK,Asia,Eastern Asia,Hong Kong,,,Hong Kong
156.234.141.82,4,-296,justenfashion.com,HK,Asia,Eastern Asia,Hong Kong,,,Hong Kong
35.215.171.7,4,8,justtadafilix.com,HK,Asia,Eastern Asia,Hong Kong,,,Hong Kong
154.216.74.62,4,4,juxiangkongjiandesign.com,HK,Asia,Eastern Asia,Hong Kong,,,Hong Kong
156.254.208.216,4,96,jw-sc.com,HK,Asia,Eastern Asia,Hong Kong,,,
154.212.197.215,4,7,jwhlink.com,HK,Asia,Eastern Asia,Hong Kong,,,
154.26.198.233,4,7,jxbh2018.com,HK,Asia,Eastern Asia,Hong Kong,,,Hong Kong
156.245.102.5,4,26,jxcs2019.com,HK,Asia,Eastern Asia,Hong Kong,,,
154.212.194.28,4,6,jxguanfa.com,HK,Asia,Eastern Asia,Hong Kong,,,
154.92.41.221,4,2,jxhlywc.com,HK,Asia,Eastern Asia,Hong Kong,,,
154.204.193.195,4,6,jxhuixiang.com,HK,Asia,Eastern Asia,Hong Kong,,,
156.234.131.143,4,7,jxjxfl.cn,HK,Asia,Eastern Asia,Hong Kong,,,Hong Kong
103.197.217.211,4,7,jxkebo.com,HK,Asia,Eastern Asia,Hong Kong,,,
154.209.54.158,4,4,jxmyhlpt.com,HK,Asia,Eastern Asia,Hong Kong,,,
103.134.144.33,4,8,jxrybjfw.com,HK,Asia,Eastern Asia,Hong Kong,,,
117.18.5.18,4,5,jxskjw.com,HK,Asia,Eastern Asia,Hong Kong,,,
154.204.193.209,4,6,jy52hb.com,HK,Asia,Eastern Asia,Hong Kong,,,
154.209.54.159,4,3,jyc-sz.com,HK,Asia,Eastern Asia,Hong Kong,,,
154.216.127.146,4,0,jyscoin.com,HK,Asia,Eastern Asia,Hong Kong,,,Hong Kong
154.209.54.160,4,5,jywem.com,HK,Asia,Eastern Asia,Hong Kong,,,
154.209.49.205,4,4,jyz020.com,HK,Asia,Eastern Asia,Hong Kong,,,
154.23.123.219,4,28714960,jzxt2020.com,HK,Asia,Eastern Asia,Hong Kong,Eastern,,Chai Wan
43.154.14.149,4,-16,jzxw.cn,HK,Asia,Eastern Asia,Hong Kong,,,Hong Kong
154.194.130.183,4,11,kaifafishing.com,HK,Asia,Eastern Asia,Hong Kong,,,Hong Kong
154.216.103.134,4,1,kailiaojijiage.com,HK,Asia,Eastern Asia,Hong Kong,,,Hong Kong
152.32.172.225,4,54,kaixin1680.cn,HK,Asia,Eastern Asia,Hong Kong,,,Hong Kong
154.212.213.234,4,11,kamagradr.com,HK,Asia,Eastern Asia,Hong Kong,,,
159.138.55.51,4,8,kanqq.com,HK,Asia,Eastern Asia,Hong Kong,,,Hong Kong
8.217.191.116,4,6,kao100.com,HK,Asia,Eastern Asia,Hong Kong,,,Hong Kong
47.242.84.14,4,6,kaviation-tools.com,HK,Asia,Eastern Asia,Hong Kong,,,Hong Kong
202.66.9.4,4,332270,kawai-kanyu.com.hk,HK,Asia,Eastern Asia,Hong Kong,Kwun Tong,,Kowloon Bay
154.214.69.177,4,17,kayiguanjia.com,HK,Asia,Eastern Asia,Hong Kong,,,Hong Kong
154.212.198.173,4,8,kdybabyking.com,HK,Asia,Eastern Asia,Hong Kong,,,
156.234.35.126,4,4,keltybasecamp.com,HK,Asia,Eastern Asia,Hong Kong,,,Hong Kong
69.172.74.247,4,-62316,kenfor.net,HK,Asia,Eastern Asia,Hong Kong,,,
154.214.69.182,4,15,ketai88.com,HK,Asia,Eastern Asia,Hong Kong,,,Hong Kong
156.239.205.229,4,25,kflygs.com,HK,Asia,Eastern Asia,Hong Kong,,,Hong Kong
182.16.87.202,4,-6,kiees.cn,HK,Asia,Eastern Asia,Hong Kong,,,
156.224.184.196,4,106,kindpng.com,HK,Asia,Eastern Asia,Hong Kong,,,Hong Kong
47.76.180.216,4,11,king-kerry.com,HK,Asia,Eastern Asia,Hong Kong,,,Hong Kong
103.11.101.160,4,13,kir.com.hk,HK,Asia,Eastern Asia,Hong Kong,,,
154.220.47.77,4,4,kjp07.com,HK,Asia,Eastern Asia,Hong Kong,,,
117.120.61.140,4,2,kjsdkhio.com,HK,Asia,Eastern Asia,Hong Kong,,,
45.250.196.30,4,5,kjsp123.com,HK,Asia,Eastern Asia,Hong Kong,,,
154.220.46.153,4,6,kmfubao.com,HK,Asia,Eastern Asia,Hong Kong,,,
156.245.45.149,4,7,kqgps.com,HK,Asia,Eastern Asia,Hong Kong,,,
154.209.54.161,4,6,ks606.com,HK,Asia,Eastern Asia,Hong Kong,,,
123.58.217.8,4,2,kuaibo.com,HK,Asia,Eastern Asia,Hong Kong,,,Hong Kong
8.210.252.144,4,10,kuaixin.net,HK,Asia,Eastern Asia,Hong Kong,,,Hong Kong
154.204.194.5,4,26,kuimgs.com,HK,Asia,Eastern Asia,Hong Kong,,,
156.234.110.125,4,11,kulunkan.com,HK,Asia,Eastern Asia,Hong Kong,,,Hong Kong
154.194.182.55,4,-6958861,kxqcxs.com,HK,Asia,Eastern Asia,Hong Kong,,,Hong Kong
154.204.230.11,4,7,kxund.com,HK,Asia,Eastern Asia,Hong Kong,,,
156.225.144.112,4,24045902,kzjscl.com,HK,Asia,Eastern Asia,Hong Kong,,,
154.204.172.187,4,4,laihaohuo.com,HK,Asia,Eastern Asia,Hong Kong,,,
154.214.112.105,4,8,lalaknh.cn,HK,Asia,Eastern Asia,Hong Kong,,,Hong Kong
103.41.65.239,4,11,lalaqno.cn,HK,Asia,Eastern Asia,Hong Kong,,,
156.234.88.40,4,10,lamotrictal.com,HK,Asia,Eastern Asia,Hong Kong,,,Hong Kong
47.89.18.120,4,6,lanecrawford.com,HK,Asia,Eastern Asia,Hong Kong,,,
103.247.164.82,4,12,langhamhotels.co.uk,HK,Asia,Eastern Asia,Hong Kong,,,
43.249.221.142,4,-14,langlianjituan.com,HK,Asia,Eastern Asia,Hong Kong,,,
47.89.9.224,4,7,lanmodo.com,HK,Asia,Eastern Asia,Hong Kong,,,
154.204.195.83,4,0,lanrenqunkong.com,HK,Asia,Eastern Asia,Hong Kong,,,
119.13.78.67,4,22,laojintuan.com,HK,Asia,Eastern Asia,Hong Kong,,,Hong Kong
154.204.192.131,4,5,laonongjia1688.com,HK,Asia,Eastern Asia,Hong Kong,,,
154.19.198.172,4,8,laoreads.com,HK,Asia,Eastern Asia,Hong Kong,,,Hong Kong
112.121.174.236,4,2120,laosubenben.com,HK,Asia,Eastern Asia,Hong Kong,,,
112.121.182.163,4,11,laoyou1992.com,HK,Asia,Eastern Asia,Hong Kong,,,
154.216.86.82,4,-1,laxhydps.com,HK,Asia,Eastern Asia,Hong Kong,,,Hong Kong
47.76.131.114,4,7,lcdwiki.com,HK,Asia,Eastern Asia,Hong Kong,,,Hong Kong
103.197.217.200,4,6,lcmptea.com,HK,Asia,Eastern Asia,Hong Kong,,,
103.197.217.207,4,6,lcqqzs.com,HK,Asia,Eastern Asia,Hong Kong,,,
154.89.106.34,4,9,ldb169.com,HK,Asia,Eastern Asia,Hong Kong,,,Hong Kong
47.243.87.89,4,9,ldcap.com,HK,Asia,Eastern Asia,Hong Kong,,,Hong Kong
103.192.43.9,4,-15,ldzzds.com,HK,Asia,Eastern Asia,Hong Kong,,,
156.234.245.157,4,10,leadgrowths.com,HK,Asia,Eastern Asia,Hong Kong,,,Hong Kong
154.218.135.69,4,13,learn-safe.com,HK,Asia,Eastern Asia,Hong Kong,,,
156.245.40.241,4,31,ledxianship.com,HK,Asia,Eastern Asia,Hong Kong,,,
35.215.186.235,4,19,leepvigras.com,HK,Asia,Eastern Asia,Hong Kong,,,Hong Kong
47.244.129.171,4,13,lehmanlaw.com,HK,Asia,Eastern Asia,Hong Kong,,,Hong Kong
43.129.228.95,4,-16,leiyuge.com,HK,Asia,Eastern Asia,Hong Kong,,,Hong Kong
8.210.79.225,4,10,leranl.com,HK,Asia,Eastern Asia,Hong Kong,,,Hong Kong
202.59.157.50,4,285990,letfind.com.cn,HK,Asia,Eastern Asia,Hong Kong,,,
8.210.249.69,4,9,lexing.com.cn,HK,Asia,Eastern Asia,Hong Kong,,,Hong Kong
47.89.52.84,4,9,leyifan.com,HK,Asia,Eastern Asia,Hong Kong,,,
154.204.195.68,4,7,lezhongfruit.com,HK,Asia,Eastern Asia,Hong Kong,,,
154.89.104.240,4,4,lhhq-china.com,HK,Asia,Eastern Asia,Hong Kong,,,Hong Kong
103.148.151.128,4,94,lhtex.com.cn,HK,Asia,Eastern Asia,Hong Kong,,,
154.220.47.91,4,2,lianbotonghang.com,HK,Asia,Eastern Asia,Hong Kong,,,
154.212.203.119,4,8,liangyucm.com,HK,Asia,Eastern Asia,Hong Kong,,,
154.209.99.166,4,-1,lianwei365.com,HK,Asia,Eastern Asia,Hong Kong,,,
35.215.148.128,4,11,liao1.com,HK,Asia,Eastern Asia,Hong Kong,,,Hong Kong
103.19.190.74,4,7,liaoninganhao.com,HK,Asia,Eastern Asia,Hong Kong,,,
203.176.124.176,4,26,lifecaremedstore.com,HK,Asia,Eastern Asia,Hong Kong,,,
47.238.86.146,4,8,ligonggong.com,HK,Asia,Eastern Asia,Hong Kong,,,Hong Kong
169.136.136.106,4,35,likee.com,HK,Asia,Eastern Asia,Hong Kong,,,
156.241.137.12,4,7,ling0551.com,HK,Asia,Eastern Asia,Hong Kong,,,
43.225.44.175,4,27,linsan.net,HK,Asia,Eastern Asia,Hong Kong,,,
8.210.86.187,4,9,linux.cn,HK,Asia,Eastern Asia,Hong Kong,,,Hong Kong
47.243.228.97,4,7,linuxdiyf.com,HK,Asia,Eastern Asia,Hong Kong,,,Hong Kong
47.238.47.193,4,14,linuxeye.com,HK,Asia,Eastern Asia,Hong Kong,,,Hong Kong
206.237.31.210,4,11,linuxso.com,HK,Asia,Eastern Asia,Hong Kong,,,
47.57.117.148,4,7,liosun.com,HK,Asia,Eastern Asia,Hong Kong,,,Hong Kong
8.210.110.124,4,174542,lipin.com,HK,Asia,Eastern Asia,Hong Kong,,,Hong Kong
103.219.105.252,4,71,litihome.com,HK,Asia,Eastern Asia,Hong Kong,,,
119.28.54.212,4,-17,liumingye.cn,HK,Asia,Eastern Asia,Hong Kong,,,Hong Kong
47.76.134.28,4,6,liweiart.com,HK,Asia,Eastern Asia,Hong Kong,,,Hong Kong
154.216.103.141,4,6,lixiangyungou.com,HK,Asia,Eastern Asia,Hong Kong,,,Hong Kong
203.91.76.228,4,8,liyuanzg.com.cn,HK,Asia,Eastern Asia,Hong Kong,,,
47.242.3.239,4,8,lizemedical.com,HK,Asia,Eastern Asia,Hong Kong,,,Hong Kong
8.210.170.142,4,14,lizhi.io,HK,Asia,Eastern Asia,Hong Kong,,,Hong Kong
154.209.49.208,4,2,lljk6688.com,HK,Asia,Eastern Asia,Hong Kong,,,
103.213.245.218,4,23,lnkjw.com,HK,Asia,Eastern Asia,Hong Kong,,,
154.211.79.34,4,8,longhaiggb.com,HK,Asia,Eastern Asia,Hong Kong,,,
154.220.47.72,4,1,longyayu.com,HK,Asia,Eastern Asia,Hong Kong,,,
47.238.33.102,4,11,longyu.cc,HK,Asia,Eastern Asia,Hong Kong,,,Hong Kong
154.220.46.154,4,9,lrhwsb.com,HK,Asia,Eastern Asia,Hong Kong,,,
8.210.201.97,4,6,lsbin.com,HK,Asia,Eastern Asia,Hong Kong,,,Hong Kong
154.216.103.156,4,2,lshdessb.com,HK,Asia,Eastern Asia,Hong Kong,,,Hong Kong
103.179.243.105,4,178595,ltaaa.com,HK,Asia,Eastern Asia,Hong Kong,,,
103.134.144.27,4,8,luckyphotos.cn,HK,Asia,Eastern Asia,Hong Kong,,,
35.220.176.144,4,4,luckytigercasino.top,HK,Asia,Eastern Asia,Hong Kong,,,Hong Kong
118.107.250.162,4,28879,luoditaobao.com,HK,Asia,Eastern Asia,Hong Kong,,,
154.212.194.12,4,11,luoyangsifanghuamu.com,HK,Asia,Eastern Asia,Hong Kong,,,
154.220.99.237,4,4,lutherteam.com,HK,Asia,Eastern Asia,Hong Kong,,,
103.13.50.176,4,370,luxurybrandproducts.com,HK,Asia,Eastern Asia,Hong Kong,,,
103.57.229.229,4,1,lvgangbaowen888.com,HK,Asia,Eastern Asia,Hong Kong,,,
47.76.67.203,4,11,lvmae.com,HK,Asia,Eastern Asia,Hong Kong,,,Hong Kong
43.249.221.136,4,-21,lvniren.com,HK,Asia,Eastern Asia,Hong Kong,,,
156.245.98.11,4,29,lvtainong.com,HK,Asia,Eastern Asia,Hong Kong,,,
154.209.54.162,4,4,lxwjm.com,HK,Asia,Eastern Asia,Hong Kong,,,
154.216.86.83,4,2,lychunqing.com,HK,Asia,Eastern Asia,Hong Kong,,,Hong Kong
156.254.175.88,4,6,lydfjr.com,HK,Asia,Eastern Asia,Hong Kong,,,
43.154.90.96,4,-16,lyhrdl.com,HK,Asia,Eastern Asia,Hong Kong,,,Hong Kong
154.26.197.248,4,9,lyndenace.com,HK,Asia,Eastern Asia,Hong Kong,,,Hong Kong
218.188.211.66,4,1179,lynms.edu.hk,HK,Asia,Eastern Asia,Hong Kong,,,
218.188.211.67,4,1000,lynms.edu.hk,HK,Asia,Eastern Asia,Hong Kong,,,
154.92.42.166,4,0,lyshicai.com,HK,Asia,Eastern Asia,Hong Kong,,,
154.89.104.239,4,9,lywrg.com,HK,Asia,Eastern Asia,Hong Kong,,,Hong Kong
154.26.196.34,4,-6455,lz13.cn,HK,Asia,Eastern Asia,Hong Kong,,,Hong Kong
154.89.102.176,4,9,lzbangde.com,HK,Asia,Eastern Asia,Hong Kong,,,Hong Kong
154.206.130.229,4,4,lzdynt.com,HK,Asia,Eastern Asia,Hong Kong,,,Hong Kong
180.92.182.205,4,30,macaupostdaily.com,HK,Asia,Eastern Asia,Hong Kong,,,
47.75.52.50,4,37,macbl.com,HK,Asia,Eastern Asia,Hong Kong,,,Hong Kong
156.239.205.230,4,72,maijiatv.com,HK,Asia,Eastern Asia,Hong Kong,,,Hong Kong
35.215.189.162,4,10,makingonlinenews.net,HK,Asia,Eastern Asia,Hong Kong,,,Hong Kong
35.220.175.175,4,3,malelove-finder.com,HK,Asia,Eastern Asia,Hong Kong,,,Hong Kong
115.126.66.195,4,24,maluyazijm.com,HK,Asia,Eastern Asia,Hong Kong,,,
34.92.211.162,4,3,mansethaberleri.net,HK,Asia,Eastern Asia,Hong Kong,,,Hong Kong
154.211.84.180,4,12,maogujie.com,HK,Asia,Eastern Asia,Hong Kong,,,
154.216.103.149,4,49,maotaichun100.com,HK,Asia,Eastern Asia,Hong Kong,,,Hong Kong
156.254.252.105,4,58,maritzatex.com,HK,Asia,Eastern Asia,Hong Kong,,,
34.92.49.168,4,2,marylandmushroomsstore.com,HK,Asia,Eastern Asia,Hong Kong,,,Hong Kong
103.197.26.98,4,6,mathcores.com,HK,Asia,Eastern Asia,Hong Kong,,,
172.96.185.202,4,11,mathista.org,HK,Asia,Eastern Asia,Hong Kong,,,
45.121.197.114,4,6,mayflash.com,HK,Asia,Eastern Asia,Hong Kong,,,
45.121.197.113,4,6,mayflash.com,HK,Asia,Eastern Asia,Hong Kong,,,
47.57.247.207,4,8,mb5u.com,HK,Asia,Eastern Asia,Hong Kong,,,Hong Kong
156.224.24.63,4,239,mbdianzicheng.com,HK,Asia,Eastern Asia,Hong Kong,,,Hong Kong
154.220.99.234,4,-2,mccollumnewlands.com,HK,Asia,Eastern Asia,Hong Kong,,,
43.132.126.62,4,-16,mcmap.cc,HK,Asia,Eastern Asia,Hong Kong,,,Hong Kong
47.91.209.133,4,9,mcutech.net,HK,Asia,Eastern Asia,Hong Kong,,,Hong Kong
154.212.200.140,4,7,mczf1688.com,HK,Asia,Eastern Asia,Hong Kong,,,
8.210.76.243,4,7,mdui.org,HK,Asia,Eastern Asia,Hong Kong,,,Hong Kong
103.148.150.131,4,70,mecs-press.org,HK,Asia,Eastern Asia,Hong Kong,,,
103.15.22.30,4,17,mediaasia.com,HK,Asia,Eastern Asia,Hong Kong,,,
43.128.42.181,4,0,mega-hn.com,HK,Asia,Eastern Asia,Hong Kong,,,Hong Kong
156.234.94.153,4,15,megajobalert.com,HK,Asia,Eastern Asia,Hong Kong,,,Hong Kong
103.91.151.53,4,35,megaman.cc,HK,Asia,Eastern Asia,Hong Kong,,,
190.92.252.117,4,12,megapce.com,HK,Asia,Eastern Asia,Hong Kong,,,Hong Kong
45.147.27.19,4,7,meijiaban.com.cn,HK,Asia,Eastern Asia,Hong Kong,,,
154.206.227.180,4,35,meijiabanjt.com,HK,Asia,Eastern Asia,Hong Kong,,,Hong Kong
206.119.101.93,4,13,meinvs.com,HK,Asia,Eastern Asia,Hong Kong,,,Hong Kong
156.234.178.8,4,10,meirunchina.com,HK,Asia,Eastern Asia,Hong Kong,,,Hong Kong
52.175.34.95,4,10,meishic.com,HK,Asia,Eastern Asia,Hong Kong,,,Hong Kong
8.210.53.218,4,32,meishujia.cn,HK,Asia,Eastern Asia,Hong Kong,,,Hong Kong
154.218.148.243,4,9,meiyulu.com,HK,Asia,Eastern Asia,Hong Kong,,,
43.154.112.119,4,-12,menubarx.app,HK,Asia,Eastern Asia,Hong Kong,,,Hong Kong
43.132.199.137,4,-14,metacharacter.cn,HK,Asia,Eastern Asia,Hong Kong,,,Hong Kong
154.39.114.141,4,6,metalnews.cn,HK,Asia,Eastern Asia,Hong Kong,,,Hong Kong
8.212.53.83,4,35,metatopnews.org,HK,Asia,Eastern Asia,Hong Kong,,,Hong Kong
35.215.155.167,4,11,metformina.net,HK,Asia,Eastern Asia,Hong Kong,,,Hong Kong
156.234.190.129,4,7,metformini.com,HK,Asia,Eastern Asia,Hong Kong,,,Hong Kong
156.234.204.235,4,23,methocarbaxin.com,HK,Asia,Eastern Asia,Hong Kong,,,Hong Kong
118.193.46.126,4,5,mhcf.net,HK,Asia,Eastern Asia,Hong Kong,,,Hong Kong
47.76.124.196,4,6,mhjy.net,HK,Asia,Eastern Asia,Hong Kong,,,Hong Kong
47.243.231.185,4,48,mhwz.cn,HK,Asia,Eastern Asia,Hong Kong,,,Hong Kong
35.215.160.240,4,19,miamislots.net,HK,Asia,Eastern Asia,Hong Kong,,,Hong Kong
154.204.193.219,4,79,miaoshangbao.com,HK,Asia,Eastern Asia,Hong Kong,,,
116.251.204.217,4,6,michael-young.com,HK,Asia,Eastern Asia,Hong Kong,,,
34.92.224.242,4,4,midsummerlifedream.com,HK,Asia,Eastern Asia,Hong Kong,,,Hong Kong
154.220.40.211,4,4,mijieboshang.com,HK,Asia,Eastern Asia,Hong Kong,,,
8.218.20.58,4,24,militarybarrier.com,HK,Asia,Eastern Asia,Hong Kong,,,Hong Kong
154.204.194.21,4,8,mingpian9.com,HK,Asia,Eastern Asia,Hong Kong,,,
119.28.225.81,4,-15,minicreo.com,HK,Asia,Eastern Asia,Hong Kong,,,Hong Kong
119.8.60.60,4,5,minio.org.cn,HK,Asia,Eastern Asia,Hong Kong,,,Hong Kong
20.205.63.200,4,7,mipro.com.tw,HK,Asia,Eastern Asia,Hong Kong,,,Hong Kong
154.214.112.103,4,10,mivqsqj.cn,HK,Asia,Eastern Asia,Hong Kong,,,Hong Kong
47.90.59.103,4,9,mixgovr.com,HK,Asia,Eastern Asia,Hong Kong,,,Hong Kong
119.8.51.137,4,22,mixmarvel.com,HK,Asia,Eastern Asia,Hong Kong,,,Hong Kong
154.204.192.150,4,9,mjz05.com,HK,Asia,Eastern Asia,Hong Kong,,,
45.200.35.90,4,17,mlbjerseys.net,HK,Asia,Eastern Asia,Hong Kong,,,
47.52.26.78,4,11,mlog.club,HK,Asia,Eastern Asia,Hong Kong,,,Hong Kong
156.234.178.222,4,10,mmdontstop.com,HK,Asia,Eastern Asia,Hong Kong,,,Hong Kong
154.209.177.137,4,10,mmlnj.com,HK,Asia,Eastern Asia,Hong Kong,,,
154.214.69.166,4,18,mmmm1688.com,HK,Asia,Eastern Asia,Hong Kong,,,Hong Kong
154.23.123.222,4,28714966,mmyx9.com,HK,Asia,Eastern Asia,Hong Kong,Eastern,,Chai Wan
43.129.219.26,4,-17,mo8.cc,HK,Asia,Eastern Asia,Hong Kong,,,Hong Kong
43.154.82.252,4,-14,mobanbus.cn,HK,Asia,Eastern Asia,Hong Kong,,,Hong Kong
8.217.13.2,4,7,mobantu.com,HK,Asia,Eastern Asia,Hong Kong,,,Hong Kong
156.234.212.214,4,9,mojikontakti.com,HK,Asia,Eastern Asia,Hong Kong,,,Hong Kong
43.134.208.184,4,-15,mokeyjay.com,HK,Asia,Eastern Asia,Hong Kong,,,Hong Kong
35.215.128.238,4,9,mokids.me,HK,Asia,Eastern Asia,Hong Kong,,,Hong Kong
154.204.193.222,4,5,moli020.com,HK,Asia,Eastern Asia,Hong Kong,,,
8.218.5.158,4,11,moliyly.com,HK,Asia,Eastern Asia,Hong Kong,,,Hong Kong
156.240.116.209,4,8,moniquewind.com,HK,Asia,Eastern Asia,Hong Kong,,,
156.240.2.27,4,-19055,moo9995.com,HK,Asia,Eastern Asia,Hong Kong,,,Hong Kong
47.56.12.96,4,13,mookbus.com,HK,Asia,Eastern Asia,Hong Kong,,,Hong Kong
47.240.33.35,4,23,mooring.com.cn,HK,Asia,Eastern Asia,Hong Kong,,,Hong Kong
35.220.195.62,4,12,motor-tuning.net,HK,Asia,Eastern Asia,Hong Kong,,,Hong Kong
103.21.220.71,4,6,moviekidsnews.com,HK,Asia,Eastern Asia,Hong Kong,,,Hong Kong
154.204.192.133,4,33,moxiangge0.com,HK,Asia,Eastern Asia,Hong Kong,,,
154.204.192.135,4,16,moyuan666.com,HK,Asia,Eastern Asia,Hong Kong,,,
35.241.85.217,4,4,mpgpress.com,HK,Asia,Eastern Asia,Hong Kong,,,Hong Kong
154.212.146.33,4,25,mqlchemicals.com,HK,Asia,Eastern Asia,Hong Kong,,,
156.225.144.116,4,24045901,mrdjd.com,HK,Asia,Eastern Asia,Hong Kong,,,
8.210.25.62,4,14,mretv.com,HK,Asia,Eastern Asia,Hong Kong,,,Hong Kong
35.215.171.83,4,10,msdmco.org,HK,Asia,Eastern Asia,Hong Kong,,,Hong Kong
35.215.136.232,4,10,mtehomelife.com,HK,Asia,Eastern Asia,Hong Kong,,,Hong Kong
43.132.158.69,4,-13,mtyyw.com,HK,Asia,Eastern Asia,Hong Kong,,,Hong Kong
154.204.192.158,4,8,mua2288.com,HK,Asia,Eastern Asia,Hong Kong,,,
45.116.78.249,4,392084,mudanxzfw.com,HK,Asia,Eastern Asia,Hong Kong,,,
103.149.152.57,4,29,mundoazulgrana.com,HK,Asia,Eastern Asia,Hong Kong,,,
103.149.152.85,4,61,mundoazulgrana.com,HK,Asia,Eastern Asia,Hong Kong,,,
103.149.152.82,4,30,mundoazulgrana.com,HK,Asia,Eastern Asia,Hong Kong,,,
103.149.152.72,4,27,mundoazulgrana.com,HK,Asia,Eastern Asia,Hong Kong,,,
103.149.152.75,4,33,mundoazulgrana.com,HK,Asia,Eastern Asia,Hong Kong,,,
103.149.152.64,4,32,mundoazulgrana.com,HK,Asia,Eastern Asia,Hong Kong,,,
103.149.152.59,4,28,mundoazulgrana.com,HK,Asia,Eastern Asia,Hong Kong,,,
103.149.152.76,4,27,mundoazulgrana.com,HK,Asia,Eastern Asia,Hong Kong,,,
103.149.152.79,4,27,mundoazulgrana.com,HK,Asia,Eastern Asia,Hong Kong,,,
103.149.152.60,4,30,mundoazulgrana.com,HK,Asia,Eastern Asia,Hong Kong,,,
103.149.152.83,4,28,mundoazulgrana.com,HK,Asia,Eastern Asia,Hong Kong,,,
103.149.152.77,4,31,mundoazulgrana.com,HK,Asia,Eastern Asia,Hong Kong,,,
103.149.152.68,4,29,mundoazulgrana.com,HK,Asia,Eastern Asia,Hong Kong,,,
103.149.152.61,4,34,mundoazulgrana.com,HK,Asia,Eastern Asia,Hong Kong,,,
103.149.152.73,4,29,mundoazulgrana.com,HK,Asia,Eastern Asia,Hong Kong,,,
103.149.152.81,4,26,mundoazulgrana.com,HK,Asia,Eastern Asia,Hong Kong,,,
103.149.152.78,4,30,mundoazulgrana.com,HK,Asia,Eastern Asia,Hong Kong,,,
103.149.152.67,4,51,mundoazulgrana.com,HK,Asia,Eastern Asia,Hong Kong,,,
103.149.152.63,4,28,mundoazulgrana.com,HK,Asia,Eastern Asia,Hong Kong,,,
103.149.152.71,4,29,mundoazulgrana.com,HK,Asia,Eastern Asia,Hong Kong,,,
103.149.152.70,4,29,mundoazulgrana.com,HK,Asia,Eastern Asia,Hong Kong,,,
103.149.152.69,4,30,mundoazulgrana.com,HK,Asia,Eastern Asia,Hong Kong,,,
103.149.152.80,4,28,mundoazulgrana.com,HK,Asia,Eastern Asia,Hong Kong,,,
103.149.152.66,4,30,mundoazulgrana.com,HK,Asia,Eastern Asia,Hong Kong,,,
103.149.152.58,4,29,mundoazulgrana.com,HK,Asia,Eastern Asia,Hong Kong,,,
103.149.152.84,4,57,mundoazulgrana.com,HK,Asia,Eastern Asia,Hong Kong,,,
103.149.152.74,4,28,mundoazulgrana.com,HK,Asia,Eastern Asia,Hong Kong,,,
103.149.152.65,4,27,mundoazulgrana.com,HK,Asia,Eastern Asia,Hong Kong,,,
103.149.152.62,4,36,mundoazulgrana.com,HK,Asia,Eastern Asia,Hong Kong,,,
47.242.245.198,4,46,muqin.com.cn,HK,Asia,Eastern Asia,Hong Kong,,,Hong Kong
154.211.78.154,4,14,mutuo66.com,HK,Asia,Eastern Asia,Hong Kong,,,
154.209.54.163,4,0,muvce.com,HK,Asia,Eastern Asia,Hong Kong,,,
149.104.22.195,4,73,muyu007.cn,HK,Asia,Eastern Asia,Hong Kong,,,
154.209.54.150,4,10,mvhbad8d.com,HK,Asia,Eastern Asia,Hong Kong,,,
47.242.246.161,4,8,mxhaitao.com,HK,Asia,Eastern Asia,Hong Kong,,,Hong Kong
103.254.208.168,4,11,my3q.com,HK,Asia,Eastern Asia,Hong Kong,,,
154.214.97.253,4,84,myaffordablequalityinsurance.com,HK,Asia,Eastern Asia,Hong Kong,,,Hong Kong
150.109.119.111,4,-2,mychg.org,HK,Asia,Eastern Asia,Hong Kong,,,Hong Kong
103.197.168.242,4,18,myfitnessgeeks.com,HK,Asia,Eastern Asia,Hong Kong,,,
154.209.54.138,4,40,mykbang.com,HK,Asia,Eastern Asia,Hong Kong,,,
103.24.248.223,4,47,myqiantang.com,HK,Asia,Eastern Asia,Hong Kong,,,
154.216.86.87,4,4,mysenjia.com,HK,Asia,Eastern Asia,Hong Kong,,,Hong Kong
47.238.45.254,4,6,myubbs.com,HK,Asia,Eastern Asia,Hong Kong,,,Hong Kong
47.242.199.139,4,12,myuwell.com,HK,Asia,Eastern Asia,Hong Kong,,,Hong Kong
119.9.108.237,4,0,myvapormy.com,HK,Asia,Eastern Asia,Hong Kong,,,
129.226.164.97,4,45,myvrgame.cn,HK,Asia,Eastern Asia,Hong Kong,,,Hong Kong
154.89.104.237,4,22,myyunmima.com,HK,Asia,Eastern Asia,Hong Kong,,,Hong Kong
156.245.102.20,4,25,mz-live.com,HK,Asia,Eastern Asia,Hong Kong,,,
43.230.170.196,4,12,mzctwl.com,HK,Asia,Eastern Asia,Hong Kong,,,
47.75.186.112,4,21,mzzhao.com,HK,Asia,Eastern Asia,Hong Kong,,,Hong Kong
154.209.54.164,4,9,mzzhicai.com,HK,Asia,Eastern Asia,Hong Kong,,,
154.204.195.85,4,13,naisidianshang.com,HK,Asia,Eastern Asia,Hong Kong,,,
154.212.146.36,4,25,najialun.com,HK,Asia,Eastern Asia,Hong Kong,,,
154.204.193.212,4,15,najinu.com,HK,Asia,Eastern Asia,Hong Kong,,,
154.220.126.231,4,8,nancyeriley.com,HK,Asia,Eastern Asia,Hong Kong,,,
85.8.182.139,4,52,nangesz.com,HK,Asia,Eastern Asia,Hong Kong,,,
154.220.52.108,4,3,nanhutravel.com,HK,Asia,Eastern Asia,Hong Kong,,,
154.92.72.44,4,9,nanlgq.com,HK,Asia,Eastern Asia,Hong Kong,,,
154.204.193.197,4,8,nanyuw.com,HK,Asia,Eastern Asia,Hong Kong,,,
202.59.157.169,4,27,narkoshu.com,HK,Asia,Eastern Asia,Hong Kong,,,
34.96.199.163,4,2,nationalmalldesign.org,HK,Asia,Eastern Asia,Hong Kong,,,Hong Kong
154.23.123.223,4,28714986,natoyua.com,HK,Asia,Eastern Asia,Hong Kong,Eastern,,Chai Wan
154.204.194.22,4,6,nbfantai.com,HK,Asia,Eastern Asia,Hong Kong,,,
154.204.193.215,4,4,nbguangtuo.com,HK,Asia,Eastern Asia,Hong Kong,,,
154.204.196.91,4,6,nbliangjiang.com,HK,Asia,Eastern Asia,Hong Kong,,,
154.92.72.41,4,10,nbqingsi.com,HK,Asia,Eastern Asia,Hong Kong,,,
101.32.189.195,4,-16,nbrczp.com,HK,Asia,Eastern Asia,Hong Kong,,,Hong Kong
154.194.145.143,4,9,nbs-fl.com,HK,Asia,Eastern Asia,Hong Kong,,,Hong Kong
43.239.165.23,4,-21,nbshenzi.com,HK,Asia,Eastern Asia,Hong Kong,,,
154.204.195.84,4,27,nbshisheng.com,HK,Asia,Eastern Asia,Hong Kong,,,
47.52.90.236,4,9,nbtif.com,HK,Asia,Eastern Asia,Hong Kong,,,Hong Kong
103.152.170.76,4,22,nbva.com.cn,HK,Asia,Eastern Asia,Hong Kong,,,
154.204.193.216,4,43,nbwanshe.com,HK,Asia,Eastern Asia,Hong Kong,,,
47.76.246.72,4,10,nbxieheng.cn,HK,Asia,Eastern Asia,Hong Kong,,,Hong Kong
154.204.195.70,4,10,nbyjpp.com,HK,Asia,Eastern Asia,Hong Kong,,,
156.241.144.104,4,6,ncgwqj.com,HK,Asia,Eastern Asia,Hong Kong,,,
154.211.79.75,4,10,ncttjj.com,HK,Asia,Eastern Asia,Hong Kong,,,
47.57.236.63,4,223,nd.com.cn,HK,Asia,Eastern Asia,Hong Kong,,,Hong Kong
154.214.70.157,4,19,neimenggusst.com,HK,Asia,Eastern Asia,Hong Kong,,,Hong Kong
154.92.35.78,4,-1,nengzhao.org,HK,Asia,Eastern Asia,Hong Kong,,,
47.91.249.75,4,6,neocha.com,HK,Asia,Eastern Asia,Hong Kong,,,Hong Kong
47.52.101.69,4,7,neriandhu.com,HK,Asia,Eastern Asia,Hong Kong,,,Hong Kong
47.238.234.227,4,8,netis-systems.com,HK,Asia,Eastern Asia,Hong Kong,,,Hong Kong
156.240.221.110,4,9,newasp.cn,HK,Asia,Eastern Asia,Hong Kong,,,
154.204.55.228,4,27,newereducation.com,HK,Asia,Eastern Asia,Hong Kong,,,
154.204.195.88,4,5,newproducts100.com,HK,Asia,Eastern Asia,Hong Kong,,,
172.96.185.213,4,18,news92fm.com,HK,Asia,Eastern Asia,Hong Kong,,,
156.224.128.196,4,3,nicepng.com,HK,Asia,Eastern Asia,Hong Kong,,,Hong Kong
154.92.41.202,4,2,niha-china.com,HK,Asia,Eastern Asia,Hong Kong,,,
154.23.123.220,4,28714989,nihmoo.com,HK,Asia,Eastern Asia,Hong Kong,Eastern,,Chai Wan
34.92.180.120,4,28,nike-mercurial.org,HK,Asia,Eastern Asia,Hong Kong,,,Hong Kong
47.243.253.72,4,10,niubull.com,HK,Asia,Eastern Asia,Hong Kong,,,Hong Kong
43.242.203.230,4,0,njchengshe.com,HK,Asia,Eastern Asia,Hong Kong,,,
156.234.148.219,4,6,njdufang.com,HK,Asia,Eastern Asia,Hong Kong,,,Hong Kong
43.240.50.48,4,4,njgaocheng.com,HK,Asia,Eastern Asia,Hong Kong,,,
154.212.193.212,4,9,njgzagro.com,HK,Asia,Eastern Asia,Hong Kong,,,
154.212.174.50,4,8,njhymq.com,HK,Asia,Eastern Asia,Hong Kong,,,
43.242.203.231,4,3,njjusheng.com,HK,Asia,Eastern Asia,Hong Kong,,,
43.242.203.232,4,5,njmaoqun.com,HK,Asia,Eastern Asia,Hong Kong,,,
103.19.190.8,4,8529,njstd.com,HK,Asia,Eastern Asia,Hong Kong,,,
47.238.128.233,4,10,njyxwx.com,HK,Asia,Eastern Asia,Hong Kong,,,Hong Kong
8.218.169.227,4,10,nmgjxffm.com,HK,Asia,Eastern Asia,Hong Kong,,,Hong Kong
149.104.14.33,4,7,nmgzlgw.com,HK,Asia,Eastern Asia,Hong Kong,,,
8.210.7.180,4,6,nmgzszhjc.com,HK,Asia,Eastern Asia,Hong Kong,,,Hong Kong
43.243.44.100,4,-18,nnhengtai.com,HK,Asia,Eastern Asia,Hong Kong,,,
154.212.213.212,4,10,nocualificado.com,HK,Asia,Eastern Asia,Hong Kong,,,
35.215.153.183,4,10,noprescriptioncanada.com,HK,Asia,Eastern Asia,Hong Kong,,,Hong Kong
152.32.172.122,4,8,norgein.com,HK,Asia,Eastern Asia,Hong Kong,,,Hong Kong
47.76.193.210,4,7,northtimes.com,HK,Asia,Eastern Asia,Hong Kong,,,Hong Kong
154.220.35.15,4,0,nplsmc.com,HK,Asia,Eastern Asia,Hong Kong,,,
47.75.54.240,4,63,nqidi.com,HK,Asia,Eastern Asia,Hong Kong,,,Hong Kong
43.241.72.203,4,6,nrofweb.com,HK,Asia,Eastern Asia,Hong Kong,,,
47.76.229.163,4,9,ntg-holdings.com,HK,Asia,Eastern Asia,Hong Kong,,,Hong Kong
154.212.194.4,4,6,ntxygj.com,HK,Asia,Eastern Asia,Hong Kong,,,
43.152.14.32,4,-1,nweon.com,HK,Asia,Eastern Asia,Hong Kong,,,Hong Kong
43.152.23.34,4,-5,nweon.com,HK,Asia,Eastern Asia,Hong Kong,,,Hong Kong
43.152.25.102,4,-1,nweon.com,HK,Asia,Eastern Asia,Hong Kong,,,Hong Kong
156.234.202.48,4,10,nwxdt.com,HK,Asia,Eastern Asia,Hong Kong,,,Hong Kong
156.234.202.47,4,11,nwxwb.com,HK,Asia,Eastern Asia,Hong Kong,,,Hong Kong
39.109.127.122,4,2615,nxmcy.com,HK,Asia,Eastern Asia,Hong Kong,,,
43.129.165.125,4,-14,nxw.so,HK,Asia,Eastern Asia,Hong Kong,,,Hong Kong
154.204.194.16,4,7,nyy976.com,HK,Asia,Eastern Asia,Hong Kong,,,
154.209.54.165,4,6,nyzlh.com,HK,Asia,Eastern Asia,Hong Kong,,,
8.218.107.176,4,11,nzdao.cn,HK,Asia,Eastern Asia,Hong Kong,,,Hong Kong
45.125.12.240,4,13,nztw.org,HK,Asia,Eastern Asia,Hong Kong,,,
154.12.62.152,4,-217,nztw.org,HK,Asia,Eastern Asia,Hong Kong,,,Hong Kong
38.147.187.107,4,7,nztw.org,HK,Asia,Eastern Asia,Hong Kong,,,
156.240.226.122,4,15,offodd.com,HK,Asia,Eastern Asia,Hong Kong,,,
156.240.50.184,4,19,ohgwzme.cn,HK,Asia,Eastern Asia,Hong Kong,,,Hong Kong
156.234.47.112,4,15,ok3588.com,HK,Asia,Eastern Asia,Hong Kong,,,Hong Kong
149.104.189.136,4,11,okdhhs.net,HK,Asia,Eastern Asia,Hong Kong,,,Hong Kong
16.163.96.22,4,38,okx.com,HK,Asia,Eastern Asia,Hong Kong,,,
43.199.115.124,4,-6,okx.com,HK,Asia,Eastern Asia,Hong Kong,,,Hong Kong
18.166.240.79,4,-14,okx.com,HK,Asia,Eastern Asia,Hong Kong,,,
129.226.63.76,4,-11,oldmanemu.net,HK,Asia,Eastern Asia,Hong Kong,,,Hong Kong
182.16.87.206,4,-44,ometal.com,HK,Asia,Eastern Asia,Hong Kong,,,
218.253.193.133,4,19446,on-line.com.hk,HK,Asia,Eastern Asia,Hong Kong,,,
27.124.10.216,4,9,onekeyrom.com,HK,Asia,Eastern Asia,Hong Kong,Sha Tin,,Shatin
35.215.149.192,4,11,online-slots-games.net,HK,Asia,Eastern Asia,Hong Kong,,,Hong Kong
35.215.148.98,4,9,onlinedatingsuccessguide.com,HK,Asia,Eastern Asia,Hong Kong,,,Hong Kong
156.225.73.230,4,377,Ookla Speedtest Server 37427: speedtest.eu.fastnetworks.biz,HK,Asia,Eastern Asia,Hong Kong,,,
178.173.224.254,4,355,Ookla Speedtest Server 62167: speedtest.hk212.hkg.cn.nerocloud.io,HK,Asia,Eastern Asia,Hong Kong,,,
103.77.210.183,4,336,Ookla Speedtest Server 62193: speedtest.hk210.hkg.cn.ctcsci.com,HK,Asia,Eastern Asia,Hong Kong,,,Hong Kong
185.248.27.1,4,297,Ookla Speedtest Server: speedtest.alchevsk.net,HK,Asia,Eastern Asia,Hong Kong,,,
103.26.94.94,4,308,Ookla Speedtest Server: speedtest.telin.hk,HK,Asia,Eastern Asia,Hong Kong,,,
154.220.46.158,4,1,oombook.com,HK,Asia,Eastern Asia,Hong Kong,,,
129.226.69.139,4,-13,opencv.org.cn,HK,Asia,Eastern Asia,Hong Kong,,,Hong Kong
43.154.106.66,4,4,openv.com,HK,Asia,Eastern Asia,Hong Kong,,,Hong Kong
47.76.62.167,4,11,openv.tv,HK,Asia,Eastern Asia,Hong Kong,,,Hong Kong
156.234.61.176,4,11,oprolevorter.com,HK,Asia,Eastern Asia,Hong Kong,,,Hong Kong
119.8.247.44,4,18,orangenews.hk,HK,Asia,Eastern Asia,Hong Kong,,,Hong Kong
119.8.247.39,4,7,orangenews.hk,HK,Asia,Eastern Asia,Hong Kong,,,Hong Kong
159.138.14.223,4,25,orangenews.hk,HK,Asia,Eastern Asia,Hong Kong,,,Hong Kong
159.138.14.225,4,6,orangenews.hk,HK,Asia,Eastern Asia,Hong Kong,,,Hong Kong
154.89.91.136,4,7,orderciali.com,HK,Asia,Eastern Asia,Hong Kong,,,Hong Kong
47.52.248.125,4,46,oreilly.com.cn,HK,Asia,Eastern Asia,Hong Kong,,,Hong Kong
203.176.125.162,4,18,orka-aero.com,HK,Asia,Eastern Asia,Hong Kong,,,
43.241.72.55,4,25,ottoemezzobombana.com,HK,Asia,Eastern Asia,Hong Kong,,,
154.210.41.161,4,27,ouye888.com,HK,Asia,Eastern Asia,Hong Kong,,,
154.209.54.135,4,4,owkj17.com,HK,Asia,Eastern Asia,Hong Kong,,,
156.234.112.219,4,18,oxcareptal.com,HK,Asia,Eastern Asia,Hong Kong,,,Hong Kong
154.92.77.202,4,11,pandora-hd.com,HK,Asia,Eastern Asia,Hong Kong,,,
103.40.161.5,4,25,panpan.org,HK,Asia,Eastern Asia,Hong Kong,,,
47.242.26.229,4,41,partszf.com,HK,Asia,Eastern Asia,Hong Kong,,,Hong Kong
34.96.173.166,4,2,paulingcatalogue.org,HK,Asia,Eastern Asia,Hong Kong,,,Hong Kong
34.92.154.17,4,23,paxil.cyou,HK,Asia,Eastern Asia,Hong Kong,,,Hong Kong
34.150.122.96,4,9,paxlovid.pro,HK,Asia,Eastern Asia,Hong Kong,,,Hong Kong
156.234.222.205,4,7,pbuvj.com,HK,Asia,Eastern Asia,Hong Kong,,,Hong Kong
123.203.29.133,4,32,pcinhk.com,HK,Asia,Eastern Asia,Hong Kong,,,
116.251.205.24,4,8,pcps.edu.hk,HK,Asia,Eastern Asia,Hong Kong,,,
154.89.111.9,4,13,pcwanli.com,HK,Asia,Eastern Asia,Hong Kong,,,Hong Kong
154.211.77.174,4,9,pdafans.com,HK,Asia,Eastern Asia,Hong Kong,,,
119.13.78.137,4,10,pdafans.com.cn,HK,Asia,Eastern Asia,Hong Kong,,,Hong Kong
203.176.124.140,4,21,peinilive.com,HK,Asia,Eastern Asia,Hong Kong,,,
129.226.172.196,4,3,pengstys.com,HK,Asia,Eastern Asia,Hong Kong,,,Hong Kong
154.216.72.214,4,28,percutalfa.com,HK,Asia,Eastern Asia,Hong Kong,,,Hong Kong
156.234.152.42,4,63,perinceon.com,HK,Asia,Eastern Asia,Hong Kong,,,Hong Kong
47.76.169.171,4,18,pet86.com,HK,Asia,Eastern Asia,Hong Kong,,,Hong Kong
103.11.228.180,4,1071,petpetmates.com,HK,Asia,Eastern Asia,Hong Kong,,,
8.210.10.150,4,23,petrobino.com,HK,Asia,Eastern Asia,Hong Kong,,,Hong Kong
154.89.90.180,4,7,pgautosale.com,HK,Asia,Eastern Asia,Hong Kong,,,Hong Kong
154.204.194.8,4,13,phhuo.com,HK,Asia,Eastern Asia,Hong Kong,,,
156.234.140.197,4,17,phigoedu.com,HK,Asia,Eastern Asia,Hong Kong,,,Hong Kong
34.92.26.112,4,3,philly-injury-law.com,HK,Asia,Eastern Asia,Hong Kong,,,Hong Kong
103.109.101.18,4,25,phondata.com,HK,Asia,Eastern Asia,Hong Kong,,,
47.243.86.181,4,10,pick-fun.com,HK,Asia,Eastern Asia,Hong Kong,,,Hong Kong
156.224.168.4,4,37,pikpng.com,HK,Asia,Eastern Asia,Hong Kong,,,Hong Kong
206.119.3.146,4,17,pingbandayin.com,HK,Asia,Eastern Asia,Hong Kong,,,Hong Kong
43.241.73.156,4,10,pingpongsavantas.com,HK,Asia,Eastern Asia,Hong Kong,,,
154.215.28.136,4,43,pinpaiww.com,HK,Asia,Eastern Asia,Hong Kong,,,
150.107.3.83,4,4,pkpiao.com,HK,Asia,Eastern Asia,Hong Kong,,,
64.120.89.237,4,19,pladads.com.tw,HK,Asia,Eastern Asia,Hong Kong,,,
156.234.236.59,4,32,planixbuy.com,HK,Asia,Eastern Asia,Hong Kong,,,Hong Kong
45.64.53.21,4,9,playmq.com,HK,Asia,Eastern Asia,Hong Kong,,,
154.215.112.105,4,20,plswhg.com,HK,Asia,Eastern Asia,Hong Kong,,,Hong Kong
43.249.221.138,4,-17,pmmatop.com,HK,Asia,Eastern Asia,Hong Kong,,,
103.15.132.202,4,26,pmq.org.hk,HK,Asia,Eastern Asia,Hong Kong,,,
156.224.175.59,4,3,pngfind.com,HK,Asia,Eastern Asia,Hong Kong,,,Hong Kong
154.197.160.68,4,3,pngitem.com,HK,Asia,Eastern Asia,Hong Kong,,,Hong Kong
154.197.224.100,4,7,pngkey.com,HK,Asia,Eastern Asia,Hong Kong,,,Hong Kong
156.224.143.4,4,13,pngkit.com,HK,Asia,Eastern Asia,Hong Kong,,,Hong Kong
154.197.56.4,4,9,pnstudy.com,HK,Asia,Eastern Asia,Hong Kong,,,Hong Kong
194.41.59.44,4,41,poker6.cc,HK,Asia,Eastern Asia,Hong Kong,,,
103.24.248.15,4,3,polingdisplay.com,HK,Asia,Eastern Asia,Hong Kong,,,
47.244.104.234,4,67,polkaproject.com,HK,Asia,Eastern Asia,Hong Kong,,,Hong Kong
154.23.152.66,4,-1022,ppcn.net,HK,Asia,Eastern Asia,Hong Kong,,,Hong Kong
8.212.77.10,4,36,pptok.com,HK,Asia,Eastern Asia,Hong Kong,,,Hong Kong
156.245.102.9,4,86,praisesun.com,HK,Asia,Eastern Asia,Hong Kong,,,
185.149.120.117,4,62,prava112z.com,HK,Asia,Eastern Asia,Hong Kong,,,
47.238.39.202,4,69,prcfe.com,HK,Asia,Eastern Asia,Hong Kong,,,Hong Kong
35.215.189.14,4,41,prednisone247.com,HK,Asia,Eastern Asia,Hong Kong,,,Hong Kong
35.215.181.202,4,38,prednisoneizi.com,HK,Asia,Eastern Asia,Hong Kong,,,Hong Kong
103.120.83.63,4,-245,primechn.com.cn,HK,Asia,Eastern Asia,Hong Kong,,,
47.91.188.79,4,7,prouvon.com.cn,HK,Asia,Eastern Asia,Hong Kong,,,Hong Kong
149.129.116.2,4,70,pub163.com,HK,Asia,Eastern Asia,Hong Kong,,,Hong Kong
156.245.104.23,4,34,pubglol.com,HK,Asia,Eastern Asia,Hong Kong,,,
154.206.166.33,4,11,purebizgains.com,HK,Asia,Eastern Asia,Hong Kong,,,Hong Kong
59.188.217.178,4,25,purecleaning.hk,HK,Asia,Eastern Asia,Hong Kong,,,
154.204.194.20,4,26,pvgczk.com,HK,Asia,Eastern Asia,Hong Kong,,,
154.23.123.221,4,28714973,pxaonn.com,HK,Asia,Eastern Asia,Hong Kong,Eastern,,Chai Wan
47.240.63.93,4,26,pythontab.com,HK,Asia,Eastern Asia,Hong Kong,,,Hong Kong
103.143.80.75,4,6,qaochang.com,HK,Asia,Eastern Asia,Hong Kong,,,
103.148.151.117,4,7,qc0769.com,HK,Asia,Eastern Asia,Hong Kong,,,
154.92.73.51,4,8,qd299.cn,HK,Asia,Eastern Asia,Hong Kong,,,
154.204.190.10,4,7,qdadcmc.com,HK,Asia,Eastern Asia,Hong Kong,,,
43.239.165.25,4,-20,qdjingzhen.com,HK,Asia,Eastern Asia,Hong Kong,,,
154.12.90.36,4,9,qdmeien.com,HK,Asia,Eastern Asia,Hong Kong,Yau Tsim Mong,,Mong Kok
154.204.193.213,4,6,qdmingrun.com,HK,Asia,Eastern Asia,Hong Kong,,,
154.204.194.11,4,6,qdweiwen.com,HK,Asia,Eastern Asia,Hong Kong,,,
156.234.240.29,4,15,qglobalconsulting.com,HK,Asia,Eastern Asia,Hong Kong,,,Hong Kong
172.96.185.224,4,7,qh88wiki.com,HK,Asia,Eastern Asia,Hong Kong,,,
156.245.98.13,4,25,qhhuiyu.com,HK,Asia,Eastern Asia,Hong Kong,,,
45.250.196.29,4,2,qhjialun.com,HK,Asia,Eastern Asia,Hong Kong,,,
150.107.3.81,4,-1,qhmanhua.com,HK,Asia,Eastern Asia,Hong Kong,,,
103.57.229.228,4,2,qhq058.com,HK,Asia,Eastern Asia,Hong Kong,,,
156.251.57.73,4,10,qhqphoto.com,HK,Asia,Eastern Asia,Hong Kong,,,
43.239.165.21,4,-17,qianbagongshe.com,HK,Asia,Eastern Asia,Hong Kong,,,
103.24.250.254,4,2,qianbaina.com,HK,Asia,Eastern Asia,Hong Kong,,,
210.56.49.48,4,7,qianfan.app,HK,Asia,Eastern Asia,Hong Kong,,,
156.225.145.148,4,24045900,qianfengxuetuan.com,HK,Asia,Eastern Asia,Hong Kong,,,
154.212.195.244,4,6,qianyundu.com,HK,Asia,Eastern Asia,Hong Kong,,,
34.92.24.86,4,3,qichengedu.org,HK,Asia,Eastern Asia,Hong Kong,,,Hong Kong
154.212.195.226,4,7,qiduyuyan.com,HK,Asia,Eastern Asia,Hong Kong,,,
154.92.92.140,4,-1,qijiajh.com,HK,Asia,Eastern Asia,Hong Kong,,,
154.204.192.152,4,7,qimozixun.com,HK,Asia,Eastern Asia,Hong Kong,,,
154.31.248.2,4,426571,qingkai.com,HK,Asia,Eastern Asia,Hong Kong,,,Hong Kong
154.212.195.251,4,8,qingxindazao.com,HK,Asia,Eastern Asia,Hong Kong,,,
47.240.67.186,4,8,qingye.world,HK,Asia,Eastern Asia,Hong Kong,,,Hong Kong
8.210.225.225,4,9,qipaoxian.com,HK,Asia,Eastern Asia,Hong Kong,,,Hong Kong
43.239.165.16,4,-14,qipeifeixia.com,HK,Asia,Eastern Asia,Hong Kong,,,
154.204.193.201,4,10,qisshop.com,HK,Asia,Eastern Asia,Hong Kong,,,
8.218.31.115,4,7,qj.com.cn,HK,Asia,Eastern Asia,Hong Kong,,,Hong Kong
45.192.82.5,4,-4,qjhs1688.com,HK,Asia,Eastern Asia,Hong Kong,,,
156.254.175.80,4,5,qlhxhz.com,HK,Asia,Eastern Asia,Hong Kong,,,
154.204.216.136,4,8,qmsggg.cn,HK,Asia,Eastern Asia,Hong Kong,,,
154.204.194.26,4,8,qpaaq.com,HK,Asia,Eastern Asia,Hong Kong,,,
154.19.204.128,4,7505,qqbaobao.com,HK,Asia,Eastern Asia,Hong Kong,,,Hong Kong
149.104.148.251,4,5,qqe2.com,HK,Asia,Eastern Asia,Hong Kong,,,Hong Kong
103.195.117.3,4,8,qskjhb.com,HK,Asia,Eastern Asia,Hong Kong,,,
154.31.173.147,4,9,quan09.com,HK,Asia,Eastern Asia,Hong Kong,,,Hong Kong
8.210.42.16,4,10,quanboo.com,HK,Asia,Eastern Asia,Hong Kong,,,Hong Kong
103.134.144.59,4,17,quanchenghuizhong.com,HK,Asia,Eastern Asia,Hong Kong,,,
8.217.189.1,4,10,quanfff.com,HK,Asia,Eastern Asia,Hong Kong,,,Hong Kong
47.243.40.229,4,8,quanji.net,HK,Asia,Eastern Asia,Hong Kong,,,Hong Kong
156.234.96.217,4,19,quanmingongyang.com,HK,Asia,Eastern Asia,Hong Kong,,,Hong Kong
156.234.96.199,4,6,quanmingozc.com,HK,Asia,Eastern Asia,Hong Kong,,,Hong Kong
103.215.83.196,4,-52732,quanminxuanshang.com,HK,Asia,Eastern Asia,Hong Kong,,,
103.57.229.227,4,2,quanyiwenchuang.com,HK,Asia,Eastern Asia,Hong Kong,,,
154.204.194.10,4,7,quanyongpay.com,HK,Asia,Eastern Asia,Hong Kong,,,
47.243.192.91,4,15,quanyou0931.com,HK,Asia,Eastern Asia,Hong Kong,,,Hong Kong
116.251.205.84,4,5,queclink.com,HK,Asia,Eastern Asia,Hong Kong,,,
154.23.152.120,4,16,quecxx.com,HK,Asia,Eastern Asia,Hong Kong,,,Hong Kong
156.234.16.232,4,40,quetiquel.com,HK,Asia,Eastern Asia,Hong Kong,,,Hong Kong
154.210.46.89,4,55,qukuaiwang.com.cn,HK,Asia,Eastern Asia,Hong Kong,,,
154.212.174.38,4,13,qwerioery.com,HK,Asia,Eastern Asia,Hong Kong,,,
154.212.200.155,4,9,qwzn360.com,HK,Asia,Eastern Asia,Hong Kong,,,
156.234.112.136,4,9,qy-bearing.com,HK,Asia,Eastern Asia,Hong Kong,,,Hong Kong
154.89.104.228,4,7,qy1106.com,HK,Asia,Eastern Asia,Hong Kong,,,Hong Kong
43.128.57.238,4,-9,qyhs.xn--fiqs8s,HK,Asia,Eastern Asia,Hong Kong,,,Hong Kong
45.250.196.28,4,3,qysg999.com,HK,Asia,Eastern Asia,Hong Kong,,,
154.23.123.224,4,28714969,qzhongxiao.com,HK,Asia,Eastern Asia,Hong Kong,Eastern,,Chai Wan
154.209.54.166,4,5,qztyye.com,HK,Asia,Eastern Asia,Hong Kong,,,
172.96.185.180,4,90,radioesperanca.com,HK,Asia,Eastern Asia,Hong Kong,,,
45.122.132.184,4,62,rainbowdigitalprinting.com,HK,Asia,Eastern Asia,Hong Kong,,,
103.24.249.192,4,103,rainbowhotel.cc,HK,Asia,Eastern Asia,Hong Kong,,,
47.52.7.13,4,48,rapoo.com,HK,Asia,Eastern Asia,Hong Kong,,,Hong Kong
154.209.54.148,4,14,rcjyu.com,HK,Asia,Eastern Asia,Hong Kong,,,
216.250.97.52,4,13,rechtslexikon.net,HK,Asia,Eastern Asia,Hong Kong,,,Hong Kong
154.204.156.17,4,10,redbagrecycling.com,HK,Asia,Eastern Asia,Hong Kong,,,
154.204.192.149,4,40,redeemfuli.com,HK,Asia,Eastern Asia,Hong Kong,,,
47.242.232.187,4,36,redflag-linux.com,HK,Asia,Eastern Asia,Hong Kong,,,Hong Kong
43.154.92.22,4,18,redis.com.cn,HK,Asia,Eastern Asia,Hong Kong,,,Hong Kong
8.218.190.44,4,31,redis.net.cn,HK,Asia,Eastern Asia,Hong Kong,,,Hong Kong
124.156.186.199,4,13,refond.com,HK,Asia,Eastern Asia,Hong Kong,,,Hong Kong
154.215.31.154,4,31,renyi88.com,HK,Asia,Eastern Asia,Hong Kong,,,
119.28.51.22,4,0,resonatehousehold.com,HK,Asia,Eastern Asia,Hong Kong,,,Hong Kong
8.210.210.5,4,44,retens.hk,HK,Asia,Eastern Asia,Hong Kong,,,Hong Kong
203.135.139.218,4,11,rghk.com.hk,HK,Asia,Eastern Asia,Hong Kong,,,
35.220.206.240,4,15,rhtnet.top,HK,Asia,Eastern Asia,Hong Kong,,,Hong Kong
47.243.232.42,4,56,richenfinance.com,HK,Asia,Eastern Asia,Hong Kong,,,Hong Kong
180.92.181.226,4,7,rickyyufitness.com,HK,Asia,Eastern Asia,Hong Kong,,,
39.109.114.54,4,7537,rilijianjiweixin.cn,HK,Asia,Eastern Asia,Hong Kong,,,
107.148.13.124,4,7082,ririsao.vip,HK,Asia,Eastern Asia,Hong Kong,,,Hong Kong
107.148.13.135,4,7081,ririsao7.com,HK,Asia,Eastern Asia,Hong Kong,,,Hong Kong
107.148.13.136,4,7082,ririsao8.com,HK,Asia,Eastern Asia,Hong Kong,,,Hong Kong
107.148.13.138,4,7082,ririsao9.com,HK,Asia,Eastern Asia,Hong Kong,,,Hong Kong
154.39.122.183,4,25,riyugroup.com,HK,Asia,Eastern Asia,Hong Kong,,,Hong Kong
34.92.234.7,4,2,roaring21casino.top,HK,Asia,Eastern Asia,Hong Kong,,,Hong Kong
93.95.114.20,4,1311,rocleiden.nl,HK,Asia,Eastern Asia,Hong Kong,,,Hong Kong
154.23.123.226,4,28715009,rongii369.com,HK,Asia,Eastern Asia,Hong Kong,Eastern,,Chai Wan
154.211.79.225,4,39,rongqigangban.com,HK,Asia,Eastern Asia,Hong Kong,,,
154.204.195.94,4,32,rouxiaotu.com,HK,Asia,Eastern Asia,Hong Kong,,,
103.21.220.45,4,7,royalcollegeofpharmacy.com,HK,Asia,Eastern Asia,Hong Kong,,,Hong Kong
43.230.171.61,4,27,rqtcgj.com,HK,Asia,Eastern Asia,Hong Kong,,,
107.148.13.64,4,7115,rriav3.com,HK,Asia,Eastern Asia,Hong Kong,,,Hong Kong
107.148.13.67,4,7081,rriav4.com,HK,Asia,Eastern Asia,Hong Kong,,,Hong Kong
47.244.49.56,4,23,rtmworld.com,HK,Asia,Eastern Asia,Hong Kong,,,Hong Kong
171.22.193.35,4,26,ruanjianbuluo.com,HK,Asia,Eastern Asia,Hong Kong,,,Hong Kong
154.204.195.78,4,19,ruitu01.com,HK,Asia,Eastern Asia,Hong Kong,,,
154.209.54.144,4,25,ruiyutv.com,HK,Asia,Eastern Asia,Hong Kong,,,
43.129.232.173,4,-4,runlite.cn,HK,Asia,Eastern Asia,Hong Kong,,,Hong Kong
156.241.100.152,4,27922443,runlongboligang.com,HK,Asia,Eastern Asia,Hong Kong,,,
156.234.141.80,4,15,rushing-sh.com,HK,Asia,Eastern Asia,Hong Kong,,,Hong Kong
43.252.231.239,4,-57978,rxjmz.shop,HK,Asia,Eastern Asia,Hong Kong,,,
154.216.86.121,4,21,rxycm.com,HK,Asia,Eastern Asia,Hong Kong,,,Hong Kong
47.242.57.105,4,6,rz114.cn,HK,Asia,Eastern Asia,Hong Kong,,,Hong Kong
8.210.234.219,4,8,s-cms.cn,HK,Asia,Eastern Asia,Hong Kong,,,Hong Kong
47.76.31.47,4,24,safety-brake.com,HK,Asia,Eastern Asia,Hong Kong,,,Hong Kong
156.224.243.146,4,2,sandianyixian.com,HK,Asia,Eastern Asia,Hong Kong,,,Hong Kong
154.204.195.81,4,11,sanfangrenzi.com,HK,Asia,Eastern Asia,Hong Kong,,,
154.212.165.219,4,10,sangiaodichlaocai.com,HK,Asia,Eastern Asia,Hong Kong,,,
43.249.221.137,4,-15,sanhemenye.com,HK,Asia,Eastern Asia,Hong Kong,,,
154.212.174.56,4,8,sanningmy.com,HK,Asia,Eastern Asia,Hong Kong,,,
43.154.140.196,4,9,sanwen.net,HK,Asia,Eastern Asia,Hong Kong,,,Hong Kong
154.204.157.28,4,9,sanwenzx.com,HK,Asia,Eastern Asia,Hong Kong,,,
43.251.105.62,4,5,sanxingbc.com,HK,Asia,Eastern Asia,Hong Kong,,,
38.181.22.91,4,13,saocdn.net,HK,Asia,Eastern Asia,Hong Kong,,,Hong Kong
104.143.33.25,4,4,saocdn.net,HK,Asia,Eastern Asia,Hong Kong,,,Hong Kong
8.218.162.192,4,5,saramonic.com,HK,Asia,Eastern Asia,Hong Kong,,,Hong Kong
8.218.100.253,4,14,sass.hk,HK,Asia,Eastern Asia,Hong Kong,,,Hong Kong
34.92.109.131,4,11,sat-plus.net,HK,Asia,Eastern Asia,Hong Kong,,,Hong Kong
172.96.185.193,4,23,saveinternetradio.org,HK,Asia,Eastern Asia,Hong Kong,,,
154.211.78.148,4,19,savpack.com,HK,Asia,Eastern Asia,Hong Kong,,,
154.89.104.252,4,8,sbepgz.cn,HK,Asia,Eastern Asia,Hong Kong,,,Hong Kong
182.16.26.131,4,2,sbling-collection.com,HK,Asia,Eastern Asia,Hong Kong,,,
154.211.102.22,4,24,scievice.com,HK,Asia,Eastern Asia,Hong Kong,,,
103.96.148.224,4,-772612,scjlt.com,HK,Asia,Eastern Asia,Hong Kong,,,
154.209.49.210,4,14,sclfty.com,HK,Asia,Eastern Asia,Hong Kong,,,
47.242.48.183,4,17,scry.info,HK,Asia,Eastern Asia,Hong Kong,,,Hong Kong
154.204.195.89,4,7,scslove.com,HK,Asia,Eastern Asia,Hong Kong,,,
154.91.6.168,4,21,scsngd.com,HK,Asia,Eastern Asia,Hong Kong,,,Hong Kong
47.76.65.66,4,22,scstock.com,HK,Asia,Eastern Asia,Hong Kong,,,Hong Kong
154.215.112.113,4,5,scxnks.com,HK,Asia,Eastern Asia,Hong Kong,,,Hong Kong
154.215.27.129,4,28,sddszl.cn,HK,Asia,Eastern Asia,Hong Kong,,,
154.204.192.134,4,18,sdgwzzf.com,HK,Asia,Eastern Asia,Hong Kong,,,
154.92.72.39,4,7,sdhuixiangjixie.com,HK,Asia,Eastern Asia,Hong Kong,,,
154.211.78.189,4,11,sdjbjg.com,HK,Asia,Eastern Asia,Hong Kong,,,
43.129.94.9,4,-18,sdjncc.com,HK,Asia,Eastern Asia,Hong Kong,,,Hong Kong
156.254.175.92,4,4,sdlhpr.com,HK,Asia,Eastern Asia,Hong Kong,,,
47.239.243.34,4,9,sdlw-jx.com,HK,Asia,Eastern Asia,Hong Kong,,,Hong Kong
8.218.54.244,4,5,sdrc315.com,HK,Asia,Eastern Asia,Hong Kong,,,Hong Kong
47.242.145.137,4,8,sdscbc.com,HK,Asia,Eastern Asia,Hong Kong,,,Hong Kong
154.216.86.80,4,2,sdshaosheng.com,HK,Asia,Eastern Asia,Hong Kong,,,Hong Kong
154.212.200.152,4,8,sdshyc888.com,HK,Asia,Eastern Asia,Hong Kong,,,
45.115.241.36,4,-20,seal-composites.cn,HK,Asia,Eastern Asia,Hong Kong,,,
154.26.200.106,4,19,selaudi.net,HK,Asia,Eastern Asia,Hong Kong,,,Hong Kong
154.204.192.136,4,11,sendredpack.com,HK,Asia,Eastern Asia,Hong Kong,,,
154.92.44.17,4,11,senmu888.com,HK,Asia,Eastern Asia,Hong Kong,,,
154.220.15.214,4,9,sertifikasimisb.com,HK,Asia,Eastern Asia,Hong Kong,,,
203.205.136.157,4,-21,sf-international.com,HK,Asia,Eastern Asia,Hong Kong,,,Hong Kong
119.28.164.32,4,21,sf-international.com,HK,Asia,Eastern Asia,Hong Kong,,,Hong Kong
154.204.193.221,4,8,sfcjsw.com,HK,Asia,Eastern Asia,Hong Kong,,,
103.13.51.32,4,1236,sfunhk.com,HK,Asia,Eastern Asia,Hong Kong,,,
154.216.103.152,4,4,sh-feiduo.com,HK,Asia,Eastern Asia,Hong Kong,,,Hong Kong
156.234.141.85,4,-316,sh-kmc.com,HK,Asia,Eastern Asia,Hong Kong,,,Hong Kong
154.214.65.47,4,31,shanghzc.com,HK,Asia,Eastern Asia,Hong Kong,,,Hong Kong
154.204.196.88,4,9,shanshanks.com,HK,Asia,Eastern Asia,Hong Kong,,,
156.254.167.105,4,10,shanxishuibeng.com,HK,Asia,Eastern Asia,Hong Kong,,,
154.204.193.204,4,18,shaolinsilhy.com,HK,Asia,Eastern Asia,Hong Kong,,,
180.92.181.83,4,7,sharpyun.com,HK,Asia,Eastern Asia,Hong Kong,,,
154.209.49.221,4,2,shdka.com,HK,Asia,Eastern Asia,Hong Kong,,,
35.215.159.35,4,9,sheilasshaveclub.com,HK,Asia,Eastern Asia,Hong Kong,,,Hong Kong
45.153.129.39,4,9,shenfendaquan.com,HK,Asia,Eastern Asia,Hong Kong,,,
154.216.103.153,4,5,shengdaost.com,HK,Asia,Eastern Asia,Hong Kong,,,Hong Kong
154.89.81.48,4,2362530,shenghua2008.com,HK,Asia,Eastern Asia,Hong Kong,,,Hong Kong
154.91.6.139,4,9,shengninghua.com,HK,Asia,Eastern Asia,Hong Kong,,,Hong Kong
154.204.192.137,4,13,shengquancp.com,HK,Asia,Eastern Asia,Hong Kong,,,
154.204.196.68,4,8,shengshiyongli.com,HK,Asia,Eastern Asia,Hong Kong,,,
154.204.195.73,4,14,shengshizhubao168.com,HK,Asia,Eastern Asia,Hong Kong,,,
103.24.251.21,4,3,shengyukj0309.cn,HK,Asia,Eastern Asia,Hong Kong,,,
154.214.69.181,4,16,shenlianclass.com,HK,Asia,Eastern Asia,Hong Kong,,,Hong Kong
154.204.195.82,4,6,shenqigongjuxiang.com,HK,Asia,Eastern Asia,Hong Kong,,,
154.206.129.214,4,7,sheqd.cn,HK,Asia,Eastern Asia,Hong Kong,,,Hong Kong
156.224.200.50,4,3,shhaosy.com,HK,Asia,Eastern Asia,Hong Kong,,,Hong Kong
154.212.197.202,4,6,shihuig.com,HK,Asia,Eastern Asia,Hong Kong,,,
154.216.127.136,4,-2,shiputx.com,HK,Asia,Eastern Asia,Hong Kong,,,Hong Kong
8.210.17.51,4,9,shiruini.com,HK,Asia,Eastern Asia,Hong Kong,,,Hong Kong
154.92.41.204,4,3,shiyaoxiaozhen.com,HK,Asia,Eastern Asia,Hong Kong,,,
123.58.213.240,4,-39922,shjf.com,HK,Asia,Eastern Asia,Hong Kong,,,Hong Kong
103.233.8.29,4,10,shjrubber.com,HK,Asia,Eastern Asia,Hong Kong,,,
154.212.198.186,4,7,shminxiangjj.com,HK,Asia,Eastern Asia,Hong Kong,,,
156.234.239.41,4,22,shopvibehair.com,HK,Asia,Eastern Asia,Hong Kong,,,Hong Kong
35.241.69.196,4,8,shortnews247.com,HK,Asia,Eastern Asia,Hong Kong,,,Hong Kong
154.204.194.23,4,10,shouguangmuwei.com,HK,Asia,Eastern Asia,Hong Kong,,,
154.211.79.102,4,10,shoumeirencn.com,HK,Asia,Eastern Asia,Hong Kong,,,
43.154.80.50,4,-13,shouyouzhijia.net,HK,Asia,Eastern Asia,Hong Kong,,,Hong Kong
154.212.174.58,4,6,shouytech.com,HK,Asia,Eastern Asia,Hong Kong,,,
115.126.96.101,4,5913,shouzuohuisuo.com,HK,Asia,Eastern Asia,Hong Kong,,,
154.214.71.101,4,15,shoxinzhe.com,HK,Asia,Eastern Asia,Hong Kong,,,Hong Kong
154.19.64.56,4,0,shsahsh.com,HK,Asia,Eastern Asia,Hong Kong,,,Hong Kong
154.206.205.115,4,18,shtrgd.com,HK,Asia,Eastern Asia,Hong Kong,,,Hong Kong
154.210.60.211,4,27,shuangqulvdanban.com,HK,Asia,Eastern Asia,Hong Kong,,,
8.210.229.251,4,6,shudoo.com,HK,Asia,Eastern Asia,Hong Kong,,,Hong Kong
43.240.29.132,4,24,shujukuba.com,HK,Asia,Eastern Asia,Hong Kong,,,
202.59.157.161,4,25,shuliannft.com,HK,Asia,Eastern Asia,Hong Kong,,,
47.91.235.20,4,9,shuyong.net,HK,Asia,Eastern Asia,Hong Kong,,,Hong Kong
154.212.198.164,4,9,shwazz.com,HK,Asia,Eastern Asia,Hong Kong,,,
45.114.169.71,4,2,shwwcm.com,HK,Asia,Eastern Asia,Hong Kong,,,
154.212.194.15,4,9,shxiaoyuzhileng.com,HK,Asia,Eastern Asia,Hong Kong,,,
185.243.242.74,4,29728157,shxifujinshu.com,HK,Asia,Eastern Asia,Hong Kong,,,
156.254.175.91,4,5,shyl04.com,HK,Asia,Eastern Asia,Hong Kong,,,
156.234.83.37,4,8,shzzsy.com.cn,HK,Asia,Eastern Asia,Hong Kong,,,Hong Kong
8.210.229.134,4,7,sibspress.org,HK,Asia,Eastern Asia,Hong Kong,,,Hong Kong
154.218.185.208,4,49,sijiudesign.com,HK,Asia,Eastern Asia,Hong Kong,,,
35.215.186.193,4,11,sildenafilfwcg.com,HK,Asia,Eastern Asia,Hong Kong,,,Hong Kong
35.215.186.112,4,37,silitech-us.com,HK,Asia,Eastern Asia,Hong Kong,,,Hong Kong
154.23.148.118,4,7,sims3cheat.com,HK,Asia,Eastern Asia,Hong Kong,,,Hong Kong
202.181.163.150,4,4,sin-hua.org,HK,Asia,Eastern Asia,Hong Kong,,,
218.213.85.210,4,12,sina.com.hk,HK,Asia,Eastern Asia,Hong Kong,,,
156.234.166.226,4,25,sinesofthetimes.com,HK,Asia,Eastern Asia,Hong Kong,,,Hong Kong
154.194.150.243,4,6,sinodis-ehr.com,HK,Asia,Eastern Asia,Hong Kong,,,Hong Kong
47.91.130.55,4,323,sinolingua.com.cn,HK,Asia,Eastern Asia,Hong Kong,,,Hong Kong
8.212.17.16,4,46,siteserver.cn,HK,Asia,Eastern Asia,Hong Kong,,,Hong Kong
154.23.123.225,4,28714974,sj95hb.com,HK,Asia,Eastern Asia,Hong Kong,Eastern,,Chai Wan
154.214.69.187,4,18,sjz-huaheng.com,HK,Asia,Eastern Asia,Hong Kong,,,Hong Kong
154.211.78.165,4,35,sjzjlsj.com,HK,Asia,Eastern Asia,Hong Kong,,,
154.211.78.150,4,12,sjzrcmag.com,HK,Asia,Eastern Asia,Hong Kong,,,
154.23.129.116,4,50,sjzxpjx.com,HK,Asia,Eastern Asia,Hong Kong,,,Hong Kong
154.23.129.126,4,41,sjzxpjx.com,HK,Asia,Eastern Asia,Hong Kong,,,Hong Kong
154.23.129.122,4,41,sjzxpjx.com,HK,Asia,Eastern Asia,Hong Kong,,,Hong Kong
154.23.129.125,4,39,sjzxpjx.com,HK,Asia,Eastern Asia,Hong Kong,,,Hong Kong
154.23.129.118,4,76,sjzxpjx.com,HK,Asia,Eastern Asia,Hong Kong,,,Hong Kong
43.154.4.125,4,-13,sjzzhizhi.com,HK,Asia,Eastern Asia,Hong Kong,,,Hong Kong
47.242.186.251,4,8,sketchcn.com,HK,Asia,Eastern Asia,Hong Kong,,,Hong Kong
154.211.76.7,4,26,skyrunarser.com,HK,Asia,Eastern Asia,Hong Kong,,,
103.192.43.10,4,-14,slj369.com,HK,Asia,Eastern Asia,Hong Kong,,,
154.92.41.203,4,19,slowjiezou.com,HK,Asia,Eastern Asia,Hong Kong,,,
156.245.97.28,4,28,slqchina.com,HK,Asia,Eastern Asia,Hong Kong,,,
47.76.67.19,4,35,sltp88.com,HK,Asia,Eastern Asia,Hong Kong,,,Hong Kong
47.242.61.103,4,18,sltp88.com,HK,Asia,Eastern Asia,Hong Kong,,,Hong Kong
34.96.163.200,4,27,sltp88.com,HK,Asia,Eastern Asia,Hong Kong,,,Hong Kong
43.252.167.241,4,3360,smartinfohk.com,HK,Asia,Eastern Asia,Hong Kong,,,
8.212.46.161,4,14,smartshanghai.com,HK,Asia,Eastern Asia,Hong Kong,,,Hong Kong
47.90.120.54,4,5,smcnn.com,HK,Asia,Eastern Asia,Hong Kong,,,Hong Kong
156.234.148.202,4,5,smilehehe.com,HK,Asia,Eastern Asia,Hong Kong,,,Hong Kong
47.242.161.201,4,14,smilesaddlery.com,HK,Asia,Eastern Asia,Hong Kong,,,Hong Kong
8.210.53.190,4,11,smspinverify.com,HK,Asia,Eastern Asia,Hong Kong,,,Hong Kong
154.212.203.115,4,17,snailchinese.com,HK,Asia,Eastern Asia,Hong Kong,,,
154.216.110.98,4,20,snailcx.com,HK,Asia,Eastern Asia,Hong Kong,,,Hong Kong
35.220.154.157,4,40,snapatar.com,HK,Asia,Eastern Asia,Hong Kong,,,Hong Kong
103.238.226.248,4,8,snpp.com,HK,Asia,Eastern Asia,Hong Kong,,,
119.12.174.204,4,9,snzholding.com,HK,Asia,Eastern Asia,Hong Kong,,,Hong Kong
45.121.197.54,4,57,socialplace.hk,HK,Asia,Eastern Asia,Hong Kong,,,
45.121.197.53,4,21,socialplace.hk,HK,Asia,Eastern Asia,Hong Kong,,,
123.176.96.43,4,-28802453,soco.org.hk,HK,Asia,Eastern Asia,Hong Kong,,,
114.112.104.32,4,72,socolar.com,HK,Asia,Eastern Asia,Hong Kong,,,
156.234.99.66,4,18,sodo.vip,HK,Asia,Eastern Asia,Hong Kong,,,Hong Kong
43.240.30.146,4,53,soilhome.com,HK,Asia,Eastern Asia,Hong Kong,,,
154.204.195.75,4,31,soklift.com,HK,Asia,Eastern Asia,Hong Kong,,,
34.92.49.42,4,26,solinguen.com,HK,Asia,Eastern Asia,Hong Kong,,,Hong Kong
156.224.138.220,4,44,sommarbutik.com,HK,Asia,Eastern Asia,Hong Kong,,,Hong Kong
154.92.41.194,4,1,songhuirongchuang.com,HK,Asia,Eastern Asia,Hong Kong,,,
154.31.243.30,4,52,songtai8.com,HK,Asia,Eastern Asia,Hong Kong,,,Hong Kong
182.173.77.100,4,6,sonikhk.com,HK,Asia,Eastern Asia,Hong Kong,,,
223.255.176.204,4,146939,sothink.com,HK,Asia,Eastern Asia,Hong Kong,,,
47.76.175.162,4,8,soueast-motor.com,HK,Asia,Eastern Asia,Hong Kong,,,Hong Kong
154.204.196.90,4,8,soulhappyhxs.com,HK,Asia,Eastern Asia,Hong Kong,,,
154.204.196.72,4,12,sourebang.com,HK,Asia,Eastern Asia,Hong Kong,,,
156.234.94.171,4,14,spiroaldact.com,HK,Asia,Eastern Asia,Hong Kong,,,Hong Kong
149.104.188.154,4,9,spjxsb.cn,HK,Asia,Eastern Asia,Hong Kong,,,Hong Kong
154.211.78.161,4,11,splash-makeup.com,HK,Asia,Eastern Asia,Hong Kong,,,
156.234.100.118,4,6,sportracon.com,HK,Asia,Eastern Asia,Hong Kong,,,Hong Kong
154.204.196.71,4,8,spwetchat.com,HK,Asia,Eastern Asia,Hong Kong,,,
47.243.64.211,4,6,sqnet.cn,HK,Asia,Eastern Asia,Hong Kong,,,Hong Kong
156.241.190.218,4,989,srcun.net,HK,Asia,Eastern Asia,Hong Kong,,,
154.218.149.245,4,20,srecha.com,HK,Asia,Eastern Asia,Hong Kong,,,
154.92.72.42,4,17,sshcjy.com,HK,Asia,Eastern Asia,Hong Kong,,,
43.252.42.31,4,-379,sskyn.com,HK,Asia,Eastern Asia,Hong Kong,,,
172.96.185.220,4,52,staialhidayatlasem.ac.id,HK,Asia,Eastern Asia,Hong Kong,,,
154.212.200.153,4,28,starcare168.com,HK,Asia,Eastern Asia,Hong Kong,,,
47.89.12.230,4,55,starfivetech.com,HK,Asia,Eastern Asia,Hong Kong,,,
27.124.9.124,4,9,staticfile.org,HK,Asia,Eastern Asia,Hong Kong,Sha Tin,,Shatin
27.124.9.52,4,78,staticfile.org,HK,Asia,Eastern Asia,Hong Kong,Sha Tin,,Shatin
27.124.9.125,4,6,staticfile.org,HK,Asia,Eastern Asia,Hong Kong,Sha Tin,,Shatin
27.124.9.113,4,14,staticfile.org,HK,Asia,Eastern Asia,Hong Kong,Sha Tin,,Shatin
27.124.9.115,4,18,staticfile.org,HK,Asia,Eastern Asia,Hong Kong,Sha Tin,,Shatin
45.121.82.230,4,46,stevepet.com,HK,Asia,Eastern Asia,Hong Kong,,,
47.242.115.176,4,10,storeweb.cn,HK,Asia,Eastern Asia,Hong Kong,,,Hong Kong
156.234.16.252,4,46,stromectolis.com,HK,Asia,Eastern Asia,Hong Kong,,,Hong Kong
154.89.113.85,4,6,stsh56.com,HK,Asia,Eastern Asia,Hong Kong,,,Hong Kong
47.240.20.166,4,5,stu51.com,HK,Asia,Eastern Asia,Hong Kong,,,Hong Kong
156.254.206.189,4,-2078,studionikaj.com,HK,Asia,Eastern Asia,Hong Kong,,,
38.207.180.242,4,6,subaibaiys.com,HK,Asia,Eastern Asia,Hong Kong,,,
156.254.227.156,4,6,sudoku4all.com,HK,Asia,Eastern Asia,Hong Kong,,,
154.204.195.71,4,7,sufangcheng.com,HK,Asia,Eastern Asia,Hong Kong,,,
156.241.66.230,4,7,sulibj.com,HK,Asia,Eastern Asia,Hong Kong,,,
8.218.8.40,4,9,suncrown.com,HK,Asia,Eastern Asia,Hong Kong,,,Hong Kong
103.85.191.196,4,5,sunjoyfur.com.cn,HK,Asia,Eastern Asia,Hong Kong,,,
116.193.168.91,4,2,sunjoyfur.com.cn,HK,Asia,Eastern Asia,Hong Kong,,,
144.48.126.92,4,5,sunjoyfur.com.cn,HK,Asia,Eastern Asia,Hong Kong,,,
120.89.68.94,4,4,sunjoyfur.com.cn,HK,Asia,Eastern Asia,Hong Kong,,,
103.85.191.195,4,11,sunjoyfur.com.cn,HK,Asia,Eastern Asia,Hong Kong,,,
103.85.191.197,4,7,sunjoyfur.com.cn,HK,Asia,Eastern Asia,Hong Kong,,,
120.89.68.92,4,9,sunjoyfur.com.cn,HK,Asia,Eastern Asia,Hong Kong,,,
144.48.126.94,4,2,sunjoyfur.com.cn,HK,Asia,Eastern Asia,Hong Kong,,,
116.193.168.94,4,-1,sunjoyfur.com.cn,HK,Asia,Eastern Asia,Hong Kong,,,
144.48.126.93,4,6,sunjoyfur.com.cn,HK,Asia,Eastern Asia,Hong Kong,,,
116.193.168.92,4,-1,sunjoyfur.com.cn,HK,Asia,Eastern Asia,Hong Kong,,,
120.89.68.91,4,36,sunjoyfur.com.cn,HK,Asia,Eastern Asia,Hong Kong,,,
144.48.126.91,4,41,sunjoyfur.com.cn,HK,Asia,Eastern Asia,Hong Kong,,,
103.85.191.198,4,3,sunjoyfur.com.cn,HK,Asia,Eastern Asia,Hong Kong,,,
120.89.68.93,4,4,sunjoyfur.com.cn,HK,Asia,Eastern Asia,Hong Kong,,,
116.193.168.93,4,0,sunjoyfur.com.cn,HK,Asia,Eastern Asia,Hong Kong,,,
202.66.9.60,4,11,sunlightbulb.com,HK,Asia,Eastern Asia,Hong Kong,Kwun Tong,,Kowloon Bay
47.89.55.144,4,7,sunrisechems.com,HK,Asia,Eastern Asia,Hong Kong,,,
47.75.112.192,4,6,suntekstore.com,HK,Asia,Eastern Asia,Hong Kong,,,Hong Kong
8.212.40.104,4,6,supdropshipping.com,HK,Asia,Eastern Asia,Hong Kong,,,Hong Kong
116.251.204.41,4,3,supercolossal.ch,HK,Asia,Eastern Asia,Hong Kong,,,
154.204.193.211,4,8,suyidaexpress.com,HK,Asia,Eastern Asia,Hong Kong,,,
159.138.31.102,4,7,swithk.com,HK,Asia,Eastern Asia,Hong Kong,,,Hong Kong
149.129.115.128,4,9,sword.studio,HK,Asia,Eastern Asia,Hong Kong,,,Hong Kong
103.61.170.237,4,-12,swvvs.com,HK,Asia,Eastern Asia,Hong Kong,,,
8.212.10.206,4,13,swydt.com,HK,Asia,Eastern Asia,Hong Kong,,,Hong Kong
154.92.41.195,4,4,sxgajr.com,HK,Asia,Eastern Asia,Hong Kong,,,
156.234.148.209,4,3,sxhygongcheng.com,HK,Asia,Eastern Asia,Hong Kong,,,Hong Kong
154.204.196.86,4,7,sxkjerp.com,HK,Asia,Eastern Asia,Hong Kong,,,
154.212.171.129,4,5,sxmgdp.com,HK,Asia,Eastern Asia,Hong Kong,,,
34.96.166.39,4,7,sxmingliang.com,HK,Asia,Eastern Asia,Hong Kong,,,Hong Kong
154.92.41.196,4,3,sxqssp.com,HK,Asia,Eastern Asia,Hong Kong,,,
154.212.203.111,4,8,sxruihong.com,HK,Asia,Eastern Asia,Hong Kong,,,
154.89.104.238,4,6,sxsenlang.com,HK,Asia,Eastern Asia,Hong Kong,,,Hong Kong
154.204.192.147,4,6,sydanhong.com,HK,Asia,Eastern Asia,Hong Kong,,,
154.216.103.155,4,-1,syjunmu.com,HK,Asia,Eastern Asia,Hong Kong,,,Hong Kong
154.204.194.30,4,8,syshanling.com,HK,Asia,Eastern Asia,Hong Kong,,,
154.215.96.132,4,10,sysjqb.com,HK,Asia,Eastern Asia,Hong Kong,,,Hong Kong
125.215.179.121,4,0,systematic.com.hk,HK,Asia,Eastern Asia,Hong Kong,,,
156.234.44.212,4,9,sytianyitang.com,HK,Asia,Eastern Asia,Hong Kong,,,Hong Kong
156.245.98.15,4,28,sytxxy.com,HK,Asia,Eastern Asia,Hong Kong,,,
154.204.194.6,4,9,sywyxedu.com,HK,Asia,Eastern Asia,Hong Kong,,,
156.245.97.14,4,28,syyunbao.com,HK,Asia,Eastern Asia,Hong Kong,,,
154.204.157.6,4,11,sz-ccfm.com,HK,Asia,Eastern Asia,Hong Kong,,,
45.122.132.178,4,-28,sz-cwty.com,HK,Asia,Eastern Asia,Hong Kong,,,
156.245.231.234,4,5,sz-ligejiaju.com,HK,Asia,Eastern Asia,Hong Kong,,,
47.76.44.85,4,13,sz3e.com,HK,Asia,Eastern Asia,Hong Kong,,,Hong Kong
154.91.6.165,4,30,szaibei.com,HK,Asia,Eastern Asia,Hong Kong,,,Hong Kong
47.52.236.64,4,18,szaidehua.com,HK,Asia,Eastern Asia,Hong Kong,,,Hong Kong
47.244.43.173,4,9,szantai.group,HK,Asia,Eastern Asia,Hong Kong,,,Hong Kong
154.204.195.76,4,73,szcdzp.com,HK,Asia,Eastern Asia,Hong Kong,,,
154.209.117.114,4,-382,szcwsy.com,HK,Asia,Eastern Asia,Hong Kong,,,
154.204.46.70,4,26,szfbjc.com,HK,Asia,Eastern Asia,Hong Kong,,,
156.239.205.236,4,25,szge776.com,HK,Asia,Eastern Asia,Hong Kong,,,Hong Kong
156.240.3.61,4,18,szggy.com,HK,Asia,Eastern Asia,Hong Kong,,,Hong Kong
154.211.79.226,4,9,szhcf88.com,HK,Asia,Eastern Asia,Hong Kong,,,
154.204.194.19,4,7,szlianzhi.com,HK,Asia,Eastern Asia,Hong Kong,,,
43.135.120.120,4,-12,szluosiji.com,HK,Asia,Eastern Asia,Hong Kong,,,Hong Kong
154.194.130.162,4,9,szmfzxcm.com,HK,Asia,Eastern Asia,Hong Kong,,,Hong Kong
154.92.41.213,4,2,szmkrs.com,HK,Asia,Eastern Asia,Hong Kong,,,
154.204.194.27,4,10,szsh2018.com,HK,Asia,Eastern Asia,Hong Kong,,,
103.192.43.8,4,-17,szsmyq.com,HK,Asia,Eastern Asia,Hong Kong,,,
112.213.124.156,4,795,szsrunda.com,HK,Asia,Eastern Asia,Hong Kong,,,
123.58.218.46,4,7,szsydq.com,HK,Asia,Eastern Asia,Hong Kong,,,Hong Kong
178.236.40.249,4,31202,sztpr.com,HK,Asia,Eastern Asia,Hong Kong,,,
45.115.243.44,4,-16,szwgj.cc,HK,Asia,Eastern Asia,Hong Kong,,,
156.239.205.231,4,26,szysdsh.com,HK,Asia,Eastern Asia,Hong Kong,,,Hong Kong
43.241.72.150,4,6,t3webspace.com,HK,Asia,Eastern Asia,Hong Kong,,,
154.23.123.229,4,28714976,t91juwu.com,HK,Asia,Eastern Asia,Hong Kong,Eastern,,Chai Wan
154.92.18.204,4,955301,ta-mi.com.cn,HK,Asia,Eastern Asia,Hong Kong,,,
35.215.171.137,4,7,tadafilax.com,HK,Asia,Eastern Asia,Hong Kong,,,Hong Kong
35.215.178.191,4,9,tadalafil1st.com,HK,Asia,Eastern Asia,Hong Kong,,,Hong Kong
35.215.167.180,4,7,tadalafilolgf.com,HK,Asia,Eastern Asia,Hong Kong,,,Hong Kong
156.234.141.86,4,11,taihongshengwu.com,HK,Asia,Eastern Asia,Hong Kong,,,Hong Kong
43.132.125.17,4,-8,taiwanzhenglun5.com,HK,Asia,Eastern Asia,Hong Kong,,,Hong Kong
154.209.54.149,4,6,taiyuanreli.com,HK,Asia,Eastern Asia,Hong Kong,,,
47.91.133.82,4,8,taiyuanrx.com,HK,Asia,Eastern Asia,Hong Kong,,,Hong Kong
154.216.86.71,4,0,talaiyun.com,HK,Asia,Eastern Asia,Hong Kong,,,Hong Kong
103.11.102.33,4,-90,talkermama.com,HK,Asia,Eastern Asia,Hong Kong,,,
156.234.128.34,4,8,tamsulomax.com,HK,Asia,Eastern Asia,Hong Kong,,,Hong Kong
172.96.185.162,4,6,tanggiap.org,HK,Asia,Eastern Asia,Hong Kong,,,
154.209.49.217,4,5,tangshanjianzhi.com,HK,Asia,Eastern Asia,Hong Kong,,,
156.225.145.144,4,24045919,tangyaols.com,HK,Asia,Eastern Asia,Hong Kong,,,
218.255.255.98,4,64,taoism.org.hk,HK,Asia,Eastern Asia,Hong Kong,,,
156.234.112.146,4,12,targowisko.net,HK,Asia,Eastern Asia,Hong Kong,,,Hong Kong
43.132.193.231,4,-14,tblyj.com,HK,Asia,Eastern Asia,Hong Kong,,,Hong Kong
156.234.182.230,4,11,tbwnvz.cn,HK,Asia,Eastern Asia,Hong Kong,,,Hong Kong
203.176.127.206,4,8,tclzhijia.com,HK,Asia,Eastern Asia,Hong Kong,,,
156.234.209.186,4,8,tcscience.com,HK,Asia,Eastern Asia,Hong Kong,,,Hong Kong
154.212.203.120,4,8,tcykhr.com,HK,Asia,Eastern Asia,Hong Kong,,,
149.104.8.3,4,16,tdev.cn,HK,Asia,Eastern Asia,Hong Kong,,,
172.96.185.222,4,49,teknosejahtera.com,HK,Asia,Eastern Asia,Hong Kong,,,
185.149.120.127,4,-81,telegram-znakomstva.ru,HK,Asia,Eastern Asia,Hong Kong,,,
118.99.27.50,4,44,tensafe.net,HK,Asia,Eastern Asia,Hong Kong,,,
154.212.195.250,4,13,tenshuowangluokeji.com,HK,Asia,Eastern Asia,Hong Kong,,,
35.220.244.193,4,2,term-paper-help.org,HK,Asia,Eastern Asia,Hong Kong,,,Hong Kong
124.156.138.205,4,4,testmart.cn,HK,Asia,Eastern Asia,Hong Kong,,,Hong Kong
35.215.181.205,4,17,testosteroneboosters2022.com,HK,Asia,Eastern Asia,Hong Kong,,,Hong Kong
156.234.156.215,4,35,tewagg.com,HK,Asia,Eastern Asia,Hong Kong,,,Hong Kong
103.25.254.202,4,307,texwoodmedia.com,HK,Asia,Eastern Asia,Hong Kong,,,
154.206.128.39,4,7,tfysw.com,HK,Asia,Eastern Asia,Hong Kong,,,Hong Kong
156.234.148.206,4,8,tgb8341.com,HK,Asia,Eastern Asia,Hong Kong,,,Hong Kong
118.193.38.19,4,8,tgfcer.com,HK,Asia,Eastern Asia,Hong Kong,,,Hong Kong
16.163.51.159,4,-12,thailandtatler.com,HK,Asia,Eastern Asia,Hong Kong,,,
47.244.21.17,4,17,thatsmandarin.com,HK,Asia,Eastern Asia,Hong Kong,,,Hong Kong
154.89.101.136,4,8,thebestown.com,HK,Asia,Eastern Asia,Hong Kong,,,Hong Kong
202.153.104.28,4,-17,thechairmangroup.com,HK,Asia,Eastern Asia,Hong Kong,,,
154.194.166.248,4,187,thefithousewife.com,HK,Asia,Eastern Asia,Hong Kong,,,Hong Kong
43.252.42.21,4,17,theforksandspoons.com.hk,HK,Asia,Eastern Asia,Hong Kong,,,
43.252.42.25,4,9,theforksandspoons.com.hk,HK,Asia,Eastern Asia,Hong Kong,,,
43.252.42.26,4,16,theforksandspoons.com.hk,HK,Asia,Eastern Asia,Hong Kong,,,
43.252.42.24,4,2,theforksandspoons.com.hk,HK,Asia,Eastern Asia,Hong Kong,,,
43.252.42.22,4,27,theforksandspoons.com.hk,HK,Asia,Eastern Asia,Hong Kong,,,
203.90.226.56,4,5,thehousenews.com,HK,Asia,Eastern Asia,Hong Kong,,,
203.90.226.55,4,42,thehousenews.com,HK,Asia,Eastern Asia,Hong Kong,,,
116.251.205.203,4,6,theinventors.org,HK,Asia,Eastern Asia,Hong Kong,,,
154.214.89.53,4,8,thepetiteprofessional.com,HK,Asia,Eastern Asia,Hong Kong,,,Hong Kong
35.215.171.198,4,6,therealcount.com,HK,Asia,Eastern Asia,Hong Kong,,,Hong Kong
172.96.185.170,4,26,theskylodge.com,HK,Asia,Eastern Asia,Hong Kong,,,
223.255.169.43,4,8614,thewatchcompany.com,HK,Asia,Eastern Asia,Hong Kong,,,
58.64.190.32,4,10,thfh.com,HK,Asia,Eastern Asia,Hong Kong,,,
156.245.104.11,4,30,thmy6688.com,HK,Asia,Eastern Asia,Hong Kong,,,
43.129.196.182,4,-18,thornbird.org,HK,Asia,Eastern Asia,Hong Kong,,,Hong Kong
154.212.174.37,4,9,threeeggss.com,HK,Asia,Eastern Asia,Hong Kong,,,
47.76.240.172,4,39,thscore.vip,HK,Asia,Eastern Asia,Hong Kong,,,Hong Kong
47.91.145.21,4,32,thunlp.org,HK,Asia,Eastern Asia,Hong Kong,,,Hong Kong
156.240.114.141,4,11815,tianheqq.com,HK,Asia,Eastern Asia,Hong Kong,,,
154.31.253.154,4,-463346,tianqizhubo.com,HK,Asia,Eastern Asia,Hong Kong,,,Hong Kong
43.241.47.239,4,5,tiantaishan517.com,HK,Asia,Eastern Asia,Hong Kong,,,
154.204.172.190,4,8,tianxiaonei.com,HK,Asia,Eastern Asia,Hong Kong,,,
43.239.165.18,4,-16,tianxinmeihui.com,HK,Asia,Eastern Asia,Hong Kong,,,
45.250.196.27,4,6,tianzejiuyuan.com,HK,Asia,Eastern Asia,Hong Kong,,,
45.147.27.65,4,12,tibet-web.com,HK,Asia,Eastern Asia,Hong Kong,,,
156.254.172.195,4,-28800242,tidihi.net,HK,Asia,Eastern Asia,Hong Kong,,,
154.211.78.146,4,12,tieyi5.com,HK,Asia,Eastern Asia,Hong Kong,,,
154.209.54.136,4,4,tiffspace.com,HK,Asia,Eastern Asia,Hong Kong,,,
47.76.40.14,4,5,timeyespr.com,HK,Asia,Eastern Asia,Hong Kong,,,Hong Kong
43.252.42.39,4,-380,timway.com,HK,Asia,Eastern Asia,Hong Kong,,,
47.52.7.165,4,9,titicaca.co.uk,HK,Asia,Eastern Asia,Hong Kong,,,Hong Kong
149.104.178.51,4,4,tj-hl.com.cn,HK,Asia,Eastern Asia,Hong Kong,,,Hong Kong
154.216.74.59,4,1,tjhyzjksja.com,HK,Asia,Eastern Asia,Hong Kong,,,Hong Kong
154.206.153.99,4,7,tlyzd.com,HK,Asia,Eastern Asia,Hong Kong,,,Hong Kong
154.204.194.25,4,7,tlzhongyaowlkj.com,HK,Asia,Eastern Asia,Hong Kong,,,
8.210.75.226,4,5,tm-robot.com,HK,Asia,Eastern Asia,Hong Kong,,,Hong Kong
154.212.171.13,4,3,tmeets.net,HK,Asia,Eastern Asia,Hong Kong,,,
43.128.56.91,4,-15,tmml.top,HK,Asia,Eastern Asia,Hong Kong,,,Hong Kong
154.204.196.87,4,6,tmskptea.com,HK,Asia,Eastern Asia,Hong Kong,,,
154.209.54.152,4,7,tnbhn.com,HK,Asia,Eastern Asia,Hong Kong,,,
47.243.142.8,4,10,tnet.hk,HK,Asia,Eastern Asia,Hong Kong,,,Hong Kong
156.226.76.243,4,2370,tnfsz.com,HK,Asia,Eastern Asia,Hong Kong,,,Hong Kong
47.76.182.137,4,6,to5l.cn,HK,Asia,Eastern Asia,Hong Kong,,,Hong Kong
152.104.9.12,4,-2445,toby-ng.com,HK,Asia,Eastern Asia,Hong Kong,,,
47.243.90.76,4,7,tom365.com,HK,Asia,Eastern Asia,Hong Kong,,,Hong Kong
47.242.111.186,4,7,tongbi.org,HK,Asia,Eastern Asia,Hong Kong,,,Hong Kong
154.91.6.135,4,8,tongdiaosuchangjia.com,HK,Asia,Eastern Asia,Hong Kong,,,Hong Kong
112.213.113.210,4,9,tongyingtianxiasc.com,HK,Asia,Eastern Asia,Hong Kong,,,
154.204.211.200,4,9,toplouisvuittonoutlet.com,HK,Asia,Eastern Asia,Hong Kong,,,
47.76.175.229,4,17,topsurf.ca,HK,Asia,Eastern Asia,Hong Kong,,,Hong Kong
154.92.56.200,4,2,total-moto.com,HK,Asia,Eastern Asia,Hong Kong,,,
47.238.52.144,4,9,totoglory.com,HK,Asia,Eastern Asia,Hong Kong,,,Hong Kong
218.253.193.23,4,8,toysdaily.com,HK,Asia,Eastern Asia,Hong Kong,,,
18.166.36.115,4,-2,tpwallet.io,HK,Asia,Eastern Asia,Hong Kong,,,
130.255.170.95,4,19,tractor-rb.ru,HK,Asia,Eastern Asia,Hong Kong,,,
202.153.104.18,4,-10,tradeeasy.com,HK,Asia,Eastern Asia,Hong Kong,,,
156.254.227.109,4,27,trangscorner.com,HK,Asia,Eastern Asia,Hong Kong,,,
103.24.251.28,4,3,treetonelife.com,HK,Asia,Eastern Asia,Hong Kong,,,
172.96.185.166,4,46,trishasinn.com,HK,Asia,Eastern Asia,Hong Kong,,,
154.194.129.211,4,35,tritonrecruitment.com,HK,Asia,Eastern Asia,Hong Kong,,,Hong Kong
154.211.76.103,4,43,trkj518.com,HK,Asia,Eastern Asia,Hong Kong,,,
202.51.128.183,4,6233183,trpg.org.hk,HK,Asia,Eastern Asia,Hong Kong,,,
154.194.145.144,4,6,tsfhkj888.com,HK,Asia,Eastern Asia,Hong Kong,,,Hong Kong
156.245.104.8,4,28,tsyjsbj.com,HK,Asia,Eastern Asia,Hong Kong,,,
156.240.226.158,4,11,ttasp.net,HK,Asia,Eastern Asia,Hong Kong,,,
103.194.184.5,4,5,ttkan.co,HK,Asia,Eastern Asia,Hong Kong,,,
47.243.41.252,4,9,ttymq.com,HK,Asia,Eastern Asia,Hong Kong,,,Hong Kong
172.96.185.199,4,14,tuanvietnam.net,HK,Asia,Eastern Asia,Hong Kong,,,
154.204.196.82,4,8,tuku679.com,HK,Asia,Eastern Asia,Hong Kong,,,
154.194.145.145,4,4,tuku689.com,HK,Asia,Eastern Asia,Hong Kong,,,Hong Kong
43.241.73.179,4,-219,tungyuenho.com,HK,Asia,Eastern Asia,Hong Kong,,,
8.217.130.165,4,10,tuohuxie.com,HK,Asia,Eastern Asia,Hong Kong,,,Hong Kong
139.177.246.198,4,3,tv360.vn,HK,Asia,Eastern Asia,Hong Kong,,,
139.177.246.197,4,6,tv360.vn,HK,Asia,Eastern Asia,Hong Kong,,,
139.177.246.200,4,30,tv360.vn,HK,Asia,Eastern Asia,Hong Kong,,,
139.177.246.199,4,39,tv360.vn,HK,Asia,Eastern Asia,Hong Kong,,,
35.215.181.64,4,9,tvnewsroom.online,HK,Asia,Eastern Asia,Hong Kong,,,Hong Kong
101.32.29.115,4,-10,tvs51.com,HK,Asia,Eastern Asia,Hong Kong,,,Hong Kong
154.194.145.146,4,7,txbusan.com,HK,Asia,Eastern Asia,Hong Kong,,,Hong Kong
154.194.145.147,4,5,txxqfcchxf.com,HK,Asia,Eastern Asia,Hong Kong,,,Hong Kong
156.240.204.173,4,11,txzylt.com,HK,Asia,Eastern Asia,Hong Kong,,,
8.218.193.253,4,8,tymphany.com,HK,Asia,Eastern Asia,Hong Kong,,,Hong Kong
154.209.49.200,4,12,tzpt8.com,HK,Asia,Eastern Asia,Hong Kong,,,
154.194.145.148,4,7,tzuhgo.com,HK,Asia,Eastern Asia,Hong Kong,,,Hong Kong
154.194.145.149,4,6,tzyz00.com,HK,Asia,Eastern Asia,Hong Kong,,,Hong Kong
116.251.204.147,4,6,uapa.com.hk,HK,Asia,Eastern Asia,Hong Kong,,,
172.96.185.164,4,27,ufosnw.com,HK,Asia,Eastern Asia,Hong Kong,,,
117.120.61.141,4,7,uhbalq.com,HK,Asia,Eastern Asia,Hong Kong,,,
47.90.13.112,4,17,uisweb.com,HK,Asia,Eastern Asia,Hong Kong,,,Hong Kong
154.212.200.154,4,9,ujiacity.com,HK,Asia,Eastern Asia,Hong Kong,,,
172.96.185.243,4,11,unidep.org,HK,Asia,Eastern Asia,Hong Kong,,,
43.159.197.151,4,0,upantool.com,HK,Asia,Eastern Asia,Hong Kong,,,Hong Kong
206.119.2.209,4,11,uqasha.com,HK,Asia,Eastern Asia,Hong Kong,,,Hong Kong
172.96.185.185,4,34,usg.org.uk,HK,Asia,Eastern Asia,Hong Kong,,,
35.215.143.224,4,12,usgamex.com,HK,Asia,Eastern Asia,Hong Kong,,,Hong Kong
154.212.197.208,4,13,ushowad.com,HK,Asia,Eastern Asia,Hong Kong,,,
172.96.185.194,4,17,usis-education.com,HK,Asia,Eastern Asia,Hong Kong,,,
115.126.116.85,4,360913,uutyzz.com,HK,Asia,Eastern Asia,Hong Kong,,,
45.249.247.12,4,-21,uxlink.io,HK,Asia,Eastern Asia,Hong Kong,,,Hong Kong
47.243.237.111,4,-15,uyuyao.com,HK,Asia,Eastern Asia,Hong Kong,,,Hong Kong
203.205.137.236,4,-31,v.qq.com,HK,Asia,Eastern Asia,Hong Kong,,,Hong Kong
154.89.104.234,4,-8,v99923.com,HK,Asia,Eastern Asia,Hong Kong,,,Hong Kong
119.28.53.254,4,-13,valsa.store,HK,Asia,Eastern Asia,Hong Kong,,,Hong Kong
35.220.151.214,4,15,valuesindia.org,HK,Asia,Eastern Asia,Hong Kong,,,Hong Kong
43.198.33.123,4,-13,vedabase.net,HK,Asia,Eastern Asia,Hong Kong,,,Hong Kong
47.90.13.101,4,-10,ventoy.net,HK,Asia,Eastern Asia,Hong Kong,,,Hong Kong
47.52.69.71,4,1141,verisilicon.com,HK,Asia,Eastern Asia,Hong Kong,,,Hong Kong
20.6.128.141,4,28,vfcat.com,HK,Asia,Eastern Asia,Hong Kong,,,Hong Kong
172.96.185.179,4,-11,viet-studies.info,HK,Asia,Eastern Asia,Hong Kong,,,
103.21.220.7,4,-22,vietnamoriginal.com,HK,Asia,Eastern Asia,Hong Kong,,,Hong Kong
35.215.180.100,4,8,vigmg.com,HK,Asia,Eastern Asia,Hong Kong,,,Hong Kong
35.215.140.236,4,12,vintagecomputersforsale.net,HK,Asia,Eastern Asia,Hong Kong,,,Hong Kong
185.201.28.88,4,-16,virtosuart.com,HK,Asia,Eastern Asia,Hong Kong,,,
34.96.147.168,4,1,virtualdatasystems.net,HK,Asia,Eastern Asia,Hong Kong,,,Hong Kong
103.146.179.136,4,226941,vitinasteel.com,HK,Asia,Eastern Asia,Hong Kong,,,
124.156.151.177,4,2535,vjsun.com,HK,Asia,Eastern Asia,Hong Kong,,,Hong Kong
103.145.104.50,4,-5,vns023.com,HK,Asia,Eastern Asia,Hong Kong,,,
103.145.104.39,4,0,vns023.com,HK,Asia,Eastern Asia,Hong Kong,,,
103.145.104.114,4,-5,vns023.com,HK,Asia,Eastern Asia,Hong Kong,,,
103.145.104.21,4,1,vns023.com,HK,Asia,Eastern Asia,Hong Kong,,,
185.149.120.51,4,55,vodaplus.ru,HK,Asia,Eastern Asia,Hong Kong,,,
35.215.136.82,4,8,voltapowers.com,HK,Asia,Eastern Asia,Hong Kong,,,Hong Kong
222.166.124.27,4,-22,voyage.hk,HK,Asia,Eastern Asia,Hong Kong,,,
103.192.179.131,4,-16,vvhan.com,HK,Asia,Eastern Asia,Hong Kong,,,
103.148.151.222,4,-16,vxiaotou.com,HK,Asia,Eastern Asia,Hong Kong,,,
47.242.207.214,4,-10,wangfz.com,HK,Asia,Eastern Asia,Hong Kong,,,Hong Kong
203.174.34.61,4,-19,wangyujian.com,HK,Asia,Eastern Asia,Hong Kong,Kowloon City,,Prince Edward
154.209.54.146,4,11,wanlihai88.com,HK,Asia,Eastern Asia,Hong Kong,,,
103.214.164.115,4,0,wanpinfan.com,HK,Asia,Eastern Asia,Hong Kong,,,
154.92.44.2,4,4,wantrader.com,HK,Asia,Eastern Asia,Hong Kong,,,
156.234.156.206,4,-20,waprnm.cn,HK,Asia,Eastern Asia,Hong Kong,,,Hong Kong
154.194.145.150,4,-18,water-zy.com,HK,Asia,Eastern Asia,Hong Kong,,,Hong Kong
47.242.113.203,4,-14,waterforex.com,HK,Asia,Eastern Asia,Hong Kong,,,Hong Kong
8.217.142.155,4,11,wavlink.com,HK,Asia,Eastern Asia,Hong Kong,,,Hong Kong
103.11.103.115,4,-15,waynold.com,HK,Asia,Eastern Asia,Hong Kong,,,
154.194.145.151,4,-11,wbeoc.com,HK,Asia,Eastern Asia,Hong Kong,,,Hong Kong
61.238.141.248,4,-15,wbwebdesignhk.com,HK,Asia,Eastern Asia,Hong Kong,,,
156.241.173.75,4,-20,wddol.com,HK,Asia,Eastern Asia,Hong Kong,,,
103.233.251.2,4,10,wdjk168com.com,HK,Asia,Eastern Asia,Hong Kong,,,
182.16.11.30,4,-17,wdty.org,HK,Asia,Eastern Asia,Hong Kong,,,
154.204.199.46,4,-17,we-engine.com,HK,Asia,Eastern Asia,Hong Kong,,,
154.212.146.39,4,24,wecan-link.com,HK,Asia,Eastern Asia,Hong Kong,,,
154.194.145.152,4,30,weiaimiyu99.com,HK,Asia,Eastern Asia,Hong Kong,,,Hong Kong
156.254.237.107,4,-871,weihunchunan.cn,HK,Asia,Eastern Asia,Hong Kong,,,
154.204.195.80,4,-11,weijiexkf.com,HK,Asia,Eastern Asia,Hong Kong,,,
154.194.145.153,4,-16,weilaiguolv0015.com,HK,Asia,Eastern Asia,Hong Kong,,,Hong Kong
103.38.81.161,4,9,weilishiji888.com,HK,Asia,Eastern Asia,Hong Kong,,,
154.194.145.154,4,-7,weimiao26.com,HK,Asia,Eastern Asia,Hong Kong,,,Hong Kong
154.194.145.155,4,-13,weiquanyouxuan.com,HK,Asia,Eastern Asia,Hong Kong,,,Hong Kong
156.234.235.133,4,-6,weisanbo.com,HK,Asia,Eastern Asia,Hong Kong,,,Hong Kong
154.89.86.57,4,20712377,weishangdaiban.com,HK,Asia,Eastern Asia,Hong Kong,,,Hong Kong
154.92.77.201,4,9,weixiaoji258.com,HK,Asia,Eastern Asia,Hong Kong,,,
129.226.59.226,4,-9,wemine.hk,HK,Asia,Eastern Asia,Hong Kong,,,Hong Kong
154.212.204.68,4,-10,wenxuanyishu.com,HK,Asia,Eastern Asia,Hong Kong,,,
156.234.71.241,4,-9,wfaobo.cn,HK,Asia,Eastern Asia,Hong Kong,,,Hong Kong
154.214.69.183,4,-3,wfjmws.com,HK,Asia,Eastern Asia,Hong Kong,,,Hong Kong
206.119.19.88,4,6,wfplant.com,HK,Asia,Eastern Asia,Hong Kong,,,Hong Kong
185.149.120.33,4,-1,wh-satano.ru,HK,Asia,Eastern Asia,Hong Kong,,,
154.38.82.87,4,-20,whcxfz.com,HK,Asia,Eastern Asia,Hong Kong,,,Hong Kong
154.216.86.73,4,8,whdsmt.com,HK,Asia,Eastern Asia,Hong Kong,,,Hong Kong
156.239.206.5,4,38,wheeler-ukraine.com,HK,Asia,Eastern Asia,Hong Kong,,,Hong Kong
156.234.178.78,4,-19,whhjjt.com.cn,HK,Asia,Eastern Asia,Hong Kong,,,Hong Kong
156.234.74.69,4,-3,whmumoon.com,HK,Asia,Eastern Asia,Hong Kong,,,Hong Kong
156.245.97.27,4,31,whqicha.com,HK,Asia,Eastern Asia,Hong Kong,,,
154.204.196.75,4,-18,whqlwlkj.com,HK,Asia,Eastern Asia,Hong Kong,,,
154.204.194.9,4,-12,whrencheng.com,HK,Asia,Eastern Asia,Hong Kong,,,
156.234.141.73,4,-16,whshanxue.com,HK,Asia,Eastern Asia,Hong Kong,,,Hong Kong
154.209.54.195,4,8,whss588.com,HK,Asia,Eastern Asia,Hong Kong,,,
154.204.195.90,4,-13,whziteng.com,HK,Asia,Eastern Asia,Hong Kong,,,
154.204.46.18,4,34,wihih.com,HK,Asia,Eastern Asia,Hong Kong,,,
43.241.73.32,4,24,wildconqueror.com,HK,Asia,Eastern Asia,Hong Kong,,,
47.91.249.211,4,10,winaso.com,HK,Asia,Eastern Asia,Hong Kong,,,Hong Kong
154.194.145.156,4,-14,winbond1.com,HK,Asia,Eastern Asia,Hong Kong,,,Hong Kong
47.90.57.0,4,-22,winpcba.com,HK,Asia,Eastern Asia,Hong Kong,,,Hong Kong
47.91.143.205,4,-14,wisdomir.com,HK,Asia,Eastern Asia,Hong Kong,,,Hong Kong
43.230.171.60,4,8,wjhdzpc.com,HK,Asia,Eastern Asia,Hong Kong,,,
156.239.205.232,4,25,wkt01.com,HK,Asia,Eastern Asia,Hong Kong,,,Hong Kong
47.76.95.14,4,-19,wo-ow.cn,HK,Asia,Eastern Asia,Hong Kong,,,Hong Kong
103.116.244.60,4,10,wolala.love,HK,Asia,Eastern Asia,Hong Kong,,,
103.13.51.125,4,-11,wooloo-mooloo.com,HK,Asia,Eastern Asia,Hong Kong,,,
154.194.145.157,4,-24,wowhohvisa.com,HK,Asia,Eastern Asia,Hong Kong,,,Hong Kong
154.216.110.104,4,12,wrefeedandmill.com,HK,Asia,Eastern Asia,Hong Kong,,,Hong Kong
154.204.196.92,4,-16,wsheyi.com,HK,Asia,Eastern Asia,Hong Kong,,,
121.127.233.92,4,-14,wshpet.com,HK,Asia,Eastern Asia,Hong Kong,,,
45.121.82.232,4,-19,wsk-screen.com,HK,Asia,Eastern Asia,Hong Kong,,,
109.206.245.58,4,32,wsxzc.com,HK,Asia,Eastern Asia,Hong Kong,,,
35.215.148.236,4,9,wudanlin.com,HK,Asia,Eastern Asia,Hong Kong,,,Hong Kong
154.216.74.61,4,19,wudingbar.com,HK,Asia,Eastern Asia,Hong Kong,,,Hong Kong
154.212.195.247,4,-18,wuhenguanggao.com,HK,Asia,Eastern Asia,Hong Kong,,,
156.239.205.237,4,41,wujing33.com,HK,Asia,Eastern Asia,Hong Kong,,,Hong Kong
8.218.148.6,4,-17,wukongzhiku.com,HK,Asia,Eastern Asia,Hong Kong,,,Hong Kong
103.61.146.114,4,-15,wuxizhenwang.com,HK,Asia,Eastern Asia,Hong Kong,,,
104.143.47.92,4,2,wuyouqp.com,HK,Asia,Eastern Asia,Hong Kong,,,Hong Kong
154.194.145.158,4,-17,ww1vv1.com,HK,Asia,Eastern Asia,Hong Kong,,,Hong Kong
185.243.241.109,4,-18224,wwenglish.com,HK,Asia,Eastern Asia,Hong Kong,,,
47.240.5.85,4,-11,www.my,HK,Asia,Eastern Asia,Hong Kong,,,Hong Kong
62.192.188.92,4,8,wxcfzx.com,HK,Asia,Eastern Asia,Hong Kong,,,
45.93.67.101,4,7,wxcfzx.com,HK,Asia,Eastern Asia,Hong Kong,,,
45.93.67.100,4,10,wxcfzx.com,HK,Asia,Eastern Asia,Hong Kong,,,
45.114.170.238,4,2,wxcfzx.com,HK,Asia,Eastern Asia,Hong Kong,,,
154.212.147.16,4,2,wxcfzx.com,HK,Asia,Eastern Asia,Hong Kong,,,
62.192.188.94,4,13,wxcfzx.com,HK,Asia,Eastern Asia,Hong Kong,,,
62.192.188.93,4,10,wxcfzx.com,HK,Asia,Eastern Asia,Hong Kong,,,
45.157.71.34,4,11,wxcfzx.com,HK,Asia,Eastern Asia,Hong Kong,,,
62.192.188.91,4,12,wxcfzx.com,HK,Asia,Eastern Asia,Hong Kong,,,
45.114.170.237,4,3,wxcfzx.com,HK,Asia,Eastern Asia,Hong Kong,,,
45.157.71.11,4,3,wxcfzx.com,HK,Asia,Eastern Asia,Hong Kong,,,
45.93.67.98,4,1,wxcfzx.com,HK,Asia,Eastern Asia,Hong Kong,,,
45.93.67.99,4,3,wxcfzx.com,HK,Asia,Eastern Asia,Hong Kong,,,
45.114.170.235,4,2,wxcfzx.com,HK,Asia,Eastern Asia,Hong Kong,,,
45.114.170.236,4,0,wxcfzx.com,HK,Asia,Eastern Asia,Hong Kong,,,
45.93.67.102,4,4,wxcfzx.com,HK,Asia,Eastern Asia,Hong Kong,,,
117.18.15.23,4,-10,wxqbbxg.com,HK,Asia,Eastern Asia,Hong Kong,,,
154.218.13.221,4,-2,wxsixin.cn,HK,Asia,Eastern Asia,Hong Kong,,,
45.115.241.62,4,-16,wxtdjs.cn,HK,Asia,Eastern Asia,Hong Kong,,,
156.245.102.13,4,26,wxtianxun.com,HK,Asia,Eastern Asia,Hong Kong,,,
38.207.219.109,4,-13,wxymj.com,HK,Asia,Eastern Asia,Hong Kong,,,Hong Kong
154.194.146.98,4,-18,wytcsc.com,HK,Asia,Eastern Asia,Hong Kong,,,Hong Kong
156.234.222.211,4,-20,wzhailiang.com,HK,Asia,Eastern Asia,Hong Kong,,,Hong Kong
154.204.196.93,4,-15,wzpixie.com,HK,Asia,Eastern Asia,Hong Kong,,,
154.204.194.13,4,-15,wzshantou.com,HK,Asia,Eastern Asia,Hong Kong,,,
154.194.146.99,4,-20,wzshengshun.com,HK,Asia,Eastern Asia,Hong Kong,,,Hong Kong
154.204.193.208,4,-15,x5jmyu.com,HK,Asia,Eastern Asia,Hong Kong,,,
206.119.13.179,4,-19,xaxhc.com,HK,Asia,Eastern Asia,Hong Kong,,,Hong Kong
156.234.188.88,4,-19,xazetine.com,HK,Asia,Eastern Asia,Hong Kong,,,Hong Kong
8.217.131.59,4,-18,xbeibeix.com,HK,Asia,Eastern Asia,Hong Kong,,,Hong Kong
154.209.49.218,4,1,xbjzxx.com,HK,Asia,Eastern Asia,Hong Kong,,,
154.194.146.100,4,-20,xbm028.com,HK,Asia,Eastern Asia,Hong Kong,,,Hong Kong
20.205.27.187,4,7,xcgyljb.com,HK,Asia,Eastern Asia,Hong Kong,,,Hong Kong
154.212.197.218,4,-17,xcqinzi.com,HK,Asia,Eastern Asia,Hong Kong,,,
154.89.104.233,4,-17,xflaiyang.com,HK,Asia,Eastern Asia,Hong Kong,,,Hong Kong
169.150.222.217,4,-4,xgcartoon.com,HK,Asia,Eastern Asia,Hong Kong,,,Hong Kong
156.234.131.202,4,-21,xgoxgd.com,HK,Asia,Eastern Asia,Hong Kong,,,Hong Kong
154.204.192.153,4,-17,xhsj10086.com,HK,Asia,Eastern Asia,Hong Kong,,,
8.217.45.253,4,-18,xia-zai.com,HK,Asia,Eastern Asia,Hong Kong,,,Hong Kong
8.218.56.247,4,-18,xialala.com,HK,Asia,Eastern Asia,Hong Kong,,,Hong Kong
119.8.126.225,4,-18,xiangmu.com,HK,Asia,Eastern Asia,Hong Kong,,,Hong Kong
118.26.36.233,4,-16,xiangshuaimjg.com,HK,Asia,Eastern Asia,Hong Kong,,,Hong Kong
156.225.144.109,4,24045874,xiangxiangapp.com,HK,Asia,Eastern Asia,Hong Kong,,,
103.57.229.226,4,-2,xiangyuntingche.com,HK,Asia,Eastern Asia,Hong Kong,,,
119.28.24.178,4,-16,xianham.com,HK,Asia,Eastern Asia,Hong Kong,,,Hong Kong
154.194.146.101,4,-14,xianyun1.com,HK,Asia,Eastern Asia,Hong Kong,,,Hong Kong
47.91.253.3,4,-16,xiaochi234.com,HK,Asia,Eastern Asia,Hong Kong,,,Hong Kong
154.212.174.35,4,-13,xiaocsl.com,HK,Asia,Eastern Asia,Hong Kong,,,
112.213.124.202,4,768,xiaohualishu.com,HK,Asia,Eastern Asia,Hong Kong,,,
103.214.164.116,4,0,xiaolu-park.com,HK,Asia,Eastern Asia,Hong Kong,,,
154.23.122.196,4,28714963,xiaoneihenu.com,HK,Asia,Eastern Asia,Hong Kong,Eastern,,Chai Wan
154.212.174.59,4,-15,xiaopeibao.com,HK,Asia,Eastern Asia,Hong Kong,,,
154.216.110.106,4,2,xiaoqianting.com,HK,Asia,Eastern Asia,Hong Kong,,,Hong Kong
154.212.204.77,4,-18,xiaoxianghuanbao.com,HK,Asia,Eastern Asia,Hong Kong,,,
103.214.164.117,4,4,xiaoyingfly.com,HK,Asia,Eastern Asia,Hong Kong,,,
156.234.251.236,4,-17,xiaoyuan123.cn,HK,Asia,Eastern Asia,Hong Kong,,,Hong Kong
154.92.72.34,4,10,xibaicheng.com,HK,Asia,Eastern Asia,Hong Kong,,,
182.161.68.72,4,-2,xinairen1314.com,HK,Asia,Eastern Asia,Hong Kong,,,
156.254.210.157,4,-14,xinba.org.cn,HK,Asia,Eastern Asia,Hong Kong,,,
8.217.69.30,4,-18,xinda-chemical.com,HK,Asia,Eastern Asia,Hong Kong,,,Hong Kong
156.241.65.187,4,-20,xindamedia.com,HK,Asia,Eastern Asia,Hong Kong,,,
47.242.196.107,4,-21,xindeda.com,HK,Asia,Eastern Asia,Hong Kong,,,Hong Kong
154.216.127.145,4,1,xinghongds.com,HK,Asia,Eastern Asia,Hong Kong,,,Hong Kong
20.2.90.70,4,13,xingwoqiufa.com,HK,Asia,Eastern Asia,Hong Kong,,,Hong Kong
20.2.89.238,4,7,xingwoqiufa.com,HK,Asia,Eastern Asia,Hong Kong,,,Hong Kong
20.6.129.198,4,8,xingwoqiufa.com,HK,Asia,Eastern Asia,Hong Kong,,,Hong Kong
154.206.160.252,4,-20,xingyecopper.com,HK,Asia,Eastern Asia,Hong Kong,,,Hong Kong
47.76.255.47,4,-18,xingyida168.com,HK,Asia,Eastern Asia,Hong Kong,,,Hong Kong
154.209.54.133,4,1,xingzao999.com,HK,Asia,Eastern Asia,Hong Kong,,,
154.216.97.158,4,-5,xinhaikejigs.com,HK,Asia,Eastern Asia,Hong Kong,,,Hong Kong
154.204.196.78,4,-18,xinkemedical.com,HK,Asia,Eastern Asia,Hong Kong,,,
103.210.239.15,4,1768323,xinnong.com,HK,Asia,Eastern Asia,Hong Kong,,,
154.204.196.76,4,-16,xinpengershouche.com,HK,Asia,Eastern Asia,Hong Kong,,,
154.91.6.130,4,-22,xinshangmeng1.com,HK,Asia,Eastern Asia,Hong Kong,,,Hong Kong
156.254.167.2,4,-28800051,xinshenjiaoyu.com,HK,Asia,Eastern Asia,Hong Kong,,,
103.214.164.118,4,4,xinyongplayer.com,HK,Asia,Eastern Asia,Hong Kong,,,
43.239.167.60,4,-267022,xiongjing.net,HK,Asia,Eastern Asia,Hong Kong,,,
47.76.49.243,4,-13,xiongxiongkeji.com,HK,Asia,Eastern Asia,Hong Kong,,,Hong Kong
103.149.92.69,4,9,xipinghuashanyiyuan.com,HK,Asia,Eastern Asia,Hong Kong,,,
154.209.45.25,4,4,xiuhope.com,HK,Asia,Eastern Asia,Hong Kong,,,
154.194.146.102,4,-19,xiuxianbao88.com,HK,Asia,Eastern Asia,Hong Kong,,,Hong Kong
20.2.234.127,4,24,xiyixiehui.com,HK,Asia,Eastern Asia,Hong Kong,,,Hong Kong
154.92.41.216,4,3,xjdaizhang.com,HK,Asia,Eastern Asia,Hong Kong,,,
156.241.66.229,4,-17,xjkh-tools.com,HK,Asia,Eastern Asia,Hong Kong,,,
83.229.43.146,4,-19,xjzsks.com,HK,Asia,Eastern Asia,Hong Kong,,,
123.1.154.233,4,-24,xl-muse.com,HK,Asia,Eastern Asia,Hong Kong,Southern,,Deep Water Bay
154.204.196.81,4,-21,xmbinre.com,HK,Asia,Eastern Asia,Hong Kong,,,
43.132.173.130,4,-12,xmdd188.com,HK,Asia,Eastern Asia,Hong Kong,,,Hong Kong
156.234.209.170,4,-18,xmestradi.com,HK,Asia,Eastern Asia,Hong Kong,,,Hong Kong
154.204.195.74,4,-15,xmhuichuang.com,HK,Asia,Eastern Asia,Hong Kong,,,
154.23.123.228,4,28714952,xmjiuqing.com,HK,Asia,Eastern Asia,Hong Kong,Eastern,,Chai Wan
154.91.6.138,4,-18,xmjljz5152111.com,HK,Asia,Eastern Asia,Hong Kong,,,Hong Kong
154.204.195.79,4,-20,xmmaihu.com,HK,Asia,Eastern Asia,Hong Kong,,,
121.127.241.101,4,-15,xmmgo.cn,HK,Asia,Eastern Asia,Hong Kong,,,
154.23.123.233,4,28714959,xmmiliao.com,HK,Asia,Eastern Asia,Hong Kong,Eastern,,Chai Wan
154.23.123.234,4,28714960,xmqidai.com,HK,Asia,Eastern Asia,Hong Kong,Eastern,,Chai Wan
154.23.123.232,4,28714958,xmweine.com,HK,Asia,Eastern Asia,Hong Kong,Eastern,,Chai Wan
154.23.123.231,4,28714958,xmzhenghe.com,HK,Asia,Eastern Asia,Hong Kong,Eastern,,Chai Wan
185.149.120.149,4,118,xn--e1agfe6atq9c.xn--p1ai,HK,Asia,Eastern Asia,Hong Kong,,,
154.31.227.76,4,13,xn--kpr60d5yzj3m.com,HK,Asia,Eastern Asia,Hong Kong,,,Hong Kong
43.199.45.50,4,-9,xn--rhq366gmcx82d.pom-awsseo.top,HK,Asia,Eastern Asia,Hong Kong,,,Hong Kong
20.2.87.205,4,32,xn--rhq366gmcx82d.pom-awsseo.top,HK,Asia,Eastern Asia,Hong Kong,,,Hong Kong
154.215.74.131,4,-28779731,xnb0971.com,HK,Asia,Eastern Asia,Hong Kong,,,Hong Kong
38.54.85.225,4,-18,xqn3.com,HK,Asia,Eastern Asia,Hong Kong,,,
154.23.123.230,4,28714969,xqton.com,HK,Asia,Eastern Asia,Hong Kong,Eastern,,Chai Wan
154.23.123.227,4,28714964,xshuii.com,HK,Asia,Eastern Asia,Hong Kong,Eastern,,Chai Wan
154.210.40.172,4,27,xshxc.com,HK,Asia,Eastern Asia,Hong Kong,,,
154.23.122.195,4,28714960,xsp121.com,HK,Asia,Eastern Asia,Hong Kong,Eastern,,Chai Wan
47.56.24.85,4,-17,xszrcw.com,HK,Asia,Eastern Asia,Hong Kong,,,Hong Kong
43.129.238.85,4,-15,xuebapan.com,HK,Asia,Eastern Asia,Hong Kong,,,Hong Kong
103.100.211.59,4,360143,xuesheng888.com,HK,Asia,Eastern Asia,Hong Kong,,,
47.243.4.118,4,-15,xuetao365.com,HK,Asia,Eastern Asia,Hong Kong,,,Hong Kong
43.154.107.144,4,-14,xuetu123.com,HK,Asia,Eastern Asia,Hong Kong,,,Hong Kong
43.134.209.161,4,-17,xunlu.net,HK,Asia,Eastern Asia,Hong Kong,,,Hong Kong
45.250.196.26,4,3,xwqun.com,HK,Asia,Eastern Asia,Hong Kong,,,
20.205.30.219,4,31,xx1555.com,HK,Asia,Eastern Asia,Hong Kong,,,Hong Kong
45.125.15.104,4,33,xx1555.com,HK,Asia,Eastern Asia,Hong Kong,,,
107.148.45.116,4,1883940,xxc.one,HK,Asia,Eastern Asia,Hong Kong,,,Hong Kong
156.245.47.204,4,-17,xxtaiqiu.com,HK,Asia,Eastern Asia,Hong Kong,,,
154.211.78.26,4,-16,xy166.com,HK,Asia,Eastern Asia,Hong Kong,,,
47.238.29.136,4,-15,xylrmfu.cn,HK,Asia,Eastern Asia,Hong Kong,,,Hong Kong
154.211.79.237,4,-14,xyshdzc.com,HK,Asia,Eastern Asia,Hong Kong,,,
154.212.197.220,4,-15,xysupplychain.com,HK,Asia,Eastern Asia,Hong Kong,,,
8.218.96.240,4,-15,xyyouqi.com,HK,Asia,Eastern Asia,Hong Kong,,,Hong Kong
206.119.126.30,4,333,xz1998.com,HK,Asia,Eastern Asia,Hong Kong,,,Hong Kong
47.52.95.150,4,-19,xz7.cn,HK,Asia,Eastern Asia,Hong Kong,,,Hong Kong
154.209.54.151,4,2,xzfcmc.com,HK,Asia,Eastern Asia,Hong Kong,,,
154.92.44.26,4,2,xzlhjx.com,HK,Asia,Eastern Asia,Hong Kong,,,
154.194.146.103,4,-17,xzlzgg.com,HK,Asia,Eastern Asia,Hong Kong,,,Hong Kong
154.204.194.24,4,-14,xzshengang.com,HK,Asia,Eastern Asia,Hong Kong,,,
154.23.123.235,4,28714959,xztaoxi.com,HK,Asia,Eastern Asia,Hong Kong,Eastern,,Chai Wan
47.76.175.244,4,-15,xzxindunbaoan.com,HK,Asia,Eastern Asia,Hong Kong,,,Hong Kong
154.204.193.218,4,-20,xzyanda.com,HK,Asia,Eastern Asia,Hong Kong,,,
154.89.104.226,4,-18,ya4g.com,HK,Asia,Eastern Asia,Hong Kong,,,Hong Kong
47.240.43.155,4,-15,yadingtour.com,HK,Asia,Eastern Asia,Hong Kong,,,Hong Kong
154.194.146.104,4,-17,yamatomedical.com,HK,Asia,Eastern Asia,Hong Kong,,,Hong Kong
154.89.104.244,4,-20,yamyamgo.com,HK,Asia,Eastern Asia,Hong Kong,,,Hong Kong
154.212.174.44,4,-16,yangzichuangxin.com,HK,Asia,Eastern Asia,Hong Kong,,,
45.115.243.55,4,-20,yanhe517.com,HK,Asia,Eastern Asia,Hong Kong,,,
154.194.146.105,4,-10,yanqingxuanhuan.com,HK,Asia,Eastern Asia,Hong Kong,,,Hong Kong
154.89.106.35,4,-15,yansewenhua.com,HK,Asia,Eastern Asia,Hong Kong,,,Hong Kong
154.211.78.167,4,-7,yantaihangpaiwang.com,HK,Asia,Eastern Asia,Hong Kong,,,
154.204.197.131,4,-18,yantaixinde.com,HK,Asia,Eastern Asia,Hong Kong,,,
154.212.146.30,4,24,yaohuaijinqianshu.com,HK,Asia,Eastern Asia,Hong Kong,,,
45.121.197.60,4,5,yaoshun.com.hk,HK,Asia,Eastern Asia,Hong Kong,,,
45.121.197.59,4,4,yaoshun.com.hk,HK,Asia,Eastern Asia,Hong Kong,,,
103.38.171.14,4,-25,yaoyuzhaoming.com,HK,Asia,Eastern Asia,Hong Kong,,,
103.149.92.36,4,3,ybatcx.com,HK,Asia,Eastern Asia,Hong Kong,,,
103.30.76.61,4,-9,ybs66.top,HK,Asia,Eastern Asia,Hong Kong,,,
103.30.78.131,4,-13,ybs66.top,HK,Asia,Eastern Asia,Hong Kong,,,
154.204.46.66,4,26,ycdxny.com,HK,Asia,Eastern Asia,Hong Kong,,,
154.204.46.17,4,25,ycdyhr.com,HK,Asia,Eastern Asia,Hong Kong,,,
154.214.70.155,4,-6,ychxxs.com,HK,Asia,Eastern Asia,Hong Kong,,,Hong Kong
156.234.160.59,4,-21,ycjndlkm.com,HK,Asia,Eastern Asia,Hong Kong,,,Hong Kong
47.239.229.124,4,-20,yckceo.com,HK,Asia,Eastern Asia,Hong Kong,,,Hong Kong
43.230.165.175,4,26,ycszssghyxh.com,HK,Asia,Eastern Asia,Hong Kong,,,
154.23.122.197,4,28714960,ycyrhg.com,HK,Asia,Eastern Asia,Hong Kong,Eastern,,Chai Wan
47.76.53.163,4,-10,yczyxy.com,HK,Asia,Eastern Asia,Hong Kong,,,Hong Kong
103.251.88.2,4,24,yelia.com,HK,Asia,Eastern Asia,Hong Kong,,,
154.197.221.6,4,8,yesfilm.com.cn,HK,Asia,Eastern Asia,Hong Kong,,,Hong Kong
154.92.77.200,4,9,yetaolu.com,HK,Asia,Eastern Asia,Hong Kong,,,
154.220.41.207,4,2,yhqinye11.com,HK,Asia,Eastern Asia,Hong Kong,,,
152.32.175.174,4,-16,yibeian.net,HK,Asia,Eastern Asia,Hong Kong,,,Hong Kong
103.80.16.83,4,3,yidu18.com,HK,Asia,Eastern Asia,Hong Kong,,,
103.133.179.219,4,-14,yierzhuang.cn,HK,Asia,Eastern Asia,Hong Kong,,,
154.216.82.194,4,3,yigocn.com,HK,Asia,Eastern Asia,Hong Kong,,,Hong Kong
154.204.192.148,4,-15,yihuopingtai.com,HK,Asia,Eastern Asia,Hong Kong,,,
156.234.8.184,4,-15,yikuanbaopin.com,HK,Asia,Eastern Asia,Hong Kong,,,Hong Kong
156.225.144.108,4,24045879,yimingshopping.com,HK,Asia,Eastern Asia,Hong Kong,,,
8.217.246.128,4,-20,yingju.net,HK,Asia,Eastern Asia,Hong Kong,,,Hong Kong
156.234.182.186,4,-19,yingtj.com,HK,Asia,Eastern Asia,Hong Kong,,,Hong Kong
156.239.205.235,4,24,yingweiyun.com,HK,Asia,Eastern Asia,Hong Kong,,,Hong Kong
154.194.146.106,4,-18,yiniankezhan.com,HK,Asia,Eastern Asia,Hong Kong,,,Hong Kong
154.194.146.107,4,-20,yinsizhushou.com,HK,Asia,Eastern Asia,Hong Kong,,,Hong Kong
154.92.59.170,4,3,yitanye.com,HK,Asia,Eastern Asia,Hong Kong,,,
154.91.6.137,4,-17,yitijiao.com,HK,Asia,Eastern Asia,Hong Kong,,,Hong Kong
20.6.128.54,4,1,yixicom.com,HK,Asia,Eastern Asia,Hong Kong,,,Hong Kong
20.6.130.171,4,4,yixicom.com,HK,Asia,Eastern Asia,Hong Kong,,,Hong Kong
20.6.130.188,4,7,yixicom.com,HK,Asia,Eastern Asia,Hong Kong,,,Hong Kong
47.243.48.38,4,-13,yiyongtong.com,HK,Asia,Eastern Asia,Hong Kong,,,Hong Kong
103.24.249.77,4,2,yjcqhy.com,HK,Asia,Eastern Asia,Hong Kong,,,
156.239.205.233,4,25,yjfjjsj.com,HK,Asia,Eastern Asia,Hong Kong,,,Hong Kong
121.127.253.251,4,-23,yjfs8.com,HK,Asia,Eastern Asia,Hong Kong,,,
103.11.229.36,4,-14,yl.hk,HK,Asia,Eastern Asia,Hong Kong,,,
202.59.157.158,4,26,ylfcw0817.com,HK,Asia,Eastern Asia,Hong Kong,,,
27.124.9.73,4,-14,yljubl938.xyz,HK,Asia,Eastern Asia,Hong Kong,Sha Tin,,Shatin
154.23.224.6,4,-17,ylsoa.com,HK,Asia,Eastern Asia,Hong Kong,,,Hong Kong
203.90.226.236,4,4,ymcahk.org.hk,HK,Asia,Eastern Asia,Hong Kong,,,
101.32.14.85,4,-11,ymgal.games,HK,Asia,Eastern Asia,Hong Kong,,,Hong Kong
154.211.78.99,4,-12,ynart8.com,HK,Asia,Eastern Asia,Hong Kong,,,
156.234.96.201,4,-11,yndepu.cn,HK,Asia,Eastern Asia,Hong Kong,,,Hong Kong
154.204.46.19,4,28,ynhuangren.com,HK,Asia,Eastern Asia,Hong Kong,,,
154.194.146.108,4,-20,ynjlkeji.com,HK,Asia,Eastern Asia,Hong Kong,,,Hong Kong
154.204.193.207,4,-19,ynjunshou.com,HK,Asia,Eastern Asia,Hong Kong,,,
8.210.237.158,4,-20,ynn5.cn,HK,Asia,Eastern Asia,Hong Kong,,,Hong Kong
154.23.121.199,4,28714957,ynnianlun.com,HK,Asia,Eastern Asia,Hong Kong,Eastern,,Chai Wan
154.204.194.18,4,-16,ynxielan.com,HK,Asia,Eastern Asia,Hong Kong,,,
154.204.196.66,4,-13,ynzhongxiang.com,HK,Asia,Eastern Asia,Hong Kong,,,
154.220.16.222,4,-38,yogalearningcenter.com,HK,Asia,Eastern Asia,Hong Kong,,,
45.117.193.202,4,6,yohogc.com,HK,Asia,Eastern Asia,Hong Kong,,,
185.149.120.23,4,3,yomix.io,HK,Asia,Eastern Asia,Hong Kong,,,
156.234.131.213,4,-23,yongshengzl.cn,HK,Asia,Eastern Asia,Hong Kong,,,Hong Kong
154.194.146.109,4,-15,yosatextile.com,HK,Asia,Eastern Asia,Hong Kong,,,Hong Kong
8.217.210.29,4,-13,youchat.com,HK,Asia,Eastern Asia,Hong Kong,,,Hong Kong
156.234.203.85,4,-19,youchelushu.com,HK,Asia,Eastern Asia,Hong Kong,,,Hong Kong
156.234.251.201,4,-23,youpinhuocang.com,HK,Asia,Eastern Asia,Hong Kong,,,Hong Kong
43.154.94.77,4,6,youth.gov.hk,HK,Asia,Eastern Asia,Hong Kong,,,Hong Kong
154.23.122.198,4,28714959,youutrip.com,HK,Asia,Eastern Asia,Hong Kong,Eastern,,Chai Wan
47.89.25.131,4,82672,youwo.com,HK,Asia,Eastern Asia,Hong Kong,,,Hong Kong
8.218.9.228,4,-18,youxbbs.com,HK,Asia,Eastern Asia,Hong Kong,,,Hong Kong
154.214.69.178,4,-9,youxinzg.com,HK,Asia,Eastern Asia,Hong Kong,,,Hong Kong
47.242.109.175,4,-5,yoybuy.com,HK,Asia,Eastern Asia,Hong Kong,,,Hong Kong
47.90.55.130,4,-4,yoyopart.com,HK,Asia,Eastern Asia,Hong Kong,,,Hong Kong
8.210.7.14,4,-13,ypojie.com,HK,Asia,Eastern Asia,Hong Kong,,,Hong Kong
154.209.49.207,4,2,yqddw.com,HK,Asia,Eastern Asia,Hong Kong,,,
154.215.72.144,4,-15,yqwx123.com,HK,Asia,Eastern Asia,Hong Kong,,,Hong Kong
119.28.131.67,4,-8,yrhooks.com,HK,Asia,Eastern Asia,Hong Kong,,,Hong Kong
208.87.201.50,4,-5925,yscmgg.cn,HK,Asia,Eastern Asia,Hong Kong,,,
154.209.54.147,4,3,ysdpeixun.com,HK,Asia,Eastern Asia,Hong Kong,,,
154.194.146.110,4,-20,ysln168.com,HK,Asia,Eastern Asia,Hong Kong,,,Hong Kong
154.204.196.89,4,-20,ysq777.com,HK,Asia,Eastern Asia,Hong Kong,,,
156.245.11.125,4,33,yt84009.xyz,HK,Asia,Eastern Asia,Hong Kong,,,
156.245.11.155,4,25,yt84009.xyz,HK,Asia,Eastern Asia,Hong Kong,,,
154.204.195.87,4,-15,ytf12123.com,HK,Asia,Eastern Asia,Hong Kong,,,
154.194.146.111,4,-16,ytxiangxin88.com,HK,Asia,Eastern Asia,Hong Kong,,,Hong Kong
154.211.76.158,4,-12,ytyyc.com,HK,Asia,Eastern Asia,Hong Kong,,,
154.220.59.154,4,4,ytzxa.com,HK,Asia,Eastern Asia,Hong Kong,,,
45.117.193.203,4,1,yuanjianfloor.com,HK,Asia,Eastern Asia,Hong Kong,,,
103.179.242.37,4,-19,yuanmawu.net,HK,Asia,Eastern Asia,Hong Kong,,,
154.212.195.253,4,-19,yuanweijiayao.com,HK,Asia,Eastern Asia,Hong Kong,,,
154.194.146.112,4,-15,yuanyan720.com,HK,Asia,Eastern Asia,Hong Kong,,,Hong Kong
154.215.96.133,4,-20,yuduoduo1688.com,HK,Asia,Eastern Asia,Hong Kong,,,Hong Kong
154.194.146.113,4,-14,yuedacapital.com,HK,Asia,Eastern Asia,Hong Kong,,,Hong Kong
39.109.113.178,4,3056,yueyangbaozhuang.com,HK,Asia,Eastern Asia,Hong Kong,,,
154.209.54.132,4,6,yuhangzy.com,HK,Asia,Eastern Asia,Hong Kong,,,
154.214.70.154,4,-7,yuheng-group.com,HK,Asia,Eastern Asia,Hong Kong,,,Hong Kong
182.161.68.74,4,2,yuhuacm.com,HK,Asia,Eastern Asia,Hong Kong,,,
154.216.74.60,4,0,yuhunyx.com,HK,Asia,Eastern Asia,Hong Kong,,,Hong Kong
154.204.195.91,4,-17,yukayun.com,HK,Asia,Eastern Asia,Hong Kong,,,
154.194.146.114,4,-13,yuluzp.com,HK,Asia,Eastern Asia,Hong Kong,,,Hong Kong
103.192.43.7,4,-22,yunduola.com,HK,Asia,Eastern Asia,Hong Kong,,,
101.32.183.58,4,-14,yunduost.com,HK,Asia,Eastern Asia,Hong Kong,,,Hong Kong
123.176.96.10,4,4,yungkee.com.hk,HK,Asia,Eastern Asia,Hong Kong,,,
156.254.167.27,4,-28800048,yunsoong.com,HK,Asia,Eastern Asia,Hong Kong,,,
8.217.75.229,4,-18,yuntumami.com,HK,Asia,Eastern Asia,Hong Kong,,,Hong Kong
47.76.69.12,4,-18,yupao.tv,HK,Asia,Eastern Asia,Hong Kong,,,Hong Kong
154.209.99.164,4,3,yushanwugufang.com,HK,Asia,Eastern Asia,Hong Kong,,,
154.194.146.115,4,-17,yuxuangreen.com,HK,Asia,Eastern Asia,Hong Kong,,,Hong Kong
154.89.104.236,4,-14,yuyueyuhuo.com,HK,Asia,Eastern Asia,Hong Kong,,,Hong Kong
154.211.79.210,4,-11,ywdip.com,HK,Asia,Eastern Asia,Hong Kong,,,
154.204.194.7,4,-15,ywgongying.com,HK,Asia,Eastern Asia,Hong Kong,,,
154.204.192.151,4,-18,ywinf5.com,HK,Asia,Eastern Asia,Hong Kong,,,
154.215.7.103,4,-13,ywzhanyang.com,HK,Asia,Eastern Asia,Hong Kong,,,
154.23.121.198,4,28714960,yxb918.com,HK,Asia,Eastern Asia,Hong Kong,Eastern,,Chai Wan
101.32.11.237,4,-20,yxbao.com,HK,Asia,Eastern Asia,Hong Kong,,,Hong Kong
47.238.135.71,4,-19,yxhxtcc.com,HK,Asia,Eastern Asia,Hong Kong,,,Hong Kong
154.23.224.7,4,-13,yy222.net,HK,Asia,Eastern Asia,Hong Kong,,,Hong Kong
154.204.132.18,4,-17,yyjwsl.com,HK,Asia,Eastern Asia,Hong Kong,,,
103.243.24.138,4,405883,yymlbb.com,HK,Asia,Eastern Asia,Hong Kong,,,
202.181.163.146,4,-20,yywong.com,HK,Asia,Eastern Asia,Hong Kong,,,
154.92.41.220,4,5,yyxiangzishu.com,HK,Asia,Eastern Asia,Hong Kong,,,
103.134.144.42,4,-16,yyylbx.cn,HK,Asia,Eastern Asia,Hong Kong,,,
154.204.193.202,4,-15,yzduobao.com,HK,Asia,Eastern Asia,Hong Kong,,,
20.255.60.255,4,9,yzsdaojia.com,HK,Asia,Eastern Asia,Hong Kong,,,Hong Kong
20.205.18.83,4,21,yzsdaojia.com,HK,Asia,Eastern Asia,Hong Kong,,,Hong Kong
20.6.129.44,4,21,yzsdaojia.com,HK,Asia,Eastern Asia,Hong Kong,,,Hong Kong
154.194.146.117,4,-14,yztonghu.com,HK,Asia,Eastern Asia,Hong Kong,,,Hong Kong
101.32.208.162,4,-11,zaodoctor.com,HK,Asia,Eastern Asia,Hong Kong,,,Hong Kong
154.206.230.166,4,12,zb-nqp.com,HK,Asia,Eastern Asia,Hong Kong,,,Hong Kong
156.234.160.50,4,-16,zb580.tv,HK,Asia,Eastern Asia,Hong Kong,,,Hong Kong
156.234.237.59,4,1,zbcup.com,HK,Asia,Eastern Asia,Hong Kong,,,Hong Kong
154.204.156.15,4,-10,zbdiaolan.com,HK,Asia,Eastern Asia,Hong Kong,,,
103.233.8.38,4,-17,zbwxtz.com,HK,Asia,Eastern Asia,Hong Kong,,,
34.150.6.66,4,14,zcw4xb.com,HK,Asia,Eastern Asia,Hong Kong,,,Hong Kong
8.217.92.249,4,-7,zdxue.com,HK,Asia,Eastern Asia,Hong Kong,,,Hong Kong
39.109.126.9,4,17933,zefpyvr.cn,HK,Asia,Eastern Asia,Hong Kong,,,
154.212.200.144,4,-15,zgbaiao.com,HK,Asia,Eastern Asia,Hong Kong,,,
47.242.77.19,4,-20,zgbbs.org,HK,Asia,Eastern Asia,Hong Kong,,,Hong Kong
156.234.156.205,4,-20,zgbite.com,HK,Asia,Eastern Asia,Hong Kong,,,Hong Kong
154.194.150.254,4,-17,zgjzyy.com,HK,Asia,Eastern Asia,Hong Kong,,,Hong Kong
154.204.193.206,4,-16,zgkela.com,HK,Asia,Eastern Asia,Hong Kong,,,
154.194.146.118,4,-18,zglaijia.com,HK,Asia,Eastern Asia,Hong Kong,,,Hong Kong
43.239.165.19,4,-12,zgyaodu.com,HK,Asia,Eastern Asia,Hong Kong,,,
154.204.196.79,4,-20,zgyasheng.com,HK,Asia,Eastern Asia,Hong Kong,,,
8.210.148.204,4,-18,zgyhsj.com,HK,Asia,Eastern Asia,Hong Kong,,,Hong Kong
154.23.123.201,4,28714963,zgyzba.com,HK,Asia,Eastern Asia,Hong Kong,Eastern,,Chai Wan
112.213.125.246,4,-74,zhaifujidi.com,HK,Asia,Eastern Asia,Hong Kong,,,
154.89.104.245,4,-17,zhanfengwl.com,HK,Asia,Eastern Asia,Hong Kong,,,Hong Kong
154.26.202.228,4,-10,zhangyongbushen.cn,HK,Asia,Eastern Asia,Hong Kong,,,Hong Kong
154.194.146.119,4,-20,zhaodezhu1818.com,HK,Asia,Eastern Asia,Hong Kong,,,Hong Kong
154.194.146.120,4,-15,zhaoduide520.com,HK,Asia,Eastern Asia,Hong Kong,,,Hong Kong
8.217.99.158,4,-13,zhaolu2.cn,HK,Asia,Eastern Asia,Hong Kong,,,Hong Kong
154.83.12.69,4,13850,zhen4k.com,HK,Asia,Eastern Asia,Hong Kong,,,Hong Kong
156.245.102.10,4,27,zhenailv.com,HK,Asia,Eastern Asia,Hong Kong,,,
103.60.149.155,4,1,zhendidaomj.com,HK,Asia,Eastern Asia,Hong Kong,,,
103.192.43.5,4,-11,zhengyunqing.com,HK,Asia,Eastern Asia,Hong Kong,,,
154.194.146.121,4,-20,zhenxiangsy.com,HK,Asia,Eastern Asia,Hong Kong,,,Hong Kong
154.204.46.77,4,27,zhibock.com,HK,Asia,Eastern Asia,Hong Kong,,,
154.209.99.163,4,5,zhifuyixia.com,HK,Asia,Eastern Asia,Hong Kong,,,
8.217.41.29,4,-15,zhihuangjin.com,HK,Asia,Eastern Asia,Hong Kong,,,Hong Kong
154.194.146.122,4,-20,zhilengjiaoyipingtai.com,HK,Asia,Eastern Asia,Hong Kong,,,Hong Kong
208.87.201.46,4,24,zhilexue.tech,HK,Asia,Eastern Asia,Hong Kong,,,
109.206.246.98,4,36489,zhishibee.com,HK,Asia,Eastern Asia,Hong Kong,,,
154.204.195.77,4,-21,zhixinapps.com,HK,Asia,Eastern Asia,Hong Kong,,,
154.209.45.15,4,8,zhizaojingpin.com,HK,Asia,Eastern Asia,Hong Kong,,,
154.194.146.123,4,-20,zhlandai.com,HK,Asia,Eastern Asia,Hong Kong,,,Hong Kong
47.56.106.95,4,-19,zhongboxinwen.com,HK,Asia,Eastern Asia,Hong Kong,,,Hong Kong
154.194.146.124,4,-17,zhongchuanxing.com,HK,Asia,Eastern Asia,Hong Kong,,,Hong Kong
154.194.146.125,4,-17,zhongfutangguoyiguan.com,HK,Asia,Eastern Asia,Hong Kong,,,Hong Kong
154.204.194.14,4,-19,zhongheed.com,HK,Asia,Eastern Asia,Hong Kong,,,
154.212.146.32,4,23,zhonglibao818.com,HK,Asia,Eastern Asia,Hong Kong,,,
154.194.146.126,4,-22,zhongshida01.com,HK,Asia,Eastern Asia,Hong Kong,,,Hong Kong
154.215.110.98,4,-14,zhongyiwugou.com,HK,Asia,Eastern Asia,Hong Kong,,,Hong Kong
154.212.203.121,4,-19,zhongzhuanzs.com,HK,Asia,Eastern Asia,Hong Kong,,,
154.204.196.74,4,-20,zhqizhong.com,HK,Asia,Eastern Asia,Hong Kong,,,
154.194.147.67,4,-16,zhtongfu.com,HK,Asia,Eastern Asia,Hong Kong,,,Hong Kong
103.87.241.158,4,-23,zhuangyuanhai.com,HK,Asia,Eastern Asia,Hong Kong,,,
154.92.91.240,4,9,zhuanshengben.net,HK,Asia,Eastern Asia,Hong Kong,,,
154.211.78.153,4,-11,zhubaoapp.com,HK,Asia,Eastern Asia,Hong Kong,,,
154.204.194.15,4,-20,zhubjxs.com,HK,Asia,Eastern Asia,Hong Kong,,,
43.239.165.22,4,-19,zhuhaibm.com,HK,Asia,Eastern Asia,Hong Kong,,,
154.194.147.68,4,-19,zhuozhongruanjian.com,HK,Asia,Eastern Asia,Hong Kong,,,Hong Kong
154.204.195.72,4,-17,zhyiai.com,HK,Asia,Eastern Asia,Hong Kong,,,
154.204.193.217,4,-14,zhyucheng.com,HK,Asia,Eastern Asia,Hong Kong,,,
123.176.96.44,4,3,zi.tools,HK,Asia,Eastern Asia,Hong Kong,,,
47.239.23.233,4,-10,ziboruijin.com,HK,Asia,Eastern Asia,Hong Kong,,,Hong Kong
43.249.221.135,4,-20,zibowanyu.com,HK,Asia,Eastern Asia,Hong Kong,,,
112.121.182.165,4,-26,zigesee.com,HK,Asia,Eastern Asia,Hong Kong,,,
43.129.25.62,4,-13,zike.cn,HK,Asia,Eastern Asia,Hong Kong,,,Hong Kong
45.126.229.211,4,3,zinglister.com,HK,Asia,Eastern Asia,Hong Kong,,,
103.61.146.118,4,9,zishouyin.com,HK,Asia,Eastern Asia,Hong Kong,,,
35.215.189.55,4,10,zithromaxtabs.com,HK,Asia,Eastern Asia,Hong Kong,,,Hong Kong
43.239.165.15,4,-16,ziwangyanma.com,HK,Asia,Eastern Asia,Hong Kong,,,
154.204.196.83,4,-10,ziwukang.com,HK,Asia,Eastern Asia,Hong Kong,,,
154.194.147.69,4,-9,ziyuemom.com,HK,Asia,Eastern Asia,Hong Kong,,,Hong Kong
156.245.102.6,4,25,zjaiqi.com,HK,Asia,Eastern Asia,Hong Kong,,,
154.211.78.190,4,-11,zjesz.com,HK,Asia,Eastern Asia,Hong Kong,,,
103.24.248.242,4,6,zjjcts.com.cn,HK,Asia,Eastern Asia,Hong Kong,,,
154.92.14.94,4,220067,zjkrcw.cn,HK,Asia,Eastern Asia,Hong Kong,,,
154.214.69.179,4,-11,zjser.com,HK,Asia,Eastern Asia,Hong Kong,,,Hong Kong
182.161.68.71,4,2,zjstarmall.com,HK,Asia,Eastern Asia,Hong Kong,,,
149.104.189.146,4,-20,zjyuesao.net,HK,Asia,Eastern Asia,Hong Kong,,,Hong Kong
154.212.195.249,4,-14,zkzjxny.com,HK,Asia,Eastern Asia,Hong Kong,,,
156.254.166.23,4,-28800056,zlhchina.com,HK,Asia,Eastern Asia,Hong Kong,,,
47.56.11.171,4,-20,zmsq.com,HK,Asia,Eastern Asia,Hong Kong,,,Hong Kong
154.211.78.152,4,-13,zmwjpx.com,HK,Asia,Eastern Asia,Hong Kong,,,
35.215.133.100,4,9,zonefortech.com,HK,Asia,Eastern Asia,Hong Kong,,,Hong Kong
154.204.194.44,4,-8,zonetron.com,HK,Asia,Eastern Asia,Hong Kong,,,
35.215.145.75,4,13,zovirax4us.top,HK,Asia,Eastern Asia,Hong Kong,,,Hong Kong
154.194.147.70,4,-12,zpdt871j.com,HK,Asia,Eastern Asia,Hong Kong,,,Hong Kong
154.212.174.40,4,-17,zqdmjc.com,HK,Asia,Eastern Asia,Hong Kong,,,
154.92.41.206,4,5,zqlianquan.com,HK,Asia,Eastern Asia,Hong Kong,,,
154.204.192.154,4,-18,zrgjonline.com,HK,Asia,Eastern Asia,Hong Kong,,,
103.149.92.164,4,6,zrhcchina.com,HK,Asia,Eastern Asia,Hong Kong,,,
154.212.203.118,4,-22,zsdingchang.com,HK,Asia,Eastern Asia,Hong Kong,,,
154.212.203.123,4,-19,zshengpeng.com,HK,Asia,Eastern Asia,Hong Kong,,,
43.249.1.22,4,4,zsjdidu.com,HK,Asia,Eastern Asia,Hong Kong,,,
154.204.194.4,4,-15,zskjcqsc.com,HK,Asia,Eastern Asia,Hong Kong,,,
43.242.200.28,4,11,zslanyue.com,HK,Asia,Eastern Asia,Hong Kong,,,
154.194.147.71,4,-20,zslvjin.com,HK,Asia,Eastern Asia,Hong Kong,,,Hong Kong
198.176.59.136,4,2,zsyouyu.com,HK,Asia,Eastern Asia,Hong Kong,,,Hong Kong
154.194.147.66,4,-16,ztccdq.com,HK,Asia,Eastern Asia,Hong Kong,,,Hong Kong
47.52.225.223,4,-15,zuoye5.com,HK,Asia,Eastern Asia,Hong Kong,,,Hong Kong
8.218.28.2,4,-13,zusms.com,HK,Asia,Eastern Asia,Hong Kong,,,Hong Kong
103.213.245.250,4,6448,zww.me,HK,Asia,Eastern Asia,Hong Kong,,,
38.181.61.138,4,-2,zxfdao.com,HK,Asia,Eastern Asia,Hong Kong,Kwun Tong,,Kwun Tong
156.240.221.108,4,-16,zxjxw.cn,HK,Asia,Eastern Asia,Hong Kong,,,
154.194.147.72,4,-17,zxovs.com,HK,Asia,Eastern Asia,Hong Kong,,,Hong Kong
154.214.95.254,4,-16,zxslcslhw.com,HK,Asia,Eastern Asia,Hong Kong,,,Hong Kong
154.92.42.167,4,1,zxty100.com,HK,Asia,Eastern Asia,Hong Kong,,,
152.32.128.246,4,-18,zxxyyy.cn,HK,Asia,Eastern Asia,Hong Kong,,,Hong Kong
154.220.13.186,4,-19,zy-mt.com,HK,Asia,Eastern Asia,Hong Kong,,,
20.2.83.166,4,8,zycsbz.com,HK,Asia,Eastern Asia,Hong Kong,,,Hong Kong
20.2.138.245,4,6,zycsbz.com,HK,Asia,Eastern Asia,Hong Kong,,,Hong Kong
40.81.28.181,4,7,zycsbz.com,HK,Asia,Eastern Asia,Hong Kong,,,Hong Kong
103.27.79.190,4,-20,zykj2016.com,HK,Asia,Eastern Asia,Hong Kong,,,Hong Kong
45.157.71.28,4,6,zykj2016.com,HK,Asia,Eastern Asia,Hong Kong,,,
45.157.71.30,4,4,zykj2016.com,HK,Asia,Eastern Asia,Hong Kong,,,
43.249.2.141,4,3,zyvalves.com,HK,Asia,Eastern Asia,Hong Kong,,,
141.193.158.98,4,-205,zywx360.com,HK,Asia,Eastern Asia,Hong Kong,,,
154.194.147.73,4,-23,zzdljk.com,HK,Asia,Eastern Asia,Hong Kong,,,Hong Kong
119.28.181.172,4,21754,zzglygf.com,HK,Asia,Eastern Asia,Hong Kong,,,Hong Kong
156.241.187.115,4,-32,zzhuamei.net,HK,Asia,Eastern Asia,Hong Kong,,,
45.117.193.204,4,-1,zzlanmaowangluo.com,HK,Asia,Eastern Asia,Hong Kong,,,
156.245.102.7,4,26,zzpanying.com,HK,Asia,Eastern Asia,Hong Kong,,,
103.186.214.154,4,7,zzsps.com,HK,Asia,Eastern Asia,Hong Kong,,,
154.209.99.162,4,0,zzsuofei.com,HK,Asia,Eastern Asia,Hong Kong,,,
154.23.121.195,4,28714961,zzszhinuo.com,HK,Asia,Eastern Asia,Hong Kong,Eastern,,Chai Wan
154.194.147.74,4,-16,zztontru.com,HK,Asia,Eastern Asia,Hong Kong,,,Hong Kong
103.149.144.199,4,2,zzylu.com,HK,Asia,Eastern Asia,Hong Kong,,,Kai Yi Wan
