reflector_ip,ip_version,offset,description,country_code,region,sub_region,country_name,sub_division_1,sub_division_2,city
35.229.134.56,4,6,1680380.com,TW,Asia,Eastern Asia,Taiwan,Taipei City,,Taipei
34.80.142.182,4,8,1687370.com,TW,Asia,Eastern Asia,Taiwan,Taipei City,,Taipei
103.118.26.35,4,11,31app.com,TW,Asia,Eastern Asia,Taiwan,,,
103.98.17.232,4,2,58qiqu.com,TW,Asia,Eastern Asia,Taiwan,Taipei City,,Taipei
35.201.177.191,4,4,7-eleven.com.ph,TW,Asia,Eastern Asia,Taiwan,Taipei City,,Taipei
35.221.162.74,4,3,882531.com,TW,Asia,Eastern Asia,Taiwan,Taipei City,,Taipei
203.204.183.147,4,20,8fun.net,TW,Asia,Eastern Asia,Taiwan,Taipei City,,Taipei
125.227.253.159,4,-368,abonmax.com.tw,TW,Asia,Eastern Asia,Taiwan,Taoyuan,,Taoyuan District
103.118.26.155,4,21,acd.com.tw,TW,Asia,Eastern Asia,Taiwan,,,
34.80.143.74,4,18,achang.tw,TW,Asia,Eastern Asia,Taiwan,Taipei City,,Taipei
35.229.219.183,4,7,adimohinimohankanjilal.com,TW,Asia,Eastern Asia,Taiwan,Taipei City,,Taipei
103.118.24.39,4,14101,akagrant.com,TW,Asia,Eastern Asia,Taiwan,,,
210.65.47.53,4,0,amtb.tw,TW,Asia,Eastern Asia,Taiwan,,,
203.74.95.128,4,24,appledaily.com.tw,TW,Asia,Eastern Asia,Taiwan,Taipei City,,Taipei
210.244.72.15,4,10624,archi.com.tw,TW,Asia,Eastern Asia,Taiwan,Taichung City,,Taichung
210.65.113.35,4,0,asuswebstorage.com,TW,Asia,Eastern Asia,Taiwan,,,
61.221.12.18,4,32,autism.org.tw,TW,Asia,Eastern Asia,Taiwan,Taichung City,,Taichung
211.20.187.118,4,-162,b2bmit.com,TW,Asia,Eastern Asia,Taiwan,Taichung City,,Taichung
104.199.182.238,4,7,backpackers.com.tw,TW,Asia,Eastern Asia,Taiwan,Taipei City,,Taipei
128.1.131.71,4,8,bakutoday.net,TW,Asia,Eastern Asia,Taiwan,,,
35.221.204.229,4,54,bazubu.com,TW,Asia,Eastern Asia,Taiwan,Taipei City,,Taipei
104.199.162.225,4,10,bbkz.com,TW,Asia,Eastern Asia,Taiwan,Taipei City,,Taipei
118.163.203.164,4,-10,beautiful-spacetime.com,TW,Asia,Eastern Asia,Taiwan,Taichung City,,Taichung
35.194.237.172,4,6,best-legal.jp,TW,Asia,Eastern Asia,Taiwan,Taipei City,,Taipei
103.144.33.71,4,8,bghut.com,TW,Asia,Eastern Asia,Taiwan,,,
104.199.146.31,4,3,bioasiataiwan.com,TW,Asia,Eastern Asia,Taiwan,Taipei City,,Taipei
103.118.24.38,4,58,bizph.com,TW,Asia,Eastern Asia,Taiwan,,,
104.155.230.5,4,6,bookfere.com,TW,Asia,Eastern Asia,Taiwan,Taipei City,,Taipei
210.59.219.18,4,5,bridgewell.com,TW,Asia,Eastern Asia,Taiwan,New Taipei City,,Sanchong District
104.199.214.191,4,28,brilio.net,TW,Asia,Eastern Asia,Taiwan,Taipei City,,Taipei
112.121.107.62,4,4,businessweekly.com.tw,TW,Asia,Eastern Asia,Taiwan,,,
211.23.95.250,4,4,carstuff.com.tw,TW,Asia,Eastern Asia,Taiwan,Hsinchu City,,Hsinchu
103.17.9.237,4,1542,catholic.org.tw,TW,Asia,Eastern Asia,Taiwan,,,
203.66.68.66,4,4,ccr.com.tw,TW,Asia,Eastern Asia,Taiwan,Tainan,,Yongkang District
103.129.178.18,4,0,chung-pei.com,TW,Asia,Eastern Asia,Taiwan,,,
35.234.49.191,4,4,cmmedia.com.tw,TW,Asia,Eastern Asia,Taiwan,Taipei City,,Taipei
103.129.176.84,4,2564,colofor.com.tw,TW,Asia,Eastern Asia,Taiwan,,,
61.221.12.52,4,2,coolaler.com,TW,Asia,Eastern Asia,Taiwan,Taichung City,,Taichung
140.112.30.240,4,16,csie.org,TW,Asia,Eastern Asia,Taiwan,Taipei City,,Taipei
35.194.185.226,4,2,ct.org.tw,TW,Asia,Eastern Asia,Taiwan,Taipei City,,Taipei
210.65.10.197,4,34994,da-vinci.com.tw,TW,Asia,Eastern Asia,Taiwan,,,
112.121.121.186,4,-4,darencademy.com,TW,Asia,Eastern Asia,Taiwan,,,
203.145.220.155,4,20,dataportal.asia,TW,Asia,Eastern Asia,Taiwan,,,
104.155.230.68,4,6,daviteq.com,TW,Asia,Eastern Asia,Taiwan,Taipei City,,Taipei
61.60.143.215,4,3,dean-cpa.com,TW,Asia,Eastern Asia,Taiwan,New Taipei City,,New Taipei City
1.160.203.160,4,2188,DNS Server: 1-160-203-160.dynamic-ip.hinet.net,TW,Asia,Eastern Asia,Taiwan,New Taipei City,,New Taipei City
1.160.208.251,4,-28801347,DNS Server: 1-160-208-251.dynamic-ip.hinet.net,TW,Asia,Eastern Asia,Taiwan,New Taipei City,,New Taipei City
1.160.236.166,4,-28801605,DNS Server: 1-160-236-166.dynamic-ip.hinet.net,TW,Asia,Eastern Asia,Taiwan,New Taipei City,,New Taipei City
1.160.241.190,4,301,DNS Server: 1-160-241-190.dynamic-ip.hinet.net,TW,Asia,Eastern Asia,Taiwan,New Taipei City,,New Taipei City
1.161.112.161,4,-28801528,DNS Server: 1-161-112-161.dynamic-ip.hinet.net,TW,Asia,Eastern Asia,Taiwan,New Taipei City,,New Taipei City
1.161.116.85,4,16791,DNS Server: 1-161-116-85.dynamic-ip.hinet.net,TW,Asia,Eastern Asia,Taiwan,New Taipei City,,New Taipei City
1.161.124.248,4,-28799957,DNS Server: 1-161-124-248.dynamic-ip.hinet.net,TW,Asia,Eastern Asia,Taiwan,New Taipei City,,New Taipei City
1.161.206.237,4,-28801180,DNS Server: 1-161-206-237.dynamic-ip.hinet.net,TW,Asia,Eastern Asia,Taiwan,Taoyuan,,Taoyuan District
1.161.67.235,4,73,DNS Server: 1-161-67-235.dynamic-ip.hinet.net,TW,Asia,Eastern Asia,Taiwan,New Taipei City,,New Taipei City
1.161.73.202,4,50,DNS Server: 1-161-73-202.dynamic-ip.hinet.net,TW,Asia,Eastern Asia,Taiwan,New Taipei City,,New Taipei City
1.161.74.82,4,394,DNS Server: 1-161-74-82.dynamic-ip.hinet.net,TW,Asia,Eastern Asia,Taiwan,New Taipei City,,New Taipei City
1.161.76.240,4,30,DNS Server: 1-161-76-240.dynamic-ip.hinet.net,TW,Asia,Eastern Asia,Taiwan,New Taipei City,,New Taipei City
1.162.111.11,4,-87,DNS Server: 1-162-111-11.dynamic-ip.hinet.net,TW,Asia,Eastern Asia,Taiwan,New Taipei City,,New Taipei City
1.162.160.145,4,38,DNS Server: 1-162-160-145.dynamic-ip.hinet.net,TW,Asia,Eastern Asia,Taiwan,Taipei City,,Taipei
1.162.232.134,4,-150991,DNS Server: 1-162-232-134.dynamic-ip.hinet.net,TW,Asia,Eastern Asia,Taiwan,Hualien County,,Hualien City
1.162.60.2,4,264157,DNS Server: 1-162-60-2.dynamic-ip.hinet.net,TW,Asia,Eastern Asia,Taiwan,Taipei City,,Taipei
1.163.10.161,4,9157959,DNS Server: 1-163-10-161.dynamic-ip.hinet.net,TW,Asia,Eastern Asia,Taiwan,Taoyuan,,Taoyuan District
1.163.112.77,4,-17936,DNS Server: 1-163-112-77.dynamic-ip.hinet.net,TW,Asia,Eastern Asia,Taiwan,Taipei City,,Taipei
1.163.116.192,4,2007,DNS Server: 1-163-116-192.dynamic-ip.hinet.net,TW,Asia,Eastern Asia,Taiwan,Taipei City,,Taipei
1.163.118.29,4,305,DNS Server: 1-163-118-29.dynamic-ip.hinet.net,TW,Asia,Eastern Asia,Taiwan,Taipei City,,Taipei
1.163.121.36,4,1842,DNS Server: 1-163-121-36.dynamic-ip.hinet.net,TW,Asia,Eastern Asia,Taiwan,Taipei City,,Taipei
1.163.128.138,4,-28800110,DNS Server: 1-163-128-138.dynamic-ip.hinet.net,TW,Asia,Eastern Asia,Taiwan,New Taipei City,,Sanchong District
1.163.144.129,4,36,DNS Server: 1-163-144-129.dynamic-ip.hinet.net,TW,Asia,Eastern Asia,Taiwan,New Taipei City,,New Taipei City
1.163.18.45,4,44,DNS Server: 1-163-18-45.dynamic-ip.hinet.net,TW,Asia,Eastern Asia,Taiwan,Taoyuan,,Taoyuan District
1.163.217.116,4,1451,DNS Server: 1-163-217-116.dynamic-ip.hinet.net,TW,Asia,Eastern Asia,Taiwan,Taipei City,,Taipei
1.163.221.245,4,12,DNS Server: 1-163-221-245.dynamic-ip.hinet.net,TW,Asia,Eastern Asia,Taiwan,Taipei City,,Taipei
1.163.45.130,4,257,DNS Server: 1-163-45-130.dynamic-ip.hinet.net,TW,Asia,Eastern Asia,Taiwan,Taoyuan,,Taoyuan District
1.163.53.52,4,1579,DNS Server: 1-163-53-52.dynamic-ip.hinet.net,TW,Asia,Eastern Asia,Taiwan,Taoyuan,,Taoyuan District
1.163.82.130,4,1879,DNS Server: 1-163-82-130.dynamic-ip.hinet.net,TW,Asia,Eastern Asia,Taiwan,Taipei City,,Taipei
1.163.85.8,4,1576,DNS Server: 1-163-85-8.dynamic-ip.hinet.net,TW,Asia,Eastern Asia,Taiwan,Taipei City,,Taipei
1.163.87.146,4,-28801080,DNS Server: 1-163-87-146.dynamic-ip.hinet.net,TW,Asia,Eastern Asia,Taiwan,Taipei City,,Taipei
1.163.91.124,4,344,DNS Server: 1-163-91-124.dynamic-ip.hinet.net,TW,Asia,Eastern Asia,Taiwan,Taipei City,,Taipei
1.163.99.234,4,1530,DNS Server: 1-163-99-234.dynamic-ip.hinet.net,TW,Asia,Eastern Asia,Taiwan,Taipei City,,Taipei
1.164.103.15,4,22,DNS Server: 1-164-103-15.dynamic-ip.hinet.net,TW,Asia,Eastern Asia,Taiwan,Hsinchu City,,Hsinchu
1.164.12.228,4,-53,DNS Server: 1-164-12-228.dynamic-ip.hinet.net,TW,Asia,Eastern Asia,Taiwan,Taoyuan,,Zhongli District
1.164.13.74,4,47,DNS Server: 1-164-13-74.dynamic-ip.hinet.net,TW,Asia,Eastern Asia,Taiwan,Taoyuan,,Zhongli District
1.164.160.195,4,-28803423,DNS Server: 1-164-160-195.dynamic-ip.hinet.net,TW,Asia,Eastern Asia,Taiwan,Taipei City,,Taipei
1.164.224.120,4,2046,DNS Server: 1-164-224-120.dynamic-ip.hinet.net,TW,Asia,Eastern Asia,Taiwan,Taipei City,,Taipei
1.164.246.100,4,-28803793,DNS Server: 1-164-246-100.dynamic-ip.hinet.net,TW,Asia,Eastern Asia,Taiwan,Taipei City,,Taipei
1.164.250.8,4,200,DNS Server: 1-164-250-8.dynamic-ip.hinet.net,TW,Asia,Eastern Asia,Taiwan,Taipei City,,Taipei
1.164.46.40,4,-118,DNS Server: 1-164-46-40.dynamic-ip.hinet.net,TW,Asia,Eastern Asia,Taiwan,Taoyuan,,Zhongli District
1.164.47.121,4,3753,DNS Server: 1-164-47-121.dynamic-ip.hinet.net,TW,Asia,Eastern Asia,Taiwan,Taoyuan,,Zhongli District
1.164.84.31,4,-28800187,DNS Server: 1-164-84-31.dynamic-ip.hinet.net,TW,Asia,Eastern Asia,Taiwan,Hsinchu City,,Hsinchu
1.165.109.122,4,1812,DNS Server: 1-165-109-122.dynamic-ip.hinet.net,TW,Asia,Eastern Asia,Taiwan,Taichung City,,Taichung
1.165.119.247,4,26,DNS Server: 1-165-119-247.dynamic-ip.hinet.net,TW,Asia,Eastern Asia,Taiwan,Taichung City,,Taichung
1.165.132.227,4,79,DNS Server: 1-165-132-227.dynamic-ip.hinet.net,TW,Asia,Eastern Asia,Taiwan,Taichung City,,Taichung
1.165.139.196,4,2125,DNS Server: 1-165-139-196.dynamic-ip.hinet.net,TW,Asia,Eastern Asia,Taiwan,Taichung City,,Taichung
1.165.161.82,4,1701,DNS Server: 1-165-161-82.dynamic-ip.hinet.net,TW,Asia,Eastern Asia,Taiwan,Taichung City,,Taichung
1.165.206.119,4,-28801017,DNS Server: 1-165-206-119.dynamic-ip.hinet.net,TW,Asia,Eastern Asia,Taiwan,Taichung City,,Taichung
1.165.207.91,4,461,DNS Server: 1-165-207-91.dynamic-ip.hinet.net,TW,Asia,Eastern Asia,Taiwan,Taichung City,,Taichung
1.165.71.245,4,60,DNS Server: 1-165-71-245.dynamic-ip.hinet.net,TW,Asia,Eastern Asia,Taiwan,Taichung City,,Taichung
1.165.71.62,4,-113633,DNS Server: 1-165-71-62.dynamic-ip.hinet.net,TW,Asia,Eastern Asia,Taiwan,Taichung City,,Taichung
1.168.103.181,4,545,DNS Server: 1-168-103-181.dynamic-ip.hinet.net,TW,Asia,Eastern Asia,Taiwan,Taichung City,,Taichung
1.168.137.52,4,-28800411,DNS Server: 1-168-137-52.dynamic-ip.hinet.net,TW,Asia,Eastern Asia,Taiwan,Taichung City,,Taichung
1.168.142.151,4,1656,DNS Server: 1-168-142-151.dynamic-ip.hinet.net,TW,Asia,Eastern Asia,Taiwan,Taichung City,,Taichung
1.168.18.227,4,307,DNS Server: 1-168-18-227.dynamic-ip.hinet.net,TW,Asia,Eastern Asia,Taiwan,Taichung City,,Taichung
1.168.202.187,4,-28799984,DNS Server: 1-168-202-187.dynamic-ip.hinet.net,TW,Asia,Eastern Asia,Taiwan,Nantou,,Nantou City
1.168.215.109,4,-28800217,DNS Server: 1-168-215-109.dynamic-ip.hinet.net,TW,Asia,Eastern Asia,Taiwan,Nantou,,Nantou City
1.168.226.195,4,2216,DNS Server: 1-168-226-195.dynamic-ip.hinet.net,TW,Asia,Eastern Asia,Taiwan,Nantou,,Nantou City
1.168.228.19,4,191,DNS Server: 1-168-228-19.dynamic-ip.hinet.net,TW,Asia,Eastern Asia,Taiwan,Nantou,,Nantou City
1.168.229.130,4,441,DNS Server: 1-168-229-130.dynamic-ip.hinet.net,TW,Asia,Eastern Asia,Taiwan,Nantou,,Nantou City
1.168.24.51,4,1707,DNS Server: 1-168-24-51.dynamic-ip.hinet.net,TW,Asia,Eastern Asia,Taiwan,Taichung City,,Taichung
1.168.245.230,4,45070,DNS Server: 1-168-245-230.dynamic-ip.hinet.net,TW,Asia,Eastern Asia,Taiwan,Nantou,,Nantou City
1.168.250.26,4,1524,DNS Server: 1-168-250-26.dynamic-ip.hinet.net,TW,Asia,Eastern Asia,Taiwan,Nantou,,Nantou City
1.168.3.6,4,1,DNS Server: 1-168-3-6.dynamic-ip.hinet.net,TW,Asia,Eastern Asia,Taiwan,Taichung City,,Taichung
1.168.38.147,4,-635047690,DNS Server: 1-168-38-147.dynamic-ip.hinet.net,TW,Asia,Eastern Asia,Taiwan,Taichung City,,Taichung
1.168.6.24,4,-28802359,DNS Server: 1-168-6-24.dynamic-ip.hinet.net,TW,Asia,Eastern Asia,Taiwan,Taichung City,,Taichung
1.168.78.113,4,509,DNS Server: 1-168-78-113.dynamic-ip.hinet.net,TW,Asia,Eastern Asia,Taiwan,Taichung City,,Taichung
1.168.97.101,4,694,DNS Server: 1-168-97-101.dynamic-ip.hinet.net,TW,Asia,Eastern Asia,Taiwan,Taichung City,,Taichung
1.169.152.96,4,367,DNS Server: 1-169-152-96.dynamic-ip.hinet.net,TW,Asia,Eastern Asia,Taiwan,Taoyuan,,Taoyuan District
1.169.155.239,4,561,DNS Server: 1-169-155-239.dynamic-ip.hinet.net,TW,Asia,Eastern Asia,Taiwan,Taoyuan,,Taoyuan District
1.169.187.28,4,-4416064,DNS Server: 1-169-187-28.dynamic-ip.hinet.net,TW,Asia,Eastern Asia,Taiwan,Taoyuan,,Taoyuan District
1.169.231.211,4,39,DNS Server: 1-169-231-211.dynamic-ip.hinet.net,TW,Asia,Eastern Asia,Taiwan,Hsinchu City,,Hsinchu
1.169.238.225,4,82,DNS Server: 1-169-238-225.dynamic-ip.hinet.net,TW,Asia,Eastern Asia,Taiwan,Hsinchu City,,Hsinchu
1.170.109.114,4,-28800120,DNS Server: 1-170-109-114.dynamic-ip.hinet.net,TW,Asia,Eastern Asia,Taiwan,Taichung City,,Taichung
1.170.109.31,4,1552,DNS Server: 1-170-109-31.dynamic-ip.hinet.net,TW,Asia,Eastern Asia,Taiwan,Taichung City,,Taichung
1.170.116.145,4,85,DNS Server: 1-170-116-145.dynamic-ip.hinet.net,TW,Asia,Eastern Asia,Taiwan,Taichung City,,Taichung
1.170.131.230,4,48,DNS Server: 1-170-131-230.dynamic-ip.hinet.net,TW,Asia,Eastern Asia,Taiwan,Yunlin,,Yunlin
1.170.162.221,4,417,DNS Server: 1-170-162-221.dynamic-ip.hinet.net,TW,Asia,Eastern Asia,Taiwan,Yunlin,,Yunlin
1.170.164.42,4,187,DNS Server: 1-170-164-42.dynamic-ip.hinet.net,TW,Asia,Eastern Asia,Taiwan,Yunlin,,Yunlin
1.170.172.242,4,2,DNS Server: 1-170-172-242.dynamic-ip.hinet.net,TW,Asia,Eastern Asia,Taiwan,Yunlin,,Yunlin
1.170.209.100,4,-2978369551,DNS Server: 1-170-209-100.dynamic-ip.hinet.net,TW,Asia,Eastern Asia,Taiwan,Changhua,,Chang-hua
1.170.248.131,4,612,DNS Server: 1-170-248-131.dynamic-ip.hinet.net,TW,Asia,Eastern Asia,Taiwan,Changhua,,Chang-hua
1.170.36.148,4,89774,DNS Server: 1-170-36-148.dynamic-ip.hinet.net,TW,Asia,Eastern Asia,Taiwan,Taichung City,,Taichung
1.170.69.223,4,157,DNS Server: 1-170-69-223.dynamic-ip.hinet.net,TW,Asia,Eastern Asia,Taiwan,Taichung City,,Taichung
1.170.74.143,4,33,DNS Server: 1-170-74-143.dynamic-ip.hinet.net,TW,Asia,Eastern Asia,Taiwan,Taichung City,,Taichung
1.170.80.130,4,-28799414,DNS Server: 1-170-80-130.dynamic-ip.hinet.net,TW,Asia,Eastern Asia,Taiwan,Taichung City,,Taichung
1.170.81.222,4,1855,DNS Server: 1-170-81-222.dynamic-ip.hinet.net,TW,Asia,Eastern Asia,Taiwan,Taichung City,,Taichung
1.170.83.123,4,1669,DNS Server: 1-170-83-123.dynamic-ip.hinet.net,TW,Asia,Eastern Asia,Taiwan,Taichung City,,Taichung
1.170.84.216,4,140891,DNS Server: 1-170-84-216.dynamic-ip.hinet.net,TW,Asia,Eastern Asia,Taiwan,Taichung City,,Taichung
1.170.96.73,4,-28800033,DNS Server: 1-170-96-73.dynamic-ip.hinet.net,TW,Asia,Eastern Asia,Taiwan,Taichung City,,Taichung
1.170.98.115,4,-121,DNS Server: 1-170-98-115.dynamic-ip.hinet.net,TW,Asia,Eastern Asia,Taiwan,Taichung City,,Taichung
1.171.116.142,4,8,DNS Server: 1-171-116-142.dynamic-ip.hinet.net,TW,Asia,Eastern Asia,Taiwan,Taoyuan,,Zhongli District
1.171.117.163,4,-226,DNS Server: 1-171-117-163.dynamic-ip.hinet.net,TW,Asia,Eastern Asia,Taiwan,Taoyuan,,Zhongli District
1.171.130.152,4,-212,DNS Server: 1-171-130-152.dynamic-ip.hinet.net,TW,Asia,Eastern Asia,Taiwan,Taipei City,,Taipei
1.171.136.59,4,-263,DNS Server: 1-171-136-59.dynamic-ip.hinet.net,TW,Asia,Eastern Asia,Taiwan,Taipei City,,Taipei
1.171.19.160,4,-119,DNS Server: 1-171-19-160.dynamic-ip.hinet.net,TW,Asia,Eastern Asia,Taiwan,Hsinchu City,,Hsinchu
1.171.199.120,4,91,DNS Server: 1-171-199-120.dynamic-ip.hinet.net,TW,Asia,Eastern Asia,Taiwan,New Taipei City,,Banqiao
1.171.20.167,4,1545,DNS Server: 1-171-20-167.dynamic-ip.hinet.net,TW,Asia,Eastern Asia,Taiwan,Hsinchu City,,Hsinchu
1.171.23.72,4,-145,DNS Server: 1-171-23-72.dynamic-ip.hinet.net,TW,Asia,Eastern Asia,Taiwan,Hsinchu City,,Hsinchu
1.171.245.57,4,2273,DNS Server: 1-171-245-57.dynamic-ip.hinet.net,TW,Asia,Eastern Asia,Taiwan,New Taipei City,,New Taipei City
1.171.32.217,4,-362,DNS Server: 1-171-32-217.dynamic-ip.hinet.net,TW,Asia,Eastern Asia,Taiwan,Hsinchu City,,Hsinchu
1.171.56.200,4,1878,DNS Server: 1-171-56-200.dynamic-ip.hinet.net,TW,Asia,Eastern Asia,Taiwan,Hsinchu City,,Hsinchu
1.172.102.65,4,-28795924,DNS Server: 1-172-102-65.dynamic-ip.hinet.net,TW,Asia,Eastern Asia,Taiwan,Tainan,,Tainan City
1.172.115.215,4,290,DNS Server: 1-172-115-215.dynamic-ip.hinet.net,TW,Asia,Eastern Asia,Taiwan,Tainan,,Tainan City
1.172.118.93,4,-191,DNS Server: 1-172-118-93.dynamic-ip.hinet.net,TW,Asia,Eastern Asia,Taiwan,Tainan,,Tainan City
1.172.146.101,4,2127,DNS Server: 1-172-146-101.dynamic-ip.hinet.net,TW,Asia,Eastern Asia,Taiwan,Kinmen County,,Kinmen County
1.172.149.20,4,72874,DNS Server: 1-172-149-20.dynamic-ip.hinet.net,TW,Asia,Eastern Asia,Taiwan,Kinmen County,,Jincheng
1.172.155.159,4,1891,DNS Server: 1-172-155-159.dynamic-ip.hinet.net,TW,Asia,Eastern Asia,Taiwan,Kinmen County,,Kinmen County
1.172.155.162,4,-176,DNS Server: 1-172-155-162.dynamic-ip.hinet.net,TW,Asia,Eastern Asia,Taiwan,Kinmen County,,Kinmen County
1.172.157.200,4,1931,DNS Server: 1-172-157-200.dynamic-ip.hinet.net,TW,Asia,Eastern Asia,Taiwan,Kinmen County,,Kinmen County
1.172.170.204,4,-28803847,DNS Server: 1-172-170-204.dynamic-ip.hinet.net,TW,Asia,Eastern Asia,Taiwan,Kaohsiung,,Kaohsiung
1.172.174.64,4,-26642594,DNS Server: 1-172-174-64.dynamic-ip.hinet.net,TW,Asia,Eastern Asia,Taiwan,Kaohsiung,,Kaohsiung
1.172.178.132,4,389,DNS Server: 1-172-178-132.dynamic-ip.hinet.net,TW,Asia,Eastern Asia,Taiwan,Kaohsiung,,Kaohsiung
1.172.179.226,4,19658,DNS Server: 1-172-179-226.dynamic-ip.hinet.net,TW,Asia,Eastern Asia,Taiwan,Kaohsiung,,Kaohsiung
1.172.18.160,4,562,DNS Server: 1-172-18-160.dynamic-ip.hinet.net,TW,Asia,Eastern Asia,Taiwan,Penghu County,,Penghu County
1.172.228.178,4,1971,DNS Server: 1-172-228-178.dynamic-ip.hinet.net,TW,Asia,Eastern Asia,Taiwan,Kaohsiung,,Kaohsiung
1.172.48.85,4,1885,DNS Server: 1-172-48-85.dynamic-ip.hinet.net,TW,Asia,Eastern Asia,Taiwan,Kaohsiung,,Kaohsiung
1.172.66.91,4,31,DNS Server: 1-172-66-91.dynamic-ip.hinet.net,TW,Asia,Eastern Asia,Taiwan,Tainan,,Tainan City
1.172.92.100,4,579,DNS Server: 1-172-92-100.dynamic-ip.hinet.net,TW,Asia,Eastern Asia,Taiwan,Tainan,,Tainan City
1.173.197.102,4,387,DNS Server: 1-173-197-102.dynamic-ip.hinet.net,TW,Asia,Eastern Asia,Taiwan,Chiayi,,Chiayi City
1.173.197.202,4,22607,DNS Server: 1-173-197-202.dynamic-ip.hinet.net,TW,Asia,Eastern Asia,Taiwan,Chiayi,,Chiayi City
1.173.93.104,4,61,DNS Server: 1-173-93-104.dynamic-ip.hinet.net,TW,Asia,Eastern Asia,Taiwan,Kaohsiung,,Kaohsiung
1.174.100.184,4,57,DNS Server: 1-174-100-184.dynamic-ip.hinet.net,TW,Asia,Eastern Asia,Taiwan,Kaohsiung,,Kaohsiung
1.174.101.131,4,141,DNS Server: 1-174-101-131.dynamic-ip.hinet.net,TW,Asia,Eastern Asia,Taiwan,Kaohsiung,,Kaohsiung
1.174.103.23,4,1732,DNS Server: 1-174-103-23.dynamic-ip.hinet.net,TW,Asia,Eastern Asia,Taiwan,Kaohsiung,,Kaohsiung
1.174.104.98,4,-178,DNS Server: 1-174-104-98.dynamic-ip.hinet.net,TW,Asia,Eastern Asia,Taiwan,Kaohsiung,,Kaohsiung
1.174.106.2,4,-140,DNS Server: 1-174-106-2.dynamic-ip.hinet.net,TW,Asia,Eastern Asia,Taiwan,Kaohsiung,,Kaohsiung
1.174.109.131,4,2178,DNS Server: 1-174-109-131.dynamic-ip.hinet.net,TW,Asia,Eastern Asia,Taiwan,Kaohsiung,,Kaohsiung
1.174.109.99,4,1857,DNS Server: 1-174-109-99.dynamic-ip.hinet.net,TW,Asia,Eastern Asia,Taiwan,Kaohsiung,,Kaohsiung
1.174.115.128,4,289,DNS Server: 1-174-115-128.dynamic-ip.hinet.net,TW,Asia,Eastern Asia,Taiwan,Kaohsiung,,Kaohsiung
1.174.115.168,4,-28800518,DNS Server: 1-174-115-168.dynamic-ip.hinet.net,TW,Asia,Eastern Asia,Taiwan,Kaohsiung,,Kaohsiung
1.174.116.45,4,1747,DNS Server: 1-174-116-45.dynamic-ip.hinet.net,TW,Asia,Eastern Asia,Taiwan,Kaohsiung,,Kaohsiung
1.174.117.128,4,2275,DNS Server: 1-174-117-128.dynamic-ip.hinet.net,TW,Asia,Eastern Asia,Taiwan,Kaohsiung,,Kaohsiung
1.174.129.11,4,1664,DNS Server: 1-174-129-11.dynamic-ip.hinet.net,TW,Asia,Eastern Asia,Taiwan,Kaohsiung,,Kaohsiung
1.174.129.208,4,2228,DNS Server: 1-174-129-208.dynamic-ip.hinet.net,TW,Asia,Eastern Asia,Taiwan,Kaohsiung,,Kaohsiung
1.174.13.137,4,62,DNS Server: 1-174-13-137.dynamic-ip.hinet.net,TW,Asia,Eastern Asia,Taiwan,Taichung City,,Taichung
1.174.140.46,4,1817,DNS Server: 1-174-140-46.dynamic-ip.hinet.net,TW,Asia,Eastern Asia,Taiwan,Kaohsiung,,Kaohsiung
1.174.203.53,4,307,DNS Server: 1-174-203-53.dynamic-ip.hinet.net,TW,Asia,Eastern Asia,Taiwan,Tainan,,Tainan City
1.174.29.111,4,1793,DNS Server: 1-174-29-111.dynamic-ip.hinet.net,TW,Asia,Eastern Asia,Taiwan,Taitung,,Taitung
1.174.33.115,4,26,DNS Server: 1-174-33-115.dynamic-ip.hinet.net,TW,Asia,Eastern Asia,Taiwan,Kinmen County,,Kinmen County
1.174.33.186,4,-3809457212,DNS Server: 1-174-33-186.dynamic-ip.hinet.net,TW,Asia,Eastern Asia,Taiwan,Kinmen County,,Kinmen County
1.174.34.101,4,98,DNS Server: 1-174-34-101.dynamic-ip.hinet.net,TW,Asia,Eastern Asia,Taiwan,Kinmen County,,Kinmen County
1.174.68.13,4,-28799356,DNS Server: 1-174-68-13.dynamic-ip.hinet.net,TW,Asia,Eastern Asia,Taiwan,Kaohsiung,,Kaohsiung
1.174.69.208,4,-28803530,DNS Server: 1-174-69-208.dynamic-ip.hinet.net,TW,Asia,Eastern Asia,Taiwan,Kaohsiung,,Kaohsiung
1.174.89.8,4,-28794343,DNS Server: 1-174-89-8.dynamic-ip.hinet.net,TW,Asia,Eastern Asia,Taiwan,Kaohsiung,,Kaohsiung
1.174.92.23,4,88,DNS Server: 1-174-92-23.dynamic-ip.hinet.net,TW,Asia,Eastern Asia,Taiwan,Kaohsiung,,Kaohsiung
1.174.95.187,4,-81359,DNS Server: 1-174-95-187.dynamic-ip.hinet.net,TW,Asia,Eastern Asia,Taiwan,Kaohsiung,,Kaohsiung
1.175.11.24,4,-28,DNS Server: 1-175-11-24.dynamic-ip.hinet.net,TW,Asia,Eastern Asia,Taiwan,Chiyayi County,,Chiyayi County
1.175.113.160,4,1405,DNS Server: 1-175-113-160.dynamic-ip.hinet.net,TW,Asia,Eastern Asia,Taiwan,Kaohsiung,,Kaohsiung
1.175.149.49,4,288,DNS Server: 1-175-149-49.dynamic-ip.hinet.net,TW,Asia,Eastern Asia,Taiwan,Tainan,,Tainan City
1.175.158.210,4,2278,DNS Server: 1-175-158-210.dynamic-ip.hinet.net,TW,Asia,Eastern Asia,Taiwan,Tainan,,Tainan City
1.175.184.180,4,-8403254,DNS Server: 1-175-184-180.dynamic-ip.hinet.net,TW,Asia,Eastern Asia,Taiwan,Tainan,,Tainan City
1.175.192.61,4,574,DNS Server: 1-175-192-61.dynamic-ip.hinet.net,TW,Asia,Eastern Asia,Taiwan,Kaohsiung,,Kaohsiung
1.175.2.133,4,-30187647,DNS Server: 1-175-2-133.dynamic-ip.hinet.net,TW,Asia,Eastern Asia,Taiwan,Chiyayi County,,Chiyayi County
1.175.206.85,4,242,DNS Server: 1-175-206-85.dynamic-ip.hinet.net,TW,Asia,Eastern Asia,Taiwan,Kaohsiung,,Kaohsiung
1.175.48.208,4,215,DNS Server: 1-175-48-208.dynamic-ip.hinet.net,TW,Asia,Eastern Asia,Taiwan,Chiayi,,Chiayi City
1.175.48.215,4,-141,DNS Server: 1-175-48-215.dynamic-ip.hinet.net,TW,Asia,Eastern Asia,Taiwan,Chiayi,,Chiayi City
1.175.5.129,4,-142,DNS Server: 1-175-5-129.dynamic-ip.hinet.net,TW,Asia,Eastern Asia,Taiwan,Chiyayi County,,Chiyayi County
1.175.52.181,4,-28800023,DNS Server: 1-175-52-181.dynamic-ip.hinet.net,TW,Asia,Eastern Asia,Taiwan,Chiayi,,Chiayi City
1.175.52.61,4,-38,DNS Server: 1-175-52-61.dynamic-ip.hinet.net,TW,Asia,Eastern Asia,Taiwan,Chiayi,,Chiayi City
1.175.7.179,4,1526,DNS Server: 1-175-7-179.dynamic-ip.hinet.net,TW,Asia,Eastern Asia,Taiwan,Chiyayi County,,Chiyayi County
1.34.189.116,4,6,DNS Server: 1-34-189-116.hinet-ip.hinet.net,TW,Asia,Eastern Asia,Taiwan,Hsinchu County,,Hsinchu County
1.34.253.240,4,-4230621,DNS Server: 1-34-253-240.hinet-ip.hinet.net,TW,Asia,Eastern Asia,Taiwan,New Taipei City,,New Taipei City
1.34.29.58,4,2216,DNS Server: 1-34-29-58.hinet-ip.hinet.net,TW,Asia,Eastern Asia,Taiwan,Taoyuan,,Taoyuan District
1.34.58.188,4,-108679,DNS Server: 1-34-58-188.hinet-ip.hinet.net,TW,Asia,Eastern Asia,Taiwan,New Taipei City,,Banqiao
106.107.243.251,4,-28798957,DNS Server: 106.107.243.251.adsl.dynamic.seed.net.tw,TW,Asia,Eastern Asia,Taiwan,Taichung City,,Taichung
111.243.151.164,4,-130,DNS Server: 111-243-151-164.dynamic-ip.hinet.net,TW,Asia,Eastern Asia,Taiwan,Taoyuan,,Zhongli District
111.254.27.209,4,-28802008,DNS Server: 111-254-27-209.dynamic-ip.hinet.net,TW,Asia,Eastern Asia,Taiwan,Tainan,,Tainan City
111.255.97.111,4,2115,DNS Server: 111-255-97-111.dynamic-ip.hinet.net,TW,Asia,Eastern Asia,Taiwan,Tainan,,Tainan City
111.70.15.133,4,110,DNS Server: 111-70-15-133.emome-ip.hinet.net,TW,Asia,Eastern Asia,Taiwan,Taipei City,,Taipei
111.70.20.131,4,1395,DNS Server: 111-70-20-131.emome-ip.hinet.net,TW,Asia,Eastern Asia,Taiwan,Taichung City,,Taichung
114.27.134.49,4,2062,DNS Server: 114-27-134-49.dynamic-ip.hinet.net,TW,Asia,Eastern Asia,Taiwan,Pingtung,,Pingtung City
114.32.150.81,4,73787,DNS Server: 114-32-150-81.hinet-ip.hinet.net,TW,Asia,Eastern Asia,Taiwan,New Taipei City,,New Taipei City
114.32.195.47,4,72,DNS Server: 114-32-195-47.hinet-ip.hinet.net,TW,Asia,Eastern Asia,Taiwan,Taipei City,,Taipei
114.32.196.168,4,5,DNS Server: 114-32-196-168.hinet-ip.hinet.net,TW,Asia,Eastern Asia,Taiwan,Taipei City,,Taipei
114.32.3.60,4,6,DNS Server: 114-32-3-60.hinet-ip.hinet.net,TW,Asia,Eastern Asia,Taiwan,Taipei City,,Taipei
114.33.103.75,4,1276,DNS Server: 114-33-103-75.hinet-ip.hinet.net,TW,Asia,Eastern Asia,Taiwan,Yunlin,,Yunlin
114.33.236.233,4,-28962545,DNS Server: 114-33-236-233.hinet-ip.hinet.net,TW,Asia,Eastern Asia,Taiwan,Tainan,,East District
114.33.53.151,4,-26048008,DNS Server: 114-33-53-151.hinet-ip.hinet.net,TW,Asia,Eastern Asia,Taiwan,Taichung City,,Taichung
114.35.171.139,4,-30287035,DNS Server: 114-35-171-139.hinet-ip.hinet.net,TW,Asia,Eastern Asia,Taiwan,Hsinchu City,,Hsinchu
114.35.183.212,4,-26861855,DNS Server: 114-35-183-212.hinet-ip.hinet.net,TW,Asia,Eastern Asia,Taiwan,New Taipei City,,Xinzhuang District
114.36.2.10,4,-28801436,DNS Server: 114-36-2-10.dynamic-ip.hinet.net,TW,Asia,Eastern Asia,Taiwan,Taipei City,,Taipei
114.42.201.212,4,-6279674,DNS Server: 114-42-201-212.dynamic-ip.hinet.net,TW,Asia,Eastern Asia,Taiwan,Changhua,,Chang-hua
118.163.188.168,4,21252014,DNS Server: 118-163-188-168.hinet-ip.hinet.net,TW,Asia,Eastern Asia,Taiwan,Taichung City,,Taichung
118.163.191.231,4,20002627,DNS Server: 118-163-191-231.hinet-ip.hinet.net,TW,Asia,Eastern Asia,Taiwan,Miaoli,,Miaoli
118.163.191.7,4,9,DNS Server: 118-163-191-7.hinet-ip.hinet.net,TW,Asia,Eastern Asia,Taiwan,Miaoli,,Miaoli
118.163.207.91,4,326,DNS Server: 118-163-207-91.hinet-ip.hinet.net,TW,Asia,Eastern Asia,Taiwan,Taichung City,,Taichung
118.163.245.5,4,25152804,DNS Server: 118-163-245-5.hinet-ip.hinet.net,TW,Asia,Eastern Asia,Taiwan,Tainan,,Tainan City
118.163.72.98,4,246908,DNS Server: 118-163-72-98.hinet-ip.hinet.net,TW,Asia,Eastern Asia,Taiwan,Taipei City,,Taipei
118.163.85.184,4,28,DNS Server: 118-163-85-184.hinet-ip.hinet.net,TW,Asia,Eastern Asia,Taiwan,Taipei City,,Taipei
118.166.14.219,4,6,DNS Server: 118-166-14-219.dynamic-ip.hinet.net,TW,Asia,Eastern Asia,Taiwan,Taipei City,,Taipei
118.232.137.224,4,277,DNS Server: 118-232-137-224.dynamic.kbronet.com.tw,TW,Asia,Eastern Asia,Taiwan,Taipei City,,Taipei
122.116.198.84,4,95,DNS Server: 122-116-198-84.hinet-ip.hinet.net,TW,Asia,Eastern Asia,Taiwan,Taoyuan,,Taoyuan District
122.117.143.113,4,106,DNS Server: 122-117-143-113.hinet-ip.hinet.net,TW,Asia,Eastern Asia,Taiwan,Kaohsiung,,Kaohsiung
122.117.151.111,4,7,DNS Server: 122-117-151-111.hinet-ip.hinet.net,TW,Asia,Eastern Asia,Taiwan,Kaohsiung,,Kaohsiung
123.110.129.114,4,-28807659,DNS Server: 123-110-129-114.best.dynamic.tbcnet.net.tw,TW,Asia,Eastern Asia,Taiwan,Hsinchu County,,Zhubei
123.205.156.16,4,16,DNS Server: 123-205-156-16.adsl.dynamic.seed.net.tw,TW,Asia,Eastern Asia,Taiwan,Tainan,,Tainan City
123.241.252.251,4,11,DNS Server: 123-241-252-251.cctv.dynamic.tbcnet.net.tw,TW,Asia,Eastern Asia,Taiwan,Taichung City,,Taichung
125.227.208.223,4,-68,DNS Server: 125-227-208-223.hinet-ip.hinet.net,TW,Asia,Eastern Asia,Taiwan,Taoyuan,,Taoyuan District
125.227.235.49,4,4,DNS Server: 125-227-235-49.hinet-ip.hinet.net,TW,Asia,Eastern Asia,Taiwan,Kaohsiung,,Kaohsiung
125.227.35.90,4,92,DNS Server: 125-227-35-90.hinet-ip.hinet.net,TW,Asia,Eastern Asia,Taiwan,New Taipei City,,New Taipei City
125.227.38.20,4,-8,DNS Server: 125-227-38-20.hinet-ip.hinet.net,TW,Asia,Eastern Asia,Taiwan,Taipei City,,Taipei
125.227.77.87,4,114535,DNS Server: 125-227-77-87.hinet-ip.hinet.net,TW,Asia,Eastern Asia,Taiwan,Taichung City,,Taichung
125.227.89.44,4,-171,DNS Server: 125-227-89-44.hinet-ip.hinet.net,TW,Asia,Eastern Asia,Taiwan,Taichung City,,Taichung
125.228.116.54,4,0,DNS Server: 125-228-116-54.hinet-ip.hinet.net,TW,Asia,Eastern Asia,Taiwan,Taipei City,,Taipei
125.228.169.101,4,-13,DNS Server: 125-228-169-101.hinet-ip.hinet.net,TW,Asia,Eastern Asia,Taiwan,New Taipei City,,Sanchong District
125.228.85.217,4,27478,DNS Server: 125-228-85-217.hinet-ip.hinet.net,TW,Asia,Eastern Asia,Taiwan,New Taipei City,,New Taipei City
125.229.152.3,4,22,DNS Server: 125-229-152-3.hinet-ip.hinet.net,TW,Asia,Eastern Asia,Taiwan,Taipei City,,Taipei
125.229.180.81,4,-53337,DNS Server: 125-229-180-81.hinet-ip.hinet.net,TW,Asia,Eastern Asia,Taiwan,Taoyuan,,Zhongli District
125.229.181.204,4,-72251,DNS Server: 125-229-181-204.hinet-ip.hinet.net,TW,Asia,Eastern Asia,Taiwan,Taoyuan,,Zhongli District
125.230.144.214,4,1896,DNS Server: 125-230-144-214.dynamic-ip.hinet.net,TW,Asia,Eastern Asia,Taiwan,Taichung City,,Taichung
61.63.230.129,4,151,DNS Server: 129-230.63.61-savecom,TW,Asia,Eastern Asia,Taiwan,Taichung City,,Taichung
175.98.134.195,4,27,DNS Server: 175-98-134-195.static.tfn.net.tw,TW,Asia,Eastern Asia,Taiwan,Taipei City,,Taipei
202.39.212.253,4,46,DNS Server: 202-39-212-253.hinet-ip.hinet.net,TW,Asia,Eastern Asia,Taiwan,Taichung City,,Taichung
203.145.214.77,4,90,DNS Server: 203-145-214-77.twcc.ai,TW,Asia,Eastern Asia,Taiwan,Taipei City,,Taipei
203.69.232.60,4,-8741442,DNS Server: 203-69-232-60.hinet-ip.hinet.net,TW,Asia,Eastern Asia,Taiwan,Kaohsiung,,Kaohsiung
210.61.97.241,4,97,DNS Server: 210-61-97-241.hinet-ip.hinet.net,TW,Asia,Eastern Asia,Taiwan,Taoyuan,,Yangmei District
211.22.209.2,4,4,DNS Server: 211-22-209-2.hinet-ip.hinet.net,TW,Asia,Eastern Asia,Taiwan,Kaohsiung,,Zuoying
211.22.72.62,4,9045161,DNS Server: 211-22-72-62.hinet-ip.hinet.net,TW,Asia,Eastern Asia,Taiwan,Taipei City,,Taipei
211.23.246.116,4,15,DNS Server: 211-23-246-116.hinet-ip.hinet.net,TW,Asia,Eastern Asia,Taiwan,Tainan,,Tainan City
211.23.45.157,4,-1704497,DNS Server: 211-23-45-157.hinet-ip.hinet.net,TW,Asia,Eastern Asia,Taiwan,Taipei City,,Taipei
211.23.95.73,4,32,DNS Server: 211-23-95-73.hinet-ip.hinet.net,TW,Asia,Eastern Asia,Taiwan,Hsinchu City,,Hsinchu
211.72.173.25,4,69,DNS Server: 211-72-173-25.hinet-ip.hinet.net,TW,Asia,Eastern Asia,Taiwan,New Taipei City,,New Taipei City
211.72.22.210,4,47,DNS Server: 211-72-22-210.hinet-ip.hinet.net,TW,Asia,Eastern Asia,Taiwan,New Taipei City,,Sanchong District
211.72.95.74,4,133,DNS Server: 211-72-95-74.hinet-ip.hinet.net,TW,Asia,Eastern Asia,Taiwan,Taitung,,Taitung
211.72.99.88,4,5,DNS Server: 211-72-99-88.hinet-ip.hinet.net,TW,Asia,Eastern Asia,Taiwan,Kaohsiung,,Kaohsiung
211.75.15.177,4,-168,DNS Server: 211-75-15-177.hinet-ip.hinet.net,TW,Asia,Eastern Asia,Taiwan,Taipei City,,Taipei
218.161.101.130,4,128,DNS Server: 218-161-101-130.hinet-ip.hinet.net,TW,Asia,Eastern Asia,Taiwan,Kaohsiung,,Kaohsiung
218.161.118.51,4,-28799145,DNS Server: 218-161-118-51.hinet-ip.hinet.net,TW,Asia,Eastern Asia,Taiwan,Kaohsiung,,Zuoying
218.161.68.137,4,17399,DNS Server: 218-161-68-137.hinet-ip.hinet.net,TW,Asia,Eastern Asia,Taiwan,Hsinchu County,,Hsinchu County
220.130.130.141,4,40736,DNS Server: 220-130-130-141.hinet-ip.hinet.net,TW,Asia,Eastern Asia,Taiwan,Taipei City,,Taipei
220.130.175.12,4,-8,DNS Server: 220-130-175-12.hinet-ip.hinet.net,TW,Asia,Eastern Asia,Taiwan,Taipei City,,Taipei
220.130.184.237,4,16162892,DNS Server: 220-130-184-237.hinet-ip.hinet.net,TW,Asia,Eastern Asia,Taiwan,Taipei City,,Taipei
220.132.15.103,4,1132,DNS Server: 220-132-15-103.hinet-ip.hinet.net,TW,Asia,Eastern Asia,Taiwan,Taipei City,,Taipei
220.132.88.194,4,2,DNS Server: 220-132-88-194.hinet-ip.hinet.net,TW,Asia,Eastern Asia,Taiwan,Hsinchu City,,Hsinchu
220.133.135.95,4,171688,DNS Server: 220-133-135-95.hinet-ip.hinet.net,TW,Asia,Eastern Asia,Taiwan,Hsinchu City,,Hsinchu
220.133.247.128,4,-50997,DNS Server: 220-133-247-128.hinet-ip.hinet.net,TW,Asia,Eastern Asia,Taiwan,Tainan,,Tainan City
220.134.162.104,4,-128897,DNS Server: 220-134-162-104.hinet-ip.hinet.net,TW,Asia,Eastern Asia,Taiwan,Kaohsiung,,Kaohsiung
220.134.170.52,4,7,DNS Server: 220-134-170-52.hinet-ip.hinet.net,TW,Asia,Eastern Asia,Taiwan,Chiyayi County,,Chiyayi County
220.134.34.30,4,-1033,DNS Server: 220-134-34-30.hinet-ip.hinet.net,TW,Asia,Eastern Asia,Taiwan,Taichung City,,Taichung
220.135.105.31,4,9,DNS Server: 220-135-105-31.hinet-ip.hinet.net,TW,Asia,Eastern Asia,Taiwan,Taipei City,,Taipei
220.135.185.74,4,176115,DNS Server: 220-135-185-74.hinet-ip.hinet.net,TW,Asia,Eastern Asia,Taiwan,New Taipei City,,New Taipei City
220.135.22.145,4,-28800137,DNS Server: 220-135-22-145.hinet-ip.hinet.net,TW,Asia,Eastern Asia,Taiwan,New Taipei City,,New Taipei City
220.135.28.237,4,7,DNS Server: 220-135-28-237.hinet-ip.hinet.net,TW,Asia,Eastern Asia,Taiwan,New Taipei City,,New Taipei City
220.135.45.76,4,1357,DNS Server: 220-135-45-76.hinet-ip.hinet.net,TW,Asia,Eastern Asia,Taiwan,Taipei City,,Daan
220.143.111.7,4,-2905412335,DNS Server: 220-143-111-7.dynamic-ip.hinet.net,TW,Asia,Eastern Asia,Taiwan,Taitung,,Taitung
223.26.73.222,4,17,DNS Server: 222-73-26-223-static.chief.net.tw,TW,Asia,Eastern Asia,Taiwan,,,
36.230.103.219,4,1989,DNS Server: 36-230-103-219.dynamic-ip.hinet.net,TW,Asia,Eastern Asia,Taiwan,Taipei City,,Taipei
36.233.184.183,4,-28801369,DNS Server: 36-233-184-183.dynamic-ip.hinet.net,TW,Asia,Eastern Asia,Taiwan,Nantou,,Nantou City
36.235.11.172,4,-2748166271,DNS Server: 36-235-11-172.dynamic-ip.hinet.net,TW,Asia,Eastern Asia,Taiwan,Taichung City,,Taichung
36.236.167.193,4,7,DNS Server: 36-236-167-193.dynamic-ip.hinet.net,TW,Asia,Eastern Asia,Taiwan,Kaohsiung,,Kaohsiung
59.120.116.235,4,-28799724,DNS Server: 59-120-116-235.hinet-ip.hinet.net,TW,Asia,Eastern Asia,Taiwan,Kaohsiung,,Kaohsiung
59.124.231.152,4,24318,DNS Server: 59-124-231-152.hinet-ip.hinet.net,TW,Asia,Eastern Asia,Taiwan,New Taipei City,,Xizhi District
59.125.119.204,4,3874,DNS Server: 59-125-119-204.hinet-ip.hinet.net,TW,Asia,Eastern Asia,Taiwan,Taipei City,,Taipei
59.125.155.62,4,31589930,DNS Server: 59-125-155-62.hinet-ip.hinet.net,TW,Asia,Eastern Asia,Taiwan,Kaohsiung,,Kaohsiung
59.125.83.54,4,31207055,DNS Server: 59-125-83-54.hinet-ip.hinet.net,TW,Asia,Eastern Asia,Taiwan,Miaoli,,Miaoli
59.126.68.42,4,-886,DNS Server: 59-126-68-42.hinet-ip.hinet.net,TW,Asia,Eastern Asia,Taiwan,Taichung City,,Taichung
59.127.173.45,4,37,DNS Server: 59-127-173-45.hinet-ip.hinet.net,TW,Asia,Eastern Asia,Taiwan,Kaohsiung,,Kaohsiung
59.127.38.136,4,12,DNS Server: 59-127-38-136.hinet-ip.hinet.net,TW,Asia,Eastern Asia,Taiwan,New Taipei City,,New Taipei City
59.127.40.140,4,-2324,DNS Server: 59-127-40-140.hinet-ip.hinet.net,TW,Asia,Eastern Asia,Taiwan,Chiayi,,Chiayi City
59.127.80.104,4,2,DNS Server: 59-127-80-104.hinet-ip.hinet.net,TW,Asia,Eastern Asia,Taiwan,Taipei City,,Taipei
60.248.238.241,4,61,DNS Server: 60-248-238-241.hinet-ip.hinet.net,TW,Asia,Eastern Asia,Taiwan,Miaoli,,Miaoli
60.249.145.122,4,3,DNS Server: 60-249-145-122.hinet-ip.hinet.net,TW,Asia,Eastern Asia,Taiwan,Kaohsiung,,Kaohsiung
60.249.216.49,4,-13160,DNS Server: 60-249-216-49.hinet-ip.hinet.net,TW,Asia,Eastern Asia,Taiwan,Tainan,,Yongkang District
60.250.215.250,4,-197,DNS Server: 60-250-215-250.hinet-ip.hinet.net,TW,Asia,Eastern Asia,Taiwan,Yilan County,,Yilan
60.250.216.116,4,17,DNS Server: 60-250-216-116.hinet-ip.hinet.net,TW,Asia,Eastern Asia,Taiwan,Yilan County,,Yilan
60.250.84.108,4,-1454690,DNS Server: 60-250-84-108.hinet-ip.hinet.net,TW,Asia,Eastern Asia,Taiwan,Taipei City,,Taipei
60.251.102.36,4,22,DNS Server: 60-251-102-36.hinet-ip.hinet.net,TW,Asia,Eastern Asia,Taiwan,Taoyuan,,Taoyuan District
61.221.125.100,4,11,DNS Server: 61-221-125-100.hinet-ip.hinet.net,TW,Asia,Eastern Asia,Taiwan,Taichung City,,Taichung
61.221.28.31,4,54,DNS Server: 61-221-28-31.hinet-ip.hinet.net,TW,Asia,Eastern Asia,Taiwan,Yunlin,,Yunlin
61.222.79.20,4,85,DNS Server: 61-222-79-20.hinet-ip.hinet.net,TW,Asia,Eastern Asia,Taiwan,Hsinchu County,,Hsinchu County
61.224.92.124,4,385,DNS Server: 61-224-92-124.dynamic-ip.hinet.net,TW,Asia,Eastern Asia,Taiwan,Changhua,,Chang-hua
61.228.65.185,4,-28802045,DNS Server: 61-228-65-185.dynamic-ip.hinet.net,TW,Asia,Eastern Asia,Taiwan,Taipei City,,Taipei
61.63.125.180,4,-28798202,DNS Server: 61-63-125-180.nty.dynamic.tbcnet.net.tw,TW,Asia,Eastern Asia,Taiwan,Taoyuan,,Zhongli District
163.22.188.3,4,2866213,DNS Server: dns.iktcds.edu.tw,TW,Asia,Eastern Asia,Taiwan,Chiayi,,Chiayi City
61.221.126.186,4,27643023,DNS Server: dns.mactech.com.tw,TW,Asia,Eastern Asia,Taiwan,Taichung City,,Taichung
60.250.43.173,4,6,DNS Server: dns.ucheer.com.tw,TW,Asia,Eastern Asia,Taiwan,Taipei City,,Taipei
59.125.124.83,4,-2500996974,DNS Server: dns1.grca.com.tw,TW,Asia,Eastern Asia,Taiwan,Taipei City,,Taipei
220.130.144.200,4,-89808,DNS Server: dns3.kingstate.com.tw,TW,Asia,Eastern Asia,Taiwan,New Taipei City,,New Taipei City
218.32.150.199,4,129788,DNS Server: dynamic.sdtv.net.tw,TW,Asia,Eastern Asia,Taiwan,Taichung City,,Taichung
118.163.119.20,4,-276786,DNS Server: fdp.com.tw,TW,Asia,Eastern Asia,Taiwan,Taipei City,,Taipei
203.73.19.176,4,-3528074161,DNS Server: h176-203-73-19.seed.net.tw,TW,Asia,Eastern Asia,Taiwan,New Taipei City,,New Taipei City
58.114.160.7,4,9507,DNS Server: host-58-114-160-7.dynamic.kbtelecom.net,TW,Asia,Eastern Asia,Taiwan,Tainan,,Tainan City
60.250.51.167,4,365,DNS Server: mail.fastrong.com.tw,TW,Asia,Eastern Asia,Taiwan,Taoyuan,,Pingzhen
118.163.92.56,4,87,DNS Server: npomx.naipo.com.tw,TW,Asia,Eastern Asia,Taiwan,Taipei City,,Taipei
103.222.251.50,4,35,dreye.com.cn,TW,Asia,Eastern Asia,Taiwan,,,
122.117.41.80,4,7,duckart.pro,TW,Asia,Eastern Asia,Taiwan,Kaohsiung,,Kaohsiung
103.116.15.88,4,2,dx.com.tw,TW,Asia,Eastern Asia,Taiwan,,,
219.84.168.188,4,612,eprice.com.hk,TW,Asia,Eastern Asia,Taiwan,Taichung City,,Taichung
219.84.168.168,4,595,eprice.com.tw,TW,Asia,Eastern Asia,Taiwan,Taichung City,,Taichung
203.69.238.170,4,4,eternity.com.tw,TW,Asia,Eastern Asia,Taiwan,New Taipei City,,New Taipei City
210.242.49.19,4,9,f-2.com.tw,TW,Asia,Eastern Asia,Taiwan,New Taipei City,,New Taipei City
60.251.60.22,4,7,farmsbiotech.com,TW,Asia,Eastern Asia,Taiwan,Taipei City,,Taipei
203.64.237.7,4,16,feu.edu.tw,TW,Asia,Eastern Asia,Taiwan,Taipei City,,Taipei
103.118.24.35,4,125,fftc.org.tw,TW,Asia,Eastern Asia,Taiwan,,,
220.135.0.149,4,101303,fingermedia.tw,TW,Asia,Eastern Asia,Taiwan,New Taipei City,,New Taipei City
61.221.35.28,4,4,fl-ad.com,TW,Asia,Eastern Asia,Taiwan,New Taipei City,,New Taipei City
107.167.182.246,4,2,forbeautylove.com,TW,Asia,Eastern Asia,Taiwan,Taipei City,,Taipei
59.120.254.212,4,-1232,foxpro.com.tw,TW,Asia,Eastern Asia,Taiwan,Kaohsiung,,Kaohsiung
103.129.178.72,4,0,fswl.com.hk,TW,Asia,Eastern Asia,Taiwan,,,
122.146.41.161,4,3,gainward.com,TW,Asia,Eastern Asia,Taiwan,Taipei City,,Taipei
61.222.15.159,4,228,gamania.com,TW,Asia,Eastern Asia,Taiwan,Taipei City,,Taipei
34.80.246.181,4,10,gamebase.com.tw,TW,Asia,Eastern Asia,Taiwan,Taipei City,,Taipei
103.138.106.47,4,39,gb-co.com.tw,TW,Asia,Eastern Asia,Taiwan,,,
203.69.102.15,4,30,giottos.com,TW,Asia,Eastern Asia,Taiwan,Taipei City,,Taipei
210.242.25.172,4,13532,goodtv.tv,TW,Asia,Eastern Asia,Taiwan,New Taipei City,,New Taipei City
35.234.39.85,4,4,greenpeace.org.cn,TW,Asia,Eastern Asia,Taiwan,Taipei City,,Taipei
104.199.236.4,4,59,groupbuyforms.tw,TW,Asia,Eastern Asia,Taiwan,Taipei City,,Taipei
118.194.253.217,4,1,gsoc.cn,TW,Asia,Eastern Asia,Taiwan,Taipei City,,Taipei
130.211.253.109,4,1,gwangju2015.com,TW,Asia,Eastern Asia,Taiwan,Taipei City,,Taipei
118.150.164.96,4,-576561728,hamtalk.net,TW,Asia,Eastern Asia,Taiwan,New Taipei City,,New Taipei City
210.17.16.248,4,508,hemidemi.com,TW,Asia,Eastern Asia,Taiwan,,,
103.136.211.216,4,19,ho.net.tw,TW,Asia,Eastern Asia,Taiwan,,,
35.234.58.5,4,3,hockeycurve.com,TW,Asia,Eastern Asia,Taiwan,Taipei City,,Taipei
118.163.63.158,4,263,hsihou.com,TW,Asia,Eastern Asia,Taiwan,New Taipei City,,New Taipei City
219.87.145.180,4,0,ibase.com.tw,TW,Asia,Eastern Asia,Taiwan,Hsinchu City,,Hsinchu
192.83.191.8,4,796,isu.edu.tw,TW,Asia,Eastern Asia,Taiwan,,,
211.75.158.225,4,-2,iware.com.tw,TW,Asia,Eastern Asia,Taiwan,Taipei City,,Taipei
211.72.198.2,4,152134,jiye.com.tw,TW,Asia,Eastern Asia,Taiwan,Hsinchu County,,Zhubei
175.183.3.134,4,26,jofu.tw,TW,Asia,Eastern Asia,Taiwan,Taichung City,,Taichung
59.120.131.6,4,3,joyso.cloud,TW,Asia,Eastern Asia,Taiwan,New Taipei City,,Banqiao
103.153.177.40,4,5,kocpc.com.tw,TW,Asia,Eastern Asia,Taiwan,,,
203.69.102.20,4,1,kotsms.com.tw,TW,Asia,Eastern Asia,Taiwan,Taipei City,,Taipei
103.118.26.55,4,2,kuangta.com.tw,TW,Asia,Eastern Asia,Taiwan,,,
103.118.26.53,4,5,kuos.com,TW,Asia,Eastern Asia,Taiwan,,,
34.81.152.152,4,3,lia-roc.org.tw,TW,Asia,Eastern Asia,Taiwan,Taipei City,,Taipei
140.114.89.237,4,7,linggle.com,TW,Asia,Eastern Asia,Taiwan,Hsinchu City,,Hsinchu
60.249.179.122,4,2,lionfree.net,TW,Asia,Eastern Asia,Taiwan,Kaohsiung,,Kaohsiung
35.185.141.245,4,2,liskul.com,TW,Asia,Eastern Asia,Taiwan,Taipei City,,Taipei
203.69.102.145,4,6442,lius.com.tw,TW,Asia,Eastern Asia,Taiwan,Taipei City,,Taipei
104.199.205.140,4,5,localplace.jp,TW,Asia,Eastern Asia,Taiwan,Taipei City,,Taipei
175.181.38.134,4,7,longwin.com.tw,TW,Asia,Eastern Asia,Taiwan,Taipei City,,Taipei
114.32.146.202,4,-1994420425,manyhit.com,TW,Asia,Eastern Asia,Taiwan,New Taipei City,,New Taipei City
104.155.219.139,4,2,mashup.com.tw,TW,Asia,Eastern Asia,Taiwan,Taipei City,,Taipei
103.129.178.130,4,-3,meiman.org.tw,TW,Asia,Eastern Asia,Taiwan,,,
211.72.215.60,4,-6821,meritlilin.com,TW,Asia,Eastern Asia,Taiwan,Taichung City,,Taichung
125.228.212.38,4,29,microsys.com.tw,TW,Asia,Eastern Asia,Taiwan,Taoyuan,,Taoyuan District
128.1.131.95,4,8,mioglobal.com,TW,Asia,Eastern Asia,Taiwan,,,
113.196.154.168,4,6,mitac.com,TW,Asia,Eastern Asia,Taiwan,,,
45.121.50.90,4,-6,mobileaction.com,TW,Asia,Eastern Asia,Taiwan,,,
35.194.215.179,4,-42692338,mofang.com.tw,TW,Asia,Eastern Asia,Taiwan,Taipei City,,Taipei
35.201.142.96,4,6,moneynet.com.tw,TW,Asia,Eastern Asia,Taiwan,Taipei City,,Taipei
163.22.17.50,4,-3,moztw.org,TW,Asia,Eastern Asia,Taiwan,,,
113.196.137.217,4,9,navman.com,TW,Asia,Eastern Asia,Taiwan,,,
103.17.8.51,4,8,netete.com,TW,Asia,Eastern Asia,Taiwan,,,
104.199.165.123,4,23,neti.cc,TW,Asia,Eastern Asia,Taiwan,Taipei City,,Taipei
104.199.204.72,4,2,neticrm.tw,TW,Asia,Eastern Asia,Taiwan,Taipei City,,Taipei
203.69.141.26,4,3,nextmag.com.tw,TW,Asia,Eastern Asia,Taiwan,Taoyuan,,Taoyuan District
59.124.223.222,4,-153070,nj192.com.tw,TW,Asia,Eastern Asia,Taiwan,Hsinchu City,,Hsinchu
192.83.188.10,4,27,nmns.edu.tw,TW,Asia,Eastern Asia,Taiwan,,,
220.130.87.30,4,-2,norbelbaby.com.tw,TW,Asia,Eastern Asia,Taiwan,Tainan,,Tainan City
210.70.253.15,4,394,npu.edu.tw,TW,Asia,Eastern Asia,Taiwan,Taipei City,,Taipei
140.118.31.99,4,67,ntust.edu.tw,TW,Asia,Eastern Asia,Taiwan,Keelung City,,Keelung
111.71.228.33,4,106288,Ookla Speedtest Server 18452: ty1.chtm.hinet.net,TW,Asia,Eastern Asia,Taiwan,,,
111.71.230.33,4,207,Ookla Speedtest Server 18458: kh1.chtm.hinet.net,TW,Asia,Eastern Asia,Taiwan,,,
111.71.230.41,4,74,Ookla Speedtest Server 18607: tn1.chtm.hinet.net,TW,Asia,Eastern Asia,Taiwan,,,
111.71.229.41,4,110,Ookla Speedtest Server 18611: ch1.chtm.hinet.net,TW,Asia,Eastern Asia,Taiwan,,,
115.43.115.15,4,6900040,Ookla Speedtest Server 24429: tp-speedtest.homeplus.net.tw,TW,Asia,Eastern Asia,Taiwan,Taipei City,,Taipei
123.205.190.221,4,24592,Ookla Speedtest Server 36122: speedtestookla.hya.tw,TW,Asia,Eastern Asia,Taiwan,Tainan,,Tainan City
103.147.22.134,4,271,Ookla Speedtest Server 44603: speedtest.twds.com.tw,TW,Asia,Eastern Asia,Taiwan,New Taipei City,,New Taipei City
60.199.147.49,4,203,Ookla Speedtest Server 55674: sptkh1.taiwanmobile.com,TW,Asia,Eastern Asia,Taiwan,,,
203.105.239.22,4,282,Ookla Speedtest Server 56277: sptdl2.taiwanmobile.com,TW,Asia,Eastern Asia,Taiwan,,,
118.232.76.110,4,308,Ookla Speedtest Server: fm-sptest.kbro.com.tw,TW,Asia,Eastern Asia,Taiwan,,,
118.232.78.110,4,286,Ookla Speedtest Server: ks-sptest.kbro.com.tw,TW,Asia,Eastern Asia,Taiwan,,,
210.69.123.228,4,26,otop.tw,TW,Asia,Eastern Asia,Taiwan,New Taipei City,,Banqiao
103.118.26.7,4,6,ownlines.com,TW,Asia,Eastern Asia,Taiwan,,,
223.27.52.19,4,19,paper88.com.tw,TW,Asia,Eastern Asia,Taiwan,,,
60.250.107.110,4,28,patriotmemory.com,TW,Asia,Eastern Asia,Taiwan,Lienchiang County,,Changtanwo
140.137.1.17,4,195987,pccu.edu.tw,TW,Asia,Eastern Asia,Taiwan,,,
104.199.215.112,4,14,phuket.net,TW,Asia,Eastern Asia,Taiwan,Taipei City,,Taipei
103.118.26.99,4,36,piejade.com,TW,Asia,Eastern Asia,Taiwan,,,
59.120.118.168,4,12,ppt.cc,TW,Asia,Eastern Asia,Taiwan,Kaohsiung,,Kaohsiung
140.112.172.5,4,45,ptt.cc,TW,Asia,Eastern Asia,Taiwan,Hualien County,,Wenshan
140.112.172.1,4,12,ptt.cc,TW,Asia,Eastern Asia,Taiwan,Hualien County,,Wenshan
140.112.172.3,4,16,ptt.cc,TW,Asia,Eastern Asia,Taiwan,Hualien County,,Wenshan
140.112.172.11,4,40,ptt.cc,TW,Asia,Eastern Asia,Taiwan,Hualien County,,Wenshan
140.112.172.4,4,39,ptt.cc,TW,Asia,Eastern Asia,Taiwan,Hualien County,,Wenshan
140.112.172.2,4,11,ptt.cc,TW,Asia,Eastern Asia,Taiwan,Hualien County,,Wenshan
104.199.128.210,4,9,ramayanawaterpark.com,TW,Asia,Eastern Asia,Taiwan,Taipei City,,Taipei
35.185.130.121,4,41,reurl.cc,TW,Asia,Eastern Asia,Taiwan,Taipei City,,Taipei
203.69.138.232,4,4,richtek.com,TW,Asia,Eastern Asia,Taiwan,Taoyuan,,Taoyuan District
203.69.138.233,4,35,richtek.com,TW,Asia,Eastern Asia,Taiwan,Taoyuan,,Taoyuan District
35.221.195.135,4,5,salvationarmy.org.hk,TW,Asia,Eastern Asia,Taiwan,Taipei City,,Taipei
210.59.219.77,4,5,scupio.com,TW,Asia,Eastern Asia,Taiwan,New Taipei City,,Sanchong District
203.69.82.103,4,7,seed.net.tw,TW,Asia,Eastern Asia,Taiwan,New Taipei City,,New Taipei City
103.129.178.20,4,-3,shinko-tw.com,TW,Asia,Eastern Asia,Taiwan,,,
112.121.100.100,4,38,shopunt.com,TW,Asia,Eastern Asia,Taiwan,,,
211.20.50.36,4,47,soe-parrot.com,TW,Asia,Eastern Asia,Taiwan,Taipei City,,Taipei
43.254.19.58,4,7,steachs.com,TW,Asia,Eastern Asia,Taiwan,,,
163.16.5.180,4,29,study-area.org,TW,Asia,Eastern Asia,Taiwan,Kaohsiung,,Kaohsiung
103.1.221.109,4,1485,sunpingcctv.com,TW,Asia,Eastern Asia,Taiwan,,,
113.196.136.168,4,32140,sunplus.com,TW,Asia,Eastern Asia,Taiwan,,,
35.221.158.12,4,6,superbowlcommercials.tv,TW,Asia,Eastern Asia,Taiwan,Taipei City,,Taipei
34.80.73.97,4,6,taishinart.org.tw,TW,Asia,Eastern Asia,Taiwan,Taipei City,,Taipei
101.101.101.101,4,5,Taiwan Network Information Center 1,TW,Asia,Eastern Asia,Taiwan,,,
35.185.142.145,4,5,taiwan-healthcare.org,TW,Asia,Eastern Asia,Taiwan,Taipei City,,Taipei
114.34.39.114,4,24,taiwanschoolnet.org,TW,Asia,Eastern Asia,Taiwan,Hsinchu County,,Zhubei
104.199.225.102,4,4,taiwantimes.com.tw,TW,Asia,Eastern Asia,Taiwan,Taipei City,,Taipei
125.228.135.114,4,295,talk.tw,TW,Asia,Eastern Asia,Taiwan,Taichung City,,Taichung
59.125.33.123,4,3,tattpe.org.tw,TW,Asia,Eastern Asia,Taiwan,Taichung City,,Taichung
203.69.82.11,4,4,tbnet.org.tw,TW,Asia,Eastern Asia,Taiwan,New Taipei City,,New Taipei City
61.218.129.139,4,11,tcbbank.com.tw,TW,Asia,Eastern Asia,Taiwan,Taipei City,,Taipei
61.66.121.235,4,10,tcbbank.com.tw,TW,Asia,Eastern Asia,Taiwan,,,
60.248.81.189,4,-1411,terasic.com.tw,TW,Asia,Eastern Asia,Taiwan,Taipei City,,Taipei
104.199.212.185,4,6,thegrounds.com.au,TW,Asia,Eastern Asia,Taiwan,Taipei City,,Taipei
59.124.185.58,4,11,theonestyle.com,TW,Asia,Eastern Asia,Taiwan,Taoyuan,,Zhongli District
211.21.23.49,4,146,tmst.com.tw,TW,Asia,Eastern Asia,Taiwan,Taipei City,,Taipei
60.249.45.229,4,7,tou-ming.com,TW,Asia,Eastern Asia,Taiwan,Taichung City,,Taichung
103.118.26.245,4,6,tpof.org,TW,Asia,Eastern Asia,Taiwan,,,
220.128.205.242,4,10,transcend-info.com,TW,Asia,Eastern Asia,Taiwan,Taipei City,,Taipei
59.125.33.57,4,5,trolley-store.com.tw,TW,Asia,Eastern Asia,Taiwan,Taichung City,,Taichung
34.80.36.145,4,16,twmotel.com,TW,Asia,Eastern Asia,Taiwan,Taipei City,,Taipei
113.196.154.133,4,8,tyan.com,TW,Asia,Eastern Asia,Taiwan,,,
59.125.103.205,4,-36284950,uforadio.com.tw,TW,Asia,Eastern Asia,Taiwan,Taipei City,,Taipei
122.117.102.125,4,6,uio.com.tw,TW,Asia,Eastern Asia,Taiwan,Changhua,,Chang-hua
35.229.134.237,4,6,unbox.tw,TW,Asia,Eastern Asia,Taiwan,Taipei City,,Taipei
61.219.98.250,4,149854,unisonic.com.tw,TW,Asia,Eastern Asia,Taiwan,Taipei City,,Taipei
104.155.238.199,4,9,unisonic.com.tw,TW,Asia,Eastern Asia,Taiwan,Taipei City,,Taipei
34.80.38.188,4,4,uukt.com.tw,TW,Asia,Eastern Asia,Taiwan,Taipei City,,Taipei
104.199.204.141,4,8,vegas338.com.in,TW,Asia,Eastern Asia,Taiwan,Taipei City,,Taipei
34.80.170.74,4,3,vigattintourism.com,TW,Asia,Eastern Asia,Taiwan,Taipei City,,Taipei
34.80.64.223,4,3,vuclip.com,TW,Asia,Eastern Asia,Taiwan,Taipei City,,Taipei
211.21.137.6,4,198,waibel.com.tw,TW,Asia,Eastern Asia,Taiwan,New Taipei City,,New Taipei City
59.125.176.83,4,3,wanyuantemple.tw,TW,Asia,Eastern Asia,Taiwan,Taoyuan,,Taoyuan District
125.227.135.211,4,1995162,watts-studio.com,TW,Asia,Eastern Asia,Taiwan,Taipei City,,Taipei
103.138.106.62,4,19,why3s.cc,TW,Asia,Eastern Asia,Taiwan,,,
60.245.34.225,4,227,winhill.com.tw,TW,Asia,Eastern Asia,Taiwan,Hualien County,,Jian
104.199.239.202,4,0,wuwuji.tw,TW,Asia,Eastern Asia,Taiwan,Taipei City,,Taipei
35.229.163.10,4,3,xm-studios.com,TW,Asia,Eastern Asia,Taiwan,Taipei City,,Taipei
103.129.176.146,4,2897,yachiyo.com.tw,TW,Asia,Eastern Asia,Taiwan,,,
125.227.94.21,4,2,ysponder.com.tw,TW,Asia,Eastern Asia,Taiwan,Taichung City,,Taichung
103.129.178.67,4,3,yu-kuang.com.tw,TW,Asia,Eastern Asia,Taiwan,,,
154.55.64.52,4,1,yxfrx.com,TW,Asia,Eastern Asia,Taiwan,,,
