reflector_ip,ip_version,offset,description,country_code,region,sub_region,country_name,sub_division_1,sub_division_2,city
194.195.251.41,4,3,11inchpizza.com.au,AU,Oceania,Australia and New Zealand,Australia,New South Wales,,Sydney
43.250.142.135,4,-8,2aussietravellers.com,AU,Oceania,Australia and New Zealand,Australia,New South Wales,,Sydney
116.90.59.38,4,12,2fiftycc.com,AU,Oceania,Australia and New Zealand,Australia,,,
180.150.42.13,4,10,3ivx.com,AU,Oceania,Australia and New Zealand,Australia,Victoria,,Melbourne
103.146.112.100,4,6,4x4earth.com,AU,Oceania,Australia and New Zealand,Australia,,,
185.121.169.26,4,9,727895.com,NZ,Oceania,Australia and New Zealand,New Zealand,Auckland,,Auckland
82.97.240.157,4,-18,9310802.ru,AU,Oceania,Australia and New Zealand,Australia,,,
130.216.72.44,4,9,95bfm.com,NZ,Oceania,Australia and New Zealand,New Zealand,Auckland,,Auckland
103.73.64.3,4,184,aacm.edu.au,AU,Oceania,Australia and New Zealand,Australia,New South Wales,,Sydney
112.213.37.154,4,135,abmission.org,AU,Oceania,Australia and New Zealand,Australia,New South Wales,,Sydney
45.79.118.8,4,-6,abstractspoon.com,AU,Oceania,Australia and New Zealand,Australia,New South Wales,,Sydney
43.250.142.14,4,-12,academia21.com,AU,Oceania,Australia and New Zealand,Australia,New South Wales,,Sydney
103.42.111.202,4,-7,accan.org.au,AU,Oceania,Australia and New Zealand,Australia,Victoria,,Melbourne
221.121.145.90,4,2806,accomnews.com.au,AU,Oceania,Australia and New Zealand,Australia,New South Wales,,Sydney
103.1.184.54,4,-1,accorplus.com,AU,Oceania,Australia and New Zealand,Australia,New South Wales,,Sydney
101.0.107.30,4,16,acf.asn.au,AU,Oceania,Australia and New Zealand,Australia,New South Wales,,Sydney
182.160.155.229,4,11,acn.edu.au,AU,Oceania,Australia and New Zealand,Australia,,,
34.129.10.133,4,3,acnem.org,AU,Oceania,Australia and New Zealand,Australia,Victoria,,Melbourne
101.0.115.138,4,8,acon.org.au,AU,Oceania,Australia and New Zealand,Australia,New South Wales,,Sydney
111.223.232.155,4,5969,actf.com.au,AU,Oceania,Australia and New Zealand,Australia,,,
103.26.237.152,4,3,actuaries.digital,AU,Oceania,Australia and New Zealand,Australia,,,
203.90.26.93,4,-32,adam-carr.net,AU,Oceania,Australia and New Zealand,Australia,,,
114.23.117.22,4,24,adam.nz,NZ,Oceania,Australia and New Zealand,New Zealand,Manawatu-Wanganui,,Palmerston North
117.74.103.24,4,8,adayonthegreen.com.au,AU,Oceania,Australia and New Zealand,Australia,,,
13.236.97.190,4,4,adelaidefringe.com.au,AU,Oceania,Australia and New Zealand,Australia,New South Wales,,Sydney
54.252.36.105,4,4,adelaidefringe.com.au,AU,Oceania,Australia and New Zealand,Australia,New South Wales,,Sydney
13.210.221.213,4,7,adelaidefringe.com.au,AU,Oceania,Australia and New Zealand,Australia,New South Wales,,Sydney
45.32.189.121,4,10,adelaidehillswine.com.au,AU,Oceania,Australia and New Zealand,Australia,New South Wales,,Sydney
43.250.142.25,4,-8,adonline.id.au,AU,Oceania,Australia and New Zealand,Australia,New South Wales,,Sydney
110.232.143.67,4,-1,aees.org.au,AU,Oceania,Australia and New Zealand,Australia,Queensland,,Brisbane
112.213.34.123,4,-14,aeva.asn.au,AU,Oceania,Australia and New Zealand,Australia,New South Wales,,Sydney
43.250.142.50,4,-12,afao.org.au,AU,Oceania,Australia and New Zealand,Australia,New South Wales,,Sydney
43.250.142.143,4,-9,afdo.org.au,AU,Oceania,Australia and New Zealand,Australia,New South Wales,,Sydney
202.74.68.133,4,2,aflnswact.com.au,AU,Oceania,Australia and New Zealand,Australia,,,
110.232.143.29,4,-3,afltables.com,AU,Oceania,Australia and New Zealand,Australia,Queensland,,Brisbane
103.11.147.73,4,-2,agedcareonline.com.au,AU,Oceania,Australia and New Zealand,Australia,,,
103.100.39.13,4,-36,ahha.asn.au,AU,Oceania,Australia and New Zealand,Australia,New South Wales,,Sydney
103.224.212.250,4,5,aidswasting.com,AU,Oceania,Australia and New Zealand,Australia,,,
110.173.134.64,4,6,aimeeprovence.com.au,AU,Oceania,Australia and New Zealand,Australia,Victoria,,Melbourne
101.0.96.126,4,16,aintreeco.com,AU,Oceania,Australia and New Zealand,Australia,New South Wales,,Sydney
103.42.111.59,4,-9,aioh.org.au,AU,Oceania,Australia and New Zealand,Australia,Victoria,,Melbourne
175.45.181.109,4,-3,aips.net.au,AU,Oceania,Australia and New Zealand,Australia,New South Wales,,Sydney
103.73.82.11,4,5,aiqs.com.au,AU,Oceania,Australia and New Zealand,Australia,,,
110.232.143.90,4,-15,airwaysmuseum.com,AU,Oceania,Australia and New Zealand,Australia,Queensland,,Brisbane
103.27.35.119,4,-5,ajp.com.au,AU,Oceania,Australia and New Zealand,Australia,New South Wales,,Sydney
82.97.240.23,4,6,akkras.ru,AU,Oceania,Australia and New Zealand,Australia,,,
103.27.52.107,4,35,albanyextreme.co.nz,NZ,Oceania,Australia and New Zealand,New Zealand,Bay of Plenty,,Tauranga
103.27.34.42,4,-13,alicespringsnews.com.au,AU,Oceania,Australia and New Zealand,Australia,New South Wales,,Sydney
175.45.125.220,4,4,allabilitiesmackay.com.au,AU,Oceania,Australia and New Zealand,Australia,Victoria,,Melbourne
116.90.48.38,4,8,allabilitiesmackay.org.au,AU,Oceania,Australia and New Zealand,Australia,,,
43.250.140.24,4,-9,allaboardseafoods.com.au,AU,Oceania,Australia and New Zealand,Australia,New South Wales,,Sydney
103.246.250.44,4,9,allaboutcuisines.com,AU,Oceania,Australia and New Zealand,Australia,,,
43.250.142.84,4,-8,allcoinvalues.com,AU,Oceania,Australia and New Zealand,Australia,New South Wales,,Sydney
101.0.68.70,4,9,allergywest.com.au,AU,Oceania,Australia and New Zealand,Australia,Victoria,,Melbourne
117.120.11.113,4,-26,alor.org,AU,Oceania,Australia and New Zealand,Australia,New South Wales,,Sydney
175.45.125.163,4,5,althorpestate.com,AU,Oceania,Australia and New Zealand,Australia,Victoria,,Melbourne
43.250.142.77,4,-10,amazingcarbon.com,AU,Oceania,Australia and New Zealand,Australia,New South Wales,,Sydney
20.92.129.82,4,56554,ambertech.com.au,AU,Oceania,Australia and New Zealand,Australia,New South Wales,,Sydney
51.161.215.34,4,4,amcal.com.au,AU,Oceania,Australia and New Zealand,Australia,Victoria,,Melbourne
51.161.194.171,4,10,amcn.com.au,AU,Oceania,Australia and New Zealand,Australia,Victoria,,Melbourne
20.213.104.22,4,7,ami.org.au,AU,Oceania,Australia and New Zealand,Australia,New South Wales,,Sydney
43.250.140.35,4,-15,amphibianark.org,AU,Oceania,Australia and New Zealand,Australia,New South Wales,,Sydney
101.0.91.74,4,8,amsi.org.au,AU,Oceania,Australia and New Zealand,Australia,Victoria,,Melbourne
43.250.140.34,4,-14,amz.edu.au,AU,Oceania,Australia and New Zealand,Australia,New South Wales,,Sydney
101.0.120.4,4,13,anchor.com.au,AU,Oceania,Australia and New Zealand,Australia,New South Wales,,Sydney
202.4.234.18,4,13,anchor.net.au,AU,Oceania,Australia and New Zealand,Australia,,,
103.27.32.32,4,-7,andromedaspaceways.com,AU,Oceania,Australia and New Zealand,Australia,New South Wales,,Sydney
110.232.143.110,4,-1,anecdote.com,AU,Oceania,Australia and New Zealand,Australia,Queensland,,Brisbane
172.105.255.140,4,-5,angelamaiers.com,AU,Oceania,Australia and New Zealand,Australia,New South Wales,,Sydney
103.27.32.38,4,-8,angelsghosts.com,AU,Oceania,Australia and New Zealand,Australia,New South Wales,,Sydney
203.98.95.20,4,12,angusandjuliastone.com,AU,Oceania,Australia and New Zealand,Australia,New South Wales,,Sydney
101.0.111.70,4,4,anmj.org.au,AU,Oceania,Australia and New Zealand,Australia,New South Wales,,Sydney
116.90.57.164,4,8,anzam.org,AU,Oceania,Australia and New Zealand,Australia,,,
54.66.112.172,4,8,apac-accreditation.org,AU,Oceania,Australia and New Zealand,Australia,New South Wales,,Sydney
54.66.163.114,4,5,apac-accreditation.org,AU,Oceania,Australia and New Zealand,Australia,New South Wales,,Sydney
54.206.37.91,4,4,apac-accreditation.org,AU,Oceania,Australia and New Zealand,Australia,New South Wales,,Sydney
116.90.61.84,4,16,apheda.org.au,AU,Oceania,Australia and New Zealand,Australia,,,
54.253.185.186,4,51,arboristreportsaustralia.com.au,AU,Oceania,Australia and New Zealand,Australia,New South Wales,,Sydney
203.98.95.167,4,11,archermagazine.com.au,AU,Oceania,Australia and New Zealand,Australia,New South Wales,,Sydney
103.27.32.40,4,7,arena.gov.au,AU,Oceania,Australia and New Zealand,Australia,New South Wales,,Sydney
110.232.143.83,4,-1,argonaut.com,AU,Oceania,Australia and New Zealand,Australia,Queensland,,Brisbane
116.90.50.45,4,13,artguide.com.au,AU,Oceania,Australia and New Zealand,Australia,,,
13.54.220.184,4,9,asa.co.nz,AU,Oceania,Australia and New Zealand,Australia,New South Wales,,Sydney
52.62.34.188,4,7,asa.co.nz,AU,Oceania,Australia and New Zealand,Australia,New South Wales,,Sydney
13.237.209.121,4,9,asa.co.nz,AU,Oceania,Australia and New Zealand,Australia,New South Wales,,Sydney
116.90.50.29,4,10,asaa.asn.au,AU,Oceania,Australia and New Zealand,Australia,,,
150.107.72.185,4,144,asahi.com.au,AU,Oceania,Australia and New Zealand,Australia,New South Wales,,Sydney
103.209.24.135,4,4,asialinkbusiness.com.au,AU,Oceania,Australia and New Zealand,Australia,Victoria,,Melbourne
172.105.189.205,4,5,asianinspirations.com.au,AU,Oceania,Australia and New Zealand,Australia,New South Wales,,Sydney
149.28.174.8,4,8,assda.asn.au,AU,Oceania,Australia and New Zealand,Australia,New South Wales,,Sydney
116.90.49.5,4,13,assemblepapers.com.au,AU,Oceania,Australia and New Zealand,Australia,,,
13.210.68.209,4,5,assignmentachievers.com,AU,Oceania,Australia and New Zealand,Australia,New South Wales,,Sydney
45.63.26.218,4,6,assignmenthelppro.com,AU,Oceania,Australia and New Zealand,Australia,New South Wales,,Sydney
170.64.204.92,4,16,asta.edu.au,AU,Oceania,Australia and New Zealand,Australia,New South Wales,,Sydney
103.27.34.113,4,32,astortheatre.net.au,AU,Oceania,Australia and New Zealand,Australia,New South Wales,,Sydney
103.18.108.174,4,1020,astra.org.au,AU,Oceania,Australia and New Zealand,Australia,New South Wales,,Sydney
103.27.32.21,4,-13,asum.com.au,AU,Oceania,Australia and New Zealand,Australia,New South Wales,,Sydney
45.63.31.140,4,19,atms.com.au,AU,Oceania,Australia and New Zealand,Australia,New South Wales,,Sydney
203.143.90.58,4,49,attune.com.au,AU,Oceania,Australia and New Zealand,Australia,Victoria,,Melbourne
43.250.140.40,4,18,attwoodmarshall.com.au,AU,Oceania,Australia and New Zealand,Australia,New South Wales,,Sydney
139.99.247.189,4,13,aubiz.net,AU,Oceania,Australia and New Zealand,Australia,New South Wales,,Sydney
172.105.178.17,4,-3,auctionfinder.com.au,AU,Oceania,Australia and New Zealand,Australia,New South Wales,,Sydney
120.138.18.164,4,9,audioculture.co.nz,NZ,Oceania,Australia and New Zealand,New Zealand,,,
108.61.184.230,4,57,aupropertyreport.com,AU,Oceania,Australia and New Zealand,Australia,New South Wales,,Sydney
118.127.62.214,4,-9,aus.social,AU,Oceania,Australia and New Zealand,Australia,Victoria,,Melbourne
103.27.34.14,4,19,aus300zx.com,AU,Oceania,Australia and New Zealand,Australia,New South Wales,,Sydney
103.119.110.116,4,27,ausfoodnews.com.au,AU,Oceania,Australia and New Zealand,Australia,New South Wales,,Sydney
101.0.108.58,4,1,ausleisure.com.au,AU,Oceania,Australia and New Zealand,Australia,New South Wales,,Sydney
52.64.253.45,4,5,ausmed.com.au,AU,Oceania,Australia and New Zealand,Australia,New South Wales,,Sydney
54.66.49.142,4,19,ausmed.com.au,AU,Oceania,Australia and New Zealand,Australia,New South Wales,,Sydney
3.24.71.130,4,47,ausmed.com.au,AU,Oceania,Australia and New Zealand,Australia,New South Wales,,Sydney
101.0.103.154,4,21,aussiechildcarenetwork.com.au,AU,Oceania,Australia and New Zealand,Australia,New South Wales,,Sydney
103.27.34.22,4,-13,aussiehealthproducts.com.au,AU,Oceania,Australia and New Zealand,Australia,New South Wales,,Sydney
192.250.232.24,4,16,australiachinarelations.org,AU,Oceania,Australia and New Zealand,Australia,New South Wales,,Sydney
43.250.141.74,4,6,australianbookreview.com.au,AU,Oceania,Australia and New Zealand,Australia,New South Wales,,Sydney
103.11.147.37,4,8,australianculturalfund.org.au,AU,Oceania,Australia and New Zealand,Australia,,,
116.90.49.28,4,22,australiangalleries.com.au,AU,Oceania,Australia and New Zealand,Australia,,,
182.160.155.88,4,9,australianmanufacturing.com.au,AU,Oceania,Australia and New Zealand,Australia,,,
45.76.117.172,4,4,australianmarriageequality.org,AU,Oceania,Australia and New Zealand,Australia,New South Wales,,Sydney
43.250.142.90,4,26,australianmodern.com.au,AU,Oceania,Australia and New Zealand,Australia,New South Wales,,Sydney
202.37.74.45,4,5,australiannaturaltherapistsassociation.com.au,AU,Oceania,Australia and New Zealand,Australia,New South Wales,,Sydney
103.27.34.114,4,10,australianplays.org,AU,Oceania,Australia and New Zealand,Australia,New South Wales,,Sydney
116.90.0.46,4,23,australianpolice.com.au,AU,Oceania,Australia and New Zealand,Australia,,,
103.209.24.6,4,7,australianstogether.org.au,AU,Oceania,Australia and New Zealand,Australia,Victoria,,Melbourne
34.129.161.75,4,51,australianvolunteers.com,AU,Oceania,Australia and New Zealand,Australia,Victoria,,Melbourne
43.250.142.130,4,-10,australwright.com.au,AU,Oceania,Australia and New Zealand,Australia,New South Wales,,Sydney
103.42.111.74,4,-23,autismspectrum.org.au,AU,Oceania,Australia and New Zealand,Australia,Victoria,,Melbourne
203.96.176.111,4,35,aviationmuseum.com.au,AU,Oceania,Australia and New Zealand,Australia,New South Wales,,Sydney
188.253.3.198,4,-56665,aviny.com,AU,Oceania,Australia and New Zealand,Australia,,,
43.250.142.116,4,-8,awardsaustralia.com,AU,Oceania,Australia and New Zealand,Australia,New South Wales,,Sydney
45.76.119.249,4,-1,awlnsw.com.au,AU,Oceania,Australia and New Zealand,Australia,New South Wales,,Sydney
101.0.77.126,4,16,babybargains.com.au,AU,Oceania,Australia and New Zealand,Australia,Victoria,,Melbourne
13.236.115.147,4,7,bakersdelight.com.au,AU,Oceania,Australia and New Zealand,Australia,New South Wales,,Sydney
103.27.35.243,4,39,bandtshirts.com.au,AU,Oceania,Australia and New Zealand,Australia,New South Wales,,Sydney
103.209.24.166,4,3,baptistcare.org.au,AU,Oceania,Australia and New Zealand,Australia,Victoria,,Melbourne
110.232.143.48,4,-14,basebusiness.com.au,AU,Oceania,Australia and New Zealand,Australia,Queensland,,Brisbane
34.116.115.104,4,5,batchelor.edu.au,AU,Oceania,Australia and New Zealand,Australia,New South Wales,,Sydney
43.250.140.43,4,-7,bcec.edu.au,AU,Oceania,Australia and New Zealand,Australia,New South Wales,,Sydney
116.90.59.25,4,33,beachburritocompany.com,AU,Oceania,Australia and New Zealand,Australia,,,
35.213.226.121,4,2,beachsafe.org.au,AU,Oceania,Australia and New Zealand,Australia,New South Wales,,Sydney
202.74.66.167,4,10,beanstalkmums.com.au,AU,Oceania,Australia and New Zealand,Australia,,,
103.27.32.2,4,-9,beauticate.com,AU,Oceania,Australia and New Zealand,Australia,New South Wales,,Sydney
202.134.241.247,4,133,bebeja.com,AU,Oceania,Australia and New Zealand,Australia,Victoria,,Melbourne
188.253.2.146,4,12827587,behdasht.news,AU,Oceania,Australia and New Zealand,Australia,,,
101.0.118.3,4,8,behindthebay.com.au,AU,Oceania,Australia and New Zealand,Australia,New South Wales,,Sydney
221.121.138.138,4,-30,berry.org.au,AU,Oceania,Australia and New Zealand,Australia,New South Wales,,Sydney
110.232.143.12,4,-13,berrystreet.org.au,AU,Oceania,Australia and New Zealand,Australia,Queensland,,Brisbane
202.134.241.148,4,49,bestonlinepokies.biz,AU,Oceania,Australia and New Zealand,Australia,Victoria,,Melbourne
202.74.69.103,4,10,biblesociety.org.au,AU,Oceania,Australia and New Zealand,Australia,,,
43.250.140.15,4,-8,bigvolcano.com.au,AU,Oceania,Australia and New Zealand,Australia,New South Wales,,Sydney
101.0.71.186,4,27,bikereview.com.au,AU,Oceania,Australia and New Zealand,Australia,Victoria,,Melbourne
203.98.95.61,4,9,billings.life,AU,Oceania,Australia and New Zealand,Australia,New South Wales,,Sydney
119.252.16.14,4,14,billmitchell.org,AU,Oceania,Australia and New Zealand,Australia,South Australia,,Bedford Park
202.74.65.27,4,18,biometricsinstitute.org,AU,Oceania,Australia and New Zealand,Australia,,,
103.209.24.60,4,16,birdsinbackyards.net,AU,Oceania,Australia and New Zealand,Australia,Victoria,,Melbourne
103.4.122.14,4,-6,bje.org.au,AU,Oceania,Australia and New Zealand,Australia,Victoria,,Melbourne
103.127.41.28,4,3522,blackpearlbasketball.com.au,AU,Oceania,Australia and New Zealand,Australia,,,
27.50.75.140,4,-27,bleh.au,AU,Oceania,Australia and New Zealand,Australia,Queensland,,Gold Coast
203.143.89.30,4,1422,blogbeast.com.au,AU,Oceania,Australia and New Zealand,Australia,Victoria,,Melbourne
27.50.92.137,4,-28,bodyimagemovement.com,AU,Oceania,Australia and New Zealand,Australia,New South Wales,,Sydney
143.42.36.54,4,1,booko.com.au,AU,Oceania,Australia and New Zealand,Australia,New South Wales,,Sydney
116.90.5.2,4,27,booksandpublishing.com.au,AU,Oceania,Australia and New Zealand,Australia,,,
103.27.32.33,4,-4,boomerangbags.org,AU,Oceania,Australia and New Zealand,Australia,New South Wales,,Sydney
149.28.169.183,4,46,boredofstudies.org,AU,Oceania,Australia and New Zealand,Australia,New South Wales,,Sydney
149.28.166.166,4,-12,boyter.org,AU,Oceania,Australia and New Zealand,Australia,New South Wales,,Sydney
202.134.241.40,4,42,bprhaneda.co.id,AU,Oceania,Australia and New Zealand,Australia,Victoria,,Melbourne
27.50.93.167,4,-2657,bq.org.au,AU,Oceania,Australia and New Zealand,Australia,New South Wales,,Sydney
13.236.194.134,4,6,brandingexperts.com.au,AU,Oceania,Australia and New Zealand,Australia,New South Wales,,Sydney
103.225.161.173,4,-24,brightenconsulting.com.au,AU,Oceania,Australia and New Zealand,Australia,,,
203.57.114.54,4,-12,bsdnow.tv,AU,Oceania,Australia and New Zealand,Australia,Victoria,,Melbourne
103.77.224.8,4,31,buckscollegegroup.ac.uk,AU,Oceania,Australia and New Zealand,Australia,,,
103.25.59.58,4,6,buggybuddys.com.au,AU,Oceania,Australia and New Zealand,Australia,New South Wales,,Sydney
103.76.159.187,4,1329,busaustralia.com,AU,Oceania,Australia and New Zealand,Australia,Victoria,,Melbourne
27.50.80.111,4,-17,business2sell.com.au,AU,Oceania,Australia and New Zealand,Australia,New South Wales,,Sydney
103.28.41.100,4,61560,buttons.cm,AU,Oceania,Australia and New Zealand,Australia,,,
103.28.41.99,4,27843,buttons.cm,AU,Oceania,Australia and New Zealand,Australia,,,
103.9.171.182,4,-13,byronbaytrain.com.au,AU,Oceania,Australia and New Zealand,Australia,,,
101.0.100.121,4,12,c-conf.com,AU,Oceania,Australia and New Zealand,Australia,New South Wales,,Sydney
223.165.77.138,4,18,c2c.co.nz,NZ,Oceania,Australia and New Zealand,New Zealand,,,
43.250.142.132,4,-16,caama.com.au,AU,Oceania,Australia and New Zealand,Australia,New South Wales,,Sydney
110.232.143.78,4,-7,cablebeachclub.com,AU,Oceania,Australia and New Zealand,Australia,Queensland,,Brisbane
202.60.67.12,4,-7,cablechick.com.au,AU,Oceania,Australia and New Zealand,Australia,Queensland,,Brisbane
45.77.48.202,4,7,cadence.moe,AU,Oceania,Australia and New Zealand,Australia,New South Wales,,Sydney
110.173.134.177,4,5,caic.org.au,AU,Oceania,Australia and New Zealand,Australia,Victoria,,Melbourne
54.252.32.131,4,12,cairnsartgallery.com.au,AU,Oceania,Australia and New Zealand,Australia,New South Wales,,Sydney
52.63.32.79,4,5,cairnsattractions.com.au,AU,Oceania,Australia and New Zealand,Australia,New South Wales,,Sydney
3.105.14.37,4,11,cairnsconnect.com,AU,Oceania,Australia and New Zealand,Australia,New South Wales,,Sydney
27.50.75.9,4,-29,caldronpool.com,AU,Oceania,Australia and New Zealand,Australia,Queensland,,Gold Coast
43.250.142.3,4,-10,caloriecounter.com.au,AU,Oceania,Australia and New Zealand,Australia,New South Wales,,Sydney
43.250.142.155,4,-10,canberraglassworks.com,AU,Oceania,Australia and New Zealand,Australia,New South Wales,,Sydney
103.11.147.104,4,-3,caravansplus.com.au,AU,Oceania,Australia and New Zealand,Australia,,,
110.173.134.47,4,15,carbonneutral.com.au,AU,Oceania,Australia and New Zealand,Australia,Victoria,,Melbourne
103.27.35.207,4,-9,carmanskitchen.com.au,AU,Oceania,Australia and New Zealand,Australia,New South Wales,,Sydney
27.131.81.119,4,4,carnegiewave.com,AU,Oceania,Australia and New Zealand,Australia,Victoria,,Melbourne
103.61.228.101,4,4,carpestology.com.au,AU,Oceania,Australia and New Zealand,Australia,New South Wales,,Sydney
43.250.142.97,4,-13,carpetinnovation.com,AU,Oceania,Australia and New Zealand,Australia,New South Wales,,Sydney
172.105.167.147,4,14,cathnews.co.nz,AU,Oceania,Australia and New Zealand,Australia,New South Wales,,Sydney
103.152.249.16,4,5,catholic.au,AU,Oceania,Australia and New Zealand,Australia,,,
101.0.72.10,4,6,cavershamwildlife.com.au,AU,Oceania,Australia and New Zealand,Australia,Victoria,,Melbourne
150.229.2.65,4,44,cawcr.gov.au,AU,Oceania,Australia and New Zealand,Australia,Victoria,,Melbourne
52.64.99.208,4,7,cbs.gov.ws,AU,Oceania,Australia and New Zealand,Australia,New South Wales,,Sydney
43.250.140.25,4,-9,cdcbus.com.au,AU,Oceania,Australia and New Zealand,Australia,New South Wales,,Sydney
103.25.59.60,4,2,cednepal.org.np,AU,Oceania,Australia and New Zealand,Australia,New South Wales,,Sydney
182.160.155.182,4,29,century21.com.au,AU,Oceania,Australia and New Zealand,Australia,,,
27.50.84.243,4,9,cepar.edu.au,AU,Oceania,Australia and New Zealand,Australia,New South Wales,,Sydney
120.138.17.250,4,15,chairpage.com,NZ,Oceania,Australia and New Zealand,New Zealand,,,
103.248.176.140,4,238,chapelhill.org.nz,NZ,Oceania,Australia and New Zealand,New Zealand,,,
175.45.125.12,4,12,cheaperdomains.com.au,AU,Oceania,Australia and New Zealand,Australia,Victoria,,Melbourne
116.90.51.142,4,28,checkpointorg.com,AU,Oceania,Australia and New Zealand,Australia,,,
103.1.184.96,4,-8,chefin.com.au,AU,Oceania,Australia and New Zealand,Australia,New South Wales,,Sydney
116.90.63.142,4,8,chewtown.com,AU,Oceania,Australia and New Zealand,Australia,,,
170.64.236.160,4,-2,chinwag.org,AU,Oceania,Australia and New Zealand,Australia,New South Wales,,
150.107.75.225,4,-7,cialis5.com,AU,Oceania,Australia and New Zealand,Australia,Queensland,,Brisbane
35.189.48.215,4,3,circa.co.nz,AU,Oceania,Australia and New Zealand,Australia,New South Wales,,Sydney
43.250.142.141,4,-10,circa.org.au,AU,Oceania,Australia and New Zealand,Australia,New South Wales,,Sydney
103.42.110.10,4,-14,circinfo.net,AU,Oceania,Australia and New Zealand,Australia,Victoria,,Melbourne
101.0.112.7,4,9,city4051crossfit.com.au,AU,Oceania,Australia and New Zealand,Australia,New South Wales,,Sydney
116.90.0.18,4,6,citygoldbullion.com.au,AU,Oceania,Australia and New Zealand,Australia,,,
103.11.147.152,4,-5,citynews.com.au,AU,Oceania,Australia and New Zealand,Australia,,,
116.90.61.204,4,30,cityofadelaide.com.au,AU,Oceania,Australia and New Zealand,Australia,,,
203.24.93.16,4,-20,cityofperthparking.com.au,AU,Oceania,Australia and New Zealand,Australia,,,
54.252.102.88,4,18,citysearch.com.au,AU,Oceania,Australia and New Zealand,Australia,New South Wales,,Sydney
43.250.142.16,4,88,cityshelving.com.au,AU,Oceania,Australia and New Zealand,Australia,New South Wales,,Sydney
103.240.88.11,4,5,clan.org.au,AU,Oceania,Australia and New Zealand,Australia,,,
218.185.224.247,4,10,classicwings.com,NZ,Oceania,Australia and New Zealand,New Zealand,Tasman District,,Richmond
122.201.84.4,4,-41073,claudeoutdoor.com.au,AU,Oceania,Australia and New Zealand,Australia,,,
170.64.136.20,4,12,cliftons.com,AU,Oceania,Australia and New Zealand,Australia,New South Wales,,Sydney
150.229.2.106,4,3,climatechangeinaustralia.gov.au,AU,Oceania,Australia and New Zealand,Australia,Victoria,,Melbourne
3.25.48.31,4,7,clinicallabs.com.au,AU,Oceania,Australia and New Zealand,Australia,New South Wales,,Sydney
54.79.128.35,4,24,clinicallabs.com.au,AU,Oceania,Australia and New Zealand,Australia,New South Wales,,Sydney
221.121.158.111,4,-26,clinicaltrialsalliance.org.au,AU,Oceania,Australia and New Zealand,Australia,New South Wales,,Sydney
103.225.161.77,4,-2,cloudschool.org,AU,Oceania,Australia and New Zealand,Australia,,,
52.65.58.242,4,5,cloudwaitress.com,AU,Oceania,Australia and New Zealand,Australia,New South Wales,,Sydney
13.211.19.234,4,36,cloudwaitress.com,AU,Oceania,Australia and New Zealand,Australia,New South Wales,,Sydney
203.57.115.105,4,-16,cogstate.com,AU,Oceania,Australia and New Zealand,Australia,Victoria,,Melbourne
110.232.143.56,4,17,cohre.org,AU,Oceania,Australia and New Zealand,Australia,Queensland,,Brisbane
103.209.24.200,4,11,comedyfestival.com.au,AU,Oceania,Australia and New Zealand,Australia,Victoria,,Melbourne
13.238.80.190,4,7,communityfirst.com.au,AU,Oceania,Australia and New Zealand,Australia,New South Wales,,Sydney
116.206.80.135,4,5,companydirectors.com.au,AU,Oceania,Australia and New Zealand,Australia,,,
202.74.64.45,4,2,conetix.com.au,AU,Oceania,Australia and New Zealand,Australia,,,
116.90.60.131,4,20,continencematters.com,AU,Oceania,Australia and New Zealand,Australia,,,
122.201.124.19,4,22102,convertweb2mobile.com,AU,Oceania,Australia and New Zealand,Australia,,,
101.0.92.77,4,6,cooberpedy.com,AU,Oceania,Australia and New Zealand,Australia,Victoria,,Melbourne
103.27.32.27,4,-1,cookingwithyoshiko.com,AU,Oceania,Australia and New Zealand,Australia,New South Wales,,Sydney
103.250.232.127,4,17,cookislandsnews.com,NZ,Oceania,Australia and New Zealand,New Zealand,,,
101.0.88.162,4,201,coolingrealestate.com,AU,Oceania,Australia and New Zealand,Australia,Victoria,,Melbourne
175.45.180.27,4,7,coolum.com.au,AU,Oceania,Australia and New Zealand,Australia,New South Wales,,Sydney
110.232.143.1,4,9,counsellingsydney.com.au,AU,Oceania,Australia and New Zealand,Australia,Queensland,,Brisbane
221.121.156.107,4,-23,countryrecipebook.com,AU,Oceania,Australia and New Zealand,Australia,Western Australia,,Perth
103.96.117.92,4,535,coupdemainmagazine.com,NZ,Oceania,Australia and New Zealand,New Zealand,,,
3.106.30.94,4,17,coxarchitecture.com.au,AU,Oceania,Australia and New Zealand,Australia,New South Wales,,Sydney
168.1.8.117,4,-27,crdc.com.au,AU,Oceania,Australia and New Zealand,Australia,New South Wales,,Sydney
103.11.147.170,4,-2,creative.gov.au,AU,Oceania,Australia and New Zealand,Australia,,,
49.50.249.113,4,20,creditcardscompare.co.nz,NZ,Oceania,Australia and New Zealand,New Zealand,Auckland,,Lynfield
103.42.110.32,4,-7,creditone.com.au,AU,Oceania,Australia and New Zealand,Australia,Victoria,,Melbourne
103.27.35.210,4,2,cricketvictoria.com.au,AU,Oceania,Australia and New Zealand,Australia,New South Wales,,Sydney
103.27.34.48,4,-8,criminaldefencelawyers.com.au,AU,Oceania,Australia and New Zealand,Australia,New South Wales,,Sydney
27.131.81.137,4,5,croakey.org,AU,Oceania,Australia and New Zealand,Australia,Victoria,,Melbourne
103.233.210.102,4,3,crocodileadventures.com,AU,Oceania,Australia and New Zealand,Australia,,,
122.252.3.114,4,13,crocosauruscove.com,AU,Oceania,Australia and New Zealand,Australia,New South Wales,,Sydney
103.4.16.49,4,12,crspublicity.com.au,AU,Oceania,Australia and New Zealand,Australia,New South Wales,,Sydney
101.0.100.66,4,8,crucial.com.au,AU,Oceania,Australia and New Zealand,Australia,New South Wales,,Sydney
103.27.173.25,4,13968,cruiseguru.com.au,AU,Oceania,Australia and New Zealand,Australia,New South Wales,,Central Coast
103.27.35.72,4,-2,crunch.com.au,AU,Oceania,Australia and New Zealand,Australia,New South Wales,,Sydney
116.90.59.81,4,10,cullenwines.com.au,AU,Oceania,Australia and New Zealand,Australia,,,
103.27.34.111,4,-17,cur.org.au,AU,Oceania,Australia and New Zealand,Australia,New South Wales,,Sydney
52.64.39.142,4,4,curtin.edu.au,AU,Oceania,Australia and New Zealand,Australia,New South Wales,,Sydney
185.184.153.69,4,-173596,cutrite.com.au,AU,Oceania,Australia and New Zealand,Australia,New South Wales,,Sydney
103.77.224.13,4,0,cwa.ac.uk,AU,Oceania,Australia and New Zealand,Australia,,,
122.201.69.16,4,5,cws.org.au,AU,Oceania,Australia and New Zealand,Australia,,,
163.53.249.10,4,473,cycle-helmets.com,AU,Oceania,Australia and New Zealand,Australia,,,
103.27.32.24,4,-10,daa.asn.au,AU,Oceania,Australia and New Zealand,Australia,New South Wales,,Sydney
45.76.121.8,4,3,dailygrail.com,AU,Oceania,Australia and New Zealand,Australia,New South Wales,,Sydney
122.129.219.188,4,4,dailyreview.com.au,AU,Oceania,Australia and New Zealand,Australia,,,
103.233.210.105,4,5,daintreecassowary.org.au,AU,Oceania,Australia and New Zealand,Australia,,,
13.237.159.195,4,6,daintreerainforest.com,AU,Oceania,Australia and New Zealand,Australia,New South Wales,,Sydney
116.90.0.142,4,100,dannysdesks.com.au,AU,Oceania,Australia and New Zealand,Australia,,,
103.242.248.66,4,18,darkhorizons.com,AU,Oceania,Australia and New Zealand,Australia,,,
27.54.92.114,4,21855,darululoom.com.au,AU,Oceania,Australia and New Zealand,Australia,,,
221.121.159.114,4,-11,darwinairport.com.au,AU,Oceania,Australia and New Zealand,Australia,New South Wales,,Sydney
27.50.84.23,4,-34,darwinfestival.org.au,AU,Oceania,Australia and New Zealand,Australia,New South Wales,,Sydney
116.90.56.143,4,7,daveydreamnation.com,AU,Oceania,Australia and New Zealand,Australia,,,
27.50.70.98,4,-28,daviescraig.com.au,AU,Oceania,Australia and New Zealand,Australia,Queensland,,Gold Coast
103.27.32.15,4,12,davismarina.com.au,AU,Oceania,Australia and New Zealand,Australia,New South Wales,,Sydney
45.248.76.26,4,5,dbansw.org.au,AU,Oceania,Australia and New Zealand,Australia,New South Wales,,Sydney
175.45.125.10,4,4,ddns.com.au,AU,Oceania,Australia and New Zealand,Australia,Victoria,,Melbourne
45.76.113.28,4,5,ddtech.com,AU,Oceania,Australia and New Zealand,Australia,New South Wales,,Sydney
110.232.143.77,4,-13,dea.org.au,AU,Oceania,Australia and New Zealand,Australia,Queensland,,Brisbane
54.153.244.96,4,4,dealmoon.com.au,AU,Oceania,Australia and New Zealand,Australia,New South Wales,,Sydney
116.90.53.19,4,8,debtbusters.com.au,AU,Oceania,Australia and New Zealand,Australia,,,
43.250.140.16,4,-16,delacour.net,AU,Oceania,Australia and New Zealand,Australia,New South Wales,,Sydney
110.232.143.72,4,-17,delahoy.com,AU,Oceania,Australia and New Zealand,Australia,Queensland,,Brisbane
23.40.72.153,4,-2,delicious.com.au,AU,Oceania,Australia and New Zealand,Australia,New South Wales,,Sydney
203.29.225.52,4,-29,deliverit.com.au,AU,Oceania,Australia and New Zealand,Australia,,,
110.232.143.50,4,-9,dentalboutique.com.au,AU,Oceania,Australia and New Zealand,Australia,Queensland,,Brisbane
110.232.143.33,4,-6,designhouse.com.au,AU,Oceania,Australia and New Zealand,Australia,Queensland,,Brisbane
13.54.243.171,4,7,destinationdaintree.com,AU,Oceania,Australia and New Zealand,Australia,New South Wales,,Sydney
103.27.34.30,4,-8,devpolicy.org,AU,Oceania,Australia and New Zealand,Australia,New South Wales,,Sydney
203.143.89.81,4,1609,diamondcs.com.au,AU,Oceania,Australia and New Zealand,Australia,Victoria,,Melbourne
45.125.247.27,4,4,digitalfeed.net,AU,Oceania,Australia and New Zealand,Australia,New South Wales,,Sydney
182.160.154.226,4,11,digitallydownloaded.net,AU,Oceania,Australia and New Zealand,Australia,,,
203.98.95.17,4,7,digitalmediaworld.tv,AU,Oceania,Australia and New Zealand,Australia,New South Wales,,Sydney
108.61.168.71,4,9,dilate.com.au,AU,Oceania,Australia and New Zealand,Australia,New South Wales,,Sydney
43.250.140.13,4,-13,dirtbikeworld.net,AU,Oceania,Australia and New Zealand,Australia,New South Wales,,Sydney
116.90.50.12,4,11,divinity.edu.au,AU,Oceania,Australia and New Zealand,Australia,,,
101.0.92.162,4,5,diyrenovationsonline.com.au,AU,Oceania,Australia and New Zealand,Australia,Victoria,,Melbourne
103.61.228.11,4,5,djirra.org.au,AU,Oceania,Australia and New Zealand,Australia,New South Wales,,Sydney
103.1.186.221,4,-8,dkeenan.com,AU,Oceania,Australia and New Zealand,Australia,New South Wales,,Sydney
103.94.51.100,4,-2133705373,DNS Server: 103-94-51-100.675e33.per.nbn.aussiebb.net,AU,Oceania,Australia and New Zealand,Australia,Western Australia,,
108.61.212.239,4,14,DNS Server: 108.61.212.239.vultr.com,AU,Oceania,Australia and New Zealand,Australia,New South Wales,,Sydney
110.174.24.94,4,651010,DNS Server: 110-174-24-94.tpgi.com.au,AU,Oceania,Australia and New Zealand,Australia,New South Wales,,Sydney
110.175.240.93,4,-9621,DNS Server: 110-175-240-93.tpgi.com.au,AU,Oceania,Australia and New Zealand,Australia,Western Australia,,Perth
110.175.253.13,4,154,DNS Server: 110-175-253-13.static.tpgi.com.au,AU,Oceania,Australia and New Zealand,Australia,New South Wales,,Sydney
111.220.59.183,4,216,DNS Server: 111-220-59-183.sta.wbroadband.net.au,AU,Oceania,Australia and New Zealand,Australia,New South Wales,,Sydney
116.212.68.59,4,6,DNS Server: 116-212-68-59.i3.net.au,AU,Oceania,Australia and New Zealand,Australia,New South Wales,,Sydney
116.240.114.185,4,630,DNS Server: 116-240-114-185.sta.dodo.net.au,AU,Oceania,Australia and New Zealand,Australia,Western Australia,,Perth
116.240.179.56,4,171,DNS Server: 116-240-179-56.dyn.dodo.net.au,AU,Oceania,Australia and New Zealand,Australia,Victoria,,Melbourne
122.199.41.72,4,121484,DNS Server: 122-199-41-72.ip4.superloop.au,AU,Oceania,Australia and New Zealand,Australia,Victoria,,Melbourne
123.243.165.170,4,4,DNS Server: 123-243-165-170.static.tpgi.com.au,AU,Oceania,Australia and New Zealand,Australia,Queensland,,Brisbane
123.243.36.55,4,407,DNS Server: 123-243-36-55.tpgi.com.au,AU,Oceania,Australia and New Zealand,Australia,New South Wales,,Sydney
123.243.55.86,4,78647,DNS Server: 123-243-55-86.static.tpgi.com.au,AU,Oceania,Australia and New Zealand,Australia,South Australia,,Adelaide
124.171.220.88,4,461,DNS Server: 124-171-220-88.tpgi.com.au,AU,Oceania,Australia and New Zealand,Australia,Queensland,,Brisbane
139.216.213.163,4,357,DNS Server: 139-216-213-163.sta.dodo.net.au,AU,Oceania,Australia and New Zealand,Australia,Queensland,,Brisbane
14.200.226.78,4,-892784863,DNS Server: 14-200-226-78.static.tpgi.com.au,AU,Oceania,Australia and New Zealand,Australia,New South Wales,,Sydney
14.201.91.170,4,22,DNS Server: 14-201-91-170.static.tpgi.com.au,AU,Oceania,Australia and New Zealand,Australia,Victoria,,Melbourne
14.203.242.170,4,-35999689,DNS Server: 14-203-242-170.static.tpgi.com.au,AU,Oceania,Australia and New Zealand,Australia,New South Wales,,Sydney
14.1.42.148,4,-22392,DNS Server: 14.1.42.148.host.layer2.co.nz,NZ,Oceania,Australia and New Zealand,New Zealand,Auckland,,Auckland
125.168.137.143,4,22,DNS Server: 143.137.168.125.sta.wbroadband.net.au,AU,Oceania,Australia and New Zealand,Australia,South Australia,,Adelaide
115.42.8.15,4,517,DNS Server: 15-8-42-115.ip.esc.net.au,AU,Oceania,Australia and New Zealand,Australia,New South Wales,,Sydney
159.196.127.73,4,88,DNS Server: 159-196-127-73.9fc47f.syd.static.aussiebb.net,AU,Oceania,Australia and New Zealand,Australia,New South Wales,,Sydney
115.70.61.169,4,105,DNS Server: 169.61.70.115.static.exetel.com.au,AU,Oceania,Australia and New Zealand,Australia,New South Wales,,Sydney
170.187.241.213,4,-18746,DNS Server: 170-187-241-213.ip.linodeusercontent.com,AU,Oceania,Australia and New Zealand,Australia,New South Wales,,Sydney
180.150.45.98,4,8,DNS Server: 180-150-45-98.b4962d.syd.static.aussiebb.net,AU,Oceania,Australia and New Zealand,Australia,Victoria,,Melbourne
180.150.51.109,4,255,DNS Server: 180-150-51-109.b49633.mel.static.aussiebb.net,AU,Oceania,Australia and New Zealand,Australia,Victoria,,
180.150.66.6,4,6,DNS Server: 180-150-66-6.b49642.syd.nbn.aussiebb.net,AU,Oceania,Australia and New Zealand,Australia,New South Wales,,Sydney
180.150.92.196,4,423,DNS Server: 180-150-92-196.b4965c.per.static.aussiebb.net,AU,Oceania,Australia and New Zealand,Australia,Western Australia,,
58.96.69.188,4,50,DNS Server: 188.69.96.58.static.exetel.com.au,AU,Oceania,Australia and New Zealand,Australia,Victoria,,Melbourne
193.114.136.10,4,87778,DNS Server: 193-114-136-10.tpgi.com.au,AU,Oceania,Australia and New Zealand,Australia,New South Wales,,Sydney
194.223.170.50,4,10,DNS Server: 194-223-170-50.tpgi.com.au,AU,Oceania,Australia and New Zealand,Australia,New South Wales,,Sydney
202.142.133.126,4,-4946,DNS Server: 202-142-133-126.ca8e85.mel.static.aussiebb.net,AU,Oceania,Australia and New Zealand,Australia,Victoria,,
123.136.55.202,4,789,DNS Server: 202-55-136-123.ip.esc.net.au,AU,Oceania,Australia and New Zealand,Australia,South Australia,,Adelaide
202.7.185.124,4,595,DNS Server: 202-7-185-124.tpgi.com.au,AU,Oceania,Australia and New Zealand,Australia,Western Australia,,Perth
202.73.30.98,4,570,DNS Server: 202-73-30-98.static.lightningbroadband.com.au,AU,Oceania,Australia and New Zealand,Australia,Victoria,,Melbourne
203.129.129.150,4,948,DNS Server: 203-129-129-150.sta.dodo.net.au,AU,Oceania,Australia and New Zealand,Australia,Victoria,,Melbourne
203.129.25.39,4,63,DNS Server: 203-129-25-39.cb8119.syd.static.aussiebb.net,AU,Oceania,Australia and New Zealand,Australia,New South Wales,,Sydney
203.213.96.4,4,81,DNS Server: 203-213-96-4.static.tpgi.com.au,AU,Oceania,Australia and New Zealand,Australia,Victoria,,Melbourne
203.217.74.212,4,701,DNS Server: 203-217-74-212.tpgi.com.au,AU,Oceania,Australia and New Zealand,Australia,Western Australia,,Perth
218.214.93.209,4,192,DNS Server: 209.93.214.218.sta.wbroadband.net.au,AU,Oceania,Australia and New Zealand,Australia,New South Wales,,Sydney
101.0.95.212,4,13,DNS Server: 212.95.0.101.static.smartservers.com.au,AU,Oceania,Australia and New Zealand,Australia,Victoria,,Melbourne
115.70.2.213,4,0,DNS Server: 213.2.70.115.static.exetel.com.au,AU,Oceania,Australia and New Zealand,Australia,Victoria,,Melbourne
219.89.203.248,4,5,DNS Server: 219-89-203-248.adsl.xtra.co.nz,NZ,Oceania,Australia and New Zealand,New Zealand,Auckland,,Auckland
220.245.186.117,4,796,DNS Server: 220-245-186-117.static.tpgi.com.au,AU,Oceania,Australia and New Zealand,Australia,New South Wales,,Sydney
220.245.192.186,4,18,DNS Server: 220-245-192-186.tpgi.com.au,AU,Oceania,Australia and New Zealand,Australia,Victoria,,Melbourne
218.214.85.254,4,313,DNS Server: 254.85.214.218.sta.wbroadband.net.au,AU,Oceania,Australia and New Zealand,Australia,New South Wales,,Sydney
27.32.25.166,4,829,DNS Server: 27-32-25-166.static.tpgi.com.au,AU,Oceania,Australia and New Zealand,Australia,New South Wales,,Leppington
27.32.63.54,4,1043,DNS Server: 27-32-63-54.static.tpgi.com.au,AU,Oceania,Australia and New Zealand,Australia,New South Wales,,Sydney
220.233.222.29,4,-7,DNS Server: 29.222.233.220.static.exetel.com.au,AU,Oceania,Australia and New Zealand,Australia,New South Wales,,Sydney
211.27.151.57,4,160,DNS Server: 57.151.27.211.sta.wbroadband.net.au,AU,Oceania,Australia and New Zealand,Australia,Queensland,,Brisbane
59.100.208.62,4,1435,DNS Server: 59-100-208-62.bri.static-ipl.aapt.com.au,AU,Oceania,Australia and New Zealand,Australia,Queensland,,Brisbane
60.241.40.114,4,28,DNS Server: 60-241-40-114.static.tpgi.com.au,AU,Oceania,Australia and New Zealand,Australia,New South Wales,,Sydney
61.69.106.78,4,-36014097,DNS Server: 61-69-106-78.bri.static-ipl.aapt.com.au,AU,Oceania,Australia and New Zealand,Australia,Queensland,,Brisbane
103.42.141.62,4,-39603417,DNS Server: 62.141.42.103.buroserv.net.au,AU,Oceania,Australia and New Zealand,Australia,New South Wales,,Sydney
125.168.66.80,4,10,DNS Server: 80.66.168.125.sta.wbroadband.net.au,AU,Oceania,Australia and New Zealand,Australia,South Australia,,Adelaide
87.121.250.174,4,48,DNS Server: 87-121-250-174.dyn.launtel.net.au,AU,Oceania,Australia and New Zealand,Australia,Tasmania,,
110.143.3.83,4,1469299,DNS Server: abi1684415.lnk.telstra.net,AU,Oceania,Australia and New Zealand,Australia,New South Wales,,Sydney
110.143.148.183,4,512363,DNS Server: abi1708756.lnk.telstra.net,AU,Oceania,Australia and New Zealand,Australia,New South Wales,,Sydney
103.2.196.228,4,132,DNS Server: bingo.gadgetaccess.com,AU,Oceania,Australia and New Zealand,Australia,New South Wales,,Sydney
203.45.58.208,4,744790,DNS Server: blooms42.lnk.telstra.net,AU,Oceania,Australia and New Zealand,Australia,New South Wales,,Sydney
110.145.154.62,4,147,DNS Server: bmi-bgi007.cpe.netvault.net.au,AU,Oceania,Australia and New Zealand,Australia,South Australia,,Adelaide
210.10.179.208,4,602,DNS Server: C-210-10-179-208.hay.connect.net.au,AU,Oceania,Australia and New Zealand,Australia,New South Wales,,Wollongong
139.130.2.22,4,1035851,DNS Server: cen3563285.lnk.telstra.net,AU,Oceania,Australia and New Zealand,Australia,Western Australia,,Perth
1.157.220.102,4,67,DNS Server: cpe-1-157-220-102.nb13.nsw.asp.telstra.net,AU,Oceania,Australia and New Zealand,Australia,New South Wales,,Sydney
1.157.46.241,4,-63,DNS Server: cpe-1-157-46-241.ab02.act.asp.telstra.net,AU,Oceania,Australia and New Zealand,Australia,Australian Capital Territory,,Canberra
1.159.239.33,4,154,DNS Server: cpe-1-159-239-33.wb05.wa.asp.telstra.net,AU,Oceania,Australia and New Zealand,Australia,Western Australia,,Perth
1.123.52.129,4,234,DNS Server: cpe-1-223-52-129.bpi3-r-032.fli.sa.bigpond.net.au,AU,Oceania,Australia and New Zealand,Australia,Queensland,,Brisbane
120.159.176.55,4,103,DNS Server: cpe-120-159-176-55.dyn.belong.com.au,AU,Oceania,Australia and New Zealand,Australia,Tasmania,,Hobart
144.137.210.182,4,34,DNS Server: cpe-144-137-210-182.static.nsw.asp.telstra.net,AU,Oceania,Australia and New Zealand,Australia,New South Wales,,Sydney
157.211.104.219,4,835,DNS Server: cpe-219-104-211-157.matenbn.com.au,AU,Oceania,Australia and New Zealand,Australia,New South Wales,,Sydney
103.4.123.220,4,3,DNS Server: customer.slnet.com.au,AU,Oceania,Australia and New Zealand,Australia,Victoria,,Melbourne
120.138.22.174,4,44,DNS Server: dns-nz-02.getflix.com.au,NZ,Oceania,Australia and New Zealand,New Zealand,,,
103.136.146.99,4,38065,DNS Server: dns.halvez.top,AU,Oceania,Australia and New Zealand,Australia,New South Wales,,Sydney
103.230.158.212,4,-14,DNS Server: docker01-bl.schwetz.com.au,AU,Oceania,Australia and New Zealand,Australia,New South Wales,,Sydney
54.66.128.66,4,26,DNS Server: ec2-54-66-128-66.ap-southeast-2.compute.amazonaws.com,AU,Oceania,Australia and New Zealand,Australia,New South Wales,,Sydney
203.214.23.143,4,32,DNS Server: edge.home.twigglett.gg,AU,Oceania,Australia and New Zealand,Australia,Northern Territory,,Alice Springs
27.113.241.18,4,-26182,DNS Server: eldsure.wires.net.au,AU,Oceania,Australia and New Zealand,Australia,Victoria,,Geelong
203.86.200.253,4,2221,DNS Server: email.techsystems.net.nz,NZ,Oceania,Australia and New Zealand,New Zealand,Auckland,,Auckland
210.79.19.1,4,34,DNS Server: hagon.apcs.com.pg,AU,Oceania,Australia and New Zealand,Australia,Queensland,,Pleystowe
139.99.133.27,4,80,DNS Server: igc.fmbm.com.au,AU,Oceania,Australia and New Zealand,Australia,New South Wales,,Sydney
124.254.74.246,4,21,DNS Server: ip-246.74.254.124.VOCUS.net.au,AU,Oceania,Australia and New Zealand,Australia,Queensland,,Brisbane
139.99.142.12,4,80,DNS Server: ip12.ip-139-99-142.net,AU,Oceania,Australia and New Zealand,Australia,New South Wales,,Sydney
139.99.177.88,4,41,DNS Server: ip88.ip-139-99-177.net,AU,Oceania,Australia and New Zealand,Australia,New South Wales,,Sydney
210.18.214.38,4,201,DNS Server: mx10.bsrgroup.com.au,AU,Oceania,Australia and New Zealand,Australia,Queensland,,Brisbane
103.135.85.224,4,467,DNS Server: vocphone.com,AU,Oceania,Australia and New Zealand,Australia,New South Wales,,Sydney
193.114.97.163,4,127,DNS Server: webx.lph.la,AU,Oceania,Australia and New Zealand,Australia,Queensland,,Brisbane
103.224.212.24,4,8,domainstate.com,AU,Oceania,Australia and New Zealand,Australia,,,
119.42.55.17,4,-16,doopostfree.com,AU,Oceania,Australia and New Zealand,Australia,New South Wales,,Sydney
103.26.237.154,4,6,downsyndrome.org.au,AU,Oceania,Australia and New Zealand,Australia,,,
27.50.78.89,4,-29,dragonboat.sport,AU,Oceania,Australia and New Zealand,Australia,Queensland,,Gold Coast
54.79.62.207,4,7,drakes.com.au,AU,Oceania,Australia and New Zealand,Australia,New South Wales,,Sydney
103.119.110.52,4,26,dreamithost.com.au,AU,Oceania,Australia and New Zealand,Australia,New South Wales,,Sydney
154.26.155.169,4,4,dtc.edu.np,AU,Oceania,Australia and New Zealand,Australia,New South Wales,,Sydney
27.54.92.237,4,-41115,ductallsystems.com.au,AU,Oceania,Australia and New Zealand,Australia,,,
43.250.142.133,4,16,dulwichcentre.com.au,AU,Oceania,Australia and New Zealand,Australia,New South Wales,,Sydney
203.55.134.138,4,3,dvconnect.org,AU,Oceania,Australia and New Zealand,Australia,,,
103.119.110.234,4,5,dvdland.com.au,AU,Oceania,Australia and New Zealand,Australia,New South Wales,,Sydney
139.99.248.178,4,6,dynamicobjects.com,AU,Oceania,Australia and New Zealand,Australia,New South Wales,,Sydney
103.11.147.200,4,-5,earlychildhoodaustralia.org.au,AU,Oceania,Australia and New Zealand,Australia,,,
103.119.110.17,4,3,easternsuburbsmums.com.au,AU,Oceania,Australia and New Zealand,Australia,New South Wales,,Sydney
172.105.163.191,4,-6,easyasinternet.com,AU,Oceania,Australia and New Zealand,Australia,New South Wales,,Sydney
43.250.142.148,4,-9,easycarport.com.au,AU,Oceania,Australia and New Zealand,Australia,New South Wales,,Sydney
43.250.140.7,4,-13,easypropertylistings.com.au,AU,Oceania,Australia and New Zealand,Australia,New South Wales,,Sydney
202.74.69.186,4,92,easywpguide.com,AU,Oceania,Australia and New Zealand,Australia,,,
117.74.103.23,4,3,ebuero.de,AU,Oceania,Australia and New Zealand,Australia,,,
203.22.70.2,4,28,ecn.net.au,AU,Oceania,Australia and New Zealand,Australia,,,
43.250.141.164,4,-8,ecocommons.org.au,AU,Oceania,Australia and New Zealand,Australia,New South Wales,,Sydney
101.0.98.242,4,1,ecolsoc.org.au,AU,Oceania,Australia and New Zealand,Australia,New South Wales,,Sydney
115.64.189.46,4,4,economicoutlook.net,AU,Oceania,Australia and New Zealand,Australia,South Australia,,Adelaide
103.146.112.163,4,13,ecoshout.org.au,AU,Oceania,Australia and New Zealand,Australia,,,
43.250.142.83,4,-22,ecovoice.com.au,AU,Oceania,Australia and New Zealand,Australia,New South Wales,,Sydney
202.74.66.18,4,3,eczema.org.au,AU,Oceania,Australia and New Zealand,Australia,,,
43.250.142.139,4,-15,edte.ch,AU,Oceania,Australia and New Zealand,Australia,New South Wales,,Sydney
51.161.213.30,4,7,educationembassy.com.au,AU,Oceania,Australia and New Zealand,Australia,Victoria,,Melbourne
180.92.194.91,4,-29,eec.org.au,AU,Oceania,Australia and New Zealand,Australia,New South Wales,,Sydney
194.195.120.231,4,-4,eftm.com,AU,Oceania,Australia and New Zealand,Australia,New South Wales,,Sydney
43.250.142.88,4,-5,eichardts.com,AU,Oceania,Australia and New Zealand,Australia,New South Wales,,Sydney
27.50.66.29,4,12,elaborate.com.au,AU,Oceania,Australia and New Zealand,Australia,New South Wales,,Sydney
116.90.62.53,4,65,elccareers.com.au,AU,Oceania,Australia and New Zealand,Australia,,,
103.11.147.180,4,-7,electricvehiclecouncil.com.au,AU,Oceania,Australia and New Zealand,Australia,,,
103.127.163.167,4,43,eles.com.au,AU,Oceania,Australia and New Zealand,Australia,,,
43.250.140.28,4,-9,eloping.com.au,AU,Oceania,Australia and New Zealand,Australia,New South Wales,,Sydney
119.9.51.27,4,73,elsewhere.co.nz,AU,Oceania,Australia and New Zealand,Australia,,,
119.47.118.165,4,9,elvisinfonet.com,AU,Oceania,Australia and New Zealand,Australia,,,
103.28.41.109,4,61570,email-standards.org,AU,Oceania,Australia and New Zealand,Australia,,,
103.28.41.110,4,27838,email-standards.org,AU,Oceania,Australia and New Zealand,Australia,,,
35.189.8.50,4,3,emotional-transformation.com.au,AU,Oceania,Australia and New Zealand,Australia,New South Wales,,Sydney
101.0.119.31,4,24,endinghiv.org.au,AU,Oceania,Australia and New Zealand,Australia,New South Wales,,Sydney
116.90.49.218,4,6,energynetworks.com.au,AU,Oceania,Australia and New Zealand,Australia,,,
202.74.66.3,4,7,enginescout.com.au,AU,Oceania,Australia and New Zealand,Australia,,,
103.209.24.196,4,4,englishtapware.com.au,AU,Oceania,Australia and New Zealand,Australia,Victoria,,Melbourne
116.90.53.21,4,12,enviewstrategy.com,AU,Oceania,Australia and New Zealand,Australia,,,
103.204.106.88,4,8,eos-aus.com,AU,Oceania,Australia and New Zealand,Australia,,,
139.99.208.76,4,7,epswa.com.au,AU,Oceania,Australia and New Zealand,Australia,New South Wales,,Sydney
116.90.48.33,4,8,equiscore.com.au,AU,Oceania,Australia and New Zealand,Australia,,,
116.90.59.30,4,20,ergonomics.com.au,AU,Oceania,Australia and New Zealand,Australia,,,
203.25.185.103,4,11,esc.net.au,AU,Oceania,Australia and New Zealand,Australia,,,
116.90.51.131,4,14,esconstruction.com.au,AU,Oceania,Australia and New Zealand,Australia,,,
202.74.66.65,4,0,esdnews.com.au,AU,Oceania,Australia and New Zealand,Australia,,,
101.0.114.115,4,-4,etkgtennis.org.au,AU,Oceania,Australia and New Zealand,Australia,New South Wales,,Sydney
103.27.32.30,4,-14,eurobodalla.com.au,AU,Oceania,Australia and New Zealand,Australia,New South Wales,,Sydney
101.0.68.38,4,6,eventcateringsolutions.com.au,AU,Oceania,Australia and New Zealand,Australia,Victoria,,Melbourne
110.232.143.23,4,7,everyaustraliancounts.com.au,AU,Oceania,Australia and New Zealand,Australia,Queensland,,Brisbane
110.232.143.41,4,-13,evidencebasedteaching.org.au,AU,Oceania,Australia and New Zealand,Australia,Queensland,,Brisbane
103.61.229.90,4,3,evolutionlaser.com.au,AU,Oceania,Australia and New Zealand,Australia,New South Wales,,Sydney
35.201.8.39,4,6,ewon.com.au,AU,Oceania,Australia and New Zealand,Australia,New South Wales,,Sydney
101.0.113.90,4,42,exchangehouse.com.au,AU,Oceania,Australia and New Zealand,Australia,New South Wales,,Sydney
101.0.113.248,4,14,exclusivelyfood.com.au,AU,Oceania,Australia and New Zealand,Australia,New South Wales,,Sydney
117.120.8.241,4,652,exemplarglobal.org,AU,Oceania,Australia and New Zealand,Australia,New South Wales,,Sydney
202.74.66.186,4,6,exerciseright.com.au,AU,Oceania,Australia and New Zealand,Australia,,,
221.121.158.71,4,-26,experimenta.org,AU,Oceania,Australia and New Zealand,Australia,New South Wales,,Sydney
43.250.142.85,4,-9,export.org.au,AU,Oceania,Australia and New Zealand,Australia,New South Wales,,Sydney
43.250.142.15,4,-16,ezifunerals.com.au,AU,Oceania,Australia and New Zealand,Australia,New South Wales,,Sydney
103.27.34.16,4,160,f2.org,AU,Oceania,Australia and New Zealand,Australia,New South Wales,,Sydney
34.126.203.138,4,8,fanfooty.com.au,AU,Oceania,Australia and New Zealand,Australia,Victoria,,Melbourne
54.153.195.220,4,9,fantasticcleaners.com.au,AU,Oceania,Australia and New Zealand,Australia,New South Wales,,Sydney
43.250.141.212,4,-13,fare.org.au,AU,Oceania,Australia and New Zealand,Australia,New South Wales,,Sydney
116.90.41.25,4,8,fashionindustrybroadcast.com,AU,Oceania,Australia and New Zealand,Australia,,,
103.168.172.62,4,15,fastmail.fm,AU,Oceania,Australia and New Zealand,Australia,,,
103.168.172.47,4,10,fastmail.fm,AU,Oceania,Australia and New Zealand,Australia,,,
103.27.35.161,4,-13,fds.org.au,AU,Oceania,Australia and New Zealand,Australia,New South Wales,,Sydney
114.23.107.74,4,4,felt.co.nz,NZ,Oceania,Australia and New Zealand,New Zealand,Canterbury,,Christchurch
103.224.212.25,4,8,femail.com.au,AU,Oceania,Australia and New Zealand,Australia,,,
110.232.143.93,4,-8,fernwoodfitness.com.au,AU,Oceania,Australia and New Zealand,Australia,Queensland,,Brisbane
108.61.96.148,4,11,fidelity.com.au,AU,Oceania,Australia and New Zealand,Australia,New South Wales,,Sydney
43.245.161.116,4,60,finalbuilder.com,AU,Oceania,Australia and New Zealand,Australia,New South Wales,,Sydney
103.242.248.51,4,1087,financialservicesonline.com.au,AU,Oceania,Australia and New Zealand,Australia,,,
103.1.187.139,4,-10,findbigmail.com,AU,Oceania,Australia and New Zealand,Australia,New South Wales,,Sydney
139.99.248.200,4,11,fingerlingsmonkey.org,AU,Oceania,Australia and New Zealand,Australia,New South Wales,,Sydney
170.64.196.91,4,9,finkedesertrace.com.au,AU,Oceania,Australia and New Zealand,Australia,New South Wales,,Sydney
43.250.142.1,4,-4,firesticks.org.au,AU,Oceania,Australia and New Zealand,Australia,New South Wales,,Sydney
103.224.212.246,4,22,firewallleaktester.com,AU,Oceania,Australia and New Zealand,Australia,,,
218.185.224.229,4,21,fishandgame.org.nz,NZ,Oceania,Australia and New Zealand,New Zealand,Tasman District,,Richmond
59.167.177.52,4,0,fitt.au,AU,Oceania,Australia and New Zealand,Australia,Victoria,,Melbourne
110.232.143.22,4,-9,fitzroyisland.com,AU,Oceania,Australia and New Zealand,Australia,Queensland,,Brisbane
51.161.196.44,4,1581,fizzicseducation.com.au,AU,Oceania,Australia and New Zealand,Australia,Victoria,,Melbourne
116.90.57.117,4,5,fleet.org.au,AU,Oceania,Australia and New Zealand,Australia,,,
223.165.77.249,4,18,flightdec.com,NZ,Oceania,Australia and New Zealand,New Zealand,,,
101.0.111.22,4,20,flightsafetyaustralia.com,AU,Oceania,Australia and New Zealand,Australia,New South Wales,,Sydney
43.250.142.74,4,42,fluentpixel.com.au,AU,Oceania,Australia and New Zealand,Australia,New South Wales,,Sydney
52.64.85.4,4,8,fluro.io,AU,Oceania,Australia and New Zealand,Australia,New South Wales,,Sydney
113.52.6.223,4,-409,foalsbeststart.com,AU,Oceania,Australia and New Zealand,Australia,Queensland,,Brisbane
172.105.162.7,4,2040,foldingtables.net.au,AU,Oceania,Australia and New Zealand,Australia,New South Wales,,Sydney
52.62.49.209,4,4,foodbank.org.au,AU,Oceania,Australia and New Zealand,Australia,New South Wales,,Sydney
43.250.142.144,4,41,foodfrontier.org,AU,Oceania,Australia and New Zealand,Australia,New South Wales,,Sydney
119.18.45.210,4,17,foodlandsa.com.au,AU,Oceania,Australia and New Zealand,Australia,South Australia,,Adelaide
103.27.32.3,4,-21,foodwise.com.au,AU,Oceania,Australia and New Zealand,Australia,New South Wales,,Sydney
116.90.52.19,4,31,foodworks.com.au,AU,Oceania,Australia and New Zealand,Australia,,,
119.148.90.159,4,-1,forbes.com.au,AU,Oceania,Australia and New Zealand,Australia,Queensland,,Brisbane
111.65.238.98,4,3,foreignaffairs.co.nz,NZ,Oceania,Australia and New Zealand,New Zealand,,,
223.130.27.185,4,-14,fourwalledcubicle.com,AU,Oceania,Australia and New Zealand,Australia,Victoria,,Melbourne
13.239.81.121,4,4,fremantlemarkets.com.au,AU,Oceania,Australia and New Zealand,Australia,New South Wales,,Sydney
103.208.6.251,4,-9,friendsvision.org,AU,Oceania,Australia and New Zealand,Australia,Queensland,,Brisbane
52.63.30.129,4,39,fringeworld.com.au,AU,Oceania,Australia and New Zealand,Australia,New South Wales,,Sydney
54.252.174.169,4,30,fringeworld.com.au,AU,Oceania,Australia and New Zealand,Australia,New South Wales,,Sydney
13.236.101.227,4,13,fringeworld.com.au,AU,Oceania,Australia and New Zealand,Australia,New South Wales,,Sydney
43.250.140.17,4,-14,fst.net.au,AU,Oceania,Australia and New Zealand,Australia,New South Wales,,Sydney
35.244.76.126,4,3,fulbright.org.au,AU,Oceania,Australia and New Zealand,Australia,New South Wales,,Sydney
66.22.91.11,4,6,fullers.co.nz,NZ,Oceania,Australia and New Zealand,New Zealand,Auckland,,Auckland
116.90.51.191,4,5,fullstop.org.au,AU,Oceania,Australia and New Zealand,Australia,,,
101.0.97.38,4,1,fultonhogan.com,AU,Oceania,Australia and New Zealand,Australia,New South Wales,,Sydney
103.27.32.14,4,-9,furntech.org.au,AU,Oceania,Australia and New Zealand,Australia,New South Wales,,Sydney
103.20.200.201,4,10,further.cx,AU,Oceania,Australia and New Zealand,Australia,,,
103.27.34.36,4,-11,gaaustralia.org.au,AU,Oceania,Australia and New Zealand,Australia,New South Wales,,Sydney
110.232.143.97,4,-6,garlandmag.com,AU,Oceania,Australia and New Zealand,Australia,Queensland,,Brisbane
116.90.40.4,4,11,gbst.com,AU,Oceania,Australia and New Zealand,Australia,,,
103.1.185.208,4,-9,gccec.com.au,AU,Oceania,Australia and New Zealand,Australia,New South Wales,,Sydney
101.0.116.63,4,8,gendercentre.org.au,AU,Oceania,Australia and New Zealand,Australia,New South Wales,,Sydney
203.4.149.17,4,2304,genealogics.org,AU,Oceania,Australia and New Zealand,Australia,,,
110.232.143.37,4,-8,generalpanel.com.au,AU,Oceania,Australia and New Zealand,Australia,Queensland,,Brisbane
103.12.69.206,4,7,gengchunhao.com,AU,Oceania,Australia and New Zealand,Australia,,,
118.88.24.36,4,15,geoffchappell.com,AU,Oceania,Australia and New Zealand,Australia,,,
103.27.34.13,4,-1,geoffg.net,AU,Oceania,Australia and New Zealand,Australia,New South Wales,,Sydney
194.195.122.18,4,1,getfrank.co.nz,AU,Oceania,Australia and New Zealand,Australia,New South Wales,,Sydney
202.134.241.83,4,35,geziindex.com,AU,Oceania,Australia and New Zealand,Australia,Victoria,,Melbourne
103.1.184.193,4,-14,gffoodservice.com.au,AU,Oceania,Australia and New Zealand,Australia,New South Wales,,Sydney
163.47.119.159,4,-21,ghettoforge.org,AU,Oceania,Australia and New Zealand,Australia,,,
202.74.65.5,4,5,gil.com.au,AU,Oceania,Australia and New Zealand,Australia,,,
103.224.212.26,4,8,girl.com.au,AU,Oceania,Australia and New Zealand,Australia,,,
202.27.212.66,4,12,gisborne.net.nz,NZ,Oceania,Australia and New Zealand,New Zealand,Gisborne,,Gisborne
103.11.207.122,4,-10,gisymbol.com,AU,Oceania,Australia and New Zealand,Australia,,,
43.250.142.96,4,-13,glenewinestate.com.au,AU,Oceania,Australia and New Zealand,Australia,New South Wales,,Sydney
116.118.241.10,4,4,glenrockgp.com.au,AU,Oceania,Australia and New Zealand,Australia,New South Wales,,Mona Vale
27.50.67.243,4,-30,globalccsinstitute.com,AU,Oceania,Australia and New Zealand,Australia,Queensland,,Gold Coast
221.121.151.145,4,-31,globalgreeternetwork.info,AU,Oceania,Australia and New Zealand,Australia,New South Wales,,Sydney
170.64.220.60,4,11,globalhamlet.org,AU,Oceania,Australia and New Zealand,Australia,New South Wales,,Sydney
27.50.71.9,4,-23,glutenfreebakery.net,AU,Oceania,Australia and New Zealand,Australia,Queensland,,Gold Coast
103.117.107.31,4,5,gme.net.au,AU,Oceania,Australia and New Zealand,Australia,,,
202.74.66.154,4,3,gofar.co,AU,Oceania,Australia and New Zealand,Australia,,,
3.25.12.188,4,149804,goguide.com.au,AU,Oceania,Australia and New Zealand,Australia,New South Wales,,Sydney
120.29.9.122,4,3,goldcoastmarathon.com.au,AU,Oceania,Australia and New Zealand,Australia,Queensland,,Gold Coast
43.229.60.21,4,-13,goldenrobotrecords.com,AU,Oceania,Australia and New Zealand,Australia,New South Wales,,Sydney
13.237.125.83,4,5,golflink.com.au,AU,Oceania,Australia and New Zealand,Australia,New South Wales,,Sydney
13.238.238.49,4,11,golflink.com.au,AU,Oceania,Australia and New Zealand,Australia,New South Wales,,Sydney
103.146.112.218,4,42,goodfoodshow.com.au,AU,Oceania,Australia and New Zealand,Australia,,,
103.16.180.234,4,-10,goodreturns.co.nz,NZ,Oceania,Australia and New Zealand,New Zealand,Auckland,,Auckland
45.63.29.199,4,11,gotriptravel.com.au,AU,Oceania,Australia and New Zealand,Australia,New South Wales,,Sydney
103.224.212.233,4,8,goturkeytourism.com,AU,Oceania,Australia and New Zealand,Australia,,,
13.54.250.212,4,4,govhack.org,AU,Oceania,Australia and New Zealand,Australia,New South Wales,,Sydney
13.239.129.5,4,7,govhack.org,AU,Oceania,Australia and New Zealand,Australia,New South Wales,,Sydney
117.121.244.11,4,961,gplhost.com,NZ,Oceania,Australia and New Zealand,New Zealand,Canterbury,,Christchurch
103.26.237.122,4,5,gracecollection.com.au,AU,Oceania,Australia and New Zealand,Australia,,,
20.211.43.188,4,8,grampianstars.com.au,AU,Oceania,Australia and New Zealand,Australia,New South Wales,,Sydney
103.209.24.114,4,14,grandprix.com.au,AU,Oceania,Australia and New Zealand,Australia,Victoria,,Melbourne
103.27.35.122,4,19,grattan.edu.au,AU,Oceania,Australia and New Zealand,Australia,New South Wales,,Sydney
103.208.218.124,4,-4,greatershepparton.com.au,AU,Oceania,Australia and New Zealand,Australia,,,
27.131.110.162,4,792,greatwalksofaustralia.com.au,AU,Oceania,Australia and New Zealand,Australia,Victoria,,Melbourne
101.0.85.174,4,35,greenharvest.com.au,AU,Oceania,Australia and New Zealand,Australia,Victoria,,Melbourne
103.25.59.18,4,18,greenspeed.com.au,AU,Oceania,Australia and New Zealand,Australia,New South Wales,,Sydney
114.142.161.217,4,22098,gregsavage.com.au,AU,Oceania,Australia and New Zealand,Australia,,,
103.42.111.84,4,17,griffithreview.com,AU,Oceania,Australia and New Zealand,Australia,Victoria,,Melbourne
103.27.34.15,4,17,growyouthful.com,AU,Oceania,Australia and New Zealand,Australia,New South Wales,,Sydney
95.111.217.84,4,7,gsdiamonds.com.au,AU,Oceania,Australia and New Zealand,Australia,New South Wales,,Sydney
43.250.142.34,4,-9,gymlink.com.au,AU,Oceania,Australia and New Zealand,Australia,New South Wales,,Sydney
103.77.224.45,4,3,hadlow.ac.uk,AU,Oceania,Australia and New Zealand,Australia,,,
101.0.69.166,4,7,hairtrade.com.au,AU,Oceania,Australia and New Zealand,Australia,Victoria,,Melbourne
202.76.248.244,4,6,hakka.com.au,AU,Oceania,Australia and New Zealand,Australia,,,
103.27.32.17,4,-14,halalpidehouse.com.au,AU,Oceania,Australia and New Zealand,Australia,New South Wales,,Sydney
139.180.170.97,4,-11,halcyonhouse.com.au,AU,Oceania,Australia and New Zealand,Australia,New South Wales,,Sydney
52.65.146.188,4,6,harness.org.au,AU,Oceania,Australia and New Zealand,Australia,New South Wales,,Sydney
203.209.209.194,4,34,harnessmaster.com,AU,Oceania,Australia and New Zealand,Australia,Victoria,,Melbourne
103.77.224.23,4,88,harrow.ac.uk,AU,Oceania,Australia and New Zealand,Australia,,,
20.92.129.81,4,56549,hartsport.com.au,AU,Oceania,Australia and New Zealand,Australia,New South Wales,,Sydney
175.45.129.5,4,3,hayman.com.au,AU,Oceania,Australia and New Zealand,Australia,,,
110.232.143.136,4,-14,headacheaustralia.org.au,AU,Oceania,Australia and New Zealand,Australia,Queensland,,Brisbane
103.4.19.75,4,3,healthyskepticism.org,AU,Oceania,Australia and New Zealand,Australia,Queensland,,Brisbane
27.50.77.5,4,-33,hearnet.org.au,AU,Oceania,Australia and New Zealand,Australia,Queensland,,Gold Coast
116.90.50.80,4,11,heartkids.org.au,AU,Oceania,Australia and New Zealand,Australia,,,
43.250.142.102,4,-2,heartresearch.com.au,AU,Oceania,Australia and New Zealand,Australia,New South Wales,,Sydney
103.152.248.127,4,3,heckerguthrie.com,AU,Oceania,Australia and New Zealand,Australia,,,
203.132.1.116,4,-31,helencaldicott.com,AU,Oceania,Australia and New Zealand,Australia,,,
172.105.183.251,4,19,hellolisting.com.au,AU,Oceania,Australia and New Zealand,Australia,New South Wales,,Sydney
27.50.93.169,4,-2639,hellomay.com.au,AU,Oceania,Australia and New Zealand,Australia,New South Wales,,Sydney
43.245.53.143,4,48,hempelyacht.co.nz,AU,Oceania,Australia and New Zealand,Australia,,,
20.92.129.87,4,56559,henryschein.com.au,AU,Oceania,Australia and New Zealand,Australia,New South Wales,,Sydney
103.42.111.213,4,-11,hiddencitysecrets.com.au,AU,Oceania,Australia and New Zealand,Australia,Victoria,,Melbourne
103.250.232.40,4,18,hiddenforest.co.nz,NZ,Oceania,Australia and New Zealand,New Zealand,,,
118.127.41.169,4,-28,hiddensecretstours.com,AU,Oceania,Australia and New Zealand,Australia,New South Wales,,Sydney
203.118.131.219,4,-3492,hilariouschaos.com,NZ,Oceania,Australia and New Zealand,New Zealand,Auckland,,Auckland
172.105.190.148,4,-1,hitechfasteners.com.au,AU,Oceania,Australia and New Zealand,Australia,New South Wales,,Sydney
103.42.110.14,4,8336,hlb.com.au,AU,Oceania,Australia and New Zealand,Australia,Victoria,,Melbourne
103.12.69.157,4,8,hlhtz.com,AU,Oceania,Australia and New Zealand,Australia,,,
202.74.66.102,4,5,hockey.ie,AU,Oceania,Australia and New Zealand,Australia,,,
202.134.241.50,4,36,hokislot88-asik.com,AU,Oceania,Australia and New Zealand,Australia,Victoria,,Melbourne
43.250.142.95,4,28,homanndesigns.com,AU,Oceania,Australia and New Zealand,Australia,New South Wales,,Sydney
43.250.142.73,4,-8,homebuilthifi.com,AU,Oceania,Australia and New Zealand,Australia,New South Wales,,Sydney
45.32.189.185,4,3,homedoctor.com.au,AU,Oceania,Australia and New Zealand,Australia,New South Wales,,Sydney
43.250.142.67,4,851,homelessnessaustralia.org.au,AU,Oceania,Australia and New Zealand,Australia,New South Wales,,Sydney
103.237.108.247,4,-1162,homeone.com.au,AU,Oceania,Australia and New Zealand,Australia,,,
27.50.65.251,4,-18,hommemystere.com,AU,Oceania,Australia and New Zealand,Australia,Queensland,,Gold Coast
43.250.142.86,4,-15,honesthistory.net.au,AU,Oceania,Australia and New Zealand,Australia,New South Wales,,Sydney
202.74.70.148,4,15,honeybee.org.au,AU,Oceania,Australia and New Zealand,Australia,,,
116.90.53.26,4,12,hopeconnect.org.au,AU,Oceania,Australia and New Zealand,Australia,,,
110.173.132.201,4,3,hornsdalepowerreserve.com.au,AU,Oceania,Australia and New Zealand,Australia,Victoria,,Melbourne
114.23.97.33,4,857,horsetalk.co.nz,NZ,Oceania,Australia and New Zealand,New Zealand,Canterbury,,Christchurch
203.98.95.7,4,26,hostevents.com.au,AU,Oceania,Australia and New Zealand,Australia,New South Wales,,Sydney
103.27.34.19,4,-11,hotpod.net.au,AU,Oceania,Australia and New Zealand,Australia,New South Wales,,Sydney
194.195.249.147,4,222930,httpster.net,AU,Oceania,Australia and New Zealand,Australia,New South Wales,,Sydney
185.17.255.46,4,17,hudin.com,NZ,Oceania,Australia and New Zealand,New Zealand,,,
221.121.152.241,4,-28,hugabub.com,AU,Oceania,Australia and New Zealand,Australia,New South Wales,,Sydney
103.84.224.30,4,4,humbug.org.au,AU,Oceania,Australia and New Zealand,Australia,,,
117.120.11.202,4,-28,huntervalleygardens.com.au,AU,Oceania,Australia and New Zealand,Australia,New South Wales,,Sydney
103.27.32.9,4,-14,hyperrust.org,AU,Oceania,Australia and New Zealand,Australia,New South Wales,,Sydney
51.161.128.144,4,54,i-tech.com.au,AU,Oceania,Australia and New Zealand,Australia,New South Wales,,Sydney
116.90.54.7,4,8,i94bar.com,AU,Oceania,Australia and New Zealand,Australia,,,
101.0.112.8,4,6,ianbunn.com,AU,Oceania,Australia and New Zealand,Australia,New South Wales,,Sydney
43.245.53.21,4,46,iase-web.org,AU,Oceania,Australia and New Zealand,Australia,,,
103.9.57.193,4,1,iba.gov.au,AU,Oceania,Australia and New Zealand,Australia,,,
103.127.41.94,4,22,ibasecretariat.org,AU,Oceania,Australia and New Zealand,Australia,,,
202.74.65.80,4,9,icebergevents.com.au,AU,Oceania,Australia and New Zealand,Australia,,,
203.98.95.9,4,12,icsm.gov.au,AU,Oceania,Australia and New Zealand,Australia,New South Wales,,Sydney
110.232.143.131,4,-22,ideas.org.au,AU,Oceania,Australia and New Zealand,Australia,Queensland,,Brisbane
103.27.35.155,4,1,idm.net.au,AU,Oceania,Australia and New Zealand,Australia,New South Wales,,Sydney
103.152.248.7,4,14,idrb.com,AU,Oceania,Australia and New Zealand,Australia,,,
103.64.148.194,4,11,ifaa-archery.org,AU,Oceania,Australia and New Zealand,Australia,,,
103.27.32.36,4,-7,igsd.org,AU,Oceania,Australia and New Zealand,Australia,New South Wales,,Sydney
103.42.110.36,4,-15,iier.org.au,AU,Oceania,Australia and New Zealand,Australia,Victoria,,Melbourne
103.230.158.158,4,-14,ijk.com.au,AU,Oceania,Australia and New Zealand,Australia,New South Wales,,Sydney
103.27.34.4,4,-23,illw.net,AU,Oceania,Australia and New Zealand,Australia,New South Wales,,Sydney
110.232.143.87,4,-10,immunisationcoalition.org.au,AU,Oceania,Australia and New Zealand,Australia,Queensland,,Brisbane
122.201.79.58,4,1,inapng.com,AU,Oceania,Australia and New Zealand,Australia,,,
103.42.110.9,4,986,incat.com.au,AU,Oceania,Australia and New Zealand,Australia,Victoria,,Melbourne
116.90.41.20,4,36,independentcareservices.com.au,AU,Oceania,Australia and New Zealand,Australia,,,
103.11.207.159,4,-11,indianlink.com.au,AU,Oceania,Australia and New Zealand,Australia,,,
103.14.142.226,4,1044,indiannewslink.co.nz,NZ,Oceania,Australia and New Zealand,New Zealand,Auckland,,Auckland
45.124.54.171,4,-29,indigoframing.com.au,AU,Oceania,Australia and New Zealand,Australia,Victoria,,Melbourne
103.9.161.219,4,-1211,ineedhits.com,AU,Oceania,Australia and New Zealand,Australia,Western Australia,,Perth
34.129.114.11,4,113,infoisinfo-au.com,AU,Oceania,Australia and New Zealand,Australia,Victoria,,Melbourne
110.173.132.217,4,13,infrastructurepipeline.org,AU,Oceania,Australia and New Zealand,Australia,Victoria,,Melbourne
45.77.234.210,4,41,infratil.com,AU,Oceania,Australia and New Zealand,Australia,New South Wales,,Sydney
13.237.37.77,4,19,inghams.com.au,AU,Oceania,Australia and New Zealand,Australia,New South Wales,,Sydney
117.120.12.165,4,-520,inmycommunity.com.au,AU,Oceania,Australia and New Zealand,Australia,New South Wales,,Sydney
103.26.237.114,4,3,innerhealthclinic.com.au,AU,Oceania,Australia and New Zealand,Australia,,,
221.121.146.221,4,-525,insidehr.com.au,AU,Oceania,Australia and New Zealand,Australia,New South Wales,,Sydney
103.209.24.35,4,5,insidestory.org.au,AU,Oceania,Australia and New Zealand,Australia,Victoria,,Melbourne
176.97.69.216,4,11,inspirythemesdemo.com,AU,Oceania,Australia and New Zealand,Australia,New South Wales,,Sydney
103.11.147.74,4,-4,internationalaffairs.org.au,AU,Oceania,Australia and New Zealand,Australia,,,
51.161.130.117,4,39,internet.com,AU,Oceania,Australia and New Zealand,Australia,,,
202.74.66.77,4,1,ipaa.org.au,AU,Oceania,Australia and New Zealand,Australia,,,
103.127.163.169,4,1003,iped-editors.org,AU,Oceania,Australia and New Zealand,Australia,,,
175.45.183.86,4,-32,isbweb.org,AU,Oceania,Australia and New Zealand,Australia,Western Australia,,Perth
116.90.63.242,4,10,itechlabs.com.au,AU,Oceania,Australia and New Zealand,Australia,,,
103.152.248.32,4,10,itecuae.ae,AU,Oceania,Australia and New Zealand,Australia,,,
101.0.65.50,4,7,itwire.com,AU,Oceania,Australia and New Zealand,Australia,Victoria,,Melbourne
188.253.2.53,4,103099,iusnews.ir,AU,Oceania,Australia and New Zealand,Australia,,,
35.197.170.219,4,5,ivywindowfurnishinggroup.com.au,AU,Oceania,Australia and New Zealand,Australia,New South Wales,,Sydney
202.74.66.187,4,5,iwgwomenandsport.org,AU,Oceania,Australia and New Zealand,Australia,,,
101.0.112.4,4,8,jabiru.net.au,AU,Oceania,Australia and New Zealand,Australia,New South Wales,,Sydney
116.90.56.133,4,9,jacarandaslims.com,AU,Oceania,Australia and New Zealand,Australia,,,
110.232.143.20,4,-13,jamberoo.net,AU,Oceania,Australia and New Zealand,Australia,Queensland,,Brisbane
223.165.64.192,4,20,janter.co.nz,NZ,Oceania,Australia and New Zealand,New Zealand,,,
110.232.143.39,4,-14,jbsolicitors.com.au,AU,Oceania,Australia and New Zealand,Australia,Queensland,,Brisbane
101.0.68.158,4,6,jcba.com.au,AU,Oceania,Australia and New Zealand,Australia,Victoria,,Melbourne
45.125.247.113,4,2,jennifermarohasy.com,AU,Oceania,Australia and New Zealand,Australia,New South Wales,,Sydney
116.90.49.27,4,85,jewishmuseum.com.au,AU,Oceania,Australia and New Zealand,Australia,,,
23.32.5.135,4,-39,jgl.com.au,AU,Oceania,Australia and New Zealand,Australia,New South Wales,,Sydney
139.99.221.236,4,6,jims.net,AU,Oceania,Australia and New Zealand,Australia,New South Wales,,Sydney
139.99.223.23,4,3,jimsdogwash.net.au,AU,Oceania,Australia and New Zealand,Australia,New South Wales,,Sydney
43.250.142.100,4,-16,jimsit.com.au,AU,Oceania,Australia and New Zealand,Australia,New South Wales,,Sydney
180.92.194.209,4,-27,jimsmowing.com.au,AU,Oceania,Australia and New Zealand,Australia,New South Wales,,Sydney
140.238.202.182,4,0,jinbuguo.com,AU,Oceania,Australia and New Zealand,Australia,New South Wales,,Bungarribee
101.0.113.246,4,5,jkgroup.com.au,AU,Oceania,Australia and New Zealand,Australia,New South Wales,,Sydney
43.250.142.79,4,-15,jmbdraincleaning.com.au,AU,Oceania,Australia and New Zealand,Australia,New South Wales,,Sydney
202.74.67.15,4,3,jobsonthecoast.com.au,AU,Oceania,Australia and New Zealand,Australia,,,
103.42.110.13,4,-4,johnwardlearchitects.com,AU,Oceania,Australia and New Zealand,Australia,Victoria,,Melbourne
103.224.212.234,4,4,joomlage.com,AU,Oceania,Australia and New Zealand,Australia,,,
14.200.224.90,4,-825050,joy.org.au,AU,Oceania,Australia and New Zealand,Australia,Victoria,,Melbourne
103.12.69.171,4,9,jszhaoye.com,AU,Oceania,Australia and New Zealand,Australia,,,
149.28.168.93,4,0,julieandkittee.com,AU,Oceania,Australia and New Zealand,Australia,New South Wales,,Sydney
103.42.110.5,4,-16,justicefamilylawyers.com.au,AU,Oceania,Australia and New Zealand,Australia,Victoria,,Melbourne
202.134.241.236,4,32,kakdulto.org,AU,Oceania,Australia and New Zealand,Australia,Victoria,,Melbourne
103.152.249.21,4,3,kaldorartprojects.org.au,AU,Oceania,Australia and New Zealand,Australia,,,
101.0.112.229,4,8,kanedigital.com,AU,Oceania,Australia and New Zealand,Australia,New South Wales,,Sydney
188.253.2.95,4,23,kanoonsobhan.ir,AU,Oceania,Australia and New Zealand,Australia,,,
27.50.82.15,4,-22,karoongas.com.au,AU,Oceania,Australia and New Zealand,Australia,Victoria,,Melbourne
203.206.210.220,4,5,karpati.com.au,AU,Oceania,Australia and New Zealand,Australia,New South Wales,,Mullumbimby
43.250.140.27,4,-21,kaseychambers.com,AU,Oceania,Australia and New Zealand,Australia,New South Wales,,Sydney
202.74.70.90,4,8,katrinaleechambers.com,AU,Oceania,Australia and New Zealand,Australia,,,
202.74.69.46,4,3,kiallafoods.com.au,AU,Oceania,Australia and New Zealand,Australia,,,
103.254.137.97,4,7152,kiddieland.com.hk,AU,Oceania,Australia and New Zealand,Australia,,,
116.90.57.232,4,42,kidsafe.com.au,AU,Oceania,Australia and New Zealand,Australia,,,
149.28.180.2,4,5,kings.edu.au,AU,Oceania,Australia and New Zealand,Australia,New South Wales,,Sydney
203.114.129.100,4,4,kiwiblog.co.nz,NZ,Oceania,Australia and New Zealand,New Zealand,Manawatu-Wanganui,,Palmerston North
52.65.73.113,4,-84,kiwiprint.co.nz,AU,Oceania,Australia and New Zealand,Australia,New South Wales,,Sydney
120.138.23.25,4,17,kiwisforkiwi.org,NZ,Oceania,Australia and New Zealand,New Zealand,,,
223.165.76.143,4,18,kjet.co.nz,NZ,Oceania,Australia and New Zealand,New Zealand,,,
103.152.198.220,4,3,klausdierks.com,NZ,Oceania,Australia and New Zealand,New Zealand,,,
202.37.88.36,4,6,knowledge-basket.co.nz,NZ,Oceania,Australia and New Zealand,New Zealand,,,
202.37.88.37,4,5,knowledge-basket.co.nz,NZ,Oceania,Australia and New Zealand,New Zealand,,,
110.173.135.20,4,6,kobejones.com.au,AU,Oceania,Australia and New Zealand,Australia,New South Wales,,Sydney
45.32.191.76,4,15,kokogiak.com,AU,Oceania,Australia and New Zealand,Australia,New South Wales,,Sydney
110.232.143.61,4,14,kororaproject.org,AU,Oceania,Australia and New Zealand,Australia,Queensland,,Brisbane
159.196.245.77,4,48,krabb.org,AU,Oceania,Australia and New Zealand,Australia,Victoria,,
45.76.118.219,4,1,ksouhome.com,AU,Oceania,Australia and New Zealand,Australia,New South Wales,,Sydney
202.74.67.67,4,3,kuranda.org,AU,Oceania,Australia and New Zealand,Australia,,,
54.79.75.87,4,12,kuvva.com,AU,Oceania,Australia and New Zealand,Australia,New South Wales,,Sydney
103.64.148.54,4,5,kysa.com.au,AU,Oceania,Australia and New Zealand,Australia,,,
101.0.113.91,4,420,l-a-v-a.net,AU,Oceania,Australia and New Zealand,Australia,New South Wales,,Sydney
103.27.34.3,4,-8,lakehouse.com.au,AU,Oceania,Australia and New Zealand,Australia,New South Wales,,Sydney
82.97.245.200,4,13,lanbook.com,AU,Oceania,Australia and New Zealand,Australia,,,
139.84.197.166,4,30,lancemore.com.au,AU,Oceania,Australia and New Zealand,Australia,Victoria,,Melbourne
49.50.248.18,4,17,landsurvey.co.nz,NZ,Oceania,Australia and New Zealand,New Zealand,Auckland,,Lynfield
45.76.124.144,4,8,larvatusprodeo.net,AU,Oceania,Australia and New Zealand,Australia,New South Wales,,Sydney
203.209.215.91,4,-2851222,latrobevalleyexpress.com.au,AU,Oceania,Australia and New Zealand,Australia,Victoria,,Melbourne
103.209.24.30,4,3,launchvic.org,AU,Oceania,Australia and New Zealand,Australia,Victoria,,Melbourne
103.208.219.42,4,33,lavoisier.com.au,AU,Oceania,Australia and New Zealand,Australia,,,
43.250.142.98,4,-9,lawsocietynt.asn.au,AU,Oceania,Australia and New Zealand,Australia,New South Wales,,Sydney
110.232.143.134,4,-17,lblewis.com.au,AU,Oceania,Australia and New Zealand,Australia,Queensland,,Brisbane
49.255.168.146,4,543671,lca.org.au,AU,Oceania,Australia and New Zealand,Australia,South Australia,,Parkside
116.90.41.5,4,11,ldp.org.au,AU,Oceania,Australia and New Zealand,Australia,,,
45.63.29.188,4,4,leapfrogmachinery.com.au,AU,Oceania,Australia and New Zealand,Australia,New South Wales,,Sydney
182.160.154.197,4,27,learning4kids.net,AU,Oceania,Australia and New Zealand,Australia,,,
110.232.143.6,4,-14,learningfundamentals.com.au,AU,Oceania,Australia and New Zealand,Australia,Queensland,,Brisbane
139.99.210.96,4,29,leconomistemaghrebin.com,AU,Oceania,Australia and New Zealand,Australia,New South Wales,,Sydney
120.138.22.131,4,38,legionairefishingcharters.co.nz,NZ,Oceania,Australia and New Zealand,New Zealand,,,
103.13.84.205,4,-32,lei.org.au,AU,Oceania,Australia and New Zealand,Australia,Western Australia,,Perth
203.98.95.132,4,21,leosayer.com,AU,Oceania,Australia and New Zealand,Australia,New South Wales,,Sydney
116.90.54.10,4,11,lessonslearntjournal.com,AU,Oceania,Australia and New Zealand,Australia,,,
202.74.67.248,4,13,letsgosurfing.com.au,AU,Oceania,Australia and New Zealand,Australia,,,
13.237.131.218,4,6,liberal.org.au,AU,Oceania,Australia and New Zealand,Australia,New South Wales,,Sydney
3.104.4.128,4,7,liberal.org.au,AU,Oceania,Australia and New Zealand,Australia,New South Wales,,Sydney
103.27.33.211,4,-11,libertyoil.com.au,AU,Oceania,Australia and New Zealand,Australia,New South Wales,,Sydney
103.230.157.90,4,11,lifesaving.com.au,AU,Oceania,Australia and New Zealand,Australia,Queensland,,Brisbane
103.224.212.241,4,3,light1998.com,AU,Oceania,Australia and New Zealand,Australia,,,
101.0.119.60,4,10,lighthouse.net.au,AU,Oceania,Australia and New Zealand,Australia,New South Wales,,Sydney
103.42.111.114,4,-16,lightstation.com,AU,Oceania,Australia and New Zealand,Australia,Victoria,,Melbourne
49.50.248.21,4,4,linearmotion.co.nz,NZ,Oceania,Australia and New Zealand,New Zealand,Auckland,,Lynfield
103.84.224.16,4,10,linux.org.au,AU,Oceania,Australia and New Zealand,Australia,,,
43.250.142.31,4,-9,lions.org.au,AU,Oceania,Australia and New Zealand,Australia,New South Wales,,Sydney
27.131.77.142,4,4932,litepc.com,AU,Oceania,Australia and New Zealand,Australia,Victoria,,Melbourne
52.62.244.154,4,33,literacyplanet.com,AU,Oceania,Australia and New Zealand,Australia,New South Wales,,Sydney
101.0.113.247,4,28,littlebigh.com,AU,Oceania,Australia and New Zealand,Australia,New South Wales,,Sydney
101.0.112.162,4,8,littleecofootprints.com,AU,Oceania,Australia and New Zealand,Australia,New South Wales,,Sydney
43.250.142.140,4,-4,littlegreencheese.com,AU,Oceania,Australia and New Zealand,Australia,New South Wales,,Sydney
27.54.133.165,4,3,littlegreenpharma.com,AU,Oceania,Australia and New Zealand,Australia,Western Australia,,Perth
116.90.53.2,4,9,littlezaks.com.au,AU,Oceania,Australia and New Zealand,Australia,,,
111.65.227.122,4,4,livenews.co.nz,NZ,Oceania,Australia and New Zealand,New Zealand,,,
182.160.155.103,4,2,liveperformance.com.au,AU,Oceania,Australia and New Zealand,Australia,,,
103.42.110.18,4,-16,localfoodconnect.org.au,AU,Oceania,Australia and New Zealand,Australia,Victoria,,Melbourne
52.65.87.250,4,25,logarithmic.net,AU,Oceania,Australia and New Zealand,Australia,New South Wales,,Sydney
103.226.179.64,4,46,lottos.com.au,AU,Oceania,Australia and New Zealand,Australia,,,
110.232.143.46,4,-10,louvreelite.com.au,AU,Oceania,Australia and New Zealand,Australia,Queensland,,Brisbane
103.77.224.46,4,3,lsec.ac.uk,AU,Oceania,Australia and New Zealand,Australia,,,
113.52.1.21,4,11,lubemobile.com.au,AU,Oceania,Australia and New Zealand,Australia,Queensland,,Brisbane
43.250.142.37,4,-13,luigirosselli.com,AU,Oceania,Australia and New Zealand,Australia,New South Wales,,Sydney
120.138.17.210,4,16,lumiere.net.nz,NZ,Oceania,Australia and New Zealand,New Zealand,,,
203.30.47.240,4,7973,lunapalace.com.au,AU,Oceania,Australia and New Zealand,Australia,,,
101.0.119.195,4,10,m3blue.com,AU,Oceania,Australia and New Zealand,Australia,New South Wales,,Sydney
139.180.165.116,4,0,magellangroup.com.au,AU,Oceania,Australia and New Zealand,Australia,New South Wales,,Sydney
118.127.41.40,4,-29,magicdust.com.au,AU,Oceania,Australia and New Zealand,Australia,New South Wales,,Sydney
110.232.143.128,4,24,mainteckservices.com.au,AU,Oceania,Australia and New Zealand,Australia,Queensland,,Brisbane
170.64.152.10,4,107,makapizifaka.site,AU,Oceania,Australia and New Zealand,Australia,New South Wales,,Sydney
202.27.212.68,4,3,makauri.co.nz,NZ,Oceania,Australia and New Zealand,New Zealand,Gisborne,,Gisborne
188.253.2.224,4,-66478,manzoom.ir,AU,Oceania,Australia and New Zealand,Australia,,,
114.134.14.237,4,31,marathon-photos.com,NZ,Oceania,Australia and New Zealand,New Zealand,Waikato Region,,Hamilton
110.232.143.94,4,15,mardigras.org.au,AU,Oceania,Australia and New Zealand,Australia,Queensland,,Brisbane
103.27.34.31,4,-1,margmowczko.com,AU,Oceania,Australia and New Zealand,Australia,New South Wales,,Sydney
43.250.142.53,4,-10,marsonhire.com.au,AU,Oceania,Australia and New Zealand,Australia,New South Wales,,Sydney
116.90.61.41,4,9,martybugs.net,AU,Oceania,Australia and New Zealand,Australia,,,
150.107.73.192,4,-22,masm32.com,AU,Oceania,Australia and New Zealand,Australia,New South Wales,,Sydney
103.27.32.23,4,-3,masterlocksmiths.com.au,AU,Oceania,Australia and New Zealand,Australia,New South Wales,,Sydney
185.121.168.233,4,1,mastodon.nz,NZ,Oceania,Australia and New Zealand,New Zealand,Auckland,,Auckland
101.0.112.17,4,87,mathsteacher.com.au,AU,Oceania,Australia and New Zealand,Australia,New South Wales,,Sydney
27.54.133.45,4,6,matsos.com.au,AU,Oceania,Australia and New Zealand,Australia,Western Australia,,Perth
27.54.89.188,4,3,matthewreilly.com,AU,Oceania,Australia and New Zealand,Australia,,,
103.27.34.128,4,-6,maxfunding.com.au,AU,Oceania,Australia and New Zealand,Australia,New South Wales,,Sydney
43.243.203.119,4,2972,mbfashionweek.com,AU,Oceania,Australia and New Zealand,Australia,,,
149.28.173.138,4,-13,mbsfestival.com.au,AU,Oceania,Australia and New Zealand,Australia,New South Wales,,Sydney
103.224.212.9,4,5,mbtshoesonline.com,AU,Oceania,Australia and New Zealand,Australia,,,
13.236.52.225,4,5,mca.com.au,AU,Oceania,Australia and New Zealand,Australia,New South Wales,,Sydney
103.26.236.213,4,18,mccofnsw.org.au,AU,Oceania,Australia and New Zealand,Australia,,,
116.90.62.38,4,20,mckellinstitute.org.au,AU,Oceania,Australia and New Zealand,Australia,,,
103.248.176.59,4,8,mcnz.org.nz,NZ,Oceania,Australia and New Zealand,New Zealand,,,
103.11.207.143,4,-3,mediaaccess.org.au,AU,Oceania,Australia and New Zealand,Australia,,,
122.252.2.10,4,3,mediaman.com.au,AU,Oceania,Australia and New Zealand,Australia,New South Wales,,Sydney
110.232.143.10,4,-9,medicaldirector.com,AU,Oceania,Australia and New Zealand,Australia,Queensland,,Brisbane
203.30.44.22,4,7974,meetmeatmikes.com,AU,Oceania,Australia and New Zealand,Australia,,,
103.224.212.252,4,8,megashare.info,AU,Oceania,Australia and New Zealand,Australia,,,
103.17.233.193,4,2764,megt.com.au,AU,Oceania,Australia and New Zealand,Australia,Victoria,,Melbourne
43.250.140.46,4,-9,melbflowershow.com.au,AU,Oceania,Australia and New Zealand,Australia,New South Wales,,Sydney
103.27.34.25,4,-13,melbourneanglican.org.au,AU,Oceania,Australia and New Zealand,Australia,New South Wales,,Sydney
192.250.232.5,4,14,melbourneit.au,AU,Oceania,Australia and New Zealand,Australia,New South Wales,,Sydney
101.0.84.71,4,5,melbournejazz.com,AU,Oceania,Australia and New Zealand,Australia,Victoria,,Melbourne
110.232.143.55,4,-10,melbournemarathon.com.au,AU,Oceania,Australia and New Zealand,Australia,Queensland,,Brisbane
117.120.8.165,4,-518,melbournevaluers.net.au,AU,Oceania,Australia and New Zealand,Australia,New South Wales,,Sydney
120.138.30.85,4,16,melissaclifton.com,NZ,Oceania,Australia and New Zealand,New Zealand,,,
103.119.110.45,4,3,melodicrock.com,AU,Oceania,Australia and New Zealand,Australia,New South Wales,,Sydney
43.250.142.21,4,-10,memecode.com,AU,Oceania,Australia and New Zealand,Australia,New South Wales,,Sydney
43.250.142.152,4,-22,memorabletv.com,AU,Oceania,Australia and New Zealand,Australia,New South Wales,,Sydney
116.90.50.2,4,11,menopausecentre.com.au,AU,Oceania,Australia and New Zealand,Australia,,,
35.244.110.101,4,4,menzies.edu.au,AU,Oceania,Australia and New Zealand,Australia,New South Wales,,Sydney
43.250.142.123,4,-11,merrigong.com.au,AU,Oceania,Australia and New Zealand,Australia,New South Wales,,Sydney
110.232.143.9,4,-13,metal-roos.com.au,AU,Oceania,Australia and New Zealand,Australia,Queensland,,Brisbane
103.242.245.228,4,4,metromag.co.nz,NZ,Oceania,Australia and New Zealand,New Zealand,Auckland,,Auckland
116.90.60.58,4,11,mfaet.gov.sb,AU,Oceania,Australia and New Zealand,Australia,,,
172.105.175.210,4,823213,mga.org.au,AU,Oceania,Australia and New Zealand,Australia,New South Wales,,Sydney
182.160.154.176,4,6,mgnsw.org.au,AU,Oceania,Australia and New Zealand,Australia,,,
43.250.142.80,4,-8,mhcc.org.au,AU,Oceania,Australia and New Zealand,Australia,New South Wales,,Sydney
49.255.68.11,4,20,michaelkirby.com.au,AU,Oceania,Australia and New Zealand,Australia,New South Wales,,Sydney
103.77.224.43,4,2,midkent.ac.uk,AU,Oceania,Australia and New Zealand,Australia,,,
27.131.104.226,4,4,miff.com.au,AU,Oceania,Australia and New Zealand,Australia,Victoria,,Melbourne
101.0.94.93,4,14,migrationalliance.com.au,AU,Oceania,Australia and New Zealand,Australia,Victoria,,Melbourne
103.27.34.130,4,4,millsgorman.com.au,AU,Oceania,Australia and New Zealand,Australia,New South Wales,,Sydney
116.90.56.45,4,9,minikits.com.au,AU,Oceania,Australia and New Zealand,Australia,,,
27.131.106.14,4,2299,mitchellpage.com.au,AU,Oceania,Australia and New Zealand,Australia,Victoria,,Melbourne
203.28.238.219,4,4,mlmtruth.org,AU,Oceania,Australia and New Zealand,Australia,,,
103.224.212.232,4,8,mmisi.org,AU,Oceania,Australia and New Zealand,Australia,,,
103.43.117.45,4,-50,mnb.mn,AU,Oceania,Australia and New Zealand,Australia,New South Wales,,Shellharbour
116.90.57.38,4,15,mobilemarinemechanicalservice.com.au,AU,Oceania,Australia and New Zealand,Australia,,,
103.27.32.4,4,-8,mobilemuster.com.au,AU,Oceania,Australia and New Zealand,Australia,New South Wales,,Sydney
110.232.143.92,4,-9,mobilerepairfactory.com.au,AU,Oceania,Australia and New Zealand,Australia,Queensland,,Brisbane
110.232.143.96,4,-10,momentsetchedintime.com.au,AU,Oceania,Australia and New Zealand,Australia,Queensland,,Brisbane
202.74.65.124,4,0,monashchildrenshospital.org,AU,Oceania,Australia and New Zealand,Australia,,,
149.28.175.196,4,41,monumentaustralia.org.au,AU,Oceania,Australia and New Zealand,Australia,New South Wales,,Sydney
122.201.118.76,4,4,moonbuggy.org,AU,Oceania,Australia and New Zealand,Australia,,,
103.146.112.117,4,4,moonlitsanctuary.com.au,AU,Oceania,Australia and New Zealand,Australia,,,
27.54.130.87,4,164921,motherpedia.com.au,AU,Oceania,Australia and New Zealand,Australia,,,
116.90.51.116,4,11,motorclass.com.au,AU,Oceania,Australia and New Zealand,Australia,,,
117.120.13.93,4,-31,motorcyclenews.bike,AU,Oceania,Australia and New Zealand,Australia,New South Wales,,Sydney
103.224.212.225,4,5,moviejosss.com,AU,Oceania,Australia and New Zealand,Australia,,,
110.173.134.166,4,1,mpavilion.org,AU,Oceania,Australia and New Zealand,Australia,Victoria,,Melbourne
27.131.81.113,4,4,mpnews.com.au,AU,Oceania,Australia and New Zealand,Australia,Victoria,,Melbourne
122.201.84.241,4,-33808,mpweddingphoto.com.au,AU,Oceania,Australia and New Zealand,Australia,,,
101.0.81.254,4,5,mqff.com.au,AU,Oceania,Australia and New Zealand,Australia,Victoria,,Melbourne
139.99.149.160,4,12,mrsmindfulness.com,AU,Oceania,Australia and New Zealand,Australia,New South Wales,,Sydney
35.244.94.1,4,6,mrsplashplumbing.com.au,AU,Oceania,Australia and New Zealand,Australia,New South Wales,,Sydney
103.209.24.42,4,3,mso.com.au,AU,Oceania,Australia and New Zealand,Australia,Victoria,,Melbourne
116.90.59.164,4,5,mssanz.org.au,AU,Oceania,Australia and New Zealand,Australia,,,
202.27.200.75,4,10,mtpconnect.org.au,NZ,Oceania,Australia and New Zealand,New Zealand,,,
103.18.108.143,4,5,mua.org.au,AU,Oceania,Australia and New Zealand,Australia,New South Wales,,Sydney
103.249.70.32,4,48,mubeta.com.br,AU,Oceania,Australia and New Zealand,Australia,,,
103.96.117.52,4,3,mujca.com,NZ,Oceania,Australia and New Zealand,New Zealand,,,
110.232.113.197,4,-10,multiupload.com,AU,Oceania,Australia and New Zealand,Australia,New South Wales,,Sydney
116.90.51.35,4,6,murraybridgegreen.com.au,AU,Oceania,Australia and New Zealand,Australia,,,
103.50.34.13,4,49,musicvictoria.com.au,AU,Oceania,Australia and New Zealand,Australia,Victoria,,Melbourne
27.131.74.9,4,2,mwf.com.au,AU,Oceania,Australia and New Zealand,Australia,Victoria,,Melbourne
2.18.53.239,4,3,my.gov.ua,AU,Oceania,Australia and New Zealand,Australia,,,
2.18.52.239,4,7,my.gov.ua,AU,Oceania,Australia and New Zealand,Australia,,,
2.18.54.239,4,14,my.gov.ua,AU,Oceania,Australia and New Zealand,Australia,,,
139.99.190.190,4,8,myassignmentwriting.com.au,AU,Oceania,Australia and New Zealand,Australia,New South Wales,,Sydney
139.180.175.39,4,28,mycar.com.au,AU,Oceania,Australia and New Zealand,Australia,New South Wales,,Sydney
27.50.77.59,4,6,mycryptopedia.com,AU,Oceania,Australia and New Zealand,Australia,Queensland,,Gold Coast
43.250.140.20,4,-10,myfrenchlife.org,AU,Oceania,Australia and New Zealand,Australia,New South Wales,,Sydney
112.213.33.223,4,-6,myhealth.net.au,AU,Oceania,Australia and New Zealand,Australia,New South Wales,,Sydney
110.232.143.135,4,-4,myhomeselection.co.uk,AU,Oceania,Australia and New Zealand,Australia,Queensland,,Brisbane
110.232.143.130,4,6,myrepospace.com,AU,Oceania,Australia and New Zealand,Australia,Queensland,,Brisbane
110.232.116.46,4,2895,mysti.org,AU,Oceania,Australia and New Zealand,Australia,New South Wales,,Sydney
202.37.129.183,4,1137,mytaxback.co.nz,NZ,Oceania,Australia and New Zealand,New Zealand,,,
116.90.60.38,4,27,myvet.com.au,AU,Oceania,Australia and New Zealand,Australia,,,
110.232.143.4,4,-9,na.org.au,AU,Oceania,Australia and New Zealand,Australia,Queensland,,Brisbane
203.63.42.140,4,59,nantien.org.au,AU,Oceania,Australia and New Zealand,Australia,Victoria,,Melbourne
103.25.160.66,4,17,nata.com.au,AU,Oceania,Australia and New Zealand,Australia,,,
103.14.218.170,4,0,nationalaquarium.co.nz,NZ,Oceania,Australia and New Zealand,New Zealand,Waikato Region,,Hamilton
172.105.178.208,4,0,nationaldirectory.com.au,AU,Oceania,Australia and New Zealand,Australia,New South Wales,,Sydney
52.63.123.241,4,4,nationalretail.org.au,AU,Oceania,Australia and New Zealand,Australia,New South Wales,,Sydney
103.152.248.181,4,2,nationalunitygovernment.org,AU,Oceania,Australia and New Zealand,Australia,,,
27.50.67.245,4,-29,nativefish.asn.au,AU,Oceania,Australia and New Zealand,Australia,Queensland,,Gold Coast
221.121.143.216,4,-26,natrad.com.au,AU,Oceania,Australia and New Zealand,Australia,New South Wales,,Sydney
16.50.72.143,4,47,natsoft.com.au,AU,Oceania,Australia and New Zealand,Australia,Victoria,,Melbourne
110.232.143.99,4,-23,naturesforge.com.au,AU,Oceania,Australia and New Zealand,Australia,Queensland,,Brisbane
117.120.14.237,4,-27,navalinstitute.com.au,AU,Oceania,Australia and New Zealand,Australia,New South Wales,,Sydney
118.127.40.205,4,-1102,nb3electrical.com.au,AU,Oceania,Australia and New Zealand,Australia,New South Wales,,Sydney
103.42.224.194,4,5,ncca.org.au,AU,Oceania,Australia and New Zealand,Australia,,,
110.173.134.174,4,5,nci.org.au,AU,Oceania,Australia and New Zealand,Australia,Victoria,,Melbourne
103.27.32.19,4,-9,ncsehe.edu.au,AU,Oceania,Australia and New Zealand,Australia,New South Wales,,Sydney
101.0.111.134,4,16,nec.com.au,AU,Oceania,Australia and New Zealand,Australia,New South Wales,,Sydney
194.195.122.135,4,-8,neh.co.nz,AU,Oceania,Australia and New Zealand,Australia,New South Wales,,Sydney
170.64.165.176,4,1,nelsonmandelamuseum.org.za,AU,Oceania,Australia and New Zealand,Australia,New South Wales,,Sydney
218.185.224.233,4,23,nelsonnz.com,NZ,Oceania,Australia and New Zealand,New Zealand,Tasman District,,Richmond
202.74.68.230,4,0,netball.org,AU,Oceania,Australia and New Zealand,Australia,,,
43.250.140.38,4,37,netballscoop.com,AU,Oceania,Australia and New Zealand,Australia,New South Wales,,Sydney
13.237.91.207,4,76,netcomm.com.au,AU,Oceania,Australia and New Zealand,Australia,New South Wales,,Sydney
116.90.62.236,4,8,netstrata.com.au,AU,Oceania,Australia and New Zealand,Australia,,,
103.77.224.19,4,1,newcollegedurham.ac.uk,AU,Oceania,Australia and New Zealand,Australia,,,
103.27.34.32,4,-14,newlifenutrition.com.au,AU,Oceania,Australia and New Zealand,Australia,New South Wales,,Sydney
221.121.143.111,4,353,newphilosopher.com,AU,Oceania,Australia and New Zealand,Australia,New South Wales,,Sydney
101.0.119.160,4,19,newtheatre.org.au,AU,Oceania,Australia and New Zealand,Australia,New South Wales,,Sydney
103.42.108.70,4,-15,nexigen.digital,AU,Oceania,Australia and New Zealand,Australia,Victoria,,Melbourne
202.27.200.100,4,2,ngia.com.au,NZ,Oceania,Australia and New Zealand,New Zealand,,,
194.195.248.90,4,2,nichigopress.jp,AU,Oceania,Australia and New Zealand,Australia,New South Wales,,Sydney
27.124.125.173,4,4,nike-air-max.com.au,AU,Oceania,Australia and New Zealand,Australia,,,
103.82.64.71,4,5,ningborotary.com,AU,Oceania,Australia and New Zealand,Australia,New South Wales,,Sydney
101.0.72.6,4,7,nissanpatrol.com.au,AU,Oceania,Australia and New Zealand,Australia,Victoria,,Melbourne
116.90.54.11,4,3,noasproducts.com,AU,Oceania,Australia and New Zealand,Australia,,,
139.99.210.81,4,5,nobleparkelc.com.au,AU,Oceania,Australia and New Zealand,Australia,New South Wales,,Sydney
43.245.53.129,4,42,noelex22.org,AU,Oceania,Australia and New Zealand,Australia,,,
101.0.106.26,4,4,nor.com.au,AU,Oceania,Australia and New Zealand,Australia,New South Wales,,Sydney
110.232.143.115,4,-10,noriyaro.com,AU,Oceania,Australia and New Zealand,Australia,Queensland,,Brisbane
103.77.224.91,4,18,northamptoncollege.ac.uk,AU,Oceania,Australia and New Zealand,Australia,,,
103.152.248.129,4,4,nrm.org.au,AU,Oceania,Australia and New Zealand,Australia,,,
122.201.65.117,4,2,nswccl.org.au,AU,Oceania,Australia and New Zealand,Australia,,,
103.27.34.18,4,-14,nswcourts.com.au,AU,Oceania,Australia and New Zealand,Australia,New South Wales,,Sydney
110.173.132.188,4,0,nswis.com.au,AU,Oceania,Australia and New Zealand,Australia,Victoria,,Melbourne
43.250.142.18,4,-22,nswnma.asn.au,AU,Oceania,Australia and New Zealand,Australia,New South Wales,,Sydney
103.209.24.94,4,6,nullarborlinks.com,AU,Oceania,Australia and New Zealand,Australia,Victoria,,Melbourne
103.224.212.248,4,3,nytpost.com,AU,Oceania,Australia and New Zealand,Australia,,,
43.250.142.115,4,-14,nyxsocial.com.au,AU,Oceania,Australia and New Zealand,Australia,New South Wales,,Sydney
202.74.69.220,4,4,nz.basketball,AU,Oceania,Australia and New Zealand,Australia,,,
103.250.241.198,4,-17,nzcer.org.nz,NZ,Oceania,Australia and New Zealand,New Zealand,,,
3.105.247.70,4,7,nzcouriers.co.nz,AU,Oceania,Australia and New Zealand,Australia,New South Wales,,Sydney
13.54.218.17,4,4,nzcouriers.co.nz,AU,Oceania,Australia and New Zealand,Australia,New South Wales,,Sydney
223.165.77.21,4,19,nzcpr.com,NZ,Oceania,Australia and New Zealand,New Zealand,,,
103.27.34.112,4,-9,nzgg.org.nz,AU,Oceania,Australia and New Zealand,Australia,New South Wales,,Sydney
111.65.227.185,4,4,nzkc.org.nz,NZ,Oceania,Australia and New Zealand,New Zealand,,,
103.127.41.18,4,2730,oatleyelectronics.com,AU,Oceania,Australia and New Zealand,Australia,,,
103.208.188.175,4,-11,obee.com.au,AU,Oceania,Australia and New Zealand,Australia,,,
103.209.24.66,4,5,obesityevidencehub.org.au,AU,Oceania,Australia and New Zealand,Australia,Victoria,,Melbourne
27.131.74.36,4,2,obits.com.au,AU,Oceania,Australia and New Zealand,Australia,Victoria,,Melbourne
101.0.91.114,4,12,objective.com,AU,Oceania,Australia and New Zealand,Australia,Victoria,,Melbourne
27.50.67.241,4,-24,oceancrusaders.org,AU,Oceania,Australia and New Zealand,Australia,Queensland,,Gold Coast
203.57.114.66,4,-20,ocetisakowincamp.org,AU,Oceania,Australia and New Zealand,Australia,Victoria,,Melbourne
103.224.212.251,4,18,oecd-library.org,AU,Oceania,Australia and New Zealand,Australia,,,
20.70.243.50,4,56564,officechoice.com.au,AU,Oceania,Australia and New Zealand,Australia,New South Wales,,Sydney
103.27.34.51,4,2,oktoberfesttours.travel,AU,Oceania,Australia and New Zealand,Australia,New South Wales,,Sydney
149.28.164.202,4,15,oldmelbournegaol.com.au,AU,Oceania,Australia and New Zealand,Australia,New South Wales,,Sydney
192.231.203.31,4,-5670950,on.net,AU,Oceania,Australia and New Zealand,Australia,,,
207.148.83.170,4,22,onlinebingonz.co,AU,Oceania,Australia and New Zealand,Australia,New South Wales,,Sydney
103.152.248.18,4,10,onlinebiz.com.au,AU,Oceania,Australia and New Zealand,Australia,,,
103.250.232.149,4,19,onlinecasinosrealmoney.co.nz,NZ,Oceania,Australia and New Zealand,New Zealand,,,
27.50.90.173,4,-30,onlymelbourne.com.au,AU,Oceania,Australia and New Zealand,Australia,New South Wales,,Sydney
198.142.236.193,4,306,Ookla Speedtest Server 9108: speedtest-ebw.optusnet.com.au,AU,Oceania,Australia and New Zealand,Australia,,,
103.247.152.66,4,261,Ookla Speedtest Server 16592: qs220-speed-1.maxumdata.net,NZ,Oceania,Australia and New Zealand,New Zealand,Wellington Region,,Wellington
144.130.167.198,4,177,Ookla Speedtest Server 18711: cbr1.speedtest.telstra.net,AU,Oceania,Australia and New Zealand,Australia,Australian Capital Territory,,Canberra
144.130.165.118,4,15,Ookla Speedtest Server 18713: cha1.speedtest.telstra.net,AU,Oceania,Australia and New Zealand,Australia,New South Wales,,Sydney
110.145.177.190,4,266,Ookla Speedtest Server 18714: win1.speedtest.telstra.net,AU,Oceania,Australia and New Zealand,Australia,Victoria,,Melbourne
218.185.233.242,4,303,Ookla Speedtest Server 21585: vic-speedtest.spirit.com.au,AU,Oceania,Australia and New Zealand,Australia,Victoria,,Melbourne
67.159.27.4,4,187,Ookla Speedtest Server 54305: lg-syd.fdcservers.net,AU,Oceania,Australia and New Zealand,Australia,New South Wales,,Sydney
203.12.3.242,4,343,Ookla Speedtest Server 64079: speedtest.bri01.launtel.net.au,AU,Oceania,Australia and New Zealand,Australia,Queensland,,
202.127.8.7,4,251,Ookla Speedtest Server: chchbroadbandcheck.sky.co.nz,NZ,Oceania,Australia and New Zealand,New Zealand,Auckland,,Auckland
103.233.135.136,4,293,Ookla Speedtest Server: ookla.purelink.nz,NZ,Oceania,Australia and New Zealand,New Zealand,Waikato Region,,Raglan
43.252.115.254,4,59527,Ookla Speedtest Server: speedtest.occom.com.au,AU,Oceania,Australia and New Zealand,Australia,New South Wales,,Sydney
198.142.236.4,4,53,Ookla Speedtest Server: speedtest.syd.optusnet.com.au,AU,Oceania,Australia and New Zealand,Australia,,,
203.171.32.30,4,136,Ookla Speedtest Server: speedtest.xtreme.net.nz,NZ,Oceania,Australia and New Zealand,New Zealand,Wellington Region,,Wellington
54.206.187.227,4,17,opan.org.au,AU,Oceania,Australia and New Zealand,Australia,New South Wales,,Sydney
52.62.136.144,4,5,opan.org.au,AU,Oceania,Australia and New Zealand,Australia,New South Wales,,Sydney
202.89.39.8,4,8,opendvd.org,NZ,Oceania,Australia and New Zealand,New Zealand,Auckland,,Auckland
43.250.142.36,4,-7,openforum.com.au,AU,Oceania,Australia and New Zealand,Australia,New South Wales,,Sydney
203.25.132.12,4,23,opensrc.org,AU,Oceania,Australia and New Zealand,Australia,,,
101.0.112.233,4,15,opoudjis.net,AU,Oceania,Australia and New Zealand,Australia,New South Wales,,Sydney
211.29.132.152,4,-5,optushome.com.au,AU,Oceania,Australia and New Zealand,Australia,New South Wales,,Sydney
211.29.132.105,4,-4,optusnet.com.au,AU,Oceania,Australia and New Zealand,Australia,New South Wales,,Sydney
172.105.188.250,4,14,orangutans.com.au,AU,Oceania,Australia and New Zealand,Australia,New South Wales,,Sydney
120.138.17.202,4,60,organic-systems.org,NZ,Oceania,Australia and New Zealand,New Zealand,,,
202.52.60.55,4,-34534087,oricaminingservices.com,AU,Oceania,Australia and New Zealand,Australia,,,
103.42.111.11,4,-14,orienteering.asn.au,AU,Oceania,Australia and New Zealand,Australia,Victoria,,Melbourne
13.237.73.61,4,25,origintheatrical.com.au,AU,Oceania,Australia and New Zealand,Australia,New South Wales,,Sydney
103.27.34.115,4,-14,orthodoxchristian.info,AU,Oceania,Australia and New Zealand,Australia,New South Wales,,Sydney
45.63.28.225,4,-1,otmtransport.com.au,AU,Oceania,Australia and New Zealand,Australia,New South Wales,,Sydney
172.105.171.149,4,31,ourmoneymarket.com,AU,Oceania,Australia and New Zealand,Australia,New South Wales,,Sydney
101.0.105.110,4,28,outbackqueensland.com.au,AU,Oceania,Australia and New Zealand,Australia,New South Wales,,Sydney
103.38.11.198,4,5,outbackway.org.au,AU,Oceania,Australia and New Zealand,Australia,,,
170.64.128.193,4,84,outinperth.com,AU,Oceania,Australia and New Zealand,Australia,New South Wales,,Sydney
43.250.142.54,4,-16,overdoseday.com,AU,Oceania,Australia and New Zealand,Australia,New South Wales,,Sydney
203.4.149.61,4,1,ozatwar.com,AU,Oceania,Australia and New Zealand,Australia,,,
103.64.148.113,4,3,ozboulevards.com,AU,Oceania,Australia and New Zealand,Australia,,,
202.74.66.23,4,48,ozgrav.org,AU,Oceania,Australia and New Zealand,Australia,,,
103.152.248.30,4,3,ozkcorp.com.au,AU,Oceania,Australia and New Zealand,Australia,,,
43.250.142.6,4,15,ozmacsolutions.com.au,AU,Oceania,Australia and New Zealand,Australia,New South Wales,,Sydney
203.23.159.172,4,14,ozonline.com.au,AU,Oceania,Australia and New Zealand,Australia,,,
47.91.40.94,4,2,ozportal.tv,AU,Oceania,Australia and New Zealand,Australia,New South Wales,,Sydney
3.105.250.248,4,7,pacificfair.com.au,AU,Oceania,Australia and New Zealand,Australia,New South Wales,,Sydney
3.24.125.68,4,7,pacificfair.com.au,AU,Oceania,Australia and New Zealand,Australia,New South Wales,,Sydney
101.0.117.10,4,5,packerco.com,AU,Oceania,Australia and New Zealand,Australia,New South Wales,,Sydney
43.250.142.103,4,-10,pactadopt.org,AU,Oceania,Australia and New Zealand,Australia,New South Wales,,Sydney
51.161.152.94,4,4,palacefilms.com.au,AU,Oceania,Australia and New Zealand,Australia,New South Wales,,Sydney
13.211.64.60,4,35,paladinenergy.com.au,AU,Oceania,Australia and New Zealand,Australia,New South Wales,,Sydney
101.0.112.6,4,23,paleodietaustralia.com.au,AU,Oceania,Australia and New Zealand,Australia,New South Wales,,Sydney
43.250.142.72,4,-10,palliativecare.org.au,AU,Oceania,Australia and New Zealand,Australia,New South Wales,,Sydney
43.250.142.76,4,28,parkfuels.com.au,AU,Oceania,Australia and New Zealand,Australia,New South Wales,,Sydney
103.27.34.23,4,-11,parkinsons.org.au,AU,Oceania,Australia and New Zealand,Australia,New South Wales,,Sydney
45.76.119.200,4,9,parkz.com.au,AU,Oceania,Australia and New Zealand,Australia,New South Wales,,Sydney
13.236.35.110,4,26,paronellapark.com.au,AU,Oceania,Australia and New Zealand,Australia,New South Wales,,Sydney
149.28.187.204,4,95,paspaley.com,AU,Oceania,Australia and New Zealand,Australia,New South Wales,,Sydney
154.26.154.118,4,77,pathologytestsexplained.org.au,AU,Oceania,Australia and New Zealand,Australia,New South Wales,,Sydney
3.104.164.198,4,19,payitforwardday.com,AU,Oceania,Australia and New Zealand,Australia,New South Wales,,Sydney
103.209.24.96,4,23,paytherent.net.au,AU,Oceania,Australia and New Zealand,Australia,Victoria,,Melbourne
103.27.34.106,4,-12,pbas.com.au,AU,Oceania,Australia and New Zealand,Australia,New South Wales,,Sydney
203.10.76.4,4,8,pcug.org.au,AU,Oceania,Australia and New Zealand,Australia,,,
103.119.110.53,4,9,peakdemand.com.au,AU,Oceania,Australia and New Zealand,Australia,New South Wales,,Sydney
129.94.231.218,4,18,pedro.org.au,AU,Oceania,Australia and New Zealand,Australia,New South Wales,,Sydney
103.42.111.196,4,-13,penguinfoundation.org.au,AU,Oceania,Australia and New Zealand,Australia,Victoria,,Melbourne
27.131.111.176,4,-7208,penington.org.au,AU,Oceania,Australia and New Zealand,Australia,Victoria,,Melbourne
101.0.111.98,4,4,peninsulahealth.org.au,AU,Oceania,Australia and New Zealand,Australia,New South Wales,,Sydney
103.27.35.37,4,-7,pennicottjourneys.com.au,AU,Oceania,Australia and New Zealand,Australia,New South Wales,,Sydney
207.148.86.50,4,20,penrithrollershutters.com.au,AU,Oceania,Australia and New Zealand,Australia,New South Wales,,Sydney
101.0.105.138,4,15,pentanasolutions.com.au,AU,Oceania,Australia and New Zealand,Australia,New South Wales,,Sydney
112.109.71.91,4,11,people4success.co.nz,NZ,Oceania,Australia and New Zealand,New Zealand,,,
103.119.110.188,4,3,percapita.org.au,AU,Oceania,Australia and New Zealand,Australia,New South Wales,,Sydney
182.160.160.10,4,34,perisherxcountry.org,AU,Oceania,Australia and New Zealand,Australia,,,
139.99.255.61,4,51,permian.ru,AU,Oceania,Australia and New Zealand,Australia,New South Wales,,Sydney
103.64.148.80,4,-1390,personalizemedia.com,AU,Oceania,Australia and New Zealand,Australia,,,
103.137.119.3,4,43,perthcatholic.org.au,AU,Oceania,Australia and New Zealand,Australia,,,
43.250.142.59,4,26,peterdutton.com.au,AU,Oceania,Australia and New Zealand,Australia,New South Wales,,Sydney
117.120.12.137,4,-28,petinsuranceaustralia.com.au,AU,Oceania,Australia and New Zealand,Australia,New South Wales,,Sydney
52.64.99.174,4,29,petitjourney.com.au,AU,Oceania,Australia and New Zealand,Australia,New South Wales,,Sydney
43.250.140.21,4,-24,petphotographer.com.au,AU,Oceania,Australia and New Zealand,Australia,New South Wales,,Sydney
103.209.24.102,4,5,pfa.net.au,AU,Oceania,Australia and New Zealand,Australia,Victoria,,Melbourne
116.206.228.38,4,-350,phillipislandcircuit.com.au,AU,Oceania,Australia and New Zealand,Australia,Victoria,,Melbourne
185.17.252.72,4,78,phosphorusplatform.eu,NZ,Oceania,Australia and New Zealand,New Zealand,,,
103.49.172.90,4,11,photosynthesis.co.nz,NZ,Oceania,Australia and New Zealand,New Zealand,,,
110.232.143.13,4,9,pica.org.au,AU,Oceania,Australia and New Zealand,Australia,Queensland,,Brisbane
103.73.65.54,4,2,pickr.com.au,AU,Oceania,Australia and New Zealand,Australia,New South Wales,,Sydney
116.90.51.65,4,15,pinkfloydz.com,AU,Oceania,Australia and New Zealand,Australia,,,
192.250.232.13,4,36,pinkymckay.com,AU,Oceania,Australia and New Zealand,Australia,New South Wales,,Sydney
35.197.165.27,4,21,pioneer.com.au,AU,Oceania,Australia and New Zealand,Australia,New South Wales,,Sydney
119.148.90.151,4,9,pironebuilders.com,AU,Oceania,Australia and New Zealand,Australia,Queensland,,Brisbane
110.232.143.74,4,-8,pixelcase.com.au,AU,Oceania,Australia and New Zealand,Australia,Queensland,,Brisbane
202.20.65.1,4,22,pl.net,NZ,Oceania,Australia and New Zealand,New Zealand,,,
116.90.50.25,4,28,plant-maintenance.com,AU,Oceania,Australia and New Zealand,Australia,,,
203.101.229.168,4,22,plantdatabases.org,AU,Oceania,Australia and New Zealand,Australia,,,
116.90.49.3,4,7,playandgo.com.au,AU,Oceania,Australia and New Zealand,Australia,,,
103.115.210.201,4,14,playerattack.com,AU,Oceania,Australia and New Zealand,Australia,South Australia,,Adelaide
151.101.30.133,4,19,playrugbyleague.com,AU,Oceania,Australia and New Zealand,Australia,New South Wales,,Sydney
103.27.34.47,4,-22,plazadj.com.au,AU,Oceania,Australia and New Zealand,Australia,New South Wales,,Sydney
139.144.98.72,4,53,pldaniels.com,AU,Oceania,Australia and New Zealand,Australia,New South Wales,,Sydney
43.250.142.154,4,-4,plus61j.net.au,AU,Oceania,Australia and New Zealand,Australia,New South Wales,,Sydney
116.90.50.20,4,7,pnut.com.au,AU,Oceania,Australia and New Zealand,Australia,,,
116.90.50.39,4,24,policyforum.net,AU,Oceania,Australia and New Zealand,Australia,,,
101.0.80.206,4,3690,pollinationgroup.com,AU,Oceania,Australia and New Zealand,Australia,Victoria,,Melbourne
27.50.84.27,4,334,polytec.com.au,AU,Oceania,Australia and New Zealand,Australia,New South Wales,,Sydney
192.250.232.12,4,19,ponsonbyacupunctureclinic.co.nz,AU,Oceania,Australia and New Zealand,Australia,New South Wales,,Sydney
49.50.249.4,4,3,pontconsultants.co.nz,NZ,Oceania,Australia and New Zealand,New Zealand,Auckland,,Lynfield
43.250.142.26,4,-8,population.net.au,AU,Oceania,Australia and New Zealand,Australia,New South Wales,,Sydney
167.86.36.13,4,39,portofmelbourne.com,AU,Oceania,Australia and New Zealand,Australia,New South Wales,,Sydney
101.0.77.166,4,12,portphillipestate.com.au,AU,Oceania,Australia and New Zealand,Australia,Victoria,,Melbourne
101.0.69.35,4,17,poultryhub.org,AU,Oceania,Australia and New Zealand,Australia,Victoria,,Melbourne
111.67.19.73,4,-9,ppesydney.net,AU,Oceania,Australia and New Zealand,Australia,,,
103.18.108.178,4,-7,practicalmotoring.com.au,AU,Oceania,Australia and New Zealand,Australia,New South Wales,,Sydney
203.98.95.2,4,12,prahranmarket.com.au,AU,Oceania,Australia and New Zealand,Australia,New South Wales,,Sydney
38.180.129.201,4,37,pravdoryb.info,AU,Oceania,Australia and New Zealand,Australia,New South Wales,,Sydney
103.77.224.3,4,70,prayerrequest.com,AU,Oceania,Australia and New Zealand,Australia,,,
116.90.57.23,4,65,precisionproperty.com.au,AU,Oceania,Australia and New Zealand,Australia,,,
116.90.57.94,4,46,prettywomen.biz,AU,Oceania,Australia and New Zealand,Australia,,,
116.90.53.20,4,53,prideinclusionprograms.com.au,AU,Oceania,Australia and New Zealand,Australia,,,
103.209.24.53,4,4,privacy.org.au,AU,Oceania,Australia and New Zealand,Australia,Victoria,,Melbourne
101.0.103.174,4,58,privatefleet.com.au,AU,Oceania,Australia and New Zealand,Australia,New South Wales,,Sydney
103.1.205.93,4,1368,privateschoolsguide.com,AU,Oceania,Australia and New Zealand,Australia,,,
45.76.112.128,4,64,prodivecairns.com,AU,Oceania,Australia and New Zealand,Australia,New South Wales,,Sydney
182.160.154.33,4,78,professionals.co.nz,AU,Oceania,Australia and New Zealand,Australia,,,
103.246.250.248,4,33,projectgus.com,AU,Oceania,Australia and New Zealand,Australia,,,
27.50.95.74,4,60,promotionproducts.com.au,AU,Oceania,Australia and New Zealand,Australia,New South Wales,,Sydney
170.64.164.85,4,47,promotions247.com.au,AU,Oceania,Australia and New Zealand,Australia,New South Wales,,Sydney
51.161.192.52,4,31,prwire.com.au,AU,Oceania,Australia and New Zealand,Australia,Victoria,,Melbourne
51.161.192.51,4,40,prwire.com.au,AU,Oceania,Australia and New Zealand,Australia,Victoria,,Melbourne
103.224.212.224,4,12,psi-motorsport.com,AU,Oceania,Australia and New Zealand,Australia,,,
202.27.200.166,4,9,psnz.org.nz,NZ,Oceania,Australia and New Zealand,New Zealand,,,
202.74.69.166,4,4,publicchristianity.org,AU,Oceania,Australia and New Zealand,Australia,,,
101.0.116.55,4,37,purerealestategroup.com.au,AU,Oceania,Australia and New Zealand,Australia,New South Wales,,Sydney
116.90.56.138,4,11,purushealth.com.au,AU,Oceania,Australia and New Zealand,Australia,,,
13.238.205.33,4,3,pwr.com.au,AU,Oceania,Australia and New Zealand,Australia,New South Wales,,Sydney
103.84.224.28,4,2,pycon-au.org,AU,Oceania,Australia and New Zealand,Australia,,,
103.27.34.46,4,-13,pyramidtextsonline.com,AU,Oceania,Australia and New Zealand,Australia,New South Wales,,Sydney
13.238.25.83,4,9,q1.com.au,AU,Oceania,Australia and New Zealand,Australia,New South Wales,,Sydney
110.232.115.141,4,-23,qff.org.au,AU,Oceania,Australia and New Zealand,Australia,New South Wales,,Sydney
117.20.7.147,4,-11,qiba.edu.au,AU,Oceania,Australia and New Zealand,Australia,Queensland,,Brisbane
202.74.68.186,4,-1,qimr.edu.au,AU,Oceania,Australia and New Zealand,Australia,,,
103.27.34.33,4,-24,qlife.org.au,AU,Oceania,Australia and New Zealand,Australia,New South Wales,,Sydney
110.232.143.45,4,2,queensford.edu.au,AU,Oceania,Australia and New Zealand,Australia,Queensland,,Brisbane
119.148.90.50,4,7,queenslandtheatre.com.au,AU,Oceania,Australia and New Zealand,Australia,Queensland,,Brisbane
101.0.97.190,4,10,quikclicks.com.au,AU,Oceania,Australia and New Zealand,Australia,New South Wales,,Sydney
45.77.238.98,4,-13,racebending.com,AU,Oceania,Australia and New Zealand,Australia,New South Wales,,Sydney
35.189.61.203,4,3,racesigns.com.au,AU,Oceania,Australia and New Zealand,Australia,New South Wales,,Sydney
182.160.155.110,4,13,racismnoway.com.au,AU,Oceania,Australia and New Zealand,Australia,,,
103.96.117.53,4,90,radiomods.co.nz,NZ,Oceania,Australia and New Zealand,New Zealand,,,
20.92.129.83,4,56633,radioparts.com.au,AU,Oceania,Australia and New Zealand,Australia,New South Wales,,Sydney
43.250.140.2,4,98,radld.org,AU,Oceania,Australia and New Zealand,Australia,New South Wales,,Sydney
203.96.176.226,4,11,raforum.info,AU,Oceania,Australia and New Zealand,Australia,New South Wales,,Sydney
43.250.142.131,4,45,railtrails.org.au,AU,Oceania,Australia and New Zealand,Australia,New South Wales,,Sydney
110.232.143.80,4,49,rainbowserpent.net,AU,Oceania,Australia and New Zealand,Australia,Queensland,,Brisbane
103.49.7.51,4,28,rainbowvic.com.au,AU,Oceania,Australia and New Zealand,Australia,Victoria,,Melbourne
43.250.142.69,4,-5,rainforest.com.au,AU,Oceania,Australia and New Zealand,Australia,New South Wales,,Sydney
116.90.55.2,4,7,rainforestrescue.org.au,AU,Oceania,Australia and New Zealand,Australia,,,
110.232.143.79,4,13,rallysportmag.com,AU,Oceania,Australia and New Zealand,Australia,Queensland,,Brisbane
119.42.55.234,4,25,ramset.com.au,AU,Oceania,Australia and New Zealand,Australia,New South Wales,,Sydney
180.92.194.19,4,-1,randw.com.au,AU,Oceania,Australia and New Zealand,Australia,New South Wales,,Sydney
194.195.248.161,4,31,ranzcog.edu.au,AU,Oceania,Australia and New Zealand,Australia,New South Wales,,Sydney
43.245.53.30,4,76,rarebreeds.co.nz,AU,Oceania,Australia and New Zealand,Australia,,,
103.224.212.245,4,65,raskincenter.org,AU,Oceania,Australia and New Zealand,Australia,,,
116.90.51.232,4,47,ratbags.com,AU,Oceania,Australia and New Zealand,Australia,,,
103.224.212.227,4,45,raven1.net,AU,Oceania,Australia and New Zealand,Australia,,,
150.107.72.85,4,49,rawmeatybones.com,AU,Oceania,Australia and New Zealand,Australia,New South Wales,,Sydney
103.119.110.84,4,41,rayreeves.com.au,AU,Oceania,Australia and New Zealand,Australia,New South Wales,,Sydney
103.230.158.143,4,-6,rchpoll.org.au,AU,Oceania,Australia and New Zealand,Australia,New South Wales,,Sydney
210.5.53.89,4,4,rdu.org.nz,NZ,Oceania,Australia and New Zealand,New Zealand,,,
45.63.24.74,4,7,realdealservices.com.au,AU,Oceania,Australia and New Zealand,Australia,New South Wales,,Sydney
172.105.187.174,4,29,realweddings.com.au,AU,Oceania,Australia and New Zealand,Australia,New South Wales,,Sydney
103.38.10.27,4,6,rebellyouscakeco.com.au,AU,Oceania,Australia and New Zealand,Australia,,,
13.239.89.2,4,18,recollect.co.nz,AU,Oceania,Australia and New Zealand,Australia,New South Wales,,Sydney
54.79.47.104,4,34,recollect.co.nz,AU,Oceania,Australia and New Zealand,Australia,New South Wales,,Sydney
52.62.181.42,4,49,recollect.co.nz,AU,Oceania,Australia and New Zealand,Australia,New South Wales,,Sydney
203.31.255.111,4,14,reconciliation.org.au,AU,Oceania,Australia and New Zealand,Australia,,,
103.242.245.38,4,25,redarchitecture.co.nz,NZ,Oceania,Australia and New Zealand,New Zealand,Auckland,,Auckland
103.64.148.213,4,9,redhill.net.au,AU,Oceania,Australia and New Zealand,Australia,,,
110.232.143.30,4,-15,redirectdetective.com,AU,Oceania,Australia and New Zealand,Australia,Queensland,,Brisbane
202.37.74.242,4,19,reefcasino.com.au,AU,Oceania,Australia and New Zealand,Australia,New South Wales,,Sydney
175.45.125.230,4,21,reefhq.com.au,AU,Oceania,Australia and New Zealand,Australia,Victoria,,Melbourne
103.208.218.230,4,14,regis.com.au,AU,Oceania,Australia and New Zealand,Australia,,,
103.152.248.107,4,9,reia.com.au,AU,Oceania,Australia and New Zealand,Australia,,,
110.232.143.98,4,8,relationship-economy.com,AU,Oceania,Australia and New Zealand,Australia,Queensland,,Brisbane
112.213.35.98,4,-2,renaissanceliving.com.au,AU,Oceania,Australia and New Zealand,Australia,New South Wales,,Sydney
43.250.142.28,4,-15,renderhjs.net,AU,Oceania,Australia and New Zealand,Australia,New South Wales,,Sydney
116.90.57.102,4,12,reneltbelicdesign.com.au,AU,Oceania,Australia and New Zealand,Australia,,,
110.232.143.25,4,-10,renew.org.au,AU,Oceania,Australia and New Zealand,Australia,Queensland,,Brisbane
43.250.142.55,4,-3,reptilepark.com.au,AU,Oceania,Australia and New Zealand,Australia,New South Wales,,Sydney
43.250.142.38,4,-6,rescu.com.au,AU,Oceania,Australia and New Zealand,Australia,New South Wales,,Sydney
103.224.212.223,4,9,resimyukle.xyz,AU,Oceania,Australia and New Zealand,Australia,,,
172.105.173.118,4,1362,retailworldmagazine.com.au,AU,Oceania,Australia and New Zealand,Australia,New South Wales,,Sydney
110.232.143.36,4,31,revelationfilmfest.org,AU,Oceania,Australia and New Zealand,Australia,Queensland,,Brisbane
43.250.142.22,4,-5,revounts.com.au,AU,Oceania,Australia and New Zealand,Australia,New South Wales,,Sydney
110.232.143.113,4,7,riaus.org.au,AU,Oceania,Australia and New Zealand,Australia,Queensland,,Brisbane
3.105.57.5,4,5,richardsonforpresident.com,AU,Oceania,Australia and New Zealand,Australia,New South Wales,,Sydney
101.0.73.151,4,14,ridetheg.com.au,AU,Oceania,Australia and New Zealand,Australia,Victoria,,Melbourne
27.131.110.185,4,7,rightnow.org.au,AU,Oceania,Australia and New Zealand,Australia,Victoria,,Melbourne
175.45.181.241,4,46,riskfrontiers.com,AU,Oceania,Australia and New Zealand,Australia,New South Wales,,Sydney
13.54.137.13,4,8,rlb.com,AU,Oceania,Australia and New Zealand,Australia,New South Wales,,Sydney
202.130.44.250,4,18,robbreport.com.au,AU,Oceania,Australia and New Zealand,Australia,New South Wales,,Sydney
67.219.99.102,4,43,rockstarroofing.co.nz,AU,Oceania,Australia and New Zealand,Australia,Victoria,,Melbourne
103.27.34.27,4,697,rodneyfox.com.au,AU,Oceania,Australia and New Zealand,Australia,New South Wales,,Sydney
103.27.32.5,4,-5,rogerclarke.com,AU,Oceania,Australia and New Zealand,Australia,New South Wales,,Sydney
203.98.95.5,4,15,rogerwoodward.com,AU,Oceania,Australia and New Zealand,Australia,New South Wales,,Sydney
103.9.56.122,4,49,rolandcorp.com.au,AU,Oceania,Australia and New Zealand,Australia,,,
103.27.34.123,4,28,roserealty.com.au,AU,Oceania,Australia and New Zealand,Australia,New South Wales,,Sydney
103.27.34.24,4,-15,rowetel.com,AU,Oceania,Australia and New Zealand,Australia,New South Wales,,Sydney
101.0.98.218,4,21,royaldavuifiji.com,AU,Oceania,Australia and New Zealand,Australia,New South Wales,,Sydney
192.250.232.15,4,15,royaldirectory.biz,AU,Oceania,Australia and New Zealand,Australia,New South Wales,,Sydney
103.27.35.135,4,-9,royalmelbourne.com.au,AU,Oceania,Australia and New Zealand,Australia,New South Wales,,Sydney
101.0.111.38,4,5,royalwolf.com.au,AU,Oceania,Australia and New Zealand,Australia,New South Wales,,Sydney
27.131.74.63,4,4,rrh.org.au,AU,Oceania,Australia and New Zealand,Australia,Victoria,,Melbourne
20.92.129.84,4,56565,rsea.com.au,AU,Oceania,Australia and New Zealand,Australia,New South Wales,,Sydney
101.0.86.38,4,10,rspcansw.org.au,AU,Oceania,Australia and New Zealand,Australia,Victoria,,Melbourne
119.252.86.3,4,-7,rtrfm.com.au,AU,Oceania,Australia and New Zealand,Australia,,,
103.242.245.16,4,5,rugby365.com,NZ,Oceania,Australia and New Zealand,New Zealand,Auckland,,Auckland
103.242.245.165,4,3,rugbydump.com,NZ,Oceania,Australia and New Zealand,New Zealand,Auckland,,Auckland
203.114.129.70,4,59,rugbymuseum.co.nz,NZ,Oceania,Australia and New Zealand,New Zealand,Manawatu-Wanganui,,Palmerston North
103.242.245.18,4,6,rugbyonslaught.com,NZ,Oceania,Australia and New Zealand,New Zealand,Auckland,,Auckland
103.242.247.2,4,4,rugbypass.com,NZ,Oceania,Australia and New Zealand,New Zealand,Auckland,,Auckland
203.114.128.76,4,18,ruralwireless.nz,NZ,Oceania,Australia and New Zealand,New Zealand,Manawatu-Wanganui,,Palmerston North
103.77.224.15,4,3,rutc.ac.uk,AU,Oceania,Australia and New Zealand,Australia,,,
110.232.143.2,4,-6,safaridigital.com.au,AU,Oceania,Australia and New Zealand,Australia,Queensland,,Brisbane
139.99.141.192,4,1349,safeandequal.org.au,AU,Oceania,Australia and New Zealand,Australia,New South Wales,,Sydney
43.250.140.12,4,10,safepestcontrol.net.au,AU,Oceania,Australia and New Zealand,Australia,New South Wales,,Sydney
43.250.142.137,4,-9,safetyrisk.net,AU,Oceania,Australia and New Zealand,Australia,New South Wales,,Sydney
182.160.155.178,4,10,sah.org.au,AU,Oceania,Australia and New Zealand,Australia,,,
221.121.139.93,4,-21,salethisweek.com.au,AU,Oceania,Australia and New Zealand,Australia,Victoria,,Melbourne
103.5.90.132,4,5,samaritanspurse.org.au,AU,Oceania,Australia and New Zealand,Australia,,,
203.30.45.15,4,7986,sandalford.com,AU,Oceania,Australia and New Zealand,Australia,,,
103.27.33.170,4,4,sane.org,AU,Oceania,Australia and New Zealand,Australia,New South Wales,,Sydney
43.250.140.29,4,-7,sarahbuckley.com,AU,Oceania,Australia and New Zealand,Australia,New South Wales,,Sydney
43.250.142.52,4,35,satic.com.au,AU,Oceania,Australia and New Zealand,Australia,New South Wales,,Sydney
103.27.34.37,4,24,saveit.com.au,AU,Oceania,Australia and New Zealand,Australia,New South Wales,,Sydney
108.61.184.195,4,15,savvysme.com.au,AU,Oceania,Australia and New Zealand,Australia,New South Wales,,Sydney
45.79.236.171,4,-8,saxonsystems.com.au,AU,Oceania,Australia and New Zealand,Australia,New South Wales,,Sydney
203.143.89.224,4,20,sca.org.au,AU,Oceania,Australia and New Zealand,Australia,Victoria,,Melbourne
60.242.51.113,4,619,scannerguys.com.au,AU,Oceania,Australia and New Zealand,Australia,New South Wales,,Sydney
103.119.110.198,4,5,scenestr.com.au,AU,Oceania,Australia and New Zealand,Australia,New South Wales,,Sydney
101.0.119.185,4,9,scholarly.info,AU,Oceania,Australia and New Zealand,Australia,New South Wales,,Sydney
103.42.110.7,4,41,sciencewa.net.au,AU,Oceania,Australia and New Zealand,Australia,Victoria,,Melbourne
139.99.190.185,4,5,scivee.tv,AU,Oceania,Australia and New Zealand,Australia,New South Wales,,Sydney
221.121.150.99,4,-5,scouts.com.au,AU,Oceania,Australia and New Zealand,Australia,New South Wales,,Sydney
139.99.248.171,4,46,screamingguitars.com,AU,Oceania,Australia and New Zealand,Australia,New South Wales,,Sydney
103.4.16.227,4,1,screeningthepast.com,AU,Oceania,Australia and New Zealand,Australia,New South Wales,,Sydney
103.16.128.239,4,-15,screenqueensland.com.au,AU,Oceania,Australia and New Zealand,Australia,Queensland,,Brisbane
110.232.143.40,4,-6,screenwest.com.au,AU,Oceania,Australia and New Zealand,Australia,Queensland,,Brisbane
43.250.142.5,4,-25,scss.com.au,AU,Oceania,Australia and New Zealand,Australia,New South Wales,,Sydney
203.143.89.24,4,1206,scubadoctor.com.au,AU,Oceania,Australia and New Zealand,Australia,Victoria,,Melbourne
110.173.133.178,4,2,sculptorsvictoria.asn.au,AU,Oceania,Australia and New Zealand,Australia,Victoria,,Melbourne
27.50.65.103,4,-26,seabreezecontracting.com.au,AU,Oceania,Australia and New Zealand,Australia,Queensland,,Gold Coast
110.232.143.15,4,-7,seatsafe.com.au,AU,Oceania,Australia and New Zealand,Australia,Queensland,,Brisbane
43.250.142.39,4,17,secondbite.org,AU,Oceania,Australia and New Zealand,Australia,New South Wales,,Sydney
103.27.34.20,4,-10,seedsavers.net,AU,Oceania,Australia and New Zealand,Australia,New South Wales,,Sydney
52.62.224.98,4,7,seniorflatmates.com.au,AU,Oceania,Australia and New Zealand,Australia,New South Wales,,Sydney
103.119.110.20,4,4,seonorthsydney.com.au,AU,Oceania,Australia and New Zealand,Australia,New South Wales,,Sydney
103.243.170.2,4,4,seooptimizationdirectory.com,NZ,Oceania,Australia and New Zealand,New Zealand,,,
110.173.134.199,4,5,serafinowines.com.au,AU,Oceania,Australia and New Zealand,Australia,Victoria,,Melbourne
172.105.180.231,4,22,sergent.com.au,AU,Oceania,Australia and New Zealand,Australia,New South Wales,,Sydney
202.134.241.195,4,46,serverthailand.host,AU,Oceania,Australia and New Zealand,Australia,Victoria,,Melbourne
103.27.34.6,4,-7,sgaonline.org.au,AU,Oceania,Australia and New Zealand,Australia,New South Wales,,Sydney
202.134.241.221,4,39,sgatermaxwen.com,AU,Oceania,Australia and New Zealand,Australia,Victoria,,Melbourne
103.119.110.27,4,1,sh1ft.org,AU,Oceania,Australia and New Zealand,Australia,New South Wales,,Sydney
116.90.43.6,4,6,shannonmcgrath.com,AU,Oceania,Australia and New Zealand,Australia,,,
103.6.212.98,4,8,sharechat.co.nz,NZ,Oceania,Australia and New Zealand,New Zealand,,,
103.152.248.28,4,5,shepherdworks.com.au,AU,Oceania,Australia and New Zealand,Australia,,,
119.63.201.66,4,1580,sherstyn.com.au,AU,Oceania,Australia and New Zealand,Australia,,,
51.161.208.166,4,35,shiningawards.com,AU,Oceania,Australia and New Zealand,Australia,Victoria,,Melbourne
103.224.72.4,4,25,shopnaturally.com.au,AU,Oceania,Australia and New Zealand,Australia,,,
139.99.130.38,4,6,shorelinkrealestate.com.au,AU,Oceania,Australia and New Zealand,Australia,New South Wales,,Sydney
172.105.182.26,4,38,shounakgupte.com.au,AU,Oceania,Australia and New Zealand,Australia,New South Wales,,Sydney
203.25.159.2,4,-47,shrinkpictures.com,AU,Oceania,Australia and New Zealand,Australia,,,
101.0.121.239,4,10,sightseeingtoursaustralia.com.au,AU,Oceania,Australia and New Zealand,Australia,New South Wales,,Sydney
116.90.49.4,4,6,sigmahealthcare.com.au,AU,Oceania,Australia and New Zealand,Australia,,,
103.27.34.43,4,6,sillbeer.com,AU,Oceania,Australia and New Zealand,Australia,New South Wales,,Sydney
43.250.142.29,4,56,simplymaid.com.au,AU,Oceania,Australia and New Zealand,Australia,New South Wales,,Sydney
103.42.110.3,4,-10,simplyspotless.com.au,AU,Oceania,Australia and New Zealand,Australia,Victoria,,Melbourne
43.250.141.56,4,-10,singularlabs.com,AU,Oceania,Australia and New Zealand,Australia,New South Wales,,Sydney
223.165.77.248,4,46,skookum.co.nz,NZ,Oceania,Australia and New Zealand,New Zealand,,,
139.99.155.149,4,6,skyceylon.com.au,AU,Oceania,Australia and New Zealand,Australia,New South Wales,,Sydney
185.139.243.217,4,4,skycity.co.nz,AU,Oceania,Australia and New Zealand,Australia,New South Wales,,Sydney
185.139.243.218,4,4,skycityadelaide.com.au,AU,Oceania,Australia and New Zealand,Australia,New South Wales,,Sydney
185.139.243.216,4,62,skycityauckland.co.nz,AU,Oceania,Australia and New Zealand,Australia,New South Wales,,Sydney
185.139.243.223,4,15,skycityentertainmentgroup.com,AU,Oceania,Australia and New Zealand,Australia,New South Wales,,Sydney
185.139.243.210,4,12,skycityhamilton.co.nz,AU,Oceania,Australia and New Zealand,Australia,New South Wales,,Sydney
185.139.243.215,4,5,skycityqueenstown.co.nz,AU,Oceania,Australia and New Zealand,Australia,New South Wales,,Sydney
103.242.245.184,4,3,skyjump.co.nz,NZ,Oceania,Australia and New Zealand,New Zealand,Auckland,,Auckland
3.25.19.16,4,12,skynews.com.au,AU,Oceania,Australia and New Zealand,Australia,New South Wales,,Sydney
111.223.227.19,4,15,skytrans.com.au,AU,Oceania,Australia and New Zealand,Australia,,,
103.224.212.254,4,6,slider.com,AU,Oceania,Australia and New Zealand,Australia,,,
101.0.102.186,4,14,slotfactory.com.au,AU,Oceania,Australia and New Zealand,Australia,New South Wales,,Sydney
103.27.34.118,4,-2,smallblueprinter.com,AU,Oceania,Australia and New Zealand,Australia,New South Wales,,Sydney
202.74.68.16,4,3,smallrevolution.com,AU,Oceania,Australia and New Zealand,Australia,,,
116.90.51.9,4,6,smartcopying.edu.au,AU,Oceania,Australia and New Zealand,Australia,,,
221.121.138.93,4,-13,smarthouse.com.au,AU,Oceania,Australia and New Zealand,Australia,New South Wales,,Sydney
23.54.30.9,4,0,smiggle.com.au,AU,Oceania,Australia and New Zealand,Australia,New South Wales,,Sydney
202.76.248.74,4,13,smithandsinger.com.au,AU,Oceania,Australia and New Zealand,Australia,,,
139.99.139.228,4,7,smokescreen.us,AU,Oceania,Australia and New Zealand,Australia,New South Wales,,Sydney
27.54.133.141,4,15,smperth.com,AU,Oceania,Australia and New Zealand,Australia,Western Australia,,Perth
114.142.160.224,4,3089,smsfwarehouse.com.au,AU,Oceania,Australia and New Zealand,Australia,,,
103.12.69.136,4,40,smzlgw.com,AU,Oceania,Australia and New Zealand,Australia,,,
110.232.143.85,4,-13,snappy-driver-installer.org,AU,Oceania,Australia and New Zealand,Australia,Queensland,,Brisbane
101.0.105.6,4,11,snowsbest.com,AU,Oceania,Australia and New Zealand,Australia,New South Wales,,Sydney
103.1.185.120,4,6,snowyhydro.com.au,AU,Oceania,Australia and New Zealand,Australia,New South Wales,,Sydney
110.232.143.89,4,15,softlinkint.com,AU,Oceania,Australia and New Zealand,Australia,Queensland,,Brisbane
110.232.143.140,4,18,soldieron.org.au,AU,Oceania,Australia and New Zealand,Australia,Queensland,,Brisbane
101.0.112.154,4,8,soniclean.com.au,AU,Oceania,Australia and New Zealand,Australia,New South Wales,,Sydney
103.224.212.249,4,31,sonrisafurniture.com,AU,Oceania,Australia and New Zealand,Australia,,,
103.224.212.230,4,24,sonydigital-link.com,AU,Oceania,Australia and New Zealand,Australia,,,
101.0.80.18,4,23,sosj.org.au,AU,Oceania,Australia and New Zealand,Australia,Victoria,,Melbourne
111.67.28.15,4,-3,sostaargentiniankitchen.com.au,AU,Oceania,Australia and New Zealand,Australia,,,
103.77.224.5,4,15,southbankcolleges.ac.uk,AU,Oceania,Australia and New Zealand,Australia,,,
103.38.11.91,4,20,southburnett.com.au,AU,Oceania,Australia and New Zealand,Australia,,,
103.242.245.213,4,22,southerndiscoveries.co.nz,NZ,Oceania,Australia and New Zealand,New Zealand,Auckland,,Auckland
103.209.24.173,4,7,southernent.com.au,AU,Oceania,Australia and New Zealand,Australia,Victoria,,Melbourne
101.0.119.165,4,8,southernfm.com.au,AU,Oceania,Australia and New Zealand,Australia,New South Wales,,Sydney
43.250.142.149,4,-5,spacejock.com,AU,Oceania,Australia and New Zealand,Australia,New South Wales,,Sydney
66.22.91.16,4,24,sparknz.co.nz,NZ,Oceania,Australia and New Zealand,New Zealand,Auckland,,Auckland
110.232.143.68,4,-10,specialolympics.com.au,AU,Oceania,Australia and New Zealand,Australia,Queensland,,Brisbane
43.250.140.4,4,-9,spectronics.com.au,AU,Oceania,Australia and New Zealand,Australia,New South Wales,,Sydney
112.213.39.188,4,-10,spee3d.com,AU,Oceania,Australia and New Zealand,Australia,New South Wales,,Sydney
116.90.53.25,4,6,speedyspares.com,AU,Oceania,Australia and New Zealand,Australia,,,
175.45.125.128,4,1,spencerofalthorp.com,AU,Oceania,Australia and New Zealand,Australia,Victoria,,Melbourne
103.27.34.21,4,-10,spicyicecream.com.au,AU,Oceania,Australia and New Zealand,Australia,New South Wales,,Sydney
203.29.65.8,4,2,spintel.net.au,AU,Oceania,Australia and New Zealand,Australia,New South Wales,,Sydney
35.189.19.247,4,7,spitswimclub.org,AU,Oceania,Australia and New Zealand,Australia,New South Wales,,Sydney
103.26.236.235,4,1,splattlawyers.com.au,AU,Oceania,Australia and New Zealand,Australia,,,
203.89.253.68,4,-486589,spydus.com,AU,Oceania,Australia and New Zealand,Australia,New South Wales,,Sydney
172.105.180.64,4,-46795,sqmresearch.com.au,AU,Oceania,Australia and New Zealand,Australia,New South Wales,,Sydney
182.160.153.21,4,51,ssi.org.au,AU,Oceania,Australia and New Zealand,Australia,,,
203.4.149.35,4,2294,st.net.au,AU,Oceania,Australia and New Zealand,Australia,,,
116.90.54.5,4,26,stagewhispers.com.au,AU,Oceania,Australia and New Zealand,Australia,,,
139.99.158.76,4,8,stallion-international.com,AU,Oceania,Australia and New Zealand,Australia,New South Wales,,Sydney
103.27.32.1,4,-7,stampdutycalc.com.au,AU,Oceania,Australia and New Zealand,Australia,New South Wales,,Sydney
122.201.125.181,4,999,stanleycollege.edu.au,AU,Oceania,Australia and New Zealand,Australia,,,
103.27.32.41,4,14,stararchitecture.com.au,AU,Oceania,Australia and New Zealand,Australia,New South Wales,,Sydney
67.219.102.60,4,42,starbucks.com.au,AU,Oceania,Australia and New Zealand,Australia,Victoria,,Melbourne
111.223.234.218,4,-3,starpharma.com,AU,Oceania,Australia and New Zealand,Australia,,,
180.92.194.119,4,-1,statetrustees.com.au,AU,Oceania,Australia and New Zealand,Australia,New South Wales,,Sydney
118.127.40.228,4,21,statetrustees.com.au,AU,Oceania,Australia and New Zealand,Australia,New South Wales,,Sydney
103.1.186.254,4,-7,staticice.com.au,AU,Oceania,Australia and New Zealand,Australia,New South Wales,,Sydney
82.97.245.193,4,6,stavropolye.tv,AU,Oceania,Australia and New Zealand,Australia,,,
103.77.224.20,4,69,stcg.ac.uk,AU,Oceania,Australia and New Zealand,Australia,,,
103.4.234.72,4,-19,steakschool.com,AU,Oceania,Australia and New Zealand,Australia,New South Wales,,Sydney
110.173.134.173,4,4,steel-line.com.au,AU,Oceania,Australia and New Zealand,Australia,Victoria,,Melbourne
101.0.70.26,4,11,steelmasters.co.nz,AU,Oceania,Australia and New Zealand,Australia,Victoria,,Melbourne
43.250.143.113,4,-10,stefmar.com.au,AU,Oceania,Australia and New Zealand,Australia,New South Wales,,Sydney
108.61.251.9,4,10,stemcellsaustralia.edu.au,AU,Oceania,Australia and New Zealand,Australia,New South Wales,,Sydney
103.11.147.125,4,-5,stereo.net.au,AU,Oceania,Australia and New Zealand,Australia,,,
116.90.54.13,4,16,stilgherrian.com,AU,Oceania,Australia and New Zealand,Australia,,,
221.121.152.229,4,-27,stkildamelbourne.com.au,AU,Oceania,Australia and New Zealand,Australia,New South Wales,,Sydney
103.255.31.40,4,-30,stonerealestate.com.au,AU,Oceania,Australia and New Zealand,Australia,,,
45.125.247.115,4,19,stopmotionpro.com,AU,Oceania,Australia and New Zealand,Australia,New South Wales,,Sydney
13.236.189.113,4,7,strattonfinance.com.au,AU,Oceania,Australia and New Zealand,Australia,New South Wales,,Sydney
52.64.150.8,4,39,strattonfinance.com.au,AU,Oceania,Australia and New Zealand,Australia,New South Wales,,Sydney
210.50.2.218,4,2,street-directory.com.au,AU,Oceania,Australia and New Zealand,Australia,,,
103.16.181.140,4,37,stroke.org.nz,NZ,Oceania,Australia and New Zealand,New Zealand,Auckland,,Auckland
101.0.80.100,4,5,stroudhomes.com.au,AU,Oceania,Australia and New Zealand,Australia,Victoria,,Melbourne
116.90.49.199,4,5,structerresurveying.com.au,AU,Oceania,Australia and New Zealand,Australia,,,
202.134.241.161,4,35,sttjki.ac.id,AU,Oceania,Australia and New Zealand,Australia,Victoria,,Melbourne
110.173.132.17,4,51,studentserver.com.au,AU,Oceania,Australia and New Zealand,Australia,Victoria,,Melbourne
116.90.49.130,4,74,studiopilates.com,AU,Oceania,Australia and New Zealand,Australia,,,
13.237.45.86,4,10,studiosity.com,AU,Oceania,Australia and New Zealand,Australia,New South Wales,,Sydney
13.236.240.111,4,2,studiosity.com,AU,Oceania,Australia and New Zealand,Australia,New South Wales,,Sydney
13.55.16.42,4,6,studiosity.com,AU,Oceania,Australia and New Zealand,Australia,New South Wales,,Sydney
110.173.132.184,4,2,stylecurator.com.au,AU,Oceania,Australia and New Zealand,Australia,Victoria,,Melbourne
3.106.155.189,4,7,sundoctors.com.au,AU,Oceania,Australia and New Zealand,Australia,New South Wales,,Sydney
52.62.42.192,4,5,sundoctors.com.au,AU,Oceania,Australia and New Zealand,Australia,New South Wales,,Sydney
3.104.127.120,4,5,sundoctors.com.au,AU,Oceania,Australia and New Zealand,Australia,New South Wales,,Sydney
110.232.143.5,4,-8,sundropfarms.com,AU,Oceania,Australia and New Zealand,Australia,Queensland,,Brisbane
13.239.82.236,4,3,sunlover.com.au,AU,Oceania,Australia and New Zealand,Australia,New South Wales,,Sydney
60.234.77.238,4,270335,sunrockice.com,NZ,Oceania,Australia and New Zealand,New Zealand,,,
110.232.143.21,4,-13,surf.co.nz,AU,Oceania,Australia and New Zealand,Australia,Queensland,,Brisbane
43.245.177.145,4,-31,susanjoyfultable.com,AU,Oceania,Australia and New Zealand,Australia,Western Australia,,Perth
103.224.212.231,4,17,suziemax.com,AU,Oceania,Australia and New Zealand,Australia,,,
116.90.50.21,4,9,svenstudios.com,AU,Oceania,Australia and New Zealand,Australia,,,
202.174.80.44,4,3,swimming.org.nz,AU,Oceania,Australia and New Zealand,Australia,,,
136.186.1.10,4,-35943439,swinburne.edu.au,AU,Oceania,Australia and New Zealand,Australia,Victoria,,Melbourne
27.131.110.142,4,42,switchboard.org.au,AU,Oceania,Australia and New Zealand,Australia,Victoria,,Melbourne
103.11.147.232,4,-5,sydney.org.au,AU,Oceania,Australia and New Zealand,Australia,,,
149.28.161.197,4,-37,sydneyanglicans.net,AU,Oceania,Australia and New Zealand,Australia,New South Wales,,Sydney
43.250.142.24,4,-14,sydneyartsguide.com.au,AU,Oceania,Australia and New Zealand,Australia,New South Wales,,Sydney
43.250.140.48,4,-24,sydneybarani.com.au,AU,Oceania,Australia and New Zealand,Australia,New South Wales,,Sydney
52.64.23.25,4,5,sydneycommunitycollege.edu.au,AU,Oceania,Australia and New Zealand,Australia,New South Wales,,Sydney
101.0.103.110,4,2,sydneyfringe.com,AU,Oceania,Australia and New Zealand,Australia,New South Wales,,Sydney
43.250.142.138,4,-14,sydplatinum.com,AU,Oceania,Australia and New Zealand,Australia,New South Wales,,Sydney
43.250.142.56,4,-15,symbiozoo.com.au,AU,Oceania,Australia and New Zealand,Australia,New South Wales,,Sydney
116.90.57.175,4,8,synapse.org.au,AU,Oceania,Australia and New Zealand,Australia,,,
114.23.58.205,4,9,synthedit.com,NZ,Oceania,Australia and New Zealand,New Zealand,Auckland,,Auckland
43.250.142.92,4,-14,tabula-rasa.info,AU,Oceania,Australia and New Zealand,Australia,New South Wales,,Sydney
27.50.75.35,4,-27,tagg.com.au,AU,Oceania,Australia and New Zealand,Australia,Queensland,,Gold Coast
110.232.143.17,4,-14,take3.org,AU,Oceania,Australia and New Zealand,Australia,Queensland,,Brisbane
123.243.181.218,4,-1,tangalooma.com,AU,Oceania,Australia and New Zealand,Australia,Queensland,,Brisbane
3.104.252.125,4,2,tangaroablue.org,AU,Oceania,Australia and New Zealand,Australia,New South Wales,,Sydney
202.74.67.7,4,0,tarotingie.com,AU,Oceania,Australia and New Zealand,Australia,,,
101.0.116.105,4,11,tarpsforhire.com.au,AU,Oceania,Australia and New Zealand,Australia,New South Wales,,Sydney
2.18.52.246,4,5,tax.gov.ua,AU,Oceania,Australia and New Zealand,Australia,,,
2.18.53.246,4,-1,tax.gov.ua,AU,Oceania,Australia and New Zealand,Australia,,,
2.18.55.246,4,9,tax.gov.ua,AU,Oceania,Australia and New Zealand,Australia,,,
2.18.54.246,4,18,tax.gov.ua,AU,Oceania,Australia and New Zealand,Australia,,,
101.0.108.62,4,2,tcof.com.au,AU,Oceania,Australia and New Zealand,Australia,New South Wales,,Sydney
43.245.53.139,4,37,tdhb.org.nz,AU,Oceania,Australia and New Zealand,Australia,,,
103.4.234.120,4,-15,teachingtreasures.com.au,AU,Oceania,Australia and New Zealand,Australia,New South Wales,,Sydney
103.27.34.5,4,0,techau.com.au,AU,Oceania,Australia and New Zealand,Australia,New South Wales,,Sydney
110.232.143.18,4,7,techcouncil.com.au,AU,Oceania,Australia and New Zealand,Australia,Queensland,,Brisbane
210.48.126.143,4,16,techday.co.nz,NZ,Oceania,Australia and New Zealand,New Zealand,Auckland,,Auckland
111.223.236.7,4,3,techguide.com.au,AU,Oceania,Australia and New Zealand,Australia,,,
122.201.86.132,4,21873,technelysium.com.au,AU,Oceania,Australia and New Zealand,Australia,,,
139.99.130.57,4,46,technocarremoval.com.au,AU,Oceania,Australia and New Zealand,Australia,New South Wales,,Sydney
103.27.32.37,4,14,teldoc.com.au,AU,Oceania,Australia and New Zealand,Australia,New South Wales,,Sydney
61.8.0.113,4,38,Telstra Corporation Ltd,AU,Oceania,Australia and New Zealand,Australia,Victoria,,
139.134.5.51,4,33,Telstra Corporation Ltd 2,AU,Oceania,Australia and New Zealand,Australia,,,
139.134.2.190,4,158,Telstra Corporation Ltd 3,AU,Oceania,Australia and New Zealand,Australia,,,
203.50.2.71,4,38,Telstra Corporation Ltd 4,AU,Oceania,Australia and New Zealand,Australia,,,
103.230.158.142,4,-12,tenants.org.au,AU,Oceania,Australia and New Zealand,Australia,New South Wales,,Sydney
202.74.68.43,4,18,tern.org.au,AU,Oceania,Australia and New Zealand,Australia,,,
103.96.117.68,4,14,terranovatiling.co.nz,NZ,Oceania,Australia and New Zealand,New Zealand,,,
2.18.55.207,4,11,tesla.com,AU,Oceania,Australia and New Zealand,Australia,,,
2.18.52.207,4,-3,tesla.com,AU,Oceania,Australia and New Zealand,Australia,,,
2.18.53.207,4,3,tesla.com,AU,Oceania,Australia and New Zealand,Australia,,,
2.18.54.207,4,13,tesla.com,AU,Oceania,Australia and New Zealand,Australia,,,
175.45.125.192,4,50,tesselaar.net.au,AU,Oceania,Australia and New Zealand,Australia,Victoria,,Melbourne
116.90.53.24,4,45,tesselgrid.com.au,AU,Oceania,Australia and New Zealand,Australia,,,
103.224.212.39,4,13,testsrvr.com.au,AU,Oceania,Australia and New Zealand,Australia,,,
103.224.212.242,4,7,thailandmuseum.com,AU,Oceania,Australia and New Zealand,Australia,,,
103.42.110.11,4,8,the-fit-foodie.com,AU,Oceania,Australia and New Zealand,Australia,Victoria,,Melbourne
103.224.212.237,4,6,the-pirate-bay-proxy.org,AU,Oceania,Australia and New Zealand,Australia,,,
43.250.142.105,4,-7,theacousticguitarist.com,AU,Oceania,Australia and New Zealand,Australia,New South Wales,,Sydney
182.160.155.167,4,2,theagency.com.au,AU,Oceania,Australia and New Zealand,Australia,,,
101.0.72.238,4,9,theatretours.com.au,AU,Oceania,Australia and New Zealand,Australia,Victoria,,Melbourne
208.87.135.105,4,-8,thebackshed.com,AU,Oceania,Australia and New Zealand,Australia,New South Wales,,Sydney
14.202.213.220,4,7,thebaxterinn.com,AU,Oceania,Australia and New Zealand,Australia,New South Wales,,Sydney
3.25.108.150,4,2,thebigissue.org.au,AU,Oceania,Australia and New Zealand,Australia,New South Wales,,Sydney
110.232.143.137,4,-14,thecompetitions.com.au,AU,Oceania,Australia and New Zealand,Australia,Queensland,,Brisbane
110.232.143.105,4,-3,thecurb.com.au,AU,Oceania,Australia and New Zealand,Australia,Queensland,,Brisbane
210.5.53.72,4,26,thedailyblog.co.nz,NZ,Oceania,Australia and New Zealand,New Zealand,,,
116.90.54.6,4,20,thedcn.com.au,AU,Oceania,Australia and New Zealand,Australia,,,
103.9.69.165,4,120367,thedwarf.com.au,AU,Oceania,Australia and New Zealand,Australia,,,
103.27.34.129,4,11,thefinderskeepers.com,AU,Oceania,Australia and New Zealand,Australia,New South Wales,,Sydney
110.232.143.42,4,-6,thefootstop.com.au,AU,Oceania,Australia and New Zealand,Australia,Queensland,,Brisbane
110.232.143.3,4,5,thegroundsman.com.au,AU,Oceania,Australia and New Zealand,Australia,Queensland,,Brisbane
172.105.186.47,4,-6,thegurgaoncallgirls.com,AU,Oceania,Australia and New Zealand,Australia,New South Wales,,Sydney
203.98.95.40,4,23,thehappymindproject.com.au,AU,Oceania,Australia and New Zealand,Australia,New South Wales,,Sydney
43.250.142.7,4,-8,thehartcentre.com.au,AU,Oceania,Australia and New Zealand,Australia,New South Wales,,Sydney
103.254.137.145,4,0,thehikinglife.com,AU,Oceania,Australia and New Zealand,Australia,,,
43.250.142.35,4,-9,thehowlingfantods.com,AU,Oceania,Australia and New Zealand,Australia,New South Wales,,Sydney
116.90.56.7,4,8,thejuicemedia.com,AU,Oceania,Australia and New Zealand,Australia,,,
103.1.186.183,4,-7,thelocalelectrician.com.au,AU,Oceania,Australia and New Zealand,Australia,New South Wales,,Sydney
43.250.141.244,4,-15,thelocalproject.com.au,AU,Oceania,Australia and New Zealand,Australia,New South Wales,,Sydney
116.90.42.3,4,11,themigration.com.au,AU,Oceania,Australia and New Zealand,Australia,,,
203.143.89.160,4,18,themongrelpunt.com,AU,Oceania,Australia and New Zealand,Australia,Victoria,,Melbourne
101.0.112.190,4,5,thenewsmanual.net,AU,Oceania,Australia and New Zealand,Australia,New South Wales,,Sydney
110.232.143.32,4,-9,thenewstone.com,AU,Oceania,Australia and New Zealand,Australia,Queensland,,Brisbane
172.105.176.49,4,-9,thenextright.com,AU,Oceania,Australia and New Zealand,Australia,New South Wales,,Sydney
122.252.15.55,4,699,thenokiablog.com,AU,Oceania,Australia and New Zealand,Australia,New South Wales,,Sydney
27.50.68.251,4,-873,thenutbutterhub.com,AU,Oceania,Australia and New Zealand,Australia,Queensland,,Gold Coast
202.94.46.125,4,2,thenutritionguruandthechef.com,AU,Oceania,Australia and New Zealand,Australia,,,
103.119.110.240,4,3,theoldergamers.com,AU,Oceania,Australia and New Zealand,Australia,New South Wales,,Sydney
103.76.144.25,4,33,theosophy.world,NZ,Oceania,Australia and New Zealand,New Zealand,Auckland,,Auckland
172.105.168.111,4,-7,theperthgroup.com,AU,Oceania,Australia and New Zealand,Australia,New South Wales,,Sydney
43.250.142.101,4,-15,thephysiomovement.com.au,AU,Oceania,Australia and New Zealand,Australia,New South Wales,,Sydney
122.201.124.104,4,-17325,theplumbette.com.au,AU,Oceania,Australia and New Zealand,Australia,,,
101.0.119.240,4,8,thepresets.com,AU,Oceania,Australia and New Zealand,Australia,New South Wales,,Sydney
49.50.252.141,4,8,theprow.org.nz,NZ,Oceania,Australia and New Zealand,New Zealand,Auckland,,Auckland
172.105.191.99,4,26,thermaltake.com.au,AU,Oceania,Australia and New Zealand,Australia,New South Wales,,Sydney
103.224.212.238,4,3,theromneymarsh.net,AU,Oceania,Australia and New Zealand,Australia,,,
43.250.142.120,4,-11,theskincareclinic.com.au,AU,Oceania,Australia and New Zealand,Australia,New South Wales,,Sydney
45.114.116.248,4,18,thesmartworkshop.com,AU,Oceania,Australia and New Zealand,Australia,New South Wales,,Sydney
203.28.238.202,4,1,thesourcebulkfoods.com.au,AU,Oceania,Australia and New Zealand,Australia,,,
116.90.50.52,4,8,thestellaprize.com.au,AU,Oceania,Australia and New Zealand,Australia,,,
202.74.69.89,4,19,thetriffid.com.au,AU,Oceania,Australia and New Zealand,Australia,,,
103.209.24.72,4,9,thewomens.org.au,AU,Oceania,Australia and New Zealand,Australia,Victoria,,Melbourne
116.90.54.14,4,9,theworldkindnessmovement.org,AU,Oceania,Australia and New Zealand,Australia,,,
43.250.141.213,4,-25,thomair.com.au,AU,Oceania,Australia and New Zealand,Australia,New South Wales,,Sydney
110.173.135.39,4,13,threeblueducks.com,AU,Oceania,Australia and New Zealand,Australia,New South Wales,,Sydney
23.54.30.88,4,-8,ticketcharge.com.my,AU,Oceania,Australia and New Zealand,Australia,New South Wales,,Sydney
23.54.30.98,4,1,ticketcharge.com.my,AU,Oceania,Australia and New Zealand,Australia,New South Wales,,Sydney
23.54.30.104,4,-19,ticketcharge.com.my,AU,Oceania,Australia and New Zealand,Australia,New South Wales,,Sydney
23.54.30.90,4,-27,ticketcharge.com.my,AU,Oceania,Australia and New Zealand,Australia,New South Wales,,Sydney
23.54.30.81,4,-17,ticketcharge.com.my,AU,Oceania,Australia and New Zealand,Australia,New South Wales,,Sydney
23.54.30.128,4,-14,ticketcharge.com.my,AU,Oceania,Australia and New Zealand,Australia,New South Wales,,Sydney
23.54.30.105,4,-16,ticketcharge.com.my,AU,Oceania,Australia and New Zealand,Australia,New South Wales,,Sydney
223.165.77.39,4,15,tigerturf.com,NZ,Oceania,Australia and New Zealand,New Zealand,,,
52.65.92.33,4,30,timebase.com.au,AU,Oceania,Australia and New Zealand,Australia,New South Wales,,Sydney
103.27.34.120,4,0,timetableimages.com,AU,Oceania,Australia and New Zealand,Australia,New South Wales,,Sydney
203.10.76.2,4,24,tip.net.au,AU,Oceania,Australia and New Zealand,Australia,,,
110.173.135.123,4,2,tj.net.au,AU,Oceania,Australia and New Zealand,Australia,New South Wales,,Sydney
172.105.178.191,4,-2,toadsnfrogs.com,AU,Oceania,Australia and New Zealand,Australia,New South Wales,,Sydney
122.252.15.54,4,8088,tomeraider.com,AU,Oceania,Australia and New Zealand,Australia,New South Wales,,Sydney
203.132.1.1,4,-34,tomw.net.au,AU,Oceania,Australia and New Zealand,Australia,,,
110.232.143.28,4,-9,tonyattwood.com.au,AU,Oceania,Australia and New Zealand,Australia,Queensland,,Brisbane
202.134.241.249,4,47,topgnonline.shop,AU,Oceania,Australia and New Zealand,Australia,Victoria,,Melbourne
139.99.189.72,4,21,topmaxtech.net,AU,Oceania,Australia and New Zealand,Australia,New South Wales,,Sydney
139.99.199.183,4,10,toptbdev.net,AU,Oceania,Australia and New Zealand,Australia,New South Wales,,Sydney
103.27.34.124,4,-7,totalwindowconcepts.com.au,AU,Oceania,Australia and New Zealand,Australia,New South Wales,,Sydney
101.0.115.128,4,8,tradecritic.com.au,AU,Oceania,Australia and New Zealand,Australia,New South Wales,,Sydney
101.0.117.115,4,7,tradingseek.com,AU,Oceania,Australia and New Zealand,Australia,New South Wales,,Sydney
203.98.95.165,4,28,trans-int.org,AU,Oceania,Australia and New Zealand,Australia,New South Wales,,Sydney
43.250.142.126,4,-11,transdev.com.au,AU,Oceania,Australia and New Zealand,Australia,New South Wales,,Sydney
103.42.110.16,4,-10,transmissionfilms.com.au,AU,Oceania,Australia and New Zealand,Australia,Victoria,,Melbourne
43.250.140.32,4,15,travellers-autobarn.com.au,AU,Oceania,Australia and New Zealand,Australia,New South Wales,,Sydney
101.0.80.26,4,8,travelodium.com,AU,Oceania,Australia and New Zealand,Australia,Victoria,,Melbourne
144.48.37.204,4,17,travelvictoria.com.au,AU,Oceania,Australia and New Zealand,Australia,Victoria,,Melbourne
43.250.140.8,4,-4,treadingmyownpath.com,AU,Oceania,Australia and New Zealand,Australia,New South Wales,,Sydney
194.195.126.85,4,1,tripplanner.net.au,AU,Oceania,Australia and New Zealand,Australia,New South Wales,,Sydney
45.77.232.191,4,0,triwa.com.au,AU,Oceania,Australia and New Zealand,Australia,New South Wales,,Sydney
116.90.61.79,4,50,trpgroup.com.au,AU,Oceania,Australia and New Zealand,Australia,,,
103.224.212.244,4,38,trsrockin.com,AU,Oceania,Australia and New Zealand,Australia,,,
139.84.193.148,4,33,trueandfalse.info,AU,Oceania,Australia and New Zealand,Australia,Victoria,,Melbourne
67.219.108.174,4,32,truenorth.com.au,AU,Oceania,Australia and New Zealand,Australia,Victoria,,Melbourne
51.161.208.232,4,7,trustgdpa.com,AU,Oceania,Australia and New Zealand,Australia,Victoria,,Melbourne
139.144.101.109,4,-9,tso.com.au,AU,Oceania,Australia and New Zealand,Australia,New South Wales,,Sydney
103.27.32.13,4,-12,turnerfreeman.com.au,AU,Oceania,Australia and New Zealand,Australia,New South Wales,,Sydney
116.90.53.14,4,7,twma.com.au,AU,Oceania,Australia and New Zealand,Australia,,,
182.160.155.54,4,2,twomen.com.au,AU,Oceania,Australia and New Zealand,Australia,,,
101.0.115.60,4,12,ubudfoodfestival.com,AU,Oceania,Australia and New Zealand,Australia,New South Wales,,Sydney
43.250.142.153,4,-3,uic.com.au,AU,Oceania,Australia and New Zealand,Australia,New South Wales,,Sydney
101.0.114.116,4,15,ultrastudio.com.au,AU,Oceania,Australia and New Zealand,Australia,New South Wales,,Sydney
58.84.37.36,4,18,umf.org.nz,NZ,Oceania,Australia and New Zealand,New Zealand,Auckland,,Auckland
116.90.62.48,4,13,unaa.org.au,AU,Oceania,Australia and New Zealand,Australia,,,
103.152.248.19,4,3,uniformswapshop.com.au,AU,Oceania,Australia and New Zealand,Australia,,,
103.27.32.43,4,8,unpackinggame.com,AU,Oceania,Australia and New Zealand,Australia,New South Wales,,Sydney
116.90.53.23,4,17,urbis.com.au,AU,Oceania,Australia and New Zealand,Australia,,,
103.168.172.56,4,3,user.fm,AU,Oceania,Australia and New Zealand,Australia,,,
103.168.172.41,4,0,user.fm,AU,Oceania,Australia and New Zealand,Australia,,,
139.99.188.198,4,26,usgovernmentdebt.us,AU,Oceania,Australia and New Zealand,Australia,New South Wales,,Sydney
103.77.224.76,4,4,uxbridgecollege.ac.uk,AU,Oceania,Australia and New Zealand,Australia,,,
103.12.69.205,4,-12,uydj321ee.com,AU,Oceania,Australia and New Zealand,Australia,,,
27.50.84.155,4,-32,v8sleuth.com.au,AU,Oceania,Australia and New Zealand,Australia,New South Wales,,Sydney
34.129.187.76,4,3,vacca.org,AU,Oceania,Australia and New Zealand,Australia,Victoria,,Melbourne
139.99.149.31,4,29,valid4sure.com,AU,Oceania,Australia and New Zealand,Australia,New South Wales,,Sydney
110.232.143.70,4,-18,vanuatumade.com.vu,AU,Oceania,Australia and New Zealand,Australia,Queensland,,Brisbane
202.89.39.41,4,16,vbaccelerator.com,NZ,Oceania,Australia and New Zealand,New Zealand,Auckland,,Auckland
43.250.142.57,4,-17,veganeasy.org,AU,Oceania,Australia and New Zealand,Australia,New South Wales,,Sydney
103.119.110.36,4,11,veganiac.com,AU,Oceania,Australia and New Zealand,Australia,New South Wales,,Sydney
103.146.112.110,4,28,vennings.com.au,AU,Oceania,Australia and New Zealand,Australia,,,
119.9.27.129,4,44,ventia.com,AU,Oceania,Australia and New Zealand,Australia,New South Wales,,Sydney
221.121.144.239,4,-31,vetbook.org,AU,Oceania,Australia and New Zealand,Australia,New South Wales,,Sydney
168.138.13.214,4,5,vhearts.net,AU,Oceania,Australia and New Zealand,Australia,Victoria,,Melbourne
101.0.119.155,4,17,vickihillphysio.com.au,AU,Oceania,Australia and New Zealand,Australia,New South Wales,,Sydney
103.146.112.65,4,1,vicsport.com.au,AU,Oceania,Australia and New Zealand,Australia,,,
103.209.25.237,4,29,victorianopera.com.au,AU,Oceania,Australia and New Zealand,Australia,Victoria,,Melbourne
43.250.142.125,4,-16,victoriasbestflooring.com.au,AU,Oceania,Australia and New Zealand,Australia,New South Wales,,Sydney
192.250.232.18,4,44,videoupdate.me,AU,Oceania,Australia and New Zealand,Australia,New South Wales,,Sydney
110.232.143.109,4,-22,vidpicpro.com,AU,Oceania,Australia and New Zealand,Australia,Queensland,,Brisbane
27.131.110.186,4,2,vietnamvetsmuseum.org,AU,Oceania,Australia and New Zealand,Australia,Victoria,,Melbourne
104.156.233.212,4,34,viewphotography.com,AU,Oceania,Australia and New Zealand,Australia,New South Wales,,Sydney
103.250.232.93,4,16,vikon.co.nz,NZ,Oceania,Australia and New Zealand,New Zealand,,,
101.0.119.207,4,7,vipdecorating.com.au,AU,Oceania,Australia and New Zealand,Australia,New South Wales,,Sydney
170.64.169.35,4,1,visitgreatoceanroad.org.au,AU,Oceania,Australia and New Zealand,Australia,New South Wales,,Sydney
101.0.102.114,4,23,vistapark.com.au,AU,Oceania,Australia and New Zealand,Australia,New South Wales,,Sydney
103.127.121.18,4,37,vkradio.com,AU,Oceania,Australia and New Zealand,Australia,,,
103.236.162.182,4,-4,voced.edu.au,AU,Oceania,Australia and New Zealand,Australia,Victoria,,Melbourne
202.74.67.212,4,0,volunteeringaustralia.org,AU,Oceania,Australia and New Zealand,Australia,,,
43.250.140.30,4,-14,vpncompass.com,AU,Oceania,Australia and New Zealand,Australia,New South Wales,,Sydney
82.97.245.219,4,65,vprioritete.ru,AU,Oceania,Australia and New Zealand,Australia,,,
45.76.121.15,4,9,vwwatercooled.com.au,AU,Oceania,Australia and New Zealand,Australia,New South Wales,,Sydney
119.9.53.102,4,26,waiheke.co.nz,AU,Oceania,Australia and New Zealand,Australia,,,
103.77.224.73,4,13,wakefield.ac.uk,AU,Oceania,Australia and New Zealand,Australia,,,
3.24.58.236,4,19,wakeup.com.au,AU,Oceania,Australia and New Zealand,Australia,New South Wales,,Sydney
103.11.207.161,4,1,wallis.com.au,AU,Oceania,Australia and New Zealand,Australia,,,
103.214.20.65,4,30,wallmans.com.au,AU,Oceania,Australia and New Zealand,Australia,South Australia,,Adelaide
103.77.224.10,4,-1,waltham.ac.uk,AU,Oceania,Australia and New Zealand,Australia,,,
54.66.185.177,4,5,warchalking.org,AU,Oceania,Australia and New Zealand,Australia,New South Wales,,Sydney
103.27.34.49,4,-11,wardkeller.com.au,AU,Oceania,Australia and New Zealand,Australia,New South Wales,,Sydney
27.124.125.171,4,17,warehousejobslocal.co.uk,AU,Oceania,Australia and New Zealand,Australia,,,
223.165.76.107,4,18,warnerdisplays.co.nz,NZ,Oceania,Australia and New Zealand,New Zealand,,,
203.55.18.8,4,1910,wasalooncars.com.au,AU,Oceania,Australia and New Zealand,Australia,New South Wales,,Sydney
202.27.200.174,4,9,waternz.org.nz,NZ,Oceania,Australia and New Zealand,New Zealand,,,
43.250.142.124,4,-16,watertankfactory.com.au,AU,Oceania,Australia and New Zealand,Australia,New South Wales,,Sydney
150.107.72.66,4,4,wayahead.org.au,AU,Oceania,Australia and New Zealand,Australia,New South Wales,,Sydney
116.90.53.17,4,16,we-are-scout.com,AU,Oceania,Australia and New Zealand,Australia,,,
27.50.91.106,4,-27,wealthwithin.com.au,AU,Oceania,Australia and New Zealand,Australia,New South Wales,,Sydney
103.152.248.11,4,90,weavefilms.com,AU,Oceania,Australia and New Zealand,Australia,,,
101.0.120.6,4,47,web24.com.au,AU,Oceania,Australia and New Zealand,Australia,New South Wales,,Sydney
203.24.211.11,4,-42270009,weblink.com.au,AU,Oceania,Australia and New Zealand,Australia,,,
116.90.60.68,4,49,webwombat.com.au,AU,Oceania,Australia and New Zealand,Australia,,,
110.232.143.11,4,11,weddingdiaries.com.au,AU,Oceania,Australia and New Zealand,Australia,Queensland,,Brisbane
103.13.102.43,4,15,weddinghouse.co.nz,AU,Oceania,Australia and New Zealand,Australia,New South Wales,,Sydney
103.224.212.243,4,5,weeblt.com,AU,Oceania,Australia and New Zealand,Australia,,,
103.250.232.52,4,30,weedbusters.org.nz,NZ,Oceania,Australia and New Zealand,New Zealand,,,
114.142.160.14,4,451,welcometocountry.org,AU,Oceania,Australia and New Zealand,Australia,,,
110.232.143.8,4,-13,well-played.com.au,AU,Oceania,Australia and New Zealand,Australia,Queensland,,Brisbane
103.224.212.226,4,5,weobo.com,AU,Oceania,Australia and New Zealand,Australia,,,
122.201.124.10,4,10,westendcollection.com.au,AU,Oceania,Australia and New Zealand,Australia,,,
167.30.222.142,4,5,westernaustralia.com,AU,Oceania,Australia and New Zealand,Australia,Western Australia,,Perth
103.77.224.18,4,2,westherts.ac.uk,AU,Oceania,Australia and New Zealand,Australia,,,
27.131.106.10,4,5,wettropics.gov.au,AU,Oceania,Australia and New Zealand,Australia,Victoria,,Melbourne
45.76.112.252,4,1,wezm.net,AU,Oceania,Australia and New Zealand,Australia,New South Wales,,Sydney
95.111.216.75,4,286,whakatane.com,AU,Oceania,Australia and New Zealand,Australia,New South Wales,,Sydney
203.143.82.116,4,-1839,wheretiz.com.au,AU,Oceania,Australia and New Zealand,Australia,Victoria,,Melbourne
43.250.142.70,4,-9,whitehatagency.com.au,AU,Oceania,Australia and New Zealand,Australia,New South Wales,,Sydney
223.25.225.6,4,-290297,wia.org.au,AU,Oceania,Australia and New Zealand,Australia,,,
101.0.104.126,4,8,wickedthemusical.com.au,AU,Oceania,Australia and New Zealand,Australia,New South Wales,,Sydney
101.0.108.6,4,1354,wikiaustralia.com,AU,Oceania,Australia and New Zealand,Australia,New South Wales,,Sydney
194.195.253.12,4,79,wikimedia.org.au,AU,Oceania,Australia and New Zealand,Australia,New South Wales,,Sydney
103.152.248.132,4,15,wildcare.org.au,AU,Oceania,Australia and New Zealand,Australia,,,
43.250.142.150,4,-22,wildlife.org.au,AU,Oceania,Australia and New Zealand,Australia,New South Wales,,Sydney
43.250.142.81,4,35,wildlifehabitat.com.au,AU,Oceania,Australia and New Zealand,Australia,New South Wales,,Sydney
110.232.112.52,4,-9,wildlifevictoria.org.au,AU,Oceania,Australia and New Zealand,Australia,New South Wales,,Sydney
34.87.229.94,4,6,willowbank.co.nz,AU,Oceania,Australia and New Zealand,Australia,New South Wales,,Sydney
103.152.248.135,4,9,wilmap.com.au,AU,Oceania,Australia and New Zealand,Australia,,,
203.143.87.20,4,25,wine-cellar-racks.com.au,AU,Oceania,Australia and New Zealand,Australia,Victoria,,Melbourne
43.245.53.142,4,35,wingspan.co.nz,AU,Oceania,Australia and New Zealand,Australia,,,
101.0.103.123,4,11,wintv.com.au,AU,Oceania,Australia and New Zealand,Australia,New South Wales,,Sydney
103.250.232.113,4,22,wisemove.co.nz,NZ,Oceania,Australia and New Zealand,New Zealand,,,
43.250.142.44,4,-10,wlsnsw.org.au,AU,Oceania,Australia and New Zealand,Australia,New South Wales,,Sydney
103.77.224.42,4,-2,wmc.ac.uk,AU,Oceania,Australia and New Zealand,Australia,,,
203.209.197.139,4,-2,wmegroup.com.au,AU,Oceania,Australia and New Zealand,Australia,Victoria,,Melbourne
103.224.212.240,4,7,woerdpress.com,AU,Oceania,Australia and New Zealand,Australia,,,
103.152.248.183,4,12,wollemipine.com,AU,Oceania,Australia and New Zealand,Australia,,,
101.0.69.102,4,22,womenaustralia.info,AU,Oceania,Australia and New Zealand,Australia,Victoria,,Melbourne
116.90.40.5,4,9,womenlovetech.com,AU,Oceania,Australia and New Zealand,Australia,,,
139.180.171.198,4,10,womenswellbeing.com.au,AU,Oceania,Australia and New Zealand,Australia,New South Wales,,Sydney
103.198.42.146,4,1406,womhealth.org.au,AU,Oceania,Australia and New Zealand,Australia,New South Wales,,Sydney
116.90.52.12,4,8,woodfloordrying.com.au,AU,Oceania,Australia and New Zealand,Australia,,,
202.89.39.2,4,6,woodlynpark.co.nz,NZ,Oceania,Australia and New Zealand,New Zealand,Auckland,,Auckland
110.232.143.27,4,-15,wowapps.com,AU,Oceania,Australia and New Zealand,Australia,Queensland,,Brisbane
111.125.177.74,4,11,wowcareers.com.au,AU,Oceania,Australia and New Zealand,Australia,,,
110.232.143.101,4,0,wpcreative.com.au,AU,Oceania,Australia and New Zealand,Australia,Queensland,,Brisbane
103.77.224.16,4,4,wsc.ac.uk,AU,Oceania,Australia and New Zealand,Australia,,,
54.66.201.246,4,16,wwda.org.au,AU,Oceania,Australia and New Zealand,Australia,New South Wales,,Sydney
122.252.14.219,4,2,wyomingweb.net,AU,Oceania,Australia and New Zealand,Australia,New South Wales,,Sydney
103.224.212.229,4,2,x-eng.com,AU,Oceania,Australia and New Zealand,Australia,,,
49.50.249.40,4,6,xenodream.com,NZ,Oceania,Australia and New Zealand,New Zealand,Auckland,,Lynfield
45.114.116.243,4,16,xstt.org,AU,Oceania,Australia and New Zealand,Australia,New South Wales,,Sydney
35.244.104.66,4,2,yancoal.com.au,AU,Oceania,Australia and New Zealand,Australia,New South Wales,,Sydney
101.0.117.31,4,9,yasawa.com,AU,Oceania,Australia and New Zealand,Australia,New South Wales,,Sydney
103.1.185.20,4,-6,ybg.com.au,AU,Oceania,Australia and New Zealand,Australia,New South Wales,,Sydney
103.96.117.12,4,-2,yealands.co.nz,NZ,Oceania,Australia and New Zealand,New Zealand,,,
103.224.212.215,4,5,yeezyboost350v2s.us,AU,Oceania,Australia and New Zealand,Australia,,,
103.224.212.213,4,2,yeezys.com.co,AU,Oceania,Australia and New Zealand,Australia,,,
120.138.30.56,4,16,yellow-eyedpenguin.org.nz,NZ,Oceania,Australia and New Zealand,New Zealand,,,
13.238.8.110,4,7,yellow.com.au,AU,Oceania,Australia and New Zealand,Australia,New South Wales,,Sydney
13.211.110.176,4,5,yellow.com.au,AU,Oceania,Australia and New Zealand,Australia,New South Wales,,Sydney
13.54.113.93,4,4,yelmcinemas.com,AU,Oceania,Australia and New Zealand,Australia,New South Wales,,Sydney
103.224.212.236,4,2,yescoloring.com,AU,Oceania,Australia and New Zealand,Australia,,,
67.219.107.203,4,17,yeuthucung.com,AU,Oceania,Australia and New Zealand,Australia,Victoria,,Melbourne
103.224.212.212,4,4,yisucomposite.com,AU,Oceania,Australia and New Zealand,Australia,,,
43.250.142.136,4,-10,ymca.org.au,AU,Oceania,Australia and New Zealand,Australia,New South Wales,,Sydney
117.74.103.18,4,3,ymcagta.org,AU,Oceania,Australia and New Zealand,Australia,,,
27.124.125.18,4,17,yogaallianceprofessionals.org,AU,Oceania,Australia and New Zealand,Australia,,,
101.0.113.92,4,6,yogananda.com.au,AU,Oceania,Australia and New Zealand,Australia,New South Wales,,Sydney
82.115.26.158,4,5,yongefrontdental.com,AU,Oceania,Australia and New Zealand,Australia,,,
116.90.51.48,4,6,yoohlist.com.au,AU,Oceania,Australia and New Zealand,Australia,,,
103.146.112.179,4,10,yourlocalplumbing.com.au,AU,Oceania,Australia and New Zealand,Australia,,,
210.5.53.64,4,1,youthlaw.co.nz,NZ,Oceania,Australia and New Zealand,New Zealand,,,
103.224.212.214,4,6,yswooden.com,AU,Oceania,Australia and New Zealand,Australia,,,
103.224.212.211,4,6,yw679.com,AU,Oceania,Australia and New Zealand,Australia,,,
103.224.212.217,4,30,zapatillas-running.com,AU,Oceania,Australia and New Zealand,Australia,,,
82.97.242.67,4,-13,zapchasti-n1.ru,AU,Oceania,Australia and New Zealand,Australia,,,
103.224.212.235,4,19,zavalasministorage.com,AU,Oceania,Australia and New Zealand,Australia,,,
103.224.212.210,4,5,zeecopy.com,AU,Oceania,Australia and New Zealand,Australia,,,
43.245.52.70,4,29,zesprikiwi.com,AU,Oceania,Australia and New Zealand,Australia,,,
116.90.51.137,4,21,zeusedit.com,AU,Oceania,Australia and New Zealand,Australia,,,
27.50.73.49,4,-29,zibdigital.com.au,AU,Oceania,Australia and New Zealand,Australia,Queensland,,Gold Coast
103.168.172.37,4,4,zonpages.com,AU,Oceania,Australia and New Zealand,Australia,,,
103.168.172.52,4,0,zonpages.com,AU,Oceania,Australia and New Zealand,Australia,,,
117.120.11.55,4,-34,zoorepairs.com.au,AU,Oceania,Australia and New Zealand,Australia,New South Wales,,Sydney
