reflector_ip,ip_version,offset,description,country_code,region,sub_region,country_name,sub_division_1,sub_division_2,city
46.30.215.5,4,7,10000-mail-order-brides.com,DK,Europe,Northern Europe,Denmark,Capital Region,,Copenhagen
77.111.240.213,4,4,112handyman.com,DK,Europe,Northern Europe,Denmark,Capital Region,,Copenhagen
46.30.213.121,4,6,123minsida.se,DK,Europe,Northern Europe,Denmark,Capital Region,,Copenhagen
46.30.213.106,4,4,123siteweb.fr,DK,Europe,Northern Europe,Denmark,Capital Region,,Copenhagen
91.184.31.182,4,7,123vloerverwarming.nl,DK,Europe,Northern Europe,Denmark,Capital Region,,Copenhagen
46.30.213.82,4,4,123website.nl,DK,Europe,Northern Europe,Denmark,Capital Region,,Copenhagen
46.30.213.61,4,11,2484.de,DK,Europe,Northern Europe,Denmark,Capital Region,,Copenhagen
91.184.31.105,4,4,24high.nl,DK,Europe,Northern Europe,Denmark,Capital Region,,Copenhagen
46.30.213.95,4,5,24syv.dk,DK,Europe,Northern Europe,Denmark,Capital Region,,Copenhagen
46.30.213.160,4,9,academia.dk,DK,Europe,Northern Europe,Denmark,Capital Region,,Copenhagen
77.111.240.116,4,47,activehouse.info,DK,Europe,Northern Europe,Denmark,Capital Region,,Copenhagen
77.111.240.155,4,30,addeditore.it,DK,Europe,Northern Europe,Denmark,Capital Region,,Copenhagen
185.165.170.70,4,6,afdbundestag.de,IS,Europe,Northern Europe,Iceland,Capital Region,Reykjavíkurborg,Reykjavik
91.184.8.2,4,63,akinci.nl,DK,Europe,Northern Europe,Denmark,Capital Region,,Copenhagen
46.30.213.100,4,54,al-qanon.com,DK,Europe,Northern Europe,Denmark,Capital Region,,Copenhagen
77.111.241.91,4,7,alltopeverything.com,DK,Europe,Northern Europe,Denmark,Capital Region,,Copenhagen
185.95.24.223,4,25,amayzine.com,DK,Europe,Northern Europe,Denmark,Capital Region,,Copenhagen
46.30.213.172,4,5,amelandermusea.nl,DK,Europe,Northern Europe,Denmark,Capital Region,,Copenhagen
82.221.100.77,4,100,antifa.cz,IS,Europe,Northern Europe,Iceland,Capital Region,Reykjavíkurborg,Reykjavik
91.184.0.25,4,8,aopen.nl,DK,Europe,Northern Europe,Denmark,Capital Region,,Copenhagen
91.184.0.24,4,10,applesnail.net,DK,Europe,Northern Europe,Denmark,Capital Region,,Copenhagen
46.30.213.142,4,14,arcadebelgium.be,DK,Europe,Northern Europe,Denmark,Capital Region,,Copenhagen
46.30.213.177,4,46,arenes-arles.com,DK,Europe,Northern Europe,Denmark,Capital Region,,Copenhagen
77.111.240.200,4,4,artisticrender.com,DK,Europe,Northern Europe,Denmark,Capital Region,,Copenhagen
77.111.240.113,4,29,ascii-code.com,DK,Europe,Northern Europe,Denmark,Capital Region,,Copenhagen
46.30.213.143,4,5,aurallandscape.net,DK,Europe,Northern Europe,Denmark,Capital Region,,Copenhagen
77.111.240.104,4,48,auraskypool.com,DK,Europe,Northern Europe,Denmark,Capital Region,,Copenhagen
77.111.240.230,4,26,aviationregionalequebec.com,DK,Europe,Northern Europe,Denmark,Capital Region,,Copenhagen
82.221.129.44,4,52,azuresunrise.com,IS,Europe,Northern Europe,Iceland,Capital Region,Reykjavíkurborg,Reykjavik
46.30.213.5,4,71,b2bmarketeers.nl,DK,Europe,Northern Europe,Denmark,Capital Region,,Copenhagen
91.184.0.63,4,12,baasdeband.nl,DK,Europe,Northern Europe,Denmark,Capital Region,,Copenhagen
77.111.240.242,4,4,bachflower.com,DK,Europe,Northern Europe,Denmark,Capital Region,,Copenhagen
77.111.240.124,4,24,baretly.net,DK,Europe,Northern Europe,Denmark,Capital Region,,Copenhagen
46.30.215.89,4,6,barryboys.co.uk,DK,Europe,Northern Europe,Denmark,Capital Region,,Copenhagen
77.111.240.173,4,70,bermuda-online.org,DK,Europe,Northern Europe,Denmark,Capital Region,,Copenhagen
46.30.215.37,4,4,bfh4tours.com,DK,Europe,Northern Europe,Denmark,Capital Region,,Copenhagen
46.30.213.144,4,38,birkroolf-design.de,DK,Europe,Northern Europe,Denmark,Capital Region,,Copenhagen
46.30.213.84,4,5,bitsnbites.eu,DK,Europe,Northern Europe,Denmark,Capital Region,,Copenhagen
77.111.240.129,4,5,bkfrisk.se,DK,Europe,Northern Europe,Denmark,Capital Region,,Copenhagen
46.30.213.116,4,40,bonuscasinossites.net,DK,Europe,Northern Europe,Denmark,Capital Region,,Copenhagen
46.30.213.12,4,50,booklight.international,DK,Europe,Northern Europe,Denmark,Capital Region,,Copenhagen
91.184.0.75,4,6,boudoirsara.nl,DK,Europe,Northern Europe,Denmark,Capital Region,,Copenhagen
185.95.24.230,4,12,brabantcultureel.nl,DK,Europe,Northern Europe,Denmark,Capital Region,,Copenhagen
46.30.213.167,4,6,brattlandsakeri.se,DK,Europe,Northern Europe,Denmark,Capital Region,,Copenhagen
46.30.213.140,4,53,browhaus-upgrade.de,DK,Europe,Northern Europe,Denmark,Capital Region,,Copenhagen
82.221.136.1,4,981,brutalproof.net,IS,Europe,Northern Europe,Iceland,Capital Region,Reykjavíkurborg,Reykjavik
80.239.214.20,4,12,bruun-rasmussen.dk,DK,Europe,Northern Europe,Denmark,Capital Region,,Ballerup Municipality
77.111.240.142,4,8,bugattipage.com,DK,Europe,Northern Europe,Denmark,Capital Region,,Copenhagen
46.30.213.94,4,20,bullzip.com,DK,Europe,Northern Europe,Denmark,Capital Region,,Copenhagen
46.30.213.168,4,48,businessfast.co.uk,DK,Europe,Northern Europe,Denmark,Capital Region,,Copenhagen
77.111.241.101,4,14,businesstelegraph.co.uk,DK,Europe,Northern Europe,Denmark,Capital Region,,Copenhagen
46.30.215.58,4,3,buyselltrademyanmar.com,DK,Europe,Northern Europe,Denmark,Capital Region,,Copenhagen
46.30.213.179,4,6,bylund-automotive.com,DK,Europe,Northern Europe,Denmark,Capital Region,,Copenhagen
77.111.240.111,4,11,cafedejaren.nl,DK,Europe,Northern Europe,Denmark,Capital Region,,Copenhagen
77.111.243.71,4,97,calibrize.com,DK,Europe,Northern Europe,Denmark,Capital Region,,Copenhagen
77.111.240.240,4,11,chickenfans.com,DK,Europe,Northern Europe,Denmark,Capital Region,,Copenhagen
77.111.240.67,4,10,choux.nl,DK,Europe,Northern Europe,Denmark,Capital Region,,Copenhagen
77.111.240.167,4,18,chrisandriessen.nl,DK,Europe,Northern Europe,Denmark,Capital Region,,Copenhagen
46.30.215.73,4,93,clauskc.dk,DK,Europe,Northern Europe,Denmark,Capital Region,,Copenhagen
46.30.215.90,4,9,climate4you.com,DK,Europe,Northern Europe,Denmark,Capital Region,,Copenhagen
77.111.241.77,4,3,cnbcnewstoday.com,DK,Europe,Northern Europe,Denmark,Capital Region,,Copenhagen
46.30.213.48,4,3,codecanyondemo.work,DK,Europe,Northern Europe,Denmark,Capital Region,,Copenhagen
77.111.240.101,4,3,continuitygame.com,DK,Europe,Northern Europe,Denmark,Capital Region,,Copenhagen
46.30.215.67,4,14,craftandcreativity.com,DK,Europe,Northern Europe,Denmark,Capital Region,,Copenhagen
77.111.241.98,4,11,crunchbasenewstoday.com,DK,Europe,Northern Europe,Denmark,Capital Region,,Copenhagen
46.30.213.91,4,3,cyreneforum.com,DK,Europe,Northern Europe,Denmark,Capital Region,,Copenhagen
77.111.241.111,4,30,dailyheraldnewstoday.com,DK,Europe,Northern Europe,Denmark,Capital Region,,Copenhagen
46.30.215.108,4,4,danceplanet.se,DK,Europe,Northern Europe,Denmark,Capital Region,,Copenhagen
46.30.215.34,4,6,danlockton.co.uk,DK,Europe,Northern Europe,Denmark,Capital Region,,Copenhagen
46.30.213.107,4,41,datavizcatalogue.com,DK,Europe,Northern Europe,Denmark,Capital Region,,Copenhagen
130.225.250.133,4,4,deic.dk,DK,Europe,Northern Europe,Denmark,Capital Region,,Hvidovre
77.111.241.107,4,17,developmentreimagined.com,DK,Europe,Northern Europe,Denmark,Capital Region,,Copenhagen
46.30.215.99,4,4,dewolff.nu,DK,Europe,Northern Europe,Denmark,Capital Region,,Copenhagen
46.30.215.97,4,33,diabloswing.com,DK,Europe,Northern Europe,Denmark,Capital Region,,Copenhagen
77.111.240.118,4,128,dirkdobbeleers.be,DK,Europe,Northern Europe,Denmark,Capital Region,,Copenhagen
77.111.240.162,4,4,disco-disco.com,DK,Europe,Northern Europe,Denmark,Capital Region,,Copenhagen
82.103.129.71,4,2,distrowatch.com,DK,Europe,Northern Europe,Denmark,Capital Region,,Copenhagen
212.27.27.62,4,-298314,DNS Server: 212.27.27.62.bredband.3.dk,DK,Europe,Northern Europe,Denmark,Capital Region,,Rødovre Municipality
46.22.99.226,4,4,DNS Server: 226-99-22-46.business.hringdu.is,IS,Europe,Northern Europe,Iceland,Capital Region,Reykjavíkurborg,Reykjavik
31.209.146.55,4,6,DNS Server: 55-146-209-31.xdsl.hringdu.is,IS,Europe,Northern Europe,Iceland,Capital Region,Reykjavíkurborg,Reykjavik
80.71.140.202,4,528129,DNS Server: 80.71.140.202.ipv4.parknet.dk,DK,Europe,Northern Europe,Denmark,Capital Region,,Copenhagen
89.160.133.214,4,1,DNS Server: 89-160-133-214.du.xdsl.is,IS,Europe,Northern Europe,Iceland,Capital Region,Reykjavíkurborg,Reykjavik
80.196.240.182,4,18,DNS Server: cpe.ge-0-0-3-100.oelbynqe30.dk.customer.tdc.net,DK,Europe,Northern Europe,Denmark,Capital Region,,Copenhagen
95.166.140.250,4,85,DNS Server: cpe.ge-3-1-3-100.bllnqe10.dk.customer.tdc.net,DK,Europe,Northern Europe,Denmark,Capital Region,,Rødovre Municipality
188.180.123.154,4,66,DNS Server: cpe.ge-4-1-6-100.opnqe10.dk.customer.tdc.net,DK,Europe,Northern Europe,Denmark,Capital Region,,Copenhagen
87.54.6.134,4,8,DNS Server: cpe.ge-5-1-2-100.hgnqe10.dk.customer.tdc.net,DK,Europe,Northern Europe,Denmark,Capital Region,,Copenhagen
93.178.179.210,4,47,DNS Server: cpe.ge-7-3-3-102.hgsnqe10.dk.customer.tdc.net,DK,Europe,Northern Europe,Denmark,Capital Region,,Frederiksberg
87.49.54.238,4,-33,DNS Server: cpe.ge-7-3-6-100.kjnqe11.dk.customer.tdc.net,DK,Europe,Northern Europe,Denmark,Capital Region,,Copenhagen
80.199.160.142,4,-88,DNS Server: cpe.xe-2-0-0-134.faaqnqe10.dk.customer.tdc.net,DK,Europe,Northern Europe,Denmark,Capital Region,,Copenhagen
82.103.129.240,4,311042,DNS Server: e82-103-129-240s.easyspeedy.dk,DK,Europe,Northern Europe,Denmark,Capital Region,,Copenhagen
82.103.129.72,4,352251,DNS Server: e82-103-129-72s.asergo.com,DK,Europe,Northern Europe,Denmark,Capital Region,,Copenhagen
91.184.0.56,4,14,domoticx.com,DK,Europe,Northern Europe,Denmark,Capital Region,,Copenhagen
82.221.128.89,4,28,doramaclub.tv,IS,Europe,Northern Europe,Iceland,Capital Region,Reykjavíkurborg,Reykjavik
82.221.128.92,4,39,doramaserials.net,IS,Europe,Northern Europe,Iceland,Capital Region,Reykjavíkurborg,Reykjavik
46.30.213.77,4,32,dovenschap.nl,DK,Europe,Northern Europe,Denmark,Capital Region,,Copenhagen
89.150.140.164,4,-19,drkt.eu,DK,Europe,Northern Europe,Denmark,Capital Region,,Copenhagen
77.111.241.67,4,4,dutchnewstoday.com,DK,Europe,Northern Europe,Denmark,Capital Region,,Copenhagen
77.111.241.102,4,3,dwnewstoday.com,DK,Europe,Northern Europe,Denmark,Capital Region,,Copenhagen
94.147.83.78,4,14167,echoone.com,DK,Europe,Northern Europe,Denmark,Capital Region,,Frederikssund
77.111.240.125,4,75,eggogbacon.com,DK,Europe,Northern Europe,Denmark,Capital Region,,Copenhagen
77.111.240.136,4,28,ekvall.co,DK,Europe,Northern Europe,Denmark,Capital Region,,Copenhagen
46.30.215.12,4,56,elephant.se,DK,Europe,Northern Europe,Denmark,Capital Region,,Copenhagen
77.111.240.172,4,24,enslaved.no,DK,Europe,Northern Europe,Denmark,Capital Region,,Copenhagen
185.95.24.233,4,13,escaperoom.nl,DK,Europe,Northern Europe,Denmark,Capital Region,,Copenhagen
46.30.213.22,4,2,europeanjournalists.org,DK,Europe,Northern Europe,Denmark,Capital Region,,Copenhagen
77.111.241.116,4,54,europeannewstoday.com,DK,Europe,Northern Europe,Denmark,Capital Region,,Copenhagen
46.30.215.7,4,39,euroscadeaux.com,DK,Europe,Northern Europe,Denmark,Capital Region,,Copenhagen
91.184.0.58,4,1,faceland.nl,DK,Europe,Northern Europe,Denmark,Capital Region,,Copenhagen
91.184.31.235,4,4,faralda.com,DK,Europe,Northern Europe,Denmark,Capital Region,,Copenhagen
185.95.24.34,4,9,favorflav.com,DK,Europe,Northern Europe,Denmark,Capital Region,,Copenhagen
77.111.243.68,4,21,fc-utrecht.nl,DK,Europe,Northern Europe,Denmark,Capital Region,,Copenhagen
89.147.108.182,4,36,featherwallet.org,IS,Europe,Northern Europe,Iceland,Capital Region,Reykjavíkurborg,Reykjavik
185.95.24.209,4,40,febo.nl,DK,Europe,Northern Europe,Denmark,Capital Region,,Copenhagen
46.30.213.159,4,19,finduzzcatcafe.se,DK,Europe,Northern Europe,Denmark,Capital Region,,Copenhagen
77.111.240.80,4,2,fmjsoft.com,DK,Europe,Northern Europe,Denmark,Capital Region,,Copenhagen
46.30.215.45,4,5,fnprg.com,DK,Europe,Northern Europe,Denmark,Capital Region,,Copenhagen
46.30.215.105,4,59,fonik.dk,DK,Europe,Northern Europe,Denmark,Capital Region,,Copenhagen
79.171.101.35,4,10,forlagid.is,IS,Europe,Northern Europe,Iceland,Capital Region,Hafnarfjarðarkaupstaður,Hafnarfjordur
130.225.244.222,4,2,freebsd.dk,DK,Europe,Northern Europe,Denmark,Capital Region,,Hvidovre
77.111.241.110,4,50,frenchnewstoday.com,DK,Europe,Northern Europe,Denmark,Capital Region,,Copenhagen
185.165.170.6,4,-42476,fridaysforfuture.org,IS,Europe,Northern Europe,Iceland,Capital Region,Reykjavíkurborg,Reykjavik
46.30.213.169,4,4,fullerhairtransplant.se,DK,Europe,Northern Europe,Denmark,Capital Region,,Copenhagen
77.111.240.152,4,3,fyldepennen.dk,DK,Europe,Northern Europe,Denmark,Capital Region,,Copenhagen
152.115.60.227,4,5,fynsvom.dk,DK,Europe,Northern Europe,Denmark,Capital Region,,Copenhagen
77.247.76.132,4,325,gamereactor.dk,DK,Europe,Northern Europe,Denmark,Capital Region,,Ølstykke Stationsby
46.30.213.64,4,22,gardinenwelt-angelina.de,DK,Europe,Northern Europe,Denmark,Capital Region,,Copenhagen
46.30.213.71,4,4,gearingcommander.com,DK,Europe,Northern Europe,Denmark,Capital Region,,Copenhagen
82.221.141.15,4,42,gemmaodoherty.com,IS,Europe,Northern Europe,Iceland,Capital Region,Reykjavíkurborg,Reykjavik
46.30.213.105,4,18,generation-n.at,DK,Europe,Northern Europe,Denmark,Capital Region,,Copenhagen
77.111.241.79,4,75,germaynewstoday.com,DK,Europe,Northern Europe,Denmark,Capital Region,,Copenhagen
46.30.213.180,4,22,gippmokk.se,DK,Europe,Northern Europe,Denmark,Capital Region,,Copenhagen
46.30.215.121,4,31,glennferon.com,DK,Europe,Northern Europe,Denmark,Capital Region,,Copenhagen
46.30.213.80,4,19,globalowls.com,DK,Europe,Northern Europe,Denmark,Capital Region,,Copenhagen
82.221.139.135,4,21,googletransparencyproject.org,IS,Europe,Northern Europe,Iceland,Capital Region,Reykjavíkurborg,Reykjavik
46.30.215.47,4,4,gotavapen.se,DK,Europe,Northern Europe,Denmark,Capital Region,,Copenhagen
91.184.0.82,4,26,gowithyourflow.nl,DK,Europe,Northern Europe,Denmark,Capital Region,,Copenhagen
46.30.213.4,4,13,graffiticreator.net,DK,Europe,Northern Europe,Denmark,Capital Region,,Copenhagen
77.111.240.71,4,33,gravsted.dk,DK,Europe,Northern Europe,Denmark,Capital Region,,Copenhagen
91.184.0.98,4,27,greeneninnovation.nl,DK,Europe,Northern Europe,Denmark,Capital Region,,Copenhagen
46.30.215.98,4,31,gripelectric.net,DK,Europe,Northern Europe,Denmark,Capital Region,,Copenhagen
91.184.31.101,4,47,grizzlymarketing.nl,DK,Europe,Northern Europe,Denmark,Capital Region,,Copenhagen
46.30.213.181,4,9,guthspot.se,DK,Europe,Northern Europe,Denmark,Capital Region,,Copenhagen
185.107.112.73,4,6,hackforamongus.com,DK,Europe,Northern Europe,Denmark,Capital Region,,Copenhagen
46.30.213.153,4,4,heatsweden.com,DK,Europe,Northern Europe,Denmark,Capital Region,,Copenhagen
91.184.0.47,4,31,heeringoffice.nl,DK,Europe,Northern Europe,Denmark,Capital Region,,Copenhagen
91.184.0.112,4,6,hetlaatstetafeltje.nl,DK,Europe,Northern Europe,Denmark,Capital Region,,Copenhagen
80.248.29.188,4,1,heyiceland.is,IS,Europe,Northern Europe,Iceland,Capital Region,Reykjavíkurborg,Reykjavik
77.111.240.135,4,3,hgb.se,DK,Europe,Northern Europe,Denmark,Capital Region,,Copenhagen
130.208.165.186,4,6,hi.is,IS,Europe,Northern Europe,Iceland,Capital Region,Hafnarfjarðarkaupstaður,Hafnarfjordur
77.111.240.102,4,2,historicalstatistics.org,DK,Europe,Northern Europe,Denmark,Capital Region,,Copenhagen
46.30.215.57,4,4,historyofsocialwork.org,DK,Europe,Northern Europe,Denmark,Capital Region,,Copenhagen
217.16.111.253,4,4,hk.dk,DK,Europe,Northern Europe,Denmark,Capital Region,,Copenhagen
77.111.240.143,4,26,horgster.net,DK,Europe,Northern Europe,Denmark,Capital Region,,Copenhagen
91.184.8.50,4,4,hostnet.nl,DK,Europe,Northern Europe,Denmark,Capital Region,,Copenhagen
46.30.213.125,4,19,hoteldegoudfazant.nl,DK,Europe,Northern Europe,Denmark,Capital Region,,Copenhagen
176.222.236.230,4,1672026,iasj.net,DK,Europe,Northern Europe,Denmark,Capital Region,,Copenhagen
77.111.240.185,4,8,ibras.dk,DK,Europe,Northern Europe,Denmark,Capital Region,,Copenhagen
82.221.141.28,4,13,iclfi.org,IS,Europe,Northern Europe,Iceland,Capital Region,Reykjavíkurborg,Reykjavik
91.184.31.234,4,3,ijslandspecialist.nl,DK,Europe,Northern Europe,Denmark,Capital Region,,Copenhagen
77.111.241.64,4,4,ikem.de,DK,Europe,Northern Europe,Denmark,Capital Region,,Copenhagen
46.30.213.56,4,19,ilahealthconsultancy.co.uk,DK,Europe,Northern Europe,Denmark,Capital Region,,Copenhagen
46.30.213.44,4,6,ilmfeed.com,DK,Europe,Northern Europe,Denmark,Capital Region,,Copenhagen
77.111.240.92,4,3,impactcleaning.be,DK,Europe,Northern Europe,Denmark,Capital Region,,Copenhagen
46.30.213.50,4,49,influenceaudience.com,DK,Europe,Northern Europe,Denmark,Capital Region,,Copenhagen
91.184.0.60,4,45,inmyredkitchen.com,DK,Europe,Northern Europe,Denmark,Capital Region,,Copenhagen
77.111.240.117,4,25,interfaith-calendar.org,DK,Europe,Northern Europe,Denmark,Capital Region,,Copenhagen
46.30.213.141,4,43,isabellepieman.com,DK,Europe,Northern Europe,Denmark,Capital Region,,Copenhagen
77.111.241.81,4,12,jackpotbetonline.com,DK,Europe,Northern Europe,Denmark,Capital Region,,Copenhagen
77.66.16.106,4,11,jaoo.dk,DK,Europe,Northern Europe,Denmark,Capital Region,,Copenhagen
91.184.0.85,4,30,jazzmasters.nl,DK,Europe,Northern Europe,Denmark,Capital Region,,Copenhagen
46.30.213.134,4,92,jeremydeller.org,DK,Europe,Northern Europe,Denmark,Capital Region,,Copenhagen
77.111.240.169,4,22,jilltxt.net,DK,Europe,Northern Europe,Denmark,Capital Region,,Copenhagen
77.111.240.140,4,2,jirkavinse.com,DK,Europe,Northern Europe,Denmark,Capital Region,,Copenhagen
77.111.240.159,4,7,joker.be,DK,Europe,Northern Europe,Denmark,Capital Region,,Copenhagen
46.30.215.14,4,41,joodsamsterdam.nl,DK,Europe,Northern Europe,Denmark,Capital Region,,Copenhagen
84.238.109.19,4,3,jttarchive.net,DK,Europe,Northern Europe,Denmark,Capital Region,,Copenhagen
46.30.213.43,4,18,justitia-int.org,DK,Europe,Northern Europe,Denmark,Capital Region,,Copenhagen
77.111.240.153,4,3,jv-arcade.com,DK,Europe,Northern Europe,Denmark,Capital Region,,Copenhagen
77.111.243.70,4,2,jvdtogt.nl,DK,Europe,Northern Europe,Denmark,Capital Region,,Copenhagen
46.30.215.50,4,3,jylling.dk,DK,Europe,Northern Europe,Denmark,Capital Region,,Copenhagen
91.184.0.110,4,4,kaasvoorkerels.nl,DK,Europe,Northern Europe,Denmark,Capital Region,,Copenhagen
46.30.213.158,4,27,kaizers.no,DK,Europe,Northern Europe,Denmark,Capital Region,,Copenhagen
77.111.240.187,4,12,kallesentreprenad.se,DK,Europe,Northern Europe,Denmark,Capital Region,,Copenhagen
46.30.213.34,4,4,kepgo.de,DK,Europe,Northern Europe,Denmark,Capital Region,,Copenhagen
77.111.240.190,4,37,keurmerkverhuizer.nl,DK,Europe,Northern Europe,Denmark,Capital Region,,Copenhagen
46.30.213.87,4,4,kgdenoordzee.be,DK,Europe,Northern Europe,Denmark,Capital Region,,Copenhagen
46.30.215.125,4,6,kimberlyven.be,DK,Europe,Northern Europe,Denmark,Capital Region,,Copenhagen
77.111.240.171,4,4,klassegegenklasse.org,DK,Europe,Northern Europe,Denmark,Capital Region,,Copenhagen
5.249.255.126,4,5,klimaoslo.no,DK,Europe,Northern Europe,Denmark,Capital Region,,Copenhagen
46.30.213.14,4,21,knutselopdrachten.nl,DK,Europe,Northern Europe,Denmark,Capital Region,,Copenhagen
46.30.213.183,4,3,kosmetikinstitut-milla.de,DK,Europe,Northern Europe,Denmark,Capital Region,,Copenhagen
46.30.213.37,4,47,kunsthistorici.nl,DK,Europe,Northern Europe,Denmark,Capital Region,,Copenhagen
46.30.213.112,4,4,kymatica.com,DK,Europe,Northern Europe,Denmark,Capital Region,,Copenhagen
77.111.240.128,4,3,laage.se,DK,Europe,Northern Europe,Denmark,Capital Region,,Copenhagen
46.30.213.49,4,4,lakeoftears.net,DK,Europe,Northern Europe,Denmark,Capital Region,,Copenhagen
82.221.129.39,4,21,lankaweb.com,IS,Europe,Northern Europe,Iceland,Capital Region,Reykjavíkurborg,Reykjavik
46.30.215.6,4,3,lantharumarestaurantandjuicebar.com,DK,Europe,Northern Europe,Denmark,Capital Region,,Copenhagen
91.184.0.22,4,3,lawleisure.nl,DK,Europe,Northern Europe,Denmark,Capital Region,,Copenhagen
46.30.213.47,4,59,lebenslustiger.com,DK,Europe,Northern Europe,Denmark,Capital Region,,Copenhagen
77.111.240.89,4,3,lefeverbasteyns.be,DK,Europe,Northern Europe,Denmark,Capital Region,,Copenhagen
91.184.0.74,4,87,lejardinutrecht.nl,DK,Europe,Northern Europe,Denmark,Capital Region,,Copenhagen
91.184.0.83,4,4,leydesdorff.net,DK,Europe,Northern Europe,Denmark,Capital Region,,Copenhagen
91.184.0.65,4,8,leyplaza.nl,DK,Europe,Northern Europe,Denmark,Capital Region,,Copenhagen
46.30.213.111,4,14,lgpeintures.com,DK,Europe,Northern Europe,Denmark,Capital Region,,Copenhagen
46.30.213.120,4,3,liberafolio.org,DK,Europe,Northern Europe,Denmark,Capital Region,,Copenhagen
46.30.215.84,4,5,librered.net,DK,Europe,Northern Europe,Denmark,Capital Region,,Copenhagen
46.30.213.110,4,16,liero.be,DK,Europe,Northern Europe,Denmark,Capital Region,,Copenhagen
46.30.215.51,4,16,life-sciences-forums.com,DK,Europe,Northern Europe,Denmark,Capital Region,,Copenhagen
46.30.213.97,4,3,lihtosen.se,DK,Europe,Northern Europe,Denmark,Capital Region,,Copenhagen
91.184.0.92,4,116,linkset.nl,DK,Europe,Northern Europe,Denmark,Capital Region,,Copenhagen
46.30.215.64,4,8,listenable.net,DK,Europe,Northern Europe,Denmark,Capital Region,,Copenhagen
82.221.128.100,4,52,listproperties.com,IS,Europe,Northern Europe,Iceland,Capital Region,Reykjavíkurborg,Reykjavik
77.111.241.73,4,19,livemintnewstoday.com,DK,Europe,Northern Europe,Denmark,Capital Region,,Copenhagen
91.184.0.108,4,6,lloydhotel.com,DK,Europe,Northern Europe,Denmark,Capital Region,,Copenhagen
46.30.213.104,4,3,lnhwater.tech,DK,Europe,Northern Europe,Denmark,Capital Region,,Copenhagen
46.30.213.67,4,31,loekkenglas.dk,DK,Europe,Northern Europe,Denmark,Capital Region,,Copenhagen
46.30.215.44,4,4,loofys.nl,DK,Europe,Northern Europe,Denmark,Capital Region,,Copenhagen
91.184.0.76,4,39,loopbaaninc.nl,DK,Europe,Northern Europe,Denmark,Capital Region,,Copenhagen
46.30.213.75,4,2,lov2xlr8.no,DK,Europe,Northern Europe,Denmark,Capital Region,,Copenhagen
46.30.213.60,4,3,ludosity.com,DK,Europe,Northern Europe,Denmark,Capital Region,,Copenhagen
46.30.215.93,4,2,lychnell.com,DK,Europe,Northern Europe,Denmark,Capital Region,,Copenhagen
46.30.215.107,4,5,magritte.be,DK,Europe,Northern Europe,Denmark,Capital Region,,Copenhagen
46.30.215.22,4,2,mail-order-bride-personals.com,DK,Europe,Northern Europe,Denmark,Capital Region,,Copenhagen
87.116.13.124,4,213,malerkanonen.dk,DK,Europe,Northern Europe,Denmark,Capital Region,,Copenhagen
46.30.213.147,4,49,malinc.se,DK,Europe,Northern Europe,Denmark,Capital Region,,Copenhagen
46.30.215.26,4,2,malmospelmanslag.se,DK,Europe,Northern Europe,Denmark,Capital Region,,Copenhagen
46.30.213.58,4,24,mapaplan.com,DK,Europe,Northern Europe,Denmark,Capital Region,,Copenhagen
46.30.213.29,4,35,marcofolio.net,DK,Europe,Northern Europe,Denmark,Capital Region,,Copenhagen
77.111.240.194,4,9,marieshus.com,DK,Europe,Northern Europe,Denmark,Capital Region,,Copenhagen
46.30.215.1,4,27,marketingportaal.nl,DK,Europe,Northern Europe,Denmark,Capital Region,,Copenhagen
46.30.215.46,4,66,marmiterna.se,DK,Europe,Northern Europe,Denmark,Capital Region,,Copenhagen
77.111.241.94,4,17,marten.se,DK,Europe,Northern Europe,Denmark,Capital Region,,Copenhagen
185.150.198.115,4,67,mastercubestore.se,DK,Europe,Northern Europe,Denmark,Capital Region,,Søborg
46.30.213.101,4,89,mataya.info,DK,Europe,Northern Europe,Denmark,Capital Region,,Copenhagen
46.30.215.32,4,5,matstroeng.se,DK,Europe,Northern Europe,Denmark,Capital Region,,Copenhagen
46.30.213.185,4,46,maulbiler.dk,DK,Europe,Northern Europe,Denmark,Capital Region,,Copenhagen
77.221.244.11,4,6,mediasupport.org,DK,Europe,Northern Europe,Denmark,Capital Region,,Farum
46.30.213.39,4,4,meesens.be,DK,Europe,Northern Europe,Denmark,Capital Region,,Copenhagen
46.30.213.25,4,8,megamixgo.com.br,DK,Europe,Northern Europe,Denmark,Capital Region,,Copenhagen
46.30.213.35,4,17,mensenrechten.be,DK,Europe,Northern Europe,Denmark,Capital Region,,Copenhagen
46.30.215.80,4,60,metalexpressradio.com,DK,Europe,Northern Europe,Denmark,Capital Region,,Copenhagen
46.30.215.102,4,4,meubelpaleis.com,DK,Europe,Northern Europe,Denmark,Capital Region,,Copenhagen
46.30.215.18,4,8,migger.dk,DK,Europe,Northern Europe,Denmark,Capital Region,,Copenhagen
46.30.213.63,4,3,mikkeller.dk,DK,Europe,Northern Europe,Denmark,Capital Region,,Copenhagen
46.30.215.87,4,2,mikroteatret.no,DK,Europe,Northern Europe,Denmark,Capital Region,,Copenhagen
46.30.215.85,4,60,minerant.org,DK,Europe,Northern Europe,Denmark,Capital Region,,Copenhagen
82.103.136.110,4,40,minet.org,DK,Europe,Northern Europe,Denmark,Capital Region,,Hørsholm
77.111.243.67,4,3,minidisco.com,DK,Europe,Northern Europe,Denmark,Capital Region,,Copenhagen
46.30.213.52,4,29,ministryoftruth.me.uk,DK,Europe,Northern Europe,Denmark,Capital Region,,Copenhagen
77.111.241.103,4,2,mirrornewstoday.com,DK,Europe,Northern Europe,Denmark,Capital Region,,Copenhagen
82.221.128.180,4,26,moderntokyotimes.com,IS,Europe,Northern Europe,Iceland,Capital Region,Reykjavíkurborg,Reykjavik
77.111.240.205,4,9,mogu.bio,DK,Europe,Northern Europe,Denmark,Capital Region,,Copenhagen
46.30.213.155,4,8,monumentaltrees.com,DK,Europe,Northern Europe,Denmark,Capital Region,,Copenhagen
46.30.215.17,4,53,mortgagerateselpasotx.com,DK,Europe,Northern Europe,Denmark,Capital Region,,Copenhagen
91.184.0.97,4,7,mrsonderhoud.nl,DK,Europe,Northern Europe,Denmark,Capital Region,,Copenhagen
185.165.170.199,4,875,mtgcardsmith.com,IS,Europe,Northern Europe,Iceland,Capital Region,Reykjavíkurborg,Reykjavik
91.184.0.49,4,2,musaca.nl,DK,Europe,Northern Europe,Denmark,Capital Region,,Copenhagen
46.30.213.139,4,11,musictechguru.com,DK,Europe,Northern Europe,Denmark,Capital Region,,Copenhagen
185.95.24.48,4,5,mvgm.com,DK,Europe,Northern Europe,Denmark,Capital Region,,Copenhagen
46.30.215.55,4,22,mxdvs.co,DK,Europe,Northern Europe,Denmark,Capital Region,,Copenhagen
91.184.0.27,4,24,mybeauty-licious.nl,DK,Europe,Northern Europe,Denmark,Capital Region,,Copenhagen
77.111.240.110,4,57,mynoise.net,DK,Europe,Northern Europe,Denmark,Capital Region,,Copenhagen
46.30.213.171,4,20,mysoti.com,DK,Europe,Northern Europe,Denmark,Capital Region,,Copenhagen
81.7.149.249,4,95,nald.ca,DK,Europe,Northern Europe,Denmark,Capital Region,,Frederiksberg
77.111.240.164,4,53,nasum.com,DK,Europe,Northern Europe,Denmark,Capital Region,,Copenhagen
46.30.213.170,4,20,nationalfoodstrategy.org,DK,Europe,Northern Europe,Denmark,Capital Region,,Copenhagen
77.111.241.118,4,5,nationalposttoday.com,DK,Europe,Northern Europe,Denmark,Capital Region,,Copenhagen
46.30.215.36,4,8,navalhistory.dk,DK,Europe,Northern Europe,Denmark,Capital Region,,Copenhagen
46.30.213.124,4,4,necrophobic.net,DK,Europe,Northern Europe,Denmark,Capital Region,,Copenhagen
46.30.213.157,4,2,nederlandstegelmuseum.nl,DK,Europe,Northern Europe,Denmark,Capital Region,,Copenhagen
46.30.215.53,4,29,neverwasmag.com,DK,Europe,Northern Europe,Denmark,Capital Region,,Copenhagen
77.111.240.151,4,6,nia-uk.org,DK,Europe,Northern Europe,Denmark,Capital Region,,Copenhagen
46.30.213.154,4,52,ninearchespress.com,DK,Europe,Northern Europe,Denmark,Capital Region,,Copenhagen
77.247.64.12,4,9,nmd.dk,DK,Europe,Northern Europe,Denmark,Capital Region,,Ølstykke Stationsby
46.30.215.111,4,2,noah.dk,DK,Europe,Northern Europe,Denmark,Capital Region,,Copenhagen
77.111.240.119,4,72,nondeju.eu,DK,Europe,Northern Europe,Denmark,Capital Region,,Copenhagen
46.30.213.18,4,24,noordzeemerdunord.be,DK,Europe,Northern Europe,Denmark,Capital Region,,Copenhagen
77.111.240.87,4,42,norcopia.se,DK,Europe,Northern Europe,Denmark,Capital Region,,Copenhagen
77.111.241.96,4,16,norwaynewstoday.com,DK,Europe,Northern Europe,Denmark,Capital Region,,Copenhagen
77.111.240.193,4,7,notedesignstudio.se,DK,Europe,Northern Europe,Denmark,Capital Region,,Copenhagen
46.30.213.92,4,11,notwist.com,DK,Europe,Northern Europe,Denmark,Capital Region,,Copenhagen
91.184.31.152,4,5,nt2taalmenu.nl,DK,Europe,Northern Europe,Denmark,Capital Region,,Copenhagen
5.249.255.87,4,9,nu.no,DK,Europe,Northern Europe,Denmark,Capital Region,,Copenhagen
82.221.129.24,4,1131,nualeargais.ie,IS,Europe,Northern Europe,Iceland,Capital Region,Reykjavíkurborg,Reykjavik
82.221.136.40,4,14,nurturing-care.org,IS,Europe,Northern Europe,Iceland,Capital Region,Reykjavíkurborg,Reykjavik
77.233.228.116,4,-816,nymphomaniacthemovie.com,DK,Europe,Northern Europe,Denmark,Capital Region,,Taastrup
46.30.215.74,4,4,nytimesnewstoday.com,DK,Europe,Northern Europe,Denmark,Capital Region,,Copenhagen
91.184.0.57,4,15,objectrotterdam.com,DK,Europe,Northern Europe,Denmark,Capital Region,,Copenhagen
46.30.215.21,4,2,oceanexplorer.se,DK,Europe,Northern Europe,Denmark,Capital Region,,Copenhagen
82.221.128.64,4,31,octagon.express,IS,Europe,Northern Europe,Iceland,Capital Region,Reykjavíkurborg,Reykjavik
77.111.240.251,4,15,olubunmimabel.com,DK,Europe,Northern Europe,Denmark,Capital Region,,Copenhagen
77.111.241.112,4,13,omagazine.fr,DK,Europe,Northern Europe,Denmark,Capital Region,,Copenhagen
46.30.213.136,4,8,on4lar.be,DK,Europe,Northern Europe,Denmark,Capital Region,,Copenhagen
46.30.211.34,4,22,one.me,DK,Europe,Northern Europe,Denmark,Capital Region,,Copenhagen
185.118.248.162,4,332,Ookla Speedtest Server 14014: speedtest.hiper.dk,DK,Europe,Northern Europe,Denmark,Capital Region,,Copenhagen
213.190.100.191,4,143,Ookla Speedtest Server: hradi.vortex.is,IS,Europe,Northern Europe,Iceland,Capital Region,Reykjavíkurborg,Reykjavik
46.30.213.26,4,3,opensuse-guide.org,DK,Europe,Northern Europe,Denmark,Capital Region,,Copenhagen
77.111.241.76,4,12,opgewektinpurmerend.com,DK,Europe,Northern Europe,Denmark,Capital Region,,Copenhagen
46.30.213.36,4,44,ophetwww.net,DK,Europe,Northern Europe,Denmark,Capital Region,,Copenhagen
82.221.131.223,4,1092,orangewebsite.com,IS,Europe,Northern Europe,Iceland,Capital Region,Reykjavíkurborg,Reykjavik
77.111.241.124,4,45,orderyoyo.com,DK,Europe,Northern Europe,Denmark,Capital Region,,Copenhagen
77.111.240.196,4,84,ordfront.se,DK,Europe,Northern Europe,Denmark,Capital Region,,Copenhagen
46.30.213.176,4,3,oskarstalberg.com,DK,Europe,Northern Europe,Denmark,Capital Region,,Copenhagen
77.111.240.160,4,43,osteo-deswaef.be,DK,Europe,Northern Europe,Denmark,Capital Region,,Copenhagen
91.184.0.105,4,50,overloonzoo.nl,DK,Europe,Northern Europe,Denmark,Capital Region,,Copenhagen
46.30.215.62,4,6,oz9aec.net,DK,Europe,Northern Europe,Denmark,Capital Region,,Copenhagen
82.221.128.183,4,1237,p2pr.me,IS,Europe,Northern Europe,Iceland,Capital Region,Reykjavíkurborg,Reykjavik
46.30.215.29,4,3,padowan.dk,DK,Europe,Northern Europe,Denmark,Capital Region,,Copenhagen
91.184.0.10,4,19,paperflies.com,DK,Europe,Northern Europe,Denmark,Capital Region,,Copenhagen
5.249.255.122,4,37,paretosec.com,DK,Europe,Northern Europe,Denmark,Capital Region,,Copenhagen
46.30.215.56,4,42,parquetypuertas.com,DK,Europe,Northern Europe,Denmark,Capital Region,,Copenhagen
46.30.215.94,4,43,pielinks.com,DK,Europe,Northern Europe,Denmark,Capital Region,,Copenhagen
91.184.0.53,4,59,pieterveen.nl,DK,Europe,Northern Europe,Denmark,Capital Region,,Copenhagen
46.30.215.106,4,12,pikasmedia.de,DK,Europe,Northern Europe,Denmark,Capital Region,,Copenhagen
77.111.240.108,4,12,pinsekirka-elim.no,DK,Europe,Northern Europe,Denmark,Capital Region,,Copenhagen
46.30.215.116,4,14,pizzadude.dk,DK,Europe,Northern Europe,Denmark,Capital Region,,Copenhagen
46.30.215.66,4,22,pizzeriailcarpaccio.se,DK,Europe,Northern Europe,Denmark,Capital Region,,Copenhagen
77.111.240.115,4,60,poetrylondon.co.uk,DK,Europe,Northern Europe,Denmark,Capital Region,,Copenhagen
91.214.22.217,4,23,politiken.dk,DK,Europe,Northern Europe,Denmark,Capital Region,,Copenhagen
77.111.241.75,4,28,postgazettenewstoday.com,DK,Europe,Northern Europe,Denmark,Capital Region,,Copenhagen
46.30.215.54,4,72,postnorddanmarkrundt.dk,DK,Europe,Northern Europe,Denmark,Capital Region,,Copenhagen
46.30.213.69,4,52,pressplayontape.com,DK,Europe,Northern Europe,Denmark,Capital Region,,Copenhagen
46.30.215.77,4,23,prettymaids.dk,DK,Europe,Northern Europe,Denmark,Capital Region,,Copenhagen
46.30.213.191,4,15,prixos.nl,DK,Europe,Northern Europe,Denmark,Capital Region,,Copenhagen
46.30.213.15,4,22,pump-pyrolysteknik.se,DK,Europe,Northern Europe,Denmark,Capital Region,,Copenhagen
185.95.27.108,4,10,puremarkt.nl,DK,Europe,Northern Europe,Denmark,Capital Region,,Copenhagen
77.111.240.94,4,4,pyxeledit.com,DK,Europe,Northern Europe,Denmark,Capital Region,,Copenhagen
46.30.213.178,4,59,quelsolaar.com,DK,Europe,Northern Europe,Denmark,Capital Region,,Copenhagen
82.221.136.47,4,1003,quickbookstoolhub.com,IS,Europe,Northern Europe,Iceland,Capital Region,Reykjavíkurborg,Reykjavik
77.111.241.104,4,137,radioara.org,DK,Europe,Northern Europe,Denmark,Capital Region,,Copenhagen
46.30.213.59,4,14,railcolornews.com,DK,Europe,Northern Europe,Denmark,Capital Region,,Copenhagen
46.30.213.186,4,14,railwaywondersoftheworld.com,DK,Europe,Northern Europe,Denmark,Capital Region,,Copenhagen
77.111.240.186,4,7,rainbowrichescasinos.net,DK,Europe,Northern Europe,Denmark,Capital Region,,Copenhagen
46.30.213.184,4,34,rajnnuhiddje.se,DK,Europe,Northern Europe,Denmark,Capital Region,,Copenhagen
46.30.215.25,4,27,raumlabor.net,DK,Europe,Northern Europe,Denmark,Capital Region,,Copenhagen
77.111.240.247,4,13,ravnskov.nu,DK,Europe,Northern Europe,Denmark,Capital Region,,Copenhagen
46.30.215.112,4,7,rbrserien.se,DK,Europe,Northern Europe,Denmark,Capital Region,,Copenhagen
46.30.215.123,4,20,realcarboncredits.com,DK,Europe,Northern Europe,Denmark,Capital Region,,Copenhagen
46.30.215.24,4,21,realitycompetitiontv.com,DK,Europe,Northern Europe,Denmark,Capital Region,,Copenhagen
46.30.215.41,4,16,recruiterscanada.com,DK,Europe,Northern Europe,Denmark,Capital Region,,Copenhagen
46.30.213.7,4,43,recyclepro.co.uk,DK,Europe,Northern Europe,Denmark,Capital Region,,Copenhagen
46.30.213.51,4,7,redicecreations.com,DK,Europe,Northern Europe,Denmark,Capital Region,,Copenhagen
77.111.240.182,4,26,reffen.dk,DK,Europe,Northern Europe,Denmark,Capital Region,,Copenhagen
77.111.240.64,4,14,remarketing.company,DK,Europe,Northern Europe,Denmark,Capital Region,,Copenhagen
46.30.213.165,4,57,restaurantsumo.com,DK,Europe,Northern Europe,Denmark,Capital Region,,Copenhagen
77.111.240.138,4,47,restauranttoscanini.nl,DK,Europe,Northern Europe,Denmark,Capital Region,,Copenhagen
46.30.213.23,4,26,rhcv.be,DK,Europe,Northern Europe,Denmark,Capital Region,,Copenhagen
77.111.240.191,4,41,rice.dk,DK,Europe,Northern Europe,Denmark,Capital Region,,Copenhagen
185.10.9.100,4,7,rocketcdn.me,DK,Europe,Northern Europe,Denmark,Capital Region,,Copenhagen
91.184.0.59,4,54,romapublications.org,DK,Europe,Northern Europe,Denmark,Capital Region,,Copenhagen
46.30.215.83,4,35,ronimo-games.com,DK,Europe,Northern Europe,Denmark,Capital Region,,Copenhagen
185.107.113.0,4,52,roofviscompetitie.nl,DK,Europe,Northern Europe,Denmark,Capital Region,,Copenhagen
46.30.213.89,4,4,rootstime.be,DK,Europe,Northern Europe,Denmark,Capital Region,,Copenhagen
46.30.213.72,4,14,rostra.dk,DK,Europe,Northern Europe,Denmark,Capital Region,,Copenhagen
91.184.0.111,4,39,rozenbergps.com,DK,Europe,Northern Europe,Denmark,Capital Region,,Copenhagen
77.111.240.239,4,6,rqwork.de,DK,Europe,Northern Europe,Denmark,Capital Region,,Copenhagen
46.30.213.109,4,3,rrscrap.co.uk,DK,Europe,Northern Europe,Denmark,Capital Region,,Copenhagen
46.30.215.68,4,6,rtnewstoday.com,DK,Europe,Northern Europe,Denmark,Capital Region,,Copenhagen
77.247.72.75,4,466,rudersdal.dk,DK,Europe,Northern Europe,Denmark,Capital Region,,Ølstykke Stationsby
91.184.31.81,4,27,ruitenheer.nl,DK,Europe,Northern Europe,Denmark,Capital Region,,Copenhagen
46.30.215.82,4,6,rustiekkamperen.com,DK,Europe,Northern Europe,Denmark,Capital Region,,Copenhagen
82.112.85.49,4,132311,rvk.is,IS,Europe,Northern Europe,Iceland,Capital Region,Reykjavíkurborg,Reykjavik
91.184.0.52,4,3,saabheritagecenter.com,DK,Europe,Northern Europe,Denmark,Capital Region,,Copenhagen
46.30.215.109,4,14,saarnews.com,DK,Europe,Northern Europe,Denmark,Capital Region,,Copenhagen
46.30.213.150,4,8,sabinemarcelis.com,DK,Europe,Northern Europe,Denmark,Capital Region,,Copenhagen
46.30.215.113,4,14,saeys.se,DK,Europe,Northern Europe,Denmark,Capital Region,,Copenhagen
91.184.0.106,4,3,safaripark.nl,DK,Europe,Northern Europe,Denmark,Capital Region,,Copenhagen
87.116.13.125,4,513,sagnlandet.dk,DK,Europe,Northern Europe,Denmark,Capital Region,,Copenhagen
46.30.215.15,4,10,sanger.dk,DK,Europe,Northern Europe,Denmark,Capital Region,,Copenhagen
185.95.26.149,4,5,saunadeco.nl,DK,Europe,Northern Europe,Denmark,Capital Region,,Copenhagen
46.30.213.182,4,13,savico.be,DK,Europe,Northern Europe,Denmark,Capital Region,,Copenhagen
46.30.213.55,4,82,schonmagazine.com,DK,Europe,Northern Europe,Denmark,Capital Region,,Copenhagen
46.30.215.13,4,19,scientificfreedom.dk,DK,Europe,Northern Europe,Denmark,Capital Region,,Copenhagen
46.30.213.11,4,5,scorecloud.com,DK,Europe,Northern Europe,Denmark,Capital Region,,Copenhagen
46.30.215.35,4,6,scotlandnewstoday.com,DK,Europe,Northern Europe,Denmark,Capital Region,,Copenhagen
46.30.213.6,4,7,secretsofgrindea.com,DK,Europe,Northern Europe,Denmark,Capital Region,,Copenhagen
157.157.133.12,4,9,simnet.is,IS,Europe,Northern Europe,Iceland,Capital Region,Garðabær,Garðabaer
46.30.215.114,4,2,simonstalenhag.se,DK,Europe,Northern Europe,Denmark,Capital Region,,Copenhagen
46.30.213.73,4,4,simplesite.com,DK,Europe,Northern Europe,Denmark,Capital Region,,Copenhagen
91.184.0.89,4,19,singasari.info,DK,Europe,Northern Europe,Denmark,Capital Region,,Copenhagen
77.111.240.73,4,20,sk3bg.se,DK,Europe,Northern Europe,Denmark,Capital Region,,Copenhagen
77.111.240.144,4,22,skabelonen.dk,DK,Europe,Northern Europe,Denmark,Capital Region,,Copenhagen
46.30.215.120,4,34,skepticreport.com,DK,Europe,Northern Europe,Denmark,Capital Region,,Copenhagen
46.30.213.20,4,18,skillinge.com,DK,Europe,Northern Europe,Denmark,Capital Region,,Copenhagen
46.30.215.9,4,14,skisprungschanzen.com,DK,Europe,Northern Europe,Denmark,Capital Region,,Copenhagen
77.111.240.180,4,9,skolparty.se,DK,Europe,Northern Europe,Denmark,Capital Region,,Copenhagen
46.30.213.137,4,3,skrekkogle.com,DK,Europe,Northern Europe,Denmark,Capital Region,,Copenhagen
185.107.113.152,4,21,skyinteriors.nl,DK,Europe,Northern Europe,Denmark,Capital Region,,Copenhagen
46.30.213.103,4,14,skystef.be,DK,Europe,Northern Europe,Denmark,Capital Region,,Copenhagen
77.111.240.86,4,18,slaegtsbibliotek.dk,DK,Europe,Northern Europe,Denmark,Capital Region,,Copenhagen
185.95.26.126,4,4,slotenmakeramsterdam.nl,DK,Europe,Northern Europe,Denmark,Capital Region,,Copenhagen
91.184.31.82,4,14,smk.nl,DK,Europe,Northern Europe,Denmark,Capital Region,,Copenhagen
46.30.215.70,4,3,snooze-hotelsoftware.de,DK,Europe,Northern Europe,Denmark,Capital Region,,Copenhagen
46.30.213.146,4,24,snvienergy.fr,DK,Europe,Northern Europe,Denmark,Capital Region,,Copenhagen
46.30.215.118,4,92,socialarchitects.nl,DK,Europe,Northern Europe,Denmark,Capital Region,,Copenhagen
46.30.213.45,4,4,sociologylens.net,DK,Europe,Northern Europe,Denmark,Capital Region,,Copenhagen
46.30.213.131,4,33,soenmusic.com,DK,Europe,Northern Europe,Denmark,Capital Region,,Copenhagen
46.30.213.2,4,20,sofiatalvik.com,DK,Europe,Northern Europe,Denmark,Capital Region,,Copenhagen
91.184.31.135,4,5,sonicacts.com,DK,Europe,Northern Europe,Denmark,Capital Region,,Copenhagen
46.30.213.38,4,12,spab-rice.com,DK,Europe,Northern Europe,Denmark,Capital Region,,Copenhagen
157.157.115.20,4,12,statice.is,IS,Europe,Northern Europe,Iceland,Capital Region,Reykjavíkurborg,Reykjavik
77.111.240.158,4,3,stbookly.eu,DK,Europe,Northern Europe,Denmark,Capital Region,,Copenhagen
91.184.0.109,4,26,stivoro.nl,DK,Europe,Northern Europe,Denmark,Capital Region,,Copenhagen
77.111.240.154,4,20,stjarnhimlen.se,DK,Europe,Northern Europe,Denmark,Capital Region,,Copenhagen
217.28.189.74,4,0,stjornlagarad.is,IS,Europe,Northern Europe,Iceland,Capital Region,Hafnarfjarðarkaupstaður,Hafnarfjordur
91.184.0.48,4,39,stoppestennu.nl,DK,Europe,Northern Europe,Denmark,Capital Region,,Copenhagen
46.30.213.17,4,51,streethousechampionships.com,DK,Europe,Northern Europe,Denmark,Capital Region,,Copenhagen
46.30.213.128,4,69,strijdbewijs.nl,DK,Europe,Northern Europe,Denmark,Capital Region,,Copenhagen
46.30.215.76,4,3,stromstadakademi.se,DK,Europe,Northern Europe,Denmark,Capital Region,,Copenhagen
91.184.31.99,4,63,stuc-concurrent.nl,DK,Europe,Northern Europe,Denmark,Capital Region,,Copenhagen
77.111.240.170,4,30,studiolegalemanzo.com,DK,Europe,Northern Europe,Denmark,Capital Region,,Copenhagen
46.30.215.91,4,2,sund-forskning.dk,DK,Europe,Northern Europe,Denmark,Capital Region,,Copenhagen
185.67.84.105,4,703,sundlaugar.is,IS,Europe,Northern Europe,Iceland,Capital Region,Reykjavíkurborg,Reykjavik
91.184.31.109,4,33,supplychainmovement.com,DK,Europe,Northern Europe,Denmark,Capital Region,,Copenhagen
46.30.213.162,4,3,svenskacc.se,DK,Europe,Northern Europe,Denmark,Capital Region,,Copenhagen
46.30.213.9,4,2,sye.dk,DK,Europe,Northern Europe,Denmark,Capital Region,,Copenhagen
46.30.215.61,4,12,synthfont.com,DK,Europe,Northern Europe,Denmark,Capital Region,,Copenhagen
185.165.170.250,4,-103,systemchange-not-climatechange.at,IS,Europe,Northern Europe,Iceland,Capital Region,Reykjavíkurborg,Reykjavik
93.95.228.87,4,2,szmer.info,IS,Europe,Northern Europe,Iceland,Capital Region,Reykjavíkurborg,Reykjavik
185.95.24.31,4,8,t-shirts.nl,DK,Europe,Northern Europe,Denmark,Capital Region,,Copenhagen
91.184.31.136,4,6,takecarebnb.org,DK,Europe,Northern Europe,Denmark,Capital Region,,Copenhagen
46.30.215.63,4,14,tamm.be,DK,Europe,Northern Europe,Denmark,Capital Region,,Copenhagen
91.184.0.107,4,6,tamyca.de,DK,Europe,Northern Europe,Denmark,Capital Region,,Copenhagen
77.111.243.69,4,10,tassenmuseum.nl,DK,Europe,Northern Europe,Denmark,Capital Region,,Copenhagen
46.30.213.41,4,74,teamconfetti.nl,DK,Europe,Northern Europe,Denmark,Capital Region,,Copenhagen
46.30.215.42,4,46,techregister.co.uk,DK,Europe,Northern Europe,Denmark,Capital Region,,Copenhagen
77.111.240.245,4,3,techtelegraph.co.uk,DK,Europe,Northern Europe,Denmark,Capital Region,,Copenhagen
91.184.31.45,4,14,teds-place.nl,DK,Europe,Northern Europe,Denmark,Capital Region,,Copenhagen
46.30.213.166,4,29,textmakareknutsson.se,DK,Europe,Northern Europe,Denmark,Capital Region,,Copenhagen
77.111.240.189,4,18,the-butcher.com,DK,Europe,Northern Europe,Denmark,Capital Region,,Copenhagen
46.30.213.188,4,13,theagitator.com,DK,Europe,Northern Europe,Denmark,Capital Region,,Copenhagen
91.184.0.90,4,7,theaternadedam.nl,DK,Europe,Northern Europe,Denmark,Capital Region,,Copenhagen
46.30.215.101,4,6,theblackchildagenda.org,DK,Europe,Northern Europe,Denmark,Capital Region,,Copenhagen
77.111.241.127,4,11,thedailymailnewstoday.com,DK,Europe,Northern Europe,Denmark,Capital Region,,Copenhagen
77.111.241.126,4,10,thedailytelegraphnewstoday.com,DK,Europe,Northern Europe,Denmark,Capital Region,,Copenhagen
46.30.213.88,4,2,thehistoryoflondon.co.uk,DK,Europe,Northern Europe,Denmark,Capital Region,,Copenhagen
77.111.241.97,4,53,theindependentnewstoday.com,DK,Europe,Northern Europe,Denmark,Capital Region,,Copenhagen
91.184.0.14,4,8,thekindnessapp.com,DK,Europe,Northern Europe,Denmark,Capital Region,,Copenhagen
46.30.215.27,4,79,thelogocreative.co.uk,DK,Europe,Northern Europe,Denmark,Capital Region,,Copenhagen
46.30.213.127,4,48,themexpose.com,DK,Europe,Northern Europe,Denmark,Capital Region,,Copenhagen
77.111.241.114,4,58,themirrornewstoday.com,DK,Europe,Northern Europe,Denmark,Capital Region,,Copenhagen
91.184.0.9,4,17,theoneminutes.org,DK,Europe,Northern Europe,Denmark,Capital Region,,Copenhagen
77.111.241.108,4,3,thequintnewstoday.com,DK,Europe,Northern Europe,Denmark,Capital Region,,Copenhagen
77.111.241.70,4,5,thestarnewstoday.com,DK,Europe,Northern Europe,Denmark,Capital Region,,Copenhagen
77.111.241.74,4,39,thesunnewstoday.com,DK,Europe,Northern Europe,Denmark,Capital Region,,Copenhagen
77.111.241.125,4,18,thetelegraphnewstoday.com,DK,Europe,Northern Europe,Denmark,Capital Region,,Copenhagen
77.111.240.68,4,25,theverybesttop10.com,DK,Europe,Northern Europe,Denmark,Capital Region,,Copenhagen
46.30.213.98,4,3,thewelltravelledkitchen.com,DK,Europe,Northern Europe,Denmark,Capital Region,,Copenhagen
46.30.213.30,4,6,thomaslaupstad.com,DK,Europe,Northern Europe,Denmark,Capital Region,,Copenhagen
77.111.241.117,4,2,thuisleven.com,DK,Europe,Northern Europe,Denmark,Capital Region,,Copenhagen
77.111.240.69,4,24,thundermother.com,DK,Europe,Northern Europe,Denmark,Capital Region,,Copenhagen
46.30.213.21,4,2,tiltedtwister.com,DK,Europe,Northern Europe,Denmark,Capital Region,,Copenhagen
77.111.241.69,4,19,timesofnetherland.com,DK,Europe,Northern Europe,Denmark,Capital Region,,Copenhagen
77.111.241.89,4,7,timesofspanish.com,DK,Europe,Northern Europe,Denmark,Capital Region,,Copenhagen
77.111.240.131,4,12,tobermory.com,DK,Europe,Northern Europe,Denmark,Capital Region,,Copenhagen
46.30.213.27,4,9,todayinliege.be,DK,Europe,Northern Europe,Denmark,Capital Region,,Copenhagen
91.184.0.50,4,2,tontonclub.nl,DK,Europe,Northern Europe,Denmark,Capital Region,,Copenhagen
77.111.241.105,4,24,topeuropenews.com,DK,Europe,Northern Europe,Denmark,Capital Region,,Copenhagen
77.111.241.123,4,4,topworldnewstoday.com,DK,Europe,Northern Europe,Denmark,Capital Region,,Copenhagen
77.111.240.84,4,5,tothe92.co.uk,DK,Europe,Northern Europe,Denmark,Capital Region,,Copenhagen
46.30.215.48,4,15,transport-executive.co.uk,DK,Europe,Northern Europe,Denmark,Capital Region,,Copenhagen
46.30.213.46,4,57,tredjenatur.dk,DK,Europe,Northern Europe,Denmark,Capital Region,,Copenhagen
77.111.240.109,4,7,tribulation.se,DK,Europe,Northern Europe,Denmark,Capital Region,,Copenhagen
77.66.16.100,4,32,trifork.com,DK,Europe,Northern Europe,Denmark,Capital Region,,Copenhagen
46.30.213.126,4,4,truefoodsblog.com,DK,Europe,Northern Europe,Denmark,Capital Region,,Copenhagen
46.30.215.119,4,4,trust-scaffolding.com,DK,Europe,Northern Europe,Denmark,Capital Region,,Copenhagen
82.221.136.24,4,1225,truthcomestolight.com,IS,Europe,Northern Europe,Iceland,Capital Region,Reykjavíkurborg,Reykjavik
46.30.213.113,4,1,tuinenstan.be,DK,Europe,Northern Europe,Denmark,Capital Region,,Copenhagen
77.111.240.122,4,3,tumia.org,DK,Europe,Northern Europe,Denmark,Capital Region,,Copenhagen
46.30.213.33,4,3,tunturisusi.com,DK,Europe,Northern Europe,Denmark,Capital Region,,Copenhagen
77.111.241.106,4,2,turkeynewstoday.com,DK,Europe,Northern Europe,Denmark,Capital Region,,Copenhagen
82.221.128.94,4,80,turkline.tv,IS,Europe,Northern Europe,Iceland,Capital Region,Reykjavíkurborg,Reykjavik
46.30.213.132,4,3,turksonderwijscentrum.nl,DK,Europe,Northern Europe,Denmark,Capital Region,,Copenhagen
199.232.42.217,4,3,tv2.dk,DK,Europe,Northern Europe,Denmark,Capital Region,,Copenhagen
46.30.213.31,4,15,tvark.se,DK,Europe,Northern Europe,Denmark,Capital Region,,Copenhagen
77.111.240.161,4,24,twelveticketing.eu,DK,Europe,Northern Europe,Denmark,Capital Region,,Copenhagen
77.111.243.64,4,5,twentefm.net,DK,Europe,Northern Europe,Denmark,Capital Region,,Copenhagen
77.111.240.147,4,2,twinair.com,DK,Europe,Northern Europe,Denmark,Capital Region,,Copenhagen
77.111.240.179,4,6,ueberdentellerrand.org,DK,Europe,Northern Europe,Denmark,Capital Region,,Copenhagen
77.247.72.74,4,21,ugeskriftet.dk,DK,Europe,Northern Europe,Denmark,Capital Region,,Ølstykke Stationsby
77.111.240.70,4,9,uglyanimalsoc.com,DK,Europe,Northern Europe,Denmark,Capital Region,,Copenhagen
46.30.213.86,4,5,ulkloebben.dk,DK,Europe,Northern Europe,Denmark,Capital Region,,Copenhagen
185.95.24.77,4,9,umami-restaurant.com,DK,Europe,Northern Europe,Denmark,Capital Region,,Copenhagen
194.144.161.80,4,13,umferdin.is,IS,Europe,Northern Europe,Iceland,Capital Region,Reykjavíkurborg,Reykjavik
185.165.170.10,4,292,unamerican.com,IS,Europe,Northern Europe,Iceland,Capital Region,Reykjavíkurborg,Reykjavik
46.30.213.8,4,1,uniccm.com,DK,Europe,Northern Europe,Denmark,Capital Region,,Copenhagen
91.184.0.200,4,11,unique-casino.nl,DK,Europe,Northern Europe,Denmark,Capital Region,,Copenhagen
46.30.213.32,4,4,unitedforukraine.org,DK,Europe,Northern Europe,Denmark,Capital Region,,Copenhagen
46.30.215.60,4,8,unleashed.se,DK,Europe,Northern Europe,Denmark,Capital Region,,Copenhagen
82.221.141.141,4,30,urlis.net,IS,Europe,Northern Europe,Iceland,Capital Region,Reykjavíkurborg,Reykjavik
46.30.213.161,4,75,usa-seniorenpflege.de,DK,Europe,Northern Europe,Denmark,Capital Region,,Copenhagen
77.111.240.78,4,7,valaisconsulting.ch,DK,Europe,Northern Europe,Denmark,Capital Region,,Copenhagen
46.30.213.53,4,12,van-meijl.eu,DK,Europe,Northern Europe,Denmark,Capital Region,,Copenhagen
46.30.215.4,4,6,vanity.dk,DK,Europe,Northern Europe,Denmark,Capital Region,,Copenhagen
77.111.240.222,4,27,vczwolle.nl,DK,Europe,Northern Europe,Denmark,Capital Region,,Copenhagen
94.142.156.174,4,31,vedur.is,IS,Europe,Northern Europe,Iceland,Capital Region,Reykjavíkurborg,Reykjavik
194.144.161.109,4,46,vegagerdin.is,IS,Europe,Northern Europe,Iceland,Capital Region,Reykjavíkurborg,Reykjavik
77.111.240.177,4,9,veganer.nu,DK,Europe,Northern Europe,Denmark,Capital Region,,Copenhagen
91.184.0.61,4,13,veganfinestfoods.com,DK,Europe,Northern Europe,Denmark,Capital Region,,Copenhagen
77.111.240.123,4,24,verhuisbedrijfamsterdammovers.nl,DK,Europe,Northern Europe,Denmark,Capital Region,,Copenhagen
77.111.240.127,4,19,viadagio.be,DK,Europe,Northern Europe,Denmark,Capital Region,,Copenhagen
185.67.84.106,4,2,vinberid.is,IS,Europe,Northern Europe,Iceland,Capital Region,Reykjavíkurborg,Reykjavik
80.248.20.153,4,0,vinbudin.is,IS,Europe,Northern Europe,Iceland,Capital Region,Reykjavíkurborg,Reykjavik
130.208.148.10,4,5,visindavefur.is,IS,Europe,Northern Europe,Iceland,Capital Region,Reykjavíkurborg,Reykjavik
82.221.143.74,4,26,vitamind.net,IS,Europe,Northern Europe,Iceland,Capital Region,Reykjavíkurborg,Reykjavik
46.30.213.108,4,3,vivantinvest.nl,DK,Europe,Northern Europe,Denmark,Capital Region,,Copenhagen
185.95.24.150,4,13,vivonline.nl,DK,Europe,Northern Europe,Denmark,Capital Region,,Copenhagen
77.111.241.71,4,2,vocaleurope.eu,DK,Europe,Northern Europe,Denmark,Capital Region,,Copenhagen
46.30.215.30,4,65,voedzaamensnel.nl,DK,Europe,Northern Europe,Denmark,Capital Region,,Copenhagen
77.111.240.72,4,17,voixdasie.com,DK,Europe,Northern Europe,Denmark,Capital Region,,Copenhagen
46.30.213.151,4,2,volkon.de,DK,Europe,Northern Europe,Denmark,Capital Region,,Copenhagen
46.30.213.28,4,47,vrsexleksaker.se,DK,Europe,Northern Europe,Denmark,Capital Region,,Copenhagen
46.30.215.126,4,19,vsk.info,DK,Europe,Northern Europe,Denmark,Capital Region,,Copenhagen
46.30.213.13,4,1,vsociety.me,DK,Europe,Northern Europe,Denmark,Capital Region,,Copenhagen
46.30.213.164,4,6,vurroconcerti.it,DK,Europe,Northern Europe,Denmark,Capital Region,,Copenhagen
77.111.241.95,4,3,walesnewstoday.com,DK,Europe,Northern Europe,Denmark,Capital Region,,Copenhagen
46.30.213.148,4,3,waltervanbeirendonck.com,DK,Europe,Northern Europe,Denmark,Capital Region,,Copenhagen
46.30.215.52,4,26,wardruna.com,DK,Europe,Northern Europe,Denmark,Capital Region,,Copenhagen
77.111.240.88,4,14,warpigs.dk,DK,Europe,Northern Europe,Denmark,Capital Region,,Copenhagen
46.30.213.81,4,11,waseem.nl,DK,Europe,Northern Europe,Denmark,Capital Region,,Copenhagen
77.111.241.90,4,8,washingtontimesnewstoday.com,DK,Europe,Northern Europe,Denmark,Capital Region,,Copenhagen
46.30.213.129,4,9,wastedwarlocks.com,DK,Europe,Northern Europe,Denmark,Capital Region,,Copenhagen
77.111.240.97,4,15,we-grow.dk,DK,Europe,Northern Europe,Denmark,Capital Region,,Copenhagen
46.30.213.16,4,6,wetter-lehmschlenke.de,DK,Europe,Northern Europe,Denmark,Capital Region,,Copenhagen
77.111.240.95,4,3,who.dk,DK,Europe,Northern Europe,Denmark,Capital Region,,Copenhagen
91.184.31.21,4,49,wijzijnkatapult.nl,DK,Europe,Northern Europe,Denmark,Capital Region,,Copenhagen
77.111.240.183,4,5,winnc.com,DK,Europe,Northern Europe,Denmark,Capital Region,,Copenhagen
91.184.0.8,4,3,wiziwig.tv,DK,Europe,Northern Europe,Denmark,Capital Region,,Copenhagen
46.30.213.145,4,7,wonbaek.de,DK,Europe,Northern Europe,Denmark,Capital Region,,Copenhagen
77.111.241.122,4,4,workmakelaardij.nl,DK,Europe,Northern Europe,Denmark,Capital Region,,Copenhagen
46.30.215.88,4,4,worldauthors.org,DK,Europe,Northern Europe,Denmark,Capital Region,,Copenhagen
46.30.213.40,4,9,worldfreedomalliance.org,DK,Europe,Northern Europe,Denmark,Capital Region,,Copenhagen
46.30.213.190,4,3,wotsit.org,DK,Europe,Northern Europe,Denmark,Capital Region,,Copenhagen
46.30.215.127,4,31,writereader.com,DK,Europe,Northern Europe,Denmark,Capital Region,,Copenhagen
46.30.215.81,4,11,ww2.dk,DK,Europe,Northern Europe,Denmark,Capital Region,,Copenhagen
77.111.240.74,4,3,xaviers.ac,DK,Europe,Northern Europe,Denmark,Capital Region,,Copenhagen
46.30.211.38,4,4,yeezyboost-350.uk,DK,Europe,Northern Europe,Denmark,Capital Region,,Copenhagen
46.30.213.138,4,4,yemendataproject.org,DK,Europe,Northern Europe,Denmark,Capital Region,,Copenhagen
91.184.0.34,4,8,yourchoicecatering.nl,DK,Europe,Northern Europe,Denmark,Capital Region,,Copenhagen
46.30.213.42,4,1,zumunchi.org,DK,Europe,Northern Europe,Denmark,Capital Region,,Copenhagen
