reflector_ip,ip_version,offset,description,country_code,region,sub_region,country_name,sub_division_1,sub_division_2,city
200.155.21.157,4,71,academia.org.br,BR,Americas,Latin America and the Caribbean,Brazil,Rio de Janeiro,,Rio de Janeiro
177.184.11.36,4,-20,coad.com.br,BR,Americas,Latin America and the Caribbean,Brazil,Rio de Janeiro,,Rio de Janeiro
187.0.205.58,4,34,confef.org.br,BR,Americas,Latin America and the Caribbean,Brazil,Rio de Janeiro,,Rio de Janeiro
138.97.118.112,4,-317,DNS Server: 138.97.118.112.ncturbi.com.br,BR,Americas,Latin America and the Caribbean,Brazil,Rio de Janeiro,,Rio de Janeiro
138.97.118.118,4,-69,DNS Server: 138.97.118.118.ncturbi.com.br,BR,Americas,Latin America and the Caribbean,Brazil,Rio de Janeiro,,Rio de Janeiro
189.113.134.182,4,-41819810,DNS Server: 189-113-134-182.telecall.com.br,BR,Americas,Latin America and the Caribbean,Brazil,Rio de Janeiro,,Rio de Janeiro
200.159.135.242,4,-2,DNS Server: 200-159-135-242.winfnet.com.br,BR,Americas,Latin America and the Caribbean,Brazil,Rio de Janeiro,,Rio de Janeiro
177.73.160.206,4,0,DNS Server: 206.160.73.177.smnetworks.com.br,BR,Americas,Latin America and the Caribbean,Brazil,Rio de Janeiro,,Rio de Janeiro
177.128.42.85,4,46,DNS Server: 85.42.128.177.westcorporativo.com.br,BR,Americas,Latin America and the Caribbean,Brazil,Rio de Janeiro,,Rio de Janeiro
177.43.184.98,4,-251,DNS Server: cerpe.static.gvt.net.br,BR,Americas,Latin America and the Caribbean,Brazil,Rio de Janeiro,,Rio de Janeiro
186.208.112.202,4,-4184,DNS Server: clinte-B.gotelecom.com.br,BR,Americas,Latin America and the Caribbean,Brazil,Rio de Janeiro,,Rio de Janeiro
187.16.64.206,4,-1998,DNS Server: mvx-187-16-64-206.mundivox.com,BR,Americas,Latin America and the Caribbean,Brazil,Rio de Janeiro,,Rio de Janeiro
201.76.161.162,4,3590997,DNS Server: mvx-201-76-161-162.mundivox.com,BR,Americas,Latin America and the Caribbean,Brazil,Rio de Janeiro,,Rio de Janeiro
201.59.117.4,4,98,DNS Server: mx2.tel.inf.br,BR,Americas,Latin America and the Caribbean,Brazil,Rio de Janeiro,,Rio de Janeiro
186.226.57.189,4,243,grupomidia.com,BR,Americas,Latin America and the Caribbean,Brazil,Rio de Janeiro,,Rio de Janeiro
104.101.21.17,4,6,gs1br.org,BR,Americas,Latin America and the Caribbean,Brazil,Rio de Janeiro,,Rio de Janeiro
200.156.28.61,4,91426,ibc.gov.br,BR,Americas,Latin America and the Caribbean,Brazil,Rio de Janeiro,,Rio de Janeiro
186.226.56.225,4,77,idec.org.br,BR,Americas,Latin America and the Caribbean,Brazil,Rio de Janeiro,,Rio de Janeiro
186.226.56.235,4,174,iteleport.com.br,BR,Americas,Latin America and the Caribbean,Brazil,Rio de Janeiro,,Rio de Janeiro
200.20.168.133,4,-51210,jbrj.gov.br,BR,Americas,Latin America and the Caribbean,Brazil,Rio de Janeiro,,Rio de Janeiro
104.104.174.191,4,70,naturacosmeticos.com.ar,BR,Americas,Latin America and the Caribbean,Brazil,Rio de Janeiro,,Rio de Janeiro
186.226.60.178,4,-3185,noiteafora.com.br,BR,Americas,Latin America and the Caribbean,Brazil,Rio de Janeiro,,Rio de Janeiro
200.218.251.93,4,5,oba.org.br,BR,Americas,Latin America and the Caribbean,Brazil,Rio de Janeiro,,Rio de Janeiro
138.97.116.246,4,194,Ookla Speedtest Server 24867: teste.ncturbi.com.br,BR,Americas,Latin America and the Caribbean,Brazil,Rio de Janeiro,,Rio de Janeiro
128.201.187.19,4,1000077,Ookla Speedtest Server 52648: speedtest.alliancenetbandalarga.com.br,BR,Americas,Latin America and the Caribbean,Brazil,Rio de Janeiro,,Rio de Janeiro
187.120.30.207,4,208,Ookla Speedtest Server 55487: speedtest.fivetelecom.net.br,BR,Americas,Latin America and the Caribbean,Brazil,Rio de Janeiro,,Rio de Janeiro
186.233.118.199,4,283,Ookla Speedtest Server 56828: speedtest.glink.net.br,BR,Americas,Latin America and the Caribbean,Brazil,Rio de Janeiro,,Rio de Janeiro
189.125.30.98,4,-39011470,Ookla Speedtest Server 57285: riodejaneiro.speedtest.ciriontechnologies.com,BR,Americas,Latin America and the Caribbean,Brazil,Rio de Janeiro,,Rio de Janeiro
45.170.153.124,4,280,Ookla Speedtest Server 57360: tfconecta.brsserver.com.br,BR,Americas,Latin America and the Caribbean,Brazil,Rio de Janeiro,,Rio de Janeiro
131.161.177.6,4,352,Ookla Speedtest Server 63408: speedtest.linejet.net.br,BR,Americas,Latin America and the Caribbean,Brazil,Rio de Janeiro,,Rio de Janeiro
201.7.165.122,4,370,Ookla Speedtest Server 64852: campogrande.telmefibra.com.br,BR,Americas,Latin America and the Caribbean,Brazil,Rio de Janeiro,,Rio de Janeiro
186.226.58.26,4,-10,portalhospitaisbrasil.com.br,BR,Americas,Latin America and the Caribbean,Brazil,Rio de Janeiro,,Rio de Janeiro
186.226.57.89,4,5,sbd-sp.org.br,BR,Americas,Latin America and the Caribbean,Brazil,Rio de Janeiro,,Rio de Janeiro
139.82.178.61,4,284057,twister.net.co,BR,Americas,Latin America and the Caribbean,Brazil,Rio de Janeiro,,Rio de Janeiro
200.196.57.166,4,24,ubc.org.br,BR,Americas,Latin America and the Caribbean,Brazil,Rio de Janeiro,,Rio de Janeiro
146.164.209.16,4,-43,ufrj.br,BR,Americas,Latin America and the Caribbean,Brazil,Rio de Janeiro,,Rio de Janeiro
186.226.58.16,4,-70,villamaritima.com.br,BR,Americas,Latin America and the Caribbean,Brazil,Rio de Janeiro,,Rio de Janeiro
