reflector_ip,ip_version,offset,description,country_code,region,sub_region,country_name,sub_division_1,sub_division_2,city
149.28.8.15,4,0,157sf.com,US,Americas,Northern America,United States of America,Washington,,Kent
144.202.90.197,4,6,bosslocallistings.com,US,Americas,Northern America,United States of America,Washington,,Kent
66.42.77.17,4,13,codingtechnologies.com,US,Americas,Northern America,United States of America,Washington,,Kent
144.202.95.41,4,87,declinko.com,US,Americas,Northern America,United States of America,Washington,,Kent
45.77.211.118,4,11,freebythesea.com,US,Americas,Northern America,United States of America,Washington,,Kent
66.42.79.127,4,3,girlsinict.org,US,Americas,Northern America,United States of America,Washington,,Kent
66.42.72.168,4,-3,gnuradio.org,US,Americas,Northern America,United States of America,Washington,,Kent
108.61.195.191,4,18,icoconverter.com,US,Americas,Northern America,United States of America,Washington,,Kent
66.42.69.243,4,103,irlp.net,US,Americas,Northern America,United States of America,Washington,,Kent
104.207.159.182,4,-2,ktna.org,US,Americas,Northern America,United States of America,Washington,,Kent
45.76.242.178,4,56,marriagedebate.com,US,Americas,Northern America,United States of America,Washington,,Kent
149.248.45.63,4,9,millfalls.com,US,Americas,Northern America,United States of America,Washington,,Kent
149.248.39.147,4,-2,mobile2day.de,US,Americas,Northern America,United States of America,Washington,,Kent
149.248.33.161,4,59,paradigmtreatment.com,US,Americas,Northern America,United States of America,Washington,,Kent
137.220.37.46,4,20,php-editors.com,US,Americas,Northern America,United States of America,Washington,,Kent
45.32.229.28,4,7,sportentusiasten.se,US,Americas,Northern America,United States of America,Washington,,Kent
45.77.214.133,4,7,sunrisetheme.com,US,Americas,Northern America,United States of America,Washington,,Kent
45.76.242.122,4,-1,tipstilhusoghave.dk,US,Americas,Northern America,United States of America,Washington,,Kent
45.32.228.92,4,-3,victoriasqueen.com,US,Americas,Northern America,United States of America,Washington,,Kent
144.202.93.231,4,11,whichvoip.com,US,Americas,Northern America,United States of America,Washington,,Kent
149.248.39.93,4,8,xn--kretips-q1a.dk,US,Americas,Northern America,United States of America,Washington,,Kent
45.63.34.71,4,22,xn--ptur-qoa.se,US,Americas,Northern America,United States of America,Washington,,Kent
45.32.230.185,4,-1,xn--sknhedogmode-wjb.dk,US,Americas,Northern America,United States of America,Washington,,Kent
45.63.37.223,4,-3,zubersoft.com,US,Americas,Northern America,United States of America,Washington,,Kent
