reflector_ip,ip_version,offset,description,country_code,region,sub_region,country_name,sub_division_1,sub_division_2,city
104.140.6.105,4,-3,17mya.com,US,Americas,Northern America,United States of America,Washington,,Seattle
192.3.251.24,4,10,2betantra.co.il,US,Americas,Northern America,United States of America,Washington,,Seattle
45.151.132.50,4,-4,423down.com,US,Americas,Northern America,United States of America,Washington,,Seattle
172.83.156.69,4,-4,5068.com,US,Americas,Northern America,United States of America,Washington,,Seattle
172.83.156.68,4,3,5156edu.com,US,Americas,Northern America,United States of America,Washington,,Seattle
45.142.158.79,4,23,52bdt.com,US,Americas,Northern America,United States of America,Washington,,Seattle
67.228.121.196,4,4,5kplayer.com,US,Americas,Northern America,United States of America,Washington,,Seattle
154.53.58.48,4,6,81cmiu.com,US,Americas,Northern America,United States of America,Washington,,Seattle
209.61.198.10,4,19,abyznewslinks.com,US,Americas,Northern America,United States of America,Washington,,Seattle
108.62.157.30,4,-20,academickids.com,US,Americas,Northern America,United States of America,Washington,,Seattle
198.57.47.9,4,14,adios-hola.org,US,Americas,Northern America,United States of America,Washington,,Seattle
67.228.126.170,4,1,aiarty.com,US,Americas,Northern America,United States of America,Washington,,Seattle
209.90.232.239,4,4,aiseducation.in,US,Americas,Northern America,United States of America,Washington,,Seattle
23.82.78.30,4,15,alaskawatchman.com,US,Americas,Northern America,United States of America,Washington,,Seattle
209.251.245.213,4,4,antifandom.com,US,Americas,Northern America,United States of America,Washington,,Seattle
67.228.97.221,4,16,anymp4.com,US,Americas,Northern America,United States of America,Washington,,Seattle
206.217.208.196,4,53,artsongcentral.com,US,Americas,Northern America,United States of America,Washington,,Seattle
206.217.208.187,4,6,askthemanager.com,US,Americas,Northern America,United States of America,Washington,,Seattle
209.61.198.9,4,13,athropolis.com,US,Americas,Northern America,United States of America,Washington,,Seattle
151.101.20.239,4,8,backchannel.com,US,Americas,Northern America,United States of America,Washington,,Seattle
128.95.160.139,4,4,bakerlab.org,US,Americas,Northern America,United States of America,Washington,,Seattle
45.145.73.209,4,30,bc1668.com,US,Americas,Northern America,United States of America,Washington,,Seattle
85.239.233.168,4,1,bcrelx.com,US,Americas,Northern America,United States of America,Washington,,Seattle
89.117.22.227,4,3,bearfoxmarketing.com,US,Americas,Northern America,United States of America,Washington,,Seattle
192.119.108.10,4,3,bhabhi.net,US,Americas,Northern America,United States of America,Washington,,Seattle
104.225.217.116,4,7,bz-associates.com,US,Americas,Northern America,United States of America,Washington,,Seattle
67.228.82.107,4,1,carlossantana.com.br,US,Americas,Northern America,United States of America,Washington,,Seattle
209.61.197.156,4,72,carnivorousplants.org,US,Americas,Northern America,United States of America,Washington,,Seattle
66.148.113.131,4,8,chaptercheats.com,US,Americas,Northern America,United States of America,Washington,,Seattle
128.208.3.117,4,13,checkerframework.org,US,Americas,Northern America,United States of America,Washington,,Seattle
167.88.113.156,4,4,circumlunar.space,US,Americas,Northern America,United States of America,Washington,,Seattle
144.48.107.74,4,16,clouddevs.com,US,Americas,Northern America,United States of America,Washington,,Seattle
23.82.78.21,4,2,cmnw.org,US,Americas,Northern America,United States of America,Washington,,Seattle
128.95.248.39,4,44,communitydata.science,US,Americas,Northern America,United States of America,Washington,,Seattle
66.148.113.158,4,79,corneredcat.com,US,Americas,Northern America,United States of America,Washington,,Seattle
65.74.132.10,4,280,cpoa.org,US,Americas,Northern America,United States of America,Washington,,Seattle
66.94.114.231,4,6,crystalmixer.com,US,Americas,Northern America,United States of America,Washington,,Seattle
45.154.214.60,4,-4,cz01.vip,US,Americas,Northern America,United States of America,Washington,,Seattle
67.228.201.252,4,68,delight.com,US,Americas,Northern America,United States of America,Washington,,Seattle
50.22.149.218,4,20,democracynow.org,US,Americas,Northern America,United States of America,Washington,,Seattle
67.228.192.94,4,41,democracynow.org,US,Americas,Northern America,United States of America,Washington,,Seattle
209.160.32.137,4,24,diwanalarab.com,US,Americas,Northern America,United States of America,Washington,,Seattle
45.151.135.96,4,65025,djk123.net,US,Americas,Northern America,United States of America,Washington,,Seattle
174.21.164.14,4,5,DNS Server: 174-21-164-14.tukw.qwest.net,US,Americas,Northern America,United States of America,Washington,,Seattle
97.113.92.65,4,102,DNS Server: 97-113-92-65.tukw.qwest.net,US,Americas,Northern America,United States of America,Washington,,Seattle
74.92.225.117,4,45,DNS Server: erebus.seawestproducts.com,US,Americas,Northern America,United States of America,Washington,,Seattle
209.61.196.248,4,7,downtownmusicgallery.com,US,Americas,Northern America,United States of America,Washington,,Seattle
66.94.123.240,4,-25186889,driverseducationusa.com,US,Americas,Northern America,United States of America,Washington,,Seattle
38.143.66.236,4,7,dwarffortresswiki.org,US,Americas,Northern America,United States of America,Washington,,Seattle
193.221.95.57,4,-8,easy-sheds.com,US,Americas,Northern America,United States of America,Washington,,Seattle
89.117.17.69,4,7,eatorhours.org,US,Americas,Northern America,United States of America,Washington,,Seattle
104.168.22.112,4,19,ebook4car.com,US,Americas,Northern America,United States of America,Washington,,Seattle
209.61.199.9,4,19,editions-hache.com,US,Americas,Northern America,United States of America,Washington,,Seattle
67.228.96.212,4,665,everlightamericas.com,US,Americas,Northern America,United States of America,Washington,,Seattle
66.94.122.25,4,212,experiencethepub.com,US,Americas,Northern America,United States of America,Washington,,Seattle
45.154.214.100,4,-6,faceswapper.ai,US,Americas,Northern America,United States of America,Washington,,Seattle
144.126.146.120,4,36,fijisun.com.fj,US,Americas,Northern America,United States of America,Washington,,Seattle
162.213.199.177,4,5,fogproject.org,US,Americas,Northern America,United States of America,Washington,,Seattle
209.61.196.65,4,21,funduc.com,US,Americas,Northern America,United States of America,Washington,,Seattle
45.151.135.88,4,65011,goxingfu8.com,US,Americas,Northern America,United States of America,Washington,,Seattle
67.228.112.52,4,138901,guioteca.com,US,Americas,Northern America,United States of America,Washington,,Seattle
209.61.196.13,4,15,haleonline.com,US,Americas,Northern America,United States of America,Washington,,Seattle
195.179.200.87,4,6,health.am,US,Americas,Northern America,United States of America,Washington,,Seattle
96.8.121.104,4,35,hermesbags.me.uk,US,Americas,Northern America,United States of America,Washington,,Seattle
23.82.243.185,4,2,hhjkjnxh.com,US,Americas,Northern America,United States of America,Washington,,Seattle
209.160.27.21,4,16,hhsc.org,US,Americas,Northern America,United States of America,Washington,,Seattle
45.145.72.155,4,-15,hhzlpower.com,US,Americas,Northern America,United States of America,Washington,,Seattle
45.154.214.9,4,-7,hhzlpower.com,US,Americas,Northern America,United States of America,Washington,,Seattle
144.126.146.4,4,2,hilaud.com,US,Americas,Northern America,United States of America,Washington,,Seattle
104.96.203.34,4,1,hondoscenter.com,US,Americas,Northern America,United States of America,Washington,,Seattle
104.96.203.41,4,7,hondoscenter.com,US,Americas,Northern America,United States of America,Washington,,Seattle
140.107.88.213,4,7,hvtn.org,US,Americas,Northern America,United States of America,Washington,,Seattle
209.61.199.11,4,6,iif.edu,US,Americas,Northern America,United States of America,Washington,,Seattle
209.61.196.11,4,23,internetmodeler.com,US,Americas,Northern America,United States of America,Washington,,Seattle
23.213.175.184,4,3,is.com,US,Americas,Northern America,United States of America,Washington,,Seattle
209.160.27.71,4,72,issihosts.com,US,Americas,Northern America,United States of America,Washington,,Seattle
128.208.119.153,4,32,iths.org,US,Americas,Northern America,United States of America,Washington,,Seattle
45.145.74.159,4,-10,iui.su,US,Americas,Northern America,United States of America,Washington,,Seattle
66.94.120.142,4,10,ixspy.com,US,Americas,Northern America,United States of America,Washington,,Seattle
85.239.238.144,4,2,jontaffer.com,US,Americas,Northern America,United States of America,Washington,,Seattle
98.142.98.8,4,-24,kitchengidget.com,US,Americas,Northern America,United States of America,Washington,,Seattle
209.61.197.227,4,6,kuntzfamily.com,US,Americas,Northern America,United States of America,Washington,,Seattle
45.150.227.77,4,2,lanxinrobotics.com,US,Americas,Northern America,United States of America,Washington,,Seattle
45.58.53.220,4,6,manke8.com,US,Americas,Northern America,United States of America,Washington,,Seattle
104.218.235.30,4,15,maruso-cn.com,US,Americas,Northern America,United States of America,Washington,,Seattle
216.243.32.14,4,6,maya.land,US,Americas,Northern America,United States of America,Washington,,Seattle
209.61.196.7,4,19,mec.edu,US,Americas,Northern America,United States of America,Washington,,Seattle
128.208.8.135,4,9,meme-suite.org,US,Americas,Northern America,United States of America,Washington,,Seattle
207.115.90.61,4,17,microsoftvolumelicensing.com,US,Americas,Northern America,United States of America,Washington,,Seattle
67.228.216.198,4,4,mini.net,US,Americas,Northern America,United States of America,Washington,,Seattle
85.239.239.16,4,11,mybagsroom.info,US,Americas,Northern America,United States of America,Washington,,Seattle
104.140.6.247,4,9,naltrexonejusypi.com,US,Americas,Northern America,United States of America,Washington,,Seattle
67.228.238.227,4,25,nausicaa.net,US,Americas,Northern America,United States of America,Washington,,Seattle
209.160.27.45,4,13,necrc.org,US,Americas,Northern America,United States of America,Washington,,Seattle
94.72.120.53,4,17,netnewsreporter.com,US,Americas,Northern America,United States of America,Washington,,Seattle
23.94.212.185,4,44,newshop.co.il,US,Americas,Northern America,United States of America,Washington,,Seattle
67.228.207.22,4,4,nordicgroup.us,US,Americas,Northern America,United States of America,Washington,,Seattle
209.182.224.72,4,12,nwal.ca,US,Americas,Northern America,United States of America,Washington,,Seattle
107.191.112.45,4,-5,oalib.com,US,Americas,Northern America,United States of America,Washington,,Seattle
209.61.197.224,4,8,occupy-monsanto.com,US,Americas,Northern America,United States of America,Washington,,Seattle
85.239.237.14,4,5,ohmygoodness.com,US,Americas,Northern America,United States of America,Washington,,Seattle
209.61.197.28,4,49,olymbos.org,US,Americas,Northern America,United States of America,Washington,,Seattle
208.76.152.210,4,258,Ookla Speedtest Server 60635: speedtest-wa.waveip.org,US,Americas,Northern America,United States of America,Washington,,Seattle
45.61.61.20,4,-17144,Ookla Speedtest Server 64151: speedtest.us-se.kamatera.com,US,Americas,Northern America,United States of America,Washington,,Seattle
85.239.237.123,4,-17,palmira.gov.co,US,Americas,Northern America,United States of America,Washington,,Seattle
206.217.208.254,4,40,palyul.org,US,Americas,Northern America,United States of America,Washington,,Seattle
154.53.57.19,4,6,parents-portal.com,US,Americas,Northern America,United States of America,Washington,,Seattle
154.12.241.176,4,15,patientportals-login.com,US,Americas,Northern America,United States of America,Washington,,Seattle
172.83.153.167,4,-10,ping0.cc,US,Americas,Northern America,United States of America,Washington,,Seattle
23.216.147.35,4,14,play4free.com,US,Americas,Northern America,United States of America,Washington,,Seattle
23.216.147.31,4,22,play4free.com,US,Americas,Northern America,United States of America,Washington,,Seattle
23.198.168.41,4,7,popcap.com,US,Americas,Northern America,United States of America,Washington,,Seattle
209.61.196.12,4,79,privatehand.com,US,Americas,Northern America,United States of America,Washington,,Seattle
209.182.224.202,4,73,privatementalhealthassessment.top,US,Americas,Northern America,United States of America,Washington,,Seattle
89.117.22.145,4,21,promoterkit.com,US,Americas,Northern America,United States of America,Washington,,Seattle
45.154.214.36,4,54,ptplasma.com.cn,US,Americas,Northern America,United States of America,Washington,,Seattle
67.228.99.54,4,39,reality.com,US,Americas,Northern America,United States of America,Washington,,Seattle
98.142.98.7,4,-109,reallifedinner.com,US,Americas,Northern America,United States of America,Washington,,Seattle
209.61.197.169,4,30,red2000.com,US,Americas,Northern America,United States of America,Washington,,Seattle
67.228.121.130,4,57,revenuehits.com,US,Americas,Northern America,United States of America,Washington,,Seattle
192.119.108.101,4,14,rocknworld.com,US,Americas,Northern America,United States of America,Washington,,Seattle
50.78.160.173,4,29,romwnet.org,US,Americas,Northern America,United States of America,Washington,,Seattle
66.171.180.38,4,3,samurize.com,US,Americas,Northern America,United States of America,Washington,,Seattle
209.160.40.23,4,-2,sanildefonso.org.mx,US,Americas,Northern America,United States of America,Washington,,Seattle
209.61.197.26,4,24,sarracenia.com,US,Americas,Northern America,United States of America,Washington,,Seattle
107.191.112.44,4,-34941,scirp.org,US,Americas,Northern America,United States of America,Washington,,Seattle
67.228.230.235,4,20,searchamateur.com,US,Americas,Northern America,United States of America,Washington,,Seattle
107.161.18.183,4,15,seocxw.com,US,Americas,Northern America,United States of America,Washington,,Seattle
94.72.123.120,4,16,skinlyaesthetics.com,US,Americas,Northern America,United States of America,Washington,,Seattle
139.64.179.24,4,15,solanohistory.org,US,Americas,Northern America,United States of America,Washington,,Seattle
154.12.247.156,4,7,sowaanerp.com,US,Americas,Northern America,United States of America,Washington,,Seattle
50.22.147.227,4,40,spellsofmagic.com,US,Americas,Northern America,United States of America,Washington,,Seattle
209.61.197.6,4,9,sportsgeezer.com,US,Americas,Northern America,United States of America,Washington,,Seattle
139.64.179.23,4,18,spravkaru.net,US,Americas,Northern America,United States of America,Washington,,Seattle
63.214.15.74,4,50,sunprecautions.com,US,Americas,Northern America,United States of America,Washington,,Seattle
98.142.98.12,4,-139,tantalisemytastebuds.com,US,Americas,Northern America,United States of America,Washington,,Seattle
67.228.207.28,4,3,thelocalvoice.net,US,Americas,Northern America,United States of America,Washington,,Seattle
172.93.48.87,4,16,thewatchtowers.org,US,Americas,Northern America,United States of America,Washington,,Seattle
66.148.112.151,4,2,toobnix.org,US,Americas,Northern America,United States of America,Washington,,Seattle
202.5.31.118,4,-32516,totolink.net,US,Americas,Northern America,United States of America,Washington,,Seattle
194.147.98.107,4,-1,tracyawheeler.com,US,Americas,Northern America,United States of America,Washington,,Seattle
65.74.132.6,4,6289,trailmeister.com,US,Americas,Northern America,United States of America,Washington,,Seattle
67.228.103.253,4,3,trawex.com,US,Americas,Northern America,United States of America,Washington,,Seattle
154.12.240.156,4,31,trivoo.net,US,Americas,Northern America,United States of America,Washington,,Seattle
75.172.112.26,4,4,trouble.org,US,Americas,Northern America,United States of America,Washington,,Seattle
104.237.1.85,4,37,tutpub.com,US,Americas,Northern America,United States of America,Washington,,Seattle
154.12.245.249,4,5,twodancingcrows.com,US,Americas,Northern America,United States of America,Washington,,Seattle
144.126.147.164,4,6,uabjb.edu.bo,US,Americas,Northern America,United States of America,Washington,,Seattle
209.61.197.172,4,60,uscurrencyauctions.com,US,Americas,Northern America,United States of America,Washington,,Seattle
98.142.98.4,4,-81,veganyackattack.com,US,Americas,Northern America,United States of America,Washington,,Seattle
192.119.108.106,4,16,vicksburgnews.com,US,Americas,Northern America,United States of America,Washington,,Seattle
107.191.104.227,4,-5,viewsfromastepstool.com,US,Americas,Northern America,United States of America,Washington,,Seattle
66.94.127.127,4,6,viradasustentavel.org.br,US,Americas,Northern America,United States of America,Washington,,Seattle
50.194.60.252,4,-3539877,vk2zay.net,US,Americas,Northern America,United States of America,Washington,,Seattle
173.211.70.171,4,8,vnatexas.org,US,Americas,Northern America,United States of America,Washington,,Seattle
146.75.42.62,4,4,wellsvilledaily.com,US,Americas,Northern America,United States of America,Washington,,Seattle
146.75.41.124,4,7,westmusic.com,US,Americas,Northern America,United States of America,Washington,,Seattle
67.228.127.233,4,1,winxdvd.com,US,Americas,Northern America,United States of America,Washington,,Seattle
154.53.58.149,4,8,witches.live,US,Americas,Northern America,United States of America,Washington,,Seattle
172.83.157.139,4,-8,wowgold.hk,US,Americas,Northern America,United States of America,Washington,,Seattle
23.108.152.130,4,5,wzcx998.com,US,Americas,Northern America,United States of America,Washington,,Seattle
45.142.158.102,4,-4,xjxgdbw.com,US,Americas,Northern America,United States of America,Washington,,Seattle
194.147.101.86,4,-12,ylkmp.com,US,Americas,Northern America,United States of America,Washington,,Seattle
194.147.101.90,4,-11,youboy.com,US,Americas,Northern America,United States of America,Washington,,Seattle
45.154.215.162,4,-13,yzzrdq.com,US,Americas,Northern America,United States of America,Washington,,Seattle
45.154.215.150,4,3,yzzrdq.com,US,Americas,Northern America,United States of America,Washington,,Seattle
45.154.215.143,4,0,yzzrdq.com,US,Americas,Northern America,United States of America,Washington,,Seattle
66.148.113.214,4,7,zesty.ca,US,Americas,Northern America,United States of America,Washington,,Seattle
194.147.98.211,4,-4,zhifang.com,US,Americas,Northern America,United States of America,Washington,,Seattle
217.114.47.153,4,-9,zt-xc.com,US,Americas,Northern America,United States of America,Washington,,Seattle
172.83.154.35,4,-11,zzalq.com,US,Americas,Northern America,United States of America,Washington,,Seattle
