reflector_ip,ip_version,offset,description,country_code,region,sub_region,country_name,sub_division_1,sub_division_2,city
178.218.164.80,4,5,360dubrovnik.com,HR,Europe,Southern Europe,Croatia,City of Zagreb,,Zagreb
213.147.113.66,4,21,adriatic.hr,HR,Europe,Southern Europe,Croatia,City of Zagreb,,Zagreb
178.218.165.202,4,46,autoskola-barbara.hr,HR,Europe,Southern Europe,Croatia,City of Zagreb,,Zagreb
178.218.166.8,4,4,bitno.net,HR,Europe,Southern Europe,Croatia,City of Zagreb,,Zagreb
176.62.8.133,4,-16587,bloger.hr,HR,Europe,Southern Europe,Croatia,City of Zagreb,,Zagreb
178.218.165.103,4,-2,blue-world.org,HR,Europe,Southern Europe,Croatia,City of Zagreb,,Zagreb
178.218.165.205,4,12,brodportal.hr,HR,Europe,Southern Europe,Croatia,City of Zagreb,,Zagreb
193.198.252.44,4,18,carnet.hr,HR,Europe,Southern Europe,Croatia,City of Zagreb,,Zagreb
161.53.114.143,4,14,cert.hr,HR,Europe,Southern Europe,Croatia,City of Zagreb,,Zagreb
213.202.101.150,4,4,copyservis.hr,HR,Europe,Southern Europe,Croatia,City of Zagreb,,Zagreb
178.218.164.30,4,17,danica.hr,HR,Europe,Southern Europe,Croatia,City of Zagreb,,Zagreb
178.218.166.214,4,0,dizajn.hr,HR,Europe,Southern Europe,Croatia,City of Zagreb,,Zagreb
78.134.212.19,4,50,DNS Server: 78.134.212.19-dsl.net.metronet.hr,HR,Europe,Southern Europe,Croatia,City of Zagreb,,Zagreb
78.134.212.20,4,15,DNS Server: 78.134.212.20-dsl.net.metronet.hr,HR,Europe,Southern Europe,Croatia,City of Zagreb,,Zagreb
78.134.212.21,4,14,DNS Server: 78.134.212.21-dsl.net.metronet.hr,HR,Europe,Southern Europe,Croatia,City of Zagreb,,Zagreb
78.134.213.172,4,9,DNS Server: 78.134.213.172-dsl.net.metronet.hr,HR,Europe,Southern Europe,Croatia,City of Zagreb,,Zagreb
78.134.223.17,4,62,DNS Server: 78.134.223.17-dsl.net.metronet.hr,HR,Europe,Southern Europe,Croatia,City of Zagreb,,Zagreb
89.201.137.2,4,-13,DNS Server: 89-201-137-2.static.optinet.hr,HR,Europe,Southern Europe,Croatia,City of Zagreb,,Zagreb
82.214.100.214,4,79,DNS Server: c82-214-100-214.loc.akton.net,HR,Europe,Southern Europe,Croatia,City of Zagreb,,Zagreb
31.45.232.154,4,14093,DNS Server: srv-31-45-232-154.static.a1.hr,HR,Europe,Southern Europe,Croatia,City of Zagreb,,
94.250.130.250,4,-7227628,DNS Server: srv-94-250-130-250.static.a1.hr,HR,Europe,Southern Europe,Croatia,City of Zagreb,,Zagreb
89.164.69.146,4,13113,DNS Server: wr-lama.cpe.iskon.hr,HR,Europe,Southern Europe,Croatia,City of Zagreb,,Zagreb
195.29.165.2,4,1137,dubrovnik.hr,HR,Europe,Southern Europe,Croatia,City of Zagreb,,Zagreb
178.218.166.45,4,19,dubrovniknet.hr,HR,Europe,Southern Europe,Croatia,City of Zagreb,,Zagreb
178.218.165.214,4,6,ecrgroup.eu,HR,Europe,Southern Europe,Croatia,City of Zagreb,,Zagreb
213.186.6.145,4,168,ele-math.com,HR,Europe,Southern Europe,Croatia,City of Zagreb,,Zagreb
178.218.166.39,4,26,eloda.hr,HR,Europe,Southern Europe,Croatia,City of Zagreb,,Zagreb
178.218.166.140,4,2,esf.hr,HR,Europe,Southern Europe,Croatia,City of Zagreb,,Zagreb
161.53.204.33,4,15,ffos.hr,HR,Europe,Southern Europe,Croatia,City of Zagreb,,Zagreb
213.202.101.170,4,23,franck.eu,HR,Europe,Southern Europe,Croatia,City of Zagreb,,Zagreb
161.53.116.12,4,6,fsb.hr,HR,Europe,Southern Europe,Croatia,City of Zagreb,,Zagreb
178.218.166.216,4,12,gkd.hr,HR,Europe,Southern Europe,Croatia,City of Zagreb,,Zagreb
178.218.165.134,4,5,gong.hr,HR,Europe,Southern Europe,Croatia,City of Zagreb,,Zagreb
161.53.50.3,4,7,grad.hr,HR,Europe,Southern Europe,Croatia,City of Zagreb,,Zagreb
213.186.1.223,4,6,hnd.hr,HR,Europe,Southern Europe,Croatia,City of Zagreb,,Zagreb
178.218.165.44,4,4,hnkvz.hr,HR,Europe,Southern Europe,Croatia,City of Zagreb,,Zagreb
193.198.184.70,4,10,hsin.hr,HR,Europe,Southern Europe,Croatia,City of Zagreb,,Zagreb
178.218.166.10,4,8,hznet.hr,HR,Europe,Southern Europe,Croatia,City of Zagreb,,Zagreb
31.45.233.210,4,5,ika.hr,HR,Europe,Southern Europe,Croatia,City of Zagreb,,
178.218.164.4,4,13,imc-cim.org,HR,Europe,Southern Europe,Croatia,City of Zagreb,,Zagreb
161.53.108.3,4,10,imi.hr,HR,Europe,Southern Europe,Croatia,City of Zagreb,,Zagreb
178.218.165.140,4,3,iro.hr,HR,Europe,Southern Europe,Croatia,City of Zagreb,,Zagreb
178.218.166.7,4,4,istarski.hr,HR,Europe,Southern Europe,Croatia,City of Zagreb,,Zagreb
213.202.102.46,4,-1,istra-istria.hr,HR,Europe,Southern Europe,Croatia,City of Zagreb,,Zagreb
178.218.165.38,4,21,jergovic.com,HR,Europe,Southern Europe,Croatia,City of Zagreb,,Zagreb
185.155.226.217,4,1656,koncar.hr,HR,Europe,Southern Europe,Croatia,City of Zagreb,,Zagreb
178.218.166.54,4,78,kongres-magazine.eu,HR,Europe,Southern Europe,Croatia,City of Zagreb,,Zagreb
178.218.165.119,4,3,kontejner.org,HR,Europe,Southern Europe,Croatia,City of Zagreb,,Zagreb
178.218.166.220,4,41,krilo.hr,HR,Europe,Southern Europe,Croatia,City of Zagreb,,Zagreb
178.218.165.42,4,3,ktabkbih.net,HR,Europe,Southern Europe,Croatia,City of Zagreb,,Zagreb
178.218.165.41,4,86,kulturpunkt.hr,HR,Europe,Southern Europe,Croatia,City of Zagreb,,Zagreb
178.218.166.201,4,11,lokrum.hr,HR,Europe,Southern Europe,Croatia,City of Zagreb,,Zagreb
161.53.245.3,4,7,lzmk.hr,HR,Europe,Southern Europe,Croatia,City of Zagreb,,Zagreb
178.218.164.164,4,53,maratz.com,HR,Europe,Southern Europe,Croatia,City of Zagreb,,Zagreb
178.218.167.86,4,55,medijskapismenost.hr,HR,Europe,Southern Europe,Croatia,City of Zagreb,,Zagreb
195.29.178.8,4,22,medjimurska-zupanija.hr,HR,Europe,Southern Europe,Croatia,City of Zagreb,,Zagreb
178.218.166.211,4,4,nbaknights.com,HR,Europe,Southern Europe,Croatia,City of Zagreb,,Zagreb
178.218.165.138,4,8,npkrka.hr,HR,Europe,Southern Europe,Croatia,City of Zagreb,,Zagreb
178.218.165.196,4,70,okud-istra.hr,HR,Europe,Southern Europe,Croatia,City of Zagreb,,Zagreb
176.62.0.58,4,324,Ookla Speedtest Server 5708: observium.terrakom.hr,HR,Europe,Southern Europe,Croatia,City of Zagreb,,Zagreb
178.17.127.202,4,265,Ookla Speedtest Server 31004: speedtest.btnet.hr,HR,Europe,Southern Europe,Croatia,City of Zagreb,,Zagreb
213.186.1.81,4,232,Ookla Speedtest Server 45571: speedtest.omonia.net,HR,Europe,Southern Europe,Croatia,City of Zagreb,,Zagreb
193.198.203.170,4,143,Ookla Speedtest Server 55191: speedtest.carnet.hr,HR,Europe,Southern Europe,Croatia,City of Zagreb,,Zagreb
178.218.165.61,4,58,otvoreni.hr,HR,Europe,Southern Europe,Croatia,City of Zagreb,,Zagreb
178.218.165.124,4,1,ozujsko.com,HR,Europe,Southern Europe,Croatia,City of Zagreb,,Zagreb
178.218.165.218,4,16,pdkrndija.hr,HR,Europe,Southern Europe,Croatia,City of Zagreb,,Zagreb
178.218.165.132,4,4,plesoprijevoz.hr,HR,Europe,Southern Europe,Croatia,City of Zagreb,,Zagreb
178.218.165.203,4,20,researchleap.com,HR,Europe,Southern Europe,Croatia,City of Zagreb,,Zagreb
178.218.165.207,4,19,restaurant-era.com,HR,Europe,Southern Europe,Croatia,City of Zagreb,,Zagreb
178.218.166.16,4,58,rtvusk.ba,HR,Europe,Southern Europe,Croatia,City of Zagreb,,Zagreb
178.218.166.35,4,16,sbonline.net,HR,Europe,Southern Europe,Croatia,City of Zagreb,,Zagreb
193.198.252.45,4,15,skole.hr,HR,Europe,Southern Europe,Croatia,City of Zagreb,,Zagreb
213.186.7.74,4,-3774,smartcode.eu,HR,Europe,Southern Europe,Croatia,City of Zagreb,,Zagreb
176.62.8.184,4,34,stotinka.hr,HR,Europe,Southern Europe,Croatia,City of Zagreb,,Zagreb
213.186.1.188,4,121,studentski.hr,HR,Europe,Southern Europe,Croatia,City of Zagreb,,Zagreb
178.218.165.139,4,3,utp.hr,HR,Europe,Southern Europe,Croatia,City of Zagreb,,Zagreb
178.218.166.149,4,22,valalta.hr,HR,Europe,Southern Europe,Croatia,City of Zagreb,,Zagreb
178.218.165.40,4,7,varazdinska-zupanija.hr,HR,Europe,Southern Europe,Croatia,City of Zagreb,,Zagreb
178.218.165.52,4,26,vcz.hr,HR,Europe,Southern Europe,Croatia,City of Zagreb,,Zagreb
178.218.166.33,4,30,verbum.hr,HR,Europe,Southern Europe,Croatia,City of Zagreb,,Zagreb
85.94.73.235,4,16,vidi.hr,HR,Europe,Southern Europe,Croatia,City of Zagreb,,Zagreb
195.29.178.20,4,3,visitkorcula.eu,HR,Europe,Southern Europe,Croatia,City of Zagreb,,Zagreb
178.218.165.105,4,3,vitalis.hr,HR,Europe,Southern Europe,Croatia,City of Zagreb,,Zagreb
194.152.213.19,4,37,voda.hr,HR,Europe,Southern Europe,Croatia,City of Zagreb,,Zagreb
193.198.184.121,4,29,vrijeme.hr,HR,Europe,Southern Europe,Croatia,City of Zagreb,,Zagreb
178.218.165.76,4,1,zsem.hr,HR,Europe,Southern Europe,Croatia,City of Zagreb,,Zagreb
