reflector_ip,ip_version,offset,description,country_code,region,sub_region,country_name,sub_division_1,sub_division_2,city
2.16.27.77,4,8,5paisa.com,NL,Europe,Western Europe,Netherlands,North Holland,,Haarlem
2.16.27.89,4,6,5paisa.com,NL,Europe,Western Europe,Netherlands,North Holland,,Haarlem
23.218.58.224,4,51,apartmenthomeliving.com,NL,Europe,Western Europe,Netherlands,North Holland,,Haarlem
149.233.9.50,4,27,atomausstieg-selber-machen.de,NL,Europe,Western Europe,Netherlands,North Holland,,Haarlem
23.218.66.237,4,11,bananarepublic.eu,NL,Europe,Western Europe,Netherlands,North Holland,,Haarlem
23.51.66.113,4,20,bankatfirst.com,NL,Europe,Western Europe,Netherlands,North Holland,,Haarlem
23.73.0.12,4,9,banque-france.fr,NL,Europe,Western Europe,Netherlands,North Holland,,Haarlem
23.73.0.30,4,6,banque-france.fr,NL,Europe,Western Europe,Netherlands,North Holland,,Haarlem
149.233.9.54,4,3,bdwi.de,NL,Europe,Western Europe,Netherlands,North Holland,,Haarlem
23.73.0.67,4,9,bna.nl,NL,Europe,Western Europe,Netherlands,North Holland,,Haarlem
185.45.112.138,4,4,buzulukinform.ru,NL,Europe,Western Europe,Netherlands,North Holland,,Haarlem
23.218.53.127,4,6,cbc.ca,NL,Europe,Western Europe,Netherlands,North Holland,,Haarlem
185.45.113.73,4,6,chacocanyon.com,NL,Europe,Western Europe,Netherlands,North Holland,,Haarlem
213.108.198.204,4,10,chronwatch.com,NL,Europe,Western Europe,Netherlands,North Holland,,Haarlem
149.233.9.68,4,4,clearingstelle-eeg-kwkg.de,NL,Europe,Western Europe,Netherlands,North Holland,,Haarlem
23.194.208.94,4,84,dat.de,NL,Europe,Western Europe,Netherlands,North Holland,,Haarlem
104.110.191.61,4,24,dhbbank.com,NL,Europe,Western Europe,Netherlands,North Holland,,Haarlem
149.233.9.87,4,31,diabetesde.org,NL,Europe,Western Europe,Netherlands,North Holland,,Haarlem
80.57.38.97,4,26711,DNS Server: g38097.upc-g.chello.nl,NL,Europe,Western Europe,Netherlands,North Holland,,Haarlem
5.79.70.188,4,14,euroclinic.gr,NL,Europe,Western Europe,Netherlands,North Holland,,Haarlem
23.48.134.145,4,8,fsisac.com,NL,Europe,Western Europe,Netherlands,North Holland,,Haarlem
104.110.191.137,4,45,gillyhicks.com,NL,Europe,Western Europe,Netherlands,North Holland,,Haarlem
104.110.191.154,4,55,gillyhicks.com,NL,Europe,Western Europe,Netherlands,North Holland,,Haarlem
23.72.254.134,4,17,grandvision.it,NL,Europe,Western Europe,Netherlands,North Holland,,Haarlem
23.72.254.195,4,12,grandvision.it,NL,Europe,Western Europe,Netherlands,North Holland,,Haarlem
149.5.4.213,4,-31,gsa-online.de,NL,Europe,Western Europe,Netherlands,North Holland,,Haarlem
88.221.9.186,4,6,journaldesfemmes.com,NL,Europe,Western Europe,Netherlands,North Holland,,Haarlem
5.79.86.182,4,8,jphip.com,NL,Europe,Western Europe,Netherlands,North Holland,,Haarlem
5.79.71.106,4,37,mobistealth.com,NL,Europe,Western Europe,Netherlands,North Holland,,Haarlem
149.233.9.86,4,2,museum-folkwang.de,NL,Europe,Western Europe,Netherlands,North Holland,,Haarlem
149.233.9.63,4,20,nf-farn.de,NL,Europe,Western Europe,Netherlands,North Holland,,Haarlem
149.233.9.62,4,4,nmz.de,NL,Europe,Western Europe,Netherlands,North Holland,,Haarlem
5.189.217.36,4,4,online-bookmakers.com,NL,Europe,Western Europe,Netherlands,North Holland,,Haarlem
2.16.27.97,4,36,papajohns.co.uk,NL,Europe,Western Europe,Netherlands,North Holland,,Haarlem
2.16.27.98,4,25,papajohns.co.uk,NL,Europe,Western Europe,Netherlands,North Holland,,Haarlem
23.218.49.216,4,30,planetwin365.it,NL,Europe,Western Europe,Netherlands,North Holland,,Haarlem
104.110.191.22,4,18,pontmeyer.nl,NL,Europe,Western Europe,Netherlands,North Holland,,Haarlem
104.110.191.53,4,14,pontmeyer.nl,NL,Europe,Western Europe,Netherlands,North Holland,,Haarlem
185.51.192.54,4,5,prefixbroker.com,NL,Europe,Western Europe,Netherlands,North Holland,,Haarlem
104.110.191.210,4,14,profootballtalk.com,NL,Europe,Western Europe,Netherlands,North Holland,,Haarlem
104.110.191.205,4,119,profootballtalk.com,NL,Europe,Western Europe,Netherlands,North Holland,,Haarlem
51.15.24.168,4,52,realestatenigh.com,NL,Europe,Western Europe,Netherlands,North Holland,,Haarlem
2.16.27.93,4,5,revolveclothing.fr,NL,Europe,Western Europe,Netherlands,North Holland,,Haarlem
2.16.27.99,4,26,revolveclothing.fr,NL,Europe,Western Europe,Netherlands,North Holland,,Haarlem
92.123.164.160,4,77,rohmhaas.com,NL,Europe,Western Europe,Netherlands,North Holland,,Haarlem
104.110.191.8,4,37,santander.pt,NL,Europe,Western Europe,Netherlands,North Holland,,Haarlem
104.110.191.7,4,1,santander.pt,NL,Europe,Western Europe,Netherlands,North Holland,,Haarlem
51.158.156.151,4,45,struykverwoinfra.nl,NL,Europe,Western Europe,Netherlands,North Holland,,Haarlem
2.16.27.92,4,4,tiktokv.com,NL,Europe,Western Europe,Netherlands,North Holland,,Haarlem
2.16.27.85,4,21,tiktokv.com,NL,Europe,Western Europe,Netherlands,North Holland,,Haarlem
2.16.27.69,4,15,tiktokv.com,NL,Europe,Western Europe,Netherlands,North Holland,,Haarlem
2.16.27.91,4,15,tiktokv.com,NL,Europe,Western Europe,Netherlands,North Holland,,Haarlem
2.16.27.87,4,16,tiktokv.com,NL,Europe,Western Europe,Netherlands,North Holland,,Haarlem
2.16.27.81,4,5,tiktokv.com,NL,Europe,Western Europe,Netherlands,North Holland,,Haarlem
2.16.27.83,4,31,tiktokv.com,NL,Europe,Western Europe,Netherlands,North Holland,,Haarlem
2.16.27.76,4,13,tiktokv.com,NL,Europe,Western Europe,Netherlands,North Holland,,Haarlem
2.16.27.90,4,16,tiktokv.com,NL,Europe,Western Europe,Netherlands,North Holland,,Haarlem
104.110.191.66,4,7,vananaarbeter.nl,NL,Europe,Western Europe,Netherlands,North Holland,,Haarlem
149.233.9.85,4,9,vdivde-it.de,NL,Europe,Western Europe,Netherlands,North Holland,,Haarlem
23.218.67.94,4,55,venetian.com,NL,Europe,Western Europe,Netherlands,North Holland,,Haarlem
23.72.254.58,4,16,vi.ai,NL,Europe,Western Europe,Netherlands,North Holland,,Haarlem
23.72.254.13,4,32,vi.ai,NL,Europe,Western Europe,Netherlands,North Holland,,Haarlem
149.233.9.81,4,19,vprt.de,NL,Europe,Western Europe,Netherlands,North Holland,,Haarlem
31.24.227.40,4,629,weplay.media,NL,Europe,Western Europe,Netherlands,North Holland,,Haarlem
5.181.202.57,4,3,xdsoft.net,NL,Europe,Western Europe,Netherlands,North Holland,,Haarlem
