reflector_ip,ip_version,offset,description,country_code,region,sub_region,country_name,sub_division_1,sub_division_2,city
31.24.250.32,4,6,043web.nl,NL,Europe,Western Europe,Netherlands,North Holland,,Amsterdam
31.24.250.43,4,5,123magazijninrichting.nl,NL,Europe,Western Europe,Netherlands,North Holland,,Amsterdam
81.91.178.84,4,7,1gocasino63.com,NL,Europe,Western Europe,Netherlands,North Holland,,Amsterdam
185.197.162.73,4,16,2025god.com,NL,Europe,Western Europe,Netherlands,North Holland,,Amsterdam
167.71.3.120,4,5,20bet.partners,NL,Europe,Western Europe,Netherlands,North Holland,,Amsterdam
193.182.5.60,4,9308,20six.nl,NL,Europe,Western Europe,Netherlands,North Holland,,Amsterdam
188.116.21.7,4,2,22betapp.com,NL,Europe,Western Europe,Netherlands,North Holland,,Amsterdam
217.195.154.172,4,5,34bigthings.com,NL,Europe,Western Europe,Netherlands,North Holland,,Amsterdam
45.63.40.212,4,4,365publish.com,NL,Europe,Western Europe,Netherlands,North Holland,,Amsterdam
5.253.63.141,4,7,3support.ru,NL,Europe,Western Europe,Netherlands,North Holland,,Amsterdam
164.90.202.2,4,5,40defiebre.com,NL,Europe,Western Europe,Netherlands,North Holland,,Amsterdam
188.166.134.203,4,7,4camping.cz,NL,Europe,Western Europe,Netherlands,North Holland,,Amsterdam
38.180.233.175,4,3,4iz20.info,NL,Europe,Western Europe,Netherlands,North Holland,,Amsterdam
113.30.189.118,4,4,4pd-stat.com,NL,Europe,Western Europe,Netherlands,North Holland,,Amsterdam
146.190.238.29,4,4,4tu.nl,NL,Europe,Western Europe,Netherlands,North Holland,,Amsterdam
52.233.252.68,4,9,50plusplein.nl,NL,Europe,Western Europe,Netherlands,North Holland,,Amsterdam
68.183.4.64,4,5,5gaa.org,NL,Europe,Western Europe,Netherlands,North Holland,,Amsterdam
193.42.110.64,4,4,ababahalamaha.com.ua,NL,Europe,Western Europe,Netherlands,North Holland,,Amsterdam
185.105.108.148,4,2,abacre.com,NL,Europe,Western Europe,Netherlands,North Holland,,Amsterdam
185.241.55.138,4,12,abalak.su,NL,Europe,Western Europe,Netherlands,North Holland,,Amsterdam
37.48.103.216,4,10,abekker.ru,NL,Europe,Western Europe,Netherlands,North Holland,,Amsterdam
185.167.99.20,4,0,abio.org,NL,Europe,Western Europe,Netherlands,North Holland,,Amsterdam
188.166.71.97,4,111,aboutanimals.com,NL,Europe,Western Europe,Netherlands,North Holland,,Amsterdam
51.105.235.165,4,158,accioncontraelhambre.org,NL,Europe,Western Europe,Netherlands,North Holland,,Amsterdam
134.209.84.132,4,37,accuesp.com,NL,Europe,Western Europe,Netherlands,North Holland,,Amsterdam
178.62.248.18,4,52,acupunctuur.nl,NL,Europe,Western Europe,Netherlands,North Holland,,Amsterdam
185.80.220.207,4,731,adab.com,NL,Europe,Western Europe,Netherlands,North Holland,,Amsterdam
128.199.40.113,4,25,adcombi.com,NL,Europe,Western Europe,Netherlands,North Holland,,Amsterdam
185.232.20.168,4,23,adequacy.net,NL,Europe,Western Europe,Netherlands,North Holland,,Amsterdam
31.220.27.98,4,4,adinir.com,NL,Europe,Western Europe,Netherlands,North Holland,,Amsterdam
185.162.87.220,4,25,adinir.com,NL,Europe,Western Europe,Netherlands,North Holland,,Amsterdam
80.65.96.117,4,26,adventist.nl,NL,Europe,Western Europe,Netherlands,North Holland,,Amsterdam
94.237.42.231,4,3,aesgp.eu,NL,Europe,Western Europe,Netherlands,North Holland,,Amsterdam
5.254.117.209,4,53,aftersalesmagazine.nl,NL,Europe,Western Europe,Netherlands,North Holland,,Amsterdam
159.223.9.238,4,3,ahresp.com,NL,Europe,Western Europe,Netherlands,North Holland,,Amsterdam
188.226.175.104,4,23,aikforum.se,NL,Europe,Western Europe,Netherlands,North Holland,,Amsterdam
188.166.97.51,4,14,aims-communities.com,NL,Europe,Western Europe,Netherlands,North Holland,,Amsterdam
165.232.86.68,4,6,aircosmosinternational.com,NL,Europe,Western Europe,Netherlands,North Holland,,Amsterdam
178.62.201.8,4,7,airport-taxis.be,NL,Europe,Western Europe,Netherlands,North Holland,,Amsterdam
165.22.201.201,4,51,ajf.me,NL,Europe,Western Europe,Netherlands,North Holland,,Amsterdam
134.90.146.82,4,4,alanwalker.com,NL,Europe,Western Europe,Netherlands,North Holland,,Amsterdam
188.116.26.209,4,121,alfazon.ru,NL,Europe,Western Europe,Netherlands,North Holland,,Amsterdam
159.223.223.110,4,9,alibabahost.com,NL,Europe,Western Europe,Netherlands,North Holland,,Amsterdam
79.133.180.21,4,76,alive.film,NL,Europe,Western Europe,Netherlands,North Holland,,Amsterdam
209.38.38.59,4,55,alkompis.se,NL,Europe,Western Europe,Netherlands,North Holland,,Amsterdam
5.45.93.109,4,51,alleng.org,NL,Europe,Western Europe,Netherlands,North Holland,,Amsterdam
5.45.95.141,4,-2,alleng.org,NL,Europe,Western Europe,Netherlands,North Holland,,Amsterdam
194.5.132.10,4,9,alletheorieboeken.nl,NL,Europe,Western Europe,Netherlands,North Holland,,Amsterdam
198.20.124.36,4,547,alliancecorporation.org,NL,Europe,Western Europe,Netherlands,North Holland,,Amsterdam
87.255.36.159,4,7,allovertours.nl,NL,Europe,Western Europe,Netherlands,North Holland,,Amsterdam
37.48.106.228,4,49,alprof.ro,NL,Europe,Western Europe,Netherlands,North Holland,,Amsterdam
37.48.74.232,4,5,alternativaplatform.com,NL,Europe,Western Europe,Netherlands,North Holland,,Amsterdam
37.48.74.231,4,3,alternativaplatform.com,NL,Europe,Western Europe,Netherlands,North Holland,,Amsterdam
37.48.74.230,4,3,alternativaplatform.com,NL,Europe,Western Europe,Netherlands,North Holland,,Amsterdam
37.48.74.228,4,4,alternativaplatform.com,NL,Europe,Western Europe,Netherlands,North Holland,,Amsterdam
94.237.40.122,4,70,amanvida.eu,NL,Europe,Western Europe,Netherlands,North Holland,,Amsterdam
198.20.105.73,4,3,ameliavirtualcare.com,NL,Europe,Western Europe,Netherlands,North Holland,,Amsterdam
167.71.78.206,4,322218,amudanan.co.il,NL,Europe,Western Europe,Netherlands,North Holland,,Amsterdam
107.6.182.198,4,700,andreaskalcker.com,NL,Europe,Western Europe,Netherlands,North Holland,,Amsterdam
165.22.192.215,4,29,anjojagerfietsen.nl,NL,Europe,Western Europe,Netherlands,North Holland,,Amsterdam
146.190.22.203,4,60,anneraaymakers.nl,NL,Europe,Western Europe,Netherlands,North Holland,,Amsterdam
185.197.160.32,4,44,antiphishing.biz,NL,Europe,Western Europe,Netherlands,North Holland,,Amsterdam
193.42.111.103,4,39,apk.dog,NL,Europe,Western Europe,Netherlands,North Holland,,Amsterdam
94.75.211.145,4,14,apunkagames.com,NL,Europe,Western Europe,Netherlands,North Holland,,Amsterdam
91.184.49.176,4,52,aquamontenegro.com,NL,Europe,Western Europe,Netherlands,North Holland,,Amsterdam
78.140.185.130,4,43,ar-ru.ru,NL,Europe,Western Europe,Netherlands,North Holland,,Amsterdam
134.209.87.141,4,87,arabeyes.org,NL,Europe,Western Europe,Netherlands,North Holland,,Amsterdam
188.166.116.227,4,40231,archillect.com,NL,Europe,Western Europe,Netherlands,North Holland,,Amsterdam
188.166.21.117,4,18,arcos.com,NL,Europe,Western Europe,Netherlands,North Holland,,Amsterdam
45.63.43.136,4,25,ardennen.nl,NL,Europe,Western Europe,Netherlands,North Holland,,Amsterdam
45.85.191.210,4,40,arrowlordsofmetal.nl,NL,Europe,Western Europe,Netherlands,North Holland,,Amsterdam
185.253.96.145,4,3,artifact-jp.com,NL,Europe,Western Europe,Netherlands,North Holland,,Amsterdam
94.237.44.169,4,4,artsandcrafts.nl,NL,Europe,Western Europe,Netherlands,North Holland,,Amsterdam
77.220.214.4,4,18,asiancasinos.org,NL,Europe,Western Europe,Netherlands,North Holland,,Amsterdam
185.15.211.206,4,12,asifaa.com,NL,Europe,Western Europe,Netherlands,North Holland,,Amsterdam
85.17.221.132,4,2390016,asobrain.com,NL,Europe,Western Europe,Netherlands,North Holland,,Amsterdam
188.166.115.177,4,5,attentie.nl,NL,Europe,Western Europe,Netherlands,North Holland,,Amsterdam
188.226.215.183,4,4593019,augustinwelz.co.uk,NL,Europe,Western Europe,Netherlands,North Holland,,Amsterdam
109.163.225.29,4,22,australianhomemade.com,NL,Europe,Western Europe,Netherlands,North Holland,,Amsterdam
188.166.200.112,4,14,autoleasecentrale.nl,NL,Europe,Western Europe,Netherlands,North Holland,,Amsterdam
206.189.241.106,4,52,autovandaag.nl,NL,Europe,Western Europe,Netherlands,North Holland,,Amsterdam
185.197.162.105,4,16,avtoplenka.com.ua,NL,Europe,Western Europe,Netherlands,North Holland,,Amsterdam
88.208.52.42,4,31,axdsz.pro,NL,Europe,Western Europe,Netherlands,North Holland,,Amsterdam
178.62.201.189,4,7,b2bconsult.ua,NL,Europe,Western Europe,Netherlands,North Holland,,Amsterdam
188.166.96.194,4,56,babich.biz,NL,Europe,Western Europe,Netherlands,North Holland,,Amsterdam
185.95.31.7,4,58,babybytes.nl,NL,Europe,Western Europe,Netherlands,North Holland,,Amsterdam
79.143.17.2,4,7,babytoys.pk,NL,Europe,Western Europe,Netherlands,North Holland,,Amsterdam
45.152.249.82,4,8,balansschoonmaak.nl,NL,Europe,Western Europe,Netherlands,North Holland,,Amsterdam
185.244.48.33,4,44,balkanpro.ru,NL,Europe,Western Europe,Netherlands,North Holland,,Amsterdam
94.100.18.197,4,8,bannerlord.wiki,NL,Europe,Western Europe,Netherlands,North Holland,,Amsterdam
213.108.246.67,4,31,bartarinbet.com,NL,Europe,Western Europe,Netherlands,North Holland,,Amsterdam
178.62.184.129,4,2,basegroup.ru,NL,Europe,Western Europe,Netherlands,North Holland,,Amsterdam
185.177.94.87,4,34,bassclub.ru,NL,Europe,Western Europe,Netherlands,North Holland,,Amsterdam
94.102.49.153,4,26,bato.to,NL,Europe,Western Europe,Netherlands,North Holland,,Amsterdam
167.99.215.162,4,7,bdaily.co.uk,NL,Europe,Western Europe,Netherlands,North Holland,,Amsterdam
178.208.64.137,4,8,beautyhack.ru,NL,Europe,Western Europe,Netherlands,North Holland,,Amsterdam
5.254.117.21,4,8,beautylab.nl,NL,Europe,Western Europe,Netherlands,North Holland,,Amsterdam
194.5.132.185,4,23,beboparket.nl,NL,Europe,Western Europe,Netherlands,North Holland,,Amsterdam
188.166.37.215,4,7,bedrijventekoop.nl,NL,Europe,Western Europe,Netherlands,North Holland,,Amsterdam
31.24.250.83,4,14,beeldengeluid.nl,NL,Europe,Western Europe,Netherlands,North Holland,,Amsterdam
45.152.249.10,4,6,beforethey.com,NL,Europe,Western Europe,Netherlands,North Holland,,Amsterdam
45.152.250.21,4,27,belgiumdigital.com,NL,Europe,Western Europe,Netherlands,North Holland,,Amsterdam
79.133.180.189,4,17,belmebru.ru,NL,Europe,Western Europe,Netherlands,North Holland,,Amsterdam
185.197.160.104,4,4,belok.ua,NL,Europe,Western Europe,Netherlands,North Holland,,Amsterdam
45.76.39.172,4,7,benjaminbrady.ie,NL,Europe,Western Europe,Netherlands,North Holland,,Amsterdam
83.138.53.13,4,14,best-seo-domains.com,NL,Europe,Western Europe,Netherlands,North Holland,,Amsterdam
13.81.63.31,4,14,bestetester.nl,NL,Europe,Western Europe,Netherlands,North Holland,,Amsterdam
178.62.221.4,4,17,bestweblayout.com,NL,Europe,Western Europe,Netherlands,North Holland,,Amsterdam
167.172.35.129,4,27,betfilter.com,NL,Europe,Western Europe,Netherlands,North Holland,,Amsterdam
31.24.250.44,4,27,bezoekbas.nl,NL,Europe,Western Europe,Netherlands,North Holland,,Amsterdam
37.139.30.186,4,2,bforbunbun.com,NL,Europe,Western Europe,Netherlands,North Holland,,Amsterdam
206.189.99.248,4,58,bicing.barcelona,NL,Europe,Western Europe,Netherlands,North Holland,,Amsterdam
185.197.163.10,4,3,big.space,NL,Europe,Western Europe,Netherlands,North Holland,,Amsterdam
202.168.102.29,4,7,bigo.sg,NL,Europe,Western Europe,Netherlands,North Holland,,Amsterdam
104.166.188.184,4,83,bigo.sg,NL,Europe,Western Europe,Netherlands,North Holland,,Amsterdam
95.179.189.60,4,-9446,bilimfili.com,NL,Europe,Western Europe,Netherlands,North Holland,,Amsterdam
31.24.250.193,4,5,billybird.nl,NL,Europe,Western Europe,Netherlands,North Holland,,Amsterdam
185.244.48.211,4,4,binariums.net,NL,Europe,Western Europe,Netherlands,North Holland,,Amsterdam
206.166.251.181,4,56,bitcoiner.guide,NL,Europe,Western Europe,Netherlands,North Holland,,Amsterdam
212.193.29.139,4,71,bitiq.app,NL,Europe,Western Europe,Netherlands,North Holland,,Amsterdam
5.149.249.108,4,6,bkrs.info,NL,Europe,Western Europe,Netherlands,North Holland,,Amsterdam
185.53.129.156,4,0,bl3p.eu,NL,Europe,Western Europe,Netherlands,North Holland,,Amsterdam
83.138.53.16,4,4,bl3p.eu,NL,Europe,Western Europe,Netherlands,North Holland,,Amsterdam
193.42.111.174,4,937772,blestki.com,NL,Europe,Western Europe,Netherlands,North Holland,,Amsterdam
5.254.124.128,4,12,blogaholic.nl,NL,Europe,Western Europe,Netherlands,North Holland,,Amsterdam
94.237.47.44,4,13,bloom.be,NL,Europe,Western Europe,Netherlands,North Holland,,Amsterdam
193.235.239.26,4,9315,board-room.nl,NL,Europe,Western Europe,Netherlands,North Holland,,Amsterdam
213.187.245.86,4,1155248,boekenwebsite.nl,NL,Europe,Western Europe,Netherlands,North Holland,,Amsterdam
136.244.107.129,4,10,boksen.nl,NL,Europe,Western Europe,Netherlands,North Holland,,Amsterdam
78.141.218.231,4,18,bollyspice.com,NL,Europe,Western Europe,Netherlands,North Holland,,Amsterdam
159.223.223.159,4,7,bolsasocial.com,NL,Europe,Western Europe,Netherlands,North Holland,,Amsterdam
38.180.116.60,4,19,bolshepodarkov.ru,NL,Europe,Western Europe,Netherlands,North Holland,,Amsterdam
188.116.26.227,4,12,bonus-jaeger.de,NL,Europe,Western Europe,Netherlands,North Holland,,Amsterdam
146.185.162.5,4,34,bookinglayer.com,NL,Europe,Western Europe,Netherlands,North Holland,,Amsterdam
38.180.134.50,4,15,boomerangde.com,NL,Europe,Western Europe,Netherlands,North Holland,,Amsterdam
104.166.188.202,4,6,bootcss.com,NL,Europe,Western Europe,Netherlands,North Holland,,Amsterdam
5.254.124.94,4,4,bospop.nl,NL,Europe,Western Europe,Netherlands,North Holland,,Amsterdam
161.35.244.232,4,15,brink.eu,NL,Europe,Western Europe,Netherlands,North Holland,,Amsterdam
185.244.36.177,4,30,brokenplanetmarketuk.com,NL,Europe,Western Europe,Netherlands,North Holland,,Amsterdam
5.254.117.214,4,79,bruidsmodemariska.nl,NL,Europe,Western Europe,Netherlands,North Holland,,Amsterdam
81.91.178.67,4,73,bukmeker-expert.info,NL,Europe,Western Europe,Netherlands,North Holland,,Amsterdam
217.195.155.45,4,30,busybits.com,NL,Europe,Western Europe,Netherlands,North Holland,,Amsterdam
185.244.138.140,4,2,c-cinema.nl,NL,Europe,Western Europe,Netherlands,North Holland,,Amsterdam
95.179.132.158,4,8,c9x.me,NL,Europe,Western Europe,Netherlands,North Holland,,Amsterdam
167.172.44.242,4,88,camping.no,NL,Europe,Western Europe,Netherlands,North Holland,,Amsterdam
134.209.94.2,4,10,cancerbacup.org.uk,NL,Europe,Western Europe,Netherlands,North Holland,,Amsterdam
198.211.120.184,4,4,canongate.net,NL,Europe,Western Europe,Netherlands,North Holland,,Amsterdam
178.62.231.199,4,7,canso.org,NL,Europe,Western Europe,Netherlands,North Holland,,Amsterdam
94.237.44.131,4,13,canvascamp.com,NL,Europe,Western Europe,Netherlands,North Holland,,Amsterdam
95.85.42.113,4,387832,carbu.com,NL,Europe,Western Europe,Netherlands,North Holland,,Amsterdam
185.28.37.148,4,7,carhive.nl,NL,Europe,Western Europe,Netherlands,North Holland,,Amsterdam
142.93.132.198,4,9,carito.com,NL,Europe,Western Europe,Netherlands,North Holland,,Amsterdam
89.233.107.138,4,20,carnicominstitute.org,NL,Europe,Western Europe,Netherlands,North Holland,,Amsterdam
5.254.124.183,4,28,carrierepoort.nl,NL,Europe,Western Europe,Netherlands,North Holland,,Amsterdam
128.199.41.208,4,17,casasapuestasdeportivas.es,NL,Europe,Western Europe,Netherlands,North Holland,,Amsterdam
5.45.94.184,4,7,casinochan.bet,NL,Europe,Western Europe,Netherlands,North Holland,,Amsterdam
75.102.58.71,4,1242,cc2010.mx,NL,Europe,Western Europe,Netherlands,North Holland,,Amsterdam
94.237.7.63,4,2,ccv.nl,NL,Europe,Western Europe,Netherlands,North Holland,,Amsterdam
188.166.132.25,4,42,centileo.com,NL,Europe,Western Europe,Netherlands,North Holland,,Amsterdam
188.166.46.236,4,5,centileo.ru,NL,Europe,Western Europe,Netherlands,North Holland,,Amsterdam
45.90.104.142,4,9,centralasia.media,NL,Europe,Western Europe,Netherlands,North Holland,,Amsterdam
5.79.109.33,4,8,cgm.ru,NL,Europe,Western Europe,Netherlands,North Holland,,Amsterdam
142.93.134.57,4,4,chart.dk,NL,Europe,Western Europe,Netherlands,North Holland,,Amsterdam
40.114.197.104,4,21,checko.nl,NL,Europe,Western Europe,Netherlands,North Holland,,Amsterdam
185.174.172.130,4,7,cherednik.com,NL,Europe,Western Europe,Netherlands,North Holland,,Amsterdam
45.135.180.167,4,12,chevalgaronne.com,NL,Europe,Western Europe,Netherlands,North Holland,,Amsterdam
75.102.58.88,4,861,circuitodejerez.com,NL,Europe,Western Europe,Netherlands,North Holland,,Amsterdam
37.48.74.5,4,75,city.fi,NL,Europe,Western Europe,Netherlands,North Holland,,Amsterdam
128.199.41.219,4,153028,civicua.org,NL,Europe,Western Europe,Netherlands,North Holland,,Amsterdam
45.152.249.106,4,14,clickx.be,NL,Europe,Western Europe,Netherlands,North Holland,,Amsterdam
173.236.16.199,4,45,climateworkscentre.org,NL,Europe,Western Europe,Netherlands,North Holland,,Amsterdam
194.127.178.76,4,20,clipartix.com,NL,Europe,Western Europe,Netherlands,North Holland,,Amsterdam
46.161.40.78,4,59241,cllax.com,NL,Europe,Western Europe,Netherlands,North Holland,,Amsterdam
31.24.250.58,4,5,cmo.nl,NL,Europe,Western Europe,Netherlands,North Holland,,Amsterdam
128.199.38.90,4,5,codamusic.com,NL,Europe,Western Europe,Netherlands,North Holland,,Amsterdam
95.179.152.111,4,69566,codegravity.com,NL,Europe,Western Europe,Netherlands,North Holland,,Amsterdam
164.92.155.122,4,12,codenroll.co.il,NL,Europe,Western Europe,Netherlands,North Holland,,Amsterdam
178.128.247.107,4,9,codycrossguru.com,NL,Europe,Western Europe,Netherlands,North Holland,,Amsterdam
64.227.71.51,4,13,codycrossmaster.com,NL,Europe,Western Europe,Netherlands,North Holland,,Amsterdam
45.76.36.131,4,15,colorswall.com,NL,Europe,Western Europe,Netherlands,North Holland,,Amsterdam
188.166.19.109,4,7,compareallbrokers.com,NL,Europe,Western Europe,Netherlands,North Holland,,Amsterdam
162.222.213.154,4,3,comprarepatente.com,NL,Europe,Western Europe,Netherlands,North Holland,,Amsterdam
152.42.135.145,4,8,compromat.group,NL,Europe,Western Europe,Netherlands,North Holland,,Amsterdam
188.166.114.132,4,12,compromat01.group,NL,Europe,Western Europe,Netherlands,North Holland,,Amsterdam
188.226.128.35,4,6031981,comreestr.com,NL,Europe,Western Europe,Netherlands,North Holland,,Amsterdam
37.139.30.212,4,2776490,conanstevens.com,NL,Europe,Western Europe,Netherlands,North Holland,,Amsterdam
198.20.125.69,4,1046,conservashoya.com,NL,Europe,Western Europe,Netherlands,North Holland,,Amsterdam
78.140.185.190,4,6,contentworks.agency,NL,Europe,Western Europe,Netherlands,North Holland,,Amsterdam
146.185.171.8,4,47,cookie-script.com,NL,Europe,Western Europe,Netherlands,North Holland,,Amsterdam
194.145.208.13,4,652,coupondetect.com,NL,Europe,Western Europe,Netherlands,North Holland,,Amsterdam
45.152.249.71,4,87,credifin-nederland.nl,NL,Europe,Western Europe,Netherlands,North Holland,,Amsterdam
178.62.208.76,4,19,creditotitan.co,NL,Europe,Western Europe,Netherlands,North Holland,,Amsterdam
194.145.209.138,4,-752,cryptoninjas.net,NL,Europe,Western Europe,Netherlands,North Holland,,Amsterdam
107.6.142.243,4,4,cryptoshitcompra.com,NL,Europe,Western Europe,Netherlands,North Holland,,Amsterdam
75.102.57.39,4,6,cuponesydescuentos.es,NL,Europe,Western Europe,Netherlands,North Holland,,Amsterdam
194.71.225.66,4,-1,cwagner.me,NL,Europe,Western Europe,Netherlands,North Holland,,Amsterdam
45.32.232.167,4,6,cyclic.com,NL,Europe,Western Europe,Netherlands,North Holland,,Amsterdam
75.102.57.42,4,9,daviddejorge.com,NL,Europe,Western Europe,Netherlands,North Holland,,Amsterdam
167.99.37.55,4,6,dealerleasing.nl,NL,Europe,Western Europe,Netherlands,North Holland,,Amsterdam
94.237.43.70,4,50,decoma.nl,NL,Europe,Western Europe,Netherlands,North Holland,,Amsterdam
188.166.133.152,4,3,dedomil.net,NL,Europe,Western Europe,Netherlands,North Holland,,Amsterdam
85.17.211.214,4,6,degreefcoatings.nl,NL,Europe,Western Europe,Netherlands,North Holland,,Amsterdam
62.212.95.13,4,-42031,dekritischebelegger.nl,NL,Europe,Western Europe,Netherlands,North Holland,,Amsterdam
94.237.47.169,4,4,denotenshop.nl,NL,Europe,Western Europe,Netherlands,North Holland,,Amsterdam
5.254.124.108,4,75,designdistrict.nl,NL,Europe,Western Europe,Netherlands,North Holland,,Amsterdam
167.172.44.191,4,3,designhousestockholm.com,NL,Europe,Western Europe,Netherlands,North Holland,,Amsterdam
128.199.32.241,4,54,devicebee.com,NL,Europe,Western Europe,Netherlands,North Holland,,Amsterdam
159.223.238.34,4,2,dezmembrariauto.md,NL,Europe,Western Europe,Netherlands,North Holland,,Amsterdam
178.62.193.80,4,41,dieviete.lv,NL,Europe,Western Europe,Netherlands,North Holland,,Amsterdam
45.76.39.239,4,13,digital-art-gallery.com,NL,Europe,Western Europe,Netherlands,North Holland,,Amsterdam
165.232.91.210,4,33,digitalolympus.net,NL,Europe,Western Europe,Netherlands,North Holland,,Amsterdam
77.81.240.92,4,26,digitalsme.eu,NL,Europe,Western Europe,Netherlands,North Holland,,Amsterdam
80.251.153.80,4,4,dikgames.com,NL,Europe,Western Europe,Netherlands,North Holland,,Amsterdam
161.35.91.192,4,6,diplom-belarus.com,NL,Europe,Western Europe,Netherlands,North Holland,,Amsterdam
167.99.223.177,4,12,diplom-groupp24.com,NL,Europe,Western Europe,Netherlands,North Holland,,Amsterdam
206.189.97.109,4,2,diploman-doks.com,NL,Europe,Western Europe,Netherlands,North Holland,,Amsterdam
142.93.229.230,4,57,diplomarus.com,NL,Europe,Western Europe,Netherlands,North Holland,,Amsterdam
142.93.142.175,4,21,diplomy-plus.com,NL,Europe,Western Europe,Netherlands,North Holland,,Amsterdam
188.166.134.29,4,137897,discover-ukraine.info,NL,Europe,Western Europe,Netherlands,North Holland,,Amsterdam
188.166.49.116,4,6,dispostable.com,NL,Europe,Western Europe,Netherlands,North Holland,,Amsterdam
163.172.220.133,4,3,dissem.in,NL,Europe,Western Europe,Netherlands,North Holland,,Amsterdam
37.48.67.224,4,7183539,dmeurope.com,NL,Europe,Western Europe,Netherlands,North Holland,,Amsterdam
95.97.79.58,4,-92601,DNS Server: 095-097-079-058.static.chello.nl,NL,Europe,Western Europe,Netherlands,North Holland,,Amsterdam
136.244.109.95,4,63,DNS Server: 136.244.109.95.vultr.com,NL,Europe,Western Europe,Netherlands,North Holland,,Amsterdam
144.178.209.10,4,386146,DNS Server: 144-178-209-10.static.ef-service.nl,NL,Europe,Western Europe,Netherlands,North Holland,,Amsterdam
188.207.12.98,4,5300,DNS Server: 188-207-12-98.mobile.kpn.net,NL,Europe,Western Europe,Netherlands,North Holland,,Amsterdam
51.158.146.93,4,3,DNS Server: 51-158-146-93.rev.poneytelecom.eu,NL,Europe,Western Europe,Netherlands,North Holland,,Amsterdam
77.238.227.213,4,53,DNS Server: 77.238.227.213.teleru.net,NL,Europe,Western Europe,Netherlands,North Holland,,Amsterdam
95.179.143.35,4,12,DNS Server: 95.179.143.35.vultrusercontent.com,NL,Europe,Western Europe,Netherlands,North Holland,,Amsterdam
95.179.149.159,4,4,DNS Server: 95.179.149.159.vultrusercontent.com,NL,Europe,Western Europe,Netherlands,North Holland,,Amsterdam
79.137.195.250,4,8,DNS Server: absent-passenger.aeza.network,NL,Europe,Western Europe,Netherlands,North Holland,,Amsterdam
216.120.247.231,4,13,DNS Server: ams1.dbnoc.net,NL,Europe,Western Europe,Netherlands,North Holland,,Amsterdam
79.137.195.32,4,2029530,DNS Server: d1.aeza.network,NL,Europe,Western Europe,Netherlands,North Holland,,Amsterdam
188.166.123.73,4,26,DNS Server: dns1.pmginfotech.com,NL,Europe,Western Europe,Netherlands,North Holland,,Amsterdam
128.199.55.185,4,46,DNS Server: frontend02.crowdynews.com,NL,Europe,Western Europe,Netherlands,North Holland,,Amsterdam
79.137.198.170,4,4,DNS Server: hip-celery.aeza.network,NL,Europe,Western Europe,Netherlands,North Holland,,Amsterdam
213.127.191.190,4,-46321559,DNS Server: ip-213-127-191-190.ip.prioritytelecom.net,NL,Europe,Western Europe,Netherlands,North Holland,,Amsterdam
79.137.205.223,4,391,DNS Server: limping-arm.aeza.network,NL,Europe,Western Europe,Netherlands,North Holland,,Amsterdam
83.229.82.70,4,3065,DNS Server: lnw.gold-candyroom.com,NL,Europe,Western Europe,Netherlands,North Holland,,Amsterdam
77.238.246.133,4,167,DNS Server: nepmail.ru,NL,Europe,Western Europe,Netherlands,North Holland,,Amsterdam
176.56.186.126,4,-215,DNS Server: ns-1.m4.ams.nl.iptp.net,NL,Europe,Western Europe,Netherlands,North Holland,,Amsterdam
89.208.104.254,4,109,DNS Server: ns2.vdsca.ru,NL,Europe,Western Europe,Netherlands,North Holland,,Amsterdam
185.159.80.206,4,383,DNS Server: policeshanghai.top,NL,Europe,Western Europe,Netherlands,North Holland,,Amsterdam
46.30.41.129,4,-12031,DNS Server: vm545533.eurodir.ru,NL,Europe,Western Europe,Netherlands,North Holland,,Amsterdam
188.166.104.92,4,2,dnsdist.org,NL,Europe,Western Europe,Netherlands,North Holland,,Amsterdam
23.94.101.174,4,111,doctor123.org,NL,Europe,Western Europe,Netherlands,North Holland,,Amsterdam
178.62.202.38,4,250,doctorulmeu.md,NL,Europe,Western Europe,Netherlands,North Holland,,Amsterdam
77.221.154.67,4,399,DoH server: adguard.neon0404.space,NL,Europe,Western Europe,Netherlands,North Holland,,Amsterdam
109.163.225.33,4,356,DoH server: adguard.wirimij.nl,NL,Europe,Western Europe,Netherlands,North Holland,,Amsterdam
198.140.141.46,4,319,DoH server: ams01.dnscry.pt,NL,Europe,Western Europe,Netherlands,North Holland,,Amsterdam
45.86.162.110,4,350,DoH server: ams02.dnscry.pt,NL,Europe,Western Europe,Netherlands,North Holland,,Amsterdam
45.133.117.91,4,-26206,DoH server: blackhole.myon.lu,NL,Europe,Western Europe,Netherlands,North Holland,,Amsterdam
178.62.220.50,4,3,dojo.fi,NL,Europe,Western Europe,Netherlands,North Holland,,Amsterdam
5.79.100.175,4,3,donmario.nl,NL,Europe,Western Europe,Netherlands,North Holland,,Amsterdam
142.93.233.104,4,8,doppio-espresso.nl,NL,Europe,Western Europe,Netherlands,North Holland,,Amsterdam
79.133.180.39,4,-147576,dordlewordle.com,NL,Europe,Western Europe,Netherlands,North Holland,,Amsterdam
37.48.94.74,4,4,download3k.com,NL,Europe,Western Europe,Netherlands,North Holland,,Amsterdam
134.209.206.118,4,3,downloadmaster.com,NL,Europe,Western Europe,Netherlands,North Holland,,Amsterdam
63.250.57.113,4,102,droogdesign.nl,NL,Europe,Western Europe,Netherlands,North Holland,,Amsterdam
159.65.194.254,4,2,duas.org,NL,Europe,Western Europe,Netherlands,North Holland,,Amsterdam
188.166.106.87,4,3,dumka.media,NL,Europe,Western Europe,Netherlands,North Holland,,Amsterdam
188.166.126.185,4,13,dutchblue.nl,NL,Europe,Western Europe,Netherlands,North Holland,,Amsterdam
188.166.129.238,4,5,dutchdesignawards.nl,NL,Europe,Western Europe,Netherlands,North Holland,,Amsterdam
185.174.172.163,4,5,dv-gazeta.info,NL,Europe,Western Europe,Netherlands,North Holland,,Amsterdam
174.138.15.134,4,104,dvbdream.org,NL,Europe,Western Europe,Netherlands,North Holland,,Amsterdam
188.226.233.101,4,6,dyndns.dk,NL,Europe,Western Europe,Netherlands,North Holland,,Amsterdam
146.185.180.87,4,120396,dziennikteatralny.pl,NL,Europe,Western Europe,Netherlands,North Holland,,Amsterdam
188.226.139.95,4,1842598,dzsoft.com,NL,Europe,Western Europe,Netherlands,North Holland,,Amsterdam
95.85.24.224,4,485,e-liquid-recipes.com,NL,Europe,Western Europe,Netherlands,North Holland,,Amsterdam
163.172.216.115,4,32,eauxvives.org,NL,Europe,Western Europe,Netherlands,North Holland,,Amsterdam
185.14.186.115,4,3,eax.me,NL,Europe,Western Europe,Netherlands,North Holland,,Amsterdam
198.20.104.207,4,2,ebiblioteca.org,NL,Europe,Western Europe,Netherlands,North Holland,,Amsterdam
188.166.89.141,4,5,ebusco.com,NL,Europe,Western Europe,Netherlands,North Holland,,Amsterdam
45.152.249.127,4,5,ecomondo.nl,NL,Europe,Western Europe,Netherlands,North Holland,,Amsterdam
178.62.237.173,4,4,ecopolitic.com.ua,NL,Europe,Western Europe,Netherlands,North Holland,,Amsterdam
5.2.68.60,4,18,edhi.org,NL,Europe,Western Europe,Netherlands,North Holland,,Amsterdam
104.248.86.124,4,79,editorialuoc.com,NL,Europe,Western Europe,Netherlands,North Holland,,Amsterdam
83.96.242.80,4,16,eel.is,NL,Europe,Western Europe,Netherlands,North Holland,,Amsterdam
188.166.129.39,4,15,eet.nu,NL,Europe,Western Europe,Netherlands,North Holland,,Amsterdam
142.93.128.181,4,20,eigenwijzereizen.nl,NL,Europe,Western Europe,Netherlands,North Holland,,Amsterdam
188.166.35.160,4,42,eijsink.nl,NL,Europe,Western Europe,Netherlands,North Holland,,Amsterdam
193.42.111.138,4,219,eleanor-cms.ru,NL,Europe,Western Europe,Netherlands,North Holland,,Amsterdam
95.211.229.140,4,5,electroname.com,NL,Europe,Western Europe,Netherlands,North Holland,,Amsterdam
37.48.123.213,4,50,electrum-ltc.org,NL,Europe,Western Europe,Netherlands,North Holland,,Amsterdam
188.226.247.138,4,53,elektronika.lt,NL,Europe,Western Europe,Netherlands,North Holland,,Amsterdam
188.166.126.111,4,4,elia-association.org,NL,Europe,Western Europe,Netherlands,North Holland,,Amsterdam
5.79.97.88,4,38,ellaster.nl,NL,Europe,Western Europe,Netherlands,North Holland,,Amsterdam
94.237.46.222,4,20095,elle.dk,NL,Europe,Western Europe,Netherlands,North Holland,,Amsterdam
40.118.86.222,4,63,elsarblog.com,NL,Europe,Western Europe,Netherlands,North Holland,,Amsterdam
128.199.54.7,4,11,emmet.io,NL,Europe,Western Europe,Netherlands,North Holland,,Amsterdam
77.246.111.218,4,4,empireg.ru,NL,Europe,Western Europe,Netherlands,North Holland,,Amsterdam
46.30.40.101,4,9,energetik59.ru,NL,Europe,Western Europe,Netherlands,North Holland,,Amsterdam
188.166.66.90,4,15,energieplus-lesite.be,NL,Europe,Western Europe,Netherlands,North Holland,,Amsterdam
4.180.250.249,4,10,entertainmentwise.com,NL,Europe,Western Europe,Netherlands,North Holland,,Amsterdam
95.85.30.55,4,10,epica.nl,NL,Europe,Western Europe,Netherlands,North Holland,,Amsterdam
146.190.227.166,4,35,ertico.com,NL,Europe,Western Europe,Netherlands,North Holland,,Amsterdam
75.102.58.133,4,521,estufasycalefactores.com,NL,Europe,Western Europe,Netherlands,North Holland,,Amsterdam
212.193.29.136,4,60,ethereumcode.app,NL,Europe,Western Europe,Netherlands,North Holland,,Amsterdam
46.30.40.18,4,2,eurobyte.ru,NL,Europe,Western Europe,Netherlands,North Holland,,Amsterdam
64.225.67.174,4,9,eurodyn2020.org,NL,Europe,Western Europe,Netherlands,North Holland,,Amsterdam
167.71.8.146,4,37,eurogeographics.org,NL,Europe,Western Europe,Netherlands,North Holland,,Amsterdam
159.65.194.5,4,94,europeanwomeninmaths.org,NL,Europe,Western Europe,Netherlands,North Holland,,Amsterdam
174.138.0.211,4,-1031469,euroseeds.eu,NL,Europe,Western Europe,Netherlands,North Holland,,Amsterdam
159.223.224.188,4,46,eurostylebd.com,NL,Europe,Western Europe,Netherlands,North Holland,,Amsterdam
146.190.21.101,4,85,eve-survival.org,NL,Europe,Western Europe,Netherlands,North Holland,,Amsterdam
185.126.34.3,4,7,eventelephant.com,NL,Europe,Western Europe,Netherlands,North Holland,,Amsterdam
143.244.197.126,4,92,eventgoose.com,NL,Europe,Western Europe,Netherlands,North Holland,,Amsterdam
142.93.230.92,4,4,eventos.fi,NL,Europe,Western Europe,Netherlands,North Holland,,Amsterdam
80.82.78.114,4,2,examcollection.com,NL,Europe,Western Europe,Netherlands,North Holland,,Amsterdam
85.17.210.194,4,951,expopromoter.com,NL,Europe,Western Europe,Netherlands,North Holland,,Amsterdam
178.62.254.226,4,8,extinctionrebellion.nl,NL,Europe,Western Europe,Netherlands,North Holland,,Amsterdam
5.254.117.202,4,2,f1head.nl,NL,Europe,Western Europe,Netherlands,North Holland,,Amsterdam
37.48.120.233,4,2,f1technical.net,NL,Europe,Western Europe,Netherlands,North Holland,,Amsterdam
45.152.250.4,4,59,fairtrade.nl,NL,Europe,Western Europe,Netherlands,North Holland,,Amsterdam
188.166.63.98,4,4,familypictureideas.net,NL,Europe,Western Europe,Netherlands,North Holland,,Amsterdam
188.166.200.171,4,8,fancymarketing.net,NL,Europe,Western Europe,Netherlands,North Holland,,Amsterdam
107.6.140.215,4,23,fansitemanagement.com,NL,Europe,Western Europe,Netherlands,North Holland,,Amsterdam
134.209.195.83,4,21,faoswalim.org,NL,Europe,Western Europe,Netherlands,North Holland,,Amsterdam
5.79.88.8,4,43,fatbmx.com,NL,Europe,Western Europe,Netherlands,North Holland,,Amsterdam
94.103.9.205,4,-38309,fc-sheriff.com,NL,Europe,Western Europe,Netherlands,North Holland,,Amsterdam
185.70.186.217,4,7,fdating.com,NL,Europe,Western Europe,Netherlands,North Holland,,Amsterdam
82.145.213.24,4,9,feednews.com,NL,Europe,Western Europe,Netherlands,North Holland,,Amsterdam
62.204.69.224,4,27,feest.com,NL,Europe,Western Europe,Netherlands,North Holland,,Amsterdam
5.254.124.119,4,16,feestverhuurgroningen.nl,NL,Europe,Western Europe,Netherlands,North Holland,,Amsterdam
46.23.78.211,4,30,fertipower.pt,NL,Europe,Western Europe,Netherlands,North Holland,,Amsterdam
178.62.210.75,4,76,fese.eu,NL,Europe,Western Europe,Netherlands,North Holland,,Amsterdam
206.189.103.251,4,37,festivaldranouter.be,NL,Europe,Western Europe,Netherlands,North Holland,,Amsterdam
188.166.132.77,4,7,ff98sha.me,NL,Europe,Western Europe,Netherlands,North Holland,,Amsterdam
213.187.240.49,4,9,fieldofview.com,NL,Europe,Western Europe,Netherlands,North Holland,,Amsterdam
45.152.250.25,4,41,fietseninspanje.nl,NL,Europe,Western Europe,Netherlands,North Holland,,Amsterdam
167.99.38.22,4,29,fietsplatform.nl,NL,Europe,Western Europe,Netherlands,North Holland,,Amsterdam
83.96.242.208,4,40,fiftiesstore.nl,NL,Europe,Western Europe,Netherlands,North Holland,,Amsterdam
37.48.87.73,4,25,fil.pt,NL,Europe,Western Europe,Netherlands,North Holland,,Amsterdam
109.163.225.17,4,8,fiscale-advocatuur.nl,NL,Europe,Western Europe,Netherlands,North Holland,,Amsterdam
139.28.217.51,4,2,fiscrosscountry.com,NL,Europe,Western Europe,Netherlands,North Holland,,Amsterdam
31.186.241.95,4,57,fitnessrepublic.com,NL,Europe,Western Europe,Netherlands,North Holland,,Amsterdam
188.166.201.77,4,42,flashphoner.com,NL,Europe,Western Europe,Netherlands,North Holland,,Amsterdam
91.184.51.58,4,10,flirt-liebe.com,NL,Europe,Western Europe,Netherlands,North Holland,,Amsterdam
94.75.231.82,4,3,followthatpage.com,NL,Europe,Western Europe,Netherlands,North Holland,,Amsterdam
80.65.96.111,4,107,fondsslachtofferhulp.nl,NL,Europe,Western Europe,Netherlands,North Holland,,Amsterdam
78.140.185.189,4,3,fozzy.com,NL,Europe,Western Europe,Netherlands,North Holland,,Amsterdam
37.48.90.23,4,2,fractalcow.com,NL,Europe,Western Europe,Netherlands,North Holland,,Amsterdam
142.93.224.67,4,41,framtida.no,NL,Europe,Western Europe,Netherlands,North Holland,,Amsterdam
174.138.8.209,4,63,franchiseplus.nl,NL,Europe,Western Europe,Netherlands,North Holland,,Amsterdam
38.180.121.240,4,36,free-slots.games,NL,Europe,Western Europe,Netherlands,North Holland,,Amsterdam
38.180.121.97,4,-4,free-slots.games,NL,Europe,Western Europe,Netherlands,North Holland,,Amsterdam
38.180.121.141,4,59,free-slots.games,NL,Europe,Western Europe,Netherlands,North Holland,,Amsterdam
45.129.84.29,4,36,freefontsfamily.com,NL,Europe,Western Europe,Netherlands,North Holland,,Amsterdam
31.207.47.61,4,3,freelancer.nl,NL,Europe,Western Europe,Netherlands,North Holland,,Amsterdam
188.116.21.50,4,15,freespinspromo.com,NL,Europe,Western Europe,Netherlands,North Holland,,Amsterdam
31.134.206.97,4,10,freya.nl,NL,Europe,Western Europe,Netherlands,North Holland,,Amsterdam
146.190.224.72,4,17,frisbeegolfradat.fi,NL,Europe,Western Europe,Netherlands,North Holland,,Amsterdam
151.101.38.253,4,5,fsc.org,NL,Europe,Western Europe,Netherlands,North Holland,,Amsterdam
188.166.72.120,4,4,fundacionvital.eus,NL,Europe,Western Europe,Netherlands,North Holland,,Amsterdam
91.184.54.90,4,3,fussballwetten.tv,NL,Europe,Western Europe,Netherlands,North Holland,,Amsterdam
188.166.20.196,4,5,fyrefestival.com,NL,Europe,Western Europe,Netherlands,North Holland,,Amsterdam
136.244.97.194,4,6,g3rt.nl,NL,Europe,Western Europe,Netherlands,North Holland,,Amsterdam
188.166.135.198,4,31,gallerease.com,NL,Europe,Western Europe,Netherlands,North Holland,,Amsterdam
37.48.73.140,4,28,game-warden.com,NL,Europe,Western Europe,Netherlands,North Holland,,Amsterdam
5.79.100.44,4,25657,gamed.nl,NL,Europe,Western Europe,Netherlands,North Holland,,Amsterdam
185.28.36.22,4,1146,gamesave-manager.com,NL,Europe,Western Europe,Netherlands,North Holland,,Amsterdam
45.136.49.65,4,2530,gameviet.top,NL,Europe,Western Europe,Netherlands,North Holland,,Amsterdam
178.62.156.47,4,683,gastronomiaycia.com,NL,Europe,Western Europe,Netherlands,North Holland,,Amsterdam
95.140.80.1,4,-3,gblnet.ru,NL,Europe,Western Europe,Netherlands,North Holland,,Amsterdam
198.20.98.60,4,6,gcc-marketing.com,NL,Europe,Western Europe,Netherlands,North Holland,,Amsterdam
107.6.154.229,4,3,gendan.co.uk,NL,Europe,Western Europe,Netherlands,North Holland,,Amsterdam
217.144.102.105,4,49,generatorfans.com,NL,Europe,Western Europe,Netherlands,North Holland,,Amsterdam
163.172.219.236,4,27,generer-mentions-legales.com,NL,Europe,Western Europe,Netherlands,North Holland,,Amsterdam
188.226.183.248,4,368871,gentlebytes.com,NL,Europe,Western Europe,Netherlands,North Holland,,Amsterdam
146.185.148.161,4,3,georgiantravelguide.com,NL,Europe,Western Europe,Netherlands,North Holland,,Amsterdam
174.138.96.58,4,18,geosnews.com,NL,Europe,Western Europe,Netherlands,North Holland,,Amsterdam
83.96.243.207,4,12,gezondheidswinkel.nl,NL,Europe,Western Europe,Netherlands,North Holland,,Amsterdam
128.127.106.176,4,348,gforum.tv,NL,Europe,Western Europe,Netherlands,North Holland,,Amsterdam
192.81.220.22,4,5,gg8.se,NL,Europe,Western Europe,Netherlands,North Holland,,Amsterdam
94.237.40.167,4,8,ghelamco.com,NL,Europe,Western Europe,Netherlands,North Holland,,Amsterdam
31.186.241.173,4,4,ghostwritersplanet.com,NL,Europe,Western Europe,Netherlands,North Holland,,Amsterdam
128.199.55.160,4,19,giftsdirect.nl,NL,Europe,Western Europe,Netherlands,North Holland,,Amsterdam
143.198.251.11,4,5,gigmit.com,NL,Europe,Western Europe,Netherlands,North Holland,,Amsterdam
167.71.1.111,4,24,gigstarter.nl,NL,Europe,Western Europe,Netherlands,North Holland,,Amsterdam
20.224.247.58,4,28,gildesoftware.nl,NL,Europe,Western Europe,Netherlands,North Holland,,Amsterdam
37.48.90.201,4,97,glampings.com,NL,Europe,Western Europe,Netherlands,North Holland,,Amsterdam
5.254.117.198,4,77,glaslaminaat.nl,NL,Europe,Western Europe,Netherlands,North Holland,,Amsterdam
206.54.175.182,4,3,glavbyh.ru,NL,Europe,Western Europe,Netherlands,North Holland,,Amsterdam
81.91.178.190,4,1096,glazb.me,NL,Europe,Western Europe,Netherlands,North Holland,,Amsterdam
194.5.132.47,4,23,globeview.nl,NL,Europe,Western Europe,Netherlands,North Holland,,Amsterdam
46.30.42.81,4,-47,globexmusic.com,NL,Europe,Western Europe,Netherlands,North Holland,,Amsterdam
80.240.134.137,4,25,go4go.net,NL,Europe,Western Europe,Netherlands,North Holland,,Amsterdam
161.35.154.108,4,12,gogov.ru,NL,Europe,Western Europe,Netherlands,North Holland,,Amsterdam
108.61.165.66,4,53,goodwell.nl,NL,Europe,Western Europe,Netherlands,North Holland,,Amsterdam
5.254.117.37,4,23,gooise-gitaren.nl,NL,Europe,Western Europe,Netherlands,North Holland,,Amsterdam
206.54.175.180,4,36,goon.ru,NL,Europe,Western Europe,Netherlands,North Holland,,Amsterdam
134.209.202.117,4,50,gosdiplomsy.com,NL,Europe,Western Europe,Netherlands,North Holland,,Amsterdam
188.166.108.157,4,4120466,gpoltava.com,NL,Europe,Western Europe,Netherlands,North Holland,,Amsterdam
88.221.24.89,4,13,grandvision.it,NL,Europe,Western Europe,Netherlands,North Holland,,Amsterdam
88.221.24.32,4,22,grandvision.it,NL,Europe,Western Europe,Netherlands,North Holland,,Amsterdam
5.182.209.243,4,6,grantpharmacy.com,NL,Europe,Western Europe,Netherlands,North Holland,,Amsterdam
198.20.114.4,4,696,greenagenda.gr,NL,Europe,Western Europe,Netherlands,North Holland,,Amsterdam
94.75.208.35,4,4,greenpanthera.com,NL,Europe,Western Europe,Netherlands,North Holland,,Amsterdam
5.254.124.247,4,12,grieksegids.nl,NL,Europe,Western Europe,Netherlands,North Holland,,Amsterdam
45.152.250.89,4,47,grimmaudio.com,NL,Europe,Western Europe,Netherlands,North Holland,,Amsterdam
45.152.250.22,4,59,groendaktotaal.nl,NL,Europe,Western Europe,Netherlands,North Holland,,Amsterdam
109.163.225.11,4,-29,growthinkers.nl,NL,Europe,Western Europe,Netherlands,North Holland,,Amsterdam
107.158.223.81,4,-51952,guntoi.com,NL,Europe,Western Europe,Netherlands,North Holland,,Amsterdam
206.189.103.52,4,6,hactoendplasticpollution.org,NL,Europe,Western Europe,Netherlands,North Holland,,Amsterdam
109.163.225.68,4,8,harrieboerhof.nl,NL,Europe,Western Europe,Netherlands,North Holland,,Amsterdam
31.24.250.45,4,30,hatland.nl,NL,Europe,Western Europe,Netherlands,North Holland,,Amsterdam
174.138.105.151,4,3,hedge.video,NL,Europe,Western Europe,Netherlands,North Holland,,Amsterdam
195.114.227.3,4,71,heerlijkehuisjes.nl,NL,Europe,Western Europe,Netherlands,North Holland,,Amsterdam
13.95.82.200,4,18,helha.be,NL,Europe,Western Europe,Netherlands,North Holland,,Amsterdam
188.166.202.179,4,8,helicon.nl,NL,Europe,Western Europe,Netherlands,North Holland,,Amsterdam
165.22.201.74,4,8,helpmax.net,NL,Europe,Western Europe,Netherlands,North Holland,,Amsterdam
2.16.106.219,4,6,hendrickcars.com,NL,Europe,Western Europe,Netherlands,North Holland,,Amsterdam
2.16.106.210,4,7,hendrickcars.com,NL,Europe,Western Europe,Netherlands,North Holland,,Amsterdam
107.6.172.52,4,788,hernandez-vilches.com,NL,Europe,Western Europe,Netherlands,North Holland,,Amsterdam
31.134.201.22,4,33,high-supplies.com,NL,Europe,Western Europe,Netherlands,North Holland,,Amsterdam
5.79.100.132,4,21,hiil.org,NL,Europe,Western Europe,Netherlands,North Holland,,Amsterdam
75.102.58.5,4,677,historiasiglo20.org,NL,Europe,Western Europe,Netherlands,North Holland,,Amsterdam
37.48.70.133,4,5,historischcentrumoverijssel.nl,NL,Europe,Western Europe,Netherlands,North Holland,,Amsterdam
159.65.206.36,4,12,hoasted.com,NL,Europe,Western Europe,Netherlands,North Holland,,Amsterdam
5.189.203.135,4,4,hoax.com,NL,Europe,Western Europe,Netherlands,North Holland,,Amsterdam
94.237.41.70,4,23,hobbygigant.nl,NL,Europe,Western Europe,Netherlands,North Holland,,Amsterdam
194.5.132.119,4,9,hollandgold.nl,NL,Europe,Western Europe,Netherlands,North Holland,,Amsterdam
194.5.132.22,4,39,hollandsemarkten.nl,NL,Europe,Western Europe,Netherlands,North Holland,,Amsterdam
195.35.113.20,4,57,holocausthandbooks.com,NL,Europe,Western Europe,Netherlands,North Holland,,Amsterdam
5.149.254.122,4,95,hostzealot.ru,NL,Europe,Western Europe,Netherlands,North Holland,,Amsterdam
87.255.53.244,4,8,hotels-attitude.com,NL,Europe,Western Europe,Netherlands,North Holland,,Amsterdam
167.99.34.38,4,5,howto-use.com,NL,Europe,Western Europe,Netherlands,North Holland,,Amsterdam
188.226.164.84,4,4,hpprinterofflinee.com,NL,Europe,Western Europe,Netherlands,North Holland,,Amsterdam
109.163.225.13,4,4,hsfashion.nl,NL,Europe,Western Europe,Netherlands,North Holland,,Amsterdam
178.128.142.90,4,3,huidhuis.nl,NL,Europe,Western Europe,Netherlands,North Holland,,Amsterdam
194.5.132.53,4,5,huiswiki.nl,NL,Europe,Western Europe,Netherlands,North Holland,,Amsterdam
172.233.56.80,4,2,humanbirdwings.net,NL,Europe,Western Europe,Netherlands,North Holland,,Amsterdam
188.166.109.245,4,9,humanityhouse.org,NL,Europe,Western Europe,Netherlands,North Holland,,Amsterdam
37.230.131.74,4,1,hybrid.ai,NL,Europe,Western Europe,Netherlands,North Holland,,Amsterdam
128.127.106.215,4,-1,hype.com,NL,Europe,Western Europe,Netherlands,North Holland,,Amsterdam
188.166.31.49,4,21,hyperfinance.cz,NL,Europe,Western Europe,Netherlands,North Holland,,Amsterdam
134.122.61.3,4,4,iauto.lv,NL,Europe,Western Europe,Netherlands,North Holland,,Amsterdam
104.46.52.84,4,34,icar-us.eu,NL,Europe,Western Europe,Netherlands,North Holland,,Amsterdam
185.34.136.158,4,18,iccs-meeting.org,NL,Europe,Western Europe,Netherlands,North Holland,,Amsterdam
87.255.41.23,4,6,iceamsterdam.nl,NL,Europe,Western Europe,Netherlands,North Holland,,Amsterdam
188.166.24.20,4,15,ideavalley.sa,NL,Europe,Western Europe,Netherlands,North Holland,,Amsterdam
206.189.100.197,4,17,igoadmin.nl,NL,Europe,Western Europe,Netherlands,North Holland,,Amsterdam
37.48.103.214,4,3648655,ihavethepussy.com,NL,Europe,Western Europe,Netherlands,North Holland,,Amsterdam
94.75.218.178,4,4,iiav.nl,NL,Europe,Western Europe,Netherlands,North Holland,,Amsterdam
178.62.201.56,4,-3,iicd.org,NL,Europe,Western Europe,Netherlands,North Holland,,Amsterdam
75.102.57.58,4,4,ikkaro.com,NL,Europe,Western Europe,Netherlands,North Holland,,Amsterdam
185.28.37.139,4,32,immediateedgepro.com,NL,Europe,Western Europe,Netherlands,North Holland,,Amsterdam
188.166.203.209,4,10,improvesailing.com,NL,Europe,Western Europe,Netherlands,North Holland,,Amsterdam
194.5.132.133,4,4,inamood.nl,NL,Europe,Western Europe,Netherlands,North Holland,,Amsterdam
75.102.57.41,4,31,inarquia.es,NL,Europe,Western Europe,Netherlands,North Holland,,Amsterdam
185.62.36.194,4,2,indiannlp.in,NL,Europe,Western Europe,Netherlands,North Holland,,Amsterdam
31.24.250.30,4,58,inforse.org,NL,Europe,Western Europe,Netherlands,North Holland,,Amsterdam
188.226.243.5,4,9,inliberty.ru,NL,Europe,Western Europe,Netherlands,North Holland,,Amsterdam
178.62.233.36,4,218129,inpress.ua,NL,Europe,Western Europe,Netherlands,North Holland,,Amsterdam
188.226.231.227,4,3212264,instantclick.io,NL,Europe,Western Europe,Netherlands,North Holland,,Amsterdam
165.22.200.86,4,120,integritee.network,NL,Europe,Western Europe,Netherlands,North Holland,,Amsterdam
37.48.73.27,4,8,intergalactic.fm,NL,Europe,Western Europe,Netherlands,North Holland,,Amsterdam
95.179.129.41,4,5,internetproviders-vergelijken.nl,NL,Europe,Western Europe,Netherlands,North Holland,,Amsterdam
94.237.45.67,4,47,intexplezier.be,NL,Europe,Western Europe,Netherlands,North Holland,,Amsterdam
78.141.216.170,4,25,introdans.nl,NL,Europe,Western Europe,Netherlands,North Holland,,Amsterdam
185.94.84.9,4,40,invst.ly,NL,Europe,Western Europe,Netherlands,North Holland,,Amsterdam
107.6.182.94,4,19,iora.int,NL,Europe,Western Europe,Netherlands,North Holland,,Amsterdam
165.22.192.117,4,5,iqlib.ru,NL,Europe,Western Europe,Netherlands,North Holland,,Amsterdam
159.223.226.39,4,4,iqpark.be,NL,Europe,Western Europe,Netherlands,North Holland,,Amsterdam
82.196.7.103,4,31,isev.su,NL,Europe,Western Europe,Netherlands,North Holland,,Amsterdam
94.75.226.219,4,101939,islamquest.net,NL,Europe,Western Europe,Netherlands,North Holland,,Amsterdam
45.252.183.11,4,7,islamtimes.org,NL,Europe,Western Europe,Netherlands,North Holland,,Amsterdam
83.96.253.81,4,4,islandwoodwork.com,NL,Europe,Western Europe,Netherlands,North Holland,,Amsterdam
75.102.57.151,4,738,isnare.com,NL,Europe,Western Europe,Netherlands,North Holland,,Amsterdam
206.189.101.88,4,63,ispmanager.com,NL,Europe,Western Europe,Netherlands,North Holland,,Amsterdam
79.133.180.8,4,31,isport.in,NL,Europe,Western Europe,Netherlands,North Holland,,Amsterdam
5.254.39.14,4,29,ispt.eu,NL,Europe,Western Europe,Netherlands,North Holland,,Amsterdam
188.226.173.210,4,6144987,isstracker.com,NL,Europe,Western Europe,Netherlands,North Holland,,Amsterdam
193.42.108.46,4,21,italianweek.ru,NL,Europe,Western Europe,Netherlands,North Holland,,Amsterdam
94.237.43.73,4,1,italysegreta.com,NL,Europe,Western Europe,Netherlands,North Holland,,Amsterdam
104.248.194.191,4,69,itseuropeancongress.com,NL,Europe,Western Europe,Netherlands,North Holland,,Amsterdam
161.35.154.23,4,15,itsworldcongress.com,NL,Europe,Western Europe,Netherlands,North Holland,,Amsterdam
31.24.250.50,4,7,jachtloods.nl,NL,Europe,Western Europe,Netherlands,North Holland,,Amsterdam
45.152.250.40,4,15,jessevandervelde.com,NL,Europe,Western Europe,Netherlands,North Holland,,Amsterdam
178.208.88.19,4,15,johnson-pump.com.ru,NL,Europe,Western Europe,Netherlands,North Holland,,Amsterdam
2.16.6.11,4,10,jongeneel.nl,NL,Europe,Western Europe,Netherlands,North Holland,,Amsterdam
81.181.110.78,4,2,jtrx.shop,NL,Europe,Western Europe,Netherlands,North Holland,,Amsterdam
212.7.207.87,4,-28,jvlma.lv,NL,Europe,Western Europe,Netherlands,North Holland,,Amsterdam
89.23.110.161,4,28,katstat.ru,NL,Europe,Western Europe,Netherlands,North Holland,,Amsterdam
193.42.110.48,4,14,kcm.ua,NL,Europe,Western Europe,Netherlands,North Holland,,Amsterdam
37.139.10.170,4,28,keenmobi.com,NL,Europe,Western Europe,Netherlands,North Holland,,Amsterdam
142.93.141.179,4,8,kelyphos.com,NL,Europe,Western Europe,Netherlands,North Holland,,Amsterdam
5.254.117.22,4,11,keukenliefde.nl,NL,Europe,Western Europe,Netherlands,North Holland,,Amsterdam
45.152.249.74,4,6,keuringsdienstvoorwonen.nl,NL,Europe,Western Europe,Netherlands,North Holland,,Amsterdam
82.196.5.106,4,46,keywestcity.com,NL,Europe,Western Europe,Netherlands,North Holland,,Amsterdam
46.30.44.151,4,2,kg7.ru,NL,Europe,Western Europe,Netherlands,North Holland,,Amsterdam
185.45.193.199,4,117433,kgbook.com,NL,Europe,Western Europe,Netherlands,North Holland,,Amsterdam
37.139.11.19,4,15,khmw.nl,NL,Europe,Western Europe,Netherlands,North Holland,,Amsterdam
88.208.38.107,4,53,killinghope.org,NL,Europe,Western Europe,Netherlands,North Holland,,Amsterdam
45.138.36.103,4,-2074027,kinohootss3.shop,NL,Europe,Western Europe,Netherlands,North Holland,,Amsterdam
45.152.249.3,4,4,kiteboardschool.nl,NL,Europe,Western Europe,Netherlands,North Holland,,Amsterdam
174.138.10.215,4,3,kitsonlinetrainings.com,NL,Europe,Western Europe,Netherlands,North Holland,,Amsterdam
206.189.102.78,4,22,klassiekezaken.nl,NL,Europe,Western Europe,Netherlands,North Holland,,Amsterdam
194.5.132.3,4,-1,knac.nl,NL,Europe,Western Europe,Netherlands,North Holland,,Amsterdam
37.48.75.90,4,5,knibble.nl,NL,Europe,Western Europe,Netherlands,North Holland,,Amsterdam
2.56.90.69,4,57,knittingideas.ru,NL,Europe,Western Europe,Netherlands,North Holland,,Amsterdam
5.254.117.203,4,3,knoef.info,NL,Europe,Western Europe,Netherlands,North Holland,,Amsterdam
94.237.43.240,4,340,knoow.net,NL,Europe,Western Europe,Netherlands,North Holland,,Amsterdam
37.48.103.146,4,-35,kogama.com,NL,Europe,Western Europe,Netherlands,North Holland,,Amsterdam
167.99.211.42,4,87,komo.nl,NL,Europe,Western Europe,Netherlands,North Holland,,Amsterdam
188.226.213.59,4,4760309,kompromat.lv,NL,Europe,Western Europe,Netherlands,North Holland,,Amsterdam
109.163.225.26,4,17,kopenenvergelijken.nl,NL,Europe,Western Europe,Netherlands,North Holland,,Amsterdam
193.42.110.57,4,20,korabley.net,NL,Europe,Western Europe,Netherlands,North Holland,,Amsterdam
45.136.49.245,4,0,korsars.pro,NL,Europe,Western Europe,Netherlands,North Holland,,Amsterdam
178.208.83.23,4,5,krafttrans.ru,NL,Europe,Western Europe,Netherlands,North Holland,,Amsterdam
82.115.4.2,4,40623,ku3933.art,NL,Europe,Western Europe,Netherlands,North Holland,,Amsterdam
178.62.193.86,4,13,kuran.gen.tr,NL,Europe,Western Europe,Netherlands,North Holland,,Amsterdam
174.138.8.161,4,9,kuribo64.net,NL,Europe,Western Europe,Netherlands,North Holland,,Amsterdam
88.202.177.106,4,4,lakii.com,NL,Europe,Western Europe,Netherlands,North Holland,,Amsterdam
77.81.240.93,4,14,lalescu.ro,NL,Europe,Western Europe,Netherlands,North Holland,,Amsterdam
198.20.115.3,4,1,lamiradadelreplicante.com,NL,Europe,Western Europe,Netherlands,North Holland,,Amsterdam
194.5.132.169,4,10,lampenhuis.nl,NL,Europe,Western Europe,Netherlands,North Holland,,Amsterdam
142.93.138.149,4,34,landlord.ua,NL,Europe,Western Europe,Netherlands,North Holland,,Amsterdam
159.223.2.156,4,3,lands-diplomy.com,NL,Europe,Western Europe,Netherlands,North Holland,,Amsterdam
178.62.198.95,4,61,larryvsharry.com,NL,Europe,Western Europe,Netherlands,North Holland,,Amsterdam
134.122.56.8,4,3,lava.nl,NL,Europe,Western Europe,Netherlands,North Holland,,Amsterdam
185.126.34.158,4,-182396,lcpackaging.com,NL,Europe,Western Europe,Netherlands,North Holland,,Amsterdam
178.79.208.44,4,2,leaseweb.com,NL,Europe,Western Europe,Netherlands,North Holland,,Amsterdam
31.134.200.205,4,40,leerlingen.com,NL,Europe,Western Europe,Netherlands,North Holland,,Amsterdam
5.254.124.145,4,144,leestrainer.nl,NL,Europe,Western Europe,Netherlands,North Holland,,Amsterdam
174.138.13.139,4,3,lefteast.org,NL,Europe,Western Europe,Netherlands,North Holland,,Amsterdam
136.244.110.77,4,21,leiebilguiden.no,NL,Europe,Western Europe,Netherlands,North Holland,,Amsterdam
142.93.134.157,4,28,lejpb.com,NL,Europe,Western Europe,Netherlands,North Holland,,Amsterdam
46.30.40.104,4,5,leoartrealt.ru,NL,Europe,Western Europe,Netherlands,North Holland,,Amsterdam
167.71.6.229,4,84,letakomat.cz,NL,Europe,Western Europe,Netherlands,North Holland,,Amsterdam
37.48.80.18,4,6,letssingit.com,NL,Europe,Western Europe,Netherlands,North Holland,,Amsterdam
151.101.37.124,4,3,lib-tech.com,NL,Europe,Western Europe,Netherlands,North Holland,,Amsterdam
198.140.141.86,4,24,librecmc.org,NL,Europe,Western Europe,Netherlands,North Holland,,Amsterdam
75.102.57.60,4,8,librosaguilar.com,NL,Europe,Western Europe,Netherlands,North Holland,,Amsterdam
5.254.117.215,4,5,lifestylefire.nl,NL,Europe,Western Europe,Netherlands,North Holland,,Amsterdam
185.232.56.9,4,23,likee.video,NL,Europe,Western Europe,Netherlands,North Holland,,Amsterdam
169.197.109.9,4,3,likee.video,NL,Europe,Western Europe,Netherlands,North Holland,,Amsterdam
79.141.165.115,4,9,linkprovider.org,NL,Europe,Western Europe,Netherlands,North Holland,,Amsterdam
64.225.65.218,4,42,litecoinpool.org,NL,Europe,Western Europe,Netherlands,North Holland,,Amsterdam
188.166.30.209,4,759831,littlegolem.net,NL,Europe,Western Europe,Netherlands,North Holland,,Amsterdam
185.197.162.22,4,3,litvek.com,NL,Europe,Western Europe,Netherlands,North Holland,,Amsterdam
45.85.191.208,4,19,live-streams.nl,NL,Europe,Western Europe,Netherlands,North Holland,,Amsterdam
78.141.217.137,4,8,liveescape.nl,NL,Europe,Western Europe,Netherlands,North Holland,,Amsterdam
212.7.207.88,4,19,llrc.org,NL,Europe,Western Europe,Netherlands,North Holland,,Amsterdam
79.133.180.43,4,-216991,loansbigguide.com,NL,Europe,Western Europe,Netherlands,North Holland,,Amsterdam
178.62.207.165,4,94,lom.audio,NL,Europe,Western Europe,Netherlands,North Holland,,Amsterdam
146.185.135.7,4,18,lomborg.com,NL,Europe,Western Europe,Netherlands,North Holland,,Amsterdam
193.42.111.139,4,3,londonsexrelax.com,NL,Europe,Western Europe,Netherlands,North Holland,,Amsterdam
89.117.24.31,4,7,lookmy.info,NL,Europe,Western Europe,Netherlands,North Holland,,Amsterdam
5.45.95.135,4,39,losst.pro,NL,Europe,Western Europe,Netherlands,North Holland,,Amsterdam
192.81.220.232,4,6,louwrentius.com,NL,Europe,Western Europe,Netherlands,North Holland,,Amsterdam
159.65.193.170,4,-113225,lowcyburz.pl,NL,Europe,Western Europe,Netherlands,North Holland,,Amsterdam
87.255.55.212,4,22,lsabewoners.nl,NL,Europe,Western Europe,Netherlands,North Holland,,Amsterdam
13.93.52.132,4,2,lto.de,NL,Europe,Western Europe,Netherlands,North Holland,,Amsterdam
146.185.189.57,4,3,lucia.it,NL,Europe,Western Europe,Netherlands,North Holland,,Amsterdam
95.179.188.208,4,5,lukabloom.com,NL,Europe,Western Europe,Netherlands,North Holland,,Amsterdam
157.245.68.32,4,12,luxurylifestyleawards.com,NL,Europe,Western Europe,Netherlands,North Holland,,Amsterdam
185.92.220.176,4,44,maas-alliance.eu,NL,Europe,Western Europe,Netherlands,North Holland,,Amsterdam
146.185.138.175,4,3,machinarium.net,NL,Europe,Western Europe,Netherlands,North Holland,,Amsterdam
82.94.235.106,4,3,made-it.com,NL,Europe,Western Europe,Netherlands,North Holland,,Amsterdam
178.62.225.33,4,5,mahabali.me,NL,Europe,Western Europe,Netherlands,North Holland,,Amsterdam
188.166.103.175,4,2,mailboxdrive.com,NL,Europe,Western Europe,Netherlands,North Holland,,Amsterdam
185.174.173.22,4,45,manson.wiki,NL,Europe,Western Europe,Netherlands,North Holland,,Amsterdam
88.208.52.135,4,10,manualslib.de,NL,Europe,Western Europe,Netherlands,North Holland,,Amsterdam
178.62.200.113,4,16,mapcam.info,NL,Europe,Western Europe,Netherlands,North Holland,,Amsterdam
109.206.176.6,4,12,mapstor.com,NL,Europe,Western Europe,Netherlands,North Holland,,Amsterdam
134.122.59.114,4,57,marbslifestyle.com,NL,Europe,Western Europe,Netherlands,North Holland,,Amsterdam
216.120.247.204,4,9,marcobeveragesystems.com,NL,Europe,Western Europe,Netherlands,North Holland,,Amsterdam
192.121.155.197,4,9333,marjoleintje.nl,NL,Europe,Western Europe,Netherlands,North Holland,,Amsterdam
45.152.249.24,4,65,markantinternet.nl,NL,Europe,Western Europe,Netherlands,North Holland,,Amsterdam
151.101.38.133,4,9,marketcircle.com,NL,Europe,Western Europe,Netherlands,North Holland,,Amsterdam
194.5.132.142,4,12,marketingfacts.nl,NL,Europe,Western Europe,Netherlands,North Holland,,Amsterdam
134.209.137.3,4,12,marketizator.com,NL,Europe,Western Europe,Netherlands,North Holland,,Amsterdam
146.185.174.209,4,171396,marksblogg.com,NL,Europe,Western Europe,Netherlands,North Holland,,Amsterdam
62.106.66.7,4,58,masterforex-v.org,NL,Europe,Western Europe,Netherlands,North Holland,,Amsterdam
80.65.97.5,4,36,mastervolt.nl,NL,Europe,Western Europe,Netherlands,North Holland,,Amsterdam
5.254.117.242,4,4,matoketours.nl,NL,Europe,Western Europe,Netherlands,North Holland,,Amsterdam
134.209.136.219,4,5,matthiasnoback.nl,NL,Europe,Western Europe,Netherlands,North Holland,,Amsterdam
94.237.44.216,4,6,matthys.net,NL,Europe,Western Europe,Netherlands,North Holland,,Amsterdam
193.42.111.17,4,19,maxsc.com.ua,NL,Europe,Western Europe,Netherlands,North Holland,,Amsterdam
23.222.44.156,4,6,mcdonalds.be,NL,Europe,Western Europe,Netherlands,North Holland,,Amsterdam
217.144.102.175,4,-3,mchost.ru,NL,Europe,Western Europe,Netherlands,North Holland,,Amsterdam
198.20.127.137,4,6,medyanative.com,NL,Europe,Western Europe,Netherlands,North Holland,,Amsterdam
178.62.220.84,4,6,meidell.dk,NL,Europe,Western Europe,Netherlands,North Holland,,Amsterdam
136.244.108.88,4,18,mejorconjoomla.com,NL,Europe,Western Europe,Netherlands,North Holland,,Amsterdam
95.97.10.213,4,-2154671333,mensys.nl,NL,Europe,Western Europe,Netherlands,North Holland,,Amsterdam
37.139.26.90,4,3106442,merchline.com,NL,Europe,Western Europe,Netherlands,North Holland,,Amsterdam
95.142.100.174,4,4,meteobelgique.be,NL,Europe,Western Europe,Netherlands,North Holland,,Amsterdam
5.254.124.134,4,9,meukisleuk.nl,NL,Europe,Western Europe,Netherlands,North Holland,,Amsterdam
20.101.163.59,4,689,mhcmobility.nl,NL,Europe,Western Europe,Netherlands,North Holland,,Amsterdam
206.189.4.31,4,23,micahphinson.com,NL,Europe,Western Europe,Netherlands,North Holland,,Amsterdam
95.211.140.122,4,20,miceoperations.com,NL,Europe,Western Europe,Netherlands,North Holland,,Amsterdam
108.61.167.56,4,3,migliorcontocorrente.org,NL,Europe,Western Europe,Netherlands,North Holland,,Amsterdam
151.101.39.52,4,43,mijnspar.be,NL,Europe,Western Europe,Netherlands,North Holland,,Amsterdam
109.163.225.35,4,61,milieucentrumutrecht.nl,NL,Europe,Western Europe,Netherlands,North Holland,,Amsterdam
188.166.49.117,4,63,mirsoft.info,NL,Europe,Western Europe,Netherlands,North Holland,,Amsterdam
31.220.4.167,4,39,misleader.org,NL,Europe,Western Europe,Netherlands,North Holland,,Amsterdam
188.226.197.124,4,921,mistape.com,NL,Europe,Western Europe,Netherlands,North Holland,,Amsterdam
194.5.132.122,4,8,mixedgrill.nl,NL,Europe,Western Europe,Netherlands,North Holland,,Amsterdam
78.140.185.197,4,9,mixtorg.com.ua,NL,Europe,Western Europe,Netherlands,North Holland,,Amsterdam
91.208.52.21,4,85,mob.org,NL,Europe,Western Europe,Netherlands,North Holland,,Amsterdam
188.166.79.237,4,41,mobilewins.co.uk,NL,Europe,Western Europe,Netherlands,North Holland,,Amsterdam
45.152.249.117,4,10,mobisun.com,NL,Europe,Western Europe,Netherlands,North Holland,,Amsterdam
13.95.218.57,4,21,mobitrans.net,NL,Europe,Western Europe,Netherlands,North Holland,,Amsterdam
185.162.128.66,4,41,modernrock.ru,NL,Europe,Western Europe,Netherlands,North Holland,,Amsterdam
52.142.212.46,4,8,moeders.nu,NL,Europe,Western Europe,Netherlands,North Holland,,Amsterdam
5.79.99.42,4,5,moncalierigolfclub.com,NL,Europe,Western Europe,Netherlands,North Holland,,Amsterdam
185.192.246.212,4,37,monro-design.ru,NL,Europe,Western Europe,Netherlands,North Holland,,Amsterdam
159.8.213.210,4,39872,montada.com,NL,Europe,Western Europe,Netherlands,North Holland,,Amsterdam
167.71.66.140,4,6,montelnews.com,NL,Europe,Western Europe,Netherlands,North Holland,,Amsterdam
109.163.225.27,4,27,mooieschoenen.nl,NL,Europe,Western Europe,Netherlands,North Holland,,Amsterdam
185.28.37.134,4,7,mooiewagens.nl,NL,Europe,Western Europe,Netherlands,North Holland,,Amsterdam
79.141.164.248,4,-309,moskva.fm,NL,Europe,Western Europe,Netherlands,North Holland,,Amsterdam
185.197.162.62,4,20,moswap.com,NL,Europe,Western Europe,Netherlands,North Holland,,Amsterdam
209.250.249.93,4,2,mp3fusion.net,NL,Europe,Western Europe,Netherlands,North Holland,,Amsterdam
46.30.44.122,4,6,mp3real.ru,NL,Europe,Western Europe,Netherlands,North Holland,,Amsterdam
192.87.79.51,4,3,mpi.nl,NL,Europe,Western Europe,Netherlands,North Holland,,Amsterdam
94.237.46.77,4,9,mskgent.be,NL,Europe,Western Europe,Netherlands,North Holland,,Amsterdam
94.237.43.15,4,3,mskgent.be,NL,Europe,Western Europe,Netherlands,North Holland,,Amsterdam
82.196.6.164,4,1538513,mst.com.ua,NL,Europe,Western Europe,Netherlands,North Holland,,Amsterdam
188.166.90.215,4,30,mugak.eu,NL,Europe,Western Europe,Netherlands,North Holland,,Amsterdam
5.79.67.174,4,4,murajibi.com,NL,Europe,Western Europe,Netherlands,North Holland,,Amsterdam
82.94.217.91,4,24,muzak.com,NL,Europe,Western Europe,Netherlands,North Holland,,Amsterdam
185.92.72.158,4,11,mvdpmr.org,NL,Europe,Western Europe,Netherlands,North Holland,,Amsterdam
178.18.139.153,4,2,mycom.nl,NL,Europe,Western Europe,Netherlands,North Holland,,Amsterdam
45.152.250.9,4,11,myconveyor.com,NL,Europe,Western Europe,Netherlands,North Holland,,Amsterdam
188.166.135.31,4,16,mycook.es,NL,Europe,Western Europe,Netherlands,North Holland,,Amsterdam
162.222.213.25,4,21,myeuropeandocs.com,NL,Europe,Western Europe,Netherlands,North Holland,,Amsterdam
78.140.185.139,4,15,mystampready.com,NL,Europe,Western Europe,Netherlands,North Holland,,Amsterdam
45.66.33.220,4,19,nadir.org,NL,Europe,Western Europe,Netherlands,North Holland,,Amsterdam
188.166.143.212,4,33,nationaalgeoregister.nl,NL,Europe,Western Europe,Netherlands,North Holland,,Amsterdam
134.209.136.208,4,189,national-team.top,NL,Europe,Western Europe,Netherlands,North Holland,,Amsterdam
95.179.143.30,4,2,nederlandsegokkasten.com,NL,Europe,Western Europe,Netherlands,North Holland,,Amsterdam
5.254.117.4,4,5,nederlandsemakelaarguardamar.nl,NL,Europe,Western Europe,Netherlands,North Holland,,Amsterdam
178.208.84.44,4,33,needguide.ru,NL,Europe,Western Europe,Netherlands,North Holland,,Amsterdam
159.65.201.209,4,6,nepc.gov.ng,NL,Europe,Western Europe,Netherlands,North Holland,,Amsterdam
167.71.65.129,4,9,netbeheernederland.nl,NL,Europe,Western Europe,Netherlands,North Holland,,Amsterdam
142.93.234.55,4,7,new-factoria.ru,NL,Europe,Western Europe,Netherlands,North Holland,,Amsterdam
185.197.160.8,4,5,newagestyle.net,NL,Europe,Western Europe,Netherlands,North Holland,,Amsterdam
194.145.209.194,4,33,newdigital-world.com,NL,Europe,Western Europe,Netherlands,North Holland,,Amsterdam
45.152.250.15,4,5,newstart.nl,NL,Europe,Western Europe,Netherlands,North Holland,,Amsterdam
136.244.109.113,4,3,ngp-ua.info,NL,Europe,Western Europe,Netherlands,North Holland,,Amsterdam
45.32.185.199,4,20,nightly.link,NL,Europe,Western Europe,Netherlands,North Holland,,Amsterdam
95.85.35.83,4,22,nightwish.com.ru,NL,Europe,Western Europe,Netherlands,North Holland,,Amsterdam
146.185.155.192,4,11,nikovit.ru,NL,Europe,Western Europe,Netherlands,North Holland,,Amsterdam
146.185.146.22,4,8,ninja-squad.com,NL,Europe,Western Europe,Netherlands,North Holland,,Amsterdam
178.62.236.80,4,5,nixers.net,NL,Europe,Western Europe,Netherlands,North Holland,,Amsterdam
194.5.132.46,4,6,nklnederland.nl,NL,Europe,Western Europe,Netherlands,North Holland,,Amsterdam
185.174.172.7,4,2,nodepositz.gg,NL,Europe,Western Europe,Netherlands,North Holland,,Amsterdam
167.71.69.14,4,29,nomadmania.com,NL,Europe,Western Europe,Netherlands,North Holland,,Amsterdam
31.24.250.31,4,6,nomoretax.eu,NL,Europe,Western Europe,Netherlands,North Holland,,Amsterdam
45.159.188.3,4,-120,nontoxicsolution.com,NL,Europe,Western Europe,Netherlands,North Holland,,Amsterdam
20.33.1.150,4,90,nordgen.org,NL,Europe,Western Europe,Netherlands,North Holland,,Amsterdam
31.24.250.2,4,36,novib.nl,NL,Europe,Western Europe,Netherlands,North Holland,,Amsterdam
82.94.221.15,4,3,nsg.nl,NL,Europe,Western Europe,Netherlands,North Holland,,Amsterdam
188.226.183.152,4,5,nsvv.nl,NL,Europe,Western Europe,Netherlands,North Holland,,Amsterdam
159.8.254.122,4,3,nul20.nl,NL,Europe,Western Europe,Netherlands,North Holland,,Amsterdam
94.142.246.90,4,10,nurdspace.nl,NL,Europe,Western Europe,Netherlands,North Holland,,Amsterdam
213.187.241.5,4,11,nuv.nl,NL,Europe,Western Europe,Netherlands,North Holland,,Amsterdam
188.166.98.134,4,4,nxt.org,NL,Europe,Western Europe,Netherlands,North Holland,,Amsterdam
159.65.193.205,4,12,nyartsmagazine.com,NL,Europe,Western Europe,Netherlands,North Holland,,Amsterdam
141.144.196.217,4,24,oa.com,NL,Europe,Western Europe,Netherlands,North Holland,,Amsterdam
178.62.218.206,4,8,oasejournal.nl,NL,Europe,Western Europe,Netherlands,North Holland,,Amsterdam
206.189.111.82,4,5,oatpp.io,NL,Europe,Western Europe,Netherlands,North Holland,,Amsterdam
81.91.178.41,4,493,oblako53.com,NL,Europe,Western Europe,Netherlands,North Holland,,Amsterdam
78.140.185.224,4,19,obzoroff.info,NL,Europe,Western Europe,Netherlands,North Holland,,Amsterdam
63.250.54.176,4,49,oeteldonk.org,NL,Europe,Western Europe,Netherlands,North Holland,,Amsterdam
5.79.83.53,4,59,offshore.su,NL,Europe,Western Europe,Netherlands,North Holland,,Amsterdam
107.6.167.188,4,-51,ogrecave.com,NL,Europe,Western Europe,Netherlands,North Holland,,Amsterdam
81.4.109.21,4,4,ohb.hu,NL,Europe,Western Europe,Netherlands,North Holland,,Amsterdam
95.179.138.6,4,18,oks.org.rs,NL,Europe,Western Europe,Netherlands,North Holland,,Amsterdam
185.92.220.234,4,51,oliehandel.nl,NL,Europe,Western Europe,Netherlands,North Holland,,Amsterdam
167.99.222.229,4,28,olorisupergal.com,NL,Europe,Western Europe,Netherlands,North Holland,,Amsterdam
81.91.178.100,4,18,omgssylka.com,NL,Europe,Western Europe,Netherlands,North Holland,,Amsterdam
194.5.132.199,4,16,omnius.nl,NL,Europe,Western Europe,Netherlands,North Holland,,Amsterdam
146.185.147.178,4,22,ondarossa.info,NL,Europe,Western Europe,Netherlands,North Holland,,Amsterdam
107.6.162.22,4,1058,ondarreta.com,NL,Europe,Western Europe,Netherlands,North Holland,,Amsterdam
20.101.93.221,4,31,ondernemers.com,NL,Europe,Western Europe,Netherlands,North Holland,,Amsterdam
94.237.44.28,4,535,onestepback.org,NL,Europe,Western Europe,Netherlands,North Holland,,Amsterdam
185.45.192.155,4,6,online-torg.club,NL,Europe,Western Europe,Netherlands,North Holland,,Amsterdam
91.184.51.74,4,32,onlinecasinos.tv,NL,Europe,Western Europe,Netherlands,North Holland,,Amsterdam
185.244.36.136,4,8,onlinegokkast.com,NL,Europe,Western Europe,Netherlands,North Holland,,Amsterdam
185.197.163.17,4,4,onlines.pro,NL,Europe,Western Europe,Netherlands,North Holland,,Amsterdam
185.85.210.115,4,-8646,onlineseminar.nl,NL,Europe,Western Europe,Netherlands,North Holland,,Amsterdam
5.254.117.211,4,20,onlinewebmailinloggen.nl,NL,Europe,Western Europe,Netherlands,North Holland,,Amsterdam
5.254.124.127,4,3,onnokleyn.nl,NL,Europe,Western Europe,Netherlands,North Holland,,Amsterdam
188.166.104.24,4,24,onomatopee.net,NL,Europe,Western Europe,Netherlands,North Holland,,Amsterdam
2.16.6.5,4,26,onthoutons.nl,NL,Europe,Western Europe,Netherlands,North Holland,,Amsterdam
2.16.6.7,4,37,onthoutons.nl,NL,Europe,Western Europe,Netherlands,North Holland,,Amsterdam
185.167.97.105,4,393109,Ookla Speedtest Server 11611: speedtest.eu.kamatera.com,NL,Europe,Western Europe,Netherlands,North Holland,,Amsterdam
194.127.172.176,4,350,Ookla Speedtest Server 35058: ams.speedtest.clouvider.net,NL,Europe,Western Europe,Netherlands,North Holland,,Amsterdam
194.59.142.202,4,424,Ookla Speedtest Server 37363: speedtest-ams.melbicom.net,NL,Europe,Western Europe,Netherlands,North Holland,,Amsterdam
2.56.165.3,4,157,Ookla Speedtest Server 54151: nl.speedtest.labixe.net,NL,Europe,Western Europe,Netherlands,North Holland,,Amsterdam
185.30.165.252,4,259,Ookla Speedtest Server 56545: speedtest-nl.hyperfilter.com,NL,Europe,Western Europe,Netherlands,North Holland,,Amsterdam
195.246.236.14,4,346,Ookla Speedtest Server 60959: speedtest.i4networks.nl,NL,Europe,Western Europe,Netherlands,North Holland,,Amsterdam
45.137.207.138,4,277,Ookla Speedtest Server 62363: speedtest.cotoax.com,NL,Europe,Western Europe,Netherlands,North Holland,,Amsterdam
178.249.153.42,4,-7816706,Ookla Speedtest Server: speedtest.a2b-internet.com,NL,Europe,Western Europe,Netherlands,North Holland,,Amsterdam
165.22.207.217,4,95,openphish.com,NL,Europe,Western Europe,Netherlands,North Holland,,Amsterdam
185.47.61.104,4,-178678,openrails.org,NL,Europe,Western Europe,Netherlands,North Holland,,Amsterdam
185.26.182.103,4,15,opera.com,NL,Europe,Western Europe,Netherlands,North Holland,,Amsterdam
185.26.182.104,4,2,opera.com,NL,Europe,Western Europe,Netherlands,North Holland,,Amsterdam
82.145.213.12,4,64,opera.news,NL,Europe,Western Europe,Netherlands,North Holland,,Amsterdam
185.26.182.94,4,23,operacdn.com,NL,Europe,Western Europe,Netherlands,North Holland,,Amsterdam
185.26.182.93,4,2,operacdn.com,NL,Europe,Western Europe,Netherlands,North Holland,,Amsterdam
185.26.182.106,4,2,operasoftware.com,NL,Europe,Western Europe,Netherlands,North Holland,,Amsterdam
185.26.182.118,4,4,operasoftware.com,NL,Europe,Western Europe,Netherlands,North Holland,,Amsterdam
82.145.213.6,4,16,opr.news,NL,Europe,Western Europe,Netherlands,North Holland,,Amsterdam
178.62.216.145,4,36,optiekmichielsen.be,NL,Europe,Western Europe,Netherlands,North Holland,,Amsterdam
94.237.44.91,4,1,optiphar.com,NL,Europe,Western Europe,Netherlands,North Holland,,Amsterdam
167.99.36.226,4,27,opwegnaarzes.nl,NL,Europe,Western Europe,Netherlands,North Holland,,Amsterdam
109.163.225.31,4,74,orfeokliniek.nl,NL,Europe,Western Europe,Netherlands,North Holland,,Amsterdam
146.190.234.21,4,50,orgi.biz,NL,Europe,Western Europe,Netherlands,North Holland,,Amsterdam
188.166.76.235,4,66,originality-diploma24.com,NL,Europe,Western Europe,Netherlands,North Holland,,Amsterdam
178.128.242.231,4,56,originality-diplomy.com,NL,Europe,Western Europe,Netherlands,North Holland,,Amsterdam
167.71.66.81,4,13,orthokliniek.com,NL,Europe,Western Europe,Netherlands,North Holland,,Amsterdam
178.208.83.51,4,9,orton.ru,NL,Europe,Western Europe,Netherlands,North Holland,,Amsterdam
145.100.96.70,4,15,os3.nl,NL,Europe,Western Europe,Netherlands,North Holland,,Amsterdam
159.65.202.135,4,22,ouderenfonds.nl,NL,Europe,Western Europe,Netherlands,North Holland,,Amsterdam
159.223.240.64,4,2,oudersenonderwijs.nl,NL,Europe,Western Europe,Netherlands,North Holland,,Amsterdam
178.62.249.222,4,53,oudolf.com,NL,Europe,Western Europe,Netherlands,North Holland,,Amsterdam
84.17.46.54,4,22,out.be,NL,Europe,Western Europe,Netherlands,North Holland,,Amsterdam
45.137.212.153,4,35,overbetting.ru,NL,Europe,Western Europe,Netherlands,North Holland,,Amsterdam
109.163.225.34,4,61,overbiedenhuis.nl,NL,Europe,Western Europe,Netherlands,North Holland,,Amsterdam
78.142.193.2,4,1,p.lu,NL,Europe,Western Europe,Netherlands,North Holland,,Amsterdam
146.185.148.189,4,213226,paladiny.ru,NL,Europe,Western Europe,Netherlands,North Holland,,Amsterdam
75.102.58.37,4,14020,para-que-sirve.es,NL,Europe,Western Europe,Netherlands,North Holland,,Amsterdam
194.5.132.7,4,42,paracentrumtexel.nl,NL,Europe,Western Europe,Netherlands,North Holland,,Amsterdam
82.196.6.102,4,44,paradigmpublishers.com,NL,Europe,Western Europe,Netherlands,North Holland,,Amsterdam
178.208.88.224,4,59,parnasse.ru,NL,Europe,Western Europe,Netherlands,North Holland,,Amsterdam
188.166.58.162,4,73,pasportaservo.org,NL,Europe,Western Europe,Netherlands,North Holland,,Amsterdam
88.119.170.16,4,47,patriotsalumni.com,NL,Europe,Western Europe,Netherlands,North Holland,,Amsterdam
178.62.213.65,4,6,paydro.com,NL,Europe,Western Europe,Netherlands,North Holland,,Amsterdam
173.236.16.88,4,12,pbdink.com,NL,Europe,Western Europe,Netherlands,North Holland,,Amsterdam
134.122.51.117,4,2,pc-tips.info,NL,Europe,Western Europe,Netherlands,North Holland,,Amsterdam
46.30.41.68,4,8,pea.ru,NL,Europe,Western Europe,Netherlands,North Holland,,Amsterdam
172.235.166.251,4,4,peergos.org,NL,Europe,Western Europe,Netherlands,North Holland,,Amsterdam
194.5.132.21,4,29,peinemann.nl,NL,Europe,Western Europe,Netherlands,North Holland,,Amsterdam
164.92.218.130,4,20,penatis.com,NL,Europe,Western Europe,Netherlands,North Holland,,Amsterdam
188.226.182.60,4,1470501,perepel.info,NL,Europe,Western Europe,Netherlands,North Holland,,Amsterdam
45.76.32.10,4,34,phonewear.fr,NL,Europe,Western Europe,Netherlands,North Holland,,Amsterdam
37.48.65.149,4,42,pianetabici.com,NL,Europe,Western Europe,Netherlands,North Holland,,Amsterdam
164.90.194.20,4,78,pickupliness.com,NL,Europe,Western Europe,Netherlands,North Holland,,Amsterdam
185.197.161.79,4,46,pidruchnyk.com.ua,NL,Europe,Western Europe,Netherlands,North Holland,,Amsterdam
5.149.255.200,4,106675,piter.fm,NL,Europe,Western Europe,Netherlands,North Holland,,Amsterdam
45.152.249.90,4,90,plaisierinterieur.nl,NL,Europe,Western Europe,Netherlands,North Holland,,Amsterdam
46.30.44.64,4,57,planetaseminarov.ru,NL,Europe,Western Europe,Netherlands,North Holland,,Amsterdam
178.62.129.111,4,305999,play.fm,NL,Europe,Western Europe,Netherlands,North Holland,,Amsterdam
81.91.178.61,4,11,playgame.casino,NL,Europe,Western Europe,Netherlands,North Holland,,Amsterdam
188.166.110.86,4,2098791,plazamayor.es,NL,Europe,Western Europe,Netherlands,North Holland,,Amsterdam
45.152.250.88,4,12,plukdenacht.nl,NL,Europe,Western Europe,Netherlands,North Holland,,Amsterdam
178.62.233.248,4,55,pocketearth.com,NL,Europe,Western Europe,Netherlands,North Holland,,Amsterdam
45.152.250.84,4,44,pocketinfo.nl,NL,Europe,Western Europe,Netherlands,North Holland,,Amsterdam
109.206.176.3,4,-11,poehali.net,NL,Europe,Western Europe,Netherlands,North Holland,,Amsterdam
188.226.140.5,4,12,pojo.me,NL,Europe,Western Europe,Netherlands,North Holland,,Amsterdam
167.99.16.215,4,68,pokeroff.ru,NL,Europe,Western Europe,Netherlands,North Holland,,Amsterdam
81.91.178.193,4,38,politexpert.net,NL,Europe,Western Europe,Netherlands,North Holland,,Amsterdam
194.5.132.30,4,17,polymetaal.nl,NL,Europe,Western Europe,Netherlands,North Holland,,Amsterdam
167.71.2.43,4,15,pomahejpohybem.cz,NL,Europe,Western Europe,Netherlands,North Holland,,Amsterdam
37.48.119.219,4,67,popeyemalta.com,NL,Europe,Western Europe,Netherlands,North Holland,,Amsterdam
198.20.125.109,4,445,popularsocialscience.com,NL,Europe,Western Europe,Netherlands,North Holland,,Amsterdam
164.92.145.27,4,19,powercell.se,NL,Europe,Western Europe,Netherlands,North Holland,,Amsterdam
46.30.43.158,4,52,premiera-news.ru,NL,Europe,Western Europe,Netherlands,North Holland,,Amsterdam
134.209.203.130,4,78,premiums-diploms.com,NL,Europe,Western Europe,Netherlands,North Holland,,Amsterdam
174.138.106.83,4,58,presidentsclimatecommitment.org,NL,Europe,Western Europe,Netherlands,North Holland,,Amsterdam
188.166.141.62,4,43,pressdigital.es,NL,Europe,Western Europe,Netherlands,North Holland,,Amsterdam
23.83.127.76,4,27,prmbw.com,NL,Europe,Western Europe,Netherlands,North Holland,,Amsterdam
62.106.66.21,4,25,profi-forex.org,NL,Europe,Western Europe,Netherlands,North Holland,,Amsterdam
77.238.238.99,4,31,prometej.info,NL,Europe,Western Europe,Netherlands,North Holland,,Amsterdam
188.166.131.75,4,55,promotie.nl,NL,Europe,Western Europe,Netherlands,North Holland,,Amsterdam
109.206.176.2,4,4,promwad.com,NL,Europe,Western Europe,Netherlands,North Holland,,Amsterdam
185.28.36.55,4,48,protectiondesoiseaux.be,NL,Europe,Western Europe,Netherlands,North Holland,,Amsterdam
37.48.117.238,4,221080,proud2bme.nl,NL,Europe,Western Europe,Netherlands,North Holland,,Amsterdam
107.6.166.154,4,-1952,proweb-hr.com,NL,Europe,Western Europe,Netherlands,North Holland,,Amsterdam
185.177.93.99,4,42,psm7.com,NL,Europe,Western Europe,Netherlands,North Holland,,Amsterdam
188.166.127.125,4,54,publicverdict.org,NL,Europe,Western Europe,Netherlands,North Holland,,Amsterdam
5.254.124.158,4,7,publiekdenken.nl,NL,Europe,Western Europe,Netherlands,North Holland,,Amsterdam
194.145.208.81,4,10,pulafilmfestival.hr,NL,Europe,Western Europe,Netherlands,North Holland,,Amsterdam
37.48.84.195,4,7,purmerend.nl,NL,Europe,Western Europe,Netherlands,North Holland,,Amsterdam
104.248.92.23,4,3,pvcase.com,NL,Europe,Western Europe,Netherlands,North Holland,,Amsterdam
46.30.44.61,4,2,pyjama-party.ru,NL,Europe,Western Europe,Netherlands,North Holland,,Amsterdam
94.237.7.14,4,4,pyzo.org,NL,Europe,Western Europe,Netherlands,North Holland,,Amsterdam
45.129.84.213,4,12,quantumaiplatform.com,NL,Europe,Western Europe,Netherlands,North Holland,,Amsterdam
185.14.187.28,4,15,question2answer.org,NL,Europe,Western Europe,Netherlands,North Holland,,Amsterdam
185.197.160.205,4,2,qwas.ru,NL,Europe,Western Europe,Netherlands,North Holland,,Amsterdam
64.227.70.118,4,4,qwic.nl,NL,Europe,Western Europe,Netherlands,North Holland,,Amsterdam
95.179.177.152,4,67,racedepartment.com,NL,Europe,Western Europe,Netherlands,North Holland,,Amsterdam
5.79.104.199,4,49,radicallyopensecurity.com,NL,Europe,Western Europe,Netherlands,North Holland,,Amsterdam
83.97.15.250,4,15,rai.nl,NL,Europe,Western Europe,Netherlands,North Holland,,Amsterdam
139.28.217.3,4,10,raidersfanteamshop.com,NL,Europe,Western Europe,Netherlands,North Holland,,Amsterdam
164.92.214.31,4,3,ramonsoler.net,NL,Europe,Western Europe,Netherlands,North Holland,,Amsterdam
153.92.127.158,4,24,rapalje.com,NL,Europe,Western Europe,Netherlands,North Holland,,Amsterdam
174.138.104.234,4,24,ravintola.fi,NL,Europe,Western Europe,Netherlands,North Holland,,Amsterdam
128.199.38.44,4,29,rawstudio.org,NL,Europe,Western Europe,Netherlands,North Holland,,Amsterdam
185.193.158.194,4,60,raymii.org,NL,Europe,Western Europe,Netherlands,North Holland,,Amsterdam
188.166.33.156,4,2,razborka1076.ru,NL,Europe,Western Europe,Netherlands,North Holland,,Amsterdam
167.71.7.143,4,3,rdiplomik24.com,NL,Europe,Western Europe,Netherlands,North Holland,,Amsterdam
198.20.111.117,4,1011,readwriteweb.es,NL,Europe,Western Europe,Netherlands,North Holland,,Amsterdam
2.18.121.29,4,59,recept.nu,NL,Europe,Western Europe,Netherlands,North Holland,,Amsterdam
75.102.57.234,4,257,rechargevodafone.co.uk,NL,Europe,Western Europe,Netherlands,North Holland,,Amsterdam
128.199.38.142,4,4,rechtswinkel.nl,NL,Europe,Western Europe,Netherlands,North Holland,,Amsterdam
161.35.153.53,4,23,reduxgaming.nl,NL,Europe,Western Europe,Netherlands,North Holland,,Amsterdam
95.142.100.124,4,4,reference-cannabis.com,NL,Europe,Western Europe,Netherlands,North Holland,,Amsterdam
188.166.73.164,4,45,reflexamsterdam.com,NL,Europe,Western Europe,Netherlands,North Holland,,Amsterdam
46.30.40.106,4,23,refvizit.ru,NL,Europe,Western Europe,Netherlands,North Holland,,Amsterdam
45.152.250.81,4,41,regioinbedrijf.nl,NL,Europe,Western Europe,Netherlands,North Holland,,Amsterdam
178.208.88.156,4,59,region-pages.ru,NL,Europe,Western Europe,Netherlands,North Holland,,Amsterdam
89.37.98.62,4,47,regiostedendriehoek.nl,NL,Europe,Western Europe,Netherlands,North Holland,,Amsterdam
63.250.54.58,4,56,regularlabs.com,NL,Europe,Western Europe,Netherlands,North Holland,,Amsterdam
37.48.104.197,4,35,reinhildebovendaerde.be,NL,Europe,Western Europe,Netherlands,North Holland,,Amsterdam
146.185.132.184,4,4931486,rekmob.com,NL,Europe,Western Europe,Netherlands,North Holland,,Amsterdam
37.48.65.154,4,14,reluctanthousedad.com,NL,Europe,Western Europe,Netherlands,North Holland,,Amsterdam
77.81.240.32,4,18,rentacar-bucharest.com,NL,Europe,Western Europe,Netherlands,North Holland,,Amsterdam
159.223.5.68,4,40,restaurantbarr.com,NL,Europe,Western Europe,Netherlands,North Holland,,Amsterdam
146.185.154.41,4,523,resto.ru,NL,Europe,Western Europe,Netherlands,North Holland,,Amsterdam
146.190.29.42,4,47,restya.com,NL,Europe,Western Europe,Netherlands,North Holland,,Amsterdam
188.166.29.165,4,18,revacure.nl,NL,Europe,Western Europe,Netherlands,North Holland,,Amsterdam
46.17.101.203,4,9,revirada.eu,NL,Europe,Western Europe,Netherlands,North Holland,,Amsterdam
188.226.135.199,4,11,revistaaral.com,NL,Europe,Western Europe,Netherlands,North Holland,,Amsterdam
206.189.107.202,4,13,revistacrisis.com.ar,NL,Europe,Western Europe,Netherlands,North Holland,,Amsterdam
62.204.66.132,4,8,richmagic.nl,NL,Europe,Western Europe,Netherlands,North Holland,,Amsterdam
80.65.96.112,4,6,rjsafety-security.nl,NL,Europe,Western Europe,Netherlands,North Holland,,Amsterdam
107.6.170.84,4,322,rlvision.com,NL,Europe,Western Europe,Netherlands,North Holland,,Amsterdam
142.93.142.225,4,3,ro-che.info,NL,Europe,Western Europe,Netherlands,North Holland,,Amsterdam
78.141.209.23,4,8,roarmag.org,NL,Europe,Western Europe,Netherlands,North Holland,,Amsterdam
198.20.106.242,4,-36,rockvillecentre.net,NL,Europe,Western Europe,Netherlands,North Holland,,Amsterdam
167.172.43.136,4,47,rodobogie.org,NL,Europe,Western Europe,Netherlands,North Holland,,Amsterdam
146.185.133.64,4,81,roodebioscoop.nl,NL,Europe,Western Europe,Netherlands,North Holland,,Amsterdam
185.229.225.179,4,63,rosariosis.org,NL,Europe,Western Europe,Netherlands,North Holland,,Amsterdam
188.166.134.159,4,51,rotary.nl,NL,Europe,Western Europe,Netherlands,North Holland,,Amsterdam
206.189.12.60,4,34,rotterdamzoo.nl,NL,Europe,Western Europe,Netherlands,North Holland,,Amsterdam
193.42.111.68,4,-4,routeandgo.net,NL,Europe,Western Europe,Netherlands,North Holland,,Amsterdam
134.209.198.1,4,37,rubberwebshop.nl,NL,Europe,Western Europe,Netherlands,North Holland,,Amsterdam
185.14.187.159,4,39,rubyguides.com,NL,Europe,Western Europe,Netherlands,North Holland,,Amsterdam
178.62.159.136,4,2636029,rufolder.ru,NL,Europe,Western Europe,Netherlands,North Holland,,Amsterdam
176.124.200.43,4,47,rus-crafting.ru,NL,Europe,Western Europe,Netherlands,North Holland,,Amsterdam
80.76.34.87,4,2,rus.net,NL,Europe,Western Europe,Netherlands,North Holland,,Amsterdam
95.85.61.83,4,4,rushkult.com,NL,Europe,Western Europe,Netherlands,North Holland,,Amsterdam
5.45.94.142,4,0,ruskinonovoe.net,NL,Europe,Western Europe,Netherlands,North Holland,,Amsterdam
81.91.178.192,4,40,russa24-diploms-srednee.com,NL,Europe,Western Europe,Netherlands,North Holland,,Amsterdam
178.62.244.152,4,2,rxvt.org,NL,Europe,Western Europe,Netherlands,North Holland,,Amsterdam
104.166.188.203,4,7,s-event.cn,NL,Europe,Western Europe,Netherlands,North Holland,,Amsterdam
104.166.188.204,4,22,s-event.cn,NL,Europe,Western Europe,Netherlands,North Holland,,Amsterdam
104.166.188.205,4,55,s-event.cn,NL,Europe,Western Europe,Netherlands,North Holland,,Amsterdam
5.254.124.205,4,3,sadhaka.nl,NL,Europe,Western Europe,Netherlands,North Holland,,Amsterdam
198.199.124.88,4,39,salesgids.com,NL,Europe,Western Europe,Netherlands,North Holland,,Amsterdam
107.6.182.115,4,5,samim.io,NL,Europe,Western Europe,Netherlands,North Holland,,Amsterdam
95.85.51.118,4,7,samorost3.net,NL,Europe,Western Europe,Netherlands,North Holland,,Amsterdam
185.193.158.218,4,15,samweber.biz,NL,Europe,Western Europe,Netherlands,North Holland,,Amsterdam
87.248.202.99,4,5,santepubliquefrance.fr,NL,Europe,Western Europe,Netherlands,North Holland,,Amsterdam
94.237.41.71,4,44,savannahbay.nl,NL,Europe,Western Europe,Netherlands,North Holland,,Amsterdam
161.35.152.47,4,3,saxon.co.za,NL,Europe,Western Europe,Netherlands,North Holland,,Amsterdam
188.166.67.178,4,21,sccode.org,NL,Europe,Western Europe,Netherlands,North Holland,,Amsterdam
109.163.225.8,4,99,schilderijen-site.nl,NL,Europe,Western Europe,Netherlands,North Holland,,Amsterdam
89.37.98.60,4,4,schouwburglochem.nl,NL,Europe,Western Europe,Netherlands,North Holland,,Amsterdam
45.136.49.207,4,1,scmilitarybases.com,NL,Europe,Western Europe,Netherlands,North Holland,,Amsterdam
45.152.249.8,4,27,screenforce.nl,NL,Europe,Western Europe,Netherlands,North Holland,,Amsterdam
94.100.31.83,4,2,screenrec.com,NL,Europe,Western Europe,Netherlands,North Holland,,Amsterdam
194.5.132.29,4,3,scripture4all.org,NL,Europe,Western Europe,Netherlands,North Holland,,Amsterdam
167.99.218.0,4,28,searchenginemap.com,NL,Europe,Western Europe,Netherlands,North Holland,,Amsterdam
94.237.47.212,4,5,secura.com,NL,Europe,Western Europe,Netherlands,North Holland,,Amsterdam
95.85.47.81,4,17,seecult.org,NL,Europe,Western Europe,Netherlands,North Holland,,Amsterdam
89.208.105.194,4,12,seed4.me,NL,Europe,Western Europe,Netherlands,North Holland,,Amsterdam
5.79.106.66,4,34,semki.biz,NL,Europe,Western Europe,Netherlands,North Holland,,Amsterdam
185.14.184.64,4,1294118,seonick.net,NL,Europe,Western Europe,Netherlands,North Holland,,Amsterdam
167.99.37.22,4,49,seorch.de,NL,Europe,Western Europe,Netherlands,North Holland,,Amsterdam
37.48.112.33,4,4,serenity925silver.com,NL,Europe,Western Europe,Netherlands,North Holland,,Amsterdam
185.197.161.81,4,18,seriousbit.com,NL,Europe,Western Europe,Netherlands,North Holland,,Amsterdam
209.38.36.24,4,25,server-attestats.com,NL,Europe,Western Europe,Netherlands,North Holland,,Amsterdam
107.6.184.180,4,963,servicom.es,NL,Europe,Western Europe,Netherlands,North Holland,,Amsterdam
5.254.39.28,4,3,sfeervolbuitenleven.nl,NL,Europe,Western Europe,Netherlands,North Holland,,Amsterdam
68.183.1.127,4,12,sfera.gr,NL,Europe,Western Europe,Netherlands,North Holland,,Amsterdam
5.252.118.27,4,5,sfy.ru,NL,Europe,Western Europe,Netherlands,North Holland,,Amsterdam
82.196.2.110,4,5,shalamov.ru,NL,Europe,Western Europe,Netherlands,North Holland,,Amsterdam
188.166.55.187,4,813017,shamaclinic.se,NL,Europe,Western Europe,Netherlands,North Holland,,Amsterdam
46.30.41.130,4,4,short-link.me,NL,Europe,Western Europe,Netherlands,North Holland,,Amsterdam
37.139.2.214,4,22,showcase.fm,NL,Europe,Western Europe,Netherlands,North Holland,,Amsterdam
109.206.180.226,4,2,sibirki1.ru,NL,Europe,Western Europe,Netherlands,North Holland,,Amsterdam
188.166.66.228,4,83,siea.sk,NL,Europe,Western Europe,Netherlands,North Holland,,Amsterdam
107.6.184.201,4,1311,significadodelcolor.com,NL,Europe,Western Europe,Netherlands,North Holland,,Amsterdam
75.102.57.102,4,430,significadosdenombres.net,NL,Europe,Western Europe,Netherlands,North Holland,,Amsterdam
178.62.220.80,4,709564,simbin.com,NL,Europe,Western Europe,Netherlands,North Holland,,Amsterdam
82.196.15.73,4,56,simidiplom.com,NL,Europe,Western Europe,Netherlands,North Holland,,Amsterdam
174.138.106.82,4,4,sinot.com,NL,Europe,Western Europe,Netherlands,North Holland,,Amsterdam
31.24.250.3,4,10,siteffect.be,NL,Europe,Western Europe,Netherlands,North Holland,,Amsterdam
94.142.241.187,4,8,sixxs.net,NL,Europe,Western Europe,Netherlands,North Holland,,Amsterdam
188.166.11.219,4,21,skge.nl,NL,Europe,Western Europe,Netherlands,North Holland,,Amsterdam
134.209.133.125,4,5,skutecnydarek.cz,NL,Europe,Western Europe,Netherlands,North Holland,,Amsterdam
46.30.40.102,4,2,skvngss.ru,NL,Europe,Western Europe,Netherlands,North Holland,,Amsterdam
45.152.250.20,4,15,slaapwijsheid.nl,NL,Europe,Western Europe,Netherlands,North Holland,,Amsterdam
178.208.84.153,4,20,sledopit.moscow,NL,Europe,Western Europe,Netherlands,North Holland,,Amsterdam
5.254.124.245,4,5,sleevy.nl,NL,Europe,Western Europe,Netherlands,North Holland,,Amsterdam
164.92.158.169,4,26,sloepdelen.nl,NL,Europe,Western Europe,Netherlands,North Holland,,Amsterdam
188.226.221.90,4,4,smaldone.com.ar,NL,Europe,Western Europe,Netherlands,North Holland,,Amsterdam
128.199.41.156,4,32,smalltownsupersound.com,NL,Europe,Western Europe,Netherlands,North Holland,,Amsterdam
178.128.243.238,4,18,snikket.org,NL,Europe,Western Europe,Netherlands,North Holland,,Amsterdam
146.185.143.101,4,3062,sobor.by,NL,Europe,Western Europe,Netherlands,North Holland,,Amsterdam
165.22.202.212,4,4,socialandloyal.com,NL,Europe,Western Europe,Netherlands,North Holland,,Amsterdam
185.233.184.14,4,14,softicons.com,NL,Europe,Western Europe,Netherlands,North Holland,,Amsterdam
164.92.148.234,4,30,sohf.nl,NL,Europe,Western Europe,Netherlands,North Holland,,Amsterdam
104.248.87.238,4,43,solarpowereurope.org,NL,Europe,Western Europe,Netherlands,North Holland,,Amsterdam
146.190.27.85,4,25,sollicitatiedokter.nl,NL,Europe,Western Europe,Netherlands,North Holland,,Amsterdam
31.42.177.223,4,864325,sonichu.com,NL,Europe,Western Europe,Netherlands,North Holland,,Amsterdam
37.48.73.193,4,50195,sortork.com,NL,Europe,Western Europe,Netherlands,North Holland,,Amsterdam
45.14.227.186,4,3,spaganeden.co.il,NL,Europe,Western Europe,Netherlands,North Holland,,Amsterdam
188.166.134.35,4,3,sparkleapp.com,NL,Europe,Western Europe,Netherlands,North Holland,,Amsterdam
80.65.96.113,4,57,speelzolder.com,NL,Europe,Western Europe,Netherlands,North Holland,,Amsterdam
52.174.164.233,4,8,speexx.com,NL,Europe,Western Europe,Netherlands,North Holland,,Amsterdam
206.189.2.120,4,6,spiderfan.org,NL,Europe,Western Europe,Netherlands,North Holland,,Amsterdam
185.126.34.27,4,4,spingalactic.com,NL,Europe,Western Europe,Netherlands,North Holland,,Amsterdam
198.20.110.242,4,1,spitispa.gr,NL,Europe,Western Europe,Netherlands,North Holland,,Amsterdam
195.226.194.32,4,2,splitoff48.ru,NL,Europe,Western Europe,Netherlands,North Holland,,Amsterdam
164.92.222.252,4,7,spoedklus.nl,NL,Europe,Western Europe,Netherlands,North Holland,,Amsterdam
167.172.32.225,4,1,spoilqueens.com,NL,Europe,Western Europe,Netherlands,North Holland,,Amsterdam
95.179.188.197,4,117,sportsbloggerne.dk,NL,Europe,Western Europe,Netherlands,North Holland,,Amsterdam
151.101.38.132,4,3,sportys.com,NL,Europe,Western Europe,Netherlands,North Holland,,Amsterdam
37.48.65.155,4,0,spybotupdates.com,NL,Europe,Western Europe,Netherlands,North Holland,,Amsterdam
185.52.224.2,4,3,squat.net,NL,Europe,Western Europe,Netherlands,North Holland,,Amsterdam
37.48.122.61,4,9,sshnuke.net,NL,Europe,Western Europe,Netherlands,North Holland,,Amsterdam
188.166.134.106,4,87,stampsy.com,NL,Europe,Western Europe,Netherlands,North Holland,,Amsterdam
174.138.105.248,4,36,stanleymilgram.com,NL,Europe,Western Europe,Netherlands,North Holland,,Amsterdam
159.223.14.234,4,54,start-life.nl,NL,Europe,Western Europe,Netherlands,North Holland,,Amsterdam
37.0.81.241,4,2,startpage.com,NL,Europe,Western Europe,Netherlands,North Holland,,Amsterdam
88.208.40.47,4,16,staticorra.com,NL,Europe,Western Europe,Netherlands,North Holland,,Amsterdam
208.69.112.39,4,105,staticorra.com,NL,Europe,Western Europe,Netherlands,North Holland,,Amsterdam
88.208.40.46,4,15,staticorra.com,NL,Europe,Western Europe,Netherlands,North Holland,,Amsterdam
178.128.242.128,4,16,stichtingplotsdoven.nl,NL,Europe,Western Europe,Netherlands,North Holland,,Amsterdam
109.163.225.23,4,23,stilus.nl,NL,Europe,Western Europe,Netherlands,North Holland,,Amsterdam
46.30.40.98,4,33,stiv.ru,NL,Europe,Western Europe,Netherlands,North Holland,,Amsterdam
108.61.198.127,4,7,stjoost.nl,NL,Europe,Western Europe,Netherlands,North Holland,,Amsterdam
167.172.36.195,4,31,stoit.nl,NL,Europe,Western Europe,Netherlands,North Holland,,Amsterdam
37.48.84.55,4,37,stoomstichting.nl,NL,Europe,Western Europe,Netherlands,North Holland,,Amsterdam
37.48.76.181,4,-7,stormmanagement.com,NL,Europe,Western Europe,Netherlands,North Holland,,Amsterdam
194.145.208.55,4,299,studenac.hr,NL,Europe,Western Europe,Netherlands,North Holland,,Amsterdam
161.35.87.138,4,30,studiodumbar.com,NL,Europe,Western Europe,Netherlands,North Holland,,Amsterdam
128.199.53.219,4,12,sulromanzo.it,NL,Europe,Western Europe,Netherlands,North Holland,,Amsterdam
37.139.8.182,4,46379,suncalc.net,NL,Europe,Western Europe,Netherlands,North Holland,,Amsterdam
82.196.3.41,4,17,supermarketartfair.com,NL,Europe,Western Europe,Netherlands,North Holland,,Amsterdam
159.223.11.91,4,50,sveinbjorn.org,NL,Europe,Western Europe,Netherlands,North Holland,,Amsterdam
37.48.87.45,4,26,sven.fi,NL,Europe,Western Europe,Netherlands,North Holland,,Amsterdam
159.223.235.188,4,3,sx-dlplomi24.com,NL,Europe,Western Europe,Netherlands,North Holland,,Amsterdam
79.133.180.127,4,8,syper-games.ru,NL,Europe,Western Europe,Netherlands,North Holland,,Amsterdam
188.166.84.40,4,10,syr-res.com,NL,Europe,Western Europe,Netherlands,North Holland,,Amsterdam
63.250.54.148,4,8,syriaair.com,NL,Europe,Western Europe,Netherlands,North Holland,,Amsterdam
5.254.117.208,4,49,tabletguide.nl,NL,Europe,Western Europe,Netherlands,North Holland,,Amsterdam
31.24.250.85,4,5,tafelsoefenen.nl,NL,Europe,Western Europe,Netherlands,North Holland,,Amsterdam
157.245.65.74,4,11,tailormadesuits.nl,NL,Europe,Western Europe,Netherlands,North Holland,,Amsterdam
94.142.244.34,4,4,tails.net,NL,Europe,Western Europe,Netherlands,North Holland,,Amsterdam
212.7.207.89,4,45,taksis.lv,NL,Europe,Western Europe,Netherlands,North Holland,,Amsterdam
178.62.162.23,4,1,tau.edu.tr,NL,Europe,Western Europe,Netherlands,North Holland,,Amsterdam
5.254.117.26,4,24,taxi-booking.eu,NL,Europe,Western Europe,Netherlands,North Holland,,Amsterdam
82.196.10.228,4,16,tbd.community,NL,Europe,Western Europe,Netherlands,North Holland,,Amsterdam
159.223.9.179,4,5,tccglobal.com,NL,Europe,Western Europe,Netherlands,North Holland,,Amsterdam
188.166.3.205,4,2632301,tdesktop.com,NL,Europe,Western Europe,Netherlands,North Holland,,Amsterdam
198.20.114.77,4,2519,teak.com,NL,Europe,Western Europe,Netherlands,North Holland,,Amsterdam
31.24.250.33,4,5,teak.nl,NL,Europe,Western Europe,Netherlands,North Holland,,Amsterdam
138.113.8.138,4,17,teamnovak.com,NL,Europe,Western Europe,Netherlands,North Holland,,Amsterdam
185.232.20.169,4,12,tearosediner.net,NL,Europe,Western Europe,Netherlands,North Holland,,Amsterdam
45.152.250.10,4,76,technischweekblad.nl,NL,Europe,Western Europe,Netherlands,North Holland,,Amsterdam
45.152.249.123,4,5,techpulse.be,NL,Europe,Western Europe,Netherlands,North Holland,,Amsterdam
188.166.7.54,4,33,techwiseblog.com,NL,Europe,Western Europe,Netherlands,North Holland,,Amsterdam
107.6.164.82,4,911,tecmopumps.com,NL,Europe,Western Europe,Netherlands,North Holland,,Amsterdam
75.102.58.72,4,1236,tecnicodental.es,NL,Europe,Western Europe,Netherlands,North Holland,,Amsterdam
178.208.75.43,4,32,tecrussia.ru,NL,Europe,Western Europe,Netherlands,North Holland,,Amsterdam
167.99.32.240,4,6,teh-diplom.ru,NL,Europe,Western Europe,Netherlands,North Holland,,Amsterdam
45.32.236.69,4,7,teknews.no,NL,Europe,Western Europe,Netherlands,North Holland,,Amsterdam
209.250.244.19,4,50,teknologitips.dk,NL,Europe,Western Europe,Netherlands,North Holland,,Amsterdam
147.45.135.50,4,4,teleprogramma.pro,NL,Europe,Western Europe,Netherlands,North Holland,,Amsterdam
107.6.186.26,4,-57,telin.nl,NL,Europe,Western Europe,Netherlands,North Holland,,Amsterdam
178.128.246.0,4,34,temok.com,NL,Europe,Western Europe,Netherlands,North Holland,,Amsterdam
46.30.40.99,4,9,tempdorstroy.ru,NL,Europe,Western Europe,Netherlands,North Holland,,Amsterdam
167.71.64.157,4,9,tenghome.net,NL,Europe,Western Europe,Netherlands,North Holland,,Amsterdam
194.87.216.191,4,49,teslablog.lv,NL,Europe,Western Europe,Netherlands,North Holland,,Amsterdam
172.233.47.73,4,13,test-ipv6.com,NL,Europe,Western Europe,Netherlands,North Holland,,Amsterdam
159.223.1.24,4,3,testdevlab.com,NL,Europe,Western Europe,Netherlands,North Holland,,Amsterdam
188.166.203.182,4,19,texifier.com,NL,Europe,Western Europe,Netherlands,North Holland,,Amsterdam
195.35.113.21,4,-9,theblackmoon.com,NL,Europe,Western Europe,Netherlands,North Holland,,Amsterdam
212.193.29.94,4,2,thecarguru.nl,NL,Europe,Western Europe,Netherlands,North Holland,,Amsterdam
45.14.225.191,4,3,theelegantgroupbd.com,NL,Europe,Western Europe,Netherlands,North Holland,,Amsterdam
146.185.129.107,4,12026,thegreenguide.nl,NL,Europe,Western Europe,Netherlands,North Holland,,Amsterdam
188.116.26.239,4,87,theinternetslots.com,NL,Europe,Western Europe,Netherlands,North Holland,,Amsterdam
128.199.46.211,4,17,thejackol.com,NL,Europe,Western Europe,Netherlands,North Holland,,Amsterdam
45.156.25.24,4,-31,thenewcode.com,NL,Europe,Western Europe,Netherlands,North Holland,,Amsterdam
134.90.146.118,4,15,theologie.nl,NL,Europe,Western Europe,Netherlands,North Holland,,Amsterdam
5.254.124.129,4,10,theovangogh.nl,NL,Europe,Western Europe,Netherlands,North Holland,,Amsterdam
217.195.153.10,4,4,thepoorman.net,NL,Europe,Western Europe,Netherlands,North Holland,,Amsterdam
212.193.29.140,4,13,thequantumai.app,NL,Europe,Western Europe,Netherlands,North Holland,,Amsterdam
107.6.151.38,4,26,thetemplebarpub.com,NL,Europe,Western Europe,Netherlands,North Holland,,Amsterdam
37.48.65.136,4,26,thevintagemom.com,NL,Europe,Western Europe,Netherlands,North Holland,,Amsterdam
37.48.123.218,4,35,thisisnotatrueending.com,NL,Europe,Western Europe,Netherlands,North Holland,,Amsterdam
151.101.37.171,4,44,thoughtbot.com,NL,Europe,Western Europe,Netherlands,North Holland,,Amsterdam
85.17.210.193,4,927,ticketforevent.com,NL,Europe,Western Europe,Netherlands,North Holland,,Amsterdam
75.102.57.214,4,5,tickety.es,NL,Europe,Western Europe,Netherlands,North Holland,,Amsterdam
198.211.125.40,4,47,tihv.org.tr,NL,Europe,Western Europe,Netherlands,North Holland,,Amsterdam
89.23.119.121,4,11,timeshola.ru,NL,Europe,Western Europe,Netherlands,North Holland,,Amsterdam
5.254.124.115,4,4,tmfweb.nl,NL,Europe,Western Europe,Netherlands,North Holland,,Amsterdam
188.166.143.41,4,3,todoebook.com,NL,Europe,Western Europe,Netherlands,North Holland,,Amsterdam
107.6.172.60,4,781,todotech20.com,NL,Europe,Western Europe,Netherlands,North Holland,,Amsterdam
206.189.1.166,4,1,toffeeshare.com,NL,Europe,Western Europe,Netherlands,North Holland,,Amsterdam
79.141.164.221,4,5,togrls.top,NL,Europe,Western Europe,Netherlands,North Holland,,Amsterdam
38.180.70.214,4,-701,topkasynoonline.com,NL,Europe,Western Europe,Netherlands,North Holland,,Amsterdam
45.152.249.9,4,4,topmovers.nl,NL,Europe,Western Europe,Netherlands,North Holland,,Amsterdam
75.102.58.43,4,14010,topografos.org,NL,Europe,Western Europe,Netherlands,North Holland,,Amsterdam
45.159.189.17,4,11,topshopads.com,NL,Europe,Western Europe,Netherlands,North Holland,,Amsterdam
75.102.57.229,4,233,toradoltab.online,NL,Europe,Western Europe,Netherlands,North Holland,,Amsterdam
37.139.15.59,4,6404083,traff.space,NL,Europe,Western Europe,Netherlands,North Holland,,Amsterdam
193.200.65.2,4,36,trafmag.com,NL,Europe,Western Europe,Netherlands,North Holland,,Amsterdam
193.42.110.208,4,39,travel-mania.org,NL,Europe,Western Europe,Netherlands,North Holland,,Amsterdam
31.24.250.37,4,33,travelhunter.nl,NL,Europe,Western Europe,Netherlands,North Holland,,Amsterdam
5.254.124.210,4,11,trending.nl,NL,Europe,Western Europe,Netherlands,North Holland,,Amsterdam
37.48.80.4,4,1,trendolizer.com,NL,Europe,Western Europe,Netherlands,North Holland,,Amsterdam
209.250.240.95,4,4,trevira.de,NL,Europe,Western Europe,Netherlands,North Holland,,Amsterdam
38.180.68.120,4,-1,truepillz.com,NL,Europe,Western Europe,Netherlands,North Holland,,Amsterdam
80.65.97.125,4,2,tsbouwvastgoed.nl,NL,Europe,Western Europe,Netherlands,North Holland,,Amsterdam
107.6.164.21,4,9,tuabogadosegundaoportunidad.es,NL,Europe,Western Europe,Netherlands,North Holland,,Amsterdam
104.110.240.171,4,15,tui.be,NL,Europe,Western Europe,Netherlands,North Holland,,Amsterdam
88.221.24.120,4,17,tui.nl,NL,Europe,Western Europe,Netherlands,North Holland,,Amsterdam
94.237.44.232,4,12,tuinseizoen.com,NL,Europe,Western Europe,Netherlands,North Holland,,Amsterdam
185.80.222.46,4,46,turisprime.com,NL,Europe,Western Europe,Netherlands,North Holland,,Amsterdam
193.42.111.143,4,39,turkish-tv-series.com,NL,Europe,Western Europe,Netherlands,North Holland,,Amsterdam
193.42.110.211,4,48,turkish-tv-series.tv,NL,Europe,Western Europe,Netherlands,North Holland,,Amsterdam
37.139.7.4,4,2339746,turkmedikal.net,NL,Europe,Western Europe,Netherlands,North Holland,,Amsterdam
159.223.13.74,4,2,turksoy.org,NL,Europe,Western Europe,Netherlands,North Holland,,Amsterdam
185.30.165.43,4,18,tuservermu.com.ve,NL,Europe,Western Europe,Netherlands,North Holland,,Amsterdam
75.102.57.201,4,1108,tuugo.com.mx,NL,Europe,Western Europe,Netherlands,North Holland,,Amsterdam
37.48.75.87,4,3,tvblik.nl,NL,Europe,Western Europe,Netherlands,North Holland,,Amsterdam
163.172.217.28,4,4,twrp.me,NL,Europe,Western Europe,Netherlands,North Holland,,Amsterdam
167.99.208.236,4,3,typofonderie.com,NL,Europe,Western Europe,Netherlands,North Holland,,Amsterdam
188.116.25.204,4,-1,uci-asa.com,NL,Europe,Western Europe,Netherlands,North Holland,,Amsterdam
75.102.57.166,4,1096,ucp.edu.pe,NL,Europe,Western Europe,Netherlands,North Holland,,Amsterdam
217.195.154.11,4,16,umeandthekids.com,NL,Europe,Western Europe,Netherlands,North Holland,,Amsterdam
193.42.111.50,4,15,unclutterapp.com,NL,Europe,Western Europe,Netherlands,North Holland,,Amsterdam
151.101.37.91,4,9,underarmour.nl,NL,Europe,Western Europe,Netherlands,North Holland,,Amsterdam
62.212.86.156,4,7,unfold.be,NL,Europe,Western Europe,Netherlands,North Holland,,Amsterdam
79.137.198.124,4,5,unicc.cx,NL,Europe,Western Europe,Netherlands,North Holland,,Amsterdam
87.255.53.242,4,4,unimev.fr,NL,Europe,Western Europe,Netherlands,North Holland,,Amsterdam
185.142.236.107,4,-21,unionasesoreslaborales.com,NL,Europe,Western Europe,Netherlands,North Holland,,Amsterdam
194.5.132.28,4,17,uniserver.nl,NL,Europe,Western Europe,Netherlands,North Holland,,Amsterdam
185.157.162.249,4,0,unsigned.io,NL,Europe,Western Europe,Netherlands,North Holland,,Amsterdam
80.85.139.220,4,2,uralbiennale.ru,NL,Europe,Western Europe,Netherlands,North Holland,,Amsterdam
194.37.81.106,4,3,us.ua,NL,Europe,Western Europe,Netherlands,North Holland,,Amsterdam
37.48.65.152,4,12,usaupload.net,NL,Europe,Western Europe,Netherlands,North Holland,,Amsterdam
80.240.129.54,4,4,usebox.net,NL,Europe,Western Europe,Netherlands,North Holland,,Amsterdam
95.179.129.35,4,20,userstyles.world,NL,Europe,Western Europe,Netherlands,North Holland,,Amsterdam
46.30.40.105,4,8,ustanovki-masla.ru,NL,Europe,Western Europe,Netherlands,North Holland,,Amsterdam
185.229.224.189,4,2,utopiaguide.pl,NL,Europe,Western Europe,Netherlands,North Holland,,Amsterdam
95.179.183.59,4,4,uugear.com,NL,Europe,Western Europe,Netherlands,North Holland,,Amsterdam
128.199.39.95,4,303413,uva-aias.net,NL,Europe,Western Europe,Netherlands,North Holland,,Amsterdam
45.152.249.2,4,18,vakantiefietser.nl,NL,Europe,Western Europe,Netherlands,North Holland,,Amsterdam
198.20.111.83,4,19,vallnord.com,NL,Europe,Western Europe,Netherlands,North Holland,,Amsterdam
45.152.250.64,4,6,vandenheuvelverlichting.nl,NL,Europe,Western Europe,Netherlands,North Holland,,Amsterdam
178.62.251.84,4,18,vaneebuitenspeelgoed.nl,NL,Europe,Western Europe,Netherlands,North Holland,,Amsterdam
94.142.246.159,4,34,vanheusden.com,NL,Europe,Western Europe,Netherlands,North Holland,,Amsterdam
13.95.6.12,4,3,vapiano.com,NL,Europe,Western Europe,Netherlands,North Holland,,Amsterdam
38.180.114.231,4,4,vavada-casino-reviews-uk.space,NL,Europe,Western Europe,Netherlands,North Holland,,Amsterdam
185.244.49.18,4,15,vavadas.pl,NL,Europe,Western Europe,Netherlands,North Holland,,Amsterdam
174.138.0.19,4,7,vdberk.nl,NL,Europe,Western Europe,Netherlands,North Holland,,Amsterdam
77.81.247.129,4,-55285,vdtruck.net,NL,Europe,Western Europe,Netherlands,North Holland,,Amsterdam
37.48.67.98,4,3,veganisme.org,NL,Europe,Western Europe,Netherlands,North Holland,,Amsterdam
178.208.83.52,4,18,velasat.ru,NL,Europe,Western Europe,Netherlands,North Holland,,Amsterdam
94.142.245.147,4,27,velomobiel.nl,NL,Europe,Western Europe,Netherlands,North Holland,,Amsterdam
89.37.98.61,4,3,veluwechalets.nl,NL,Europe,Western Europe,Netherlands,North Holland,,Amsterdam
167.172.32.148,4,49,vergelijkdirect.com,NL,Europe,Western Europe,Netherlands,North Holland,,Amsterdam
107.6.176.102,4,33,vernandnea.pl,NL,Europe,Western Europe,Netherlands,North Holland,,Amsterdam
178.208.83.31,4,26,verner-diet.ru,NL,Europe,Western Europe,Netherlands,North Holland,,Amsterdam
167.172.36.38,4,21,veronalabs.com,NL,Europe,Western Europe,Netherlands,North Holland,,Amsterdam
178.62.244.18,4,53,verpact.nl,NL,Europe,Western Europe,Netherlands,North Holland,,Amsterdam
94.237.44.148,4,1137,vertaalbureau-textwerk.nl,NL,Europe,Western Europe,Netherlands,North Holland,,Amsterdam
185.30.165.30,4,10,veterancheats.com,NL,Europe,Western Europe,Netherlands,North Holland,,Amsterdam
45.152.250.23,4,21,vetgezond.nl,NL,Europe,Western Europe,Netherlands,North Holland,,Amsterdam
107.6.161.242,4,18,vforveganista.com,NL,Europe,Western Europe,Netherlands,North Holland,,Amsterdam
84.17.46.49,4,17,vg-gaming.com,NL,Europe,Western Europe,Netherlands,North Holland,,Amsterdam
137.116.211.8,4,5,viagens.com.br,NL,Europe,Western Europe,Netherlands,North Holland,,Amsterdam
188.226.246.56,4,1,vicevi.rs,NL,Europe,Western Europe,Netherlands,North Holland,,Amsterdam
109.163.225.16,4,4,vict.nl,NL,Europe,Western Europe,Netherlands,North Holland,,Amsterdam
94.103.11.225,4,1,video-dom2.ru,NL,Europe,Western Europe,Netherlands,North Holland,,Amsterdam
94.75.226.218,4,-6,video-effects.ir,NL,Europe,Western Europe,Netherlands,North Holland,,Amsterdam
178.128.250.217,4,39,vidverto.io,NL,Europe,Western Europe,Netherlands,North Holland,,Amsterdam
209.250.251.112,4,4,vindecoder.eu,NL,Europe,Western Europe,Netherlands,North Holland,,Amsterdam
31.24.250.42,4,19,vinkacademy.nl,NL,Europe,Western Europe,Netherlands,North Holland,,Amsterdam
185.177.92.126,4,46,vinstant.pro,NL,Europe,Western Europe,Netherlands,North Holland,,Amsterdam
164.92.147.100,4,3,vipernews.com,NL,Europe,Western Europe,Netherlands,North Holland,,Amsterdam
178.208.91.140,4,14,vira-mebel.ru,NL,Europe,Western Europe,Netherlands,North Holland,,Amsterdam
134.209.136.114,4,38,virink.com,NL,Europe,Western Europe,Netherlands,North Holland,,Amsterdam
178.62.236.40,4,88,vis.ee,NL,Europe,Western Europe,Netherlands,North Holland,,Amsterdam
185.250.45.104,4,48,visacon.ru,NL,Europe,Western Europe,Netherlands,North Holland,,Amsterdam
64.225.74.194,4,64,vishee-legalno.com,NL,Europe,Western Europe,Netherlands,North Holland,,Amsterdam
109.163.225.66,4,62,visionex.nl,NL,Europe,Western Europe,Netherlands,North Holland,,Amsterdam
62.197.49.6,4,37,vne-dorog-chita.ru,NL,Europe,Western Europe,Netherlands,North Holland,,Amsterdam
5.254.117.204,4,49,voetbalstats.nl,NL,Europe,Western Europe,Netherlands,North Holland,,Amsterdam
185.83.218.108,4,7,volyn.net,NL,Europe,Western Europe,Netherlands,North Holland,,Amsterdam
95.179.186.24,4,3,vrbas.net,NL,Europe,Western Europe,Netherlands,North Holland,,Amsterdam
94.237.44.124,4,7,vuurwerkland.nl,NL,Europe,Western Europe,Netherlands,North Holland,,Amsterdam
198.20.104.206,4,11,vxcallgirls.com,NL,Europe,Western Europe,Netherlands,North Holland,,Amsterdam
75.102.57.103,4,401,wan-press.org,NL,Europe,Western Europe,Netherlands,North Holland,,Amsterdam
165.22.200.177,4,11,warentuin.nl,NL,Europe,Western Europe,Netherlands,North Holland,,Amsterdam
94.237.46.54,4,25,waterverzachteraquagroup.be,NL,Europe,Western Europe,Netherlands,North Holland,,Amsterdam
95.142.101.185,4,11,wattedoen.be,NL,Europe,Western Europe,Netherlands,North Holland,,Amsterdam
31.207.47.172,4,-1,wayray.com,NL,Europe,Western Europe,Netherlands,North Holland,,Amsterdam
37.48.65.143,4,2,wdrl.ca,NL,Europe,Western Europe,Netherlands,North Holland,,Amsterdam
37.139.21.148,4,22,wearewhatwedo.org,NL,Europe,Western Europe,Netherlands,North Holland,,Amsterdam
88.208.62.45,4,-231,web-malina.com,NL,Europe,Western Europe,Netherlands,North Holland,,Amsterdam
172.233.60.35,4,11,web.nl,NL,Europe,Western Europe,Netherlands,North Holland,,Amsterdam
45.152.250.11,4,35,webbouwenaandekeukentafel.nl,NL,Europe,Western Europe,Netherlands,North Holland,,Amsterdam
75.102.57.53,4,120,webdynamit.net,NL,Europe,Western Europe,Netherlands,North Holland,,Amsterdam
194.5.132.19,4,45,webkarpet.nl,NL,Europe,Western Europe,Netherlands,North Holland,,Amsterdam
95.142.98.212,4,31,weboke.nl,NL,Europe,Western Europe,Netherlands,North Holland,,Amsterdam
167.99.38.181,4,35,webrate.org,NL,Europe,Western Europe,Netherlands,North Holland,,Amsterdam
67.58.108.32,4,4,webzilla.com,NL,Europe,Western Europe,Netherlands,North Holland,,Amsterdam
45.152.249.121,4,5,weddings.nl,NL,Europe,Western Europe,Netherlands,North Holland,,Amsterdam
206.189.10.130,4,5,weidswonenenslapen.nl,NL,Europe,Western Europe,Netherlands,North Holland,,Amsterdam
194.5.132.172,4,5,wendyonline.nl,NL,Europe,Western Europe,Netherlands,North Holland,,Amsterdam
167.99.217.95,4,3,wereldmuseum.nl,NL,Europe,Western Europe,Netherlands,North Holland,,Amsterdam
45.152.250.86,4,44,werkeningelderland.nl,NL,Europe,Western Europe,Netherlands,North Holland,,Amsterdam
185.142.239.214,4,-31,westboxx.com,NL,Europe,Western Europe,Netherlands,North Holland,,Amsterdam
178.62.232.239,4,163,westbyte.com,NL,Europe,Western Europe,Netherlands,North Holland,,Amsterdam
88.208.46.182,4,0,westefy.com,NL,Europe,Western Europe,Netherlands,North Holland,,Amsterdam
45.152.250.24,4,6,wfm-igp.org,NL,Europe,Western Europe,Netherlands,North Holland,,Amsterdam
37.139.9.46,4,11,whogohost.com,NL,Europe,Western Europe,Netherlands,North Holland,,Amsterdam
172.233.38.245,4,17,whoisfreaks.com,NL,Europe,Western Europe,Netherlands,North Holland,,Amsterdam
37.75.153.18,4,41,wietforum.nl,NL,Europe,Western Europe,Netherlands,North Holland,,Amsterdam
198.199.127.59,4,1017583,wikispooks.com,NL,Europe,Western Europe,Netherlands,North Holland,,Amsterdam
95.85.25.98,4,877147,wikitranslators.org,NL,Europe,Western Europe,Netherlands,North Holland,,Amsterdam
45.83.234.184,4,15,wildebeest.org,NL,Europe,Western Europe,Netherlands,North Holland,,Amsterdam
185.92.222.135,4,32,willyschocolateexperience.com,NL,Europe,Western Europe,Netherlands,North Holland,,Amsterdam
193.42.111.140,4,30,windowslux.ru,NL,Europe,Western Europe,Netherlands,North Holland,,Amsterdam
94.237.47.246,4,2014,windtech-international.com,NL,Europe,Western Europe,Netherlands,North Holland,,Amsterdam
68.183.9.118,4,30,winesofportugal.com,NL,Europe,Western Europe,Netherlands,North Holland,,Amsterdam
87.255.42.8,4,13,winstuitjewoning.nl,NL,Europe,Western Europe,Netherlands,North Holland,,Amsterdam
109.163.225.32,4,22,wintelre.info,NL,Europe,Western Europe,Netherlands,North Holland,,Amsterdam
167.99.18.124,4,9,wisconsincheesetalk.com,NL,Europe,Western Europe,Netherlands,North Holland,,Amsterdam
151.101.36.95,4,4,wjso.com,NL,Europe,Western Europe,Netherlands,North Holland,,Amsterdam
193.181.179.198,4,9294,wk9.nl,NL,Europe,Western Europe,Netherlands,North Holland,,Amsterdam
185.233.184.88,4,14,wmj.su,NL,Europe,Western Europe,Netherlands,North Holland,,Amsterdam
38.180.116.48,4,0,womanmaniya.ru,NL,Europe,Western Europe,Netherlands,North Holland,,Amsterdam
45.137.212.62,4,6,womanzdorovie.ru,NL,Europe,Western Europe,Netherlands,North Holland,,Amsterdam
188.166.103.82,4,5,woning-ontruimingservice.nl,NL,Europe,Western Europe,Netherlands,North Holland,,Amsterdam
107.6.174.174,4,168,worldcircuit.co.uk,NL,Europe,Western Europe,Netherlands,North Holland,,Amsterdam
45.152.250.16,4,4,worldcleanupday.nl,NL,Europe,Western Europe,Netherlands,North Holland,,Amsterdam
198.20.96.140,4,1030,wowchakra.com,NL,Europe,Western Europe,Netherlands,North Holland,,Amsterdam
104.248.86.185,4,5,wwwhatsnew.com,NL,Europe,Western Europe,Netherlands,North Holland,,Amsterdam
104.248.88.18,4,1,x0r.be,NL,Europe,Western Europe,Netherlands,North Holland,,Amsterdam
146.185.167.60,4,4,x42.com,NL,Europe,Western Europe,Netherlands,North Holland,,Amsterdam
178.62.240.208,4,1,xboxic.com,NL,Europe,Western Europe,Netherlands,North Holland,,Amsterdam
45.152.249.113,4,11,xelion.com,NL,Europe,Western Europe,Netherlands,North Holland,,Amsterdam
104.156.136.8,4,0,xlx-owl.de,NL,Europe,Western Europe,Netherlands,North Holland,,Amsterdam
5.254.124.136,4,2,xlx870.nl,NL,Europe,Western Europe,Netherlands,North Holland,,Amsterdam
38.180.116.94,4,49,xn---125-43dbeaur0afbeca0ap0aun2g.xn--p1ai,NL,Europe,Western Europe,Netherlands,North Holland,,Amsterdam
5.79.100.28,4,103,xn--80aaa0a0avl4b6b.xn--p1ai,NL,Europe,Western Europe,Netherlands,North Holland,,Amsterdam
46.30.40.91,4,34,xn--80akjddcen.xn--80asehdb,NL,Europe,Western Europe,Netherlands,North Holland,,Amsterdam
178.208.75.202,4,105,xn--80aphc7d.xn--p1ai,NL,Europe,Western Europe,Netherlands,North Holland,,Amsterdam
95.179.133.136,4,3,xn--mltidsavisen-tcb.dk,NL,Europe,Western Europe,Netherlands,North Holland,,Amsterdam
45.32.234.22,4,32,xn--penganrdar-jcb.se,NL,Europe,Western Europe,Netherlands,North Holland,,Amsterdam
95.179.191.179,4,7,xn--penganrden-jcb.se,NL,Europe,Western Europe,Netherlands,North Holland,,Amsterdam
185.143.104.130,4,5,xos.nl,NL,Europe,Western Europe,Netherlands,North Holland,,Amsterdam
45.131.60.10,4,1,xrediptv.com,NL,Europe,Western Europe,Netherlands,North Holland,,Amsterdam
185.70.186.122,4,0,xrumersale.site,NL,Europe,Western Europe,Netherlands,North Holland,,Amsterdam
46.246.64.76,4,3,xtrfy.com,NL,Europe,Western Europe,Netherlands,North Holland,,Amsterdam
212.7.207.120,4,-3,xvid.com,NL,Europe,Western Europe,Netherlands,North Holland,,Amsterdam
206.189.111.46,4,9,yacht-transport.com,NL,Europe,Western Europe,Netherlands,North Holland,,Amsterdam
185.244.49.19,4,6,yagan2.com,NL,Europe,Western Europe,Netherlands,North Holland,,Amsterdam
77.238.235.101,4,2,yazzle.ru,NL,Europe,Western Europe,Netherlands,North Holland,,Amsterdam
109.163.225.36,4,5,yepmediagroup.com,NL,Europe,Western Europe,Netherlands,North Holland,,Amsterdam
107.6.152.20,4,1022,yobasket.es,NL,Europe,Western Europe,Netherlands,North Holland,,Amsterdam
82.94.226.104,4,4,yofrankie.org,NL,Europe,Western Europe,Netherlands,North Holland,,Amsterdam
212.7.201.71,4,1353,yogaindailylife.org,NL,Europe,Western Europe,Netherlands,North Holland,,Amsterdam
37.48.65.153,4,14,yourhairtrends.com,NL,Europe,Western Europe,Netherlands,North Holland,,Amsterdam
167.172.47.9,4,11,z24.nl,NL,Europe,Western Europe,Netherlands,North Holland,,Amsterdam
195.114.233.150,4,15,zaadhandelvanderwal.nl,NL,Europe,Western Europe,Netherlands,North Holland,,Amsterdam
81.91.178.150,4,14,zagrebelniy.ru,NL,Europe,Western Europe,Netherlands,North Holland,,Amsterdam
104.255.69.167,4,0,zaiqiang.com,NL,Europe,Western Europe,Netherlands,North Holland,,Amsterdam
185.233.184.189,4,3,zastroykaplus.ru,NL,Europe,Western Europe,Netherlands,North Holland,,Amsterdam
107.6.184.66,4,71,zazitmestojinak.cz,NL,Europe,Western Europe,Netherlands,North Holland,,Amsterdam
188.166.17.82,4,5,zbs.bet,NL,Europe,Western Europe,Netherlands,North Holland,,Amsterdam
165.232.86.192,4,20,zenvoautomotive.com,NL,Europe,Western Europe,Netherlands,North Holland,,Amsterdam
209.250.246.29,4,22,zimexapp.co.zw,NL,Europe,Western Europe,Netherlands,North Holland,,Amsterdam
185.174.172.74,4,3,zipsites.ru,NL,Europe,Western Europe,Netherlands,North Holland,,Amsterdam
188.166.83.141,4,5,ziptuning.nl,NL,Europe,Western Europe,Netherlands,North Holland,,Amsterdam
178.128.137.126,4,17,zitamar.com,NL,Europe,Western Europe,Netherlands,North Holland,,Amsterdam
107.6.182.139,4,1,znbc.co.zm,NL,Europe,Western Europe,Netherlands,North Holland,,Amsterdam
62.122.170.171,4,3,zoda.ru,NL,Europe,Western Europe,Netherlands,North Holland,,Amsterdam
88.221.24.171,4,20,zoma.to,NL,Europe,Western Europe,Netherlands,North Holland,,Amsterdam
88.221.24.194,4,6,zoma.to,NL,Europe,Western Europe,Netherlands,North Holland,,Amsterdam
45.152.250.2,4,6,zonecollege.nl,NL,Europe,Western Europe,Netherlands,North Holland,,Amsterdam
45.152.250.3,4,3,zoogdiervereniging.nl,NL,Europe,Western Europe,Netherlands,North Holland,,Amsterdam
84.17.46.53,4,3,zoonami.com,NL,Europe,Western Europe,Netherlands,North Holland,,Amsterdam
94.237.40.62,4,5,zorgboeren.nl,NL,Europe,Western Europe,Netherlands,North Holland,,Amsterdam
94.142.241.90,4,7,zsh.org,NL,Europe,Western Europe,Netherlands,North Holland,,Amsterdam
146.185.128.41,4,2,zurka.us,NL,Europe,Western Europe,Netherlands,North Holland,,Amsterdam
91.234.254.152,4,1847864,zytrax.com,NL,Europe,Western Europe,Netherlands,North Holland,,Amsterdam
