reflector_ip,ip_version,offset,description,country_code,region,sub_region,country_name,sub_division_1,sub_division_2,city
185.250.207.243,4,3,android-games-ar.com,NL,Europe,Western Europe,Netherlands,North Holland,,Oude Meer
212.86.115.243,4,117,antikeys.org,NL,Europe,Western Europe,Netherlands,North Holland,,Oude Meer
45.91.201.105,4,23,byrutor.com,NL,Europe,Western Europe,Netherlands,North Holland,,Oude Meer
185.244.219.235,4,4,cialisgf.com,NL,Europe,Western Europe,Netherlands,North Holland,,Oude Meer
185.244.219.84,4,26,clubbingbuy.net,NL,Europe,Western Europe,Netherlands,North Holland,,Oude Meer
212.86.115.85,4,0,crimea-board.net,NL,Europe,Western Europe,Netherlands,North Holland,,Oude Meer
178.159.43.33,4,59,diplomyx24.ru,NL,Europe,Western Europe,Netherlands,North Holland,,Oude Meer
91.201.25.124,4,21886,DNS Server: vm3904711.25ssd.had.wf,NL,Europe,Western Europe,Netherlands,North Holland,,Oude Meer
185.250.207.144,4,327,DoH server: ayman-dns.731my.com,NL,Europe,Western Europe,Netherlands,North Holland,,Oude Meer
185.237.165.191,4,6,nuclearno.ru,NL,Europe,Western Europe,Netherlands,North Holland,,Oude Meer
185.251.25.65,4,57,perila-vrn.ru,NL,Europe,Western Europe,Netherlands,North Holland,,Oude Meer
185.244.219.71,4,29,rarib.ag,NL,Europe,Western Europe,Netherlands,North Holland,,Oude Meer
193.3.168.132,4,2,slotsmegacasino.com,NL,Europe,Western Europe,Netherlands,North Holland,,Oude Meer
77.220.212.94,4,0,soundexpert.org,NL,Europe,Western Europe,Netherlands,North Holland,,Oude Meer
45.91.201.69,4,5,torrent-repack.club,NL,Europe,Western Europe,Netherlands,North Holland,,Oude Meer
185.250.207.51,4,25,torrmuzika.ru,NL,Europe,Western Europe,Netherlands,North Holland,,Oude Meer
77.220.213.129,4,2,viagrarover.com,NL,Europe,Western Europe,Netherlands,North Holland,,Oude Meer
185.209.21.48,4,-1,visionarynexst.com,NL,Europe,Western Europe,Netherlands,North Holland,,Oude Meer
62.233.53.74,4,2,vulkanrussia-pro.com,NL,Europe,Western Europe,Netherlands,North Holland,,Oude Meer
