reflector_ip,ip_version,offset,description,country_code,region,sub_region,country_name,sub_division_1,sub_division_2,city
154.59.122.74,4,11,acuityplatform.com,NL,Europe,Western Europe,Netherlands,North Holland,,Schiphol
95.101.74.103,4,12,almapbbdo.com.br,NL,Europe,Western Europe,Netherlands,North Holland,,Schiphol
23.0.213.207,4,86,autotrader.com,NL,Europe,Western Europe,Netherlands,North Holland,,Schiphol
95.101.74.119,4,11,bbdo.com,NL,Europe,Western Europe,Netherlands,North Holland,,Schiphol
95.101.74.75,4,20,bbdo.com,NL,Europe,Western Europe,Netherlands,North Holland,,Schiphol
95.101.74.212,4,12,bnn.ca,NL,Europe,Western Europe,Netherlands,North Holland,,Schiphol
95.101.74.213,4,32,bnn.ca,NL,Europe,Western Europe,Netherlands,North Holland,,Schiphol
23.207.112.175,4,8,boconline.co.uk,NL,Europe,Western Europe,Netherlands,North Holland,,Schiphol
23.2.221.227,4,10,bradfordexchangechecks.com,NL,Europe,Western Europe,Netherlands,North Holland,,Schiphol
23.209.236.141,4,15,brp.com,NL,Europe,Western Europe,Netherlands,North Holland,,Schiphol
23.2.219.234,4,27,coverme.com,NL,Europe,Western Europe,Netherlands,North Holland,,Schiphol
23.197.153.104,4,8,cpf.gov.sg,NL,Europe,Western Europe,Netherlands,North Holland,,Schiphol
95.101.74.74,4,42,credera.com,NL,Europe,Western Europe,Netherlands,North Holland,,Schiphol
95.101.74.43,4,8,deltaairbnb.com,NL,Europe,Western Europe,Netherlands,North Holland,,Schiphol
95.101.74.46,4,14,deltaairbnb.com,NL,Europe,Western Europe,Netherlands,North Holland,,Schiphol
95.101.74.57,4,11,deltastarbucks.com,NL,Europe,Western Europe,Netherlands,North Holland,,Schiphol
95.101.74.2,4,5,deltastarbucks.com,NL,Europe,Western Europe,Netherlands,North Holland,,Schiphol
95.101.74.7,4,9,deltavacations.com,NL,Europe,Western Europe,Netherlands,North Holland,,Schiphol
95.101.74.34,4,16,deltavacations.com,NL,Europe,Western Europe,Netherlands,North Holland,,Schiphol
2.22.54.168,4,9,dyn.com,NL,Europe,Western Europe,Netherlands,North Holland,,Schiphol
2.22.54.186,4,7,dyn.com,NL,Europe,Western Europe,Netherlands,North Holland,,Schiphol
95.101.74.35,4,9,ean.com,NL,Europe,Western Europe,Netherlands,North Holland,,Schiphol
95.101.74.52,4,11,ean.com,NL,Europe,Western Europe,Netherlands,North Holland,,Schiphol
23.207.112.89,4,32,econlowdown.org,NL,Europe,Western Europe,Netherlands,North Holland,,Schiphol
23.2.232.51,4,21,elobservatoriocetelem.es,NL,Europe,Western Europe,Netherlands,North Holland,,Schiphol
95.101.74.50,4,17,endeavorair.com,NL,Europe,Western Europe,Netherlands,North Holland,,Schiphol
95.101.74.27,4,24,endeavorair.com,NL,Europe,Western Europe,Netherlands,North Holland,,Schiphol
23.2.218.36,4,9,expedia.nl,NL,Europe,Western Europe,Netherlands,North Holland,,Schiphol
23.197.158.203,4,7,expediacruises.ca,NL,Europe,Western Europe,Netherlands,North Holland,,Schiphol
23.62.61.73,4,7,fdic.gov,NL,Europe,Western Europe,Netherlands,North Holland,,Schiphol
23.62.61.153,4,11,fdic.gov,NL,Europe,Western Europe,Netherlands,North Holland,,Schiphol
23.207.116.186,4,31,gatwickexpress.com,NL,Europe,Western Europe,Netherlands,North Holland,,Schiphol
95.101.74.92,4,15,gmrmarketing.com,NL,Europe,Western Europe,Netherlands,North Holland,,Schiphol
95.101.74.66,4,16,gmrmarketing.com,NL,Europe,Western Europe,Netherlands,North Holland,,Schiphol
23.0.251.222,4,35,hawaiianairlines.com.au,NL,Europe,Western Europe,Netherlands,North Holland,,Schiphol
95.101.74.107,4,11,hillstohome.com,NL,Europe,Western Europe,Netherlands,North Holland,,Schiphol
23.2.235.29,4,10,igoinsured.com,NL,Europe,Western Europe,Netherlands,North Holland,,Schiphol
95.101.74.3,4,16,ikea.co.il,NL,Europe,Western Europe,Netherlands,North Holland,,Schiphol
23.207.107.58,4,4,ikea.com,NL,Europe,Western Europe,Netherlands,North Holland,,Schiphol
95.101.74.211,4,11,ikea.de,NL,Europe,Western Europe,Netherlands,North Holland,,Schiphol
95.101.74.223,4,4,ikea.de,NL,Europe,Western Europe,Netherlands,North Holland,,Schiphol
95.101.74.205,4,11,ikea.today,NL,Europe,Western Europe,Netherlands,North Holland,,Schiphol
23.207.96.6,4,15,jacadi.us,NL,Europe,Western Europe,Netherlands,North Holland,,Schiphol
95.101.74.90,4,21,jennycraig.com,NL,Europe,Western Europe,Netherlands,North Holland,,Schiphol
173.223.113.210,4,63,joesnewbalanceoutlet.com,NL,Europe,Western Europe,Netherlands,North Holland,,Schiphol
95.101.74.17,4,8,joulesusa.com,NL,Europe,Western Europe,Netherlands,North Holland,,Schiphol
23.197.151.3,4,12,kelloggs.com,NL,Europe,Western Europe,Netherlands,North Holland,,Schiphol
23.209.238.34,4,15,kelloggsfamilyrewards.com,NL,Europe,Western Europe,Netherlands,North Holland,,Schiphol
173.223.116.118,4,13,lastminute.com.au,NL,Europe,Western Europe,Netherlands,North Holland,,Schiphol
95.101.74.99,4,21,leaguescup.com,NL,Europe,Western Europe,Netherlands,North Holland,,Schiphol
23.42.171.65,4,13,lindecanada.ca,NL,Europe,Western Europe,Netherlands,North Holland,,Schiphol
95.101.74.88,4,11,linkgroup.com,NL,Europe,Western Europe,Netherlands,North Holland,,Schiphol
95.101.74.9,4,7,made.com,NL,Europe,Western Europe,Netherlands,North Holland,,Schiphol
95.101.74.20,4,11,made.com,NL,Europe,Western Europe,Netherlands,North Holland,,Schiphol
23.207.119.70,4,40,mandarinoriental.co.jp,NL,Europe,Western Europe,Netherlands,North Holland,,Schiphol
95.101.74.108,4,19,manitoupontoonboats.com,NL,Europe,Western Europe,Netherlands,North Holland,,Schiphol
23.197.149.37,4,9,manulife.com,NL,Europe,Western Europe,Netherlands,North Holland,,Schiphol
95.101.74.153,4,52,manulife.com.vn,NL,Europe,Western Europe,Netherlands,North Holland,,Schiphol
95.101.74.138,4,23,manulife.com.vn,NL,Europe,Western Europe,Netherlands,North Holland,,Schiphol
95.101.74.110,4,70,mebank.com.au,NL,Europe,Western Europe,Netherlands,North Holland,,Schiphol
95.101.74.77,4,11,mega-image.ro,NL,Europe,Western Europe,Netherlands,North Holland,,Schiphol
95.101.74.115,4,7,nefit-bosch.nl,NL,Europe,Western Europe,Netherlands,North Holland,,Schiphol
95.101.74.91,4,11,nefit-bosch.nl,NL,Europe,Western Europe,Netherlands,North Holland,,Schiphol
95.101.74.69,4,55,newbalance.ca,NL,Europe,Western Europe,Netherlands,North Holland,,Schiphol
95.101.74.82,4,74,newbalance.com.au,NL,Europe,Western Europe,Netherlands,North Holland,,Schiphol
95.101.74.87,4,51,newbalance.com.au,NL,Europe,Western Europe,Netherlands,North Holland,,Schiphol
23.46.70.241,4,8,newbalance.fr,NL,Europe,Western Europe,Netherlands,North Holland,,Schiphol
95.101.74.73,4,18,newyorkredbulls.com,NL,Europe,Western Europe,Netherlands,North Holland,,Schiphol
95.101.74.55,4,12,next.us,NL,Europe,Western Europe,Netherlands,North Holland,,Schiphol
95.101.74.4,4,14,next.us,NL,Europe,Western Europe,Netherlands,North Holland,,Schiphol
23.209.238.217,4,5,nissanusa.com,NL,Europe,Western Europe,Netherlands,North Holland,,Schiphol
95.101.74.112,4,12,nordddb.com,NL,Europe,Western Europe,Netherlands,North Holland,,Schiphol
95.101.74.89,4,58,nordddb.com,NL,Europe,Western Europe,Netherlands,North Holland,,Schiphol
23.207.100.219,4,23,odpbusiness.com,NL,Europe,Western Europe,Netherlands,North Holland,,Schiphol
173.223.112.104,4,20,okaidi.com,NL,Europe,Western Europe,Netherlands,North Holland,,Schiphol
91.223.220.110,4,408,Ookla Speedtest Server 45549: speedtest.newsxs.nl,NL,Europe,Western Europe,Netherlands,North Holland,,Schiphol
95.101.74.72,4,39,organic.com,NL,Europe,Western Europe,Netherlands,North Holland,,Schiphol
95.101.74.100,4,50,organic.com,NL,Europe,Western Europe,Netherlands,North Holland,,Schiphol
95.101.74.85,4,34,portlandtimbers.com,NL,Europe,Western Europe,Netherlands,North Holland,,Schiphol
95.101.74.102,4,41,rapp.com,NL,Europe,Western Europe,Netherlands,North Holland,,Schiphol
95.101.74.78,4,31,rapp.com,NL,Europe,Western Europe,Netherlands,North Holland,,Schiphol
23.2.227.213,4,23,rbcinsurance.com,NL,Europe,Western Europe,Netherlands,North Holland,,Schiphol
23.207.120.181,4,19,rds.ca,NL,Europe,Western Europe,Netherlands,North Holland,,Schiphol
23.2.233.152,4,5,saxotrader.com,NL,Europe,Western Europe,Netherlands,North Holland,,Schiphol
95.101.74.106,4,13,scholastic.com,NL,Europe,Western Europe,Netherlands,North Holland,,Schiphol
95.101.74.97,4,35,ski-doo.com,NL,Europe,Western Europe,Netherlands,North Holland,,Schiphol
95.101.74.123,4,36,ski-doo.com,NL,Europe,Western Europe,Netherlands,North Holland,,Schiphol
95.101.74.113,4,36,socotec.fr,NL,Europe,Western Europe,Netherlands,North Holland,,Schiphol
95.101.74.109,4,30,socotec.fr,NL,Europe,Western Europe,Netherlands,North Holland,,Schiphol
23.42.161.239,4,15,sonypictures.com,NL,Europe,Western Europe,Netherlands,North Holland,,Schiphol
173.223.113.244,4,24,southbeachdiet.com,NL,Europe,Western Europe,Netherlands,North Holland,,Schiphol
23.76.204.144,4,10,teachingenglish.org.uk,NL,Europe,Western Europe,Netherlands,North Holland,,Schiphol
23.76.204.137,4,49,teachingenglish.org.uk,NL,Europe,Western Europe,Netherlands,North Holland,,Schiphol
23.76.204.149,4,59,terramater.at,NL,Europe,Western Europe,Netherlands,North Holland,,Schiphol
23.76.204.157,4,3,terramater.at,NL,Europe,Western Europe,Netherlands,North Holland,,Schiphol
23.209.235.207,4,8,tesco-careers.com,NL,Europe,Western Europe,Netherlands,North Holland,,Schiphol
23.209.237.72,4,8,tesco.co.uk,NL,Europe,Western Europe,Netherlands,North Holland,,Schiphol
173.223.117.158,4,22,tesco.com,NL,Europe,Western Europe,Netherlands,North Holland,,Schiphol
23.2.232.71,4,46,tesco.ie,NL,Europe,Western Europe,Netherlands,North Holland,,Schiphol
23.2.218.58,4,57,tesco.sk,NL,Europe,Western Europe,Netherlands,North Holland,,Schiphol
95.101.74.105,4,8,tescobank.com,NL,Europe,Western Europe,Netherlands,North Holland,,Schiphol
95.101.74.118,4,8,tescobank.com,NL,Europe,Western Europe,Netherlands,North Holland,,Schiphol
23.2.212.68,4,8,tescomobile.ie,NL,Europe,Western Europe,Netherlands,North Holland,,Schiphol
95.101.74.122,4,15,the-linde-group.com,NL,Europe,Western Europe,Netherlands,North Holland,,Schiphol
23.197.148.78,4,11,thecapitalgroup.com,NL,Europe,Western Europe,Netherlands,North Holland,,Schiphol
95.101.74.10,4,11,tred.com,NL,Europe,Western Europe,Netherlands,North Holland,,Schiphol
95.101.74.24,4,20,tred.com,NL,Europe,Western Europe,Netherlands,North Holland,,Schiphol
95.101.74.67,4,16,tui.co.uk,NL,Europe,Western Europe,Netherlands,North Holland,,Schiphol
95.101.74.68,4,11,tui.co.uk,NL,Europe,Western Europe,Netherlands,North Holland,,Schiphol
23.62.61.107,4,15,unicreditbank.hu,NL,Europe,Western Europe,Netherlands,North Holland,,Schiphol
23.62.61.176,4,3,unicreditbank.hu,NL,Europe,Western Europe,Netherlands,North Holland,,Schiphol
95.101.74.80,4,9,venom.movie,NL,Europe,Western Europe,Netherlands,North Holland,,Schiphol
95.101.74.117,4,10,venom.movie,NL,Europe,Western Europe,Netherlands,North Holland,,Schiphol
23.58.115.68,4,34,veritas.com,NL,Europe,Western Europe,Netherlands,North Holland,,Schiphol
23.207.97.111,4,12,viking.de,NL,Europe,Western Europe,Netherlands,North Holland,,Schiphol
23.42.162.2,4,17,walmart.com.mx,NL,Europe,Western Europe,Netherlands,North Holland,,Schiphol
23.197.156.163,4,10,walmartethics.com,NL,Europe,Western Europe,Netherlands,North Holland,,Schiphol
23.209.239.113,4,10,web-japan.org,NL,Europe,Western Europe,Netherlands,North Holland,,Schiphol
2.18.244.75,4,37,whitecase.com,NL,Europe,Western Europe,Netherlands,North Holland,,Schiphol
2.18.244.80,4,34,whitecase.com,NL,Europe,Western Europe,Netherlands,North Holland,,Schiphol
