reflector_ip,ip_version,offset,description,country_code,region,sub_region,country_name,sub_division_1,sub_division_2,city
194.195.251.41,4,3,11inchpizza.com.au,AU,Oceania,Australia and New Zealand,Australia,New South Wales,,Sydney
43.250.142.135,4,-8,2aussietravellers.com,AU,Oceania,Australia and New Zealand,Australia,New South Wales,,Sydney
103.73.64.3,4,184,aacm.edu.au,AU,Oceania,Australia and New Zealand,Australia,New South Wales,,Sydney
112.213.37.154,4,135,abmission.org,AU,Oceania,Australia and New Zealand,Australia,New South Wales,,Sydney
45.79.118.8,4,-6,abstractspoon.com,AU,Oceania,Australia and New Zealand,Australia,New South Wales,,Sydney
43.250.142.14,4,-12,academia21.com,AU,Oceania,Australia and New Zealand,Australia,New South Wales,,Sydney
221.121.145.90,4,2806,accomnews.com.au,AU,Oceania,Australia and New Zealand,Australia,New South Wales,,Sydney
103.1.184.54,4,-1,accorplus.com,AU,Oceania,Australia and New Zealand,Australia,New South Wales,,Sydney
101.0.107.30,4,16,acf.asn.au,AU,Oceania,Australia and New Zealand,Australia,New South Wales,,Sydney
101.0.115.138,4,8,acon.org.au,AU,Oceania,Australia and New Zealand,Australia,New South Wales,,Sydney
13.236.97.190,4,4,adelaidefringe.com.au,AU,Oceania,Australia and New Zealand,Australia,New South Wales,,Sydney
54.252.36.105,4,4,adelaidefringe.com.au,AU,Oceania,Australia and New Zealand,Australia,New South Wales,,Sydney
13.210.221.213,4,7,adelaidefringe.com.au,AU,Oceania,Australia and New Zealand,Australia,New South Wales,,Sydney
45.32.189.121,4,10,adelaidehillswine.com.au,AU,Oceania,Australia and New Zealand,Australia,New South Wales,,Sydney
43.250.142.25,4,-8,adonline.id.au,AU,Oceania,Australia and New Zealand,Australia,New South Wales,,Sydney
112.213.34.123,4,-14,aeva.asn.au,AU,Oceania,Australia and New Zealand,Australia,New South Wales,,Sydney
43.250.142.50,4,-12,afao.org.au,AU,Oceania,Australia and New Zealand,Australia,New South Wales,,Sydney
43.250.142.143,4,-9,afdo.org.au,AU,Oceania,Australia and New Zealand,Australia,New South Wales,,Sydney
103.100.39.13,4,-36,ahha.asn.au,AU,Oceania,Australia and New Zealand,Australia,New South Wales,,Sydney
101.0.96.126,4,16,aintreeco.com,AU,Oceania,Australia and New Zealand,Australia,New South Wales,,Sydney
175.45.181.109,4,-3,aips.net.au,AU,Oceania,Australia and New Zealand,Australia,New South Wales,,Sydney
103.27.35.119,4,-5,ajp.com.au,AU,Oceania,Australia and New Zealand,Australia,New South Wales,,Sydney
103.27.34.42,4,-13,alicespringsnews.com.au,AU,Oceania,Australia and New Zealand,Australia,New South Wales,,Sydney
43.250.140.24,4,-9,allaboardseafoods.com.au,AU,Oceania,Australia and New Zealand,Australia,New South Wales,,Sydney
43.250.142.84,4,-8,allcoinvalues.com,AU,Oceania,Australia and New Zealand,Australia,New South Wales,,Sydney
117.120.11.113,4,-26,alor.org,AU,Oceania,Australia and New Zealand,Australia,New South Wales,,Sydney
43.250.142.77,4,-10,amazingcarbon.com,AU,Oceania,Australia and New Zealand,Australia,New South Wales,,Sydney
20.92.129.82,4,56554,ambertech.com.au,AU,Oceania,Australia and New Zealand,Australia,New South Wales,,Sydney
20.213.104.22,4,7,ami.org.au,AU,Oceania,Australia and New Zealand,Australia,New South Wales,,Sydney
43.250.140.35,4,-15,amphibianark.org,AU,Oceania,Australia and New Zealand,Australia,New South Wales,,Sydney
43.250.140.34,4,-14,amz.edu.au,AU,Oceania,Australia and New Zealand,Australia,New South Wales,,Sydney
101.0.120.4,4,13,anchor.com.au,AU,Oceania,Australia and New Zealand,Australia,New South Wales,,Sydney
103.27.32.32,4,-7,andromedaspaceways.com,AU,Oceania,Australia and New Zealand,Australia,New South Wales,,Sydney
172.105.255.140,4,-5,angelamaiers.com,AU,Oceania,Australia and New Zealand,Australia,New South Wales,,Sydney
103.27.32.38,4,-8,angelsghosts.com,AU,Oceania,Australia and New Zealand,Australia,New South Wales,,Sydney
203.98.95.20,4,12,angusandjuliastone.com,AU,Oceania,Australia and New Zealand,Australia,New South Wales,,Sydney
101.0.111.70,4,4,anmj.org.au,AU,Oceania,Australia and New Zealand,Australia,New South Wales,,Sydney
54.66.112.172,4,8,apac-accreditation.org,AU,Oceania,Australia and New Zealand,Australia,New South Wales,,Sydney
54.66.163.114,4,5,apac-accreditation.org,AU,Oceania,Australia and New Zealand,Australia,New South Wales,,Sydney
54.206.37.91,4,4,apac-accreditation.org,AU,Oceania,Australia and New Zealand,Australia,New South Wales,,Sydney
54.253.185.186,4,51,arboristreportsaustralia.com.au,AU,Oceania,Australia and New Zealand,Australia,New South Wales,,Sydney
203.98.95.167,4,11,archermagazine.com.au,AU,Oceania,Australia and New Zealand,Australia,New South Wales,,Sydney
103.27.32.40,4,7,arena.gov.au,AU,Oceania,Australia and New Zealand,Australia,New South Wales,,Sydney
13.54.220.184,4,9,asa.co.nz,AU,Oceania,Australia and New Zealand,Australia,New South Wales,,Sydney
52.62.34.188,4,7,asa.co.nz,AU,Oceania,Australia and New Zealand,Australia,New South Wales,,Sydney
13.237.209.121,4,9,asa.co.nz,AU,Oceania,Australia and New Zealand,Australia,New South Wales,,Sydney
150.107.72.185,4,144,asahi.com.au,AU,Oceania,Australia and New Zealand,Australia,New South Wales,,Sydney
172.105.189.205,4,5,asianinspirations.com.au,AU,Oceania,Australia and New Zealand,Australia,New South Wales,,Sydney
149.28.174.8,4,8,assda.asn.au,AU,Oceania,Australia and New Zealand,Australia,New South Wales,,Sydney
13.210.68.209,4,5,assignmentachievers.com,AU,Oceania,Australia and New Zealand,Australia,New South Wales,,Sydney
45.63.26.218,4,6,assignmenthelppro.com,AU,Oceania,Australia and New Zealand,Australia,New South Wales,,Sydney
170.64.204.92,4,16,asta.edu.au,AU,Oceania,Australia and New Zealand,Australia,New South Wales,,Sydney
103.27.34.113,4,32,astortheatre.net.au,AU,Oceania,Australia and New Zealand,Australia,New South Wales,,Sydney
103.18.108.174,4,1020,astra.org.au,AU,Oceania,Australia and New Zealand,Australia,New South Wales,,Sydney
103.27.32.21,4,-13,asum.com.au,AU,Oceania,Australia and New Zealand,Australia,New South Wales,,Sydney
45.63.31.140,4,19,atms.com.au,AU,Oceania,Australia and New Zealand,Australia,New South Wales,,Sydney
43.250.140.40,4,18,attwoodmarshall.com.au,AU,Oceania,Australia and New Zealand,Australia,New South Wales,,Sydney
139.99.247.189,4,13,aubiz.net,AU,Oceania,Australia and New Zealand,Australia,New South Wales,,Sydney
172.105.178.17,4,-3,auctionfinder.com.au,AU,Oceania,Australia and New Zealand,Australia,New South Wales,,Sydney
108.61.184.230,4,57,aupropertyreport.com,AU,Oceania,Australia and New Zealand,Australia,New South Wales,,Sydney
103.27.34.14,4,19,aus300zx.com,AU,Oceania,Australia and New Zealand,Australia,New South Wales,,Sydney
103.119.110.116,4,27,ausfoodnews.com.au,AU,Oceania,Australia and New Zealand,Australia,New South Wales,,Sydney
101.0.108.58,4,1,ausleisure.com.au,AU,Oceania,Australia and New Zealand,Australia,New South Wales,,Sydney
52.64.253.45,4,5,ausmed.com.au,AU,Oceania,Australia and New Zealand,Australia,New South Wales,,Sydney
54.66.49.142,4,19,ausmed.com.au,AU,Oceania,Australia and New Zealand,Australia,New South Wales,,Sydney
3.24.71.130,4,47,ausmed.com.au,AU,Oceania,Australia and New Zealand,Australia,New South Wales,,Sydney
101.0.103.154,4,21,aussiechildcarenetwork.com.au,AU,Oceania,Australia and New Zealand,Australia,New South Wales,,Sydney
103.27.34.22,4,-13,aussiehealthproducts.com.au,AU,Oceania,Australia and New Zealand,Australia,New South Wales,,Sydney
192.250.232.24,4,16,australiachinarelations.org,AU,Oceania,Australia and New Zealand,Australia,New South Wales,,Sydney
43.250.141.74,4,6,australianbookreview.com.au,AU,Oceania,Australia and New Zealand,Australia,New South Wales,,Sydney
45.76.117.172,4,4,australianmarriageequality.org,AU,Oceania,Australia and New Zealand,Australia,New South Wales,,Sydney
43.250.142.90,4,26,australianmodern.com.au,AU,Oceania,Australia and New Zealand,Australia,New South Wales,,Sydney
202.37.74.45,4,5,australiannaturaltherapistsassociation.com.au,AU,Oceania,Australia and New Zealand,Australia,New South Wales,,Sydney
103.27.34.114,4,10,australianplays.org,AU,Oceania,Australia and New Zealand,Australia,New South Wales,,Sydney
43.250.142.130,4,-10,australwright.com.au,AU,Oceania,Australia and New Zealand,Australia,New South Wales,,Sydney
203.96.176.111,4,35,aviationmuseum.com.au,AU,Oceania,Australia and New Zealand,Australia,New South Wales,,Sydney
43.250.142.116,4,-8,awardsaustralia.com,AU,Oceania,Australia and New Zealand,Australia,New South Wales,,Sydney
45.76.119.249,4,-1,awlnsw.com.au,AU,Oceania,Australia and New Zealand,Australia,New South Wales,,Sydney
13.236.115.147,4,7,bakersdelight.com.au,AU,Oceania,Australia and New Zealand,Australia,New South Wales,,Sydney
103.27.35.243,4,39,bandtshirts.com.au,AU,Oceania,Australia and New Zealand,Australia,New South Wales,,Sydney
34.116.115.104,4,5,batchelor.edu.au,AU,Oceania,Australia and New Zealand,Australia,New South Wales,,Sydney
43.250.140.43,4,-7,bcec.edu.au,AU,Oceania,Australia and New Zealand,Australia,New South Wales,,Sydney
35.213.226.121,4,2,beachsafe.org.au,AU,Oceania,Australia and New Zealand,Australia,New South Wales,,Sydney
103.27.32.2,4,-9,beauticate.com,AU,Oceania,Australia and New Zealand,Australia,New South Wales,,Sydney
101.0.118.3,4,8,behindthebay.com.au,AU,Oceania,Australia and New Zealand,Australia,New South Wales,,Sydney
221.121.138.138,4,-30,berry.org.au,AU,Oceania,Australia and New Zealand,Australia,New South Wales,,Sydney
43.250.140.15,4,-8,bigvolcano.com.au,AU,Oceania,Australia and New Zealand,Australia,New South Wales,,Sydney
203.98.95.61,4,9,billings.life,AU,Oceania,Australia and New Zealand,Australia,New South Wales,,Sydney
27.50.92.137,4,-28,bodyimagemovement.com,AU,Oceania,Australia and New Zealand,Australia,New South Wales,,Sydney
143.42.36.54,4,1,booko.com.au,AU,Oceania,Australia and New Zealand,Australia,New South Wales,,Sydney
103.27.32.33,4,-4,boomerangbags.org,AU,Oceania,Australia and New Zealand,Australia,New South Wales,,Sydney
149.28.169.183,4,46,boredofstudies.org,AU,Oceania,Australia and New Zealand,Australia,New South Wales,,Sydney
149.28.166.166,4,-12,boyter.org,AU,Oceania,Australia and New Zealand,Australia,New South Wales,,Sydney
27.50.93.167,4,-2657,bq.org.au,AU,Oceania,Australia and New Zealand,Australia,New South Wales,,Sydney
13.236.194.134,4,6,brandingexperts.com.au,AU,Oceania,Australia and New Zealand,Australia,New South Wales,,Sydney
103.25.59.58,4,6,buggybuddys.com.au,AU,Oceania,Australia and New Zealand,Australia,New South Wales,,Sydney
27.50.80.111,4,-17,business2sell.com.au,AU,Oceania,Australia and New Zealand,Australia,New South Wales,,Sydney
101.0.100.121,4,12,c-conf.com,AU,Oceania,Australia and New Zealand,Australia,New South Wales,,Sydney
43.250.142.132,4,-16,caama.com.au,AU,Oceania,Australia and New Zealand,Australia,New South Wales,,Sydney
45.77.48.202,4,7,cadence.moe,AU,Oceania,Australia and New Zealand,Australia,New South Wales,,Sydney
54.252.32.131,4,12,cairnsartgallery.com.au,AU,Oceania,Australia and New Zealand,Australia,New South Wales,,Sydney
52.63.32.79,4,5,cairnsattractions.com.au,AU,Oceania,Australia and New Zealand,Australia,New South Wales,,Sydney
3.105.14.37,4,11,cairnsconnect.com,AU,Oceania,Australia and New Zealand,Australia,New South Wales,,Sydney
43.250.142.3,4,-10,caloriecounter.com.au,AU,Oceania,Australia and New Zealand,Australia,New South Wales,,Sydney
43.250.142.155,4,-10,canberraglassworks.com,AU,Oceania,Australia and New Zealand,Australia,New South Wales,,Sydney
103.27.35.207,4,-9,carmanskitchen.com.au,AU,Oceania,Australia and New Zealand,Australia,New South Wales,,Sydney
103.61.228.101,4,4,carpestology.com.au,AU,Oceania,Australia and New Zealand,Australia,New South Wales,,Sydney
43.250.142.97,4,-13,carpetinnovation.com,AU,Oceania,Australia and New Zealand,Australia,New South Wales,,Sydney
172.105.167.147,4,14,cathnews.co.nz,AU,Oceania,Australia and New Zealand,Australia,New South Wales,,Sydney
52.64.99.208,4,7,cbs.gov.ws,AU,Oceania,Australia and New Zealand,Australia,New South Wales,,Sydney
43.250.140.25,4,-9,cdcbus.com.au,AU,Oceania,Australia and New Zealand,Australia,New South Wales,,Sydney
103.25.59.60,4,2,cednepal.org.np,AU,Oceania,Australia and New Zealand,Australia,New South Wales,,Sydney
27.50.84.243,4,9,cepar.edu.au,AU,Oceania,Australia and New Zealand,Australia,New South Wales,,Sydney
103.1.184.96,4,-8,chefin.com.au,AU,Oceania,Australia and New Zealand,Australia,New South Wales,,Sydney
170.64.236.160,4,-2,chinwag.org,AU,Oceania,Australia and New Zealand,Australia,New South Wales,,
35.189.48.215,4,3,circa.co.nz,AU,Oceania,Australia and New Zealand,Australia,New South Wales,,Sydney
43.250.142.141,4,-10,circa.org.au,AU,Oceania,Australia and New Zealand,Australia,New South Wales,,Sydney
101.0.112.7,4,9,city4051crossfit.com.au,AU,Oceania,Australia and New Zealand,Australia,New South Wales,,Sydney
54.252.102.88,4,18,citysearch.com.au,AU,Oceania,Australia and New Zealand,Australia,New South Wales,,Sydney
43.250.142.16,4,88,cityshelving.com.au,AU,Oceania,Australia and New Zealand,Australia,New South Wales,,Sydney
170.64.136.20,4,12,cliftons.com,AU,Oceania,Australia and New Zealand,Australia,New South Wales,,Sydney
3.25.48.31,4,7,clinicallabs.com.au,AU,Oceania,Australia and New Zealand,Australia,New South Wales,,Sydney
54.79.128.35,4,24,clinicallabs.com.au,AU,Oceania,Australia and New Zealand,Australia,New South Wales,,Sydney
221.121.158.111,4,-26,clinicaltrialsalliance.org.au,AU,Oceania,Australia and New Zealand,Australia,New South Wales,,Sydney
52.65.58.242,4,5,cloudwaitress.com,AU,Oceania,Australia and New Zealand,Australia,New South Wales,,Sydney
13.211.19.234,4,36,cloudwaitress.com,AU,Oceania,Australia and New Zealand,Australia,New South Wales,,Sydney
13.238.80.190,4,7,communityfirst.com.au,AU,Oceania,Australia and New Zealand,Australia,New South Wales,,Sydney
103.27.32.27,4,-1,cookingwithyoshiko.com,AU,Oceania,Australia and New Zealand,Australia,New South Wales,,Sydney
175.45.180.27,4,7,coolum.com.au,AU,Oceania,Australia and New Zealand,Australia,New South Wales,,Sydney
3.106.30.94,4,17,coxarchitecture.com.au,AU,Oceania,Australia and New Zealand,Australia,New South Wales,,Sydney
168.1.8.117,4,-27,crdc.com.au,AU,Oceania,Australia and New Zealand,Australia,New South Wales,,Sydney
103.27.35.210,4,2,cricketvictoria.com.au,AU,Oceania,Australia and New Zealand,Australia,New South Wales,,Sydney
103.27.34.48,4,-8,criminaldefencelawyers.com.au,AU,Oceania,Australia and New Zealand,Australia,New South Wales,,Sydney
122.252.3.114,4,13,crocosauruscove.com,AU,Oceania,Australia and New Zealand,Australia,New South Wales,,Sydney
103.4.16.49,4,12,crspublicity.com.au,AU,Oceania,Australia and New Zealand,Australia,New South Wales,,Sydney
101.0.100.66,4,8,crucial.com.au,AU,Oceania,Australia and New Zealand,Australia,New South Wales,,Sydney
103.27.173.25,4,13968,cruiseguru.com.au,AU,Oceania,Australia and New Zealand,Australia,New South Wales,,Central Coast
103.27.35.72,4,-2,crunch.com.au,AU,Oceania,Australia and New Zealand,Australia,New South Wales,,Sydney
103.27.34.111,4,-17,cur.org.au,AU,Oceania,Australia and New Zealand,Australia,New South Wales,,Sydney
52.64.39.142,4,4,curtin.edu.au,AU,Oceania,Australia and New Zealand,Australia,New South Wales,,Sydney
185.184.153.69,4,-173596,cutrite.com.au,AU,Oceania,Australia and New Zealand,Australia,New South Wales,,Sydney
103.27.32.24,4,-10,daa.asn.au,AU,Oceania,Australia and New Zealand,Australia,New South Wales,,Sydney
45.76.121.8,4,3,dailygrail.com,AU,Oceania,Australia and New Zealand,Australia,New South Wales,,Sydney
13.237.159.195,4,6,daintreerainforest.com,AU,Oceania,Australia and New Zealand,Australia,New South Wales,,Sydney
221.121.159.114,4,-11,darwinairport.com.au,AU,Oceania,Australia and New Zealand,Australia,New South Wales,,Sydney
27.50.84.23,4,-34,darwinfestival.org.au,AU,Oceania,Australia and New Zealand,Australia,New South Wales,,Sydney
103.27.32.15,4,12,davismarina.com.au,AU,Oceania,Australia and New Zealand,Australia,New South Wales,,Sydney
45.248.76.26,4,5,dbansw.org.au,AU,Oceania,Australia and New Zealand,Australia,New South Wales,,Sydney
45.76.113.28,4,5,ddtech.com,AU,Oceania,Australia and New Zealand,Australia,New South Wales,,Sydney
54.153.244.96,4,4,dealmoon.com.au,AU,Oceania,Australia and New Zealand,Australia,New South Wales,,Sydney
43.250.140.16,4,-16,delacour.net,AU,Oceania,Australia and New Zealand,Australia,New South Wales,,Sydney
23.40.72.153,4,-2,delicious.com.au,AU,Oceania,Australia and New Zealand,Australia,New South Wales,,Sydney
13.54.243.171,4,7,destinationdaintree.com,AU,Oceania,Australia and New Zealand,Australia,New South Wales,,Sydney
103.27.34.30,4,-8,devpolicy.org,AU,Oceania,Australia and New Zealand,Australia,New South Wales,,Sydney
45.125.247.27,4,4,digitalfeed.net,AU,Oceania,Australia and New Zealand,Australia,New South Wales,,Sydney
203.98.95.17,4,7,digitalmediaworld.tv,AU,Oceania,Australia and New Zealand,Australia,New South Wales,,Sydney
108.61.168.71,4,9,dilate.com.au,AU,Oceania,Australia and New Zealand,Australia,New South Wales,,Sydney
43.250.140.13,4,-13,dirtbikeworld.net,AU,Oceania,Australia and New Zealand,Australia,New South Wales,,Sydney
103.61.228.11,4,5,djirra.org.au,AU,Oceania,Australia and New Zealand,Australia,New South Wales,,Sydney
103.1.186.221,4,-8,dkeenan.com,AU,Oceania,Australia and New Zealand,Australia,New South Wales,,Sydney
108.61.212.239,4,14,DNS Server: 108.61.212.239.vultr.com,AU,Oceania,Australia and New Zealand,Australia,New South Wales,,Sydney
110.174.24.94,4,651010,DNS Server: 110-174-24-94.tpgi.com.au,AU,Oceania,Australia and New Zealand,Australia,New South Wales,,Sydney
110.175.253.13,4,154,DNS Server: 110-175-253-13.static.tpgi.com.au,AU,Oceania,Australia and New Zealand,Australia,New South Wales,,Sydney
111.220.59.183,4,216,DNS Server: 111-220-59-183.sta.wbroadband.net.au,AU,Oceania,Australia and New Zealand,Australia,New South Wales,,Sydney
116.212.68.59,4,6,DNS Server: 116-212-68-59.i3.net.au,AU,Oceania,Australia and New Zealand,Australia,New South Wales,,Sydney
123.243.36.55,4,407,DNS Server: 123-243-36-55.tpgi.com.au,AU,Oceania,Australia and New Zealand,Australia,New South Wales,,Sydney
14.200.226.78,4,-892784863,DNS Server: 14-200-226-78.static.tpgi.com.au,AU,Oceania,Australia and New Zealand,Australia,New South Wales,,Sydney
14.203.242.170,4,-35999689,DNS Server: 14-203-242-170.static.tpgi.com.au,AU,Oceania,Australia and New Zealand,Australia,New South Wales,,Sydney
115.42.8.15,4,517,DNS Server: 15-8-42-115.ip.esc.net.au,AU,Oceania,Australia and New Zealand,Australia,New South Wales,,Sydney
159.196.127.73,4,88,DNS Server: 159-196-127-73.9fc47f.syd.static.aussiebb.net,AU,Oceania,Australia and New Zealand,Australia,New South Wales,,Sydney
115.70.61.169,4,105,DNS Server: 169.61.70.115.static.exetel.com.au,AU,Oceania,Australia and New Zealand,Australia,New South Wales,,Sydney
170.187.241.213,4,-18746,DNS Server: 170-187-241-213.ip.linodeusercontent.com,AU,Oceania,Australia and New Zealand,Australia,New South Wales,,Sydney
180.150.66.6,4,6,DNS Server: 180-150-66-6.b49642.syd.nbn.aussiebb.net,AU,Oceania,Australia and New Zealand,Australia,New South Wales,,Sydney
193.114.136.10,4,87778,DNS Server: 193-114-136-10.tpgi.com.au,AU,Oceania,Australia and New Zealand,Australia,New South Wales,,Sydney
194.223.170.50,4,10,DNS Server: 194-223-170-50.tpgi.com.au,AU,Oceania,Australia and New Zealand,Australia,New South Wales,,Sydney
203.129.25.39,4,63,DNS Server: 203-129-25-39.cb8119.syd.static.aussiebb.net,AU,Oceania,Australia and New Zealand,Australia,New South Wales,,Sydney
218.214.93.209,4,192,DNS Server: 209.93.214.218.sta.wbroadband.net.au,AU,Oceania,Australia and New Zealand,Australia,New South Wales,,Sydney
220.245.186.117,4,796,DNS Server: 220-245-186-117.static.tpgi.com.au,AU,Oceania,Australia and New Zealand,Australia,New South Wales,,Sydney
218.214.85.254,4,313,DNS Server: 254.85.214.218.sta.wbroadband.net.au,AU,Oceania,Australia and New Zealand,Australia,New South Wales,,Sydney
27.32.25.166,4,829,DNS Server: 27-32-25-166.static.tpgi.com.au,AU,Oceania,Australia and New Zealand,Australia,New South Wales,,Leppington
27.32.63.54,4,1043,DNS Server: 27-32-63-54.static.tpgi.com.au,AU,Oceania,Australia and New Zealand,Australia,New South Wales,,Sydney
220.233.222.29,4,-7,DNS Server: 29.222.233.220.static.exetel.com.au,AU,Oceania,Australia and New Zealand,Australia,New South Wales,,Sydney
60.241.40.114,4,28,DNS Server: 60-241-40-114.static.tpgi.com.au,AU,Oceania,Australia and New Zealand,Australia,New South Wales,,Sydney
103.42.141.62,4,-39603417,DNS Server: 62.141.42.103.buroserv.net.au,AU,Oceania,Australia and New Zealand,Australia,New South Wales,,Sydney
110.143.3.83,4,1469299,DNS Server: abi1684415.lnk.telstra.net,AU,Oceania,Australia and New Zealand,Australia,New South Wales,,Sydney
110.143.148.183,4,512363,DNS Server: abi1708756.lnk.telstra.net,AU,Oceania,Australia and New Zealand,Australia,New South Wales,,Sydney
103.2.196.228,4,132,DNS Server: bingo.gadgetaccess.com,AU,Oceania,Australia and New Zealand,Australia,New South Wales,,Sydney
203.45.58.208,4,744790,DNS Server: blooms42.lnk.telstra.net,AU,Oceania,Australia and New Zealand,Australia,New South Wales,,Sydney
210.10.179.208,4,602,DNS Server: C-210-10-179-208.hay.connect.net.au,AU,Oceania,Australia and New Zealand,Australia,New South Wales,,Wollongong
1.157.220.102,4,67,DNS Server: cpe-1-157-220-102.nb13.nsw.asp.telstra.net,AU,Oceania,Australia and New Zealand,Australia,New South Wales,,Sydney
144.137.210.182,4,34,DNS Server: cpe-144-137-210-182.static.nsw.asp.telstra.net,AU,Oceania,Australia and New Zealand,Australia,New South Wales,,Sydney
157.211.104.219,4,835,DNS Server: cpe-219-104-211-157.matenbn.com.au,AU,Oceania,Australia and New Zealand,Australia,New South Wales,,Sydney
103.136.146.99,4,38065,DNS Server: dns.halvez.top,AU,Oceania,Australia and New Zealand,Australia,New South Wales,,Sydney
103.230.158.212,4,-14,DNS Server: docker01-bl.schwetz.com.au,AU,Oceania,Australia and New Zealand,Australia,New South Wales,,Sydney
54.66.128.66,4,26,DNS Server: ec2-54-66-128-66.ap-southeast-2.compute.amazonaws.com,AU,Oceania,Australia and New Zealand,Australia,New South Wales,,Sydney
139.99.133.27,4,80,DNS Server: igc.fmbm.com.au,AU,Oceania,Australia and New Zealand,Australia,New South Wales,,Sydney
139.99.142.12,4,80,DNS Server: ip12.ip-139-99-142.net,AU,Oceania,Australia and New Zealand,Australia,New South Wales,,Sydney
139.99.177.88,4,41,DNS Server: ip88.ip-139-99-177.net,AU,Oceania,Australia and New Zealand,Australia,New South Wales,,Sydney
103.135.85.224,4,467,DNS Server: vocphone.com,AU,Oceania,Australia and New Zealand,Australia,New South Wales,,Sydney
119.42.55.17,4,-16,doopostfree.com,AU,Oceania,Australia and New Zealand,Australia,New South Wales,,Sydney
54.79.62.207,4,7,drakes.com.au,AU,Oceania,Australia and New Zealand,Australia,New South Wales,,Sydney
103.119.110.52,4,26,dreamithost.com.au,AU,Oceania,Australia and New Zealand,Australia,New South Wales,,Sydney
154.26.155.169,4,4,dtc.edu.np,AU,Oceania,Australia and New Zealand,Australia,New South Wales,,Sydney
43.250.142.133,4,16,dulwichcentre.com.au,AU,Oceania,Australia and New Zealand,Australia,New South Wales,,Sydney
103.119.110.234,4,5,dvdland.com.au,AU,Oceania,Australia and New Zealand,Australia,New South Wales,,Sydney
139.99.248.178,4,6,dynamicobjects.com,AU,Oceania,Australia and New Zealand,Australia,New South Wales,,Sydney
103.119.110.17,4,3,easternsuburbsmums.com.au,AU,Oceania,Australia and New Zealand,Australia,New South Wales,,Sydney
172.105.163.191,4,-6,easyasinternet.com,AU,Oceania,Australia and New Zealand,Australia,New South Wales,,Sydney
43.250.142.148,4,-9,easycarport.com.au,AU,Oceania,Australia and New Zealand,Australia,New South Wales,,Sydney
43.250.140.7,4,-13,easypropertylistings.com.au,AU,Oceania,Australia and New Zealand,Australia,New South Wales,,Sydney
43.250.141.164,4,-8,ecocommons.org.au,AU,Oceania,Australia and New Zealand,Australia,New South Wales,,Sydney
101.0.98.242,4,1,ecolsoc.org.au,AU,Oceania,Australia and New Zealand,Australia,New South Wales,,Sydney
43.250.142.83,4,-22,ecovoice.com.au,AU,Oceania,Australia and New Zealand,Australia,New South Wales,,Sydney
43.250.142.139,4,-15,edte.ch,AU,Oceania,Australia and New Zealand,Australia,New South Wales,,Sydney
180.92.194.91,4,-29,eec.org.au,AU,Oceania,Australia and New Zealand,Australia,New South Wales,,Sydney
194.195.120.231,4,-4,eftm.com,AU,Oceania,Australia and New Zealand,Australia,New South Wales,,Sydney
43.250.142.88,4,-5,eichardts.com,AU,Oceania,Australia and New Zealand,Australia,New South Wales,,Sydney
27.50.66.29,4,12,elaborate.com.au,AU,Oceania,Australia and New Zealand,Australia,New South Wales,,Sydney
43.250.140.28,4,-9,eloping.com.au,AU,Oceania,Australia and New Zealand,Australia,New South Wales,,Sydney
35.189.8.50,4,3,emotional-transformation.com.au,AU,Oceania,Australia and New Zealand,Australia,New South Wales,,Sydney
101.0.119.31,4,24,endinghiv.org.au,AU,Oceania,Australia and New Zealand,Australia,New South Wales,,Sydney
139.99.208.76,4,7,epswa.com.au,AU,Oceania,Australia and New Zealand,Australia,New South Wales,,Sydney
101.0.114.115,4,-4,etkgtennis.org.au,AU,Oceania,Australia and New Zealand,Australia,New South Wales,,Sydney
103.27.32.30,4,-14,eurobodalla.com.au,AU,Oceania,Australia and New Zealand,Australia,New South Wales,,Sydney
103.61.229.90,4,3,evolutionlaser.com.au,AU,Oceania,Australia and New Zealand,Australia,New South Wales,,Sydney
35.201.8.39,4,6,ewon.com.au,AU,Oceania,Australia and New Zealand,Australia,New South Wales,,Sydney
101.0.113.90,4,42,exchangehouse.com.au,AU,Oceania,Australia and New Zealand,Australia,New South Wales,,Sydney
101.0.113.248,4,14,exclusivelyfood.com.au,AU,Oceania,Australia and New Zealand,Australia,New South Wales,,Sydney
117.120.8.241,4,652,exemplarglobal.org,AU,Oceania,Australia and New Zealand,Australia,New South Wales,,Sydney
221.121.158.71,4,-26,experimenta.org,AU,Oceania,Australia and New Zealand,Australia,New South Wales,,Sydney
43.250.142.85,4,-9,export.org.au,AU,Oceania,Australia and New Zealand,Australia,New South Wales,,Sydney
43.250.142.15,4,-16,ezifunerals.com.au,AU,Oceania,Australia and New Zealand,Australia,New South Wales,,Sydney
103.27.34.16,4,160,f2.org,AU,Oceania,Australia and New Zealand,Australia,New South Wales,,Sydney
54.153.195.220,4,9,fantasticcleaners.com.au,AU,Oceania,Australia and New Zealand,Australia,New South Wales,,Sydney
43.250.141.212,4,-13,fare.org.au,AU,Oceania,Australia and New Zealand,Australia,New South Wales,,Sydney
103.27.35.161,4,-13,fds.org.au,AU,Oceania,Australia and New Zealand,Australia,New South Wales,,Sydney
108.61.96.148,4,11,fidelity.com.au,AU,Oceania,Australia and New Zealand,Australia,New South Wales,,Sydney
43.245.161.116,4,60,finalbuilder.com,AU,Oceania,Australia and New Zealand,Australia,New South Wales,,Sydney
103.1.187.139,4,-10,findbigmail.com,AU,Oceania,Australia and New Zealand,Australia,New South Wales,,Sydney
139.99.248.200,4,11,fingerlingsmonkey.org,AU,Oceania,Australia and New Zealand,Australia,New South Wales,,Sydney
170.64.196.91,4,9,finkedesertrace.com.au,AU,Oceania,Australia and New Zealand,Australia,New South Wales,,Sydney
43.250.142.1,4,-4,firesticks.org.au,AU,Oceania,Australia and New Zealand,Australia,New South Wales,,Sydney
101.0.111.22,4,20,flightsafetyaustralia.com,AU,Oceania,Australia and New Zealand,Australia,New South Wales,,Sydney
43.250.142.74,4,42,fluentpixel.com.au,AU,Oceania,Australia and New Zealand,Australia,New South Wales,,Sydney
52.64.85.4,4,8,fluro.io,AU,Oceania,Australia and New Zealand,Australia,New South Wales,,Sydney
172.105.162.7,4,2040,foldingtables.net.au,AU,Oceania,Australia and New Zealand,Australia,New South Wales,,Sydney
52.62.49.209,4,4,foodbank.org.au,AU,Oceania,Australia and New Zealand,Australia,New South Wales,,Sydney
43.250.142.144,4,41,foodfrontier.org,AU,Oceania,Australia and New Zealand,Australia,New South Wales,,Sydney
103.27.32.3,4,-21,foodwise.com.au,AU,Oceania,Australia and New Zealand,Australia,New South Wales,,Sydney
13.239.81.121,4,4,fremantlemarkets.com.au,AU,Oceania,Australia and New Zealand,Australia,New South Wales,,Sydney
52.63.30.129,4,39,fringeworld.com.au,AU,Oceania,Australia and New Zealand,Australia,New South Wales,,Sydney
54.252.174.169,4,30,fringeworld.com.au,AU,Oceania,Australia and New Zealand,Australia,New South Wales,,Sydney
13.236.101.227,4,13,fringeworld.com.au,AU,Oceania,Australia and New Zealand,Australia,New South Wales,,Sydney
43.250.140.17,4,-14,fst.net.au,AU,Oceania,Australia and New Zealand,Australia,New South Wales,,Sydney
35.244.76.126,4,3,fulbright.org.au,AU,Oceania,Australia and New Zealand,Australia,New South Wales,,Sydney
101.0.97.38,4,1,fultonhogan.com,AU,Oceania,Australia and New Zealand,Australia,New South Wales,,Sydney
103.27.32.14,4,-9,furntech.org.au,AU,Oceania,Australia and New Zealand,Australia,New South Wales,,Sydney
103.27.34.36,4,-11,gaaustralia.org.au,AU,Oceania,Australia and New Zealand,Australia,New South Wales,,Sydney
103.1.185.208,4,-9,gccec.com.au,AU,Oceania,Australia and New Zealand,Australia,New South Wales,,Sydney
101.0.116.63,4,8,gendercentre.org.au,AU,Oceania,Australia and New Zealand,Australia,New South Wales,,Sydney
103.27.34.13,4,-1,geoffg.net,AU,Oceania,Australia and New Zealand,Australia,New South Wales,,Sydney
194.195.122.18,4,1,getfrank.co.nz,AU,Oceania,Australia and New Zealand,Australia,New South Wales,,Sydney
103.1.184.193,4,-14,gffoodservice.com.au,AU,Oceania,Australia and New Zealand,Australia,New South Wales,,Sydney
43.250.142.96,4,-13,glenewinestate.com.au,AU,Oceania,Australia and New Zealand,Australia,New South Wales,,Sydney
116.118.241.10,4,4,glenrockgp.com.au,AU,Oceania,Australia and New Zealand,Australia,New South Wales,,Mona Vale
221.121.151.145,4,-31,globalgreeternetwork.info,AU,Oceania,Australia and New Zealand,Australia,New South Wales,,Sydney
170.64.220.60,4,11,globalhamlet.org,AU,Oceania,Australia and New Zealand,Australia,New South Wales,,Sydney
3.25.12.188,4,149804,goguide.com.au,AU,Oceania,Australia and New Zealand,Australia,New South Wales,,Sydney
43.229.60.21,4,-13,goldenrobotrecords.com,AU,Oceania,Australia and New Zealand,Australia,New South Wales,,Sydney
13.237.125.83,4,5,golflink.com.au,AU,Oceania,Australia and New Zealand,Australia,New South Wales,,Sydney
13.238.238.49,4,11,golflink.com.au,AU,Oceania,Australia and New Zealand,Australia,New South Wales,,Sydney
45.63.29.199,4,11,gotriptravel.com.au,AU,Oceania,Australia and New Zealand,Australia,New South Wales,,Sydney
13.54.250.212,4,4,govhack.org,AU,Oceania,Australia and New Zealand,Australia,New South Wales,,Sydney
13.239.129.5,4,7,govhack.org,AU,Oceania,Australia and New Zealand,Australia,New South Wales,,Sydney
20.211.43.188,4,8,grampianstars.com.au,AU,Oceania,Australia and New Zealand,Australia,New South Wales,,Sydney
103.27.35.122,4,19,grattan.edu.au,AU,Oceania,Australia and New Zealand,Australia,New South Wales,,Sydney
103.25.59.18,4,18,greenspeed.com.au,AU,Oceania,Australia and New Zealand,Australia,New South Wales,,Sydney
103.27.34.15,4,17,growyouthful.com,AU,Oceania,Australia and New Zealand,Australia,New South Wales,,Sydney
95.111.217.84,4,7,gsdiamonds.com.au,AU,Oceania,Australia and New Zealand,Australia,New South Wales,,Sydney
43.250.142.34,4,-9,gymlink.com.au,AU,Oceania,Australia and New Zealand,Australia,New South Wales,,Sydney
103.27.32.17,4,-14,halalpidehouse.com.au,AU,Oceania,Australia and New Zealand,Australia,New South Wales,,Sydney
139.180.170.97,4,-11,halcyonhouse.com.au,AU,Oceania,Australia and New Zealand,Australia,New South Wales,,Sydney
52.65.146.188,4,6,harness.org.au,AU,Oceania,Australia and New Zealand,Australia,New South Wales,,Sydney
20.92.129.81,4,56549,hartsport.com.au,AU,Oceania,Australia and New Zealand,Australia,New South Wales,,Sydney
43.250.142.102,4,-2,heartresearch.com.au,AU,Oceania,Australia and New Zealand,Australia,New South Wales,,Sydney
172.105.183.251,4,19,hellolisting.com.au,AU,Oceania,Australia and New Zealand,Australia,New South Wales,,Sydney
27.50.93.169,4,-2639,hellomay.com.au,AU,Oceania,Australia and New Zealand,Australia,New South Wales,,Sydney
20.92.129.87,4,56559,henryschein.com.au,AU,Oceania,Australia and New Zealand,Australia,New South Wales,,Sydney
118.127.41.169,4,-28,hiddensecretstours.com,AU,Oceania,Australia and New Zealand,Australia,New South Wales,,Sydney
172.105.190.148,4,-1,hitechfasteners.com.au,AU,Oceania,Australia and New Zealand,Australia,New South Wales,,Sydney
43.250.142.95,4,28,homanndesigns.com,AU,Oceania,Australia and New Zealand,Australia,New South Wales,,Sydney
43.250.142.73,4,-8,homebuilthifi.com,AU,Oceania,Australia and New Zealand,Australia,New South Wales,,Sydney
45.32.189.185,4,3,homedoctor.com.au,AU,Oceania,Australia and New Zealand,Australia,New South Wales,,Sydney
43.250.142.67,4,851,homelessnessaustralia.org.au,AU,Oceania,Australia and New Zealand,Australia,New South Wales,,Sydney
43.250.142.86,4,-15,honesthistory.net.au,AU,Oceania,Australia and New Zealand,Australia,New South Wales,,Sydney
203.98.95.7,4,26,hostevents.com.au,AU,Oceania,Australia and New Zealand,Australia,New South Wales,,Sydney
103.27.34.19,4,-11,hotpod.net.au,AU,Oceania,Australia and New Zealand,Australia,New South Wales,,Sydney
194.195.249.147,4,222930,httpster.net,AU,Oceania,Australia and New Zealand,Australia,New South Wales,,Sydney
221.121.152.241,4,-28,hugabub.com,AU,Oceania,Australia and New Zealand,Australia,New South Wales,,Sydney
117.120.11.202,4,-28,huntervalleygardens.com.au,AU,Oceania,Australia and New Zealand,Australia,New South Wales,,Sydney
103.27.32.9,4,-14,hyperrust.org,AU,Oceania,Australia and New Zealand,Australia,New South Wales,,Sydney
51.161.128.144,4,54,i-tech.com.au,AU,Oceania,Australia and New Zealand,Australia,New South Wales,,Sydney
101.0.112.8,4,6,ianbunn.com,AU,Oceania,Australia and New Zealand,Australia,New South Wales,,Sydney
203.98.95.9,4,12,icsm.gov.au,AU,Oceania,Australia and New Zealand,Australia,New South Wales,,Sydney
103.27.35.155,4,1,idm.net.au,AU,Oceania,Australia and New Zealand,Australia,New South Wales,,Sydney
103.27.32.36,4,-7,igsd.org,AU,Oceania,Australia and New Zealand,Australia,New South Wales,,Sydney
103.230.158.158,4,-14,ijk.com.au,AU,Oceania,Australia and New Zealand,Australia,New South Wales,,Sydney
103.27.34.4,4,-23,illw.net,AU,Oceania,Australia and New Zealand,Australia,New South Wales,,Sydney
45.77.234.210,4,41,infratil.com,AU,Oceania,Australia and New Zealand,Australia,New South Wales,,Sydney
13.237.37.77,4,19,inghams.com.au,AU,Oceania,Australia and New Zealand,Australia,New South Wales,,Sydney
117.120.12.165,4,-520,inmycommunity.com.au,AU,Oceania,Australia and New Zealand,Australia,New South Wales,,Sydney
221.121.146.221,4,-525,insidehr.com.au,AU,Oceania,Australia and New Zealand,Australia,New South Wales,,Sydney
176.97.69.216,4,11,inspirythemesdemo.com,AU,Oceania,Australia and New Zealand,Australia,New South Wales,,Sydney
35.197.170.219,4,5,ivywindowfurnishinggroup.com.au,AU,Oceania,Australia and New Zealand,Australia,New South Wales,,Sydney
101.0.112.4,4,8,jabiru.net.au,AU,Oceania,Australia and New Zealand,Australia,New South Wales,,Sydney
45.125.247.113,4,2,jennifermarohasy.com,AU,Oceania,Australia and New Zealand,Australia,New South Wales,,Sydney
23.32.5.135,4,-39,jgl.com.au,AU,Oceania,Australia and New Zealand,Australia,New South Wales,,Sydney
139.99.221.236,4,6,jims.net,AU,Oceania,Australia and New Zealand,Australia,New South Wales,,Sydney
139.99.223.23,4,3,jimsdogwash.net.au,AU,Oceania,Australia and New Zealand,Australia,New South Wales,,Sydney
43.250.142.100,4,-16,jimsit.com.au,AU,Oceania,Australia and New Zealand,Australia,New South Wales,,Sydney
180.92.194.209,4,-27,jimsmowing.com.au,AU,Oceania,Australia and New Zealand,Australia,New South Wales,,Sydney
140.238.202.182,4,0,jinbuguo.com,AU,Oceania,Australia and New Zealand,Australia,New South Wales,,Bungarribee
101.0.113.246,4,5,jkgroup.com.au,AU,Oceania,Australia and New Zealand,Australia,New South Wales,,Sydney
43.250.142.79,4,-15,jmbdraincleaning.com.au,AU,Oceania,Australia and New Zealand,Australia,New South Wales,,Sydney
149.28.168.93,4,0,julieandkittee.com,AU,Oceania,Australia and New Zealand,Australia,New South Wales,,Sydney
101.0.112.229,4,8,kanedigital.com,AU,Oceania,Australia and New Zealand,Australia,New South Wales,,Sydney
203.206.210.220,4,5,karpati.com.au,AU,Oceania,Australia and New Zealand,Australia,New South Wales,,Mullumbimby
43.250.140.27,4,-21,kaseychambers.com,AU,Oceania,Australia and New Zealand,Australia,New South Wales,,Sydney
149.28.180.2,4,5,kings.edu.au,AU,Oceania,Australia and New Zealand,Australia,New South Wales,,Sydney
52.65.73.113,4,-84,kiwiprint.co.nz,AU,Oceania,Australia and New Zealand,Australia,New South Wales,,Sydney
110.173.135.20,4,6,kobejones.com.au,AU,Oceania,Australia and New Zealand,Australia,New South Wales,,Sydney
45.32.191.76,4,15,kokogiak.com,AU,Oceania,Australia and New Zealand,Australia,New South Wales,,Sydney
45.76.118.219,4,1,ksouhome.com,AU,Oceania,Australia and New Zealand,Australia,New South Wales,,Sydney
54.79.75.87,4,12,kuvva.com,AU,Oceania,Australia and New Zealand,Australia,New South Wales,,Sydney
101.0.113.91,4,420,l-a-v-a.net,AU,Oceania,Australia and New Zealand,Australia,New South Wales,,Sydney
103.27.34.3,4,-8,lakehouse.com.au,AU,Oceania,Australia and New Zealand,Australia,New South Wales,,Sydney
45.76.124.144,4,8,larvatusprodeo.net,AU,Oceania,Australia and New Zealand,Australia,New South Wales,,Sydney
43.250.142.98,4,-9,lawsocietynt.asn.au,AU,Oceania,Australia and New Zealand,Australia,New South Wales,,Sydney
45.63.29.188,4,4,leapfrogmachinery.com.au,AU,Oceania,Australia and New Zealand,Australia,New South Wales,,Sydney
139.99.210.96,4,29,leconomistemaghrebin.com,AU,Oceania,Australia and New Zealand,Australia,New South Wales,,Sydney
203.98.95.132,4,21,leosayer.com,AU,Oceania,Australia and New Zealand,Australia,New South Wales,,Sydney
13.237.131.218,4,6,liberal.org.au,AU,Oceania,Australia and New Zealand,Australia,New South Wales,,Sydney
3.104.4.128,4,7,liberal.org.au,AU,Oceania,Australia and New Zealand,Australia,New South Wales,,Sydney
103.27.33.211,4,-11,libertyoil.com.au,AU,Oceania,Australia and New Zealand,Australia,New South Wales,,Sydney
101.0.119.60,4,10,lighthouse.net.au,AU,Oceania,Australia and New Zealand,Australia,New South Wales,,Sydney
43.250.142.31,4,-9,lions.org.au,AU,Oceania,Australia and New Zealand,Australia,New South Wales,,Sydney
52.62.244.154,4,33,literacyplanet.com,AU,Oceania,Australia and New Zealand,Australia,New South Wales,,Sydney
101.0.113.247,4,28,littlebigh.com,AU,Oceania,Australia and New Zealand,Australia,New South Wales,,Sydney
101.0.112.162,4,8,littleecofootprints.com,AU,Oceania,Australia and New Zealand,Australia,New South Wales,,Sydney
43.250.142.140,4,-4,littlegreencheese.com,AU,Oceania,Australia and New Zealand,Australia,New South Wales,,Sydney
52.65.87.250,4,25,logarithmic.net,AU,Oceania,Australia and New Zealand,Australia,New South Wales,,Sydney
43.250.142.37,4,-13,luigirosselli.com,AU,Oceania,Australia and New Zealand,Australia,New South Wales,,Sydney
101.0.119.195,4,10,m3blue.com,AU,Oceania,Australia and New Zealand,Australia,New South Wales,,Sydney
139.180.165.116,4,0,magellangroup.com.au,AU,Oceania,Australia and New Zealand,Australia,New South Wales,,Sydney
118.127.41.40,4,-29,magicdust.com.au,AU,Oceania,Australia and New Zealand,Australia,New South Wales,,Sydney
170.64.152.10,4,107,makapizifaka.site,AU,Oceania,Australia and New Zealand,Australia,New South Wales,,Sydney
103.27.34.31,4,-1,margmowczko.com,AU,Oceania,Australia and New Zealand,Australia,New South Wales,,Sydney
43.250.142.53,4,-10,marsonhire.com.au,AU,Oceania,Australia and New Zealand,Australia,New South Wales,,Sydney
150.107.73.192,4,-22,masm32.com,AU,Oceania,Australia and New Zealand,Australia,New South Wales,,Sydney
103.27.32.23,4,-3,masterlocksmiths.com.au,AU,Oceania,Australia and New Zealand,Australia,New South Wales,,Sydney
101.0.112.17,4,87,mathsteacher.com.au,AU,Oceania,Australia and New Zealand,Australia,New South Wales,,Sydney
103.27.34.128,4,-6,maxfunding.com.au,AU,Oceania,Australia and New Zealand,Australia,New South Wales,,Sydney
149.28.173.138,4,-13,mbsfestival.com.au,AU,Oceania,Australia and New Zealand,Australia,New South Wales,,Sydney
13.236.52.225,4,5,mca.com.au,AU,Oceania,Australia and New Zealand,Australia,New South Wales,,Sydney
122.252.2.10,4,3,mediaman.com.au,AU,Oceania,Australia and New Zealand,Australia,New South Wales,,Sydney
43.250.140.46,4,-9,melbflowershow.com.au,AU,Oceania,Australia and New Zealand,Australia,New South Wales,,Sydney
103.27.34.25,4,-13,melbourneanglican.org.au,AU,Oceania,Australia and New Zealand,Australia,New South Wales,,Sydney
192.250.232.5,4,14,melbourneit.au,AU,Oceania,Australia and New Zealand,Australia,New South Wales,,Sydney
117.120.8.165,4,-518,melbournevaluers.net.au,AU,Oceania,Australia and New Zealand,Australia,New South Wales,,Sydney
103.119.110.45,4,3,melodicrock.com,AU,Oceania,Australia and New Zealand,Australia,New South Wales,,Sydney
43.250.142.21,4,-10,memecode.com,AU,Oceania,Australia and New Zealand,Australia,New South Wales,,Sydney
43.250.142.152,4,-22,memorabletv.com,AU,Oceania,Australia and New Zealand,Australia,New South Wales,,Sydney
35.244.110.101,4,4,menzies.edu.au,AU,Oceania,Australia and New Zealand,Australia,New South Wales,,Sydney
43.250.142.123,4,-11,merrigong.com.au,AU,Oceania,Australia and New Zealand,Australia,New South Wales,,Sydney
172.105.175.210,4,823213,mga.org.au,AU,Oceania,Australia and New Zealand,Australia,New South Wales,,Sydney
43.250.142.80,4,-8,mhcc.org.au,AU,Oceania,Australia and New Zealand,Australia,New South Wales,,Sydney
49.255.68.11,4,20,michaelkirby.com.au,AU,Oceania,Australia and New Zealand,Australia,New South Wales,,Sydney
103.27.34.130,4,4,millsgorman.com.au,AU,Oceania,Australia and New Zealand,Australia,New South Wales,,Sydney
103.43.117.45,4,-50,mnb.mn,AU,Oceania,Australia and New Zealand,Australia,New South Wales,,Shellharbour
103.27.32.4,4,-8,mobilemuster.com.au,AU,Oceania,Australia and New Zealand,Australia,New South Wales,,Sydney
149.28.175.196,4,41,monumentaustralia.org.au,AU,Oceania,Australia and New Zealand,Australia,New South Wales,,Sydney
117.120.13.93,4,-31,motorcyclenews.bike,AU,Oceania,Australia and New Zealand,Australia,New South Wales,,Sydney
139.99.149.160,4,12,mrsmindfulness.com,AU,Oceania,Australia and New Zealand,Australia,New South Wales,,Sydney
35.244.94.1,4,6,mrsplashplumbing.com.au,AU,Oceania,Australia and New Zealand,Australia,New South Wales,,Sydney
103.18.108.143,4,5,mua.org.au,AU,Oceania,Australia and New Zealand,Australia,New South Wales,,Sydney
110.232.113.197,4,-10,multiupload.com,AU,Oceania,Australia and New Zealand,Australia,New South Wales,,Sydney
139.99.190.190,4,8,myassignmentwriting.com.au,AU,Oceania,Australia and New Zealand,Australia,New South Wales,,Sydney
139.180.175.39,4,28,mycar.com.au,AU,Oceania,Australia and New Zealand,Australia,New South Wales,,Sydney
43.250.140.20,4,-10,myfrenchlife.org,AU,Oceania,Australia and New Zealand,Australia,New South Wales,,Sydney
112.213.33.223,4,-6,myhealth.net.au,AU,Oceania,Australia and New Zealand,Australia,New South Wales,,Sydney
110.232.116.46,4,2895,mysti.org,AU,Oceania,Australia and New Zealand,Australia,New South Wales,,Sydney
172.105.178.208,4,0,nationaldirectory.com.au,AU,Oceania,Australia and New Zealand,Australia,New South Wales,,Sydney
52.63.123.241,4,4,nationalretail.org.au,AU,Oceania,Australia and New Zealand,Australia,New South Wales,,Sydney
221.121.143.216,4,-26,natrad.com.au,AU,Oceania,Australia and New Zealand,Australia,New South Wales,,Sydney
117.120.14.237,4,-27,navalinstitute.com.au,AU,Oceania,Australia and New Zealand,Australia,New South Wales,,Sydney
118.127.40.205,4,-1102,nb3electrical.com.au,AU,Oceania,Australia and New Zealand,Australia,New South Wales,,Sydney
103.27.32.19,4,-9,ncsehe.edu.au,AU,Oceania,Australia and New Zealand,Australia,New South Wales,,Sydney
101.0.111.134,4,16,nec.com.au,AU,Oceania,Australia and New Zealand,Australia,New South Wales,,Sydney
194.195.122.135,4,-8,neh.co.nz,AU,Oceania,Australia and New Zealand,Australia,New South Wales,,Sydney
170.64.165.176,4,1,nelsonmandelamuseum.org.za,AU,Oceania,Australia and New Zealand,Australia,New South Wales,,Sydney
43.250.140.38,4,37,netballscoop.com,AU,Oceania,Australia and New Zealand,Australia,New South Wales,,Sydney
13.237.91.207,4,76,netcomm.com.au,AU,Oceania,Australia and New Zealand,Australia,New South Wales,,Sydney
103.27.34.32,4,-14,newlifenutrition.com.au,AU,Oceania,Australia and New Zealand,Australia,New South Wales,,Sydney
221.121.143.111,4,353,newphilosopher.com,AU,Oceania,Australia and New Zealand,Australia,New South Wales,,Sydney
101.0.119.160,4,19,newtheatre.org.au,AU,Oceania,Australia and New Zealand,Australia,New South Wales,,Sydney
194.195.248.90,4,2,nichigopress.jp,AU,Oceania,Australia and New Zealand,Australia,New South Wales,,Sydney
103.82.64.71,4,5,ningborotary.com,AU,Oceania,Australia and New Zealand,Australia,New South Wales,,Sydney
139.99.210.81,4,5,nobleparkelc.com.au,AU,Oceania,Australia and New Zealand,Australia,New South Wales,,Sydney
101.0.106.26,4,4,nor.com.au,AU,Oceania,Australia and New Zealand,Australia,New South Wales,,Sydney
103.27.34.18,4,-14,nswcourts.com.au,AU,Oceania,Australia and New Zealand,Australia,New South Wales,,Sydney
43.250.142.18,4,-22,nswnma.asn.au,AU,Oceania,Australia and New Zealand,Australia,New South Wales,,Sydney
43.250.142.115,4,-14,nyxsocial.com.au,AU,Oceania,Australia and New Zealand,Australia,New South Wales,,Sydney
3.105.247.70,4,7,nzcouriers.co.nz,AU,Oceania,Australia and New Zealand,Australia,New South Wales,,Sydney
13.54.218.17,4,4,nzcouriers.co.nz,AU,Oceania,Australia and New Zealand,Australia,New South Wales,,Sydney
103.27.34.112,4,-9,nzgg.org.nz,AU,Oceania,Australia and New Zealand,Australia,New South Wales,,Sydney
20.70.243.50,4,56564,officechoice.com.au,AU,Oceania,Australia and New Zealand,Australia,New South Wales,,Sydney
103.27.34.51,4,2,oktoberfesttours.travel,AU,Oceania,Australia and New Zealand,Australia,New South Wales,,Sydney
149.28.164.202,4,15,oldmelbournegaol.com.au,AU,Oceania,Australia and New Zealand,Australia,New South Wales,,Sydney
207.148.83.170,4,22,onlinebingonz.co,AU,Oceania,Australia and New Zealand,Australia,New South Wales,,Sydney
27.50.90.173,4,-30,onlymelbourne.com.au,AU,Oceania,Australia and New Zealand,Australia,New South Wales,,Sydney
144.130.165.118,4,15,Ookla Speedtest Server 18713: cha1.speedtest.telstra.net,AU,Oceania,Australia and New Zealand,Australia,New South Wales,,Sydney
67.159.27.4,4,187,Ookla Speedtest Server 54305: lg-syd.fdcservers.net,AU,Oceania,Australia and New Zealand,Australia,New South Wales,,Sydney
43.252.115.254,4,59527,Ookla Speedtest Server: speedtest.occom.com.au,AU,Oceania,Australia and New Zealand,Australia,New South Wales,,Sydney
54.206.187.227,4,17,opan.org.au,AU,Oceania,Australia and New Zealand,Australia,New South Wales,,Sydney
52.62.136.144,4,5,opan.org.au,AU,Oceania,Australia and New Zealand,Australia,New South Wales,,Sydney
43.250.142.36,4,-7,openforum.com.au,AU,Oceania,Australia and New Zealand,Australia,New South Wales,,Sydney
101.0.112.233,4,15,opoudjis.net,AU,Oceania,Australia and New Zealand,Australia,New South Wales,,Sydney
211.29.132.152,4,-5,optushome.com.au,AU,Oceania,Australia and New Zealand,Australia,New South Wales,,Sydney
211.29.132.105,4,-4,optusnet.com.au,AU,Oceania,Australia and New Zealand,Australia,New South Wales,,Sydney
172.105.188.250,4,14,orangutans.com.au,AU,Oceania,Australia and New Zealand,Australia,New South Wales,,Sydney
13.237.73.61,4,25,origintheatrical.com.au,AU,Oceania,Australia and New Zealand,Australia,New South Wales,,Sydney
103.27.34.115,4,-14,orthodoxchristian.info,AU,Oceania,Australia and New Zealand,Australia,New South Wales,,Sydney
45.63.28.225,4,-1,otmtransport.com.au,AU,Oceania,Australia and New Zealand,Australia,New South Wales,,Sydney
172.105.171.149,4,31,ourmoneymarket.com,AU,Oceania,Australia and New Zealand,Australia,New South Wales,,Sydney
101.0.105.110,4,28,outbackqueensland.com.au,AU,Oceania,Australia and New Zealand,Australia,New South Wales,,Sydney
170.64.128.193,4,84,outinperth.com,AU,Oceania,Australia and New Zealand,Australia,New South Wales,,Sydney
43.250.142.54,4,-16,overdoseday.com,AU,Oceania,Australia and New Zealand,Australia,New South Wales,,Sydney
43.250.142.6,4,15,ozmacsolutions.com.au,AU,Oceania,Australia and New Zealand,Australia,New South Wales,,Sydney
47.91.40.94,4,2,ozportal.tv,AU,Oceania,Australia and New Zealand,Australia,New South Wales,,Sydney
3.105.250.248,4,7,pacificfair.com.au,AU,Oceania,Australia and New Zealand,Australia,New South Wales,,Sydney
3.24.125.68,4,7,pacificfair.com.au,AU,Oceania,Australia and New Zealand,Australia,New South Wales,,Sydney
101.0.117.10,4,5,packerco.com,AU,Oceania,Australia and New Zealand,Australia,New South Wales,,Sydney
43.250.142.103,4,-10,pactadopt.org,AU,Oceania,Australia and New Zealand,Australia,New South Wales,,Sydney
51.161.152.94,4,4,palacefilms.com.au,AU,Oceania,Australia and New Zealand,Australia,New South Wales,,Sydney
13.211.64.60,4,35,paladinenergy.com.au,AU,Oceania,Australia and New Zealand,Australia,New South Wales,,Sydney
101.0.112.6,4,23,paleodietaustralia.com.au,AU,Oceania,Australia and New Zealand,Australia,New South Wales,,Sydney
43.250.142.72,4,-10,palliativecare.org.au,AU,Oceania,Australia and New Zealand,Australia,New South Wales,,Sydney
43.250.142.76,4,28,parkfuels.com.au,AU,Oceania,Australia and New Zealand,Australia,New South Wales,,Sydney
103.27.34.23,4,-11,parkinsons.org.au,AU,Oceania,Australia and New Zealand,Australia,New South Wales,,Sydney
45.76.119.200,4,9,parkz.com.au,AU,Oceania,Australia and New Zealand,Australia,New South Wales,,Sydney
13.236.35.110,4,26,paronellapark.com.au,AU,Oceania,Australia and New Zealand,Australia,New South Wales,,Sydney
149.28.187.204,4,95,paspaley.com,AU,Oceania,Australia and New Zealand,Australia,New South Wales,,Sydney
154.26.154.118,4,77,pathologytestsexplained.org.au,AU,Oceania,Australia and New Zealand,Australia,New South Wales,,Sydney
3.104.164.198,4,19,payitforwardday.com,AU,Oceania,Australia and New Zealand,Australia,New South Wales,,Sydney
103.27.34.106,4,-12,pbas.com.au,AU,Oceania,Australia and New Zealand,Australia,New South Wales,,Sydney
103.119.110.53,4,9,peakdemand.com.au,AU,Oceania,Australia and New Zealand,Australia,New South Wales,,Sydney
129.94.231.218,4,18,pedro.org.au,AU,Oceania,Australia and New Zealand,Australia,New South Wales,,Sydney
101.0.111.98,4,4,peninsulahealth.org.au,AU,Oceania,Australia and New Zealand,Australia,New South Wales,,Sydney
103.27.35.37,4,-7,pennicottjourneys.com.au,AU,Oceania,Australia and New Zealand,Australia,New South Wales,,Sydney
207.148.86.50,4,20,penrithrollershutters.com.au,AU,Oceania,Australia and New Zealand,Australia,New South Wales,,Sydney
101.0.105.138,4,15,pentanasolutions.com.au,AU,Oceania,Australia and New Zealand,Australia,New South Wales,,Sydney
103.119.110.188,4,3,percapita.org.au,AU,Oceania,Australia and New Zealand,Australia,New South Wales,,Sydney
139.99.255.61,4,51,permian.ru,AU,Oceania,Australia and New Zealand,Australia,New South Wales,,Sydney
43.250.142.59,4,26,peterdutton.com.au,AU,Oceania,Australia and New Zealand,Australia,New South Wales,,Sydney
117.120.12.137,4,-28,petinsuranceaustralia.com.au,AU,Oceania,Australia and New Zealand,Australia,New South Wales,,Sydney
52.64.99.174,4,29,petitjourney.com.au,AU,Oceania,Australia and New Zealand,Australia,New South Wales,,Sydney
43.250.140.21,4,-24,petphotographer.com.au,AU,Oceania,Australia and New Zealand,Australia,New South Wales,,Sydney
103.73.65.54,4,2,pickr.com.au,AU,Oceania,Australia and New Zealand,Australia,New South Wales,,Sydney
192.250.232.13,4,36,pinkymckay.com,AU,Oceania,Australia and New Zealand,Australia,New South Wales,,Sydney
35.197.165.27,4,21,pioneer.com.au,AU,Oceania,Australia and New Zealand,Australia,New South Wales,,Sydney
151.101.30.133,4,19,playrugbyleague.com,AU,Oceania,Australia and New Zealand,Australia,New South Wales,,Sydney
103.27.34.47,4,-22,plazadj.com.au,AU,Oceania,Australia and New Zealand,Australia,New South Wales,,Sydney
139.144.98.72,4,53,pldaniels.com,AU,Oceania,Australia and New Zealand,Australia,New South Wales,,Sydney
43.250.142.154,4,-4,plus61j.net.au,AU,Oceania,Australia and New Zealand,Australia,New South Wales,,Sydney
27.50.84.27,4,334,polytec.com.au,AU,Oceania,Australia and New Zealand,Australia,New South Wales,,Sydney
192.250.232.12,4,19,ponsonbyacupunctureclinic.co.nz,AU,Oceania,Australia and New Zealand,Australia,New South Wales,,Sydney
43.250.142.26,4,-8,population.net.au,AU,Oceania,Australia and New Zealand,Australia,New South Wales,,Sydney
167.86.36.13,4,39,portofmelbourne.com,AU,Oceania,Australia and New Zealand,Australia,New South Wales,,Sydney
103.18.108.178,4,-7,practicalmotoring.com.au,AU,Oceania,Australia and New Zealand,Australia,New South Wales,,Sydney
203.98.95.2,4,12,prahranmarket.com.au,AU,Oceania,Australia and New Zealand,Australia,New South Wales,,Sydney
38.180.129.201,4,37,pravdoryb.info,AU,Oceania,Australia and New Zealand,Australia,New South Wales,,Sydney
101.0.103.174,4,58,privatefleet.com.au,AU,Oceania,Australia and New Zealand,Australia,New South Wales,,Sydney
45.76.112.128,4,64,prodivecairns.com,AU,Oceania,Australia and New Zealand,Australia,New South Wales,,Sydney
27.50.95.74,4,60,promotionproducts.com.au,AU,Oceania,Australia and New Zealand,Australia,New South Wales,,Sydney
170.64.164.85,4,47,promotions247.com.au,AU,Oceania,Australia and New Zealand,Australia,New South Wales,,Sydney
101.0.116.55,4,37,purerealestategroup.com.au,AU,Oceania,Australia and New Zealand,Australia,New South Wales,,Sydney
13.238.205.33,4,3,pwr.com.au,AU,Oceania,Australia and New Zealand,Australia,New South Wales,,Sydney
103.27.34.46,4,-13,pyramidtextsonline.com,AU,Oceania,Australia and New Zealand,Australia,New South Wales,,Sydney
13.238.25.83,4,9,q1.com.au,AU,Oceania,Australia and New Zealand,Australia,New South Wales,,Sydney
110.232.115.141,4,-23,qff.org.au,AU,Oceania,Australia and New Zealand,Australia,New South Wales,,Sydney
103.27.34.33,4,-24,qlife.org.au,AU,Oceania,Australia and New Zealand,Australia,New South Wales,,Sydney
101.0.97.190,4,10,quikclicks.com.au,AU,Oceania,Australia and New Zealand,Australia,New South Wales,,Sydney
45.77.238.98,4,-13,racebending.com,AU,Oceania,Australia and New Zealand,Australia,New South Wales,,Sydney
35.189.61.203,4,3,racesigns.com.au,AU,Oceania,Australia and New Zealand,Australia,New South Wales,,Sydney
20.92.129.83,4,56633,radioparts.com.au,AU,Oceania,Australia and New Zealand,Australia,New South Wales,,Sydney
43.250.140.2,4,98,radld.org,AU,Oceania,Australia and New Zealand,Australia,New South Wales,,Sydney
203.96.176.226,4,11,raforum.info,AU,Oceania,Australia and New Zealand,Australia,New South Wales,,Sydney
43.250.142.131,4,45,railtrails.org.au,AU,Oceania,Australia and New Zealand,Australia,New South Wales,,Sydney
43.250.142.69,4,-5,rainforest.com.au,AU,Oceania,Australia and New Zealand,Australia,New South Wales,,Sydney
119.42.55.234,4,25,ramset.com.au,AU,Oceania,Australia and New Zealand,Australia,New South Wales,,Sydney
180.92.194.19,4,-1,randw.com.au,AU,Oceania,Australia and New Zealand,Australia,New South Wales,,Sydney
194.195.248.161,4,31,ranzcog.edu.au,AU,Oceania,Australia and New Zealand,Australia,New South Wales,,Sydney
150.107.72.85,4,49,rawmeatybones.com,AU,Oceania,Australia and New Zealand,Australia,New South Wales,,Sydney
103.119.110.84,4,41,rayreeves.com.au,AU,Oceania,Australia and New Zealand,Australia,New South Wales,,Sydney
103.230.158.143,4,-6,rchpoll.org.au,AU,Oceania,Australia and New Zealand,Australia,New South Wales,,Sydney
45.63.24.74,4,7,realdealservices.com.au,AU,Oceania,Australia and New Zealand,Australia,New South Wales,,Sydney
172.105.187.174,4,29,realweddings.com.au,AU,Oceania,Australia and New Zealand,Australia,New South Wales,,Sydney
13.239.89.2,4,18,recollect.co.nz,AU,Oceania,Australia and New Zealand,Australia,New South Wales,,Sydney
54.79.47.104,4,34,recollect.co.nz,AU,Oceania,Australia and New Zealand,Australia,New South Wales,,Sydney
52.62.181.42,4,49,recollect.co.nz,AU,Oceania,Australia and New Zealand,Australia,New South Wales,,Sydney
202.37.74.242,4,19,reefcasino.com.au,AU,Oceania,Australia and New Zealand,Australia,New South Wales,,Sydney
112.213.35.98,4,-2,renaissanceliving.com.au,AU,Oceania,Australia and New Zealand,Australia,New South Wales,,Sydney
43.250.142.28,4,-15,renderhjs.net,AU,Oceania,Australia and New Zealand,Australia,New South Wales,,Sydney
43.250.142.55,4,-3,reptilepark.com.au,AU,Oceania,Australia and New Zealand,Australia,New South Wales,,Sydney
43.250.142.38,4,-6,rescu.com.au,AU,Oceania,Australia and New Zealand,Australia,New South Wales,,Sydney
172.105.173.118,4,1362,retailworldmagazine.com.au,AU,Oceania,Australia and New Zealand,Australia,New South Wales,,Sydney
43.250.142.22,4,-5,revounts.com.au,AU,Oceania,Australia and New Zealand,Australia,New South Wales,,Sydney
3.105.57.5,4,5,richardsonforpresident.com,AU,Oceania,Australia and New Zealand,Australia,New South Wales,,Sydney
175.45.181.241,4,46,riskfrontiers.com,AU,Oceania,Australia and New Zealand,Australia,New South Wales,,Sydney
13.54.137.13,4,8,rlb.com,AU,Oceania,Australia and New Zealand,Australia,New South Wales,,Sydney
202.130.44.250,4,18,robbreport.com.au,AU,Oceania,Australia and New Zealand,Australia,New South Wales,,Sydney
103.27.34.27,4,697,rodneyfox.com.au,AU,Oceania,Australia and New Zealand,Australia,New South Wales,,Sydney
103.27.32.5,4,-5,rogerclarke.com,AU,Oceania,Australia and New Zealand,Australia,New South Wales,,Sydney
203.98.95.5,4,15,rogerwoodward.com,AU,Oceania,Australia and New Zealand,Australia,New South Wales,,Sydney
103.27.34.123,4,28,roserealty.com.au,AU,Oceania,Australia and New Zealand,Australia,New South Wales,,Sydney
103.27.34.24,4,-15,rowetel.com,AU,Oceania,Australia and New Zealand,Australia,New South Wales,,Sydney
101.0.98.218,4,21,royaldavuifiji.com,AU,Oceania,Australia and New Zealand,Australia,New South Wales,,Sydney
192.250.232.15,4,15,royaldirectory.biz,AU,Oceania,Australia and New Zealand,Australia,New South Wales,,Sydney
103.27.35.135,4,-9,royalmelbourne.com.au,AU,Oceania,Australia and New Zealand,Australia,New South Wales,,Sydney
101.0.111.38,4,5,royalwolf.com.au,AU,Oceania,Australia and New Zealand,Australia,New South Wales,,Sydney
20.92.129.84,4,56565,rsea.com.au,AU,Oceania,Australia and New Zealand,Australia,New South Wales,,Sydney
139.99.141.192,4,1349,safeandequal.org.au,AU,Oceania,Australia and New Zealand,Australia,New South Wales,,Sydney
43.250.140.12,4,10,safepestcontrol.net.au,AU,Oceania,Australia and New Zealand,Australia,New South Wales,,Sydney
43.250.142.137,4,-9,safetyrisk.net,AU,Oceania,Australia and New Zealand,Australia,New South Wales,,Sydney
103.27.33.170,4,4,sane.org,AU,Oceania,Australia and New Zealand,Australia,New South Wales,,Sydney
43.250.140.29,4,-7,sarahbuckley.com,AU,Oceania,Australia and New Zealand,Australia,New South Wales,,Sydney
43.250.142.52,4,35,satic.com.au,AU,Oceania,Australia and New Zealand,Australia,New South Wales,,Sydney
103.27.34.37,4,24,saveit.com.au,AU,Oceania,Australia and New Zealand,Australia,New South Wales,,Sydney
108.61.184.195,4,15,savvysme.com.au,AU,Oceania,Australia and New Zealand,Australia,New South Wales,,Sydney
45.79.236.171,4,-8,saxonsystems.com.au,AU,Oceania,Australia and New Zealand,Australia,New South Wales,,Sydney
60.242.51.113,4,619,scannerguys.com.au,AU,Oceania,Australia and New Zealand,Australia,New South Wales,,Sydney
103.119.110.198,4,5,scenestr.com.au,AU,Oceania,Australia and New Zealand,Australia,New South Wales,,Sydney
101.0.119.185,4,9,scholarly.info,AU,Oceania,Australia and New Zealand,Australia,New South Wales,,Sydney
139.99.190.185,4,5,scivee.tv,AU,Oceania,Australia and New Zealand,Australia,New South Wales,,Sydney
221.121.150.99,4,-5,scouts.com.au,AU,Oceania,Australia and New Zealand,Australia,New South Wales,,Sydney
139.99.248.171,4,46,screamingguitars.com,AU,Oceania,Australia and New Zealand,Australia,New South Wales,,Sydney
103.4.16.227,4,1,screeningthepast.com,AU,Oceania,Australia and New Zealand,Australia,New South Wales,,Sydney
43.250.142.5,4,-25,scss.com.au,AU,Oceania,Australia and New Zealand,Australia,New South Wales,,Sydney
43.250.142.39,4,17,secondbite.org,AU,Oceania,Australia and New Zealand,Australia,New South Wales,,Sydney
103.27.34.20,4,-10,seedsavers.net,AU,Oceania,Australia and New Zealand,Australia,New South Wales,,Sydney
52.62.224.98,4,7,seniorflatmates.com.au,AU,Oceania,Australia and New Zealand,Australia,New South Wales,,Sydney
103.119.110.20,4,4,seonorthsydney.com.au,AU,Oceania,Australia and New Zealand,Australia,New South Wales,,Sydney
172.105.180.231,4,22,sergent.com.au,AU,Oceania,Australia and New Zealand,Australia,New South Wales,,Sydney
103.27.34.6,4,-7,sgaonline.org.au,AU,Oceania,Australia and New Zealand,Australia,New South Wales,,Sydney
103.119.110.27,4,1,sh1ft.org,AU,Oceania,Australia and New Zealand,Australia,New South Wales,,Sydney
139.99.130.38,4,6,shorelinkrealestate.com.au,AU,Oceania,Australia and New Zealand,Australia,New South Wales,,Sydney
172.105.182.26,4,38,shounakgupte.com.au,AU,Oceania,Australia and New Zealand,Australia,New South Wales,,Sydney
101.0.121.239,4,10,sightseeingtoursaustralia.com.au,AU,Oceania,Australia and New Zealand,Australia,New South Wales,,Sydney
103.27.34.43,4,6,sillbeer.com,AU,Oceania,Australia and New Zealand,Australia,New South Wales,,Sydney
43.250.142.29,4,56,simplymaid.com.au,AU,Oceania,Australia and New Zealand,Australia,New South Wales,,Sydney
43.250.141.56,4,-10,singularlabs.com,AU,Oceania,Australia and New Zealand,Australia,New South Wales,,Sydney
139.99.155.149,4,6,skyceylon.com.au,AU,Oceania,Australia and New Zealand,Australia,New South Wales,,Sydney
185.139.243.217,4,4,skycity.co.nz,AU,Oceania,Australia and New Zealand,Australia,New South Wales,,Sydney
185.139.243.218,4,4,skycityadelaide.com.au,AU,Oceania,Australia and New Zealand,Australia,New South Wales,,Sydney
185.139.243.216,4,62,skycityauckland.co.nz,AU,Oceania,Australia and New Zealand,Australia,New South Wales,,Sydney
185.139.243.223,4,15,skycityentertainmentgroup.com,AU,Oceania,Australia and New Zealand,Australia,New South Wales,,Sydney
185.139.243.210,4,12,skycityhamilton.co.nz,AU,Oceania,Australia and New Zealand,Australia,New South Wales,,Sydney
185.139.243.215,4,5,skycityqueenstown.co.nz,AU,Oceania,Australia and New Zealand,Australia,New South Wales,,Sydney
3.25.19.16,4,12,skynews.com.au,AU,Oceania,Australia and New Zealand,Australia,New South Wales,,Sydney
101.0.102.186,4,14,slotfactory.com.au,AU,Oceania,Australia and New Zealand,Australia,New South Wales,,Sydney
103.27.34.118,4,-2,smallblueprinter.com,AU,Oceania,Australia and New Zealand,Australia,New South Wales,,Sydney
221.121.138.93,4,-13,smarthouse.com.au,AU,Oceania,Australia and New Zealand,Australia,New South Wales,,Sydney
23.54.30.9,4,0,smiggle.com.au,AU,Oceania,Australia and New Zealand,Australia,New South Wales,,Sydney
139.99.139.228,4,7,smokescreen.us,AU,Oceania,Australia and New Zealand,Australia,New South Wales,,Sydney
101.0.105.6,4,11,snowsbest.com,AU,Oceania,Australia and New Zealand,Australia,New South Wales,,Sydney
103.1.185.120,4,6,snowyhydro.com.au,AU,Oceania,Australia and New Zealand,Australia,New South Wales,,Sydney
101.0.112.154,4,8,soniclean.com.au,AU,Oceania,Australia and New Zealand,Australia,New South Wales,,Sydney
101.0.119.165,4,8,southernfm.com.au,AU,Oceania,Australia and New Zealand,Australia,New South Wales,,Sydney
43.250.142.149,4,-5,spacejock.com,AU,Oceania,Australia and New Zealand,Australia,New South Wales,,Sydney
43.250.140.4,4,-9,spectronics.com.au,AU,Oceania,Australia and New Zealand,Australia,New South Wales,,Sydney
112.213.39.188,4,-10,spee3d.com,AU,Oceania,Australia and New Zealand,Australia,New South Wales,,Sydney
103.27.34.21,4,-10,spicyicecream.com.au,AU,Oceania,Australia and New Zealand,Australia,New South Wales,,Sydney
203.29.65.8,4,2,spintel.net.au,AU,Oceania,Australia and New Zealand,Australia,New South Wales,,Sydney
35.189.19.247,4,7,spitswimclub.org,AU,Oceania,Australia and New Zealand,Australia,New South Wales,,Sydney
203.89.253.68,4,-486589,spydus.com,AU,Oceania,Australia and New Zealand,Australia,New South Wales,,Sydney
172.105.180.64,4,-46795,sqmresearch.com.au,AU,Oceania,Australia and New Zealand,Australia,New South Wales,,Sydney
139.99.158.76,4,8,stallion-international.com,AU,Oceania,Australia and New Zealand,Australia,New South Wales,,Sydney
103.27.32.1,4,-7,stampdutycalc.com.au,AU,Oceania,Australia and New Zealand,Australia,New South Wales,,Sydney
103.27.32.41,4,14,stararchitecture.com.au,AU,Oceania,Australia and New Zealand,Australia,New South Wales,,Sydney
180.92.194.119,4,-1,statetrustees.com.au,AU,Oceania,Australia and New Zealand,Australia,New South Wales,,Sydney
118.127.40.228,4,21,statetrustees.com.au,AU,Oceania,Australia and New Zealand,Australia,New South Wales,,Sydney
103.1.186.254,4,-7,staticice.com.au,AU,Oceania,Australia and New Zealand,Australia,New South Wales,,Sydney
103.4.234.72,4,-19,steakschool.com,AU,Oceania,Australia and New Zealand,Australia,New South Wales,,Sydney
43.250.143.113,4,-10,stefmar.com.au,AU,Oceania,Australia and New Zealand,Australia,New South Wales,,Sydney
108.61.251.9,4,10,stemcellsaustralia.edu.au,AU,Oceania,Australia and New Zealand,Australia,New South Wales,,Sydney
221.121.152.229,4,-27,stkildamelbourne.com.au,AU,Oceania,Australia and New Zealand,Australia,New South Wales,,Sydney
45.125.247.115,4,19,stopmotionpro.com,AU,Oceania,Australia and New Zealand,Australia,New South Wales,,Sydney
13.236.189.113,4,7,strattonfinance.com.au,AU,Oceania,Australia and New Zealand,Australia,New South Wales,,Sydney
52.64.150.8,4,39,strattonfinance.com.au,AU,Oceania,Australia and New Zealand,Australia,New South Wales,,Sydney
13.237.45.86,4,10,studiosity.com,AU,Oceania,Australia and New Zealand,Australia,New South Wales,,Sydney
13.236.240.111,4,2,studiosity.com,AU,Oceania,Australia and New Zealand,Australia,New South Wales,,Sydney
13.55.16.42,4,6,studiosity.com,AU,Oceania,Australia and New Zealand,Australia,New South Wales,,Sydney
3.106.155.189,4,7,sundoctors.com.au,AU,Oceania,Australia and New Zealand,Australia,New South Wales,,Sydney
52.62.42.192,4,5,sundoctors.com.au,AU,Oceania,Australia and New Zealand,Australia,New South Wales,,Sydney
3.104.127.120,4,5,sundoctors.com.au,AU,Oceania,Australia and New Zealand,Australia,New South Wales,,Sydney
13.239.82.236,4,3,sunlover.com.au,AU,Oceania,Australia and New Zealand,Australia,New South Wales,,Sydney
149.28.161.197,4,-37,sydneyanglicans.net,AU,Oceania,Australia and New Zealand,Australia,New South Wales,,Sydney
43.250.142.24,4,-14,sydneyartsguide.com.au,AU,Oceania,Australia and New Zealand,Australia,New South Wales,,Sydney
43.250.140.48,4,-24,sydneybarani.com.au,AU,Oceania,Australia and New Zealand,Australia,New South Wales,,Sydney
52.64.23.25,4,5,sydneycommunitycollege.edu.au,AU,Oceania,Australia and New Zealand,Australia,New South Wales,,Sydney
101.0.103.110,4,2,sydneyfringe.com,AU,Oceania,Australia and New Zealand,Australia,New South Wales,,Sydney
43.250.142.138,4,-14,sydplatinum.com,AU,Oceania,Australia and New Zealand,Australia,New South Wales,,Sydney
43.250.142.56,4,-15,symbiozoo.com.au,AU,Oceania,Australia and New Zealand,Australia,New South Wales,,Sydney
43.250.142.92,4,-14,tabula-rasa.info,AU,Oceania,Australia and New Zealand,Australia,New South Wales,,Sydney
3.104.252.125,4,2,tangaroablue.org,AU,Oceania,Australia and New Zealand,Australia,New South Wales,,Sydney
101.0.116.105,4,11,tarpsforhire.com.au,AU,Oceania,Australia and New Zealand,Australia,New South Wales,,Sydney
101.0.108.62,4,2,tcof.com.au,AU,Oceania,Australia and New Zealand,Australia,New South Wales,,Sydney
103.4.234.120,4,-15,teachingtreasures.com.au,AU,Oceania,Australia and New Zealand,Australia,New South Wales,,Sydney
103.27.34.5,4,0,techau.com.au,AU,Oceania,Australia and New Zealand,Australia,New South Wales,,Sydney
139.99.130.57,4,46,technocarremoval.com.au,AU,Oceania,Australia and New Zealand,Australia,New South Wales,,Sydney
103.27.32.37,4,14,teldoc.com.au,AU,Oceania,Australia and New Zealand,Australia,New South Wales,,Sydney
103.230.158.142,4,-12,tenants.org.au,AU,Oceania,Australia and New Zealand,Australia,New South Wales,,Sydney
43.250.142.105,4,-7,theacousticguitarist.com,AU,Oceania,Australia and New Zealand,Australia,New South Wales,,Sydney
208.87.135.105,4,-8,thebackshed.com,AU,Oceania,Australia and New Zealand,Australia,New South Wales,,Sydney
14.202.213.220,4,7,thebaxterinn.com,AU,Oceania,Australia and New Zealand,Australia,New South Wales,,Sydney
3.25.108.150,4,2,thebigissue.org.au,AU,Oceania,Australia and New Zealand,Australia,New South Wales,,Sydney
103.27.34.129,4,11,thefinderskeepers.com,AU,Oceania,Australia and New Zealand,Australia,New South Wales,,Sydney
172.105.186.47,4,-6,thegurgaoncallgirls.com,AU,Oceania,Australia and New Zealand,Australia,New South Wales,,Sydney
203.98.95.40,4,23,thehappymindproject.com.au,AU,Oceania,Australia and New Zealand,Australia,New South Wales,,Sydney
43.250.142.7,4,-8,thehartcentre.com.au,AU,Oceania,Australia and New Zealand,Australia,New South Wales,,Sydney
43.250.142.35,4,-9,thehowlingfantods.com,AU,Oceania,Australia and New Zealand,Australia,New South Wales,,Sydney
103.1.186.183,4,-7,thelocalelectrician.com.au,AU,Oceania,Australia and New Zealand,Australia,New South Wales,,Sydney
43.250.141.244,4,-15,thelocalproject.com.au,AU,Oceania,Australia and New Zealand,Australia,New South Wales,,Sydney
101.0.112.190,4,5,thenewsmanual.net,AU,Oceania,Australia and New Zealand,Australia,New South Wales,,Sydney
172.105.176.49,4,-9,thenextright.com,AU,Oceania,Australia and New Zealand,Australia,New South Wales,,Sydney
122.252.15.55,4,699,thenokiablog.com,AU,Oceania,Australia and New Zealand,Australia,New South Wales,,Sydney
103.119.110.240,4,3,theoldergamers.com,AU,Oceania,Australia and New Zealand,Australia,New South Wales,,Sydney
172.105.168.111,4,-7,theperthgroup.com,AU,Oceania,Australia and New Zealand,Australia,New South Wales,,Sydney
43.250.142.101,4,-15,thephysiomovement.com.au,AU,Oceania,Australia and New Zealand,Australia,New South Wales,,Sydney
101.0.119.240,4,8,thepresets.com,AU,Oceania,Australia and New Zealand,Australia,New South Wales,,Sydney
172.105.191.99,4,26,thermaltake.com.au,AU,Oceania,Australia and New Zealand,Australia,New South Wales,,Sydney
43.250.142.120,4,-11,theskincareclinic.com.au,AU,Oceania,Australia and New Zealand,Australia,New South Wales,,Sydney
45.114.116.248,4,18,thesmartworkshop.com,AU,Oceania,Australia and New Zealand,Australia,New South Wales,,Sydney
43.250.141.213,4,-25,thomair.com.au,AU,Oceania,Australia and New Zealand,Australia,New South Wales,,Sydney
110.173.135.39,4,13,threeblueducks.com,AU,Oceania,Australia and New Zealand,Australia,New South Wales,,Sydney
23.54.30.88,4,-8,ticketcharge.com.my,AU,Oceania,Australia and New Zealand,Australia,New South Wales,,Sydney
23.54.30.98,4,1,ticketcharge.com.my,AU,Oceania,Australia and New Zealand,Australia,New South Wales,,Sydney
23.54.30.104,4,-19,ticketcharge.com.my,AU,Oceania,Australia and New Zealand,Australia,New South Wales,,Sydney
23.54.30.90,4,-27,ticketcharge.com.my,AU,Oceania,Australia and New Zealand,Australia,New South Wales,,Sydney
23.54.30.81,4,-17,ticketcharge.com.my,AU,Oceania,Australia and New Zealand,Australia,New South Wales,,Sydney
23.54.30.128,4,-14,ticketcharge.com.my,AU,Oceania,Australia and New Zealand,Australia,New South Wales,,Sydney
23.54.30.105,4,-16,ticketcharge.com.my,AU,Oceania,Australia and New Zealand,Australia,New South Wales,,Sydney
52.65.92.33,4,30,timebase.com.au,AU,Oceania,Australia and New Zealand,Australia,New South Wales,,Sydney
103.27.34.120,4,0,timetableimages.com,AU,Oceania,Australia and New Zealand,Australia,New South Wales,,Sydney
110.173.135.123,4,2,tj.net.au,AU,Oceania,Australia and New Zealand,Australia,New South Wales,,Sydney
172.105.178.191,4,-2,toadsnfrogs.com,AU,Oceania,Australia and New Zealand,Australia,New South Wales,,Sydney
122.252.15.54,4,8088,tomeraider.com,AU,Oceania,Australia and New Zealand,Australia,New South Wales,,Sydney
139.99.189.72,4,21,topmaxtech.net,AU,Oceania,Australia and New Zealand,Australia,New South Wales,,Sydney
139.99.199.183,4,10,toptbdev.net,AU,Oceania,Australia and New Zealand,Australia,New South Wales,,Sydney
103.27.34.124,4,-7,totalwindowconcepts.com.au,AU,Oceania,Australia and New Zealand,Australia,New South Wales,,Sydney
101.0.115.128,4,8,tradecritic.com.au,AU,Oceania,Australia and New Zealand,Australia,New South Wales,,Sydney
101.0.117.115,4,7,tradingseek.com,AU,Oceania,Australia and New Zealand,Australia,New South Wales,,Sydney
203.98.95.165,4,28,trans-int.org,AU,Oceania,Australia and New Zealand,Australia,New South Wales,,Sydney
43.250.142.126,4,-11,transdev.com.au,AU,Oceania,Australia and New Zealand,Australia,New South Wales,,Sydney
43.250.140.32,4,15,travellers-autobarn.com.au,AU,Oceania,Australia and New Zealand,Australia,New South Wales,,Sydney
43.250.140.8,4,-4,treadingmyownpath.com,AU,Oceania,Australia and New Zealand,Australia,New South Wales,,Sydney
194.195.126.85,4,1,tripplanner.net.au,AU,Oceania,Australia and New Zealand,Australia,New South Wales,,Sydney
45.77.232.191,4,0,triwa.com.au,AU,Oceania,Australia and New Zealand,Australia,New South Wales,,Sydney
139.144.101.109,4,-9,tso.com.au,AU,Oceania,Australia and New Zealand,Australia,New South Wales,,Sydney
103.27.32.13,4,-12,turnerfreeman.com.au,AU,Oceania,Australia and New Zealand,Australia,New South Wales,,Sydney
101.0.115.60,4,12,ubudfoodfestival.com,AU,Oceania,Australia and New Zealand,Australia,New South Wales,,Sydney
43.250.142.153,4,-3,uic.com.au,AU,Oceania,Australia and New Zealand,Australia,New South Wales,,Sydney
101.0.114.116,4,15,ultrastudio.com.au,AU,Oceania,Australia and New Zealand,Australia,New South Wales,,Sydney
103.27.32.43,4,8,unpackinggame.com,AU,Oceania,Australia and New Zealand,Australia,New South Wales,,Sydney
139.99.188.198,4,26,usgovernmentdebt.us,AU,Oceania,Australia and New Zealand,Australia,New South Wales,,Sydney
27.50.84.155,4,-32,v8sleuth.com.au,AU,Oceania,Australia and New Zealand,Australia,New South Wales,,Sydney
139.99.149.31,4,29,valid4sure.com,AU,Oceania,Australia and New Zealand,Australia,New South Wales,,Sydney
43.250.142.57,4,-17,veganeasy.org,AU,Oceania,Australia and New Zealand,Australia,New South Wales,,Sydney
103.119.110.36,4,11,veganiac.com,AU,Oceania,Australia and New Zealand,Australia,New South Wales,,Sydney
119.9.27.129,4,44,ventia.com,AU,Oceania,Australia and New Zealand,Australia,New South Wales,,Sydney
221.121.144.239,4,-31,vetbook.org,AU,Oceania,Australia and New Zealand,Australia,New South Wales,,Sydney
101.0.119.155,4,17,vickihillphysio.com.au,AU,Oceania,Australia and New Zealand,Australia,New South Wales,,Sydney
43.250.142.125,4,-16,victoriasbestflooring.com.au,AU,Oceania,Australia and New Zealand,Australia,New South Wales,,Sydney
192.250.232.18,4,44,videoupdate.me,AU,Oceania,Australia and New Zealand,Australia,New South Wales,,Sydney
104.156.233.212,4,34,viewphotography.com,AU,Oceania,Australia and New Zealand,Australia,New South Wales,,Sydney
101.0.119.207,4,7,vipdecorating.com.au,AU,Oceania,Australia and New Zealand,Australia,New South Wales,,Sydney
170.64.169.35,4,1,visitgreatoceanroad.org.au,AU,Oceania,Australia and New Zealand,Australia,New South Wales,,Sydney
101.0.102.114,4,23,vistapark.com.au,AU,Oceania,Australia and New Zealand,Australia,New South Wales,,Sydney
43.250.140.30,4,-14,vpncompass.com,AU,Oceania,Australia and New Zealand,Australia,New South Wales,,Sydney
45.76.121.15,4,9,vwwatercooled.com.au,AU,Oceania,Australia and New Zealand,Australia,New South Wales,,Sydney
3.24.58.236,4,19,wakeup.com.au,AU,Oceania,Australia and New Zealand,Australia,New South Wales,,Sydney
54.66.185.177,4,5,warchalking.org,AU,Oceania,Australia and New Zealand,Australia,New South Wales,,Sydney
103.27.34.49,4,-11,wardkeller.com.au,AU,Oceania,Australia and New Zealand,Australia,New South Wales,,Sydney
203.55.18.8,4,1910,wasalooncars.com.au,AU,Oceania,Australia and New Zealand,Australia,New South Wales,,Sydney
43.250.142.124,4,-16,watertankfactory.com.au,AU,Oceania,Australia and New Zealand,Australia,New South Wales,,Sydney
150.107.72.66,4,4,wayahead.org.au,AU,Oceania,Australia and New Zealand,Australia,New South Wales,,Sydney
27.50.91.106,4,-27,wealthwithin.com.au,AU,Oceania,Australia and New Zealand,Australia,New South Wales,,Sydney
101.0.120.6,4,47,web24.com.au,AU,Oceania,Australia and New Zealand,Australia,New South Wales,,Sydney
103.13.102.43,4,15,weddinghouse.co.nz,AU,Oceania,Australia and New Zealand,Australia,New South Wales,,Sydney
45.76.112.252,4,1,wezm.net,AU,Oceania,Australia and New Zealand,Australia,New South Wales,,Sydney
95.111.216.75,4,286,whakatane.com,AU,Oceania,Australia and New Zealand,Australia,New South Wales,,Sydney
43.250.142.70,4,-9,whitehatagency.com.au,AU,Oceania,Australia and New Zealand,Australia,New South Wales,,Sydney
101.0.104.126,4,8,wickedthemusical.com.au,AU,Oceania,Australia and New Zealand,Australia,New South Wales,,Sydney
101.0.108.6,4,1354,wikiaustralia.com,AU,Oceania,Australia and New Zealand,Australia,New South Wales,,Sydney
194.195.253.12,4,79,wikimedia.org.au,AU,Oceania,Australia and New Zealand,Australia,New South Wales,,Sydney
43.250.142.150,4,-22,wildlife.org.au,AU,Oceania,Australia and New Zealand,Australia,New South Wales,,Sydney
43.250.142.81,4,35,wildlifehabitat.com.au,AU,Oceania,Australia and New Zealand,Australia,New South Wales,,Sydney
110.232.112.52,4,-9,wildlifevictoria.org.au,AU,Oceania,Australia and New Zealand,Australia,New South Wales,,Sydney
34.87.229.94,4,6,willowbank.co.nz,AU,Oceania,Australia and New Zealand,Australia,New South Wales,,Sydney
101.0.103.123,4,11,wintv.com.au,AU,Oceania,Australia and New Zealand,Australia,New South Wales,,Sydney
43.250.142.44,4,-10,wlsnsw.org.au,AU,Oceania,Australia and New Zealand,Australia,New South Wales,,Sydney
139.180.171.198,4,10,womenswellbeing.com.au,AU,Oceania,Australia and New Zealand,Australia,New South Wales,,Sydney
103.198.42.146,4,1406,womhealth.org.au,AU,Oceania,Australia and New Zealand,Australia,New South Wales,,Sydney
54.66.201.246,4,16,wwda.org.au,AU,Oceania,Australia and New Zealand,Australia,New South Wales,,Sydney
122.252.14.219,4,2,wyomingweb.net,AU,Oceania,Australia and New Zealand,Australia,New South Wales,,Sydney
45.114.116.243,4,16,xstt.org,AU,Oceania,Australia and New Zealand,Australia,New South Wales,,Sydney
35.244.104.66,4,2,yancoal.com.au,AU,Oceania,Australia and New Zealand,Australia,New South Wales,,Sydney
101.0.117.31,4,9,yasawa.com,AU,Oceania,Australia and New Zealand,Australia,New South Wales,,Sydney
103.1.185.20,4,-6,ybg.com.au,AU,Oceania,Australia and New Zealand,Australia,New South Wales,,Sydney
13.238.8.110,4,7,yellow.com.au,AU,Oceania,Australia and New Zealand,Australia,New South Wales,,Sydney
13.211.110.176,4,5,yellow.com.au,AU,Oceania,Australia and New Zealand,Australia,New South Wales,,Sydney
13.54.113.93,4,4,yelmcinemas.com,AU,Oceania,Australia and New Zealand,Australia,New South Wales,,Sydney
43.250.142.136,4,-10,ymca.org.au,AU,Oceania,Australia and New Zealand,Australia,New South Wales,,Sydney
101.0.113.92,4,6,yogananda.com.au,AU,Oceania,Australia and New Zealand,Australia,New South Wales,,Sydney
117.120.11.55,4,-34,zoorepairs.com.au,AU,Oceania,Australia and New Zealand,Australia,New South Wales,,Sydney
