reflector_ip,ip_version,offset,description,country_code,region,sub_region,country_name,sub_division_1,sub_division_2,city
91.223.40.91,4,5,30millionsdamis.fr,FR,Europe,Western Europe,France,Grand Est,Bas-Rhin,Strasbourg
92.204.236.81,4,11,4g.de,FR,Europe,Western Europe,France,Grand Est,Bas-Rhin,Strasbourg
92.204.239.210,4,25,abacusspiele.de,FR,Europe,Western Europe,France,Grand Est,Bas-Rhin,Strasbourg
92.204.55.240,4,21,adfc-bw.de,FR,Europe,Western Europe,France,Grand Est,Bas-Rhin,Strasbourg
92.204.239.223,4,50,adweise.de,FR,Europe,Western Europe,France,Grand Est,Bas-Rhin,Strasbourg
92.204.55.230,4,46,aena.at,FR,Europe,Western Europe,France,Grand Est,Bas-Rhin,Strasbourg
212.234.3.148,4,4,agglo-montbeliard.fr,FR,Europe,Western Europe,France,Grand Est,Bas-Rhin,Wolfisheim
92.204.43.89,4,19,agrifarm.ro,FR,Europe,Western Europe,France,Grand Est,Bas-Rhin,Strasbourg
5.175.14.100,4,23,airportzentrale.de,FR,Europe,Western Europe,France,Grand Est,Bas-Rhin,Strasbourg
92.204.58.95,4,23,akupunktur.de,FR,Europe,Western Europe,France,Grand Est,Bas-Rhin,Strasbourg
92.42.108.33,4,3,alcomag.ua,FR,Europe,Western Europe,France,Grand Est,Bas-Rhin,Strasbourg
92.204.55.163,4,36,all-about-security.de,FR,Europe,Western Europe,France,Grand Est,Bas-Rhin,Strasbourg
92.204.239.22,4,9,alpenfoehn.de,FR,Europe,Western Europe,France,Grand Est,Bas-Rhin,Strasbourg
5.175.14.231,4,5,alt-katholisch.de,FR,Europe,Western Europe,France,Grand Est,Bas-Rhin,Strasbourg
134.119.176.27,4,9,americorps.org,FR,Europe,Western Europe,France,Grand Est,Bas-Rhin,Strasbourg
62.138.26.110,4,8,angelcabrera.com,FR,Europe,Western Europe,France,Grand Est,Bas-Rhin,Strasbourg
5.175.14.195,4,6,annenmaykantereit.com,FR,Europe,Western Europe,France,Grand Est,Bas-Rhin,Strasbourg
5.175.14.32,4,6,apfelwiki.de,FR,Europe,Western Europe,France,Grand Est,Bas-Rhin,Strasbourg
62.138.14.53,4,41,apopug.org,FR,Europe,Western Europe,France,Grand Est,Bas-Rhin,Strasbourg
5.175.14.102,4,9,archaeologisches-museum-frankfurt.de,FR,Europe,Western Europe,France,Grand Est,Bas-Rhin,Strasbourg
5.175.14.113,4,158,archenemy.net,FR,Europe,Western Europe,France,Grand Est,Bas-Rhin,Strasbourg
92.204.236.132,4,24,arena2036.de,FR,Europe,Western Europe,France,Grand Est,Bas-Rhin,Strasbourg
92.204.239.44,4,9,artefakt-berlin.de,FR,Europe,Western Europe,France,Grand Est,Bas-Rhin,Strasbourg
92.204.239.61,4,13,asbh.de,FR,Europe,Western Europe,France,Grand Est,Bas-Rhin,Strasbourg
193.49.4.44,4,7,astromatic.net,FR,Europe,Western Europe,France,Grand Est,Bas-Rhin,Strasbourg
92.204.58.29,4,9,at-rs.de,FR,Europe,Western Europe,France,Grand Est,Bas-Rhin,Strasbourg
92.204.58.84,4,9,bagw.de,FR,Europe,Western Europe,France,Grand Est,Bas-Rhin,Strasbourg
5.175.14.35,4,12,bap.de,FR,Europe,Western Europe,France,Grand Est,Bas-Rhin,Strasbourg
92.204.239.8,4,18,bastianallgeier.com,FR,Europe,Western Europe,France,Grand Est,Bas-Rhin,Strasbourg
5.35.255.76,4,21,baysf.de,FR,Europe,Western Europe,France,Grand Est,Bas-Rhin,Strasbourg
92.204.239.228,4,10,berliner-filmfestivals.de,FR,Europe,Western Europe,France,Grand Est,Bas-Rhin,Strasbourg
62.138.184.189,4,101,berliner-fussball.de,FR,Europe,Western Europe,France,Grand Est,Bas-Rhin,Strasbourg
92.204.58.52,4,123,beste-bookmakers.nl,FR,Europe,Western Europe,France,Grand Est,Bas-Rhin,Strasbourg
5.175.14.49,4,54,besucher-award.de,FR,Europe,Western Europe,France,Grand Est,Bas-Rhin,Strasbourg
92.204.58.132,4,10,beurer.com,FR,Europe,Western Europe,France,Grand Est,Bas-Rhin,Strasbourg
92.204.58.156,4,110,blickpunkt-brandenburg.de,FR,Europe,Western Europe,France,Grand Est,Bas-Rhin,Strasbourg
92.42.106.189,4,17,bloggerwala.com,FR,Europe,Western Europe,France,Grand Est,Bas-Rhin,Strasbourg
92.204.239.187,4,42,bm262.de,FR,Europe,Western Europe,France,Grand Est,Bas-Rhin,Strasbourg
85.25.118.112,4,2713,book-online.com.ua,FR,Europe,Western Europe,France,Grand Est,Bas-Rhin,Strasbourg
92.204.239.238,4,9,brotfabrik-berlin.de,FR,Europe,Western Europe,France,Grand Est,Bas-Rhin,Strasbourg
62.75.254.50,4,2105053,browsebiography.com,FR,Europe,Western Europe,France,Grand Est,Bas-Rhin,Strasbourg
92.204.239.124,4,10,buback.de,FR,Europe,Western Europe,France,Grand Est,Bas-Rhin,Strasbourg
5.175.14.28,4,28,buechner-verlag.de,FR,Europe,Western Europe,France,Grand Est,Bas-Rhin,Strasbourg
92.204.239.169,4,47,buildyourguitar.com,FR,Europe,Western Europe,France,Grand Est,Bas-Rhin,Strasbourg
5.175.14.20,4,27,burg-posterstein.de,FR,Europe,Western Europe,France,Grand Est,Bas-Rhin,Strasbourg
92.204.55.166,4,29,burgermeister.com,FR,Europe,Western Europe,France,Grand Est,Bas-Rhin,Strasbourg
130.79.201.45,4,-33,canalc2.tv,FR,Europe,Western Europe,France,Grand Est,Bas-Rhin,Strasbourg
5.175.14.157,4,4,ccpi.org,FR,Europe,Western Europe,France,Grand Est,Bas-Rhin,Strasbourg
62.138.185.68,4,57645,cigarworld.de,FR,Europe,Western Europe,France,Grand Est,Bas-Rhin,Strasbourg
5.175.14.244,4,25,clearaudio.de,FR,Europe,Western Europe,France,Grand Est,Bas-Rhin,Strasbourg
194.214.124.41,4,3,cnrtl.fr,FR,Europe,Western Europe,France,Grand Est,Moselle,Metz
92.205.64.86,4,74,cosmeticlounge.net,FR,Europe,Western Europe,France,Grand Est,Bas-Rhin,Strasbourg
62.75.216.66,4,9,cpm69.info,FR,Europe,Western Europe,France,Grand Est,Bas-Rhin,Strasbourg
85.25.195.133,4,31,cremadescalvosotelo.com,FR,Europe,Western Europe,France,Grand Est,Bas-Rhin,Strasbourg
92.204.58.2,4,14,crossed-flag-pins.com,FR,Europe,Western Europe,France,Grand Est,Bas-Rhin,Strasbourg
5.175.14.55,4,3,daimler-benz-stiftung.de,FR,Europe,Western Europe,France,Grand Est,Bas-Rhin,Strasbourg
5.175.14.228,4,4,deaddrops.com,FR,Europe,Western Europe,France,Grand Est,Bas-Rhin,Strasbourg
5.175.14.186,4,2,deutsch-russisches-forum.de,FR,Europe,Western Europe,France,Grand Est,Bas-Rhin,Strasbourg
92.204.236.122,4,62,deutsche-fatigue-gesellschaft.de,FR,Europe,Western Europe,France,Grand Est,Bas-Rhin,Strasbourg
92.204.239.128,4,89,deutscher-familienverband.de,FR,Europe,Western Europe,France,Grand Est,Bas-Rhin,Strasbourg
178.77.74.65,4,9,dgs.de,FR,Europe,Western Europe,France,Grand Est,Bas-Rhin,Strasbourg
62.138.154.204,4,28,die-fans.de,FR,Europe,Western Europe,France,Grand Est,Bas-Rhin,Strasbourg
5.175.14.245,4,3,digbib.org,FR,Europe,Western Europe,France,Grand Est,Bas-Rhin,Strasbourg
134.119.176.23,4,34,dithered.com,FR,Europe,Western Europe,France,Grand Est,Bas-Rhin,Strasbourg
77.128.182.101,4,1451231,DNS Server: 101.182.128.77.rev.sfr.net,FR,Europe,Western Europe,France,Grand Est,Haut-Rhin,Bartenheim
90.80.231.175,4,149,DNS Server: 175-231.80-90.static-ip.oleane.fr,FR,Europe,Western Europe,France,Grand Est,Bas-Rhin,La Broque
212.234.148.116,4,270,DNS Server: adapei53-gw.rain.fr,FR,Europe,Western Europe,France,Grand Est,Bas-Rhin,Gerstheim
85.25.194.140,4,65,DNS Server: astra1787.startdedicated.net,FR,Europe,Western Europe,France,Grand Est,Bas-Rhin,Strasbourg
134.119.218.138,4,46,DNS Server: mx0.intertotal.co.uk,FR,Europe,Western Europe,France,Grand Est,Bas-Rhin,Strasbourg
89.234.141.66,4,167,DNS Server: recursif.arn-fai.net,FR,Europe,Western Europe,France,Grand Est,Bas-Rhin,Strasbourg
5.175.14.16,4,41,dors.de,FR,Europe,Western Europe,France,Grand Est,Bas-Rhin,Strasbourg
62.138.185.119,4,30,drhoelter.de,FR,Europe,Western Europe,France,Grand Est,Bas-Rhin,Strasbourg
134.119.220.53,4,101,dropshippingua.com.ua,FR,Europe,Western Europe,France,Grand Est,Bas-Rhin,Strasbourg
92.204.55.227,4,10,dsvonline.de,FR,Europe,Western Europe,France,Grand Est,Bas-Rhin,Strasbourg
92.204.43.163,4,9,duz.de,FR,Europe,Western Europe,France,Grand Est,Bas-Rhin,Strasbourg
92.205.64.33,4,8,dwv-info.de,FR,Europe,Western Europe,France,Grand Est,Bas-Rhin,Strasbourg
85.25.194.36,4,9,easytree.org,FR,Europe,Western Europe,France,Grand Est,Bas-Rhin,Strasbourg
5.175.14.116,4,3,eco-institut.de,FR,Europe,Western Europe,France,Grand Est,Bas-Rhin,Strasbourg
92.204.55.75,4,12,eeepcnews.de,FR,Europe,Western Europe,France,Grand Est,Bas-Rhin,Strasbourg
92.204.58.32,4,11,eifelpark.de,FR,Europe,Western Europe,France,Grand Est,Bas-Rhin,Strasbourg
92.204.43.132,4,38,eishockey-magazin.de,FR,Europe,Western Europe,France,Grand Est,Bas-Rhin,Strasbourg
92.204.239.237,4,21,eislauf-union.de,FR,Europe,Western Europe,France,Grand Est,Bas-Rhin,Strasbourg
92.204.239.130,4,45,elektrosmog.com,FR,Europe,Western Europe,France,Grand Est,Bas-Rhin,Strasbourg
92.204.239.219,4,10,elowar.com,FR,Europe,Western Europe,France,Grand Est,Bas-Rhin,Strasbourg
62.138.179.94,4,-31,elspe.de,FR,Europe,Western Europe,France,Grand Est,Bas-Rhin,Strasbourg
92.205.64.71,4,50,erbrecht-ratgeber.de,FR,Europe,Western Europe,France,Grand Est,Bas-Rhin,Strasbourg
5.175.14.103,4,3,eso-stroke.org,FR,Europe,Western Europe,France,Grand Est,Bas-Rhin,Strasbourg
5.175.14.91,4,35,europeanwriterscouncil.eu,FR,Europe,Western Europe,France,Grand Est,Bas-Rhin,Strasbourg
91.223.40.48,4,31,europlanet-society.org,FR,Europe,Western Europe,France,Grand Est,Bas-Rhin,Strasbourg
92.204.43.12,4,43,eurothyroid.com,FR,Europe,Western Europe,France,Grand Est,Bas-Rhin,Strasbourg
92.205.64.76,4,81,exxile.net,FR,Europe,Western Europe,France,Grand Est,Bas-Rhin,Strasbourg
92.204.236.109,4,9,fairaudio.de,FR,Europe,Western Europe,France,Grand Est,Bas-Rhin,Strasbourg
5.175.14.18,4,15,far-game.com,FR,Europe,Western Europe,France,Grand Est,Bas-Rhin,Strasbourg
92.204.58.154,4,10,fc-hansa.de,FR,Europe,Western Europe,France,Grand Est,Bas-Rhin,Strasbourg
91.223.40.86,4,6,febea.fr,FR,Europe,Western Europe,France,Grand Est,Bas-Rhin,Strasbourg
62.138.18.27,4,3,fitboss.ru,FR,Europe,Western Europe,France,Grand Est,Bas-Rhin,Strasbourg
5.175.14.46,4,2,fluechtlingsrat-berlin.de,FR,Europe,Western Europe,France,Grand Est,Bas-Rhin,Strasbourg
92.205.64.57,4,8,fluxicon.com,FR,Europe,Western Europe,France,Grand Est,Bas-Rhin,Strasbourg
134.119.176.29,4,10,forumromanum.org,FR,Europe,Western Europe,France,Grand Est,Bas-Rhin,Strasbourg
62.138.184.195,4,9,freakware.de,FR,Europe,Western Europe,France,Grand Est,Bas-Rhin,Strasbourg
5.175.14.51,4,10,freeocalan.org,FR,Europe,Western Europe,France,Grand Est,Bas-Rhin,Strasbourg
92.204.55.150,4,9,fs-driver.org,FR,Europe,Western Europe,France,Grand Est,Bas-Rhin,Strasbourg
5.175.14.153,4,2,fsp-europe.com,FR,Europe,Western Europe,France,Grand Est,Bas-Rhin,Strasbourg
5.175.14.183,4,3,fuckluckygohappy.de,FR,Europe,Western Europe,France,Grand Est,Bas-Rhin,Strasbourg
92.204.55.78,4,9,fuellmich.com,FR,Europe,Western Europe,France,Grand Est,Bas-Rhin,Strasbourg
5.175.14.27,4,3,fuenf-filmfreunde.de,FR,Europe,Western Europe,France,Grand Est,Bas-Rhin,Strasbourg
92.205.64.116,4,9,gamification-research.org,FR,Europe,Western Europe,France,Grand Est,Bas-Rhin,Strasbourg
92.204.43.129,4,18,gardasee.de,FR,Europe,Western Europe,France,Grand Est,Bas-Rhin,Strasbourg
5.175.14.253,4,4,gcr21.org,FR,Europe,Western Europe,France,Grand Est,Bas-Rhin,Strasbourg
92.204.236.49,4,13,geilekarre.de,FR,Europe,Western Europe,France,Grand Est,Bas-Rhin,Strasbourg
5.175.14.141,4,16,georg-kolbe-museum.de,FR,Europe,Western Europe,France,Grand Est,Bas-Rhin,Strasbourg
85.25.203.30,4,11,getsoft.pro,FR,Europe,Western Europe,France,Grand Est,Bas-Rhin,Strasbourg
92.204.236.66,4,13,go1a.de,FR,Europe,Western Europe,France,Grand Est,Bas-Rhin,Strasbourg
92.204.58.115,4,85,gpticketshop.com,FR,Europe,Western Europe,France,Grand Est,Bas-Rhin,Strasbourg
151.106.4.82,4,34,greenmuze.com,FR,Europe,Western Europe,France,Grand Est,Bas-Rhin,Strasbourg
92.204.55.167,4,27,grundschuleschoenwalde.de,FR,Europe,Western Europe,France,Grand Est,Bas-Rhin,Strasbourg
92.204.239.41,4,11,gth-online.org,FR,Europe,Western Europe,France,Grand Est,Bas-Rhin,Strasbourg
62.138.184.123,4,83640,gutekueche.at,FR,Europe,Western Europe,France,Grand Est,Bas-Rhin,Strasbourg
62.138.179.246,4,93619,gutekueche.de,FR,Europe,Western Europe,France,Grand Est,Bas-Rhin,Strasbourg
62.138.150.70,4,7,guteschulen.net,FR,Europe,Western Europe,France,Grand Est,Bas-Rhin,Strasbourg
5.175.14.48,4,16,hal-berlin.de,FR,Europe,Western Europe,France,Grand Est,Bas-Rhin,Strasbourg
134.119.218.191,4,692,hamsphere.com,FR,Europe,Western Europe,France,Grand Est,Bas-Rhin,Strasbourg
5.175.14.62,4,6,hermann-uwe.de,FR,Europe,Western Europe,France,Grand Est,Bas-Rhin,Strasbourg
92.204.58.19,4,15,hoefliger.com,FR,Europe,Western Europe,France,Grand Est,Bas-Rhin,Strasbourg
185.136.159.152,4,37,iamj.in,FR,Europe,Western Europe,France,Grand Est,Bas-Rhin,Strasbourg
62.138.11.47,4,6,iaras.org,FR,Europe,Western Europe,France,Grand Est,Bas-Rhin,Strasbourg
5.175.14.123,4,3,ich-suche.de,FR,Europe,Western Europe,France,Grand Est,Bas-Rhin,Strasbourg
62.138.0.36,4,82,iedi.org.br,FR,Europe,Western Europe,France,Grand Est,Bas-Rhin,Strasbourg
5.175.14.138,4,30,iep-berlin.de,FR,Europe,Western Europe,France,Grand Est,Bas-Rhin,Strasbourg
92.204.58.110,4,7,ifightdepression.com,FR,Europe,Western Europe,France,Grand Est,Bas-Rhin,Strasbourg
92.204.43.62,4,15,igedo.com,FR,Europe,Western Europe,France,Grand Est,Bas-Rhin,Strasbourg
91.250.84.5,4,4,ihr-wellness-magazin.de,FR,Europe,Western Europe,France,Grand Est,Bas-Rhin,Strasbourg
5.175.14.185,4,18,imagico.de,FR,Europe,Western Europe,France,Grand Est,Bas-Rhin,Strasbourg
92.204.43.37,4,35,innsbruck-tirol2018.com,FR,Europe,Western Europe,France,Grand Est,Bas-Rhin,Strasbourg
92.204.58.76,4,28,interview-im-dokumentarfilm.de,FR,Europe,Western Europe,France,Grand Est,Bas-Rhin,Strasbourg
92.204.58.26,4,12,ion-products.com,FR,Europe,Western Europe,France,Grand Est,Bas-Rhin,Strasbourg
62.138.184.176,4,486,iriedaily.de,FR,Europe,Western Europe,France,Grand Est,Bas-Rhin,Strasbourg
92.204.239.25,4,10,isny.de,FR,Europe,Western Europe,France,Grand Est,Bas-Rhin,Strasbourg
92.205.64.35,4,41,italien.de,FR,Europe,Western Europe,France,Grand Est,Bas-Rhin,Strasbourg
5.175.14.26,4,4,jazzinstitut.de,FR,Europe,Western Europe,France,Grand Est,Bas-Rhin,Strasbourg
92.204.43.107,4,9,jdngroup.com,FR,Europe,Western Europe,France,Grand Est,Bas-Rhin,Strasbourg
188.138.38.36,4,3,jewishnews.com.ua,FR,Europe,Western Europe,France,Grand Est,Bas-Rhin,Strasbourg
92.204.239.73,4,10,journalistinnen.de,FR,Europe,Western Europe,France,Grand Est,Bas-Rhin,Strasbourg
92.204.239.202,4,11,kampfl.eu,FR,Europe,Western Europe,France,Grand Est,Bas-Rhin,Strasbourg
92.205.64.119,4,15,kangatraining.info,FR,Europe,Western Europe,France,Grand Est,Bas-Rhin,Strasbourg
5.175.14.139,4,1,kaput-mag.com,FR,Europe,Western Europe,France,Grand Est,Bas-Rhin,Strasbourg
92.204.58.149,4,32,kehlsteinhaus.de,FR,Europe,Western Europe,France,Grand Est,Bas-Rhin,Strasbourg
5.175.14.37,4,24,klavierexperte.net,FR,Europe,Western Europe,France,Grand Est,Bas-Rhin,Strasbourg
92.205.64.133,4,31,kleinerdrei.org,FR,Europe,Western Europe,France,Grand Est,Bas-Rhin,Strasbourg
92.204.239.167,4,41,klima-kollekte.de,FR,Europe,Western Europe,France,Grand Est,Bas-Rhin,Strasbourg
92.204.55.39,4,23,klimaretter.info,FR,Europe,Western Europe,France,Grand Est,Bas-Rhin,Strasbourg
5.175.14.110,4,2,kloster-chorin.org,FR,Europe,Western Europe,France,Grand Est,Bas-Rhin,Strasbourg
5.175.14.191,4,4,knusthamburg.de,FR,Europe,Western Europe,France,Grand Est,Bas-Rhin,Strasbourg
92.204.55.142,4,23,koelnerliste.com,FR,Europe,Western Europe,France,Grand Est,Bas-Rhin,Strasbourg
92.204.43.7,4,7,koerperwelten.de,FR,Europe,Western Europe,France,Grand Est,Bas-Rhin,Strasbourg
5.175.14.126,4,3,kogler.net,FR,Europe,Western Europe,France,Grand Est,Bas-Rhin,Strasbourg
5.175.14.70,4,2,koki-freiburg.de,FR,Europe,Western Europe,France,Grand Est,Bas-Rhin,Strasbourg
5.175.14.147,4,85,kompetenznetzwerk-hass-im-netz.de,FR,Europe,Western Europe,France,Grand Est,Bas-Rhin,Strasbourg
92.204.53.8,4,53,kortingsbonsauna.nl,FR,Europe,Western Europe,France,Grand Est,Bas-Rhin,Strasbourg
92.204.189.9,4,16,kss.rs,FR,Europe,Western Europe,France,Grand Est,Bas-Rhin,Strasbourg
178.77.99.120,4,55,laufen.de,FR,Europe,Western Europe,France,Grand Est,Bas-Rhin,Strasbourg
92.204.236.208,4,39,laurel-and-hardy.com,FR,Europe,Western Europe,France,Grand Est,Bas-Rhin,Strasbourg
62.138.185.101,4,29,learnattack.de,FR,Europe,Western Europe,France,Grand Est,Bas-Rhin,Strasbourg
62.138.184.188,4,7882,lederzentrum.de,FR,Europe,Western Europe,France,Grand Est,Bas-Rhin,Strasbourg
92.204.239.186,4,40,legendendertechnik.de,FR,Europe,Western Europe,France,Grand Est,Bas-Rhin,Strasbourg
92.204.58.148,4,17,leica-camera.blog,FR,Europe,Western Europe,France,Grand Est,Bas-Rhin,Strasbourg
5.175.14.45,4,4,lexikon-der-wehrmacht.de,FR,Europe,Western Europe,France,Grand Est,Bas-Rhin,Strasbourg
92.204.54.4,4,4,lingua.com,FR,Europe,Western Europe,France,Grand Est,Bas-Rhin,Strasbourg
85.25.199.78,4,77,linuxreviews.org,FR,Europe,Western Europe,France,Grand Est,Bas-Rhin,Strasbourg
62.138.184.45,4,12957,lit-verlag.de,FR,Europe,Western Europe,France,Grand Est,Bas-Rhin,Strasbourg
92.204.55.109,4,26,literaturhaus-muenchen.de,FR,Europe,Western Europe,France,Grand Est,Bas-Rhin,Strasbourg
92.204.239.96,4,10,littleyears.de,FR,Europe,Western Europe,France,Grand Est,Bas-Rhin,Strasbourg
62.138.185.41,4,5250,lizenzhinweisgenerator.de,FR,Europe,Western Europe,France,Grand Est,Bas-Rhin,Strasbourg
92.51.166.181,4,14,lobbypedia.de,FR,Europe,Western Europe,France,Grand Est,Bas-Rhin,Strasbourg
92.204.239.113,4,12,lookout-spiele.de,FR,Europe,Western Europe,France,Grand Est,Bas-Rhin,Strasbourg
5.175.14.240,4,5,loriot.de,FR,Europe,Western Europe,France,Grand Est,Bas-Rhin,Strasbourg
62.138.184.28,4,4466,loxone.com,FR,Europe,Western Europe,France,Grand Est,Bas-Rhin,Strasbourg
92.204.236.59,4,8,lsvd.de,FR,Europe,Western Europe,France,Grand Est,Bas-Rhin,Strasbourg
91.250.82.168,4,3,lwv-hessen.de,FR,Europe,Western Europe,France,Grand Est,Bas-Rhin,Strasbourg
92.204.239.170,4,8,lychesis.net,FR,Europe,Western Europe,France,Grand Est,Bas-Rhin,Strasbourg
92.204.239.209,4,44,madvr.com,FR,Europe,Western Europe,France,Grand Est,Bas-Rhin,Strasbourg
92.204.236.229,4,34,mamp.info,FR,Europe,Western Europe,France,Grand Est,Bas-Rhin,Strasbourg
62.138.26.235,4,565,mapsforge.org,FR,Europe,Western Europe,France,Grand Est,Bas-Rhin,Strasbourg
5.175.14.73,4,3,masha-sedgwick.com,FR,Europe,Western Europe,France,Grand Est,Bas-Rhin,Strasbourg
62.138.2.107,4,70,matheplanet.com,FR,Europe,Western Europe,France,Grand Est,Bas-Rhin,Strasbourg
62.138.18.44,4,9,mdig.com.br,FR,Europe,Western Europe,France,Grand Est,Bas-Rhin,Strasbourg
85.25.119.31,4,27,medivere.de,FR,Europe,Western Europe,France,Grand Est,Bas-Rhin,Strasbourg
92.205.64.21,4,8,mehr-als-du-denkst.de,FR,Europe,Western Europe,France,Grand Est,Bas-Rhin,Strasbourg
85.25.199.241,4,63,mercatos.net,FR,Europe,Western Europe,France,Grand Est,Bas-Rhin,Strasbourg
5.175.14.89,4,11,merkur-zeitschrift.de,FR,Europe,Western Europe,France,Grand Est,Bas-Rhin,Strasbourg
134.119.176.26,4,13,minhlongtrading.com,FR,Europe,Western Europe,France,Grand Est,Bas-Rhin,Strasbourg
62.138.179.253,4,1741,minimeal.com,FR,Europe,Western Europe,France,Grand Est,Bas-Rhin,Strasbourg
130.79.201.86,4,10,misha.fr,FR,Europe,Western Europe,France,Grand Est,Bas-Rhin,Strasbourg
92.204.55.59,4,34,mmb-institut.de,FR,Europe,Western Europe,France,Grand Est,Bas-Rhin,Strasbourg
92.204.240.173,4,28,mobilemarketingmagazine.com,FR,Europe,Western Europe,France,Grand Est,Bas-Rhin,Strasbourg
92.205.64.51,4,13,moeck.com,FR,Europe,Western Europe,France,Grand Est,Bas-Rhin,Strasbourg
91.250.86.152,4,24,moly.hu,FR,Europe,Western Europe,France,Grand Est,Bas-Rhin,Strasbourg
212.234.3.131,4,26,montbeliard.fr,FR,Europe,Western Europe,France,Grand Est,Bas-Rhin,Wolfisheim
5.175.14.121,4,43,motionmountain.net,FR,Europe,Western Europe,France,Grand Est,Bas-Rhin,Strasbourg
5.175.14.25,4,61,motor-direkt.de,FR,Europe,Western Europe,France,Grand Est,Bas-Rhin,Strasbourg
151.106.17.234,4,89,msfn.org,FR,Europe,Western Europe,France,Grand Est,Bas-Rhin,Strasbourg
92.204.239.152,4,8,musenblaetter.de,FR,Europe,Western Europe,France,Grand Est,Bas-Rhin,Strasbourg
213.246.45.18,4,5,mutuelle.com,FR,Europe,Western Europe,France,Grand Est,Marne,Reims
188.138.44.60,4,24,mytestopay.com,FR,Europe,Western Europe,France,Grand Est,Bas-Rhin,Strasbourg
134.119.176.20,4,15,myxertones.com,FR,Europe,Western Europe,France,Grand Est,Bas-Rhin,Strasbourg
188.138.1.41,4,41,nagel-draxler.de,FR,Europe,Western Europe,France,Grand Est,Bas-Rhin,Strasbourg
92.204.55.156,4,55,neckarbischofsheim.info,FR,Europe,Western Europe,France,Grand Est,Bas-Rhin,Strasbourg
5.175.14.187,4,3,nemmelheim.de,FR,Europe,Western Europe,France,Grand Est,Bas-Rhin,Strasbourg
89.234.141.68,4,10,netlib.re,FR,Europe,Western Europe,France,Grand Est,Bas-Rhin,Strasbourg
92.204.55.198,4,8,netzfeuilleton.de,FR,Europe,Western Europe,France,Grand Est,Bas-Rhin,Strasbourg
91.250.86.12,4,6,nextroom.at,FR,Europe,Western Europe,France,Grand Est,Bas-Rhin,Strasbourg
92.204.55.157,4,25,nolangroup.de,FR,Europe,Western Europe,France,Grand Est,Bas-Rhin,Strasbourg
92.204.239.199,4,21,nolimitscoaster.com,FR,Europe,Western Europe,France,Grand Est,Bas-Rhin,Strasbourg
92.205.64.34,4,16,nuclear-free.com,FR,Europe,Western Europe,France,Grand Est,Bas-Rhin,Strasbourg
5.175.14.80,4,3,nyhund.com,FR,Europe,Western Europe,France,Grand Est,Bas-Rhin,Strasbourg
62.138.11.46,4,39,odysseetheater.com,FR,Europe,Western Europe,France,Grand Est,Bas-Rhin,Strasbourg
62.75.215.23,4,22,office-loesung.de,FR,Europe,Western Europe,France,Grand Est,Bas-Rhin,Strasbourg
5.175.14.136,4,4,ok-foto.com,FR,Europe,Western Europe,France,Grand Est,Bas-Rhin,Strasbourg
5.175.14.226,4,3,oldmansjourney.com,FR,Europe,Western Europe,France,Grand Est,Bas-Rhin,Strasbourg
92.204.239.23,4,11,omegataupodcast.net,FR,Europe,Western Europe,France,Grand Est,Bas-Rhin,Strasbourg
85.95.208.10,4,341,Ookla Speedtest Server 13661: bpwoippy.vialis.net,FR,Europe,Western Europe,France,Grand Est,Moselle,Gandrange
185.127.240.4,4,355,Ookla Speedtest Server 14043: testdebit.laregie.fr,FR,Europe,Western Europe,France,Grand Est,Bas-Rhin,Reichshoffen
85.95.209.134,4,391,Ookla Speedtest Server 14372: testdebit.riv54.fr,FR,Europe,Western Europe,France,Grand Est,Moselle,Gandrange
185.230.8.4,4,212,Ookla Speedtest Server 16232: testdebit.fibragglo.fr,FR,Europe,Western Europe,France,Grand Est,Moselle,Œting
213.226.72.243,4,130851,Ookla Speedtest Server 17349: speedtest.ornethd.net,FR,Europe,Western Europe,France,Grand Est,Moselle,Amnéville
85.95.208.196,4,319,Ookla Speedtest Server 21268: testdebithom.enes.fr,FR,Europe,Western Europe,France,Grand Est,Moselle,Gandrange
213.166.201.196,4,385,Ookla Speedtest Server 24059: testdebitpublic.vialis.net,FR,Europe,Western Europe,France,Grand Est,Haut-Rhin,Colmar
147.78.40.4,4,464,Ookla Speedtest Server 31083: testdebit.tubeo.fr,FR,Europe,Western Europe,France,Grand Est,Moselle,Enchenberg
85.95.208.230,4,298,Ookla Speedtest Server 51790: testdebit.sitevo.fr,FR,Europe,Western Europe,France,Grand Est,Moselle,Gandrange
5.175.14.63,4,11,openmoji.org,FR,Europe,Western Europe,France,Grand Est,Bas-Rhin,Strasbourg
134.158.151.175,4,79,openmole.org,FR,Europe,Western Europe,France,Grand Est,Bas-Rhin,Strasbourg
92.204.239.118,4,8,orania.berlin,FR,Europe,Western Europe,France,Grand Est,Bas-Rhin,Strasbourg
92.204.253.2,4,10,organesh.com,FR,Europe,Western Europe,France,Grand Est,Bas-Rhin,Strasbourg
62.138.179.51,4,28,ortsdienst.de,FR,Europe,Western Europe,France,Grand Est,Bas-Rhin,Strasbourg
62.138.24.225,4,4,os4depot.net,FR,Europe,Western Europe,France,Grand Est,Bas-Rhin,Strasbourg
92.204.40.196,4,15,ostrichpharmaceuticals.com,FR,Europe,Western Europe,France,Grand Est,Bas-Rhin,Strasbourg
92.204.239.47,4,57,ottobeuren.de,FR,Europe,Western Europe,France,Grand Est,Bas-Rhin,Strasbourg
5.175.14.120,4,20,panorama-berlin.com,FR,Europe,Western Europe,France,Grand Est,Bas-Rhin,Strasbourg
62.75.180.101,4,4,pappas.at,FR,Europe,Western Europe,France,Grand Est,Bas-Rhin,Strasbourg
92.204.58.66,4,37,parkinn-berlin.de,FR,Europe,Western Europe,France,Grand Est,Bas-Rhin,Strasbourg
92.204.55.241,4,11,pavillon-hannover.de,FR,Europe,Western Europe,France,Grand Est,Bas-Rhin,Strasbourg
92.204.58.70,4,32,pentahotels.com,FR,Europe,Western Europe,France,Grand Est,Bas-Rhin,Strasbourg
5.175.14.225,4,8,pfingstberg.de,FR,Europe,Western Europe,France,Grand Est,Bas-Rhin,Strasbourg
92.119.127.110,4,51,phoenixcoin.org,FR,Europe,Western Europe,France,Grand Est,Bas-Rhin,Strasbourg
62.138.184.98,4,29,phonostar.de,FR,Europe,Western Europe,France,Grand Est,Bas-Rhin,Strasbourg
92.204.55.106,4,31,phpbb-seo.com,FR,Europe,Western Europe,France,Grand Est,Bas-Rhin,Strasbourg
92.204.236.151,4,10,pinion.eu,FR,Europe,Western Europe,France,Grand Est,Bas-Rhin,Strasbourg
5.175.14.208,4,86,polizei-praevention.de,FR,Europe,Western Europe,France,Grand Est,Bas-Rhin,Strasbourg
92.204.236.71,4,29,preh.com,FR,Europe,Western Europe,France,Grand Est,Bas-Rhin,Strasbourg
92.204.239.165,4,61,pressekompass.net,FR,Europe,Western Europe,France,Grand Est,Bas-Rhin,Strasbourg
92.204.239.149,4,16,prinzessinnengarten.net,FR,Europe,Western Europe,France,Grand Est,Bas-Rhin,Strasbourg
5.175.14.210,4,56,pro-quote.de,FR,Europe,Western Europe,France,Grand Est,Bas-Rhin,Strasbourg
92.204.239.76,4,15,pt-galabau.de,FR,Europe,Western Europe,France,Grand Est,Bas-Rhin,Strasbourg
92.204.239.37,4,33,rage-official.com,FR,Europe,Western Europe,France,Grand Est,Bas-Rhin,Strasbourg
92.204.43.85,4,34,rak-koeln.de,FR,Europe,Western Europe,France,Grand Est,Bas-Rhin,Strasbourg
62.138.184.87,4,88,rathscheck.de,FR,Europe,Western Europe,France,Grand Est,Bas-Rhin,Strasbourg
92.204.58.47,4,12,ravensburg.de,FR,Europe,Western Europe,France,Grand Est,Bas-Rhin,Strasbourg
92.204.55.152,4,26,rebeat.com,FR,Europe,Western Europe,France,Grand Est,Bas-Rhin,Strasbourg
5.175.14.248,4,37,reciva.com,FR,Europe,Western Europe,France,Grand Est,Bas-Rhin,Strasbourg
92.204.55.155,4,44,repair.eu,FR,Europe,Western Europe,France,Grand Est,Bas-Rhin,Strasbourg
92.204.236.60,4,26,rfw-koeln.de,FR,Europe,Western Europe,France,Grand Est,Bas-Rhin,Strasbourg
37.61.201.186,4,25,rockharz-festival.com,FR,Europe,Western Europe,France,Grand Est,Bas-Rhin,Strasbourg
92.204.239.200,4,30,roell.net,FR,Europe,Western Europe,France,Grand Est,Bas-Rhin,Strasbourg
92.204.55.79,4,48,rohmert-medien.de,FR,Europe,Western Europe,France,Grand Est,Bas-Rhin,Strasbourg
92.205.64.82,4,46,rolfdisch.de,FR,Europe,Western Europe,France,Grand Est,Bas-Rhin,Strasbourg
62.138.179.78,4,77502,romed-kliniken.de,FR,Europe,Western Europe,France,Grand Est,Bas-Rhin,Strasbourg
5.175.14.85,4,32,roscheiderhof.de,FR,Europe,Western Europe,France,Grand Est,Bas-Rhin,Strasbourg
92.205.64.123,4,10,royal-magazin.de,FR,Europe,Western Europe,France,Grand Est,Bas-Rhin,Strasbourg
92.204.239.174,4,7,rrc-online.de,FR,Europe,Western Europe,France,Grand Est,Bas-Rhin,Strasbourg
134.119.219.127,4,3,rsbeulah.com,FR,Europe,Western Europe,France,Grand Est,Bas-Rhin,Strasbourg
85.25.194.30,4,2,russianitaly.com,FR,Europe,Western Europe,France,Grand Est,Bas-Rhin,Strasbourg
5.175.14.78,4,53,salzburger-kunstverein.at,FR,Europe,Western Europe,France,Grand Est,Bas-Rhin,Strasbourg
92.204.236.164,4,80,schloss-elmau.de,FR,Europe,Western Europe,France,Grand Est,Bas-Rhin,Strasbourg
92.205.64.41,4,118,schluessel-doebeling.de,FR,Europe,Western Europe,France,Grand Est,Bas-Rhin,Strasbourg
92.204.58.136,4,8,schoenherr-pockau.de,FR,Europe,Western Europe,France,Grand Est,Bas-Rhin,Strasbourg
92.205.64.75,4,63,schule-im-aufbruch.de,FR,Europe,Western Europe,France,Grand Est,Bas-Rhin,Strasbourg
62.138.179.209,4,260477,schwulissimo.de,FR,Europe,Western Europe,France,Grand Est,Bas-Rhin,Strasbourg
130.79.201.82,4,-27,sciencespo-strasbourg.fr,FR,Europe,Western Europe,France,Grand Est,Bas-Rhin,Strasbourg
5.175.14.79,4,22,sciencestage.com,FR,Europe,Western Europe,France,Grand Est,Bas-Rhin,Strasbourg
62.138.7.192,4,8,scrile.com,FR,Europe,Western Europe,France,Grand Est,Bas-Rhin,Strasbourg
5.175.14.170,4,34,secession.at,FR,Europe,Western Europe,France,Grand Est,Bas-Rhin,Strasbourg
92.205.64.23,4,43,seokicks.de,FR,Europe,Western Europe,France,Grand Est,Bas-Rhin,Strasbourg
5.175.14.98,4,6,serienoldies.de,FR,Europe,Western Europe,France,Grand Est,Bas-Rhin,Strasbourg
92.204.56.4,4,-1736,server4you.net,FR,Europe,Western Europe,France,Grand Est,Bas-Rhin,Strasbourg
92.204.239.211,4,7,showcaves.com,FR,Europe,Western Europe,France,Grand Est,Bas-Rhin,Strasbourg
92.204.239.218,4,7,shrinkingcities.com,FR,Europe,Western Europe,France,Grand Est,Bas-Rhin,Strasbourg
5.175.14.178,4,13,sila-standard.com,FR,Europe,Western Europe,France,Grand Est,Bas-Rhin,Strasbourg
5.175.14.214,4,1,sister-mag.com,FR,Europe,Western Europe,France,Grand Est,Bas-Rhin,Strasbourg
62.138.0.154,4,19,smago.de,FR,Europe,Western Europe,France,Grand Est,Bas-Rhin,Strasbourg
62.138.2.8,4,8,smartprogress.ru,FR,Europe,Western Europe,France,Grand Est,Bas-Rhin,Strasbourg
134.119.176.28,4,9,snlux.com,FR,Europe,Western Europe,France,Grand Est,Bas-Rhin,Strasbourg
62.75.252.219,4,-331740,soc-bdr.org,FR,Europe,Western Europe,France,Grand Est,Bas-Rhin,Strasbourg
92.204.55.175,4,34,sodah.de,FR,Europe,Western Europe,France,Grand Est,Bas-Rhin,Strasbourg
92.204.55.173,4,11,somatics.de,FR,Europe,Western Europe,France,Grand Est,Bas-Rhin,Strasbourg
92.204.239.107,4,28,sonett.eu,FR,Europe,Western Europe,France,Grand Est,Bas-Rhin,Strasbourg
5.175.14.209,4,11,spinnerei.de,FR,Europe,Western Europe,France,Grand Est,Bas-Rhin,Strasbourg
62.138.184.52,4,38,spritmonitor.de,FR,Europe,Western Europe,France,Grand Est,Bas-Rhin,Strasbourg
5.175.14.197,4,23,spruethmagers.com,FR,Europe,Western Europe,France,Grand Est,Bas-Rhin,Strasbourg
85.25.195.24,4,78,stadia.gr,FR,Europe,Western Europe,France,Grand Est,Bas-Rhin,Strasbourg
5.175.14.204,4,9,stadtkinowien.at,FR,Europe,Western Europe,France,Grand Est,Bas-Rhin,Strasbourg
5.175.14.15,4,51,stefankrause.net,FR,Europe,Western Europe,France,Grand Est,Bas-Rhin,Strasbourg
134.119.176.21,4,24,sterlingticket.com,FR,Europe,Western Europe,France,Grand Est,Bas-Rhin,Strasbourg
5.175.14.108,4,18,sterneck.net,FR,Europe,Western Europe,France,Grand Est,Bas-Rhin,Strasbourg
5.175.14.61,4,4,stiftung-buchkunst.de,FR,Europe,Western Europe,France,Grand Est,Bas-Rhin,Strasbourg
5.175.14.13,4,8,stiftung-schloss-dyck.de,FR,Europe,Western Europe,France,Grand Est,Bas-Rhin,Strasbourg
5.175.14.47,4,6,strandperle-hamburg.de,FR,Europe,Western Europe,France,Grand Est,Bas-Rhin,Strasbourg
62.138.179.198,4,76,studis-online.de,FR,Europe,Western Europe,France,Grand Est,Bas-Rhin,Strasbourg
92.205.64.29,4,20,sub-bavaria.de,FR,Europe,Western Europe,France,Grand Est,Bas-Rhin,Strasbourg
92.204.55.146,4,19,sucht.de,FR,Europe,Western Europe,France,Grand Est,Bas-Rhin,Strasbourg
92.204.58.67,4,7,supernature-forum.de,FR,Europe,Western Europe,France,Grand Est,Bas-Rhin,Strasbourg
92.204.239.98,4,8,systemcheck-wiki.de,FR,Europe,Western Europe,France,Grand Est,Bas-Rhin,Strasbourg
92.204.236.20,4,8,tacheles-sozialhilfe.de,FR,Europe,Western Europe,France,Grand Est,Bas-Rhin,Strasbourg
92.204.55.30,4,24,tag-der-architektur.de,FR,Europe,Western Europe,France,Grand Est,Bas-Rhin,Strasbourg
92.204.58.128,4,9,tannheimertal.com,FR,Europe,Western Europe,France,Grand Est,Bas-Rhin,Strasbourg
92.204.162.165,4,25,tarotreikibymitali.com,FR,Europe,Western Europe,France,Grand Est,Bas-Rhin,Strasbourg
92.205.64.90,4,81,taxidermy.at,FR,Europe,Western Europe,France,Grand Est,Bas-Rhin,Strasbourg
5.175.14.166,4,28,theater-an-der-ruhr.de,FR,Europe,Western Europe,France,Grand Est,Bas-Rhin,Strasbourg
92.204.239.109,4,68,theimportantsite.com,FR,Europe,Western Europe,France,Grand Est,Bas-Rhin,Strasbourg
5.175.14.22,4,19,theorieblog.de,FR,Europe,Western Europe,France,Grand Est,Bas-Rhin,Strasbourg
62.138.184.111,4,10623,tickettoaster.de,FR,Europe,Western Europe,France,Grand Est,Bas-Rhin,Strasbourg
92.205.64.19,4,8,timbayern.de,FR,Europe,Western Europe,France,Grand Est,Bas-Rhin,Strasbourg
5.175.14.12,4,3,torsten-horn.de,FR,Europe,Western Europe,France,Grand Est,Bas-Rhin,Strasbourg
134.119.184.51,4,2,truck1-pl.com,FR,Europe,Western Europe,France,Grand Est,Bas-Rhin,Strasbourg
151.106.25.27,4,1031457,tu-opt.com,FR,Europe,Western Europe,France,Grand Est,Bas-Rhin,Strasbourg
92.204.239.207,4,24,tube-tester.com,FR,Europe,Western Europe,France,Grand Est,Bas-Rhin,Strasbourg
85.25.43.146,4,659,tvbattle.com,FR,Europe,Western Europe,France,Grand Est,Bas-Rhin,Strasbourg
5.175.14.172,4,4,udojuergens.de,FR,Europe,Western Europe,France,Grand Est,Bas-Rhin,Strasbourg
5.175.14.39,4,18,ukwtv.de,FR,Europe,Western Europe,France,Grand Est,Bas-Rhin,Strasbourg
151.106.6.134,4,8,ulusalkanal.com.tr,FR,Europe,Western Europe,France,Grand Est,Bas-Rhin,Strasbourg
5.175.14.87,4,5,unibright.io,FR,Europe,Western Europe,France,Grand Est,Bas-Rhin,Strasbourg
130.79.201.70,4,-31,usias.fr,FR,Europe,Western Europe,France,Grand Est,Bas-Rhin,Strasbourg
92.204.43.161,4,63,valentinas-kochbuch.de,FR,Europe,Western Europe,France,Grand Est,Bas-Rhin,Strasbourg
92.204.40.80,4,20,vdr-portal.de,FR,Europe,Western Europe,France,Grand Est,Bas-Rhin,Strasbourg
92.204.239.173,4,35,vegetableorchestra.org,FR,Europe,Western Europe,France,Grand Est,Bas-Rhin,Strasbourg
92.204.55.26,4,8,verbrecherverlag.de,FR,Europe,Western Europe,France,Grand Est,Bas-Rhin,Strasbourg
5.175.14.101,4,32,vern.de,FR,Europe,Western Europe,France,Grand Est,Bas-Rhin,Strasbourg
5.175.14.95,4,17,verner-panton.com,FR,Europe,Western Europe,France,Grand Est,Bas-Rhin,Strasbourg
95.130.155.170,4,4,vinsalsace.com,FR,Europe,Western Europe,France,Grand Est,Bas-Rhin,Bischheim
92.204.239.197,4,71,vkohl.de,FR,Europe,Western Europe,France,Grand Est,Bas-Rhin,Strasbourg
92.205.64.128,4,33,vogelsang-ip.de,FR,Europe,Western Europe,France,Grand Est,Bas-Rhin,Strasbourg
92.204.55.160,4,8,voicesfromthedarkside.de,FR,Europe,Western Europe,France,Grand Est,Bas-Rhin,Strasbourg
5.175.14.41,4,20,wagenbach.de,FR,Europe,Western Europe,France,Grand Est,Bas-Rhin,Strasbourg
5.175.14.53,4,5,walter-fendt.de,FR,Europe,Western Europe,France,Grand Est,Bas-Rhin,Strasbourg
5.175.14.251,4,4,wanderinstitut.de,FR,Europe,Western Europe,France,Grand Est,Bas-Rhin,Strasbourg
62.138.185.145,4,10476,wandtattoo.de,FR,Europe,Western Europe,France,Grand Est,Bas-Rhin,Strasbourg
92.204.58.6,4,16,watercool.de,FR,Europe,Western Europe,France,Grand Est,Bas-Rhin,Strasbourg
134.119.179.89,4,29,webdesigningdubai.ae,FR,Europe,Western Europe,France,Grand Est,Bas-Rhin,Strasbourg
5.175.14.218,4,5,weiand-online.de,FR,Europe,Western Europe,France,Grand Est,Bas-Rhin,Strasbourg
5.175.14.146,4,2,werkstatt-der-kulturen.de,FR,Europe,Western Europe,France,Grand Est,Bas-Rhin,Strasbourg
5.175.14.246,4,1,wgt-guide.de,FR,Europe,Western Europe,France,Grand Est,Bas-Rhin,Strasbourg
5.175.14.238,4,7,wheretoapp.com,FR,Europe,Western Europe,France,Grand Est,Bas-Rhin,Strasbourg
62.138.184.239,4,12748,wirtube.de,FR,Europe,Western Europe,France,Grand Est,Bas-Rhin,Strasbourg
95.130.155.92,4,1076,wolfberger.com,FR,Europe,Western Europe,France,Grand Est,Bas-Rhin,Bischheim
92.204.239.151,4,8,womenweb.de,FR,Europe,Western Europe,France,Grand Est,Bas-Rhin,Strasbourg
92.205.64.14,4,9,workwithcolor.com,FR,Europe,Western Europe,France,Grand Est,Bas-Rhin,Strasbourg
5.175.14.129,4,12,worldfuturecouncil.org,FR,Europe,Western Europe,France,Grand Est,Bas-Rhin,Strasbourg
5.35.252.101,4,26,wormatia.de,FR,Europe,Western Europe,France,Grand Est,Bas-Rhin,Strasbourg
92.204.55.205,4,24,worpswede.de,FR,Europe,Western Europe,France,Grand Est,Bas-Rhin,Strasbourg
134.119.176.24,4,26,writeonit.org,FR,Europe,Western Europe,France,Grand Est,Bas-Rhin,Strasbourg
85.25.200.145,4,3,wseas.org,FR,Europe,Western Europe,France,Grand Est,Bas-Rhin,Strasbourg
92.204.239.49,4,7,wut.de,FR,Europe,Western Europe,France,Grand Est,Bas-Rhin,Strasbourg
5.175.14.43,4,3,xreflector.net,FR,Europe,Western Europe,France,Grand Est,Bas-Rhin,Strasbourg
92.205.64.105,4,7,yvonne-elodie.de,FR,Europe,Western Europe,France,Grand Est,Bas-Rhin,Strasbourg
92.205.64.93,4,53,zaltoglas.at,FR,Europe,Western Europe,France,Grand Est,Bas-Rhin,Strasbourg
92.204.58.146,4,9,zmf.de,FR,Europe,Western Europe,France,Grand Est,Bas-Rhin,Strasbourg
91.250.81.28,4,5,zmiksowani.pl,FR,Europe,Western Europe,France,Grand Est,Bas-Rhin,Strasbourg
188.138.10.197,4,9,zwoenitz.de,FR,Europe,Western Europe,France,Grand Est,Bas-Rhin,Strasbourg
