reflector_ip,ip_version,offset,description,country_code,region,sub_region,country_name,sub_division_1,sub_division_2,city
151.80.203.85,4,13,727sailbags.com,FR,Europe,Western Europe,France,Hauts-de-France,North,Roubaix
151.80.238.84,4,29,abmhealth.com,FR,Europe,Western Europe,France,Hauts-de-France,North,Roubaix
51.178.251.196,4,-26,adfurniture.pl,FR,Europe,Western Europe,France,Hauts-de-France,North,Roubaix
151.106.40.31,4,26,adsct.com.au,FR,Europe,Western Europe,France,Hauts-de-France,North,Roubaix
51.83.77.97,4,8,africinvest.com,FR,Europe,Western Europe,France,Hauts-de-France,North,Roubaix
51.83.90.3,4,5,agsmovers.com,FR,Europe,Western Europe,France,Hauts-de-France,North,Roubaix
51.83.29.53,4,4,alessandrofiorio.it,FR,Europe,Western Europe,France,Hauts-de-France,North,Roubaix
151.80.26.74,4,288162,allhyipmonitors.com,FR,Europe,Western Europe,France,Hauts-de-France,North,Roubaix
194.105.91.48,4,116815,altinay-law.com,FR,Europe,Western Europe,France,Hauts-de-France,North,Gravelines
151.80.28.182,4,2,altissimagroup.com,FR,Europe,Western Europe,France,Hauts-de-France,North,Roubaix
51.178.172.95,4,3,amb1xbet.com,FR,Europe,Western Europe,France,Hauts-de-France,North,Roubaix
151.106.32.180,4,36,amightywind.com,FR,Europe,Western Europe,France,Hauts-de-France,North,Roubaix
151.80.196.173,4,60,analogway.com,FR,Europe,Western Europe,France,Hauts-de-France,North,Roubaix
151.80.57.176,4,21,aquaboulevard.fr,FR,Europe,Western Europe,France,Hauts-de-France,North,Roubaix
151.106.40.18,4,7,aquaidwatercoolers.co.uk,FR,Europe,Western Europe,France,Hauts-de-France,North,Roubaix
51.178.194.146,4,4,arbitracker.org,FR,Europe,Western Europe,France,Hauts-de-France,North,Roubaix
51.178.137.105,4,26,archimagazine.com,FR,Europe,Western Europe,France,Hauts-de-France,North,Roubaix
151.80.57.125,4,18,ariege.fr,FR,Europe,Western Europe,France,Hauts-de-France,North,Roubaix
151.106.41.19,4,605,arkeonews.net,FR,Europe,Western Europe,France,Hauts-de-France,North,Roubaix
51.178.136.188,4,53,arrobapark.com,FR,Europe,Western Europe,France,Hauts-de-France,North,Roubaix
151.106.38.51,4,3,artjameel.org,FR,Europe,Western Europe,France,Hauts-de-France,North,Roubaix
151.80.182.5,4,26,asafrance.fr,FR,Europe,Western Europe,France,Hauts-de-France,North,Roubaix
51.83.3.188,4,87,assabile.com,FR,Europe,Western Europe,France,Hauts-de-France,North,Roubaix
54.37.254.3,4,48,ateneubcn.cat,FR,Europe,Western Europe,France,Hauts-de-France,North,Roubaix
151.80.207.170,4,62,auction26.ru,FR,Europe,Western Europe,France,Hauts-de-France,North,Roubaix
51.83.99.98,4,18,auvergnerhonealpes-livre-lecture.org,FR,Europe,Western Europe,France,Hauts-de-France,North,Roubaix
194.76.37.50,4,6,avionio.com,FR,Europe,Western Europe,France,Hauts-de-France,North,Roubaix
212.83.137.197,4,31,babbar.tech,FR,Europe,Western Europe,France,Hauts-de-France,Pas-de-Calais,Desvres
212.83.132.162,4,8,babbar.tech,FR,Europe,Western Europe,France,Hauts-de-France,Pas-de-Calais,Desvres
212.85.131.39,4,15,baiedesomme.fr,FR,Europe,Western Europe,France,Hauts-de-France,Somme,Boves
151.80.25.104,4,64819,bceao.int,FR,Europe,Western Europe,France,Hauts-de-France,North,Roubaix
51.83.42.185,4,2,bcommebois.com,FR,Europe,Western Europe,France,Hauts-de-France,North,Tourcoing
51.83.42.217,4,60,becfrance.com,FR,Europe,Western Europe,France,Hauts-de-France,North,Tourcoing
151.80.203.92,4,6,bilboquet.com,FR,Europe,Western Europe,France,Hauts-de-France,North,Roubaix
51.178.156.6,4,4,bioparcvalencia.es,FR,Europe,Western Europe,France,Hauts-de-France,North,Roubaix
212.83.158.155,4,62,blogduwebdesign.com,FR,Europe,Western Europe,France,Hauts-de-France,Pas-de-Calais,Desvres
51.178.133.229,4,22,boinc-af.org,FR,Europe,Western Europe,France,Hauts-de-France,North,Roubaix
151.80.219.174,4,13,bouvet-ladubay.fr,FR,Europe,Western Europe,France,Hauts-de-France,North,Roubaix
51.83.104.216,4,5,bx1.be,FR,Europe,Western Europe,France,Hauts-de-France,North,Roubaix
51.83.81.193,4,32,calcioatalanta.it,FR,Europe,Western Europe,France,Hauts-de-France,North,Roubaix
151.80.196.125,4,-460814,callejero.net,FR,Europe,Western Europe,France,Hauts-de-France,North,Roubaix
151.80.161.77,4,50,caloryfrio.com,FR,Europe,Western Europe,France,Hauts-de-France,North,Roubaix
151.80.162.136,4,7,captainverify.com,FR,Europe,Western Europe,France,Hauts-de-France,North,Roubaix
212.83.145.21,4,4,carmf.fr,FR,Europe,Western Europe,France,Hauts-de-France,Pas-de-Calais,Desvres
195.90.117.10,4,21,caselio.com,FR,Europe,Western Europe,France,Hauts-de-France,North,Lille
54.38.240.223,4,6,casinosenligne.net,FR,Europe,Western Europe,France,Hauts-de-France,North,Roubaix
51.83.45.189,4,4,ccfa.fr,FR,Europe,Western Europe,France,Hauts-de-France,North,Tourcoing
151.80.4.219,4,3,cello.so,FR,Europe,Western Europe,France,Hauts-de-France,North,Roubaix
51.83.127.41,4,10,chu-poitiers.fr,FR,Europe,Western Europe,France,Hauts-de-France,North,Roubaix
151.80.85.137,4,6,cinemapassion.com,FR,Europe,Western Europe,France,Hauts-de-France,North,Roubaix
151.80.63.34,4,13,clickonometrics.com,FR,Europe,Western Europe,France,Hauts-de-France,North,Roubaix
51.255.83.33,4,3,cngof.fr,FR,Europe,Western Europe,France,Hauts-de-France,North,Gravelines
51.83.121.76,4,11,coastalpost.com,FR,Europe,Western Europe,France,Hauts-de-France,North,Roubaix
151.80.219.185,4,41,codesrousseau.fr,FR,Europe,Western Europe,France,Hauts-de-France,North,Roubaix
212.83.143.133,4,1,cordmagazine.com,FR,Europe,Western Europe,France,Hauts-de-France,Pas-de-Calais,Desvres
51.83.69.201,4,4,cozic.net,FR,Europe,Western Europe,France,Hauts-de-France,North,Roubaix
51.83.15.105,4,89,crema.gg,FR,Europe,Western Europe,France,Hauts-de-France,North,Roubaix
51.178.214.228,4,4,crosstock.net,FR,Europe,Western Europe,France,Hauts-de-France,North,Roubaix
151.80.28.116,4,7,cssforum.com.pk,FR,Europe,Western Europe,France,Hauts-de-France,North,Roubaix
51.83.33.135,4,40,cuisineoumnidal.ma,FR,Europe,Western Europe,France,Hauts-de-France,North,Roubaix
51.178.137.48,4,7,culturetheque.com,FR,Europe,Western Europe,France,Hauts-de-France,North,Roubaix
185.23.253.5,4,3,delhiescortsgin.in,FR,Europe,Western Europe,France,Hauts-de-France,North,Roubaix
51.83.82.250,4,9,denia.net,FR,Europe,Western Europe,France,Hauts-de-France,North,Roubaix
151.80.25.233,4,7,diarioaragones.com,FR,Europe,Western Europe,France,Hauts-de-France,North,Roubaix
212.83.142.162,4,46,digitalnature.ro,FR,Europe,Western Europe,France,Hauts-de-France,Pas-de-Calais,Desvres
151.80.23.63,4,54,diocese-annecy.fr,FR,Europe,Western Europe,France,Hauts-de-France,North,Roubaix
151.80.58.212,4,7,divella.it,FR,Europe,Western Europe,France,Hauts-de-France,North,Roubaix
77.156.224.84,4,136,DNS Server: 84.224.156.77.rev.sfr.net,FR,Europe,Western Europe,France,Hauts-de-France,Aisne,Soissons
151.80.238.97,4,153,DNS Server: ip97.ip-151-80-238.eu,FR,Europe,Western Europe,France,Hauts-de-France,North,Roubaix
81.250.56.13,4,1340,DNS Server: lfbn-ami-1-465-13.w81-250.abo.wanadoo.fr,FR,Europe,Western Europe,France,Hauts-de-France,Somme,Amiens
86.192.83.243,4,-3568,DNS Server: lfbn-ami-1-623-243.w86-192.abo.wanadoo.fr,FR,Europe,Western Europe,France,Hauts-de-France,Somme,Amiens
84.96.26.139,4,-5073,DNS Server: name1.olisys.fr,FR,Europe,Western Europe,France,Hauts-de-France,Aisne,Soissons
84.96.26.129,4,171,DNS Server: name2.olisys.fr,FR,Europe,Western Europe,France,Hauts-de-France,Aisne,Soissons
151.106.32.112,4,248,DNS Server: ns31246114.ip-151-106-32.eu,FR,Europe,Western Europe,France,Hauts-de-France,North,Roubaix
151.80.140.68,4,207,DNS Server: p2.public.dns.ucann2.net,FR,Europe,Western Europe,France,Hauts-de-France,North,Roubaix
86.105.212.41,4,297,DNS Server: vps-30371.fhnet.fr,FR,Europe,Western Europe,France,Hauts-de-France,North,Valenciennes
151.80.148.41,4,263,DNS Server: vps-4ed2418b.vps.ovh.net,FR,Europe,Western Europe,France,Hauts-de-France,North,Roubaix
93.118.34.100,4,266,DNS Server: vps-77244.fhnet.fr,FR,Europe,Western Europe,France,Hauts-de-France,North,Valenciennes
51.178.140.72,4,117,DNS Server: vps-a65221fd.vps.ovh.net,FR,Europe,Western Europe,France,Hauts-de-France,North,Roubaix
51.83.44.8,4,3,dream-alcala.com,FR,Europe,Western Europe,France,Hauts-de-France,North,Tourcoing
212.83.136.158,4,5,ebg.net,FR,Europe,Western Europe,France,Hauts-de-France,Pas-de-Calais,Desvres
51.83.25.197,4,111,ecoles-conde.com,FR,Europe,Western Europe,France,Hauts-de-France,North,Roubaix
54.38.243.68,4,3,ecologiapolitica.info,FR,Europe,Western Europe,France,Hauts-de-France,North,Roubaix
151.106.35.24,4,6,eforum.com,FR,Europe,Western Europe,France,Hauts-de-France,North,Roubaix
151.106.32.205,4,4,elombah.com,FR,Europe,Western Europe,France,Hauts-de-France,North,Roubaix
212.83.158.151,4,5,emyspot.com,FR,Europe,Western Europe,France,Hauts-de-France,Pas-de-Calais,Desvres
51.83.106.18,4,4,eptica.com,FR,Europe,Western Europe,France,Hauts-de-France,North,Roubaix
212.85.137.227,4,7042,ethiquable.coop,FR,Europe,Western Europe,France,Hauts-de-France,Somme,Boves
194.57.221.184,4,6,euclid-ec.org,FR,Europe,Western Europe,France,Hauts-de-France,North,Villeneuve-d'Ascq
51.83.41.25,4,11,ffdream.com,FR,Europe,Western Europe,France,Hauts-de-France,North,Tourcoing
212.83.129.215,4,286368,ffvb.org,FR,Europe,Western Europe,France,Hauts-de-France,Pas-de-Calais,Desvres
51.178.131.119,4,27,fieraroma.it,FR,Europe,Western Europe,France,Hauts-de-France,North,Roubaix
151.80.27.17,4,22,filsh.net,FR,Europe,Western Europe,France,Hauts-de-France,North,Roubaix
151.80.20.156,4,4,fokus.mk,FR,Europe,Western Europe,France,Hauts-de-France,North,Roubaix
51.83.57.139,4,60,fondation-jeromeseydoux-pathe.com,FR,Europe,Western Europe,France,Hauts-de-France,North,Roubaix
51.178.155.224,4,127,fordpoker.info,FR,Europe,Western Europe,France,Hauts-de-France,North,Roubaix
185.187.30.172,4,22,funbridge.com,FR,Europe,Western Europe,France,Hauts-de-France,Pas-de-Calais,Laventie
151.80.8.190,4,3,fwpn.org.pl,FR,Europe,Western Europe,France,Hauts-de-France,North,Roubaix
51.83.44.114,4,37,galerie-creation.com,FR,Europe,Western Europe,France,Hauts-de-France,North,Tourcoing
51.83.19.89,4,38,garnier-thiebaut.fr,FR,Europe,Western Europe,France,Hauts-de-France,North,Roubaix
212.83.148.22,4,9,geogarage.com,FR,Europe,Western Europe,France,Hauts-de-France,Pas-de-Calais,Desvres
51.178.179.175,4,14,girondins4ever.com,FR,Europe,Western Europe,France,Hauts-de-France,North,Roubaix
51.178.137.144,4,5,globfx.com,FR,Europe,Western Europe,France,Hauts-de-France,North,Roubaix
151.80.152.138,4,26,greenspector.com,FR,Europe,Western Europe,France,Hauts-de-France,North,Roubaix
151.80.203.84,4,17,guedo-outillage.fr,FR,Europe,Western Europe,France,Hauts-de-France,North,Roubaix
51.83.110.213,4,6,gutsofdarkness.com,FR,Europe,Western Europe,France,Hauts-de-France,North,Roubaix
46.105.78.18,4,5,guysavoy.com,FR,Europe,Western Europe,France,Hauts-de-France,North,Roubaix
151.80.203.109,4,4,h2r-equipements.com,FR,Europe,Western Europe,France,Hauts-de-France,North,Roubaix
212.83.134.42,4,22,hackndo.com,FR,Europe,Western Europe,France,Hauts-de-France,Pas-de-Calais,Desvres
151.80.143.33,4,20,hashcat.net,FR,Europe,Western Europe,France,Hauts-de-France,North,Roubaix
51.178.130.119,4,17,hautes-alpes.fr,FR,Europe,Western Europe,France,Hauts-de-France,North,Roubaix
195.154.219.240,4,5,houra.fr,FR,Europe,Western Europe,France,Hauts-de-France,Oise,Compiègne
51.83.19.217,4,37,ibraheemlarsen.top,FR,Europe,Western Europe,France,Hauts-de-France,North,Roubaix
151.80.243.31,4,31,idei.club,FR,Europe,Western Europe,France,Hauts-de-France,North,Roubaix
46.105.71.183,4,75,ilcittadinomb.it,FR,Europe,Western Europe,France,Hauts-de-France,North,Lille
151.80.52.51,4,3,imatag.com,FR,Europe,Western Europe,France,Hauts-de-France,North,Roubaix
51.83.37.25,4,3,institut-polaire.fr,FR,Europe,Western Europe,France,Hauts-de-France,North,Roubaix
51.83.78.197,4,74,ip-elec.fr,FR,Europe,Western Europe,France,Hauts-de-France,North,Roubaix
51.83.33.148,4,4,ircad.fr,FR,Europe,Western Europe,France,Hauts-de-France,North,Roubaix
51.83.109.105,4,33,jamit.org,FR,Europe,Western Europe,France,Hauts-de-France,North,Roubaix
151.106.32.49,4,3,jfa.com.jo,FR,Europe,Western Europe,France,Hauts-de-France,North,Roubaix
151.80.0.236,4,37,karstenwitt.com,FR,Europe,Western Europe,France,Hauts-de-France,North,Roubaix
151.80.197.90,4,6,keyforsteam.de,FR,Europe,Western Europe,France,Hauts-de-France,North,Roubaix
51.178.130.76,4,4,kibbie.at,FR,Europe,Western Europe,France,Hauts-de-France,North,Roubaix
51.178.200.182,4,3,kievkomfort.com.ua,FR,Europe,Western Europe,France,Hauts-de-France,North,Roubaix
212.83.131.63,4,4,lafabrique.fr,FR,Europe,Western Europe,France,Hauts-de-France,Pas-de-Calais,Desvres
212.83.141.192,4,6,lafeteducourt.com,FR,Europe,Western Europe,France,Hauts-de-France,Pas-de-Calais,Desvres
151.80.170.89,4,51,laradiobbs.net,FR,Europe,Western Europe,France,Hauts-de-France,North,Roubaix
212.83.158.154,4,22,le-gr20.fr,FR,Europe,Western Europe,France,Hauts-de-France,Pas-de-Calais,Desvres
212.83.128.164,4,69,legrandrex.com,FR,Europe,Western Europe,France,Hauts-de-France,Pas-de-Calais,Desvres
212.83.140.5,4,29,lemoinscher-formation.com,FR,Europe,Western Europe,France,Hauts-de-France,Pas-de-Calais,Desvres
51.178.178.46,4,15,lereveildumidi.fr,FR,Europe,Western Europe,France,Hauts-de-France,North,Roubaix
151.80.219.186,4,4,lessablesdolonne.fr,FR,Europe,Western Europe,France,Hauts-de-France,North,Roubaix
212.83.154.205,4,92,levieuxport.com,FR,Europe,Western Europe,France,Hauts-de-France,Pas-de-Calais,Desvres
151.80.27.186,4,68,librinova.com,FR,Europe,Western Europe,France,Hauts-de-France,North,Roubaix
51.83.2.241,4,3,logisticfreightltd.co.ke,FR,Europe,Western Europe,France,Hauts-de-France,North,Roubaix
51.178.143.16,4,8,lonerider-motorcycle.com,FR,Europe,Western Europe,France,Hauts-de-France,North,Roubaix
46.105.213.181,4,6,louisianaseafoodnews.com,FR,Europe,Western Europe,France,Hauts-de-France,North,Roubaix
212.83.150.21,4,8,lyon-entreprises.com,FR,Europe,Western Europe,France,Hauts-de-France,Pas-de-Calais,Desvres
151.80.243.160,4,1,macrostart.nl,FR,Europe,Western Europe,France,Hauts-de-France,North,Roubaix
151.80.64.2,4,5,manalaa.net,FR,Europe,Western Europe,France,Hauts-de-France,North,Roubaix
51.83.66.87,4,5,marquesderiscal.com,FR,Europe,Western Europe,France,Hauts-de-France,North,Roubaix
51.178.211.169,4,26,materiaux-naturels.fr,FR,Europe,Western Europe,France,Hauts-de-France,North,Roubaix
51.83.3.41,4,9,megghy.com,FR,Europe,Western Europe,France,Hauts-de-France,North,Roubaix
151.80.170.66,4,58,meteorologic.net,FR,Europe,Western Europe,France,Hauts-de-France,North,Roubaix
151.80.155.218,4,8,miesarch.com,FR,Europe,Western Europe,France,Hauts-de-France,North,Roubaix
151.80.231.26,4,20,minimumfax.com,FR,Europe,Western Europe,France,Hauts-de-France,North,Roubaix
51.178.156.11,4,63,misiontokyo.com,FR,Europe,Western Europe,France,Hauts-de-France,North,Roubaix
151.80.28.129,4,3,misterwhat.co.uk,FR,Europe,Western Europe,France,Hauts-de-France,North,Roubaix
51.83.126.129,4,3,n1nordic.com,FR,Europe,Western Europe,France,Hauts-de-France,North,Roubaix
151.80.201.181,4,49,naturalforum.net,FR,Europe,Western Europe,France,Hauts-de-France,North,Roubaix
151.80.23.122,4,4,needrom.com,FR,Europe,Western Europe,France,Hauts-de-France,North,Roubaix
151.80.3.20,4,52,nicerendezvous.com,FR,Europe,Western Europe,France,Hauts-de-France,North,Roubaix
51.83.13.230,4,4,ninesigma.com,FR,Europe,Western Europe,France,Hauts-de-France,North,Roubaix
54.37.254.72,4,30,nouvellecartegrise.fr,FR,Europe,Western Europe,France,Hauts-de-France,North,Roubaix
51.83.44.250,4,27,onedayonetravel.com,FR,Europe,Western Europe,France,Hauts-de-France,North,Tourcoing
151.80.201.185,4,71,onesto.co.kr,FR,Europe,Western Europe,France,Hauts-de-France,North,Roubaix
151.80.24.11,4,32,Ookla Speedtest Server: www.telinea.com,FR,Europe,Western Europe,France,Hauts-de-France,North,Roubaix
212.83.130.83,4,67,openrunner.com,FR,Europe,Western Europe,France,Hauts-de-France,Pas-de-Calais,Desvres
212.83.138.196,4,266,parfumdo.com,FR,Europe,Western Europe,France,Hauts-de-France,Pas-de-Calais,Desvres
90.83.223.129,4,42,pauillac-medoc.com,FR,Europe,Western Europe,France,Hauts-de-France,Aisne,Saint-Quentin
212.83.150.38,4,25,pccar.ru,FR,Europe,Western Europe,France,Hauts-de-France,Pas-de-Calais,Desvres
51.83.82.230,4,3,peniscola.org,FR,Europe,Western Europe,France,Hauts-de-France,North,Roubaix
51.83.105.91,4,17,pharmavie.fr,FR,Europe,Western Europe,France,Hauts-de-France,North,Roubaix
51.83.2.208,4,9,photo.fr,FR,Europe,Western Europe,France,Hauts-de-France,North,Roubaix
212.83.148.95,4,25,phpfreechat.net,FR,Europe,Western Europe,France,Hauts-de-France,Pas-de-Calais,Desvres
51.83.40.162,4,46,pianobleu.com,FR,Europe,Western Europe,France,Hauts-de-France,North,Tourcoing
212.85.132.56,4,25,picardie-nature.org,FR,Europe,Western Europe,France,Hauts-de-France,Somme,Boves
46.105.245.165,4,1,poland.com,FR,Europe,Western Europe,France,Hauts-de-France,North,Roubaix
212.83.155.7,4,32,prazsurarly.com,FR,Europe,Western Europe,France,Hauts-de-France,Pas-de-Calais,Desvres
51.83.105.242,4,29,premierevision.com,FR,Europe,Western Europe,France,Hauts-de-France,North,Roubaix
51.83.2.29,4,42,prepas.org,FR,Europe,Western Europe,France,Hauts-de-France,North,Roubaix
51.83.68.98,4,92,prixbayeux.org,FR,Europe,Western Europe,France,Hauts-de-France,North,Roubaix
151.106.42.61,4,13,processsensing.com,FR,Europe,Western Europe,France,Hauts-de-France,North,Roubaix
51.83.12.162,4,2,producteursdepommesdeterre.org,FR,Europe,Western Europe,France,Hauts-de-France,North,Roubaix
151.80.116.104,4,16,punkt4.info,FR,Europe,Western Europe,France,Hauts-de-France,North,Roubaix
151.80.237.60,4,3,purplepixie.org,FR,Europe,Western Europe,France,Hauts-de-France,North,Roubaix
51.83.82.251,4,4,quiquedacosta.es,FR,Europe,Western Europe,France,Hauts-de-France,North,Roubaix
212.83.155.58,4,106,radioscoop.com,FR,Europe,Western Europe,France,Hauts-de-France,Pas-de-Calais,Desvres
212.83.155.66,4,50,radioscoop.com,FR,Europe,Western Europe,France,Hauts-de-France,Pas-de-Calais,Desvres
151.80.126.218,4,66,randolph.top,FR,Europe,Western Europe,France,Hauts-de-France,North,Roubaix
151.80.231.59,4,5,rcstrasbourgalsace.fr,FR,Europe,Western Europe,France,Hauts-de-France,North,Roubaix
51.83.19.141,4,28,refrapide.com,FR,Europe,Western Europe,France,Hauts-de-France,North,Roubaix
151.106.35.29,4,15,rejuvdentist.com,FR,Europe,Western Europe,France,Hauts-de-France,North,Roubaix
149.6.90.172,4,9,restoranto.com,FR,Europe,Western Europe,France,Hauts-de-France,North,Lille
151.106.38.227,4,5,rotronic.com,FR,Europe,Western Europe,France,Hauts-de-France,North,Roubaix
151.80.243.153,4,9,saclongchamp-pliage.fr,FR,Europe,Western Europe,France,Hauts-de-France,North,Roubaix
51.83.45.220,4,14,samoens.com,FR,Europe,Western Europe,France,Hauts-de-France,North,Tourcoing
212.83.148.41,4,19,sansordonnancefrance.com,FR,Europe,Western Europe,France,Hauts-de-France,Pas-de-Calais,Desvres
151.80.231.20,4,6,sejt.com,FR,Europe,Western Europe,France,Hauts-de-France,North,Roubaix
151.106.39.192,4,5,shaadidukaan.com,FR,Europe,Western Europe,France,Hauts-de-France,North,Roubaix
151.80.197.94,4,5,siciliainformazioni.com,FR,Europe,Western Europe,France,Hauts-de-France,North,Roubaix
151.80.88.201,4,4,sigesbeckia.co.uk,FR,Europe,Western Europe,France,Hauts-de-France,North,Roubaix
151.80.231.30,4,5,simplybook.it,FR,Europe,Western Europe,France,Hauts-de-France,North,Roubaix
51.83.14.54,4,19,smoking.fr,FR,Europe,Western Europe,France,Hauts-de-France,North,Roubaix
51.178.141.58,4,18,sos-homophobie.org,FR,Europe,Western Europe,France,Hauts-de-France,North,Roubaix
51.83.115.4,4,21,speednames.com,FR,Europe,Western Europe,France,Hauts-de-France,North,Roubaix
151.80.20.125,4,29,spip.org,FR,Europe,Western Europe,France,Hauts-de-France,North,Roubaix
212.83.142.86,4,8,splendia.com,FR,Europe,Western Europe,France,Hauts-de-France,Pas-de-Calais,Desvres
151.80.243.29,4,57,sportishka.com,FR,Europe,Western Europe,France,Hauts-de-France,North,Roubaix
51.178.187.67,4,33,sportmag.fr,FR,Europe,Western Europe,France,Hauts-de-France,North,Roubaix
51.178.211.84,4,3,ssvp.fr,FR,Europe,Western Europe,France,Hauts-de-France,North,Roubaix
151.80.125.204,4,5,startvista.nl,FR,Europe,Western Europe,France,Hauts-de-France,North,Roubaix
151.106.35.148,4,106,studyadda.com,FR,Europe,Western Europe,France,Hauts-de-France,North,Roubaix
151.80.165.218,4,2,superghostblogger.com,FR,Europe,Western Europe,France,Hauts-de-France,North,Roubaix
51.178.211.234,4,2,swarovskicrystal.me.uk,FR,Europe,Western Europe,France,Hauts-de-France,North,Roubaix
195.154.215.57,4,189568,symop.com,FR,Europe,Western Europe,France,Hauts-de-France,Oise,Compiègne
151.106.35.30,4,33,talkcmo.com,FR,Europe,Western Europe,France,Hauts-de-France,North,Roubaix
51.178.240.56,4,2,tanmia.ma,FR,Europe,Western Europe,France,Hauts-de-France,North,Roubaix
151.80.209.134,4,36,techeconomy.ng,FR,Europe,Western Europe,France,Hauts-de-France,North,Roubaix
51.83.49.150,4,67,terra-aventura.fr,FR,Europe,Western Europe,France,Hauts-de-France,North,Roubaix
212.83.138.160,4,58,terraterra.be,FR,Europe,Western Europe,France,Hauts-de-France,Pas-de-Calais,Desvres
51.178.149.170,4,48,terzani.com,FR,Europe,Western Europe,France,Hauts-de-France,North,Roubaix
212.83.131.6,4,86,theatredelaville-paris.com,FR,Europe,Western Europe,France,Hauts-de-France,Pas-de-Calais,Desvres
51.83.32.111,4,5,theatredescelestins.com,FR,Europe,Western Europe,France,Hauts-de-France,North,Roubaix
51.178.214.230,4,12,thebusinessonline.com,FR,Europe,Western Europe,France,Hauts-de-France,North,Roubaix
151.106.35.20,4,7,thesource.com,FR,Europe,Western Europe,France,Hauts-de-France,North,Roubaix
151.106.38.114,4,2,threestooges.com,FR,Europe,Western Europe,France,Hauts-de-France,North,Roubaix
51.83.70.4,4,12,tiendahinchables.com,FR,Europe,Western Europe,France,Hauts-de-France,North,Roubaix
51.178.172.94,4,2,tonbridgeinvicta.co.uk,FR,Europe,Western Europe,France,Hauts-de-France,North,Roubaix
51.83.96.223,4,28,tourismeloiret.com,FR,Europe,Western Europe,France,Hauts-de-France,North,Roubaix
51.83.66.179,4,2,trendmutti.com,FR,Europe,Western Europe,France,Hauts-de-France,North,Roubaix
151.80.27.80,4,39,triestenext.it,FR,Europe,Western Europe,France,Hauts-de-France,North,Roubaix
51.83.44.133,4,0,tuberipper.com,FR,Europe,Western Europe,France,Hauts-de-France,North,Tourcoing
152.228.166.246,4,12,tunisie.co,FR,Europe,Western Europe,France,Hauts-de-France,North,Gravelines
51.178.142.177,4,35,twaino.com,FR,Europe,Western Europe,France,Hauts-de-France,North,Roubaix
51.178.136.136,4,6,u-bordeaux3.fr,FR,Europe,Western Europe,France,Hauts-de-France,North,Roubaix
151.80.221.17,4,4,uis.no,FR,Europe,Western Europe,France,Hauts-de-France,North,Roubaix
51.83.57.161,4,15,unisport.ua,FR,Europe,Western Europe,France,Hauts-de-France,North,Roubaix
194.254.129.22,4,37,univ-lille.fr,FR,Europe,Western Europe,France,Hauts-de-France,Somme,Amiens
194.254.129.23,4,2,univ-lille.fr,FR,Europe,Western Europe,France,Hauts-de-France,Somme,Amiens
195.83.155.24,4,-36,utc.fr,FR,Europe,Western Europe,France,Hauts-de-France,Oise,Compiègne
185.187.30.4,4,4,vadesecure.com,FR,Europe,Western Europe,France,Hauts-de-France,Pas-de-Calais,Laventie
151.80.18.174,4,26,vernimmen.net,FR,Europe,Western Europe,France,Hauts-de-France,North,Roubaix
212.83.154.236,4,2,viarhona.com,FR,Europe,Western Europe,France,Hauts-de-France,Pas-de-Calais,Desvres
194.105.91.50,4,106295,villatokat.com,FR,Europe,Western Europe,France,Hauts-de-France,North,Gravelines
151.80.83.89,4,8,ville-saint-amand-montrond.fr,FR,Europe,Western Europe,France,Hauts-de-France,North,Roubaix
135.125.37.160,4,10,vipbaits.nl,FR,Europe,Western Europe,France,Hauts-de-France,North,Roubaix
194.105.91.5,4,529517,vipbodrumtransfer.com,FR,Europe,Western Europe,France,Hauts-de-France,North,Gravelines
46.105.213.184,4,4,vitutor.com,FR,Europe,Western Europe,France,Hauts-de-France,North,Roubaix
51.83.37.141,4,87,vosgesinfo.fr,FR,Europe,Western Europe,France,Hauts-de-France,North,Roubaix
212.83.141.158,4,42,voyages-d-affaires.com,FR,Europe,Western Europe,France,Hauts-de-France,Pas-de-Calais,Desvres
151.80.161.51,4,-11,voz-ip.com,FR,Europe,Western Europe,France,Hauts-de-France,North,Roubaix
51.83.66.194,4,18,waarismijnstemlokaal.nl,FR,Europe,Western Europe,France,Hauts-de-France,North,Roubaix
151.106.42.79,4,12,wahaj-althuraya.com,FR,Europe,Western Europe,France,Hauts-de-France,North,Roubaix
51.178.130.88,4,3,wannasurf.com,FR,Europe,Western Europe,France,Hauts-de-France,North,Roubaix
51.83.104.104,4,2,waterproof.fr,FR,Europe,Western Europe,France,Hauts-de-France,North,Roubaix
151.80.171.154,4,20,webkom.fr,FR,Europe,Western Europe,France,Hauts-de-France,North,Roubaix
151.80.219.161,4,4,webo-facto.com,FR,Europe,Western Europe,France,Hauts-de-France,North,Roubaix
51.178.211.233,4,40,webstuffshare.com,FR,Europe,Western Europe,France,Hauts-de-France,North,Roubaix
149.6.90.170,4,2,wijmakelaars.nl,FR,Europe,Western Europe,France,Hauts-de-France,North,Lille
137.74.25.156,4,46,wikifab.org,FR,Europe,Western Europe,France,Hauts-de-France,North,Lille
164.132.167.187,4,-560,wirtualnemedia.pl,FR,Europe,Western Europe,France,Hauts-de-France,North,Roubaix
151.80.180.105,4,1,xboxlc.com,FR,Europe,Western Europe,France,Hauts-de-France,North,Roubaix
51.83.72.122,4,6,xn--upplevochbertta-clb.se,FR,Europe,Western Europe,France,Hauts-de-France,North,Roubaix
51.83.72.117,4,2,xn--vrldenskonst-gcb.se,FR,Europe,Western Europe,France,Hauts-de-France,North,Roubaix
51.83.43.38,4,2,yellowscan-lidar.com,FR,Europe,Western Europe,France,Hauts-de-France,North,Tourcoing
51.83.98.179,4,3,yellowscan.com,FR,Europe,Western Europe,France,Hauts-de-France,North,Roubaix
212.83.133.116,4,-1,yourtext.guru,FR,Europe,Western Europe,France,Hauts-de-France,Pas-de-Calais,Desvres
212.83.145.210,4,288769,zipato.com,FR,Europe,Western Europe,France,Hauts-de-France,Pas-de-Calais,Desvres
135.125.37.41,4,9,zipzoo.nl,FR,Europe,Western Europe,France,Hauts-de-France,North,Roubaix
