reflector_ip,ip_version,offset,description,country_code,region,sub_region,country_name,sub_division_1,sub_division_2,city
47.109.108.67,4,6,023good.com,CN,Asia,Eastern Asia,China,Sichuan,,Chengdu
47.108.217.170,4,29,3qhouse.com,CN,Asia,Eastern Asia,China,Sichuan,,Chengdu
47.109.17.21,4,24,52ch.net,CN,Asia,Eastern Asia,China,Sichuan,,Chengdu
47.109.108.169,4,32,adaoil.com,CN,Asia,Eastern Asia,China,Sichuan,,Chengdu
47.108.207.172,4,33,alltechmed.com,CN,Asia,Eastern Asia,China,Sichuan,,Chengdu
47.109.150.110,4,44,andyguoji.com,CN,Asia,Eastern Asia,China,Sichuan,,Chengdu
47.108.195.160,4,53,cmjt.cn,CN,Asia,Eastern Asia,China,Sichuan,,Chengdu
8.137.89.115,4,36,cyidea.cn,CN,Asia,Eastern Asia,China,Sichuan,,Chengdu
171.221.210.114,4,20,ecimsales.com,CN,Asia,Eastern Asia,China,Sichuan,,Chengdu
111.9.253.9,4,-316935,ems517.com,CN,Asia,Eastern Asia,China,Sichuan,,Chengdu
125.66.20.104,4,-383660,gatv.com.cn,CN,Asia,Eastern Asia,China,Sichuan,,Chengdu
101.206.70.252,4,-27,gavtc.cn,CN,Asia,Eastern Asia,China,Sichuan,,Chengdu
47.108.144.125,4,17,huashiaz.com,CN,Asia,Eastern Asia,China,Sichuan,,Chengdu
47.108.248.252,4,26,ie2.cc,CN,Asia,Eastern Asia,China,Sichuan,,Chengdu
47.109.138.161,4,26,job0917.com,CN,Asia,Eastern Asia,China,Sichuan,,Chengdu
47.108.165.120,4,45,koomo.com.cn,CN,Asia,Eastern Asia,China,Sichuan,,Chengdu
222.212.141.2,4,54,motherchildren.com,CN,Asia,Eastern Asia,China,Sichuan,,Chengdu
47.108.194.155,4,35,ocoogo.com,CN,Asia,Eastern Asia,China,Sichuan,,Chengdu
47.108.64.78,4,20,pansoso.com,CN,Asia,Eastern Asia,China,Sichuan,,Chengdu
117.172.73.184,4,195107,pxrc.com.cn,CN,Asia,Eastern Asia,China,Sichuan,,Chengdu
47.108.255.59,4,24,qixiwangluo.com,CN,Asia,Eastern Asia,China,Sichuan,,Chengdu
47.108.192.44,4,33,rcdoixr.cn,CN,Asia,Eastern Asia,China,Sichuan,,Chengdu
47.109.96.62,4,17,ronghuisign.com,CN,Asia,Eastern Asia,China,Sichuan,,Chengdu
47.108.62.28,4,29,shanhaiyh.com,CN,Asia,Eastern Asia,China,Sichuan,,Chengdu
47.109.157.1,4,21,shuwon.com,CN,Asia,Eastern Asia,China,Sichuan,,Chengdu
47.109.19.69,4,53,smartread.cc,CN,Asia,Eastern Asia,China,Sichuan,,Chengdu
47.108.253.220,4,16,snkjb.com,CN,Asia,Eastern Asia,China,Sichuan,,Chengdu
47.108.115.168,4,12,vkphone.net,CN,Asia,Eastern Asia,China,Sichuan,,Chengdu
8.137.15.55,4,43,wlzyzlm.com,CN,Asia,Eastern Asia,China,Sichuan,,Chengdu
47.109.29.26,4,14,xtzpw.com,CN,Asia,Eastern Asia,China,Sichuan,,Chengdu
8.137.59.83,4,27,yichang.cc,CN,Asia,Eastern Asia,China,Sichuan,,Chengdu
47.108.205.38,4,33,ymqn.net,CN,Asia,Eastern Asia,China,Sichuan,,Chengdu
47.108.85.32,4,18,zk789.cn,CN,Asia,Eastern Asia,China,Sichuan,,Chengdu
47.109.88.239,4,11,zxos.vip,CN,Asia,Eastern Asia,China,Sichuan,,Chengdu
