reflector_ip,ip_version,offset,description,country_code,region,sub_region,country_name,sub_division_1,sub_division_2,city
94.23.167.138,4,52,apartena.net,DE,Europe,Western Europe,Germany,Saarland,,Saarbrücken
94.23.161.253,4,20,camfoot.com,DE,Europe,Western Europe,Germany,Saarland,,Saarbrücken
94.23.165.183,4,8,DNS Server: ip183.ip-94-23-165.eu,DE,Europe,Western Europe,Germany,Saarland,,Saarbrücken
134.96.8.251,4,18,dssv.de,DE,Europe,Western Europe,Germany,Saarland,,Saarbrücken
87.98.242.178,4,7,endungen.de,DE,Europe,Western Europe,Germany,Saarland,,Saarbrücken
134.96.8.242,4,9,fitnessmanagement.de,DE,Europe,Western Europe,Germany,Saarland,,Saarbrücken
87.98.242.10,4,-1,gamesect.co.uk,DE,Europe,Western Europe,Germany,Saarland,,Saarbrücken
94.23.166.193,4,43,gohits.de,DE,Europe,Western Europe,Germany,Saarland,,Saarbrücken
94.23.161.44,4,19,iwebplaza.nl,DE,Europe,Western Europe,Germany,Saarland,,Saarbrücken
213.135.6.58,4,3,izes.de,DE,Europe,Western Europe,Germany,Saarland,,Saarbrücken
213.135.9.198,4,34,klinikum-saarbruecken.de,DE,Europe,Western Europe,Germany,Saarland,,Saarbrücken
94.23.161.188,4,26,mandirachopra.com,DE,Europe,Western Europe,Germany,Saarland,,Saarbrücken
87.98.242.203,4,24,mapa-metro.com,DE,Europe,Western Europe,Germany,Saarland,,Saarbrücken
213.135.11.190,4,358,Ookla Speedtest Server 3692: speedtest.intersaar.de,DE,Europe,Western Europe,Germany,Saarland,,Saarbrücken
134.96.226.65,4,29,saarland-informatics-campus.de,DE,Europe,Western Europe,Germany,Saarland,,Saarbrücken
94.23.162.9,4,27,schenker-pm.de,DE,Europe,Western Europe,Germany,Saarland,,Saarbrücken
94.23.162.20,4,39,setcialito.com,DE,Europe,Western Europe,Germany,Saarland,,Saarbrücken
94.23.160.220,4,4,taiga.net,DE,Europe,Western Europe,Germany,Saarland,,Saarbrücken
94.23.160.111,4,16,theregenessa.com,DE,Europe,Western Europe,Germany,Saarland,,Saarbrücken
94.23.167.136,4,59,topbegin.nl,DE,Europe,Western Europe,Germany,Saarland,,Saarbrücken
134.96.7.128,4,10,uni-sb.de,DE,Europe,Western Europe,Germany,Saarland,,Saarbrücken
87.98.242.65,4,24,via-alpina.org,DE,Europe,Western Europe,Germany,Saarland,,Saarbrücken
94.23.162.163,4,23,waterland.net,DE,Europe,Western Europe,Germany,Saarland,,Saarbrücken
94.23.162.58,4,2,wauwfy.com,DE,Europe,Western Europe,Germany,Saarland,,Saarbrücken
