reflector_ip,ip_version,offset,description,country_code,region,sub_region,country_name,sub_division_1,sub_division_2,city
68.233.247.193,4,8,1uptravel.com,US,Americas,Northern America,United States of America,Florida,,Tampa
69.46.29.73,4,8,2mhost.com,US,Americas,Northern America,United States of America,Florida,,Tampa
209.133.196.202,4,732,320press.com,US,Americas,Northern America,United States of America,Florida,,Tampa
23.92.75.226,4,6,970universal.com,US,Americas,Northern America,United States of America,Florida,,Tampa
23.92.68.6,4,34,abyssandapex.com,US,Americas,Northern America,United States of America,Florida,,Tampa
209.133.192.77,4,33,acbar.org,US,Americas,Northern America,United States of America,Florida,,Tampa
104.156.53.20,4,7,aihrc.org.af,US,Americas,Northern America,United States of America,Florida,,Tampa
23.111.183.42,4,5,akhlah.com,US,Americas,Northern America,United States of America,Florida,,Tampa
162.220.60.207,4,77,all-luxury-apartments.com,US,Americas,Northern America,United States of America,Florida,,Tampa
68.233.247.191,4,3,allrefer.com,US,Americas,Northern America,United States of America,Florida,,Tampa
66.206.11.114,4,302,almanaquesos.com,US,Americas,Northern America,United States of America,Florida,,Tampa
162.220.59.234,4,5,americanbluesscene.com,US,Americas,Northern America,United States of America,Florida,,Tampa
23.111.169.82,4,7,americanmint.com,US,Americas,Northern America,United States of America,Florida,,Tampa
162.220.59.106,4,7,americasfuneralflorist.com,US,Americas,Northern America,United States of America,Florida,,Tampa
209.133.206.131,4,4,amgreatness.com,US,Americas,Northern America,United States of America,Florida,,Tampa
23.111.136.142,4,4,amle.org,US,Americas,Northern America,United States of America,Florida,,Tampa
209.133.198.234,4,21,artemisia.org.br,US,Americas,Northern America,United States of America,Florida,,Tampa
66.206.23.58,4,3,artisnaples.org,US,Americas,Northern America,United States of America,Florida,,Tampa
96.31.72.66,4,734,asmzine.net,US,Americas,Northern America,United States of America,Florida,,Tampa
23.111.168.178,4,23,astroclips.com,US,Americas,Northern America,United States of America,Florida,,Tampa
209.133.207.138,4,5,atariprotos.com,US,Americas,Northern America,United States of America,Florida,,Tampa
209.133.213.6,4,7141043,atozteacherstuff.com,US,Americas,Northern America,United States of America,Florida,,Tampa
23.111.128.195,4,12,au.int,US,Americas,Northern America,United States of America,Florida,,Tampa
162.252.80.133,4,36,aullox.com,US,Americas,Northern America,United States of America,Florida,,Tampa
69.46.25.126,4,17,ausxip.com,US,Americas,Northern America,United States of America,Florida,,Tampa
104.156.53.251,4,5,babyhazelgames.com,US,Americas,Northern America,United States of America,Florida,,Tampa
199.231.166.178,4,9,bg.com.do,US,Americas,Northern America,United States of America,Florida,,Tampa
199.231.166.82,4,45,bharatiyaobcmahasabha.org,US,Americas,Northern America,United States of America,Florida,,Tampa
107.155.106.166,4,15,biblestudy.org,US,Americas,Northern America,United States of America,Florida,,Tampa
23.111.183.74,4,7,bim.edu,US,Americas,Northern America,United States of America,Florida,,Tampa
68.233.228.223,4,18,britishcarforum.com,US,Americas,Northern America,United States of America,Florida,,Tampa
23.92.71.42,4,7,broussards.com,US,Americas,Northern America,United States of America,Florida,,Tampa
46.21.144.106,4,5,carepointhealth.org,US,Americas,Northern America,United States of America,Florida,,Tampa
23.111.136.182,4,10,caribetours.com.do,US,Americas,Northern America,United States of America,Florida,,Tampa
23.111.136.242,4,104,carry.website,US,Americas,Northern America,United States of America,Florida,,Tampa
23.111.181.37,4,7,cbcg.org,US,Americas,Northern America,United States of America,Florida,,Tampa
66.232.98.194,4,7,cceba.org.ar,US,Americas,Northern America,United States of America,Florida,,Tampa
107.155.116.126,4,24,census-online.com,US,Americas,Northern America,United States of America,Florida,,Tampa
199.231.166.226,4,5,ceub.edu.bo,US,Americas,Northern America,United States of America,Florida,,Tampa
23.154.17.111,4,1147,classic-tv.com,US,Americas,Northern America,United States of America,Florida,,Tampa
23.111.175.212,4,15,cloud7.news,US,Americas,Northern America,United States of America,Florida,,Tampa
104.156.54.11,4,4,clubopal.in,US,Americas,Northern America,United States of America,Florida,,Tampa
198.178.120.146,4,67,clutchfans.net,US,Americas,Northern America,United States of America,Florida,,Tampa
23.111.161.86,4,2,codajic.org,US,Americas,Northern America,United States of America,Florida,,Tampa
23.111.175.170,4,43,colorsui.com,US,Americas,Northern America,United States of America,Florida,,Tampa
23.111.141.90,4,8,comunicarseweb.com,US,Americas,Northern America,United States of America,Florida,,Tampa
23.111.166.42,4,6,cookyaunty.com,US,Americas,Northern America,United States of America,Florida,,Tampa
199.193.116.54,4,32,copper3d.com,US,Americas,Northern America,United States of America,Florida,,Tampa
209.133.206.132,4,23,criticalrace.org,US,Americas,Northern America,United States of America,Florida,,Tampa
69.46.26.166,4,35,crower.com,US,Americas,Northern America,United States of America,Florida,,Tampa
209.133.208.202,4,7,csi-india.org,US,Americas,Northern America,United States of America,Florida,,Tampa
199.193.117.202,4,8,ctradio.com.br,US,Americas,Northern America,United States of America,Florida,,Tampa
162.252.82.18,4,6,dcmembers.com,US,Americas,Northern America,United States of America,Florida,,Tampa
23.111.129.209,4,5,deconceptos.com,US,Americas,Northern America,United States of America,Florida,,Tampa
23.111.139.78,4,11,definicionabc.com,US,Americas,Northern America,United States of America,Florida,,Tampa
23.111.169.74,4,4,digital-kaos.co.uk,US,Americas,Northern America,United States of America,Florida,,Tampa
65.35.135.250,4,-11895,DNS Server: 65-35-135-250.res.bhn.net,US,Americas,Northern America,United States of America,Florida,,Tampa
23.154.17.23,4,696,doityourselfchristmas.com,US,Americas,Northern America,United States of America,Florida,,Tampa
199.193.117.170,4,1,dzuca.com.br,US,Americas,Northern America,United States of America,Florida,,Tampa
46.21.149.90,4,5,earcos.org,US,Americas,Northern America,United States of America,Florida,,Tampa
190.124.47.78,4,201,easterneuropeanmovies.com,US,Americas,Northern America,United States of America,Florida,,Tampa
69.46.24.50,4,-12,eclassifieds4u.com,US,Americas,Northern America,United States of America,Florida,,Tampa
162.252.83.218,4,10,empresores.com,US,Americas,Northern America,United States of America,Florida,,Tampa
162.252.84.154,4,5,emtlife.com,US,Americas,Northern America,United States of America,Florida,,Tampa
162.252.84.155,4,7,emtlife.com,US,Americas,Northern America,United States of America,Florida,,Tampa
23.111.165.50,4,7,enciclopedia.net,US,Americas,Northern America,United States of America,Florida,,Tampa
23.111.177.234,4,78,enromiosini.gr,US,Americas,Northern America,United States of America,Florida,,Tampa
23.111.166.251,4,6,escaner.cl,US,Americas,Northern America,United States of America,Florida,,Tampa
209.133.211.10,4,12,evangelicaloutreach.org,US,Americas,Northern America,United States of America,Florida,,Tampa
209.133.214.166,4,14,exceltemplates.net,US,Americas,Northern America,United States of America,Florida,,Tampa
190.124.47.126,4,8,familytron.com,US,Americas,Northern America,United States of America,Florida,,Tampa
23.111.160.229,4,7,federalgrantswire.com,US,Americas,Northern America,United States of America,Florida,,Tampa
23.111.160.227,4,26,finfit.com,US,Americas,Northern America,United States of America,Florida,,Tampa
209.133.210.90,4,12,firewall.cx,US,Americas,Northern America,United States of America,Florida,,Tampa
199.167.151.186,4,8,firstdiscoverers.co.uk,US,Americas,Northern America,United States of America,Florida,,Tampa
162.216.5.222,4,12,foecanada.org,US,Americas,Northern America,United States of America,Florida,,Tampa
198.45.114.194,4,3,fooddoz.com,US,Americas,Northern America,United States of America,Florida,,Tampa
23.111.185.234,4,19,fr-ee.org,US,Americas,Northern America,United States of America,Florida,,Tampa
104.156.58.173,4,24,franklinsheriff.com,US,Americas,Northern America,United States of America,Florida,,Tampa
162.220.61.65,4,21,gameofthronesrp.com,US,Americas,Northern America,United States of America,Florida,,Tampa
190.124.46.10,4,14,generationaldynamics.com,US,Americas,Northern America,United States of America,Florida,,Tampa
190.124.47.85,4,6,girlboyfriend.com,US,Americas,Northern America,United States of America,Florida,,Tampa
209.133.197.94,4,11,glfc.org,US,Americas,Northern America,United States of America,Florida,,Tampa
23.111.148.61,4,27,gocustomboxes.co.uk,US,Americas,Northern America,United States of America,Florida,,Tampa
23.111.129.74,4,52,grupodeapoyomutuo.org.gt,US,Americas,Northern America,United States of America,Florida,,Tampa
68.233.247.50,4,16,grupokybsrl.com.ar,US,Americas,Northern America,United States of America,Florida,,Tampa
209.133.196.180,4,-29,gulfcoastmag.org,US,Americas,Northern America,United States of America,Florida,,Tampa
23.111.166.10,4,30104,gunloads.com,US,Americas,Northern America,United States of America,Florida,,Tampa
23.111.150.187,4,3,hdcarwallpapers.com,US,Americas,Northern America,United States of America,Florida,,Tampa
104.156.52.51,4,1051,headlineplanet.com,US,Americas,Northern America,United States of America,Florida,,Tampa
23.111.175.122,4,6,hi-pointfirearms.com,US,Americas,Northern America,United States of America,Florida,,Tampa
199.167.148.197,4,879,hitescrow.com,US,Americas,Northern America,United States of America,Florida,,Tampa
96.31.72.107,4,748,hockeyprospect.com,US,Americas,Northern America,United States of America,Florida,,Tampa
190.124.47.72,4,31,home-care.co.ke,US,Americas,Northern America,United States of America,Florida,,Tampa
69.46.26.19,4,59,icelaglace.com,US,Americas,Northern America,United States of America,Florida,,Tampa
96.31.72.26,4,749,icestorm.com,US,Americas,Northern America,United States of America,Florida,,Tampa
162.252.82.215,4,16,idlehearts.com,US,Americas,Northern America,United States of America,Florida,,Tampa
209.133.205.130,4,-76,imagemarte.com.br,US,Americas,Northern America,United States of America,Florida,,Tampa
23.111.174.252,4,5,importancia.org,US,Americas,Northern America,United States of America,Florida,,Tampa
209.133.211.130,4,3583020,infojardin.com,US,Americas,Northern America,United States of America,Florida,,Tampa
162.220.61.50,4,6,inovacaotecnologica.com.br,US,Americas,Northern America,United States of America,Florida,,Tampa
96.31.72.146,4,746,iuec.org,US,Americas,Northern America,United States of America,Florida,,Tampa
96.31.72.33,4,2,iz.rs,US,Americas,Northern America,United States of America,Florida,,Tampa
209.133.192.2,4,15,jagunet.com,US,Americas,Northern America,United States of America,Florida,,Tampa
69.46.22.74,4,6,jigsawplanet.com,US,Americas,Northern America,United States of America,Florida,,Tampa
68.233.253.141,4,24,joomlms.com,US,Americas,Northern America,United States of America,Florida,,Tampa
198.178.125.53,4,-13,justsomelyrics.com,US,Americas,Northern America,United States of America,Florida,,Tampa
23.111.160.216,4,8,kingtutone.com,US,Americas,Northern America,United States of America,Florida,,Tampa
23.111.171.2,4,31,krisiun.com.br,US,Americas,Northern America,United States of America,Florida,,Tampa
23.111.173.74,4,6,libertyhall.org,US,Americas,Northern America,United States of America,Florida,,Tampa
199.193.117.162,4,33,ligavpg.com,US,Americas,Northern America,United States of America,Florida,,Tampa
38.95.14.200,4,5,lionking.org,US,Americas,Northern America,United States of America,Florida,,Tampa
209.133.211.102,4,6,liveforfilm.com,US,Americas,Northern America,United States of America,Florida,,Tampa
198.178.125.55,4,-13,lyricsplugin.com,US,Americas,Northern America,United States of America,Florida,,Tampa
23.111.138.114,4,-1,makr.com,US,Americas,Northern America,United States of America,Florida,,Tampa
23.111.180.165,4,5,marineweather.net,US,Americas,Northern America,United States of America,Florida,,Tampa
23.111.161.94,4,6,maristasico.edu.sv,US,Americas,Northern America,United States of America,Florida,,Tampa
66.206.22.19,4,4,mbpcgroup.com,US,Americas,Northern America,United States of America,Florida,,Tampa
23.111.161.5,4,21,mealtime.org,US,Americas,Northern America,United States of America,Florida,,Tampa
69.46.30.125,4,4,mediationtrainings.org,US,Americas,Northern America,United States of America,Florida,,Tampa
96.31.72.44,4,790,medicalmarijuana.com,US,Americas,Northern America,United States of America,Florida,,Tampa
74.50.103.57,4,11,megadriver.com.br,US,Americas,Northern America,United States of America,Florida,,Tampa
162.252.80.171,4,20,meganoticias.mx,US,Americas,Northern America,United States of America,Florida,,Tampa
23.111.148.244,4,-5,mfrural.com.br,US,Americas,Northern America,United States of America,Florida,,Tampa
69.46.29.138,4,103,mibba.com,US,Americas,Northern America,United States of America,Florida,,Tampa
23.111.189.130,4,9,missosology.org,US,Americas,Northern America,United States of America,Florida,,Tampa
199.167.144.250,4,3,modelsbrasil.com,US,Americas,Northern America,United States of America,Florida,,Tampa
66.206.20.74,4,32,monumentalfm.com,US,Americas,Northern America,United States of America,Florida,,Tampa
107.155.116.179,4,8,mosw.com,US,Americas,Northern America,United States of America,Florida,,Tampa
96.31.72.63,4,10,motorsportmemorial.org,US,Americas,Northern America,United States of America,Florida,,Tampa
199.193.117.29,4,26,munciepower.com,US,Americas,Northern America,United States of America,Florida,,Tampa
46.21.148.42,4,931,mxc.com.mx,US,Americas,Northern America,United States of America,Florida,,Tampa
23.111.149.179,4,41,myboxpackaging.com,US,Americas,Northern America,United States of America,Florida,,Tampa
162.254.148.236,4,30,myniceprofile.com,US,Americas,Northern America,United States of America,Florida,,Tampa
46.21.148.58,4,33,nacanet.org,US,Americas,Northern America,United States of America,Florida,,Tampa
23.227.176.12,4,21,nahuelhuapi.gov.ar,US,Americas,Northern America,United States of America,Florida,,Tampa
23.111.161.2,4,4,nearshoreamericas.com,US,Americas,Northern America,United States of America,Florida,,Tampa
23.111.168.66,4,10,nnw.org,US,Americas,Northern America,United States of America,Florida,,Tampa
23.111.143.130,4,5,nonprofitcareer.com,US,Americas,Northern America,United States of America,Florida,,Tampa
104.156.52.202,4,368,npd-solutions.com,US,Americas,Northern America,United States of America,Florida,,Tampa
24.73.102.185,4,2,nshmba.org,US,Americas,Northern America,United States of America,Florida,,Tampa
104.156.51.181,4,6,nssm.cc,US,Americas,Northern America,United States of America,Florida,,Tampa
209.133.209.26,4,32,obj-sys.com,US,Americas,Northern America,United States of America,Florida,,Tampa
107.155.116.178,4,32,old-games.com,US,Americas,Northern America,United States of America,Florida,,Tampa
23.111.141.158,4,4,omnia.com.mx,US,Americas,Northern America,United States of America,Florida,,Tampa
209.84.253.4,4,426,Ookla Speedtest Server 1296: speedtestnet.rapidsys.com,US,Americas,Northern America,United States of America,Florida,,Tampa
139.138.74.35,4,281,Ookla Speedtest Server 57175: speedtest02.bluestreamfiber.net,US,Americas,Northern America,United States of America,Florida,,Tampa
108.60.125.230,4,349,Ookla Speedtest Server 63776: tpataspeedtest.wiline.com,US,Americas,Northern America,United States of America,Florida,,Tampa
23.111.183.58,4,7,outervision.com,US,Americas,Northern America,United States of America,Florida,,Tampa
23.111.166.253,4,10,pcchile.cl,US,Americas,Northern America,United States of America,Florida,,Tampa
217.79.245.242,4,14,peshawarhighcourt.gov.pk,US,Americas,Northern America,United States of America,Florida,,Tampa
209.133.222.46,4,24,phrogz.net,US,Americas,Northern America,United States of America,Florida,,Tampa
162.254.150.250,4,7,pjrc.com,US,Americas,Northern America,United States of America,Florida,,Tampa
96.31.72.25,4,216,plant-care.com,US,Americas,Northern America,United States of America,Florida,,Tampa
69.46.21.218,4,18,poetv.com,US,Americas,Northern America,United States of America,Florida,,Tampa
209.133.220.18,4,21,politics.ie,US,Americas,Northern America,United States of America,Florida,,Tampa
199.193.117.178,4,49,povocurioso.com,US,Americas,Northern America,United States of America,Florida,,Tampa
217.79.245.245,4,-88460,prime.edu.pk,US,Americas,Northern America,United States of America,Florida,,Tampa
192.211.56.74,4,22,profamilia.org.co,US,Americas,Northern America,United States of America,Florida,,Tampa
162.254.149.71,4,3800533,psnw.com,US,Americas,Northern America,United States of America,Florida,,Tampa
199.119.101.146,4,46,publicrecordcenter.com,US,Americas,Northern America,United States of America,Florida,,Tampa
23.111.163.10,4,60,pubrecords.com,US,Americas,Northern America,United States of America,Florida,,Tampa
96.31.72.53,4,-2,putnamsheriff.com,US,Americas,Northern America,United States of America,Florida,,Tampa
23.111.161.130,4,738,qtm.com,US,Americas,Northern America,United States of America,Florida,,Tampa
23.92.71.226,4,19,ramakrishnavivekananda.info,US,Americas,Northern America,United States of America,Florida,,Tampa
23.111.145.234,4,44,recipelink.com,US,Americas,Northern America,United States of America,Florida,,Tampa
23.92.75.227,4,593,republica.com.uy,US,Americas,Northern America,United States of America,Florida,,Tampa
217.79.244.170,4,5,roadback.org,US,Americas,Northern America,United States of America,Florida,,Tampa
23.111.165.2,4,49,rockpaperpulp.com,US,Americas,Northern America,United States of America,Florida,,Tampa
94.72.164.196,4,21,sadi.org.ar,US,Americas,Northern America,United States of America,Florida,,Tampa
46.21.148.50,4,2419,saopauloexpo.com.br,US,Americas,Northern America,United States of America,Florida,,Tampa
23.111.182.242,4,992,scope-art.com,US,Americas,Northern America,United States of America,Florida,,Tampa
23.111.180.146,4,6,seefmall.com.bh,US,Americas,Northern America,United States of America,Florida,,Tampa
66.232.105.242,4,93,seriousoffshore.com,US,Americas,Northern America,United States of America,Florida,,Tampa
209.133.214.31,4,55,setopati.com,US,Americas,Northern America,United States of America,Florida,,Tampa
23.111.149.130,4,15,sg.gov.lk,US,Americas,Northern America,United States of America,Florida,,Tampa
209.133.204.250,4,7,shaktitrails.com,US,Americas,Northern America,United States of America,Florida,,Tampa
69.46.6.164,4,16,sheilaomalley.com,US,Americas,Northern America,United States of America,Florida,,Tampa
23.111.168.70,4,10,sheriffs.org,US,Americas,Northern America,United States of America,Florida,,Tampa
23.111.174.253,4,39,significado.com,US,Americas,Northern America,United States of America,Florida,,Tampa
217.79.243.138,4,5,slantfin.com,US,Americas,Northern America,United States of America,Florida,,Tampa
209.133.210.206,4,5,sleepforkids.org,US,Americas,Northern America,United States of America,Florida,,Tampa
23.111.173.4,4,9,slickremix.com,US,Americas,Northern America,United States of America,Florida,,Tampa
23.111.182.186,4,6,smallbusinessbrief.com,US,Americas,Northern America,United States of America,Florida,,Tampa
217.79.252.163,4,5,smart-gsm.com,US,Americas,Northern America,United States of America,Florida,,Tampa
162.252.82.190,4,38,snowshoemag.com,US,Americas,Northern America,United States of America,Florida,,Tampa
23.111.148.122,4,5,sololiteratura.com,US,Americas,Northern America,United States of America,Florida,,Tampa
23.111.149.90,4,50,somacon.com,US,Americas,Northern America,United States of America,Florida,,Tampa
23.111.179.26,4,3,southwesttimes.com,US,Americas,Northern America,United States of America,Florida,,Tampa
190.124.47.117,4,0,sovietmoviesonline.com,US,Americas,Northern America,United States of America,Florida,,Tampa
46.21.148.2,4,52,speedsmart.net,US,Americas,Northern America,United States of America,Florida,,Tampa
23.111.164.12,4,22,spiritualmediablog.com,US,Americas,Northern America,United States of America,Florida,,Tampa
23.111.167.173,4,471,sportsmanor.com,US,Americas,Northern America,United States of America,Florida,,Tampa
96.31.72.23,4,-2,springsmag.com,US,Americas,Northern America,United States of America,Florida,,Tampa
68.233.234.7,4,6,spyderlovers.com,US,Americas,Northern America,United States of America,Florida,,Tampa
162.254.144.155,4,6,squeegeeworld.com,US,Americas,Northern America,United States of America,Florida,,Tampa
23.92.75.170,4,6,ssnet.org,US,Americas,Northern America,United States of America,Florida,,Tampa
23.111.140.234,4,10,standaloneinstaller.com,US,Americas,Northern America,United States of America,Florida,,Tampa
66.206.21.162,4,58,stenoknight.com,US,Americas,Northern America,United States of America,Florida,,Tampa
209.133.195.116,4,35,stevetheump.com,US,Americas,Northern America,United States of America,Florida,,Tampa
199.119.103.178,4,4,style64.org,US,Americas,Northern America,United States of America,Florida,,Tampa
23.111.181.43,4,4,superbia.lgbt,US,Americas,Northern America,United States of America,Florida,,Tampa
209.133.209.202,4,5,syston.com.br,US,Americas,Northern America,United States of America,Florida,,Tampa
69.46.2.250,4,4,taxcollect.com,US,Americas,Northern America,United States of America,Florida,,Tampa
199.193.117.238,4,10,tdah.org.br,US,Americas,Northern America,United States of America,Florida,,Tampa
23.111.166.234,4,30,teamphotoshop.com,US,Americas,Northern America,United States of America,Florida,,Tampa
96.31.72.54,4,816,teflpedia.com,US,Americas,Northern America,United States of America,Florida,,Tampa
217.79.248.10,4,45,templateism.com,US,Americas,Northern America,United States of America,Florida,,Tampa
158.51.125.194,4,4,thaibaanpost.com,US,Americas,Northern America,United States of America,Florida,,Tampa
209.133.204.74,4,5,thebeachcats.com,US,Americas,Northern America,United States of America,Florida,,Tampa
23.111.148.60,4,18,thecustomboxes.co.uk,US,Americas,Northern America,United States of America,Florida,,Tampa
23.111.168.43,4,35,thecustomboxes.com,US,Americas,Northern America,United States of America,Florida,,Tampa
23.111.148.62,4,24,thecustomboxes.com.au,US,Americas,Northern America,United States of America,Florida,,Tampa
69.46.6.243,4,33,thepinetree.net,US,Americas,Northern America,United States of America,Florida,,Tampa
162.252.85.115,4,32,therailroadpark.com,US,Americas,Northern America,United States of America,Florida,,Tampa
23.111.171.172,4,6,thervatlas.com,US,Americas,Northern America,United States of America,Florida,,Tampa
217.79.244.154,4,478,thewidely.com,US,Americas,Northern America,United States of America,Florida,,Tampa
96.31.72.46,4,732,tizag.com,US,Americas,Northern America,United States of America,Florida,,Tampa
23.111.142.130,4,5,tmrzoo.com,US,Americas,Northern America,United States of America,Florida,,Tampa
96.31.72.45,4,210,toothfairy.org,US,Americas,Northern America,United States of America,Florida,,Tampa
69.46.7.242,4,25,topmudsites.com,US,Americas,Northern America,United States of America,Florida,,Tampa
104.156.54.157,4,481,totalpos.co.id,US,Americas,Northern America,United States of America,Florida,,Tampa
23.227.176.180,4,53,tour.com.ua,US,Americas,Northern America,United States of America,Florida,,Tampa
23.111.180.163,4,7,towndock.net,US,Americas,Northern America,United States of America,Florida,,Tampa
198.178.122.126,4,977,tradingpaints.com,US,Americas,Northern America,United States of America,Florida,,Tampa
23.111.129.138,4,49,trinidadweddings.com,US,Americas,Northern America,United States of America,Florida,,Tampa
66.232.106.130,4,21,trinitycollege.edu,US,Americas,Northern America,United States of America,Florida,,Tampa
23.111.132.114,4,8,turtleforum.com,US,Americas,Northern America,United States of America,Florida,,Tampa
96.31.72.64,4,812,tuscaroras.com,US,Americas,Northern America,United States of America,Florida,,Tampa
209.133.209.251,4,3,twitchviral.com,US,Americas,Northern America,United States of America,Florida,,Tampa
23.111.179.42,4,8,tyndallreport.com,US,Americas,Northern America,United States of America,Florida,,Tampa
209.133.207.180,4,21,umsabadoqualquer.com,US,Americas,Northern America,United States of America,Florida,,Tampa
209.133.206.134,4,15,uni-watch.com,US,Americas,Northern America,United States of America,Florida,,Tampa
69.46.29.10,4,577,unored.com,US,Americas,Northern America,United States of America,Florida,,Tampa
131.247.1.40,4,4,usf.edu,US,Americas,Northern America,United States of America,Florida,,Tampa
96.31.72.43,4,7,uzice.net,US,Americas,Northern America,United States of America,Florida,,Tampa
209.133.192.106,4,793,vancouverrowingclub.wiki,US,Americas,Northern America,United States of America,Florida,,Tampa
23.227.176.27,4,39,vermenu.ar,US,Americas,Northern America,United States of America,Florida,,Tampa
199.167.147.66,4,758,viegecosmeticos.com.br,US,Americas,Northern America,United States of America,Florida,,Tampa
23.111.166.242,4,30,villapalmarcancun.com,US,Americas,Northern America,United States of America,Florida,,Tampa
23.111.140.75,4,4,vinylengine.com,US,Americas,Northern America,United States of America,Florida,,Tampa
209.133.218.114,4,51,virginiaestates.com,US,Americas,Northern America,United States of America,Florida,,Tampa
46.21.149.170,4,3,visionsciences.org,US,Americas,Northern America,United States of America,Florida,,Tampa
23.111.150.34,4,21,warnersbest.com,US,Americas,Northern America,United States of America,Florida,,Tampa
198.178.121.206,4,7,wdwip.com,US,Americas,Northern America,United States of America,Florida,,Tampa
199.253.28.50,4,26,webdigitalonline.com,US,Americas,Northern America,United States of America,Florida,,Tampa
38.57.3.58,4,7,weiter-lesen.net,US,Americas,Northern America,United States of America,Florida,,Tampa
69.46.27.242,4,19,wellsboropa.com,US,Americas,Northern America,United States of America,Florida,,Tampa
199.167.151.242,4,8,werindia.com,US,Americas,Northern America,United States of America,Florida,,Tampa
23.111.174.204,4,4,wgig.org,US,Americas,Northern America,United States of America,Florida,,Tampa
66.232.98.170,4,4,whmi.com,US,Americas,Northern America,United States of America,Florida,,Tampa
209.133.215.34,4,55,wikidegree.com,US,Americas,Northern America,United States of America,Florida,,Tampa
74.50.117.113,4,87,wikifeedz.com,US,Americas,Northern America,United States of America,Florida,,Tampa
96.31.72.36,4,431,wildfermentation.com,US,Americas,Northern America,United States of America,Florida,,Tampa
23.111.143.211,4,48,wilmington-nc.com,US,Americas,Northern America,United States of America,Florida,,Tampa
23.111.178.178,4,91714,wiztreefree.com,US,Americas,Northern America,United States of America,Florida,,Tampa
104.156.48.28,4,5,womenprisoners.org,US,Americas,Northern America,United States of America,Florida,,Tampa
66.232.105.162,4,17,wrfalp.com,US,Americas,Northern America,United States of America,Florida,,Tampa
209.133.194.139,4,7,writersperhour.com,US,Americas,Northern America,United States of America,Florida,,Tampa
23.111.130.172,4,5,xmarksthescot.com,US,Americas,Northern America,United States of America,Florida,,Tampa
23.29.115.3,4,3,xucal.com,US,Americas,Northern America,United States of America,Florida,,Tampa
66.232.106.11,4,18,yorkietalk.com,US,Americas,Northern America,United States of America,Florida,,Tampa
