reflector_ip,ip_version,offset,description,country_code,region,sub_region,country_name,sub_division_1,sub_division_2,city
169.197.124.30,4,4,abidingradio.org,US,Americas,Northern America,United States of America,Florida,,Miami
207.246.117.167,4,12,accel-team.com,US,Americas,Northern America,United States of America,Florida,,Miami
192.155.108.148,4,3,aceboard.net,US,Americas,Northern America,United States of America,Florida,,Miami
23.61.60.235,4,3,acmoore.com,US,Americas,Northern America,United States of America,Florida,,Miami
207.246.114.51,4,6,addiction-treatment-services.com,US,Americas,Northern America,United States of America,Florida,,Miami
104.165.111.108,4,0,alhirschfeldfoundation.org,US,Americas,Northern America,United States of America,Florida,,Miami
172.233.187.56,4,56,alipr.com,US,Americas,Northern America,United States of America,Florida,,Miami
64.251.14.134,4,4,ameu.org,US,Americas,Northern America,United States of America,Florida,,Miami
45.77.95.48,4,66,arav.org,US,Americas,Northern America,United States of America,Florida,,Miami
172.233.163.177,4,5,arturosandoval.com,US,Americas,Northern America,United States of America,Florida,,Miami
104.167.197.6,4,15,authpro.com,US,Americas,Northern America,United States of America,Florida,,Miami
45.77.113.83,4,0,azbizlisting.com,US,Americas,Northern America,United States of America,Florida,,Miami
23.56.176.254,4,23,baccredomatic.com,US,Americas,Northern America,United States of America,Florida,,Miami
198.251.82.229,4,36,bae.st,US,Americas,Northern America,United States of America,Florida,,Miami
207.246.70.185,4,0,baluart.net,US,Americas,Northern America,United States of America,Florida,,Miami
205.196.81.84,4,87,beezzly.com,US,Americas,Northern America,United States of America,Florida,,Miami
172.93.110.65,4,60,bitforged.space,US,Americas,Northern America,United States of America,Florida,,Miami
45.32.166.247,4,2,blacklivesseattle.org,US,Americas,Northern America,United States of America,Florida,,Miami
64.251.25.216,4,6,bootdisk.com,US,Americas,Northern America,United States of America,Florida,,Miami
205.196.81.153,4,6,brigofamerica.com,US,Americas,Northern America,United States of America,Florida,,Miami
104.165.110.2,4,39,budgetmom.com,US,Americas,Northern America,United States of America,Florida,,Miami
45.63.105.95,4,1,careerbrochure.com,US,Americas,Northern America,United States of America,Florida,,Miami
207.246.112.247,4,6,checkupdown.com,US,Americas,Northern America,United States of America,Florida,,Miami
64.31.57.202,4,3,cheerfullyimperfect.com,US,Americas,Northern America,United States of America,Florida,,Miami
149.28.107.171,4,13,climatescienceinternational.org,US,Americas,Northern America,United States of America,Florida,,Miami
104.207.146.80,4,7,clpgh.org,US,Americas,Northern America,United States of America,Florida,,Miami
192.155.108.155,4,1,cm-greeneryproperties.com,US,Americas,Northern America,United States of America,Florida,,Miami
104.238.205.89,4,2,colegiodentistas.org,US,Americas,Northern America,United States of America,Florida,,Miami
199.127.62.74,4,5,colibri.io,US,Americas,Northern America,United States of America,Florida,,Miami
149.28.109.77,4,13,conformal.com,US,Americas,Northern America,United States of America,Florida,,Miami
103.195.102.168,4,-1,critfc.org,US,Americas,Northern America,United States of America,Florida,,Miami
144.172.76.66,4,18,cryptoforday.com,US,Americas,Northern America,United States of America,Florida,,Miami
192.240.99.115,4,39,desdeparaguay.com,US,Americas,Northern America,United States of America,Florida,,Miami
172.233.186.160,4,2,diabetesmonitor.com,US,Americas,Northern America,United States of America,Florida,,Miami
208.115.236.222,4,4,diariolaregion.com,US,Americas,Northern America,United States of America,Florida,,Miami
45.63.106.96,4,2,dmr-peru.net,US,Americas,Northern America,United States of America,Florida,,Miami
107.130.51.137,4,1089,DNS Server: 107-130-51-137.lightspeed.miamfl.sbcglobal.net,US,Americas,Northern America,United States of America,Florida,,Miami
8.26.21.127,4,53,DNS Server: 127.21.26.8.serverpronto.com,US,Americas,Northern America,United States of America,Florida,,Miami
173.162.106.221,4,1892,DNS Server: 173-162-106-221-miami.hfc.comcastbusiness.net,US,Americas,Northern America,United States of America,Florida,,Miami
8.30.36.94,4,2015214,DNS Server: 8.30.36.94.hwccustomers.com,US,Americas,Northern America,United States of America,Florida,,Miami
8.30.39.35,4,-381635,DNS Server: 8.30.39.35.hwccustomers.com,US,Americas,Northern America,United States of America,Florida,,Miami
8.30.39.36,4,-381723,DNS Server: 8.30.39.36.hwccustomers.com,US,Americas,Northern America,United States of America,Florida,,Miami
8.30.39.37,4,-381727,DNS Server: 8.30.39.37.hwccustomers.com,US,Americas,Northern America,United States of America,Florida,,Miami
8.30.39.39,4,-381714,DNS Server: 8.30.39.39.hwccustomers.com,US,Americas,Northern America,United States of America,Florida,,Miami
8.30.39.40,4,-381717,DNS Server: 8.30.39.40.hwccustomers.com,US,Americas,Northern America,United States of America,Florida,,Miami
96.8.17.130,4,31,DNS Server: 96-8-17-130.hwccustomers.com,US,Americas,Northern America,United States of America,Florida,,Miami
96.8.17.131,4,0,DNS Server: 96-8-17-131.hwccustomers.com,US,Americas,Northern America,United States of America,Florida,,Miami
96.8.17.139,4,119,DNS Server: 96-8-17-139.hwccustomers.com,US,Americas,Northern America,United States of America,Florida,,Miami
96.8.17.142,4,178,DNS Server: 96-8-17-142.hwccustomers.com,US,Americas,Northern America,United States of America,Florida,,Miami
96.8.17.172,4,29528189,DNS Server: 96-8-17-172.hwccustomers.com,US,Americas,Northern America,United States of America,Florida,,Miami
92.38.133.221,4,64077,DNS Server: gsmpcu.com,US,Americas,Northern America,United States of America,Florida,,Miami
208.115.236.147,4,3,duranincorporate.com,US,Americas,Northern America,United States of America,Florida,,Miami
69.60.127.219,4,8,ecoport.org,US,Americas,Northern America,United States of America,Florida,,Miami
84.46.239.231,4,0,emeatribune.com,US,Americas,Northern America,United States of America,Florida,,Miami
103.195.102.153,4,39,farmingmybackyard.com,US,Americas,Northern America,United States of America,Florida,,Miami
45.77.115.90,4,0,fashionandmash.com,US,Americas,Northern America,United States of America,Florida,,Miami
64.31.40.2,4,36,fealq.org.br,US,Americas,Northern America,United States of America,Florida,,Miami
140.82.27.152,4,30,floridaoilspilllaw.com,US,Americas,Northern America,United States of America,Florida,,Miami
45.77.94.64,4,26,fordsgarageusa.com,US,Americas,Northern America,United States of America,Florida,,Miami
104.238.205.21,4,7,freetexans.com,US,Americas,Northern America,United States of America,Florida,,Miami
45.77.164.14,4,11,googlerankings.com,US,Americas,Northern America,United States of America,Florida,,Miami
103.195.103.97,4,2,hafiservices.com,US,Americas,Northern America,United States of America,Florida,,Miami
205.196.80.40,4,3,housekeepingbay.com,US,Americas,Northern America,United States of America,Florida,,Miami
192.155.108.158,4,2,huongviettravel.com,US,Americas,Northern America,United States of America,Florida,,Miami
208.115.236.10,4,2,iadsr.edu.pk,US,Americas,Northern America,United States of America,Florida,,Miami
64.31.40.18,4,18,idosi.org,US,Americas,Northern America,United States of America,Florida,,Miami
192.155.108.150,4,4,intilinux.com,US,Americas,Northern America,United States of America,Florida,,Miami
192.155.108.151,4,3,iowntheworld.com,US,Americas,Northern America,United States of America,Florida,,Miami
64.31.38.83,4,12,jornada.com.mx,US,Americas,Northern America,United States of America,Florida,,Miami
205.196.80.165,4,8,layer7tech.com,US,Americas,Northern America,United States of America,Florida,,Miami
64.251.10.81,4,4,localconditions.com,US,Americas,Northern America,United States of America,Florida,,Miami
192.155.111.213,4,9,locatorinmate.com,US,Americas,Northern America,United States of America,Florida,,Miami
45.77.199.196,4,71,lordofwarthemovie.com,US,Americas,Northern America,United States of America,Florida,,Miami
192.155.107.194,4,37,makedailyprofit.com,US,Americas,Northern America,United States of America,Florida,,Miami
64.31.47.106,4,19,malikmobile.com,US,Americas,Northern America,United States of America,Florida,,Miami
45.77.117.221,4,10,maximumcompression.com,US,Americas,Northern America,United States of America,Florida,,Miami
64.31.57.246,4,2,meaningslike.com,US,Americas,Northern America,United States of America,Florida,,Miami
192.155.108.149,4,6,mediagossips.com,US,Americas,Northern America,United States of America,Florida,,Miami
199.127.60.238,4,56,metroflog.co,US,Americas,Northern America,United States of America,Florida,,Miami
207.246.76.144,4,14,miamibeach411.com,US,Americas,Northern America,United States of America,Florida,,Miami
205.196.80.9,4,47,miromind.com,US,Americas,Northern America,United States of America,Florida,,Miami
65.111.173.118,4,288,moock.org,US,Americas,Northern America,United States of America,Florida,,Miami
64.31.57.195,4,13,moonatmidnight.com,US,Americas,Northern America,United States of America,Florida,,Miami
45.63.105.52,4,9,mrfinancialindependence.com,US,Americas,Northern America,United States of America,Florida,,Miami
172.96.172.148,4,2,munkyourself.com,US,Americas,Northern America,United States of America,Florida,,Miami
89.117.0.175,4,6,negiot-center.co.il,US,Americas,Northern America,United States of America,Florida,,Miami
103.195.102.250,4,0,neip.info,US,Americas,Northern America,United States of America,Florida,,Miami
12.206.48.10,4,-243639,netside.net,US,Americas,Northern America,United States of America,Florida,,Miami
12.206.49.10,4,-243648,netside.net,US,Americas,Northern America,United States of America,Florida,,Miami
205.196.80.178,4,4,nk.org.ua,US,Americas,Northern America,United States of America,Florida,,Miami
173.44.47.142,4,2489,notiactual.com,US,Americas,Northern America,United States of America,Florida,,Miami
104.234.192.23,4,5,numerocinqmagazine.com,US,Americas,Northern America,United States of America,Florida,,Miami
172.235.157.124,4,46,nweon.com,US,Americas,Northern America,United States of America,Florida,,Miami
69.60.98.194,4,36,ocportal.com,US,Americas,Northern America,United States of America,Florida,,Miami
64.251.28.130,4,5,omb100.com,US,Americas,Northern America,United States of America,Florida,,Miami
81.181.106.192,4,1,onlineviagriabuy.com,US,Americas,Northern America,United States of America,Florida,,Miami
50.7.64.4,4,295,Ookla Speedtest Server 6031: lg-mia.fdcservers.net,US,Americas,Northern America,United States of America,Florida,,Miami
38.188.200.3,4,15763,Ookla Speedtest Server 63723: speedtest.fiveninternet.com,US,Americas,Northern America,United States of America,Florida,,Miami
8.26.21.4,4,3,open-public-records.com,US,Americas,Northern America,United States of America,Florida,,Miami
45.77.162.138,4,63,orlandodatenightguide.com,US,Americas,Northern America,United States of America,Florida,,Miami
104.243.46.24,4,16,pandagon.net,US,Americas,Northern America,United States of America,Florida,,Miami
205.196.81.101,4,34,parkingnearairports.io,US,Americas,Northern America,United States of America,Florida,,Miami
205.196.81.121,4,85,passport-photo-software.com,US,Americas,Northern America,United States of America,Florida,,Miami
69.60.110.180,4,10,pccables.com,US,Americas,Northern America,United States of America,Florida,,Miami
69.60.119.25,4,4,petpawtential.com,US,Americas,Northern America,United States of America,Florida,,Miami
38.83.73.10,4,23,planisys.net,US,Americas,Northern America,United States of America,Florida,,Miami
64.251.26.67,4,1850796,ponsonbynews.co.nz,US,Americas,Northern America,United States of America,Florida,,Miami
45.126.208.60,4,5,positiveparentingsolutions.com,US,Americas,Northern America,United States of America,Florida,,Miami
67.220.74.104,4,61,prator.life,US,Americas,Northern America,United States of America,Florida,,Miami
23.13.68.217,4,43,previred.com,US,Americas,Northern America,United States of America,Florida,,Miami
65.111.164.17,4,80,proimagenescolombia.com,US,Americas,Northern America,United States of America,Florida,,Miami
172.233.189.102,4,3,rawbloop.com,US,Americas,Northern America,United States of America,Florida,,Miami
208.115.225.138,4,2,reportscammedbitcoin.com,US,Americas,Northern America,United States of America,Florida,,Miami
104.156.247.183,4,44,revistafator.com.br,US,Americas,Northern America,United States of America,Florida,,Miami
69.60.109.247,4,51,ringsidenews.com,US,Americas,Northern America,United States of America,Florida,,Miami
205.196.80.180,4,12,rome.us,US,Americas,Northern America,United States of America,Florida,,Miami
45.77.192.69,4,100,russian-slavicbrides.com,US,Americas,Northern America,United States of America,Florida,,Miami
45.77.193.132,4,9,sangennaro.org,US,Americas,Northern America,United States of America,Florida,,Miami
104.200.72.5,4,4,saveie6.com,US,Americas,Northern America,United States of America,Florida,,Miami
205.196.81.104,4,18,sedecordlegame.org,US,Americas,Northern America,United States of America,Florida,,Miami
172.96.172.133,4,5,seogurubd.com,US,Americas,Northern America,United States of America,Florida,,Miami
144.202.39.118,4,0,shapebootstrap.net,US,Americas,Northern America,United States of America,Florida,,Miami
172.233.186.103,4,2,shortys.com,US,Americas,Northern America,United States of America,Florida,,Miami
45.126.208.49,4,56,simonsezit.com,US,Americas,Northern America,United States of America,Florida,,Miami
69.60.110.7,4,49,skirmish.com,US,Americas,Northern America,United States of America,Florida,,Miami
64.251.15.49,4,15,skvacations.com,US,Americas,Northern America,United States of America,Florida,,Miami
162.255.138.254,4,-148428,smartpixl.com,US,Americas,Northern America,United States of America,Florida,,Miami
140.82.26.103,4,25,southfloridakiteboarding.com,US,Americas,Northern America,United States of America,Florida,,Miami
103.195.100.122,4,28,sportsdave.com,US,Americas,Northern America,United States of America,Florida,,Miami
64.31.57.196,4,16,spreadlibertynews.com,US,Americas,Northern America,United States of America,Florida,,Miami
92.38.133.38,4,3,stlucianow.com,US,Americas,Northern America,United States of America,Florida,,Miami
45.61.187.217,4,36,studybible.info,US,Americas,Northern America,United States of America,Florida,,Miami
173.44.47.224,4,-1,sysprog.info,US,Americas,Northern America,United States of America,Florida,,Miami
140.82.24.252,4,-1,tampabaydatenightguide.com,US,Americas,Northern America,United States of America,Florida,,Miami
144.202.45.146,4,5,tampabayparenting.com,US,Americas,Northern America,United States of America,Florida,,Miami
64.31.22.50,4,40,target-directory.com,US,Americas,Northern America,United States of America,Florida,,Miami
199.127.60.49,4,0,tbsdtv.com,US,Americas,Northern America,United States of America,Florida,,Miami
205.196.81.33,4,25,teachersmag.com,US,Americas,Northern America,United States of America,Florida,,Miami
64.31.43.178,4,2,techcrams.com,US,Americas,Northern America,United States of America,Florida,,Miami
64.31.22.58,4,2,techuck.com,US,Americas,Northern America,United States of America,Florida,,Miami
64.251.30.188,4,13,tharp.me,US,Americas,Northern America,United States of America,Florida,,Miami
208.115.236.166,4,10,theappsfirm.com,US,Americas,Northern America,United States of America,Florida,,Miami
104.238.137.121,4,0,thedawsonacademy.com,US,Americas,Northern America,United States of America,Florida,,Miami
104.156.244.74,4,8,thedisneychef.com,US,Americas,Northern America,United States of America,Florida,,Miami
172.233.176.34,4,11,theodore-roosevelt.com,US,Americas,Northern America,United States of America,Florida,,Miami
64.31.49.205,4,9,theunboundedspirit.com,US,Americas,Northern America,United States of America,Florida,,Miami
64.251.22.35,4,7,threeworldwars.com,US,Americas,Northern America,United States of America,Florida,,Miami
144.202.36.91,4,10,toplang.com,US,Americas,Northern America,United States of America,Florida,,Miami
208.64.64.108,4,7,traxsource.com,US,Americas,Northern America,United States of America,Florida,,Miami
199.127.62.219,4,46,trinituner.com,US,Americas,Northern America,United States of America,Florida,,Miami
172.93.111.22,4,3,tropicaltidbits.com,US,Americas,Northern America,United States of America,Florida,,Miami
45.61.184.135,4,1,tux.pizza,US,Americas,Northern America,United States of America,Florida,,Miami
173.205.87.147,4,19,unaoc.org,US,Americas,Northern America,United States of America,Florida,,Miami
66.165.168.105,4,0,unitedworldtelecom.com,US,Americas,Northern America,United States of America,Florida,,Miami
172.233.162.4,4,6,uscommbroward.com,US,Americas,Northern America,United States of America,Florida,,Miami
86.38.216.41,4,1,vibratorshop.co.il,US,Americas,Northern America,United States of America,Florida,,Miami
149.28.107.160,4,2,viomundo.com.br,US,Americas,Northern America,United States of America,Florida,,Miami
205.196.81.44,4,84,vivawoman.net,US,Americas,Northern America,United States of America,Florida,,Miami
5.254.74.2,4,510,voxility.com,US,Americas,Northern America,United States of America,Florida,,Miami
205.196.80.52,4,3,washingcodes.com,US,Americas,Northern America,United States of America,Florida,,Miami
96.47.228.246,4,80,webhost.pro,US,Americas,Northern America,United States of America,Florida,,Miami
64.31.43.34,4,28,websexperts.com,US,Americas,Northern America,United States of America,Florida,,Miami
64.31.25.250,4,6,whow.com.br,US,Americas,Northern America,United States of America,Florida,,Miami
144.202.38.39,4,19,womenindistress.org,US,Americas,Northern America,United States of America,Florida,,Miami
172.233.190.208,4,3,wonderhero.io,US,Americas,Northern America,United States of America,Florida,,Miami
172.96.143.39,4,7,wordpresssupplies.com,US,Americas,Northern America,United States of America,Florida,,Miami
205.196.80.115,4,6,writtent.com,US,Americas,Northern America,United States of America,Florida,,Miami
162.254.200.130,4,2,wtso.net,US,Americas,Northern America,United States of America,Florida,,Miami
172.233.187.207,4,7,xlx-florida-link.com,US,Americas,Northern America,United States of America,Florida,,Miami
45.77.115.210,4,36,xn--idrottslskaren-cib.se,US,Americas,Northern America,United States of America,Florida,,Miami
45.77.196.175,4,-8,xn--sportogbevgelse-6lb.dk,US,Americas,Northern America,United States of America,Florida,,Miami
149.28.105.52,4,69,xn--tande-fra.se,US,Americas,Northern America,United States of America,Florida,,Miami
45.32.168.157,4,3,xn--vrfritid-9za.se,US,Americas,Northern America,United States of America,Florida,,Miami
104.165.110.100,4,5,year2000.com,US,Americas,Northern America,United States of America,Florida,,Miami
64.251.22.31,4,2,yk.net,US,Americas,Northern America,United States of America,Florida,,Miami
192.155.108.156,4,18,yurist-online.com,US,Americas,Northern America,United States of America,Florida,,Miami
