reflector_ip,ip_version,offset,description,country_code,region,sub_region,country_name,sub_division_1,sub_division_2,city
107.190.138.194,4,-176,aboutkensington.com,US,Americas,Northern America,United States of America,Florida,,Apopka
107.190.140.55,4,23,atthetablepodcast.com,US,Americas,Northern America,United States of America,Florida,,Apopka
107.190.136.51,4,8,bigeyeagency.com,US,Americas,Northern America,United States of America,Florida,,Apopka
107.190.138.213,4,-172,bigmacktrucks.com,US,Americas,Northern America,United States of America,Florida,,Apopka
107.190.132.130,4,18091,cruzroja.org.ar,US,Americas,Northern America,United States of America,Florida,,Apopka
107.190.140.57,4,16,flavoursandfrosting.com,US,Americas,Northern America,United States of America,Florida,,Apopka
107.190.131.50,4,-158,getsmarttriad.com,US,Americas,Northern America,United States of America,Florida,,Apopka
107.190.136.2,4,8,labradoodle.nu,US,Americas,Northern America,United States of America,Florida,,Apopka
107.190.138.58,4,-151,nirsoft.net,US,Americas,Northern America,United States of America,Florida,,Apopka
107.190.137.66,4,-149,orlandoballet.org,US,Americas,Northern America,United States of America,Florida,,Apopka
107.190.140.51,4,-6,paulmarina.com,US,Americas,Northern America,United States of America,Florida,,Apopka
107.190.136.114,4,-113,publimayo.com.co,US,Americas,Northern America,United States of America,Florida,,Apopka
107.190.140.88,4,-22,rocklandbakery.com,US,Americas,Northern America,United States of America,Florida,,Apopka
107.190.140.60,4,-10,simplegreensoul.com,US,Americas,Northern America,United States of America,Florida,,Apopka
107.190.140.53,4,30,simplelivingrecipes.com,US,Americas,Northern America,United States of America,Florida,,Apopka
107.190.140.59,4,4,tasteloveandnourish.com,US,Americas,Northern America,United States of America,Florida,,Apopka
107.190.140.54,4,29,tastingwithtina.com,US,Americas,Northern America,United States of America,Florida,,Apopka
107.190.140.52,4,-8,thebakingbeauties.com,US,Americas,Northern America,United States of America,Florida,,Apopka
107.190.140.58,4,7,turniptheoven.com,US,Americas,Northern America,United States of America,Florida,,Apopka
107.190.139.58,4,-129,windominica.gov.dm,US,Americas,Northern America,United States of America,Florida,,Apopka
107.190.132.8,4,4,yousaypotatoes.com,US,Americas,Northern America,United States of America,Florida,,Apopka
107.190.132.13,4,3,yummymummykitchen.com,US,Americas,Northern America,United States of America,Florida,,Apopka
