reflector_ip,ip_version,offset,description,country_code,region,sub_region,country_name,sub_division_1,sub_division_2,city
74.119.195.56,4,41,1click.ru,NL,Europe,Western Europe,Netherlands,Drenthe,,Meppel
45.93.124.77,4,0,1to4.net,NL,Europe,Western Europe,Netherlands,Drenthe,,Meppel
185.224.137.61,4,0,2024year.com,NL,Europe,Western Europe,Netherlands,Drenthe,,Meppel
37.1.220.33,4,1,20bet.tv,NL,Europe,Western Europe,Netherlands,Drenthe,,Meppel
37.1.217.167,4,-2,a-thera.jp,NL,Europe,Western Europe,Netherlands,Drenthe,,Meppel
81.16.31.101,4,2,aasarchitecture.com,NL,Europe,Western Europe,Netherlands,Drenthe,,Meppel
185.224.138.188,4,0,aatmanirbhartours.in,NL,Europe,Western Europe,Netherlands,Drenthe,,Meppel
45.87.81.74,4,5,abandonedstations.org.uk,NL,Europe,Western Europe,Netherlands,Drenthe,,Meppel
45.95.180.189,4,13,aeco.no,NL,Europe,Western Europe,Netherlands,Drenthe,,Meppel
193.42.136.49,4,30,african-markets.com,NL,Europe,Western Europe,Netherlands,Drenthe,,Meppel
45.87.81.134,4,3,afsafrica.org,NL,Europe,Western Europe,Netherlands,Drenthe,,Meppel
145.14.151.194,4,489,agentura.ru,NL,Europe,Western Europe,Netherlands,Drenthe,,Meppel
5.45.87.164,4,93,agregator.media,NL,Europe,Western Europe,Netherlands,Drenthe,,Meppel
109.106.242.155,4,3,aicas.com,NL,Europe,Western Europe,Netherlands,Drenthe,,Meppel
191.96.63.31,4,83,al-kindipublisher.com,NL,Europe,Western Europe,Netherlands,Drenthe,,Meppel
94.131.107.53,4,8,alaev.info,NL,Europe,Western Europe,Netherlands,Drenthe,,Meppel
37.1.222.14,4,0,alexschool3.ru,NL,Europe,Western Europe,Netherlands,Drenthe,,Meppel
145.14.156.162,4,31,allman-safetyware.com,NL,Europe,Western Europe,Netherlands,Drenthe,,Meppel
5.45.86.81,4,8,allpkp.net,NL,Europe,Western Europe,Netherlands,Drenthe,,Meppel
185.77.96.85,4,0,allsoftlab.com,NL,Europe,Western Europe,Netherlands,Drenthe,,Meppel
45.155.121.33,4,5,allsport-live.ru,NL,Europe,Western Europe,Netherlands,Drenthe,,Meppel
185.224.138.81,4,74,amw-veranda.nl,NL,Europe,Western Europe,Netherlands,Drenthe,,Meppel
185.206.160.31,4,7,anddope.com,NL,Europe,Western Europe,Netherlands,Drenthe,,Meppel
109.106.246.45,4,72,androidtv-guide.com,NL,Europe,Western Europe,Netherlands,Drenthe,,Meppel
185.224.137.208,4,0,ansalbufeira.com,NL,Europe,Western Europe,Netherlands,Drenthe,,Meppel
109.106.246.129,4,-1,antalyatropik.com,NL,Europe,Western Europe,Netherlands,Drenthe,,Meppel
89.116.53.160,4,18,apiframe.pro,NL,Europe,Western Europe,Netherlands,Drenthe,,Meppel
37.1.220.47,4,2,appvisor.ru,NL,Europe,Western Europe,Netherlands,Drenthe,,Meppel
89.116.53.152,4,62,architecturequote.com,NL,Europe,Western Europe,Netherlands,Drenthe,,Meppel
109.106.242.187,4,10,aristo.nl,NL,Europe,Western Europe,Netherlands,Drenthe,,Meppel
153.92.223.51,4,27,autonomija.info,NL,Europe,Western Europe,Netherlands,Drenthe,,Meppel
91.108.98.1,4,31,avfoch.com,NL,Europe,Western Europe,Netherlands,Drenthe,,Meppel
195.123.216.75,4,7,azartweb2.com,NL,Europe,Western Europe,Netherlands,Drenthe,,Meppel
185.224.138.85,4,11,bet-types.com,NL,Europe,Western Europe,Netherlands,Drenthe,,Meppel
45.87.81.184,4,-1,binarynotions.com,NL,Europe,Western Europe,Netherlands,Drenthe,,Meppel
153.92.218.96,4,29,bloggalot.com,NL,Europe,Western Europe,Netherlands,Drenthe,,Meppel
191.96.63.202,4,-1,blueskyeating.com,NL,Europe,Western Europe,Netherlands,Drenthe,,Meppel
5.45.84.69,4,0,book-of-ra-download.com,NL,Europe,Western Europe,Netherlands,Drenthe,,Meppel
81.16.30.185,4,16,borjagiron.com,NL,Europe,Western Europe,Netherlands,Drenthe,,Meppel
153.92.219.206,4,-1,botekcorp.com,NL,Europe,Western Europe,Netherlands,Drenthe,,Meppel
109.106.246.143,4,2,boustany-foundation.org,NL,Europe,Western Europe,Netherlands,Drenthe,,Meppel
5.61.51.159,4,42,bukmekerov.net,NL,Europe,Western Europe,Netherlands,Drenthe,,Meppel
5.252.21.233,4,-19,buygeneric.space,NL,Europe,Western Europe,Netherlands,Drenthe,,Meppel
37.1.221.181,4,31,carcd.ru,NL,Europe,Western Europe,Netherlands,Drenthe,,Meppel
145.14.156.69,4,28,cardet.org,NL,Europe,Western Europe,Netherlands,Drenthe,,Meppel
85.158.145.202,4,14,cardforum.cc,NL,Europe,Western Europe,Netherlands,Drenthe,,Meppel
45.93.127.194,4,0,cettefamille.com,NL,Europe,Western Europe,Netherlands,Drenthe,,Meppel
94.131.11.192,4,6,cheapsoftwareshop.com,NL,Europe,Western Europe,Netherlands,Drenthe,,Meppel
81.16.28.122,4,0,chinamobiles.org,NL,Europe,Western Europe,Netherlands,Drenthe,,Meppel
185.224.137.218,4,6,cibtech.org,NL,Europe,Western Europe,Netherlands,Drenthe,,Meppel
212.107.16.47,4,5,ciu.edu.ge,NL,Europe,Western Europe,Netherlands,Drenthe,,Meppel
185.166.188.171,4,3,clementdineros.pt,NL,Europe,Western Europe,Netherlands,Drenthe,,Meppel
153.92.222.197,4,0,clotexco.com,NL,Europe,Western Europe,Netherlands,Drenthe,,Meppel
212.107.17.105,4,0,coachforum.net,NL,Europe,Western Europe,Netherlands,Drenthe,,Meppel
212.107.17.223,4,-1,cobanahmet.com,NL,Europe,Western Europe,Netherlands,Drenthe,,Meppel
109.106.246.100,4,-2,compraracartadeconducao.com,NL,Europe,Western Europe,Netherlands,Drenthe,,Meppel
5.61.50.55,4,10,compromat.ws,NL,Europe,Western Europe,Netherlands,Drenthe,,Meppel
91.108.98.29,4,5,contentmajestic.com,NL,Europe,Western Europe,Netherlands,Drenthe,,Meppel
5.45.79.103,4,20,converto.io,NL,Europe,Western Europe,Netherlands,Drenthe,,Meppel
109.106.246.190,4,14,crisap.org,NL,Europe,Western Europe,Netherlands,Drenthe,,Meppel
185.224.138.193,4,1,crrc.ge,NL,Europe,Western Europe,Netherlands,Drenthe,,Meppel
45.95.180.211,4,-1,daliborfarny.com,NL,Europe,Western Europe,Netherlands,Drenthe,,Meppel
45.93.127.58,4,-2,de-vog.nl,NL,Europe,Western Europe,Netherlands,Drenthe,,Meppel
185.206.161.45,4,25,designwanted.com,NL,Europe,Western Europe,Netherlands,Drenthe,,Meppel
185.77.96.164,4,10,dietaryfiberfood.com,NL,Europe,Western Europe,Netherlands,Drenthe,,Meppel
109.106.242.237,4,9,diotima.org.gr,NL,Europe,Western Europe,Netherlands,Drenthe,,Meppel
185.224.138.136,4,-1,discoverthenetwork.org,NL,Europe,Western Europe,Netherlands,Drenthe,,Meppel
5.56.133.70,4,-93008,DNS Server: 5-56-133-70.static.karizanta.com,NL,Europe,Western Europe,Netherlands,Drenthe,,Meppel
37.1.216.211,4,154,DNS Server: mmm-traditional.com,NL,Europe,Western Europe,Netherlands,Drenthe,,Meppel
5.34.180.210,4,1257462,DNS Server: nl.stativ.ml,NL,Europe,Western Europe,Netherlands,Drenthe,,Meppel
77.91.123.212,4,134,DNS Server: nl.t2.info,NL,Europe,Western Europe,Netherlands,Drenthe,,Meppel
94.131.107.220,4,136,DNS Server: nl5.nterry.info,NL,Europe,Western Europe,Netherlands,Drenthe,,Meppel
195.123.218.127,4,187,DNS Server: vds-993376.hosted-by-itldc.com,NL,Europe,Western Europe,Netherlands,Drenthe,,Meppel
94.131.107.135,4,452,DNS Server: vm637829.stark-industries.solutions,NL,Europe,Western Europe,Netherlands,Drenthe,,Meppel
93.127.179.106,4,3,drgurucharanshettyir.com,NL,Europe,Western Europe,Netherlands,Drenthe,,Meppel
109.106.244.250,4,2,duno.com,NL,Europe,Western Europe,Netherlands,Drenthe,,Meppel
145.14.151.112,4,40,dvbsupport.net,NL,Europe,Western Europe,Netherlands,Drenthe,,Meppel
81.16.30.187,4,62,eastdirections.com,NL,Europe,Western Europe,Netherlands,Drenthe,,Meppel
89.116.53.115,4,2,easystorecreator.com,NL,Europe,Western Europe,Netherlands,Drenthe,,Meppel
193.160.66.181,4,0,educationcenter.cz,NL,Europe,Western Europe,Netherlands,Drenthe,,Meppel
153.92.220.236,4,6,eha.digital,NL,Europe,Western Europe,Netherlands,Drenthe,,Meppel
89.116.53.141,4,11,ehnheart.org,NL,Europe,Western Europe,Netherlands,Drenthe,,Meppel
45.87.80.202,4,11,eksternest.be,NL,Europe,Western Europe,Netherlands,Drenthe,,Meppel
2.57.88.105,4,81,enoavia.es,NL,Europe,Western Europe,Netherlands,Drenthe,,Meppel
109.106.246.150,4,4,entypo.com,NL,Europe,Western Europe,Netherlands,Drenthe,,Meppel
185.238.170.220,4,15,epicserials.online,NL,Europe,Western Europe,Netherlands,Drenthe,,Meppel
194.5.156.192,4,51,eurosava.com,NL,Europe,Western Europe,Netherlands,Drenthe,,Meppel
45.9.191.236,4,104,existek.com,NL,Europe,Western Europe,Netherlands,Drenthe,,Meppel
81.16.29.50,4,0,exposale.net,NL,Europe,Western Europe,Netherlands,Drenthe,,Meppel
5.45.86.146,4,23,farmacias-24.com,NL,Europe,Western Europe,Netherlands,Drenthe,,Meppel
45.87.81.110,4,-3,fbahr.de,NL,Europe,Western Europe,Netherlands,Drenthe,,Meppel
37.1.220.221,4,0,fdigzone.com,NL,Europe,Western Europe,Netherlands,Drenthe,,Meppel
5.45.85.23,4,31,filesmonster.com,NL,Europe,Western Europe,Netherlands,Drenthe,,Meppel
89.116.53.249,4,55,fitfastacademy.com,NL,Europe,Western Europe,Netherlands,Drenthe,,Meppel
5.45.87.206,4,0,flibusta.site,NL,Europe,Western Europe,Netherlands,Drenthe,,Meppel
185.238.168.83,4,4,flibusta.site,NL,Europe,Western Europe,Netherlands,Drenthe,,Meppel
193.160.66.97,4,86,foodiva.net,NL,Europe,Western Europe,Netherlands,Drenthe,,Meppel
109.106.246.157,4,54,footballderbies.com,NL,Europe,Western Europe,Netherlands,Drenthe,,Meppel
191.101.231.168,4,97,franciscansinternational.org,NL,Europe,Western Europe,Netherlands,Drenthe,,Meppel
37.1.217.40,4,-4,free-slots.games,NL,Europe,Western Europe,Netherlands,Drenthe,,Meppel
94.131.105.60,4,50,freeskladchina.org,NL,Europe,Western Europe,Netherlands,Drenthe,,Meppel
89.116.53.44,4,-1,freestyledisc.org,NL,Europe,Western Europe,Netherlands,Drenthe,,Meppel
37.1.218.115,4,8,freetibet.ru,NL,Europe,Western Europe,Netherlands,Drenthe,,Meppel
89.116.53.93,4,28,frequencechretienne.fr,NL,Europe,Western Europe,Netherlands,Drenthe,,Meppel
81.16.30.8,4,1,freshways.co.uk,NL,Europe,Western Europe,Netherlands,Drenthe,,Meppel
194.5.156.161,4,-2,fundacionjesusysanmartin.org,NL,Europe,Western Europe,Netherlands,Drenthe,,Meppel
45.95.182.245,4,0,fux.pl,NL,Europe,Western Europe,Netherlands,Drenthe,,Meppel
37.1.222.39,4,4,gambletroll.com,NL,Europe,Western Europe,Netherlands,Drenthe,,Meppel
185.206.161.214,4,5,gamesitetemplates.com,NL,Europe,Western Europe,Netherlands,Drenthe,,Meppel
45.87.81.202,4,-1,geekets.com,NL,Europe,Western Europe,Netherlands,Drenthe,,Meppel
45.93.124.125,4,41,godotforums.org,NL,Europe,Western Europe,Netherlands,Drenthe,,Meppel
194.5.156.186,4,3,gokturkvirtual.com,NL,Europe,Western Europe,Netherlands,Drenthe,,Meppel
45.87.81.180,4,13,goldensmiledent.com,NL,Europe,Western Europe,Netherlands,Drenthe,,Meppel
185.166.188.250,4,1,guvenilirmedyumplatformu.com,NL,Europe,Western Europe,Netherlands,Drenthe,,Meppel
212.107.16.76,4,0,hansaatravels.com,NL,Europe,Western Europe,Netherlands,Drenthe,,Meppel
191.96.63.2,4,2,hartodesign.fr,NL,Europe,Western Europe,Netherlands,Drenthe,,Meppel
191.96.63.63,4,30,helices-evra.com,NL,Europe,Western Europe,Netherlands,Drenthe,,Meppel
5.45.87.8,4,1,hellpartners.com,NL,Europe,Western Europe,Netherlands,Drenthe,,Meppel
194.5.156.206,4,3,hoiqt.com,NL,Europe,Western Europe,Netherlands,Drenthe,,Meppel
185.73.220.82,4,31,hostiserver.com,NL,Europe,Western Europe,Netherlands,Drenthe,,Meppel
193.160.66.226,4,6,howladerandco.com,NL,Europe,Western Europe,Netherlands,Drenthe,,Meppel
91.108.98.254,4,-1,ifamericansknew.org,NL,Europe,Western Europe,Netherlands,Drenthe,,Meppel
153.92.218.172,4,6,ihd.org.tr,NL,Europe,Western Europe,Netherlands,Drenthe,,Meppel
5.45.87.231,4,17,imitrexmed.com,NL,Europe,Western Europe,Netherlands,Drenthe,,Meppel
145.14.156.201,4,-1,innerned.org,NL,Europe,Western Europe,Netherlands,Drenthe,,Meppel
185.237.146.247,4,31,integraudio.com,NL,Europe,Western Europe,Netherlands,Drenthe,,Meppel
145.14.151.95,4,-1,intellectus.lt,NL,Europe,Western Europe,Netherlands,Drenthe,,Meppel
191.96.63.224,4,49,ipassas.com,NL,Europe,Western Europe,Netherlands,Drenthe,,Meppel
185.166.188.91,4,22,ispovedi.com,NL,Europe,Western Europe,Netherlands,Drenthe,,Meppel
109.106.246.30,4,1,jandconcierge.com,NL,Europe,Western Europe,Netherlands,Drenthe,,Meppel
89.116.53.123,4,113,jerelo.info,NL,Europe,Western Europe,Netherlands,Drenthe,,Meppel
109.106.246.233,4,-1,kairalierectors.com,NL,Europe,Western Europe,Netherlands,Drenthe,,Meppel
37.1.223.96,4,27,kamrbb.ru,NL,Europe,Western Europe,Netherlands,Drenthe,,Meppel
193.124.133.79,4,28,kino35mm.ru,NL,Europe,Western Europe,Netherlands,Drenthe,,Meppel
37.1.223.231,4,1,klgd2.ru,NL,Europe,Western Europe,Netherlands,Drenthe,,Meppel
212.107.17.139,4,2,kmspico-oficial.com,NL,Europe,Western Europe,Netherlands,Drenthe,,Meppel
185.224.138.21,4,47,kokaqueen.com,NL,Europe,Western Europe,Netherlands,Drenthe,,Meppel
185.166.188.95,4,-2,kylotonn.com,NL,Europe,Western Europe,Netherlands,Drenthe,,Meppel
193.42.136.217,4,-1,laayudadigital.com,NL,Europe,Western Europe,Netherlands,Drenthe,,Meppel
185.224.137.210,4,-1,lakeishikawa.com,NL,Europe,Western Europe,Netherlands,Drenthe,,Meppel
179.61.246.5,4,77,lengthening-sldf.com,NL,Europe,Western Europe,Netherlands,Drenthe,,Meppel
185.224.138.154,4,-2,lesfilmsdici.fr,NL,Europe,Western Europe,Netherlands,Drenthe,,Meppel
185.166.188.81,4,2,ligadebolsa.com,NL,Europe,Western Europe,Netherlands,Drenthe,,Meppel
77.37.83.19,4,66,lithuaniatribune.com,NL,Europe,Western Europe,Netherlands,Drenthe,,Meppel
109.106.241.44,4,-1,lounge.fm,NL,Europe,Western Europe,Netherlands,Drenthe,,Meppel
89.116.53.49,4,4,lovedbdb.com,NL,Europe,Western Europe,Netherlands,Drenthe,,Meppel
145.14.156.50,4,-1,m2tech.biz,NL,Europe,Western Europe,Netherlands,Drenthe,,Meppel
191.96.63.174,4,-2,maldivestour.guide,NL,Europe,Western Europe,Netherlands,Drenthe,,Meppel
91.108.98.137,4,-3,martechcube.com,NL,Europe,Western Europe,Netherlands,Drenthe,,Meppel
185.224.138.40,4,35,menumt.com,NL,Europe,Western Europe,Netherlands,Drenthe,,Meppel
77.37.53.97,4,1,mercadodinamico.com.br,NL,Europe,Western Europe,Netherlands,Drenthe,,Meppel
212.107.17.219,4,-2,michaelmods.com,NL,Europe,Western Europe,Netherlands,Drenthe,,Meppel
153.92.220.76,4,-2,milfarea.com.au,NL,Europe,Western Europe,Netherlands,Drenthe,,Meppel
45.9.191.86,4,31,monsantotribunal.org,NL,Europe,Western Europe,Netherlands,Drenthe,,Meppel
185.237.146.115,4,12,movimentoconsumatori.it,NL,Europe,Western Europe,Netherlands,Drenthe,,Meppel
185.237.147.1,4,-2,mpdl.org,NL,Europe,Western Europe,Netherlands,Drenthe,,Meppel
212.107.16.149,4,29,mtvare.ge,NL,Europe,Western Europe,Netherlands,Drenthe,,Meppel
91.108.98.235,4,0,musicalpraxis.gr,NL,Europe,Western Europe,Netherlands,Drenthe,,Meppel
109.106.246.37,4,34,myfoods2021.com,NL,Europe,Western Europe,Netherlands,Drenthe,,Meppel
45.93.125.168,4,13,natiswelt.de,NL,Europe,Western Europe,Netherlands,Drenthe,,Meppel
181.215.69.20,4,-3,netdevconf.org,NL,Europe,Western Europe,Netherlands,Drenthe,,Meppel
194.5.156.216,4,30,newpadelracket.com,NL,Europe,Western Europe,Netherlands,Drenthe,,Meppel
45.87.81.155,4,8,newswep.com,NL,Europe,Western Europe,Netherlands,Drenthe,,Meppel
89.116.226.247,4,-1,nobrakesgames.com,NL,Europe,Western Europe,Netherlands,Drenthe,,Meppel
37.1.219.14,4,43,nord-apart.ru,NL,Europe,Western Europe,Netherlands,Drenthe,,Meppel
5.189.253.50,4,-825882,Ookla Speedtest Server 44196: speedtest.nl-mep.llhost-inc.eu,NL,Europe,Western Europe,Netherlands,Drenthe,,Meppel
91.242.229.36,4,4,oserial.ru,NL,Europe,Western Europe,Netherlands,Drenthe,,Meppel
191.96.63.13,4,-1,otelms.com,NL,Europe,Western Europe,Netherlands,Drenthe,,Meppel
185.206.161.3,4,16,pandoratv.it,NL,Europe,Western Europe,Netherlands,Drenthe,,Meppel
185.224.137.58,4,15,patraeastmidlands.co.uk,NL,Europe,Western Europe,Netherlands,Drenthe,,Meppel
194.5.156.171,4,48,pentestmonkey.net,NL,Europe,Western Europe,Netherlands,Drenthe,,Meppel
185.224.138.156,4,-1,plant-e.com,NL,Europe,Western Europe,Netherlands,Drenthe,,Meppel
45.87.81.178,4,-2,plantifulbakery.com,NL,Europe,Western Europe,Netherlands,Drenthe,,Meppel
84.246.85.45,4,32,polit.ru,NL,Europe,Western Europe,Netherlands,Drenthe,,Meppel
185.238.169.73,4,1,polski-sloty.com,NL,Europe,Western Europe,Netherlands,Drenthe,,Meppel
145.14.151.208,4,55,prabuddhbharatfoundation.com,NL,Europe,Western Europe,Netherlands,Drenthe,,Meppel
45.140.147.120,4,25,prokuratura-lenobl.ru,NL,Europe,Western Europe,Netherlands,Drenthe,,Meppel
185.237.147.77,4,20,psychogoed.nl,NL,Europe,Western Europe,Netherlands,Drenthe,,Meppel
37.1.221.86,4,2,qrcoder.ru,NL,Europe,Western Europe,Netherlands,Drenthe,,Meppel
91.108.98.18,4,-1,quotationwalls.com,NL,Europe,Western Europe,Netherlands,Drenthe,,Meppel
91.108.98.105,4,61,radioimpacto.com.ec,NL,Europe,Western Europe,Netherlands,Drenthe,,Meppel
212.107.17.172,4,25,revatio24.com,NL,Europe,Western Europe,Netherlands,Drenthe,,Meppel
89.116.226.227,4,51,review10best.com,NL,Europe,Western Europe,Netherlands,Drenthe,,Meppel
109.106.245.234,4,-1,rijschoolin.nl,NL,Europe,Western Europe,Netherlands,Drenthe,,Meppel
153.92.220.226,4,-3,river-gas.com,NL,Europe,Western Europe,Netherlands,Drenthe,,Meppel
81.16.29.77,4,9,robertoriccidesigns.com,NL,Europe,Western Europe,Netherlands,Drenthe,,Meppel
194.5.156.194,4,-2,robointern.tech,NL,Europe,Western Europe,Netherlands,Drenthe,,Meppel
45.93.127.93,4,50,roknnagd.com,NL,Europe,Western Europe,Netherlands,Drenthe,,Meppel
185.238.170.29,4,60,ruskinonovoe.net,NL,Europe,Western Europe,Netherlands,Drenthe,,Meppel
94.131.11.91,4,33,sale-cloned-cards.cc,NL,Europe,Western Europe,Netherlands,Drenthe,,Meppel
145.14.156.235,4,-1,salehseddik.com,NL,Europe,Western Europe,Netherlands,Drenthe,,Meppel
185.237.146.114,4,-2,santescience.fr,NL,Europe,Western Europe,Netherlands,Drenthe,,Meppel
145.14.151.57,4,46,sath.org,NL,Europe,Western Europe,Netherlands,Drenthe,,Meppel
109.106.242.54,4,-2,sbxgroup.com,NL,Europe,Western Europe,Netherlands,Drenthe,,Meppel
185.206.161.192,4,-2,sdbgroep.nl,NL,Europe,Western Europe,Netherlands,Drenthe,,Meppel
194.5.159.75,4,1,seductiveseekers.com,NL,Europe,Western Europe,Netherlands,Drenthe,,Meppel
145.14.156.95,4,1,serviceuae.net,NL,Europe,Western Europe,Netherlands,Drenthe,,Meppel
37.1.219.240,4,1,sigarety-mira.store,NL,Europe,Western Europe,Netherlands,Drenthe,,Meppel
5.45.79.16,4,31,simpleorganiclife.org,NL,Europe,Western Europe,Netherlands,Drenthe,,Meppel
153.92.220.128,4,33,skillsofblocks.com,NL,Europe,Western Europe,Netherlands,Drenthe,,Meppel
185.238.168.201,4,1,slotsfans.com,NL,Europe,Western Europe,Netherlands,Drenthe,,Meppel
81.16.29.149,4,31,socialcreditu.com,NL,Europe,Western Europe,Netherlands,Drenthe,,Meppel
153.92.220.240,4,-1,solutionslinux.fr,NL,Europe,Western Europe,Netherlands,Drenthe,,Meppel
2.57.88.175,4,3,soppognyttevekster.no,NL,Europe,Western Europe,Netherlands,Drenthe,,Meppel
5.45.84.81,4,36,specwarnet.net,NL,Europe,Western Europe,Netherlands,Drenthe,,Meppel
185.238.168.30,4,94,spielen-slots.de,NL,Europe,Western Europe,Netherlands,Drenthe,,Meppel
145.14.158.30,4,-2,strangebeautiful.com,NL,Europe,Western Europe,Netherlands,Drenthe,,Meppel
185.224.137.219,4,-2,sttmwc.ac.id,NL,Europe,Western Europe,Netherlands,Drenthe,,Meppel
45.87.81.111,4,64,studioteacuppuppies.online,NL,Europe,Western Europe,Netherlands,Drenthe,,Meppel
45.87.81.185,4,58,stylenrich.com,NL,Europe,Western Europe,Netherlands,Drenthe,,Meppel
81.16.31.56,4,4,supertrips.nl,NL,Europe,Western Europe,Netherlands,Drenthe,,Meppel
45.67.231.40,4,6,sylphy.ru,NL,Europe,Western Europe,Netherlands,Drenthe,,Meppel
81.16.29.98,4,2,t4.education,NL,Europe,Western Europe,Netherlands,Drenthe,,Meppel
217.12.208.153,4,8,talkai.info,NL,Europe,Western Europe,Netherlands,Drenthe,,Meppel
37.1.220.239,4,14,tdgkn.net,NL,Europe,Western Europe,Netherlands,Drenthe,,Meppel
185.14.28.186,4,2,teletrade.org,NL,Europe,Western Europe,Netherlands,Drenthe,,Meppel
5.61.50.230,4,15,teplotehnika.net,NL,Europe,Western Europe,Netherlands,Drenthe,,Meppel
153.92.220.188,4,3,teraval.cz,NL,Europe,Western Europe,Netherlands,Drenthe,,Meppel
212.107.17.132,4,-2,terzic-bus.hr,NL,Europe,Western Europe,Netherlands,Drenthe,,Meppel
89.116.53.6,4,-2,the-soulmate.com,NL,Europe,Western Europe,Netherlands,Drenthe,,Meppel
145.14.151.156,4,496,themomhood.com,NL,Europe,Western Europe,Netherlands,Drenthe,,Meppel
193.106.150.28,4,10,themusicallyrics.com,NL,Europe,Western Europe,Netherlands,Drenthe,,Meppel
185.224.137.96,4,41,tilengine.org,NL,Europe,Western Europe,Netherlands,Drenthe,,Meppel
93.185.166.206,4,4,timeofblog.com,NL,Europe,Western Europe,Netherlands,Drenthe,,Meppel
185.166.188.199,4,0,topbettingsites.ng,NL,Europe,Western Europe,Netherlands,Drenthe,,Meppel
45.67.231.19,4,501,torlinks.net,NL,Europe,Western Europe,Netherlands,Drenthe,,Meppel
185.224.138.13,4,7,torrentz2eu.org,NL,Europe,Western Europe,Netherlands,Drenthe,,Meppel
45.95.180.166,4,23,totalsoft.org,NL,Europe,Western Europe,Netherlands,Drenthe,,Meppel
81.16.29.80,4,20,touregyptclub.com,NL,Europe,Western Europe,Netherlands,Drenthe,,Meppel
153.92.218.88,4,23,trafficflowpartners.com,NL,Europe,Western Europe,Netherlands,Drenthe,,Meppel
109.106.241.100,4,2,travreviews.com,NL,Europe,Western Europe,Netherlands,Drenthe,,Meppel
109.106.243.66,4,26,trendsfort.com,NL,Europe,Western Europe,Netherlands,Drenthe,,Meppel
153.92.216.11,4,30,trentofestival.it,NL,Europe,Western Europe,Netherlands,Drenthe,,Meppel
45.87.81.130,4,50,trimed.mk,NL,Europe,Western Europe,Netherlands,Drenthe,,Meppel
185.149.132.54,4,25,turnpike.net,NL,Europe,Western Europe,Netherlands,Drenthe,,Meppel
89.116.53.18,4,29,uaetranslation.ae,NL,Europe,Western Europe,Netherlands,Drenthe,,Meppel
77.37.83.241,4,6,unhappycars.com,NL,Europe,Western Europe,Netherlands,Drenthe,,Meppel
193.160.66.105,4,-2,unis.no,NL,Europe,Western Europe,Netherlands,Drenthe,,Meppel
109.106.245.173,4,10,unitedagainstracism.org,NL,Europe,Western Europe,Netherlands,Drenthe,,Meppel
185.224.138.30,4,2,usajobsindex.com,NL,Europe,Western Europe,Netherlands,Drenthe,,Meppel
212.107.17.195,4,0,v7n.com,NL,Europe,Western Europe,Netherlands,Drenthe,,Meppel
185.224.138.189,4,32,vanguardparaempresas.com,NL,Europe,Western Europe,Netherlands,Drenthe,,Meppel
37.1.219.97,4,2,vavepartners.com,NL,Europe,Western Europe,Netherlands,Drenthe,,Meppel
45.67.231.2,4,6,viagatop.us,NL,Europe,Western Europe,Netherlands,Drenthe,,Meppel
109.106.246.93,4,31,viruete.com,NL,Europe,Western Europe,Netherlands,Drenthe,,Meppel
37.1.220.242,4,2,visitkigezi.ug,NL,Europe,Western Europe,Netherlands,Drenthe,,Meppel
81.16.30.48,4,22,vivoli.it,NL,Europe,Western Europe,Netherlands,Drenthe,,Meppel
5.61.51.115,4,0,voody-online.com,NL,Europe,Western Europe,Netherlands,Drenthe,,Meppel
89.116.53.9,4,116,vrdays.co,NL,Europe,Western Europe,Netherlands,Drenthe,,Meppel
5.45.84.252,4,-2,vulkan-na-dengy.com,NL,Europe,Western Europe,Netherlands,Drenthe,,Meppel
191.96.63.115,4,17,waterpigs.co.uk,NL,Europe,Western Europe,Netherlands,Drenthe,,Meppel
145.14.151.204,4,-2,watpad.net,NL,Europe,Western Europe,Netherlands,Drenthe,,Meppel
109.106.246.61,4,3,waybinary.com,NL,Europe,Western Europe,Netherlands,Drenthe,,Meppel
185.238.170.166,4,4,web-tulun.ru,NL,Europe,Western Europe,Netherlands,Drenthe,,Meppel
80.92.206.112,4,28,webmoney.wiki,NL,Europe,Western Europe,Netherlands,Drenthe,,Meppel
37.1.220.74,4,-1,workathometruth.com,NL,Europe,Western Europe,Netherlands,Drenthe,,Meppel
194.5.156.97,4,46,xn--kpakrkortonline-8sbd.com,NL,Europe,Western Europe,Netherlands,Drenthe,,Meppel
89.116.53.241,4,-1,yeatsvision.com,NL,Europe,Western Europe,Netherlands,Drenthe,,Meppel
109.106.246.216,4,-1,youlangue.lu,NL,Europe,Western Europe,Netherlands,Drenthe,,Meppel
185.224.137.222,4,5,zabljak-hotels-montenegro.com,NL,Europe,Western Europe,Netherlands,Drenthe,,Meppel
5.45.79.100,4,221112,zonakulinara.ru,NL,Europe,Western Europe,Netherlands,Drenthe,,Meppel
